{
"type": "FeatureCollection",
"name": "pois",
"crs": { "type": "name", "properties": { "name": "urn:ogc:def:crs:OGC:1.3:CRS84" } },
"features": [
{ "type": "Feature", "properties": { "element": "node", "id": 3370094147, "amenity": "school", "name": "Casa de Bambeino Montessori", "addr:city": "nan", "addr:postcode": "nan", "addr:street": "nan", "healthcare": "nan", "phone": "nan", "website": "nan", "addr:housenumber": "nan", "name:en": "nan", "check_date": "nan", "name:kn": "nan", "addr:district": "nan", "addr:full": "nan", "addr:state": "nan", "addr:subdistrict": "nan", "email": "nan", "operator:type": "nan", "source": "nan", "healthcare:speciality": "nan", "description": "nan", "wheelchair": "nan", "emergency": "nan", "barrier": "nan", "leisure": "nan", "opening_hours": "nan", "name:etymology:wikidata": "nan", "building": "nan", "alt_name": "nan", "ref": "nan", "building:levels": "nan", "landuse": "nan", "access": "nan" }, "geometry": { "type": "Point", "coordinates": [ 77.6431739, 12.9780057 ] } },
{ "type": "Feature", "properties": { "element": "node", "id": 3370167135, "amenity": "school", "name": "DQ Labs", "addr:city": "nan", "addr:postcode": "nan", "addr:street": "nan", "healthcare": "nan", "phone": "nan", "website": "nan", "addr:housenumber": "nan", "name:en": "nan", "check_date": "nan", "name:kn": "nan", "addr:district": "nan", "addr:full": "nan", "addr:state": "nan", "addr:subdistrict": "nan", "email": "nan", "operator:type": "nan", "source": "nan", "healthcare:speciality": "nan", "description": "nan", "wheelchair": "nan", "emergency": "nan", "barrier": "nan", "leisure": "nan", "opening_hours": "nan", "name:etymology:wikidata": "nan", "building": "nan", "alt_name": "nan", "ref": "nan", "building:levels": "nan", "landuse": "nan", "access": "nan" }, "geometry": { "type": "Point", "coordinates": [ 77.6415863, 12.9737451 ] } },
{ "type": "Feature", "properties": { "element": "node", "id": 3556103531, "amenity": "hospital", "name": "ALDOS Medical Service Pvt LTD", "addr:city": "nan", "addr:postcode": "nan", "addr:street": "nan", "healthcare": "nan", "phone": "nan", "website": "nan", "addr:housenumber": "nan", "name:en": "nan", "check_date": "nan", "name:kn": "nan", "addr:district": "nan", "addr:full": "nan", "addr:state": "nan", "addr:subdistrict": "nan", "email": "nan", "operator:type": "nan", "source": "nan", "healthcare:speciality": "nan", "description": "nan", "wheelchair": "nan", "emergency": "nan", "barrier": "nan", "leisure": "nan", "opening_hours": "nan", "name:etymology:wikidata": "nan", "building": "nan", "alt_name": "nan", "ref": "nan", "building:levels": "nan", "landuse": "nan", "access": "nan" }, "geometry": { "type": "Point", "coordinates": [ 77.6381036, 12.9826672 ] } },
{ "type": "Feature", "properties": { "element": "node", "id": 4101616565, "amenity": "school", "name": "Rose of Sharon Nursery School", "addr:city": "nan", "addr:postcode": "nan", "addr:street": "nan", "healthcare": "nan", "phone": "nan", "website": "nan", "addr:housenumber": "nan", "name:en": "nan", "check_date": "nan", "name:kn": "nan", "addr:district": "nan", "addr:full": "nan", "addr:state": "nan", "addr:subdistrict": "nan", "email": "nan", "operator:type": "nan", "source": "nan", "healthcare:speciality": "nan", "description": "nan", "wheelchair": "nan", "emergency": "nan", "barrier": "nan", "leisure": "nan", "opening_hours": "nan", "name:etymology:wikidata": "nan", "building": "nan", "alt_name": "nan", "ref": "nan", "building:levels": "nan", "landuse": "nan", "access": "nan" }, "geometry": { "type": "Point", "coordinates": [ 77.6439187, 12.9790633 ] } },
{ "type": "Feature", "properties": { "element": "node", "id": 4101957726, "amenity": "school", "name": "Rakum school for blind", "addr:city": "nan", "addr:postcode": "nan", "addr:street": "nan", "healthcare": "nan", "phone": "nan", "website": "nan", "addr:housenumber": "nan", "name:en": "nan", "check_date": "nan", "name:kn": "nan", "addr:district": "nan", "addr:full": "nan", "addr:state": "nan", "addr:subdistrict": "nan", "email": "nan", "operator:type": "nan", "source": "nan", "healthcare:speciality": "nan", "description": "nan", "wheelchair": "nan", "emergency": "nan", "barrier": "nan", "leisure": "nan", "opening_hours": "nan", "name:etymology:wikidata": "nan", "building": "nan", "alt_name": "nan", "ref": "nan", "building:levels": "nan", "landuse": "nan", "access": "nan" }, "geometry": { "type": "Point", "coordinates": [ 77.6433912, 12.9792948 ] } },
{ "type": "Feature", "properties": { "element": "node", "id": 4445578787, "amenity": "hospital", "name": "Dr. Bhargavi Reddy Women & Children Hospital", "addr:city": "bangalore", "addr:postcode": "560075", "addr:street": "Indiranagar 80ft Road, New Thippasandra, Hal 3rd Stage, Via Indira Nagar 80ft Road", "healthcare": "hospital", "phone": "080 2525 6666", "website": "https://drbhargavireddyhospital.com", "addr:housenumber": "nan", "name:en": "nan", "check_date": "nan", "name:kn": "nan", "addr:district": "nan", "addr:full": "nan", "addr:state": "nan", "addr:subdistrict": "nan", "email": "nan", "operator:type": "nan", "source": "nan", "healthcare:speciality": "nan", "description": "nan", "wheelchair": "nan", "emergency": "nan", "barrier": "nan", "leisure": "nan", "opening_hours": "nan", "name:etymology:wikidata": "nan", "building": "nan", "alt_name": "nan", "ref": "nan", "building:levels": "nan", "landuse": "nan", "access": "nan" }, "geometry": { "type": "Point", "coordinates": [ 77.6470594, 12.975403 ] } },
{ "type": "Feature", "properties": { "element": "node", "id": 4445586944, "amenity": "hospital", "name": "Axon Speciality Hospital", "addr:city": "BENGALURU", "addr:postcode": "560038", "addr:street": "6th Main Road, HAL 2nd Stage, Indira Nagar", "healthcare": "hospital", "phone": "080 4334 6333", "website": "nan", "addr:housenumber": "321", "name:en": "nan", "check_date": "nan", "name:kn": "nan", "addr:district": "nan", "addr:full": "nan", "addr:state": "nan", "addr:subdistrict": "nan", "email": "nan", "operator:type": "nan", "source": "nan", "healthcare:speciality": "nan", "description": "nan", "wheelchair": "nan", "emergency": "nan", "barrier": "nan", "leisure": "nan", "opening_hours": "nan", "name:etymology:wikidata": "nan", "building": "nan", "alt_name": "nan", "ref": "nan", "building:levels": "nan", "landuse": "nan", "access": "nan" }, "geometry": { "type": "Point", "coordinates": [ 77.6460904, 12.973892 ] } },
{ "type": "Feature", "properties": { "element": "node", "id": 4512115990, "amenity": "school", "name": "Mother Mary English School", "addr:city": "nan", "addr:postcode": "nan", "addr:street": "nan", "healthcare": "nan", "phone": "nan", "website": "nan", "addr:housenumber": "nan", "name:en": "Mother Mary English School", "check_date": "nan", "name:kn": "nan", "addr:district": "nan", "addr:full": "nan", "addr:state": "nan", "addr:subdistrict": "nan", "email": "nan", "operator:type": "nan", "source": "nan", "healthcare:speciality": "nan", "description": "nan", "wheelchair": "nan", "emergency": "nan", "barrier": "nan", "leisure": "nan", "opening_hours": "nan", "name:etymology:wikidata": "nan", "building": "nan", "alt_name": "nan", "ref": "nan", "building:levels": "nan", "landuse": "nan", "access": "nan" }, "geometry": { "type": "Point", "coordinates": [ 77.652898, 12.9761276 ] } },
{ "type": "Feature", "properties": { "element": "node", "id": 4602997690, "amenity": "school", "name": "Government Primary School", "addr:city": "nan", "addr:postcode": "nan", "addr:street": "Rama Temple Road", "healthcare": "nan", "phone": "nan", "website": "nan", "addr:housenumber": "nan", "name:en": "Government Primary School", "check_date": "2024-11-23", "name:kn": "ಸರ್ಕಾರಿ ಪ್ರಾಥಮಿಕ ಶಾಲೆ", "addr:district": "nan", "addr:full": "nan", "addr:state": "nan", "addr:subdistrict": "nan", "email": "nan", "operator:type": "nan", "source": "nan", "healthcare:speciality": "nan", "description": "nan", "wheelchair": "nan", "emergency": "nan", "barrier": "nan", "leisure": "nan", "opening_hours": "nan", "name:etymology:wikidata": "nan", "building": "nan", "alt_name": "nan", "ref": "nan", "building:levels": "nan", "landuse": "nan", "access": "nan" }, "geometry": { "type": "Point", "coordinates": [ 77.6513232, 12.9741482 ] } },
{ "type": "Feature", "properties": { "element": "node", "id": 5193916611, "amenity": "school", "name": "Kinder Castle", "addr:city": "nan", "addr:postcode": "nan", "addr:street": "nan", "healthcare": "nan", "phone": "nan", "website": "nan", "addr:housenumber": "nan", "name:en": "nan", "check_date": "nan", "name:kn": "nan", "addr:district": "nan", "addr:full": "nan", "addr:state": "nan", "addr:subdistrict": "nan", "email": "nan", "operator:type": "nan", "source": "nan", "healthcare:speciality": "nan", "description": "nan", "wheelchair": "nan", "emergency": "nan", "barrier": "nan", "leisure": "nan", "opening_hours": "nan", "name:etymology:wikidata": "nan", "building": "nan", "alt_name": "nan", "ref": "nan", "building:levels": "nan", "landuse": "nan", "access": "nan" }, "geometry": { "type": "Point", "coordinates": [ 77.646499, 12.9771755 ] } },
{ "type": "Feature", "properties": { "element": "node", "id": 5248946022, "amenity": "school", "name": "Dhurii", "addr:city": "nan", "addr:postcode": "560075", "addr:street": "Jeevan Bhima Nagar 10th Main Road", "healthcare": "nan", "phone": "nan", "website": "nan", "addr:housenumber": "nan", "name:en": "nan", "check_date": "nan", "name:kn": "nan", "addr:district": "nan", "addr:full": "nan", "addr:state": "nan", "addr:subdistrict": "nan", "email": "nan", "operator:type": "nan", "source": "nan", "healthcare:speciality": "nan", "description": "nan", "wheelchair": "nan", "emergency": "nan", "barrier": "nan", "leisure": "nan", "opening_hours": "nan", "name:etymology:wikidata": "nan", "building": "nan", "alt_name": "nan", "ref": "nan", "building:levels": "nan", "landuse": "nan", "access": "nan" }, "geometry": { "type": "Point", "coordinates": [ 77.6483419, 12.9690381 ] } },
{ "type": "Feature", "properties": { "element": "node", "id": 5297145822, "amenity": "hospital", "name": "Nethradhama Superspeciality Eye Hospital", "addr:city": "nan", "addr:postcode": "560038", "addr:street": "nan", "healthcare": "hospital", "phone": "nan", "website": "https://www.nethradhama.org/", "addr:housenumber": "nan", "name:en": "nan", "check_date": "nan", "name:kn": "nan", "addr:district": "Bengaluru Urban", "addr:full": "# 66, Indiranagar Double Road, Hal 2nd Stage", "addr:state": "Karnataka", "addr:subdistrict": "Indiranagar", "email": "nhplindr@nethradhama.org", "operator:type": "private", "source": "OpenGovernmentData", "healthcare:speciality": "nan", "description": "nan", "wheelchair": "nan", "emergency": "nan", "barrier": "nan", "leisure": "nan", "opening_hours": "nan", "name:etymology:wikidata": "nan", "building": "nan", "alt_name": "nan", "ref": "nan", "building:levels": "nan", "landuse": "nan", "access": "nan" }, "geometry": { "type": "Point", "coordinates": [ 77.6474011, 12.9719805 ] } },
{ "type": "Feature", "properties": { "element": "node", "id": 6944707745, "amenity": "hospital", "name": "Chinmaya Narayana Super Specialty Centre", "addr:city": "nan", "addr:postcode": "560038", "addr:street": "nan", "healthcare": "nan", "phone": "nan", "website": "https://www.narayanahealth.org/", "addr:housenumber": "nan", "name:en": "nan", "check_date": "nan", "name:kn": "nan", "addr:district": "Bengaluru Urban", "addr:full": "C.M.H.Road, Indiranagar, 2nd Stage", "addr:state": "Karnataka", "addr:subdistrict": "Indiranagar", "email": "info.cnh@nhhospitals.org", "operator:type": "private", "source": "OpenGovernmentData", "healthcare:speciality": "multi speciality", "description": "nan", "wheelchair": "nan", "emergency": "nan", "barrier": "nan", "leisure": "nan", "opening_hours": "nan", "name:etymology:wikidata": "nan", "building": "nan", "alt_name": "nan", "ref": "nan", "building:levels": "nan", "landuse": "nan", "access": "nan" }, "geometry": { "type": "Point", "coordinates": [ 77.6459773, 12.9777106 ] } },
{ "type": "Feature", "properties": { "element": "node", "id": 7976310624, "amenity": "hospital", "name": "Chinmaya Hrudayalaya", "addr:city": "nan", "addr:postcode": "nan", "addr:street": "nan", "healthcare": "nan", "phone": "nan", "website": "nan", "addr:housenumber": "nan", "name:en": "nan", "check_date": "nan", "name:kn": "ಚಿನ್ಮಯ ಹೃದಯಲಯ", "addr:district": "nan", "addr:full": "nan", "addr:state": "nan", "addr:subdistrict": "nan", "email": "nan", "operator:type": "nan", "source": "nan", "healthcare:speciality": "nan", "description": "Cardiac speciality", "wheelchair": "nan", "emergency": "nan", "barrier": "nan", "leisure": "nan", "opening_hours": "nan", "name:etymology:wikidata": "nan", "building": "nan", "alt_name": "nan", "ref": "nan", "building:levels": "nan", "landuse": "nan", "access": "nan" }, "geometry": { "type": "Point", "coordinates": [ 77.6459447, 12.9778121 ] } },
{ "type": "Feature", "properties": { "element": "node", "id": 11272209797, "amenity": "hospital", "name": "Ayaans Hospital", "addr:city": "nan", "addr:postcode": "nan", "addr:street": "nan", "healthcare": "hospital", "phone": "nan", "website": "nan", "addr:housenumber": "nan", "name:en": "nan", "check_date": "2023-10-18", "name:kn": "nan", "addr:district": "nan", "addr:full": "nan", "addr:state": "nan", "addr:subdistrict": "nan", "email": "nan", "operator:type": "nan", "source": "nan", "healthcare:speciality": "gynaecology", "description": "nan", "wheelchair": "yes", "emergency": "nan", "barrier": "nan", "leisure": "nan", "opening_hours": "nan", "name:etymology:wikidata": "nan", "building": "nan", "alt_name": "nan", "ref": "nan", "building:levels": "nan", "landuse": "nan", "access": "nan" }, "geometry": { "type": "Point", "coordinates": [ 77.6435889, 12.9782618 ] } },
{ "type": "Feature", "properties": { "element": "node", "id": 12099096295, "amenity": "school", "name": "Oxford English High School", "addr:city": "Bangalore", "addr:postcode": "560075", "addr:street": "Church Main Road, HAL 3rd Stage, Bhoomi Reddy Colony, New Tippasandra, Bengaluru, Karnataka 560075", "healthcare": "nan", "phone": "nan", "website": "nan", "addr:housenumber": "32", "name:en": "nan", "check_date": "nan", "name:kn": "nan", "addr:district": "nan", "addr:full": "nan", "addr:state": "nan", "addr:subdistrict": "nan", "email": "nan", "operator:type": "nan", "source": "nan", "healthcare:speciality": "nan", "description": "nan", "wheelchair": "nan", "emergency": "nan", "barrier": "nan", "leisure": "nan", "opening_hours": "nan", "name:etymology:wikidata": "nan", "building": "nan", "alt_name": "nan", "ref": "nan", "building:levels": "nan", "landuse": "nan", "access": "nan" }, "geometry": { "type": "Point", "coordinates": [ 77.6520407, 12.9758932 ] } },
{ "type": "Feature", "properties": { "element": "way", "id": 35133587, "amenity": "hospital", "name": "Chinmaya Mission Hospital", "addr:city": "nan", "addr:postcode": "nan", "addr:street": "nan", "healthcare": "hospital", "phone": "+91 80 2502 6100", "website": "https://www.chinmayamission.com/what-we-do/institutes/chinmaya-mission-hospital-chinmaya-mission-of-nursing/", "addr:housenumber": "nan", "name:en": "nan", "check_date": "nan", "name:kn": "ಚಿನ್ಮಯ ಮಿಷನ್ ಆಸ್ಪತ್ರೆ", "addr:district": "nan", "addr:full": "nan", "addr:state": "nan", "addr:subdistrict": "nan", "email": "nan", "operator:type": "nan", "source": "nan", "healthcare:speciality": "nan", "description": "nan", "wheelchair": "yes", "emergency": "yes", "barrier": "nan", "leisure": "nan", "opening_hours": "nan", "name:etymology:wikidata": "nan", "building": "nan", "alt_name": "nan", "ref": "nan", "building:levels": "nan", "landuse": "nan", "access": "nan" }, "geometry": { "type": "Point", "coordinates": [ 77.646189236399451, 12.977935347029113 ] } },
{ "type": "Feature", "properties": { "element": "way", "id": 36327876, "amenity": "nan", "name": "Defence Colony Park", "addr:city": "nan", "addr:postcode": "nan", "addr:street": "nan", "healthcare": "nan", "phone": "nan", "website": "nan", "addr:housenumber": "nan", "name:en": "nan", "check_date": "nan", "name:kn": "ಡಿಫೆನ್ಸ್ ಕಾಲೋನಿ ಉದ್ಯಾನವನ", "addr:district": "nan", "addr:full": "nan", "addr:state": "nan", "addr:subdistrict": "nan", "email": "nan", "operator:type": "nan", "source": "nan", "healthcare:speciality": "nan", "description": "nan", "wheelchair": "nan", "emergency": "nan", "barrier": "fence", "leisure": "park", "opening_hours": "06:00-12:00,15:00-20:00", "name:etymology:wikidata": "nan", "building": "nan", "alt_name": "nan", "ref": "nan", "building:levels": "nan", "landuse": "nan", "access": "nan" }, "geometry": { "type": "Point", "coordinates": [ 77.644522660123201, 12.976325343127074 ] } },
{ "type": "Feature", "properties": { "element": "way", "id": 41499025, "amenity": "school", "name": "Spastics Society of Karnataka", "addr:city": "Indira Nagar, Bangalore", "addr:postcode": "nan", "addr:street": "100 Feet Road", "healthcare": "nan", "phone": "nan", "website": "nan", "addr:housenumber": "nan", "name:en": "nan", "check_date": "nan", "name:kn": "nan", "addr:district": "nan", "addr:full": "nan", "addr:state": "nan", "addr:subdistrict": "nan", "email": "nan", "operator:type": "nan", "source": "nan", "healthcare:speciality": "nan", "description": "nan", "wheelchair": "nan", "emergency": "nan", "barrier": "nan", "leisure": "nan", "opening_hours": "nan", "name:etymology:wikidata": "nan", "building": "nan", "alt_name": "nan", "ref": "nan", "building:levels": "nan", "landuse": "nan", "access": "nan" }, "geometry": { "type": "Point", "coordinates": [ 77.642445474984854, 12.980817382659227 ] } },
{ "type": "Feature", "properties": { "element": "way", "id": 118926926, "amenity": "nan", "name": "Visvesvaraya Park", "addr:city": "nan", "addr:postcode": "nan", "addr:street": "nan", "healthcare": "nan", "phone": "nan", "website": "nan", "addr:housenumber": "nan", "name:en": "nan", "check_date": "nan", "name:kn": "ವಿಶ್ವೇಶ್ವರಯ್ಯ ಉದ್ಯಾನವನ", "addr:district": "nan", "addr:full": "nan", "addr:state": "nan", "addr:subdistrict": "nan", "email": "nan", "operator:type": "nan", "source": "nan", "healthcare:speciality": "nan", "description": "nan", "wheelchair": "nan", "emergency": "nan", "barrier": "fence", "leisure": "park", "opening_hours": "05:30-09:30,17:30-20:00", "name:etymology:wikidata": "Q741700", "building": "nan", "alt_name": "nan", "ref": "nan", "building:levels": "nan", "landuse": "nan", "access": "nan" }, "geometry": { "type": "Point", "coordinates": [ 77.650599107232438, 12.970594638050992 ] } },
{ "type": "Feature", "properties": { "element": "way", "id": 119132968, "amenity": "nan", "name": "Gandhiji Park", "addr:city": "nan", "addr:postcode": "nan", "addr:street": "nan", "healthcare": "nan", "phone": "nan", "website": "nan", "addr:housenumber": "nan", "name:en": "nan", "check_date": "nan", "name:kn": "ಗಾಂಧಿ ಉದ್ಯಾನವನ", "addr:district": "nan", "addr:full": "nan", "addr:state": "nan", "addr:subdistrict": "nan", "email": "nan", "operator:type": "nan", "source": "nan", "healthcare:speciality": "nan", "description": "nan", "wheelchair": "nan", "emergency": "nan", "barrier": "nan", "leisure": "park", "opening_hours": "nan", "name:etymology:wikidata": "Q1001", "building": "nan", "alt_name": "nan", "ref": "nan", "building:levels": "nan", "landuse": "nan", "access": "nan" }, "geometry": { "type": "Point", "coordinates": [ 77.649264891094901, 12.96943789975999 ] } },
{ "type": "Feature", "properties": { "element": "way", "id": 135266042, "amenity": "hospital", "name": "Indiranagar Government Hospital", "addr:city": "nan", "addr:postcode": "nan", "addr:street": "nan", "healthcare": "hospital", "phone": "nan", "website": "nan", "addr:housenumber": "nan", "name:en": "nan", "check_date": "nan", "name:kn": "ಇಂದಿರಾನಗರ ಸರ್ಕಾರಿ ಆಸ್ಪತ್ರೆ", "addr:district": "nan", "addr:full": "nan", "addr:state": "nan", "addr:subdistrict": "nan", "email": "nan", "operator:type": "nan", "source": "nan", "healthcare:speciality": "nan", "description": "nan", "wheelchair": "nan", "emergency": "nan", "barrier": "nan", "leisure": "nan", "opening_hours": "nan", "name:etymology:wikidata": "nan", "building": "nan", "alt_name": "nan", "ref": "nan", "building:levels": "nan", "landuse": "nan", "access": "nan" }, "geometry": { "type": "Point", "coordinates": [ 77.644729097802497, 12.982929414219127 ] } },
{ "type": "Feature", "properties": { "element": "way", "id": 135266054, "amenity": "school", "name": "Fusco's School", "addr:city": "nan", "addr:postcode": "nan", "addr:street": "nan", "healthcare": "nan", "phone": "nan", "website": "nan", "addr:housenumber": "nan", "name:en": "nan", "check_date": "nan", "name:kn": "ಫೊಸ್ಕೊಸ್ ಶಾಲೆ", "addr:district": "nan", "addr:full": "nan", "addr:state": "nan", "addr:subdistrict": "nan", "email": "nan", "operator:type": "nan", "source": "nan", "healthcare:speciality": "nan", "description": "nan", "wheelchair": "nan", "emergency": "nan", "barrier": "nan", "leisure": "nan", "opening_hours": "nan", "name:etymology:wikidata": "nan", "building": "nan", "alt_name": "nan", "ref": "nan", "building:levels": "nan", "landuse": "nan", "access": "nan" }, "geometry": { "type": "Point", "coordinates": [ 77.647609648706506, 12.985788263901405 ] } },
{ "type": "Feature", "properties": { "element": "way", "id": 135266057, "amenity": "hospital", "name": "Isolation Hospital", "addr:city": "nan", "addr:postcode": "nan", "addr:street": "nan", "healthcare": "hospital", "phone": "nan", "website": "nan", "addr:housenumber": "nan", "name:en": "nan", "check_date": "nan", "name:kn": "ಐಸೊಲೇಶನ್ ಆಸ್ಪತ್ರೆ", "addr:district": "nan", "addr:full": "nan", "addr:state": "nan", "addr:subdistrict": "nan", "email": "nan", "operator:type": "nan", "source": "nan", "healthcare:speciality": "nan", "description": "nan", "wheelchair": "nan", "emergency": "nan", "barrier": "nan", "leisure": "nan", "opening_hours": "nan", "name:etymology:wikidata": "nan", "building": "nan", "alt_name": "nan", "ref": "nan", "building:levels": "nan", "landuse": "nan", "access": "nan" }, "geometry": { "type": "Point", "coordinates": [ 77.643479603145764, 12.983923244396937 ] } },
{ "type": "Feature", "properties": { "element": "way", "id": 309936964, "amenity": "nan", "name": "BM Kaval Childrens Park", "addr:city": "nan", "addr:postcode": "nan", "addr:street": "nan", "healthcare": "nan", "phone": "nan", "website": "nan", "addr:housenumber": "nan", "name:en": "nan", "check_date": "nan", "name:kn": "nan", "addr:district": "nan", "addr:full": "nan", "addr:state": "nan", "addr:subdistrict": "nan", "email": "nan", "operator:type": "nan", "source": "nan", "healthcare:speciality": "nan", "description": "New Thrippasandra , word number 58", "wheelchair": "nan", "emergency": "nan", "barrier": "nan", "leisure": "park", "opening_hours": "nan", "name:etymology:wikidata": "nan", "building": "nan", "alt_name": "nan", "ref": "nan", "building:levels": "nan", "landuse": "nan", "access": "nan" }, "geometry": { "type": "Point", "coordinates": [ 77.647739500074024, 12.981101666069991 ] } },
{ "type": "Feature", "properties": { "element": "way", "id": 331330194, "amenity": "school", "name": "Rhythms Institute of Fine Arts", "addr:city": "nan", "addr:postcode": "nan", "addr:street": "nan", "healthcare": "nan", "phone": "nan", "website": "nan", "addr:housenumber": "278", "name:en": "nan", "check_date": "nan", "name:kn": "nan", "addr:district": "nan", "addr:full": "nan", "addr:state": "nan", "addr:subdistrict": "nan", "email": "nan", "operator:type": "nan", "source": "nan", "healthcare:speciality": "nan", "description": "nan", "wheelchair": "nan", "emergency": "nan", "barrier": "nan", "leisure": "nan", "opening_hours": "nan", "name:etymology:wikidata": "nan", "building": "yes", "alt_name": "nan", "ref": "nan", "building:levels": "nan", "landuse": "nan", "access": "nan" }, "geometry": { "type": "Point", "coordinates": [ 77.64030292656949, 12.980089705320768 ] } },
{ "type": "Feature", "properties": { "element": "way", "id": 331683238, "amenity": "school", "name": "Resurrection School", "addr:city": "nan", "addr:postcode": "nan", "addr:street": "nan", "healthcare": "nan", "phone": "nan", "website": "nan", "addr:housenumber": "nan", "name:en": "nan", "check_date": "nan", "name:kn": "nan", "addr:district": "nan", "addr:full": "nan", "addr:state": "nan", "addr:subdistrict": "nan", "email": "nan", "operator:type": "nan", "source": "nan", "healthcare:speciality": "nan", "description": "nan", "wheelchair": "nan", "emergency": "nan", "barrier": "nan", "leisure": "nan", "opening_hours": "nan", "name:etymology:wikidata": "nan", "building": "nan", "alt_name": "nan", "ref": "nan", "building:levels": "nan", "landuse": "nan", "access": "nan" }, "geometry": { "type": "Point", "coordinates": [ 77.644526568348482, 12.981956445971894 ] } },
{ "type": "Feature", "properties": { "element": "way", "id": 343842758, "amenity": "nan", "name": "Defence Colony Childrens Park", "addr:city": "nan", "addr:postcode": "nan", "addr:street": "nan", "healthcare": "nan", "phone": "nan", "website": "nan", "addr:housenumber": "nan", "name:en": "nan", "check_date": "nan", "name:kn": "nan", "addr:district": "nan", "addr:full": "nan", "addr:state": "nan", "addr:subdistrict": "nan", "email": "nan", "operator:type": "nan", "source": "nan", "healthcare:speciality": "nan", "description": "nan", "wheelchair": "nan", "emergency": "nan", "barrier": "fence", "leisure": "park", "opening_hours": "08:00-12:00,15:00-19:00", "name:etymology:wikidata": "nan", "building": "nan", "alt_name": "nan", "ref": "nan", "building:levels": "nan", "landuse": "nan", "access": "nan" }, "geometry": { "type": "Point", "coordinates": [ 77.644901293622723, 12.975445596653028 ] } },
{ "type": "Feature", "properties": { "element": "way", "id": 343842760, "amenity": "nan", "name": "Indiranagar Park", "addr:city": "nan", "addr:postcode": "nan", "addr:street": "nan", "healthcare": "nan", "phone": "nan", "website": "nan", "addr:housenumber": "nan", "name:en": "nan", "check_date": "nan", "name:kn": "ಇಂದಿರಾನಗರ ಉದ್ಯಾನವನ", "addr:district": "nan", "addr:full": "nan", "addr:state": "nan", "addr:subdistrict": "nan", "email": "nan", "operator:type": "nan", "source": "nan", "healthcare:speciality": "nan", "description": "nan", "wheelchair": "nan", "emergency": "nan", "barrier": "nan", "leisure": "park", "opening_hours": "05:30-09:45,16:00-20:00", "name:etymology:wikidata": "nan", "building": "nan", "alt_name": "nan", "ref": "nan", "building:levels": "nan", "landuse": "nan", "access": "nan" }, "geometry": { "type": "Point", "coordinates": [ 77.644105509553867, 12.971271451486807 ] } },
{ "type": "Feature", "properties": { "element": "way", "id": 343842765, "amenity": "nan", "name": "Senior Citizens Park", "addr:city": "nan", "addr:postcode": "nan", "addr:street": "nan", "healthcare": "nan", "phone": "nan", "website": "nan", "addr:housenumber": "nan", "name:en": "nan", "check_date": "nan", "name:kn": "nan", "addr:district": "nan", "addr:full": "nan", "addr:state": "nan", "addr:subdistrict": "nan", "email": "nan", "operator:type": "nan", "source": "nan", "healthcare:speciality": "nan", "description": "nan", "wheelchair": "nan", "emergency": "nan", "barrier": "nan", "leisure": "park", "opening_hours": "nan", "name:etymology:wikidata": "nan", "building": "nan", "alt_name": "nan", "ref": "nan", "building:levels": "nan", "landuse": "nan", "access": "nan" }, "geometry": { "type": "Point", "coordinates": [ 77.643879276699707, 12.974917809281045 ] } },
{ "type": "Feature", "properties": { "element": "way", "id": 347117994, "amenity": "school", "name": "Sarkari Hiriya Prarthmik Shale", "addr:city": "nan", "addr:postcode": "nan", "addr:street": "nan", "healthcare": "nan", "phone": "nan", "website": "nan", "addr:housenumber": "24", "name:en": "nan", "check_date": "nan", "name:kn": "ಸರ್ಕಾರಿ ಹಿರಿಯ ಪ್ರಾಥಮಿಕ ಶಾಲೆ", "addr:district": "nan", "addr:full": "nan", "addr:state": "nan", "addr:subdistrict": "nan", "email": "nan", "operator:type": "nan", "source": "nan", "healthcare:speciality": "nan", "description": "nan", "wheelchair": "nan", "emergency": "nan", "barrier": "nan", "leisure": "nan", "opening_hours": "nan", "name:etymology:wikidata": "nan", "building": "nan", "alt_name": "nan", "ref": "nan", "building:levels": "nan", "landuse": "nan", "access": "nan" }, "geometry": { "type": "Point", "coordinates": [ 77.643153667755158, 12.98165116671365 ] } },
{ "type": "Feature", "properties": { "element": "way", "id": 347120731, "amenity": "hospital", "name": "MS Diabetes Speciality Center", "addr:city": "nan", "addr:postcode": "nan", "addr:street": "nan", "healthcare": "hospital", "phone": "nan", "website": "nan", "addr:housenumber": "nan", "name:en": "nan", "check_date": "nan", "name:kn": "nan", "addr:district": "nan", "addr:full": "nan", "addr:state": "nan", "addr:subdistrict": "nan", "email": "nan", "operator:type": "nan", "source": "nan", "healthcare:speciality": "nan", "description": "nan", "wheelchair": "nan", "emergency": "nan", "barrier": "nan", "leisure": "nan", "opening_hours": "nan", "name:etymology:wikidata": "nan", "building": "yes", "alt_name": "nan", "ref": "nan", "building:levels": "nan", "landuse": "nan", "access": "nan" }, "geometry": { "type": "Point", "coordinates": [ 77.646012069997155, 12.980710854971335 ] } },
{ "type": "Feature", "properties": { "element": "way", "id": 362931600, "amenity": "nan", "name": "BM Kaval Park", "addr:city": "nan", "addr:postcode": "nan", "addr:street": "nan", "healthcare": "nan", "phone": "nan", "website": "nan", "addr:housenumber": "nan", "name:en": "nan", "check_date": "nan", "name:kn": "nan", "addr:district": "nan", "addr:full": "nan", "addr:state": "nan", "addr:subdistrict": "nan", "email": "nan", "operator:type": "nan", "source": "nan", "healthcare:speciality": "nan", "description": "nan", "wheelchair": "nan", "emergency": "nan", "barrier": "nan", "leisure": "park", "opening_hours": "nan", "name:etymology:wikidata": "nan", "building": "nan", "alt_name": "nan", "ref": "nan", "building:levels": "nan", "landuse": "nan", "access": "nan" }, "geometry": { "type": "Point", "coordinates": [ 77.64477915509643, 12.980496443927459 ] } },
{ "type": "Feature", "properties": { "element": "way", "id": 368722865, "amenity": "nan", "name": "Swami Vivekananda Park", "addr:city": "nan", "addr:postcode": "nan", "addr:street": "nan", "healthcare": "nan", "phone": "nan", "website": "nan", "addr:housenumber": "nan", "name:en": "nan", "check_date": "nan", "name:kn": "ಸ್ವಾಮಿ ವಿವೇಕನಂದ ಉದ್ಯಾನವನ", "addr:district": "nan", "addr:full": "nan", "addr:state": "nan", "addr:subdistrict": "nan", "email": "nan", "operator:type": "nan", "source": "nan", "healthcare:speciality": "nan", "description": "nan", "wheelchair": "nan", "emergency": "nan", "barrier": "nan", "leisure": "park", "opening_hours": "nan", "name:etymology:wikidata": "Q47478", "building": "nan", "alt_name": "Cornerstone BBMP Park", "ref": "106", "building:levels": "nan", "landuse": "nan", "access": "nan" }, "geometry": { "type": "Point", "coordinates": [ 77.641272298478668, 12.978006832576563 ] } },
{ "type": "Feature", "properties": { "element": "way", "id": 368769672, "amenity": "school", "name": "Silicon City Public School", "addr:city": "nan", "addr:postcode": "nan", "addr:street": "nan", "healthcare": "nan", "phone": "nan", "website": "nan", "addr:housenumber": "nan", "name:en": "nan", "check_date": "nan", "name:kn": "nan", "addr:district": "nan", "addr:full": "nan", "addr:state": "nan", "addr:subdistrict": "nan", "email": "nan", "operator:type": "nan", "source": "nan", "healthcare:speciality": "nan", "description": "nan", "wheelchair": "nan", "emergency": "nan", "barrier": "nan", "leisure": "nan", "opening_hours": "nan", "name:etymology:wikidata": "nan", "building": "nan", "alt_name": "nan", "ref": "nan", "building:levels": "nan", "landuse": "nan", "access": "nan" }, "geometry": { "type": "Point", "coordinates": [ 77.641490998680453, 12.981603175929074 ] } },
{ "type": "Feature", "properties": { "element": "way", "id": 368772813, "amenity": "school", "name": "Hamsadhwani School for Hearing Impaired", "addr:city": "nan", "addr:postcode": "nan", "addr:street": "nan", "healthcare": "nan", "phone": "nan", "website": "nan", "addr:housenumber": "nan", "name:en": "nan", "check_date": "nan", "name:kn": "ಹಂಸಧ್ವನಿ ಶಾಲೆ", "addr:district": "nan", "addr:full": "nan", "addr:state": "nan", "addr:subdistrict": "nan", "email": "nan", "operator:type": "nan", "source": "nan", "healthcare:speciality": "nan", "description": "nan", "wheelchair": "nan", "emergency": "nan", "barrier": "nan", "leisure": "nan", "opening_hours": "nan", "name:etymology:wikidata": "nan", "building": "nan", "alt_name": "nan", "ref": "nan", "building:levels": "nan", "landuse": "nan", "access": "nan" }, "geometry": { "type": "Point", "coordinates": [ 77.642819647389288, 12.980078398178055 ] } },
{ "type": "Feature", "properties": { "element": "way", "id": 408152820, "amenity": "nan", "name": "nan", "addr:city": "nan", "addr:postcode": "nan", "addr:street": "nan", "healthcare": "nan", "phone": "nan", "website": "nan", "addr:housenumber": "nan", "name:en": "nan", "check_date": "nan", "name:kn": "nan", "addr:district": "nan", "addr:full": "nan", "addr:state": "nan", "addr:subdistrict": "nan", "email": "nan", "operator:type": "nan", "source": "nan", "healthcare:speciality": "nan", "description": "nan", "wheelchair": "nan", "emergency": "nan", "barrier": "nan", "leisure": "park", "opening_hours": "nan", "name:etymology:wikidata": "nan", "building": "nan", "alt_name": "nan", "ref": "nan", "building:levels": "nan", "landuse": "nan", "access": "nan" }, "geometry": { "type": "Point", "coordinates": [ 77.642858049932926, 12.978972612390947 ] } },
{ "type": "Feature", "properties": { "element": "way", "id": 535587224, "amenity": "hospital", "name": "Life Hospital", "addr:city": "nan", "addr:postcode": "nan", "addr:street": "nan", "healthcare": "hospital", "phone": "nan", "website": "nan", "addr:housenumber": "nan", "name:en": "nan", "check_date": "nan", "name:kn": "nan", "addr:district": "nan", "addr:full": "nan", "addr:state": "nan", "addr:subdistrict": "nan", "email": "nan", "operator:type": "nan", "source": "nan", "healthcare:speciality": "nan", "description": "nan", "wheelchair": "nan", "emergency": "nan", "barrier": "nan", "leisure": "nan", "opening_hours": "nan", "name:etymology:wikidata": "nan", "building": "yes", "alt_name": "nan", "ref": "nan", "building:levels": "6", "landuse": "nan", "access": "nan" }, "geometry": { "type": "Point", "coordinates": [ 77.647061400004119, 12.975617700013894 ] } },
{ "type": "Feature", "properties": { "element": "way", "id": 1140754015, "amenity": "school", "name": "Miranda Group Of Institutions", "addr:city": "nan", "addr:postcode": "nan", "addr:street": "nan", "healthcare": "nan", "phone": "nan", "website": "nan", "addr:housenumber": "nan", "name:en": "nan", "check_date": "nan", "name:kn": "nan", "addr:district": "nan", "addr:full": "nan", "addr:state": "nan", "addr:subdistrict": "nan", "email": "nan", "operator:type": "nan", "source": "nan", "healthcare:speciality": "nan", "description": "nan", "wheelchair": "nan", "emergency": "nan", "barrier": "nan", "leisure": "nan", "opening_hours": "nan", "name:etymology:wikidata": "nan", "building": "nan", "alt_name": "nan", "ref": "nan", "building:levels": "nan", "landuse": "education", "access": "nan" }, "geometry": { "type": "Point", "coordinates": [ 77.650402172272834, 12.96890099147325 ] } },
{ "type": "Feature", "properties": { "element": "way", "id": 1332565025, "amenity": "school", "name": "nan", "addr:city": "nan", "addr:postcode": "nan", "addr:street": "nan", "healthcare": "nan", "phone": "nan", "website": "nan", "addr:housenumber": "nan", "name:en": "nan", "check_date": "nan", "name:kn": "nan", "addr:district": "nan", "addr:full": "nan", "addr:state": "nan", "addr:subdistrict": "nan", "email": "nan", "operator:type": "nan", "source": "nan", "healthcare:speciality": "nan", "description": "nan", "wheelchair": "nan", "emergency": "nan", "barrier": "nan", "leisure": "nan", "opening_hours": "nan", "name:etymology:wikidata": "nan", "building": "nan", "alt_name": "nan", "ref": "nan", "building:levels": "nan", "landuse": "education", "access": "nan" }, "geometry": { "type": "Point", "coordinates": [ 77.650606394875979, 12.969626339530523 ] } },
{ "type": "Feature", "properties": { "element": "way", "id": 1332601534, "amenity": "nan", "name": "nan", "addr:city": "nan", "addr:postcode": "nan", "addr:street": "nan", "healthcare": "nan", "phone": "nan", "website": "nan", "addr:housenumber": "nan", "name:en": "nan", "check_date": "nan", "name:kn": "nan", "addr:district": "nan", "addr:full": "nan", "addr:state": "nan", "addr:subdistrict": "nan", "email": "nan", "operator:type": "nan", "source": "nan", "healthcare:speciality": "nan", "description": "nan", "wheelchair": "nan", "emergency": "nan", "barrier": "nan", "leisure": "park", "opening_hours": "nan", "name:etymology:wikidata": "nan", "building": "nan", "alt_name": "nan", "ref": "nan", "building:levels": "nan", "landuse": "nan", "access": "private" }, "geometry": { "type": "Point", "coordinates": [ 77.650928048182735, 12.976351901341465 ] } }
]
}
