{
  "area_name": "5th Block",
  "osm_id": 11594317106,
  "osm_type": "node",
  "place_type": "neighbourhood",
  "amenity_count": 34,
  "amenities": [
    {
      "type": "node",
      "id": 4943793479,
      "lat": 12.9525754,
      "lon": 77.4841046,
      "tags": {
        "shop": "bakery"
      }
    },
    {
      "type": "node",
      "id": 7202935821,
      "lat": 12.9629127,
      "lon": 77.4751834,
      "tags": {
        "addr:district": "Bangalore",
        "addr:full": "Sir M Vishweshwaraiah Layout 6th Block, Ullal Uppanagar",
        "addr:postcode": "560056",
        "addr:state": "Karnataka",
        "addr:subdistrict": "Bangalore North",
        "amenity": "hospital",
        "name": "Ullalu Government Hospital",
        "source": "OpenGovernmentData"
      }
    },
    {
      "type": "node",
      "id": 11536084641,
      "lat": 12.9592695,
      "lon": 77.482792,
      "tags": {
        "amenity": "shelter",
        "shelter_type": "gazebo"
      }
    },
    {
      "type": "node",
      "id": 11536084642,
      "lat": 12.9594138,
      "lon": 77.4808374,
      "tags": {
        "amenity": "shelter",
        "shelter_type": "gazebo"
      }
    },
    {
      "type": "node",
      "id": 12087202259,
      "lat": 12.9609896,
      "lon": 77.4879289,
      "tags": {
        "amenity": "bank",
        "atm": "yes",
        "brand": "Canara Bank",
        "brand:wikidata": "Q2003777",
        "brand:wikipedia": "en:Canara Bank",
        "drive_through": "no",
        "name": "Canara Bank",
        "opening_hours": "Mo-Sa 10:00-16:00",
        "phone": "1800 1030",
        "survey:date": "2024-08-01",
        "website": "https://canarabank.com/"
      }
    },
    {
      "type": "node",
      "id": 12087229010,
      "lat": 12.9606513,
      "lon": 77.4880845,
      "tags": {
        "name": "All Season Market",
        "opening_hours": "07:00-22:00",
        "shop": "supermarket",
        "survey:date": "2024-08-01"
      }
    },
    {
      "type": "node",
      "id": 12087229011,
      "lat": 12.9580734,
      "lon": 77.4875539,
      "tags": {
        "amenity": "restaurant",
        "name": "Soda Factory",
        "opening_hours": "Mo-Sa 11:30-01:00",
        "phone": "+91 97394 77877",
        "survey:date": "2024-08-01",
        "website": "https://thesodafactory.in/"
      }
    },
    {
      "type": "node",
      "id": 12089402755,
      "lat": 12.9525606,
      "lon": 77.477533,
      "tags": {
        "amenity": "fuel",
        "fuel:diesel": "yes",
        "fuel:petrol": "yes",
        "name": "Dream Fuel Junction",
        "opening_hours": "06:00-23:00",
        "survey:date": "2024-08-03"
      }
    },
    {
      "type": "node",
      "id": 12089402756,
      "lat": 12.9683857,
      "lon": 77.4818304,
      "tags": {
        "amenity": "college",
        "name": "KLE Law College",
        "survey:date": "2024-08-03",
        "website": "https://www.klelawcollege.org/"
      }
    },
    {
      "type": "node",
      "id": 12089402757,
      "lat": 12.9682598,
      "lon": 77.4811488,
      "tags": {
        "amenity": "fuel",
        "name": "Pali Fuel - Bharat Petroleum",
        "survey:date": "2024-08-03"
      }
    },
    {
      "type": "node",
      "id": 12089402758,
      "lat": 12.9515993,
      "lon": 77.4845912,
      "tags": {
        "amenity": "fuel",
        "brand": "Indian Oil",
        "brand:wikidata": "Q1289348",
        "brand:wikipedia": "en:Indian Oil Corporation",
        "name": "Indian Oil",
        "opening_hours": "05:30-22:30",
        "phone": "+91 94482 76566",
        "self_service": "no",
        "survey:date": "2024-08-03"
      }
    },
    {
      "type": "node",
      "id": 12089426446,
      "lat": 12.9543846,
      "lon": 77.4809848,
      "tags": {
        "amenity": "place_of_worship",
        "name": "Veera Anjaneya Swamy Temple",
        "religion": "hindu",
        "survey:date": "2024-08-03"
      }
    },
    {
      "type": "node",
      "id": 12089426447,
      "lat": 12.9542442,
      "lon": 77.4798007,
      "tags": {
        "amenity": "events_venue",
        "name": "Kodagu Gowda Samaja",
        "phone": "+91 80882 01592",
        "survey:date": "2024-08-03"
      }
    },
    {
      "type": "node",
      "id": 12089426448,
      "lat": 12.9564191,
      "lon": 77.4790448,
      "tags": {
        "amenity": "fuel",
        "brand": "Indian Oil",
        "brand:wikidata": "Q1289348",
        "brand:wikipedia": "en:Indian Oil Corporation",
        "name": "Indian Oil",
        "opening_hours": "05:00-22:00",
        "survey:date": "2024-08-03"
      }
    },
    {
      "type": "way",
      "id": 330321125,
      "center": {
        "lat": 12.9515827,
        "lon": 77.4876548
      },
      "tags": {
        "amenity": "school",
        "name": "Vidyanikethan Public School",
        "name:kn": "ವಿದ್ಯಾನಿಕೇತನ ಶಾಲೆ"
      }
    },
    {
      "type": "way",
      "id": 350050412,
      "center": {
        "lat": 12.9593269,
        "lon": 77.4859416
      },
      "tags": {
        "amenity": "place_of_worship",
        "building": "yes",
        "religion": "hindu"
      }
    },
    {
      "type": "way",
      "id": 362916463,
      "center": {
        "lat": 12.9524677,
        "lon": 77.4798968
      },
      "tags": {
        "leisure": "park",
        "name": "Vishveshwaraiah Layout 5th Block Park"
      }
    },
    {
      "type": "way",
      "id": 1241557219,
      "center": {
        "lat": 12.9587423,
        "lon": 77.4857919
      },
      "tags": {
        "leisure": "park"
      }
    },
    {
      "type": "way",
      "id": 1241557236,
      "center": {
        "lat": 12.9594509,
        "lon": 77.4820429
      },
      "tags": {
        "leisure": "park"
      }
    },
    {
      "type": "way",
      "id": 1241560541,
      "center": {
        "lat": 12.9558074,
        "lon": 77.4762626
      },
      "tags": {
        "leisure": "park",
        "name": "Vishveshwaraiah Layout 6th Block Park"
      }
    },
    {
      "type": "way",
      "id": 1241560542,
      "center": {
        "lat": 12.9628861,
        "lon": 77.4767231
      },
      "tags": {
        "amenity": "college",
        "name": "Karnataka Institute of Leather & Fashion Techology"
      }
    },
    {
      "type": "way",
      "id": 1241561474,
      "center": {
        "lat": 12.9563911,
        "lon": 77.4790721
      },
      "tags": {
        "amenity": "fuel",
        "layer": "1"
      }
    },
    {
      "type": "way",
      "id": 1241561480,
      "center": {
        "lat": 12.9621475,
        "lon": 77.4791379
      },
      "tags": {
        "amenity": "fuel"
      }
    },
    {
      "type": "way",
      "id": 1241561488,
      "center": {
        "lat": 12.9683403,
        "lon": 77.4811019
      },
      "tags": {
        "amenity": "fuel"
      }
    },
    {
      "type": "way",
      "id": 1286755339,
      "center": {
        "lat": 12.9652711,
        "lon": 77.4748544
      },
      "tags": {
        "amenity": "clinic"
      }
    },
    {
      "type": "way",
      "id": 1286755357,
      "center": {
        "lat": 12.9600475,
        "lon": 77.4777389
      },
      "tags": {
        "leisure": "sports_centre"
      }
    },
    {
      "type": "way",
      "id": 1296085039,
      "center": {
        "lat": 12.9546652,
        "lon": 77.4887442
      },
      "tags": {
        "leisure": "park"
      }
    },
    {
      "type": "way",
      "id": 1296085065,
      "center": {
        "lat": 12.9516562,
        "lon": 77.4846217
      },
      "tags": {
        "amenity": "fuel"
      }
    },
    {
      "type": "way",
      "id": 1360543550,
      "center": {
        "lat": 12.9538046,
        "lon": 77.4772844
      },
      "tags": {
        "amenity": "school"
      }
    },
    {
      "type": "way",
      "id": 1360644152,
      "center": {
        "lat": 12.9507195,
        "lon": 77.4836097
      },
      "tags": {
        "amenity": "school",
        "name": "Janani Vidya Mandira",
        "survey:date": "2024-08-03",
        "website": "jananividyamandira.com"
      }
    },
    {
      "type": "way",
      "id": 1360644157,
      "center": {
        "lat": 12.9510658,
        "lon": 77.4810597
      },
      "tags": {
        "amenity": "hospital",
        "name": "Government Multi-Speciality Hospital"
      }
    },
    {
      "type": "way",
      "id": 1428274267,
      "center": {
        "lat": 12.9642976,
        "lon": 77.4843849
      },
      "tags": {
        "addr:city": "Bengaluru",
        "addr:district": "Bengaluru Urban",
        "addr:housenumber": "123",
        "addr:postcode": "560091",
        "addr:street": "RR Residency Layout",
        "amenity": "place_of_worship",
        "landuse": "religious",
        "name": "Doddamma Chickamma Temple",
        "religion": "hindu"
      }
    },
    {
      "type": "way",
      "id": 1428274268,
      "center": {
        "lat": 12.9643667,
        "lon": 77.4843286
      },
      "tags": {
        "addr:city": "Bengaluru",
        "addr:district": "Bengaluru Urban",
        "addr:housenumber": "120;121;122",
        "addr:postcode": "560091",
        "addr:street": "RR Residency Layout",
        "leisure": "park",
        "name": "RR Park",
        "opening_hours": "Mo-Su 10:00-20:00"
      }
    },
    {
      "type": "way",
      "id": 1428321423,
      "center": {
        "lat": 12.967999,
        "lon": 77.4807295
      },
      "tags": {
        "amenity": "bus_station",
        "bus": "yes",
        "public_transport": "station"
      }
    }
  ]
}