{
  "area_name": "Achaiah Chetty Layout",
  "osm_id": 12107512071,
  "osm_type": "node",
  "place_type": "neighbourhood",
  "amenity_count": 219,
  "amenities": [
    {
      "type": "node",
      "id": 573333532,
      "lat": 13.0064539,
      "lon": 77.5780313,
      "tags": {
        "addr:street": "Sankey Tank Road",
        "amenity": "school",
        "name": "Stella Maris School",
        "name:kn": "ಸ್ಟೆಲ್ಲಾ ಮಾರಿಸ್ ಶಾಲೆ"
      }
    },
    {
      "type": "node",
      "id": 648956433,
      "lat": 13.014482,
      "lon": 77.5761323,
      "tags": {
        "addr:street": "CV Raman Avenue",
        "amenity": "place_of_worship",
        "denomination": "theravada",
        "name": "International Buddhist Seminary",
        "religion": "buddhist",
        "service_times": "Su Mo Tu We Th Fr Sa 06:00-12:00, 16:00-20:00"
      }
    },
    {
      "type": "node",
      "id": 659639952,
      "lat": 13.0118139,
      "lon": 77.5751111,
      "tags": {
        "amenity": "toilets"
      }
    },
    {
      "type": "node",
      "id": 660345442,
      "lat": 13.0068412,
      "lon": 77.5789439,
      "tags": {
        "amenity": "restaurant"
      }
    },
    {
      "type": "node",
      "id": 661056774,
      "lat": 13.0076434,
      "lon": 77.5779662,
      "tags": {
        "amenity": "atm",
        "operator": "CorpBank"
      }
    },
    {
      "type": "node",
      "id": 661056775,
      "lat": 13.0075667,
      "lon": 77.5780609,
      "tags": {
        "name": "Naturals Unisex Salon",
        "shop": "hairdresser"
      }
    },
    {
      "type": "node",
      "id": 661056776,
      "lat": 13.0074878,
      "lon": 77.5781867,
      "tags": {
        "name": "Regal Voyages",
        "shop": "travel_agency"
      }
    },
    {
      "type": "node",
      "id": 661056780,
      "lat": 13.010717,
      "lon": 77.5755578,
      "tags": {
        "addr:street": "Jeevaraj Alva Road",
        "amenity": "doctors",
        "healthcare": "doctor",
        "name": "Dr. S. Shetty"
      }
    },
    {
      "type": "node",
      "id": 661056809,
      "lat": 13.0126247,
      "lon": 77.5750928,
      "tags": {
        "amenity": "toilets",
        "fee": "yes",
        "note": "located inside park (requires fee)"
      }
    },
    {
      "type": "node",
      "id": 661059074,
      "lat": 13.0069868,
      "lon": 77.5788699,
      "tags": {
        "addr:street": "Jeevaraj Alva Road",
        "amenity": "restaurant",
        "diet:vegetarian": "only",
        "name": "Mint Masala",
        "name:kn": "ಮಿಂಟ್ ಮಸಾಲ"
      }
    },
    {
      "type": "node",
      "id": 661059077,
      "lat": 13.0067463,
      "lon": 77.5788817,
      "tags": {
        "amenity": "atm",
        "operator": "DhanlaxmliBank"
      }
    },
    {
      "type": "node",
      "id": 663334482,
      "lat": 13.0074751,
      "lon": 77.5793045,
      "tags": {
        "amenity": "bank",
        "atm": "yes",
        "brand": "State Bank of India",
        "brand:wikidata": "Q1340361",
        "brand:wikipedia": "en:State Bank of India",
        "name": "State Bank of India",
        "name:kn": "ಭಾರತೀಯ ಸ್ಟೇಟ್ ಬ್ಯಾಂಕ್",
        "short_name": "SBI"
      }
    },
    {
      "type": "node",
      "id": 663334483,
      "lat": 13.0079864,
      "lon": 77.5796612,
      "tags": {
        "amenity": "gymnasium",
        "name": "Figurine Fitness"
      }
    },
    {
      "type": "node",
      "id": 663334484,
      "lat": 13.0078677,
      "lon": 77.5795899,
      "tags": {
        "addr:street": "13th Cross Sadashivanagar",
        "name": "Fernspetals",
        "shop": "florist"
      }
    },
    {
      "type": "node",
      "id": 663920339,
      "lat": 13.0140892,
      "lon": 77.5760778,
      "tags": {
        "addr:street": "CV Raman Avenue",
        "amenity": "school",
        "name": "Nagasena Vidyalaya",
        "name:kn": "ನಾಗಸೇನ ವಿದ್ಯಾಲಯ"
      }
    },
    {
      "type": "node",
      "id": 663920340,
      "lat": 13.0139649,
      "lon": 77.57891,
      "tags": {
        "amenity": "bank",
        "atm": "yes",
        "brand": "State Bank of India",
        "brand:wikidata": "Q1340361",
        "brand:wikipedia": "en:State Bank of India",
        "name": "State Bank of India",
        "name:kn": "ಭಾರತೀಯ ಸ್ಟೇಟ್ ಬ್ಯಾಂಕ್",
        "short_name": "SBI"
      }
    },
    {
      "type": "node",
      "id": 664332016,
      "lat": 13.0059079,
      "lon": 77.578507,
      "tags": {
        "amenity": "pharmacy",
        "healthcare": "pharmacy",
        "name": "Keshava Medical & General Stores"
      }
    },
    {
      "type": "node",
      "id": 664332017,
      "lat": 13.0077699,
      "lon": 77.5794951,
      "tags": {
        "amenity": "bank",
        "atm": "no",
        "brand": "Punjab National Bank",
        "brand:wikidata": "Q2743499",
        "name": "Punjab National Bank",
        "name:en": "Punjab National Bank",
        "name:kn": "ಪಂಜಾಬ ರಾಷ್ಟ್ರೀಯ ಬ್ಯಾಂಕ್",
        "short_name": "PNB",
        "website": "https://www.pnbindia.in"
      }
    },
    {
      "type": "node",
      "id": 664332018,
      "lat": 13.0076197,
      "lon": 77.5793977,
      "tags": {
        "amenity": "cafe",
        "brand": "Cafe Coffee Day",
        "brand:wikidata": "Q5017235",
        "cuisine": "coffee_shop",
        "name": "Cafe Coffee Day",
        "name:kn": "ಕಫೆ ಕಾಫಿ ಡೇ",
        "takeaway": "yes"
      }
    },
    {
      "type": "node",
      "id": 664332019,
      "lat": 13.0071676,
      "lon": 77.5790958,
      "tags": {
        "amenity": "bank",
        "atm": "yes",
        "brand": "Bank of Baroda",
        "brand:wikidata": "Q2003797",
        "brand:wikipedia": "en:Bank of Baroda",
        "name": "Bank of Baroda",
        "name:en": "Bank of Baroda",
        "name:kn": "ಬ್ಯಾಂಕ್ ಆಫ್ ಬರೋಡ",
        "short_name": "BoB",
        "website": "http://www.bankofbaroda.com"
      }
    },
    {
      "type": "node",
      "id": 664332020,
      "lat": 13.0080052,
      "lon": 77.5796762,
      "tags": {
        "amenity": "bank",
        "atm": "yes",
        "brand": "Karnataka Bank",
        "brand:wikidata": "Q2042632",
        "name": "Karnataka Bank",
        "name:kn": "ಕರ್ನಾಟಕ ಬ್ಯಾಂಕ್"
      }
    },
    {
      "type": "node",
      "id": 664332021,
      "lat": 13.0080972,
      "lon": 77.5797261,
      "tags": {
        "amenity": "bank",
        "atm": "no",
        "brand": "Syndicate Bank",
        "brand:wikidata": "Q2004088",
        "name": "Syndicate Bank",
        "name:en": "Syndicate Bank",
        "name:kn": "ಸಿಂಡಿಕೇಟ್ ಬ್ಯಾಂಕ್",
        "website": "https://www.syndicatebank.in"
      }
    },
    {
      "type": "node",
      "id": 664332022,
      "lat": 13.0089647,
      "lon": 77.580665,
      "tags": {
        "amenity": "school",
        "name": "Advanced Animation Academy"
      }
    },
    {
      "type": "node",
      "id": 665338930,
      "lat": 13.0068707,
      "lon": 77.5789709,
      "tags": {
        "name": "Regal Palace Men's Salon",
        "shop": "hairdresser"
      }
    },
    {
      "type": "node",
      "id": 665871314,
      "lat": 13.0143993,
      "lon": 77.5835124,
      "tags": {
        "amenity": "atm",
        "brand": "Standard Chartered",
        "brand:wikidata": "Q548278",
        "name": "Standard Chartered",
        "operator": "Standard Chartered",
        "operator:wikidata": "Q548278"
      }
    },
    {
      "type": "node",
      "id": 673377218,
      "lat": 13.0068753,
      "lon": 77.5789296,
      "tags": {
        "name": "Lakme Salon",
        "shop": "hairdresser"
      }
    },
    {
      "type": "node",
      "id": 673377221,
      "lat": 13.0075715,
      "lon": 77.5793658,
      "tags": {
        "addr:street": "13th Cross Sadashivanagar",
        "amenity": "cafe",
        "name": "Pure & Natural"
      }
    },
    {
      "type": "node",
      "id": 673860151,
      "lat": 13.0068023,
      "lon": 77.5789171,
      "tags": {
        "name": "Touch of Joy Womens' Beauty Parlor",
        "shop": "hairdresser"
      }
    },
    {
      "type": "node",
      "id": 673860152,
      "lat": 13.0068783,
      "lon": 77.5790907,
      "tags": {
        "amenity": "restaurant",
        "cuisine": "indian",
        "diet:vegetarian": "yes",
        "name": "New Shanthi Sagar",
        "name:kn": "ನ್ಯೂ ಶಾಂತಿ ಸಾಗರ್"
      }
    },
    {
      "type": "node",
      "id": 673860153,
      "lat": 13.0129089,
      "lon": 77.5742856,
      "tags": {
        "amenity": "pharmacy",
        "name": "Saisudha Medical"
      }
    },
    {
      "type": "node",
      "id": 674755220,
      "lat": 13.0137034,
      "lon": 77.5816225,
      "tags": {
        "amenity": "college",
        "name": "Light and Matter Physics"
      }
    },
    {
      "type": "node",
      "id": 674755223,
      "lat": 13.0133937,
      "lon": 77.58161,
      "tags": {
        "amenity": "library",
        "name": "RRI Library"
      }
    },
    {
      "type": "node",
      "id": 1101831257,
      "lat": 13.0065656,
      "lon": 77.5837018,
      "tags": {
        "addr:street": "Ramana Maharshi Road",
        "brand": "Škoda",
        "brand:wikidata": "Q29637",
        "name": "Škoda",
        "shop": "car"
      }
    },
    {
      "type": "node",
      "id": 1289949439,
      "lat": 13.0073402,
      "lon": 77.5764133,
      "tags": {
        "amenity": "place_of_worship",
        "name": "Gayathri Devi Temple",
        "name:kn": "ಗಾಯತ್ರಿ ದೇವಿ ದೇವಸ್ಥಾನ",
        "religion": "hindu"
      }
    },
    {
      "type": "node",
      "id": 1462530129,
      "lat": 13.0055106,
      "lon": 77.5787567,
      "tags": {
        "addr:street": "1st Main Road",
        "amenity": "restaurant",
        "check_date": "2024-01-13",
        "name": "Sri Udupi Swaadista",
        "name:kn": "ಸ್ವಾದಿಷ್ಟ ರೆಸ್ಟೊರೆಂಟ್"
      }
    },
    {
      "type": "node",
      "id": 1525978311,
      "lat": 13.0129231,
      "lon": 77.5756959,
      "tags": {
        "amenity": "fountain"
      }
    },
    {
      "type": "node",
      "id": 1526002073,
      "lat": 13.0123595,
      "lon": 77.5753327,
      "tags": {
        "amenity": "waste_basket"
      }
    },
    {
      "type": "node",
      "id": 1526048619,
      "lat": 13.012224,
      "lon": 77.5755205,
      "tags": {
        "leisure": "park"
      }
    },
    {
      "type": "node",
      "id": 2019367760,
      "lat": 13.0050766,
      "lon": 77.5806041,
      "tags": {
        "amenity": "bank",
        "atm": "no",
        "brand": "Indian Bank",
        "brand:wikidata": "Q2003789",
        "brand:wikipedia": "en:Indian Bank",
        "name": "Indian Bank",
        "name:en": "Indian Bank",
        "name:kn": "ಇಂಡಿಯನ್ ಬ್ಯಾಂಕ್",
        "website": "https://www.indianbank.in/"
      }
    },
    {
      "type": "node",
      "id": 2303827881,
      "lat": 13.0057592,
      "lon": 77.5804279,
      "tags": {
        "amenity": "restaurant",
        "cuisine": "indian",
        "name": "Sattvam",
        "name:kn": "ಸತ್ವಂ",
        "phone": "080 2360 8000",
        "website": "www.sattvamrestaurant.com/"
      }
    },
    {
      "type": "node",
      "id": 2303827882,
      "lat": 13.0058027,
      "lon": 77.5806656,
      "tags": {
        "leisure": "fitness_centre",
        "name": "Snapfitness Gym"
      }
    },
    {
      "type": "node",
      "id": 2821271866,
      "lat": 13.0144365,
      "lon": 77.5831503,
      "tags": {
        "addr:full": "Achaiah Chetty Arcade, No.19,1st Cross, Achaiah Chetty Lay out, RMV Extension, Sadashiva Nagar, Mekhri Circle Junction, Karnataka 560080 Bengaluru",
        "addr:street": "CV Raman Road",
        "brand": "KTM",
        "brand:wikidata": "Q215657",
        "check_date": "2025-08-08",
        "contact:email": "mekhricircle_mgr@ktmindia.com",
        "contact:phone": "+91802361474",
        "name": "Mekhri Circle KTM",
        "shop": "motorcycle"
      }
    },
    {
      "type": "node",
      "id": 2821271870,
      "lat": 13.014439,
      "lon": 77.5829545,
      "tags": {
        "addr:street": "CV Raman Road",
        "name": "Classic Automotives",
        "shop": "car"
      }
    },
    {
      "type": "node",
      "id": 2911691002,
      "lat": 13.0169921,
      "lon": 77.5914678,
      "tags": {
        "amenity": "restaurant",
        "name": "Empire Hotel",
        "name:kn": "ಎಂಪೈರ್"
      }
    },
    {
      "type": "node",
      "id": 2911691006,
      "lat": 13.0168458,
      "lon": 77.591398,
      "tags": {
        "amenity": "restaurant",
        "diet:vegetarian": "yes",
        "name": "Adiga's",
        "name:kn": "ಅಡಿಗಾಸ್"
      }
    },
    {
      "type": "node",
      "id": 3193511367,
      "lat": 13.0053577,
      "lon": 77.5810409,
      "tags": {
        "amenity": "cafe",
        "brand": "Cafe Coffee Day",
        "brand:wikidata": "Q5017235",
        "brand:wikipedia": "en:Café Coffee Day",
        "cuisine": "coffee_shop",
        "name": "Cafe Coffee Day",
        "name:kn": "ಕಫೆ ಕಾಫಿ ಡೇ",
        "takeaway": "yes"
      }
    },
    {
      "type": "node",
      "id": 3666005764,
      "lat": 13.0070488,
      "lon": 77.5790404,
      "tags": {
        "name": "JSS Boutique",
        "shop": "boutique"
      }
    },
    {
      "type": "node",
      "id": 4044365775,
      "lat": 13.0056797,
      "lon": 77.5806627,
      "tags": {
        "addr:city": "bangalore",
        "addr:postcode": "560080",
        "addr:street": "16th Cross Street",
        "amenity": "ice_cream",
        "brand": "Nature's Basket",
        "brand:wikidata": "Q28174237",
        "name": "Nature's Basket",
        "organic": "yes",
        "shop": "supermarket",
        "website": "https://www.naturesbasket.co.in/"
      }
    },
    {
      "type": "node",
      "id": 4489829045,
      "lat": 13.0077061,
      "lon": 77.5793938,
      "tags": {
        "addr:city": "Bangalore",
        "addr:housenumber": "No.393",
        "addr:postcode": "560009",
        "addr:street": "13th Cross Sadashivanagar",
        "name": "O2 Spa",
        "opening_hours": "10:00-20:00",
        "phone": "+919247020202",
        "shop": "beauty",
        "website": "https://www.o2spa.org/"
      }
    },
    {
      "type": "node",
      "id": 4552286367,
      "lat": 13.0130826,
      "lon": 77.5761449,
      "tags": {
        "amenity": "hospital",
        "name": "Ramana Rao's clinic"
      }
    },
    {
      "type": "node",
      "id": 4552303417,
      "lat": 13.009057,
      "lon": 77.5803021,
      "tags": {
        "addr:city": "Bangalore",
        "addr:postcode": "560080",
        "addr:street": "13th Cross Sadashivanagar",
        "air_conditioning": "yes",
        "amenity": "cafe",
        "brand": "Starbucks",
        "brand:pa": "ਸਟਾਰਬਕਸ",
        "brand:ur": "اسٹاربکس",
        "brand:wikidata": "Q37158",
        "brand:wikipedia": "en:Starbucks",
        "check_date": "2024-11-26",
        "cuisine": "coffee_shop",
        "indoor_seating": "yes",
        "internet_access": "yes",
        "name": "Starbucks",
        "name:pa": "ਸਟਾਰਬਕਸ",
        "name:ur": "اسٹاربکس",
        "official_name": "Starbucks Coffee",
        "official_name:pa": "ਸਟਾਰਬਕਸ ਕੌਫੀ",
        "official_name:ur": "اسٹاربکس کافی",
        "outdoor_seating": "no",
        "takeaway": "yes",
        "toilets": "yes"
      }
    },
    {
      "type": "node",
      "id": 4554240208,
      "lat": 13.0056782,
      "lon": 77.5806895,
      "tags": {
        "amenity": "bank",
        "atm": "yes",
        "brand": "Axis Bank",
        "brand:wikidata": "Q2003549",
        "brand:wikipedia": "en:Axis Bank",
        "name": "Axis Bank",
        "name:en": "Axis Bank",
        "name:kn": "ಆಕ್ಸಿಸ್ ಬ್ಯಾಂಕ್",
        "website": "https://www.axisbank.com"
      }
    },
    {
      "type": "node",
      "id": 4578768492,
      "lat": 13.006013,
      "lon": 77.5785274,
      "tags": {
        "addr:housenumber": "1",
        "addr:postcode": "560003",
        "addr:street": "Vyalikaval Main Road",
        "amenity": "doctors",
        "healthcare": "doctor",
        "name": "Medall Clumax Diagnostics",
        "name:en": "MEDALL CLUMAX DIAGNOSTICS",
        "opening_hours": "Mo-Su 08:00-21:00",
        "phone": "08049337777",
        "website": "https://www.medall.in/"
      }
    },
    {
      "type": "node",
      "id": 4697843992,
      "lat": 13.0169007,
      "lon": 77.5907711,
      "tags": {
        "addr:housenumber": "6",
        "addr:postcode": "560032",
        "addr:street": "6th Main Krishnappa Block",
        "name": "Agiledge process solutions Pvt Ltd",
        "name:en": "Agiledge process solutions Pvt Ltd",
        "opening_hours": "Mo-Fr 09:00-18:00",
        "phone": "080-23432343",
        "shop": "computer",
        "website": "https://www.agiledgesolutions.com/"
      }
    },
    {
      "type": "node",
      "id": 4783350859,
      "lat": 13.0169075,
      "lon": 77.5844663,
      "tags": {
        "amenity": "toilets"
      }
    },
    {
      "type": "node",
      "id": 4849094835,
      "lat": 13.0099632,
      "lon": 77.5836378,
      "tags": {
        "name": "Laxmi Auto",
        "name:en": "Laxmi Auto",
        "shop": "car"
      }
    },
    {
      "type": "node",
      "id": 4849107926,
      "lat": 13.0080001,
      "lon": 77.5837482,
      "tags": {
        "amenity": "hospital",
        "check_date": "2025-03-01",
        "name": "Hosmat Hospital"
      }
    },
    {
      "type": "node",
      "id": 4849108631,
      "lat": 13.0052564,
      "lon": 77.5838805,
      "tags": {
        "name": "Nexa",
        "name:en": "Nexa",
        "shop": "car"
      }
    },
    {
      "type": "node",
      "id": 4973098283,
      "lat": 13.0217462,
      "lon": 77.584538,
      "tags": {
        "amenity": "community_centre",
        "name": "Karnataka Kalyana Mantapa"
      }
    },
    {
      "type": "node",
      "id": 5174700153,
      "lat": 13.0145985,
      "lon": 77.5768381,
      "tags": {
        "amenity": "childcare",
        "name": "KLAY Prep Schools and Day Care"
      }
    },
    {
      "type": "node",
      "id": 5174700154,
      "lat": 13.0144068,
      "lon": 77.5834035,
      "tags": {
        "brand": "Honda",
        "brand:wikidata": "Q9584",
        "name": "Honda",
        "name:kn": "ಹೊಂಡಾ",
        "shop": "motorcycle"
      }
    },
    {
      "type": "node",
      "id": 5295212542,
      "lat": 13.0146472,
      "lon": 77.5782943,
      "tags": {
        "name": "Lalco Interiors",
        "shop": "interior_decoration"
      }
    },
    {
      "type": "node",
      "id": 5295212549,
      "lat": 13.0219792,
      "lon": 77.5846105,
      "tags": {
        "name": "TVS",
        "shop": "motorcycle"
      }
    },
    {
      "type": "node",
      "id": 5862563585,
      "lat": 13.0099448,
      "lon": 77.5907516,
      "tags": {
        "amenity": "bench"
      }
    },
    {
      "type": "node",
      "id": 5983380596,
      "lat": 13.0097251,
      "lon": 77.5834036,
      "tags": {
        "name": "Woods and Metal",
        "shop": "doityourself"
      }
    },
    {
      "type": "node",
      "id": 6690499039,
      "lat": 13.0071836,
      "lon": 77.5794783,
      "tags": {
        "addr:housenumber": "383/31",
        "addr:street": "13th Cross, Sadashiva Nagar",
        "amenity": "restaurant",
        "check_date:opening_hours": "2024-09-09",
        "diet:vegan": "only",
        "diet:vegetarian": "only",
        "happycow:id": "95514",
        "name": "Justbe Resto Cafe",
        "opening_hours": "Tu-Th 11:00-22:00; Fr-Su 11:00-23:00",
        "phone": "+91 80 48538672",
        "toilets": "yes",
        "website": "https://www.justbeyou.in"
      }
    },
    {
      "type": "node",
      "id": 7192992580,
      "lat": 13.0063463,
      "lon": 77.5823289,
      "tags": {
        "amenity": "cafe",
        "cuisine": "coffee_shop;indian;burger",
        "name": "Nature's Cafe",
        "outdoor_seating": "yes"
      }
    },
    {
      "type": "node",
      "id": 7192995422,
      "lat": 13.0063618,
      "lon": 77.5823659,
      "tags": {
        "name": "HOPCOMS",
        "name:kn": "ಹಾಪ್ ಕಾಮ್ಸ್",
        "operator": "HOPCOMS",
        "shop": "greengrocer"
      }
    },
    {
      "type": "node",
      "id": 7257189835,
      "lat": 13.0174156,
      "lon": 77.5840574,
      "tags": {
        "amenity": "bench",
        "backrest": "yes",
        "seats": "3"
      }
    },
    {
      "type": "node",
      "id": 7320793122,
      "lat": 13.0111037,
      "lon": 77.5789387,
      "tags": {
        "addr:city": "Bangalore",
        "addr:postcode": "560080",
        "addr:street": "6th A Cross Road",
        "amenity": "bank",
        "brand": "State Bank of India",
        "brand:wikidata": "Q1340361",
        "brand:wikipedia": "en:State Bank of India",
        "name": "State Bank of India",
        "short_name": "SBI"
      }
    },
    {
      "type": "node",
      "id": 8187962263,
      "lat": 13.0176903,
      "lon": 77.5899085,
      "tags": {
        "addr:full": "No. 13, 5TH MAIN, GANGANAGAR, RT NAGAR, MLA Layout, Krishnappa Block, RT Nagar, Bengaluru, Karnataka",
        "addr:state": "Karnataka",
        "amenity": "bank",
        "name": "Dena Bank",
        "name:kn": "ದೇನ ಬ್ಯಾಂಕ್"
      }
    },
    {
      "type": "node",
      "id": 8187986324,
      "lat": 13.0096996,
      "lon": 77.5760799,
      "tags": {
        "addr:full": "3rd Main Rd, Sadashiva Nagar, Armane Nagar, Bengaluru, Karnataka",
        "addr:state": "Karnataka",
        "amenity": "clinic",
        "healthcare": "clinic",
        "name": "Richfeel Hair And Scalp Clinic"
      }
    },
    {
      "type": "node",
      "id": 8187986340,
      "lat": 13.0056853,
      "lon": 77.5805903,
      "tags": {
        "addr:full": "above Natures basket, 35, JM plaza, Sankey Road, 2nd Main Rd, Sadashiva Nagar, Armane Nagar, Bengaluru, Karnataka",
        "addr:state": "Karnataka",
        "amenity": "clinic",
        "healthcare": "clinic",
        "level": "2",
        "name": "Alleviate Pain Management Clinic"
      }
    },
    {
      "type": "node",
      "id": 8188018370,
      "lat": 13.007049,
      "lon": 77.578793,
      "tags": {
        "addr:full": "Sadashiva Nagar, Armane Nagar, Bengaluru, Karnataka",
        "addr:state": "Karnataka",
        "amenity": "dentist",
        "healthcare": "dentist",
        "name": "Koushik Dental Care Orthodontic And Implantology Center"
      }
    },
    {
      "type": "node",
      "id": 8188058188,
      "lat": 13.004777,
      "lon": 77.581093,
      "tags": {
        "addr:full": "15, Sankey Main Rd, Lower Palace Orchards, Sadashivanagar, Lower Palace Orchards, Guttahalli, Bengaluru, Karnataka",
        "addr:state": "Karnataka",
        "amenity": "restaurant",
        "diet:vegetarian": "only",
        "name": "The Orchard Vegetarian Indian Restaurant"
      }
    },
    {
      "type": "node",
      "id": 8254999683,
      "lat": 13.0060868,
      "lon": 77.5785404,
      "tags": {
        "brand": "Wildcraft",
        "shop": "sports"
      }
    },
    {
      "type": "node",
      "id": 8442191506,
      "lat": 13.0151954,
      "lon": 77.58375,
      "tags": {
        "amenity": "bench",
        "backrest": "yes"
      }
    },
    {
      "type": "node",
      "id": 8910937692,
      "lat": 13.0166985,
      "lon": 77.5916282,
      "tags": {
        "shop": "camera"
      }
    },
    {
      "type": "node",
      "id": 8911008862,
      "lat": 13.010028,
      "lon": 77.5906928,
      "tags": {
        "shop": "camera"
      }
    },
    {
      "type": "node",
      "id": 9583428972,
      "lat": 13.0139397,
      "lon": 77.5787263,
      "tags": {
        "amenity": "bank",
        "atm": "yes",
        "brand": "HDFC Bank",
        "brand:wikidata": "Q631047",
        "name": "HDFC Bank",
        "name:kn": "ಎಚ್ ಡಿ ಎಫ್ ಸಿ",
        "operator": "HDFC Bank",
        "short_name": "HDFC"
      }
    },
    {
      "type": "node",
      "id": 9583428973,
      "lat": 13.0145081,
      "lon": 77.5742617,
      "tags": {
        "amenity": "veterinary",
        "name": "Cessna Lifeline Veterinary Hospital"
      }
    },
    {
      "type": "node",
      "id": 9739831279,
      "lat": 13.0221154,
      "lon": 77.5847036,
      "tags": {
        "amenity": "restaurant",
        "cuisine": "regional",
        "name": "Punjabi Rasoi"
      }
    },
    {
      "type": "node",
      "id": 9759746748,
      "lat": 13.0060252,
      "lon": 77.5780946,
      "tags": {
        "amenity": "kindergarten"
      }
    },
    {
      "type": "node",
      "id": 9759746753,
      "lat": 13.0063525,
      "lon": 77.5794444,
      "tags": {
        "name": "SS Jewels",
        "shop": "jewelry"
      }
    },
    {
      "type": "node",
      "id": 9759746758,
      "lat": 13.0056345,
      "lon": 77.5797777,
      "tags": {
        "name": "Amma's Pastries",
        "shop": "pastry"
      }
    },
    {
      "type": "node",
      "id": 9759746759,
      "lat": 13.0059239,
      "lon": 77.5801988,
      "tags": {
        "name": "Armadio",
        "shop": "boutique"
      }
    },
    {
      "type": "node",
      "id": 9759746780,
      "lat": 13.0068,
      "lon": 77.5825497,
      "tags": {
        "addr:city": "Bangalore",
        "addr:country": "IN",
        "addr:housenumber": "269",
        "addr:postcode": "560080",
        "addr:street": "17th Cross Road",
        "addr:suburb": "Sadashivanagara",
        "amenity": "arts_centre",
        "contact:facebook": "peepletree",
        "contact:instagram": "peepletree",
        "fee": "no",
        "name": "Peepletree",
        "tourism": "gallery",
        "website": "http://www.peepletree.in/"
      }
    },
    {
      "type": "node",
      "id": 9759746798,
      "lat": 13.0055887,
      "lon": 77.5817545,
      "tags": {
        "addr:city": "Bangalore",
        "addr:country": "IN",
        "addr:housenumber": "344/8",
        "addr:postcode": "560080",
        "addr:street": "4th Main Road",
        "addr:suburb": "Sadashivanagara",
        "amenity": "arts_centre",
        "check_date": "2024-08-26",
        "name": "ArtCollective",
        "website": "https://www.artcollective.com"
      }
    },
    {
      "type": "node",
      "id": 9759746800,
      "lat": 13.0055404,
      "lon": 77.5817277,
      "tags": {
        "amenity": "bank",
        "atm": "yes",
        "brand": "Bank of Baroda",
        "brand:wikidata": "Q2003797",
        "name": "Bank of Baroda",
        "name:kn": "ಬ್ಯಾಂಕ್ ಆಫ್ ಬರೋಡ",
        "operator": "Bank of Baroda"
      }
    },
    {
      "type": "node",
      "id": 9826431267,
      "lat": 13.0222937,
      "lon": 77.5847256,
      "tags": {
        "amenity": "restaurant",
        "name": "The Punjabi Rasoi"
      }
    },
    {
      "type": "node",
      "id": 9938657069,
      "lat": 13.0069739,
      "lon": 77.583774,
      "tags": {
        "amenity": "community_centre",
        "name": "All India Veerashiva Mahasabha"
      }
    },
    {
      "type": "node",
      "id": 10124399211,
      "lat": 13.0146179,
      "lon": 77.5781925,
      "tags": {
        "name": "Sculpu",
        "shop": "interior_decoration"
      }
    },
    {
      "type": "node",
      "id": 10296638734,
      "lat": 13.0191702,
      "lon": 77.5852802,
      "tags": {
        "addr:city": "Bangalore",
        "addr:country": "IN",
        "addr:hamlet": "Ganganagar",
        "addr:housenumber": "8",
        "addr:postcode": "560032",
        "addr:street": "Bellary Road",
        "amenity": "bar",
        "contact:facebook": "CopitasBengaluru",
        "contact:instagram": "copitasbengaluru",
        "email": "copitas.bng@fourseasons.com",
        "level": "21",
        "name": "Copitas",
        "opening_hours": "Tu-Su 17:00-01:00",
        "phone": "96456 69697",
        "website": "https://www.fourseasons.com/bengaluru/dining/lounges/copitas/"
      }
    },
    {
      "type": "node",
      "id": 10572417835,
      "lat": 13.0078663,
      "lon": 77.5799668,
      "tags": {
        "addr:floor": "0",
        "amenity": "restaurant",
        "check_date": "2025-04-25",
        "cuisine": "regional",
        "diet:vegetarian": "yes",
        "level": "0",
        "name": "Kailash Parbat",
        "name:kn": "ಕೈಲಸ ಪರ್ವತ"
      }
    },
    {
      "type": "node",
      "id": 10676117962,
      "lat": 13.0090515,
      "lon": 77.5807017,
      "tags": {
        "amenity": "cafe",
        "brand": "Barista",
        "brand:wikidata": "Q644735",
        "cuisine": "coffee_shop",
        "name": "Barista",
        "takeaway": "yes"
      }
    },
    {
      "type": "node",
      "id": 10676117963,
      "lat": 13.0083014,
      "lon": 77.5798273,
      "tags": {
        "amenity": "cafe",
        "name": "Third Wave Coffee Roasters",
        "operator": "Third Wave Coffee Roasters"
      }
    },
    {
      "type": "node",
      "id": 10676117967,
      "lat": 13.0085941,
      "lon": 77.5778887,
      "tags": {
        "name": "HOPCOMS",
        "shop": "greengrocer"
      }
    },
    {
      "type": "node",
      "id": 10676117976,
      "lat": 13.0092501,
      "lon": 77.5767515,
      "tags": {
        "amenity": "post_office",
        "check_date": "2025-01-03",
        "internet_access": "no",
        "name": "Sadashivanagar Post Office",
        "name:kn": "ಅಂಚೆ ಕಛೇರಿ",
        "opening_hours": "Mo-Fr 09:00-17:00; Su off",
        "operator": "India Post",
        "operator:wikidata": "Q3519720",
        "wheelchair": "yes"
      }
    },
    {
      "type": "node",
      "id": 10676117988,
      "lat": 13.007424,
      "lon": 77.578393,
      "tags": {
        "name": "Honey Bee Bakers",
        "shop": "bakery"
      }
    },
    {
      "type": "node",
      "id": 10676117989,
      "lat": 13.0073991,
      "lon": 77.5784399,
      "tags": {
        "name": "Sweet Chariot",
        "shop": "bakery"
      }
    },
    {
      "type": "node",
      "id": 10727992297,
      "lat": 13.0095245,
      "lon": 77.5757772,
      "tags": {
        "addr:city": "Bangalore",
        "addr:country": "IN",
        "addr:postcode": "560080",
        "addr:street": "8th Main Road",
        "addr:suburb": "Sadashivanagar",
        "contact:instagram": "paintbarblr",
        "contact:youtube": "paintbarblr",
        "name": "Paint Bar",
        "shop": "paint",
        "website": "https://paintbarblr.com/"
      }
    },
    {
      "type": "node",
      "id": 10924790337,
      "lat": 13.0076095,
      "lon": 77.5797973,
      "tags": {
        "name": "Truefitt & Hill",
        "payment:credit_cards": "yes",
        "payment:debit_cards": "yes",
        "shop": "hairdresser",
        "website": "https://www.truefittandhill.in/",
        "wheelchair": "no"
      }
    },
    {
      "type": "node",
      "id": 10941504378,
      "lat": 13.0057338,
      "lon": 77.5788406,
      "tags": {
        "amenity": "restaurant",
        "check_date": "2024-12-13",
        "diet:vegetarian": "yes",
        "name": "My La Pure"
      }
    },
    {
      "type": "node",
      "id": 10941531361,
      "lat": 13.0074059,
      "lon": 77.5819464,
      "tags": {
        "amenity": "college",
        "name": "IIHS, Bengaluru City Campus Annexe - I",
        "opening_hours": "Mo-Fr 09:00-18:00",
        "operator": "Indian Institute for Human Settlements",
        "short_name": "IIHS Annex",
        "website": "https://www.iihs.co.in/"
      }
    },
    {
      "type": "node",
      "id": 11361272140,
      "lat": 13.0056806,
      "lon": 77.581023,
      "tags": {
        "access": "permissive",
        "amenity": "parking_entrance",
        "bicycle": "yes",
        "maxheight:signed": "no",
        "motorcar": "no",
        "motorcycle": "yes",
        "parking": "underground"
      }
    },
    {
      "type": "node",
      "id": 11420703842,
      "lat": 13.0092154,
      "lon": 77.5836361,
      "tags": {
        "check_date": "2025-08-08",
        "name": "BoConcept",
        "shop": "interior_decoration"
      }
    },
    {
      "type": "node",
      "id": 11458986884,
      "lat": 13.0063511,
      "lon": 77.5794141,
      "tags": {
        "check_date": "2023-12-27",
        "name": "VLCC",
        "shop": "beauty"
      }
    },
    {
      "type": "node",
      "id": 11470047334,
      "lat": 13.0055742,
      "lon": 77.5809194,
      "tags": {
        "access": "yes",
        "air_conditioning": "yes",
        "amenity": "library",
        "internet_access": "yes",
        "internet_access:fee": "no",
        "name": "IIHS Library",
        "opening_hours": "Mo-Sa 08:00-18:00",
        "operator": "IIHS",
        "operator:type": "open_to_public"
      }
    },
    {
      "type": "node",
      "id": 11512935332,
      "lat": 13.0091522,
      "lon": 77.5787543,
      "tags": {
        "amenity": "pharmacy",
        "check_date": "2024-01-13",
        "healthcare": "pharmacy"
      }
    },
    {
      "type": "node",
      "id": 11513175533,
      "lat": 13.0093245,
      "lon": 77.5798606,
      "tags": {
        "amenity": "clinic",
        "check_date": "2024-01-13",
        "healthcare": "clinic",
        "name": "Tenet Diagnostics"
      }
    },
    {
      "type": "node",
      "id": 11513175534,
      "lat": 13.0093226,
      "lon": 77.5800439,
      "tags": {
        "check_date": "2024-01-13",
        "name": "Vurve",
        "shop": "beauty"
      }
    },
    {
      "type": "node",
      "id": 11513175535,
      "lat": 13.0093598,
      "lon": 77.5800587,
      "tags": {
        "amenity": "college",
        "check_date": "2024-01-13",
        "name": "IIHS, Bengaluru City Campus - Annexe II"
      }
    },
    {
      "type": "node",
      "id": 11513441177,
      "lat": 13.0093896,
      "lon": 77.5800142,
      "tags": {
        "access": "private",
        "addr:floor": "1",
        "amenity": "toilets",
        "check_date": "2024-01-13",
        "fee": "no",
        "level": "1"
      }
    },
    {
      "type": "node",
      "id": 11513441178,
      "lat": 13.009398,
      "lon": 77.5800144,
      "tags": {
        "access": "private",
        "addr:floor": "1",
        "amenity": "toilets",
        "check_date": "2024-01-13",
        "level": "1"
      }
    },
    {
      "type": "node",
      "id": 11626785030,
      "lat": 13.0192846,
      "lon": 77.5851267,
      "tags": {
        "amenity": "pub",
        "check_date": "2024-02-15",
        "name": "Hopshaus"
      }
    },
    {
      "type": "node",
      "id": 12135686523,
      "lat": 13.0188924,
      "lon": 77.5840565,
      "tags": {
        "amenity": "bench",
        "backrest": "yes",
        "material": "stone",
        "seats": "2"
      }
    },
    {
      "type": "node",
      "id": 12291308526,
      "lat": 13.0077805,
      "lon": 77.5779394,
      "tags": {
        "addr:housenumber": "601",
        "addr:street": "3rd Main Road",
        "amenity": "cafe",
        "capacity": "5",
        "check_date": "2024-12-13",
        "contact:instagram": "https://www.instagram.com/kerbsidebistro",
        "name": "Kerbside Bistro",
        "outdoor_seating": "no"
      }
    },
    {
      "type": "node",
      "id": 12364258201,
      "lat": 13.0145068,
      "lon": 77.5743315,
      "tags": {
        "addr:city": "Bengaluru",
        "addr:country": "IN",
        "addr:hamlet": "RMV Extension",
        "addr:housenumber": "238",
        "addr:postcode": "560080",
        "addr:street": "Dr. CV Raman Road",
        "addr:suburb": "Sadashivanagar",
        "amenity": "cafe",
        "contact:instagram": "thebrowntable_blr",
        "name": "The Brown Table",
        "opening_hours": "08:00-23:00",
        "takeaway": "yes",
        "toilets": "yes"
      }
    },
    {
      "type": "node",
      "id": 12378818543,
      "lat": 13.0077426,
      "lon": 77.5798357,
      "tags": {
        "amenity": "cafe",
        "name": "Smoor"
      }
    },
    {
      "type": "node",
      "id": 12378818548,
      "lat": 13.0083098,
      "lon": 77.5801356,
      "tags": {
        "name": "Halli Organics and naturals",
        "organic": "only",
        "shop": "supermarket"
      }
    },
    {
      "type": "node",
      "id": 12378818549,
      "lat": 13.0083963,
      "lon": 77.5798773,
      "tags": {
        "amenity": "bank",
        "atm": "yes",
        "brand": "State Bank of India",
        "brand:wikidata": "Q1340361",
        "name": "State Bank of India",
        "short_name": "SBI"
      }
    },
    {
      "type": "node",
      "id": 12412376090,
      "lat": 13.007551,
      "lon": 77.5793716,
      "tags": {
        "addr:city": "Bengaluru",
        "addr:district": "Bengaluru Urban",
        "addr:housenumber": "390, Ground Floor",
        "addr:postcode": "560080",
        "addr:street": "Fortuna Urbanscape, 13th Cross Sadashivanagar",
        "air_conditioning": "yes",
        "amenity": "cafe",
        "bar": "no",
        "branch": "Quattro Bistro",
        "brand": "Quattro Bistro",
        "capacity": "100",
        "cuisine": "coffee_shop;italian;mexican",
        "delivery": "yes",
        "description": "Immerse yourself in a delightful gastronomic journey at Quattro Bistro, our newly opened pure vegetarian haven located in the heart of Sadhashivnagar, Bangalore.",
        "diet:gluten_free": "yes",
        "diet:jain": "yes",
        "diet:vegan": "yes",
        "diet:vegetarian": "yes",
        "drive_through": "no",
        "highchair": "yes",
        "internet_access": "wlan",
        "internet_access:fee": "customers",
        "level": "0",
        "mobile": "+91 948 042 2365",
        "name": "Quattro Bistro",
        "opening_hours": "Mo-Su 11:00-00:30",
        "payment:american_express": "yes",
        "payment:app": "yes",
        "payment:cash": "yes",
        "payment:contactless": "yes",
        "payment:credit_cards": "yes",
        "payment:debit_cards": "yes",
        "payment:discover_card": "yes",
        "payment:google_pay": "yes",
        "payment:maestro": "yes",
        "payment:mastercard": "yes",
        "payment:mastercard_contactless": "yes",
        "payment:visa": "yes",
        "phone": "+91 948 042 2365",
        "reservation": "yes",
        "smoking": "no",
        "start_date": "2024-11-11",
        "takeaway": "yes",
        "toilets": "yes",
        "website:menu": "https://www.zomato.com/bangalore/quattro-bistro-sadashiv-nagar-bangalore/menu",
        "wheelchair": "yes"
      }
    },
    {
      "type": "node",
      "id": 12422100663,
      "lat": 13.0069207,
      "lon": 77.5789754,
      "tags": {
        "amenity": "cafe",
        "brand": "Blue Tokai Coffee Roasters",
        "brand:wikidata": "Q124374362",
        "check_date": "2024-12-13",
        "cuisine": "coffee_shop",
        "delivery": "yes",
        "internet_access": "yes",
        "internet_access:fee": "no",
        "name": "Blue Tokai Coffee Roasters",
        "takeaway": "yes",
        "toilets": "yes"
      }
    },
    {
      "type": "node",
      "id": 12441836117,
      "lat": 13.0093084,
      "lon": 77.5806326,
      "tags": {
        "check_date": "2024-12-22",
        "name": "Enrich",
        "shop": "hairdresser"
      }
    },
    {
      "type": "node",
      "id": 12450996660,
      "lat": 13.0206082,
      "lon": 77.5837838,
      "tags": {
        "amenity": "bench",
        "backrest": "yes"
      }
    },
    {
      "type": "node",
      "id": 12470758935,
      "lat": 13.0092422,
      "lon": 77.5772807,
      "tags": {
        "amenity": "internet_cafe",
        "check_date": "2025-01-03",
        "internet_access": "no",
        "name": "Net Junction",
        "opening_hours": "Mo-Sa 08:00-20:00; Su off",
        "operator:type": "private",
        "wheelchair": "yes"
      }
    },
    {
      "type": "node",
      "id": 12491962062,
      "lat": 13.0069665,
      "lon": 77.5789097,
      "tags": {
        "amenity": "restaurant",
        "check_date": "2025-01-07",
        "cuisine": "regional;coffee_shop;indian",
        "diet:vegetarian": "yes",
        "internet_access": "no",
        "name": "Dakshin Express",
        "wheelchair": "no"
      }
    },
    {
      "type": "node",
      "id": 12508867414,
      "lat": 13.0073876,
      "lon": 77.57846,
      "tags": {
        "air_conditioning": "no",
        "check_date": "2025-01-17",
        "cuisine": "indian",
        "delivery": "no",
        "diet:vegetarian": "yes",
        "drive_through": "no",
        "highchair": "no",
        "internet_access": "no",
        "name": "Gurukrupa",
        "opening_hours": "Mo-Sa 09:00-20:00",
        "outdoor_seating": "no",
        "shop": "convenience",
        "smoking": "no",
        "wheelchair": "yes"
      }
    },
    {
      "type": "node",
      "id": 12508867415,
      "lat": 13.0073707,
      "lon": 77.5784902,
      "tags": {
        "amenity": "post_office",
        "check_date": "2025-01-17",
        "name": "DTDC",
        "wheelchair": "yes"
      }
    },
    {
      "type": "node",
      "id": 12628597302,
      "lat": 13.0045175,
      "lon": 77.5837857,
      "tags": {
        "check_date": "2025-03-01",
        "name": "Modulo",
        "shop": "interior_decoration"
      }
    },
    {
      "type": "node",
      "id": 12628597303,
      "lat": 13.0131163,
      "lon": 77.5837035,
      "tags": {
        "brand": "Bajaj",
        "brand:wikidata": "Q10910065",
        "check_date": "2025-08-08",
        "name": "Bajaj",
        "shop": "motorcycle"
      }
    },
    {
      "type": "node",
      "id": 12628597304,
      "lat": 13.0132839,
      "lon": 77.5836479,
      "tags": {
        "brand": "Honda",
        "brand:wikidata": "Q9584",
        "check_date": "2025-08-08",
        "name": "Honda",
        "shop": "car"
      }
    },
    {
      "type": "node",
      "id": 12648710693,
      "lat": 13.0056661,
      "lon": 77.5806713,
      "tags": {
        "amenity": "restaurant",
        "check_date": "2025-04-12",
        "name": "Pulimunchi Restaurant",
        "payment:cash": "yes",
        "payment:credit_cards": "yes",
        "payment:debit_cards": "yes",
        "wheelchair": "limited"
      }
    },
    {
      "type": "node",
      "id": 12862846469,
      "lat": 13.0169602,
      "lon": 77.5914291,
      "tags": {
        "amenity": "fast_food",
        "cuisine": "burger",
        "delivery": "yes",
        "name": "Easy Bites by Empire",
        "takeaway": "yes"
      }
    },
    {
      "type": "node",
      "id": 12985053029,
      "lat": 13.0202802,
      "lon": 77.5783253,
      "tags": {
        "amenity": "bench",
        "backrest": "yes"
      }
    },
    {
      "type": "node",
      "id": 12985053030,
      "lat": 13.0201855,
      "lon": 77.5783702,
      "tags": {
        "amenity": "bench",
        "backrest": "yes"
      }
    },
    {
      "type": "node",
      "id": 13033883599,
      "lat": 13.015249,
      "lon": 77.583746,
      "tags": {
        "amenity": "place_of_worship",
        "religion": "hindu"
      }
    },
    {
      "type": "node",
      "id": 13057916465,
      "lat": 13.0136244,
      "lon": 77.583658,
      "tags": {
        "check_date": "2025-08-08",
        "name": "Tata Motors",
        "shop": "car"
      }
    },
    {
      "type": "node",
      "id": 13155774223,
      "lat": 13.0207668,
      "lon": 77.584449,
      "tags": {
        "check_date": "2025-09-19",
        "name": "Jawa",
        "shop": "motorcycle"
      }
    },
    {
      "type": "node",
      "id": 13155774224,
      "lat": 13.0203057,
      "lon": 77.5842015,
      "tags": {
        "check_date": "2025-09-19",
        "shop": "florist"
      }
    },
    {
      "type": "node",
      "id": 13173217403,
      "lat": 13.00902,
      "lon": 77.5782952,
      "tags": {
        "leisure": "fitness_centre",
        "name": "Patanjali Yogamandira",
        "sport": "yoga"
      }
    },
    {
      "type": "node",
      "id": 13227760614,
      "lat": 13.0055731,
      "lon": 77.5787571,
      "tags": {
        "amenity": "bar",
        "name": "Shetty Lunch Home"
      }
    },
    {
      "type": "node",
      "id": 13227760615,
      "lat": 13.0074096,
      "lon": 77.5784178,
      "tags": {
        "amenity": "fast_food",
        "cuisine": "juice",
        "name": "The Lassi Corner"
      }
    },
    {
      "type": "way",
      "id": 37107313,
      "center": {
        "lat": 13.0211693,
        "lon": 77.5748124
      },
      "tags": {
        "amenity": "research_institute",
        "landuse": "industrial",
        "name": "Central Power Research Institute",
        "name:kn": "ಕೇಂದ್ರ ವಿದ್ಯುತ್ ಸಂಶೋಧನಾ ಸಂಸ್ಥೆ",
        "office": "research",
        "website": "https://cpri.res.in/",
        "wikidata": "Q5061693",
        "wikipedia": "en:Central Power Research Institute"
      }
    },
    {
      "type": "way",
      "id": 37107603,
      "center": {
        "lat": 13.0159059,
        "lon": 77.5756278
      },
      "tags": {
        "addr:city": "Bengaluru",
        "addr:housename": "KV Hebbal",
        "addr:postcode": "560 080",
        "addr:street": "Dr. CV Raman Road",
        "amenity": "school",
        "brand": "Kendriya Vidyalaya",
        "brand:wikidata": "Q1156653",
        "name": "Kendriya Vidyalaya Hebbal",
        "name:kn": "ಕೇಂದ್ರೀಯ ವಿದ್ಯಾಲಯ ಹೆಬ್ಬಾಳ",
        "operator:type": "government_non_profit",
        "wheelchair": "limited"
      }
    },
    {
      "type": "way",
      "id": 37107621,
      "center": {
        "lat": 13.0185547,
        "lon": 77.5762613
      },
      "tags": {
        "access": "private",
        "golf:course": "18_hole",
        "leisure": "golf_course",
        "name": "Air Force Training Command Golf Course",
        "short_name": "AFTC Golf Course"
      }
    },
    {
      "type": "way",
      "id": 38858169,
      "center": {
        "lat": 13.0074764,
        "lon": 77.5775306
      },
      "tags": {
        "leisure": "sports_centre",
        "name": "Global Swim Centre Swimming Pool",
        "sport": "swimming"
      }
    },
    {
      "type": "way",
      "id": 38858195,
      "center": {
        "lat": 13.0144188,
        "lon": 77.575357
      },
      "tags": {
        "leisure": "pitch",
        "name": "Nagasena Vidyalaya",
        "name:kn": "ನಾಗಸೇನ ವಿದ್ಯಾಲಯ"
      }
    },
    {
      "type": "way",
      "id": 38858198,
      "center": {
        "lat": 13.0121051,
        "lon": 77.5828364
      },
      "tags": {
        "leisure": "park",
        "name": "Ramana Maharshi Park",
        "name:etymology:wikidata": "Q288441",
        "name:kn": "ರಮಣ ಮಹರ್ಷಿ ಉದ್ಯಾನವನ"
      }
    },
    {
      "type": "way",
      "id": 38858222,
      "center": {
        "lat": 13.0130745,
        "lon": 77.5811095
      },
      "tags": {
        "amenity": "college",
        "name": "Raman Research Institute",
        "name:etymology:wikidata": "Q60429",
        "short_name": "RRI",
        "start_date": "1948",
        "website": "https://rri.res.in",
        "wikidata": "Q1259644",
        "wikipedia": "en:Raman Research Institute"
      }
    },
    {
      "type": "way",
      "id": 38858223,
      "center": {
        "lat": 13.0066816,
        "lon": 77.580846
      },
      "tags": {
        "addr:street": "15th Cross Road",
        "amenity": "school",
        "check_date": "2024-07-17",
        "name": "Poorna Pragna School",
        "name:kn": "ಪೂರ್ಣ ಪ್ರಜ್ಞ ಶಾಲೆ"
      }
    },
    {
      "type": "way",
      "id": 38858233,
      "center": {
        "lat": 13.0124497,
        "lon": 77.5754611
      },
      "tags": {
        "alt_name": "Bangalore Mahanagarapalike Park",
        "leisure": "park",
        "name": "Sadashivanagar Low Level Park",
        "name:kn": "ಪಾಲಿಕೆ ಉದ್ಯಾನವನ",
        "official_name": "Lower Level Park"
      }
    },
    {
      "type": "way",
      "id": 38858241,
      "center": {
        "lat": 13.0135247,
        "lon": 77.5753732
      },
      "tags": {
        "addr:city": "Bengaluru",
        "addr:housenumber": "HKES, 14 A",
        "addr:postcode": "560080",
        "addr:street": "13th Main Road",
        "alt_name": "HKES National Public School",
        "amenity": "school",
        "loc_name": "HKES NPS",
        "name": "National Public School Sadashivanagar",
        "name:kn": "ರಾಷ್ಟ್ರೀಯ ಸಾರ್ವಜನಿಕ ಶಾಲೆ",
        "office": "educational_institution",
        "official_name": "HKES NPS National Public School",
        "phone": "08029906571",
        "short_name": "NPS Sadashivanagar",
        "website": "https://npssadashivanagar.com/"
      }
    },
    {
      "type": "way",
      "id": 38858245,
      "center": {
        "lat": 13.0059394,
        "lon": 77.5821459
      },
      "tags": {
        "leisure": "park"
      }
    },
    {
      "type": "way",
      "id": 46950393,
      "center": {
        "lat": 13.0066409,
        "lon": 77.5777065
      },
      "tags": {
        "addr:street": "Sankey Tank Road",
        "amenity": "school",
        "landuse": "education",
        "name": "Stella Maris Convent",
        "name:kn": "ಸ್ಟೆಲ್ಲಾ ಮಾರಿಸ್ ಕಾನ್ವೆಂಟ್"
      }
    },
    {
      "type": "way",
      "id": 113782048,
      "center": {
        "lat": 13.0070777,
        "lon": 77.5782525
      },
      "tags": {
        "leisure": "park"
      }
    },
    {
      "type": "way",
      "id": 133299271,
      "center": {
        "lat": 13.0211198,
        "lon": 77.5779131
      },
      "tags": {
        "leisure": "park"
      }
    },
    {
      "type": "way",
      "id": 133340778,
      "center": {
        "lat": 13.0201319,
        "lon": 77.5779298
      },
      "tags": {
        "barrier": "fence",
        "leisure": "park"
      }
    },
    {
      "type": "way",
      "id": 139216933,
      "center": {
        "lat": 13.0144945,
        "lon": 77.576137
      },
      "tags": {
        "addr:city": "Bangalore",
        "addr:housenumber": "CV Raman Road",
        "addr:postcode": "560080",
        "addr:street": "9th Cross Road",
        "amenity": "place_of_worship",
        "building": "yes",
        "denomination": "theravada",
        "name": "Buddhist Temple",
        "name:kn": "ಬುದ್ಧ ವಿಹಾರ",
        "religion": "buddhist"
      }
    },
    {
      "type": "way",
      "id": 139217425,
      "center": {
        "lat": 13.0126844,
        "lon": 77.5746448
      },
      "tags": {
        "leisure": "park",
        "name": "Island Park"
      }
    },
    {
      "type": "way",
      "id": 139218455,
      "center": {
        "lat": 13.0126844,
        "lon": 77.5746448
      },
      "tags": {
        "leisure": "park"
      }
    },
    {
      "type": "way",
      "id": 221353983,
      "center": {
        "lat": 13.0069761,
        "lon": 77.5819162
      },
      "tags": {
        "access": "yes",
        "leisure": "playground",
        "name": "Janatha Bazaar Park"
      }
    },
    {
      "type": "way",
      "id": 221353984,
      "center": {
        "lat": 13.0066717,
        "lon": 77.5821335
      },
      "tags": {
        "amenity": "marketplace",
        "name": "Janatha Bazaar",
        "name:kn": "ಜನತಾ ಬಜಾರ್",
        "opening_hours": "Mo-Sa 10:00-19:00",
        "shop": "supermarket"
      }
    },
    {
      "type": "way",
      "id": 222965540,
      "center": {
        "lat": 13.0059246,
        "lon": 77.5789837
      },
      "tags": {
        "amenity": "fast_food",
        "name": "Sangam",
        "name:kn": "ಸಂಗಮ್"
      }
    },
    {
      "type": "way",
      "id": 344351449,
      "center": {
        "lat": 13.0119717,
        "lon": 77.588618
      },
      "tags": {
        "leisure": "pitch",
        "sport": "tennis"
      }
    },
    {
      "type": "way",
      "id": 344351451,
      "center": {
        "lat": 13.0114593,
        "lon": 77.5882881
      },
      "tags": {
        "leisure": "pitch",
        "sport": "tennis"
      }
    },
    {
      "type": "way",
      "id": 344351452,
      "center": {
        "lat": 13.0117766,
        "lon": 77.5834933
      },
      "tags": {
        "amenity": "place_of_worship",
        "name": "Ramana Maharshi Shrine and Meditation Hall",
        "religion": "hindu"
      }
    },
    {
      "type": "way",
      "id": 345958934,
      "center": {
        "lat": 13.008233,
        "lon": 77.5809358
      },
      "tags": {
        "amenity": "place_of_worship",
        "building": "temple",
        "check_date": "2024-08-29",
        "name": "Ganapati Temple",
        "name:kn": "ಗಣಪತಿ ದೇವಸ್ಥಾನ",
        "religion": "hindu"
      }
    },
    {
      "type": "way",
      "id": 346433811,
      "center": {
        "lat": 13.0070898,
        "lon": 77.5815822
      },
      "tags": {
        "amenity": "place_of_worship",
        "building": "temple",
        "check_date": "2024-08-29",
        "name": "Eshwara Temple",
        "name:kn": "ಈಶ್ವರ ದೇವಸ್ಥಾನ",
        "religion": "hindu"
      }
    },
    {
      "type": "way",
      "id": 347104511,
      "center": {
        "lat": 13.0059731,
        "lon": 77.5885394
      },
      "tags": {
        "access": "private",
        "leisure": "pitch",
        "sport": "tennis"
      }
    },
    {
      "type": "way",
      "id": 400433081,
      "center": {
        "lat": 13.0122025,
        "lon": 77.5822333
      },
      "tags": {
        "leisure": "garden"
      }
    },
    {
      "type": "way",
      "id": 400433083,
      "center": {
        "lat": 13.0125785,
        "lon": 77.5827177
      },
      "tags": {
        "leisure": "garden"
      }
    },
    {
      "type": "way",
      "id": 400433085,
      "center": {
        "lat": 13.012166,
        "lon": 77.5826921
      },
      "tags": {
        "leisure": "garden"
      }
    },
    {
      "type": "way",
      "id": 400433087,
      "center": {
        "lat": 13.0124164,
        "lon": 77.5824439
      },
      "tags": {
        "leisure": "garden"
      }
    },
    {
      "type": "way",
      "id": 400433095,
      "center": {
        "lat": 13.0117665,
        "lon": 77.5834725
      },
      "tags": {
        "amenity": "place_of_worship",
        "building": "yes",
        "name": "Sri Ramana Maharshi Shrine and Meditation Hall",
        "religion": "hindu"
      }
    },
    {
      "type": "way",
      "id": 402011848,
      "center": {
        "lat": 13.0050551,
        "lon": 77.5796771
      },
      "tags": {
        "leisure": "park"
      }
    },
    {
      "type": "way",
      "id": 402011853,
      "center": {
        "lat": 13.005556,
        "lon": 77.5809082
      },
      "tags": {
        "addr:city": "Bengaluru",
        "addr:country": "IN",
        "addr:hamlet": "Lower Palace Orchards",
        "addr:housenumber": "197/36",
        "addr:postcode": "560080",
        "addr:street": "16th Cross Road",
        "addr:suburb": "Sadashivanagar",
        "alt_name": "Indian Institute for Human Settlements Bangalore City Campus",
        "amenity": "college",
        "full_name": "Indian Institute for Human Settlements Bengaluru City Campus, Sadashivanagar",
        "landuse": "education",
        "name": "IIHS, Bengaluru City Campus",
        "official_name": "IIHS Bengaluru City Campus, Sadashivanagara",
        "opening_hours": "Mo-Fr 09:00-18:00",
        "operator": "Indian Institute for Human Settlements",
        "phone": "+91 80 6760 6666",
        "short_name": "IIHS",
        "website": "https://iihs.co.in"
      }
    },
    {
      "type": "way",
      "id": 696150483,
      "center": {
        "lat": 13.0158298,
        "lon": 77.5760877
      },
      "tags": {
        "leisure": "garden"
      }
    },
    {
      "type": "way",
      "id": 696150484,
      "center": {
        "lat": 13.0157782,
        "lon": 77.5750449
      },
      "tags": {
        "access": "private",
        "leisure": "park",
        "name": "School Ground",
        "operator": "KV Hebbal",
        "surface": "ground"
      }
    },
    {
      "type": "way",
      "id": 696150486,
      "center": {
        "lat": 13.0150479,
        "lon": 77.5736311
      },
      "tags": {
        "leisure": "garden"
      }
    },
    {
      "type": "way",
      "id": 696150489,
      "center": {
        "lat": 13.0074534,
        "lon": 77.5775773
      },
      "tags": {
        "access": "permissive",
        "leisure": "swimming_pool",
        "location": "outdoor"
      }
    },
    {
      "type": "way",
      "id": 696150490,
      "center": {
        "lat": 13.0077151,
        "lon": 77.5773074
      },
      "tags": {
        "access": "permissive",
        "leisure": "swimming_pool"
      }
    },
    {
      "type": "way",
      "id": 775184932,
      "center": {
        "lat": 13.019624,
        "lon": 77.5856561
      },
      "tags": {
        "leisure": "garden"
      }
    },
    {
      "type": "way",
      "id": 775184933,
      "center": {
        "lat": 13.0204442,
        "lon": 77.5858046
      },
      "tags": {
        "access": "private",
        "leisure": "swimming_pool"
      }
    },
    {
      "type": "way",
      "id": 775184934,
      "center": {
        "lat": 13.0196648,
        "lon": 77.5855236
      },
      "tags": {
        "access": "customers",
        "leisure": "swimming_pool"
      }
    },
    {
      "type": "way",
      "id": 775184937,
      "center": {
        "lat": 13.0206624,
        "lon": 77.5857778
      },
      "tags": {
        "leisure": "garden"
      }
    },
    {
      "type": "way",
      "id": 775186841,
      "center": {
        "lat": 13.0201187,
        "lon": 77.5815427
      },
      "tags": {
        "access": "no",
        "leisure": "pitch",
        "sport": "cricket"
      }
    },
    {
      "type": "way",
      "id": 775186842,
      "center": {
        "lat": 13.021008,
        "lon": 77.5821548
      },
      "tags": {
        "access": "no",
        "leisure": "swimming_pool",
        "sport": "swimming"
      }
    },
    {
      "type": "way",
      "id": 775186843,
      "center": {
        "lat": 13.0191431,
        "lon": 77.5820683
      },
      "tags": {
        "access": "no",
        "leisure": "pitch",
        "sport": "tennis"
      }
    },
    {
      "type": "way",
      "id": 1040899000,
      "center": {
        "lat": 13.0138956,
        "lon": 77.5761248
      },
      "tags": {
        "addr:street": "CV Raman Avenue",
        "amenity": "school",
        "name": "Nagasena Vidyalaya",
        "name:kn": "ನಾಗಸೇನ ವಿದ್ಯಾಲಯ"
      }
    },
    {
      "type": "way",
      "id": 1062359635,
      "center": {
        "lat": 13.0053007,
        "lon": 77.5813072
      },
      "tags": {
        "amenity": "place_of_worship",
        "check_date": "2024-07-16",
        "denomination": "anglican",
        "name": "CSI Ascension Church",
        "religion": "christian"
      }
    },
    {
      "type": "way",
      "id": 1062359636,
      "center": {
        "lat": 13.004881,
        "lon": 77.5808184
      },
      "tags": {
        "amenity": "fuel",
        "brand": "Shell",
        "brand:wikidata": "Q110716465",
        "compressed_air": "yes",
        "name": "Shell",
        "name:kn": "ಶೆಲ್",
        "operator": "Shell"
      }
    },
    {
      "type": "way",
      "id": 1062372964,
      "center": {
        "lat": 13.0067942,
        "lon": 77.5765549
      },
      "tags": {
        "amenity": "community_centre",
        "name": "Tirumala Tirupathi Devasthanam Kalyana Mantapa"
      }
    },
    {
      "type": "way",
      "id": 1065048410,
      "center": {
        "lat": 13.0150203,
        "lon": 77.581429
      },
      "tags": {
        "leisure": "garden"
      }
    },
    {
      "type": "way",
      "id": 1106402201,
      "center": {
        "lat": 13.0084582,
        "lon": 77.5776722
      },
      "tags": {
        "leisure": "park"
      }
    },
    {
      "type": "way",
      "id": 1147342239,
      "center": {
        "lat": 13.0091893,
        "lon": 77.5759099
      },
      "tags": {
        "leisure": "park"
      }
    },
    {
      "type": "way",
      "id": 1148302623,
      "center": {
        "lat": 13.0060297,
        "lon": 77.5789027
      },
      "tags": {
        "addr:street": "Vyalikaval Main Road",
        "amenity": "fuel",
        "brand": "Bharat Petroleum",
        "brand:wikidata": "Q854826",
        "check_date": "2024-12-13",
        "compressed_air": "yes",
        "landuse": "commercial",
        "name": "Bharath Petroleum",
        "name:kn": "ಭಾರತ್ ಪೆಟ್ರೋಲಿಯಂ",
        "operator": "Bharat Petroleum"
      }
    },
    {
      "type": "way",
      "id": 1214107287,
      "center": {
        "lat": 13.010085,
        "lon": 77.5752071
      },
      "tags": {
        "amenity": "shelter",
        "building": "yes",
        "shelter_type": "gazebo"
      }
    },
    {
      "type": "way",
      "id": 1214107304,
      "center": {
        "lat": 13.0115823,
        "lon": 77.5752823
      },
      "tags": {
        "leisure": "fitness_station",
        "sport": "fitness"
      }
    },
    {
      "type": "way",
      "id": 1214107305,
      "center": {
        "lat": 13.0094688,
        "lon": 77.5755041
      },
      "tags": {
        "leisure": "fitness_station",
        "sport": "fitness"
      }
    },
    {
      "type": "way",
      "id": 1289175416,
      "center": {
        "lat": 13.0151607,
        "lon": 77.5779033
      },
      "tags": {
        "access": "no",
        "leisure": "pitch",
        "sport": "soccer"
      }
    },
    {
      "type": "way",
      "id": 1305773021,
      "center": {
        "lat": 13.0169957,
        "lon": 77.575873
      },
      "tags": {
        "access": "private",
        "amenity": "parking",
        "parking": "surface"
      }
    },
    {
      "type": "way",
      "id": 1337917261,
      "center": {
        "lat": 13.0100573,
        "lon": 77.5776393
      },
      "tags": {
        "access": "private",
        "leisure": "swimming_pool"
      }
    },
    {
      "type": "way",
      "id": 1338154676,
      "center": {
        "lat": 13.0113226,
        "lon": 77.5880668
      },
      "tags": {
        "amenity": "events_venue",
        "name": "The Gardenia"
      }
    },
    {
      "type": "way",
      "id": 1338154677,
      "center": {
        "lat": 13.0105561,
        "lon": 77.588105
      },
      "tags": {
        "addr:place": "Palace Grounds",
        "amenity": "events_venue",
        "name": "The Banquet Hall"
      }
    },
    {
      "type": "way",
      "id": 1338239585,
      "center": {
        "lat": 13.0108293,
        "lon": 77.5884256
      },
      "tags": {
        "addr:place": "Palace Grounds",
        "amenity": "events_venue",
        "full_name": "Tripua Vasini White Petals",
        "name": "White Petals"
      }
    },
    {
      "type": "way",
      "id": 1338239598,
      "center": {
        "lat": 13.0114205,
        "lon": 77.5888633
      },
      "tags": {
        "access": "private",
        "amenity": "parking",
        "parking": "surface"
      }
    },
    {
      "type": "way",
      "id": 1338239599,
      "center": {
        "lat": 13.0106499,
        "lon": 77.5890105
      },
      "tags": {
        "access": "private",
        "amenity": "parking",
        "parking": "surface"
      }
    },
    {
      "type": "way",
      "id": 1338239604,
      "center": {
        "lat": 13.0102567,
        "lon": 77.5866441
      },
      "tags": {
        "access": "private",
        "leisure": "pitch",
        "sport": "tennis"
      }
    },
    {
      "type": "way",
      "id": 1338260824,
      "center": {
        "lat": 13.0046242,
        "lon": 77.5873025
      },
      "tags": {
        "addr:place": "Palace Grounds",
        "amenity": "events_venue",
        "name": "Princess Shrine"
      }
    },
    {
      "type": "way",
      "id": 1338260825,
      "center": {
        "lat": 13.0060195,
        "lon": 77.5877498
      },
      "tags": {
        "leisure": "pitch",
        "name": "BPCA Cricket Ground",
        "sport": "cricket"
      }
    },
    {
      "type": "way",
      "id": 1338260826,
      "center": {
        "lat": 13.0059948,
        "lon": 77.5858702
      },
      "tags": {
        "addr:place": "Palace Grounds",
        "amenity": "events_venue",
        "name": "Shringar Palace Garden"
      }
    },
    {
      "type": "way",
      "id": 1338260828,
      "center": {
        "lat": 13.0062941,
        "lon": 77.5851183
      },
      "tags": {
        "addr:place": "Palace Grounds",
        "amenity": "events_venue",
        "name": "Palace Sheesh Mahal"
      }
    },
    {
      "type": "way",
      "id": 1338260831,
      "center": {
        "lat": 13.007397,
        "lon": 77.5865362
      },
      "tags": {
        "addr:place": "Palace Grounds",
        "alt_name": "The Grand Castle",
        "amenity": "events_venue",
        "name": "The Royal Senate"
      }
    },
    {
      "type": "way",
      "id": 1338260832,
      "center": {
        "lat": 13.0075322,
        "lon": 77.5853999
      },
      "tags": {
        "addr:place": "Palace Grounds",
        "alt_name": "Nalapad Pavilion",
        "amenity": "events_venue",
        "name": "Kings Court"
      }
    },
    {
      "type": "way",
      "id": 1338260833,
      "center": {
        "lat": 13.0090543,
        "lon": 77.5860711
      },
      "tags": {
        "addr:place": "Palace Grounds",
        "amenity": "events_venue",
        "name": "Gayatri Vihar"
      }
    },
    {
      "type": "way",
      "id": 1338260834,
      "center": {
        "lat": 13.0107933,
        "lon": 77.5844434
      },
      "tags": {
        "access": "private",
        "amenity": "parking",
        "parking": "surface"
      }
    },
    {
      "type": "way",
      "id": 1338260836,
      "center": {
        "lat": 13.0062527,
        "lon": 77.5844561
      },
      "tags": {
        "access": "private",
        "amenity": "parking",
        "parking": "surface"
      }
    },
    {
      "type": "way",
      "id": 1343349411,
      "center": {
        "lat": 13.0211878,
        "lon": 77.5844051
      },
      "tags": {
        "amenity": "fuel",
        "brand": "Shell",
        "brand:wikidata": "Q110716465",
        "compressed_air": "yes",
        "name": "Shell",
        "opening_hours": "Mo-Su 06:00-23:00",
        "operator": "Shell",
        "wheelchair": "limited"
      }
    }
  ]
}