{
  "area_name": "AECS Layout, A block",
  "osm_id": 4304331149,
  "osm_type": "node",
  "place_type": "neighbourhood",
  "amenity_count": 70,
  "amenities": [
    {
      "type": "node",
      "id": 1469644050,
      "lat": 12.8841338,
      "lon": 77.6434522,
      "tags": {
        "addr:street": "Hosur Road",
        "name": "Toyota Used Cars",
        "shop": "car"
      }
    },
    {
      "type": "node",
      "id": 1470730703,
      "lat": 12.8754555,
      "lon": 77.6483068,
      "tags": {
        "amenity": "atm",
        "brand": "State Bank of India",
        "brand:wikidata": "Q1340361",
        "name": "State Bank of India",
        "name:kn": "ಎಸ್ ಬಿ ಐ",
        "operator": "State Bank of India",
        "operator:wikidata": "Q1340361",
        "short_name": "SBI"
      }
    },
    {
      "type": "node",
      "id": 1470842637,
      "lat": 12.8856947,
      "lon": 77.6427196,
      "tags": {
        "brand": "Škoda",
        "brand:wikidata": "Q29637",
        "name": "Skoda Show Room",
        "shop": "car"
      }
    },
    {
      "type": "node",
      "id": 1471665996,
      "lat": 12.8853599,
      "lon": 77.6417564,
      "tags": {
        "amenity": "fuel",
        "brand": "Indian Oil",
        "brand:wikidata": "Q1289348",
        "brand:wikipedia": "en:Indian Oil Corporation",
        "name": "Indian Oil",
        "name:kn": "ಇಂಡಿಯನ್ ಆಯಿಲ್"
      }
    },
    {
      "type": "node",
      "id": 1471800769,
      "lat": 12.8830146,
      "lon": 77.6442833,
      "tags": {
        "addr:street": "Hosur Road",
        "check_date": "2025-03-11",
        "name": "Dakshin Honda",
        "shop": "car"
      }
    },
    {
      "type": "node",
      "id": 1472032408,
      "lat": 12.8778195,
      "lon": 77.6472592,
      "tags": {
        "name": "Force Motors",
        "shop": "car"
      }
    },
    {
      "type": "node",
      "id": 1472032985,
      "lat": 12.8761746,
      "lon": 77.6476656,
      "tags": {
        "brand": "Hero",
        "brand:wikidata": "Q1613763",
        "name": "Hero",
        "shop": "motorcycle",
        "wheelchair": "no"
      }
    },
    {
      "type": "node",
      "id": 1603379726,
      "lat": 12.8847042,
      "lon": 77.6429877,
      "tags": {
        "amenity": "atm",
        "operator": "State Bank of Mysore"
      }
    },
    {
      "type": "node",
      "id": 2449294308,
      "lat": 12.8791713,
      "lon": 77.6454925,
      "tags": {
        "amenity": "hospital",
        "emergency": "yes",
        "name": "Live100"
      }
    },
    {
      "type": "node",
      "id": 4034230238,
      "lat": 12.8859277,
      "lon": 77.6416481,
      "tags": {
        "addr:city": "Bangalore",
        "addr:housenumber": "82/2",
        "addr:postcode": "560068",
        "addr:street": "NVR complex, Kudlu Gate, Hosur Road",
        "name": "ServiceMyMobile.com",
        "opening_hours": "10:00-19:00",
        "operator": "pradeep",
        "shop": "mobile_phone"
      }
    },
    {
      "type": "node",
      "id": 4056844951,
      "lat": 12.8826477,
      "lon": 77.6413709,
      "tags": {
        "addr:city": "Bangalore",
        "addr:street": "5th Cross Road",
        "amenity": "place_of_worship",
        "denomination": "orthodox",
        "name": "Vinayaka Temple",
        "name:kn": "ವಿನಾಯಕ ದೇವಸ್ಥಾನ",
        "religion": "hindu"
      }
    },
    {
      "type": "node",
      "id": 4057972757,
      "lat": 12.8918648,
      "lon": 77.6496129,
      "tags": {
        "amenity": "atm",
        "brand": "Axis Bank",
        "brand:wikidata": "Q2003549",
        "name": "Axis Bank",
        "operator": "Axis Bank",
        "operator:wikidata": "Q2003549"
      }
    },
    {
      "type": "node",
      "id": 4375628582,
      "lat": 12.8771451,
      "lon": 77.6466294,
      "tags": {
        "amenity": "place_of_worship",
        "denomination": "hindu",
        "name": "Sri Sri Sri Patalamma Temple",
        "religion": "hindu"
      }
    },
    {
      "type": "node",
      "id": 5370990299,
      "lat": 12.8853147,
      "lon": 77.6560561,
      "tags": {
        "name": "Safa Supermarket",
        "shop": "supermarket"
      }
    },
    {
      "type": "node",
      "id": 5486928824,
      "lat": 12.8905373,
      "lon": 77.6447752,
      "tags": {
        "addr:postcode": "560068",
        "amenity": "restaurant",
        "indoor_seating": "yes",
        "name": "Bhagya Veg Hotel",
        "outdoor_seating": "no"
      }
    },
    {
      "type": "node",
      "id": 6745841071,
      "lat": 12.8821255,
      "lon": 77.6559921,
      "tags": {
        "addr:place": "Parappana Agrahara",
        "amenity": "school",
        "isced:level": "3",
        "name": "Shree Vidyanikethan",
        "name:kn": "ಶ್ರೀ ವಿದ್ಯಾನಿಕೇತನ, ಪರಪ್ಪನ ಅಗ್ರಹಾರ",
        "operator": "Private Un-Aided",
        "school": "Higher Secondary"
      }
    },
    {
      "type": "node",
      "id": 7046466599,
      "lat": 12.8776064,
      "lon": 77.6449397,
      "tags": {
        "addr:city": "Bengaluru",
        "addr:housenumber": "#73/14",
        "addr:postcode": "560068",
        "addr:street": "Aishwarya Crystal Layout",
        "amenity": "restaurant",
        "name": "NuTy Central Kitchen"
      }
    },
    {
      "type": "node",
      "id": 7572669027,
      "lat": 12.8859649,
      "lon": 77.6489078,
      "tags": {
        "addr:district": "Bengaluru Urban",
        "addr:full": "AECS Layout, Kudlu",
        "addr:postcode": "560068",
        "addr:state": "Karnataka",
        "amenity": "hospital",
        "name": "Hospitec Multispeciality Hospital",
        "source": "Local Knowledge"
      }
    },
    {
      "type": "node",
      "id": 7572669033,
      "lat": 12.88515,
      "lon": 77.64925,
      "tags": {
        "addr:district": "Bengaluru Urban",
        "addr:full": "AECS Layout, Singasandra, Bengaluru",
        "addr:postcode": "560068",
        "addr:state": "Karnataka",
        "amenity": "dentist",
        "check_date": "2024-10-20",
        "name": "Madni Dental Clinic",
        "source": "Local Knowledge"
      }
    },
    {
      "type": "node",
      "id": 7572669058,
      "lat": 12.8875348,
      "lon": 77.6496807,
      "tags": {
        "addr:district": "Bengaluru Urban",
        "addr:full": "AECS Layout, Singasandra, Bengaluru",
        "addr:postcode": "560068",
        "addr:state": "Karnataka",
        "amenity": "clinic",
        "name": "Vita Family Clinic",
        "source": "Local Knowledge"
      }
    },
    {
      "type": "node",
      "id": 8187964181,
      "lat": 12.88485,
      "lon": 77.650304,
      "tags": {
        "addr:full": "1066, A Blk, AECS Layout, Hosur Main Rd, Singasandra, AECS Layout - A Block, AECS Layout, Singasandra, Bengaluru, Karnataka",
        "addr:state": "Karnataka",
        "amenity": "bank",
        "brand": "HDFC Bank",
        "brand:wikidata": "Q631047",
        "name": "HDFC Bank",
        "name:kn": "ಎಚ್. ಡಿ. ಎಫ್. ಸಿ. ಬ್ಯಾಂಕ್",
        "short_name": "HDFC"
      }
    },
    {
      "type": "node",
      "id": 11117236925,
      "lat": 12.8844763,
      "lon": 77.643342,
      "tags": {
        "amenity": "restaurant",
        "name": "Macaw by Stories"
      }
    },
    {
      "type": "node",
      "id": 11700164026,
      "lat": 12.8804891,
      "lon": 77.6552588,
      "tags": {
        "addr:city": "Electronic city post",
        "addr:housenumber": "13-14/1",
        "addr:postcode": "560100",
        "addr:street": "Haralur Road",
        "amenity": "hospital",
        "healthcare": "dentist",
        "healthcare:speciality": "dentist",
        "name": "Smile Smart Dental & Implant Centre",
        "operator": "Smile Smart Dental",
        "operator:type": "private"
      }
    },
    {
      "type": "node",
      "id": 11927462530,
      "lat": 12.8796141,
      "lon": 77.6463727,
      "tags": {
        "amenity": "parking_entrance",
        "parking": "underground"
      }
    },
    {
      "type": "node",
      "id": 11927462531,
      "lat": 12.8796165,
      "lon": 77.6468782,
      "tags": {
        "amenity": "parking_entrance",
        "parking": "underground"
      }
    },
    {
      "type": "node",
      "id": 12144434656,
      "lat": 12.8755223,
      "lon": 77.6490584,
      "tags": {
        "amenity": "atm",
        "brand": "Kotak Mahindra Bank",
        "brand:wikidata": "Q2040404",
        "check_date": "2024-08-29",
        "opening_hours": "24/7",
        "operator": "Kotak Mahindra Bank",
        "operator:wikidata": "Q2040404",
        "source": "survey"
      }
    },
    {
      "type": "node",
      "id": 12230072796,
      "lat": 12.8806782,
      "lon": 77.6525736,
      "tags": {
        "addr:city": "Bengaluru",
        "addr:district": "Singasandra",
        "addr:postcode": "560068",
        "addr:street": "AECS Layout Main Road",
        "amenity": "cafe",
        "cuisine": "tea;indian",
        "internet_access": "no",
        "name": "Tealogy",
        "opening_hours": "Mo-Su 10:00-22:30",
        "payment:cash": "yes",
        "payment:contactless": "yes",
        "payment:google_pay": "yes",
        "payment:upi": "yes",
        "payment:upi_qr": "yes",
        "takeaway": "yes",
        "website": "https://tealogy.in/"
      }
    },
    {
      "type": "node",
      "id": 12230123287,
      "lat": 12.8787343,
      "lon": 77.6537102,
      "tags": {
        "amenity": "fast_food",
        "brand": "Domino's",
        "brand:wikidata": "Q839466",
        "cuisine": "pizza",
        "drive_through": "no",
        "name": "Domino's",
        "takeaway": "yes"
      }
    },
    {
      "type": "node",
      "id": 12230123289,
      "lat": 12.8791967,
      "lon": 77.6534888,
      "tags": {
        "amenity": "cafe",
        "cuisine": "coffee_shop;burger;sandwich;ice_cream;ramen;noodle;pasta;tea",
        "diet:vegetarian": "yes",
        "internet_access": "no",
        "name": "Beverich Hotspot",
        "opening_hours": "Mo-Su 10:00-22:00",
        "outdoor_seating": "no"
      }
    },
    {
      "type": "node",
      "id": 12230142463,
      "lat": 12.8806944,
      "lon": 77.6529533,
      "tags": {
        "amenity": "bank",
        "atm": "yes",
        "brand": "Bank of Baroda",
        "brand:wikidata": "Q2003797",
        "name": "Bank of Baroda",
        "operator": "Bank of Baroda"
      }
    },
    {
      "type": "node",
      "id": 12230142464,
      "lat": 12.8806874,
      "lon": 77.6529435,
      "tags": {
        "amenity": "post_office",
        "brand": "Blue Dart Express",
        "brand:short": "Blue Dart",
        "brand:wikidata": "Q54621493",
        "name": "Blue Dart",
        "operator": "Blue Dart Express",
        "operator:short": "Blue Dart",
        "operator:wikidata": "Q54621493"
      }
    },
    {
      "type": "node",
      "id": 12270754751,
      "lat": 12.878507,
      "lon": 77.6550824,
      "tags": {
        "amenity": "pharmacy",
        "check_date": "2024-10-20",
        "healthcare": "pharmacy",
        "name": "Aster Pharmacy"
      }
    },
    {
      "type": "node",
      "id": 12270754753,
      "lat": 12.8800977,
      "lon": 77.6530592,
      "tags": {
        "amenity": "clinic",
        "check_date": "2024-10-20",
        "healthcare": "clinic"
      }
    },
    {
      "type": "node",
      "id": 12270754754,
      "lat": 12.8827544,
      "lon": 77.6503642,
      "tags": {
        "amenity": "pharmacy",
        "brand": "Apollo Pharmacy",
        "brand:wikidata": "Q62562612",
        "check_date": "2024-10-20",
        "healthcare": "pharmacy",
        "name": "Apollo Pharmacy"
      }
    },
    {
      "type": "node",
      "id": 12270754755,
      "lat": 12.8841477,
      "lon": 77.6492549,
      "tags": {
        "amenity": "hospital",
        "check_date": "2024-10-20",
        "healthcare": "hospital"
      }
    },
    {
      "type": "node",
      "id": 12270754756,
      "lat": 12.8859463,
      "lon": 77.6495484,
      "tags": {
        "amenity": "pharmacy",
        "check_date": "2024-10-20",
        "healthcare": "pharmacy",
        "name": "SS Pharmacy"
      }
    },
    {
      "type": "node",
      "id": 12270754757,
      "lat": 12.8892622,
      "lon": 77.6505317,
      "tags": {
        "amenity": "hospital",
        "check_date": "2024-10-20",
        "healthcare": "hospital",
        "name": "Raksha Hospital"
      }
    },
    {
      "type": "node",
      "id": 12270754758,
      "lat": 12.8890673,
      "lon": 77.6512336,
      "tags": {
        "amenity": "pharmacy",
        "check_date": "2024-10-20",
        "healthcare": "pharmacy",
        "name": "Sri Manjunatha Medicals"
      }
    },
    {
      "type": "node",
      "id": 12270754759,
      "lat": 12.8891007,
      "lon": 77.6520774,
      "tags": {
        "amenity": "pharmacy",
        "check_date": "2024-10-20",
        "healthcare": "pharmacy",
        "name": "Keshav Medical & General Store",
        "opening_hours": "10:00-14:00,17:00-21:00"
      }
    },
    {
      "type": "node",
      "id": 12547020720,
      "lat": 12.8791766,
      "lon": 77.646483,
      "tags": {
        "addr:floor": "G",
        "air_conditioning": "yes",
        "amenity": "restaurant",
        "check_date": "2025-05-31",
        "cuisine": "indian",
        "diet:halal": "yes",
        "level": "0",
        "name": "Meghana Foods",
        "name:en": "Meghana Foods",
        "payment:cash": "yes",
        "payment:mastercard": "yes",
        "payment:visa": "yes",
        "source": "survey"
      }
    },
    {
      "type": "node",
      "id": 12876472292,
      "lat": 12.8770005,
      "lon": 77.6478369,
      "tags": {
        "amenity": "fuel",
        "brand": "Hindustan Petroleum",
        "brand:wikidata": "Q1619375",
        "check_date": "2025-08-18",
        "check_date:compressed_air": "2025-08-18",
        "compressed_air": "yes",
        "name": "HP",
        "official_name": "Hindustan Petroleum",
        "self_service": "no"
      }
    },
    {
      "type": "node",
      "id": 12977407786,
      "lat": 12.8807559,
      "lon": 77.6455534,
      "tags": {
        "check_date": "2025-07-04",
        "name": "Standard Furniture",
        "shop": "furniture"
      }
    },
    {
      "type": "node",
      "id": 13070296265,
      "lat": 12.8807477,
      "lon": 77.6448333,
      "tags": {
        "access": "yes",
        "amenity": "motorcycle_parking",
        "capacity": "90",
        "fee": "yes",
        "name": "Singasandra Metro Parking",
        "operator": "BMRCL",
        "parking": "surface"
      }
    },
    {
      "type": "way",
      "id": 236976152,
      "center": {
        "lat": 12.8788545,
        "lon": 77.6456513
      },
      "tags": {
        "amenity": "parking",
        "name": "Live100 Parking",
        "parking": "surface"
      }
    },
    {
      "type": "way",
      "id": 1257330711,
      "center": {
        "lat": 12.8859438,
        "lon": 77.643501
      },
      "tags": {
        "amenity": "parking",
        "parking": "surface"
      }
    },
    {
      "type": "way",
      "id": 1257330712,
      "center": {
        "lat": 12.8886924,
        "lon": 77.6449111
      },
      "tags": {
        "leisure": "sports_centre"
      }
    },
    {
      "type": "way",
      "id": 1257330713,
      "center": {
        "lat": 12.8887656,
        "lon": 77.6447307
      },
      "tags": {
        "amenity": "school"
      }
    },
    {
      "type": "way",
      "id": 1257330714,
      "center": {
        "lat": 12.8891899,
        "lon": 77.6448434
      },
      "tags": {
        "leisure": "sports_centre"
      }
    },
    {
      "type": "way",
      "id": 1267842313,
      "center": {
        "lat": 12.8859026,
        "lon": 77.65116
      },
      "tags": {
        "amenity": "school",
        "education": "school",
        "name": "Kalanikethan School"
      }
    },
    {
      "type": "way",
      "id": 1285829288,
      "center": {
        "lat": 12.885453,
        "lon": 77.6434066
      },
      "tags": {
        "leisure": "pitch"
      }
    },
    {
      "type": "way",
      "id": 1285829291,
      "center": {
        "lat": 12.8835237,
        "lon": 77.6448106
      },
      "tags": {
        "amenity": "parking"
      }
    },
    {
      "type": "way",
      "id": 1285829294,
      "center": {
        "lat": 12.8811682,
        "lon": 77.6452788
      },
      "tags": {
        "amenity": "fuel",
        "compressed_air": "yes",
        "name": "Indian Oil"
      }
    },
    {
      "type": "way",
      "id": 1285829300,
      "center": {
        "lat": 12.8789701,
        "lon": 77.6467083
      },
      "tags": {
        "amenity": "parking",
        "parking": "surface"
      }
    },
    {
      "type": "way",
      "id": 1297657106,
      "center": {
        "lat": 12.8846916,
        "lon": 77.64259
      },
      "tags": {
        "access": "yes",
        "amenity": "parking",
        "parking": "layby"
      }
    },
    {
      "type": "way",
      "id": 1297657108,
      "center": {
        "lat": 12.8848271,
        "lon": 77.6427135
      },
      "tags": {
        "access": "yes",
        "amenity": "parking",
        "parking": "layby"
      }
    },
    {
      "type": "way",
      "id": 1305166692,
      "center": {
        "lat": 12.8819721,
        "lon": 77.6530013
      },
      "tags": {
        "leisure": "park"
      }
    },
    {
      "type": "way",
      "id": 1305166693,
      "center": {
        "lat": 12.8815191,
        "lon": 77.6527274
      },
      "tags": {
        "amenity": "place_of_worship",
        "check_date": "2024-10-20",
        "landuse": "religious",
        "name": "Shree Mahaganapathi Temple",
        "religion": "hindu"
      }
    },
    {
      "type": "way",
      "id": 1374095334,
      "center": {
        "lat": 12.8835577,
        "lon": 77.6428894
      },
      "tags": {
        "amenity": "fuel",
        "brand": "Shell",
        "brand:wikidata": "Q110716465",
        "check_date": "2024-04-03",
        "name": "Shell",
        "self_service": "no",
        "source": "survey"
      }
    },
    {
      "type": "way",
      "id": 1419979521,
      "center": {
        "lat": 12.8854602,
        "lon": 77.6545057
      },
      "tags": {
        "amenity": "place_of_worship",
        "building": "yes",
        "religion": "hindu"
      }
    },
    {
      "type": "way",
      "id": 1419979527,
      "center": {
        "lat": 12.8909155,
        "lon": 77.6511482
      },
      "tags": {
        "leisure": "pitch",
        "sport": "tennis"
      }
    },
    {
      "type": "way",
      "id": 1419979528,
      "center": {
        "lat": 12.8894678,
        "lon": 77.6498951
      },
      "tags": {
        "amenity": "place_of_worship",
        "building": "yes",
        "religion": "hindu"
      }
    },
    {
      "type": "way",
      "id": 1419979800,
      "center": {
        "lat": 12.8801318,
        "lon": 77.6464004
      },
      "tags": {
        "landuse": "retail",
        "name": "More",
        "name:kn": "ಮೋರ್",
        "shop": "supermarket"
      }
    },
    {
      "type": "way",
      "id": 1420149136,
      "center": {
        "lat": 12.8756228,
        "lon": 77.6517045
      },
      "tags": {
        "amenity": "school"
      }
    },
    {
      "type": "way",
      "id": 1420149566,
      "center": {
        "lat": 12.8776611,
        "lon": 77.6475551
      },
      "tags": {
        "addr:place": "Singasandra",
        "amenity": "school",
        "check_date": "2025-03-11",
        "isced:level": "2",
        "name": "GHPS Singasandra",
        "name:kn": "ಸರ್ಕಾರಿ ಹಿರಿಯ ಪ್ರಾಥಮಿಕ ಶಾಲೆ ಸಿಂಗಸಂದ್ರ",
        "operator": "Department of Education",
        "school": "primary"
      }
    },
    {
      "type": "way",
      "id": 1420991686,
      "center": {
        "lat": 12.8894389,
        "lon": 77.6448407
      },
      "tags": {
        "leisure": "pitch"
      }
    },
    {
      "type": "way",
      "id": 1422247281,
      "center": {
        "lat": 12.8853646,
        "lon": 77.6417803
      },
      "tags": {
        "amenity": "fuel"
      }
    },
    {
      "type": "way",
      "id": 1434904000,
      "center": {
        "lat": 12.8787092,
        "lon": 77.6471417
      },
      "tags": {
        "access": "private",
        "leisure": "park"
      }
    },
    {
      "type": "way",
      "id": 1434904002,
      "center": {
        "lat": 12.8786359,
        "lon": 77.647399
      },
      "tags": {
        "access": "private",
        "leisure": "pitch",
        "sport": "tennis"
      }
    },
    {
      "type": "way",
      "id": 1434904003,
      "center": {
        "lat": 12.8785769,
        "lon": 77.647588
      },
      "tags": {
        "access": "private",
        "leisure": "playground"
      }
    },
    {
      "type": "way",
      "id": 1434904005,
      "center": {
        "lat": 12.8791856,
        "lon": 77.6477918
      },
      "tags": {
        "access": "private",
        "leisure": "swimming_pool"
      }
    }
  ]
}