{
  "area_name": "AKG Colony",
  "osm_id": 11518167879,
  "osm_type": "node",
  "place_type": "neighbourhood",
  "amenity_count": 45,
  "amenities": [
    {
      "type": "node",
      "id": 1759857708,
      "lat": 12.9818777,
      "lon": 77.7683812,
      "tags": {
        "amenity": "school",
        "name": "Government Model Middle School",
        "name:kn": "ಸರ್ಕಾರಿ ಮಾದರಿ ಶಾಲೆ"
      }
    },
    {
      "type": "node",
      "id": 2473511283,
      "lat": 12.982522,
      "lon": 77.7605253,
      "tags": {
        "amenity": "place_of_worship",
        "name": "Vallasiddi Vinayaka Temple, Chansandra",
        "religion": "hindu"
      }
    },
    {
      "type": "node",
      "id": 2987148047,
      "lat": 12.9832377,
      "lon": 77.7681618,
      "tags": {
        "amenity": "bank",
        "name": "Manappuram Finance"
      }
    },
    {
      "type": "node",
      "id": 2987148050,
      "lat": 12.9834239,
      "lon": 77.7675566,
      "tags": {
        "amenity": "atm",
        "name": "HDFC Bank ATM",
        "name:kn": "ಎಚ್. ಡಿ. ಎಫ್. ಸಿ.."
      }
    },
    {
      "type": "node",
      "id": 2987148096,
      "lat": 12.9835791,
      "lon": 77.7689545,
      "tags": {
        "amenity": "bank",
        "atm": "yes",
        "name": "Coporation City Bank"
      }
    },
    {
      "type": "node",
      "id": 2987148102,
      "lat": 12.983624,
      "lon": 77.769089,
      "tags": {
        "amenity": "restaurant",
        "indoor_seating": "yes",
        "name": "New Uduppi Hotel",
        "outdoor_seating": "yes"
      }
    },
    {
      "type": "node",
      "id": 4023086819,
      "lat": 12.983121,
      "lon": 77.7683002,
      "tags": {
        "amenity": "bank",
        "atm": "yes",
        "drive_through": "yes",
        "name": "Karnataka Bank",
        "name:kn": "ಕರ್ನಾಟಕ ಬ್ಯಾಂಕ್"
      }
    },
    {
      "type": "node",
      "id": 4023090618,
      "lat": 12.9832756,
      "lon": 77.7682509,
      "tags": {
        "amenity": "cafe",
        "internet_access": "no",
        "name": "Chandana Bakery",
        "opening_hours": "06:00-23:00",
        "smoking": "no"
      }
    },
    {
      "type": "node",
      "id": 4445146526,
      "lat": 12.9828174,
      "lon": 77.7634471,
      "tags": {
        "addr:city": "Bangalore",
        "addr:postcode": "560037",
        "addr:street": "3G Homes Crimson Layout, Kadugodi, Bengaluru",
        "amenity": "restaurant",
        "cuisine": "regional",
        "delivery": "yes",
        "name": "Om Sai Punjabi Dhaba",
        "opening_hours": "11:00-22:00",
        "phone": "+91 9632689248",
        "smoking": "no",
        "takeaway": "yes"
      }
    },
    {
      "type": "node",
      "id": 4488617934,
      "lat": 12.9823096,
      "lon": 77.7571638,
      "tags": {
        "addr:city": "Bangalore",
        "addr:housenumber": "37No.",
        "addr:postcode": "560066",
        "addr:street": "Chennasandra Main Road Whitefield",
        "name": "Jeeshvi Supermarket",
        "phone": "(91)-80-33292905",
        "shop": "supermarket"
      }
    },
    {
      "type": "node",
      "id": 11124646407,
      "lat": 12.9824941,
      "lon": 77.7593057,
      "tags": {
        "addr:city": "BANGALORE",
        "addr:housenumber": "1/352 A CHANNASANDRA MAIN ROAD",
        "addr:postcode": "560067",
        "addr:street": "BESIDE DSR APT",
        "name": "Raghuvanshi Home Mart",
        "phone": "8867070220",
        "shop": "hardware"
      }
    },
    {
      "type": "node",
      "id": 12500852737,
      "lat": 12.9783709,
      "lon": 77.7578285,
      "tags": {
        "amenity": "parking_entrance",
        "parking": "underground"
      }
    },
    {
      "type": "node",
      "id": 12972911347,
      "lat": 12.9834869,
      "lon": 77.7529026,
      "tags": {
        "amenity": "bar",
        "check_date": "2025-07-03",
        "name": "Bay Leaves"
      }
    },
    {
      "type": "node",
      "id": 13335147238,
      "lat": 12.9889452,
      "lon": 77.7579463,
      "tags": {
        "access": "permissive",
        "amenity": "parking_entrance",
        "parking": "underground"
      }
    },
    {
      "type": "node",
      "id": 13335147239,
      "lat": 12.9889944,
      "lon": 77.7579689,
      "tags": {
        "access": "permissive",
        "amenity": "parking_entrance",
        "parking": "underground"
      }
    },
    {
      "type": "way",
      "id": 181469517,
      "center": {
        "lat": 12.9849166,
        "lon": 77.7627604
      },
      "tags": {
        "addr:full": "Near ITPB, Whitefield Bangalore -560 067",
        "alt_name": "MVJ College of Engineering",
        "amenity": "college",
        "email": "contactmvjce@gmail.com",
        "name": "M V Jayaram College of Engineering",
        "phone": "+91 80 4299 1000",
        "website": "https://mvjce.edu.in/",
        "wikidata": "Q6719155",
        "wikimedia_commons": "Category:MVJ College of Engineering",
        "wikipedia": "en:MVJ College of Engineering"
      }
    },
    {
      "type": "way",
      "id": 499256297,
      "center": {
        "lat": 12.9844591,
        "lon": 77.7557925
      },
      "tags": {
        "leisure": "park",
        "name": "Maithri Layout Park"
      }
    },
    {
      "type": "way",
      "id": 627116655,
      "center": {
        "lat": 12.9849083,
        "lon": 77.76443
      },
      "tags": {
        "leisure": "swimming_pool"
      }
    },
    {
      "type": "way",
      "id": 704633795,
      "center": {
        "lat": 12.9765846,
        "lon": 77.7605909
      },
      "tags": {
        "leisure": "sports_centre",
        "name": "Willow Sports Cricket academy",
        "sport": "cricket"
      }
    },
    {
      "type": "way",
      "id": 1199395256,
      "center": {
        "lat": 12.982433,
        "lon": 77.7593136
      },
      "tags": {
        "addr:city": "BANGALORE",
        "addr:housenumber": "1/352 A CHANNASANDRA MAIN ROAD",
        "addr:postcode": "560067",
        "addr:street": "BESIDE DSR APT",
        "building": "yes",
        "name": "Raghuvanshi Home Mart",
        "phone": "8867070220",
        "shop": "hardware"
      }
    },
    {
      "type": "way",
      "id": 1239792897,
      "center": {
        "lat": 12.9781949,
        "lon": 77.7597793
      },
      "tags": {
        "access": "private",
        "leisure": "swimming_pool"
      }
    },
    {
      "type": "way",
      "id": 1239792899,
      "center": {
        "lat": 12.9777479,
        "lon": 77.7590014
      },
      "tags": {
        "leisure": "park"
      }
    },
    {
      "type": "way",
      "id": 1239792900,
      "center": {
        "lat": 12.9790541,
        "lon": 77.7591216
      },
      "tags": {
        "leisure": "park"
      }
    },
    {
      "type": "way",
      "id": 1314991499,
      "center": {
        "lat": 12.9845931,
        "lon": 77.7538496
      },
      "tags": {
        "amenity": "school",
        "landuse": "education",
        "name": "Divine Light Trust For The Blind"
      }
    },
    {
      "type": "way",
      "id": 1320225547,
      "center": {
        "lat": 12.9752825,
        "lon": 77.7680684
      },
      "tags": {
        "leisure": "sports_centre"
      }
    },
    {
      "type": "way",
      "id": 1338326412,
      "center": {
        "lat": 12.9786138,
        "lon": 77.7603651
      },
      "tags": {
        "leisure": "pitch",
        "sport": "tennis"
      }
    },
    {
      "type": "way",
      "id": 1338326413,
      "center": {
        "lat": 12.9788965,
        "lon": 77.7569
      },
      "tags": {
        "access": "private",
        "leisure": "swimming_pool"
      }
    },
    {
      "type": "way",
      "id": 1338326414,
      "center": {
        "lat": 12.9778612,
        "lon": 77.7582244
      },
      "tags": {
        "access": "private",
        "leisure": "swimming_pool"
      }
    },
    {
      "type": "way",
      "id": 1338326415,
      "center": {
        "lat": 12.9769801,
        "lon": 77.7584796
      },
      "tags": {
        "access": "private",
        "leisure": "swimming_pool"
      }
    },
    {
      "type": "way",
      "id": 1338326416,
      "center": {
        "lat": 12.9740856,
        "lon": 77.7575595
      },
      "tags": {
        "access": "private",
        "leisure": "swimming_pool"
      }
    },
    {
      "type": "way",
      "id": 1338326417,
      "center": {
        "lat": 12.9774738,
        "lon": 77.769386
      },
      "tags": {
        "access": "private",
        "leisure": "swimming_pool"
      }
    },
    {
      "type": "way",
      "id": 1338326420,
      "center": {
        "lat": 12.9797733,
        "lon": 77.7668432
      },
      "tags": {
        "access": "private",
        "leisure": "swimming_pool"
      }
    },
    {
      "type": "way",
      "id": 1338326421,
      "center": {
        "lat": 12.9790936,
        "lon": 77.7678682
      },
      "tags": {
        "access": "private",
        "leisure": "swimming_pool"
      }
    },
    {
      "type": "way",
      "id": 1338326425,
      "center": {
        "lat": 12.975748,
        "lon": 77.7649599
      },
      "tags": {
        "access": "private",
        "leisure": "swimming_pool"
      }
    },
    {
      "type": "way",
      "id": 1351211094,
      "center": {
        "lat": 12.9845647,
        "lon": 77.7600289
      },
      "tags": {
        "access": "private",
        "leisure": "pitch",
        "sport": "tennis"
      }
    },
    {
      "type": "way",
      "id": 1351211095,
      "center": {
        "lat": 12.9845979,
        "lon": 77.7607029
      },
      "tags": {
        "access": "private",
        "leisure": "swimming_pool"
      }
    },
    {
      "type": "way",
      "id": 1410591829,
      "center": {
        "lat": 12.9835679,
        "lon": 77.7705256
      },
      "tags": {
        "amenity": "fuel"
      }
    },
    {
      "type": "way",
      "id": 1454051713,
      "center": {
        "lat": 12.9912132,
        "lon": 77.7618205
      },
      "tags": {
        "amenity": "school"
      }
    },
    {
      "type": "way",
      "id": 1454051715,
      "center": {
        "lat": 12.9816253,
        "lon": 77.7569055
      },
      "tags": {
        "addr:city": "Whitefield, Bangalore",
        "addr:postcode": "560066",
        "addr:street": "Channasandra Main Road",
        "amenity": "school",
        "name": "Whitefield Global School"
      }
    },
    {
      "type": "way",
      "id": 1454051718,
      "center": {
        "lat": 12.9889638,
        "lon": 77.7566733
      },
      "tags": {
        "leisure": "garden"
      }
    },
    {
      "type": "way",
      "id": 1454051719,
      "center": {
        "lat": 12.9896501,
        "lon": 77.758125
      },
      "tags": {
        "leisure": "garden"
      }
    },
    {
      "type": "way",
      "id": 1454051726,
      "center": {
        "lat": 12.9888848,
        "lon": 77.7589183
      },
      "tags": {
        "leisure": "garden"
      }
    },
    {
      "type": "way",
      "id": 1454053846,
      "center": {
        "lat": 12.9805772,
        "lon": 77.7585201
      },
      "tags": {
        "amenity": "college",
        "name": "Government Polytechnic College"
      }
    },
    {
      "type": "way",
      "id": 1454095244,
      "center": {
        "lat": 12.9889457,
        "lon": 77.757696
      },
      "tags": {
        "leisure": "garden"
      }
    },
    {
      "type": "way",
      "id": 1454095245,
      "center": {
        "lat": 12.9885497,
        "lon": 77.7593787
      },
      "tags": {
        "leisure": "garden"
      }
    }
  ]
}