{
  "area_name": "Akshaynagar Layout",
  "osm_id": 1405583404,
  "osm_type": "node",
  "place_type": "neighbourhood",
  "amenity_count": 92,
  "amenities": [
    {
      "type": "node",
      "id": 731740934,
      "lat": 12.8757246,
      "lon": 77.6173186,
      "tags": {
        "amenity": "post_box",
        "name": "DLF New Town"
      }
    },
    {
      "type": "node",
      "id": 731741251,
      "lat": 12.8762947,
      "lon": 77.6164979,
      "tags": {
        "name": "Mamata",
        "shop": "convenience"
      }
    },
    {
      "type": "node",
      "id": 731781098,
      "lat": 12.8761792,
      "lon": 77.6169752,
      "tags": {
        "amenity": "pharmacy",
        "name": "Greeshma"
      }
    },
    {
      "type": "node",
      "id": 1472934583,
      "lat": 12.867378,
      "lon": 77.6162668,
      "tags": {
        "addr:place": "Yelenahalli",
        "amenity": "school",
        "isced:level": "1",
        "name": "Government Primary School Yelenahalli",
        "name:kn": "ಸರ್ಕಾರಿ ಪ್ರಾಥಮಿಕ ಶಾಲೆ ಎಲೇನಹಳ್ಳಿ",
        "operator": "Department of Education",
        "school": "primary"
      }
    },
    {
      "type": "node",
      "id": 2339551591,
      "lat": 12.8758604,
      "lon": 77.6169923,
      "tags": {
        "amenity": "atm",
        "brand": "Corporation Bank",
        "brand:wikidata": "Q2003387",
        "check_date": "2021-06-19",
        "designation": "ATM",
        "fee": "no",
        "name": "Corporation Bank",
        "operator": "Corporation Bank",
        "operator:wikidata": "Q2003387",
        "source": "survey"
      }
    },
    {
      "type": "node",
      "id": 2339552995,
      "lat": 12.8759179,
      "lon": 77.6167938,
      "tags": {
        "addr:housename": "Ample Mart",
        "addr:postcode": "560068",
        "addr:street": "Akshayanagar",
        "designation": "Supermarket",
        "name": "Ample Mart",
        "shop": "supermarket",
        "source": "Survey"
      }
    },
    {
      "type": "node",
      "id": 2645107023,
      "lat": 12.8760411,
      "lon": 77.616299,
      "tags": {
        "amenity": "bank",
        "atm": "yes",
        "brand": "Canara Bank",
        "brand:en": "Canara Bank",
        "brand:hi": "केनरा बैंक",
        "brand:kn": "ಕೆನರಾ ಬ್ಯಾಂಕ್",
        "brand:pa": "ਕੇਨਰਾ ਬੈਂਕ",
        "brand:pnb": "کینرا بینک",
        "brand:ur": "کینرا بینک",
        "brand:wikidata": "Q2003777",
        "brand:wikipedia": "en:Canara Bank",
        "brand:wikipedia:pa": "ਕੇਨਰਾ ਬੈਂਕ",
        "name": "Canara Bank",
        "name:en": "Canara Bank",
        "name:hi": "केनरा बैंक",
        "name:kn": "ಕೆನರಾ ಬ್ಯಾಂಕ್",
        "name:pa": "ਕੇਨਰਾ ਬੈਂਕ",
        "name:pnb": "کینرا بینک",
        "name:ur": "کینرا بینک",
        "website": "https://www.canarabank.com/"
      }
    },
    {
      "type": "node",
      "id": 2645107028,
      "lat": 12.8763027,
      "lon": 77.613762,
      "tags": {
        "amenity": "bank",
        "atm": "yes",
        "brand": "Andhra Bank",
        "brand:wikidata": "Q2003476",
        "brand:wikipedia": "en:Andhra Bank",
        "name": "Andhra Bank",
        "name:en": "Andhra Bank",
        "name:kn": "ಆಂಧ್ರ ಬ್ಯಾಂಕ್",
        "website": "https://www.andhrabank.in"
      }
    },
    {
      "type": "node",
      "id": 2645107031,
      "lat": 12.8763432,
      "lon": 77.6160768,
      "tags": {
        "amenity": "bank",
        "atm": "yes",
        "brand": "State Bank of India",
        "brand:wikidata": "Q1340361",
        "brand:wikipedia": "en:State Bank of India",
        "name": "State Bank of India",
        "name:kn": "ಭಾರತೀಯ ಸ್ಟೇಟ್ ಬ್ಯಾಂಕ್",
        "short_name": "SBI"
      }
    },
    {
      "type": "node",
      "id": 5731143337,
      "lat": 12.8759246,
      "lon": 77.6131681,
      "tags": {
        "addr:city": "Begur Hobli, Bangalore",
        "addr:housenumber": "DLF New Town,",
        "addr:postcode": "560076",
        "addr:street": "Nyanappanahalli",
        "name": "Ayush Fresh Patanjali",
        "payment:cash": "yes",
        "payment:credit_cards": "yes",
        "payment:debit_cards": "yes",
        "phone": "6361018187, 6361011535",
        "shop": "supermarket"
      }
    },
    {
      "type": "node",
      "id": 6430493134,
      "lat": 12.8780562,
      "lon": 77.6167931,
      "tags": {
        "addr:place": "Begur",
        "amenity": "school",
        "isced": "1",
        "name": "St Pauls School, Begur",
        "name:kn": "ಸೆಂಟ್ ಪಾಲ್ಸ್ ಶಾಲೆ,ಬೇಗೂರು",
        "operator": "Private Un-Aided",
        "school": "primary"
      }
    },
    {
      "type": "node",
      "id": 7572669018,
      "lat": 12.881902,
      "lon": 77.612665,
      "tags": {
        "addr:district": "Bengaluru Urban",
        "addr:full": "Saraswathipuram, Hulimavu, Bengaluru",
        "addr:postcode": "560076",
        "addr:state": "Karnataka",
        "amenity": "clinic",
        "name": "Niyati Children Clinic",
        "source": "Local Knowledge"
      }
    },
    {
      "type": "node",
      "id": 7572669043,
      "lat": 12.877267,
      "lon": 77.6182941,
      "tags": {
        "addr:district": "Bengaluru Urban",
        "addr:full": "Classic Paradise Layout, Akshayanagar, Bengaluru",
        "addr:postcode": "560076",
        "addr:state": "Karnataka",
        "amenity": "clinic",
        "name": "Dr. Hebbal Homeo and Polyclinic",
        "source": "Local Knowledge"
      }
    },
    {
      "type": "node",
      "id": 7572669045,
      "lat": 12.874266,
      "lon": 77.616922,
      "tags": {
        "addr:district": "Bengaluru Urban",
        "addr:full": "Golden Height Apartment, Akshay Nagar Main Road, Bengaluru",
        "addr:postcode": "560076",
        "addr:state": "Karnataka",
        "amenity": "clinic",
        "name": "Dr. Shankar's Ear Nose & Throat",
        "source": "Local Knowledge"
      }
    },
    {
      "type": "node",
      "id": 7572669052,
      "lat": 12.8773392,
      "lon": 77.6163766,
      "tags": {
        "addr:district": "Bengaluru Urban",
        "addr:full": "Sugama Layout, Devarachikkana Halli, Bengaluru",
        "addr:postcode": "560076",
        "addr:state": "Karnataka",
        "amenity": "dentist",
        "name": "St. Michael's Dental, Medical and Diagnostics",
        "source": "Local Knowledge"
      }
    },
    {
      "type": "node",
      "id": 7572669053,
      "lat": 12.87174,
      "lon": 77.6168758,
      "tags": {
        "addr:district": "Bengaluru Urban",
        "addr:full": "Akshayanagar, Bengaluru",
        "addr:postcode": "560076",
        "addr:state": "Karnataka",
        "amenity": "clinic",
        "name": "Mahima Clinic",
        "source": "Local Knowledge"
      }
    },
    {
      "type": "node",
      "id": 9892036259,
      "lat": 12.8738056,
      "lon": 77.6090768,
      "tags": {
        "amenity": "restaurant",
        "delivery": "yes",
        "name": "Inanna Taproom",
        "outdoor_seating": "yes",
        "takeaway": "yes"
      }
    },
    {
      "type": "node",
      "id": 11625402106,
      "lat": 12.8749413,
      "lon": 77.6161595,
      "tags": {
        "access": "yes",
        "leisure": "pitch",
        "name": "MP Sports Arena",
        "sport": "badminton;swimming"
      }
    },
    {
      "type": "node",
      "id": 11625402107,
      "lat": 12.8749232,
      "lon": 77.6167526,
      "tags": {
        "addr:city": "Bangalore",
        "addr:district": "Bengaluru Urban",
        "addr:full": "Yelanahalli Main Road, Akshaynagar, DLF New Town,Bengaluru-560068",
        "addr:postcode": "560068",
        "name": "Safari Super Mart",
        "opening_hours": "Mo-Su 09:00-21:00",
        "payment:app": "yes",
        "payment:cash": "yes",
        "payment:credit_cards": "yes",
        "payment:upi": "yes",
        "shop": "supermarket"
      }
    },
    {
      "type": "node",
      "id": 11870919158,
      "lat": 12.8735842,
      "lon": 77.6102968,
      "tags": {
        "access": "private",
        "amenity": "parking_entrance",
        "parking": "underground"
      }
    },
    {
      "type": "node",
      "id": 11870936383,
      "lat": 12.8652394,
      "lon": 77.6110227,
      "tags": {
        "access": "private",
        "amenity": "parking_entrance",
        "parking": "underground"
      }
    },
    {
      "type": "node",
      "id": 11871336226,
      "lat": 12.875581,
      "lon": 77.6127367,
      "tags": {
        "access": "private",
        "amenity": "parking_entrance",
        "parking": "underground"
      }
    },
    {
      "type": "node",
      "id": 11871336453,
      "lat": 12.8769799,
      "lon": 77.6105668,
      "tags": {
        "amenity": "fast_food",
        "cuisine": "chicken",
        "delivery": "yes",
        "name": "KFC",
        "name:kn": "ಕೆಎಫ್‌ಸಿ",
        "takeaway": "yes"
      }
    },
    {
      "type": "node",
      "id": 11871336542,
      "lat": 12.8747613,
      "lon": 77.6100893,
      "tags": {
        "access": "private",
        "amenity": "parking_entrance",
        "parking": "underground"
      }
    },
    {
      "type": "node",
      "id": 11871336582,
      "lat": 12.8733414,
      "lon": 77.611246,
      "tags": {
        "access": "private",
        "amenity": "parking_entrance",
        "parking": "underground"
      }
    },
    {
      "type": "node",
      "id": 11871336597,
      "lat": 12.8721308,
      "lon": 77.6102141,
      "tags": {
        "access": "private",
        "amenity": "parking_entrance",
        "parking": "underground"
      }
    },
    {
      "type": "node",
      "id": 11871336607,
      "lat": 12.8722883,
      "lon": 77.6097292,
      "tags": {
        "access": "private",
        "amenity": "parking_entrance",
        "parking": "underground"
      }
    },
    {
      "type": "node",
      "id": 12754772231,
      "lat": 12.8729362,
      "lon": 77.6181679,
      "tags": {
        "access": "private",
        "amenity": "parking_entrance",
        "parking": "underground"
      }
    },
    {
      "type": "node",
      "id": 12754772233,
      "lat": 12.8742675,
      "lon": 77.6184174,
      "tags": {
        "access": "private",
        "amenity": "parking_entrance",
        "parking": "underground"
      }
    },
    {
      "type": "node",
      "id": 12799711892,
      "lat": 12.8749831,
      "lon": 77.6164752,
      "tags": {
        "addr:city": "Bangalore",
        "addr:district": "Bengaluru Urban",
        "addr:housenumber": "21",
        "addr:postcode": "560076",
        "addr:street": "1st Cross Road yelenahalli main road",
        "amenity": "car_wash",
        "name": "Sparkx Auto Detailing",
        "opening_hours": "Mo-Su 08:00-22:00",
        "operator": "Prabhu",
        "payment:cash": "yes",
        "payment:google_pay": "yes",
        "self_service": "no"
      }
    },
    {
      "type": "node",
      "id": 13110965008,
      "lat": 12.8762879,
      "lon": 77.6133473,
      "tags": {
        "brand": "Theobroma",
        "brand:wikidata": "Q124374469",
        "delivery": "yes",
        "name": "Theobroma",
        "shop": "pastry",
        "takeaway": "yes"
      }
    },
    {
      "type": "node",
      "id": 13110965033,
      "lat": 12.8736603,
      "lon": 77.6114062,
      "tags": {
        "name": "Ezeebag",
        "shop": "convenience"
      }
    },
    {
      "type": "node",
      "id": 13110965034,
      "lat": 12.8736761,
      "lon": 77.6112921,
      "tags": {
        "amenity": "cafe",
        "delivery": "yes",
        "name": "Cafe Baha",
        "takeaway": "yes",
        "toilets": "yes"
      }
    },
    {
      "type": "node",
      "id": 13110965082,
      "lat": 12.8815208,
      "lon": 77.6124199,
      "tags": {
        "amenity": "bench"
      }
    },
    {
      "type": "node",
      "id": 13110965083,
      "lat": 12.8815234,
      "lon": 77.6123873,
      "tags": {
        "amenity": "bench"
      }
    },
    {
      "type": "node",
      "id": 13110965084,
      "lat": 12.8815618,
      "lon": 77.6123329,
      "tags": {
        "amenity": "bench"
      }
    },
    {
      "type": "node",
      "id": 13110965085,
      "lat": 12.8815916,
      "lon": 77.6123384,
      "tags": {
        "amenity": "bench"
      }
    },
    {
      "type": "way",
      "id": 126890301,
      "center": {
        "lat": 12.872591,
        "lon": 77.6155189
      },
      "tags": {
        "amenity": "public_building",
        "name": "Ashram"
      }
    },
    {
      "type": "way",
      "id": 126890306,
      "center": {
        "lat": 12.8706259,
        "lon": 77.6148793
      },
      "tags": {
        "amenity": "place_of_worship",
        "name": "Subramanya Temple",
        "name:kn": "ಸುಬ್ರಮಣ್ಯ ದೇವಸ್ಥಾನ",
        "religion": "hindu"
      }
    },
    {
      "type": "way",
      "id": 133751578,
      "center": {
        "lat": 12.8650826,
        "lon": 77.6128932
      },
      "tags": {
        "leisure": "park"
      }
    },
    {
      "type": "way",
      "id": 259157357,
      "center": {
        "lat": 12.8682011,
        "lon": 77.6165729
      },
      "tags": {
        "addr:city": "Bangalore",
        "addr:housename": "Akshaya Nagar, Yellahanahalli",
        "addr:postcode": "560068",
        "addr:street": "Begur Main Road",
        "amenity": "college",
        "email": "fullinfawscollege@yahoo.in",
        "name": "Fullinfaws College",
        "website": "http://fullinfawscollege.blogspot.in/"
      }
    },
    {
      "type": "way",
      "id": 362885313,
      "center": {
        "lat": 12.8683951,
        "lon": 77.6196899
      },
      "tags": {
        "leisure": "park"
      }
    },
    {
      "type": "way",
      "id": 523040857,
      "center": {
        "lat": 12.8710995,
        "lon": 77.6227956
      },
      "tags": {
        "amenity": "place_of_worship",
        "building": "yes",
        "religion": "hindu"
      }
    },
    {
      "type": "way",
      "id": 1199400874,
      "center": {
        "lat": 12.8736628,
        "lon": 77.6122458
      },
      "tags": {
        "addr:place": "Begur",
        "amenity": "school",
        "isced:level": "3",
        "name": "St Anns School, Begur",
        "name:kn": "ಸೆಂಟ್ ಆನ್ಸ್ ಶಾಲೆ, ಬೇಗೂರು",
        "operator": "Private Un-Aided",
        "school": "Higher Secondary"
      }
    },
    {
      "type": "way",
      "id": 1199400875,
      "center": {
        "lat": 12.874392,
        "lon": 77.6129411
      },
      "tags": {
        "leisure": "pitch",
        "sport": "basketball"
      }
    },
    {
      "type": "way",
      "id": 1199400876,
      "center": {
        "lat": 12.8748718,
        "lon": 77.6124765
      },
      "tags": {
        "leisure": "park"
      }
    },
    {
      "type": "way",
      "id": 1199400877,
      "center": {
        "lat": 12.8740834,
        "lon": 77.6128906
      },
      "tags": {
        "leisure": "pitch",
        "sport": "tennis"
      }
    },
    {
      "type": "way",
      "id": 1199400879,
      "center": {
        "lat": 12.8740272,
        "lon": 77.6088642
      },
      "tags": {
        "leisure": "park"
      }
    },
    {
      "type": "way",
      "id": 1261422249,
      "center": {
        "lat": 12.8736489,
        "lon": 77.6184985
      },
      "tags": {
        "leisure": "park"
      }
    },
    {
      "type": "way",
      "id": 1261422250,
      "center": {
        "lat": 12.8739242,
        "lon": 77.619818
      },
      "tags": {
        "access": "permissive",
        "amenity": "parking",
        "parking": "surface"
      }
    },
    {
      "type": "way",
      "id": 1261422251,
      "center": {
        "lat": 12.8738154,
        "lon": 77.6197413
      },
      "tags": {
        "access": "permissive",
        "amenity": "parking",
        "parking": "surface"
      }
    },
    {
      "type": "way",
      "id": 1261422252,
      "center": {
        "lat": 12.8741177,
        "lon": 77.6196126
      },
      "tags": {
        "access": "permissive",
        "amenity": "parking",
        "parking": "surface"
      }
    },
    {
      "type": "way",
      "id": 1261422253,
      "center": {
        "lat": 12.8729515,
        "lon": 77.6180558
      },
      "tags": {
        "access": "permissive",
        "amenity": "parking",
        "parking": "surface"
      }
    },
    {
      "type": "way",
      "id": 1261422254,
      "center": {
        "lat": 12.873841,
        "lon": 77.6191139
      },
      "tags": {
        "access": "permissive",
        "amenity": "parking",
        "parking": "surface"
      }
    },
    {
      "type": "way",
      "id": 1261422255,
      "center": {
        "lat": 12.8738258,
        "lon": 77.6186517
      },
      "tags": {
        "access": "permissive",
        "amenity": "parking",
        "parking": "surface"
      }
    },
    {
      "type": "way",
      "id": 1261422256,
      "center": {
        "lat": 12.8739455,
        "lon": 77.6181705
      },
      "tags": {
        "access": "permissive",
        "amenity": "parking",
        "parking": "surface"
      }
    },
    {
      "type": "way",
      "id": 1261422257,
      "center": {
        "lat": 12.8739419,
        "lon": 77.6182965
      },
      "tags": {
        "access": "permissive",
        "amenity": "parking",
        "parking": "surface"
      }
    },
    {
      "type": "way",
      "id": 1261422258,
      "center": {
        "lat": 12.8741004,
        "lon": 77.6185584
      },
      "tags": {
        "access": "permissive",
        "amenity": "parking",
        "parking": "surface"
      }
    },
    {
      "type": "way",
      "id": 1261422259,
      "center": {
        "lat": 12.8741162,
        "lon": 77.6184594
      },
      "tags": {
        "access": "permissive",
        "amenity": "parking",
        "parking": "surface"
      }
    },
    {
      "type": "way",
      "id": 1261422260,
      "center": {
        "lat": 12.8766879,
        "lon": 77.6182469
      },
      "tags": {
        "access": "permissive",
        "amenity": "parking",
        "parking": "surface"
      }
    },
    {
      "type": "way",
      "id": 1261422262,
      "center": {
        "lat": 12.8751601,
        "lon": 77.6180915
      },
      "tags": {
        "leisure": "park"
      }
    },
    {
      "type": "way",
      "id": 1261422264,
      "center": {
        "lat": 12.8738176,
        "lon": 77.6215859
      },
      "tags": {
        "access": "private",
        "leisure": "swimming_pool"
      }
    },
    {
      "type": "way",
      "id": 1261422265,
      "center": {
        "lat": 12.8741149,
        "lon": 77.6215622
      },
      "tags": {
        "access": "private",
        "leisure": "pitch",
        "sport": "tennis"
      }
    },
    {
      "type": "way",
      "id": 1261422299,
      "center": {
        "lat": 12.8657402,
        "lon": 77.6204137
      },
      "tags": {
        "leisure": "park"
      }
    },
    {
      "type": "way",
      "id": 1261422313,
      "center": {
        "lat": 12.8685916,
        "lon": 77.6216155
      },
      "tags": {
        "amenity": "fuel"
      }
    },
    {
      "type": "way",
      "id": 1278704474,
      "center": {
        "lat": 12.8648861,
        "lon": 77.6111466
      },
      "tags": {
        "access": "permissive",
        "amenity": "parking",
        "parking": "surface"
      }
    },
    {
      "type": "way",
      "id": 1278704484,
      "center": {
        "lat": 12.8651786,
        "lon": 77.6119319
      },
      "tags": {
        "leisure": "park"
      }
    },
    {
      "type": "way",
      "id": 1278704486,
      "center": {
        "lat": 12.8646223,
        "lon": 77.6116942
      },
      "tags": {
        "access": "permissive",
        "amenity": "parking",
        "parking": "surface"
      }
    },
    {
      "type": "way",
      "id": 1278704487,
      "center": {
        "lat": 12.8650509,
        "lon": 77.6112804
      },
      "tags": {
        "access": "permissive",
        "amenity": "parking",
        "parking": "surface"
      }
    },
    {
      "type": "way",
      "id": 1278735130,
      "center": {
        "lat": 12.8731388,
        "lon": 77.6114344
      },
      "tags": {
        "leisure": "park"
      }
    },
    {
      "type": "way",
      "id": 1278735131,
      "center": {
        "lat": 12.8736107,
        "lon": 77.6101363
      },
      "tags": {
        "leisure": "park"
      }
    },
    {
      "type": "way",
      "id": 1278735132,
      "center": {
        "lat": 12.8735699,
        "lon": 77.6093547
      },
      "tags": {
        "access": "private",
        "leisure": "swimming_pool"
      }
    },
    {
      "type": "way",
      "id": 1278735133,
      "center": {
        "lat": 12.8728443,
        "lon": 77.6100932
      },
      "tags": {
        "access": "private",
        "amenity": "parking",
        "parking": "surface"
      }
    },
    {
      "type": "way",
      "id": 1278735136,
      "center": {
        "lat": 12.8718507,
        "lon": 77.6107119
      },
      "tags": {
        "access": "private",
        "amenity": "parking",
        "parking": "surface"
      }
    },
    {
      "type": "way",
      "id": 1278735137,
      "center": {
        "lat": 12.8721542,
        "lon": 77.6098578
      },
      "tags": {
        "access": "private",
        "amenity": "parking",
        "parking": "surface"
      }
    },
    {
      "type": "way",
      "id": 1278735158,
      "center": {
        "lat": 12.8765992,
        "lon": 77.6093628
      },
      "tags": {
        "amenity": "fuel"
      }
    },
    {
      "type": "way",
      "id": 1278735161,
      "center": {
        "lat": 12.876856,
        "lon": 77.6092451
      },
      "tags": {
        "amenity": "fuel",
        "brand": "Shell",
        "name": "Shell",
        "name:kn": "ಶೆಲ್",
        "operator": "Shell"
      }
    },
    {
      "type": "way",
      "id": 1278735166,
      "center": {
        "lat": 12.8764194,
        "lon": 77.611127
      },
      "tags": {
        "amenity": "fuel"
      }
    },
    {
      "type": "way",
      "id": 1278735167,
      "center": {
        "lat": 12.8764655,
        "lon": 77.6109125
      },
      "tags": {
        "amenity": "fuel"
      }
    },
    {
      "type": "way",
      "id": 1278735171,
      "center": {
        "lat": 12.8762935,
        "lon": 77.610434
      },
      "tags": {
        "brand": "DMart",
        "brand:wikidata": "Q5203271",
        "landuse": "retail",
        "name": "DMart",
        "shop": "supermarket"
      }
    },
    {
      "type": "way",
      "id": 1278735172,
      "center": {
        "lat": 12.8720791,
        "lon": 77.6100952
      },
      "tags": {
        "access": "private",
        "amenity": "parking",
        "parking": "surface"
      }
    },
    {
      "type": "way",
      "id": 1278735173,
      "center": {
        "lat": 12.872136,
        "lon": 77.6104534
      },
      "tags": {
        "access": "private",
        "amenity": "parking",
        "parking": "surface"
      }
    },
    {
      "type": "way",
      "id": 1278735174,
      "center": {
        "lat": 12.8722524,
        "lon": 77.6104313
      },
      "tags": {
        "access": "private",
        "amenity": "parking",
        "parking": "surface"
      }
    },
    {
      "type": "way",
      "id": 1278735177,
      "center": {
        "lat": 12.8743593,
        "lon": 77.6114726
      },
      "tags": {
        "leisure": "park"
      }
    },
    {
      "type": "way",
      "id": 1278735178,
      "center": {
        "lat": 12.8749256,
        "lon": 77.6098661
      },
      "tags": {
        "access": "private",
        "amenity": "parking",
        "parking": "surface"
      }
    },
    {
      "type": "way",
      "id": 1278735179,
      "center": {
        "lat": 12.8747375,
        "lon": 77.6100414
      },
      "tags": {
        "access": "private",
        "amenity": "parking",
        "parking": "surface"
      }
    },
    {
      "type": "way",
      "id": 1278735186,
      "center": {
        "lat": 12.8713264,
        "lon": 77.6103352
      },
      "tags": {
        "access": "private",
        "amenity": "parking",
        "parking": "surface"
      }
    },
    {
      "type": "way",
      "id": 1302261867,
      "center": {
        "lat": 12.8744351,
        "lon": 77.6191498
      },
      "tags": {
        "access": "permissive",
        "amenity": "parking",
        "parking": "surface"
      }
    },
    {
      "type": "way",
      "id": 1302261868,
      "center": {
        "lat": 12.873805,
        "lon": 77.6184492
      },
      "tags": {
        "access": "permissive",
        "amenity": "parking",
        "parking": "surface"
      }
    },
    {
      "type": "way",
      "id": 1302261869,
      "center": {
        "lat": 12.8733525,
        "lon": 77.6194617
      },
      "tags": {
        "access": "permissive",
        "amenity": "parking",
        "parking": "surface"
      }
    },
    {
      "type": "way",
      "id": 1302261870,
      "center": {
        "lat": 12.8738121,
        "lon": 77.6203488
      },
      "tags": {
        "access": "permissive",
        "amenity": "parking",
        "parking": "surface"
      }
    },
    {
      "type": "way",
      "id": 1302261871,
      "center": {
        "lat": 12.8737942,
        "lon": 77.6210813
      },
      "tags": {
        "access": "permissive",
        "amenity": "parking",
        "parking": "surface"
      }
    }
  ]
}