{
  "area_name": "Ambedkarnagar",
  "osm_id": 19883454,
  "osm_type": "relation",
  "place_type": "administrative",
  "amenity_count": 93,
  "amenities": [
    {
      "type": "node",
      "id": 662874261,
      "lat": 12.9479784,
      "lon": 77.6189413,
      "tags": {
        "amenity": "place_of_worship",
        "religion": "christian",
        "ups_other": "church"
      }
    },
    {
      "type": "node",
      "id": 662894703,
      "lat": 12.949455,
      "lon": 77.6171956,
      "tags": {
        "shop": "General store",
        "ups_shop": "shop"
      }
    },
    {
      "type": "node",
      "id": 662894707,
      "lat": 12.9497687,
      "lon": 77.6175899,
      "tags": {
        "shop": "General store",
        "ups_shop": "shop"
      }
    },
    {
      "type": "node",
      "id": 662894709,
      "lat": 12.9494393,
      "lon": 77.6174022,
      "tags": {
        "amenity": "toilets",
        "name": "Public Toilet",
        "name:kn": "ಶೌಚಾಲಯ"
      }
    },
    {
      "type": "node",
      "id": 662894713,
      "lat": 12.9501905,
      "lon": 77.6177916,
      "tags": {
        "shop": "electrical"
      }
    },
    {
      "type": "node",
      "id": 663604703,
      "lat": 12.9495122,
      "lon": 77.6128103,
      "tags": {
        "amenity": "place_of_worship",
        "name": "Kalikamba Temple",
        "name:kn": "ಕಾಳಿಕಾಂಬ ದೇವಸ್ಥಾನ",
        "religion": "hindu",
        "ups_other": "temple"
      }
    },
    {
      "type": "node",
      "id": 663604704,
      "lat": 12.9497089,
      "lon": 77.6128657,
      "tags": {
        "amenity": "place_of_worship",
        "name:kn": "ಮಸೀದಿ",
        "religion": "muslim"
      }
    },
    {
      "type": "node",
      "id": 663604705,
      "lat": 12.9498327,
      "lon": 77.6131253,
      "tags": {
        "amenity": "toilets",
        "name": "Public Toilet",
        "name:kn": "ಶೌಚಾಲಯ",
        "ups_other": "toilet"
      }
    },
    {
      "type": "node",
      "id": 663604706,
      "lat": 12.9496427,
      "lon": 77.6133364,
      "tags": {
        "amenity": "community_centre",
        "name": "Samatha Sainika Dala",
        "name:kn": "ಸಮತ ಸೈನಿಕ ದಳ",
        "ups_community": "community_centre"
      }
    },
    {
      "type": "node",
      "id": 663604707,
      "lat": 12.9501149,
      "lon": 77.6134771,
      "tags": {
        "shop": "general",
        "ups_shop": "shop"
      }
    },
    {
      "type": "node",
      "id": 663604708,
      "lat": 12.9500299,
      "lon": 77.6132833,
      "tags": {
        "amenity": "place_of_worship",
        "name": "Shiva Temple",
        "name:kn": "ಶಿವ ದೇವಸ್ಥಾನ",
        "religion": "hindu",
        "ups_other": "temple"
      }
    },
    {
      "type": "node",
      "id": 663604709,
      "lat": 12.9496275,
      "lon": 77.6139658,
      "tags": {
        "amenity": "school",
        "name": "Government School",
        "name:kn": "ಸರ್ಕಾರಿ ಶಾಲೆ",
        "ups_school": "school"
      }
    },
    {
      "type": "node",
      "id": 663604710,
      "lat": 12.9497624,
      "lon": 77.6143357,
      "tags": {
        "amenity": "school",
        "name": "Methodist church school",
        "ups_school": "school"
      }
    },
    {
      "type": "node",
      "id": 663604711,
      "lat": 12.9498927,
      "lon": 77.6147223,
      "tags": {
        "amenity": "community_centre",
        "name": "JDS Office",
        "ups_community": "community_centre"
      }
    },
    {
      "type": "node",
      "id": 663604712,
      "lat": 12.9500392,
      "lon": 77.6139324,
      "tags": {
        "amenity": "community_centre",
        "name": "Bus staf&Reds",
        "ups_community": "community_centre"
      }
    },
    {
      "type": "node",
      "id": 663604713,
      "lat": 12.9500555,
      "lon": 77.6148988,
      "tags": {
        "amenity": "place_of_worship",
        "religion": "christian",
        "ups_other": "Church"
      }
    },
    {
      "type": "node",
      "id": 663604714,
      "lat": 12.9499206,
      "lon": 77.6151518,
      "tags": {
        "amenity": "school",
        "name": "Adithya public school",
        "ups_school": "school"
      }
    },
    {
      "type": "node",
      "id": 663604715,
      "lat": 12.9494647,
      "lon": 77.6154126,
      "tags": {
        "amenity": "place_of_worship",
        "name": "Church statue",
        "religion": "christian",
        "ups_other": "statue"
      }
    },
    {
      "type": "node",
      "id": 663604716,
      "lat": 12.9499624,
      "lon": 77.6154381,
      "tags": {
        "amenity": "toilets",
        "name": "Pubilc Toilet",
        "name:kn": "ಶೌಚಾಲಯ",
        "ups_other": "toilet"
      }
    },
    {
      "type": "node",
      "id": 663604717,
      "lat": 12.9499142,
      "lon": 77.616417,
      "tags": {
        "name": "Jewellery shops",
        "shop": "jewelry",
        "ups_shop": "shop"
      }
    },
    {
      "type": "node",
      "id": 663604719,
      "lat": 12.9503659,
      "lon": 77.6151518,
      "tags": {
        "amenity": "community_centre",
        "name": "Government training centre",
        "ups_community": "community_centre"
      }
    },
    {
      "type": "node",
      "id": 663604720,
      "lat": 12.9503648,
      "lon": 77.6156719,
      "tags": {
        "amenity": "place_of_worship",
        "religion": "christian",
        "ups_other": "Church"
      }
    },
    {
      "type": "node",
      "id": 663604721,
      "lat": 12.9503747,
      "lon": 77.6159015,
      "tags": {
        "amenity": "place_of_worship",
        "name": "temple",
        "religion": "hindu",
        "ups_other": "temple"
      }
    },
    {
      "type": "node",
      "id": 663604722,
      "lat": 12.9505235,
      "lon": 77.6162762,
      "tags": {
        "amenity": "place_of_worship",
        "name": "St merry statue",
        "religion": "christian",
        "ups_other": "statue"
      }
    },
    {
      "type": "node",
      "id": 663604723,
      "lat": 12.9503234,
      "lon": 77.6162619,
      "tags": {
        "amenity": "hospital",
        "healthcare": "hospital",
        "name": "Government Primary Health Centre",
        "name:kn": "ಸರ್ಕಾರಿ ಪ್ರಾಥಮಿಕ ಆರೋಗ್ಯ ಕೇಂದ್ರ",
        "ups_hospital": "hospital"
      }
    },
    {
      "type": "node",
      "id": 663604724,
      "lat": 12.9502096,
      "lon": 77.6166557,
      "tags": {
        "amenity": "place_of_worship",
        "name": "Church statue",
        "religion": "christian",
        "ups_other": "statue"
      }
    },
    {
      "type": "node",
      "id": 672055796,
      "lat": 12.9495725,
      "lon": 77.6176442,
      "tags": {
        "amenity": "recycling",
        "name": "Baba shop"
      }
    },
    {
      "type": "node",
      "id": 672055799,
      "lat": 12.9519474,
      "lon": 77.6196686,
      "tags": {
        "amenity": "recycling",
        "name": "Vinayakai"
      }
    },
    {
      "type": "node",
      "id": 672055806,
      "lat": 12.9492855,
      "lon": 77.617491,
      "tags": {
        "amenity": "recycling",
        "name": "sagai"
      }
    },
    {
      "type": "node",
      "id": 672060567,
      "lat": 12.9490485,
      "lon": 77.6174494,
      "tags": {
        "amenity": "recycling",
        "name": "dumping site"
      }
    },
    {
      "type": "node",
      "id": 672071448,
      "lat": 12.94905,
      "lon": 77.617456,
      "tags": {
        "amenity": "recycling",
        "description": "dumpsite"
      }
    },
    {
      "type": "node",
      "id": 1684631607,
      "lat": 12.9501262,
      "lon": 77.6186016,
      "tags": {
        "amenity": "place_of_worship",
        "name": "Anaga Parmeshwari temple",
        "religion": "hindu"
      }
    },
    {
      "type": "node",
      "id": 1684702809,
      "lat": 12.9510012,
      "lon": 77.6188616,
      "tags": {
        "amenity": "place_of_worship",
        "name:kn": "ಮಸೀದಿ",
        "religion": "muslim"
      }
    },
    {
      "type": "node",
      "id": 4447082865,
      "lat": 12.9495697,
      "lon": 77.6182599,
      "tags": {
        "addr:city": "bangalore",
        "addr:housenumber": "999",
        "addr:postcode": "560034",
        "addr:street": "80 Feet Road, Koramangala 1st Block, HSR Layout",
        "amenity": "pharmacy",
        "name": "Sri Balaji Medicals",
        "phone": "+9180 2552 9317",
        "source": "justdial"
      }
    },
    {
      "type": "node",
      "id": 6348899089,
      "lat": 12.94917,
      "lon": 77.6188547,
      "tags": {
        "addr:place": "Koramangala",
        "amenity": "school",
        "isced:level": "2",
        "name": "Shivaganga HPS Koramangala",
        "name:kn": "ಶಿವಗಂಗಾ ಹಿರಿಯ ಪ್ರಾಥಮಿಕ ಶಾಲೆ ಕೋರಮಂಗಲ",
        "operator": "Department of Primary and Secondary Education",
        "operator:type": "government",
        "operator:wikidata": "Q111467381",
        "school": "primary"
      }
    },
    {
      "type": "node",
      "id": 6420770985,
      "lat": 12.9531262,
      "lon": 77.6204588,
      "tags": {
        "addr:place": "Austin Town",
        "amenity": "school",
        "isced:level": "3",
        "name": "Shanthinikethan HPS Vivekanag, Austin Town W No 71",
        "name:kn": "ಶಾಂತಿನಿಕೇತನ ಹಿರಿಯ ಪ್ರಾಥಮಿಕ ಶಾಲೆ ವಿವೇಕನಗರ, ಆಸ್ಟಿನ್‌ಟೌನ್‌",
        "operator": "Private Un-Aided",
        "school": "Higher Secondary"
      }
    },
    {
      "type": "node",
      "id": 6536283049,
      "lat": 12.9505983,
      "lon": 77.6153935,
      "tags": {
        "addr:place": "Koramangala",
        "amenity": "school",
        "isced:level": "1",
        "name": "Gk&TLPS L R Nagara, Koramangala",
        "name:kn": "ಜಿ.ಕೆ. ತೆಲುಗು ಕಿರಿಯ ಪ್ರಾಥಮಿಕ ಶಾಲೆ ಎಲ್.ಆರ್.ನಗರ, ಕೋರಮಂಗಲ",
        "operator": "Department of Primary and Secondary Education",
        "operator:type": "government",
        "operator:wikidata": "Q111467381",
        "school": "primary"
      }
    },
    {
      "type": "node",
      "id": 6536319890,
      "lat": 12.9515543,
      "lon": 77.6190638,
      "tags": {
        "addr:place": "Koramangala",
        "amenity": "school",
        "isced:level": "3",
        "name": "Sunshine HPS Lr Nagar, Koramangala",
        "name:kn": "ಸನ್ಶೈನ್ ಹಿರಿಯ ಪ್ರಾಥಮಿಕ ಶಾಲೆ ಎಲ್.ಆರ್.ನಗರ, ಕೋರಮಂಗಲ",
        "operator": "Private Un-Aided",
        "school": "Higher Secondary"
      }
    },
    {
      "type": "node",
      "id": 6745269432,
      "lat": 12.9499617,
      "lon": 77.6182698,
      "tags": {
        "addr:place": "Neelasandra",
        "amenity": "school",
        "isced:level": "3",
        "name": "Shanthinikethan HPS",
        "name:kn": "ಶಾಂತಿನಿಕೇತನ್ ಹಿರಿಯ ಪ್ರಾಥಮಿಕ ಶಾಲೆ ನೀಲಸಂದ್ರ",
        "operator": "Private Un-Aided",
        "school": "Higher Secondary"
      }
    },
    {
      "type": "node",
      "id": 9310793281,
      "lat": 12.9508998,
      "lon": 77.6234253,
      "tags": {
        "shop": "butcher"
      }
    },
    {
      "type": "node",
      "id": 9951289022,
      "lat": 12.9487106,
      "lon": 77.619815,
      "tags": {
        "amenity": "place_of_worship",
        "name": "Salvation Prayer Church",
        "religion": "christian"
      }
    },
    {
      "type": "node",
      "id": 9951289032,
      "lat": 12.9494569,
      "lon": 77.6119924,
      "tags": {
        "amenity": "fast_food",
        "name": "Indira Canteen"
      }
    },
    {
      "type": "node",
      "id": 9951289033,
      "lat": 12.9492177,
      "lon": 77.6114425,
      "tags": {
        "amenity": "waste_disposal"
      }
    },
    {
      "type": "node",
      "id": 9951289034,
      "lat": 12.9493916,
      "lon": 77.6094738,
      "tags": {
        "amenity": "waste_disposal"
      }
    },
    {
      "type": "node",
      "id": 10098185417,
      "lat": 12.9512726,
      "lon": 77.6222965,
      "tags": {
        "name": "Deepa Condiments",
        "shop": "convenience"
      }
    },
    {
      "type": "node",
      "id": 10098185520,
      "lat": 12.9513766,
      "lon": 77.6225836,
      "tags": {
        "name": "Hyper Bazaar",
        "shop": "department_store"
      }
    },
    {
      "type": "node",
      "id": 10101174121,
      "lat": 12.9509774,
      "lon": 77.6230906,
      "tags": {
        "name": "Fruit Stall",
        "shop": "greengrocer"
      }
    },
    {
      "type": "node",
      "id": 10101174122,
      "lat": 12.9509673,
      "lon": 77.623189,
      "tags": {
        "amenity": "pharmacy",
        "healthcare": "pharmacy",
        "name": "Bright Medicals"
      }
    },
    {
      "type": "node",
      "id": 10101174123,
      "lat": 12.9509965,
      "lon": 77.6231889,
      "tags": {
        "name": "Dean Laundry",
        "shop": "laundry"
      }
    },
    {
      "type": "node",
      "id": 10101174417,
      "lat": 12.9509598,
      "lon": 77.6231109,
      "tags": {
        "amenity": "fast_food",
        "name": "Bajji Stall"
      }
    },
    {
      "type": "node",
      "id": 10101174617,
      "lat": 12.9509357,
      "lon": 77.6231929,
      "tags": {
        "name": "X Longe",
        "shop": "clothes"
      }
    },
    {
      "type": "node",
      "id": 10106533117,
      "lat": 12.9513201,
      "lon": 77.622873,
      "tags": {
        "name": "Yuvaratna Appu Salon Shop",
        "shop": "hairdresser"
      }
    },
    {
      "type": "node",
      "id": 10106533217,
      "lat": 12.9513036,
      "lon": 77.6229768,
      "tags": {
        "amenity": "restaurant",
        "name": "Brindavan Andhra Style"
      }
    },
    {
      "type": "node",
      "id": 10106533218,
      "lat": 12.9513411,
      "lon": 77.6230341,
      "tags": {
        "amenity": "kindergarten",
        "name": "A.V.Kids Kindergarten"
      }
    },
    {
      "type": "node",
      "id": 10106533317,
      "lat": 12.9512846,
      "lon": 77.6230246,
      "tags": {
        "amenity": "bank",
        "name": "Muthoottu Mini Financiers"
      }
    },
    {
      "type": "node",
      "id": 10106533318,
      "lat": 12.9512774,
      "lon": 77.6231042,
      "tags": {
        "name": "Sri Murugan Hyper Mart",
        "shop": "department_store"
      }
    },
    {
      "type": "node",
      "id": 10116658722,
      "lat": 12.9508407,
      "lon": 77.6235723,
      "tags": {
        "name": "Magic Bags and Footwear",
        "shop": "shoes"
      }
    },
    {
      "type": "node",
      "id": 10116658725,
      "lat": 12.9508146,
      "lon": 77.6237047,
      "tags": {
        "name": "S.R.V Vegetable and Fruits",
        "shop": "greengrocer"
      }
    },
    {
      "type": "node",
      "id": 10116658726,
      "lat": 12.9508202,
      "lon": 77.6236716,
      "tags": {
        "name": "Grocer",
        "shop": "convenience"
      }
    },
    {
      "type": "node",
      "id": 10116658727,
      "lat": 12.9508248,
      "lon": 77.6236033,
      "tags": {
        "name": "Magic",
        "shop": "mobile_phone"
      }
    },
    {
      "type": "node",
      "id": 10116658728,
      "lat": 12.9509047,
      "lon": 77.6236201,
      "tags": {
        "name": "Happy Land",
        "shop": "toys"
      }
    },
    {
      "type": "node",
      "id": 10118710999,
      "lat": 12.95079,
      "lon": 77.6237562,
      "tags": {
        "name": "Patel Electricals",
        "shop": "electrical"
      }
    },
    {
      "type": "node",
      "id": 10118711000,
      "lat": 12.9507764,
      "lon": 77.6238164,
      "tags": {
        "name": "Mobile Shop",
        "shop": "mobile_phone"
      }
    },
    {
      "type": "node",
      "id": 10118711001,
      "lat": 12.9507714,
      "lon": 77.6238421,
      "tags": {
        "amenity": "pharmacy",
        "healthcare": "pharmacy"
      }
    },
    {
      "type": "node",
      "id": 10118711002,
      "lat": 12.9507957,
      "lon": 77.6237907,
      "tags": {
        "name": "Lovely Fancy and Gifts",
        "shop": "toys"
      }
    },
    {
      "type": "node",
      "id": 10118722287,
      "lat": 12.950745,
      "lon": 77.623974,
      "tags": {
        "name": "Sri Marudhar",
        "shop": "jewelry"
      }
    },
    {
      "type": "node",
      "id": 10118722288,
      "lat": 12.950735,
      "lon": 77.6240042,
      "tags": {
        "name": "Tasty Bakes",
        "shop": "bakery"
      }
    },
    {
      "type": "node",
      "id": 10118769915,
      "lat": 12.9507942,
      "lon": 77.6239057,
      "tags": {
        "name": "Shakthi Studio",
        "shop": "photo"
      }
    },
    {
      "type": "node",
      "id": 10118769916,
      "lat": 12.9507634,
      "lon": 77.6239329,
      "tags": {
        "name": "Tea City",
        "shop": "tea"
      }
    },
    {
      "type": "node",
      "id": 10118796372,
      "lat": 12.9499075,
      "lon": 77.6264294,
      "tags": {
        "name": "Fair Lands",
        "shop": "clothes"
      }
    },
    {
      "type": "node",
      "id": 10118807317,
      "lat": 12.9507606,
      "lon": 77.6238917,
      "tags": {
        "name": "Mahalakshmi Enterprises",
        "shop": "mobile_phone"
      }
    },
    {
      "type": "node",
      "id": 10159376490,
      "lat": 12.9506988,
      "lon": 77.6241602,
      "tags": {
        "name": "M.G.Enterprises",
        "shop": "mobile_phone"
      }
    },
    {
      "type": "node",
      "id": 10159376491,
      "lat": 12.9508367,
      "lon": 77.6243426,
      "tags": {
        "name": "Mayur Jewels",
        "shop": "jewelry"
      }
    },
    {
      "type": "node",
      "id": 10159376494,
      "lat": 12.9506886,
      "lon": 77.6242057,
      "tags": {
        "name": "Moti Textile",
        "shop": "clothes"
      }
    },
    {
      "type": "node",
      "id": 10159395929,
      "lat": 12.9506644,
      "lon": 77.6242582,
      "tags": {
        "amenity": "fast_food",
        "name": "Bajji Shop"
      }
    },
    {
      "type": "node",
      "id": 10159395932,
      "lat": 12.950654,
      "lon": 77.624314,
      "tags": {
        "name": "Sola Men’s Saloon",
        "shop": "hairdresser"
      }
    },
    {
      "type": "node",
      "id": 10159395933,
      "lat": 12.9506565,
      "lon": 77.6242952,
      "tags": {
        "amenity": "fast_food",
        "name": "Bajji Shop"
      }
    },
    {
      "type": "node",
      "id": 10314122715,
      "lat": 12.9524002,
      "lon": 77.6190586,
      "tags": {
        "amenity": "community_centre",
        "name": "Samata Sainik Dal",
        "name:kn": "ಸಮತ ಸೈನಿಕ ದಳ",
        "ups_community": "community_centre",
        "website": "https://ssdindia.org/"
      }
    },
    {
      "type": "node",
      "id": 10873245757,
      "lat": 12.9485446,
      "lon": 77.6197252,
      "tags": {
        "amenity": "place_of_worship",
        "religion": "hindu"
      }
    },
    {
      "type": "node",
      "id": 11385562464,
      "lat": 12.9491111,
      "lon": 77.6201679,
      "tags": {
        "amenity": "bench",
        "backrest": "yes",
        "material": "stone",
        "seats": "2"
      }
    },
    {
      "type": "node",
      "id": 11385562465,
      "lat": 12.9475564,
      "lon": 77.6192527,
      "tags": {
        "amenity": "bench",
        "backrest": "yes",
        "material": "stone",
        "seats": "2"
      }
    },
    {
      "type": "node",
      "id": 11385562466,
      "lat": 12.947529,
      "lon": 77.6192363,
      "tags": {
        "amenity": "bench",
        "backrest": "yes",
        "material": "stone",
        "seats": "2"
      }
    },
    {
      "type": "node",
      "id": 11385580184,
      "lat": 12.9491259,
      "lon": 77.6201795,
      "tags": {
        "amenity": "bench",
        "backrest": "yes",
        "material": "stone",
        "seats": "2"
      }
    },
    {
      "type": "node",
      "id": 11505756829,
      "lat": 12.9477206,
      "lon": 77.6192277,
      "tags": {
        "amenity": "place_of_worship",
        "check_date": "2024-01-10",
        "religion": "hindu"
      }
    },
    {
      "type": "way",
      "id": 326201187,
      "center": {
        "lat": 12.9519353,
        "lon": 77.6229445
      },
      "tags": {
        "landuse": "recreation_ground",
        "leisure": "playground",
        "name": "Viveknagar Ground"
      }
    },
    {
      "type": "way",
      "id": 326201188,
      "center": {
        "lat": 12.9523032,
        "lon": 77.6242867
      },
      "tags": {
        "leisure": "park"
      }
    },
    {
      "type": "way",
      "id": 401993917,
      "center": {
        "lat": 12.9490229,
        "lon": 77.6199247
      },
      "tags": {
        "amenity": "hospital",
        "name": "Government Hospital",
        "name:kn": "ಸರ್ಕಾರಿ ಆಸ್ಪತ್ರೆ",
        "ups_hospital": "general hospital"
      }
    },
    {
      "type": "way",
      "id": 781192788,
      "center": {
        "lat": 12.9514387,
        "lon": 77.6250349
      },
      "tags": {
        "leisure": "park"
      }
    },
    {
      "type": "way",
      "id": 1153736760,
      "center": {
        "lat": 12.9501568,
        "lon": 77.6182109
      },
      "tags": {
        "amenity": "clinic",
        "fee": "yes",
        "healthcare": "clinic",
        "name": "UPHC, Koramangala",
        "name:kn": "ಗ್ರಾಮಾಂತರ ಪ್ರಾಥಮಿಕ ಆರೋಗ್ಯ ಕೇಂದ್ರ",
        "operator": "BBMP"
      }
    },
    {
      "type": "way",
      "id": 1153736761,
      "center": {
        "lat": 12.9515077,
        "lon": 77.6252401
      },
      "tags": {
        "alt_name": "UPHC, Austin Town",
        "amenity": "clinic",
        "name": "UPHC, Viveknagar",
        "name:kn": "ಗ್ರಾಮಾಂತರ ಪ್ರಾಥಮಿಕ ಆರೋಗ್ಯ ಕೇಂದ್ರ",
        "operator": "BBMP"
      }
    },
    {
      "type": "way",
      "id": 1153736764,
      "center": {
        "lat": 12.9518683,
        "lon": 77.622351
      },
      "tags": {
        "amenity": "police",
        "name": "Viveknagar Police Station",
        "name:kn": "ವಿವೇಕನಗರ ಆರಕ್ಷಕ ಠಾಣೆ"
      }
    },
    {
      "type": "way",
      "id": 1153736765,
      "center": {
        "lat": 12.9512681,
        "lon": 77.622113
      },
      "tags": {
        "amenity": "cinema",
        "name": "Ravi Cinemas"
      }
    },
    {
      "type": "way",
      "id": 1153736766,
      "center": {
        "lat": 12.9511632,
        "lon": 77.6228231
      },
      "tags": {
        "leisure": "park"
      }
    }
  ]
}