{
  "area_name": "Anandapura",
  "osm_id": 6359847295,
  "osm_type": "node",
  "place_type": "neighbourhood",
  "amenity_count": 46,
  "amenities": [
    {
      "type": "node",
      "id": 4422320591,
      "lat": 13.0207532,
      "lon": 77.6841848,
      "tags": {
        "addr:street": "Akshay Nagar",
        "amenity": "bank",
        "brand:wikidata": "Q367008",
        "brand:wikipedia": "en:Oriental Bank of Commerce",
        "name": "Oriental Bank of Commerce",
        "name:en": "Oriental Bank of Commerce",
        "short_name": "OBC",
        "website": "https://www.obcindia.co.in"
      }
    },
    {
      "type": "node",
      "id": 4422382490,
      "lat": 13.020674,
      "lon": 77.6861834,
      "tags": {
        "addr:street": "Thambuchettypalya Main Road",
        "amenity": "bank",
        "brand": "State Bank of India",
        "brand:wikidata": "Q1340361",
        "brand:wikipedia": "en:State Bank of India",
        "name": "State Bank of India",
        "name:kn": "ಭಾರತೀಯ ಸ್ಟೇಟ್ ಬ್ಯಾಂಕ್",
        "short_name": "SBI",
        "website": "https://www.sbi.co.in"
      }
    },
    {
      "type": "node",
      "id": 4448082148,
      "lat": 13.0241512,
      "lon": 77.6899413,
      "tags": {
        "addr:city": "Bangalore",
        "addr:housenumber": "#23",
        "addr:postcode": "560036",
        "addr:street": "Shop No.2,T.C.Playa, Opp.Bharath Petroleum, Sonnathammanahalli K.R.Puram, Anandapura, Battarahalli",
        "amenity": "pharmacy",
        "name": "Sree Manjunatha Medicals",
        "phone": "+9199004 94039",
        "source": "http://bestofhealthindia.com/"
      }
    },
    {
      "type": "node",
      "id": 4489264498,
      "lat": 13.0216092,
      "lon": 77.6875751,
      "tags": {
        "addr:city": "bangalore",
        "addr:housenumber": "#2",
        "addr:postcode": "560016",
        "addr:street": "Haji layout.TCPalya Main Road, ramamurthy nagar,",
        "name": "Sportexx",
        "opening_hours": "10:00-21:00",
        "phone": "+919902700551",
        "shop": "sports",
        "website": "sportexx.in"
      }
    },
    {
      "type": "node",
      "id": 6943228034,
      "lat": 13.0241654,
      "lon": 77.7012992,
      "tags": {
        "name": "Vallombrosa Cheese",
        "operator": "Vallombrosan Benedictine Confederation",
        "shop": "cheese"
      }
    },
    {
      "type": "node",
      "id": 7572131827,
      "lat": 13.0227243,
      "lon": 77.6967523,
      "tags": {
        "addr:district": "Bengaluru Urban",
        "addr:full": "Thambu Chetty Palya, Bengaluru",
        "addr:postcode": "560036",
        "addr:state": "Karnataka",
        "amenity": "clinic",
        "name": "Vijaya Lakshmi Clinic",
        "source": "Local Knowledge"
      }
    },
    {
      "type": "node",
      "id": 7572131842,
      "lat": 13.0219523,
      "lon": 77.6994046,
      "tags": {
        "addr:district": "Bengaluru Urban",
        "addr:full": "Sunshine Layout, Krishnarajapura, Bengaluru",
        "addr:postcode": "560036",
        "addr:state": "Karnataka",
        "amenity": "hospital",
        "name": "Health Plus Multi Speciality Hospital",
        "source": "Local Knowledge"
      }
    },
    {
      "type": "node",
      "id": 7572131890,
      "lat": 13.0241655,
      "lon": 77.6915736,
      "tags": {
        "addr:district": "Bengaluru Urban",
        "addr:full": "Krishnarajapura, Bengaluru",
        "addr:postcode": "560036",
        "addr:state": "Karnataka",
        "amenity": "clinic",
        "name": "Sri Krishna Ayurvedic Clinic",
        "source": "Local Knowledge"
      }
    },
    {
      "type": "node",
      "id": 7572131895,
      "lat": 13.024184,
      "lon": 77.691392,
      "tags": {
        "addr:district": "Bengaluru Urban",
        "addr:full": "Anandpura, Krishnarajapura, Bengaluru",
        "addr:postcode": "560036",
        "addr:state": "Karnataka",
        "amenity": "dentist",
        "name": "Smart Dental Clinic",
        "source": "Local Knowledge"
      }
    },
    {
      "type": "node",
      "id": 7572131911,
      "lat": 13.0239661,
      "lon": 77.691932,
      "tags": {
        "addr:district": "Bengaluru Urban",
        "addr:full": "Anandapura, Battarahalli, Bengaluru",
        "addr:postcode": "560036",
        "addr:state": "Karnataka",
        "amenity": "clinic",
        "name": "GSR Dental & Health Care",
        "source": "Local Knowledge"
      }
    },
    {
      "type": "node",
      "id": 7572131912,
      "lat": 13.0239342,
      "lon": 77.6917622,
      "tags": {
        "addr:district": "Bengaluru Urban",
        "addr:full": "Anandapura, Battarahalli, Bengaluru",
        "addr:postcode": "560036",
        "addr:state": "Karnataka",
        "amenity": "clinic",
        "name": "Amma Poly Clinic",
        "source": "Local Knowledge"
      }
    },
    {
      "type": "node",
      "id": 7572131927,
      "lat": 13.02241,
      "lon": 77.697152,
      "tags": {
        "addr:district": "Bengaluru Urban",
        "addr:full": "Thambu Chetty Palya, Bengaluru",
        "addr:postcode": "560036",
        "addr:state": "Karnataka",
        "amenity": "dentist",
        "name": "Pooja Dental and Orthodontic Clinic",
        "source": "Local Knowledge"
      }
    },
    {
      "type": "node",
      "id": 7572131933,
      "lat": 13.0233824,
      "lon": 77.6905904,
      "tags": {
        "addr:district": "Bengaluru Urban",
        "addr:full": "P and T Layout, Jinkethimmanahalli, Battarahalli, Bengaluru",
        "addr:postcode": "560049",
        "addr:state": "Karnataka",
        "amenity": "clinic",
        "name": "Sri Vinayaka Child Care Clinic",
        "source": "Local Knowledge"
      }
    },
    {
      "type": "node",
      "id": 12960370743,
      "lat": 13.0239786,
      "lon": 77.6919984,
      "tags": {
        "brand": "Kanti Sweets",
        "brand:wikidata": "Q124374180",
        "check_date": "2025-06-29",
        "name": "Kanti Sweets",
        "shop": "confectionery"
      }
    },
    {
      "type": "node",
      "id": 12968864355,
      "lat": 13.020096,
      "lon": 77.6929133,
      "tags": {
        "access": "private",
        "amenity": "charging_station",
        "fee": "yes",
        "motorcar": "yes",
        "motorcycle": "yes"
      }
    },
    {
      "type": "node",
      "id": 13028433913,
      "lat": 13.0239115,
      "lon": 77.6944408,
      "tags": {
        "amenity": "restaurant",
        "name": "Udupi Gokula"
      }
    },
    {
      "type": "way",
      "id": 160470309,
      "center": {
        "lat": 13.0206562,
        "lon": 77.7000103
      },
      "tags": {
        "amenity": "college",
        "name": "St. Anthony Composite P. U. College"
      }
    },
    {
      "type": "way",
      "id": 160470314,
      "center": {
        "lat": 13.021206,
        "lon": 77.7003049
      },
      "tags": {
        "amenity": "place_of_worship",
        "building": "yes",
        "name": "St Anthony's Church",
        "religion": "christian"
      }
    },
    {
      "type": "way",
      "id": 213366824,
      "center": {
        "lat": 13.0221621,
        "lon": 77.7005991
      },
      "tags": {
        "amenity": "school",
        "name": "St Anthony's Public School"
      }
    },
    {
      "type": "way",
      "id": 679185382,
      "center": {
        "lat": 13.0175958,
        "lon": 77.6955579
      },
      "tags": {
        "leisure": "park",
        "name": "TC Palya Park"
      }
    },
    {
      "type": "way",
      "id": 679185384,
      "center": {
        "lat": 13.0218135,
        "lon": 77.7031995
      },
      "tags": {
        "amenity": "college",
        "name": "Kristu Jyoti College"
      }
    },
    {
      "type": "way",
      "id": 997869899,
      "center": {
        "lat": 13.0199145,
        "lon": 77.6923907
      },
      "tags": {
        "building": "yes",
        "landuse": "retail",
        "name": "Peoples Mart",
        "payment:cash": "yes",
        "payment:credit_cards": "yes",
        "payment:debit_cards": "yes",
        "payment:phonepe": "yes",
        "payment:rupay": "yes",
        "payment:upi": "yes",
        "shop": "supermarket"
      }
    },
    {
      "type": "way",
      "id": 1196104377,
      "center": {
        "lat": 13.0279503,
        "lon": 77.699839
      },
      "tags": {
        "amenity": "monastery",
        "denomination": "catholic",
        "landuse": "religious",
        "name": "Missionaries of the Sacred Heart",
        "religion": "christian"
      }
    },
    {
      "type": "way",
      "id": 1196104380,
      "center": {
        "lat": 13.0263197,
        "lon": 77.6996501
      },
      "tags": {
        "amenity": "monastery",
        "denomination": "catholic",
        "landuse": "religious",
        "name": "Vinaya Sadan",
        "religion": "christian"
      }
    },
    {
      "type": "way",
      "id": 1196104382,
      "center": {
        "lat": 13.0205109,
        "lon": 77.7007605
      },
      "tags": {
        "amenity": "monastery",
        "denomination": "catholic",
        "landuse": "religious",
        "name": "St. Anne's Novititate",
        "religion": "christian"
      }
    },
    {
      "type": "way",
      "id": 1196104392,
      "center": {
        "lat": 13.0230732,
        "lon": 77.7014597
      },
      "tags": {
        "amenity": "monastery",
        "denomination": "catholic",
        "landuse": "religious",
        "name": "Jeevadhama",
        "name:kn": "ಜೀವಧಾಮ",
        "religion": "christian"
      }
    },
    {
      "type": "way",
      "id": 1196104393,
      "center": {
        "lat": 13.0243038,
        "lon": 77.7015016
      },
      "tags": {
        "amenity": "monastery",
        "denomination": "catholic",
        "landuse": "religious",
        "name": "Gualbert Bhavan",
        "religion": "christian"
      }
    },
    {
      "type": "way",
      "id": 1274064843,
      "center": {
        "lat": 13.0301513,
        "lon": 77.6986354
      },
      "tags": {
        "addr:housenumber": "63",
        "addr:street": "Halehalli Main Road",
        "amenity": "school",
        "name": "Indusridge College of Commerce"
      }
    },
    {
      "type": "way",
      "id": 1313244894,
      "center": {
        "lat": 13.0222409,
        "lon": 77.689256
      },
      "tags": {
        "amenity": "fuel"
      }
    },
    {
      "type": "way",
      "id": 1410389220,
      "center": {
        "lat": 13.0208874,
        "lon": 77.6852618
      },
      "tags": {
        "amenity": "fuel"
      }
    },
    {
      "type": "way",
      "id": 1410389406,
      "center": {
        "lat": 13.0241648,
        "lon": 77.694715
      },
      "tags": {
        "amenity": "fuel",
        "name": "Bharat Petroleum",
        "name:kn": "ಭಾರತ್ ಪೆಟ್ರೋಲಿಯಂ"
      }
    },
    {
      "type": "way",
      "id": 1410389516,
      "center": {
        "lat": 13.0241587,
        "lon": 77.6867509
      },
      "tags": {
        "amenity": "school"
      }
    },
    {
      "type": "way",
      "id": 1411381104,
      "center": {
        "lat": 13.0217123,
        "lon": 77.6947589
      },
      "tags": {
        "access": "private",
        "leisure": "swimming_pool"
      }
    },
    {
      "type": "way",
      "id": 1411381105,
      "center": {
        "lat": 13.0190387,
        "lon": 77.6925608
      },
      "tags": {
        "amenity": "school"
      }
    },
    {
      "type": "way",
      "id": 1411381108,
      "center": {
        "lat": 13.0196599,
        "lon": 77.6926279
      },
      "tags": {
        "leisure": "garden"
      }
    },
    {
      "type": "way",
      "id": 1411381109,
      "center": {
        "lat": 13.020127,
        "lon": 77.6926159
      },
      "tags": {
        "access": "private",
        "leisure": "playground"
      }
    },
    {
      "type": "way",
      "id": 1411381112,
      "center": {
        "lat": 13.0198391,
        "lon": 77.6926192
      },
      "tags": {
        "access": "private",
        "leisure": "swimming_pool"
      }
    },
    {
      "type": "way",
      "id": 1415083458,
      "center": {
        "lat": 13.0278252,
        "lon": 77.6867612
      },
      "tags": {
        "leisure": "sports_centre"
      }
    },
    {
      "type": "way",
      "id": 1415083463,
      "center": {
        "lat": 13.0287843,
        "lon": 77.6866349
      },
      "tags": {
        "amenity": "school"
      }
    },
    {
      "type": "way",
      "id": 1415322426,
      "center": {
        "lat": 13.0318952,
        "lon": 77.6980067
      },
      "tags": {
        "leisure": "sports_centre"
      }
    },
    {
      "type": "way",
      "id": 1415343635,
      "center": {
        "lat": 13.0318508,
        "lon": 77.6884711
      },
      "tags": {
        "amenity": "school"
      }
    },
    {
      "type": "way",
      "id": 1415585356,
      "center": {
        "lat": 13.0227806,
        "lon": 77.6882936
      },
      "tags": {
        "leisure": "pitch"
      }
    },
    {
      "type": "way",
      "id": 1415585387,
      "center": {
        "lat": 13.0238407,
        "lon": 77.6873624
      },
      "tags": {
        "leisure": "pitch"
      }
    },
    {
      "type": "way",
      "id": 1421484084,
      "center": {
        "lat": 13.0238557,
        "lon": 77.6990607
      },
      "tags": {
        "leisure": "pitch",
        "sport": "soccer"
      }
    },
    {
      "type": "way",
      "id": 1421739302,
      "center": {
        "lat": 13.0186192,
        "lon": 77.6967944
      },
      "tags": {
        "amenity": "place_of_worship",
        "building": "temple",
        "name": "Meenakshi Temple",
        "religion": "hindu"
      }
    },
    {
      "type": "way",
      "id": 1422967205,
      "center": {
        "lat": 13.0289174,
        "lon": 77.6869684
      },
      "tags": {
        "leisure": "pitch",
        "sport": "basketball"
      }
    }
  ]
}