{
  "area_name": "Anand Nagar Colony",
  "osm_id": 11613188572,
  "osm_type": "node",
  "place_type": "neighbourhood",
  "amenity_count": 153,
  "amenities": [
    {
      "type": "node",
      "id": 593146903,
      "lat": 13.026313,
      "lon": 77.5845772,
      "tags": {
        "amenity": "college",
        "name": "National Bureau of Agriculturally Important Insects"
      }
    },
    {
      "type": "node",
      "id": 850751623,
      "lat": 13.0249229,
      "lon": 77.5928698,
      "tags": {
        "amenity": "atm",
        "brand": "UCO Bank",
        "brand:wikidata": "Q2005310",
        "name": "UCO Bank",
        "operator": "UCO Bank",
        "operator:wikidata": "Q2005310"
      }
    },
    {
      "type": "node",
      "id": 850751634,
      "lat": 13.0256109,
      "lon": 77.5931302,
      "tags": {
        "brand": "Levi's",
        "brand:wikidata": "Q127962",
        "clothes": "denim;men;women",
        "name": "Levi's",
        "name:kn": "ಲೆವಿಸ್",
        "shop": "clothes"
      }
    },
    {
      "type": "node",
      "id": 850751635,
      "lat": 13.0259675,
      "lon": 77.5932154,
      "tags": {
        "amenity": "library",
        "name": "RT Nagar Public Library"
      }
    },
    {
      "type": "node",
      "id": 850751637,
      "lat": 13.0248113,
      "lon": 77.5934442,
      "tags": {
        "amenity": "atm",
        "name": "Vijaya Bank",
        "name:kn": "ವಿಜಯ ಬ್ಯಾಂಕು"
      }
    },
    {
      "type": "node",
      "id": 850751641,
      "lat": 13.0254978,
      "lon": 77.5931058,
      "tags": {
        "amenity": "bank",
        "brand": "Andhra Bank",
        "brand:wikidata": "Q2003476",
        "brand:wikipedia": "en:Andhra Bank",
        "name": "Andhra Bank",
        "name:en": "Andhra Bank",
        "name:kn": "ಆಂಧ್ರ ಬ್ಯಾಂಕ್",
        "website": "https://www.andhrabank.in"
      }
    },
    {
      "type": "node",
      "id": 850751651,
      "lat": 13.0265973,
      "lon": 77.5933811,
      "tags": {
        "brand": "Adidas",
        "brand:wikidata": "Q3895",
        "name": "Adidas",
        "name:kn": "ಅಡಿಡಾಸ್",
        "shop": "sports"
      }
    },
    {
      "type": "node",
      "id": 850751657,
      "lat": 13.0260757,
      "lon": 77.5932346,
      "tags": {
        "brand": "Reebok",
        "brand:wikidata": "Q466183",
        "name": "Reebok",
        "name:kn": "ರೀಬಾಕ್",
        "shop": "clothes"
      }
    },
    {
      "type": "node",
      "id": 850751675,
      "lat": 13.0273116,
      "lon": 77.5934753,
      "tags": {
        "amenity": "restaurant",
        "name": "Kabab Manor",
        "name:kn": "ಕಬಾಬ್ ಮೆನರ್"
      }
    },
    {
      "type": "node",
      "id": 850751693,
      "lat": 13.0249491,
      "lon": 77.5926439,
      "tags": {
        "amenity": "atm",
        "brand": "Citibank",
        "brand:wikidata": "Q857063",
        "name": "Citibank",
        "name:kn": "ಸಿಟಿಬ್ಯಾಂಕ್",
        "operator": "Citibank",
        "operator:wikidata": "Q857063",
        "short_name": "Citi"
      }
    },
    {
      "type": "node",
      "id": 1299725537,
      "lat": 13.0386192,
      "lon": 77.5896244,
      "tags": {
        "amenity": "police",
        "building": "yes",
        "name": "Hebbal Police Station",
        "name:kn": "ಹೆಬ್ಬಾಳ ಆರಕ್ಷಕ ಠಾಣೆ",
        "wheelchair": "no"
      }
    },
    {
      "type": "node",
      "id": 1415907177,
      "lat": 13.0236679,
      "lon": 77.592064,
      "tags": {
        "brand": "Nilgiri's",
        "brand:wikidata": "Q17079567",
        "name": "Nilgiri's",
        "name:kn": "ನೀಲ್ಗಿರೀಸ್",
        "shop": "supermarket"
      }
    },
    {
      "type": "node",
      "id": 1474819109,
      "lat": 13.0256971,
      "lon": 77.5931352,
      "tags": {
        "amenity": "restaurant",
        "name": "Punjabi Rasoi",
        "name:kn": "ಪಂಜಾಬಿ ರಸೋಯಿ"
      }
    },
    {
      "type": "node",
      "id": 1474819110,
      "lat": 13.0263622,
      "lon": 77.5930491,
      "tags": {
        "amenity": "bank",
        "brand": "Andhra Bank",
        "brand:wikidata": "Q2003476",
        "brand:wikipedia": "en:Andhra Bank",
        "name": "Andhra Bank",
        "name:en": "Andhra Bank",
        "name:kn": "ಆಂಧ್ರ ಬ್ಯಾಂಕ್",
        "website": "https://www.andhrabank.in"
      }
    },
    {
      "type": "node",
      "id": 1474819111,
      "lat": 13.0264438,
      "lon": 77.5933686,
      "tags": {
        "amenity": "hospital",
        "name": "TSR heart care"
      }
    },
    {
      "type": "node",
      "id": 1474819113,
      "lat": 13.0265699,
      "lon": 77.5866871,
      "tags": {
        "amenity": "bank",
        "brand": "ICICI Bank",
        "brand:wikidata": "Q1653258",
        "name": "ICICI Bank",
        "name:kn": "ಐಸಿಐಸಿಐ ಬ್ಯಾಂಕು",
        "short_name": "ICICI"
      }
    },
    {
      "type": "node",
      "id": 1474819114,
      "lat": 13.0266169,
      "lon": 77.586655,
      "tags": {
        "amenity": "bank",
        "name": "Indus Bank",
        "name:kn": "ಇಂಡಸ್ ಬ್ಯಾಂಕ್",
        "wheelchair": "limited"
      }
    },
    {
      "type": "node",
      "id": 1474819115,
      "lat": 13.0249236,
      "lon": 77.5927811,
      "tags": {
        "amenity": "restaurant",
        "name": "Tiffin Centre",
        "name:kn": "ಟಿಫಿನ್ ಸೆಂಟೆರ್"
      }
    },
    {
      "type": "node",
      "id": 1474819116,
      "lat": 13.0270037,
      "lon": 77.5858396,
      "tags": {
        "name": "Gilma Store",
        "shop": "convenience"
      }
    },
    {
      "type": "node",
      "id": 1474819152,
      "lat": 13.0254514,
      "lon": 77.593103,
      "tags": {
        "name": "Emporium",
        "shop": "clothes"
      }
    },
    {
      "type": "node",
      "id": 1474819153,
      "lat": 13.0261152,
      "lon": 77.5887524,
      "tags": {
        "name": "Amma Pastries",
        "shop": "bakery"
      }
    },
    {
      "type": "node",
      "id": 1474819154,
      "lat": 13.0253678,
      "lon": 77.593103,
      "tags": {
        "name": "Nokia Care",
        "shop": "kiosk"
      }
    },
    {
      "type": "node",
      "id": 1474819328,
      "lat": 13.023831,
      "lon": 77.5929101,
      "tags": {
        "name": "UniverCell Store",
        "shop": "convenience"
      }
    },
    {
      "type": "node",
      "id": 1474819329,
      "lat": 13.0238887,
      "lon": 77.5926095,
      "tags": {
        "name": "Titan Show room",
        "shop": "convenience"
      }
    },
    {
      "type": "node",
      "id": 1474819330,
      "lat": 13.0233034,
      "lon": 77.5928133,
      "tags": {
        "amenity": "restaurant",
        "diet:vegetarian": "only",
        "name": "New Shanti Sagar",
        "name:kn": "ನ್ಯೂ ಶಾಂತಿ ಸಾಗರ್"
      }
    },
    {
      "type": "node",
      "id": 1824234555,
      "lat": 13.0352818,
      "lon": 77.5891227,
      "tags": {
        "amenity": "bank",
        "atm": "yes",
        "brand": "Canara Bank",
        "brand:pa": "ਕੇਨਰਾ ਬੈਂਕ",
        "brand:ur": "کینرا بینک",
        "brand:wikidata": "Q2003777",
        "brand:wikipedia": "en:Canara Bank",
        "brand:wikipedia:pa": "ਕੇਨਰਾ ਬੈਂਕ",
        "name": "Canara Bank",
        "name:kn": "ಕೆನರಾ ಬ್ಯಾಂಕ್",
        "name:pa": "ਕੇਨਰਾ ਬੈਂਕ",
        "name:ur": "کینرا بینک",
        "opening_hours": "Mo-Sa 10:00-16:00"
      }
    },
    {
      "type": "node",
      "id": 2642013545,
      "lat": 13.0371532,
      "lon": 77.5896694,
      "tags": {
        "addr:city": "Bangalore",
        "addr:street": "Bellary Road",
        "amenity": "restaurant",
        "cuisine": "indian",
        "name": "Saaga"
      }
    },
    {
      "type": "node",
      "id": 2665993754,
      "lat": 13.0292523,
      "lon": 77.5829489,
      "tags": {
        "amenity": "school",
        "name": "UAS School"
      }
    },
    {
      "type": "node",
      "id": 2666006577,
      "lat": 13.0267368,
      "lon": 77.5871118,
      "tags": {
        "amenity": "restaurant"
      }
    },
    {
      "type": "node",
      "id": 3461018651,
      "lat": 13.0275949,
      "lon": 77.5860423,
      "tags": {
        "addr:city": "Bangalore",
        "addr:street": "Ganga Nagar Flyover",
        "name": "Lotus Motors",
        "shop": "motorcycle"
      }
    },
    {
      "type": "node",
      "id": 3461018660,
      "lat": 13.0272029,
      "lon": 77.5859484,
      "tags": {
        "addr:city": "Bangalore",
        "addr:street": "Ganga Nagar Flyover",
        "amenity": "pharmacy",
        "name": "Srinidhi Pet Pharma"
      }
    },
    {
      "type": "node",
      "id": 4443560972,
      "lat": 13.0272204,
      "lon": 77.593535,
      "tags": {
        "addr:city": "bangalore",
        "addr:housenumber": "16",
        "addr:postcode": "560032",
        "addr:street": "Hmt Layout, Near-R T Nagar Bus Depot, R T Nagar, HMT Layout, Dinnur, RT Nagar",
        "amenity": "pharmacy",
        "name": "Sri Srinivasa Medicals",
        "phone": "080 2353 5499"
      }
    },
    {
      "type": "node",
      "id": 4445709313,
      "lat": 13.037145,
      "lon": 77.5916005,
      "tags": {
        "addr:city": "Bangalore",
        "addr:housenumber": "#3",
        "addr:postcode": "560024",
        "addr:street": "SS Ashram Road, No. 1, 4th Main, Manjunatha Complex",
        "amenity": "clinic",
        "name": "Dattatreya Multispeciality Clinic",
        "phone": "+9198806 44753"
      }
    },
    {
      "type": "node",
      "id": 4446284603,
      "lat": 13.0277184,
      "lon": 77.5860886,
      "tags": {
        "addr:city": "Bangalore",
        "addr:housenumber": "#80",
        "addr:postcode": "560024",
        "addr:street": "Bellary Road, Opposite Veterinary College, Lakshmayya Layout, Vishveshvaraiah Nagar",
        "amenity": "pharmacy",
        "name": "Shree Vet Life Pharma",
        "phone": "+919845164047",
        "source": "http://bestofhealthindia.com/"
      }
    },
    {
      "type": "node",
      "id": 4446306864,
      "lat": 13.02454,
      "lon": 77.5950447,
      "tags": {
        "addr:city": "Bangalore",
        "addr:housenumber": "#1",
        "addr:postcode": "560032",
        "addr:street": "Dinnur Main Road,  Dinnur Main Road, Ex Servicemen Colony,RT Nagar",
        "amenity": "pharmacy",
        "name": "Popular Medical And General",
        "phone": "08023338662",
        "source": "bangalorehospital.co.in"
      }
    },
    {
      "type": "node",
      "id": 4446312739,
      "lat": 13.0237176,
      "lon": 77.5928768,
      "tags": {
        "addr:city": "Bangalore",
        "addr:housenumber": "#3",
        "addr:postcode": "560032",
        "addr:street": "RT Nagar Main Road,  80 Feet Main Road, P&T Colony",
        "amenity": "pharmacy",
        "name": "Trust Chemists Druggists",
        "phone": "080 4128 4949",
        "source": "http://www.bangalorehospital.co.in/"
      }
    },
    {
      "type": "node",
      "id": 4488018121,
      "lat": 13.0345054,
      "lon": 77.5895751,
      "tags": {
        "addr:city": "Bangalore",
        "addr:housenumber": "127/128",
        "addr:postcode": "560024",
        "addr:street": "Anandnagar Main Road,Esteem Mall, Shop, 1st Floor, Hebbal,",
        "name": "Wildcraft Basecamp",
        "opening_hours": "10:30-21:00",
        "phone": "080 4164 8242",
        "shop": "sports",
        "website": "https://wildcraft.in/"
      }
    },
    {
      "type": "node",
      "id": 4488026407,
      "lat": 13.027822,
      "lon": 77.5861383,
      "tags": {
        "addr:city": "Bangalore",
        "addr:housenumber": "80",
        "addr:postcode": "560024",
        "addr:street": "Bellary Road, Vishveshvaraiah Nagar, Ganga Nagar, Bengaluru",
        "name": "Sports Line",
        "opening_hours": "10:30-21:00",
        "phone": "080 2363 6471",
        "shop": "sports",
        "website": "https://www.sportslineindia.com/"
      }
    },
    {
      "type": "node",
      "id": 4488053530,
      "lat": 13.0368291,
      "lon": 77.5896288,
      "tags": {
        "addr:city": "Bangalore",
        "addr:housenumber": "1/A",
        "addr:postcode": "560024",
        "addr:street": "Bellary Road,Bellary Main Road, Next to Baptist Hospital, Hebbal,",
        "name": "Pacer Yamaha Showroom",
        "opening_hours": "10:30-21:00",
        "phone": "090084 52252",
        "shop": "motorcycle",
        "website": "https://www.paceryamaha.com/"
      }
    },
    {
      "type": "node",
      "id": 4489722790,
      "lat": 13.0241827,
      "lon": 77.5929161,
      "tags": {
        "addr:city": "Bangalore",
        "addr:housenumber": "#11/12",
        "addr:postcode": "560032",
        "addr:street": ",Unique Center, 1st Floor, Above Unilet Electronics, 80 Feet Rd,, , RT Nagar, Bhadrappa Layout, P&T Colony, RT Nagar, Bengaluru, Karnataka 560032",
        "leisure": "sports_centre",
        "name": "Group Ex Fitness Revolution",
        "opening_hours": "6:00-21:00",
        "phone": "\"090190 31031",
        "website": "https://groupex.co.in/"
      }
    },
    {
      "type": "node",
      "id": 4489850392,
      "lat": 13.0242132,
      "lon": 77.5929468,
      "tags": {
        "addr:city": "Bangalore",
        "addr:housenumber": "5, 2nd Floor",
        "addr:postcode": "560032",
        "addr:street": ", Above-Vivek Show Room, Next To-R T Nagar Police Station, R T Nagar, P&T Colony, RT Nagar, Bengaluru, Karnataka",
        "leisure": "sports_centre",
        "name": "Cuts and Curves",
        "opening_hours": "6:00-22:00",
        "phone": "080 2343 5320",
        "website": "https://agarwalpacking.in/"
      }
    },
    {
      "type": "node",
      "id": 4973098284,
      "lat": 13.0348877,
      "lon": 77.5889021,
      "tags": {
        "name": "Toyota",
        "shop": "car"
      }
    },
    {
      "type": "node",
      "id": 5269791614,
      "lat": 13.0304194,
      "lon": 77.5872271,
      "tags": {
        "amenity": "fast_food",
        "cuisine": "regional",
        "delivery": "no",
        "name": "Hebbal Indira Canteen",
        "operator": "BBMP",
        "takeaway": "no"
      }
    },
    {
      "type": "node",
      "id": 5269791615,
      "lat": 13.0345665,
      "lon": 77.588793,
      "tags": {
        "amenity": "bank",
        "atm": "yes",
        "brand": "State Bank of India",
        "brand:wikidata": "Q1340361",
        "name": "State Bank of India",
        "name:kn": "ಭಾರತೀಯ ಸ್ಟೇಟ್ ಬ್ಯಾಂಕ್",
        "short_name": "SBI"
      }
    },
    {
      "type": "node",
      "id": 5983371030,
      "lat": 13.0260907,
      "lon": 77.5849835,
      "tags": {
        "amenity": "restaurant",
        "name": "Indira Canteen"
      }
    },
    {
      "type": "node",
      "id": 6856463614,
      "lat": 13.0370574,
      "lon": 77.5896455,
      "tags": {
        "amenity": "restaurant",
        "name": "Udupi Brahmashree"
      }
    },
    {
      "type": "node",
      "id": 6856463615,
      "lat": 13.0351773,
      "lon": 77.5890219,
      "tags": {
        "amenity": "restaurant",
        "name": "Udupi Park Inn",
        "opening_hours": "Mo-Sa 09:45-20:00"
      }
    },
    {
      "type": "node",
      "id": 6886594822,
      "lat": 13.0357887,
      "lon": 77.589498,
      "tags": {
        "addr:city": "Bengaluru",
        "addr:district": "BENGALURU URBAN",
        "addr:full": "Bellary Road, Hebbal",
        "addr:postcode": "560024",
        "addr:state": "Karnataka",
        "amenity": "blood_bank",
        "contact:mobile": "9480424340",
        "contact:phone": "8022024700",
        "name": "Bangalore Baptist Hospital Blood Bank",
        "opening_hours": "24/7",
        "operator:type": "private",
        "source": "OpenGovernmentData",
        "website": "https://www.bbh.org.in/"
      }
    },
    {
      "type": "node",
      "id": 6937890455,
      "lat": 13.0237316,
      "lon": 77.5941463,
      "tags": {
        "addr:district": "Bengaluru Urban",
        "addr:full": "No 80, P&T Colony R T Nagar",
        "addr:postcode": "560032",
        "addr:state": "Karnataka",
        "amenity": "hospital",
        "name": "Chaitanya Hospital",
        "name:kn": "ಚೈತನ್ಯ ಆಸ್ಪತ್ರೆ",
        "source": "OpenGovernmentData"
      }
    },
    {
      "type": "node",
      "id": 6938653696,
      "lat": 13.0263529,
      "lon": 77.5933929,
      "tags": {
        "addr:district": "Bengaluru Urban",
        "addr:full": "# 9 80 Fet Road H M T Layout R T Nagar",
        "addr:postcode": "560032",
        "addr:state": "Karnataka",
        "amenity": "hospital",
        "name": "Asha Kiran Children & Women Health Care Centre",
        "source": "OpenGovernmentData"
      }
    },
    {
      "type": "node",
      "id": 6938948962,
      "lat": 13.024837,
      "lon": 77.592089,
      "tags": {
        "addr:district": "Bengaluru Urban",
        "addr:full": "402, 2nd Cross Judges Colony Ganganagar",
        "addr:postcode": "560032",
        "addr:state": "Karnataka",
        "amenity": "hospital",
        "name": "Lakshmi Hospital, Ganganagar",
        "source": "OpenGovernmentData"
      }
    },
    {
      "type": "node",
      "id": 6938988776,
      "lat": 13.0250141,
      "lon": 77.5856289,
      "tags": {
        "addr:district": "Bengaluru Urban",
        "addr:full": "1st Main Road, 7th Cross, Ganganagar",
        "addr:postcode": "560032",
        "addr:state": "Karnataka",
        "addr:subdistrict": "Ganganagar",
        "amenity": "hospital",
        "healthcare:speciality": "Piles; fistula; fissure",
        "name": "Dr. T.V.Ramesh Piles Hospital",
        "operator:type": "private",
        "source": "OpenGovernmentData",
        "website": "https://www.pilesramesh.com/"
      }
    },
    {
      "type": "node",
      "id": 6944105329,
      "lat": 13.0251833,
      "lon": 77.5920609,
      "tags": {
        "addr:district": "Bengaluru Urban",
        "addr:full": "No.533, 108 Bus Stop, Ganganagar",
        "addr:postcode": "560032",
        "addr:state": "Karnataka",
        "addr:subdistrict": "R.T.Nagar",
        "amenity": "hospital",
        "name": "Vasan Eye Care Hospital, R.T.Nagar",
        "operator:type": "private",
        "source": "OpenGovernmentData",
        "website": "http://www.vasaneye.in/"
      }
    },
    {
      "type": "node",
      "id": 6944560298,
      "lat": 13.0267995,
      "lon": 77.5870813,
      "tags": {
        "addr:district": "Bengaluru Urban",
        "addr:full": "Cbi Road, (10Th Cross) Between 2 nd & 3 nd Main Ganganagar",
        "addr:postcode": "560032",
        "addr:state": "Karnataka",
        "amenity": "hospital",
        "name": "North Side Health Centre",
        "source": "OpenGovernmentData"
      }
    },
    {
      "type": "node",
      "id": 6947430278,
      "lat": 13.0263344,
      "lon": 77.595128,
      "tags": {
        "addr:district": "Bengaluru Urban",
        "addr:full": "#200/A, Hmt Layout, Karthik Complex, Dinnur Main Road, R.T. Nagar",
        "addr:postcode": "560032",
        "addr:state": "Karnataka",
        "amenity": "hospital",
        "name": "Poornima Hospital",
        "source": "OpenGovernmentData"
      }
    },
    {
      "type": "node",
      "id": 6948590938,
      "lat": 13.0241863,
      "lon": 77.5960574,
      "tags": {
        "addr:district": "Bengaluru Urban",
        "addr:full": "No.2, Ex-Servicemen Colony, 5Th Cross, Dinnur Main Road, R.T.Nagar",
        "addr:postcode": "560032",
        "addr:state": "Karnataka",
        "amenity": "hospital",
        "name": "Premier Hospital",
        "source": "OpenGovernmentData"
      }
    },
    {
      "type": "node",
      "id": 7223109295,
      "lat": 13.024189,
      "lon": 77.5851756,
      "tags": {
        "amenity": "bank",
        "atm": "yes",
        "branch": "Gangenahalli",
        "brand": "State Bank of India",
        "brand:wikidata": "Q1340361",
        "check_date": "2025-09-19",
        "name": "State Bank of India",
        "operator": "State Bank of India",
        "short_name": "SBI"
      }
    },
    {
      "type": "node",
      "id": 7223109296,
      "lat": 13.0252747,
      "lon": 77.5854385,
      "tags": {
        "amenity": "bank",
        "atm": "yes",
        "brand": "Axis Bank",
        "brand:wikidata": "Q2003549",
        "name": "Axis Bank",
        "name:kn": "ಆಕ್ಸಿಸ್ ಬ್ಯಾಂಕ್",
        "operator": "Axis Bank"
      }
    },
    {
      "type": "node",
      "id": 7223109303,
      "lat": 13.0259692,
      "lon": 77.5850059,
      "tags": {
        "access": "yes",
        "amenity": "toilets",
        "fee": "yes"
      }
    },
    {
      "type": "node",
      "id": 7257189922,
      "lat": 13.0382851,
      "lon": 77.5896052,
      "tags": {
        "access": "yes",
        "amenity": "toilets"
      }
    },
    {
      "type": "node",
      "id": 7257189925,
      "lat": 13.0392881,
      "lon": 77.5892385,
      "tags": {
        "access": "yes",
        "amenity": "toilets",
        "check_date": "2024-12-25",
        "fee": "yes",
        "wheelchair": "no"
      }
    },
    {
      "type": "node",
      "id": 7302387903,
      "lat": 13.0387366,
      "lon": 77.5899664,
      "tags": {
        "amenity": "atm",
        "brand": "Corporation Bank",
        "brand:wikidata": "Q2003387",
        "name": "Corporation Bank",
        "name:kn": "ಕಾರ್ಪರೇಷನ್ ಬ್ಯಾಂಕ್",
        "operator": "Corporation Bank",
        "operator:wikidata": "Q2003387"
      }
    },
    {
      "type": "node",
      "id": 7302387904,
      "lat": 13.0387041,
      "lon": 77.5905431,
      "tags": {
        "amenity": "atm",
        "brand": "Canara Bank",
        "brand:pa": "ਕੇਨਰਾ ਬੈਂਕ",
        "brand:ur": "کینرا بینک",
        "brand:wikidata": "Q2003777",
        "brand:wikipedia": "en:Canara Bank",
        "brand:wikipedia:pa": "ਕੇਨਰਾ ਬੈਂਕ",
        "name": "Canara Bank",
        "name:kn": "ಕೆನರಾ ಬ್ಯಾಂಕ್",
        "name:pa": "ਕੇਨਰਾ ਬੈਂਕ",
        "name:ur": "کینرا بینک"
      }
    },
    {
      "type": "node",
      "id": 7302387905,
      "lat": 13.038616,
      "lon": 77.5899484,
      "tags": {
        "amenity": "restaurant",
        "name": "Star Hotel"
      }
    },
    {
      "type": "node",
      "id": 8187962208,
      "lat": 13.024748,
      "lon": 77.5917987,
      "tags": {
        "addr:full": "No. 20, 108B Bus Stand, 1st Main Road, Papanna Block, AK Colony, RT Nagar, Bengaluru, Karnataka",
        "addr:state": "Karnataka",
        "amenity": "bank",
        "brand": "Federal Bank",
        "brand:wikidata": "Q2044983",
        "name": "Federal Bank",
        "name:kn": "ಫೆಡೆರಲ್ ಬ್ಯಾಂಕ್"
      }
    },
    {
      "type": "node",
      "id": 8288337665,
      "lat": 13.0327874,
      "lon": 77.5965496,
      "tags": {
        "amenity": "school",
        "name": "Sukrupa School"
      }
    },
    {
      "type": "node",
      "id": 8534906273,
      "lat": 13.0265666,
      "lon": 77.593378,
      "tags": {
        "name": "Heads up for Tails",
        "shop": "pet"
      }
    },
    {
      "type": "node",
      "id": 8534917998,
      "lat": 13.026494,
      "lon": 77.5933758,
      "tags": {
        "amenity": "veterinary",
        "name": "CUPA Small Animals Hospital"
      }
    },
    {
      "type": "node",
      "id": 8540221706,
      "lat": 13.0264238,
      "lon": 77.5926546,
      "tags": {
        "amenity": "toilets",
        "name": "Public Toilet",
        "name:kn": "ಸಾರ್ವಜನಿಕ ಶೌಚಾಲಯ"
      }
    },
    {
      "type": "node",
      "id": 8684335453,
      "lat": 13.0329988,
      "lon": 77.5991477,
      "tags": {
        "amenity": "fuel",
        "brand": "Bharat Petroleum",
        "brand:wikidata": "Q854826",
        "name": "Bharat Petroleum",
        "name:kn": "ಭಾರತ್ ಪೆಟ್ರೋಲಿಯಂ"
      }
    },
    {
      "type": "node",
      "id": 8684358823,
      "lat": 13.0331404,
      "lon": 77.5993644,
      "tags": {
        "amenity": "pharmacy",
        "name": "Shiv shakthi medicals"
      }
    },
    {
      "type": "node",
      "id": 9532893828,
      "lat": 13.0276815,
      "lon": 77.5860809,
      "tags": {
        "name": "The White Teak Company",
        "shop": "furniture"
      }
    },
    {
      "type": "node",
      "id": 9532893829,
      "lat": 13.0306487,
      "lon": 77.5865717,
      "tags": {
        "amenity": "post_office",
        "name": "India Post",
        "operator": "India Post",
        "operator:wikidata": "Q3519720"
      }
    },
    {
      "type": "node",
      "id": 9737551099,
      "lat": 13.0353615,
      "lon": 77.5895647,
      "tags": {
        "amenity": "fast_food",
        "name": "Juice Place",
        "opening_hours": "PH,Mo-Su 08:00-20:00"
      }
    },
    {
      "type": "node",
      "id": 10242924686,
      "lat": 13.0242809,
      "lon": 77.5866545,
      "tags": {
        "amenity": "recycling",
        "name": "BBMP Dry Waste Collection Center",
        "name:kn": "ಒಣ ತ್ಯಾಜ್ಯ ನಿರ್ವಹಣೆಗೆ ಸ್ಥಳ",
        "recycling_type": "centre"
      }
    },
    {
      "type": "node",
      "id": 10293921742,
      "lat": 13.0264468,
      "lon": 77.5918691,
      "tags": {
        "amenity": "college",
        "club": "music",
        "name": "The Bangalore School of Music"
      }
    },
    {
      "type": "node",
      "id": 10293921743,
      "lat": 13.0264454,
      "lon": 77.5915888,
      "tags": {
        "amenity": "place_of_worship",
        "building": "church",
        "denomination": "catholic",
        "name": "Shrine of St. Jude Thaddeaus",
        "religion": "christian"
      }
    },
    {
      "type": "node",
      "id": 10293921744,
      "lat": 13.0244058,
      "lon": 77.5941852,
      "tags": {
        "diet:vegetarian": "only",
        "name": "Simpli Namdhari's",
        "organic": "only",
        "shop": "supermarket",
        "website": "https://www.simplinamdharis.com/"
      }
    },
    {
      "type": "node",
      "id": 10302703777,
      "lat": 13.0239133,
      "lon": 77.5926268,
      "tags": {
        "amenity": "fast_food",
        "brand": "Popeyes",
        "brand:wikidata": "Q1330910",
        "brand:wikipedia": "en:Popeyes",
        "cuisine": "chicken",
        "delivery": "yes",
        "name": "Popeyes",
        "official_name": "Popeyes Louisiana Kitchen",
        "takeaway": "yes",
        "website": "https://www.popeyes.in/"
      }
    },
    {
      "type": "node",
      "id": 10574607719,
      "lat": 13.0293422,
      "lon": 77.5837058,
      "tags": {
        "amenity": "college",
        "name": "Dairy Science College"
      }
    },
    {
      "type": "node",
      "id": 10574607724,
      "lat": 13.0285112,
      "lon": 77.5835663,
      "tags": {
        "amenity": "college",
        "name": "National Bureau of Soil Survey and Landuse Planning"
      }
    },
    {
      "type": "node",
      "id": 11119061521,
      "lat": 13.0353378,
      "lon": 77.5891319,
      "tags": {
        "name": "Ather",
        "shop": "motorcycle"
      }
    },
    {
      "type": "node",
      "id": 11119061522,
      "lat": 13.0282096,
      "lon": 77.5863039,
      "tags": {
        "amenity": "cafe",
        "brand": "Cafe Coffee Day",
        "brand:wikidata": "Q5017235",
        "cuisine": "coffee_shop",
        "name": "Cafe Coffee Day",
        "name:kn": "ಕಫೆ ಕಾಫಿ ಡೇ",
        "takeaway": "yes"
      }
    },
    {
      "type": "node",
      "id": 11119061523,
      "lat": 13.0282427,
      "lon": 77.5863357,
      "tags": {
        "name": "The White Teak Company",
        "shop": "furniture"
      }
    },
    {
      "type": "node",
      "id": 11359595250,
      "lat": 13.0295006,
      "lon": 77.5949717,
      "tags": {
        "name": "Sai Medicals And General Stores",
        "shop": "medical_supply"
      }
    },
    {
      "type": "node",
      "id": 11359611697,
      "lat": 13.0274249,
      "lon": 77.5935355,
      "tags": {
        "addr:city": "Bengaluru",
        "addr:housenumber": "18",
        "addr:street": "80 Feet Road, RT Nagar",
        "amenity": "fast_food",
        "brand": "Pizza Hut",
        "brand:wikidata": "Q191615",
        "cuisine": "pizza",
        "name": "Pizza Hut",
        "opening_hours": "Mo-Su 11:00-23:00"
      }
    },
    {
      "type": "node",
      "id": 12022091569,
      "lat": 13.0357921,
      "lon": 77.5896457,
      "tags": {
        "amenity": "atm",
        "brand": "HDFC Bank",
        "brand:wikidata": "Q631047",
        "note": "one needs to pass through the Baptist Hospital gate to access the ATM",
        "opening_hours": "24/7",
        "operator": "HDFC Bank",
        "operator:wikidata": "Q631047"
      }
    },
    {
      "type": "node",
      "id": 12140229732,
      "lat": 13.025346,
      "lon": 77.5846247,
      "tags": {
        "access": "permissive",
        "amenity": "parking_entrance",
        "parking": "underground"
      }
    },
    {
      "type": "node",
      "id": 12149767435,
      "lat": 13.02577,
      "lon": 77.5844822,
      "tags": {
        "access": "permissive",
        "amenity": "drinking_water",
        "fee": "no"
      }
    },
    {
      "type": "node",
      "id": 12149767436,
      "lat": 13.0258564,
      "lon": 77.5844357,
      "tags": {
        "access": "permissive",
        "addr:floor": "1",
        "amenity": "toilets",
        "check_date": "2024-09-01",
        "level": "1"
      }
    },
    {
      "type": "node",
      "id": 12285541097,
      "lat": 13.0363508,
      "lon": 77.5980075,
      "tags": {
        "amenity": "bank",
        "brand": "State Bank of India",
        "brand:wikidata": "Q1340361",
        "check_date": "2024-10-24",
        "name": "State Bank of India",
        "short_name": "SBI"
      }
    },
    {
      "type": "node",
      "id": 12285541098,
      "lat": 13.0363318,
      "lon": 77.5980792,
      "tags": {
        "amenity": "atm",
        "brand": "State Bank of India",
        "brand:wikidata": "Q1340361",
        "check_date": "2024-10-24",
        "operator": "State Bank of India",
        "operator:wikidata": "Q1340361",
        "short_name": "SBI"
      }
    },
    {
      "type": "node",
      "id": 12456036671,
      "lat": 13.0372971,
      "lon": 77.5905991,
      "tags": {
        "name": "Med Plus",
        "shop": "medical_supply"
      }
    },
    {
      "type": "node",
      "id": 12456051652,
      "lat": 13.0372408,
      "lon": 77.5910525,
      "tags": {
        "name": "Medical store",
        "shop": "medical_supply"
      }
    },
    {
      "type": "node",
      "id": 12525819187,
      "lat": 13.0265315,
      "lon": 77.5871428,
      "tags": {
        "addr:city": "Bengaluru",
        "addr:district": "Bengaluru Urban",
        "addr:housenumber": "197",
        "addr:postcode": "560032",
        "addr:street": "10th Cross, CBI Road, Ganganagar, RT Nagar",
        "name": "Honeybee trips Pvt Ltd",
        "shop": "travel_agency"
      }
    },
    {
      "type": "node",
      "id": 12628600882,
      "lat": 13.0283715,
      "lon": 77.5863916,
      "tags": {
        "check_date": "2025-03-01",
        "name": "Simple",
        "shop": "motorcycle"
      }
    },
    {
      "type": "node",
      "id": 12833133105,
      "lat": 13.0312837,
      "lon": 77.5909518,
      "tags": {
        "brand": "HOPCOMS",
        "brand:wikidata": "Q22908959",
        "name": "HOPCOMS",
        "shop": "greengrocer"
      }
    },
    {
      "type": "node",
      "id": 12833133106,
      "lat": 13.0312001,
      "lon": 77.5909477,
      "tags": {
        "brand": "Nandini",
        "brand:wikidata": "Q124374212",
        "name": "Nandini",
        "shop": "dairy"
      }
    },
    {
      "type": "node",
      "id": 13155774216,
      "lat": 13.0350381,
      "lon": 77.5890679,
      "tags": {
        "check_date": "2025-09-19",
        "name": "River",
        "shop": "motorcycle"
      }
    },
    {
      "type": "node",
      "id": 13155774217,
      "lat": 13.0275516,
      "lon": 77.5860894,
      "tags": {
        "amenity": "veterinary_pharmacy",
        "check_date": "2025-09-19",
        "name": "Venky Vet Pharma"
      }
    },
    {
      "type": "node",
      "id": 13155774218,
      "lat": 13.0252499,
      "lon": 77.5855296,
      "tags": {
        "brand": "Suzuki",
        "brand:wikidata": "Q181642",
        "check_date": "2025-09-19",
        "name": "Suzuki",
        "operator": "Meghanath",
        "shop": "motorcycle"
      }
    },
    {
      "type": "node",
      "id": 13155774219,
      "lat": 13.0249358,
      "lon": 77.5854217,
      "tags": {
        "amenity": "bank",
        "brand": "Indian Bank",
        "brand:wikidata": "Q2003789",
        "check_date": "2025-09-19",
        "name": "Indian Bank"
      }
    },
    {
      "type": "way",
      "id": 54963084,
      "center": {
        "lat": 13.0347249,
        "lon": 77.5901708
      },
      "tags": {
        "addr:city": "Bangalore",
        "addr:district": "Bengaluru Urban",
        "addr:full": "138/1, Srinivasa Nagar, Devara Jeevanahalli, Bengaluru, Karnataka",
        "addr:postcode": "560024",
        "addr:state": "Karnataka",
        "addr:street": "Bellary Road",
        "amenity": "hospital",
        "emergency": "yes",
        "healthcare": "hospital",
        "name": "Baptist Hospital",
        "name:kn": "ಬೆಂಗಳೂರು ಬಾಪ್ಟಿಸ್ಟ್ ಆಸ್ಪತ್ರೆ",
        "phone": "08022024700",
        "source": "OpenGovernmentData",
        "website": "https://www.bbh.org.in/",
        "wheelchair": "limited"
      }
    },
    {
      "type": "way",
      "id": 54963214,
      "center": {
        "lat": 13.0380171,
        "lon": 77.5903177
      },
      "tags": {
        "amenity": "college",
        "landuse": "education",
        "name": "Government First Grade College"
      }
    },
    {
      "type": "way",
      "id": 71516174,
      "center": {
        "lat": 13.0285944,
        "lon": 77.5954864
      },
      "tags": {
        "leisure": "park",
        "name": "VV Park"
      }
    },
    {
      "type": "way",
      "id": 149355875,
      "center": {
        "lat": 13.0291133,
        "lon": 77.5857219
      },
      "tags": {
        "leisure": "park",
        "name": "Veterinary College Garden"
      }
    },
    {
      "type": "way",
      "id": 260994096,
      "center": {
        "lat": 13.0283387,
        "lon": 77.5844332
      },
      "tags": {
        "amenity": "veterinary",
        "name": "Veterinary Hospital",
        "name:kn": "ಪಶುವೈದ್ಯ ಆಸ್ಪತ್ರೆ"
      }
    },
    {
      "type": "way",
      "id": 260994753,
      "center": {
        "lat": 13.0275269,
        "lon": 77.5843812
      },
      "tags": {
        "amenity": "post_office",
        "name": "UAS Farm Post Office",
        "operator": "India Post"
      }
    },
    {
      "type": "way",
      "id": 325764796,
      "center": {
        "lat": 13.0280151,
        "lon": 77.5852582
      },
      "tags": {
        "leisure": "park"
      }
    },
    {
      "type": "way",
      "id": 325764797,
      "center": {
        "lat": 13.0301133,
        "lon": 77.5861251
      },
      "tags": {
        "leisure": "park"
      }
    },
    {
      "type": "way",
      "id": 346501622,
      "center": {
        "lat": 13.0360513,
        "lon": 77.5905954
      },
      "tags": {
        "amenity": "restaurant",
        "building": "yes"
      }
    },
    {
      "type": "way",
      "id": 346730865,
      "center": {
        "lat": 13.0380816,
        "lon": 77.5947162
      },
      "tags": {
        "addr:city": "Bengaluru",
        "addr:postcode": "560032",
        "addr:street": "Sonnappa Layout, Ayyappa Layout, Hebbal",
        "amenity": "place_of_worship",
        "building": "yes",
        "name": "Shri Aananda Lingeshwara Temple",
        "religion": "hindu"
      }
    },
    {
      "type": "way",
      "id": 347120887,
      "center": {
        "lat": 13.0267744,
        "lon": 77.5987021
      },
      "tags": {
        "amenity": "school",
        "building": "yes",
        "name": "Vatican High School"
      }
    },
    {
      "type": "way",
      "id": 367411062,
      "center": {
        "lat": 13.0343582,
        "lon": 77.5940581
      },
      "tags": {
        "leisure": "park",
        "name": "BBMP Amarjyothi Layout Park",
        "name:kn": "ಅಮರಜ್ಯೋತಿ ಉದ್ಯಾನವನ"
      }
    },
    {
      "type": "way",
      "id": 773825319,
      "center": {
        "lat": 13.0280416,
        "lon": 77.586258
      },
      "tags": {
        "amenity": "fuel",
        "brand": "Bharat Petroleum",
        "brand:wikidata": "Q854826",
        "name": "Bharat Petroleum",
        "name:kn": "ಭಾರತ್ ಪೆಟ್ರೋಲಿಯಂ",
        "operator": "Bharat Petroleum"
      }
    },
    {
      "type": "way",
      "id": 773825322,
      "center": {
        "lat": 13.0399775,
        "lon": 77.5890897
      },
      "tags": {
        "leisure": "park"
      }
    },
    {
      "type": "way",
      "id": 782061210,
      "center": {
        "lat": 13.0389578,
        "lon": 77.5896702
      },
      "tags": {
        "amenity": "shelter",
        "bench": "yes",
        "bin": "no",
        "building": "roof",
        "bus": "yes",
        "check_date:bench": "2024-07-30",
        "covered": "yes",
        "highway": "bus_stop",
        "lit": "yes",
        "name": "Hebbala",
        "name:en": "Hebbala",
        "name:kn": "ಹೆಬ್ಬಾಳ",
        "network": "BMTC",
        "operator": "BMTC",
        "platforms": "3",
        "public_transport": "platform",
        "shelter": "yes",
        "shelter_type": "public_transport",
        "wheelchair": "no"
      }
    },
    {
      "type": "way",
      "id": 782061211,
      "center": {
        "lat": 13.0388849,
        "lon": 77.5896672
      },
      "tags": {
        "amenity": "shelter",
        "bench": "yes",
        "bin": "no",
        "building": "roof",
        "bus": "yes",
        "check_date:bench": "2024-07-30",
        "covered": "yes",
        "highway": "bus_stop",
        "lit": "yes",
        "name": "Hebbala",
        "name:en": "Hebbala",
        "name:kn": "ಹೆಬ್ಬಾಳ",
        "network": "BMTC",
        "operator": "BMTC",
        "platforms": "3",
        "public_transport": "platform",
        "shelter": "yes",
        "shelter_type": "public_transport",
        "wheelchair": "no"
      }
    },
    {
      "type": "way",
      "id": 782061212,
      "center": {
        "lat": 13.0388166,
        "lon": 77.5896632
      },
      "tags": {
        "amenity": "shelter",
        "bench": "yes",
        "bin": "no",
        "building": "roof",
        "bus": "yes",
        "check_date:bench": "2024-07-30",
        "covered": "yes",
        "highway": "bus_stop",
        "lit": "yes",
        "name": "Hebbala",
        "name:en": "Hebbala",
        "name:kn": "ಹೆಬ್ಬಾಳ",
        "network": "BMTC",
        "operator": "BMTC",
        "platforms": "3",
        "public_transport": "platform",
        "shelter": "yes",
        "shelter_type": "public_transport",
        "wheelchair": "no"
      }
    },
    {
      "type": "way",
      "id": 782108512,
      "center": {
        "lat": 13.0364932,
        "lon": 77.5896365
      },
      "tags": {
        "addr:city": "Bengaluru",
        "addr:housenumber": "24",
        "addr:postcode": "560024",
        "addr:street": "Bellary Road",
        "amenity": "restaurant",
        "building": "yes",
        "name": "The Royale Senate"
      }
    },
    {
      "type": "way",
      "id": 782108513,
      "center": {
        "lat": 13.0363198,
        "lon": 77.590595
      },
      "tags": {
        "amenity": "restaurant",
        "building": "yes"
      }
    },
    {
      "type": "way",
      "id": 782292577,
      "center": {
        "lat": 13.0349259,
        "lon": 77.5915241
      },
      "tags": {
        "access": "private",
        "leisure": "park"
      }
    },
    {
      "type": "way",
      "id": 963352879,
      "center": {
        "lat": 13.0333764,
        "lon": 77.5886106
      },
      "tags": {
        "amenity": "police",
        "name": "R T Nagar Traffic Police station"
      }
    },
    {
      "type": "way",
      "id": 963352882,
      "center": {
        "lat": 13.0248754,
        "lon": 77.5830666
      },
      "tags": {
        "addr:city": "Bengaluru",
        "addr:postcode": "560024",
        "addr:street": "Hebbal, Sanjaynagar, Karnataka",
        "amenity": "college",
        "fixme": "polygon boundaries",
        "landuse": "education",
        "name": "ICAR - Indian Veterinary Research Institute, Hebbal",
        "name:kn": "ಕೃಷಿ ವಿಶ್ವವಿದ್ಯಾಲಯ",
        "phone": "080 2341 0729",
        "website": "ivri.nic.in"
      }
    },
    {
      "type": "way",
      "id": 1119921717,
      "center": {
        "lat": 13.0241141,
        "lon": 77.5866881
      },
      "tags": {
        "leisure": "playground"
      }
    },
    {
      "type": "way",
      "id": 1119921718,
      "center": {
        "lat": 13.024187,
        "lon": 77.5863339
      },
      "tags": {
        "leisure": "park"
      }
    },
    {
      "type": "way",
      "id": 1125698046,
      "center": {
        "lat": 13.0258289,
        "lon": 77.5947264
      },
      "tags": {
        "amenity": "school"
      }
    },
    {
      "type": "way",
      "id": 1172705361,
      "center": {
        "lat": 13.0352813,
        "lon": 77.5883564
      },
      "tags": {
        "leisure": "park"
      }
    },
    {
      "type": "way",
      "id": 1308743211,
      "center": {
        "lat": 13.0334315,
        "lon": 77.5915469
      },
      "tags": {
        "access": "private",
        "amenity": "parking",
        "parking": "surface"
      }
    },
    {
      "type": "way",
      "id": 1311549277,
      "center": {
        "lat": 13.0247211,
        "lon": 77.5852977
      },
      "tags": {
        "amenity": "fuel",
        "brand": "Hindustan Petroleum",
        "brand:wikidata": "Q1619375",
        "name": "Hindustan Petroleum",
        "name:kn": "ಹಿಂದುಸ್ತಾನ್ ಪೆಟ್ರೋಲಿಯಂ",
        "official_name": "Hindustan Petroleum",
        "wheelchair": "limited"
      }
    },
    {
      "type": "way",
      "id": 1385609285,
      "center": {
        "lat": 13.0244119,
        "lon": 77.585337
      },
      "tags": {
        "amenity": "place_of_worship",
        "religion": "hindu"
      }
    },
    {
      "type": "way",
      "id": 1386042566,
      "center": {
        "lat": 13.0310903,
        "lon": 77.5901491
      },
      "tags": {
        "leisure": "park"
      }
    },
    {
      "type": "way",
      "id": 1386042651,
      "center": {
        "lat": 13.0246853,
        "lon": 77.5931961
      },
      "tags": {
        "amenity": "police",
        "name": "RT Nagar Police Station",
        "name:kn": "ಆರ್ ಟಿ ನಗರ ಪೊಲೀಸ್ ಠಾಣೆ"
      }
    },
    {
      "type": "way",
      "id": 1386060475,
      "center": {
        "lat": 13.0370414,
        "lon": 77.5979312
      },
      "tags": {
        "amenity": "school"
      }
    },
    {
      "type": "way",
      "id": 1386060476,
      "center": {
        "lat": 13.0333663,
        "lon": 77.5979688
      },
      "tags": {
        "amenity": "college",
        "landuse": "education",
        "name": "Rajiv Gandhi Institute of Technology"
      }
    },
    {
      "type": "way",
      "id": 1386060477,
      "center": {
        "lat": 13.0338347,
        "lon": 77.5974269
      },
      "tags": {
        "addr:city": "Bangalore",
        "addr:postcode": "560032",
        "addr:street": "Cholanagar",
        "amenity": "college",
        "description": "Dental College and Hospital",
        "landuse": "education",
        "name": "Sri Rajiv Gandhi College of Dental Sciences & Hospital",
        "opening_hours": "Mo-Sa 08:30-15:30",
        "phone": "+918023339377",
        "website": "https://srgcds.ac.in"
      }
    },
    {
      "type": "way",
      "id": 1386060496,
      "center": {
        "lat": 13.0320393,
        "lon": 77.5926422
      },
      "tags": {
        "leisure": "park"
      }
    },
    {
      "type": "way",
      "id": 1386060497,
      "center": {
        "lat": 13.0315745,
        "lon": 77.5914906
      },
      "tags": {
        "leisure": "park",
        "name": "Captain Kevin Park"
      }
    },
    {
      "type": "way",
      "id": 1386060510,
      "center": {
        "lat": 13.0312274,
        "lon": 77.5912953
      },
      "tags": {
        "amenity": "place_of_worship",
        "landuse": "religious",
        "religion": "hindu"
      }
    },
    {
      "type": "way",
      "id": 1386060629,
      "center": {
        "lat": 13.0321748,
        "lon": 77.5917027
      },
      "tags": {
        "leisure": "pitch",
        "sport": "soccer"
      }
    },
    {
      "type": "way",
      "id": 1386060630,
      "center": {
        "lat": 13.0322036,
        "lon": 77.5915014
      },
      "tags": {
        "access": "yes",
        "hoops": "2",
        "leisure": "pitch",
        "sport": "basketball",
        "surface": "concrete"
      }
    },
    {
      "type": "way",
      "id": 1386060657,
      "center": {
        "lat": 13.0291099,
        "lon": 77.592251
      },
      "tags": {
        "amenity": "place_of_worship",
        "landuse": "religious",
        "name": "Sri Shirdi Saibaba Temple",
        "religion": "hindu"
      }
    },
    {
      "type": "way",
      "id": 1386060663,
      "center": {
        "lat": 13.0293226,
        "lon": 77.5905011
      },
      "tags": {
        "leisure": "park",
        "name": "RBI Colony Park"
      }
    },
    {
      "type": "way",
      "id": 1386060674,
      "center": {
        "lat": 13.0294084,
        "lon": 77.5892348
      },
      "tags": {
        "amenity": "college",
        "name": "Vidya Vahini School and PU College"
      }
    },
    {
      "type": "way",
      "id": 1388693672,
      "center": {
        "lat": 13.0302783,
        "lon": 77.5935492
      },
      "tags": {
        "amenity": "place_of_worship",
        "building": "mosque",
        "name:kn": "ಮಸೀದಿ",
        "religion": "muslim"
      }
    },
    {
      "type": "way",
      "id": 1393079985,
      "center": {
        "lat": 13.0272639,
        "lon": 77.5850349
      },
      "tags": {
        "leisure": "pitch",
        "sport": "tennis"
      }
    },
    {
      "type": "way",
      "id": 1433092894,
      "center": {
        "lat": 13.0371077,
        "lon": 77.5930288
      },
      "tags": {
        "access": "private",
        "leisure": "swimming_pool"
      }
    },
    {
      "type": "way",
      "id": 1433092910,
      "center": {
        "lat": 13.0349676,
        "lon": 77.5915546
      },
      "tags": {
        "access": "private",
        "leisure": "playground"
      }
    },
    {
      "type": "way",
      "id": 1433092944,
      "center": {
        "lat": 13.0360265,
        "lon": 77.5932498
      },
      "tags": {
        "access": "private",
        "leisure": "swimming_pool"
      }
    },
    {
      "type": "way",
      "id": 1433092945,
      "center": {
        "lat": 13.0360889,
        "lon": 77.5930945
      },
      "tags": {
        "access": "private",
        "leisure": "playground"
      }
    },
    {
      "type": "way",
      "id": 1433092958,
      "center": {
        "lat": 13.0347569,
        "lon": 77.5927344
      },
      "tags": {
        "access": "private",
        "leisure": "pitch",
        "sport": "basketball"
      }
    },
    {
      "type": "way",
      "id": 1433092959,
      "center": {
        "lat": 13.034955,
        "lon": 77.592752
      },
      "tags": {
        "access": "private",
        "leisure": "pitch",
        "sport": "tennis"
      }
    },
    {
      "type": "way",
      "id": 1448247042,
      "center": {
        "lat": 13.0344628,
        "lon": 77.5905401
      },
      "tags": {
        "access": "private",
        "amenity": "parking",
        "parking": "surface"
      }
    }
  ]
}