{
  "area_name": "Anantnagar",
  "osm_id": 459468111,
  "osm_type": "node",
  "place_type": "neighbourhood",
  "amenity_count": 124,
  "amenities": [
    {
      "type": "node",
      "id": 1311768491,
      "lat": 12.8388774,
      "lon": 77.6783157,
      "tags": {
        "amenity": "fuel",
        "brand": "Indian Oil",
        "brand:wikidata": "Q1289348",
        "brand:wikipedia": "en:Indian Oil Corporation",
        "check_date": "2025-03-11",
        "check_date:compressed_air": "2025-03-11",
        "compressed_air": "yes",
        "name": "Indian Oil",
        "name:kn": "ಇಂಡಿಯನ್ ಆಯಿಲ್",
        "self_service": "no",
        "wheelchair": "yes"
      }
    },
    {
      "type": "node",
      "id": 1603463881,
      "lat": 12.8305804,
      "lon": 77.681425,
      "tags": {
        "amenity": "fuel",
        "brand": "Hindustan Petroleum",
        "brand:wikidata": "Q1619375",
        "check_date": "2025-01-22",
        "check_date:compressed_air": "2025-01-22",
        "compressed_air": "yes",
        "name": "HP",
        "official_name": "Hindustan Petroleum",
        "self_service": "no",
        "source": "survey",
        "wheelchair": "yes"
      }
    },
    {
      "type": "node",
      "id": 2550426043,
      "lat": 12.8354736,
      "lon": 77.6803178,
      "tags": {
        "amenity": "atm",
        "brand": "Karnataka Bank",
        "brand:wikidata": "Q2042632",
        "name": "Karnataka Bank",
        "name:kn": "ಕರ್ನಾಟಕ ಬ್ಯಾಂಕ್",
        "operator": "Karnataka Bank",
        "operator:wikidata": "Q2042632"
      }
    },
    {
      "type": "node",
      "id": 2550426044,
      "lat": 12.8355336,
      "lon": 77.6844678,
      "tags": {
        "amenity": "atm",
        "brand": "Canara Bank",
        "brand:en": "Canara Bank",
        "brand:hi": "केनरा बैंक",
        "brand:kn": "ಕೆನರಾ ಬ್ಯಾಂಕ್",
        "brand:pa": "ਕੇਨਰਾ ਬੈਂਕ",
        "brand:pnb": "کینرا بینک",
        "brand:ur": "کینرا بینک",
        "brand:wikidata": "Q2003777",
        "name": "Canara Bank",
        "name:en": "Canara Bank",
        "name:hi": "केनरा बैंक",
        "name:kn": "ಕೆನರಾ ಬ್ಯಾಂಕ್",
        "name:pa": "ਕੇਨਰਾ ਬੈਂਕ",
        "name:pnb": "کینرا بینک",
        "name:ur": "کینرا بینک",
        "operator": "Canara Bank",
        "operator:wikidata": "Q2003777"
      }
    },
    {
      "type": "node",
      "id": 2550426996,
      "lat": 12.8353836,
      "lon": 77.6843293,
      "tags": {
        "addr:city": "Bangalore",
        "addr:postcode": "560100",
        "addr:street": "Anantha Nagar Road",
        "name": "Sweet Land Bakery",
        "name:kn": "ಸ್ವೀಟ್ ಲ್ಯಾಂಡ್ ಬೇಕರಿ",
        "shop": "bakery"
      }
    },
    {
      "type": "node",
      "id": 2550433190,
      "lat": 12.8327806,
      "lon": 77.6809399,
      "tags": {
        "amenity": "bank",
        "atm": "yes",
        "brand": "South Indian Bank",
        "brand:wikidata": "Q2044973",
        "check_date": "2025-08-07",
        "name": "South Indian Bank",
        "name:kn": "ಸೌತ್ ಇಂಡಿಯನ್ ಬ್ಯಾಂಕ್",
        "operator": "South India Bank"
      }
    },
    {
      "type": "node",
      "id": 2550434272,
      "lat": 12.8354228,
      "lon": 77.679878,
      "tags": {
        "name": "Prestige Smart Kitchen",
        "shop": "appliance"
      }
    },
    {
      "type": "node",
      "id": 2550435099,
      "lat": 12.8346539,
      "lon": 77.6793362,
      "tags": {
        "amenity": "cafe",
        "brand": "Cafe Coffee Day",
        "brand:wikidata": "Q5017235",
        "cuisine": "coffee_shop",
        "name": "Cafe Coffee Day",
        "name:kn": "ಕಫೆ ಕಾಫಿ ಡೇ",
        "takeaway": "yes"
      }
    },
    {
      "type": "node",
      "id": 2556891218,
      "lat": 12.8349978,
      "lon": 77.6843879,
      "tags": {
        "amenity": "atm",
        "brand": "Axis Bank",
        "brand:wikidata": "Q2003549",
        "name": "Axis Bank",
        "name:kn": "ಆಕ್ಸಿಸ್ ಬ್ಯಾಂಕ್",
        "operator": "Axis Bank",
        "operator:wikidata": "Q2003549"
      }
    },
    {
      "type": "node",
      "id": 3840518693,
      "lat": 12.8350569,
      "lon": 77.6844372,
      "tags": {
        "amenity": "atm",
        "brand": "ICICI Bank",
        "brand:wikidata": "Q1653258",
        "name": "ICICI Bank",
        "operator": "ICICI Bank",
        "operator:wikidata": "Q1653258",
        "short_name": "ICICI"
      }
    },
    {
      "type": "node",
      "id": 3840527980,
      "lat": 12.8364057,
      "lon": 77.6794553,
      "tags": {
        "addr:postcode": "560100",
        "addr:street": "Huskur Main Road",
        "amenity": "restaurant",
        "name": "Thali",
        "name:kn": "ತಾಲಿ"
      }
    },
    {
      "type": "node",
      "id": 3840533862,
      "lat": 12.8352868,
      "lon": 77.6919362,
      "tags": {
        "name": "Geo Travels",
        "shop": "travel_agency"
      }
    },
    {
      "type": "node",
      "id": 3933494257,
      "lat": 12.8355087,
      "lon": 77.6798817,
      "tags": {
        "amenity": "weighbridge",
        "check_date": "2016-01-09",
        "name": "Srinivas Weighers"
      }
    },
    {
      "type": "node",
      "id": 4161475690,
      "lat": 12.8356377,
      "lon": 77.6844671,
      "tags": {
        "addr:city": "Bangalore",
        "addr:postcode": "560100",
        "addr:street": "Anantha Nagar Road",
        "name": "Hot Chips",
        "name:kn": "ಹಾಟ್ ಚಿಪ್ಸ್",
        "shop": "bakery"
      }
    },
    {
      "type": "node",
      "id": 4161475895,
      "lat": 12.8353455,
      "lon": 77.6827978,
      "tags": {
        "addr:city": "Bengaluru",
        "addr:postcode": "560100",
        "addr:street": "Anantha Nagar Road",
        "amenity": "car_wash",
        "name": "SLV Car Wash"
      }
    },
    {
      "type": "node",
      "id": 4161522489,
      "lat": 12.8350074,
      "lon": 77.6844318,
      "tags": {
        "name": "Shetty Shop",
        "name:kn": "ಶೆಟ್ಟಿ ಅಂಗಡಿ",
        "shop": "convenience"
      }
    },
    {
      "type": "node",
      "id": 4161522490,
      "lat": 12.8353006,
      "lon": 77.6846424,
      "tags": {
        "addr:city": "Bangalore",
        "addr:postcode": "560100",
        "amenity": "veterinary",
        "name": "Pet Vet Shop"
      }
    },
    {
      "type": "node",
      "id": 4161522491,
      "lat": 12.8353538,
      "lon": 77.6825968,
      "tags": {
        "addr:city": "Bangalore",
        "addr:postcode": "560100",
        "addr:street": "Anantha Nagar Road",
        "amenity": "atm",
        "currency:INR": "yes",
        "drive_through": "no",
        "opening_hours": "24/7"
      }
    },
    {
      "type": "node",
      "id": 4161531691,
      "lat": 12.8353449,
      "lon": 77.6826672,
      "tags": {
        "addr:city": "Bangalore",
        "addr:postcode": "560100",
        "addr:street": "Anantha Nagar Road",
        "amenity": "pharmacy",
        "healthcare": "pharmacy",
        "name": "SLV Medical and Chemist",
        "opening_hours": "Mo-Su 08:00-22:00",
        "phone": "916604797"
      }
    },
    {
      "type": "node",
      "id": 4161531692,
      "lat": 12.8351843,
      "lon": 77.6830998,
      "tags": {
        "addr:city": "Bangalore",
        "addr:postcode": "560100",
        "addr:street": "Anantha Nagar Road",
        "name": "Sri Sai Cyber Cafe",
        "shop": "convenience"
      }
    },
    {
      "type": "node",
      "id": 4161532389,
      "lat": 12.8353508,
      "lon": 77.682738,
      "tags": {
        "addr:city": "Bengaluru",
        "addr:postcode": "560100",
        "addr:street": "Anantha Nagar Road",
        "name": "Sri Vigneshwara Cyber Zone",
        "phone": "080-49529411",
        "shop": "convenience"
      }
    },
    {
      "type": "node",
      "id": 4161532489,
      "lat": 12.8353618,
      "lon": 77.6829086,
      "tags": {
        "addr:city": "Bangalore",
        "addr:postcode": "560100",
        "addr:street": "Anantha Nagar Road",
        "amenity": "atm",
        "opening_hours": "24/7"
      }
    },
    {
      "type": "node",
      "id": 4161597589,
      "lat": 12.8356336,
      "lon": 77.6914484,
      "tags": {
        "name": "Grand hypermarket",
        "shop": "supermarket"
      }
    },
    {
      "type": "node",
      "id": 4161597689,
      "lat": 12.8355682,
      "lon": 77.6916336,
      "tags": {
        "amenity": "bank",
        "brand": "Andhra Bank",
        "brand:wikidata": "Q2003476",
        "brand:wikipedia": "en:Andhra Bank",
        "name": "Andhra Bank",
        "name:en": "Andhra Bank",
        "name:kn": "ಆಂಧ್ರ ಬ್ಯಾಂಕ್",
        "website": "https://www.andhrabank.in"
      }
    },
    {
      "type": "node",
      "id": 4161597989,
      "lat": 12.8356189,
      "lon": 77.6915158,
      "tags": {
        "amenity": "pharmacy",
        "brand": "Apollo Pharmacy",
        "brand:wikidata": "Q62562612",
        "healthcare": "pharmacy",
        "name": "Apollo Pharmacy",
        "name:kn": "ಅಪೋಲೋ ಫಾರ್ಮಸಿ"
      }
    },
    {
      "type": "node",
      "id": 4266324393,
      "lat": 12.8357249,
      "lon": 77.6845263,
      "tags": {
        "addr:postcode": "560100",
        "addr:street": "Anantha Nagar Road",
        "name": "Nandini Dairy Store",
        "name:kn": "ನಂದಿನಿ ಡೈರಿ",
        "shop": "department_store"
      }
    },
    {
      "type": "node",
      "id": 4445495297,
      "lat": 12.8366422,
      "lon": 77.6849685,
      "tags": {
        "name": "Fruit and Vegetable Store",
        "shop": "greengrocer"
      }
    },
    {
      "type": "node",
      "id": 4445506814,
      "lat": 12.8354432,
      "lon": 77.6915884,
      "tags": {
        "amenity": "cafe",
        "name": "Sweet Revenge"
      }
    },
    {
      "type": "node",
      "id": 4445506815,
      "lat": 12.8354706,
      "lon": 77.6917063,
      "tags": {
        "addr:city": "bangalore",
        "addr:postcode": "560100",
        "addr:street": "Anantha Nagar Road",
        "amenity": "restaurant",
        "name": "Meat and Eat",
        "wheelchair": "no"
      }
    },
    {
      "type": "node",
      "id": 4445510861,
      "lat": 12.8352039,
      "lon": 77.6915346,
      "tags": {
        "addr:city": "bangalore",
        "addr:postcode": "560100",
        "name": "Dharwad Pedha",
        "shop": "bakery"
      }
    },
    {
      "type": "node",
      "id": 4446023580,
      "lat": 12.8356079,
      "lon": 77.6788813,
      "tags": {
        "addr:city": "Bangalore",
        "addr:housenumber": "4",
        "addr:postcode": "560100",
        "addr:street": "Alphines Luxurious Hotel, Narayana Hrudayalaya Hospital Road, Kithaganahali, Bommasandra, Electronic City",
        "amenity": "restaurant",
        "cuisine": "regional",
        "delivery": "yes",
        "name": "Royal South Restaurant Electronic City",
        "opening_hours": "07:00-10:30,12:00-15:30,18:30-23:00",
        "phone": "080 27831414   08027831515",
        "smoking": "no",
        "takeaway": "yes"
      }
    },
    {
      "type": "node",
      "id": 4488681889,
      "lat": 12.8378848,
      "lon": 77.6897153,
      "tags": {
        "amenity": "community_centre",
        "name": "ಶ್ರೀ ಸುಧೀಂದ್ರ ಸಭಾಂಗಣ",
        "name:en": "Sri Sudhindra Sabhangana",
        "name:kn": "ಶ್ರೀ ಸುಧೀಂದ್ರ ಸಭಾಂಗಣ"
      }
    },
    {
      "type": "node",
      "id": 4488681989,
      "lat": 12.8379513,
      "lon": 77.6897288,
      "tags": {
        "amenity": "place_of_worship",
        "name": "ಶ್ರೀ ಚಪ್ಪರ ವಿನಾಯಕ ದೇವರ ಗುಡಿ",
        "name:en": "Shri Chappara Vinaayaka Devara Gudi",
        "name:kn": "ಶ್ರೀ ಚಪ್ಪರ ವಿನಾಯಕ ದೇವರ ಗುಡಿ",
        "religion": "hindu"
      }
    },
    {
      "type": "node",
      "id": 4693513694,
      "lat": 12.8353029,
      "lon": 77.6846873,
      "tags": {
        "addr:postcode": "560100",
        "amenity": "clinic",
        "healthcare": "alternative",
        "name": "ಕೋಟ್ಟಕಲ್ ಆರ್ಯ ವೈದ್ಯ ಶಾಲೆ",
        "name:en": "Kottakkal Arya Vaidya Shaala",
        "name:kn": "ಕೋಟ್ಟಕಲ್ ಆರ್ಯ ವೈದ್ಯ ಶಾಲೆ"
      }
    },
    {
      "type": "node",
      "id": 7572669022,
      "lat": 12.8349625,
      "lon": 77.6939561,
      "tags": {
        "addr:district": "Bengaluru Urban",
        "addr:full": "Kammasandra, Electronic City, Bengaluru",
        "addr:postcode": "560100",
        "addr:state": "Karnataka",
        "amenity": "dentist",
        "name": "Elite Canals Dental Clinic",
        "source": "Local Knowledge"
      }
    },
    {
      "type": "node",
      "id": 7572669037,
      "lat": 12.8350141,
      "lon": 77.6953077,
      "tags": {
        "addr:district": "Bengaluru Urban",
        "addr:full": "Kammasandra, Electronic City, Bengaluru",
        "addr:postcode": "560100",
        "addr:state": "Karnataka",
        "amenity": "hospital",
        "name": "JJ Hospitals",
        "source": "Local Knowledge"
      }
    },
    {
      "type": "node",
      "id": 7572669059,
      "lat": 12.8347876,
      "lon": 77.6950973,
      "tags": {
        "addr:district": "Bengaluru Urban",
        "addr:full": "Hosur Road, Electronic City, Bengaluru",
        "addr:postcode": "560100",
        "addr:state": "Karnataka",
        "amenity": "clinic",
        "name": "Yashaayu Multi Speciality Ayurveda and Panchakarma Centre",
        "source": "Local Knowledge"
      }
    },
    {
      "type": "node",
      "id": 11341034748,
      "lat": 12.8364027,
      "lon": 77.686668,
      "tags": {
        "amenity": "dentist",
        "healthcare": "dentist",
        "name": "Dental Domain"
      }
    },
    {
      "type": "node",
      "id": 11341062541,
      "lat": 12.8361843,
      "lon": 77.6879899,
      "tags": {
        "name": "Mahakal Fashion",
        "shop": "clothes"
      }
    },
    {
      "type": "node",
      "id": 11341069164,
      "lat": 12.8355771,
      "lon": 77.6908841,
      "tags": {
        "addr:postcode": "560100",
        "addr:street": "Ananth Nagar Road",
        "name": "Reliance Smart Point",
        "shop": "supermarket"
      }
    },
    {
      "type": "node",
      "id": 11341071582,
      "lat": 12.8352808,
      "lon": 77.6836858,
      "tags": {
        "addr:street": "Anantha Nagar Main road",
        "amenity": "bank",
        "brand": "RBL Bank",
        "brand:wikidata": "Q13120398",
        "name": "RBL Bank"
      }
    },
    {
      "type": "node",
      "id": 11341071583,
      "lat": 12.8358986,
      "lon": 77.6887744,
      "tags": {
        "addr:street": "14th cross, Ananth Nagar",
        "name": "Durga Electricals and Hardware",
        "shop": "hardware"
      }
    },
    {
      "type": "node",
      "id": 11341466752,
      "lat": 12.8354876,
      "lon": 77.6914121,
      "tags": {
        "addr:postcode": "560100",
        "addr:street": "Anantha Nagar Road",
        "brand": "Vishal Mega Mart",
        "brand:wikidata": "Q126895037",
        "name": "Vishal Mega Mart",
        "shop": "supermarket",
        "wheelchair": "yes"
      }
    },
    {
      "type": "node",
      "id": 11341468405,
      "lat": 12.8353468,
      "lon": 77.6922314,
      "tags": {
        "addr:postcode": "560100",
        "addr:street": "Anantha Nagar Road",
        "alt_name": "Kentucky Fried Chicken",
        "alt_name:en": "Kentucky Fried Chicken",
        "alt_name:hi": "केंटुकी फ्राइड चिकन",
        "alt_name:pa": "ਕੈਂਟੁਕੀ ਫ੍ਰਾਈਡ ਚਿਕਨ",
        "alt_name:pnb": "کینٹکی فرائیڈ چکن",
        "alt_name:ur": "کینٹکی فرائیڈ چکن",
        "amenity": "fast_food",
        "brand": "KFC",
        "brand:en": "KFC",
        "brand:hi": "केएफसी",
        "brand:pa": "ਕੇਐਫਸੀ",
        "brand:pnb": "کے ایف سی",
        "brand:ur": "کے ایف سی",
        "brand:wikidata": "Q524757",
        "cuisine": "chicken",
        "name": "KFC",
        "name:en": "KFC",
        "name:hi": "केएफसी",
        "name:pa": "ਕੇਐਫਸੀ",
        "name:pnb": "کے ایف سی",
        "name:ur": "کے ایف سی",
        "takeaway": "yes"
      }
    },
    {
      "type": "node",
      "id": 11341484903,
      "lat": 12.8354006,
      "lon": 77.6927405,
      "tags": {
        "addr:postcode": "560100",
        "addr:street": "Ananth Nagar",
        "brand": "Lenskart",
        "brand:wikidata": "Q17068753",
        "name": "Lenskart",
        "shop": "optician"
      }
    },
    {
      "type": "node",
      "id": 11341486342,
      "lat": 12.835383,
      "lon": 77.691914,
      "tags": {
        "addr:postcode": "560100",
        "addr:street": "Anantha Nagar Road",
        "name": "Hot Chips",
        "shop": "bakery",
        "wheelchair": "no"
      }
    },
    {
      "type": "node",
      "id": 11341491925,
      "lat": 12.8352231,
      "lon": 77.6930207,
      "tags": {
        "addr:postcode": "560100",
        "addr:street": "Anantha Nagar Road",
        "name": "Dry fruit Specials",
        "shop": "nuts"
      }
    },
    {
      "type": "node",
      "id": 11341496120,
      "lat": 12.8353564,
      "lon": 77.6928134,
      "tags": {
        "amenity": "bank",
        "brand": "ICICI Bank",
        "brand:wikidata": "Q1653258",
        "name": "ICICI Bank",
        "short_name": "ICICI"
      }
    },
    {
      "type": "node",
      "id": 11341496121,
      "lat": 12.8352482,
      "lon": 77.6938219,
      "tags": {
        "name": "Sangeetha Mobiles",
        "shop": "mobile_phone"
      }
    },
    {
      "type": "node",
      "id": 11341496848,
      "lat": 12.8353208,
      "lon": 77.6924032,
      "tags": {
        "name": "Magno footwares",
        "shop": "shoes",
        "wheelchair": "no"
      }
    },
    {
      "type": "node",
      "id": 11341498394,
      "lat": 12.8352586,
      "lon": 77.6936602,
      "tags": {
        "addr:postcode": "560100",
        "addr:street": "Anantha Nagar Road",
        "name": "Agarwal Sweets",
        "shop": "pastry"
      }
    },
    {
      "type": "node",
      "id": 11341513736,
      "lat": 12.8349944,
      "lon": 77.6911649,
      "tags": {
        "access": "private",
        "amenity": "parking",
        "fee": "no",
        "layer": "-1",
        "operator": "Mahendra Aarna Appartments",
        "operator:type": "private",
        "parking": "underground"
      }
    },
    {
      "type": "node",
      "id": 11341513737,
      "lat": 12.8352764,
      "lon": 77.6915487,
      "tags": {
        "amenity": "restaurant",
        "diet:vegetarian": "yes",
        "name": "Sri Matha Grand Veg"
      }
    },
    {
      "type": "node",
      "id": 11341513738,
      "lat": 12.8356629,
      "lon": 77.6913067,
      "tags": {
        "addr:postcode": "560100",
        "addr:street": "Anantha Nagar Road",
        "amenity": "bank",
        "name": "Indus Bank"
      }
    },
    {
      "type": "node",
      "id": 11341518793,
      "lat": 12.8352645,
      "lon": 77.6935833,
      "tags": {
        "addr:postcode": "560100",
        "addr:street": "Anantha Nagar Road",
        "brand": "More",
        "brand:wikidata": "Q6910891",
        "name": "More",
        "shop": "supermarket"
      }
    },
    {
      "type": "node",
      "id": 11341529464,
      "lat": 12.835523,
      "lon": 77.6916245,
      "tags": {
        "amenity": "atm",
        "name": "Union Bank ATM"
      }
    },
    {
      "type": "node",
      "id": 11341529869,
      "lat": 12.8353122,
      "lon": 77.693277,
      "tags": {
        "name": "Ratnadeep",
        "shop": "supermarket"
      }
    },
    {
      "type": "node",
      "id": 11342630242,
      "lat": 12.8350168,
      "lon": 77.6952595,
      "tags": {
        "amenity": "pharmacy",
        "brand": "MedPlus",
        "brand:wikidata": "Q65684234",
        "healthcare": "pharmacy",
        "name": "MedPlus"
      }
    },
    {
      "type": "node",
      "id": 11342636612,
      "lat": 12.8351099,
      "lon": 77.6947162,
      "tags": {
        "addr:street": "Anantha Nagar",
        "amenity": "bank",
        "brand": "Axis Bank",
        "brand:wikidata": "Q2003549",
        "name": "Axis Bank"
      }
    },
    {
      "type": "node",
      "id": 11342636613,
      "lat": 12.8349928,
      "lon": 77.695376,
      "tags": {
        "name": "APM Optics",
        "shop": "optician"
      }
    },
    {
      "type": "node",
      "id": 11342636614,
      "lat": 12.8351292,
      "lon": 77.6944783,
      "tags": {
        "addr:street": "Anantha Nagar Road",
        "amenity": "fast_food",
        "brand": "Domino's",
        "brand:wikidata": "Q839466",
        "cuisine": "pizza",
        "name": "Domino's",
        "takeaway": "yes"
      }
    },
    {
      "type": "node",
      "id": 11342650453,
      "lat": 12.8352461,
      "lon": 77.6939932,
      "tags": {
        "addr:street": "Anantha Nagar Road",
        "amenity": "restaurant",
        "name": "Spicy Revenge"
      }
    },
    {
      "type": "node",
      "id": 11342650965,
      "lat": 12.8352665,
      "lon": 77.6926479,
      "tags": {
        "name": "Tital Eye+",
        "shop": "optician",
        "wheelchair": "no"
      }
    },
    {
      "type": "node",
      "id": 11342657920,
      "lat": 12.8349707,
      "lon": 77.6936499,
      "tags": {
        "addr:street": "Anantha Nagar",
        "amenity": "fast_food",
        "food": "burger",
        "name": "Biggies Burger"
      }
    },
    {
      "type": "node",
      "id": 11342658515,
      "lat": 12.8355383,
      "lon": 77.692031,
      "tags": {
        "addr:street": "Anantha Nagar Road",
        "brand": "jockey",
        "name": "Jockey Store",
        "shop": "clothes"
      }
    },
    {
      "type": "node",
      "id": 11342660623,
      "lat": 12.835039,
      "lon": 77.69384,
      "tags": {
        "addr:street": "Anantha Nagar",
        "amenity": "pharmacy",
        "healthcare": "yes",
        "name": "Shree Ramdev Medicals"
      }
    },
    {
      "type": "node",
      "id": 11342666026,
      "lat": 12.8354154,
      "lon": 77.6917711,
      "tags": {
        "addr:street": "Anantha Nagar Road",
        "name": "Cell Palace",
        "shop": "mobile_phone",
        "wheelchair": "no"
      }
    },
    {
      "type": "node",
      "id": 11342669688,
      "lat": 12.8352798,
      "lon": 77.693619,
      "tags": {
        "addr:street": "Anantha Nagar Road",
        "beauty": "hair;spa",
        "brand": "Naturals",
        "brand:wikidata": "Q125728261",
        "name": "Naturals",
        "shop": "beauty"
      }
    },
    {
      "type": "node",
      "id": 11342672397,
      "lat": 12.8353022,
      "lon": 77.6925178,
      "tags": {
        "addr:street": "Anantha Nagar",
        "name": "Saraswati Stationery",
        "shop": "stationery",
        "wheelchair": "no"
      }
    },
    {
      "type": "node",
      "id": 11342688520,
      "lat": 12.8349187,
      "lon": 77.6948374,
      "tags": {
        "amenity": "food_court",
        "name": "Ambur Dhum Biriyani"
      }
    },
    {
      "type": "node",
      "id": 11342688521,
      "lat": 12.8351202,
      "lon": 77.6932858,
      "tags": {
        "addr:street": "Anantha Nagar",
        "name": "Mutton and Chicken Stall",
        "shop": "butcher"
      }
    },
    {
      "type": "node",
      "id": 11342710964,
      "lat": 12.8350455,
      "lon": 77.693987,
      "tags": {
        "amenity": "hospital",
        "name": "JJ Hospital"
      }
    },
    {
      "type": "node",
      "id": 11353294131,
      "lat": 12.8354408,
      "lon": 77.6807317,
      "tags": {
        "amenity": "pharmacy",
        "brand": "MedPlus",
        "brand:wikidata": "Q65684234",
        "healthcare": "pharmacy",
        "name": "MedPlus"
      }
    },
    {
      "type": "node",
      "id": 11353296795,
      "lat": 12.8362179,
      "lon": 77.6869086,
      "tags": {
        "addr:postcode": "560100",
        "addr:street": "Anantha Nagar Road",
        "amenity": "clinic",
        "healthcare": "clinic",
        "name": "Med ortho"
      }
    },
    {
      "type": "node",
      "id": 11353307852,
      "lat": 12.8362458,
      "lon": 77.6867865,
      "tags": {
        "brand": "Bata",
        "brand:wikidata": "Q688082",
        "name": "Bata",
        "shop": "shoes"
      }
    },
    {
      "type": "node",
      "id": 11353312858,
      "lat": 12.835677,
      "lon": 77.690165,
      "tags": {
        "addr:postcode": "560100",
        "addr:street": "Anantha Nagar Road",
        "name": "Tasty Park",
        "shop": "bakery",
        "wheelchair": "no"
      }
    },
    {
      "type": "node",
      "id": 11353313338,
      "lat": 12.8357863,
      "lon": 77.6895118,
      "tags": {
        "addr:postcode": "560100",
        "addr:street": "Anantha Nagar Road",
        "amenity": "restaurant",
        "diet:vegetarian": "yes",
        "name": "Vaikunta pure veg",
        "wheelchair": "no"
      }
    },
    {
      "type": "node",
      "id": 11353321338,
      "lat": 12.835602,
      "lon": 77.6906797,
      "tags": {
        "addr:street": "Anantha Nagar Road",
        "amenity": "childcare",
        "name": "Play Preschool and Daycare"
      }
    },
    {
      "type": "node",
      "id": 11353325025,
      "lat": 12.835763,
      "lon": 77.6906896,
      "tags": {
        "addr:postcode": "560100",
        "addr:street": "Anantha Nagar Road",
        "amenity": "bank",
        "brand": "HDFC Bank",
        "brand:wikidata": "Q631047",
        "name": "HDFC Bank",
        "short_name": "HDFC"
      }
    },
    {
      "type": "node",
      "id": 11353326686,
      "lat": 12.8361571,
      "lon": 77.6881295,
      "tags": {
        "addr:postcode": "560100",
        "addr:street": "Anantha Nagar Road",
        "amenity": "dentist",
        "healthcare": "dentist",
        "name": "ManDent"
      }
    },
    {
      "type": "node",
      "id": 11353326833,
      "lat": 12.835973,
      "lon": 77.6845095,
      "tags": {
        "amenity": "car_wash",
        "name": "Raptor Auto Detailing"
      }
    },
    {
      "type": "node",
      "id": 11353331329,
      "lat": 12.8359024,
      "lon": 77.6898855,
      "tags": {
        "name": "Women's Choice",
        "shop": "clothes"
      }
    },
    {
      "type": "node",
      "id": 11353332587,
      "lat": 12.835936,
      "lon": 77.6847058,
      "tags": {
        "name": "Angel Mart",
        "shop": "greengrocer"
      }
    },
    {
      "type": "node",
      "id": 11353342419,
      "lat": 12.8362408,
      "lon": 77.6868352,
      "tags": {
        "addr:postcode": "560100",
        "addr:street": "Anantha Nagar Road",
        "amenity": "clinic",
        "healthcare": "speech_therapist",
        "name": "Poorvam Care & hearing solution"
      }
    },
    {
      "type": "node",
      "id": 11353349845,
      "lat": 12.836417,
      "lon": 77.6866283,
      "tags": {
        "amenity": "pharmacy",
        "name": "Get Well Pharmacy"
      }
    },
    {
      "type": "node",
      "id": 11353350901,
      "lat": 12.8366425,
      "lon": 77.6853185,
      "tags": {
        "amenity": "childcare",
        "name": "Lil Sprout Academy"
      }
    },
    {
      "type": "node",
      "id": 11353353688,
      "lat": 12.8354052,
      "lon": 77.6798696,
      "tags": {
        "check_date": "2025-07-04",
        "indoor_seating": "no",
        "name": "New Surya Sweets",
        "outdoor_seating": "no",
        "shop": "bakery",
        "takeaway": "only"
      }
    },
    {
      "type": "node",
      "id": 11353366277,
      "lat": 12.8365378,
      "lon": 77.6858336,
      "tags": {
        "name": "Sri Venkadeswara Bakery",
        "shop": "bakery"
      }
    },
    {
      "type": "node",
      "id": 11353369797,
      "lat": 12.8354504,
      "lon": 77.6808663,
      "tags": {
        "amenity": "atm",
        "brand": "Indian Bank",
        "brand:wikidata": "Q2003789",
        "name": "Indian Bank",
        "operator": "Indian Bank",
        "operator:wikidata": "Q2003789"
      }
    },
    {
      "type": "node",
      "id": 11353376439,
      "lat": 12.8354463,
      "lon": 77.6808819,
      "tags": {
        "amenity": "bank",
        "brand": "Indian Bank",
        "brand:wikidata": "Q2003789",
        "name": "Indian Bank"
      }
    },
    {
      "type": "node",
      "id": 11353377685,
      "lat": 12.8354782,
      "lon": 77.6809917,
      "tags": {
        "amenity": "pharmacy",
        "brand": "Apollo Pharmacy",
        "brand:wikidata": "Q62562612",
        "healthcare": "pharmacy",
        "name": "Apollo Pharmacy"
      }
    },
    {
      "type": "node",
      "id": 11355592365,
      "lat": 12.836157,
      "lon": 77.6873708,
      "tags": {
        "amenity": "cafe",
        "cuisine": "juice",
        "name": "Madurai Famous Jiggerthanda"
      }
    },
    {
      "type": "node",
      "id": 11355615419,
      "lat": 12.8357615,
      "lon": 77.6905702,
      "tags": {
        "name": "Health and Glow",
        "shop": "cosmetics"
      }
    },
    {
      "type": "node",
      "id": 11355621143,
      "lat": 12.8353335,
      "lon": 77.6923329,
      "tags": {
        "amenity": "cafe",
        "name": "Pro Teen Cafe",
        "wheelchair": "no"
      }
    },
    {
      "type": "node",
      "id": 11355621517,
      "lat": 12.8352368,
      "lon": 77.6938893,
      "tags": {
        "name": "Organic Mandya",
        "organic": "yes",
        "shop": "greengrocer"
      }
    },
    {
      "type": "node",
      "id": 11355628414,
      "lat": 12.8352064,
      "lon": 77.6931582,
      "tags": {
        "name": "Sri Gajanand Sweets",
        "shop": "bakery"
      }
    },
    {
      "type": "node",
      "id": 11355639096,
      "lat": 12.8352608,
      "lon": 77.6928248,
      "tags": {
        "name": "specs makers",
        "shop": "optician",
        "wheelchair": "no"
      }
    },
    {
      "type": "node",
      "id": 11355639807,
      "lat": 12.8355755,
      "lon": 77.6918112,
      "tags": {
        "name": "Green Trends",
        "shop": "beauty"
      }
    },
    {
      "type": "node",
      "id": 11355639808,
      "lat": 12.835656,
      "lon": 77.690311,
      "tags": {
        "name": "Kurl-on",
        "shop": "furniture",
        "wheelchair": "no"
      }
    },
    {
      "type": "node",
      "id": 11355639809,
      "lat": 12.8358533,
      "lon": 77.6891843,
      "tags": {
        "name": "Kalos Salon",
        "shop": "beauty"
      }
    },
    {
      "type": "node",
      "id": 11355649594,
      "lat": 12.8361611,
      "lon": 77.6873485,
      "tags": {
        "name": "Fusion Salon",
        "shop": "beauty"
      }
    },
    {
      "type": "node",
      "id": 11355651453,
      "lat": 12.8365529,
      "lon": 77.6848329,
      "tags": {
        "name": "Nixie Vegetables",
        "shop": "greengrocer"
      }
    },
    {
      "type": "node",
      "id": 11355652902,
      "lat": 12.8359102,
      "lon": 77.6898188,
      "tags": {
        "name": "Leo cars",
        "shop": "car_repair"
      }
    },
    {
      "type": "node",
      "id": 12977371129,
      "lat": 12.8300865,
      "lon": 77.6816793,
      "tags": {
        "amenity": "fuel",
        "check_date": "2025-07-04"
      }
    },
    {
      "type": "way",
      "id": 248214950,
      "center": {
        "lat": 12.8380237,
        "lon": 77.6895351
      },
      "tags": {
        "amenity": "place_of_worship",
        "building": "yes",
        "name": "Venkataramana Temple",
        "name:kn": "ವೆಂಕಟರಮನ ದೇವಸ್ಥಾನ",
        "religion": "hindu"
      }
    },
    {
      "type": "way",
      "id": 248215470,
      "center": {
        "lat": 12.8364355,
        "lon": 77.6881848
      },
      "tags": {
        "leisure": "park"
      }
    },
    {
      "type": "way",
      "id": 248215821,
      "center": {
        "lat": 12.8320701,
        "lon": 77.68128
      },
      "tags": {
        "amenity": "place_of_worship",
        "name": "SFS Church",
        "name:kn": "ಎಸ್.ಎಫ್. ಎಸ್ ಚರ್ಚ್",
        "religion": "christian"
      }
    },
    {
      "type": "way",
      "id": 248215991,
      "center": {
        "lat": 12.8332699,
        "lon": 77.681306
      },
      "tags": {
        "amenity": "school",
        "name": "SFS High School"
      }
    },
    {
      "type": "way",
      "id": 248215995,
      "center": {
        "lat": 12.8320355,
        "lon": 77.6827612
      },
      "tags": {
        "amenity": "college",
        "name": "SFS Degree College"
      }
    },
    {
      "type": "way",
      "id": 248983458,
      "center": {
        "lat": 12.8330573,
        "lon": 77.6822436
      },
      "tags": {
        "amenity": "college",
        "name": "Suvidya College"
      }
    },
    {
      "type": "way",
      "id": 295214487,
      "center": {
        "lat": 12.8376184,
        "lon": 77.6904507
      },
      "tags": {
        "leisure": "park"
      }
    },
    {
      "type": "way",
      "id": 1072261803,
      "center": {
        "lat": 12.8295935,
        "lon": 77.6823045
      },
      "tags": {
        "amenity": "school",
        "check_date": "2025-01-22",
        "name": "National Public School, Hosur Road"
      }
    },
    {
      "type": "way",
      "id": 1085061921,
      "center": {
        "lat": 12.8452714,
        "lon": 77.6897254
      },
      "tags": {
        "amenity": "marketplace",
        "shop": "farm"
      }
    },
    {
      "type": "way",
      "id": 1085061923,
      "center": {
        "lat": 12.84568,
        "lon": 77.6893031
      },
      "tags": {
        "amenity": "fuel",
        "brand": "Indian Oil",
        "brand:website": "https://iocl.com/",
        "brand:wikidata": "Q1289348",
        "brand:wikipedia": "https://en.wikipedia.org/wiki/Indian_Oil_Corporation",
        "fuel:diesel": "yes",
        "fuel:petrol": "yes",
        "name": "Indian Oil"
      }
    },
    {
      "type": "way",
      "id": 1224006308,
      "center": {
        "lat": 12.8354289,
        "lon": 77.6801295
      },
      "tags": {
        "addr:postcode": "560100",
        "amenity": "fuel",
        "brand": "Indian Oil",
        "brand:wikidata": "Q1289348",
        "name": "Indian Oil"
      }
    },
    {
      "type": "way",
      "id": 1243090906,
      "center": {
        "lat": 12.8310221,
        "lon": 77.687174
      },
      "tags": {
        "amenity": "school",
        "name": "St. Augustine School"
      }
    },
    {
      "type": "way",
      "id": 1243090914,
      "center": {
        "lat": 12.8319432,
        "lon": 77.6856899
      },
      "tags": {
        "amenity": "monastery",
        "name": "SD Convent",
        "religion": "christian"
      }
    },
    {
      "type": "way",
      "id": 1243090929,
      "center": {
        "lat": 12.8342647,
        "lon": 77.6811624
      },
      "tags": {
        "amenity": "school",
        "name": "SFS Kannada Medium School",
        "name:kn": "ಎಸ್.ಎಫ್.ಎಸ್ ಕನ್ನಡ ಮಾಧ್ಯಮ ಶಾಲೆ"
      }
    },
    {
      "type": "way",
      "id": 1318025057,
      "center": {
        "lat": 12.8399333,
        "lon": 77.6756838
      },
      "tags": {
        "leisure": "park",
        "name": "Veerasandra Lake Park"
      }
    },
    {
      "type": "way",
      "id": 1419688630,
      "center": {
        "lat": 12.8322588,
        "lon": 77.6826649
      },
      "tags": {
        "leisure": "pitch"
      }
    },
    {
      "type": "way",
      "id": 1419688631,
      "center": {
        "lat": 12.8315555,
        "lon": 77.6826961
      },
      "tags": {
        "leisure": "pitch",
        "sport": "basketball"
      }
    },
    {
      "type": "way",
      "id": 1419688635,
      "center": {
        "lat": 12.8336667,
        "lon": 77.6809138
      },
      "tags": {
        "leisure": "pitch"
      }
    },
    {
      "type": "way",
      "id": 1419688646,
      "center": {
        "lat": 12.8348606,
        "lon": 77.6807681
      },
      "tags": {
        "addr:full": "Huskur Gate, Electronic City, Bengaluru",
        "addr:postcode": "560100",
        "addr:street": "Hosur Road",
        "amenity": "hospital",
        "check_date": "2025-07-04",
        "healthcare": "hospital",
        "name": "Vimalaya Hospital",
        "name:kn": "ವಿಮಲಯ ಆಸ್ಪತ್ರೆ"
      }
    },
    {
      "type": "way",
      "id": 1422231283,
      "center": {
        "lat": 12.8387075,
        "lon": 77.6774748
      },
      "tags": {
        "amenity": "place_of_worship",
        "building": "yes",
        "religion": "hindu"
      }
    }
  ]
}