{
  "area_name": "Anjanapura",
  "osm_id": 456025400,
  "osm_type": "node",
  "place_type": "suburb",
  "amenity_count": 9,
  "amenities": [
    {
      "type": "node",
      "id": 6400386412,
      "lat": 12.8586411,
      "lon": 77.5626375,
      "tags": {
        "addr:place": "Anjanapura",
        "amenity": "school",
        "isced:level": "3",
        "name": "Florence Public School 4th Blk, Anjanapura",
        "name:kn": "ಫ್ಲಾರೆನ್ಸ್ ಪಬ್ಲಿಕ್ ಶಾಲೆ ೪ನೇ ಬ್ಲಾಕ್, ಆಂಜನಾಪುರ",
        "operator": "Private Un-Aided",
        "school": "Higher Secondary"
      }
    },
    {
      "type": "node",
      "id": 12778644461,
      "lat": 12.8559909,
      "lon": 77.5550903,
      "tags": {
        "addr:city": "Anjanapura",
        "addr:district": "Bengaluru",
        "addr:postcode": "560062",
        "addr:street": "80 Feet Road",
        "amenity": "events_venue",
        "name": "KBL Saarang",
        "website": "https://kblsaarang.com"
      }
    },
    {
      "type": "way",
      "id": 1337361059,
      "center": {
        "lat": 12.8608957,
        "lon": 77.559172
      },
      "tags": {
        "amenity": "fuel"
      }
    },
    {
      "type": "way",
      "id": 1337361061,
      "center": {
        "lat": 12.8568135,
        "lon": 77.5572025
      },
      "tags": {
        "access": "private",
        "leisure": "swimming_pool"
      }
    },
    {
      "type": "way",
      "id": 1345407066,
      "center": {
        "lat": 12.8562512,
        "lon": 77.5561694
      },
      "tags": {
        "addr:city": "Anjanapura",
        "addr:district": "Bengaluru",
        "addr:housenumber": "5/9",
        "addr:postcode": "560062",
        "addr:street": "80 feet road, near Vajaragiri Estate",
        "building": "sports_hall",
        "charge": "225 INR",
        "fee": "yes",
        "leisure": "sports_centre",
        "name": "Arise Badminton Academy",
        "opening_hours": "Mo-Su 05:00-22:00",
        "rental": "shoes;racket;",
        "sport": "badminton",
        "website": "https://siliconcitysportsacademy.com/arise-badminton/"
      }
    },
    {
      "type": "way",
      "id": 1345407106,
      "center": {
        "lat": 12.8537351,
        "lon": 77.5512086
      },
      "tags": {
        "amenity": "place_of_worship",
        "landuse": "religious",
        "religion": "hindu"
      }
    },
    {
      "type": "way",
      "id": 1345637499,
      "center": {
        "lat": 12.8653922,
        "lon": 77.5581326
      },
      "tags": {
        "access": "private",
        "leisure": "swimming_pool"
      }
    },
    {
      "type": "way",
      "id": 1346117110,
      "center": {
        "lat": 12.863635,
        "lon": 77.5620694
      },
      "tags": {
        "access": "private",
        "leisure": "swimming_pool"
      }
    },
    {
      "type": "way",
      "id": 1380289025,
      "center": {
        "lat": 12.8564627,
        "lon": 77.5569237
      },
      "tags": {
        "access": "customers",
        "amenity": "parking",
        "fee": "no",
        "parking": "surface",
        "surface": "ground"
      }
    }
  ]
}