{
  "area_name": "Annasandra Palya",
  "osm_id": 1773577331,
  "osm_type": "node",
  "place_type": "neighbourhood",
  "amenity_count": 74,
  "amenities": [
    {
      "type": "node",
      "id": 940534676,
      "lat": 12.9584115,
      "lon": 77.6678755,
      "tags": {
        "amenity": "post_office",
        "name": "HAL postoffice"
      }
    },
    {
      "type": "node",
      "id": 1462141134,
      "lat": 12.9607274,
      "lon": 77.6662316,
      "tags": {
        "access": "yes",
        "amenity": "parking",
        "fee": "no",
        "parking": "surface"
      }
    },
    {
      "type": "node",
      "id": 1465162315,
      "lat": 12.9608216,
      "lon": 77.666002,
      "tags": {
        "amenity": "fast_food",
        "cuisine": "juice",
        "name": "Niha Juice Center"
      }
    },
    {
      "type": "node",
      "id": 3428235500,
      "lat": 12.9619762,
      "lon": 77.6816641,
      "tags": {
        "access": "yes",
        "amenity": "toilets",
        "fee": "yes",
        "name": "eToilet",
        "toilets:disposal": "pitlatrine",
        "unisex": "yes"
      }
    },
    {
      "type": "node",
      "id": 3804495707,
      "lat": 12.9588794,
      "lon": 77.6676407,
      "tags": {
        "amenity": "bank",
        "brand": "Punjab National Bank",
        "brand:wikidata": "Q2743499",
        "level": "0",
        "name": "Punjab National Bank",
        "name:en": "Punjab National Bank",
        "name:kn": "ಪಂಜಾಬ ರಾಷ್ಟ್ರೀಯ ಬ್ಯಾಂಕ್",
        "short_name": "PNB",
        "website": "https://www.pnbindia.in"
      }
    },
    {
      "type": "node",
      "id": 4199209705,
      "lat": 12.9649652,
      "lon": 77.6660577,
      "tags": {
        "amenity": "place_of_worship",
        "religion": "hindu"
      }
    },
    {
      "type": "node",
      "id": 4208561016,
      "lat": 12.9683842,
      "lon": 77.6701118,
      "tags": {
        "name": "Thilags Market",
        "shop": "supermarket"
      }
    },
    {
      "type": "node",
      "id": 4310360791,
      "lat": 12.9688819,
      "lon": 77.6730004,
      "tags": {
        "indoor_seating": "no",
        "name": "Aiwas",
        "outdoor_seating": "no",
        "shop": "bakery",
        "takeaway": "only"
      }
    },
    {
      "type": "node",
      "id": 4447398385,
      "lat": 12.9583981,
      "lon": 77.667597,
      "tags": {
        "addr:city": "Bengalore",
        "addr:housenumber": "D-14/T",
        "addr:postcode": "560017",
        "addr:street": "HAL Employees Quarters,Old Airport Road, Near HAL Post Office,Reddypalya",
        "amenity": "police",
        "name": "HAL Traffic Police Station",
        "phone": "080 2294 3115",
        "website": "NA"
      }
    },
    {
      "type": "node",
      "id": 4488364371,
      "lat": 12.9670978,
      "lon": 77.6809662,
      "tags": {
        "addr:city": "Bangalore",
        "addr:housenumber": "298/2",
        "addr:postcode": "560037",
        "addr:street": "Thalakavery layout ,1st main road , Basava Nagar",
        "name": "Varity Bazar",
        "phone": "(91)-9066264251",
        "shop": "supermarket"
      }
    },
    {
      "type": "node",
      "id": 4602971701,
      "lat": 12.9612841,
      "lon": 77.6672062,
      "tags": {
        "amenity": "atm",
        "brand": "State Bank of India",
        "brand:wikidata": "Q1340361",
        "check_date": "2022-06-11",
        "name": "State Bank of India",
        "name:kn": "ಎಸ್ ಬಿ ಐ",
        "operator": "State Bank of India",
        "operator:wikidata": "Q1340361",
        "short_name": "SBI"
      }
    },
    {
      "type": "node",
      "id": 4646644516,
      "lat": 12.9680901,
      "lon": 77.6700742,
      "tags": {
        "name": "Mayura Bakery and Sweets",
        "shop": "bakery"
      }
    },
    {
      "type": "node",
      "id": 4646644517,
      "lat": 12.9678261,
      "lon": 77.6700421,
      "tags": {
        "name": "Day to Day",
        "shop": "supermarket"
      }
    },
    {
      "type": "node",
      "id": 4899556155,
      "lat": 12.9675399,
      "lon": 77.6703009,
      "tags": {
        "name": "Hassan Iyangar's Bakery",
        "shop": "bakery"
      }
    },
    {
      "type": "node",
      "id": 4899556156,
      "lat": 12.9680705,
      "lon": 77.6702137,
      "tags": {
        "amenity": "dentist",
        "name": "VHC International"
      }
    },
    {
      "type": "node",
      "id": 5392606723,
      "lat": 12.9645896,
      "lon": 77.681978,
      "tags": {
        "addr:housenumber": "170",
        "addr:street": "Namjoshi Rd",
        "amenity": "kindergarten",
        "name": "Sanskrithi Foundation"
      }
    },
    {
      "type": "node",
      "id": 6886594755,
      "lat": 12.9627474,
      "lon": 77.6655856,
      "tags": {
        "addr:city": "Bengaluru",
        "addr:district": "BENGALURU URBAN",
        "addr:full": "Suranjandas Road, Near HAL Airport, Vimanapura",
        "addr:postcode": "560017",
        "addr:state": "Karnataka",
        "amenity": "blood_bank",
        "contact:mobile": "9845347978",
        "contact:phone": "8022314632",
        "name": "Hindustan Aeronautics Limited - HAL Hospital Blood Bank",
        "opening_hours": "24/7",
        "operator:type": "government",
        "source": "OpenGovernmentData",
        "website": "http://www.hal-india.com"
      }
    },
    {
      "type": "node",
      "id": 7572526699,
      "lat": 12.9635299,
      "lon": 77.6662889,
      "tags": {
        "addr:district": "Bengaluru Urban",
        "addr:full": "Jyothi Nagar, Bengaluru",
        "addr:postcode": "560017",
        "addr:state": "Karnataka",
        "amenity": "hospital",
        "name": "Jhon's Medical Hospital",
        "source": "Local Knowledge"
      }
    },
    {
      "type": "node",
      "id": 7572526704,
      "lat": 12.9625212,
      "lon": 77.6709431,
      "tags": {
        "addr:district": "Bengaluru Urban",
        "addr:full": "Krishna Nagar, Vimanapura, Bengaluru",
        "addr:postcode": "560017",
        "addr:state": "Karnataka",
        "amenity": "clinic",
        "name": "Raju Health Centre",
        "source": "Local Knowledge"
      }
    },
    {
      "type": "node",
      "id": 7572526705,
      "lat": 12.9648095,
      "lon": 77.6725587,
      "tags": {
        "addr:district": "Bengaluru Urban",
        "addr:full": "Islampur, Vimanapura, Bengaluru",
        "addr:postcode": "560017",
        "addr:state": "Karnataka",
        "amenity": "dentist",
        "name": "SRK Dental Clinic",
        "source": "Local Knowledge"
      }
    },
    {
      "type": "node",
      "id": 7572526714,
      "lat": 12.9674869,
      "lon": 77.6701879,
      "tags": {
        "addr:district": "Bengaluru Urban",
        "addr:full": "LBS Nagar, Kaggadasapura, Bengaluru",
        "addr:postcode": "560017",
        "addr:state": "Karnataka",
        "amenity": "clinic",
        "name": "Nms Sanjivini Health Center",
        "source": "Local Knowledge"
      }
    },
    {
      "type": "node",
      "id": 7572526716,
      "lat": 12.9644469,
      "lon": 77.6719687,
      "tags": {
        "addr:district": "Bengaluru Urban",
        "addr:full": "Annasandrapalya Extension, Islampur, Vibhutipura, Bengaluru",
        "addr:postcode": "560017",
        "addr:state": "Karnataka",
        "amenity": "clinic",
        "name": "Dr. Harish Tyagi Clinic",
        "source": "Local Knowledge"
      }
    },
    {
      "type": "node",
      "id": 7572526737,
      "lat": 12.9676391,
      "lon": 77.6728616,
      "tags": {
        "addr:district": "Bengaluru Urban",
        "addr:full": "LBS Nagar, Kaggadasapura, Bengaluru",
        "addr:postcode": "560017",
        "addr:state": "Karnataka",
        "amenity": "clinic",
        "name": "Samruddhi Health Care Centre",
        "source": "Local Knowledge"
      }
    },
    {
      "type": "node",
      "id": 7572526741,
      "lat": 12.9645871,
      "lon": 77.6742181,
      "tags": {
        "addr:district": "Bengaluru Urban",
        "addr:full": "Ramesh Nagar, Vimanapura, Bengaluru",
        "addr:postcode": "560017",
        "addr:state": "Karnataka",
        "amenity": "clinic",
        "name": "Lifeline Polyclinic",
        "source": "Local Knowledge"
      }
    },
    {
      "type": "node",
      "id": 7572526771,
      "lat": 12.964036,
      "lon": 77.672902,
      "tags": {
        "addr:district": "Bengaluru Urban",
        "addr:full": "Vinayaka Nagar, Vimanapura, Bengaluru",
        "addr:postcode": "560017",
        "addr:state": "Karnataka",
        "amenity": "dentist",
        "name": "Arya Dental Care",
        "source": "Local Knowledge"
      }
    },
    {
      "type": "node",
      "id": 7572526794,
      "lat": 12.9640923,
      "lon": 77.6716941,
      "tags": {
        "addr:district": "Bengaluru Urban",
        "addr:full": "Annasandrapalya Extension, Vimanapura, Bengaluru",
        "addr:postcode": "560017",
        "addr:state": "Karnataka",
        "amenity": "clinic",
        "name": "SNP Homoeopathy Clinic",
        "source": "Local Knowledge"
      }
    },
    {
      "type": "node",
      "id": 11407395907,
      "lat": 12.9697002,
      "lon": 77.6782027,
      "tags": {
        "amenity": "bench",
        "backrest": "yes",
        "colour": "gray",
        "seats": "2"
      }
    },
    {
      "type": "node",
      "id": 12560650226,
      "lat": 12.9686756,
      "lon": 77.6745035,
      "tags": {
        "addr:city": "Bengaluru",
        "addr:district": "Bengaluru Urban",
        "addr:full": "149/3 l.b.s nagar, 7th cross, 8th Main Rd, HAL",
        "addr:postcode": "560017",
        "addr:street": "7th A Cross Road",
        "amenity": "studio",
        "name": "Denzong Films - Video Production Company in Bangalore",
        "studio": "video",
        "website": "https://denzongfilms.com/"
      }
    },
    {
      "type": "way",
      "id": 135265530,
      "center": {
        "lat": 12.9598418,
        "lon": 77.6702101
      },
      "tags": {
        "barrier": "wall",
        "leisure": "sports_centre",
        "name": "HAL Sports Complex"
      }
    },
    {
      "type": "way",
      "id": 143358491,
      "center": {
        "lat": 12.9626451,
        "lon": 77.6815455
      },
      "tags": {
        "amenity": "place_of_worship",
        "name": "Subramanya Swamy Temple",
        "name:kn": "ಸುಬ್ರಮಣ್ಯ ಸ್ವಾಮಿ ದೇವಸ್ಥಾನ",
        "religion": "hindu"
      }
    },
    {
      "type": "way",
      "id": 144989739,
      "center": {
        "lat": 12.9607453,
        "lon": 77.66696
      },
      "tags": {
        "amenity": "marketplace",
        "name": "HAL Market"
      }
    },
    {
      "type": "way",
      "id": 144989752,
      "center": {
        "lat": 12.9640092,
        "lon": 77.6637028
      },
      "tags": {
        "leisure": "park"
      }
    },
    {
      "type": "way",
      "id": 174662561,
      "center": {
        "lat": 12.9595493,
        "lon": 77.6699985
      },
      "tags": {
        "access": "private",
        "leisure": "pitch",
        "sport": "soccer"
      }
    },
    {
      "type": "way",
      "id": 290187542,
      "center": {
        "lat": 12.9623685,
        "lon": 77.6664034
      },
      "tags": {
        "alt_name": "Hindustan Aeronautics Limited Hospital",
        "amenity": "hospital",
        "emergency": "yes",
        "name": "HAL Hospital",
        "name:kn": "ಎಚ್ಎಎಲ್ ಆಸ್ಪತ್ರೆ",
        "wheelchair": "yes"
      }
    },
    {
      "type": "way",
      "id": 330181554,
      "center": {
        "lat": 12.9628719,
        "lon": 77.6820609
      },
      "tags": {
        "access": "private",
        "amenity": "parking",
        "capacity": "50",
        "parking": "surface"
      }
    },
    {
      "type": "way",
      "id": 333975952,
      "center": {
        "lat": 12.9628485,
        "lon": 77.6822466
      },
      "tags": {
        "leisure": "garden"
      }
    },
    {
      "type": "way",
      "id": 338518971,
      "center": {
        "lat": 12.9625796,
        "lon": 77.6814519
      },
      "tags": {
        "addr:city": "Banglore",
        "addr:housenumber": "6",
        "addr:postcode": "560037",
        "addr:street": "Muruga Complex, Central Street,, Ramesh Nagar, opposite ADA",
        "building": "yes",
        "name": "Mayura bakery and Juice",
        "operator": "Private",
        "shop": "bakery"
      }
    },
    {
      "type": "way",
      "id": 362927830,
      "center": {
        "lat": 12.9688571,
        "lon": 77.6747601
      },
      "tags": {
        "leisure": "playground",
        "name": "Utkarsha",
        "name:kn": "ಉತ್ಕರ್ಷ"
      }
    },
    {
      "type": "way",
      "id": 553065511,
      "center": {
        "lat": 12.9589872,
        "lon": 77.6645788
      },
      "tags": {
        "leisure": "park",
        "name": "Dr. Ambedkar Park",
        "name:etymology:wikidata": "Q231690",
        "name:kn": "ಡಾ ಅಂಬೇಡ್ಕರ್ ಉದ್ಯಾನವನ"
      }
    },
    {
      "type": "way",
      "id": 553065516,
      "center": {
        "lat": 12.960591,
        "lon": 77.6647037
      },
      "tags": {
        "amenity": "school",
        "name": "HAL West Primary School"
      }
    },
    {
      "type": "way",
      "id": 583915625,
      "center": {
        "lat": 12.9651959,
        "lon": 77.66924
      },
      "tags": {
        "leisure": "park"
      }
    },
    {
      "type": "way",
      "id": 790392175,
      "center": {
        "lat": 12.9591298,
        "lon": 77.6666853
      },
      "tags": {
        "access": "yes",
        "amenity": "parking",
        "fee": "no",
        "parking": "surface"
      }
    },
    {
      "type": "way",
      "id": 799457103,
      "center": {
        "lat": 12.9647204,
        "lon": 77.6822814
      },
      "tags": {
        "amenity": "bank",
        "atm": "yes",
        "brand": "Canara Bank",
        "brand:en": "Canara Bank",
        "brand:hi": "केनरा बैंक",
        "brand:kn": "ಕೆನರಾ ಬ್ಯಾಂಕ್",
        "brand:pa": "ਕੇਨਰਾ ਬੈਂਕ",
        "brand:pnb": "کینرا بینک",
        "brand:ur": "کینرا بینک",
        "brand:wikidata": "Q2003777",
        "brand:wikipedia": "en:Canara Bank",
        "brand:wikipedia:pa": "ਕੇਨਰਾ ਬੈਂਕ",
        "building": "yes",
        "name": "Canara Bank",
        "name:en": "Canara Bank",
        "name:hi": "केनरा बैंक",
        "name:kn": "ಕೆನರಾ ಬ್ಯಾಂಕ್",
        "name:pa": "ਕੇਨਰਾ ਬੈਂਕ",
        "name:pnb": "کینرا بینک",
        "name:ur": "کینرا بینک"
      }
    },
    {
      "type": "way",
      "id": 1119385374,
      "center": {
        "lat": 12.964497,
        "lon": 77.6807039
      },
      "tags": {
        "amenity": "school",
        "name": "Suvarnashree Gurukul"
      }
    },
    {
      "type": "way",
      "id": 1135874176,
      "center": {
        "lat": 12.9587934,
        "lon": 77.6696309
      },
      "tags": {
        "access": "private",
        "leisure": "swimming_pool"
      }
    },
    {
      "type": "way",
      "id": 1213188974,
      "center": {
        "lat": 12.9694677,
        "lon": 77.6681406
      },
      "tags": {
        "addr:full": "Khata no:152, CV Raman Nagar, Survey no 136/3B, 7th Cross Road,, Vibhutipura Village, Jagadish Nagar, New Tippasandra, Bengaluru, Karnataka 560075",
        "amenity": "school",
        "email": "communications.oiscvr@orchids.edu.in",
        "name": "Orchids The International School - C V Raman Nagar",
        "opening_hours": "Mo-Su 09:00-18:30",
        "operator": "Orchids International School",
        "phone": "9513922803",
        "website": "https://www.orchidsinternationalschool.com/bangalore-branches/cv-raman-nagar/"
      }
    },
    {
      "type": "way",
      "id": 1213188978,
      "center": {
        "lat": 12.9693692,
        "lon": 77.6685547
      },
      "tags": {
        "leisure": "pitch",
        "sport": "soccer"
      }
    },
    {
      "type": "way",
      "id": 1213188980,
      "center": {
        "lat": 12.9694793,
        "lon": 77.6677153
      },
      "tags": {
        "leisure": "pitch"
      }
    },
    {
      "type": "way",
      "id": 1213188983,
      "center": {
        "lat": 12.9596268,
        "lon": 77.6690663
      },
      "tags": {
        "leisure": "pitch"
      }
    },
    {
      "type": "way",
      "id": 1230094111,
      "center": {
        "lat": 12.9697936,
        "lon": 77.6783609
      },
      "tags": {
        "leisure": "park",
        "name": "Vikas Park"
      }
    },
    {
      "type": "way",
      "id": 1303541161,
      "center": {
        "lat": 12.9637092,
        "lon": 77.6674464
      },
      "tags": {
        "leisure": "playground"
      }
    },
    {
      "type": "way",
      "id": 1303541182,
      "center": {
        "lat": 12.9587718,
        "lon": 77.6682977
      },
      "tags": {
        "access": "permissive",
        "amenity": "parking",
        "name": "HAL Parking",
        "parking": "surface"
      }
    },
    {
      "type": "way",
      "id": 1303541206,
      "center": {
        "lat": 12.958939,
        "lon": 77.6719758
      },
      "tags": {
        "access": "permissive",
        "amenity": "parking",
        "parking": "surface"
      }
    },
    {
      "type": "way",
      "id": 1303542198,
      "center": {
        "lat": 12.9587834,
        "lon": 77.6701118
      },
      "tags": {
        "leisure": "pitch",
        "sport": "basketball"
      }
    },
    {
      "type": "way",
      "id": 1320013898,
      "center": {
        "lat": 12.9709309,
        "lon": 77.6700324
      },
      "tags": {
        "amenity": "place_of_worship",
        "landuse": "religious",
        "name": "Ayappa Temple",
        "religion": "hindu"
      }
    },
    {
      "type": "way",
      "id": 1429354942,
      "center": {
        "lat": 12.9694885,
        "lon": 77.6717057
      },
      "tags": {
        "access": "private",
        "leisure": "swimming_pool"
      }
    },
    {
      "type": "way",
      "id": 1447685563,
      "center": {
        "lat": 12.9702664,
        "lon": 77.6711596
      },
      "tags": {
        "access": "private",
        "leisure": "swimming_pool"
      }
    },
    {
      "type": "way",
      "id": 1447685569,
      "center": {
        "lat": 12.969985,
        "lon": 77.6690582
      },
      "tags": {
        "access": "private",
        "leisure": "swimming_pool"
      }
    },
    {
      "type": "way",
      "id": 1447686030,
      "center": {
        "lat": 12.9705805,
        "lon": 77.6671334
      },
      "tags": {
        "access": "private",
        "leisure": "swimming_pool"
      }
    },
    {
      "type": "way",
      "id": 1447686031,
      "center": {
        "lat": 12.9706273,
        "lon": 77.6672605
      },
      "tags": {
        "access": "private",
        "leisure": "pitch",
        "sport": "basketball"
      }
    },
    {
      "type": "way",
      "id": 1447903282,
      "center": {
        "lat": 12.9648647,
        "lon": 77.6708772
      },
      "tags": {
        "amenity": "place_of_worship",
        "landuse": "religious",
        "name": "Yallamma Devasthana",
        "name:kn": "ಯಲ್ಲಮ್ಮ ದೇವಸ್ಥಾನ",
        "religion": "hindu"
      }
    },
    {
      "type": "way",
      "id": 1447954496,
      "center": {
        "lat": 12.9644941,
        "lon": 77.6722226
      },
      "tags": {
        "amenity": "place_of_worship",
        "denomination": "hindu",
        "landuse": "religious",
        "name": "Sri Ram Mandir",
        "religion": "hindu"
      }
    },
    {
      "type": "way",
      "id": 1448548594,
      "center": {
        "lat": 12.9706513,
        "lon": 77.6692983
      },
      "tags": {
        "leisure": "pitch",
        "sport": "tennis"
      }
    },
    {
      "type": "way",
      "id": 1448548595,
      "center": {
        "lat": 12.9708669,
        "lon": 77.669343
      },
      "tags": {
        "leisure": "pitch",
        "sport": "tennis"
      }
    },
    {
      "type": "way",
      "id": 1448550990,
      "center": {
        "lat": 12.967369,
        "lon": 77.6682712
      },
      "tags": {
        "access": "private",
        "leisure": "playground"
      }
    },
    {
      "type": "way",
      "id": 1449319752,
      "center": {
        "lat": 12.9643867,
        "lon": 77.6701798
      },
      "tags": {
        "access": "private",
        "leisure": "playground"
      }
    },
    {
      "type": "way",
      "id": 1449319756,
      "center": {
        "lat": 12.9619024,
        "lon": 77.6699727
      },
      "tags": {
        "amenity": "place_of_worship",
        "landuse": "religious",
        "religion": "muslim"
      }
    },
    {
      "type": "way",
      "id": 1449384222,
      "center": {
        "lat": 12.9622393,
        "lon": 77.6731491
      },
      "tags": {
        "access": "private",
        "leisure": "swimming_pool"
      }
    },
    {
      "type": "way",
      "id": 1449587472,
      "center": {
        "lat": 12.9649604,
        "lon": 77.6805629
      },
      "tags": {
        "amenity": "place_of_worship",
        "landuse": "religious",
        "name": "Shrimad Vibhuthipura Veerasimhasana Samsthana Matha",
        "religion": "hindu"
      }
    },
    {
      "type": "way",
      "id": 1449587586,
      "center": {
        "lat": 12.9652477,
        "lon": 77.6821016
      },
      "tags": {
        "amenity": "community_centre",
        "landuse": "commercial",
        "name": "SJP Kalyana Mantapa"
      }
    },
    {
      "type": "way",
      "id": 1449595411,
      "center": {
        "lat": 12.9677789,
        "lon": 77.678394
      },
      "tags": {
        "access": "private",
        "leisure": "swimming_pool"
      }
    },
    {
      "type": "way",
      "id": 1449595412,
      "center": {
        "lat": 12.9668851,
        "lon": 77.6782072
      },
      "tags": {
        "access": "private",
        "leisure": "swimming_pool"
      }
    },
    {
      "type": "way",
      "id": 1449595456,
      "center": {
        "lat": 12.9651397,
        "lon": 77.6794507
      },
      "tags": {
        "amenity": "school",
        "landuse": "education"
      }
    },
    {
      "type": "way",
      "id": 1449609163,
      "center": {
        "lat": 12.9658895,
        "lon": 77.6797622
      },
      "tags": {
        "access": "private",
        "leisure": "swimming_pool"
      }
    }
  ]
}