{
  "area_name": "Annapoorneshwari Nagara",
  "osm_id": 11278785760,
  "osm_type": "node",
  "place_type": "neighbourhood",
  "amenity_count": 47,
  "amenities": [
    {
      "type": "node",
      "id": 1463507632,
      "lat": 12.9746134,
      "lon": 77.5129757,
      "tags": {
        "addr:district": "Bengaluru Urban",
        "addr:full": "No-5, 20 Th Cross, Malagala Under Pass Ring Road",
        "addr:postcode": "560091",
        "addr:state": "Karnataka",
        "addr:subdistrict": "Nagarbhavi",
        "amenity": "hospital",
        "name": "Vasan Eye Care Hospital, Nagarabhavi",
        "name:kn": "ವಿಜಯ ನೇತ್ರಾಲಯ",
        "operator:type": "private",
        "source": "OpenGovernmentData",
        "website": "http://www.vasaneye.in/"
      }
    },
    {
      "type": "node",
      "id": 6938779562,
      "lat": 12.9881868,
      "lon": 77.5087273,
      "tags": {
        "addr:district": "Bengaluru Urban",
        "addr:full": "No. 127/1, Sri Gandhanda Kaval, Sunkadakatte, Viswaneedam Post, Magadi Main Road",
        "addr:postcode": "560054",
        "addr:state": "Karnataka",
        "amenity": "hospital",
        "name": "Sri Lakshmi Multi Speciality Hospital",
        "source": "OpenGovernmentData"
      }
    },
    {
      "type": "node",
      "id": 6939257334,
      "lat": 12.974865,
      "lon": 77.5096312,
      "tags": {
        "addr:district": "Bengaluru Urban",
        "addr:full": "42, 7Th Block,Ii Stage,Nagarabhavi Ring Road,Near Bhojana Shale Hotel",
        "addr:postcode": "560072",
        "addr:state": "Karnataka",
        "amenity": "hospital",
        "name": "Essential Hospital",
        "source": "OpenGovernmentData"
      }
    },
    {
      "type": "node",
      "id": 6944525393,
      "lat": 12.9819768,
      "lon": 77.5108275,
      "tags": {
        "addr:district": "Bengaluru Urban",
        "addr:full": "No 193, So Feet Road, 2nd Block 2nd Stage",
        "addr:postcode": "560072",
        "addr:state": "Karnataka",
        "amenity": "hospital",
        "name": "Unity Lifline Hospital Pvt Ltd",
        "source": "OpenGovernmentData"
      }
    },
    {
      "type": "node",
      "id": 6946978667,
      "lat": 12.988865,
      "lon": 77.5078006,
      "tags": {
        "addr:district": "Bengaluru Rural",
        "addr:full": "Magadi Main Road, Sunkadakatte",
        "addr:postcode": "560091",
        "addr:state": "Karnataka",
        "amenity": "hospital",
        "name": "Ashraya Medinova Pvt Ltd",
        "source": "OpenGovernmentData"
      }
    },
    {
      "type": "node",
      "id": 6948059664,
      "lat": 12.978053,
      "lon": 77.5115959,
      "tags": {
        "addr:district": "Bengaluru Urban",
        "addr:full": "No.4, 5Th Block,2nd Stage Nagarabhavi",
        "addr:postcode": "560072",
        "addr:state": "Karnataka",
        "amenity": "hospital",
        "name": "Brinda Hospital",
        "source": "OpenGovernmentData"
      }
    },
    {
      "type": "node",
      "id": 7572526732,
      "lat": 12.97748,
      "lon": 77.511541,
      "tags": {
        "addr:district": "Bengaluru Urban",
        "addr:full": "Naagarabhaavi, Bengaluru",
        "addr:postcode": "560072",
        "addr:state": "Karnataka",
        "amenity": "clinic",
        "name": "Dr. Veena's Ayurvedalaya",
        "source": "Local Knowledge"
      }
    },
    {
      "type": "node",
      "id": 7572526797,
      "lat": 12.9745782,
      "lon": 77.5130087,
      "tags": {
        "addr:district": "Bengaluru Urban",
        "addr:full": "Marilingappa Extension, Naagarabhaavi, Bengaluru",
        "addr:postcode": "560091",
        "addr:state": "Karnataka",
        "amenity": "clinic",
        "name": "Vijaya Netralaya",
        "source": "Local Knowledge"
      }
    },
    {
      "type": "node",
      "id": 7927569085,
      "lat": 12.9771352,
      "lon": 77.5075287,
      "tags": {
        "addr:postcode": "560091",
        "addr:street": "11th Cross Road 2nd Stage, RHCS Layout, Annapoorneshwari Nagar, Naagarabhaavi",
        "amenity": "school",
        "email": "communications.oisng@orchids.edu.in",
        "name": "Orchids The International School, Nagarbhavi",
        "opening_hours": "Mo-Su 09:00-18:30",
        "operator": "Orchids International School",
        "phone": "+919513922803",
        "website": "https://www.orchidsinternationalschool.com/bangalore-branches/nagarbhavi/"
      }
    },
    {
      "type": "node",
      "id": 8187959398,
      "lat": 12.9828242,
      "lon": 77.5107928,
      "tags": {
        "addr:full": "Nagarabhavi, Magadi Main Rd, Kandhaya Nagar, sumnahalli, Kottigepalya, Bengaluru, Karnataka",
        "addr:state": "Karnataka",
        "amenity": "bank",
        "brand": "Axis Bank",
        "brand:wikidata": "Q2003549",
        "name": "Axis Bank",
        "name:kn": "ಆಕ್ಸಿಸ್ ಬ್ಯಾಂಕ್"
      }
    },
    {
      "type": "node",
      "id": 8187963425,
      "lat": 12.9801316,
      "lon": 77.5106987,
      "tags": {
        "addr:full": "Old Outer Ring Rd, 2 Block, Naagarabhaavi, Bengaluru, Karnataka",
        "addr:state": "Karnataka",
        "amenity": "bank",
        "brand": "Canara Bank",
        "brand:en": "Canara Bank",
        "brand:hi": "केनरा बैंक",
        "brand:kn": "ಕೆನರಾ ಬ್ಯಾಂಕ್",
        "brand:pa": "ਕੇਨਰਾ ਬੈਂਕ",
        "brand:pnb": "کینرا بینک",
        "brand:ur": "کینرا بینک",
        "brand:wikidata": "Q2003777",
        "brand:wikipedia": "en:Canara Bank",
        "brand:wikipedia:pa": "ਕੇਨਰਾ ਬੈਂਕ",
        "name": "Canara Bank",
        "name:en": "Canara Bank",
        "name:hi": "केनरा बैंक",
        "name:kn": "ಕೆನರಾ ಬ್ಯಾಂಕ್",
        "name:pa": "ਕੇਨਰਾ ਬੈਂਕ",
        "name:pnb": "کینرا بینک",
        "name:ur": "کینرا بینک"
      }
    },
    {
      "type": "node",
      "id": 8187963493,
      "lat": 12.9737273,
      "lon": 77.5098419,
      "tags": {
        "addr:full": "1st Main Road 702 II nd MAIN II nd STAGE, 11th Block, Marilingappa Extension, Naagarabhaavi, Bengaluru, Karnataka",
        "addr:state": "Karnataka",
        "amenity": "bank",
        "brand": "Allahabad Bank",
        "brand:wikidata": "Q2018840",
        "name": "Allahabad Bank",
        "name:kn": "ಅಲ್ಲಹಾಬಾದ್ ಬ್ಯಾಂಕ್"
      }
    },
    {
      "type": "node",
      "id": 8196809374,
      "lat": 12.979487,
      "lon": 77.510375,
      "tags": {
        "addr:full": "23, Nagarbhavi Second Stage, BDA Layout, Naagarabhaavi, Bengaluru, Karnataka",
        "addr:state": "Karnataka",
        "amenity": "college",
        "name": "Bsv Pu College Malagala"
      }
    },
    {
      "type": "node",
      "id": 8240257731,
      "lat": 12.979175,
      "lon": 77.5151391,
      "tags": {
        "name": "Maruti Suzuki Nexa",
        "shop": "car"
      }
    },
    {
      "type": "node",
      "id": 9654252379,
      "lat": 12.98113,
      "lon": 77.5111923,
      "tags": {
        "amenity": "bank",
        "atm": "yes",
        "brand": "HDFC Bank",
        "brand:wikidata": "Q631047",
        "name": "HDFC Bank",
        "name:kn": "ಎಚ್ ಡಿ ಎಫ್ ಸಿ",
        "operator": "HDFC Bank",
        "short_name": "HDFC"
      }
    },
    {
      "type": "node",
      "id": 9654252380,
      "lat": 12.9805027,
      "lon": 77.5107577,
      "tags": {
        "amenity": "fast_food",
        "brand": "Domino's",
        "brand:ks": "ڈومینوز",
        "brand:pa": "ਡੋਮੀਨੋਜ਼",
        "brand:ur": "ڈومینوز",
        "brand:wikidata": "Q839466",
        "brand:wikipedia": "en:Domino's Pizza",
        "cuisine": "pizza",
        "name": "Domino's",
        "name:ks": "ڈومینوز",
        "name:pa": "ਡੋਮੀਨੋਜ਼",
        "name:ur": "ڈومینوز",
        "takeaway": "yes"
      }
    },
    {
      "type": "node",
      "id": 9654252385,
      "lat": 12.9718226,
      "lon": 77.5078985,
      "tags": {
        "amenity": "bar",
        "name": "Purab Restobar"
      }
    },
    {
      "type": "node",
      "id": 10738598990,
      "lat": 12.979439,
      "lon": 77.5134861,
      "tags": {
        "amenity": "fountain",
        "drinking_water": "no",
        "source": "survey"
      }
    },
    {
      "type": "node",
      "id": 11278749468,
      "lat": 12.9770095,
      "lon": 77.5147033,
      "tags": {
        "name": "Crazy Bean Bag",
        "shop": "furniture"
      }
    },
    {
      "type": "node",
      "id": 12553537501,
      "lat": 12.9777248,
      "lon": 77.5013931,
      "tags": {
        "name": "Mansi Silk Saree Store",
        "shop": "clothes"
      }
    },
    {
      "type": "way",
      "id": 192051391,
      "center": {
        "lat": 12.9787896,
        "lon": 77.5111454
      },
      "tags": {
        "amenity": "school",
        "name": "KLE School"
      }
    },
    {
      "type": "way",
      "id": 192051395,
      "center": {
        "lat": 12.9787203,
        "lon": 77.5113743
      },
      "tags": {
        "leisure": "playground"
      }
    },
    {
      "type": "way",
      "id": 192051693,
      "center": {
        "lat": 12.9796599,
        "lon": 77.513564
      },
      "tags": {
        "alt_name": "Buddha Park",
        "leisure": "park",
        "name": "Buddha Shanti Kanive",
        "name:kn": "ಭುದ್ಧ ಶಾಂತಿ ಕಣಿವೆ",
        "wheelchair": "no"
      }
    },
    {
      "type": "way",
      "id": 192051695,
      "center": {
        "lat": 12.9769572,
        "lon": 77.5123
      },
      "tags": {
        "leisure": "park",
        "name": "Ramakrishna Hegde Park",
        "name:kn": "ರಾಮಕೃಷ್ಣ ಹೆಗ್ಗಡೆ ಉದ್ಯಾನವನ"
      }
    },
    {
      "type": "way",
      "id": 675682288,
      "center": {
        "lat": 12.9790992,
        "lon": 77.4983418
      },
      "tags": {
        "leisure": "park"
      }
    },
    {
      "type": "way",
      "id": 675682290,
      "center": {
        "lat": 12.9778838,
        "lon": 77.5023531
      },
      "tags": {
        "leisure": "playground"
      }
    },
    {
      "type": "way",
      "id": 675682291,
      "center": {
        "lat": 12.9776381,
        "lon": 77.5031242
      },
      "tags": {
        "leisure": "park"
      }
    },
    {
      "type": "way",
      "id": 1050578227,
      "center": {
        "lat": 12.9834643,
        "lon": 77.5099921
      },
      "tags": {
        "amenity": "college",
        "name": "Kempegowda Institute of Management Studies and Research"
      }
    },
    {
      "type": "way",
      "id": 1050578228,
      "center": {
        "lat": 12.9736685,
        "lon": 77.5091585
      },
      "tags": {
        "amenity": "clinic",
        "name": "Kanva Diagnostics"
      }
    },
    {
      "type": "way",
      "id": 1064408610,
      "center": {
        "lat": 12.9843725,
        "lon": 77.5171635
      },
      "tags": {
        "alt_name": "Sumanahalli Society",
        "amenity": "social_facility",
        "full_name": "Sumanahalli Leprosy Rehabilitation Training Centre",
        "healthcare": "rehabilitation",
        "healthcare:speciality": "leprosy",
        "name": "Sumanahalli",
        "social_facility": "nursing_home",
        "website": "https://sumanahalli.org/"
      }
    },
    {
      "type": "way",
      "id": 1123272057,
      "center": {
        "lat": 12.9862801,
        "lon": 77.5112768
      },
      "tags": {
        "amenity": "school",
        "name": "Vokkaligara School",
        "name:kn": "ಒಕ್ಕಲಿಗರ ಶಾಲೆ"
      }
    },
    {
      "type": "way",
      "id": 1207349998,
      "center": {
        "lat": 12.9795044,
        "lon": 77.50757
      },
      "tags": {
        "leisure": "park"
      }
    },
    {
      "type": "way",
      "id": 1207350011,
      "center": {
        "lat": 12.9764024,
        "lon": 77.5081935
      },
      "tags": {
        "leisure": "park"
      }
    },
    {
      "type": "way",
      "id": 1217243764,
      "center": {
        "lat": 12.9730589,
        "lon": 77.5123081
      },
      "tags": {
        "leisure": "park"
      }
    },
    {
      "type": "way",
      "id": 1217243765,
      "center": {
        "lat": 12.9755968,
        "lon": 77.5143144
      },
      "tags": {
        "amenity": "school"
      }
    },
    {
      "type": "way",
      "id": 1217243768,
      "center": {
        "lat": 12.979541,
        "lon": 77.5138122
      },
      "tags": {
        "amenity": "place_of_worship",
        "religion": "hindu"
      }
    },
    {
      "type": "way",
      "id": 1241556746,
      "center": {
        "lat": 12.9749768,
        "lon": 77.5037827
      },
      "tags": {
        "leisure": "park"
      }
    },
    {
      "type": "way",
      "id": 1353417433,
      "center": {
        "lat": 12.9885207,
        "lon": 77.5086958
      },
      "tags": {
        "amenity": "fuel"
      }
    },
    {
      "type": "way",
      "id": 1353417439,
      "center": {
        "lat": 12.9884579,
        "lon": 77.5099068
      },
      "tags": {
        "amenity": "fuel"
      }
    },
    {
      "type": "way",
      "id": 1353417448,
      "center": {
        "lat": 12.9876579,
        "lon": 77.5126638
      },
      "tags": {
        "leisure": "garden"
      }
    },
    {
      "type": "way",
      "id": 1353420066,
      "center": {
        "lat": 12.9824858,
        "lon": 77.5128127
      },
      "tags": {
        "amenity": "place_of_worship",
        "denomination": "catholic",
        "name": "St. Joseph Vaz Catholic Church",
        "religion": "christian"
      }
    },
    {
      "type": "way",
      "id": 1390079364,
      "center": {
        "lat": 12.9864958,
        "lon": 77.5092195
      },
      "tags": {
        "amenity": "college",
        "name": "RVS College of Nursing Sciences"
      }
    },
    {
      "type": "way",
      "id": 1390079380,
      "center": {
        "lat": 12.9837378,
        "lon": 77.5092114
      },
      "tags": {
        "amenity": "college",
        "name": "Vokkaligara Sangha Industrial Training Institute"
      }
    },
    {
      "type": "way",
      "id": 1390079382,
      "center": {
        "lat": 12.9832647,
        "lon": 77.5110293
      },
      "tags": {
        "leisure": "park"
      }
    },
    {
      "type": "way",
      "id": 1390079390,
      "center": {
        "lat": 12.9813946,
        "lon": 77.5165761
      },
      "tags": {
        "amenity": "social_facility",
        "name": "Sumanahalli Skill Development Center",
        "social_facility": "nursing_home",
        "website": "https://sumanahalli.org/"
      }
    },
    {
      "type": "way",
      "id": 1393102047,
      "center": {
        "lat": 12.9891179,
        "lon": 77.5046222
      },
      "tags": {
        "leisure": "pitch",
        "sport": "tennis"
      }
    },
    {
      "type": "way",
      "id": 1393102061,
      "center": {
        "lat": 12.9899715,
        "lon": 77.5067244
      },
      "tags": {
        "amenity": "college",
        "landuse": "education",
        "name": "GT College"
      }
    }
  ]
}