{
  "area_name": "Arkavathy Layout 11th Block",
  "osm_id": 12441715408,
  "osm_type": "node",
  "place_type": "neighbourhood",
  "amenity_count": 100,
  "amenities": [
    {
      "type": "node",
      "id": 412681648,
      "lat": 13.0557708,
      "lon": 77.6327504,
      "tags": {
        "amenity": "school",
        "name": "Manasa Public School",
        "name:kn": "ಮಾನಸ ಪಬ್ಲಿಕ್ ಸ್ಕೂಲ್"
      }
    },
    {
      "type": "node",
      "id": 412944390,
      "lat": 13.0604817,
      "lon": 77.6251237,
      "tags": {
        "amenity": "kindergarten",
        "name": "Srujan Play Home"
      }
    },
    {
      "type": "node",
      "id": 412944393,
      "lat": 13.0605539,
      "lon": 77.6251495,
      "tags": {
        "amenity": "dentist",
        "name": "Srujan Dental Care"
      }
    },
    {
      "type": "node",
      "id": 3426287293,
      "lat": 13.0572273,
      "lon": 77.6276673,
      "tags": {
        "addr:city": "Bangalore",
        "addr:housenumber": "Thanisandra",
        "addr:postcode": "560077",
        "addr:street": "Rachenahalli Main Road",
        "name": "Daily Fresh Bakery",
        "operator": "Daily Fresh Bakery",
        "shop": "bakery"
      }
    },
    {
      "type": "node",
      "id": 4114320889,
      "lat": 13.0649791,
      "lon": 77.631672,
      "tags": {
        "addr:housenumber": "59",
        "addr:street": "Thanisandra Main Road",
        "amenity": "childcare",
        "email": "info@orchid-tree.com",
        "name": "Orchid-tree",
        "opening_hours": "Mo-Sa 10:30-17:30",
        "phone": "08022713009",
        "website": "https://www.orchid-tree.com/"
      }
    },
    {
      "type": "node",
      "id": 4526401075,
      "lat": 13.0622572,
      "lon": 77.6267224,
      "tags": {
        "amenity": "fountain"
      }
    },
    {
      "type": "node",
      "id": 4526401076,
      "lat": 13.0622866,
      "lon": 77.6266225,
      "tags": {
        "amenity": "fountain"
      }
    },
    {
      "type": "node",
      "id": 4526401077,
      "lat": 13.0623098,
      "lon": 77.6265289,
      "tags": {
        "amenity": "fountain"
      }
    },
    {
      "type": "node",
      "id": 4526401086,
      "lat": 13.0624682,
      "lon": 77.6264511,
      "tags": {
        "amenity": "parking_entrance"
      }
    },
    {
      "type": "node",
      "id": 4540543624,
      "lat": 13.0615868,
      "lon": 77.6278008,
      "tags": {
        "name": "K.K. Department Stores",
        "shop": "yes"
      }
    },
    {
      "type": "node",
      "id": 4540543713,
      "lat": 13.0606944,
      "lon": 77.6274707,
      "tags": {
        "name": "Shree Sai Provision Stores",
        "shop": "yes"
      }
    },
    {
      "type": "node",
      "id": 4973098297,
      "lat": 13.0532862,
      "lon": 77.6313419,
      "tags": {
        "name": "Bata",
        "name:kn": "ಬಾಟಾ",
        "shop": "shoes"
      }
    },
    {
      "type": "node",
      "id": 4973098298,
      "lat": 13.054535,
      "lon": 77.6321499,
      "tags": {
        "amenity": "bank",
        "name": "Kotak Mahindra Bank"
      }
    },
    {
      "type": "node",
      "id": 4973098299,
      "lat": 13.0562529,
      "lon": 77.6330993,
      "tags": {
        "amenity": "pharmacy",
        "name": "United Pharma"
      }
    },
    {
      "type": "node",
      "id": 5295004545,
      "lat": 13.0523486,
      "lon": 77.631283,
      "tags": {
        "amenity": "place_of_worship",
        "denomination": "hindu",
        "religion": "hindu"
      }
    },
    {
      "type": "node",
      "id": 5295004546,
      "lat": 13.0553751,
      "lon": 77.6322956,
      "tags": {
        "amenity": "atm",
        "operator": "Kotak Mahindra Bank"
      }
    },
    {
      "type": "node",
      "id": 5295004547,
      "lat": 13.0557204,
      "lon": 77.632106,
      "tags": {
        "amenity": "fast_food",
        "name": "Five Star Chicken"
      }
    },
    {
      "type": "node",
      "id": 5295004548,
      "lat": 13.055866,
      "lon": 77.6326224,
      "tags": {
        "amenity": "atm",
        "operator": "HDFC Bank"
      }
    },
    {
      "type": "node",
      "id": 5295004549,
      "lat": 13.0559578,
      "lon": 77.6328463,
      "tags": {
        "amenity": "place_of_worship",
        "religion": "hindu"
      }
    },
    {
      "type": "node",
      "id": 5295004550,
      "lat": 13.0569598,
      "lon": 77.6328691,
      "tags": {
        "name": "Prestige Smart Kitchen",
        "shop": "appliance"
      }
    },
    {
      "type": "node",
      "id": 5295004551,
      "lat": 13.0575188,
      "lon": 77.6327683,
      "tags": {
        "amenity": "bank",
        "name": "State Bank of India",
        "name:kn": "ಭಾರತೀಯ ಸ್ಟೇಟ್ ಬ್ಯಾಂಕ್"
      }
    },
    {
      "type": "node",
      "id": 5295004552,
      "lat": 13.0572403,
      "lon": 77.6331293,
      "tags": {
        "amenity": "place_of_worship",
        "denomination": "shia",
        "name": "Sri Shaneeswhara Swamy Devalaya",
        "religion": "hindu"
      }
    },
    {
      "type": "node",
      "id": 5295004553,
      "lat": 13.0574022,
      "lon": 77.6331335,
      "tags": {
        "name": "Karnataka Vegetables and Fruits",
        "shop": "greengrocer"
      }
    },
    {
      "type": "node",
      "id": 5295004554,
      "lat": 13.0575735,
      "lon": 77.633121,
      "tags": {
        "amenity": "bank",
        "name": "Syndicate Bank",
        "name:kn": "ಸಿಂಡಿಕೇಟ್ ಬ್ಯಾಂಕ್"
      }
    },
    {
      "type": "node",
      "id": 5295004555,
      "lat": 13.0613244,
      "lon": 77.6333591,
      "tags": {
        "name": "Spex World",
        "shop": "optician"
      }
    },
    {
      "type": "node",
      "id": 5295004556,
      "lat": 13.0618055,
      "lon": 77.6331852,
      "tags": {
        "amenity": "bank",
        "name": "Kotak Mahindra Bank",
        "name:kn": "ಕೋಟಕ್ ಮಹಿಂದ್ರ ಬ್ಯಾಂಕ್"
      }
    },
    {
      "type": "node",
      "id": 5295004557,
      "lat": 13.0624812,
      "lon": 77.6333112,
      "tags": {
        "name": "Adishwar Electro World",
        "shop": "appliance"
      }
    },
    {
      "type": "node",
      "id": 5383246721,
      "lat": 13.0537198,
      "lon": 77.6250674,
      "tags": {
        "amenity": "kindergarten",
        "name": "TLC Montessori Preschool"
      }
    },
    {
      "type": "node",
      "id": 5383249022,
      "lat": 13.0575739,
      "lon": 77.626662,
      "tags": {
        "amenity": "fast_food",
        "name": "Karthik Chicken Center"
      }
    },
    {
      "type": "node",
      "id": 5383249023,
      "lat": 13.0575345,
      "lon": 77.6268446,
      "tags": {
        "amenity": "place_of_worship"
      }
    },
    {
      "type": "node",
      "id": 5383249122,
      "lat": 13.0575219,
      "lon": 77.6269384,
      "tags": {
        "name": "Khushi Iyengars Cake Palace",
        "shop": "bakery"
      }
    },
    {
      "type": "node",
      "id": 5383249123,
      "lat": 13.0573793,
      "lon": 77.6270261,
      "tags": {
        "amenity": "restaurant",
        "name": "Mama’s"
      }
    },
    {
      "type": "node",
      "id": 5383249225,
      "lat": 13.0575904,
      "lon": 77.6265783,
      "tags": {
        "name": "Rajveer Chemical",
        "shop": "chemist"
      }
    },
    {
      "type": "node",
      "id": 5383258723,
      "lat": 13.0576195,
      "lon": 77.626464,
      "tags": {
        "amenity": "fast_food"
      }
    },
    {
      "type": "node",
      "id": 5383258724,
      "lat": 13.0576351,
      "lon": 77.626399,
      "tags": {
        "amenity": "cafe",
        "name": "Chai Point, Juice Corner"
      }
    },
    {
      "type": "node",
      "id": 5966255489,
      "lat": 13.0532004,
      "lon": 77.6313378,
      "tags": {
        "amenity": "pharmacy",
        "name": "Sri Varsha Medicals and General Store"
      }
    },
    {
      "type": "node",
      "id": 5966255490,
      "lat": 13.0533271,
      "lon": 77.6313861,
      "tags": {
        "amenity": "pharmacy",
        "name": "Ram Medicals"
      }
    },
    {
      "type": "node",
      "id": 5966255491,
      "lat": 13.055795,
      "lon": 77.6321559,
      "tags": {
        "name": "Bicycle Gallery",
        "service:bicycle:retail": "yes",
        "shop": "bicycle"
      }
    },
    {
      "type": "node",
      "id": 5966255492,
      "lat": 13.0562039,
      "lon": 77.6327875,
      "tags": {
        "name": "Nandini Parlour",
        "shop": "dairy"
      }
    },
    {
      "type": "node",
      "id": 5966255493,
      "lat": 13.0559374,
      "lon": 77.6327607,
      "tags": {
        "amenity": "fast_food",
        "cuisine": "regional",
        "name": "Hotel Sri Durga Darshini"
      }
    },
    {
      "type": "node",
      "id": 5966255494,
      "lat": 13.0584262,
      "lon": 77.6327057,
      "tags": {
        "name": "Arun Jyothi Antiques and Furniture",
        "shop": "furniture"
      }
    },
    {
      "type": "node",
      "id": 6146861985,
      "lat": 13.0536141,
      "lon": 77.6210208,
      "tags": {
        "name": "Nandini Parlour",
        "shop": "dairy"
      }
    },
    {
      "type": "node",
      "id": 6857427207,
      "lat": 13.0683038,
      "lon": 77.6279515,
      "tags": {
        "name": "M A P Farm Fresh",
        "shop": "greengrocer"
      }
    },
    {
      "type": "node",
      "id": 6857427208,
      "lat": 13.0685102,
      "lon": 77.627112,
      "tags": {
        "amenity": "atm",
        "brand": "Axis Bank"
      }
    },
    {
      "type": "node",
      "id": 6857427209,
      "lat": 13.0681288,
      "lon": 77.6287561,
      "tags": {
        "amenity": "bank",
        "atm": "yes",
        "brand": "ICICI Bank",
        "brand:wikidata": "Q1653258",
        "name": "ICICI Bank",
        "name:kn": "ಐಸಿಐಸಿಐ ಬ್ಯಾಂಕು",
        "short_name": "ICICI"
      }
    },
    {
      "type": "node",
      "id": 9527967835,
      "lat": 13.0544507,
      "lon": 77.6316369,
      "tags": {
        "amenity": "hospital",
        "name": "Shree Manyata Hospitals"
      }
    },
    {
      "type": "node",
      "id": 10731125356,
      "lat": 13.0568676,
      "lon": 77.6328814,
      "tags": {
        "amenity": "fast_food",
        "cuisine": "regional",
        "name": "Domino's"
      }
    },
    {
      "type": "node",
      "id": 10731130885,
      "lat": 13.0680752,
      "lon": 77.6290686,
      "tags": {
        "amenity": "bank",
        "atm": "yes",
        "brand": "Axis Bank",
        "brand:wikidata": "Q2003549",
        "name": "Axis Bank",
        "name:kn": "ಆಕ್ಸಿಸ್ ಬ್ಯಾಂಕ್",
        "operator": "Axis Bank"
      }
    },
    {
      "type": "node",
      "id": 10731130886,
      "lat": 13.0680413,
      "lon": 77.6292343,
      "tags": {
        "amenity": "bank",
        "atm": "yes",
        "brand": "State Bank of India",
        "brand:wikidata": "Q1340361",
        "name": "State Bank of India",
        "operator": "State Bank of India",
        "short_name": "SBI"
      }
    },
    {
      "type": "node",
      "id": 11917452858,
      "lat": 13.0564588,
      "lon": 77.6331135,
      "tags": {
        "amenity": "place_of_worship",
        "check_date": "2024-05-19",
        "religion": "hindu"
      }
    },
    {
      "type": "node",
      "id": 12201417648,
      "lat": 13.0571244,
      "lon": 77.6290066,
      "tags": {
        "amenity": "parking_entrance"
      }
    },
    {
      "type": "node",
      "id": 12201417651,
      "lat": 13.0580854,
      "lon": 77.6295686,
      "tags": {
        "amenity": "parking_entrance"
      }
    },
    {
      "type": "node",
      "id": 12201417652,
      "lat": 13.0581057,
      "lon": 77.6295362,
      "tags": {
        "amenity": "parking_entrance"
      }
    },
    {
      "type": "node",
      "id": 12217461216,
      "lat": 13.0604309,
      "lon": 77.6226838,
      "tags": {
        "access": "private",
        "amenity": "parking_entrance"
      }
    },
    {
      "type": "node",
      "id": 12217461222,
      "lat": 13.060883,
      "lon": 77.6229305,
      "tags": {
        "access": "private",
        "amenity": "parking_entrance"
      }
    },
    {
      "type": "node",
      "id": 12217466978,
      "lat": 13.061194,
      "lon": 77.6238135,
      "tags": {
        "access": "private",
        "amenity": "parking_entrance"
      }
    },
    {
      "type": "node",
      "id": 12217466982,
      "lat": 13.0612329,
      "lon": 77.6231582,
      "tags": {
        "access": "private",
        "amenity": "parking_entrance"
      }
    },
    {
      "type": "node",
      "id": 12752583724,
      "lat": 13.0615759,
      "lon": 77.6341447,
      "tags": {
        "amenity": "pub",
        "name": "Finca"
      }
    },
    {
      "type": "node",
      "id": 13043333398,
      "lat": 13.0659589,
      "lon": 77.6198754,
      "tags": {
        "amenity": "place_of_worship",
        "religion": "hindu"
      }
    },
    {
      "type": "way",
      "id": 33833510,
      "center": {
        "lat": 13.0523771,
        "lon": 77.6202284
      },
      "tags": {
        "leisure": "park"
      }
    },
    {
      "type": "way",
      "id": 33833511,
      "center": {
        "lat": 13.0530568,
        "lon": 77.6207923
      },
      "tags": {
        "leisure": "park"
      }
    },
    {
      "type": "way",
      "id": 33834079,
      "center": {
        "lat": 13.0553372,
        "lon": 77.6238674
      },
      "tags": {
        "leisure": "park"
      }
    },
    {
      "type": "way",
      "id": 33834080,
      "center": {
        "lat": 13.0546295,
        "lon": 77.6227583
      },
      "tags": {
        "leisure": "park"
      }
    },
    {
      "type": "way",
      "id": 33834081,
      "center": {
        "lat": 13.0552468,
        "lon": 77.6212394
      },
      "tags": {
        "leisure": "park",
        "name": "Manyata Park",
        "name:kn": "ಮಾನ್ಯತ ಉದ್ಯಾನವನ",
        "wheelchair": "no"
      }
    },
    {
      "type": "way",
      "id": 33834082,
      "center": {
        "lat": 13.0558174,
        "lon": 77.6202737
      },
      "tags": {
        "leisure": "park"
      }
    },
    {
      "type": "way",
      "id": 33834084,
      "center": {
        "lat": 13.053379,
        "lon": 77.620823
      },
      "tags": {
        "leisure": "park"
      }
    },
    {
      "type": "way",
      "id": 33834085,
      "center": {
        "lat": 13.0527242,
        "lon": 77.6201762
      },
      "tags": {
        "leisure": "park"
      }
    },
    {
      "type": "way",
      "id": 33836741,
      "center": {
        "lat": 13.0544806,
        "lon": 77.6240691
      },
      "tags": {
        "leisure": "park"
      }
    },
    {
      "type": "way",
      "id": 397910843,
      "center": {
        "lat": 13.056717,
        "lon": 77.62962
      },
      "tags": {
        "building": "commercial",
        "name": "Families",
        "shop": "supermarket"
      }
    },
    {
      "type": "way",
      "id": 455667147,
      "center": {
        "lat": 13.0622507,
        "lon": 77.6270851
      },
      "tags": {
        "access": "private",
        "leisure": "swimming_pool"
      }
    },
    {
      "type": "way",
      "id": 455667161,
      "center": {
        "lat": 13.0617945,
        "lon": 77.626319
      },
      "tags": {
        "access": "private",
        "leisure": "playground"
      }
    },
    {
      "type": "way",
      "id": 462152431,
      "center": {
        "lat": 13.0560399,
        "lon": 77.6289674
      },
      "tags": {
        "amenity": "school"
      }
    },
    {
      "type": "way",
      "id": 558277512,
      "center": {
        "lat": 13.056848,
        "lon": 77.629695
      },
      "tags": {
        "access": "customers",
        "amenity": "parking"
      }
    },
    {
      "type": "way",
      "id": 562232873,
      "center": {
        "lat": 13.0534381,
        "lon": 77.621307
      },
      "tags": {
        "leisure": "park"
      }
    },
    {
      "type": "way",
      "id": 772836318,
      "center": {
        "lat": 13.061442,
        "lon": 77.6321803
      },
      "tags": {
        "access": "permissive",
        "leisure": "swimming_pool"
      }
    },
    {
      "type": "way",
      "id": 772836320,
      "center": {
        "lat": 13.0607496,
        "lon": 77.6319101
      },
      "tags": {
        "leisure": "playground"
      }
    },
    {
      "type": "way",
      "id": 772836321,
      "center": {
        "lat": 13.0607179,
        "lon": 77.6320442
      },
      "tags": {
        "leisure": "pitch",
        "sport": "tennis"
      }
    },
    {
      "type": "way",
      "id": 1065053848,
      "center": {
        "lat": 13.0626691,
        "lon": 77.6331478
      },
      "tags": {
        "amenity": "community_centre",
        "name": "Crystal Palace Convention Center"
      }
    },
    {
      "type": "way",
      "id": 1065072656,
      "center": {
        "lat": 13.0529299,
        "lon": 77.6316858
      },
      "tags": {
        "amenity": "fuel",
        "check_date": "2024-10-19",
        "name": "Indian Auto Gas"
      }
    },
    {
      "type": "way",
      "id": 1138940974,
      "center": {
        "lat": 13.064321,
        "lon": 77.620289
      },
      "tags": {
        "amenity": "college",
        "name": "Ashoka Trust for Research in Ecology and Environment",
        "office": "research",
        "short_name": "ATREE",
        "website": "https://atree.org"
      }
    },
    {
      "type": "way",
      "id": 1191446943,
      "center": {
        "lat": 13.0672942,
        "lon": 77.6249481
      },
      "tags": {
        "leisure": "park"
      }
    },
    {
      "type": "way",
      "id": 1241565588,
      "center": {
        "lat": 13.0618363,
        "lon": 77.6346456
      },
      "tags": {
        "leisure": "pitch",
        "name": "BR Tennis Academy",
        "sport": "tennis"
      }
    },
    {
      "type": "way",
      "id": 1249865715,
      "center": {
        "lat": 13.0631605,
        "lon": 77.6225864
      },
      "tags": {
        "access": "private",
        "leisure": "swimming_pool"
      }
    },
    {
      "type": "way",
      "id": 1249865716,
      "center": {
        "lat": 13.0629255,
        "lon": 77.6226964
      },
      "tags": {
        "access": "private",
        "leisure": "pitch",
        "sport": "tennis"
      }
    },
    {
      "type": "way",
      "id": 1249865717,
      "center": {
        "lat": 13.0626436,
        "lon": 77.6226655
      },
      "tags": {
        "access": "private",
        "leisure": "pitch",
        "sport": "basketball"
      }
    },
    {
      "type": "way",
      "id": 1298832777,
      "center": {
        "lat": 13.0598951,
        "lon": 77.633003
      },
      "tags": {
        "amenity": "fuel",
        "check_date": "2024-05-19",
        "name": "Trugaz"
      }
    },
    {
      "type": "way",
      "id": 1302182803,
      "center": {
        "lat": 13.0604901,
        "lon": 77.6234621
      },
      "tags": {
        "access": "private",
        "leisure": "swimming_pool"
      }
    },
    {
      "type": "way",
      "id": 1302182804,
      "center": {
        "lat": 13.0602714,
        "lon": 77.6230575
      },
      "tags": {
        "access": "private",
        "leisure": "pitch",
        "sport": "basketball"
      }
    },
    {
      "type": "way",
      "id": 1302182805,
      "center": {
        "lat": 13.0602323,
        "lon": 77.6227077
      },
      "tags": {
        "access": "private",
        "leisure": "pitch",
        "sport": "tennis"
      }
    },
    {
      "type": "way",
      "id": 1302247710,
      "center": {
        "lat": 13.0585973,
        "lon": 77.6256341
      },
      "tags": {
        "amenity": "school"
      }
    },
    {
      "type": "way",
      "id": 1303901248,
      "center": {
        "lat": 13.0596686,
        "lon": 77.6220992
      },
      "tags": {
        "leisure": "sports_centre"
      }
    },
    {
      "type": "way",
      "id": 1303901249,
      "center": {
        "lat": 13.0598357,
        "lon": 77.6218374
      },
      "tags": {
        "access": "private",
        "leisure": "swimming_pool"
      }
    },
    {
      "type": "way",
      "id": 1303901252,
      "center": {
        "lat": 13.0595048,
        "lon": 77.6218829
      },
      "tags": {
        "leisure": "pitch",
        "sport": "soccer"
      }
    },
    {
      "type": "way",
      "id": 1311756238,
      "center": {
        "lat": 13.0516451,
        "lon": 77.6305706
      },
      "tags": {
        "amenity": "fuel",
        "name": "Shell Petrol Pump",
        "website": "https://www.shell.in/"
      }
    },
    {
      "type": "way",
      "id": 1344809123,
      "center": {
        "lat": 13.0570914,
        "lon": 77.6288511
      },
      "tags": {
        "access": "private",
        "leisure": "swimming_pool"
      }
    },
    {
      "type": "way",
      "id": 1344809151,
      "center": {
        "lat": 13.054082,
        "lon": 77.622332
      },
      "tags": {
        "access": "private",
        "leisure": "swimming_pool"
      }
    },
    {
      "type": "way",
      "id": 1344809154,
      "center": {
        "lat": 13.0536126,
        "lon": 77.6212376
      },
      "tags": {
        "amenity": "fountain"
      }
    },
    {
      "type": "way",
      "id": 1349707571,
      "center": {
        "lat": 13.0561317,
        "lon": 77.6324405
      },
      "tags": {
        "addr:street": "Thanisandra Main Road",
        "amenity": "fuel",
        "brand": "Bharat Petroleum",
        "brand:wikidata": "Q854826",
        "name": "Bharat Petroleum",
        "name:kn": "ಭಾರತ್ ಪೆಟ್ರೋಲಿಯಂ",
        "operator": "Bharat Petroleum"
      }
    },
    {
      "type": "way",
      "id": 1374773993,
      "center": {
        "lat": 13.0549311,
        "lon": 77.6314675
      },
      "tags": {
        "addr:city": "Bengaluru",
        "addr:district": "Karnataka",
        "addr:housenumber": "72/1",
        "addr:postcode": "560077",
        "addr:street": "Thanisandra Main Road",
        "amenity": "conference_centre",
        "building": "yes",
        "name": "CMA Royal Convention & Wedding Hall",
        "phone": "+91 97314 44222"
      }
    },
    {
      "type": "way",
      "id": 1377247093,
      "center": {
        "lat": 13.0575507,
        "lon": 77.6258009
      },
      "tags": {
        "leisure": "park"
      }
    }
  ]
}