{
  "area_name": "Army Welfhare Housing",
  "osm_id": 11871561131,
  "osm_type": "node",
  "place_type": "neighbourhood",
  "amenity_count": 48,
  "amenities": [
    {
      "type": "node",
      "id": 12284553062,
      "lat": 13.1475251,
      "lon": 77.6375739,
      "tags": {
        "amenity": "restaurant",
        "name": "BLVD Club"
      }
    },
    {
      "type": "node",
      "id": 12284553067,
      "lat": 13.1475865,
      "lon": 77.6381392,
      "tags": {
        "contact:website": "https://lesalonvirsella.com/",
        "name": "Le Salon Virsella",
        "shop": "beauty"
      }
    },
    {
      "type": "node",
      "id": 12284553068,
      "lat": 13.147642,
      "lon": 77.6382894,
      "tags": {
        "name": "Mercado",
        "opening_hours": "Mo-Su 07:00-21:00",
        "shop": "convenience"
      }
    },
    {
      "type": "way",
      "id": 364761307,
      "center": {
        "lat": 13.1604302,
        "lon": 77.6362383
      },
      "tags": {
        "amenity": "atm",
        "atm": "HDFC",
        "building": "yes"
      }
    },
    {
      "type": "way",
      "id": 365034392,
      "center": {
        "lat": 13.1616871,
        "lon": 77.6359344
      },
      "tags": {
        "amenity": "college"
      }
    },
    {
      "type": "way",
      "id": 365034395,
      "center": {
        "lat": 13.1626712,
        "lon": 77.6359236
      },
      "tags": {
        "leisure": "playground"
      }
    },
    {
      "type": "way",
      "id": 365034401,
      "center": {
        "lat": 13.1598841,
        "lon": 77.6358885
      },
      "tags": {
        "addr:place": "Vidyanagar",
        "addr:street": "Off NH7 Airport Road",
        "amenity": "college",
        "barrier": "wall",
        "height": "2.5",
        "name": "Sri Venkateshwara College of Engineering - SVCE",
        "website": "http://svcengg.com"
      }
    },
    {
      "type": "way",
      "id": 367415792,
      "center": {
        "lat": 13.160087,
        "lon": 77.6365282
      },
      "tags": {
        "amenity": "theatre",
        "name": "College Amphitheatre",
        "theatre:type": "amphi"
      }
    },
    {
      "type": "way",
      "id": 490473838,
      "center": {
        "lat": 13.160171,
        "lon": 77.6365278
      },
      "tags": {
        "amenity": "stage",
        "name": "College Stage"
      }
    },
    {
      "type": "way",
      "id": 490481303,
      "center": {
        "lat": 13.1595416,
        "lon": 77.6365596
      },
      "tags": {
        "amenity": "cafe",
        "building:part": "yes",
        "name": "College Cafeteria"
      }
    },
    {
      "type": "way",
      "id": 726151315,
      "center": {
        "lat": 13.1598495,
        "lon": 77.6323472
      },
      "tags": {
        "amenity": "college",
        "name": "Venketeshwara College of Engg"
      }
    },
    {
      "type": "way",
      "id": 976967553,
      "center": {
        "lat": 13.1586731,
        "lon": 77.6426057
      },
      "tags": {
        "leisure": "swimming_pool"
      }
    },
    {
      "type": "way",
      "id": 976967587,
      "center": {
        "lat": 13.1606081,
        "lon": 77.6421455
      },
      "tags": {
        "leisure": "playground",
        "sport": "athletics"
      }
    },
    {
      "type": "way",
      "id": 976967603,
      "center": {
        "lat": 13.1595566,
        "lon": 77.6445719
      },
      "tags": {
        "leisure": "playground",
        "sport": "athletics"
      }
    },
    {
      "type": "way",
      "id": 976967604,
      "center": {
        "lat": 13.1608403,
        "lon": 77.6417971
      },
      "tags": {
        "leisure": "pitch",
        "sport": "basketball"
      }
    },
    {
      "type": "way",
      "id": 976967605,
      "center": {
        "lat": 13.1611863,
        "lon": 77.6419178
      },
      "tags": {
        "leisure": "pitch",
        "sport": "basketball"
      }
    },
    {
      "type": "way",
      "id": 976967606,
      "center": {
        "lat": 13.1604867,
        "lon": 77.6430074
      },
      "tags": {
        "leisure": "playground",
        "sport": "soccer"
      }
    },
    {
      "type": "way",
      "id": 1065504460,
      "center": {
        "lat": 13.1489508,
        "lon": 77.6370494
      },
      "tags": {
        "access": "private",
        "leisure": "pitch",
        "sport": "soccer",
        "surface": "rubber"
      }
    },
    {
      "type": "way",
      "id": 1065504461,
      "center": {
        "lat": 13.1489857,
        "lon": 77.6368643
      },
      "tags": {
        "access": "private",
        "leisure": "pitch",
        "sport": "basketball",
        "surface": "rubber"
      }
    },
    {
      "type": "way",
      "id": 1065504462,
      "center": {
        "lat": 13.1489578,
        "lon": 77.6367147
      },
      "tags": {
        "access": "private",
        "leisure": "pitch",
        "sport": "tennis",
        "surface": "rubber"
      }
    },
    {
      "type": "way",
      "id": 1065504463,
      "center": {
        "lat": 13.1478497,
        "lon": 77.638256
      },
      "tags": {
        "leisure": "pitch",
        "lit": "yes",
        "sport": "tennis",
        "surface": "clay"
      }
    },
    {
      "type": "way",
      "id": 1065504464,
      "center": {
        "lat": 13.1477902,
        "lon": 77.6381176
      },
      "tags": {
        "leisure": "pitch",
        "lit": "yes",
        "sport": "tennis",
        "surface": "rubber"
      }
    },
    {
      "type": "way",
      "id": 1065504522,
      "center": {
        "lat": 13.1588383,
        "lon": 77.6432214
      },
      "tags": {
        "amenity": "school",
        "name": "Sri Jayaprakash Narayan National Youth Training Center",
        "name:etymology:wikidata": "Q734509"
      }
    },
    {
      "type": "way",
      "id": 1239827449,
      "center": {
        "lat": 13.1497008,
        "lon": 77.6420874
      },
      "tags": {
        "leisure": "park"
      }
    },
    {
      "type": "way",
      "id": 1239827450,
      "center": {
        "lat": 13.1491318,
        "lon": 77.6420046
      },
      "tags": {
        "leisure": "park"
      }
    },
    {
      "type": "way",
      "id": 1239827451,
      "center": {
        "lat": 13.1491139,
        "lon": 77.6418762
      },
      "tags": {
        "leisure": "pitch",
        "sport": "basketball"
      }
    },
    {
      "type": "way",
      "id": 1239827453,
      "center": {
        "lat": 13.1488033,
        "lon": 77.6422574
      },
      "tags": {
        "access": "private",
        "leisure": "pitch",
        "sport": "tennis"
      }
    },
    {
      "type": "way",
      "id": 1239827454,
      "center": {
        "lat": 13.1487796,
        "lon": 77.6419244
      },
      "tags": {
        "access": "private",
        "leisure": "swimming_pool"
      }
    },
    {
      "type": "way",
      "id": 1239827456,
      "center": {
        "lat": 13.1487292,
        "lon": 77.6418654
      },
      "tags": {
        "leisure": "park"
      }
    },
    {
      "type": "way",
      "id": 1239827469,
      "center": {
        "lat": 13.1460139,
        "lon": 77.6378123
      },
      "tags": {
        "leisure": "park"
      }
    },
    {
      "type": "way",
      "id": 1242565623,
      "center": {
        "lat": 13.149966,
        "lon": 77.6404908
      },
      "tags": {
        "leisure": "park"
      }
    },
    {
      "type": "way",
      "id": 1242565630,
      "center": {
        "lat": 13.1487507,
        "lon": 77.6402978
      },
      "tags": {
        "leisure": "park"
      }
    },
    {
      "type": "way",
      "id": 1242565824,
      "center": {
        "lat": 13.1539554,
        "lon": 77.6372099
      },
      "tags": {
        "leisure": "park"
      }
    },
    {
      "type": "way",
      "id": 1242565825,
      "center": {
        "lat": 13.1543584,
        "lon": 77.6366358
      },
      "tags": {
        "leisure": "park"
      }
    },
    {
      "type": "way",
      "id": 1242565870,
      "center": {
        "lat": 13.1550366,
        "lon": 77.6398467
      },
      "tags": {
        "amenity": "community_centre",
        "name": "Vasant Vihar Community Center"
      }
    },
    {
      "type": "way",
      "id": 1242565872,
      "center": {
        "lat": 13.1594019,
        "lon": 77.6391021
      },
      "tags": {
        "leisure": "park"
      }
    },
    {
      "type": "way",
      "id": 1242565874,
      "center": {
        "lat": 13.1585575,
        "lon": 77.6386227
      },
      "tags": {
        "amenity": "school",
        "name": "Katherine Public School"
      }
    },
    {
      "type": "way",
      "id": 1242565878,
      "center": {
        "lat": 13.1593581,
        "lon": 77.6388989
      },
      "tags": {
        "amenity": "social_facility",
        "name": "Katherine Nivas",
        "social_facility": "assisted_living",
        "social_facility:for": "senior"
      }
    },
    {
      "type": "way",
      "id": 1242565938,
      "center": {
        "lat": 13.1560157,
        "lon": 77.6382553
      },
      "tags": {
        "leisure": "park"
      }
    },
    {
      "type": "way",
      "id": 1272011990,
      "center": {
        "lat": 13.1489751,
        "lon": 77.6364759
      },
      "tags": {
        "access": "private",
        "leisure": "playground"
      }
    },
    {
      "type": "way",
      "id": 1272011995,
      "center": {
        "lat": 13.1473744,
        "lon": 77.6375615
      },
      "tags": {
        "leisure": "swimming_pool"
      }
    },
    {
      "type": "way",
      "id": 1278762460,
      "center": {
        "lat": 13.1606183,
        "lon": 77.6357571
      },
      "tags": {
        "access": "permissive",
        "amenity": "parking",
        "parking": "surface"
      }
    },
    {
      "type": "way",
      "id": 1278762467,
      "center": {
        "lat": 13.1551054,
        "lon": 77.6398947
      },
      "tags": {
        "access": "private",
        "leisure": "swimming_pool"
      }
    },
    {
      "type": "way",
      "id": 1327756485,
      "center": {
        "lat": 13.147738,
        "lon": 77.6379922
      },
      "tags": {
        "amenity": "parking",
        "parking": "street_side"
      }
    },
    {
      "type": "way",
      "id": 1341463704,
      "center": {
        "lat": 13.146763,
        "lon": 77.6441299
      },
      "tags": {
        "amenity": "school"
      }
    },
    {
      "type": "way",
      "id": 1341463745,
      "center": {
        "lat": 13.1508556,
        "lon": 77.6392405
      },
      "tags": {
        "access": "private",
        "amenity": "parking",
        "parking": "surface"
      }
    },
    {
      "type": "way",
      "id": 1341868009,
      "center": {
        "lat": 13.1516498,
        "lon": 77.6405374
      },
      "tags": {
        "amenity": "parking",
        "parking": "street_side"
      }
    },
    {
      "type": "way",
      "id": 1341868010,
      "center": {
        "lat": 13.1488528,
        "lon": 77.6398574
      },
      "tags": {
        "amenity": "parking",
        "parking": "street_side"
      }
    }
  ]
}