{
  "area_name": "Ashokapuram",
  "osm_id": 10795162705,
  "osm_type": "node",
  "place_type": "neighbourhood",
  "amenity_count": 460,
  "amenities": [
    {
      "type": "node",
      "id": 863827219,
      "lat": 13.0097345,
      "lon": 77.5515655,
      "tags": {
        "amenity": "parking",
        "fee": "yes",
        "parking": "multi-storey"
      }
    },
    {
      "type": "node",
      "id": 1026441558,
      "lat": 13.0120006,
      "lon": 77.5444168,
      "tags": {
        "leisure": "swimming_pool",
        "name": "MahaLakshmi Layout CorporationSwimming Pool",
        "name:kn": "ಮಹಾಲಕ್ಷ್ಮೀ ಲೇಔಟ್ ಕಾರ್ಪೋರೇಷನ್ ಈಜುಕೋಳ",
        "sport": "swimming"
      }
    },
    {
      "type": "node",
      "id": 1467501637,
      "lat": 13.0121864,
      "lon": 77.5448893,
      "tags": {
        "brand": "HOPCOMS",
        "brand:wikidata": "Q22908959",
        "name": "HOPCOMS",
        "name:kn": "ಹಾಪ್ ಕಾಮ್ಸ್",
        "shop": "greengrocer"
      }
    },
    {
      "type": "node",
      "id": 1470577395,
      "lat": 13.0061057,
      "lon": 77.548344,
      "tags": {
        "amenity": "place_of_worship",
        "name": "Ganesha Temple",
        "name:kn": "ಗಣೇಶ ದೇವಸ್ಥಾನ",
        "religion": "hindu",
        "wheelchair": "no"
      }
    },
    {
      "type": "node",
      "id": 1470577411,
      "lat": 13.0076084,
      "lon": 77.5484003,
      "tags": {
        "amenity": "atm",
        "brand": "Corporation Bank",
        "brand:wikidata": "Q2003387",
        "name": "Corporation Bank",
        "operator": "Corporation Bank",
        "operator:wikidata": "Q2003387"
      }
    },
    {
      "type": "node",
      "id": 1470577413,
      "lat": 13.0075692,
      "lon": 77.5484459,
      "tags": {
        "amenity": "atm",
        "brand": "HDFC Bank",
        "brand:wikidata": "Q631047",
        "name": "HDFC Bank",
        "name:kn": "ಎಚ್ ಡಿ ಎಫ್ ಸಿ",
        "operator": "HDFC Bank",
        "operator:wikidata": "Q631047",
        "short_name": "HDFC"
      }
    },
    {
      "type": "node",
      "id": 1470577428,
      "lat": 13.0062102,
      "lon": 77.5484379,
      "tags": {
        "amenity": "atm",
        "fee": "SBI ATM"
      }
    },
    {
      "type": "node",
      "id": 1471737562,
      "lat": 13.0078494,
      "lon": 77.5473216,
      "tags": {
        "amenity": "pharmacy",
        "name": "Balaji Medical Store",
        "wheelchair": "no"
      }
    },
    {
      "type": "node",
      "id": 1471737564,
      "lat": 13.0079383,
      "lon": 77.5469059,
      "tags": {
        "amenity": "hospital",
        "name": "Suprabha Hospital",
        "wheelchair": "yes"
      }
    },
    {
      "type": "node",
      "id": 1471738633,
      "lat": 13.0080794,
      "lon": 77.5469863,
      "tags": {
        "amenity": "cafe",
        "name": "Mahalakshmi Refreshments"
      }
    },
    {
      "type": "node",
      "id": 1471738634,
      "lat": 13.0082414,
      "lon": 77.5468871,
      "tags": {
        "amenity": "pharmacy",
        "name": "Sri Dhanvantri Ayurved Bhandara"
      }
    },
    {
      "type": "node",
      "id": 1471738635,
      "lat": 13.0083564,
      "lon": 77.5469273,
      "tags": {
        "amenity": "hospital",
        "name": "Sangolli Nursing Home"
      }
    },
    {
      "type": "node",
      "id": 1471739089,
      "lat": 13.0085603,
      "lon": 77.5433815,
      "tags": {
        "brand": "Reliance Fresh",
        "brand:wikidata": "Q7311014",
        "name": "Reliance Fresh",
        "name:kn": "ರಿಲಾಯನ್ಸ್ ಫ್ರೆಶ್",
        "shop": "supermarket",
        "wheelchair": "no"
      }
    },
    {
      "type": "node",
      "id": 1471739653,
      "lat": 13.0087092,
      "lon": 77.5433895,
      "tags": {
        "amenity": "bank",
        "brand": "Corporation Bank",
        "brand:wikidata": "Q2003387",
        "brand:wikipedia": "en:Corporation Bank",
        "name": "Corporation Bank",
        "name:en": "Corporation Bank",
        "name:kn": "ಕಾರ್ಪರೇಷನ್ ಬ್ಯಾಂಕ್",
        "website": "https://corpbank.com/",
        "wheelchair": "no"
      }
    },
    {
      "type": "node",
      "id": 1471776615,
      "lat": 13.0086735,
      "lon": 77.5428733,
      "tags": {
        "amenity": "place_of_worship",
        "name": "Panchamukhi Ganesha Temple",
        "name:kn": "ಪಂಚಮುಖಿ ಗಣೇಶ ದೇವಸ್ಥಾನ",
        "religion": "hindu"
      }
    },
    {
      "type": "node",
      "id": 1471776616,
      "lat": 13.0085716,
      "lon": 77.5426802,
      "tags": {
        "amenity": "place_of_worship",
        "name": "Sri Dharmasastha Ayappa Temple",
        "name:kn": "ಅಯ್ಯಪ್ಪ ದೇವಸ್ಥಾನ",
        "religion": "hindu"
      }
    },
    {
      "type": "node",
      "id": 1472178430,
      "lat": 13.0096385,
      "lon": 77.5486843,
      "tags": {
        "name": "Abaran Jewellers",
        "shop": "jewelry"
      }
    },
    {
      "type": "node",
      "id": 1472808787,
      "lat": 13.0092391,
      "lon": 77.5478152,
      "tags": {
        "amenity": "school",
        "name": "Little Lilly's English School"
      }
    },
    {
      "type": "node",
      "id": 1580632674,
      "lat": 13.0225825,
      "lon": 77.551512,
      "tags": {
        "amenity": "toilets",
        "fee": "yes",
        "wheelchair": "no"
      }
    },
    {
      "type": "node",
      "id": 2011784504,
      "lat": 13.0094405,
      "lon": 77.5467085,
      "tags": {
        "leisure": "common",
        "name": "GA Res"
      }
    },
    {
      "type": "node",
      "id": 2027760054,
      "lat": 13.0237386,
      "lon": 77.5481786,
      "tags": {
        "amenity": "bank",
        "atm": "yes",
        "brand": "State Bank of India",
        "brand:wikidata": "Q1340361",
        "brand:wikipedia": "en:State Bank of India",
        "name": "State Bank of India",
        "name:kn": "ಭಾರತೀಯ ಸ್ಟೇಟ್ ಬ್ಯಾಂಕ್",
        "short_name": "SBI",
        "website": "https://www.sbi.co.in"
      }
    },
    {
      "type": "node",
      "id": 2083025578,
      "lat": 13.007947,
      "lon": 77.5428561,
      "tags": {
        "name": "Nilgiris",
        "name:kn": "ನೀಲ್ಗಿರೀಸ್",
        "shop": "supermarket"
      }
    },
    {
      "type": "node",
      "id": 2090807102,
      "lat": 13.0106887,
      "lon": 77.546525,
      "tags": {
        "amenity": "post_office",
        "name": "Mahalakshmi Layout Post Office",
        "operator": "India Post",
        "operator:wikidata": "Q3519720"
      }
    },
    {
      "type": "node",
      "id": 2098527087,
      "lat": 13.0116018,
      "lon": 77.5553246,
      "tags": {
        "addr:city": "Bangalore",
        "addr:street": "Dr. Rajkumar Road",
        "amenity": "restaurant",
        "brand": "Nando's",
        "brand:wikidata": "Q3472954",
        "cuisine": "chicken;portuguese",
        "indoor_seating": "yes",
        "name": "Nando's",
        "outdoor_seating": "yes"
      }
    },
    {
      "type": "node",
      "id": 2098527091,
      "lat": 13.011218,
      "lon": 77.5554078,
      "tags": {
        "addr:city": "Bangalore",
        "addr:housename": "Upper Ground Floow, Orion Mall",
        "addr:housenumber": "UG16",
        "addr:street": "Dr. Rajkumar Road",
        "amenity": "restaurant",
        "cuisine": "italian",
        "indoor_seating": "yes",
        "name": "Toscano",
        "outdoor_seating": "yes"
      }
    },
    {
      "type": "node",
      "id": 2098527092,
      "lat": 13.0107099,
      "lon": 77.5554114,
      "tags": {
        "addr:city": "Bangalore",
        "addr:housename": "Upper Gground Floor, Orion Mall",
        "addr:housenumber": "UG24",
        "addr:street": "Dr. Rajkumar Road",
        "amenity": "restaurant",
        "cuisine": "chinese",
        "name": "Mainland China"
      }
    },
    {
      "type": "node",
      "id": 2107201486,
      "lat": 13.0100348,
      "lon": 77.5552257,
      "tags": {
        "access": "yes",
        "amenity": "parking_entrance",
        "fee": "yes",
        "parking": "underground"
      }
    },
    {
      "type": "node",
      "id": 2107201494,
      "lat": 13.0109319,
      "lon": 77.555398,
      "tags": {
        "alt_name": "Kentucky Fried Chicken",
        "alt_name:en": "Kentucky Fried Chicken",
        "alt_name:hi": "केंटुकी फ्राइड चिकन",
        "alt_name:pa": "ਕੈਂਟੁਕੀ ਫ੍ਰਾਈਡ ਚਿਕਨ",
        "alt_name:pnb": "کینٹکی فرائیڈ چکن",
        "alt_name:ur": "کینٹکی فرائیڈ چکن",
        "amenity": "fast_food",
        "brand": "KFC",
        "brand:en": "KFC",
        "brand:hi": "केएफसी",
        "brand:pa": "ਕੇਐਫਸੀ",
        "brand:pnb": "کے ایف سی",
        "brand:ur": "کے ایف سی",
        "brand:wikidata": "Q524757",
        "brand:wikipedia": "en:KFC",
        "brand:wikipedia:pa": "ਕੇਐਫਸੀ",
        "brand:wikipedia:ur": "کینٹکی فرائیڈ چکن",
        "cuisine": "chicken",
        "indoor_seating": "yes",
        "name": "KFC",
        "name:en": "KFC",
        "name:hi": "केएफसी",
        "name:kn": "ಕೆಎಫ್‍ಸಿ",
        "name:pa": "ਕੇਐਫਸੀ",
        "name:pnb": "کے ایف سی",
        "name:ur": "کے ایف سی",
        "outdoor_seating": "no",
        "takeaway": "yes"
      }
    },
    {
      "type": "node",
      "id": 2489009764,
      "lat": 13.0103379,
      "lon": 77.5549593,
      "tags": {
        "addr:city": "Bangalore",
        "addr:housename": "Orion Mall",
        "addr:street": "Dr. Rajkumar Road",
        "name": "RMKV Silks",
        "shop": "clothes"
      }
    },
    {
      "type": "node",
      "id": 2489009765,
      "lat": 13.0101708,
      "lon": 77.5548457,
      "tags": {
        "addr:city": "Bangalore",
        "addr:housename": "Orion Mall",
        "addr:housenumber": "G08, G09",
        "addr:street": "Dr. Rajkumar Road",
        "name": "Debenhams",
        "shop": "hifi"
      }
    },
    {
      "type": "node",
      "id": 2489009766,
      "lat": 13.0101633,
      "lon": 77.5550943,
      "tags": {
        "addr:city": "Bangalore",
        "addr:housename": "Orion Mall",
        "addr:housenumber": "G07",
        "addr:street": "Dr. Rajkumar Road",
        "name": "Debenhams Cosmetic",
        "shop": "cosmetics"
      }
    },
    {
      "type": "node",
      "id": 2489009767,
      "lat": 13.0101713,
      "lon": 77.5549686,
      "tags": {
        "addr:city": "Bangalore",
        "addr:housename": "ground Floor, Orion Mall",
        "addr:housenumber": "G28",
        "addr:street": "Dr. Rajkumar Road",
        "name": "Landmark",
        "shop": "convenience"
      }
    },
    {
      "type": "node",
      "id": 2489009768,
      "lat": 13.011798,
      "lon": 77.5551394,
      "tags": {
        "addr:city": "Bangalore",
        "addr:housename": "Ground Floor, Orion Mall",
        "addr:housenumber": "G27",
        "addr:street": "Dr. Rajkumar Road",
        "shop": "clothes"
      }
    },
    {
      "type": "node",
      "id": 2489009771,
      "lat": 13.010998,
      "lon": 77.5553637,
      "tags": {
        "addr:city": "Bangalore",
        "addr:housename": "Ground Floor, Orion Mall",
        "addr:housenumber": "G29",
        "addr:street": "Dr. Rajkumar Road",
        "brand": "Reebok",
        "brand:wikidata": "Q466183",
        "name": "Reebok",
        "name:kn": "ರೀಬಾಕ್",
        "shop": "clothes"
      }
    },
    {
      "type": "node",
      "id": 2489009772,
      "lat": 13.0109007,
      "lon": 77.5548788,
      "tags": {
        "addr:city": "Bangalore",
        "addr:housename": "Ground Floor, Orion Mall",
        "addr:housenumber": "G30",
        "addr:street": "Dr. Rajkumar Road",
        "name": "Espirit",
        "shop": "watch"
      }
    },
    {
      "type": "node",
      "id": 2489009775,
      "lat": 13.0108303,
      "lon": 77.5549373,
      "tags": {
        "addr:city": "Bangalore",
        "addr:housename": "Ground Floor, Orion Mall",
        "addr:housenumber": "G37A",
        "addr:street": "Dr. Rajkumar Road",
        "name": "Ethos",
        "shop": "watch"
      }
    },
    {
      "type": "node",
      "id": 2489009776,
      "lat": 13.0107847,
      "lon": 77.5548782,
      "tags": {
        "addr:city": "Bangalore",
        "addr:housename": "Ground Floor, Orion Mall",
        "addr:housenumber": "G02",
        "addr:street": "Dr. Rajkumar Road",
        "brand": "Tommy Hilfiger",
        "brand:wikidata": "Q634881",
        "brand:wikipedia": "en:Tommy Hilfiger (company)",
        "name": "Tommy Hilfiger",
        "shop": "clothes"
      }
    },
    {
      "type": "node",
      "id": 2489009777,
      "lat": 13.0107206,
      "lon": 77.5549405,
      "tags": {
        "addr:city": "Bangalore",
        "addr:housename": "Ground Floor, Orion Mall",
        "addr:housenumber": "G03, G04",
        "addr:street": "Dr. Rajkumar Road",
        "name": "Wills Lifestyle",
        "shop": "clothes"
      }
    },
    {
      "type": "node",
      "id": 2489009778,
      "lat": 13.0106746,
      "lon": 77.5548767,
      "tags": {
        "addr:city": "Bangalore",
        "addr:housename": "Ground Floor, Orion Mall",
        "addr:housenumber": "G05",
        "addr:street": "Dr. Rajkumar Road",
        "name": "Elle",
        "shop": "cosmetics"
      }
    },
    {
      "type": "node",
      "id": 2489009779,
      "lat": 13.0103911,
      "lon": 77.5548848,
      "tags": {
        "addr:city": "Bangalore",
        "addr:housename": "Ground Floor, Orion Mall",
        "addr:housenumber": "G06",
        "addr:street": "Dr. Rajkumar Road",
        "name": "Swarovski",
        "shop": "hifi"
      }
    },
    {
      "type": "node",
      "id": 2489009780,
      "lat": 13.0105296,
      "lon": 77.5548792,
      "tags": {
        "addr:city": "Bangalore",
        "addr:housename": "Ground Floor, Orion Mall",
        "addr:housenumber": "G10",
        "addr:street": "Dr. Rajkumar Road",
        "name": "Nautica",
        "shop": "hifi"
      }
    },
    {
      "type": "node",
      "id": 2489009781,
      "lat": 13.0104749,
      "lon": 77.5548867,
      "tags": {
        "addr:city": "Bangalore",
        "addr:housename": "Ground Floor, Orion Mall",
        "addr:housenumber": "G10A",
        "addr:street": "Dr. Rajkumar Road",
        "brand": "Samsonite",
        "brand:wikidata": "Q1203426",
        "name": "Samsonite",
        "shop": "bag"
      }
    },
    {
      "type": "node",
      "id": 2489009782,
      "lat": 13.0102981,
      "lon": 77.5548904,
      "tags": {
        "addr:city": "Bangalore",
        "addr:housename": "Ground Floor, Orion Mall",
        "addr:housenumber": "G11",
        "addr:street": "Dr. Rajkumar Road",
        "name": "Chemistry",
        "shop": "clothes"
      }
    },
    {
      "type": "node",
      "id": 2489009783,
      "lat": 13.0100944,
      "lon": 77.5549108,
      "tags": {
        "addr:city": "Bangalore",
        "addr:housename": "Ground Floor, Orion Mall",
        "addr:housenumber": "G12",
        "addr:street": "Dr. Rajkumar Road",
        "brand": "Levi's",
        "brand:wikidata": "Q127962",
        "brand:wikipedia": "en:Levi Strauss & Co.",
        "clothes": "denim;men;women",
        "name": "Levi's",
        "shop": "clothes"
      }
    },
    {
      "type": "node",
      "id": 2489009784,
      "lat": 13.0102817,
      "lon": 77.5549652,
      "tags": {
        "addr:city": "Bangalore",
        "addr:housename": "Ground Floor, Orion Mall",
        "addr:housenumber": "G13",
        "addr:street": "Dr. Rajkumar Road",
        "brand": "United Colors of Benetton",
        "brand:wikidata": "Q817139",
        "name": "United Colors of Benetton",
        "shop": "clothes",
        "short_name": "Benetton"
      }
    },
    {
      "type": "node",
      "id": 2489017279,
      "lat": 13.0104166,
      "lon": 77.5549615,
      "tags": {
        "addr:city": "Bangalore",
        "addr:housename": "Ground Floor, Orion Mall",
        "addr:housenumber": "G14, G15",
        "addr:street": "Dr. Rajkumar Road",
        "brand": "Jack & Jones",
        "brand:wikidata": "Q6077665",
        "name": "Jack & Jones",
        "shop": "clothes"
      }
    },
    {
      "type": "node",
      "id": 2489017282,
      "lat": 13.0106066,
      "lon": 77.5549374,
      "tags": {
        "addr:city": "Bangalore",
        "addr:housename": "Ground Floor, Orion Mall",
        "addr:housenumber": "G19",
        "addr:street": "Dr. Rajkumar Road",
        "brand": "Mango",
        "brand:wikidata": "Q136503",
        "name": "Mango",
        "shop": "clothes"
      }
    },
    {
      "type": "node",
      "id": 2489017285,
      "lat": 13.0104539,
      "lon": 77.5553095,
      "tags": {
        "addr:city": "Bangalore",
        "addr:housename": "Ground Floor, Orion Mall",
        "addr:housenumber": "G27",
        "addr:street": "Dr. Rajkumar Road",
        "name": "Westside",
        "shop": "clothes"
      }
    },
    {
      "type": "node",
      "id": 2489017288,
      "lat": 13.010514,
      "lon": 77.5553829,
      "tags": {
        "addr:city": "Bangalore",
        "addr:housename": "Upper Ground Floow, Orion Mall",
        "addr:housenumber": "UG01",
        "addr:street": "Dr. Rajkumar Road",
        "name": "Balckberrys",
        "shop": "clothes"
      }
    },
    {
      "type": "node",
      "id": 2489017291,
      "lat": 13.0103911,
      "lon": 77.5553855,
      "tags": {
        "addr:city": "Bangalore",
        "addr:housename": "Upper Ground Floow, Orion Mall",
        "addr:housenumber": "UG02",
        "addr:street": "Dr. Rajkumar Road",
        "brand": "Bata",
        "brand:wikidata": "Q688082",
        "name": "Bata",
        "name:kn": "ಬಾಟಾ",
        "shop": "shoes"
      }
    },
    {
      "type": "node",
      "id": 2489017297,
      "lat": 13.0101195,
      "lon": 77.5554142,
      "tags": {
        "shop": "wine"
      }
    },
    {
      "type": "node",
      "id": 2489017299,
      "lat": 13.0101943,
      "lon": 77.5554198,
      "tags": {
        "addr:city": "Bangalore",
        "addr:housename": "Upper Ground Floow, Orion Mall",
        "addr:housenumber": "UG04",
        "addr:street": "Dr. Rajkumar Road",
        "name": "Fasttrack",
        "shop": "watch"
      }
    },
    {
      "type": "node",
      "id": 2489017302,
      "lat": 13.0114964,
      "lon": 77.5549008,
      "tags": {
        "addr:city": "Bangalore",
        "addr:floor": "UG",
        "addr:street": "Dr. Rajkumar Road",
        "check_date": "2023-09-10",
        "level": "1",
        "name": "Hidesign",
        "shop": "bag"
      }
    },
    {
      "type": "node",
      "id": 2489017306,
      "lat": 13.0100667,
      "lon": 77.5552757,
      "tags": {
        "addr:city": "Bangalore",
        "addr:housename": "Upper Ground Floow, Orion Mall",
        "addr:housenumber": "UG04A",
        "addr:street": "Dr. Rajkumar Road",
        "name": "Da Milano",
        "shop": "hifi"
      }
    },
    {
      "type": "node",
      "id": 2489017309,
      "lat": 13.0100968,
      "lon": 77.5551844,
      "tags": {
        "addr:city": "Bangalore",
        "addr:housename": "Upper Ground Floow, Orion Mall",
        "addr:housenumber": "UG05A",
        "addr:street": "Dr. Rajkumar Road",
        "name": "Lee",
        "shop": "clothes"
      }
    },
    {
      "type": "node",
      "id": 2489017312,
      "lat": 13.0100992,
      "lon": 77.555032,
      "tags": {
        "addr:city": "Bangalore",
        "addr:housename": "Upper Ground Floow, Orion Mall",
        "addr:housenumber": "UG06",
        "addr:street": "Dr. Rajkumar Road",
        "name": "Wrangler",
        "shop": "clothes"
      }
    },
    {
      "type": "node",
      "id": 2489017315,
      "lat": 13.0100959,
      "lon": 77.5547872,
      "tags": {
        "addr:city": "Bangalore",
        "addr:housename": "Upper Ground Floow, Orion Mall",
        "addr:housenumber": "UG07, UG08",
        "addr:street": "Dr. Rajkumar Road",
        "name": "Central",
        "shop": "clothes"
      }
    },
    {
      "type": "node",
      "id": 2489017325,
      "lat": 13.0106061,
      "lon": 77.555373,
      "tags": {
        "addr:city": "Bengaluru",
        "addr:country": "IN",
        "addr:floor": "3",
        "addr:housename": "Orion Mall",
        "addr:postcode": "560025",
        "addr:street": "Dr. Rajkumar Road",
        "air_conditioning": "yes",
        "amenity": "cinema",
        "brand": "PVR Cinemas",
        "brand:wikidata": "Q3359908",
        "check_date": "2024-11-22",
        "drive_in": "no",
        "level": "4",
        "name": "PVR Orion Mall",
        "operator": "PVR Cinemas",
        "screen": "8",
        "short_name": "PVR"
      }
    },
    {
      "type": "node",
      "id": 2489029620,
      "lat": 13.0113093,
      "lon": 77.5549151,
      "tags": {
        "addr:city": "Bangalore",
        "addr:housename": "Upper Ground Floor, Orion Mall",
        "addr:housenumber": "UG12",
        "addr:street": "Dr. Rajkumar Road",
        "brand": "U.S. Polo Assn.",
        "brand:wikidata": "Q7863282",
        "name": "U.S. Polo Assn.",
        "shop": "clothes"
      }
    },
    {
      "type": "node",
      "id": 2489029624,
      "lat": 13.0112178,
      "lon": 77.5548584,
      "tags": {
        "addr:city": "Bangalore",
        "addr:housename": "Upper Ground Floor, Orion Mall",
        "addr:housenumber": "UG13",
        "addr:street": "Dr. Rajkumar Road",
        "name": "Provogue",
        "shop": "clothes"
      }
    },
    {
      "type": "node",
      "id": 2489042424,
      "lat": 13.0112384,
      "lon": 77.5553907,
      "tags": {
        "addr:city": "Bangalore",
        "addr:housename": "Upper Gground Floor, Orion Mall",
        "addr:housenumber": "UG14",
        "addr:street": "Dr. Rajkumar Road",
        "brand": "Rockport",
        "brand:wikidata": "Q4048384",
        "name": "Rockport",
        "shop": "shoes"
      }
    },
    {
      "type": "node",
      "id": 2489042425,
      "lat": 13.0118669,
      "lon": 77.5548539,
      "tags": {
        "addr:city": "Bangalore",
        "addr:housename": "Upper Gground Floor, Orion Mall",
        "addr:housenumber": "UG17",
        "addr:street": "Dr. Rajkumar Road",
        "brand": "Samsung",
        "brand:wikidata": "Q20718",
        "name": "Samsung",
        "name:kn": "ಸ್ಯಾಮ್‌ಸಂಗ್",
        "shop": "electronics"
      }
    },
    {
      "type": "node",
      "id": 2489042426,
      "lat": 13.0116388,
      "lon": 77.5547987,
      "tags": {
        "addr:city": "Bangalore",
        "addr:housename": "Upper Gground Floor, Orion Mall",
        "addr:housenumber": "UG16",
        "addr:street": "Dr. Rajkumar Road",
        "brand": "Adidas",
        "brand:wikidata": "Q3895",
        "name": "Adidas",
        "name:kn": "ಅಡಿಡಾಸ್",
        "shop": "sports"
      }
    },
    {
      "type": "node",
      "id": 2489042427,
      "lat": 13.0118174,
      "lon": 77.5548097,
      "tags": {
        "addr:city": "Bangalore",
        "addr:housename": "Upper Gground Floor, Orion Mall",
        "addr:housenumber": "UG17",
        "addr:street": "Dr. Rajkumar Road",
        "name": "Arrrow",
        "shop": "clothes"
      }
    },
    {
      "type": "node",
      "id": 2489042428,
      "lat": 13.0117593,
      "lon": 77.5548097,
      "tags": {
        "addr:city": "Bangalore",
        "addr:housename": "Upper Gground Floor, Orion Mall",
        "addr:housenumber": "UG18",
        "addr:street": "Dr. Rajkumar Road",
        "brand": "Celio",
        "brand:wikidata": "Q2672003",
        "name": "Celio",
        "shop": "clothes"
      }
    },
    {
      "type": "node",
      "id": 2489042429,
      "lat": 13.0115721,
      "lon": 77.5547854,
      "tags": {
        "addr:city": "Bangalore",
        "addr:housename": "Upper Gground Floor, Orion Mall",
        "addr:housenumber": "UG19-UG21",
        "name": "Imagine Store",
        "shop": "electronics"
      }
    },
    {
      "type": "node",
      "id": 2489042430,
      "lat": 13.0117504,
      "lon": 77.5552004,
      "tags": {
        "addr:city": "Bangalore",
        "addr:housename": "Upper Gground Floor, Orion Mall",
        "addr:housenumber": "UG22",
        "addr:street": "Dr. Rajkumar Road",
        "name": "Zodiac",
        "shop": "clothes"
      }
    },
    {
      "type": "node",
      "id": 2489042431,
      "lat": 13.0118154,
      "lon": 77.5550156,
      "tags": {
        "addr:city": "Bangalore",
        "addr:housename": "Upper Gground Floor, Orion Mall",
        "addr:housenumber": "UG23",
        "addr:street": "Dr. Rajkumar Road",
        "name": "Louis Phillippe",
        "name:kn": "ಲೂಯಿ ಫಿಲಿಪ್",
        "shop": "clothes"
      }
    },
    {
      "type": "node",
      "id": 2489042432,
      "lat": 13.0117552,
      "lon": 77.5550805,
      "tags": {
        "addr:city": "Bangalore",
        "addr:housename": "Upper Gground Floor, Orion Mall",
        "addr:housenumber": "UG23",
        "addr:street": "Dr. Rajkumar Road",
        "name": "Van Huesen",
        "shop": "clothes"
      }
    },
    {
      "type": "node",
      "id": 2489042433,
      "lat": 13.0118346,
      "lon": 77.5553934,
      "tags": {
        "addr:city": "Bangalore",
        "addr:housename": "Upper Ground Floor, Orion Mall",
        "addr:housenumber": "UG9",
        "addr:street": "Dr. Rajkumar Road",
        "amenity": "restaurant",
        "cuisine": "japanese",
        "indoor_seating": "yes",
        "name": "You Mee",
        "operator": "Lite Bite Foods",
        "outdoor_seating": "yes",
        "reservation": "recommended"
      }
    },
    {
      "type": "node",
      "id": 2489042435,
      "lat": 13.0117279,
      "lon": 77.5553093,
      "tags": {
        "addr:city": "Bangalore",
        "addr:housename": "Upper Gground Floor, Orion Mall",
        "addr:housenumber": "UG26",
        "addr:street": "Dr. Rajkumar Road",
        "name": "Pepe",
        "shop": "clothes"
      }
    },
    {
      "type": "node",
      "id": 2489042436,
      "lat": 13.0117851,
      "lon": 77.5551919,
      "tags": {
        "addr:city": "Bangalore",
        "addr:housename": "Upper Gground Floor, Orion Mall",
        "addr:housenumber": "UG26A",
        "addr:street": "Dr. Rajkumar Road",
        "name": "World of Titan",
        "shop": "watch"
      }
    },
    {
      "type": "node",
      "id": 2489042437,
      "lat": 13.0114881,
      "lon": 77.5553553,
      "tags": {
        "addr:city": "Bangalore",
        "addr:housename": "Upper Gground Floor, Orion Mall",
        "addr:housenumber": "UG27",
        "addr:street": "Dr. Rajkumar Road",
        "amenity": "restaurant",
        "name": "Vinegar"
      }
    },
    {
      "type": "node",
      "id": 2489042438,
      "lat": 13.0114494,
      "lon": 77.555384,
      "tags": {
        "addr:city": "Bangalore",
        "addr:housename": "Upper Gground Floor, Orion Mall",
        "addr:housenumber": "UG28, UG29",
        "addr:street": "Dr. Rajkumar Road",
        "name": "Star Bazar",
        "shop": "supermarket"
      }
    },
    {
      "type": "node",
      "id": 2489042439,
      "lat": 13.0117987,
      "lon": 77.5552696,
      "tags": {
        "addr:city": "Bangalore",
        "addr:housename": "Upper Gground Floor, Orion Mall",
        "addr:housenumber": "UG30",
        "addr:street": "Dr. Rajkumar Road",
        "name": "Colorplus",
        "shop": "clothes"
      }
    },
    {
      "type": "node",
      "id": 2489042440,
      "lat": 13.0115445,
      "lon": 77.5548961,
      "tags": {
        "addr:city": "Bangalore",
        "addr:housename": "Upper Gground Floor, Orion Mall",
        "addr:housenumber": "UG31",
        "addr:street": "Dr. Rajkumar Road",
        "name": "Mochi",
        "shop": "shoes"
      }
    },
    {
      "type": "node",
      "id": 2489042441,
      "lat": 13.0115308,
      "lon": 77.5548398,
      "tags": {
        "addr:city": "Bangalore",
        "addr:housename": "Upper Gground Floor, Orion Mall",
        "addr:housenumber": "UG32",
        "addr:street": "Dr. Rajkumar Road",
        "brand": "Clarks",
        "brand:wikidata": "Q1095857",
        "name": "Clarks",
        "name:kn": "ಕ್ಲಾರ್ಕ್ಸ್",
        "shop": "shoes"
      }
    },
    {
      "type": "node",
      "id": 2489042442,
      "lat": 13.0116624,
      "lon": 77.5549201,
      "tags": {
        "addr:city": "Bangalore",
        "addr:housename": "Upper Gground Floor, Orion Mall",
        "addr:housenumber": "UG34",
        "addr:street": "Dr. Rajkumar Road",
        "name": "LP",
        "shop": "hifi"
      }
    },
    {
      "type": "node",
      "id": 2489193186,
      "lat": 13.0115542,
      "lon": 77.5554029,
      "tags": {
        "addr:city": "Bangalore",
        "addr:housename": "Upper Gground Floor, Orion Mall",
        "addr:housenumber": "UG35",
        "addr:street": "Dr. Rajkumar Road",
        "brand": "Allen Solly",
        "brand:wikidata": "Q110036995",
        "name": "Allen Solly",
        "name:kn": "ಅಲೆನ್ ಸೊಲಿ",
        "shop": "clothes"
      }
    },
    {
      "type": "node",
      "id": 2489193187,
      "lat": 13.0115083,
      "lon": 77.5553276,
      "tags": {
        "addr:city": "Bangalore",
        "addr:housename": "Upper Gground Floor, Orion Mall",
        "addr:housenumber": "UG36",
        "addr:street": "Dr. Rajkumar Road",
        "brand": "Hush Puppies",
        "brand:wikidata": "Q1828588",
        "name": "Hush Puppies",
        "shop": "shoes"
      }
    },
    {
      "type": "node",
      "id": 2489193188,
      "lat": 13.0117528,
      "lon": 77.5550085,
      "tags": {
        "addr:city": "Bangalore",
        "addr:housename": "Upper Gground Floor, Orion Mall",
        "addr:housenumber": "UG37",
        "addr:street": "Dr. Rajkumar Road",
        "name": "Bagzone",
        "shop": "bag"
      }
    },
    {
      "type": "node",
      "id": 2489193189,
      "lat": 13.0116388,
      "lon": 77.5548517,
      "tags": {
        "addr:city": "Bangalore",
        "addr:housename": "Upper Gground Floor, Orion Mall",
        "addr:housenumber": "UG38",
        "addr:street": "Dr. Rajkumar Road",
        "name": "Accessorize",
        "shop": "hifi"
      }
    },
    {
      "type": "node",
      "id": 2489193190,
      "lat": 13.0117313,
      "lon": 77.5547545,
      "tags": {
        "addr:city": "Bangalore",
        "addr:housename": "Upper Gground Floor, Orion Mall",
        "addr:housenumber": "UG38A",
        "addr:street": "Dr. Rajkumar Road",
        "name": "The Body Shop",
        "shop": "hifi"
      }
    },
    {
      "type": "node",
      "id": 3286300926,
      "lat": 13.0124022,
      "lon": 77.55478,
      "tags": {
        "amenity": "pub",
        "microbrewery": "yes",
        "name": "District 6"
      }
    },
    {
      "type": "node",
      "id": 3350489309,
      "lat": 13.0112401,
      "lon": 77.5549137,
      "tags": {
        "amenity": "fast_food",
        "brand": "McDonald's",
        "brand:pa": "ਮੈਕਡੋਨਲਡ’ਜ਼",
        "brand:ur": "مکڈونلڈز",
        "brand:wikidata": "Q38076",
        "brand:wikipedia": "en:McDonald's",
        "brand:wikipedia:pa": "ਮੈਕਡੋਨਲਡ’ਜ਼",
        "brand:wikipedia:ur": "مکڈونلڈز",
        "cuisine": "burger",
        "indoor_seating": "yes",
        "name": "McDonald's",
        "name:kn": "ಮ್ಯಾಕ್‌ಡೊನಾಲ್ಡ್ಸ್",
        "name:pa": "ਮੈਕਡੋਨਲਡ’ਜ਼",
        "name:ur": "مکڈونلڈز",
        "outdoor_seating": "no",
        "takeaway": "yes"
      }
    },
    {
      "type": "node",
      "id": 3391133323,
      "lat": 13.0161215,
      "lon": 77.5438434,
      "tags": {
        "amenity": "pharmacy",
        "name": "SLN medical and general stores",
        "name:kn": "ಎಸ್‌ಎಲ್‌ಎನ್ ಮೆಡಿಕಲ್ ಮತ್ತು ಜೆನರಲ್ ಸ್ಟೋರ್ಸ್"
      }
    },
    {
      "type": "node",
      "id": 3391134555,
      "lat": 13.0086858,
      "lon": 77.5434159,
      "tags": {
        "amenity": "atm",
        "brand": "HDFC Bank",
        "brand:wikidata": "Q631047",
        "name": "HDFC Bank",
        "name:kn": "ಎಚ್ ಡಿ ಎಫ್ ಸಿ",
        "operator": "HDFC Bank",
        "operator:wikidata": "Q631047",
        "short_name": "HDFC"
      }
    },
    {
      "type": "node",
      "id": 3391835399,
      "lat": 13.0087585,
      "lon": 77.5432729,
      "tags": {
        "amenity": "pharmacy",
        "brand": "Apollo Pharmacy",
        "brand:wikidata": "Q62562612",
        "healthcare": "pharmacy",
        "name": "Apollo Pharmacy",
        "name:kn": "ಅಪೊಲೋ ಫಾರ್ಮಸಿ"
      }
    },
    {
      "type": "node",
      "id": 3392655473,
      "lat": 13.0075627,
      "lon": 77.548131,
      "tags": {
        "name": "Sainath Enterprises",
        "shop": "stationery"
      }
    },
    {
      "type": "node",
      "id": 3639546814,
      "lat": 13.0210793,
      "lon": 77.551924,
      "tags": {
        "name": "VRL Yeshwantpur",
        "shop": "travel_agency"
      }
    },
    {
      "type": "node",
      "id": 3639546857,
      "lat": 13.0211211,
      "lon": 77.5519025,
      "tags": {
        "name": "SRS Yeshwantpur",
        "shop": "travel_agency"
      }
    },
    {
      "type": "node",
      "id": 4388957776,
      "lat": 13.0122683,
      "lon": 77.5534545,
      "tags": {
        "name": "Reliance Smart Bazaar",
        "name:kn": "ಬಿಗ್ ಬಜಾರ್",
        "shop": "supermarket"
      }
    },
    {
      "type": "node",
      "id": 4446618881,
      "lat": 13.012299,
      "lon": 77.5559803,
      "tags": {
        "addr:city": "Bangalore",
        "addr:housenumber": "26",
        "addr:postcode": "560055",
        "addr:street": "31st Floor, Dr. Rajkumar Road, World Trade Centre, Brigade Gateway Campus, Malleshwaram",
        "amenity": "restaurant",
        "cuisine": "regional",
        "name": "High Ultra Lounge",
        "opening_hours": "12:30-15:30,17:30-01:00",
        "phone": "080 45674567",
        "website": "https://highultralounge.com/"
      }
    },
    {
      "type": "node",
      "id": 4446726399,
      "lat": 13.014751,
      "lon": 77.5490654,
      "tags": {
        "addr:city": "bangalore",
        "addr:housenumber": "7",
        "addr:postcode": "560086,",
        "addr:street": "2nd stage a.g,b layout, Yeshwanthpur Industrial Suburb, Mahalakshmi Layout,",
        "amenity": "pharmacy",
        "name": "Sri Ranga Medicals",
        "phone": "+91 99020 91732"
      }
    },
    {
      "type": "node",
      "id": 4446903358,
      "lat": 13.0082692,
      "lon": 77.5441674,
      "tags": {
        "addr:city": "bangalore",
        "addr:housenumber": "27/A",
        "addr:postcode": "560086",
        "addr:street": "6th A Main, Mahalakshmi Layout, 2nd Stage",
        "amenity": "pharmacy",
        "name": "Bharath Medicals",
        "name:kn": "ಭಾರತ್ ಮೆಡಿಕಲ್ಸ್",
        "phone": "080 2359 8348"
      }
    },
    {
      "type": "node",
      "id": 4447018781,
      "lat": 13.0064642,
      "lon": 77.5488867,
      "tags": {
        "addr:city": "bangalore",
        "addr:postcode": "560010",
        "addr:street": "1st 'R' Block, Near Mahalakshmi Layout Entrance",
        "amenity": "pharmacy",
        "name": "Pathocon Diagnostics",
        "phone": "+9180 2347 6990",
        "source": "www.justdial.com",
        "website": "https://www.pathocondiagnostics.com"
      }
    },
    {
      "type": "node",
      "id": 4488038833,
      "lat": 13.0113718,
      "lon": 77.5548557,
      "tags": {
        "addr:city": "Bangalore",
        "addr:postcode": "560055",
        "addr:street": "Orion Mall, Shop No G 31, Gr Flr, Orion Mall, Rajaji Nagar Extention, Malleswaram West, Bhadrappa Layout, Rajaji Nagar",
        "branch": "sports house",
        "brand": "Nike",
        "brand:wikidata": "Q483915",
        "name": "Nike",
        "opening_hours": "10:00-21:30",
        "phone": "080 2268 2049",
        "shop": "clothes",
        "website": "https://nike.ssiplgroup.com"
      }
    },
    {
      "type": "node",
      "id": 4488052586,
      "lat": 13.0113146,
      "lon": 77.5553964,
      "tags": {
        "addr:city": "Bangalore",
        "addr:postcode": "560055",
        "addr:street": "Orion Mall, Brigade Gateway Road, Bhadrappa Layout, Subramanyanagar,2 State, Rajaji Nagar,",
        "brand": "Puma",
        "brand:wikidata": "Q157064",
        "name": "Puma",
        "opening_hours": "10:00-21:30",
        "phone": "080 2268 2049",
        "shop": "clothes"
      }
    },
    {
      "type": "node",
      "id": 4488065263,
      "lat": 13.0111809,
      "lon": 77.5553953,
      "tags": {
        "addr:city": "Bangalore",
        "addr:postcode": "560055",
        "addr:street": "Orion Mall, UG15, Upper Ground Floor, Orion Mall, Dr Rajkumar Rd, Bhadrappa Layout, Subramanyanagar,2 State, Rajaji Nagar",
        "brand": "Adidas",
        "brand:wikidata": "Q3895",
        "name": "Adidas",
        "name:kn": "ಅಡಿಡಾಸ್",
        "opening_hours": "10:00-21:30",
        "phone": "080 2268 2013",
        "shop": "sports",
        "website": "https://www.adidas.com/"
      }
    },
    {
      "type": "node",
      "id": 4585188109,
      "lat": 13.0144425,
      "lon": 77.5429328,
      "tags": {
        "amenity": "atm",
        "brand": "HDFC Bank",
        "brand:wikidata": "Q631047",
        "name": "HDFC Bank",
        "name:kn": "ಎಚ್. ಡಿ. ಎಫ್. ಸಿ..",
        "operator": "HDFC Bank",
        "operator:wikidata": "Q631047",
        "short_name": "HDFC"
      }
    },
    {
      "type": "node",
      "id": 4585188110,
      "lat": 13.0153525,
      "lon": 77.5440212,
      "tags": {
        "amenity": "atm",
        "brand": "ICICI Bank",
        "brand:wikidata": "Q1653258",
        "name": "ICICI Bank",
        "name:kn": "ಐಸಿಐಸಿಐ ಬ್ಯಾಂಕು",
        "operator": "ICICI Bank",
        "operator:wikidata": "Q1653258",
        "short_name": "ICICI"
      }
    },
    {
      "type": "node",
      "id": 4585188111,
      "lat": 13.0170171,
      "lon": 77.5434268,
      "tags": {
        "amenity": "atm",
        "brand": "Axis Bank",
        "brand:wikidata": "Q2003549",
        "name": "Axis Bank",
        "name:kn": "ಆಕ್ಸಿಸ್ ಬ್ಯಾಂಕ್ ಎಟಿಎಂ",
        "operator": "Axis Bank",
        "operator:wikidata": "Q2003549"
      }
    },
    {
      "type": "node",
      "id": 4763212134,
      "lat": 13.008043,
      "lon": 77.548444,
      "tags": {
        "amenity": "atm",
        "brand": "Canara Bank",
        "brand:en": "Canara Bank",
        "brand:hi": "केनरा बैंक",
        "brand:kn": "ಕೆನರಾ ಬ್ಯಾಂಕ್",
        "brand:pa": "ਕੇਨਰਾ ਬੈਂਕ",
        "brand:pnb": "کینرا بینک",
        "brand:ur": "کینرا بینک",
        "brand:wikidata": "Q2003777",
        "brand:wikipedia": "en:Canara Bank",
        "brand:wikipedia:pa": "ਕੇਨਰਾ ਬੈਂਕ",
        "name": "Canara Bank",
        "name:en": "Canara Bank",
        "name:hi": "केनरा बैंक",
        "name:kn": "ಕೆನರಾ ಬ್ಯಾಂಕ್",
        "name:pa": "ਕੇਨਰਾ ਬੈਂਕ",
        "name:pnb": "کینرا بینک",
        "name:ur": "کینرا بینک",
        "operator": "Canara Bank",
        "operator:wikidata": "Q2003777"
      }
    },
    {
      "type": "node",
      "id": 4973098282,
      "lat": 13.0074875,
      "lon": 77.5485022,
      "tags": {
        "amenity": "pharmacy",
        "name": "Metro Medical Center"
      }
    },
    {
      "type": "node",
      "id": 5036029172,
      "lat": 13.0114169,
      "lon": 77.5553237,
      "tags": {
        "brand": "Xiaomi",
        "brand:wikidata": "Q1636958",
        "name": "Xiaomi",
        "shop": "mobile_phone"
      }
    },
    {
      "type": "node",
      "id": 5036029173,
      "lat": 13.0115595,
      "lon": 77.5553216,
      "tags": {
        "amenity": "kids_area",
        "name": "Funky Monkeys"
      }
    },
    {
      "type": "node",
      "id": 5036145690,
      "lat": 13.0115423,
      "lon": 77.5553238,
      "tags": {
        "amenity": "restaurant",
        "cuisine": "indian",
        "name": "Rajdhani Thali"
      }
    },
    {
      "type": "node",
      "id": 5174994723,
      "lat": 13.0143834,
      "lon": 77.5537728,
      "tags": {
        "brand": "Hyundai",
        "brand:wikidata": "Q55931",
        "name": "Hyundai",
        "name:kn": "ಹ್ಯುಂಡೈ",
        "shop": "car"
      }
    },
    {
      "type": "node",
      "id": 5174994724,
      "lat": 13.0120907,
      "lon": 77.5530866,
      "tags": {
        "name": "Maruti Suzuki Nexa",
        "shop": "car"
      }
    },
    {
      "type": "node",
      "id": 5174994725,
      "lat": 13.011845,
      "lon": 77.5526061,
      "tags": {
        "amenity": "hospital",
        "healthcare": "hospital",
        "name": "NU Hospitals"
      }
    },
    {
      "type": "node",
      "id": 5174994726,
      "lat": 13.0107514,
      "lon": 77.5504102,
      "tags": {
        "name": "Cotton Zone",
        "shop": "clothes"
      }
    },
    {
      "type": "node",
      "id": 5269220022,
      "lat": 13.0066416,
      "lon": 77.5488104,
      "tags": {
        "amenity": "atm",
        "brand": "ICICI Bank",
        "brand:wikidata": "Q1653258",
        "name": "ICICI Bank",
        "operator": "ICICI Bank",
        "operator:wikidata": "Q1653258",
        "short_name": "ICICI"
      }
    },
    {
      "type": "node",
      "id": 5269220023,
      "lat": 13.0074466,
      "lon": 77.5488708,
      "tags": {
        "amenity": "atm",
        "brand": "Indian Overseas Bank",
        "brand:wikidata": "Q2003611",
        "name": "Indian Overseas Bank",
        "operator": "Indian Overseas Bank",
        "operator:wikidata": "Q2003611"
      }
    },
    {
      "type": "node",
      "id": 5269220024,
      "lat": 13.007491,
      "lon": 77.5488788,
      "tags": {
        "amenity": "atm",
        "brand": "Yes Bank",
        "brand:wikidata": "Q2040394",
        "name": "Yes Bank",
        "name:kn": "ಯಸ್ ಬ್ಯಾಂಕ್",
        "operator": "Yes Bank",
        "operator:wikidata": "Q2040394"
      }
    },
    {
      "type": "node",
      "id": 5269220025,
      "lat": 13.0081104,
      "lon": 77.5490585,
      "tags": {
        "amenity": "atm",
        "brand": "HDFC Bank",
        "brand:wikidata": "Q631047",
        "name": "HDFC Bank",
        "name:kn": "ಎಚ್ ಡಿ ಎಫ್ ಸಿ",
        "operator": "HDFC Bank",
        "operator:wikidata": "Q631047",
        "short_name": "HDFC"
      }
    },
    {
      "type": "node",
      "id": 5269220026,
      "lat": 13.0087675,
      "lon": 77.5491545,
      "tags": {
        "amenity": "atm",
        "brand": "State Bank of India",
        "brand:wikidata": "Q1340361",
        "cash_in": "no",
        "name": "State Bank of India",
        "operator": "State Bank of India",
        "operator:wikidata": "Q1340361",
        "short_name": "SBI"
      }
    },
    {
      "type": "node",
      "id": 5269220028,
      "lat": 13.0118027,
      "lon": 77.5522468,
      "tags": {
        "name": "Mahindra",
        "name:kn": "ಮಹಿಂದ್ರ",
        "shop": "motorcycle"
      }
    },
    {
      "type": "node",
      "id": 5295212532,
      "lat": 13.0101501,
      "lon": 77.549804,
      "tags": {
        "name": "Head and Heels",
        "shop": "hairdresser"
      }
    },
    {
      "type": "node",
      "id": 5295212533,
      "lat": 13.012085,
      "lon": 77.5527865,
      "tags": {
        "name": "Fashion Factory",
        "shop": "clothes"
      }
    },
    {
      "type": "node",
      "id": 5295212534,
      "lat": 13.0121353,
      "lon": 77.5528773,
      "tags": {
        "name": "Enamor",
        "shop": "fashion"
      }
    },
    {
      "type": "node",
      "id": 5295212539,
      "lat": 13.0139045,
      "lon": 77.5542446,
      "tags": {
        "craft": "tiler",
        "name": "Sree Parijatha Tiles",
        "shop": "tiles"
      }
    },
    {
      "type": "node",
      "id": 5295212540,
      "lat": 13.0158202,
      "lon": 77.5535453,
      "tags": {
        "name": "Sudarshan Automobiles",
        "shop": "car"
      }
    },
    {
      "type": "node",
      "id": 6285710086,
      "lat": 13.0231091,
      "lon": 77.5506642,
      "tags": {
        "amenity": "toilets",
        "opening_hours": "24/7"
      }
    },
    {
      "type": "node",
      "id": 6542893133,
      "lat": 13.0112702,
      "lon": 77.5556794,
      "tags": {
        "addr:city": "Bangalore",
        "addr:floor": "UG",
        "addr:housename": "Upper Ground Floor, Orion Mall",
        "addr:housenumber": "L1",
        "addr:street": "Dr. Rajkumar Road",
        "amenity": "cafe",
        "check_date": "2024-01-09",
        "contact:phone": "+91 8884457293",
        "level": "1",
        "name": "Hatti Kaapi",
        "name:kn": "ಹಟ್ಟಿ ಕಾಫಿ",
        "outdoor_seating": "yes",
        "takeaway": "yes",
        "website": "www.hattikaapi.in"
      }
    },
    {
      "type": "node",
      "id": 6542893134,
      "lat": 13.0116766,
      "lon": 77.5556861,
      "tags": {
        "addr:floor": "UG",
        "amenity": "cafe",
        "brand": "Chai Point",
        "brand:wikidata": "Q28173415",
        "check_date": "2024-01-09",
        "cuisine": "coffee_shop",
        "level": "1",
        "name": "Chai Point",
        "outdoor_seating": "yes",
        "takeaway": "yes"
      }
    },
    {
      "type": "node",
      "id": 6542893146,
      "lat": 13.0110494,
      "lon": 77.5549485,
      "tags": {
        "addr:city": "Bangalore",
        "addr:housename": "Upper Ground Floow, Orion Mall",
        "addr:housenumber": "S1",
        "addr:street": "Dr. Rajkumar Road",
        "amenity": "cafe",
        "name": "Cookie Man",
        "website": "https://cookiemanindia.com/"
      }
    },
    {
      "type": "node",
      "id": 6542893147,
      "lat": 13.0108052,
      "lon": 77.5554043,
      "tags": {
        "amenity": "restaurant",
        "cuisine": "regional",
        "name": "Bombay Brasserie"
      }
    },
    {
      "type": "node",
      "id": 6542893148,
      "lat": 13.0115956,
      "lon": 77.5553917,
      "tags": {
        "addr:city": "Bangalore",
        "addr:housename": "Upper Ground Floor, Orion Mall",
        "addr:housenumber": "UG9C",
        "addr:street": "Dr. Rajkumar Road",
        "amenity": "pub",
        "indoor_seating": "yes",
        "microbrewery": "yes",
        "name": "Geist Brewing Taproom",
        "outdoor_seating": "yes",
        "website": "https://www.geist.in/"
      }
    },
    {
      "type": "node",
      "id": 6570421948,
      "lat": 13.0152385,
      "lon": 77.5536865,
      "tags": {
        "name": "Stellar Furniture",
        "shop": "furniture"
      }
    },
    {
      "type": "node",
      "id": 6570421950,
      "lat": 13.0126349,
      "lon": 77.552346,
      "tags": {
        "name": "Nandini Swadista Loka",
        "shop": "dairy"
      }
    },
    {
      "type": "node",
      "id": 6570421951,
      "lat": 13.0128249,
      "lon": 77.5533294,
      "tags": {
        "amenity": "atm",
        "brand": "Union Bank",
        "operator": "Union Bank"
      }
    },
    {
      "type": "node",
      "id": 6570421952,
      "lat": 13.0078107,
      "lon": 77.5484819,
      "tags": {
        "amenity": "pharmacy",
        "name": "Nayan Drugs and Opticals"
      }
    },
    {
      "type": "node",
      "id": 6570421953,
      "lat": 13.0074057,
      "lon": 77.5485211,
      "tags": {
        "amenity": "fast_food",
        "cuisine": "indian",
        "name": "Brahmin's Thatte Idli"
      }
    },
    {
      "type": "node",
      "id": 6570421954,
      "lat": 13.0071032,
      "lon": 77.5484867,
      "tags": {
        "amenity": "fast_food",
        "cuisine": "indian",
        "name": "Udupi Cafe"
      }
    },
    {
      "type": "node",
      "id": 6575118684,
      "lat": 13.0109906,
      "lon": 77.5505349,
      "tags": {
        "access": "yes",
        "amenity": "toilets",
        "fee": "yes",
        "name": "eToilet",
        "toilets:disposal": "pitlatrine",
        "unisex": "yes"
      }
    },
    {
      "type": "node",
      "id": 6575119291,
      "lat": 13.0072584,
      "lon": 77.5485048,
      "tags": {
        "amenity": "fast_food",
        "name": "Ambur Hot Dum Biryani"
      }
    },
    {
      "type": "node",
      "id": 6575119292,
      "lat": 13.006981,
      "lon": 77.5484723,
      "tags": {
        "name": "Sunrise Lamps and Appliances",
        "shop": "electronics"
      }
    },
    {
      "type": "node",
      "id": 6794772633,
      "lat": 13.0068889,
      "lon": 77.5488656,
      "tags": {
        "amenity": "bank",
        "atm": "yes",
        "brand": "Axis Bank",
        "brand:wikidata": "Q2003549",
        "name": "Axis Bank",
        "name:kn": "ಆಕ್ಸಿಸ್ ಬ್ಯಾಂಕ್",
        "operator": "Axis Bank"
      }
    },
    {
      "type": "node",
      "id": 6794780737,
      "lat": 13.010724,
      "lon": 77.5502667,
      "tags": {
        "amenity": "restaurant",
        "cuisine": "regional",
        "name": "Hotel Vande Matharam"
      }
    },
    {
      "type": "node",
      "id": 6794794200,
      "lat": 13.0140978,
      "lon": 77.5542326,
      "tags": {
        "amenity": "restaurant",
        "name": "Sangam",
        "name:kn": "ಸಂಗಮ"
      }
    },
    {
      "type": "node",
      "id": 6794798811,
      "lat": 13.0122579,
      "lon": 77.5541209,
      "tags": {
        "amenity": "pub",
        "name": "Jetlag"
      }
    },
    {
      "type": "node",
      "id": 6796355254,
      "lat": 13.020812,
      "lon": 77.5540619,
      "tags": {
        "amenity": "marketplace",
        "name": "Yeshwantpur Market"
      }
    },
    {
      "type": "node",
      "id": 6807542967,
      "lat": 13.0182102,
      "lon": 77.540004,
      "tags": {
        "amenity": "hospital",
        "healthcare": "hospital",
        "name": "Lourdes High School"
      }
    },
    {
      "type": "node",
      "id": 6807544243,
      "lat": 13.01636,
      "lon": 77.5425306,
      "tags": {
        "access": "yes",
        "leisure": "playground",
        "name": "Public Playground near Ganesha temple"
      }
    },
    {
      "type": "node",
      "id": 6807551928,
      "lat": 13.016705,
      "lon": 77.539386,
      "tags": {
        "amenity": "hospital",
        "healthcare": "hospital",
        "name": "Boregowda Lingamma Hospital",
        "name:kn": "ಬೋರೆಗೌಡ ಲಿಂಗಮ್ಮ ಆಸ್ಪತ್ರೆ"
      }
    },
    {
      "type": "node",
      "id": 6807551937,
      "lat": 13.0175606,
      "lon": 77.5394308,
      "tags": {
        "amenity": "hospital",
        "healthcare": "hospital",
        "name": "Kanva Hospital"
      }
    },
    {
      "type": "node",
      "id": 6808228304,
      "lat": 13.0080788,
      "lon": 77.5489767,
      "tags": {
        "amenity": "restaurant",
        "cuisine": "chicken",
        "name": "stories"
      }
    },
    {
      "type": "node",
      "id": 6854592452,
      "lat": 13.0117937,
      "lon": 77.556311,
      "tags": {
        "amenity": "bench"
      }
    },
    {
      "type": "node",
      "id": 6854592453,
      "lat": 13.0118572,
      "lon": 77.5562106,
      "tags": {
        "amenity": "bench"
      }
    },
    {
      "type": "node",
      "id": 6854592454,
      "lat": 13.0119803,
      "lon": 77.5558307,
      "tags": {
        "amenity": "bench"
      }
    },
    {
      "type": "node",
      "id": 6854592455,
      "lat": 13.011915,
      "lon": 77.5560717,
      "tags": {
        "amenity": "bench"
      }
    },
    {
      "type": "node",
      "id": 6854592456,
      "lat": 13.0119697,
      "lon": 77.5559084,
      "tags": {
        "amenity": "bench"
      }
    },
    {
      "type": "node",
      "id": 6855409788,
      "lat": 13.0137061,
      "lon": 77.5542545,
      "tags": {
        "amenity": "bicycle_rental",
        "name": "Bounce"
      }
    },
    {
      "type": "node",
      "id": 6855409790,
      "lat": 13.0103991,
      "lon": 77.5500308,
      "tags": {
        "name": "Nandini Milk Booth",
        "name:kn": "ನಂದಿನಿ ಹಾಲಿನ ಅಂಗಡಿ",
        "shop": "dairy"
      }
    },
    {
      "type": "node",
      "id": 6855409791,
      "lat": 13.0084764,
      "lon": 77.549127,
      "tags": {
        "brand": "cult.fit",
        "brand:wikidata": "Q121289250",
        "leisure": "fitness_centre",
        "name": "cult.fit",
        "sport": "fitness;dancing;boxing"
      }
    },
    {
      "type": "node",
      "id": 6886594818,
      "lat": 13.014269,
      "lon": 77.5560924,
      "tags": {
        "addr:city": "Bengaluru",
        "addr:district": "BENGALURU URBAN",
        "addr:full": "26/4, Brigade Gateway, Beside Metro Cash and Carry, Malleshwaram",
        "addr:postcode": "560055",
        "addr:state": "Karnataka",
        "amenity": "blood_bank",
        "contact:helpline": "080 39898969; 080 61656262",
        "contact:mobile": "9972461925",
        "contact:phone": "8039898968",
        "fax": "080 30925454",
        "name": "Manipal Hospital Blood Bank",
        "opening_hours": "24/7",
        "operator:type": "private",
        "source": "OpenGovernmentData"
      }
    },
    {
      "type": "node",
      "id": 6938690629,
      "lat": 13.0089953,
      "lon": 77.5406188,
      "tags": {
        "addr:district": "Bengaluru Urban",
        "addr:full": "41-42/5 7Th Cross, Saraswathipuram, Nandini Layout, Main Road",
        "addr:postcode": "560096",
        "addr:state": "Karnataka",
        "amenity": "hospital",
        "name": "Shankara Nethralaya Eye Hospital",
        "source": "OpenGovernmentData"
      }
    },
    {
      "type": "node",
      "id": 6944437383,
      "lat": 13.0195733,
      "lon": 77.5419559,
      "tags": {
        "addr:district": "Bengaluru Urban",
        "addr:full": "# 141/142, 1st Main, Krishnandanagar, Khb Colony",
        "addr:postcode": "560096",
        "addr:state": "Karnataka",
        "addr:subdistrict": "Nandini Layout",
        "amenity": "hospital",
        "email": "info@rakshahospital.in",
        "name": "Raksha Multispeciality Hospital",
        "operator:type": "private",
        "source": "OpenGovernmentData",
        "website": "http://www.rakshahospital.in/"
      }
    },
    {
      "type": "node",
      "id": 6944449930,
      "lat": 13.0195955,
      "lon": 77.5419813,
      "tags": {
        "addr:district": "Bengaluru Urban",
        "addr:full": "18/17,Cambridge Road,Ulsoor",
        "addr:postcode": "560038",
        "addr:state": "Karnataka",
        "amenity": "hospital",
        "name": "Cambridge Hospital",
        "source": "OpenGovernmentData"
      }
    },
    {
      "type": "node",
      "id": 6947707788,
      "lat": 13.0105038,
      "lon": 77.5502452,
      "tags": {
        "addr:district": "Bengaluru Urban",
        "addr:full": "Bengaluru Urban",
        "addr:postcode": "560002",
        "addr:state": "Karnataka",
        "amenity": "hospital",
        "name": "Aaroyha Mandir Hospital",
        "source": "OpenGovernmentData"
      }
    },
    {
      "type": "node",
      "id": 7007284989,
      "lat": 13.0078775,
      "lon": 77.548578,
      "tags": {
        "name": "Nandini Milk Parlour",
        "shop": "dairy"
      }
    },
    {
      "type": "node",
      "id": 7043906785,
      "lat": 13.0082145,
      "lon": 77.5490831,
      "tags": {
        "name": "Akash Auto Consultants",
        "shop": "car"
      }
    },
    {
      "type": "node",
      "id": 7087593301,
      "lat": 13.0124802,
      "lon": 77.5525667,
      "tags": {
        "name": "Mysore Sandal Soap Factory Outlet",
        "shop": "perfumery"
      }
    },
    {
      "type": "node",
      "id": 7087593320,
      "lat": 13.0080669,
      "lon": 77.5486258,
      "tags": {
        "name": "Agriplex India",
        "shop": "agrarian"
      }
    },
    {
      "type": "node",
      "id": 7087593321,
      "lat": 13.0076115,
      "lon": 77.5485226,
      "tags": {
        "name": "Karnataka Tyres",
        "shop": "tyres"
      }
    },
    {
      "type": "node",
      "id": 7087593322,
      "lat": 13.006493,
      "lon": 77.5484629,
      "tags": {
        "name": "Hot Coffee",
        "shop": "coffee"
      }
    },
    {
      "type": "node",
      "id": 7201052039,
      "lat": 13.0076533,
      "lon": 77.5483261,
      "tags": {
        "name": "Sri Mahalakshmi Opticals",
        "shop": "optician"
      }
    },
    {
      "type": "node",
      "id": 7215549915,
      "lat": 13.0206859,
      "lon": 77.5521442,
      "tags": {
        "amenity": "fuel",
        "brand": "Hindustan Petroleum",
        "brand:wikidata": "Q1619375",
        "name": "Hindustan Petroleum",
        "name:kn": "ಹಿಂದುಸ್ತಾನ್ ಪೆಟ್ರೋಲಿಯಂ",
        "official_name": "Hindustan Petroleum",
        "operator": "Hindustan Petroleum"
      }
    },
    {
      "type": "node",
      "id": 7215549993,
      "lat": 13.0193398,
      "lon": 77.5505787,
      "tags": {
        "access": "private",
        "amenity": "parking",
        "parking": "underground"
      }
    },
    {
      "type": "node",
      "id": 7215550017,
      "lat": 13.0145277,
      "lon": 77.5537683,
      "tags": {
        "leisure": "sports_centre",
        "name": "Tactical Arenas",
        "sport": "laser_tag"
      }
    },
    {
      "type": "node",
      "id": 7215550018,
      "lat": 13.0141468,
      "lon": 77.5539313,
      "tags": {
        "amenity": "waste_basket"
      }
    },
    {
      "type": "node",
      "id": 7215550054,
      "lat": 13.0139214,
      "lon": 77.5536597,
      "tags": {
        "access": "customers",
        "amenity": "parking",
        "fee": "no",
        "parking": "surface"
      }
    },
    {
      "type": "node",
      "id": 7215550055,
      "lat": 13.0140926,
      "lon": 77.5536704,
      "tags": {
        "amenity": "motorcycle_parking",
        "covered": "no"
      }
    },
    {
      "type": "node",
      "id": 7215550060,
      "lat": 13.0099126,
      "lon": 77.5495425,
      "tags": {
        "amenity": "place_of_worship",
        "religion": "hindu"
      }
    },
    {
      "type": "node",
      "id": 7215550065,
      "lat": 13.0075364,
      "lon": 77.5485219,
      "tags": {
        "name": "Athulya Departmental",
        "shop": "supermarket"
      }
    },
    {
      "type": "node",
      "id": 7215550066,
      "lat": 13.0071365,
      "lon": 77.5484884,
      "tags": {
        "name": "Arun Shoes",
        "shop": "shoes"
      }
    },
    {
      "type": "node",
      "id": 7215550067,
      "lat": 13.0070372,
      "lon": 77.5484723,
      "tags": {
        "name": "MAS Interiors",
        "shop": "interior_decoration"
      }
    },
    {
      "type": "node",
      "id": 7291611548,
      "lat": 13.006736,
      "lon": 77.5488733,
      "tags": {
        "name": "Prestige Xclusive",
        "shop": "kitchen",
        "website": "https://www.prestigexclusive.in"
      }
    },
    {
      "type": "node",
      "id": 7291611552,
      "lat": 13.0071953,
      "lon": 77.5484944,
      "tags": {
        "shop": "mobile_phone"
      }
    },
    {
      "type": "node",
      "id": 7291611553,
      "lat": 13.0083615,
      "lon": 77.5491026,
      "tags": {
        "amenity": "clinic",
        "name": "Ista Ayurvedic"
      }
    },
    {
      "type": "node",
      "id": 7291611554,
      "lat": 13.0089548,
      "lon": 77.5491321,
      "tags": {
        "name": "Breads and Co.",
        "shop": "bakery"
      }
    },
    {
      "type": "node",
      "id": 7291611577,
      "lat": 13.0117027,
      "lon": 77.5520208,
      "tags": {
        "amenity": "cafe",
        "brand": "Cafe Coffee Day",
        "brand:wikidata": "Q5017235",
        "cuisine": "coffee_shop",
        "name": "Cafe Coffee Day",
        "name:kn": "ಕಫೆ ಕಾಫಿ ಡೇ",
        "takeaway": "yes"
      }
    },
    {
      "type": "node",
      "id": 7291611578,
      "lat": 13.0118151,
      "lon": 77.552328,
      "tags": {
        "name": "Boycott Clothing",
        "shop": "clothes"
      }
    },
    {
      "type": "node",
      "id": 7291611579,
      "lat": 13.0118399,
      "lon": 77.5523843,
      "tags": {
        "brand": "Nike Factory Store",
        "brand:wikidata": "Q483915",
        "name": "Nike Factory Store",
        "shop": "clothes"
      }
    },
    {
      "type": "node",
      "id": 7291611583,
      "lat": 13.0133197,
      "lon": 77.55441,
      "tags": {
        "amenity": "waste_basket"
      }
    },
    {
      "type": "node",
      "id": 7440128616,
      "lat": 13.0069827,
      "lon": 77.5483088,
      "tags": {
        "amenity": "cafe",
        "cuisine": "coffee_shop",
        "name": "Condiments"
      }
    },
    {
      "type": "node",
      "id": 7927991185,
      "lat": 13.0116909,
      "lon": 77.5468543,
      "tags": {
        "addr:housenumber": "9/6",
        "addr:postcode": "560086",
        "addr:street": "4th Cross Rd, Mahalakshmipuram Layout, Mahalakshmi Layout",
        "amenity": "school",
        "email": "communications.oisml@orchids.edu.in",
        "name": "Orchids The International School - Mahalakshmi Layout",
        "opening_hours": "Mo-Su 09:00-18:30",
        "operator": "Orchids International School",
        "phone": "9513731352",
        "website": "https://www.orchidsinternationalschool.com/bangalore-branches/mahalakshmi-layout/"
      }
    },
    {
      "type": "node",
      "id": 8188058140,
      "lat": 13.0102358,
      "lon": 77.5516049,
      "tags": {
        "addr:full": "ISKCON Temple, H K Hill Chord Road 1st R Block, Rajaji Nagar, Rajajinagar, Bengaluru, Karnataka",
        "addr:state": "Karnataka",
        "amenity": "restaurant",
        "name": "Annakuta Prasadam Restaurant"
      }
    },
    {
      "type": "node",
      "id": 8196808708,
      "lat": 13.0066617,
      "lon": 77.5449837,
      "tags": {
        "addr:full": "Ca site no 6(p), west of chord road, 2nd stage, Mahalakshmipuram, Bovipalya, Mahalakshmipuram, Bengaluru, Karnataka",
        "addr:state": "Karnataka",
        "amenity": "college",
        "name": "Anupama College of Management And Science"
      }
    },
    {
      "type": "node",
      "id": 8364347332,
      "lat": 13.019726,
      "lon": 77.5552398,
      "tags": {
        "amenity": "college",
        "name": "M.S.Polytechnic"
      }
    },
    {
      "type": "node",
      "id": 8364364156,
      "lat": 13.0197813,
      "lon": 77.5550402,
      "tags": {
        "name": "Classic Traders",
        "shop": "hardware"
      }
    },
    {
      "type": "node",
      "id": 8364370518,
      "lat": 13.0197892,
      "lon": 77.5551264,
      "tags": {
        "name": "United Hardware",
        "shop": "hardware"
      }
    },
    {
      "type": "node",
      "id": 8442191515,
      "lat": 13.0124577,
      "lon": 77.5536841,
      "tags": {
        "brand": "Shell Select",
        "brand:wikidata": "Q124359752",
        "name": "Shell Select",
        "shop": "convenience"
      }
    },
    {
      "type": "node",
      "id": 8442228918,
      "lat": 13.0123861,
      "lon": 77.5536456,
      "tags": {
        "access": "yes",
        "amenity": "toilets"
      }
    },
    {
      "type": "node",
      "id": 8510230820,
      "lat": 13.0083246,
      "lon": 77.5426038,
      "tags": {
        "addr:city": "Bengaluru",
        "addr:housenumber": "#36",
        "addr:postcode": "560096",
        "addr:street": "1st cross road",
        "brand": "TVS Motors",
        "name": "Global TVS",
        "opening_hours": "Mo-Su 09:00-19:00",
        "shop": "motorcycle"
      }
    },
    {
      "type": "node",
      "id": 8540417945,
      "lat": 13.0087341,
      "lon": 77.5417641,
      "tags": {
        "name": "TVS Motors Sevice Centre",
        "opening_hours": "Mo-Sa 09:00-17:00",
        "operator": "TVS Motors",
        "service:vehicle:body_repair": "yes",
        "service:vehicle:diagnostics": "yes",
        "service:vehicle:inspection": "yes",
        "service:vehicle:oil_change": "yes",
        "shop": "motorcycle_repair"
      }
    },
    {
      "type": "node",
      "id": 8887097194,
      "lat": 13.013775,
      "lon": 77.5481048,
      "tags": {
        "amenity": "restaurant",
        "cuisine": "regional",
        "delivery": "yes",
        "diet:vegan": "yes",
        "diet:vegetarian": "yes",
        "name": "The Circus Canteen",
        "takeaway": "yes"
      }
    },
    {
      "type": "node",
      "id": 9195695305,
      "lat": 13.0152595,
      "lon": 77.5487754,
      "tags": {
        "amenity": "place_of_worship",
        "religion": "hindu"
      }
    },
    {
      "type": "node",
      "id": 9197307506,
      "lat": 13.011525,
      "lon": 77.5505497,
      "tags": {
        "access": "yes",
        "amenity": "toilets",
        "operator": "BBMP"
      }
    },
    {
      "type": "node",
      "id": 9197307514,
      "lat": 13.0082858,
      "lon": 77.5490932,
      "tags": {
        "amenity": "fast_food",
        "name": "Coco Cane"
      }
    },
    {
      "type": "node",
      "id": 9197316217,
      "lat": 13.0061075,
      "lon": 77.5489651,
      "tags": {
        "name": "Prabhu Sweets",
        "shop": "confectionery"
      }
    },
    {
      "type": "node",
      "id": 9200349512,
      "lat": 13.0137953,
      "lon": 77.5485642,
      "tags": {
        "access": "permissive",
        "amenity": "toilets",
        "female": "yes",
        "male": "yes"
      }
    },
    {
      "type": "node",
      "id": 9249632334,
      "lat": 13.0198195,
      "lon": 77.5545389,
      "tags": {
        "name": "A.R.K. Fish stall",
        "shop": "butcher"
      }
    },
    {
      "type": "node",
      "id": 9667590484,
      "lat": 13.0121888,
      "lon": 77.5541385,
      "tags": {
        "name": "Mansionz",
        "shop": "wine"
      }
    },
    {
      "type": "node",
      "id": 9739870047,
      "lat": 13.0154858,
      "lon": 77.5537301,
      "tags": {
        "amenity": "bicycle_rental",
        "brand": "Yulu",
        "brand:wikidata": "Q104871276",
        "name": "Yulu",
        "network": "Yulu",
        "network:wikidata": "Q104871276",
        "note": "Rents electric miniscooters",
        "operator": "Yulu"
      }
    },
    {
      "type": "node",
      "id": 9811397032,
      "lat": 13.01272,
      "lon": 77.5536791,
      "tags": {
        "amenity": "bench"
      }
    },
    {
      "type": "node",
      "id": 9912087560,
      "lat": 13.0209907,
      "lon": 77.5517714,
      "tags": {
        "name": "Sofas and More Stanley",
        "shop": "furniture"
      }
    },
    {
      "type": "node",
      "id": 9912087567,
      "lat": 13.0186371,
      "lon": 77.5536101,
      "tags": {
        "amenity": "toilets",
        "fee": "no",
        "operator": "BBMP"
      }
    },
    {
      "type": "node",
      "id": 9936582837,
      "lat": 13.0062689,
      "lon": 77.5493014,
      "tags": {
        "access": "private",
        "amenity": "toilets"
      }
    },
    {
      "type": "node",
      "id": 9942510003,
      "lat": 13.0220475,
      "lon": 77.5514003,
      "tags": {
        "amenity": "bus_station",
        "name": "KSRTC Pickup Point",
        "website": "ksrtc.in"
      }
    },
    {
      "type": "node",
      "id": 10051816955,
      "lat": 13.0123454,
      "lon": 77.5564235,
      "tags": {
        "amenity": "restaurant",
        "cuisine": "asian",
        "delivery": "no",
        "name": "Horizon",
        "outdoor_seating": "no",
        "takeaway": "no"
      }
    },
    {
      "type": "node",
      "id": 10124399238,
      "lat": 13.0072927,
      "lon": 77.5485065,
      "tags": {
        "amenity": "cafe",
        "name": "Tealicious"
      }
    },
    {
      "type": "node",
      "id": 10159788162,
      "lat": 13.0103347,
      "lon": 77.5553052,
      "tags": {
        "brand": "Reliance Digital",
        "brand:wikidata": "Q7311012",
        "name": "Reliance Digital",
        "shop": "electronics"
      }
    },
    {
      "type": "node",
      "id": 10159788166,
      "lat": 13.0125364,
      "lon": 77.5551228,
      "tags": {
        "amenity": "restaurant",
        "cuisine": "persian",
        "delivery": "no",
        "level": "4",
        "name": "The Persian Terrace",
        "reservation": "recommended",
        "takeaway": "no",
        "wheelchair": "limited"
      }
    },
    {
      "type": "node",
      "id": 10159788178,
      "lat": 13.0116295,
      "lon": 77.55532,
      "tags": {
        "amenity": "fast_food",
        "brand": "Krispy Kreme",
        "brand:wikidata": "Q1192805",
        "cuisine": "donut",
        "indoor_seating": "yes",
        "name": "Krispy Kreme",
        "outdoor_seating": "no",
        "takeaway": "yes"
      }
    },
    {
      "type": "node",
      "id": 10159788179,
      "lat": 13.0114451,
      "lon": 77.5548993,
      "tags": {
        "addr:floor": "UG",
        "amenity": "cafe",
        "check_date": "2023-09-10",
        "level": "1",
        "name": "Theobroma",
        "outdoor_seating": "no"
      }
    },
    {
      "type": "node",
      "id": 10159788180,
      "lat": 13.0107148,
      "lon": 77.5553119,
      "tags": {
        "amenity": "cafe",
        "brand": "Starbucks",
        "brand:wikidata": "Q37158",
        "cuisine": "coffee_shop",
        "indoor_seating": "yes",
        "name": "Starbucks",
        "official_name": "Starbucks Coffee",
        "outdoor_seating": "no",
        "takeaway": "yes"
      }
    },
    {
      "type": "node",
      "id": 10159788181,
      "lat": 13.011584,
      "lon": 77.5548391,
      "tags": {
        "addr:floor": "1",
        "amenity": "cafe",
        "check_date": "2023-09-10",
        "level": "2",
        "name": "SMOOR"
      }
    },
    {
      "type": "node",
      "id": 10162630528,
      "lat": 13.0088908,
      "lon": 77.5491321,
      "tags": {
        "amenity": "fast_food",
        "cuisine": "regional",
        "name": "Samosa Party"
      }
    },
    {
      "type": "node",
      "id": 10215045108,
      "lat": 13.0108103,
      "lon": 77.555314,
      "tags": {
        "air_conditioning": "no",
        "amenity": "restaurant",
        "brand": "Applebee's Neighborhood Grill & Bar",
        "brand:wikidata": "Q621532",
        "cuisine": "american",
        "indoor_seating": "yes",
        "name": "Applebee's",
        "official_name": "Applebee's Neighborhood Grill & Bar",
        "outdoor_seating": "yes"
      }
    },
    {
      "type": "node",
      "id": 10302703778,
      "lat": 13.0117276,
      "lon": 77.5549217,
      "tags": {
        "amenity": "fast_food",
        "brand": "Popeyes",
        "brand:wikidata": "Q1330910",
        "brand:wikipedia": "en:Popeyes",
        "cuisine": "chicken",
        "delivery": "yes",
        "name": "Popeyes",
        "official_name": "Popeyes Louisiana Kitchen",
        "takeaway": "yes",
        "website": "https://www.popeyes.in/"
      }
    },
    {
      "type": "node",
      "id": 10574648841,
      "lat": 13.0097806,
      "lon": 77.5488183,
      "tags": {
        "name": "DeBeers Forevermark",
        "shop": "jewelry",
        "website": "https://www.forevermark.com/en-in/"
      }
    },
    {
      "type": "node",
      "id": 10676203034,
      "lat": 13.0136097,
      "lon": 77.5561023,
      "tags": {
        "addr:city": "Bangalore",
        "addr:country": "IN",
        "addr:hamlet": "Brigade Gateway",
        "addr:postcode": "560055",
        "addr:suburb": "Yeshwantpur",
        "amenity": "events_venue",
        "name": "The Northern Terrace",
        "note": "Top floor of MLCP"
      }
    },
    {
      "type": "node",
      "id": 10731092770,
      "lat": 13.0073619,
      "lon": 77.5489061,
      "tags": {
        "brand": "Škoda",
        "brand:wikidata": "Q29637",
        "name": "Skoda",
        "shop": "car"
      }
    },
    {
      "type": "node",
      "id": 10731092771,
      "lat": 13.0071705,
      "lon": 77.5484944,
      "tags": {
        "brand": "Apollo Tyres",
        "brand:wikidata": "Q4780362",
        "name": "Apollo Tyres",
        "shop": "tyres"
      }
    },
    {
      "type": "node",
      "id": 10795162724,
      "lat": 13.0081682,
      "lon": 77.5467584,
      "tags": {
        "name": "Nandini Milk Booth",
        "name:kn": "ನಂದಿನಿ ಹಾಲಿನ ಅಂಗಡಿ",
        "shop": "dairy"
      }
    },
    {
      "type": "node",
      "id": 10795162737,
      "lat": 13.0084373,
      "lon": 77.5431944,
      "tags": {
        "name": "Specsavers Opticians",
        "shop": "optician"
      }
    },
    {
      "type": "node",
      "id": 10819136553,
      "lat": 13.0077369,
      "lon": 77.548086,
      "tags": {
        "amenity": "post_box",
        "operator": "India Post",
        "operator:wikidata": "Q3519720"
      }
    },
    {
      "type": "node",
      "id": 10861726826,
      "lat": 13.0100365,
      "lon": 77.5553217,
      "tags": {
        "access": "customers",
        "amenity": "parking_entrance",
        "fee": "yes",
        "parking": "underground"
      }
    },
    {
      "type": "node",
      "id": 10946873743,
      "lat": 13.0117759,
      "lon": 77.555379,
      "tags": {
        "amenity": "fast_food",
        "cuisine": "pizza",
        "delivery": "yes",
        "name": "Gopizza",
        "operator": "GOPIZZA",
        "takeaway": "yes"
      }
    },
    {
      "type": "node",
      "id": 10982294160,
      "lat": 13.0109474,
      "lon": 77.5549377,
      "tags": {
        "brand": "Birkenstock",
        "brand:wikidata": "Q648458",
        "name": "Birkenstock",
        "shop": "shoes"
      }
    },
    {
      "type": "node",
      "id": 11126754085,
      "lat": 13.0105716,
      "lon": 77.5553076,
      "tags": {
        "brand": "Forever New",
        "brand:wikidata": "Q119221929",
        "clothes": "women",
        "name": "Forever New",
        "shop": "clothes"
      }
    },
    {
      "type": "node",
      "id": 11126754086,
      "lat": 13.0112266,
      "lon": 77.5553216,
      "tags": {
        "name": "Decathalon",
        "shop": "sports"
      }
    },
    {
      "type": "node",
      "id": 11180498976,
      "lat": 13.0113906,
      "lon": 77.555426,
      "tags": {
        "addr:floor": "UG",
        "check_date": "2023-09-10",
        "contact:instagram": "the_magical_garden",
        "level": "1",
        "name": "The Magical Garden",
        "shop": "garden_centre"
      }
    },
    {
      "type": "node",
      "id": 11180654052,
      "lat": 13.0116328,
      "lon": 77.5548584,
      "tags": {
        "addr:floor": "1",
        "check_date": "2023-09-10",
        "level": "2",
        "name": "GKB Opticals",
        "name:kn": "ಜಿಕೆಬಿ ಆಪ್ಟಿಕಲ್ಸ್",
        "shop": "optician"
      }
    },
    {
      "type": "node",
      "id": 11180654053,
      "lat": 13.0116994,
      "lon": 77.5548538,
      "tags": {
        "addr:floor": "1",
        "brand": "Lenskart",
        "brand:wikidata": "Q17068753",
        "check_date": "2023-09-10",
        "level": "2",
        "name": "Lenskart",
        "shop": "optician"
      }
    },
    {
      "type": "node",
      "id": 11180654054,
      "lat": 13.0117585,
      "lon": 77.5549605,
      "tags": {
        "addr:floor": "1",
        "check_date": "2023-09-10",
        "level": "2",
        "name": "Navyasa",
        "shop": "clothes"
      }
    },
    {
      "type": "node",
      "id": 11180654055,
      "lat": 13.0118482,
      "lon": 77.5549034,
      "tags": {
        "addr:floor": "1",
        "check_date": "2023-09-10",
        "level": "2",
        "name": "Homecentre",
        "shop": "interior_decoration",
        "website": "https://homecentre.com"
      }
    },
    {
      "type": "node",
      "id": 11180654056,
      "lat": 13.0116768,
      "lon": 77.5553506,
      "tags": {
        "addr:floor": "1",
        "brand": "Max",
        "brand:wikidata": "Q24939079",
        "check_date": "2023-09-10",
        "level": "2",
        "name": "Max",
        "shop": "clothes"
      }
    },
    {
      "type": "node",
      "id": 11180654057,
      "lat": 13.0118278,
      "lon": 77.5551053,
      "tags": {
        "addr:floor": "1",
        "check_date": "2023-09-10",
        "level": "2",
        "name": "Pure Home + Living",
        "shop": "interior_decoration"
      }
    },
    {
      "type": "node",
      "id": 11180654058,
      "lat": 13.0124653,
      "lon": 77.5558842,
      "tags": {
        "amenity": "bank",
        "brand": "HDFC Bank",
        "brand:wikidata": "Q631047",
        "check_date": "2023-09-10",
        "level": "0",
        "name": "HDFC Bank",
        "name:kn": "ಎಚ್ ಡಿ ಎಫ್ ಸಿ",
        "operator": "HDFC Bank",
        "short_name": "HDFC"
      }
    },
    {
      "type": "node",
      "id": 11181022039,
      "lat": 13.0117967,
      "lon": 77.5563074,
      "tags": {
        "covered": "yes",
        "leisure": "picnic_table"
      }
    },
    {
      "type": "node",
      "id": 11181022040,
      "lat": 13.0118001,
      "lon": 77.5563031,
      "tags": {
        "amenity": "bench"
      }
    },
    {
      "type": "node",
      "id": 11181022041,
      "lat": 13.0118217,
      "lon": 77.5562599,
      "tags": {
        "amenity": "bench"
      }
    },
    {
      "type": "node",
      "id": 11181022042,
      "lat": 13.0118248,
      "lon": 77.5562565,
      "tags": {
        "covered": "yes",
        "leisure": "picnic_table"
      }
    },
    {
      "type": "node",
      "id": 11181022043,
      "lat": 13.0118283,
      "lon": 77.5562522,
      "tags": {
        "amenity": "bench"
      }
    },
    {
      "type": "node",
      "id": 11181022044,
      "lat": 13.0118601,
      "lon": 77.5562069,
      "tags": {
        "covered": "yes",
        "leisure": "picnic_table"
      }
    },
    {
      "type": "node",
      "id": 11181022045,
      "lat": 13.0118633,
      "lon": 77.5562023,
      "tags": {
        "amenity": "bench"
      }
    },
    {
      "type": "node",
      "id": 11181022046,
      "lat": 13.0118897,
      "lon": 77.5561435,
      "tags": {
        "amenity": "bench"
      }
    },
    {
      "type": "node",
      "id": 11181022047,
      "lat": 13.0118915,
      "lon": 77.5561392,
      "tags": {
        "covered": "yes",
        "leisure": "picnic_table"
      }
    },
    {
      "type": "node",
      "id": 11181022048,
      "lat": 13.0118935,
      "lon": 77.556134,
      "tags": {
        "amenity": "bench"
      }
    },
    {
      "type": "node",
      "id": 11181022049,
      "lat": 13.011917,
      "lon": 77.5560674,
      "tags": {
        "covered": "yes",
        "leisure": "picnic_table"
      }
    },
    {
      "type": "node",
      "id": 11181022050,
      "lat": 13.0119191,
      "lon": 77.5560623,
      "tags": {
        "amenity": "bench"
      }
    },
    {
      "type": "node",
      "id": 11181022051,
      "lat": 13.011947,
      "lon": 77.5559921,
      "tags": {
        "amenity": "bench"
      }
    },
    {
      "type": "node",
      "id": 11181022052,
      "lat": 13.0119484,
      "lon": 77.5559876,
      "tags": {
        "covered": "yes",
        "leisure": "picnic_table"
      }
    },
    {
      "type": "node",
      "id": 11181022053,
      "lat": 13.0119498,
      "lon": 77.5559822,
      "tags": {
        "amenity": "bench"
      }
    },
    {
      "type": "node",
      "id": 11181022054,
      "lat": 13.0119706,
      "lon": 77.5559038,
      "tags": {
        "covered": "yes",
        "leisure": "picnic_table"
      }
    },
    {
      "type": "node",
      "id": 11181022055,
      "lat": 13.0119715,
      "lon": 77.5558983,
      "tags": {
        "amenity": "bench"
      }
    },
    {
      "type": "node",
      "id": 11181022056,
      "lat": 13.0119805,
      "lon": 77.555826,
      "tags": {
        "covered": "yes",
        "leisure": "picnic_table"
      }
    },
    {
      "type": "node",
      "id": 11181022057,
      "lat": 13.0119804,
      "lon": 77.5558204,
      "tags": {
        "amenity": "bench"
      }
    },
    {
      "type": "node",
      "id": 11181022085,
      "lat": 13.011491,
      "lon": 77.555324,
      "tags": {
        "addr:floor": "2",
        "amenity": "restaurant",
        "cuisine": "french",
        "level": "3",
        "name": "Cafe Noir"
      }
    },
    {
      "type": "node",
      "id": 11181022086,
      "lat": 13.0112846,
      "lon": 77.5553159,
      "tags": {
        "addr:city": "Bengaluru",
        "addr:floor": "2",
        "addr:street": "Dr. Rajkumar Road",
        "amenity": "fast_food",
        "brand": "Burger King",
        "brand:wikidata": "Q177054",
        "brand:wikipedia": "en:Burger King",
        "cuisine": "burger",
        "indoor_seating": "yes",
        "level": "3",
        "name": "Burger King",
        "name:kn": "ಬರ್ಗರ್ ಕಿಂಗ್",
        "outdoor_seating": "yes",
        "takeaway": "yes",
        "website": "www.burgerkingindia.in"
      }
    },
    {
      "type": "node",
      "id": 11181022087,
      "lat": 13.0111147,
      "lon": 77.5553159,
      "tags": {
        "addr:city": "Bengaluru",
        "addr:floor": "2",
        "addr:street": "Dr. Rajkumar Road",
        "amenity": "restaurant",
        "brand": "Chili's",
        "brand:wikidata": "Q1072948",
        "brand:wikipedia": "en:Chili's",
        "cuisine": "tex-mex",
        "level": "3",
        "name": "Chili's",
        "official_name": "Chili's Grill & Bar",
        "website": "https://www.chilis.com/"
      }
    },
    {
      "type": "node",
      "id": 11181022088,
      "lat": 13.0116589,
      "lon": 77.5554132,
      "tags": {
        "access": "yes",
        "addr:floor": "UG",
        "amenity": "toilets",
        "fee": "no",
        "level": "1"
      }
    },
    {
      "type": "node",
      "id": 11198888988,
      "lat": 13.0109277,
      "lon": 77.5553082,
      "tags": {
        "addr:city": "Bengaluru",
        "addr:floor": "2",
        "addr:street": "Dr. Rajkumar Road",
        "amenity": "restaurant",
        "brand": "PizzaExpress",
        "brand:wikidata": "Q662845",
        "cuisine": "pizza",
        "level": "3",
        "name": "PizzaExpress"
      }
    },
    {
      "type": "node",
      "id": 11198889006,
      "lat": 13.0116126,
      "lon": 77.5549043,
      "tags": {
        "addr:floor": "LG",
        "brand": "Sephora",
        "brand:wikidata": "Q2408041",
        "level": "0",
        "name": "Sephora",
        "shop": "cosmetics"
      }
    },
    {
      "type": "node",
      "id": 11198889007,
      "lat": 13.0109697,
      "lon": 77.5551295,
      "tags": {
        "addr:floor": "LG",
        "amenity": "ice_cream",
        "brand": "Häagen-Dazs",
        "brand:wikidata": "Q1143333",
        "level": "0",
        "name": "Häagen-Dazs"
      }
    },
    {
      "type": "node",
      "id": 11309883587,
      "lat": 13.0136768,
      "lon": 77.5542505,
      "tags": {
        "addr:floor": "1",
        "amenity": "atm",
        "check_date": "2024-07-27",
        "covered": "yes",
        "indoor": "yes",
        "lit": "yes"
      }
    },
    {
      "type": "node",
      "id": 11337052384,
      "lat": 13.0146834,
      "lon": 77.5538978,
      "tags": {
        "access": "customers",
        "amenity": "drinking_water",
        "fee": "no",
        "fountain": "bubbler",
        "layer": "1",
        "level": "1"
      }
    },
    {
      "type": "node",
      "id": 11365507638,
      "lat": 13.0147854,
      "lon": 77.5538374,
      "tags": {
        "access": "customers",
        "amenity": "toilets",
        "check_date": "2024-07-27",
        "level": "1",
        "operator": "BMRCL"
      }
    },
    {
      "type": "node",
      "id": 11642288809,
      "lat": 13.009492,
      "lon": 77.5529372,
      "tags": {
        "name": "DailyBasket",
        "shop": "convenience"
      }
    },
    {
      "type": "node",
      "id": 11642307874,
      "lat": 13.0094685,
      "lon": 77.5531501,
      "tags": {
        "amenity": "clinic",
        "healthcare": "clinic",
        "name": "Apollo Clinic"
      }
    },
    {
      "type": "node",
      "id": 11642307875,
      "lat": 13.0096311,
      "lon": 77.552261,
      "tags": {
        "addr:street": "Basement Level 1",
        "shop": "greengrocer"
      }
    },
    {
      "type": "node",
      "id": 11662113630,
      "lat": 13.0076067,
      "lon": 77.5484877,
      "tags": {
        "amenity": "fast_food",
        "check_date": "2024-02-25",
        "name": "Sri Horanadu Cafe"
      }
    },
    {
      "type": "node",
      "id": 11662113631,
      "lat": 13.0092527,
      "lon": 77.5486022,
      "tags": {
        "check_date": "2024-02-25",
        "name": "Turnkey Holidays",
        "shop": "travel_agency"
      }
    },
    {
      "type": "node",
      "id": 11684876148,
      "lat": 13.0197667,
      "lon": 77.5543909,
      "tags": {
        "amenity": "toilets",
        "check_date": "2024-03-02"
      }
    },
    {
      "type": "node",
      "id": 11715597225,
      "lat": 13.0104295,
      "lon": 77.5518816,
      "tags": {
        "amenity": "toilets"
      }
    },
    {
      "type": "node",
      "id": 11715597228,
      "lat": 13.0100141,
      "lon": 77.5515588,
      "tags": {
        "amenity": "fountain"
      }
    },
    {
      "type": "node",
      "id": 11758026787,
      "lat": 13.013015,
      "lon": 77.5550752,
      "tags": {
        "access": "permissive",
        "amenity": "parking_entrance",
        "parking": "underground"
      }
    },
    {
      "type": "node",
      "id": 11758026788,
      "lat": 13.0130015,
      "lon": 77.5550752,
      "tags": {
        "access": "permissive",
        "amenity": "parking_entrance",
        "parking": "underground"
      }
    },
    {
      "type": "node",
      "id": 11758026800,
      "lat": 13.0150726,
      "lon": 77.5559932,
      "tags": {
        "access": "private",
        "amenity": "parking",
        "operator": "5",
        "parking": "street_side"
      }
    },
    {
      "type": "node",
      "id": 11758026801,
      "lat": 13.0149217,
      "lon": 77.5561367,
      "tags": {
        "access": "private",
        "amenity": "parking",
        "operator": "5",
        "parking": "street_side"
      }
    },
    {
      "type": "node",
      "id": 11758026802,
      "lat": 13.0145931,
      "lon": 77.5559064,
      "tags": {
        "access": "private",
        "amenity": "parking",
        "operator": "5",
        "parking": "street_side"
      }
    },
    {
      "type": "node",
      "id": 11868811425,
      "lat": 13.0115415,
      "lon": 77.5553607,
      "tags": {
        "amenity": "cafe",
        "level": "1",
        "name": "Eleven Bakehouse"
      }
    },
    {
      "type": "node",
      "id": 11909709673,
      "lat": 13.0140347,
      "lon": 77.553912,
      "tags": {
        "amenity": "clock",
        "display": "analog",
        "support": "wall_mounted",
        "visibility": "house"
      }
    },
    {
      "type": "node",
      "id": 11932321823,
      "lat": 13.0181005,
      "lon": 77.556118,
      "tags": {
        "access": "yes",
        "amenity": "toilets",
        "check_date": "2025-04-06"
      }
    },
    {
      "type": "node",
      "id": 11949185908,
      "lat": 13.0140694,
      "lon": 77.554019,
      "tags": {
        "amenity": "vending_machine",
        "check_date": "2024-06-01",
        "level": "1"
      }
    },
    {
      "type": "node",
      "id": 11987032367,
      "lat": 13.0102788,
      "lon": 77.5553865,
      "tags": {
        "check_date": "2024-06-17",
        "name": "Fresh Signature",
        "shop": "supermarket"
      }
    },
    {
      "type": "node",
      "id": 11989557933,
      "lat": 13.0072186,
      "lon": 77.5484909,
      "tags": {
        "check_date": "2024-06-18",
        "name": "Seven Interior",
        "shop": "interior_decoration"
      }
    },
    {
      "type": "node",
      "id": 11991775972,
      "lat": 13.0165165,
      "lon": 77.5557773,
      "tags": {
        "amenity": "place_of_worship",
        "name": "Sri Mahaganapati Temple",
        "religion": "hindu"
      }
    },
    {
      "type": "node",
      "id": 11993660916,
      "lat": 13.0121339,
      "lon": 77.5541881,
      "tags": {
        "amenity": "restaurant",
        "name": "Chulha Chauka Da Dhaba"
      }
    },
    {
      "type": "node",
      "id": 11993660922,
      "lat": 13.0118452,
      "lon": 77.5550008,
      "tags": {
        "amenity": "restaurant",
        "brand": "California Burrito",
        "brand:wikidata": "Q124374596",
        "cuisine": "mexican",
        "name": "California Burrito"
      }
    },
    {
      "type": "node",
      "id": 11993660923,
      "lat": 13.0116759,
      "lon": 77.5548264,
      "tags": {
        "access": "yes",
        "addr:floor": "2",
        "amenity": "toilets",
        "fee": "no",
        "level": "3"
      }
    },
    {
      "type": "node",
      "id": 11993660924,
      "lat": 13.0116348,
      "lon": 77.5553857,
      "tags": {
        "access": "yes",
        "addr:floor": "2",
        "amenity": "toilets",
        "fee": "no",
        "level": "3"
      }
    },
    {
      "type": "node",
      "id": 11993660925,
      "lat": 13.0116335,
      "lon": 77.5554138,
      "tags": {
        "access": "yes",
        "addr:floor": "1",
        "amenity": "toilets",
        "fee": "no",
        "level": "2"
      }
    },
    {
      "type": "node",
      "id": 11993660926,
      "lat": 13.0104686,
      "lon": 77.5554387,
      "tags": {
        "access": "yes",
        "addr:floor": "1",
        "amenity": "toilets",
        "fee": "no",
        "level": "2"
      }
    },
    {
      "type": "node",
      "id": 11993660927,
      "lat": 13.0104898,
      "lon": 77.5554108,
      "tags": {
        "access": "yes",
        "addr:floor": "G",
        "amenity": "toilets",
        "fee": "no",
        "level": "0"
      }
    },
    {
      "type": "node",
      "id": 11993660928,
      "lat": 13.0104905,
      "lon": 77.5554383,
      "tags": {
        "access": "yes",
        "addr:floor": "UG",
        "amenity": "toilets",
        "fee": "no",
        "level": "1"
      }
    },
    {
      "type": "node",
      "id": 11993660933,
      "lat": 13.0116583,
      "lon": 77.5553857,
      "tags": {
        "access": "yes",
        "addr:floor": "G",
        "amenity": "toilets",
        "fee": "no",
        "level": "0"
      }
    },
    {
      "type": "node",
      "id": 11998178511,
      "lat": 13.0221896,
      "lon": 77.5509196,
      "tags": {
        "amenity": "restaurant",
        "check_date": "2024-06-21",
        "name": "Konkan Express"
      }
    },
    {
      "type": "node",
      "id": 12016136798,
      "lat": 13.014172,
      "lon": 77.5539912,
      "tags": {
        "amenity": "atm",
        "brand": "State Bank of India",
        "brand:wikidata": "Q1340361",
        "check_date": "2024-07-27",
        "covered": "yes",
        "indoor": "yes",
        "level": "1",
        "lit": "yes",
        "name": "State Bank of India",
        "operator": "State Bank of India",
        "operator:wikidata": "Q1340361",
        "short_name": "SBI"
      }
    },
    {
      "type": "node",
      "id": 12016136799,
      "lat": 13.0132503,
      "lon": 77.5544512,
      "tags": {
        "check_date": "2024-06-28",
        "name": "Shoe Stall",
        "shop": "shoes"
      }
    },
    {
      "type": "node",
      "id": 12088583359,
      "lat": 13.0109686,
      "lon": 77.5554054,
      "tags": {
        "addr:city": "Bangalore",
        "addr:country": "IN",
        "addr:district": "Bangalore Urban",
        "addr:housename": "Upper Ground Floor, Orion Mall",
        "addr:postcode": "560055",
        "addr:state": "Karnataka",
        "addr:street": "Dr. Rajkumar Road",
        "addr:suburb": "Rajajinagar",
        "amenity": "restaurant",
        "cuisine": "regional",
        "diet:vegetarian": "only",
        "level": "0",
        "name": "Burma Burma",
        "outdoor_seating": "yes"
      }
    },
    {
      "type": "node",
      "id": 12107774263,
      "lat": 13.0084726,
      "lon": 77.5521603,
      "tags": {
        "access": "private",
        "amenity": "parking_entrance",
        "parking": "underground"
      }
    },
    {
      "type": "node",
      "id": 12108082018,
      "lat": 13.0106228,
      "lon": 77.5535866,
      "tags": {
        "access": "private",
        "amenity": "parking_entrance",
        "parking": "underground"
      }
    },
    {
      "type": "node",
      "id": 12108082020,
      "lat": 13.0106077,
      "lon": 77.5531957,
      "tags": {
        "access": "private",
        "amenity": "parking_entrance",
        "parking": "underground"
      }
    },
    {
      "type": "node",
      "id": 12108082049,
      "lat": 13.0094467,
      "lon": 77.5520349,
      "tags": {
        "access": "private",
        "amenity": "parking_entrance",
        "parking": "underground"
      }
    },
    {
      "type": "node",
      "id": 12108082122,
      "lat": 13.0085843,
      "lon": 77.5536805,
      "tags": {
        "access": "private",
        "amenity": "parking_entrance",
        "parking": "underground"
      }
    },
    {
      "type": "node",
      "id": 12108082139,
      "lat": 13.0084471,
      "lon": 77.5535108,
      "tags": {
        "access": "private",
        "amenity": "parking_entrance",
        "parking": "underground"
      }
    },
    {
      "type": "node",
      "id": 12108082206,
      "lat": 13.0096715,
      "lon": 77.551992,
      "tags": {
        "access": "private",
        "amenity": "parking_entrance",
        "parking": "underground"
      }
    },
    {
      "type": "node",
      "id": 12108197223,
      "lat": 13.009273,
      "lon": 77.5525338,
      "tags": {
        "access": "private",
        "amenity": "parking_entrance",
        "parking": "underground"
      }
    },
    {
      "type": "node",
      "id": 12129019648,
      "lat": 13.014757,
      "lon": 77.5559168,
      "tags": {
        "addr:city": "Bengaluru",
        "addr:country": "IN",
        "addr:housename": "WTC Annexe",
        "addr:housenumber": "26/1",
        "addr:postcode": "560055",
        "addr:street": "Dr. Rajkumar Road",
        "amenity": "cafe",
        "brand": "Blue Tokai Coffee Roasters",
        "brand:wikidata": "Q124374362",
        "check_date": "2025-10-25",
        "cuisine": "coffee_shop",
        "delivery": "yes",
        "internet_access": "yes",
        "internet_access:fee": "no",
        "name": "Blue Tokai Coffee Roasters",
        "takeaway": "yes",
        "toilets": "yes"
      }
    },
    {
      "type": "node",
      "id": 12150953167,
      "lat": 13.0195518,
      "lon": 77.5527632,
      "tags": {
        "amenity": "fuel",
        "brand": "TotalEnergies",
        "brand:wikidata": "Q154037",
        "name": "TotalEnergies"
      }
    },
    {
      "type": "node",
      "id": 12415838535,
      "lat": 13.0130251,
      "lon": 77.5557585,
      "tags": {
        "access": "customers",
        "amenity": "parking_entrance",
        "parking": "multi-storey"
      }
    },
    {
      "type": "node",
      "id": 12415838536,
      "lat": 13.0130251,
      "lon": 77.5564124,
      "tags": {
        "access": "customers",
        "amenity": "parking_entrance",
        "parking": "multi-storey"
      }
    },
    {
      "type": "node",
      "id": 12732632383,
      "lat": 13.0180275,
      "lon": 77.556119,
      "tags": {
        "check_date": "2025-04-06",
        "name": "BMTC Pass Counter",
        "shop": "ticket"
      }
    },
    {
      "type": "node",
      "id": 12732632384,
      "lat": 13.0179471,
      "lon": 77.5561221,
      "tags": {
        "check_date": "2025-04-06",
        "name": "Venkatadri Condiments",
        "shop": "kiosk"
      }
    },
    {
      "type": "node",
      "id": 12732632385,
      "lat": 13.0178765,
      "lon": 77.5561228,
      "tags": {
        "check_date": "2025-04-06",
        "name": "Punith Cafe",
        "shop": "kiosk"
      }
    },
    {
      "type": "node",
      "id": 12732632386,
      "lat": 13.0177867,
      "lon": 77.5561244,
      "tags": {
        "check_date": "2025-04-06",
        "name": "Transit Clinic",
        "shop": "kiosk"
      }
    },
    {
      "type": "node",
      "id": 12809319556,
      "lat": 13.0118443,
      "lon": 77.5552205,
      "tags": {
        "amenity": "fast_food",
        "name": "Squeez Juice Bar"
      }
    },
    {
      "type": "node",
      "id": 12809319557,
      "lat": 13.0118426,
      "lon": 77.5551085,
      "tags": {
        "amenity": "fast_food",
        "cuisine": "pancake",
        "name": "Uncle Peter's Pancakes"
      }
    },
    {
      "type": "node",
      "id": 12809319558,
      "lat": 13.0118434,
      "lon": 77.5551823,
      "tags": {
        "amenity": "fast_food",
        "cuisine": "hot_dog",
        "name": "Franks"
      }
    },
    {
      "type": "node",
      "id": 12809319559,
      "lat": 13.0108881,
      "lon": 77.5549465,
      "tags": {
        "amenity": "cafe",
        "name": "Magnolia Bakery",
        "shop": "bakery"
      }
    },
    {
      "type": "node",
      "id": 12809319560,
      "lat": 13.0111272,
      "lon": 77.5553938,
      "tags": {
        "addr:city": "Bangalore",
        "addr:housename": "Upper Ground Floor, Orion Mall",
        "addr:street": "Dr. Rajkumar Road",
        "brand": "Uniqlo",
        "brand:wikidata": "Q26070",
        "name": "Uniqlo",
        "shop": "clothes"
      }
    },
    {
      "type": "node",
      "id": 12809319561,
      "lat": 13.0111481,
      "lon": 77.5549451,
      "tags": {
        "addr:city": "Bangalore",
        "addr:housename": "Upper Ground Floor, Orion Mall",
        "addr:street": "Dr. Rajkumar Road",
        "brand": "Uniqlo",
        "brand:wikidata": "Q26070",
        "name": "Uniqlo",
        "shop": "clothes"
      }
    },
    {
      "type": "node",
      "id": 12862730490,
      "lat": 13.0108695,
      "lon": 77.5554036,
      "tags": {
        "brand": "Lego",
        "brand:wikidata": "Q25385996",
        "name": "Lego",
        "shop": "toys"
      }
    },
    {
      "type": "node",
      "id": 12862846482,
      "lat": 13.0117166,
      "lon": 77.5554144,
      "tags": {
        "addr:city": "Bangalore",
        "addr:housename": "Upper Ground Floor, Orion Mall",
        "addr:housenumber": "UG9A",
        "addr:street": "Dr. Rajkumar Road",
        "amenity": "restaurant",
        "brand": "Cafe Noir",
        "brand:wikidata": "Q124374751",
        "cuisine": "french;burger",
        "delivery": "yes",
        "indoor_seating": "yes",
        "name": "Cafe Noir",
        "name:kn": "ಕಫೆ ನಾರ್ಯ್",
        "outdoor_seating": "yes",
        "takeaway": "yes"
      }
    },
    {
      "type": "node",
      "id": 12927878004,
      "lat": 13.011695,
      "lon": 77.5553974,
      "tags": {
        "addr:city": "Bangalore",
        "addr:housename": "Upper Ground Floor, Orion Mall",
        "addr:street": "Dr. Rajkumar Road",
        "amenity": "restaurant",
        "cuisine": "french",
        "name": "Paul",
        "outdoor_seating": "yes",
        "reservation": "recommended",
        "toilets": "yes"
      }
    },
    {
      "type": "node",
      "id": 12985592701,
      "lat": 13.0110387,
      "lon": 77.5394468,
      "tags": {
        "addr:housenumber": "0",
        "addr:postcode": "560096",
        "addr:street": "11th Main Road",
        "amenity": "school",
        "name": "SG International Public School",
        "opening_hours": "Mo-Sa 09:00-05:00"
      }
    },
    {
      "type": "node",
      "id": 12985592707,
      "lat": 13.0114927,
      "lon": 77.5395216,
      "tags": {
        "addr:postcode": "560096",
        "amenity": "kindergarten",
        "name": "Happy Hoots Play School",
        "opening_hours": "Mo-Fr 10:00-01:00"
      }
    },
    {
      "type": "node",
      "id": 12985593906,
      "lat": 13.0117456,
      "lon": 77.5391611,
      "tags": {
        "leisure": "park",
        "name": "BBMP Park"
      }
    },
    {
      "type": "node",
      "id": 12985594010,
      "lat": 13.0109802,
      "lon": 77.5398828,
      "tags": {
        "addr:postcode": "560096",
        "name": "Shahana Home Needs",
        "shop": "grocery"
      }
    },
    {
      "type": "node",
      "id": 13084285569,
      "lat": 13.0115847,
      "lon": 77.5549478,
      "tags": {
        "brand": "Victoria's Secret",
        "brand:wikidata": "Q332477",
        "check_date": "2025-08-20",
        "clothes": "underwear;women",
        "name": "Victoria's Secret",
        "shop": "clothes"
      }
    },
    {
      "type": "node",
      "id": 13183293848,
      "lat": 13.0108187,
      "lon": 77.5505626,
      "tags": {
        "check_date": "2025-09-30",
        "name": "Blum",
        "shop": "appliance"
      }
    },
    {
      "type": "node",
      "id": 13277046524,
      "lat": 13.0235213,
      "lon": 77.5497316,
      "tags": {
        "amenity": "charging_station",
        "capacity": "12",
        "charging_station:battery_swapping": "yes",
        "fee": "yes",
        "level": "0",
        "motorcar": "no",
        "motorcycle": "yes",
        "name": "Honda e:swap",
        "operator": "Honda e:swap"
      }
    },
    {
      "type": "node",
      "id": 13277046525,
      "lat": 13.0235317,
      "lon": 77.5497115,
      "tags": {
        "amenity": "charging_station",
        "capacity": "12",
        "charging_station:battery_swapping": "yes",
        "fee": "yes",
        "level": "0",
        "motorcar": "no",
        "motorcycle": "yes",
        "name": "Honda e:swap",
        "operator": "Honda e:swap"
      }
    },
    {
      "type": "way",
      "id": 29459362,
      "center": {
        "lat": 13.01008,
        "lon": 77.5511324
      },
      "tags": {
        "addr:street": "Chord Road",
        "alt_name": "ISKCON Bengaluru",
        "amenity": "place_of_worship",
        "full_name": "Sri Radha Krishna-chandra Temple",
        "landuse": "religious",
        "name": "ISKCON Sri Radha Krishna-Chandra Temple",
        "name:en": "ISKCON Sri Radha Krishna-Chandra Temple",
        "name:kn": "ಶ್ರೀ ರಾಧಾ ಕೃಷ್ಣಚಂದ್ರ ದೇವಾಲಯ",
        "name:ml": "ഇസ്‌കോൺ ശ്രീ രാധാ കൃഷ്ണ-ചന്ദ്ര ക്ഷേത്രം",
        "religion": "hindu",
        "start_date": "1997-05-01",
        "wikidata": "Q4500903",
        "wikimedia_commons": "Category:ISKCON Temple, Bangalore",
        "wikipedia": "en:ISKCON Temple, Bangalore"
      }
    },
    {
      "type": "way",
      "id": 37838218,
      "center": {
        "lat": 13.0217758,
        "lon": 77.5478499
      },
      "tags": {
        "alt_name": "Yeshwanthpur APMC Yard",
        "amenity": "marketplace",
        "fixme": "Should landuse be industrial or marketplace?",
        "name": "Yeshwantpur RMC Yard"
      }
    },
    {
      "type": "way",
      "id": 96682580,
      "center": {
        "lat": 13.0132485,
        "lon": 77.550709
      },
      "tags": {
        "addr:postcode": "560022",
        "leisure": "park",
        "name": "Renaissance Temple Bells Apartments"
      }
    },
    {
      "type": "way",
      "id": 133117380,
      "center": {
        "lat": 13.0115204,
        "lon": 77.5521069
      },
      "tags": {
        "addr:district": "Bengaluru Urban",
        "addr:full": "#121/C, Chord Road , 1st R Block, Rajajinagar, , B.N",
        "addr:postcode": "560010",
        "addr:state": "Karnataka",
        "amenity": "clinic",
        "name": "Narayana Nethralaya",
        "name:kn": "ನಾರಾಯಣ ನೇತ್ರಾಲಯ",
        "source": "OpenGovernmentData",
        "wheelchair": "yes"
      }
    },
    {
      "type": "way",
      "id": 133596125,
      "center": {
        "lat": 13.0078265,
        "lon": 77.5471834
      },
      "tags": {
        "addr:housename": "Dreamland",
        "addr:housenumber": "172/7,Mahalaksmilayout, Bovipalya, Nagapura,Bangalore",
        "addr:postcode": "560086",
        "name": "DreamLand",
        "shop": "gift"
      }
    },
    {
      "type": "way",
      "id": 133596129,
      "center": {
        "lat": 13.0077022,
        "lon": 77.5479335
      },
      "tags": {
        "addr:housename": "Arun Ice cream",
        "addr:postcode": "560086",
        "addr:street": "2nd Main, Bovipalya, Nagapura (Near MahalakshmiLayout Entrance)",
        "name": "Arun Icecreams",
        "shop": "bakery"
      }
    },
    {
      "type": "way",
      "id": 133596134,
      "center": {
        "lat": 13.0079159,
        "lon": 77.5452028
      },
      "tags": {
        "addr:housename": "East West Public School",
        "addr:postcode": "560086",
        "addr:street": "13th Cross, Mahalakshmi Layout",
        "amenity": "school",
        "name": "East West Public School"
      }
    },
    {
      "type": "way",
      "id": 133600674,
      "center": {
        "lat": 13.0074622,
        "lon": 77.5483527
      },
      "tags": {
        "name": "Atulya Stores",
        "shop": "convenience"
      }
    },
    {
      "type": "way",
      "id": 133600675,
      "center": {
        "lat": 13.0063802,
        "lon": 77.5484309
      },
      "tags": {
        "shop": "car"
      }
    },
    {
      "type": "way",
      "id": 133720139,
      "center": {
        "lat": 13.0079076,
        "lon": 77.5481009
      },
      "tags": {
        "amenity": "community_centre",
        "building": "yes",
        "name": "Sapthagiri Kalyana Mantapa",
        "name:kn": "ಸಪ್ತಗಿರಿ ಕಲ್ಯಾಣ ಮಂಟಪ"
      }
    },
    {
      "type": "way",
      "id": 133810608,
      "center": {
        "lat": 13.0091201,
        "lon": 77.5550382
      },
      "tags": {
        "amenity": "college",
        "name": "Vivekananda Degree College",
        "name:kn": "ವಿವೇಕಾನಂದ ಡಿಗ್ರಿ ಕಾಲೇಜು"
      }
    },
    {
      "type": "way",
      "id": 133959052,
      "center": {
        "lat": 13.0075879,
        "lon": 77.5447396
      },
      "tags": {
        "leisure": "park"
      }
    },
    {
      "type": "way",
      "id": 133959053,
      "center": {
        "lat": 13.0079372,
        "lon": 77.5445461
      },
      "tags": {
        "leisure": "park"
      }
    },
    {
      "type": "way",
      "id": 133959055,
      "center": {
        "lat": 13.0048157,
        "lon": 77.5460371
      },
      "tags": {
        "leisure": "park"
      }
    },
    {
      "type": "way",
      "id": 142344347,
      "center": {
        "lat": 13.0102309,
        "lon": 77.5435066
      },
      "tags": {
        "leisure": "park"
      }
    },
    {
      "type": "way",
      "id": 142344598,
      "center": {
        "lat": 13.0138889,
        "lon": 77.5416642
      },
      "tags": {
        "leisure": "park"
      }
    },
    {
      "type": "way",
      "id": 142344599,
      "center": {
        "lat": 13.0127912,
        "lon": 77.5420927
      },
      "tags": {
        "leisure": "park"
      }
    },
    {
      "type": "way",
      "id": 149418883,
      "center": {
        "lat": 13.0137818,
        "lon": 77.5549731
      },
      "tags": {
        "addr:city": "Bangalore",
        "addr:hamlet": "Subramanya Nagar",
        "addr:housenumber": "26/3",
        "addr:postcode": "560055",
        "addr:street": "Tumkur Road",
        "brand": "METRO",
        "brand:wikidata": "Q13610282",
        "building": "retail",
        "name": "Metro",
        "name:en": "Metro",
        "name:kn": "ಮೆಟ್ರೋ",
        "phone": "+91 080 22192306",
        "shop": "wholesale",
        "website": "https://www.metro.co.in/",
        "wheelchair": "yes"
      }
    },
    {
      "type": "way",
      "id": 149418889,
      "center": {
        "lat": 13.0121218,
        "lon": 77.5549676
      },
      "tags": {
        "leisure": "garden"
      }
    },
    {
      "type": "way",
      "id": 149418892,
      "center": {
        "lat": 13.0132038,
        "lon": 77.5560888
      },
      "tags": {
        "access": "customers",
        "amenity": "parking",
        "building": "parking",
        "building:levels": "9",
        "capacity": "2000",
        "fee": "yes",
        "name": "MLCP",
        "parking": "multi-storey"
      }
    },
    {
      "type": "way",
      "id": 149418901,
      "center": {
        "lat": 13.0129604,
        "lon": 77.5540663
      },
      "tags": {
        "leisure": "park",
        "name": "Basava Dhama Park",
        "name:kn": "ಬಸವ ಧಾಮ"
      }
    },
    {
      "type": "way",
      "id": 149418905,
      "center": {
        "lat": 13.0141991,
        "lon": 77.5560493
      },
      "tags": {
        "amenity": "parking",
        "parking": "surface"
      }
    },
    {
      "type": "way",
      "id": 168384742,
      "center": {
        "lat": 13.0093859,
        "lon": 77.5493192
      },
      "tags": {
        "amenity": "community_centre",
        "landuse": "commercial",
        "name": "Sharana Seva Samaja",
        "name:kn": "ಶರಣ ಸೇವ ಸಮಾಜ"
      }
    },
    {
      "type": "way",
      "id": 180837206,
      "center": {
        "lat": 13.0109648,
        "lon": 77.5552202
      },
      "tags": {
        "addr:housenumber": "26/1",
        "addr:postcode": "560055",
        "addr:street": "Dr. Rajkumar Road",
        "internet_access": "wlan",
        "landuse": "retail",
        "name": "Orion Mall",
        "name:hi": "ओरियन मॉल",
        "phone": "+918067282222",
        "shop": "mall",
        "toilets": "yes",
        "toilets:wheelchair": "yes",
        "wheelchair": "yes"
      }
    },
    {
      "type": "way",
      "id": 192047505,
      "center": {
        "lat": 13.0122259,
        "lon": 77.5539301
      },
      "tags": {
        "name": "@home",
        "shop": "mall"
      }
    },
    {
      "type": "way",
      "id": 249906103,
      "center": {
        "lat": 13.019717,
        "lon": 77.55489
      },
      "tags": {
        "amenity": "marketplace",
        "name": "Yeshwanthpur Fish Market",
        "name:kn": "ಮೀನು ಮಾರುಕಟ್ಟೆ"
      }
    },
    {
      "type": "way",
      "id": 249906110,
      "center": {
        "lat": 13.0203304,
        "lon": 77.5543142
      },
      "tags": {
        "amenity": "school",
        "name": "Government School",
        "name:kn": "ಸರ್ಕಾರಿ ಶಾಲೆ"
      }
    },
    {
      "type": "way",
      "id": 249906113,
      "center": {
        "lat": 13.020626,
        "lon": 77.5545697
      },
      "tags": {
        "amenity": "marketplace",
        "name": "Yeshwanthpur Market"
      }
    },
    {
      "type": "way",
      "id": 249908374,
      "center": {
        "lat": 13.0172046,
        "lon": 77.5562367
      },
      "tags": {
        "amenity": "cinema",
        "building": "yes",
        "name": "Gopal Theatre",
        "wheelchair": "no"
      }
    },
    {
      "type": "way",
      "id": 308836205,
      "center": {
        "lat": 13.0158948,
        "lon": 77.5451364
      },
      "tags": {
        "alt_name": "Yeshwanthpur Yard Market",
        "amenity": "marketplace",
        "landuse": "retail",
        "name": "Yeshwanthpur APMC Market",
        "opening_hours": "Mo-Su 05:30-13:00"
      }
    },
    {
      "type": "way",
      "id": 323930527,
      "center": {
        "lat": 13.0216704,
        "lon": 77.5512945
      },
      "tags": {
        "amenity": "cinema",
        "building": "yes",
        "name": "Govardhana",
        "name:kn": "ಗೋವರ್ಧನ",
        "wheelchair": "limited"
      }
    },
    {
      "type": "way",
      "id": 332071364,
      "center": {
        "lat": 13.0161475,
        "lon": 77.5438849
      },
      "tags": {
        "amenity": "pharmacy",
        "building": "yes",
        "name": "Sln Medical And General Stores"
      }
    },
    {
      "type": "way",
      "id": 332071569,
      "center": {
        "lat": 13.0116917,
        "lon": 77.5438731
      },
      "tags": {
        "addr:district": "Bengaluru Urban",
        "addr:full": "#761, 7th Main, Last Bus Stop, Near Swimming pool, Mahalakshmi Layout",
        "addr:postcode": "560086",
        "addr:state": "Karnataka",
        "amenity": "hospital",
        "building": "yes",
        "healthcare": "hospital",
        "name": "Sanjeevani Hospital",
        "name:kn": "ಸಂಜೀವನಿ ಆಸ್ಪತ್ರೆ",
        "operator:type": "private",
        "source": "OpenGovernmentData",
        "website": "https://www.sanjeevinihospital.com/"
      }
    },
    {
      "type": "way",
      "id": 335167581,
      "center": {
        "lat": 13.0086638,
        "lon": 77.5441278
      },
      "tags": {
        "leisure": "park",
        "name": "Anna Basavanna Park"
      }
    },
    {
      "type": "way",
      "id": 335167682,
      "center": {
        "lat": 13.0087591,
        "lon": 77.5460294
      },
      "tags": {
        "leisure": "park",
        "name": "Anjaneya Swami Gudi Udyana",
        "name:kn": "ಆಂಜನೇಯ ಸ್ವಾಮಿ ಗುಡಿ ಉದ್ಯಾನ"
      }
    },
    {
      "type": "way",
      "id": 346433329,
      "center": {
        "lat": 13.0090863,
        "lon": 77.5437204
      },
      "tags": {
        "amenity": "place_of_worship",
        "building": "yes",
        "name": "Vasavi Temple",
        "name:kn": "ವಾಸವಿ ದೇವಸ್ಥಾನ",
        "religion": "hindu"
      }
    },
    {
      "type": "way",
      "id": 346433364,
      "center": {
        "lat": 13.008493,
        "lon": 77.5452688
      },
      "tags": {
        "amenity": "place_of_worship",
        "building": "yes",
        "name": "Sri Venkateshwara Temple",
        "name:kn": "ವೆಂಕಟೇಶ್ವರ ದೇವಸ್ಥಾನ",
        "religion": "hindu",
        "wheelchair": "no"
      }
    },
    {
      "type": "way",
      "id": 346807086,
      "center": {
        "lat": 13.0161578,
        "lon": 77.5425544
      },
      "tags": {
        "amenity": "place_of_worship",
        "building": "yes",
        "denomination": "hindu",
        "name": "Vinayaka Temple",
        "name:kn": "ವಿನಾಯಕ ದೇವಸ್ಥಾನ",
        "religion": "hindu"
      }
    },
    {
      "type": "way",
      "id": 346807180,
      "center": {
        "lat": 13.0161865,
        "lon": 77.5426606
      },
      "tags": {
        "amenity": "place_of_worship",
        "building": "yes",
        "denomination": "hindu",
        "name": "Vidyashankara Temple",
        "name:kn": "ವಿದ್ಯಾಶಂಕರ ದೇವಾಲಯ",
        "religion": "hindu"
      }
    },
    {
      "type": "way",
      "id": 347022438,
      "center": {
        "lat": 13.0170979,
        "lon": 77.5458933
      },
      "tags": {
        "building": "yes",
        "name": "Tiles Shop",
        "roof:material": "metal",
        "shop": "tiles"
      }
    },
    {
      "type": "way",
      "id": 347055001,
      "center": {
        "lat": 13.0198969,
        "lon": 77.5515246
      },
      "tags": {
        "amenity": "cinema",
        "building": "yes",
        "name": "Ullas Theater"
      }
    },
    {
      "type": "way",
      "id": 349519495,
      "center": {
        "lat": 13.0153835,
        "lon": 77.5461691
      },
      "tags": {
        "amenity": "place_of_worship",
        "building": "yes",
        "name": "Sai Baba Temple",
        "name:kn": "ಸಾಯಿಬಾಬಾ ದೇವಸ್ಥಾನ",
        "religion": "hindu"
      }
    },
    {
      "type": "way",
      "id": 363067369,
      "center": {
        "lat": 13.0184352,
        "lon": 77.5394324
      },
      "tags": {
        "leisure": "park",
        "name": "BBMP Park",
        "name:kn": "ಬೃ ಬೆಂ ಮ ಪಾ ಉದ್ಯಾನವನ"
      }
    },
    {
      "type": "way",
      "id": 363067390,
      "center": {
        "lat": 13.0166412,
        "lon": 77.5384392
      },
      "tags": {
        "leisure": "park"
      }
    },
    {
      "type": "way",
      "id": 363067571,
      "center": {
        "lat": 13.0160649,
        "lon": 77.5427512
      },
      "tags": {
        "access": "yes",
        "leisure": "park",
        "name": "Ganesha Temple Park",
        "opening_hours": "sunrise-sunset"
      }
    },
    {
      "type": "way",
      "id": 363069620,
      "center": {
        "lat": 13.0122138,
        "lon": 77.5473428
      },
      "tags": {
        "leisure": "park"
      }
    },
    {
      "type": "way",
      "id": 389877535,
      "center": {
        "lat": 13.0082708,
        "lon": 77.5444172
      },
      "tags": {
        "leisure": "playground",
        "name": "Local Playground"
      }
    },
    {
      "type": "way",
      "id": 393781676,
      "center": {
        "lat": 13.0181038,
        "lon": 77.5565251
      },
      "tags": {
        "alt_name": "Yeshwantpur Bus Station",
        "amenity": "bus_station",
        "name": "Yeshwanthapura TTMC",
        "name:en": "Yeshwanthapura TTMC",
        "name:kn": "ಯಶವಂತಪುರ ಬಸ್ ನಿಲ್ದಾನ",
        "public_transport": "station"
      }
    },
    {
      "type": "way",
      "id": 513532062,
      "center": {
        "lat": 13.0067504,
        "lon": 77.5529489
      },
      "tags": {
        "addr:district": "Bengaluru Urban",
        "addr:full": "#1, Dr. Rajkumar Road, I Block,Rajajinagar,Near Vivekananda College",
        "addr:postcode": "560010",
        "addr:state": "Karnataka",
        "addr:street": "Dr Rajkumar Road",
        "alt_name": "Gudde Hospital",
        "amenity": "hospital",
        "healthcare": "hospital",
        "name": "St. Theresa's Hospital",
        "name:kn": "ಸೈಂಟ್ ತೆರೇಸ ಆಸ್ಪತ್ರೆ",
        "old_name": "St Theresa's Tuberculosis Sanatorium",
        "source": "OpenGovernmentData"
      }
    },
    {
      "type": "way",
      "id": 690210884,
      "center": {
        "lat": 13.0091022,
        "lon": 77.5527358
      },
      "tags": {
        "leisure": "swimming_pool",
        "location": "outdoor",
        "name": "Kids Pool"
      }
    },
    {
      "type": "way",
      "id": 690210885,
      "center": {
        "lat": 13.0090087,
        "lon": 77.5527795
      },
      "tags": {
        "leisure": "swimming_pool",
        "name": "Wading Pool"
      }
    },
    {
      "type": "way",
      "id": 690210886,
      "center": {
        "lat": 13.0090312,
        "lon": 77.5529456
      },
      "tags": {
        "leisure": "swimming_pool",
        "name": "Swimmers Pool"
      }
    },
    {
      "type": "way",
      "id": 690210907,
      "center": {
        "lat": 13.0095713,
        "lon": 77.5528602
      },
      "tags": {
        "access": "permissive",
        "amenity": "parking",
        "operator": "Visitor Parking",
        "parking": "surface"
      }
    },
    {
      "type": "way",
      "id": 690213364,
      "center": {
        "lat": 13.0093779,
        "lon": 77.5527652
      },
      "tags": {
        "leisure": "playground"
      }
    },
    {
      "type": "way",
      "id": 691136416,
      "center": {
        "lat": 13.0101633,
        "lon": 77.55268
      },
      "tags": {
        "access": "private",
        "leisure": "pitch",
        "lit": "yes",
        "name": "Club One Tennis Court",
        "name:kn": "ಟೆನಿಸ್ ಅಂಕಣ",
        "sport": "tennis",
        "surface": "artificial_turf"
      }
    },
    {
      "type": "way",
      "id": 691137056,
      "center": {
        "lat": 13.0090674,
        "lon": 77.5526627
      },
      "tags": {
        "amenity": "shelter",
        "building": "yes",
        "shelter_type": "gazebo"
      }
    },
    {
      "type": "way",
      "id": 691137058,
      "center": {
        "lat": 13.0089522,
        "lon": 77.5527112
      },
      "tags": {
        "amenity": "shelter",
        "building": "yes",
        "shelter_type": "gazebo"
      }
    },
    {
      "type": "way",
      "id": 726095464,
      "center": {
        "lat": 13.0177672,
        "lon": 77.5417058
      },
      "tags": {
        "amenity": "hospital",
        "healthcare": "hospital"
      }
    },
    {
      "type": "way",
      "id": 726163863,
      "center": {
        "lat": 13.0184847,
        "lon": 77.5398081
      },
      "tags": {
        "amenity": "fast_food",
        "building": "yes",
        "cuisine": "fish_and_chips",
        "name": "Rajkumar Fish Stall"
      }
    },
    {
      "type": "way",
      "id": 758864876,
      "center": {
        "lat": 13.0108678,
        "lon": 77.549346
      },
      "tags": {
        "access": "customers",
        "amenity": "parking",
        "fee": "yes",
        "parking": "surface"
      }
    },
    {
      "type": "way",
      "id": 766598699,
      "center": {
        "lat": 13.013451,
        "lon": 77.5505413
      },
      "tags": {
        "access": "private",
        "leisure": "swimming_pool"
      }
    },
    {
      "type": "way",
      "id": 771371487,
      "center": {
        "lat": 13.0068414,
        "lon": 77.5499952
      },
      "tags": {
        "leisure": "park"
      }
    },
    {
      "type": "way",
      "id": 772827140,
      "center": {
        "lat": 13.0198197,
        "lon": 77.5518866
      },
      "tags": {
        "leisure": "sports_centre"
      }
    },
    {
      "type": "way",
      "id": 772827141,
      "center": {
        "lat": 13.0207065,
        "lon": 77.5512988
      },
      "tags": {
        "access": "permissive",
        "leisure": "swimming_pool"
      }
    },
    {
      "type": "way",
      "id": 772827153,
      "center": {
        "lat": 13.0197938,
        "lon": 77.5504748
      },
      "tags": {
        "leisure": "garden"
      }
    },
    {
      "type": "way",
      "id": 780917607,
      "center": {
        "lat": 13.0114608,
        "lon": 77.5504152
      },
      "tags": {
        "amenity": "fast_food",
        "brand": "Indira Canteen",
        "brand:wikidata": "Q36164828",
        "cuisine": "south_indian",
        "name": "Indira Canteen",
        "operator": "BBMP",
        "takeaway": "yes"
      }
    },
    {
      "type": "way",
      "id": 780917613,
      "center": {
        "lat": 13.0153552,
        "lon": 77.5543271
      },
      "tags": {
        "garden:style": "landscaping",
        "leisure": "garden",
        "traffic_calming": "island"
      }
    },
    {
      "type": "way",
      "id": 780917615,
      "center": {
        "lat": 13.0164805,
        "lon": 77.555864
      },
      "tags": {
        "amenity": "community_centre",
        "landuse": "religious",
        "name": "Y Muniswamappa Kalyana Mantapa",
        "name:kn": "ಮುನಿಸ್ವಾಮಪ್ಪ ಕಲ್ಯಾಣ ಮಂಟಪಕ್",
        "religion": "hindu"
      }
    },
    {
      "type": "way",
      "id": 796369059,
      "center": {
        "lat": 13.0174951,
        "lon": 77.5492427
      },
      "tags": {
        "leisure": "park"
      }
    },
    {
      "type": "way",
      "id": 995864557,
      "center": {
        "lat": 13.0169663,
        "lon": 77.5488401
      },
      "tags": {
        "amenity": "community_centre",
        "name": "RG Royal Convention Hall"
      }
    },
    {
      "type": "way",
      "id": 996044801,
      "center": {
        "lat": 13.0088868,
        "lon": 77.5530722
      },
      "tags": {
        "leisure": "garden"
      }
    },
    {
      "type": "way",
      "id": 996044807,
      "center": {
        "lat": 13.0159004,
        "lon": 77.5553757
      },
      "tags": {
        "amenity": "recycling",
        "building": "yes",
        "name": "BBMP Waste Collection Center",
        "recycling_type": "centre"
      }
    },
    {
      "type": "way",
      "id": 996044808,
      "center": {
        "lat": 13.0123796,
        "lon": 77.5516099
      },
      "tags": {
        "brand": "Toyota",
        "brand:wikidata": "Q53268",
        "landuse": "commercial",
        "name": "Ravindu Toyota",
        "name:kn": "ರವಿಂದು ಟೋಯೋಟಾ",
        "shop": "car"
      }
    },
    {
      "type": "way",
      "id": 996044809,
      "center": {
        "lat": 13.011919,
        "lon": 77.5510057
      },
      "tags": {
        "amenity": "community_centre",
        "name": "Kalyana Mantapa",
        "name:kn": "ಕಲ್ಯಾಣ ಮಂಟಪ"
      }
    },
    {
      "type": "way",
      "id": 996359567,
      "center": {
        "lat": 13.0137094,
        "lon": 77.5486075
      },
      "tags": {
        "leisure": "garden"
      }
    },
    {
      "type": "way",
      "id": 1013443903,
      "center": {
        "lat": 13.0142942,
        "lon": 77.5560784
      },
      "tags": {
        "addr:city": "Bengaluru",
        "addr:district": "Bengaluru Urban",
        "addr:full": "26/4, Brigade Gateway, Beside Metro Cash and Carry, Malleshwaram",
        "addr:housenumber": "26/4",
        "addr:postcode": "560020",
        "addr:state": "Karnataka",
        "addr:street": "Brigade Gateway, Beside Metro Cash and Carry West, Malleshwaram",
        "amenity": "hospital",
        "emergency": "yes",
        "name": "Manipal Hospital Yeshwantpur",
        "old_name": "Columbia Asia Referral Hospital",
        "old_name:kn": "ಕೊಲಂಬಿಯ ಏಷ್ಯಾ ಆಸ್ಪತ್ರೆ",
        "phone": "080 3989 8969",
        "source": "OpenGovernmentData",
        "website": "https://www.columbiaasia.com/"
      }
    },
    {
      "type": "way",
      "id": 1034859475,
      "center": {
        "lat": 13.0159833,
        "lon": 77.5542584
      },
      "tags": {
        "garden:style": "landscaping",
        "leisure": "garden"
      }
    },
    {
      "type": "way",
      "id": 1034860583,
      "center": {
        "lat": 13.0083382,
        "lon": 77.5486182
      },
      "tags": {
        "access": "customers",
        "amenity": "motorcycle_parking",
        "capacity": "40",
        "covered": "yes",
        "parking": "surface"
      }
    },
    {
      "type": "way",
      "id": 1052008917,
      "center": {
        "lat": 13.0104348,
        "lon": 77.5533894
      },
      "tags": {
        "leisure": "garden"
      }
    },
    {
      "type": "way",
      "id": 1052008919,
      "center": {
        "lat": 13.0113906,
        "lon": 77.5542501
      },
      "tags": {
        "amenity": "place_of_worship",
        "religion": "hindu"
      }
    },
    {
      "type": "way",
      "id": 1068852043,
      "center": {
        "lat": 13.008106,
        "lon": 77.5539972
      },
      "tags": {
        "amenity": "place_of_worship",
        "landuse": "religious",
        "name": "Saccidananda",
        "name:kn": "ಸಚ್ಚಿದಾನಂದ",
        "religion": "christian"
      }
    },
    {
      "type": "way",
      "id": 1081463159,
      "center": {
        "lat": 13.0233372,
        "lon": 77.5486181
      },
      "tags": {
        "amenity": "community_centre",
        "community_centre": "community_hall",
        "landuse": "commercial",
        "name": "Raitha Bhavan",
        "name:kn": "ರೈತ ಭವನ"
      }
    },
    {
      "type": "way",
      "id": 1081463161,
      "center": {
        "lat": 13.0195942,
        "lon": 77.5526995
      },
      "tags": {
        "amenity": "fuel",
        "brand": "Total",
        "brand:wikidata": "Q154037",
        "name": "Total",
        "operator": "Total"
      }
    },
    {
      "type": "way",
      "id": 1084353639,
      "center": {
        "lat": 13.0062026,
        "lon": 77.5493497
      },
      "tags": {
        "amenity": "kindergarten",
        "name": "NPS Global Montessori Centre"
      }
    },
    {
      "type": "way",
      "id": 1084356335,
      "center": {
        "lat": 13.0065312,
        "lon": 77.5506788
      },
      "tags": {
        "leisure": "park"
      }
    },
    {
      "type": "way",
      "id": 1084356337,
      "center": {
        "lat": 13.0070617,
        "lon": 77.5497316
      },
      "tags": {
        "leisure": "park"
      }
    },
    {
      "type": "way",
      "id": 1086046636,
      "center": {
        "lat": 13.0153636,
        "lon": 77.5502063
      },
      "tags": {
        "leisure": "park"
      }
    },
    {
      "type": "way",
      "id": 1095188787,
      "center": {
        "lat": 13.0230672,
        "lon": 77.5508264
      },
      "tags": {
        "amenity": "parking"
      }
    },
    {
      "type": "way",
      "id": 1106402218,
      "center": {
        "lat": 13.0157527,
        "lon": 77.5538475
      },
      "tags": {
        "garden:style": "landscaping",
        "leisure": "garden"
      }
    },
    {
      "type": "way",
      "id": 1106402219,
      "center": {
        "lat": 13.0099112,
        "lon": 77.5495432
      },
      "tags": {
        "amenity": "place_of_worship",
        "landuse": "religious",
        "religion": "hindu"
      }
    },
    {
      "type": "way",
      "id": 1119221389,
      "center": {
        "lat": 13.0138015,
        "lon": 77.5483561
      },
      "tags": {
        "addr:city": "Bangalore",
        "addr:housenumber": "12/2",
        "addr:place": "Yeshwantpur Industrial Estate",
        "addr:postcode": "560086",
        "amenity": "events_venue",
        "contact:facebook": "https://www.facebook.com/blrcreativecircus",
        "contact:instagram": "https://www.instagram.com/blrcreativecircus",
        "contact:linkedin": "https://www.linkedin.com/company/bangalore-creative-circus/about/",
        "email": "info@blrcreativecircus.com",
        "fixme": "Landuse boundaries",
        "landuse": "commercial",
        "name": "Bangalore Creative Circus",
        "phone": "+91 9591668282",
        "website": "https://www.blrcreativecircus.com"
      }
    },
    {
      "type": "way",
      "id": 1119221394,
      "center": {
        "lat": 13.0146369,
        "lon": 77.5481384
      },
      "tags": {
        "amenity": "place_of_worship",
        "religion": "hindu"
      }
    },
    {
      "type": "way",
      "id": 1134831513,
      "center": {
        "lat": 13.0226214,
        "lon": 77.5499132
      },
      "tags": {
        "amenity": "fire_station",
        "name": "Fire Station",
        "name:kn": "ಅಗ್ನಿಶಾಮಕ ಠಾಣೆ"
      }
    },
    {
      "type": "way",
      "id": 1160675952,
      "center": {
        "lat": 13.0069712,
        "lon": 77.5438328
      },
      "tags": {
        "leisure": "park"
      }
    },
    {
      "type": "way",
      "id": 1160675953,
      "center": {
        "lat": 13.0068837,
        "lon": 77.5450599
      },
      "tags": {
        "leisure": "park"
      }
    },
    {
      "type": "way",
      "id": 1160675954,
      "center": {
        "lat": 13.0072537,
        "lon": 77.5448886
      },
      "tags": {
        "leisure": "playground"
      }
    },
    {
      "type": "way",
      "id": 1160675960,
      "center": {
        "lat": 13.0089812,
        "lon": 77.5466473
      },
      "tags": {
        "amenity": "place_of_worship",
        "landuse": "religious",
        "name": "Prasanna Veeranjaneya Temple",
        "name:kn": "ಪ್ರಸನ್ನ ವೀರಾಂಜನೇಯ ದೇವಸ್ಥಾನ",
        "religion": "hindu",
        "wheelchair": "no",
        "wikidata": "Q107669501",
        "wikipedia": "en:Sri Prasanna Veeranjeneya Swami Temple"
      }
    },
    {
      "type": "way",
      "id": 1163334246,
      "center": {
        "lat": 13.0080453,
        "lon": 77.5460143
      },
      "tags": {
        "amenity": "fuel",
        "brand": "Nayara",
        "brand:wikidata": "Q1360409",
        "name": "Nayara",
        "operator": "Nayara"
      }
    },
    {
      "type": "way",
      "id": 1207646952,
      "center": {
        "lat": 13.0106195,
        "lon": 77.5556676
      },
      "tags": {
        "amenity": "theatre",
        "name": "Amphitheater"
      }
    },
    {
      "type": "way",
      "id": 1217525766,
      "center": {
        "lat": 13.0111729,
        "lon": 77.5521903
      },
      "tags": {
        "landuse": "industrial",
        "name": "Dhobi Ghat",
        "name:kn": "ಧೋಬಿ ಘಾಟ್",
        "shop": "laundry"
      }
    },
    {
      "type": "way",
      "id": 1217525767,
      "center": {
        "lat": 13.0105757,
        "lon": 77.553401
      },
      "tags": {
        "access": "private",
        "leisure": "swimming_pool"
      }
    },
    {
      "type": "way",
      "id": 1239610848,
      "center": {
        "lat": 13.0147779,
        "lon": 77.552739
      },
      "tags": {
        "leisure": "park"
      }
    },
    {
      "type": "way",
      "id": 1252533778,
      "center": {
        "lat": 13.0098601,
        "lon": 77.5527805
      },
      "tags": {
        "leisure": "bleachers",
        "name": "Tennis Viewing Area"
      }
    },
    {
      "type": "way",
      "id": 1252533784,
      "center": {
        "lat": 13.0098651,
        "lon": 77.5531153
      },
      "tags": {
        "amenity": "fountain"
      }
    },
    {
      "type": "way",
      "id": 1252538848,
      "center": {
        "lat": 13.0091992,
        "lon": 77.553276
      },
      "tags": {
        "access": "private",
        "leisure": "pitch",
        "lit": "yes",
        "name": "Cricket Nets",
        "sport": "cricket",
        "surface": "artificial_turf"
      }
    },
    {
      "type": "way",
      "id": 1293369513,
      "center": {
        "lat": 13.0095183,
        "lon": 77.5438022
      },
      "tags": {
        "leisure": "playground"
      }
    },
    {
      "type": "way",
      "id": 1293792961,
      "center": {
        "lat": 13.0234697,
        "lon": 77.5504813
      },
      "tags": {
        "leisure": "garden"
      }
    },
    {
      "type": "way",
      "id": 1293792969,
      "center": {
        "lat": 13.0128398,
        "lon": 77.5515126
      },
      "tags": {
        "leisure": "pitch",
        "sport": "tennis"
      }
    },
    {
      "type": "way",
      "id": 1294790841,
      "center": {
        "lat": 13.0240773,
        "lon": 77.5473789
      },
      "tags": {
        "amenity": "fuel",
        "brand": "Shell",
        "brand:wikidata": "Q110716465",
        "landuse": "commercial",
        "name": "Shell",
        "name:kn": "ಶೆಲ್"
      }
    },
    {
      "type": "way",
      "id": 1297586915,
      "center": {
        "lat": 13.0123161,
        "lon": 77.5537226
      },
      "tags": {
        "amenity": "fuel",
        "brand": "Shell",
        "brand:wikidata": "Q110716465",
        "fuel:diesel": "yes",
        "fuel:octane_91": "yes",
        "landuse": "retail",
        "name": "Shell",
        "name:kn": "ಶೆಲ್"
      }
    },
    {
      "type": "way",
      "id": 1307431272,
      "center": {
        "lat": 13.0092625,
        "lon": 77.5516435
      },
      "tags": {
        "amenity": "parking",
        "fee": "yes",
        "name": "ISKCON Temple Parking",
        "parking": "surface"
      }
    },
    {
      "type": "way",
      "id": 1307470629,
      "center": {
        "lat": 13.009779,
        "lon": 77.5519575
      },
      "tags": {
        "access": "permissive",
        "amenity": "parking",
        "parking": "surface"
      }
    },
    {
      "type": "way",
      "id": 1307470630,
      "center": {
        "lat": 13.0093651,
        "lon": 77.5520259
      },
      "tags": {
        "access": "permissive",
        "amenity": "parking",
        "parking": "surface"
      }
    },
    {
      "type": "way",
      "id": 1307470631,
      "center": {
        "lat": 13.0088961,
        "lon": 77.551979
      },
      "tags": {
        "access": "permissive",
        "amenity": "parking",
        "parking": "surface"
      }
    },
    {
      "type": "way",
      "id": 1308403509,
      "center": {
        "lat": 13.0193297,
        "lon": 77.5552833
      },
      "tags": {
        "amenity": "place_of_worship",
        "landuse": "religious",
        "name": "Jamia Masjid Yeshwanthpur",
        "name:kn": "ಜಮ ಮಸೀದಿ",
        "religion": "muslim"
      }
    },
    {
      "type": "way",
      "id": 1337306136,
      "center": {
        "lat": 13.0109757,
        "lon": 77.5463778
      },
      "tags": {
        "access": "private",
        "leisure": "swimming_pool"
      }
    },
    {
      "type": "way",
      "id": 1352267564,
      "center": {
        "lat": 13.0214559,
        "lon": 77.553599
      },
      "tags": {
        "amenity": "hospital",
        "building": "yes",
        "name": "Government Maternity Hospital",
        "name:kn": "ಸರ್ಕಾರಿ ಹೆರಿಗೆ ಆಸ್ಪತ್ರೆ",
        "wheelchair": "limited"
      }
    },
    {
      "type": "way",
      "id": 1352955735,
      "center": {
        "lat": 13.012409,
        "lon": 77.5543198
      },
      "tags": {
        "amenity": "motorcycle_parking"
      }
    },
    {
      "type": "way",
      "id": 1352959759,
      "center": {
        "lat": 13.0126463,
        "lon": 77.5545139
      },
      "tags": {
        "amenity": "marketplace",
        "landuse": "retail",
        "name": "Footpath Stalls"
      }
    },
    {
      "type": "way",
      "id": 1370050089,
      "center": {
        "lat": 13.0116121,
        "lon": 77.5563655
      },
      "tags": {
        "leisure": "park"
      }
    },
    {
      "type": "way",
      "id": 1378950207,
      "center": {
        "lat": 13.0153737,
        "lon": 77.5555241
      },
      "tags": {
        "garden:style": "landscaping",
        "leisure": "garden"
      }
    },
    {
      "type": "way",
      "id": 1412397762,
      "center": {
        "lat": 13.0232123,
        "lon": 77.5439752
      },
      "tags": {
        "leisure": "garden"
      }
    },
    {
      "type": "way",
      "id": 1412397770,
      "center": {
        "lat": 13.0231339,
        "lon": 77.5441802
      },
      "tags": {
        "access": "private",
        "leisure": "pitch"
      }
    },
    {
      "type": "way",
      "id": 1412397771,
      "center": {
        "lat": 13.0231639,
        "lon": 77.5444808
      },
      "tags": {
        "access": "private",
        "leisure": "pitch"
      }
    }
  ]
}