{
  "area_name": "Ashraya Layout",
  "osm_id": 11472015231,
  "osm_type": "node",
  "place_type": "neighbourhood",
  "amenity_count": 189,
  "amenities": [
    {
      "type": "node",
      "id": 325203929,
      "lat": 12.9853637,
      "lon": 77.7081623,
      "tags": {
        "addr:street": "Graphite India Road",
        "amenity": "atm",
        "brand": "Standard Chartered",
        "brand:wikidata": "Q548278",
        "name": "Standard Chartered",
        "operator": "Standard Chartered",
        "operator:wikidata": "Q548278"
      }
    },
    {
      "type": "node",
      "id": 996176370,
      "lat": 12.9878629,
      "lon": 77.7095289,
      "tags": {
        "addr:city": "Whitefield, Bangalore",
        "addr:street": "Hoodi Main Road",
        "amenity": "atm",
        "brand": "State Bank of India",
        "brand:wikidata": "Q1340361",
        "name": "State Bank of India",
        "operator": "State Bank of India",
        "operator:wikidata": "Q1340361",
        "short_name": "SBI"
      }
    },
    {
      "type": "node",
      "id": 996176391,
      "lat": 12.989294,
      "lon": 77.7125997,
      "tags": {
        "addr:city": "Whitefield, Bangalore",
        "addr:housenumber": "11",
        "addr:street": "Hoodi Main Road",
        "amenity": "restaurant",
        "check_date": "2025-04-03",
        "cuisine": "indian",
        "name": "Bhagini Restaurant",
        "name:kn": "ಭಾಗಿನಿ ರೆಸ್ಟೋರೆಂಟ್",
        "phone": "+91-80-28540327"
      }
    },
    {
      "type": "node",
      "id": 1022683909,
      "lat": 12.985436,
      "lon": 77.7081208,
      "tags": {
        "addr:street": "Graphite India Road",
        "amenity": "atm",
        "branch": "Vysya ATM",
        "brand": "ING",
        "brand:wikidata": "Q645708",
        "name": "ING",
        "operator": "ING",
        "operator:wikidata": "Q645708"
      }
    },
    {
      "type": "node",
      "id": 1024630290,
      "lat": 12.989268,
      "lon": 77.7125459,
      "tags": {
        "amenity": "bar",
        "check_date": "2025-04-03",
        "name": "Bhagini Bar"
      }
    },
    {
      "type": "node",
      "id": 1032697374,
      "lat": 12.9890678,
      "lon": 77.7116566,
      "tags": {
        "addr:street": "Hoodi Main Road",
        "amenity": "restaurant",
        "cuisine": "indian",
        "name": "Ankur Family Restaurant",
        "name:kn": "ಅಂಕುರ್ ಫ್ಯಾಮಿಲಿ ರೆಸ್ಟೋರೆಂಟ್"
      }
    },
    {
      "type": "node",
      "id": 1041134302,
      "lat": 12.9832283,
      "lon": 77.7080008,
      "tags": {
        "addr:street": "ITPL Main Road",
        "amenity": "post_office",
        "brand": "Blue Dart Express",
        "brand:short": "Blue Dart",
        "brand:wikidata": "Q54621493",
        "landuse": "commercial",
        "name": "Blue Dart",
        "operator": "Blue Dart Express",
        "operator:short": "Blue Dart",
        "operator:wikidata": "Q54621493",
        "post_office:type": "post_annex"
      }
    },
    {
      "type": "node",
      "id": 1104408041,
      "lat": 12.9930001,
      "lon": 77.7027197,
      "tags": {
        "addr:city": "Bangalore",
        "addr:street": "Whitefield Road",
        "amenity": "fast_food",
        "brand": "Domino's",
        "brand:ks": "ڈومینوز",
        "brand:pa": "ਡੋਮੀਨੋਜ਼",
        "brand:ur": "ڈومینوز",
        "brand:wikidata": "Q839466",
        "brand:wikipedia": "en:Domino's Pizza",
        "cuisine": "pizza",
        "name": "Domino's",
        "name:kn": "ಡಾಮಿನೋಸ್",
        "name:ks": "ڈومینوز",
        "name:pa": "ਡੋਮੀਨੋਜ਼",
        "name:ur": "ڈومینوز",
        "takeaway": "yes"
      }
    },
    {
      "type": "node",
      "id": 1166275817,
      "lat": 12.9897305,
      "lon": 77.7023418,
      "tags": {
        "shop": "convenience"
      }
    },
    {
      "type": "node",
      "id": 1399447336,
      "lat": 12.9831083,
      "lon": 77.707991,
      "tags": {
        "addr:street": "Graphite India Road",
        "amenity": "kindergarten",
        "name": "Klay Day Care"
      }
    },
    {
      "type": "node",
      "id": 1733720842,
      "lat": 12.9926358,
      "lon": 77.7027672,
      "tags": {
        "amenity": "cafe",
        "brand": "Costa",
        "brand:wikidata": "Q608845",
        "cuisine": "coffee_shop",
        "name": "Costa",
        "takeaway": "yes"
      }
    },
    {
      "type": "node",
      "id": 1733720846,
      "lat": 12.9922906,
      "lon": 77.7027028,
      "tags": {
        "amenity": "fast_food",
        "name": "Kismiss"
      }
    },
    {
      "type": "node",
      "id": 1839606932,
      "lat": 12.9927632,
      "lon": 77.7027663,
      "tags": {
        "amenity": "bank",
        "atm": "yes",
        "brand": "State Bank of India",
        "brand:wikidata": "Q1340361",
        "brand:wikipedia": "en:State Bank of India",
        "name": "State Bank of India",
        "name:kn": "ಭಾರತೀಯ ಸ್ಟೇಟ್ ಬ್ಯಾಂಕ್",
        "short_name": "SBI"
      }
    },
    {
      "type": "node",
      "id": 3426278198,
      "lat": 12.9925169,
      "lon": 77.7031605,
      "tags": {
        "amenity": "atm",
        "brand": "Citibank",
        "brand:wikidata": "Q857063",
        "name": "Citibank ATM",
        "operator": "Citibank",
        "operator:wikidata": "Q857063",
        "short_name": "Citi"
      }
    },
    {
      "type": "node",
      "id": 4445639834,
      "lat": 12.9929014,
      "lon": 77.7027759,
      "tags": {
        "addr:city": "Bangalore",
        "addr:housenumber": "113",
        "addr:postcode": "560048",
        "addr:street": "Whitefield Road,Garudachar Palya, Mahadevapura",
        "amenity": "pharmacy",
        "healthcare": "pharmacy",
        "name": "NationWide Primary Healthcare Services",
        "phone": "080 4205 5422"
      }
    },
    {
      "type": "node",
      "id": 4488016945,
      "lat": 12.9932354,
      "lon": 77.7059605,
      "tags": {
        "addr:city": "Bangalore",
        "addr:postcode": "560048",
        "addr:street": "SPRYNT, VR BANGALORE, NO.16 , SINGYYAPALAYA, WHITEFILED ROAD, ITPL Main Road, MAHADEVPURA POST",
        "leisure": "sports_centre",
        "name": "Sprynt",
        "phone": "070904 44496"
      }
    },
    {
      "type": "node",
      "id": 4489935362,
      "lat": 12.987832,
      "lon": 77.7092846,
      "tags": {
        "addr:city": "Whitefield, Bangalore",
        "addr:housenumber": "101/102",
        "addr:postcode": "560048",
        "addr:street": "Hoodi Main Road",
        "name": "Fifth Element Thai Spa",
        "opening_hours": "10:00-21:01",
        "phone": "(91)-80-41666362",
        "shop": "beauty"
      }
    },
    {
      "type": "node",
      "id": 5123954725,
      "lat": 12.990654,
      "lon": 77.7004421,
      "tags": {
        "amenity": "place_of_worship",
        "religion": "hindu"
      }
    },
    {
      "type": "node",
      "id": 5123966868,
      "lat": 12.9899373,
      "lon": 77.7000773,
      "tags": {
        "amenity": "place_of_worship",
        "religion": "hindu"
      }
    },
    {
      "type": "node",
      "id": 5611680989,
      "lat": 12.9805421,
      "lon": 77.7120973,
      "tags": {
        "alt_name": "Oregano Whitefield",
        "amenity": "restaurant",
        "cuisine": "international",
        "name": "Oregano"
      }
    },
    {
      "type": "node",
      "id": 5928669348,
      "lat": 12.9848221,
      "lon": 77.7111977,
      "tags": {
        "addr:city": "Bangalore",
        "addr:housenumber": "1",
        "addr:postcode": "560048",
        "addr:street": "NCPR Industrial Layout, Seetharampalya, Hoodi Main Road",
        "amenity": "restaurant",
        "cuisine": "indian",
        "delivery": "yes",
        "name": "Yumatos",
        "opening_hours": "Mo-Su 10:00-22:30",
        "takeaway": "yes"
      }
    },
    {
      "type": "node",
      "id": 6216303181,
      "lat": 12.9820349,
      "lon": 77.7087096,
      "tags": {
        "amenity": "restaurant"
      }
    },
    {
      "type": "node",
      "id": 6216304209,
      "lat": 12.9824221,
      "lon": 77.7086483,
      "tags": {
        "addr:city": "Bengaluru",
        "addr:postcode": "560048",
        "addr:street": "Kundalahalli Main Road",
        "amenity": "pub",
        "contact:instagram": "biergartenbangalore",
        "cuisine": "burger;pizza;regional;sandwich",
        "delivery": "no",
        "facebook": "https://www.facebook.com/biergartenbangalore/",
        "indoor_seating": "yes",
        "microbrewery": "yes",
        "name": "BierGarten Brewery & Kitchen",
        "opening_hours": "Su-Th 12:00-00:00; Fr-Sa 12:00-01:00",
        "outdoor_seating": "yes",
        "smoking": "isolated",
        "takeaway": "yes"
      }
    },
    {
      "type": "node",
      "id": 6229075164,
      "lat": 12.9844254,
      "lon": 77.7085422,
      "tags": {
        "check_date": "2023-10-29",
        "name": "Families Supermarket",
        "payment:cash": "yes",
        "payment:credit_cards": "yes",
        "payment:debit_cards": "yes",
        "payment:electronic_purses": "yes",
        "shop": "supermarket"
      }
    },
    {
      "type": "node",
      "id": 7572131843,
      "lat": 12.9936892,
      "lon": 77.7016795,
      "tags": {
        "addr:district": "Bengaluru Urban",
        "addr:full": "Garudachar Palya, Mahadevapura, Bengaluru",
        "addr:postcode": "560048",
        "addr:state": "Karnataka",
        "amenity": "clinic",
        "name": "Chirayu Health care centre",
        "source": "Local Knowledge"
      }
    },
    {
      "type": "node",
      "id": 7572131873,
      "lat": 12.993824,
      "lon": 77.7029,
      "tags": {
        "addr:district": "Bengaluru Urban",
        "addr:full": "Kaveri Nagar, Krishnarajapura, Bengaluru",
        "addr:postcode": "560048",
        "addr:state": "Karnataka",
        "amenity": "clinic",
        "name": "Sai Kripa Nursing Home",
        "source": "Local Knowledge"
      }
    },
    {
      "type": "node",
      "id": 7572131937,
      "lat": 12.9924407,
      "lon": 77.7027556,
      "tags": {
        "addr:district": "Bengaluru Urban",
        "addr:full": "Whitefield Main Road, Garudachar Palya, Mahadevapura, Bengaluru",
        "addr:postcode": "560048",
        "addr:state": "Karnataka",
        "amenity": "clinic",
        "healthcare": "clinic",
        "name": "Tata Health Clinic",
        "source": "Local Knowledge"
      }
    },
    {
      "type": "node",
      "id": 9937603690,
      "lat": 12.9940421,
      "lon": 77.7019634,
      "tags": {
        "amenity": "atm",
        "brand": "HDFC Bank",
        "brand:wikidata": "Q631047",
        "name": "HDFC Bank",
        "name:kn": "ಎಚ್ ಡಿ ಎಫ್ ಸಿ",
        "operator": "HDFC Bank",
        "operator:wikidata": "Q631047",
        "short_name": "HDFC"
      }
    },
    {
      "type": "node",
      "id": 9937603698,
      "lat": 12.9937994,
      "lon": 77.7012007,
      "tags": {
        "amenity": "restaurant",
        "name": "Sindhoora Gardenia"
      }
    },
    {
      "type": "node",
      "id": 10079035458,
      "lat": 12.9941066,
      "lon": 77.7022151,
      "tags": {
        "name": "Go Native",
        "shop": "clothes"
      }
    },
    {
      "type": "node",
      "id": 10651190514,
      "lat": 12.9896936,
      "lon": 77.7124312,
      "tags": {
        "amenity": "post_office",
        "brand": "Blue Dart Express",
        "brand:short": "Blue Dart",
        "brand:wikidata": "Q54621493",
        "name": "Blue Dart",
        "operator": "Blue Dart Express",
        "operator:short": "Blue Dart",
        "operator:wikidata": "Q54621493"
      }
    },
    {
      "type": "node",
      "id": 10651190533,
      "lat": 12.9822815,
      "lon": 77.708899,
      "tags": {
        "amenity": "bank",
        "brand": "HDFC Bank",
        "brand:wikidata": "Q631047",
        "name": "HDFC Bank",
        "operator": "HDFC Bank",
        "short_name": "HDFC"
      }
    },
    {
      "type": "node",
      "id": 10651190534,
      "lat": 12.9822648,
      "lon": 77.7087862,
      "tags": {
        "email": "contact@gamingalaxy.in",
        "fee": "yes",
        "leisure": "escape_game",
        "name": "gamingalaxy",
        "phone": "+91 6364016789",
        "website": "https://gamingalaxy.in"
      }
    },
    {
      "type": "node",
      "id": 11034490397,
      "lat": 12.9892999,
      "lon": 77.6993829,
      "tags": {
        "amenity": "place_of_worship",
        "check_date": "2023-07-08",
        "religion": "hindu"
      }
    },
    {
      "type": "node",
      "id": 11215663899,
      "lat": 12.9884886,
      "lon": 77.7099372,
      "tags": {
        "amenity": "parking_entrance",
        "parking": "underground"
      }
    },
    {
      "type": "node",
      "id": 11297456548,
      "lat": 12.9844833,
      "lon": 77.7085808,
      "tags": {
        "branch": "Hoodi",
        "brand": "cult.fit",
        "brand:wikidata": "Q121289250",
        "check_date": "2023-10-29",
        "leisure": "fitness_centre",
        "name": "cult.fit"
      }
    },
    {
      "type": "node",
      "id": 11297456549,
      "lat": 12.9841826,
      "lon": 77.708424,
      "tags": {
        "check_date": "2023-10-29",
        "name": "Sahukar Chai",
        "shop": "tea"
      }
    },
    {
      "type": "node",
      "id": 11297456550,
      "lat": 12.9840471,
      "lon": 77.7084168,
      "tags": {
        "amenity": "fast_food",
        "check_date": "2023-10-29",
        "name": "Ambur Hot Dum Biryani"
      }
    },
    {
      "type": "node",
      "id": 11298101292,
      "lat": 12.981279,
      "lon": 77.7088355,
      "tags": {
        "access": "private",
        "amenity": "motorcycle_parking",
        "covered": "yes",
        "description": "Staff parking",
        "fee": "no"
      }
    },
    {
      "type": "node",
      "id": 11298101293,
      "lat": 12.9812718,
      "lon": 77.7085472,
      "tags": {
        "access": "yes",
        "amenity": "motorcycle_parking",
        "covered": "yes",
        "fee": "no"
      }
    },
    {
      "type": "node",
      "id": 11298101294,
      "lat": 12.9804766,
      "lon": 77.7087624,
      "tags": {
        "access": "yes",
        "amenity": "motorcycle_parking",
        "covered": "yes",
        "fee": "no"
      }
    },
    {
      "type": "node",
      "id": 11361570770,
      "lat": 12.9810385,
      "lon": 77.7091091,
      "tags": {
        "amenity": "parking_entrance",
        "parking": "underground"
      }
    },
    {
      "type": "node",
      "id": 11371672503,
      "lat": 12.9808748,
      "lon": 77.7114066,
      "tags": {
        "access": "private",
        "amenity": "parking_entrance",
        "parking": "underground"
      }
    },
    {
      "type": "node",
      "id": 11429434927,
      "lat": 12.9810372,
      "lon": 77.7087623,
      "tags": {
        "amenity": "ticket_validator",
        "barrier": "gate",
        "fee": "yes",
        "level": "1",
        "network": "Namma Metro",
        "operator": "Bangalore Metro Rail Corporation Limited",
        "wheelchair": "yes"
      }
    },
    {
      "type": "node",
      "id": 11446204194,
      "lat": 12.9809967,
      "lon": 77.712311,
      "tags": {
        "amenity": "bench",
        "material": "concrete"
      }
    },
    {
      "type": "node",
      "id": 11446204199,
      "lat": 12.9824322,
      "lon": 77.7123814,
      "tags": {
        "amenity": "bench",
        "backrest": "yes",
        "material": "concrete"
      }
    },
    {
      "type": "node",
      "id": 11509027900,
      "lat": 12.9771757,
      "lon": 77.704852,
      "tags": {
        "access": "private",
        "amenity": "parking_entrance",
        "parking": "underground"
      }
    },
    {
      "type": "node",
      "id": 11575590417,
      "lat": 12.982224,
      "lon": 77.7087599,
      "tags": {
        "amenity": "pub",
        "contact:instagram": "blrbrewing",
        "name": "BLR Brewing Co",
        "phone": "+91 8071174545",
        "website": "https://www.blrbrewing.com/"
      }
    },
    {
      "type": "node",
      "id": 11642112406,
      "lat": 12.9873708,
      "lon": 77.7118608,
      "tags": {
        "amenity": "bicycle_rental",
        "capacity": "4",
        "name": "Tilt Bicycle Rental",
        "operator": "Tilt",
        "operator:type": "private"
      }
    },
    {
      "type": "node",
      "id": 11642160030,
      "lat": 12.988135,
      "lon": 77.7120732,
      "tags": {
        "access": "private",
        "amenity": "parking_entrance"
      }
    },
    {
      "type": "node",
      "id": 11642160040,
      "lat": 12.9881607,
      "lon": 77.711556,
      "tags": {
        "access": "private",
        "amenity": "parking_entrance"
      }
    },
    {
      "type": "node",
      "id": 11642208651,
      "lat": 12.988489,
      "lon": 77.7116945,
      "tags": {
        "name": "DusMinute",
        "shop": "department_store"
      }
    },
    {
      "type": "node",
      "id": 11642208652,
      "lat": 12.9883854,
      "lon": 77.7118988,
      "tags": {
        "shop": "hairdresser"
      }
    },
    {
      "type": "node",
      "id": 11642208653,
      "lat": 12.9884057,
      "lon": 77.7116945,
      "tags": {
        "amenity": "pharmacy",
        "brand": "Apollo Pharmacy",
        "brand:wikidata": "Q62562612",
        "dispensing": "yes",
        "healthcare": "pharmacy",
        "name": "Apollo Pharmacy",
        "name:kn": "ಅಪೋಲೋ ಫಾರ್ಮಸಿ"
      }
    },
    {
      "type": "node",
      "id": 11974576069,
      "lat": 12.9791095,
      "lon": 77.7012136,
      "tags": {
        "shop": "art"
      }
    },
    {
      "type": "node",
      "id": 11999510490,
      "lat": 12.9877921,
      "lon": 77.6972078,
      "tags": {
        "access": "yes",
        "amenity": "bicycle_parking",
        "bicycle_parking": "stands",
        "capacity": "6",
        "covered": "no",
        "fee": "no",
        "operator:type": "public"
      }
    },
    {
      "type": "node",
      "id": 12129019645,
      "lat": 12.9886154,
      "lon": 77.7103409,
      "tags": {
        "amenity": "pub",
        "name": "Tipsy Bull Brewhouse And Kitchen",
        "website": "https://tipsybull.com/"
      }
    },
    {
      "type": "node",
      "id": 12135425985,
      "lat": 12.9858573,
      "lon": 77.7081566,
      "tags": {
        "addr:city": "Bengaluru",
        "addr:postcode": "560048",
        "air_conditioning": "yes",
        "amenity": "restaurant",
        "cuisine": "indian",
        "diet:vegetarian": "yes",
        "level": "1",
        "name": "Kailash Parbat",
        "note": "Staircase to restaurant not accessible, but it appears to have a lift",
        "website": "https://www.zomato.com/bangalore/kailash-parbat-whitefield-bangalore",
        "wheelchair": "limited"
      }
    },
    {
      "type": "node",
      "id": 12135425997,
      "lat": 12.9858641,
      "lon": 77.7082776,
      "tags": {
        "access": "yes",
        "amenity": "parking_entrance",
        "parking": "underground"
      }
    },
    {
      "type": "node",
      "id": 12187611682,
      "lat": 12.9809553,
      "lon": 77.7116675,
      "tags": {
        "access": "private",
        "amenity": "parking_entrance",
        "parking": "underground"
      }
    },
    {
      "type": "node",
      "id": 12187611685,
      "lat": 12.9809918,
      "lon": 77.7116952,
      "tags": {
        "access": "private",
        "amenity": "parking_entrance",
        "parking": "underground"
      }
    },
    {
      "type": "node",
      "id": 12284791767,
      "lat": 12.9776677,
      "lon": 77.7072956,
      "tags": {
        "addr:city": "Bengaluru",
        "addr:district": "Bengaluru",
        "addr:housenumber": "22/A",
        "addr:postcode": "560048",
        "addr:street": "22/A, Doddanakundi Industrial Area 2, Phase 1, Doddanekkundi",
        "air_conditioning": "yes",
        "amenity": "restaurant",
        "bar": "yes",
        "capacity": "1000",
        "changing_table": "yes",
        "check_date": "2025-11-22",
        "contact:instagram": "https://www.instagram.com/theyardblr",
        "cuisine": "indian;asian;continental;bar_food;grill;fusion",
        "delivery": "yes",
        "description": "The Yard, Whitefield is the best bar and restaurant in Whitefield, Bengaluru. With top-rated food, service, and atmosphere, we’re known for our open-air ambiance, live events, karaoke nights, and gaming zone.",
        "diet:chicken": "yes",
        "diet:fish": "yes",
        "diet:gluten_free": "yes",
        "diet:halal": "yes",
        "diet:healthy": "yes",
        "diet:kosher": "yes",
        "diet:lacto_vegetarian": "yes",
        "diet:lactose_free": "yes",
        "diet:local": "yes",
        "diet:mediterranean": "yes",
        "diet:non-vegetarian": "yes",
        "diet:organic": "yes",
        "diet:pescetarian": "yes",
        "diet:seafood": "yes",
        "diet:sugar_free": "yes",
        "diet:vegan": "yes",
        "diet:vegetarian": "yes",
        "email": "theyardblr@gmail.com",
        "highchair": "yes",
        "internet_access": "wlan",
        "internet_access:fee": "no",
        "level": "9",
        "loc_name": "best bar and restaurant in Whitefield",
        "name": "The Yard, Whitefield",
        "official_name": "best bar and restaurant in Whitefield",
        "official_name:en": "best 5-star restaurants in Bengaluru",
        "opening_hours": "Mo-Sun 12.00-1.00",
        "organic": "only",
        "outdoor_seating": "yes",
        "payment:account_cards": "yes",
        "payment:alipay": "yes",
        "payment:american_express": "yes",
        "payment:app": "yes",
        "payment:apple_pay": "yes",
        "payment:bancomat": "yes",
        "payment:blik": "yes",
        "payment:cards": "yes",
        "payment:cash": "yes",
        "payment:cheque": "yes",
        "payment:clipper": "yes",
        "payment:coins": "yes",
        "payment:contactless": "yes",
        "payment:credit_cards": "yes",
        "payment:cryptocurrencies": "yes",
        "payment:debit_cards": "yes",
        "payment:diners_club": "yes",
        "payment:discover_card": "yes",
        "payment:dkv": "yes",
        "payment:electronic_purses": "yes",
        "payment:ep_easycard": "yes",
        "payment:ep_geldkarte": "yes",
        "payment:ep_ipass": "yes",
        "payment:girocard": "yes",
        "payment:google_pay": "yes",
        "payment:jcb": "yes",
        "payment:lightning": "yes",
        "payment:maestro": "yes",
        "payment:mastercard": "yes",
        "payment:mastercard_contactless": "yes",
        "payment:notes": "yes",
        "payment:onchain": "yes",
        "payment:paypal": "yes",
        "payment:prepaid_ticket": "yes",
        "payment:telephone_cards": "yes",
        "payment:unionpay": "yes",
        "payment:uta": "yes",
        "payment:v_pay": "yes",
        "payment:visa": "yes",
        "payment:visa_debit": "yes",
        "payment:visa_electron": "yes",
        "payment:wechat": "yes",
        "phone": "+919980123543",
        "reservation": "yes",
        "short_name": "The Yard",
        "smoking": "no",
        "sport": "billiards;table_soccer;darts;pool",
        "stars": "5",
        "takeaway": "yes",
        "toilets": "yes",
        "toilets:wheelchair": "yes",
        "website": "https://the-yard.in",
        "website:menu": "https://drive.google.com/drive/folders/1iwnYYAgSwNDCTb2ubnBj1-Gy8IZbGNZj",
        "wheelchair": "yes"
      }
    },
    {
      "type": "node",
      "id": 12413065038,
      "lat": 12.9938867,
      "lon": 77.7033425,
      "tags": {
        "air_conditioning": "yes",
        "amenity": "restaurant",
        "bar": "yes",
        "check_date": "2024-12-11",
        "level": "4",
        "level:ref": "3",
        "name": "Sky Garden"
      }
    },
    {
      "type": "node",
      "id": 12534145132,
      "lat": 12.9934554,
      "lon": 77.7043415,
      "tags": {
        "amenity": "taxi",
        "name": "Taxi Pickup"
      }
    },
    {
      "type": "node",
      "id": 12534145133,
      "lat": 12.993427,
      "lon": 77.7043141,
      "tags": {
        "amenity": "charging_station",
        "name": "Honda e:swap"
      }
    },
    {
      "type": "node",
      "id": 12534184753,
      "lat": 12.9934554,
      "lon": 77.7043415,
      "tags": {
        "amenity": "taxi",
        "name": "Taxi Pickup"
      }
    },
    {
      "type": "node",
      "id": 12534184756,
      "lat": 12.993427,
      "lon": 77.7043141,
      "tags": {
        "amenity": "charging_station",
        "name": "Honda e:swap"
      }
    },
    {
      "type": "node",
      "id": 12767981104,
      "lat": 12.980602,
      "lon": 77.7092104,
      "tags": {
        "amenity": "hospital",
        "name": "Narayana Nethralaya",
        "opening_hours": "Mo-Sa 08:30-18:00",
        "phone": "08066121658",
        "website": "https://www.narayananethralaya.org/"
      }
    },
    {
      "type": "node",
      "id": 12946538926,
      "lat": 12.982368,
      "lon": 77.7087588,
      "tags": {
        "amenity": "restaurant",
        "check_date": "2025-06-23",
        "cuisine": "japanese",
        "name": "Hachi by Tenya"
      }
    },
    {
      "type": "node",
      "id": 12981491764,
      "lat": 12.9790577,
      "lon": 77.7114144,
      "tags": {
        "check_date": "2025-07-06",
        "name": "G. K. B Indian Bikes",
        "shop": "motorcycle_repair"
      }
    },
    {
      "type": "node",
      "id": 13013588709,
      "lat": 12.9918797,
      "lon": 77.7026349,
      "tags": {
        "amenity": "cafe",
        "name": "The Junk Free Cafe"
      }
    },
    {
      "type": "node",
      "id": 13043342400,
      "lat": 12.9917014,
      "lon": 77.7032095,
      "tags": {
        "access": "private",
        "amenity": "parking_entrance",
        "parking": "multi-storey"
      }
    },
    {
      "type": "node",
      "id": 13062303501,
      "lat": 12.9907341,
      "lon": 77.7079521,
      "tags": {
        "addr:housenumber": "40 H",
        "addr:postcode": "560048",
        "addr:street": "Whitefield Road",
        "amenity": "pub",
        "cuisine": "burger",
        "diet:vegetarian": "yes",
        "name": "Mannheim Craft Brewery",
        "opening_hours": "Mo-Su 11:00-00:00"
      }
    },
    {
      "type": "node",
      "id": 13120636975,
      "lat": 12.9857026,
      "lon": 77.7077508,
      "tags": {
        "addr:housenumber": "Plot no 14",
        "addr:postcode": "560048",
        "addr:street": "Kundalahalli Main Road",
        "amenity": "fuel",
        "name": "Hindustan Petroleum",
        "opening_hours": "24/7",
        "phone": "+919888751222",
        "self_service": "no",
        "website": "https://petrolpump.hpretail.in/hindustan-petroleum-corporation-limited-vriddhii-fuels-petrol-pump-itpl-main-road-bengaluru-419690/Home"
      }
    },
    {
      "type": "node",
      "id": 13120636986,
      "lat": 12.9866604,
      "lon": 77.7079537,
      "tags": {
        "amenity": "cafe",
        "name": "Hatti Kaapi"
      }
    },
    {
      "type": "node",
      "id": 13120641506,
      "lat": 12.9872387,
      "lon": 77.7088261,
      "tags": {
        "amenity": "fuel"
      }
    },
    {
      "type": "node",
      "id": 13120641536,
      "lat": 12.9878686,
      "lon": 77.7089248,
      "tags": {
        "amenity": "pub",
        "name": "Brix & Barrells"
      }
    },
    {
      "type": "node",
      "id": 13122918092,
      "lat": 12.9868603,
      "lon": 77.7107398,
      "tags": {
        "access": "private",
        "amenity": "parking_entrance",
        "parking": "underground"
      }
    },
    {
      "type": "node",
      "id": 13122918098,
      "lat": 12.9868503,
      "lon": 77.71023,
      "tags": {
        "access": "private",
        "amenity": "parking_entrance",
        "parking": "underground"
      }
    },
    {
      "type": "node",
      "id": 13152141906,
      "lat": 12.9796467,
      "lon": 77.7107513,
      "tags": {
        "access": "private",
        "amenity": "parking_entrance",
        "parking": "underground"
      }
    },
    {
      "type": "node",
      "id": 13152141932,
      "lat": 12.9812208,
      "lon": 77.7100707,
      "tags": {
        "access": "private",
        "amenity": "parking_entrance",
        "parking": "underground"
      }
    },
    {
      "type": "node",
      "id": 13245235394,
      "lat": 12.9894753,
      "lon": 77.7118966,
      "tags": {
        "leisure": "fitness_station",
        "name": "BFC Fitness"
      }
    },
    {
      "type": "node",
      "id": 13245235396,
      "lat": 12.990228,
      "lon": 77.7129346,
      "tags": {
        "brand": "Audi",
        "brand:wikidata": "Q23317",
        "name": "Audi",
        "shop": "car"
      }
    },
    {
      "type": "way",
      "id": 89781247,
      "center": {
        "lat": 12.992488,
        "lon": 77.7062224
      },
      "tags": {
        "addr:city": "Hudi, Bangalore",
        "addr:street": "Graphite India Road",
        "amenity": "hospital",
        "healthcare": "hospital",
        "name": "ESI Dispensary",
        "operator": "Employees' State Insurance",
        "operator:short": "ESI",
        "operator:type": "private",
        "operator:wikidata": "Q3595726",
        "phone": "080 28524261"
      }
    },
    {
      "type": "way",
      "id": 122403363,
      "center": {
        "lat": 12.9863803,
        "lon": 77.7068884
      },
      "tags": {
        "addr:city": "Mahadevapura, Bangalore",
        "addr:street": "Graphite India Road",
        "amenity": "school",
        "barrier": "wall",
        "name": "Gopalan National School"
      }
    },
    {
      "type": "way",
      "id": 122403374,
      "center": {
        "lat": 12.9903113,
        "lon": 77.7123758
      },
      "tags": {
        "name": "Sundaram Motors",
        "shop": "car"
      }
    },
    {
      "type": "way",
      "id": 123613264,
      "center": {
        "lat": 12.9788071,
        "lon": 77.7099307
      },
      "tags": {
        "addr:full": "5A, Graphite India Road, Mahadevapura, Bangalore - 560048",
        "brand": "Hyundai",
        "brand:wikidata": "Q55931",
        "email": "amplws_13@rediffmail.com",
        "name": "Advaith Hyundai Service",
        "name:kn": "ಅದ್ವೈತ ಹ್ಯುಂಡೈ",
        "operator": "Advaith",
        "phone": "+91-80-22976182",
        "shop": "car"
      }
    },
    {
      "type": "way",
      "id": 159845124,
      "center": {
        "lat": 12.983472,
        "lon": 77.6997518
      },
      "tags": {
        "amenity": "animal_shelter",
        "name": "Goshala - Veterinary Center for Cattle",
        "name:kn": "ಗೋಶಾಲ"
      }
    },
    {
      "type": "way",
      "id": 346542888,
      "center": {
        "lat": 12.9929117,
        "lon": 77.7003779
      },
      "tags": {
        "addr:street": "Whitefield Road",
        "branch": "Cash & Carry",
        "brand": "METRO",
        "brand:wikidata": "Q13610282",
        "building": "yes",
        "name": "METRO",
        "shop": "wholesale"
      }
    },
    {
      "type": "way",
      "id": 346842851,
      "center": {
        "lat": 12.9841618,
        "lon": 77.7077841
      },
      "tags": {
        "addr:city": "Bengaluru",
        "addr:housenumber": "243/17-B",
        "addr:postcode": "560048",
        "addr:street": "Doddanakundi Industrial Area 2",
        "alt_name": "BMW Deutsche Motoren Service Centre",
        "brand": "BMW",
        "brand:wikidata": "Q26678",
        "building": "yes",
        "name": "BMW",
        "shop": "car"
      }
    },
    {
      "type": "way",
      "id": 346842857,
      "center": {
        "lat": 12.9920515,
        "lon": 77.7064747
      },
      "tags": {
        "amenity": "hospital",
        "email": "contactus.blr@kinderhospitals.com",
        "emergency": "yes",
        "healthcare": "hospital",
        "healthcare:speciality": "gynaecology;urology;neonatology;paediatrics;plastic_surgery;anaesthetics;surgery;general;dermatology",
        "name": "Kinder Women's Hospital & Fertility Center",
        "phone": "+91 80 2888 8880",
        "website": "https://kinderhospitals.com/",
        "wheelchair": "yes"
      }
    },
    {
      "type": "way",
      "id": 346843087,
      "center": {
        "lat": 12.9840091,
        "lon": 77.706795
      },
      "tags": {
        "access": "private",
        "amenity": "parking",
        "parking": "surface"
      }
    },
    {
      "type": "way",
      "id": 350158338,
      "center": {
        "lat": 12.9796639,
        "lon": 77.6992269
      },
      "tags": {
        "access": "private",
        "leisure": "swimming_pool"
      }
    },
    {
      "type": "way",
      "id": 350158346,
      "center": {
        "lat": 12.9795674,
        "lon": 77.6992815
      },
      "tags": {
        "access": "private",
        "leisure": "swimming_pool"
      }
    },
    {
      "type": "way",
      "id": 351060167,
      "center": {
        "lat": 12.9876239,
        "lon": 77.7103214
      },
      "tags": {
        "brand": "Bosch Car Service",
        "brand:wikidata": "Q894368",
        "building": "commercial",
        "name": "Bosch Car Service Center",
        "name:kn": "ಬೋಷ್",
        "operator": "Bosch",
        "shop": "car_repair"
      }
    },
    {
      "type": "way",
      "id": 627710065,
      "center": {
        "lat": 12.9893231,
        "lon": 77.701715
      },
      "tags": {
        "leisure": "pitch",
        "sport": "tennis"
      }
    },
    {
      "type": "way",
      "id": 627710066,
      "center": {
        "lat": 12.9893032,
        "lon": 77.7020413
      },
      "tags": {
        "leisure": "pitch",
        "sport": "basketball"
      }
    },
    {
      "type": "way",
      "id": 627710067,
      "center": {
        "lat": 12.989161,
        "lon": 77.7023199
      },
      "tags": {
        "leisure": "swimming_pool"
      }
    },
    {
      "type": "way",
      "id": 627710069,
      "center": {
        "lat": 12.9917726,
        "lon": 77.70341
      },
      "tags": {
        "access": "private",
        "leisure": "swimming_pool"
      }
    },
    {
      "type": "way",
      "id": 690851285,
      "center": {
        "lat": 12.9901991,
        "lon": 77.7036905
      },
      "tags": {
        "leisure": "pitch",
        "sport": "skateboard"
      }
    },
    {
      "type": "way",
      "id": 1065147883,
      "center": {
        "lat": 12.9809686,
        "lon": 77.6977913
      },
      "tags": {
        "garden:type": "landscaping",
        "leisure": "garden"
      }
    },
    {
      "type": "way",
      "id": 1084458379,
      "center": {
        "lat": 12.994151,
        "lon": 77.7056564
      },
      "tags": {
        "amenity": "parking",
        "name": "Visitor Parking",
        "name:kn": "ವಿಮಾನ ನಿಲ್ದಾಣ",
        "parking": "surface"
      }
    },
    {
      "type": "way",
      "id": 1084458386,
      "center": {
        "lat": 12.9934772,
        "lon": 77.7006036
      },
      "tags": {
        "amenity": "parking",
        "parking": "surface"
      }
    },
    {
      "type": "way",
      "id": 1084474518,
      "center": {
        "lat": 12.9873357,
        "lon": 77.711611
      },
      "tags": {
        "access": "private",
        "leisure": "swimming_pool",
        "lit": "yes",
        "location": "outdoor"
      }
    },
    {
      "type": "way",
      "id": 1084701601,
      "center": {
        "lat": 12.9820599,
        "lon": 77.7107596
      },
      "tags": {
        "access": "private",
        "leisure": "pitch",
        "sport": "tennis"
      }
    },
    {
      "type": "way",
      "id": 1084701602,
      "center": {
        "lat": 12.9820326,
        "lon": 77.7109677
      },
      "tags": {
        "access": "private",
        "leisure": "pitch",
        "sport": "tennis"
      }
    },
    {
      "type": "way",
      "id": 1084701603,
      "center": {
        "lat": 12.9820041,
        "lon": 77.711182
      },
      "tags": {
        "leisure": "pitch",
        "sport": "basketball"
      }
    },
    {
      "type": "way",
      "id": 1084701604,
      "center": {
        "lat": 12.9816504,
        "lon": 77.7109571
      },
      "tags": {
        "amenity": "community_centre",
        "building": "yes",
        "name": "Club House"
      }
    },
    {
      "type": "way",
      "id": 1087017023,
      "center": {
        "lat": 12.9947997,
        "lon": 77.7083922
      },
      "tags": {
        "leisure": "park"
      }
    },
    {
      "type": "way",
      "id": 1130678784,
      "center": {
        "lat": 12.9826703,
        "lon": 77.7078952
      },
      "tags": {
        "amenity": "fuel",
        "brand": "Shell",
        "brand:wikidata": "Q110716465",
        "brand:wikipedia": "en:Royal Dutch Shell",
        "compressed_air": "yes",
        "fuel:diesel": "yes",
        "fuel:gasoline": "yes",
        "landuse": "commercial",
        "name": "Shell",
        "name:kn": "ಶೆಲ್",
        "opening_hours": "24/7",
        "operator": "Shell",
        "payment:cash": "yes",
        "payment:credit_cards": "yes",
        "payment:debit_cards": "yes",
        "payment:electronic_purses": "yes"
      }
    },
    {
      "type": "way",
      "id": 1135846658,
      "center": {
        "lat": 12.9857824,
        "lon": 77.7140261
      },
      "tags": {
        "amenity": "school",
        "name": "EuroSchool Whitefield"
      }
    },
    {
      "type": "way",
      "id": 1135846659,
      "center": {
        "lat": 12.9858381,
        "lon": 77.7137029
      },
      "tags": {
        "access": "private",
        "leisure": "swimming_pool"
      }
    },
    {
      "type": "way",
      "id": 1135846660,
      "center": {
        "lat": 12.9855617,
        "lon": 77.7136083
      },
      "tags": {
        "access": "private",
        "leisure": "pitch",
        "sport": "basketball"
      }
    },
    {
      "type": "way",
      "id": 1144281246,
      "center": {
        "lat": 12.9916076,
        "lon": 77.7116813
      },
      "tags": {
        "access": "private",
        "hoops": "2",
        "leisure": "pitch",
        "sport": "basketball"
      }
    },
    {
      "type": "way",
      "id": 1144281247,
      "center": {
        "lat": 12.9917163,
        "lon": 77.7117388
      },
      "tags": {
        "access": "permissive",
        "leisure": "playground"
      }
    },
    {
      "type": "way",
      "id": 1144281250,
      "center": {
        "lat": 12.9826593,
        "lon": 77.708601
      },
      "tags": {
        "amenity": "fuel",
        "brand": "TotalEnergies",
        "brand:wikidata": "Q154037",
        "brand_1": "Totalgaz",
        "compressed_air": "yes",
        "fuel:lpg": "yes",
        "landuse": "commercial",
        "name": "Esskay Totalgaz"
      }
    },
    {
      "type": "way",
      "id": 1153445014,
      "center": {
        "lat": 12.9895718,
        "lon": 77.7036926
      },
      "tags": {
        "leisure": "pitch",
        "sport": "beachvolleyball",
        "surface": "sand"
      }
    },
    {
      "type": "way",
      "id": 1153445015,
      "center": {
        "lat": 12.9895108,
        "lon": 77.7038627
      },
      "tags": {
        "leisure": "pitch",
        "sport": "soccer"
      }
    },
    {
      "type": "way",
      "id": 1178714207,
      "center": {
        "lat": 12.9881509,
        "lon": 77.7077027
      },
      "tags": {
        "access": "customers",
        "amenity": "parking",
        "parking": "surface"
      }
    },
    {
      "type": "way",
      "id": 1190294271,
      "center": {
        "lat": 12.9862719,
        "lon": 77.7067118
      },
      "tags": {
        "access": "private",
        "leisure": "pitch",
        "sport": "basketball"
      }
    },
    {
      "type": "way",
      "id": 1190294274,
      "center": {
        "lat": 12.9889936,
        "lon": 77.7100421
      },
      "tags": {
        "brand": "DMart",
        "brand:wikidata": "Q5203271",
        "building": "supermarket",
        "name": "DMart",
        "shop": "supermarket"
      }
    },
    {
      "type": "way",
      "id": 1210554191,
      "center": {
        "lat": 12.993898,
        "lon": 77.7063806
      },
      "tags": {
        "amenity": "parking",
        "parking": "surface"
      }
    },
    {
      "type": "way",
      "id": 1210554192,
      "center": {
        "lat": 12.9931911,
        "lon": 77.7064001
      },
      "tags": {
        "amenity": "parking",
        "parking": "surface"
      }
    },
    {
      "type": "way",
      "id": 1216840020,
      "center": {
        "lat": 12.9777962,
        "lon": 77.7072893
      },
      "tags": {
        "leisure": "sports_centre",
        "name": "The Yard Arena"
      }
    },
    {
      "type": "way",
      "id": 1216840033,
      "center": {
        "lat": 12.9790305,
        "lon": 77.7056774
      },
      "tags": {
        "brand": "Škoda",
        "brand:wikidata": "Q29637",
        "landuse": "industrial",
        "name": "Raj Skoda Repair",
        "shop": "car_repair"
      }
    },
    {
      "type": "way",
      "id": 1216840038,
      "center": {
        "lat": 12.9779095,
        "lon": 77.7063285
      },
      "tags": {
        "brand": "Kia",
        "brand:wikidata": "Q35349",
        "name": "Kia Service Center",
        "shop": "car_repair"
      }
    },
    {
      "type": "way",
      "id": 1216840039,
      "center": {
        "lat": 12.9778391,
        "lon": 77.7071932
      },
      "tags": {
        "leisure": "pitch",
        "sport": "futsal"
      }
    },
    {
      "type": "way",
      "id": 1219331350,
      "center": {
        "lat": 12.9833896,
        "lon": 77.7084842
      },
      "tags": {
        "access": "private",
        "amenity": "parking",
        "covered": "yes"
      }
    },
    {
      "type": "way",
      "id": 1225162207,
      "center": {
        "lat": 12.9806621,
        "lon": 77.7106158
      },
      "tags": {
        "access": "private",
        "amenity": "parking",
        "parking": "street_side"
      }
    },
    {
      "type": "way",
      "id": 1232319856,
      "center": {
        "lat": 12.9812408,
        "lon": 77.708747
      },
      "tags": {
        "indoor": "room",
        "layer": "1",
        "payment:cash": "yes",
        "payment:upi": "yes",
        "room": "shop",
        "shop": "ticket",
        "tickets:public_transport": "yes"
      }
    },
    {
      "type": "way",
      "id": 1233514057,
      "center": {
        "lat": 12.9850527,
        "lon": 77.7151026
      },
      "tags": {
        "amenity": "grave_yard",
        "landuse": "cemetery"
      }
    },
    {
      "type": "way",
      "id": 1233514062,
      "center": {
        "lat": 12.9825763,
        "lon": 77.7123968
      },
      "tags": {
        "leisure": "playground"
      }
    },
    {
      "type": "way",
      "id": 1233514068,
      "center": {
        "lat": 12.9860293,
        "lon": 77.7138312
      },
      "tags": {
        "access": "private",
        "leisure": "pitch",
        "sport": "soccer"
      }
    },
    {
      "type": "way",
      "id": 1233518880,
      "center": {
        "lat": 12.980172,
        "lon": 77.7133958
      },
      "tags": {
        "amenity": "kindergarten",
        "max_age": "6",
        "min_age": "2",
        "name": "Kinfolk",
        "phone": "+91 72042 34333",
        "website": "https://kinfolkedu.com/"
      }
    },
    {
      "type": "way",
      "id": 1235735135,
      "center": {
        "lat": 12.9781554,
        "lon": 77.7048824
      },
      "tags": {
        "access": "private",
        "leisure": "sports_centre"
      }
    },
    {
      "type": "way",
      "id": 1235735234,
      "center": {
        "lat": 12.9860095,
        "lon": 77.7011882
      },
      "tags": {
        "access": "permissive",
        "amenity": "parking",
        "parking": "surface"
      }
    },
    {
      "type": "way",
      "id": 1238759200,
      "center": {
        "lat": 12.9846031,
        "lon": 77.7053455
      },
      "tags": {
        "access": "private",
        "leisure": "swimming_pool"
      }
    },
    {
      "type": "way",
      "id": 1252509972,
      "center": {
        "lat": 12.9875226,
        "lon": 77.7115161
      },
      "tags": {
        "access": "private",
        "hoops": "1",
        "leisure": "pitch",
        "lit": "yes",
        "name": "Godrej Air Basketball Half Court",
        "sport": "basketball",
        "surface": "artificial_turf"
      }
    },
    {
      "type": "way",
      "id": 1252510394,
      "center": {
        "lat": 12.987768,
        "lon": 77.7115184
      },
      "tags": {
        "access": "private",
        "leisure": "pitch",
        "name": "Outdoor Chess Board at Godrej Air",
        "sport": "chess",
        "surface": "paved"
      }
    },
    {
      "type": "way",
      "id": 1252516688,
      "center": {
        "lat": 12.9877746,
        "lon": 77.7121169
      },
      "tags": {
        "amenity": "shelter",
        "bench": "yes",
        "building": "roof",
        "lit": "yes",
        "shelter_type": "gazebo"
      }
    },
    {
      "type": "way",
      "id": 1252518541,
      "center": {
        "lat": 12.9860166,
        "lon": 77.7116673
      },
      "tags": {
        "amenity": "theatre",
        "name": "Godrej Air Amphitheatre",
        "theatre:type": "amphi"
      }
    },
    {
      "type": "way",
      "id": 1256797188,
      "center": {
        "lat": 12.9890003,
        "lon": 77.7132183
      },
      "tags": {
        "access": "private",
        "amenity": "parking",
        "parking": "surface"
      }
    },
    {
      "type": "way",
      "id": 1268945188,
      "center": {
        "lat": 12.9847611,
        "lon": 77.6968167
      },
      "tags": {
        "leisure": "park"
      }
    },
    {
      "type": "way",
      "id": 1278772113,
      "center": {
        "lat": 12.985689,
        "lon": 77.7028117
      },
      "tags": {
        "access": "permissive",
        "amenity": "parking",
        "parking": "surface"
      }
    },
    {
      "type": "way",
      "id": 1278772124,
      "center": {
        "lat": 12.9868126,
        "lon": 77.6981663
      },
      "tags": {
        "alt_name": "Yeklgata Lake Park",
        "leisure": "park",
        "name": "Goshala Lake Park"
      }
    },
    {
      "type": "way",
      "id": 1296042957,
      "center": {
        "lat": 12.9850166,
        "lon": 77.6962353
      },
      "tags": {
        "access": "permissive",
        "amenity": "parking",
        "parking": "surface"
      }
    },
    {
      "type": "way",
      "id": 1296042958,
      "center": {
        "lat": 12.9847484,
        "lon": 77.6967613
      },
      "tags": {
        "alt_name": "Kewal Aradhna Sthal, Goushala",
        "amenity": "place_of_worship",
        "building": "yes",
        "name": "Bangalore Gaurakshana Shala",
        "religion": "jain"
      }
    },
    {
      "type": "way",
      "id": 1302227127,
      "center": {
        "lat": 12.9857712,
        "lon": 77.7106084
      },
      "tags": {
        "access": "private",
        "leisure": "swimming_pool"
      }
    },
    {
      "type": "way",
      "id": 1302227128,
      "center": {
        "lat": 12.9863139,
        "lon": 77.7106302
      },
      "tags": {
        "access": "private",
        "leisure": "swimming_pool"
      }
    },
    {
      "type": "way",
      "id": 1302227131,
      "center": {
        "lat": 12.9843373,
        "lon": 77.7125499
      },
      "tags": {
        "access": "private",
        "leisure": "swimming_pool"
      }
    },
    {
      "type": "way",
      "id": 1302227132,
      "center": {
        "lat": 12.9847366,
        "lon": 77.7129243
      },
      "tags": {
        "access": "private",
        "leisure": "pitch",
        "sport": "tennis"
      }
    },
    {
      "type": "way",
      "id": 1311009352,
      "center": {
        "lat": 12.9858593,
        "lon": 77.7081527
      },
      "tags": {
        "access": "yes",
        "amenity": "parking",
        "fee": "yes",
        "layer": "-1",
        "parking": "underground",
        "surface": "concrete"
      }
    },
    {
      "type": "way",
      "id": 1316075254,
      "center": {
        "lat": 12.9817423,
        "lon": 77.698791
      },
      "tags": {
        "access": "private",
        "amenity": "parking",
        "parking": "street_side"
      }
    },
    {
      "type": "way",
      "id": 1328129623,
      "center": {
        "lat": 12.987677,
        "lon": 77.6988429
      },
      "tags": {
        "leisure": "sports_centre"
      }
    },
    {
      "type": "way",
      "id": 1328129625,
      "center": {
        "lat": 12.9806537,
        "lon": 77.6993502
      },
      "tags": {
        "garden:type": "landscaping",
        "leisure": "garden"
      }
    },
    {
      "type": "way",
      "id": 1328129627,
      "center": {
        "lat": 12.9799555,
        "lon": 77.698443
      },
      "tags": {
        "garden:type": "landscaping",
        "leisure": "garden"
      }
    },
    {
      "type": "way",
      "id": 1382948058,
      "center": {
        "lat": 12.979474,
        "lon": 77.7101648
      },
      "tags": {
        "access": "customers",
        "leisure": "swimming_pool",
        "location": "roof"
      }
    },
    {
      "type": "way",
      "id": 1385380742,
      "center": {
        "lat": 12.9937624,
        "lon": 77.7032947
      },
      "tags": {
        "access": "customers",
        "amenity": "motorcycle_parking"
      }
    },
    {
      "type": "way",
      "id": 1415914828,
      "center": {
        "lat": 12.992632,
        "lon": 77.7065334
      },
      "tags": {
        "brand": "Maruti Suzuki",
        "brand:wikidata": "Q963718",
        "landuse": "commercial",
        "name": "Maruti Suzuki",
        "shop": "car"
      }
    },
    {
      "type": "way",
      "id": 1419422741,
      "center": {
        "lat": 12.9934484,
        "lon": 77.7018857
      },
      "tags": {
        "amenity": "cinema",
        "landuse": "commercial",
        "name": "V Cinemas - Vijayalakshmi Theater",
        "name:kn": "ವಿಜಯಲಕ್ಷ್ಮಿ ಚಿತ್ರಮಂದಿರ"
      }
    },
    {
      "type": "way",
      "id": 1419422744,
      "center": {
        "lat": 12.9925246,
        "lon": 77.702535
      },
      "tags": {
        "access": "permissive",
        "amenity": "parking",
        "parking": "street_side"
      }
    },
    {
      "type": "way",
      "id": 1419422745,
      "center": {
        "lat": 12.9915441,
        "lon": 77.7033937
      },
      "tags": {
        "access": "permissive",
        "amenity": "parking",
        "parking": "street_side"
      }
    },
    {
      "type": "way",
      "id": 1427467748,
      "center": {
        "lat": 12.985749,
        "lon": 77.7108949
      },
      "tags": {
        "access": "private",
        "leisure": "playground"
      }
    },
    {
      "type": "way",
      "id": 1427467749,
      "center": {
        "lat": 12.9845744,
        "lon": 77.7126131
      },
      "tags": {
        "access": "private",
        "backrest": "yes",
        "leisure": "bleachers"
      }
    },
    {
      "type": "way",
      "id": 1427467750,
      "center": {
        "lat": 12.9845525,
        "lon": 77.7126436
      },
      "tags": {
        "access": "private",
        "amenity": "theatre",
        "theatre:type": "amphi"
      }
    },
    {
      "type": "way",
      "id": 1427467751,
      "center": {
        "lat": 12.9845855,
        "lon": 77.7128005
      },
      "tags": {
        "access": "private",
        "leisure": "playground"
      }
    },
    {
      "type": "way",
      "id": 1427467828,
      "center": {
        "lat": 12.9891336,
        "lon": 77.7136974
      },
      "tags": {
        "access": "private",
        "amenity": "parking",
        "parking": "street_side"
      }
    },
    {
      "type": "way",
      "id": 1427467829,
      "center": {
        "lat": 12.9890609,
        "lon": 77.713623
      },
      "tags": {
        "access": "private",
        "amenity": "parking",
        "parking": "street_side"
      }
    },
    {
      "type": "way",
      "id": 1427467836,
      "center": {
        "lat": 12.988445,
        "lon": 77.7136281
      },
      "tags": {
        "access": "private",
        "leisure": "pitch",
        "sport": "basketball"
      }
    },
    {
      "type": "way",
      "id": 1427467837,
      "center": {
        "lat": 12.9887919,
        "lon": 77.7136417
      },
      "tags": {
        "access": "private",
        "leisure": "playground"
      }
    },
    {
      "type": "way",
      "id": 1427467838,
      "center": {
        "lat": 12.9872872,
        "lon": 77.710279
      },
      "tags": {
        "access": "private",
        "leisure": "pitch"
      }
    },
    {
      "type": "way",
      "id": 1427467845,
      "center": {
        "lat": 12.9872884,
        "lon": 77.7107264
      },
      "tags": {
        "access": "private",
        "amenity": "theatre",
        "theatre:type": "amphi"
      }
    },
    {
      "type": "way",
      "id": 1427467846,
      "center": {
        "lat": 12.9876788,
        "lon": 77.7106179
      },
      "tags": {
        "access": "private",
        "leisure": "pitch",
        "sport": "tennis"
      }
    },
    {
      "type": "way",
      "id": 1427467847,
      "center": {
        "lat": 12.9879174,
        "lon": 77.7106214
      },
      "tags": {
        "access": "private",
        "leisure": "pitch",
        "sport": "basketball"
      }
    },
    {
      "type": "way",
      "id": 1427467848,
      "center": {
        "lat": 12.9863218,
        "lon": 77.7102339
      },
      "tags": {
        "access": "private",
        "leisure": "playground"
      }
    },
    {
      "type": "way",
      "id": 1429706370,
      "center": {
        "lat": 12.9914952,
        "lon": 77.7116437
      },
      "tags": {
        "access": "private",
        "leisure": "pitch",
        "sport": "chess"
      }
    },
    {
      "type": "way",
      "id": 1430787635,
      "center": {
        "lat": 12.9838079,
        "lon": 77.7095599
      },
      "tags": {
        "access": "private",
        "leisure": "swimming_pool"
      }
    },
    {
      "type": "way",
      "id": 1430787636,
      "center": {
        "lat": 12.9835844,
        "lon": 77.7093939
      },
      "tags": {
        "access": "private",
        "leisure": "playground"
      }
    },
    {
      "type": "way",
      "id": 1430787639,
      "center": {
        "lat": 12.9838793,
        "lon": 77.7103723
      },
      "tags": {
        "access": "private",
        "amenity": "parking",
        "parking": "surface"
      }
    },
    {
      "type": "way",
      "id": 1430787672,
      "center": {
        "lat": 12.9820481,
        "lon": 77.7101257
      },
      "tags": {
        "leisure": "pitch",
        "sport": "cricket"
      }
    },
    {
      "type": "way",
      "id": 1430787675,
      "center": {
        "lat": 12.9798538,
        "lon": 77.7113833
      },
      "tags": {
        "access": "private",
        "leisure": "playground"
      }
    },
    {
      "type": "way",
      "id": 1430787676,
      "center": {
        "lat": 12.980388,
        "lon": 77.7116802
      },
      "tags": {
        "hoops": "1",
        "leisure": "pitch",
        "sport": "basketball"
      }
    },
    {
      "type": "way",
      "id": 1430787677,
      "center": {
        "lat": 12.9805187,
        "lon": 77.7116444
      },
      "tags": {
        "access": "private",
        "leisure": "playground"
      }
    },
    {
      "type": "way",
      "id": 1430787678,
      "center": {
        "lat": 12.9806666,
        "lon": 77.711652
      },
      "tags": {
        "access": "private",
        "amenity": "parking",
        "parking": "surface"
      }
    },
    {
      "type": "way",
      "id": 1430787679,
      "center": {
        "lat": 12.981657,
        "lon": 77.7113548
      },
      "tags": {
        "access": "private",
        "leisure": "playground"
      }
    },
    {
      "type": "way",
      "id": 1430787680,
      "center": {
        "lat": 12.9817573,
        "lon": 77.710527
      },
      "tags": {
        "access": "private",
        "leisure": "playground"
      }
    },
    {
      "type": "way",
      "id": 1430787681,
      "center": {
        "lat": 12.9820333,
        "lon": 77.7113596
      },
      "tags": {
        "access": "private",
        "leisure": "pitch",
        "sport": "volleyball"
      }
    },
    {
      "type": "way",
      "id": 1430787682,
      "center": {
        "lat": 12.9823094,
        "lon": 77.7104389
      },
      "tags": {
        "access": "private",
        "leisure": "playground"
      }
    },
    {
      "type": "way",
      "id": 1430787683,
      "center": {
        "lat": 12.9822623,
        "lon": 77.7101311
      },
      "tags": {
        "access": "private",
        "leisure": "playground"
      }
    }
  ]
}