{
  "area_name": "Attigupe",
  "osm_id": 19883479,
  "osm_type": "relation",
  "place_type": "administrative",
  "amenity_count": 142,
  "amenities": [
    {
      "type": "node",
      "id": 1445333653,
      "lat": 12.962267,
      "lon": 77.530001,
      "tags": {
        "amenity": "school",
        "description": "Behind BHEL Township vijaynagar",
        "name": "Global Chess Academy India",
        "phone": "+919845872499"
      }
    },
    {
      "type": "node",
      "id": 1474854779,
      "lat": 12.9599025,
      "lon": 77.5328566,
      "tags": {
        "amenity": "fuel",
        "check_date": "2025-05-27",
        "name": "Bharat Petrol Pump"
      }
    },
    {
      "type": "node",
      "id": 1778853970,
      "lat": 12.9580258,
      "lon": 77.5285198,
      "tags": {
        "amenity": "place_of_worship",
        "check_date": "2024-05-13",
        "name": "Ganesha temple",
        "name:en": "Ganesha temple",
        "name:kn": "ಗಣೇಶ ದೇವಸ್ಥಾನ",
        "religion": "hindu"
      }
    },
    {
      "type": "node",
      "id": 1778854020,
      "lat": 12.9593144,
      "lon": 77.5265054,
      "tags": {
        "addr:district": "Bengaluru Urban",
        "addr:full": "No. 1558, Opposite Chandra Layout Bus Stand, Chandra Layout, Vijaynagar",
        "addr:postcode": "560048",
        "addr:state": "Karnataka",
        "amenity": "hospital",
        "designation": "Gurushree Multi speciality Hospital",
        "emergency": "yes",
        "name": "Gurushree Hitech Multispeciality Hospital",
        "source": "OpenGovernmentData"
      }
    },
    {
      "type": "node",
      "id": 1809694357,
      "lat": 12.9612053,
      "lon": 77.5271272,
      "tags": {
        "amenity": "fast_food",
        "brand": "Domino's",
        "brand:ks": "ڈومینوز",
        "brand:pa": "ਡੋਮੀਨੋਜ਼",
        "brand:ur": "ڈومینوز",
        "brand:wikidata": "Q839466",
        "brand:wikipedia": "en:Domino's Pizza",
        "cuisine": "pizza",
        "name": "Domino's",
        "name:ks": "ڈومینوز",
        "name:pa": "ਡੋਮੀਨੋਜ਼",
        "name:ur": "ڈومینوز",
        "takeaway": "yes"
      }
    },
    {
      "type": "node",
      "id": 1809694379,
      "lat": 12.961189,
      "lon": 77.5272027,
      "tags": {
        "brand": "Allen Solly",
        "brand:wikidata": "Q110036995",
        "name": "Allen Solly",
        "operator": "Allen Solly",
        "shop": "clothes"
      }
    },
    {
      "type": "node",
      "id": 1809694399,
      "lat": 12.9604728,
      "lon": 77.5294531,
      "tags": {
        "check_date": "2025-03-14",
        "name": "Spirit Junction",
        "shop": "alcohol"
      }
    },
    {
      "type": "node",
      "id": 1979050315,
      "lat": 12.9585995,
      "lon": 77.5260442,
      "tags": {
        "amenity": "atm",
        "brand": "Corporation Bank",
        "brand:wikidata": "Q2003387",
        "fee": "no",
        "name": "Corporation Bank",
        "operator": "Corporation Bank",
        "operator:wikidata": "Q2003387"
      }
    },
    {
      "type": "node",
      "id": 1979050323,
      "lat": 12.9590596,
      "lon": 77.524923,
      "tags": {
        "name": "Manjushree Wholesale & Retail Fish Shop",
        "shop": "seafood"
      }
    },
    {
      "type": "node",
      "id": 1979050327,
      "lat": 12.9590436,
      "lon": 77.5248426,
      "tags": {
        "amenity": "restaurant",
        "cuisine": "fish",
        "name": "Hotel Manjushree",
        "name:kn": "ಹೋಟೆಲ್ ಮಂಜುಶ್ರೀ"
      }
    },
    {
      "type": "node",
      "id": 2485930884,
      "lat": 12.9604935,
      "lon": 77.5294107,
      "tags": {
        "addr:city": "Bangalore",
        "addr:housename": "Below Spirit Junction, Chandra Layout, Vijayanagar",
        "addr:postcode": "560040",
        "name": "Bunny Bakes",
        "shop": "bakery"
      }
    },
    {
      "type": "node",
      "id": 2485930885,
      "lat": 12.9606776,
      "lon": 77.5286519,
      "tags": {
        "amenity": "fast_food",
        "name": "Goli Vada Paav",
        "name:kn": "ಗೋಲಿ ವಡ ಪಾವ್"
      }
    },
    {
      "type": "node",
      "id": 2485930886,
      "lat": 12.9607284,
      "lon": 77.5284077,
      "tags": {
        "addr:city": "Bangalore",
        "addr:housename": "Opp HP Petrol Pump, Chandra Layout, Vijayanagar",
        "addr:postcode": "560040",
        "addr:street": "4th Main Road",
        "amenity": "restaurant",
        "name": "Ammi's Biryani",
        "name:kn": "ಅಮ್ಮಿ ಬಿರಿಯಾನಿ"
      }
    },
    {
      "type": "node",
      "id": 2486099276,
      "lat": 12.9609473,
      "lon": 77.5272743,
      "tags": {
        "addr:city": "Bangalore",
        "addr:housename": "Opp Food World, Chandra Layout",
        "addr:street": "4th Main Road",
        "amenity": "juice_center",
        "name": "Cane Crush"
      }
    },
    {
      "type": "node",
      "id": 2486099277,
      "lat": 12.9606617,
      "lon": 77.5271701,
      "tags": {
        "addr:city": "Bangalore",
        "addr:housename": "Chandra Layout, Vijayanagar",
        "addr:postcode": "560040",
        "addr:street": "9th Cross Road",
        "amenity": "bank",
        "brand": "Karnataka Bank",
        "brand:wikidata": "Q2042632",
        "name": "Karnataka Bank",
        "name:kn": "ಕರ್ನಾಟಕ ಬ್ಯಾಂಕ್",
        "phone": "+91 80 22955814",
        "website": "http://www.karnatakabank.com/"
      }
    },
    {
      "type": "node",
      "id": 2486108498,
      "lat": 12.9597604,
      "lon": 77.5292414,
      "tags": {
        "addr:city": "Bangalore",
        "addr:housename": "Near, Ganapathi Temple, Chandra Layout",
        "addr:postcode": "560040",
        "addr:street": "4th Main Road",
        "name:en": "Grameen Organic",
        "shop": "greengrocer"
      }
    },
    {
      "type": "node",
      "id": 2486108499,
      "lat": 12.9599952,
      "lon": 77.5293195,
      "tags": {
        "amenity": "atm",
        "brand": "ICICI Bank",
        "brand:wikidata": "Q1653258",
        "name": "ICICI Bank",
        "name:kn": "ಐಸಿಐಸಿಐ ಬ್ಯಾಂಕು",
        "operator": "ICICI Bank",
        "operator:wikidata": "Q1653258",
        "short_name": "ICICI"
      }
    },
    {
      "type": "node",
      "id": 2486109003,
      "lat": 12.9602967,
      "lon": 77.5302803,
      "tags": {
        "addr:city": "Bangalore",
        "addr:housename": "Near Attiguppe Bus Stop, Chandra Layout",
        "addr:postcode": "560040",
        "amenity": "cafe",
        "check_date": "2025-03-14",
        "cuisine": "ice_cream",
        "name": "Polar Bear"
      }
    },
    {
      "type": "node",
      "id": 2514705825,
      "lat": 12.9606817,
      "lon": 77.5288446,
      "tags": {
        "addr:city": "Bangalore",
        "addr:housename": "Chandra Layout",
        "addr:street": "4th Main Road",
        "name": "Sangeeta",
        "shop": "mobile_phone"
      }
    },
    {
      "type": "node",
      "id": 2514705826,
      "lat": 12.9606895,
      "lon": 77.5287669,
      "tags": {
        "addr:city": "Bangalore",
        "addr:housename": "Chandra Layout",
        "addr:street": "4th Main Road",
        "amenity": "restaurant",
        "cuisine": "chinese",
        "name": "Beijing Bites",
        "name:kn": "ಬೀಜಿಂಗ್ ಬೈಟ್ಸ್"
      }
    },
    {
      "type": "node",
      "id": 2514705827,
      "lat": 12.9607235,
      "lon": 77.5285201,
      "tags": {
        "addr:city": "Bangalore",
        "addr:housename": "Chandra Layout",
        "addr:street": "4th Main Road",
        "name": "Inky Pinky",
        "shop": "clothes"
      }
    },
    {
      "type": "node",
      "id": 2514705828,
      "lat": 12.9612829,
      "lon": 77.5271683,
      "tags": {
        "addr:city": "Bangalore",
        "addr:housename": "Below Food World, Chandra Layout",
        "addr:street": "4th Main Road",
        "amenity": "hospital",
        "emergency": "no",
        "healthcare": "hospital",
        "name": "Anurag Medical Center"
      }
    },
    {
      "type": "node",
      "id": 2514705829,
      "lat": 12.9609849,
      "lon": 77.5269939,
      "tags": {
        "addr:city": "Bangalore",
        "addr:housename": "Chandra Layout",
        "addr:street": "4th Main Road",
        "amenity": "pharmacy",
        "check_date": "2024-04-10",
        "healthcare": "pharmacy",
        "name": "Mohan Medicals",
        "name:en": "Mohan Medicals",
        "opening_hours": "09:00-14:00,17:00-22:00",
        "payment:cash": "yes",
        "payment:credit_cards": "yes",
        "payment:debit_cards": "yes",
        "phone": "953555104"
      }
    },
    {
      "type": "node",
      "id": 2514705830,
      "lat": 12.9610189,
      "lon": 77.5268678,
      "tags": {
        "addr:city": "Bangalore",
        "addr:housename": "Chandra Layout",
        "addr:street": "4th Main Road",
        "amenity": "bar",
        "name": "Chang Bar & Restaurant"
      }
    },
    {
      "type": "node",
      "id": 2514705831,
      "lat": 12.9609927,
      "lon": 77.5270583,
      "tags": {
        "addr:city": "Bangalore",
        "addr:housename": "Chandra Layout",
        "addr:street": "4th Main Road",
        "amenity": "childcare",
        "name": "Sri Child Healthcare Center"
      }
    },
    {
      "type": "node",
      "id": 2514705832,
      "lat": 12.9611548,
      "lon": 77.5274043,
      "tags": {
        "addr:city": "Bangalore",
        "addr:housename": "Next to Food World, Chandra Layout",
        "addr:street": "4th Main Road",
        "name": "Feet Fashion",
        "shop": "shoes"
      }
    },
    {
      "type": "node",
      "id": 2514705833,
      "lat": 12.9609248,
      "lon": 77.5273694,
      "tags": {
        "addr:city": "Bangalore",
        "addr:housename": "Chandra Layout",
        "addr:street": "4th Main Road",
        "name": "Sri Chamundi Jewellers",
        "shop": "jewelry"
      }
    },
    {
      "type": "node",
      "id": 2514705834,
      "lat": 12.9608934,
      "lon": 77.527289,
      "tags": {
        "addr:city": "Bangalore",
        "addr:housename": "Chandra Layout",
        "addr:street": "4th Main Road",
        "amenity": "college",
        "name": "Chandra Gymkhana Institute"
      }
    },
    {
      "type": "node",
      "id": 2514705835,
      "lat": 12.9607496,
      "lon": 77.5272299,
      "tags": {
        "addr:city": "Bangalore",
        "addr:housename": "Near Karnataka Bank, Chandra Layout",
        "addr:postcode": "560040",
        "addr:street": "9th Cross Road",
        "amenity": "dentist",
        "healthcare": "dentist",
        "name": "Gentle Dentals"
      }
    },
    {
      "type": "node",
      "id": 2514705836,
      "lat": 12.9603863,
      "lon": 77.5294186,
      "tags": {
        "addr:city": "Bangalore",
        "addr:housename": "Chandra Layout",
        "addr:street": "4th Main Road",
        "name": "Anu Opticles",
        "shop": "optician"
      }
    },
    {
      "type": "node",
      "id": 2514705837,
      "lat": 12.9602661,
      "lon": 77.5294025,
      "tags": {
        "addr:city": "Bangalore",
        "addr:housename": "Chandra Layout",
        "addr:street": "4th Main Road",
        "name": "Sri Bhagyalakshmi Jewellers",
        "shop": "jewelry"
      }
    },
    {
      "type": "node",
      "id": 2514705838,
      "lat": 12.9603575,
      "lon": 77.5294267,
      "tags": {
        "addr:city": "Bangalore",
        "addr:housename": "Chandra Layout",
        "addr:street": "4th Main Road",
        "name": "The Curves N Curls Beauty Center",
        "shop": "beauty"
      }
    },
    {
      "type": "node",
      "id": 2514705839,
      "lat": 12.9602112,
      "lon": 77.5293891,
      "tags": {
        "addr:city": "Bangalore",
        "addr:housename": "Chandra Layout",
        "addr:street": "4th Main Road",
        "name": "Royal Canin Pet shop",
        "shop": "pet"
      }
    },
    {
      "type": "node",
      "id": 2914260123,
      "lat": 12.961299,
      "lon": 77.5265056,
      "tags": {
        "addr:postcode": "560072",
        "name": "Village Super Market",
        "shop": "supermarket"
      }
    },
    {
      "type": "node",
      "id": 2914344549,
      "lat": 12.9571801,
      "lon": 77.5316497,
      "tags": {
        "amenity": "atm",
        "brand": "IndusInd Bank",
        "brand:wikidata": "Q2040323",
        "name": "IndusInd Bank",
        "name:kn": "ಇಂಡಸ್ಇಂಡ್",
        "operator": "IndusInd Bank",
        "operator:wikidata": "Q2040323"
      }
    },
    {
      "type": "node",
      "id": 2914344556,
      "lat": 12.9586531,
      "lon": 77.5282635,
      "tags": {
        "amenity": "dentist",
        "name": "Indian Dental Association Clinic"
      }
    },
    {
      "type": "node",
      "id": 2914344557,
      "lat": 12.9606854,
      "lon": 77.5286993,
      "tags": {
        "name": "Akshaya Super Market",
        "shop": "supermarket"
      }
    },
    {
      "type": "node",
      "id": 2914384313,
      "lat": 12.9576285,
      "lon": 77.5339363,
      "tags": {
        "addr:city": "Bangalore",
        "addr:postcode": "560040",
        "addr:street": "Attiguppe, Chord Road, Vijayanagar",
        "amenity": "bank",
        "brand": "Syndicate Bank",
        "brand:wikidata": "Q2004088",
        "name": "Syndicate Bank",
        "name:en": "Syndicate Bank",
        "name:kn": "ಸಿಂಡಿಕೇಟ್ ಬ್ಯಾಂಕ್",
        "website": "https://www.syndicatebank.in"
      }
    },
    {
      "type": "node",
      "id": 2962224262,
      "lat": 12.9569108,
      "lon": 77.532544,
      "tags": {
        "name": "Arham Optics",
        "shop": "optician"
      }
    },
    {
      "type": "node",
      "id": 2962224264,
      "lat": 12.9565541,
      "lon": 77.5289117,
      "tags": {
        "name": "Aadishwar Electronics",
        "shop": "electronics"
      }
    },
    {
      "type": "node",
      "id": 4444374773,
      "lat": 12.9604112,
      "lon": 77.529879,
      "tags": {
        "addr:city": "Bangalore",
        "addr:housenumber": "109",
        "addr:postcode": "560040",
        "addr:street": "1st Main, Widia Layout, Chandra Layout, Vijay Nagar",
        "amenity": "restaurant",
        "cuisine": "regional",
        "name": "Sandwich Guru",
        "name:kn": "ಕೋಳಿಮನೆ",
        "opening_hours": "12:00-23:00",
        "phone": "+91 7829190119"
      }
    },
    {
      "type": "node",
      "id": 4446528556,
      "lat": 12.961017,
      "lon": 77.5281275,
      "tags": {
        "addr:city": "Bangalore",
        "addr:full": "96, Ground Floor, Next to HP Petrol Pump, Chandra Layout, Vijay Nagar, Bangalore - 560040",
        "addr:housenumber": "96",
        "addr:postcode": "560040",
        "alt_name": "Kentucky Fried Chicken",
        "alt_name:en": "Kentucky Fried Chicken",
        "alt_name:hi": "केंटुकी फ्राइड चिकन",
        "alt_name:pa": "ਕੈਂਟੁਕੀ ਫ੍ਰਾਈਡ ਚਿਕਨ",
        "alt_name:pnb": "کینٹکی فرائیڈ چکن",
        "alt_name:ur": "کینٹکی فرائیڈ چکن",
        "amenity": "fast_food",
        "brand": "KFC",
        "brand:en": "KFC",
        "brand:hi": "केएफसी",
        "brand:pa": "ਕੇਐਫਸੀ",
        "brand:pnb": "کے ایف سی",
        "brand:ur": "کے ایف سی",
        "brand:wikidata": "Q524757",
        "brand:wikipedia": "en:KFC",
        "brand:wikipedia:pa": "ਕੇਐਫਸੀ",
        "brand:wikipedia:ur": "کینٹکی فرائیڈ چکن",
        "cuisine": "chicken",
        "name": "KFC",
        "name:en": "KFC",
        "name:hi": "केएफसी",
        "name:pa": "ਕੇਐਫਸੀ",
        "name:pnb": "کے ایف سی",
        "name:ur": "کے ایف سی",
        "opening_hours": "11:00-23:00",
        "phone": "080 45128591",
        "takeaway": "yes",
        "website": "https://online.kfc.co.in/"
      }
    },
    {
      "type": "node",
      "id": 4447072265,
      "lat": 12.9594984,
      "lon": 77.5275515,
      "tags": {
        "addr:city": "Bangalore",
        "addr:housenumber": "1133/f",
        "addr:postcode": "560040",
        "addr:street": "30 Service Road Rpc Layout Vijaynagar, Chandra Layout",
        "amenity": "hospital",
        "name": "Hospital Sharavathi",
        "phone": "+918023300222"
      }
    },
    {
      "type": "node",
      "id": 4447088630,
      "lat": 12.9603312,
      "lon": 77.5300796,
      "tags": {
        "addr:city": "Bangalore",
        "addr:housenumber": "NO.105",
        "addr:postcode": "560040",
        "addr:street": "Widia Layout, Chandra Layout Main Road, Govindaraja Nagar Ward, Widia Layout, Vijayanagar",
        "amenity": "hospital",
        "name": "Prasad Nethralaya",
        "phone": "080 2339 2807"
      }
    },
    {
      "type": "node",
      "id": 4447119911,
      "lat": 12.9639998,
      "lon": 77.5302683,
      "tags": {
        "addr:city": "Bangalore",
        "addr:housenumber": "17",
        "addr:postcode": "560040p",
        "addr:street": "1st Main Rd, Kaveri Layout, Govindaraja Nagar Ward, Anubhav Nagar, Vijayanagar",
        "amenity": "hospital",
        "healthcare": "hospital",
        "phone": "080 2335 2200"
      }
    },
    {
      "type": "node",
      "id": 4488409689,
      "lat": 12.9609474,
      "lon": 77.5286711,
      "tags": {
        "addr:city": "Bangalore",
        "addr:housenumber": "No.92",
        "addr:postcode": "560040",
        "addr:street": "4th Main Road",
        "name": "Green Trends Hair And Style Salon",
        "opening_hours": "09:00-21:00",
        "phone": "+91-80-33091924",
        "shop": "beauty"
      }
    },
    {
      "type": "node",
      "id": 4489741946,
      "lat": 12.9618709,
      "lon": 77.526248,
      "tags": {
        "addr:city": "Bangalore",
        "addr:housenumber": "st & 3rd Floor, No. 18",
        "addr:postcode": "560072",
        "addr:street": ", 4th Main Road, Dwaraka Nagar, Chandra Layout, 2nd Block, Dwaraka Nagar, Maruthi Nagar, Attiguppe, Bengaluru, Karnataka",
        "leisure": "sports_centre",
        "name": "Spirit Fit",
        "opening_hours": "5:00-22:00",
        "phone": "090191 36667"
      }
    },
    {
      "type": "node",
      "id": 4535240989,
      "lat": 12.9569897,
      "lon": 77.5325677,
      "tags": {
        "name": "Vijayalakshmi Provision Store",
        "opening_hours": "6:00-22:00",
        "shop": "convenience"
      }
    },
    {
      "type": "node",
      "id": 4542480382,
      "lat": 12.9570571,
      "lon": 77.5323251,
      "tags": {
        "addr:city": "Bangalore",
        "addr:postcode": "560040",
        "addr:street": "14th Main Road",
        "amenity": "pharmacy",
        "healthcare": "pharmacy",
        "name": "Unique Medicals",
        "opening_hours": "9:30-21:00"
      }
    },
    {
      "type": "node",
      "id": 5335203820,
      "lat": 12.9586321,
      "lon": 77.5263261,
      "tags": {
        "amenity": "atm",
        "brand": "HDFC Bank",
        "brand:wikidata": "Q631047",
        "name": "HDFC Bank",
        "operator": "HDFC Bank",
        "operator:wikidata": "Q631047",
        "short_name": "HDFC"
      }
    },
    {
      "type": "node",
      "id": 5335214813,
      "lat": 12.9609545,
      "lon": 77.5284088,
      "tags": {
        "amenity": "fuel",
        "brand": "Hindustan Petroleum",
        "brand:wikidata": "Q1619375",
        "fuel:petrol": "yes",
        "name": "Hindustan Petroleum",
        "name:kn": "ಹಿಂದುಸ್ತಾನ್ ಪೆಟ್ರೋಲಿಯಂ",
        "official_name": "Hindustan Petroleum"
      }
    },
    {
      "type": "node",
      "id": 5335214814,
      "lat": 12.9607813,
      "lon": 77.5280667,
      "tags": {
        "amenity": "atm",
        "brand": "Canara Bank",
        "brand:en": "Canara Bank",
        "brand:hi": "केनरा बैंक",
        "brand:kn": "ಕೆನರಾ ಬ್ಯಾಂಕ್",
        "brand:pa": "ਕੇਨਰਾ ਬੈਂਕ",
        "brand:pnb": "کینرا بینک",
        "brand:ur": "کینرا بینک",
        "brand:wikidata": "Q2003777",
        "name": "Canara Bank",
        "name:en": "Canara Bank",
        "name:hi": "केनरा बैंक",
        "name:kn": "ಕೆನರಾ ಬ್ಯಾಂಕ್",
        "name:pa": "ਕੇਨਰਾ ਬੈਂਕ",
        "name:pnb": "کینرا بینک",
        "name:ur": "کینرا بینک",
        "operator": "Canara Bank",
        "operator:wikidata": "Q2003777"
      }
    },
    {
      "type": "node",
      "id": 5352563108,
      "lat": 12.9583429,
      "lon": 77.5286991,
      "tags": {
        "addr:floor": "G",
        "amenity": "post_office",
        "check_date": "2024-05-13",
        "level": "0",
        "name": "Chandra Layout Post Office",
        "name:en": "Chandra Layout Post Office",
        "operator": "India Post",
        "operator:wikidata": "Q3519720"
      }
    },
    {
      "type": "node",
      "id": 5390195363,
      "lat": 12.9608314,
      "lon": 77.528917,
      "tags": {
        "amenity": "restaurant",
        "name": "Brahmin's cafe"
      }
    },
    {
      "type": "node",
      "id": 5390195364,
      "lat": 12.9577225,
      "lon": 77.532227,
      "tags": {
        "amenity": "place_of_worship",
        "check_date": "2024-09-04",
        "name": "Chowdeswari Temple",
        "name:kn": "ಚೌಡೇಶ್ವರಿ ದೇವಸ್ಥಾನ",
        "religion": "hindu"
      }
    },
    {
      "type": "node",
      "id": 5398017751,
      "lat": 12.9597909,
      "lon": 77.5269754,
      "tags": {
        "amenity": "restaurant",
        "name": "Devi Upahar",
        "name:kn": "ದೇವಿ ಉಪಹಾರ"
      }
    },
    {
      "type": "node",
      "id": 6927679728,
      "lat": 12.9586968,
      "lon": 77.53347,
      "tags": {
        "addr:city": "Bengaluru",
        "addr:housenumber": "36/2",
        "addr:postcode": "560040",
        "addr:street": "Chord Road",
        "amenity": "restaurant",
        "cuisine": "pizza;burger;italian;ice_cream;MILK_SHAKE;american",
        "name": "Addiction",
        "opening_hours": "Mo-Su 11:00-23:00",
        "phone": "+919538172727"
      }
    },
    {
      "type": "node",
      "id": 6945398483,
      "lat": 12.9617045,
      "lon": 77.5217172,
      "tags": {
        "addr:district": "Bengaluru Urban",
        "addr:full": "No-14, Maruthi Nagar, Nagarabhavi Main Road",
        "addr:postcode": "560072",
        "addr:state": "Karnataka",
        "amenity": "hospital",
        "name": "Shridevi Hospital, Bengaluru Urban",
        "source": "OpenGovernmentData"
      }
    },
    {
      "type": "node",
      "id": 6947707894,
      "lat": 12.9597937,
      "lon": 77.5319794,
      "tags": {
        "addr:district": "Bengaluru Urban",
        "addr:full": "23, Ist Floor, Iii Main Road, Chandra Layout, Vijayanagar",
        "addr:postcode": "560040",
        "addr:state": "Karnataka",
        "amenity": "clinic",
        "healthcare": "clinic",
        "name": "Kids Care Clinic",
        "source": "OpenGovernmentData"
      }
    },
    {
      "type": "node",
      "id": 7013294086,
      "lat": 12.9608277,
      "lon": 77.5287881,
      "tags": {
        "name": "Jockey",
        "shop": "clothes"
      }
    },
    {
      "type": "node",
      "id": 7156536826,
      "lat": 12.9593886,
      "lon": 77.5330791,
      "tags": {
        "name": "Sri Male Madeshwara Condiments",
        "shop": "kiosk"
      }
    },
    {
      "type": "node",
      "id": 7156536827,
      "lat": 12.958245,
      "lon": 77.5336169,
      "tags": {
        "amenity": "atm",
        "brand": "HDFC Bank",
        "brand:wikidata": "Q631047",
        "check_date": "2024-05-12",
        "name": "HDFC Bank",
        "operator": "HDFC Bank",
        "operator:wikidata": "Q631047",
        "short_name": "HDFC"
      }
    },
    {
      "type": "node",
      "id": 7156536829,
      "lat": 12.9577457,
      "lon": 77.5338261,
      "tags": {
        "amenity": "school",
        "name": "Government Model Primary School"
      }
    },
    {
      "type": "node",
      "id": 7156536832,
      "lat": 12.9563826,
      "lon": 77.5343102,
      "tags": {
        "amenity": "fast_food",
        "name": "Srinidhi Bar & Restaurant"
      }
    },
    {
      "type": "node",
      "id": 7164440796,
      "lat": 12.9592461,
      "lon": 77.5331582,
      "tags": {
        "check_date": "2025-05-27",
        "name": "MRF Maruti Tyres",
        "shop": "tyres"
      }
    },
    {
      "type": "node",
      "id": 7164440797,
      "lat": 12.9574242,
      "lon": 77.5340112,
      "tags": {
        "name": "Queen's Creation",
        "shop": "clothes"
      }
    },
    {
      "type": "node",
      "id": 7164440798,
      "lat": 12.9562669,
      "lon": 77.5343236,
      "tags": {
        "amenity": "fast_food",
        "check_date": "2024-05-12",
        "cuisine": "regional",
        "name": "Thindi Mane"
      }
    },
    {
      "type": "node",
      "id": 7291970285,
      "lat": 12.9607897,
      "lon": 77.5279567,
      "tags": {
        "name": "Kanti Sweets",
        "shop": "confectionery"
      }
    },
    {
      "type": "node",
      "id": 7572526688,
      "lat": 12.96155,
      "lon": 77.52198,
      "tags": {
        "addr:district": "Bengaluru Urban",
        "addr:full": "Nagarbhavi Main Road, Maruthi Nagar, Bengaluru",
        "addr:postcode": "560072",
        "addr:state": "Karnataka",
        "amenity": "dentist",
        "name": "Pawan Dental Clinic",
        "source": "Local Knowledge"
      }
    },
    {
      "type": "node",
      "id": 7572526718,
      "lat": 12.9615606,
      "lon": 77.5222312,
      "tags": {
        "addr:district": "Bengaluru Urban",
        "addr:full": "Maruthi Nagar, Attiguppe, Bengaluru",
        "addr:postcode": "560040",
        "addr:state": "Karnataka",
        "amenity": "hospital",
        "name": "Shree Dhanvantari Ayurveda Hospital",
        "source": "Local Knowledge"
      }
    },
    {
      "type": "node",
      "id": 7572526728,
      "lat": 12.961509,
      "lon": 77.523151,
      "tags": {
        "addr:district": "Bengaluru Urban",
        "addr:full": "Netravati Road, Maruthi Nagar, Bengaluru",
        "addr:postcode": "560072",
        "addr:state": "Karnataka",
        "amenity": "hospital",
        "name": "Srinivasam Cancer Care Multi Speciality Hospital",
        "source": "Local Knowledge"
      }
    },
    {
      "type": "node",
      "id": 7572526754,
      "lat": 12.9615441,
      "lon": 77.5214032,
      "tags": {
        "addr:district": "Bengaluru Urban",
        "addr:full": "Jyothi Nagar, Maruthi Nagar, Attiguppe, Bengaluru",
        "addr:postcode": "560072",
        "addr:state": "Karnataka",
        "amenity": "clinic",
        "name": "Anirudh Skin Clinic",
        "source": "Local Knowledge"
      }
    },
    {
      "type": "node",
      "id": 8282914503,
      "lat": 12.9551776,
      "lon": 77.5282122,
      "tags": {
        "addr:floor": "G",
        "amenity": "cafe",
        "check_date": "2024-06-14",
        "level": "0",
        "name": "Masala Mane",
        "name:en": "Masala Mane",
        "outdoor_seating": "yes",
        "payment:cash": "yes",
        "payment:upi": "yes",
        "wheelchair": "limited"
      }
    },
    {
      "type": "node",
      "id": 8889283489,
      "lat": 12.9573955,
      "lon": 77.5326075,
      "tags": {
        "name": "Nandini Raitha Malige",
        "shop": "dairy"
      }
    },
    {
      "type": "node",
      "id": 8889316218,
      "lat": 12.9570649,
      "lon": 77.5324107,
      "tags": {
        "name": "Oriyan Bakery",
        "shop": "bakery"
      }
    },
    {
      "type": "node",
      "id": 10302703780,
      "lat": 12.9611699,
      "lon": 77.5272976,
      "tags": {
        "amenity": "fast_food",
        "brand": "Popeyes",
        "brand:wikidata": "Q1330910",
        "brand:wikipedia": "en:Popeyes",
        "cuisine": "chicken",
        "delivery": "yes",
        "name": "Popeyes",
        "official_name": "Popeyes Louisiana Kitchen",
        "takeaway": "yes",
        "website": "https://www.popeyes.in/"
      }
    },
    {
      "type": "node",
      "id": 11218110493,
      "lat": 12.9599103,
      "lon": 77.5313926,
      "tags": {
        "amenity": "bank",
        "atm": "yes",
        "brand": "Federal Bank",
        "brand:wikidata": "Q2044983",
        "check_date": "2023-09-25",
        "name": "Federal Bank"
      }
    },
    {
      "type": "node",
      "id": 11359491768,
      "lat": 12.9611723,
      "lon": 77.5271508,
      "tags": {
        "amenity": "fast_food",
        "cuisine": "north_karnataka",
        "drive_through": "no",
        "name": "Rotti Mane"
      }
    },
    {
      "type": "node",
      "id": 11359561586,
      "lat": 12.9607471,
      "lon": 77.5269959,
      "tags": {
        "name": "Itsy Bitsy",
        "shop": "craft"
      }
    },
    {
      "type": "node",
      "id": 11359601191,
      "lat": 12.9610487,
      "lon": 77.5261786,
      "tags": {
        "name": "Udupi Stationery Shop",
        "shop": "stationery"
      }
    },
    {
      "type": "node",
      "id": 11359601431,
      "lat": 12.9611876,
      "lon": 77.5261787,
      "tags": {
        "amenity": "cafe",
        "name": "Tandoor Chai"
      }
    },
    {
      "type": "node",
      "id": 11359604044,
      "lat": 12.9607301,
      "lon": 77.527248,
      "tags": {
        "amenity": "internet_cafe",
        "name": "Udupi Cyber Centre"
      }
    },
    {
      "type": "node",
      "id": 11395768738,
      "lat": 12.9545944,
      "lon": 77.5292802,
      "tags": {
        "check_date": "2023-12-05",
        "name": "Angel Beauty Care",
        "name:en": "Angel Beauty Care",
        "shop": "beauty"
      }
    },
    {
      "type": "node",
      "id": 11494602055,
      "lat": 12.9563103,
      "lon": 77.5290152,
      "tags": {
        "check_date": "2024-01-07",
        "name": "Pavan Kitchen World",
        "name:en": "Pavan Kitchen World",
        "shop": "appliance"
      }
    },
    {
      "type": "node",
      "id": 11496560781,
      "lat": 12.9553443,
      "lon": 77.5282394,
      "tags": {
        "addr:floor": "G",
        "brand": "Reliance Fresh",
        "brand:wikidata": "Q7311014",
        "check_date": "2024-06-14",
        "level": "0",
        "name": "Reliance Smart",
        "name:en": "Reliance Smart",
        "payment:cash": "yes",
        "payment:credit_cards": "yes",
        "payment:debit_cards": "yes",
        "shop": "supermarket",
        "wheelchair": "yes"
      }
    },
    {
      "type": "node",
      "id": 11497725086,
      "lat": 12.9549739,
      "lon": 77.5295197,
      "tags": {
        "check_date": "2024-01-07",
        "name": "Karnataka Horticulture Fruits and Vegetable store",
        "shop": "convenience"
      }
    },
    {
      "type": "node",
      "id": 11503585268,
      "lat": 12.9548869,
      "lon": 77.5281648,
      "tags": {
        "check_date": "2024-05-29",
        "name": "Mamta Super Bazar",
        "name:en": "Mamta Super Bazar",
        "shop": "convenience"
      }
    },
    {
      "type": "node",
      "id": 11506385712,
      "lat": 12.9564444,
      "lon": 77.5307233,
      "tags": {
        "amenity": "fast_food",
        "check_date": "2024-01-10",
        "name": "Koli Hut"
      }
    },
    {
      "type": "node",
      "id": 11609572817,
      "lat": 12.9577183,
      "lon": 77.5287234,
      "tags": {
        "check_date": "2024-02-11",
        "name": "Nandhini",
        "name:en": "Nandhini",
        "shop": "dairy"
      }
    },
    {
      "type": "node",
      "id": 11783425872,
      "lat": 12.9594192,
      "lon": 77.5266507,
      "tags": {
        "amenity": "bank",
        "brand": "Bandhan Bank",
        "brand:wikidata": "Q19882235",
        "check_date": "2024-04-04",
        "name": "Bandhan Bank",
        "wheelchair": "no"
      }
    },
    {
      "type": "node",
      "id": 11783425873,
      "lat": 12.9593539,
      "lon": 77.5266218,
      "tags": {
        "amenity": "bank",
        "brand": "Axis Bank",
        "brand:wikidata": "Q2003549",
        "check_date": "2024-04-04",
        "name": "Axis Bank"
      }
    },
    {
      "type": "node",
      "id": 11807319020,
      "lat": 12.9600961,
      "lon": 77.5270763,
      "tags": {
        "amenity": "bank",
        "brand": "Karur Vysya Bank",
        "brand:wikidata": "Q6373724",
        "check_date": "2024-04-10",
        "name": "Karur Vysya Bank",
        "name:en": "Karur Vysya Bank"
      }
    },
    {
      "type": "node",
      "id": 11898054704,
      "lat": 12.9563776,
      "lon": 77.5326378,
      "tags": {
        "check_date": "2024-05-12",
        "name": "Karnataka Bike Service",
        "shop": "motorcycle_repair"
      }
    },
    {
      "type": "node",
      "id": 11906895965,
      "lat": 12.9570441,
      "lon": 77.5337487,
      "tags": {
        "access": "yes",
        "amenity": "drinking_water",
        "operator": "Water ATM",
        "payment:cash": "yes"
      }
    },
    {
      "type": "node",
      "id": 11906895968,
      "lat": 12.9573882,
      "lon": 77.5336721,
      "tags": {
        "amenity": "fast_food",
        "check_date": "2024-05-15",
        "name": "Bramhalingeshwara Canteen"
      }
    },
    {
      "type": "node",
      "id": 11917792343,
      "lat": 12.9589313,
      "lon": 77.5283822,
      "tags": {
        "amenity": "police",
        "check_date": "2024-05-19",
        "name": "Chandra Layout Police Station"
      }
    },
    {
      "type": "node",
      "id": 11917792345,
      "lat": 12.9609384,
      "lon": 77.5285509,
      "tags": {
        "brand": "Bata",
        "brand:wikidata": "Q688082",
        "check_date": "2024-05-19",
        "name": "Bata",
        "shop": "shoes"
      }
    },
    {
      "type": "node",
      "id": 11919755468,
      "lat": 12.9564637,
      "lon": 77.5337655,
      "tags": {
        "check_date": "2024-05-20",
        "name": "Blossom Beauty Toich",
        "shop": "beauty"
      }
    },
    {
      "type": "node",
      "id": 11919808622,
      "lat": 12.9564963,
      "lon": 77.5334443,
      "tags": {
        "check_date": "2024-05-20",
        "name": "Venkatadri Home Needs",
        "shop": "convenience"
      }
    },
    {
      "type": "node",
      "id": 11919808624,
      "lat": 12.9566622,
      "lon": 77.5333202,
      "tags": {
        "check_date": "2024-05-20",
        "name": "Nagaraj Electricals",
        "shop": "electrical"
      }
    },
    {
      "type": "node",
      "id": 11919808625,
      "lat": 12.9567077,
      "lon": 77.5334653,
      "tags": {
        "check_date": "2024-05-20",
        "name": "Thunga Dresses",
        "shop": "clothes"
      }
    },
    {
      "type": "node",
      "id": 11919808626,
      "lat": 12.9567531,
      "lon": 77.533353,
      "tags": {
        "amenity": "fast_food",
        "check_date": "2024-05-20",
        "cuisine": "juice",
        "name": "Juicy N Spicy"
      }
    },
    {
      "type": "node",
      "id": 11919808627,
      "lat": 12.9567879,
      "lon": 77.5332602,
      "tags": {
        "amenity": "clinic",
        "check_date": "2024-05-20",
        "healthcare": "clinic",
        "healthcare:speciality": "gynaecology;general",
        "name": "Chaitanya Clinic"
      }
    },
    {
      "type": "node",
      "id": 11919808628,
      "lat": 12.9568699,
      "lon": 77.5328068,
      "tags": {
        "check_date": "2024-05-20",
        "name": "Trustpy And Vaneers",
        "shop": "doors"
      }
    },
    {
      "type": "node",
      "id": 11919808629,
      "lat": 12.9570968,
      "lon": 77.5327946,
      "tags": {
        "amenity": "clinic",
        "check_date": "2024-05-20",
        "healthcare": "clinic",
        "healthcare:speciality": "ayurveda",
        "name": "Dhatri Ayurdhama"
      }
    },
    {
      "type": "node",
      "id": 11919808630,
      "lat": 12.9569217,
      "lon": 77.5328385,
      "tags": {
        "check_date": "2024-05-20",
        "name": "Amar Refrigeration And Home Appliances",
        "shop": "repair"
      }
    },
    {
      "type": "node",
      "id": 11934971980,
      "lat": 12.9563377,
      "lon": 77.5339851,
      "tags": {
        "check_date": "2024-05-26",
        "name": "Miracle Touch Hair Saloon",
        "shop": "hairdresser"
      }
    },
    {
      "type": "node",
      "id": 11942413044,
      "lat": 12.9529928,
      "lon": 77.5274725,
      "tags": {
        "access": "yes",
        "amenity": "drinking_water",
        "fee": "yes",
        "payment:cash": "yes",
        "wheelchair": "no"
      }
    },
    {
      "type": "node",
      "id": 11942413045,
      "lat": 12.9531055,
      "lon": 77.5275291,
      "tags": {
        "access": "yes",
        "addr:floor": "G",
        "amenity": "toilets",
        "check_date": "2024-05-29",
        "level": "0",
        "toilets:disposal": "flush"
      }
    },
    {
      "type": "node",
      "id": 11942427773,
      "lat": 12.9542581,
      "lon": 77.5279393,
      "tags": {
        "addr:floor": "G",
        "amenity": "pharmacy",
        "check_date": "2024-05-29",
        "healthcare": "pharmacy",
        "level": "0",
        "name": "Pradhana Manthri Bharathiya Jan Aushadhi Kendra",
        "name:en": "Pradhana Manthri Bharathiya Jan Aushadhi Kendra",
        "wheelchair": "no"
      }
    },
    {
      "type": "node",
      "id": 11942427774,
      "lat": 12.9543057,
      "lon": 77.527931,
      "tags": {
        "addr:floor": "G",
        "amenity": "atm",
        "brand": "State Bank of India",
        "brand:wikidata": "Q1340361",
        "cash_in": "no",
        "check_date": "2024-05-29",
        "currency:INR": "yes",
        "drive_through": "no",
        "level": "0",
        "operator": "State Bank of India",
        "operator:wikidata": "Q1340361",
        "short_name": "SBI"
      }
    },
    {
      "type": "node",
      "id": 11942427777,
      "lat": 12.9546108,
      "lon": 77.5279963,
      "tags": {
        "addr:floor": "G",
        "amenity": "conference_centre",
        "check_date": "2024-05-29",
        "level": "0",
        "name": "Queen Place",
        "name:en": "Queen Place"
      }
    },
    {
      "type": "node",
      "id": 11951889008,
      "lat": 12.9549185,
      "lon": 77.529775,
      "tags": {
        "addr:floor": "G",
        "check_date": "2024-06-02",
        "level": "0",
        "male": "yes",
        "name": "Dream 11 Men's Parlour",
        "name:en": "Dream 11 Men's Parlour",
        "shop": "hairdresser"
      }
    },
    {
      "type": "node",
      "id": 11951931673,
      "lat": 12.9550935,
      "lon": 77.5310359,
      "tags": {
        "addr:floor": "G",
        "check_date": "2024-06-02",
        "laundry_service": "yes",
        "level": "0",
        "name": "Sri Ranga",
        "name:en": "Sri Ranga",
        "self_service": "no",
        "shop": "laundry"
      }
    },
    {
      "type": "node",
      "id": 12089389290,
      "lat": 12.9560646,
      "lon": 77.5299698,
      "tags": {
        "access": "yes",
        "addr:floor": "G",
        "amenity": "drinking_water",
        "bottle": "yes",
        "covered": "yes",
        "fee": "yes",
        "indoor": "yes",
        "level": "0",
        "man_made": "water_tap",
        "payment:cash": "yes",
        "wheelchair": "yes"
      }
    },
    {
      "type": "node",
      "id": 12132448778,
      "lat": 12.9565676,
      "lon": 77.5292018,
      "tags": {
        "addr:floor": "G",
        "amenity": "atm",
        "brand": "State Bank of India",
        "brand:wikidata": "Q1340361",
        "check_date": "2025-03-11",
        "currency:INR": "yes",
        "drive_through": "no",
        "level": "0",
        "operator": "State Bank of India",
        "operator:wikidata": "Q1340361",
        "short_name": "SBI",
        "source": "local knowledge"
      }
    },
    {
      "type": "node",
      "id": 12157131501,
      "lat": 12.9585825,
      "lon": 77.5319394,
      "tags": {
        "amenity": "place_of_worship",
        "check_date": "2024-09-04",
        "name": "Sri Lakshmi Narasimha Swamy Temple",
        "name:en": "Sri Lakshmi Narasimha Swamy Temple",
        "religion": "hindu"
      }
    },
    {
      "type": "node",
      "id": 12163674586,
      "lat": 12.9610487,
      "lon": 77.5281158,
      "tags": {
        "addr:floor": "4",
        "amenity": "bar",
        "check_date": "2024-09-08",
        "level": "4",
        "name": "Take Off",
        "name:en": "Take Off"
      }
    },
    {
      "type": "node",
      "id": 12438105919,
      "lat": 12.9599124,
      "lon": 77.5312546,
      "tags": {
        "brand": "Theobroma",
        "brand:wikidata": "Q124374469",
        "check_date": "2024-11-03",
        "delivery": "yes",
        "internet_access": "no",
        "name": "Theobroma",
        "shop": "pastry",
        "takeaway": "yes",
        "wheelchair": "no"
      }
    },
    {
      "type": "node",
      "id": 12641347479,
      "lat": 12.9565561,
      "lon": 77.5291798,
      "tags": {
        "addr:floor": "G",
        "check_date": "2025-03-07",
        "level": "0",
        "name": "Sahana Pet Shop",
        "name:en": "Sahana Pet Shop",
        "shop": "pet"
      }
    },
    {
      "type": "node",
      "id": 12641347480,
      "lat": 12.9565571,
      "lon": 77.5291479,
      "tags": {
        "amenity": "fast_food",
        "check_date": "2025-03-07",
        "cuisine": "indian;regional",
        "diet:vegetarian": "yes",
        "drive_through": "no",
        "fast_food": "cafeteria",
        "name": "V Coffee Cafe",
        "name:en": "V Coffee Cafe"
      }
    },
    {
      "type": "node",
      "id": 12697045473,
      "lat": 12.9580248,
      "lon": 77.5272879,
      "tags": {
        "amenity": "fast_food",
        "brand": "Indira Canteen",
        "brand:wikidata": "Q36164828",
        "check_date": "2025-03-24",
        "cuisine": "south_indian",
        "name": "Indira Canteen",
        "operator": "BBMP",
        "takeaway": "yes"
      }
    },
    {
      "type": "node",
      "id": 12715796043,
      "lat": 12.9576679,
      "lon": 77.5283537,
      "tags": {
        "addr:floor": "G",
        "amenity": "restaurant",
        "check_date": "2025-03-27",
        "cuisine": "indian;regional",
        "diet:vegetarian": "yes",
        "internet_access": "no",
        "level": "0",
        "name": "The Raghavendra Cafe",
        "wheelchair": "no"
      }
    },
    {
      "type": "node",
      "id": 12736947326,
      "lat": 12.9563227,
      "lon": 77.5292473,
      "tags": {
        "addr:floor": "1",
        "check_date": "2025-04-07",
        "leisure": "fitness_centre",
        "level": "1",
        "name": "Fit X Fitness",
        "name:en": "Fit X Fitness"
      }
    },
    {
      "type": "node",
      "id": 12748241254,
      "lat": 12.9551811,
      "lon": 77.5282537,
      "tags": {
        "addr:floor": "G",
        "check_date": "2025-04-11",
        "level": "0",
        "shop": "dry_cleaning"
      }
    },
    {
      "type": "node",
      "id": 12873482029,
      "lat": 12.9579424,
      "lon": 77.533767,
      "tags": {
        "addr:floor": "G",
        "amenity": "restaurant",
        "check_date": "2025-05-29",
        "cuisine": "regional",
        "diet:vegetarian": "yes",
        "level": "0",
        "name": "Udupi Brahmins Kitchen",
        "name:en": "Udupi Brahmins Kitchen"
      }
    },
    {
      "type": "way",
      "id": 138391170,
      "center": {
        "lat": 12.9625287,
        "lon": 77.5269488
      },
      "tags": {
        "leisure": "park"
      }
    },
    {
      "type": "way",
      "id": 144964634,
      "center": {
        "lat": 12.9583802,
        "lon": 77.5279643
      },
      "tags": {
        "leisure": "park"
      }
    },
    {
      "type": "way",
      "id": 144964635,
      "center": {
        "lat": 12.9585549,
        "lon": 77.5267811
      },
      "tags": {
        "addr:postcode": "560040",
        "designation": "Bar",
        "name": "West View Bar",
        "shop": "alcohol"
      }
    },
    {
      "type": "way",
      "id": 169806411,
      "center": {
        "lat": 12.9581836,
        "lon": 77.5270014
      },
      "tags": {
        "leisure": "park"
      }
    },
    {
      "type": "way",
      "id": 169806413,
      "center": {
        "lat": 12.9585103,
        "lon": 77.5262252
      },
      "tags": {
        "addr:city": "Bangalore",
        "addr:district": "Bengaluru Urban",
        "addr:housenumber": "1564",
        "addr:postcode": "560040",
        "addr:street": "8th Cross Rd, 2nd Block, Nagarbhavi 1st Stage, Chandra Layout, Vijayanagar",
        "amenity": "community_centre",
        "building": "yes",
        "building:levels": "5",
        "name": "Chandragiri Palace"
      }
    },
    {
      "type": "way",
      "id": 287870134,
      "center": {
        "lat": 12.958176,
        "lon": 77.5311508
      },
      "tags": {
        "leisure": "park",
        "name": "BBMP Park",
        "name:kn": "ಬೃ. ಬೆ. ಮ. ಪಾ. ಉದ್ಯಾನವನ",
        "operator": "ಬೃಹತ್ ಬೆಂಗಳೂರು ಮಹಾನಗರ ಪಾಲಿಕೆ",
        "operator:en": "Bruhat Bengaluru Mahanagara Palike",
        "operator:ka": "ಬೃಹತ್ ಬೆಂಗಳೂರು ಮಹಾನಗರ ಪಾಲಿಕೆ",
        "operator:short": "BBMP",
        "operator:type": "government",
        "operator:wikidata": "Q4978693"
      }
    },
    {
      "type": "way",
      "id": 346540948,
      "center": {
        "lat": 12.9635215,
        "lon": 77.529315
      },
      "tags": {
        "amenity": "place_of_worship",
        "name": "Ganesha Temple",
        "name:kn": "ಗಣೇಶ ದೇವಸ್ಥಾನ",
        "religion": "hindu"
      }
    },
    {
      "type": "way",
      "id": 363140629,
      "center": {
        "lat": 12.9537975,
        "lon": 77.5281294
      },
      "tags": {
        "leisure": "park"
      }
    },
    {
      "type": "way",
      "id": 437848258,
      "center": {
        "lat": 12.9533936,
        "lon": 77.5277784
      },
      "tags": {
        "leisure": "playground"
      }
    },
    {
      "type": "way",
      "id": 437848260,
      "center": {
        "lat": 12.9591632,
        "lon": 77.5268919
      },
      "tags": {
        "amenity": "bus_station",
        "check_date": "2024-04-04",
        "name": "Chandra Layout Bus Station",
        "name:kn": "ಚಂದ್ರ ಬಡಾವಣೆ ಬಸ್ ನಿಲ್ದಾಣ",
        "operator": "BMTC"
      }
    },
    {
      "type": "way",
      "id": 1224936682,
      "center": {
        "lat": 12.9604938,
        "lon": 77.5262461
      },
      "tags": {
        "leisure": "park"
      }
    },
    {
      "type": "way",
      "id": 1225131005,
      "center": {
        "lat": 12.9603286,
        "lon": 77.5276789
      },
      "tags": {
        "leisure": "park"
      }
    },
    {
      "type": "way",
      "id": 1254612789,
      "center": {
        "lat": 12.9595713,
        "lon": 77.529389
      },
      "tags": {
        "leisure": "park"
      }
    },
    {
      "type": "way",
      "id": 1258216455,
      "center": {
        "lat": 12.9574667,
        "lon": 77.5305266
      },
      "tags": {
        "leisure": "park"
      }
    },
    {
      "type": "way",
      "id": 1258216456,
      "center": {
        "lat": 12.9575223,
        "lon": 77.5288132
      },
      "tags": {
        "leisure": "park"
      }
    },
    {
      "type": "way",
      "id": 1258216457,
      "center": {
        "lat": 12.9583979,
        "lon": 77.5290136
      },
      "tags": {
        "leisure": "park"
      }
    }
  ]
}