{
  "area_name": "Avalahalli",
  "osm_id": 19884577,
  "osm_type": "relation",
  "place_type": "administrative",
  "amenity_count": 4,
  "amenities": [
    {
      "type": "node",
      "id": 4761559321,
      "lat": 12.9455741,
      "lon": 77.5384918,
      "tags": {
        "addr:postcode": "560085",
        "addr:street": "Hoskerehalli Road",
        "name": "Sri Gururaghavendra traders",
        "name:en": "Sri Gururaghavendra traders",
        "opening_hours": "Mo-Su 09:30-21:30",
        "shop": "department_store"
      }
    },
    {
      "type": "node",
      "id": 4815911828,
      "lat": 12.9459315,
      "lon": 77.5385939,
      "tags": {
        "addr:postcode": "560085",
        "addr:street": "Hoskerehalli Road",
        "amenity": "place_of_worship",
        "name": "Sri Vaibhava Ganapathi",
        "name:en": "Sri Vaibhava Ganapathi",
        "name:kn": "ಶ್ರೀ ವೈಭವ ಗಣಪತಿ",
        "opening_hours": "Mo-Su 08:00-21:00",
        "religion": "hindu"
      }
    },
    {
      "type": "node",
      "id": 9933966690,
      "lat": 12.9429386,
      "lon": 77.5460608,
      "tags": {
        "addr:city": "Bangalore",
        "addr:housenumber": "9,",
        "addr:postcode": "560026",
        "addr:street": "50 Feet Road, Muneshwara Block , Girinagar",
        "amenity": "dentist",
        "healthcare": "dentist",
        "healthcare:speciality": "dentist;consultant_periosontist_&_implantologist",
        "name": "My Dentist-Centre For Complete Dental & Implant Care",
        "operator": "Dr Katta R Venkatesh"
      }
    },
    {
      "type": "node",
      "id": 9934012104,
      "lat": 12.9429852,
      "lon": 77.5460604,
      "tags": {
        "amenity": "hospital",
        "healthcare": "hospital",
        "healthcare:speciality": "dentist",
        "name": "My Dentist",
        "operator": "Dr Katta R Venkatesh",
        "operator:type": "public"
      }
    }
  ]
}