{
  "area_name": "Azad Nagar",
  "osm_id": 19883286,
  "osm_type": "relation",
  "place_type": "administrative",
  "amenity_count": 17,
  "amenities": [
    {
      "type": "node",
      "id": 4130913293,
      "lat": 12.9602862,
      "lon": 77.5570381,
      "tags": {
        "amenity": "fuel",
        "brand": "Bharat Petroleum",
        "brand:wikidata": "Q854826",
        "compressed_air": "no",
        "name": "Bharat Petroleum",
        "name:kn": "ಭಾರತ್ ಪೆಟ್ರೋಲಿಯಂ"
      }
    },
    {
      "type": "node",
      "id": 4446894387,
      "lat": 12.9559132,
      "lon": 77.5561779,
      "tags": {
        "addr:city": "bangalore",
        "addr:housenumber": "9",
        "addr:postcode": "560026",
        "addr:street": "2nd Main Road valmikinagar Mysore Road, Ramachandra Agrahara, Azad Nagar",
        "amenity": "pharmacy",
        "name": "Sri Ganesh Pharma",
        "phone": "089708 85482"
      }
    },
    {
      "type": "node",
      "id": 4488831477,
      "lat": 12.9610541,
      "lon": 77.5613113,
      "tags": {
        "addr:city": "bangalore",
        "addr:housenumber": "168",
        "addr:postcode": "560018",
        "addr:street": "1st Floor, 9th Cross, 1st Main Road, Chamarajpet",
        "leisure": "sports_centre",
        "name": "Sanjeevini Fitness World",
        "opening_hours": "06:00-22:00",
        "sport": "gymnastics"
      }
    },
    {
      "type": "node",
      "id": 6944269353,
      "lat": 12.9526505,
      "lon": 77.5548633,
      "tags": {
        "addr:district": "Bengaluru Urban",
        "addr:full": "Kempegoudanagara, Near Police Station, South",
        "addr:postcode": "560018",
        "addr:state": "Karnataka",
        "amenity": "hospital",
        "name": "Gavipuramguttahalli Maternity Home",
        "source": "OpenGovernmentData"
      }
    },
    {
      "type": "node",
      "id": 6944842472,
      "lat": 12.9610131,
      "lon": 77.5603162,
      "tags": {
        "addr:district": "Bengaluru Urban",
        "addr:full": "No 57 & 58 Sirsi Road Near Sirsi Circle Chamarajpet",
        "addr:postcode": "560018",
        "addr:state": "Karnataka",
        "amenity": "clinic",
        "healthcare": "clinic",
        "name": "Joshi Nursing Home",
        "source": "OpenGovernmentData"
      }
    },
    {
      "type": "node",
      "id": 7576958043,
      "lat": 12.961345,
      "lon": 77.560893,
      "tags": {
        "addr:district": "Bengaluru Urban",
        "addr:full": "Mahaveer Arcade, Sirsi Road, Chamrajpet, Bengaluru",
        "addr:postcode": "560018",
        "addr:state": "Karnataka",
        "amenity": "hospital",
        "name": "Corporation Hospital",
        "source": "Local Knowledge"
      }
    },
    {
      "type": "node",
      "id": 7576958052,
      "lat": 12.9609494,
      "lon": 77.5613939,
      "tags": {
        "addr:district": "Bengaluru Urban",
        "addr:full": "Sirsi Road, Chamrajpet, Bengaluru",
        "addr:postcode": "560018",
        "addr:state": "Karnataka",
        "amenity": "hospital",
        "name": "Government Hospital",
        "name:kn": "ಚಾಮರಾಜಪೇಟೆ ಸರ್ಕಾರಿ ಆಸ್ಪತ್ರೆ",
        "source": "Local Knowledge"
      }
    },
    {
      "type": "node",
      "id": 7576958061,
      "lat": 12.9587464,
      "lon": 77.5573456,
      "tags": {
        "addr:district": "Bengaluru Urban",
        "addr:full": "Ramachandra Agrahara, Azad Nagar, Bengaluru",
        "addr:postcode": "560026",
        "addr:state": "Karnataka",
        "amenity": "hospital",
        "name": "Government Hospital, Banglore",
        "source": "Local Knowledge"
      }
    },
    {
      "type": "node",
      "id": 7576958096,
      "lat": 12.960972,
      "lon": 77.5609696,
      "tags": {
        "addr:district": "Bengaluru Urban",
        "addr:full": "Chamrajpet, Bengaluru",
        "addr:postcode": "560018",
        "addr:state": "Karnataka",
        "amenity": "hospital",
        "name": "Herige Hospital",
        "source": "Local Knowledge"
      }
    },
    {
      "type": "node",
      "id": 11178186995,
      "lat": 12.9584415,
      "lon": 77.5591653,
      "tags": {
        "check_date": "2023-09-09",
        "name": "Iyengar Bakery",
        "name:kn": "ಐಯ್ಯಂಗಾರ್ ಬೇಕರಿ",
        "shop": "bakery"
      }
    },
    {
      "type": "way",
      "id": 55684219,
      "center": {
        "lat": 12.9507937,
        "lon": 77.5548602
      },
      "tags": {
        "leisure": "sports_centre",
        "name": "Rajiv Gandhi Sports Complex",
        "name:etymology:wikidata": "Q4593"
      }
    },
    {
      "type": "way",
      "id": 55684220,
      "center": {
        "lat": 12.951867,
        "lon": 77.5589753
      },
      "tags": {
        "alt_name": "Jinke Park",
        "leisure": "park",
        "name": "Dr Rajkumar Park",
        "name:etymology:wikidata": "Q984634",
        "name:kn": "ರಾಜಕುಮಾರ ಉದ್ಯಾನವನ"
      }
    },
    {
      "type": "way",
      "id": 182819011,
      "center": {
        "lat": 12.9582804,
        "lon": 77.5551362
      },
      "tags": {
        "leisure": "park"
      }
    },
    {
      "type": "way",
      "id": 1203069042,
      "center": {
        "lat": 12.9535295,
        "lon": 77.5570806
      },
      "tags": {
        "amenity": "crematorium",
        "landuse": "crematorium",
        "name": "Chamrajapet Crematorium",
        "name:kn": "ಚಾಮರಾಜಪೇಟೆ ಚಿತಾಗಾರ",
        "note": "10 Cremation Sites, conventional, wood burning, includes burial area.",
        "operator": "BBMP",
        "religion": "hindu"
      }
    },
    {
      "type": "way",
      "id": 1205832181,
      "center": {
        "lat": 12.9609247,
        "lon": 77.5611731
      },
      "tags": {
        "amenity": "hospital"
      }
    },
    {
      "type": "way",
      "id": 1348696385,
      "center": {
        "lat": 12.9506487,
        "lon": 77.5564358
      },
      "tags": {
        "name": "Dhobi Ghat",
        "shop": "laundry"
      }
    },
    {
      "type": "way",
      "id": 1348696401,
      "center": {
        "lat": 12.9591122,
        "lon": 77.555799
      },
      "tags": {
        "amenity": "fuel",
        "brand": "Indian Oil",
        "brand:wikidata": "Q1289348",
        "compressed_air": "yes",
        "name": "Indian Oil"
      }
    }
  ]
}