{
  "area_name": "Baiyyappanahalli",
  "osm_id": 443807286,
  "osm_type": "node",
  "place_type": "suburb",
  "amenity_count": 73,
  "amenities": [
    {
      "type": "node",
      "id": 628901926,
      "lat": 12.9939354,
      "lon": 77.6609577,
      "tags": {
        "amenity": "food_court",
        "check_date": "2023-12-23",
        "indoor_seating": "yes",
        "internet_access": "no",
        "name": "The Bay",
        "outdoor_seating": "no",
        "payment:cash": "yes",
        "payment:credit_cards": "yes",
        "payment:debit_cards": "yes",
        "wheelchair": "limited"
      }
    },
    {
      "type": "node",
      "id": 1436125689,
      "lat": 12.9926382,
      "lon": 77.6506116,
      "tags": {
        "amenity": "place_of_worship",
        "name": "Ganesha Temple",
        "name:kn": "ಗಣೇಶ ದೇವಸ್ಥಾನ",
        "religion": "hindu"
      }
    },
    {
      "type": "node",
      "id": 1436142982,
      "lat": 12.9963577,
      "lon": 77.6566257,
      "tags": {
        "amenity": "place_of_worship",
        "name": "Chamundeshwari Temple",
        "name:kn": "ಚಾಮುಂಡೇಶ್ವರಿ ದೇವಸ್ಥಾನ",
        "religion": "hindu"
      }
    },
    {
      "type": "node",
      "id": 1436163341,
      "lat": 12.9965802,
      "lon": 77.6615067,
      "tags": {
        "access": "yes",
        "leisure": "playground",
        "name": "Sadananda Nagar Park"
      }
    },
    {
      "type": "node",
      "id": 1436177631,
      "lat": 12.995242,
      "lon": 77.6523255,
      "tags": {
        "amenity": "hospital",
        "name": "ESI Hospital",
        "name:kn": "ಇಎಸ್ಐ ಆಸ್ಪತ್ರೆ"
      }
    },
    {
      "type": "node",
      "id": 1436188891,
      "lat": 12.9956683,
      "lon": 77.6571952,
      "tags": {
        "addr:city": "Bangalore",
        "addr:postcode": "560038",
        "addr:street": "4th Main Road",
        "name": "Metro Stores",
        "opening_hours": "Mo-Su 06:00-22:00",
        "payment:cash": "yes",
        "payment:paytm": "yes",
        "payment:upi": "yes",
        "shop": "general"
      }
    },
    {
      "type": "node",
      "id": 1436191049,
      "lat": 12.9973771,
      "lon": 77.6571884,
      "tags": {
        "shop": "hairdresser"
      }
    },
    {
      "type": "node",
      "id": 1436426552,
      "lat": 12.996795,
      "lon": 77.6584897,
      "tags": {
        "leisure": "playground",
        "name": "Sadanandanagara Jogging Park"
      }
    },
    {
      "type": "node",
      "id": 1541338044,
      "lat": 13.0044439,
      "lon": 77.6554748,
      "tags": {
        "shop": "car_repair"
      }
    },
    {
      "type": "node",
      "id": 1619093886,
      "lat": 12.9931914,
      "lon": 77.6618949,
      "tags": {
        "addr:city": "Bangalore",
        "addr:floor": "G",
        "addr:housename": "Gopalan Signature Mall",
        "addr:postcode": "560016",
        "addr:street": "Swamy Vivekananda Road",
        "air_conditioning": "yes",
        "amenity": "fast_food",
        "brand": "McDonald's",
        "brand:pa": "ਮੈਕਡੋਨਲਡ’ਜ਼",
        "brand:ur": "مکڈونلڈز",
        "brand:wikidata": "Q38076",
        "brand:wikipedia": "en:McDonald's",
        "brand:wikipedia:pa": "ਮੈਕਡੋਨਲਡ’ਜ਼",
        "brand:wikipedia:ur": "مکڈونلڈز",
        "check_date": "2025-11-16",
        "cuisine": "burger",
        "diet:halal": "yes",
        "diet:vegetarian": "yes",
        "indoor_seating": "yes",
        "level": "0",
        "name": "McDonald's",
        "name:pa": "ਮੈਕਡੋਨਲਡ’ਜ਼",
        "name:ur": "مکڈونلڈز",
        "opening_hours": "Mo-Su 10:00-23:00",
        "outdoor_seating": "no",
        "payment:cash": "yes",
        "payment:credit_cards": "yes",
        "payment:debit_cards": "yes",
        "smoking": "no",
        "takeaway": "yes",
        "wheelchair": "yes"
      }
    },
    {
      "type": "node",
      "id": 1837722493,
      "lat": 12.9967249,
      "lon": 77.6616773,
      "tags": {
        "amenity": "shelter"
      }
    },
    {
      "type": "node",
      "id": 1837722553,
      "lat": 12.9982067,
      "lon": 77.6613582,
      "tags": {
        "amenity": "shelter"
      }
    },
    {
      "type": "node",
      "id": 1925196711,
      "lat": 12.9940622,
      "lon": 77.6606292,
      "tags": {
        "addr:city": "Bangalore",
        "addr:housename": "The Bay, RMZ Infinity",
        "addr:postcode": "560016",
        "addr:street": "Swamy Vivekananda Road",
        "amenity": "atm",
        "brand": "Standard Chartered",
        "brand:wikidata": "Q548278",
        "cash_in": "no",
        "fee": "no",
        "name": "Standard Chartered",
        "operator": "Standard Chartered",
        "operator:wikidata": "Q548278"
      }
    },
    {
      "type": "node",
      "id": 1925196712,
      "lat": 12.9940777,
      "lon": 77.6607095,
      "tags": {
        "addr:city": "Bangalore",
        "addr:housename": "The Bay, RMZ Infinity",
        "addr:postcode": "560016",
        "addr:street": "Swamy Vivekananda Road",
        "amenity": "fast_food",
        "name": "Casa Picola"
      }
    },
    {
      "type": "node",
      "id": 1925196716,
      "lat": 12.9935838,
      "lon": 77.6607658,
      "tags": {
        "addr:city": "Bangalore",
        "addr:housename": "The Bay, RMZ Infinity",
        "addr:postcode": "560016",
        "addr:street": "Swamy Vivekananda Road",
        "amenity": "fast_food",
        "brand": "Au Bon Pain",
        "brand:wikidata": "Q4818942",
        "cuisine": "sandwich",
        "indoor_seating": "yes",
        "name": "Au Bon Pain",
        "outdoor_seating": "no",
        "takeaway": "yes"
      }
    },
    {
      "type": "node",
      "id": 1925211620,
      "lat": 12.9916211,
      "lon": 77.6586524,
      "tags": {
        "amenity": "parking"
      }
    },
    {
      "type": "node",
      "id": 1925211661,
      "lat": 12.9912368,
      "lon": 77.6577482,
      "tags": {
        "amenity": "bicycle_parking",
        "covered": "no"
      }
    },
    {
      "type": "node",
      "id": 1925211667,
      "lat": 12.993338,
      "lon": 77.6608676,
      "tags": {
        "access": "customers",
        "amenity": "parking",
        "fee": "no",
        "parking": "multi-storey"
      }
    },
    {
      "type": "node",
      "id": 1925211707,
      "lat": 12.9936464,
      "lon": 77.6615489,
      "tags": {
        "access": "customers",
        "amenity": "parking",
        "fee": "no",
        "parking": "underground"
      }
    },
    {
      "type": "node",
      "id": 2381002031,
      "lat": 12.9983251,
      "lon": 77.6611836,
      "tags": {
        "amenity": "bench"
      }
    },
    {
      "type": "node",
      "id": 2381002034,
      "lat": 12.9982283,
      "lon": 77.6611246,
      "tags": {
        "amenity": "bench"
      }
    },
    {
      "type": "node",
      "id": 2381002037,
      "lat": 12.9982023,
      "lon": 77.6612533,
      "tags": {
        "leisure": "playground"
      }
    },
    {
      "type": "node",
      "id": 2480865063,
      "lat": 12.9941909,
      "lon": 77.6606796,
      "tags": {
        "addr:city": "Bangalore",
        "addr:housename": "The Bay, RMZ Infinity",
        "addr:postcode": "560016",
        "addr:street": "Swamy Vivekananda Road",
        "amenity": "restaurant",
        "brand": "California Burrito",
        "brand:wikidata": "Q124374596",
        "check_date": "2024-05-15",
        "cuisine": "mexican",
        "indoor_seating": "yes",
        "name": "California Burrito",
        "outdoor_seating": "yes",
        "website": "https://www.californiaburrito.in/"
      }
    },
    {
      "type": "node",
      "id": 2480865065,
      "lat": 12.9939646,
      "lon": 77.6613318,
      "tags": {
        "addr:city": "Bangalore",
        "addr:housename": "The Bay, RMZ Infinity",
        "addr:postcode": "560016",
        "addr:street": "Swamy Vivekananda Road",
        "air_conditioning": "no",
        "amenity": "fast_food",
        "brand": "Subway",
        "brand:pa": "ਸਬਵੇਅ",
        "brand:ur": "سب وے",
        "brand:wikidata": "Q244457",
        "brand:wikipedia": "en:Subway (restaurant)",
        "check_date": "2023-12-23",
        "cuisine": "sandwich",
        "delivery": "yes",
        "diet:vegetarian": "yes",
        "highchair": "no",
        "internet_access": "no",
        "name": "Subway",
        "name:kn": "ಸಬ್‌ವೇ",
        "name:pa": "ਸਬਵੇਅ",
        "name:ur": "سب وے",
        "outdoor_seating": "yes",
        "payment:cash": "yes",
        "payment:credit_cards": "yes",
        "payment:debit_cards": "yes",
        "smoking": "no",
        "source": "local knowledge",
        "takeaway": "yes",
        "wheelchair": "limited"
      }
    },
    {
      "type": "node",
      "id": 2480865069,
      "lat": 12.9930746,
      "lon": 77.6617576,
      "tags": {
        "addr:city": "Bangalore",
        "addr:floor": "G",
        "addr:housename": "Gopalan Signature Mall",
        "addr:housenumber": "6",
        "addr:postcode": "560016",
        "addr:street": "Swamy Vivekananda Road",
        "air_conditioning": "yes",
        "check_date": "2025-11-16",
        "level": "0",
        "name": "Imagine Store",
        "opening_hours": "Mo-Su 10:30-21:30",
        "payment:credit_cards": "yes",
        "payment:debit_cards": "yes",
        "phone": "+91 80 67142201",
        "shop": "electronics",
        "website": "https://imaginestore.org/",
        "wheelchair": "yes"
      }
    },
    {
      "type": "node",
      "id": 2481030017,
      "lat": 12.9929234,
      "lon": 77.6614361,
      "tags": {
        "addr:city": "Bangalore",
        "addr:floor": "G",
        "addr:housename": "Gopalan Signature Mall",
        "addr:postcode": "560016",
        "addr:street": "Swamy Vivekananda Road",
        "check_date": "2025-11-16",
        "level": "0",
        "name": "Wildcrafts",
        "payment:cash": "yes",
        "payment:credit_cards": "yes",
        "payment:debit_cards": "yes",
        "shop": "bag",
        "website": "https://www.wildcraft.in/"
      }
    },
    {
      "type": "node",
      "id": 2481030018,
      "lat": 12.9928929,
      "lon": 77.6613161,
      "tags": {
        "addr:city": "Bangalore",
        "addr:housename": "Gopalan Signature Mall",
        "addr:postcode": "560016",
        "addr:street": "Swamy Vivekananda Road",
        "shop": "watches"
      }
    },
    {
      "type": "node",
      "id": 2991986418,
      "lat": 13.0039518,
      "lon": 77.6573921,
      "tags": {
        "amenity": "atm",
        "brand": "HDFC Bank",
        "brand:wikidata": "Q631047",
        "name": "HDFC Bank",
        "name:kn": "ಎಚ್. ಡಿ. ಎಫ್. ಸಿ..",
        "operator": "HDFC Bank",
        "operator:wikidata": "Q631047",
        "short_name": "HDFC"
      }
    },
    {
      "type": "node",
      "id": 3451663435,
      "lat": 12.9923397,
      "lon": 77.659961,
      "tags": {
        "amenity": "atm",
        "brand": "State Bank of India",
        "brand:wikidata": "Q1340361",
        "check_date": "2024-12-10",
        "name": "State Bank of India",
        "name:kn": "ಭಾರತೀಯ ಸ್ಟೇಟ್ ಬ್ಯಾಂಕ್",
        "operator": "State Bank of India",
        "operator:wikidata": "Q1340361",
        "short_name": "SBI"
      }
    },
    {
      "type": "node",
      "id": 3451664102,
      "lat": 12.9923201,
      "lon": 77.660059,
      "tags": {
        "amenity": "atm",
        "brand": "HDFC Bank",
        "brand:wikidata": "Q631047",
        "check_date": "2024-12-14",
        "name": "HDFC Bank",
        "name:kn": "ಎಚ್ ಡಿ ಎಫ್ ಸಿ",
        "operator": "HDFC Bank",
        "operator:wikidata": "Q631047",
        "short_name": "HDFC"
      }
    },
    {
      "type": "node",
      "id": 3785906626,
      "lat": 12.9975386,
      "lon": 77.6552048,
      "tags": {
        "amenity": "atm",
        "brand": "HDFC Bank",
        "brand:wikidata": "Q631047",
        "name": "HDFC Bank",
        "name:kn": "ಎಚ್. ಡಿ. ಎಫ್. ಸಿ..",
        "operator": "HDFC Bank",
        "operator:wikidata": "Q631047",
        "short_name": "HDFC"
      }
    },
    {
      "type": "node",
      "id": 3787440182,
      "lat": 12.9962854,
      "lon": 77.6577102,
      "tags": {
        "addr:city": "Bangalore",
        "addr:postcode": "560038",
        "name": "Nandini Milk Parlor",
        "operator": "Nandini",
        "payment:cash": "yes",
        "payment:paytm": "yes",
        "payment:upi": "yes",
        "shop": "supermarket"
      }
    },
    {
      "type": "node",
      "id": 4445171554,
      "lat": 12.995301,
      "lon": 77.6524627,
      "tags": {
        "addr:city": "Bangalore",
        "addr:postcode": "560037",
        "addr:street": "ITPL Main Road, Kundalahalli, Brookefield,",
        "amenity": "pharmacy",
        "name": "Pavan Medicals",
        "phone": "080 2847 5700"
      }
    },
    {
      "type": "node",
      "id": 4599826689,
      "lat": 12.9932504,
      "lon": 77.6619846,
      "tags": {
        "addr:city": "Bangalore",
        "addr:housename": "Gopalan Signature Mall",
        "addr:postcode": "560016",
        "addr:street": "Swamy Vivekananda Road",
        "amenity": "atm",
        "operator": "City Bank"
      }
    },
    {
      "type": "node",
      "id": 4599826789,
      "lat": 12.9922876,
      "lon": 77.6599855,
      "tags": {
        "amenity": "bank",
        "brand": "State Bank of India",
        "brand:wikidata": "Q1340361",
        "brand:wikipedia": "en:State Bank of India",
        "name": "State Bank of India",
        "name:kn": "ಭಾರತೀಯ ಸ್ಟೇಟ್ ಬ್ಯಾಂಕ್",
        "short_name": "SBI",
        "website": "https://www.sbi.co.in"
      }
    },
    {
      "type": "node",
      "id": 4954362671,
      "lat": 12.9937229,
      "lon": 77.6608029,
      "tags": {
        "addr:city": "Bangalore",
        "addr:housename": "The Bay, RMZ Infinity",
        "addr:postcode": "560016",
        "addr:street": "Swamy Vivekananda Road",
        "amenity": "cafe",
        "brand": "Chai Point",
        "brand:wikidata": "Q28173415",
        "cuisine": "coffee_shop;sandwich;tea",
        "internet_access": "yes",
        "internet_access:fee": "yes",
        "name": "Chai Point",
        "opening_hours": "Mo-Su 09:00-21:00",
        "outdoor_seating": "yes",
        "smoking": "no",
        "takeaway": "yes"
      }
    },
    {
      "type": "node",
      "id": 4954362672,
      "lat": 12.9940292,
      "lon": 77.6607974,
      "tags": {
        "addr:city": "Bangalore",
        "addr:housename": "The Bay, RMZ Infinity",
        "addr:postcode": "560016",
        "addr:street": "Swamy Vivekananda Road",
        "amenity": "fast_food",
        "cuisine": "italian",
        "delivery": "no",
        "drive_through": "no",
        "name": "Pasta Roma",
        "outdoor_seating": "no",
        "smoking": "no",
        "takeaway": "yes"
      }
    },
    {
      "type": "node",
      "id": 6484718433,
      "lat": 12.9893034,
      "lon": 77.6528791,
      "tags": {
        "amenity": "bicycle_rental",
        "name": "DULT Bike Share Point"
      }
    },
    {
      "type": "node",
      "id": 12903025368,
      "lat": 12.9994881,
      "lon": 77.6616085,
      "tags": {
        "addr:floor": "G",
        "amenity": "place_of_worship",
        "check_date": "2025-06-10",
        "level": "0",
        "name": "Mahaganapathi Temple",
        "name:en": "Mahaganapathi Temple",
        "religion": "hindu"
      }
    },
    {
      "type": "node",
      "id": 12918683669,
      "lat": 12.9922597,
      "lon": 77.6600575,
      "tags": {
        "air_conditioning": "yes",
        "amenity": "bank",
        "brand": "HDFC Bank",
        "brand:wikidata": "Q631047",
        "check_date": "2025-06-16",
        "name": "HDFC Bank",
        "short_name": "HDFC",
        "source": "survey"
      }
    },
    {
      "type": "node",
      "id": 12925049080,
      "lat": 12.9907716,
      "lon": 77.6525114,
      "tags": {
        "check_date": "2025-07-05",
        "name": "Amul",
        "shop": "dairy"
      }
    },
    {
      "type": "node",
      "id": 12943349329,
      "lat": 12.9922574,
      "lon": 77.6519519,
      "tags": {
        "amenity": "bicycle_parking",
        "bicycle_parking": "rack",
        "brand": "Trin Trin"
      }
    },
    {
      "type": "node",
      "id": 12954222006,
      "lat": 12.9995293,
      "lon": 77.6617739,
      "tags": {
        "addr:floor": "G",
        "check_date": "2025-06-26",
        "female": "yes",
        "level": "0",
        "male": "yes",
        "name": "New Life Style",
        "name:en": "New Life Style",
        "shop": "hairdresser"
      }
    },
    {
      "type": "node",
      "id": 12961548923,
      "lat": 13.0021742,
      "lon": 77.6598831,
      "tags": {
        "addr:floor": "G",
        "amenity": "fast_food",
        "check_date": "2025-08-08",
        "cuisine": "juice",
        "drive_through": "no",
        "indoor_seating": "no",
        "level": "0",
        "name": "Lassi Centre",
        "name:en": "Lassi Centre",
        "outdoor_seating": "no",
        "payment:cards": "no",
        "payment:cash": "yes",
        "payment:credit_cards": "no",
        "payment:debit_cards": "no",
        "takeaway": "only"
      }
    },
    {
      "type": "node",
      "id": 13338986026,
      "lat": 12.9963625,
      "lon": 77.6612663,
      "tags": {
        "addr:floor": "G",
        "check_date": "2025-11-28",
        "level": "0",
        "name": "D2D Dawn 2 Dusk",
        "name:en": "D2D Dawn 2 Dusk",
        "shop": "supermarket"
      }
    },
    {
      "type": "way",
      "id": 130361475,
      "center": {
        "lat": 12.9967552,
        "lon": 77.6586511
      },
      "tags": {
        "leisure": "park"
      }
    },
    {
      "type": "way",
      "id": 130361840,
      "center": {
        "lat": 12.9970809,
        "lon": 77.6618602
      },
      "tags": {
        "leisure": "park"
      }
    },
    {
      "type": "way",
      "id": 148042611,
      "center": {
        "lat": 12.9899813,
        "lon": 77.653186
      },
      "tags": {
        "access": "yes",
        "amenity": "parking",
        "fee": "yes",
        "parking": "surface"
      }
    },
    {
      "type": "way",
      "id": 172938154,
      "center": {
        "lat": 12.9981831,
        "lon": 77.6613148
      },
      "tags": {
        "leisure": "park"
      }
    },
    {
      "type": "way",
      "id": 176675169,
      "center": {
        "lat": 12.9929432,
        "lon": 77.6615107
      },
      "tags": {
        "addr:street": "Old Madras Road",
        "building": "retail",
        "check_date": "2025-11-16",
        "name": "Gopalan Signature Mall",
        "shop": "mall",
        "toilets": "yes",
        "toilets:wheelchair": "yes",
        "wheelchair": "limited"
      }
    },
    {
      "type": "way",
      "id": 182175819,
      "center": {
        "lat": 12.9919768,
        "lon": 77.6595562
      },
      "tags": {
        "amenity": "fuel",
        "brand": "Shell",
        "brand:wikidata": "Q110716465",
        "compressed_air": "yes",
        "landuse": "commercial",
        "name": "Shell"
      }
    },
    {
      "type": "way",
      "id": 185966117,
      "center": {
        "lat": 12.9961587,
        "lon": 77.6565203
      },
      "tags": {
        "leisure": "park"
      }
    },
    {
      "type": "way",
      "id": 255741542,
      "center": {
        "lat": 13.003506,
        "lon": 77.6594679
      },
      "tags": {
        "leisure": "park"
      }
    },
    {
      "type": "way",
      "id": 328758429,
      "center": {
        "lat": 12.9953687,
        "lon": 77.6529931
      },
      "tags": {
        "leisure": "park"
      }
    },
    {
      "type": "way",
      "id": 328758432,
      "center": {
        "lat": 12.9952564,
        "lon": 77.6527138
      },
      "tags": {
        "amenity": "hospital",
        "name": "ESI Hospital",
        "name:kn": "ಇಎಸ್ಐ ಆಸ್ಪತ್ರೆ"
      }
    },
    {
      "type": "way",
      "id": 346272435,
      "center": {
        "lat": 12.9960193,
        "lon": 77.6549021
      },
      "tags": {
        "leisure": "park"
      }
    },
    {
      "type": "way",
      "id": 346421936,
      "center": {
        "lat": 12.9882363,
        "lon": 77.6567041
      },
      "tags": {
        "access": "private",
        "leisure": "swimming_pool"
      }
    },
    {
      "type": "way",
      "id": 346461244,
      "center": {
        "lat": 12.9957158,
        "lon": 77.6551938
      },
      "tags": {
        "leisure": "swimming_pool"
      }
    },
    {
      "type": "way",
      "id": 469658778,
      "center": {
        "lat": 12.99152,
        "lon": 77.6515824
      },
      "tags": {
        "amenity": "parking",
        "name": "Byappanahalli Station Parking",
        "parking": "surface"
      }
    },
    {
      "type": "way",
      "id": 585303953,
      "center": {
        "lat": 12.9949686,
        "lon": 77.6522838
      },
      "tags": {
        "amenity": "place_of_worship",
        "denomination": "hindu",
        "landuse": "religious",
        "name": "Small Temple",
        "religion": "hindu"
      }
    },
    {
      "type": "way",
      "id": 783259780,
      "center": {
        "lat": 12.996088,
        "lon": 77.6575729
      },
      "tags": {
        "addr:city": "Bangalore",
        "addr:postcode": "560038",
        "leisure": "park",
        "operator": "ಬೃಹತ್ ಬೆಂಗಳೂರು ಮಹಾನಗರ ಪಾಲಿಕೆ",
        "operator:en": "Bruhat Bengaluru Mahanagara Palike",
        "operator:ka": "ಬೃಹತ್ ಬೆಂಗಳೂರು ಮಹಾನಗರ ಪಾಲಿಕೆ",
        "operator:short": "BBMP",
        "operator:type": "government",
        "operator:wikidata": "Q4978693"
      }
    },
    {
      "type": "way",
      "id": 994835161,
      "center": {
        "lat": 12.9991703,
        "lon": 77.6503039
      },
      "tags": {
        "leisure": "pitch",
        "sport": "basketball"
      }
    },
    {
      "type": "way",
      "id": 1060190458,
      "center": {
        "lat": 12.9924123,
        "lon": 77.6525093
      },
      "tags": {
        "access": "customers",
        "amenity": "parking",
        "fee": "yes",
        "name": "Byappanahalli Station Parking",
        "operator": "BMRCL",
        "parking": "surface"
      }
    },
    {
      "type": "way",
      "id": 1354098105,
      "center": {
        "lat": 12.9895589,
        "lon": 77.6592972
      },
      "tags": {
        "leisure": "park"
      }
    },
    {
      "type": "way",
      "id": 1354098108,
      "center": {
        "lat": 12.9887219,
        "lon": 77.6575711
      },
      "tags": {
        "leisure": "park"
      }
    },
    {
      "type": "way",
      "id": 1354126972,
      "center": {
        "lat": 12.9938876,
        "lon": 77.6609935
      },
      "tags": {
        "leisure": "garden"
      }
    },
    {
      "type": "way",
      "id": 1354126975,
      "center": {
        "lat": 12.9917352,
        "lon": 77.6573426
      },
      "tags": {
        "amenity": "police",
        "name": "Baiyyapannahalli Police Station",
        "name:kn": "ಬೈಯ್ಯಪ್ಪನಹಳ್ಳಿ ಆರಕ್ಷಕ ಠಾಣೆ"
      }
    },
    {
      "type": "way",
      "id": 1366533317,
      "center": {
        "lat": 13.0046832,
        "lon": 77.6537517
      },
      "tags": {
        "addr:floor": "G",
        "amenity": "fuel",
        "brand": "Nayara",
        "brand:wikidata": "Q5399377",
        "check_date": "2025-06-20",
        "level": "0",
        "name": "Nayara",
        "payment:cash": "yes",
        "payment:credit_cards": "yes",
        "payment:debit_cards": "yes"
      }
    },
    {
      "type": "way",
      "id": 1371021625,
      "center": {
        "lat": 13.0038847,
        "lon": 77.6573616
      },
      "tags": {
        "amenity": "fuel",
        "brand": "Bharat Petroleum",
        "brand:wikidata": "Q854826",
        "compressed_air": "yes",
        "name": "Bharat Petroleum Petrol Pump",
        "name:kn": "ಭಾರತ್ ಪೆಟ್ರೋಲಿಯಂ"
      }
    },
    {
      "type": "way",
      "id": 1372019687,
      "center": {
        "lat": 13.0019535,
        "lon": 77.6608045
      },
      "tags": {
        "leisure": "park"
      }
    },
    {
      "type": "way",
      "id": 1393795140,
      "center": {
        "lat": 12.9909276,
        "lon": 77.66028
      },
      "tags": {
        "leisure": "garden"
      }
    },
    {
      "type": "way",
      "id": 1393795142,
      "center": {
        "lat": 12.991334,
        "lon": 77.6602169
      },
      "tags": {
        "access": "private",
        "leisure": "swimming_pool"
      }
    },
    {
      "type": "way",
      "id": 1393795144,
      "center": {
        "lat": 12.9913994,
        "lon": 77.6594345
      },
      "tags": {
        "access": "private",
        "leisure": "swimming_pool"
      }
    }
  ]
}