{
  "area_name": "Bandepalya",
  "osm_id": 19883324,
  "osm_type": "relation",
  "place_type": "administrative",
  "amenity_count": 55,
  "amenities": [
    {
      "type": "node",
      "id": 1428116573,
      "lat": 12.9070833,
      "lon": 77.6351607,
      "tags": {
        "amenity": "bus_station",
        "name": "Mangammanapalya",
        "name:kn": "ಮಂಗಮ್ಮನ ಪಾಳ್ಯ"
      }
    },
    {
      "type": "node",
      "id": 1469644050,
      "lat": 12.8841338,
      "lon": 77.6434522,
      "tags": {
        "addr:street": "Hosur Road",
        "name": "Toyota Used Cars",
        "shop": "car"
      }
    },
    {
      "type": "node",
      "id": 1471667173,
      "lat": 12.8915234,
      "lon": 77.6390244,
      "tags": {
        "brand": "Toyota",
        "brand:wikidata": "Q53268",
        "check_date": "2025-03-11",
        "name": "Nandi Toyota",
        "name:kn": "ನಂದಿ ಟೊಯೋಟ",
        "shop": "car"
      }
    },
    {
      "type": "node",
      "id": 1471800769,
      "lat": 12.8830146,
      "lon": 77.6442833,
      "tags": {
        "addr:street": "Hosur Road",
        "check_date": "2025-03-11",
        "name": "Dakshin Honda",
        "shop": "car"
      }
    },
    {
      "type": "node",
      "id": 1472025798,
      "lat": 12.8987945,
      "lon": 77.6344561,
      "tags": {
        "brand": "Toyota",
        "brand:wikidata": "Q53268",
        "name": "Toyota Used Cars",
        "shop": "car"
      }
    },
    {
      "type": "node",
      "id": 1472032408,
      "lat": 12.8778195,
      "lon": 77.6472592,
      "tags": {
        "name": "Force Motors",
        "shop": "car"
      }
    },
    {
      "type": "node",
      "id": 1472708025,
      "lat": 12.8905612,
      "lon": 77.6397057,
      "tags": {
        "addr:street": "Hosur road",
        "brand": "Hyundai",
        "brand:wikidata": "Q55931",
        "check_date": "2025-03-11",
        "name": "Trident Huyndai",
        "name:kn": "ಟ್ರಿಡೆಂಟ್ ಹುಂಡೈ",
        "shop": "car"
      }
    },
    {
      "type": "node",
      "id": 1603379670,
      "lat": 12.8896145,
      "lon": 77.639937,
      "tags": {
        "amenity": "bank",
        "atm": "yes",
        "name": "National Co-operative Bank Ltd."
      }
    },
    {
      "type": "node",
      "id": 1603379726,
      "lat": 12.8847042,
      "lon": 77.6429877,
      "tags": {
        "amenity": "atm",
        "operator": "State Bank of Mysore"
      }
    },
    {
      "type": "node",
      "id": 2620621558,
      "lat": 12.8899711,
      "lon": 77.6398117,
      "tags": {
        "amenity": "restaurant",
        "cuisine": "indian",
        "name": "Melange"
      }
    },
    {
      "type": "node",
      "id": 2620621560,
      "lat": 12.8966122,
      "lon": 77.6357401,
      "tags": {
        "air_conditioning": "yes",
        "amenity": "fast_food",
        "brand": "Domino's",
        "brand:ks": "ڈومینوز",
        "brand:pa": "ਡੋਮੀਨੋਜ਼",
        "brand:ur": "ڈومینوز",
        "brand:wikidata": "Q839466",
        "brand:wikipedia": "en:Domino's Pizza",
        "check_date": "2025-08-18",
        "check_date:diet:vegetarian": "2025-08-18",
        "cuisine": "pizza",
        "diet:vegetarian": "yes",
        "indoor_seating": "yes",
        "name": "Domino's",
        "name:kn": "ಡಾಮಿನೋಸ್",
        "name:ks": "ڈومینوز",
        "name:pa": "ਡੋਮੀਨੋਜ਼",
        "name:ur": "ڈومینوز",
        "outdoor_seating": "no",
        "payment:cash": "yes",
        "payment:mastercard": "yes",
        "payment:visa": "yes",
        "takeaway": "yes"
      }
    },
    {
      "type": "node",
      "id": 3543845981,
      "lat": 12.8965552,
      "lon": 77.6359479,
      "tags": {
        "addr:city": "Bengaluru",
        "addr:housenumber": "38/7",
        "addr:postcode": "560068",
        "addr:street": "Near Krishnappa Reddy Building, Bandepalya, Garebhavipalya",
        "name": "Trend Automobiles",
        "shop": "car_repair"
      }
    },
    {
      "type": "node",
      "id": 4489813479,
      "lat": 12.8898296,
      "lon": 77.6399476,
      "tags": {
        "addr:city": "Bengaluru,",
        "addr:housenumber": "52, Hosur Main Rd, Kudlu Gate, Krishna Reddy Industrial Area, Hosapalaya,",
        "addr:postcode": "560068",
        "addr:street": "Muneshwara Nagar,",
        "name": "Ziva Spa",
        "opening_hours": "09:00-22:00",
        "phone": "099102 48203",
        "shop": "beauty",
        "website": "hotelekaa.com"
      }
    },
    {
      "type": "node",
      "id": 4489884339,
      "lat": 12.8900791,
      "lon": 77.6400455,
      "tags": {
        "addr:city": "Bengaluru,",
        "addr:full": "52, Hosur Main Rd, Kudlu Gate, Krishna Reddy Industrial Area, Hosapalaya, Muneshwara Nagar",
        "addr:postcode": "560068",
        "name": "Ziva Spa",
        "opening_hours": "09:00-21:00",
        "phone": "099102 48203",
        "shop": "beauty"
      }
    },
    {
      "type": "node",
      "id": 6246803787,
      "lat": 12.896767,
      "lon": 77.635637,
      "tags": {
        "check_date": "2024-08-29",
        "name": "Pai",
        "shop": "furniture",
        "source": "survey"
      }
    },
    {
      "type": "node",
      "id": 6246816088,
      "lat": 12.8972583,
      "lon": 77.6354284,
      "tags": {
        "brand": "Nissan",
        "brand:wikidata": "Q20165",
        "name": "Nissan",
        "shop": "car"
      }
    },
    {
      "type": "node",
      "id": 6422614289,
      "lat": 12.8901178,
      "lon": 77.6409735,
      "tags": {
        "addr:place": "Bommanahalli",
        "amenity": "school",
        "isced:level": "3",
        "name": "New Bharat International Kudlu Gate, Bommana Halli",
        "name:kn": "ನ್ಯೂ ಭರತ್ ಇಂಟರ್ನ್ಯಾಷನಲ್ ಕುಡ್ಲು ಗೇಟ್ ,ಬೊಮ್ಮನಹಳ್ಳಿ",
        "operator": "Private Un-Aided",
        "school": "Higher Secondary"
      }
    },
    {
      "type": "node",
      "id": 6494534450,
      "lat": 12.9066837,
      "lon": 77.6354232,
      "tags": {
        "addr:place": "Ellikunate",
        "amenity": "school",
        "isced:level": "3",
        "name": "Newton Public School",
        "name:kn": "ನ್ಯೂಟನ್ ಪಬ್ಲಿಕ್ ಶಾಲೆ,ಎಳ್ಳುಕುಂಟೆ",
        "operator": "Private Un-Aided",
        "school": "Higher Secondary"
      }
    },
    {
      "type": "node",
      "id": 7016516842,
      "lat": 12.8901826,
      "lon": 77.6397297,
      "tags": {
        "addr:street": "Hosur Road",
        "amenity": "restaurant",
        "check_date": "2025-07-04",
        "cuisine": "indian",
        "indoor_seating": "yes",
        "name": "Udupi Upahar",
        "name:kn": "ಉಡುಪಿ ಉಪಹಾರ",
        "outdoor_seating": "no"
      }
    },
    {
      "type": "node",
      "id": 7016554609,
      "lat": 12.8908183,
      "lon": 77.639599,
      "tags": {
        "addr:city": "Bengaluru",
        "addr:street": "Hosur Road",
        "amenity": "cinema",
        "name": "Narasimha Chitramandira",
        "screen": "1"
      }
    },
    {
      "type": "node",
      "id": 7016588786,
      "lat": 12.8899226,
      "lon": 77.6398609,
      "tags": {
        "addr:city": "Bengaluru",
        "addr:street": "Hosur Road",
        "amenity": "fast_food",
        "check_date": "2025-05-31",
        "name": "Lassi Magic"
      }
    },
    {
      "type": "node",
      "id": 7572669027,
      "lat": 12.8859649,
      "lon": 77.6489078,
      "tags": {
        "addr:district": "Bengaluru Urban",
        "addr:full": "AECS Layout, Kudlu",
        "addr:postcode": "560068",
        "addr:state": "Karnataka",
        "amenity": "hospital",
        "name": "Hospitec Multispeciality Hospital",
        "source": "Local Knowledge"
      }
    },
    {
      "type": "node",
      "id": 7572669033,
      "lat": 12.88515,
      "lon": 77.64925,
      "tags": {
        "addr:district": "Bengaluru Urban",
        "addr:full": "AECS Layout, Singasandra, Bengaluru",
        "addr:postcode": "560068",
        "addr:state": "Karnataka",
        "amenity": "dentist",
        "check_date": "2024-10-20",
        "name": "Madni Dental Clinic",
        "source": "Local Knowledge"
      }
    },
    {
      "type": "node",
      "id": 10218105376,
      "lat": 12.896911,
      "lon": 77.6355447,
      "tags": {
        "brand": "Reliance Digital",
        "brand:wikidata": "Q7311012",
        "check_date": "2022-11-25",
        "name": "Reliance Digital",
        "payment:cash": "yes",
        "payment:mastercard": "yes",
        "payment:upi": "yes",
        "payment:visa": "yes",
        "shop": "electronics",
        "source": "survey"
      }
    },
    {
      "type": "node",
      "id": 11117236925,
      "lat": 12.8844763,
      "lon": 77.643342,
      "tags": {
        "amenity": "restaurant",
        "name": "Macaw by Stories"
      }
    },
    {
      "type": "node",
      "id": 11927462530,
      "lat": 12.8796141,
      "lon": 77.6463727,
      "tags": {
        "amenity": "parking_entrance",
        "parking": "underground"
      }
    },
    {
      "type": "node",
      "id": 11927462531,
      "lat": 12.8796165,
      "lon": 77.6468782,
      "tags": {
        "amenity": "parking_entrance",
        "parking": "underground"
      }
    },
    {
      "type": "node",
      "id": 12144434656,
      "lat": 12.8755223,
      "lon": 77.6490584,
      "tags": {
        "amenity": "atm",
        "brand": "Kotak Mahindra Bank",
        "brand:wikidata": "Q2040404",
        "check_date": "2024-08-29",
        "opening_hours": "24/7",
        "operator": "Kotak Mahindra Bank",
        "operator:wikidata": "Q2040404",
        "source": "survey"
      }
    },
    {
      "type": "node",
      "id": 12230072796,
      "lat": 12.8806782,
      "lon": 77.6525736,
      "tags": {
        "addr:city": "Bengaluru",
        "addr:district": "Singasandra",
        "addr:postcode": "560068",
        "addr:street": "AECS Layout Main Road",
        "amenity": "cafe",
        "cuisine": "tea;indian",
        "internet_access": "no",
        "name": "Tealogy",
        "opening_hours": "Mo-Su 10:00-22:30",
        "payment:cash": "yes",
        "payment:contactless": "yes",
        "payment:google_pay": "yes",
        "payment:upi": "yes",
        "payment:upi_qr": "yes",
        "takeaway": "yes",
        "website": "https://tealogy.in/"
      }
    },
    {
      "type": "node",
      "id": 12230123289,
      "lat": 12.8791967,
      "lon": 77.6534888,
      "tags": {
        "amenity": "cafe",
        "cuisine": "coffee_shop;burger;sandwich;ice_cream;ramen;noodle;pasta;tea",
        "diet:vegetarian": "yes",
        "internet_access": "no",
        "name": "Beverich Hotspot",
        "opening_hours": "Mo-Su 10:00-22:00",
        "outdoor_seating": "no"
      }
    },
    {
      "type": "node",
      "id": 12270754753,
      "lat": 12.8800977,
      "lon": 77.6530592,
      "tags": {
        "amenity": "clinic",
        "check_date": "2024-10-20",
        "healthcare": "clinic"
      }
    },
    {
      "type": "node",
      "id": 12270754754,
      "lat": 12.8827544,
      "lon": 77.6503642,
      "tags": {
        "amenity": "pharmacy",
        "brand": "Apollo Pharmacy",
        "brand:wikidata": "Q62562612",
        "check_date": "2024-10-20",
        "healthcare": "pharmacy",
        "name": "Apollo Pharmacy"
      }
    },
    {
      "type": "node",
      "id": 12270754755,
      "lat": 12.8841477,
      "lon": 77.6492549,
      "tags": {
        "amenity": "hospital",
        "check_date": "2024-10-20",
        "healthcare": "hospital"
      }
    },
    {
      "type": "node",
      "id": 12522293984,
      "lat": 12.8922171,
      "lon": 77.6384192,
      "tags": {
        "addr:city": "Bengaluru",
        "addr:district": "Bengaluru",
        "addr:housenumber": "46/2",
        "addr:postcode": "- 560068",
        "addr:street": "Mathrushree Mansion, Block 1 , Shop No 2, Garvebhavipalya",
        "amenity": "bureau_de_change",
        "contact:facebook": "https://www.facebook.com/saviforex",
        "currency:CAD": "yes",
        "currency:EUR": "yes",
        "currency:GBP": "yes",
        "currency:INR": "yes",
        "currency:JPY": "yes",
        "currency:MYR": "yes",
        "currency:USD": "yes",
        "description": "Savi Forex is your trusted partner for currency exchange in Bangalore, offering competitive rates, RBI-compliant secure transactions, and doorstep delivery. With a wide range of currencies and customized solutions for students, tourists, and business.",
        "email": "contact@saviforex.com",
        "image": "https://saviforex.com/wp-content/uploads/2024/09/cropped-Main-Logo.webp",
        "level": "1",
        "mobile": "+91-95355 00003",
        "name": "Savi Forex and Tours Private Limited",
        "opening_hours": "Mo-Sa 10:00-19:00",
        "operator": "RBI",
        "payment:cash": "yes",
        "payment:credit_cards": "yes",
        "payment:debit_cards": "yes",
        "payment:google_pay": "yes",
        "payment:mastercard": "yes",
        "payment:notes": "yes",
        "payment:visa": "yes",
        "start_date": "2013-06-01",
        "website": "https://saviforex.com/"
      }
    },
    {
      "type": "node",
      "id": 12547020720,
      "lat": 12.8791766,
      "lon": 77.646483,
      "tags": {
        "addr:floor": "G",
        "air_conditioning": "yes",
        "amenity": "restaurant",
        "check_date": "2025-05-31",
        "cuisine": "indian",
        "diet:halal": "yes",
        "level": "0",
        "name": "Meghana Foods",
        "name:en": "Meghana Foods",
        "payment:cash": "yes",
        "payment:mastercard": "yes",
        "payment:visa": "yes",
        "source": "survey"
      }
    },
    {
      "type": "node",
      "id": 12876472292,
      "lat": 12.8770005,
      "lon": 77.6478369,
      "tags": {
        "amenity": "fuel",
        "brand": "Hindustan Petroleum",
        "brand:wikidata": "Q1619375",
        "check_date": "2025-08-18",
        "check_date:compressed_air": "2025-08-18",
        "compressed_air": "yes",
        "name": "HP",
        "official_name": "Hindustan Petroleum",
        "self_service": "no"
      }
    },
    {
      "type": "node",
      "id": 12977407786,
      "lat": 12.8807559,
      "lon": 77.6455534,
      "tags": {
        "check_date": "2025-07-04",
        "name": "Standard Furniture",
        "shop": "furniture"
      }
    },
    {
      "type": "node",
      "id": 12977407787,
      "lat": 12.8749227,
      "lon": 77.6496702,
      "tags": {
        "check_date": "2025-07-04",
        "second_hand": "only",
        "shop": "car"
      }
    },
    {
      "type": "way",
      "id": 1074881566,
      "center": {
        "lat": 12.8980441,
        "lon": 77.6348703
      },
      "tags": {
        "amenity": "marketplace"
      }
    },
    {
      "type": "way",
      "id": 1096873560,
      "center": {
        "lat": 12.9004172,
        "lon": 77.6335589
      },
      "tags": {
        "amenity": "fuel",
        "brand": "Shell",
        "brand:wikidata": "Q110716465",
        "compressed_air": "yes",
        "name": "Shell",
        "name:kn": "ಶೆಲ್"
      }
    },
    {
      "type": "way",
      "id": 1255138228,
      "center": {
        "lat": 12.8979142,
        "lon": 77.6384508
      },
      "tags": {
        "access": "customers",
        "amenity": "parking",
        "parking": "surface"
      }
    },
    {
      "type": "way",
      "id": 1255138231,
      "center": {
        "lat": 12.8979233,
        "lon": 77.6382909
      },
      "tags": {
        "addr:city": "Bengaluru",
        "addr:housenumber": "383/1-10",
        "addr:postcode": "560068",
        "addr:street": "5th Cross Road",
        "email": "hi@majesstinesports.com",
        "fee": "yes",
        "leisure": "sports_centre",
        "mobile": "+91 80 4376 0760;+91 63644 44441",
        "name": "Majesstine Sports Academy",
        "sport": "tennis;badminton;swimming;table_tennis;futsal;cricket",
        "website": "https://www.majesstinesports.com/#"
      }
    },
    {
      "type": "way",
      "id": 1285829291,
      "center": {
        "lat": 12.8835237,
        "lon": 77.6448106
      },
      "tags": {
        "amenity": "parking"
      }
    },
    {
      "type": "way",
      "id": 1285829294,
      "center": {
        "lat": 12.8811682,
        "lon": 77.6452788
      },
      "tags": {
        "amenity": "fuel",
        "compressed_air": "yes",
        "name": "Indian Oil"
      }
    },
    {
      "type": "way",
      "id": 1285829300,
      "center": {
        "lat": 12.8789701,
        "lon": 77.6467083
      },
      "tags": {
        "amenity": "parking",
        "parking": "surface"
      }
    },
    {
      "type": "way",
      "id": 1297657108,
      "center": {
        "lat": 12.8848271,
        "lon": 77.6427135
      },
      "tags": {
        "access": "yes",
        "amenity": "parking",
        "parking": "layby"
      }
    },
    {
      "type": "way",
      "id": 1419979800,
      "center": {
        "lat": 12.8801318,
        "lon": 77.6464004
      },
      "tags": {
        "landuse": "retail",
        "name": "More",
        "name:kn": "ಮೋರ್",
        "shop": "supermarket"
      }
    },
    {
      "type": "way",
      "id": 1420149050,
      "center": {
        "lat": 12.8754042,
        "lon": 77.6533074
      },
      "tags": {
        "leisure": "park"
      }
    },
    {
      "type": "way",
      "id": 1420149136,
      "center": {
        "lat": 12.8756228,
        "lon": 77.6517045
      },
      "tags": {
        "amenity": "school"
      }
    },
    {
      "type": "way",
      "id": 1420149566,
      "center": {
        "lat": 12.8776611,
        "lon": 77.6475551
      },
      "tags": {
        "addr:place": "Singasandra",
        "amenity": "school",
        "check_date": "2025-03-11",
        "isced:level": "2",
        "name": "GHPS Singasandra",
        "name:kn": "ಸರ್ಕಾರಿ ಹಿರಿಯ ಪ್ರಾಥಮಿಕ ಶಾಲೆ ಸಿಂಗಸಂದ್ರ",
        "operator": "Department of Education",
        "school": "primary"
      }
    },
    {
      "type": "way",
      "id": 1420991668,
      "center": {
        "lat": 12.8958924,
        "lon": 77.6416837
      },
      "tags": {
        "addr:place": "Bandepalya",
        "amenity": "school",
        "isced:level": "2",
        "name": "GHPS Bandepalya",
        "name:kn": "ಸರ್ಕಾರಿ ಹಿರಿಯ ಪ್ರಾಥಮಿಕ ಶಾಲೆ ಬಂಡೆಪಾಳ್ಯ",
        "operator": "Department of Education",
        "school": "primary"
      }
    },
    {
      "type": "way",
      "id": 1434904000,
      "center": {
        "lat": 12.8787092,
        "lon": 77.6471417
      },
      "tags": {
        "access": "private",
        "leisure": "park"
      }
    },
    {
      "type": "way",
      "id": 1434904002,
      "center": {
        "lat": 12.8786359,
        "lon": 77.647399
      },
      "tags": {
        "access": "private",
        "leisure": "pitch",
        "sport": "tennis"
      }
    },
    {
      "type": "way",
      "id": 1434904003,
      "center": {
        "lat": 12.8785769,
        "lon": 77.647588
      },
      "tags": {
        "access": "private",
        "leisure": "playground"
      }
    },
    {
      "type": "way",
      "id": 1434904005,
      "center": {
        "lat": 12.8791856,
        "lon": 77.6477918
      },
      "tags": {
        "access": "private",
        "leisure": "swimming_pool"
      }
    }
  ]
}