{
  "area_name": "Bandi Reddy Circle Ward",
  "osm_id": 19883480,
  "osm_type": "relation",
  "place_type": "administrative",
  "amenity_count": 4,
  "amenities": [
    {
      "type": "node",
      "id": 2249047993,
      "lat": 12.9916432,
      "lon": 77.5578265,
      "tags": {
        "amenity": "fuel",
        "brand": "Hindustan Petroleum",
        "brand:wikidata": "Q1619375",
        "brand:wikipedia": "en:Hindustan Petroleum",
        "compressed_air": "yes",
        "name": "HP",
        "name:kn": "ಹಿಂದುಸ್ತಾನ್ ಪೆಟ್ರೋಲಿಯಂ",
        "official_name": "Hindustan Petroleum"
      }
    },
    {
      "type": "node",
      "id": 4446742748,
      "lat": 12.9906244,
      "lon": 77.5633161,
      "tags": {
        "addr:city": "bangalore",
        "addr:housenumber": "529",
        "addr:postcode": "560010",
        "addr:street": "10th Main, 2nd Block, Rajajinagar",
        "amenity": "pharmacy",
        "name": "Prasad Medicals",
        "phone": "+91 80507 82573"
      }
    },
    {
      "type": "node",
      "id": 5402307934,
      "lat": 12.9924016,
      "lon": 77.5571593,
      "tags": {
        "shop": "motorcycle"
      }
    },
    {
      "type": "node",
      "id": 8187986368,
      "lat": 12.9918121,
      "lon": 77.5626808,
      "tags": {
        "addr:full": "81, Ganesh Clinic, 5th Cross 7th Main, Lakshmi Narayana Pur, Lakshmi Narayana Pur, Bashyam Nagar, Lakshminarayanapuram, Rajajinagar, Bengaluru, Karnataka",
        "addr:state": "Karnataka",
        "amenity": "clinic",
        "healthcare": "clinic",
        "name": "Ganesha Clinic"
      }
    }
  ]
}