{
  "area_name": "Bank Avenue Colony",
  "osm_id": 595304404,
  "osm_type": "node",
  "place_type": "neighbourhood",
  "amenity_count": 160,
  "amenities": [
    {
      "type": "node",
      "id": 443616778,
      "lat": 13.0248848,
      "lon": 77.6458889,
      "tags": {
        "amenity": "place_of_worship",
        "name": "Peniel Presbyterian Church",
        "religion": "christian",
        "wheelchair": "limited"
      }
    },
    {
      "type": "node",
      "id": 595305444,
      "lat": 13.0255258,
      "lon": 77.6524721,
      "tags": {
        "amenity": "place_of_worship",
        "name": "Gethseman Sungji Church",
        "religion": "christian"
      }
    },
    {
      "type": "node",
      "id": 595305844,
      "lat": 13.0257078,
      "lon": 77.6517029,
      "tags": {
        "amenity": "pharmacy",
        "name": "Dava Sagar"
      }
    },
    {
      "type": "node",
      "id": 595305848,
      "lat": 13.0230704,
      "lon": 77.6508206,
      "tags": {
        "addr:street": "Horamavu Agara Main Road",
        "amenity": "pharmacy",
        "brand": "Apollo Pharmacy",
        "brand:wikidata": "Q62562612",
        "healthcare": "pharmacy",
        "name": "Apollo Pharmacy",
        "name:kn": "ಅಪೊಲೋ ಫಾರ್ಮಸಿ"
      }
    },
    {
      "type": "node",
      "id": 595305917,
      "lat": 13.0224257,
      "lon": 77.6508337,
      "tags": {
        "addr:street": "Horamavu Agara Main Road",
        "brand": "More",
        "brand:wikidata": "Q6910891",
        "name": "More",
        "shop": "supermarket"
      }
    },
    {
      "type": "node",
      "id": 595308644,
      "lat": 13.0218507,
      "lon": 77.6501901,
      "tags": {
        "addr:street": "Outer Ring Road",
        "amenity": "bank",
        "atm": "yes",
        "brand": "Karnataka Bank",
        "brand:wikidata": "Q2042632",
        "name": "Karnataka Bank",
        "name:kn": "ಕರ್ನಾಟಕ ಬ್ಯಾಂಕ್"
      }
    },
    {
      "type": "node",
      "id": 833729924,
      "lat": 13.0223265,
      "lon": 77.6505234,
      "tags": {
        "amenity": "conference_centre",
        "name": "VVCH Conference Hall"
      }
    },
    {
      "type": "node",
      "id": 905784975,
      "lat": 13.0228247,
      "lon": 77.6477855,
      "tags": {
        "amenity": "restaurant",
        "name": "Little Imperial",
        "name:kn": "ಲಿಟಲ್ ಇಂಪಿರಿಯಲ್"
      }
    },
    {
      "type": "node",
      "id": 1279116236,
      "lat": 13.022202,
      "lon": 77.6507704,
      "tags": {
        "addr:street": "Horamavu Agara Main Road",
        "name": "City Pearl",
        "shop": "supermarket"
      }
    },
    {
      "type": "node",
      "id": 1280318946,
      "lat": 13.0228757,
      "lon": 77.6509402,
      "tags": {
        "addr:street": "Horamavu Agara Main Road",
        "name": "7 Days",
        "shop": "supermarket"
      }
    },
    {
      "type": "node",
      "id": 1283697988,
      "lat": 13.0226434,
      "lon": 77.6481609,
      "tags": {
        "amenity": "pharmacy",
        "dispensing": "yes",
        "name": "Trust Pharma"
      }
    },
    {
      "type": "node",
      "id": 1533923521,
      "lat": 13.0201633,
      "lon": 77.6565925,
      "tags": {
        "addr:postcode": "560043",
        "addr:street": "Horamavu Main Road",
        "amenity": "bank",
        "atm": "yes",
        "brand": "State Bank of India",
        "brand:wikidata": "Q1340361",
        "brand:wikipedia": "en:State Bank of India",
        "name": "State Bank of India",
        "name:kn": "ಭಾರತೀಯ ಸ್ಟೇಟ್ ಬ್ಯಾಂಕ್",
        "short_name": "SBI"
      }
    },
    {
      "type": "node",
      "id": 1670718780,
      "lat": 13.0220854,
      "lon": 77.6505416,
      "tags": {
        "amenity": "atm",
        "operator": "Axis Bank ATM"
      }
    },
    {
      "type": "node",
      "id": 1722802205,
      "lat": 13.0307899,
      "lon": 77.653594,
      "tags": {
        "amenity": "hospital",
        "emergency": "no",
        "name": "Karunya Homoeopathy Centre"
      }
    },
    {
      "type": "node",
      "id": 1725094649,
      "lat": 13.0187152,
      "lon": 77.6555768,
      "tags": {
        "amenity": "restaurant",
        "cuisine": "indian",
        "name": "Bhagini",
        "name:kn": "ಭಾಗಿನಿ",
        "opening_hours": "Mo-Fr 08:30-20:00"
      }
    },
    {
      "type": "node",
      "id": 1725094663,
      "lat": 13.0249273,
      "lon": 77.6592607,
      "tags": {
        "brand": "Nilgiri's",
        "brand:wikidata": "Q17079567",
        "name": "Nilgiri's",
        "name:kn": "ನೀಲ್ಗಿರೀಸ್",
        "opening_hours": "Mo-Su 08:30-20:00",
        "shop": "supermarket"
      }
    },
    {
      "type": "node",
      "id": 1742633026,
      "lat": 13.0148407,
      "lon": 77.6495896,
      "tags": {
        "amenity": "bank",
        "atm": "yes",
        "brand": "Andhra Bank",
        "brand:wikidata": "Q2003476",
        "brand:wikipedia": "en:Andhra Bank",
        "name": "Andhra Bank",
        "name:en": "Andhra Bank",
        "name:kn": "ಆಂಧ್ರ ಬ್ಯಾಂಕ್",
        "website": "https://www.andhrabank.in"
      }
    },
    {
      "type": "node",
      "id": 1742643868,
      "lat": 13.018092,
      "lon": 77.6474963,
      "tags": {
        "amenity": "cafe",
        "brand": "Cafe Coffee Day",
        "brand:wikidata": "Q5017235",
        "cuisine": "coffee_shop",
        "name": "Cafe Coffee Day",
        "name:kn": "ಕಫೆ ಕಾಫಿ ಡೇ",
        "takeaway": "yes"
      }
    },
    {
      "type": "node",
      "id": 1742644867,
      "lat": 13.0183141,
      "lon": 77.647035,
      "tags": {
        "amenity": "atm",
        "check_date": "2024-08-17",
        "operator": "IOB"
      }
    },
    {
      "type": "node",
      "id": 1742647037,
      "lat": 13.0183846,
      "lon": 77.647491,
      "tags": {
        "name": "Home Needs",
        "shop": "convenience"
      }
    },
    {
      "type": "node",
      "id": 1742657374,
      "lat": 13.0180867,
      "lon": 77.6459406,
      "tags": {
        "amenity": "post_office",
        "name": "Post Office",
        "name:kn": "ಅಂಚೆ ಕಛೇರಿ"
      }
    },
    {
      "type": "node",
      "id": 2475357989,
      "lat": 13.0237703,
      "lon": 77.6457711,
      "tags": {
        "addr:city": "Babusabpalya, Hennur",
        "addr:street": "Outer Ring Road",
        "amenity": "police",
        "check_date": "2024-07-05",
        "name": "Hennur Police Station",
        "name:kn": "ಹೆಣ್ಣೂರು ಆರಕ್ಷಕ ಠಾಣೆ"
      }
    },
    {
      "type": "node",
      "id": 2624180875,
      "lat": 13.0219084,
      "lon": 77.6577437,
      "tags": {
        "amenity": "atm",
        "brand": "HDFC Bank",
        "brand:wikidata": "Q631047",
        "name": "HDFC Bank",
        "operator": "HDFC Bank",
        "operator:wikidata": "Q631047",
        "short_name": "HDFC"
      }
    },
    {
      "type": "node",
      "id": 2624184578,
      "lat": 13.0218163,
      "lon": 77.657739,
      "tags": {
        "amenity": "cafe",
        "name": "Sweet Chariot Cafe"
      }
    },
    {
      "type": "node",
      "id": 2624203093,
      "lat": 13.0185804,
      "lon": 77.6534032,
      "tags": {
        "amenity": "cafe",
        "name": "Daily Bread"
      }
    },
    {
      "type": "node",
      "id": 2624209440,
      "lat": 13.0189051,
      "lon": 77.6567845,
      "tags": {
        "amenity": "cafe",
        "name": "Cafe Coffee Day",
        "name:kn": "ಕಫೆ ಕಾಫಿ ಡೇ"
      }
    },
    {
      "type": "node",
      "id": 2624211636,
      "lat": 13.0219675,
      "lon": 77.6549932,
      "tags": {
        "amenity": "place_of_worship",
        "name": "Ganesha Temple",
        "name:kn": "ಗಣೇಶ ದೇವಸ್ಥಾನ",
        "religion": "hindu"
      }
    },
    {
      "type": "node",
      "id": 2624213813,
      "lat": 13.0214757,
      "lon": 77.6575717,
      "tags": {
        "name": "HomeBuzz",
        "shop": "supermarket"
      }
    },
    {
      "type": "node",
      "id": 2625677571,
      "lat": 13.0219905,
      "lon": 77.6577775,
      "tags": {
        "amenity": "pharmacy",
        "brand": "MedPlus",
        "brand:wikidata": "Q65684234",
        "healthcare": "pharmacy",
        "name": "MedPlus",
        "name:kn": "ಮೆಡ್‍ಪ್ಲಸ್"
      }
    },
    {
      "type": "node",
      "id": 2625715089,
      "lat": 13.0198168,
      "lon": 77.6562684,
      "tags": {
        "amenity": "pharmacy",
        "name": "Maruthi Medicals"
      }
    },
    {
      "type": "node",
      "id": 2625715090,
      "lat": 13.0191488,
      "lon": 77.6562873,
      "tags": {
        "name": "Bhagath Motors - Hero",
        "shop": "motorcycle"
      }
    },
    {
      "type": "node",
      "id": 2625722535,
      "lat": 13.0217627,
      "lon": 77.6577043,
      "tags": {
        "amenity": "restaurant",
        "cuisine": "chinese",
        "name": "Chung Wak"
      }
    },
    {
      "type": "node",
      "id": 2663992465,
      "lat": 13.0179673,
      "lon": 77.6538152,
      "tags": {
        "amenity": "atm",
        "brand": "HDFC Bank",
        "brand:wikidata": "Q631047",
        "name": "HDFC Bank",
        "name:kn": "ಎಚ್ ಡಿ ಎಫ್ ಸಿ",
        "operator": "HDFC Bank",
        "operator:wikidata": "Q631047",
        "short_name": "HDFC"
      }
    },
    {
      "type": "node",
      "id": 4189843307,
      "lat": 13.0206063,
      "lon": 77.6445361,
      "tags": {
        "addr:city": "Bangalore",
        "addr:postcode": "560043",
        "addr:street": "4th B cross, 7th C Main",
        "amenity": "hospital",
        "emergency": "no",
        "name": "Rajbal Skin Clinic",
        "operator": "Skin Specialist"
      }
    },
    {
      "type": "node",
      "id": 4445955282,
      "lat": 13.0203944,
      "lon": 77.6512682,
      "tags": {
        "addr:city": "BANGALORE",
        "addr:housenumber": "914, 5th A Cross Road",
        "addr:postcode": "560043",
        "addr:street": "Outer Ring Road",
        "amenity": "hospital",
        "emergency": "yes",
        "name": "Procare Hospital",
        "phone": "080 4162 0620",
        "website": "080 4162 0620"
      }
    },
    {
      "type": "node",
      "id": 4446876066,
      "lat": 13.0204424,
      "lon": 77.6440607,
      "tags": {
        "addr:city": "Bangalore",
        "addr:housenumber": "714",
        "addr:postcode": "560043",
        "addr:street": "4th B Cross, 7th A Main, 1st Block, HRBR Layout, Kalyan Nagar",
        "amenity": "hospital",
        "name": "Herbocare Hospital Pvt",
        "phone": "+9174064 30003",
        "website": "herbocare.info"
      }
    },
    {
      "type": "node",
      "id": 4446949042,
      "lat": 13.0180644,
      "lon": 77.6548189,
      "tags": {
        "addr:city": "bangalore",
        "addr:housenumber": "4C-1008",
        "addr:postcode": "560043",
        "addr:street": "First Floor, Tavarekere Main Rd, BTM Layout",
        "amenity": "restaurant",
        "cuisine": "regional",
        "delivery": "yes",
        "name": "Yogis Donne Biryani",
        "opening_hours": "07:00-22:00",
        "smoking": "no",
        "takeaway": "yes"
      }
    },
    {
      "type": "node",
      "id": 4446997759,
      "lat": 13.0230548,
      "lon": 77.6472679,
      "tags": {
        "addr:city": "Bangalore",
        "addr:housenumber": "917",
        "addr:postcode": "560043",
        "addr:street": "9th Main Rd, Kalyan Nagar, Babusabpalya, Hennur",
        "amenity": "restaurant",
        "check_date": "2025-06-21",
        "cuisine": "regional",
        "delivery": "yes",
        "name": "Sri Krishna Bhawan",
        "opening_hours": "06:00-23:00",
        "phone": "098801 98969",
        "smoking": "no",
        "takeaway": "yes"
      }
    },
    {
      "type": "node",
      "id": 4447226448,
      "lat": 13.0222667,
      "lon": 77.6470832,
      "tags": {
        "addr:city": "Bangalore",
        "addr:housenumber": "5c-829",
        "addr:postcode": "560043",
        "addr:street": "5th Cross, 9th Main, 1st Block HRBR Layout, Kalyan Nagar",
        "amenity": "restaurant",
        "cuisine": "regional",
        "delivery": "yes",
        "name": "OvenTreats - Patisserie.Bistro",
        "opening_hours": "09:00-21:00",
        "phone": "090350 03460",
        "smoking": "no",
        "takeaway": "yes"
      }
    },
    {
      "type": "node",
      "id": 4488027411,
      "lat": 13.015208,
      "lon": 77.6561956,
      "tags": {
        "addr:city": "Bangalore",
        "addr:housenumber": "21",
        "addr:postcode": "560043",
        "addr:street": "Banaswadi Main Road",
        "name": "Samarth Rice Traders",
        "phone": "(91)-80-33293546",
        "shop": "supermarket"
      }
    },
    {
      "type": "node",
      "id": 4489699996,
      "lat": 13.0245541,
      "lon": 77.6559134,
      "tags": {
        "addr:city": "Bangalore",
        "addr:housenumber": "173",
        "addr:postcode": "560076",
        "addr:street": "Hormavu Main Road",
        "name": "Seven Days Supermarket",
        "phone": "(91)-9743257556",
        "shop": "supermarket"
      }
    },
    {
      "type": "node",
      "id": 4489719491,
      "lat": 13.0184107,
      "lon": 77.6545173,
      "tags": {
        "amenity": "atm",
        "brand": "Axis Bank",
        "brand:wikidata": "Q2003549",
        "operator": "Axis Bank",
        "operator:wikidata": "Q2003549"
      }
    },
    {
      "type": "node",
      "id": 4489738690,
      "lat": 13.0184011,
      "lon": 77.6544876,
      "tags": {
        "amenity": "bank",
        "brand": "Axis Bank",
        "brand:wikidata": "Q2003549",
        "brand:wikipedia": "en:Axis Bank",
        "name": "Axis Bank",
        "name:en": "Axis Bank",
        "name:kn": "ಅಕ್ಸಿಸ್ ಬ್ಯಾಂಕ್",
        "operator": "Axis",
        "website": "https://www.axisbank.com"
      }
    },
    {
      "type": "node",
      "id": 4489775073,
      "lat": 13.0197253,
      "lon": 77.6474507,
      "tags": {
        "addr:city": "bangalore",
        "addr:housenumber": "707",
        "addr:postcode": "560043",
        "addr:street": "3rd Cross, 1st Block, Hrbr Layout, Kalyan Nagar",
        "name": "Elite Unisex Spa And Saloon",
        "opening_hours": "09:00-21:30",
        "phone": "80-65655909",
        "shop": "beauty"
      }
    },
    {
      "type": "node",
      "id": 4489848616,
      "lat": 13.0202407,
      "lon": 77.6551359,
      "tags": {
        "addr:city": "bangalore",
        "addr:housenumber": "34",
        "addr:postcode": "560043",
        "addr:street": "Outer Ring Road",
        "name": "Qi Spa and Salon",
        "opening_hours": "09:00-21:30",
        "phone": "8296137528",
        "shop": "beauty"
      }
    },
    {
      "type": "node",
      "id": 4489857253,
      "lat": 13.0198978,
      "lon": 77.6474795,
      "tags": {
        "addr:city": "bangalore",
        "addr:housenumber": "9",
        "addr:postcode": "560043",
        "addr:street": "9th Mn Rd, 4th Crs, 1st Blk, Hrbr Lyt, Kalyan Nagar",
        "name": "Magic Mirror Unisex Spa And Salon",
        "opening_hours": "09:00-21:30",
        "phone": "9916690550",
        "shop": "beauty"
      }
    },
    {
      "type": "node",
      "id": 4550334590,
      "lat": 13.0183685,
      "lon": 77.6533179,
      "tags": {
        "name": "ಕೀರ್ತಿ ಫುಡ್ ಮಾರ್ಟ್",
        "name:en": "Keerthi foodmart",
        "name:kn": "ಕೀರ್ತಿ ಫುಡ್ ಮಾರ್ಟ್",
        "shop": "department_store"
      }
    },
    {
      "type": "node",
      "id": 4550334793,
      "lat": 13.0189973,
      "lon": 77.654444,
      "tags": {
        "shop": "car_repair"
      }
    },
    {
      "type": "node",
      "id": 4550395394,
      "lat": 13.0184261,
      "lon": 77.653514,
      "tags": {
        "amenity": "atm",
        "operator": "Oriental Bank of Commerce"
      }
    },
    {
      "type": "node",
      "id": 4550422492,
      "lat": 13.0190302,
      "lon": 77.6545564,
      "tags": {
        "amenity": "cafe",
        "name": "Chai",
        "name:en": "Chai"
      }
    },
    {
      "type": "node",
      "id": 4550426290,
      "lat": 13.0184293,
      "lon": 77.6535496,
      "tags": {
        "amenity": "bank",
        "brand": "Oriental Bank of Commerce",
        "brand:wikidata": "Q367008",
        "brand:wikipedia": "en:Oriental Bank of Commerce",
        "name": "Oriental Bank of Commerce",
        "name:en": "Oriental Bank of Commerce",
        "short_name": "OBC",
        "website": "https://www.obcindia.co.in"
      }
    },
    {
      "type": "node",
      "id": 4551591893,
      "lat": 13.018127,
      "lon": 77.6541641,
      "tags": {
        "name": "Wurfe Kitchen",
        "name:en": "Wurfe Kitchen",
        "shop": "furniture"
      }
    },
    {
      "type": "node",
      "id": 4558072689,
      "lat": 13.0182115,
      "lon": 77.6544644,
      "tags": {
        "amenity": "fast_food",
        "name": "Kolkata Roll on Dial",
        "name:en": "Kolkata Roll on Dial",
        "phone": "080-413002225"
      }
    },
    {
      "type": "node",
      "id": 4558318692,
      "lat": 13.0182197,
      "lon": 77.6545197,
      "tags": {
        "amenity": "restaurant",
        "name": "Ambur Hot Dum Biriyaani",
        "name:en": "Ambur Hot Dum Biriyaani",
        "name:kn": "ಅಂಬುರ್ ಬಿರಿಯಾನಿ"
      }
    },
    {
      "type": "node",
      "id": 4844863331,
      "lat": 13.0185287,
      "lon": 77.6549166,
      "tags": {
        "name": "India carZ",
        "name:en": "India carZ",
        "shop": "car"
      }
    },
    {
      "type": "node",
      "id": 4844863332,
      "lat": 13.0205159,
      "lon": 77.6530997,
      "tags": {
        "name": "Havells",
        "name:en": "Havells",
        "shop": "electronics"
      }
    },
    {
      "type": "node",
      "id": 4844863333,
      "lat": 13.0257145,
      "lon": 77.6518053,
      "tags": {
        "name": "Meatz trading solutions",
        "name:en": "Meatz trading solutions",
        "shop": "butcher"
      }
    },
    {
      "type": "node",
      "id": 4844863334,
      "lat": 13.0259167,
      "lon": 77.652283,
      "tags": {
        "name": "Supreme travel solutions",
        "name:en": "Supreme travel solutions",
        "shop": "travel_agency"
      }
    },
    {
      "type": "node",
      "id": 4844863335,
      "lat": 13.0311093,
      "lon": 77.6534247,
      "tags": {
        "name": "Fashion footwear",
        "name:en": "Fashion footwear",
        "shop": "shoes"
      }
    },
    {
      "type": "node",
      "id": 4844865028,
      "lat": 13.0208846,
      "lon": 77.6524026,
      "tags": {
        "name": "Exide",
        "name:en": "Exide",
        "shop": "car_parts"
      }
    },
    {
      "type": "node",
      "id": 4844865029,
      "lat": 13.0232219,
      "lon": 77.6508758,
      "tags": {
        "name": "Lenspick",
        "name:en": "Lenspick",
        "shop": "optician"
      }
    },
    {
      "type": "node",
      "id": 4844865030,
      "lat": 13.0246294,
      "lon": 77.6512209,
      "tags": {
        "name": "Karnataka home appliances",
        "name:en": "Karnataka home appliances",
        "shop": "electronics"
      }
    },
    {
      "type": "node",
      "id": 4844867421,
      "lat": 13.0286188,
      "lon": 77.6526542,
      "tags": {
        "amenity": "pharmacy",
        "name": "Maruthi Medical's",
        "name:en": "Maruthi Medical's"
      }
    },
    {
      "type": "node",
      "id": 4844867521,
      "lat": 13.0301725,
      "lon": 77.6530855,
      "tags": {
        "amenity": "fast_food",
        "name": "Ifun",
        "name:en": "Ifun"
      }
    },
    {
      "type": "node",
      "id": 5402224049,
      "lat": 13.0224439,
      "lon": 77.6466269,
      "tags": {
        "name": "PAI Furniture",
        "shop": "furniture"
      }
    },
    {
      "type": "node",
      "id": 6900454795,
      "lat": 13.0205461,
      "lon": 77.6584402,
      "tags": {
        "addr:city": "Bengaluru",
        "addr:country": "IN",
        "addr:hamlet": "Horamavu",
        "addr:housenumber": "108/2",
        "addr:postcode": "560043",
        "addr:street": "4th Main Road",
        "amenity": "coworking_space",
        "email": "make.do@the-workshop.in",
        "leisure": "hackerspace",
        "name": "Think Happy Everyday - Workshop",
        "phone": "+91-9930749611",
        "website": "https://the-workshop.in/"
      }
    },
    {
      "type": "node",
      "id": 6938949273,
      "lat": 13.0186045,
      "lon": 77.6479433,
      "tags": {
        "addr:district": "Bengaluru Urban",
        "addr:full": "No. 3Ac 902, 3Road A Cross, 1st Block,9Th A Main, Kalyannagar",
        "addr:postcode": "560043",
        "addr:state": "Karnataka",
        "amenity": "hospital",
        "name": "Lokhande S Hospital",
        "source": "OpenGovernmentData"
      }
    },
    {
      "type": "node",
      "id": 6939221867,
      "lat": 13.0195531,
      "lon": 77.6443814,
      "tags": {
        "addr:district": "Bengaluru Urban",
        "addr:full": "346, Hrbr 1st Kalyan Nagar 4Th Cross 7Th B Main H R B R Layout",
        "addr:postcode": "560043",
        "addr:state": "Karnataka",
        "amenity": "clinic",
        "name": "Amrik Nethralaya",
        "source": "OpenGovernmentData"
      }
    },
    {
      "type": "node",
      "id": 6944392375,
      "lat": 13.0205082,
      "lon": 77.6509675,
      "tags": {
        "addr:district": "Bengaluru Urban",
        "addr:full": "904, 1st Block, Hrbr Layout (Near Overhead Water Tank, Outer Ring Road) Bansawadi",
        "addr:postcode": "560043",
        "addr:state": "Karnataka",
        "amenity": "hospital",
        "name": "Banasawadi Hospital",
        "name:kn": "ಬಾನಸವಾಡಿ ಆಸ್ಪತ್ರೆ",
        "source": "OpenGovernmentData"
      }
    },
    {
      "type": "node",
      "id": 6945434031,
      "lat": 13.0147224,
      "lon": 77.6515616,
      "tags": {
        "addr:district": "Bengaluru Urban",
        "addr:full": "No.60, Near Banaswadi Bus Stop, Banaswadi Main Road",
        "addr:postcode": "560043",
        "addr:state": "Karnataka",
        "amenity": "hospital",
        "name": "Srinivasa Eye Hospital",
        "source": "OpenGovernmentData"
      }
    },
    {
      "type": "node",
      "id": 6947499707,
      "lat": 13.0178594,
      "lon": 77.6547577,
      "tags": {
        "addr:district": "Bengaluru Urban",
        "addr:full": "No.1013, 1st Block, 3 Road Cross, Hrbr Layout, Kalyan Nagar",
        "addr:postcode": "560043",
        "addr:state": "Karnataka",
        "amenity": "hospital",
        "name": "Dr.Zamindar Microsurgical Eye Centre",
        "operator:type": "private",
        "source": "OpenGovernmentData",
        "website": "https://drzamindarseyecentre.com/"
      }
    },
    {
      "type": "node",
      "id": 7572131821,
      "lat": 13.0258249,
      "lon": 77.6604922,
      "tags": {
        "addr:district": "Bengaluru Urban",
        "addr:full": "Kalkere Main Road, Horamavu, Bengaluru",
        "addr:postcode": "560113",
        "addr:state": "Karnataka",
        "amenity": "clinic",
        "name": "Arjun's Child Care Clinic",
        "source": "Local Knowledge"
      }
    },
    {
      "type": "node",
      "id": 7572131825,
      "lat": 13.0236149,
      "lon": 77.6586628,
      "tags": {
        "addr:district": "Bengaluru Urban",
        "addr:full": "Horamavu, Bengaluru",
        "addr:postcode": "560043",
        "addr:state": "Karnataka",
        "amenity": "clinic",
        "name": "Women's Speciality Polyclinic",
        "source": "Local Knowledge"
      }
    },
    {
      "type": "node",
      "id": 7572131828,
      "lat": 13.0209741,
      "lon": 77.6573009,
      "tags": {
        "addr:district": "Bengaluru Urban",
        "addr:full": "Horamavu Main Road, Kallumantapa, Horamavu, Bengaluru",
        "addr:postcode": "560043",
        "addr:state": "Karnataka",
        "amenity": "clinic",
        "name": "Maneet Poly Clinic",
        "source": "Local Knowledge"
      }
    },
    {
      "type": "node",
      "id": 7572131833,
      "lat": 13.0239995,
      "lon": 77.6585299,
      "tags": {
        "addr:district": "Bengaluru Urban",
        "addr:full": "Horamavu, Near Banaswadi, Bengaluru",
        "addr:postcode": "560043",
        "addr:state": "Karnataka",
        "amenity": "hospital",
        "name": "Stroke Treatment Paralysis",
        "source": "Local Knowledge"
      }
    },
    {
      "type": "node",
      "id": 7572131850,
      "lat": 13.024278,
      "lon": 77.6587297,
      "tags": {
        "addr:district": "Bengaluru Urban",
        "addr:full": "Ashirvad Colony, Horamavu, Bengaluru",
        "addr:postcode": "560043",
        "addr:state": "Karnataka",
        "amenity": "clinic",
        "name": "People's Clinic",
        "source": "Local Knowledge"
      }
    },
    {
      "type": "node",
      "id": 7572131854,
      "lat": 13.0236678,
      "lon": 77.6587012,
      "tags": {
        "addr:district": "Bengaluru Urban",
        "addr:full": "Amar Regency, Munireddy Layout, Horamavu, Bengaluru",
        "addr:postcode": "560043",
        "addr:state": "Karnataka",
        "amenity": "clinic",
        "name": "The Children's Clinic",
        "source": "Local Knowledge"
      }
    },
    {
      "type": "node",
      "id": 7572131869,
      "lat": 13.022726,
      "lon": 77.658252,
      "tags": {
        "addr:district": "Bengaluru Urban",
        "addr:full": "Ashirvad Colony, Horamavu, Bengaluru",
        "addr:postcode": "560043",
        "addr:state": "Karnataka",
        "amenity": "clinic",
        "name": "Motherhoodclinic",
        "source": "Local Knowledge"
      }
    },
    {
      "type": "node",
      "id": 7572131880,
      "lat": 13.0219021,
      "lon": 77.65971,
      "tags": {
        "addr:district": "Bengaluru Urban",
        "addr:full": "Nandanam Colony, Kallumantapa, Horamavu, Bengaluru",
        "addr:postcode": "560043",
        "addr:state": "Karnataka",
        "amenity": "clinic",
        "name": "Shubham Ayurvedic Clinic",
        "source": "Local Knowledge"
      }
    },
    {
      "type": "node",
      "id": 7572131893,
      "lat": 13.022742,
      "lon": 77.657851,
      "tags": {
        "addr:district": "Bengaluru Urban",
        "addr:full": "Horamavu Main Road, Horamavu, Bengaluru",
        "addr:postcode": "560043",
        "addr:state": "Karnataka",
        "amenity": "dentist",
        "name": "Jaya Dental Clinic",
        "source": "Local Knowledge"
      }
    },
    {
      "type": "node",
      "id": 7572131897,
      "lat": 13.0255719,
      "lon": 77.6599541,
      "tags": {
        "addr:district": "Bengaluru Urban",
        "addr:full": "Horamavu Banaswadi, Horamavu, Bengaluru",
        "addr:postcode": "560043",
        "addr:state": "Karnataka",
        "amenity": "clinic",
        "name": "Nava Chaithanya Clinic",
        "source": "Local Knowledge"
      }
    },
    {
      "type": "node",
      "id": 7572131899,
      "lat": 13.0234596,
      "lon": 77.6587343,
      "tags": {
        "addr:district": "Bengaluru Urban",
        "addr:full": "Horamavu, Bengaluru",
        "addr:postcode": "560043",
        "addr:state": "Karnataka",
        "amenity": "clinic",
        "name": "Lifespan Diabetic Clinic",
        "source": "Local Knowledge"
      }
    },
    {
      "type": "node",
      "id": 7577248186,
      "lat": 13.0193799,
      "lon": 77.6535352,
      "tags": {
        "addr:district": "Bengaluru Urban",
        "addr:full": "HRBR Layout, Banaswadi, Bengaluru",
        "addr:postcode": "560043",
        "addr:state": "Karnataka",
        "amenity": "hospital",
        "name": "Shishuka Children's Speciality Hospital",
        "source": "Local Knowledge"
      }
    },
    {
      "type": "node",
      "id": 7577248188,
      "lat": 13.0184835,
      "lon": 77.6543091,
      "tags": {
        "addr:district": "Bengaluru Urban",
        "addr:full": "HRBR Layout, Kalyan Nagar, Bengaluru",
        "addr:postcode": "560043",
        "addr:state": "Karnataka",
        "amenity": "dentist",
        "name": "Archak Dental",
        "source": "Local Knowledge"
      }
    },
    {
      "type": "node",
      "id": 7577248192,
      "lat": 13.0187276,
      "lon": 77.6531389,
      "tags": {
        "addr:district": "Bengaluru Urban",
        "addr:full": "HRBR Layout, Banaswadi, Bengaluru",
        "addr:postcode": "560043",
        "addr:state": "Karnataka",
        "amenity": "clinic",
        "name": "IMAX Clinic",
        "source": "Local Knowledge"
      }
    },
    {
      "type": "node",
      "id": 7577248194,
      "lat": 13.0148814,
      "lon": 77.6555197,
      "tags": {
        "addr:district": "Bengaluru Urban",
        "addr:full": "Ramamurthy Nagar Main Road, Banasawadi, Bengaluru",
        "addr:postcode": "560043",
        "addr:state": "Karnataka",
        "amenity": "clinic",
        "name": "Pranav Diabetes Centre",
        "source": "Local Knowledge"
      }
    },
    {
      "type": "node",
      "id": 7577248199,
      "lat": 13.0195123,
      "lon": 77.6475205,
      "tags": {
        "addr:district": "Bengaluru Urban",
        "addr:full": "Kalyan Nagar, Bengaluru",
        "addr:postcode": "560043",
        "addr:state": "Karnataka",
        "amenity": "clinic",
        "name": "Twinkle Kids Child Care Speciality Clinic",
        "source": "Local Knowledge"
      }
    },
    {
      "type": "node",
      "id": 7577248210,
      "lat": 13.017856,
      "lon": 77.646249,
      "tags": {
        "addr:district": "Bengaluru Urban",
        "addr:full": "HRBR Layout, Banaswadi, Bengaluru",
        "addr:postcode": "560043",
        "addr:state": "Karnataka",
        "amenity": "clinic",
        "name": "Vivekananda Health Global - Ayurveda, Naturopathy & Yoga",
        "source": "Local Knowledge"
      }
    },
    {
      "type": "node",
      "id": 7577248221,
      "lat": 13.0201491,
      "lon": 77.6516628,
      "tags": {
        "addr:district": "Bengaluru Urban",
        "addr:full": "HRBR Layout, Kalyan Nagar, Bengaluru",
        "addr:postcode": "560043",
        "addr:state": "Karnataka",
        "amenity": "hospital",
        "name": "Ovum Birthing Centre",
        "source": "Local Knowledge"
      }
    },
    {
      "type": "node",
      "id": 7577248231,
      "lat": 13.0151401,
      "lon": 77.6559684,
      "tags": {
        "addr:district": "Bengaluru Urban",
        "addr:full": "Annaiah Reddy Layout, Banaswadi, Bengaluru",
        "addr:postcode": "560043",
        "addr:state": "Karnataka",
        "amenity": "clinic",
        "name": "Premji Occupational Therapy & Rehabilitation Centre",
        "source": "Local Knowledge"
      }
    },
    {
      "type": "node",
      "id": 7577248245,
      "lat": 13.0204243,
      "lon": 77.6439492,
      "tags": {
        "addr:district": "Bengaluru Urban",
        "addr:full": "HRBR Layout, Kalyan Nagar, Bengaluru",
        "addr:postcode": "560043",
        "addr:state": "Karnataka",
        "amenity": "dentist",
        "name": "Allure Dental and Facial Aesthetics Clinic",
        "source": "Local Knowledge"
      }
    },
    {
      "type": "node",
      "id": 7577248266,
      "lat": 13.0188119,
      "lon": 77.647187,
      "tags": {
        "addr:district": "Bengaluru Urban",
        "addr:full": "HRBR Layout, Banaswadi, Bengaluru",
        "addr:postcode": "560043",
        "addr:state": "Karnataka",
        "amenity": "hospital",
        "check_date": "2024-08-17",
        "name": "Anjani Women's Day Care Hospital",
        "source": "Local Knowledge"
      }
    },
    {
      "type": "node",
      "id": 7577248279,
      "lat": 13.020084,
      "lon": 77.654053,
      "tags": {
        "addr:district": "Bengaluru Urban",
        "addr:full": "Nanjappa Garden, Horamavu, Bengaluru",
        "addr:postcode": "560043",
        "addr:state": "Karnataka",
        "amenity": "hospital",
        "name": "Cloudnine Hospital",
        "source": "Local Knowledge"
      }
    },
    {
      "type": "node",
      "id": 7577248280,
      "lat": 13.0151223,
      "lon": 77.6544807,
      "tags": {
        "addr:district": "Bengaluru Urban",
        "addr:full": "Annaiah Reddy Layout, Banasawadi, Bengaluru",
        "addr:postcode": "560043",
        "addr:state": "Karnataka",
        "amenity": "dentist",
        "name": "Dr. Anil's Dental Clinic",
        "source": "Local Knowledge"
      }
    },
    {
      "type": "node",
      "id": 10303904023,
      "lat": 13.0174217,
      "lon": 77.6588824,
      "tags": {
        "amenity": "place_of_worship",
        "check_date": "2023-01-04",
        "name": "Sri Veera Anjaneya Swami Temple",
        "religion": "hindu",
        "source": "survey"
      }
    },
    {
      "type": "node",
      "id": 10558850380,
      "lat": 13.0163701,
      "lon": 77.6473761,
      "tags": {
        "name": "K-Food Antenna Shop",
        "note": "Korean store",
        "shop": "supermarket"
      }
    },
    {
      "type": "node",
      "id": 10651832563,
      "lat": 13.0180125,
      "lon": 77.6525441,
      "tags": {
        "amenity": "restaurant",
        "name": "De Grand"
      }
    },
    {
      "type": "node",
      "id": 10651832568,
      "lat": 13.0178721,
      "lon": 77.6521625,
      "tags": {
        "amenity": "restaurant",
        "name": "Desi Masala"
      }
    },
    {
      "type": "node",
      "id": 10731175586,
      "lat": 13.0221327,
      "lon": 77.6472405,
      "tags": {
        "amenity": "restaurant",
        "name": "Megdooth Biryanis"
      }
    },
    {
      "type": "node",
      "id": 10731175591,
      "lat": 13.0219409,
      "lon": 77.6477666,
      "tags": {
        "amenity": "cafe",
        "name": "Nimma Local"
      }
    },
    {
      "type": "node",
      "id": 10731175592,
      "lat": 13.0225233,
      "lon": 77.6464809,
      "tags": {
        "name": "Pepperfry Studio",
        "shop": "furniture"
      }
    },
    {
      "type": "node",
      "id": 10731175593,
      "lat": 13.0228495,
      "lon": 77.6457323,
      "tags": {
        "amenity": "bank",
        "brand": "Indian Bank",
        "brand:wikidata": "Q2003789",
        "name": "Indian Bank",
        "name:kn": "ಇಂಡಿಯನ್ ಬ್ಯಾಂಕ್"
      }
    },
    {
      "type": "node",
      "id": 10731175602,
      "lat": 13.023138,
      "lon": 77.6449561,
      "tags": {
        "brand": "Kia",
        "brand:wikidata": "Q35349",
        "name": "Tapasee Kia",
        "shop": "car"
      }
    },
    {
      "type": "node",
      "id": 10731175603,
      "lat": 13.0234488,
      "lon": 77.6442434,
      "tags": {
        "amenity": "bar",
        "name": "House of Commons"
      }
    },
    {
      "type": "node",
      "id": 10770523198,
      "lat": 13.0227055,
      "lon": 77.6435679,
      "tags": {
        "amenity": "cafe",
        "delivery": "yes",
        "name": "Glen's Bakehouse",
        "takeaway": "yes"
      }
    },
    {
      "type": "node",
      "id": 11107573795,
      "lat": 13.0255127,
      "lon": 77.6515929,
      "tags": {
        "amenity": "taxi",
        "name": "Auto Stand",
        "name:kn": "ಆಟೋ ನಿಲ್ದಾಣ"
      }
    },
    {
      "type": "node",
      "id": 11345404436,
      "lat": 13.0303405,
      "lon": 77.6491473,
      "tags": {
        "amenity": "atm",
        "brand": "Axis Bank",
        "brand:wikidata": "Q2003549",
        "name": "Axis Bank",
        "name:kn": "ಆಕ್ಸಿಸ್ ಬ್ಯಾಂಕ್",
        "operator": "Axis Bank",
        "operator:wikidata": "Q2003549",
        "wheelchair": "limited"
      }
    },
    {
      "type": "node",
      "id": 11703427677,
      "lat": 13.0175521,
      "lon": 77.6551056,
      "tags": {
        "name": "Hi Style World",
        "payment:cash": "yes",
        "payment:cheque": "yes",
        "payment:contactless": "yes",
        "shop": "furniture"
      }
    },
    {
      "type": "node",
      "id": 11933111681,
      "lat": 13.023413,
      "lon": 77.6471477,
      "tags": {
        "name": "Pazhampori cafe",
        "phone": "+919845978209",
        "shop": "tea",
        "website": "http://pazhamporicafe.com"
      }
    },
    {
      "type": "node",
      "id": 11949965342,
      "lat": 13.0244107,
      "lon": 77.6495625,
      "tags": {
        "check_date": "2024-06-01",
        "description": "Tea shop along with shakes, sandwiches and some snacks.",
        "name": "Eggetarian",
        "name:en": "Eggetarian",
        "opening_hours": "Mo-Su,PH 08:00-22:00",
        "shop": "tea"
      }
    },
    {
      "type": "node",
      "id": 12046492132,
      "lat": 13.0228712,
      "lon": 77.6456831,
      "tags": {
        "amenity": "atm",
        "brand": "Indian Bank",
        "brand:wikidata": "Q2003789",
        "cash_in": "no",
        "check_date": "2024-07-10",
        "opening_hours": "24/7",
        "operator": "Indian Bank",
        "operator:wikidata": "Q2003789",
        "source": "survey"
      }
    },
    {
      "type": "node",
      "id": 12306807001,
      "lat": 13.0149167,
      "lon": 77.6568687,
      "tags": {
        "addr:postcode": "560043",
        "addr:street": "2 B Main Road",
        "name": "Imperial Dry Cleaners",
        "shop": "laundry"
      }
    },
    {
      "type": "node",
      "id": 12450551973,
      "lat": 13.0211537,
      "lon": 77.6519077,
      "tags": {
        "amenity": "cafe",
        "name": "Brewsom Coffee"
      }
    },
    {
      "type": "node",
      "id": 12459196455,
      "lat": 13.0282394,
      "lon": 77.6558532,
      "tags": {
        "amenity": "place_of_worship",
        "religion": "hindu"
      }
    },
    {
      "type": "node",
      "id": 12538079774,
      "lat": 13.0161235,
      "lon": 77.6474077,
      "tags": {
        "name": "Seela Korean Mart",
        "shop": "supermarket"
      }
    },
    {
      "type": "node",
      "id": 12542016150,
      "lat": 13.021882,
      "lon": 77.6580688,
      "tags": {
        "check_date": "2025-01-29",
        "contact:instagram": "https://www.instagram.com/lalithasbooknook",
        "name": "Lalitha's Book Nook",
        "shop": "books"
      }
    },
    {
      "type": "node",
      "id": 12672284473,
      "lat": 13.0145341,
      "lon": 77.649062,
      "tags": {
        "amenity": "cafe",
        "check_date": "2025-03-17",
        "name": "The Coffee Brewery"
      }
    },
    {
      "type": "node",
      "id": 12672284474,
      "lat": 13.0147128,
      "lon": 77.6492186,
      "tags": {
        "amenity": "cafe",
        "check_date": "2025-03-17",
        "name": "11:11 Reserve"
      }
    },
    {
      "type": "node",
      "id": 12672284475,
      "lat": 13.0146172,
      "lon": 77.6491594,
      "tags": {
        "amenity": "restaurant",
        "check_date": "2025-03-17",
        "name": "Baileys Cafe and Restaurant"
      }
    },
    {
      "type": "node",
      "id": 12809397084,
      "lat": 13.0190566,
      "lon": 77.6515321,
      "tags": {
        "addr:housenumber": "959",
        "addr:street": "3rd Cross Road",
        "addr:suburb": "Kalyan Nagar",
        "amenity": "restaurant",
        "contact:instagram": "theindianeateryblr",
        "name": "The Indian Eatery"
      }
    },
    {
      "type": "node",
      "id": 12941957158,
      "lat": 13.0235297,
      "lon": 77.6457606,
      "tags": {
        "amenity": "shelter",
        "shelter_type": "gazebo"
      }
    },
    {
      "type": "node",
      "id": 12952263222,
      "lat": 13.0193662,
      "lon": 77.6472433,
      "tags": {
        "name": "Seven Eleven Cakes",
        "shop": "pastry"
      }
    },
    {
      "type": "node",
      "id": 12952263223,
      "lat": 13.019736,
      "lon": 77.6475142,
      "tags": {
        "amenity": "fast_food"
      }
    },
    {
      "type": "node",
      "id": 12952263230,
      "lat": 13.022118,
      "lon": 77.648854,
      "tags": {
        "amenity": "shelter",
        "shelter_type": "gazebo"
      }
    },
    {
      "type": "node",
      "id": 13013182897,
      "lat": 13.0196646,
      "lon": 77.6550064,
      "tags": {
        "addr:floor": "G",
        "amenity": "restaurant",
        "check_date": "2025-07-20",
        "level": "0",
        "name": "Manyata"
      }
    },
    {
      "type": "node",
      "id": 13065064242,
      "lat": 13.0202419,
      "lon": 77.6516186,
      "tags": {
        "amenity": "hospital",
        "healthcare": "hospital",
        "name": "Motherhood"
      }
    },
    {
      "type": "way",
      "id": 51130921,
      "center": {
        "lat": 13.0273088,
        "lon": 77.6527331
      },
      "tags": {
        "amenity": "school"
      }
    },
    {
      "type": "way",
      "id": 160470311,
      "center": {
        "lat": 13.016985,
        "lon": 77.6590561
      },
      "tags": {
        "building": "yes",
        "name": "Smart Bazaar",
        "shop": "supermarket",
        "wheelchair": "yes"
      }
    },
    {
      "type": "way",
      "id": 207854064,
      "center": {
        "lat": 13.0288063,
        "lon": 77.6530754
      },
      "tags": {
        "addr:housename": "MARUTHI SCHOOL",
        "amenity": "school",
        "name": "Maruthi School",
        "name:kn": "ಮಾರುತಿ ಶಾಲೆ"
      }
    },
    {
      "type": "way",
      "id": 256940540,
      "center": {
        "lat": 13.0224158,
        "lon": 77.6580401
      },
      "tags": {
        "addr:district": "Bengaluru Urban",
        "addr:full": "No. 66, 9Th Main , Horamavu Post Horamavu Main Road Banaswadi",
        "addr:postcode": "560043",
        "addr:state": "Karnataka",
        "amenity": "hospital",
        "building": "yes",
        "emergency": "yes",
        "name": "Nmpc Hospital",
        "source": "OpenGovernmentData"
      }
    },
    {
      "type": "way",
      "id": 256948011,
      "center": {
        "lat": 13.0187259,
        "lon": 77.657214
      },
      "tags": {
        "building": "yes",
        "name": "Khivraj Motors - Bajaj",
        "shop": "motorcycle"
      }
    },
    {
      "type": "way",
      "id": 346734769,
      "center": {
        "lat": 13.0172514,
        "lon": 77.6510526
      },
      "tags": {
        "addr:postcode": "560043",
        "addr:street": "100 Feet Road",
        "amenity": "post_office",
        "building": "yes",
        "name": "Kalyannagar post office",
        "name:en": "Kalyannagar post office",
        "name:kn": "ಕಲ್ಯಾಣನಗರ ಅಂಚೆ ಕಛೇರಿ"
      }
    },
    {
      "type": "way",
      "id": 362934648,
      "center": {
        "lat": 13.0196335,
        "lon": 77.6516538
      },
      "tags": {
        "leisure": "park"
      }
    },
    {
      "type": "way",
      "id": 525518302,
      "center": {
        "lat": 13.0263279,
        "lon": 77.6559927
      },
      "tags": {
        "amenity": "school",
        "name": "Devamata Central School",
        "name:kn": "ದೇವಮಾತ ಕೇಂದ್ರ ಶಾಲೆ"
      }
    },
    {
      "type": "way",
      "id": 675387096,
      "center": {
        "lat": 13.0287492,
        "lon": 77.6553999
      },
      "tags": {
        "access": "private",
        "leisure": "swimming_pool"
      }
    },
    {
      "type": "way",
      "id": 687173302,
      "center": {
        "lat": 13.0297588,
        "lon": 77.6509558
      },
      "tags": {
        "amenity": "place_of_worship",
        "building": "church",
        "name": "St Joseph's Church",
        "name:kn": "ಸೆಂಟ್ ಜೋಸೆಫ್ ಚರ್ಚ್",
        "religion": "christian"
      }
    },
    {
      "type": "way",
      "id": 687173305,
      "center": {
        "lat": 13.0300544,
        "lon": 77.650963
      },
      "tags": {
        "amenity": "place_of_worship",
        "religion": "christian"
      }
    },
    {
      "type": "way",
      "id": 687173308,
      "center": {
        "lat": 13.025235,
        "lon": 77.6510715
      },
      "tags": {
        "access": "private",
        "leisure": "swimming_pool"
      }
    },
    {
      "type": "way",
      "id": 687216883,
      "center": {
        "lat": 13.0206384,
        "lon": 77.6513784
      },
      "tags": {
        "leisure": "park"
      }
    },
    {
      "type": "way",
      "id": 687216884,
      "center": {
        "lat": 13.0211276,
        "lon": 77.6511902
      },
      "tags": {
        "leisure": "park",
        "name": "Babusabpalya Park",
        "wheelchair": "limited"
      }
    },
    {
      "type": "way",
      "id": 695548659,
      "center": {
        "lat": 13.0297939,
        "lon": 77.6513457
      },
      "tags": {
        "amenity": "parking"
      }
    },
    {
      "type": "way",
      "id": 1132387739,
      "center": {
        "lat": 13.0179107,
        "lon": 77.6470515
      },
      "tags": {
        "addr:city": "HRBR Layout Kalyan Nagar 1 Block, Banasawadi",
        "addr:street": "3rd Cross Road",
        "amenity": "place_of_worship",
        "check_date": "2024-08-17",
        "landuse": "religious",
        "name": "Maha Ganapathi Temple",
        "name:kn": "ಮಹಾ ಗಣಪತಿ ದೇವಸ್ಥಾನ",
        "religion": "hindu"
      }
    },
    {
      "type": "way",
      "id": 1153861853,
      "center": {
        "lat": 13.0231745,
        "lon": 77.6454262
      },
      "tags": {
        "leisure": "park"
      }
    },
    {
      "type": "way",
      "id": 1266019411,
      "center": {
        "lat": 13.0178224,
        "lon": 77.6492556
      },
      "tags": {
        "amenity": "school"
      }
    },
    {
      "type": "way",
      "id": 1275463642,
      "center": {
        "lat": 13.0153197,
        "lon": 77.6510385
      },
      "tags": {
        "amenity": "parking",
        "parking": "surface"
      }
    },
    {
      "type": "way",
      "id": 1302326936,
      "center": {
        "lat": 13.0200844,
        "lon": 77.6518588
      },
      "tags": {
        "amenity": "parking"
      }
    },
    {
      "type": "way",
      "id": 1305075770,
      "center": {
        "lat": 13.0232857,
        "lon": 77.6466478
      },
      "tags": {
        "addr:city": "Babusabpalya, Hennur",
        "addr:street": "Outer Ring Road",
        "amenity": "place_of_worship",
        "check_date": "2023-01-04",
        "landuse": "religious",
        "name": "Sri Shakti Vinayaka Temple",
        "name:kn": "ಶ್ರೀ ವಿನಾಯಕ ದೇವಸ್ಥಾನ",
        "religion": "hindu"
      }
    },
    {
      "type": "way",
      "id": 1305076032,
      "center": {
        "lat": 13.0293446,
        "lon": 77.6493084
      },
      "tags": {
        "access": "private",
        "leisure": "swimming_pool"
      }
    },
    {
      "type": "way",
      "id": 1315908933,
      "center": {
        "lat": 13.020869,
        "lon": 77.6500004
      },
      "tags": {
        "leisure": "park"
      }
    },
    {
      "type": "way",
      "id": 1315908993,
      "center": {
        "lat": 13.0186335,
        "lon": 77.6457268
      },
      "tags": {
        "leisure": "pitch"
      }
    },
    {
      "type": "way",
      "id": 1315908994,
      "center": {
        "lat": 13.0186462,
        "lon": 77.6459148
      },
      "tags": {
        "leisure": "playground"
      }
    },
    {
      "type": "way",
      "id": 1315908996,
      "center": {
        "lat": 13.0187528,
        "lon": 77.6461709
      },
      "tags": {
        "leisure": "park",
        "name": "HRBR Park"
      }
    },
    {
      "type": "way",
      "id": 1346910005,
      "center": {
        "lat": 13.0261629,
        "lon": 77.6564647
      },
      "tags": {
        "amenity": "school",
        "name": "Sri Chaitanya School"
      }
    },
    {
      "type": "way",
      "id": 1346910006,
      "center": {
        "lat": 13.0269962,
        "lon": 77.6569341
      },
      "tags": {
        "amenity": "college",
        "name": "Sri Chaitanya PU College, Horamavu"
      }
    },
    {
      "type": "way",
      "id": 1347574138,
      "center": {
        "lat": 13.0240196,
        "lon": 77.6527883
      },
      "tags": {
        "leisure": "pitch",
        "sport": "soccer"
      }
    },
    {
      "type": "way",
      "id": 1347720004,
      "center": {
        "lat": 13.0204758,
        "lon": 77.655831
      },
      "tags": {
        "access": "private",
        "leisure": "swimming_pool"
      }
    },
    {
      "type": "way",
      "id": 1347735193,
      "center": {
        "lat": 13.0301259,
        "lon": 77.6495652
      },
      "tags": {
        "access": "private",
        "leisure": "swimming_pool"
      }
    },
    {
      "type": "way",
      "id": 1366533813,
      "center": {
        "lat": 13.0150504,
        "lon": 77.6575403
      },
      "tags": {
        "addr:street": "Banaswadi Main Rd, Banasawadi",
        "amenity": "school",
        "name": "New Baldwins School"
      }
    },
    {
      "type": "way",
      "id": 1409539462,
      "center": {
        "lat": 13.0238349,
        "lon": 77.6450462
      },
      "tags": {
        "leisure": "park"
      }
    },
    {
      "type": "way",
      "id": 1410597947,
      "center": {
        "lat": 13.0144583,
        "lon": 77.6521187
      },
      "tags": {
        "amenity": "place_of_worship",
        "building": "yes",
        "religion": "hindu"
      }
    }
  ]
}