{
  "area_name": "Bapuji Nagara",
  "osm_id": 19884504,
  "osm_type": "relation",
  "place_type": "administrative",
  "amenity_count": 6,
  "amenities": [
    {
      "type": "node",
      "id": 4101067198,
      "lat": 12.9606907,
      "lon": 77.5455229,
      "tags": {
        "addr:street": "Pipeline Road",
        "amenity": "place_of_worship",
        "building": "mosque",
        "name": "Masjid e Amiri Kalimi",
        "religion": "muslim"
      }
    },
    {
      "type": "node",
      "id": 4101097391,
      "lat": 12.9572135,
      "lon": 77.5429632,
      "tags": {
        "addr:street": "Mysore Road",
        "amenity": "cinema",
        "name": "shobha talkies"
      }
    },
    {
      "type": "node",
      "id": 6947268976,
      "lat": 12.9561944,
      "lon": 77.5460348,
      "tags": {
        "addr:district": "Bengaluru Urban",
        "addr:full": "1/1,1/2,1/3, New Guddadahalli, Mysore Road",
        "addr:postcode": "560026",
        "addr:state": "Karnataka",
        "amenity": "clinic",
        "name": "Balaji Nursing Home",
        "source": "OpenGovernmentData"
      }
    },
    {
      "type": "node",
      "id": 12128957168,
      "lat": 12.9555351,
      "lon": 77.544152,
      "tags": {
        "amenity": "place_of_worship",
        "denomination": "catholic",
        "name": "St. Anthony's Church",
        "religion": "christian"
      }
    },
    {
      "type": "way",
      "id": 1257194263,
      "center": {
        "lat": 12.9544671,
        "lon": 77.5437395
      },
      "tags": {
        "amenity": "fuel",
        "check_date": "2023-10-08"
      }
    },
    {
      "type": "way",
      "id": 1309995712,
      "center": {
        "lat": 12.9536909,
        "lon": 77.542113
      },
      "tags": {
        "amenity": "fuel",
        "check_date": "2023-10-08"
      }
    }
  ]
}