{
  "area_name": "Beguru",
  "osm_id": 3336377110,
  "osm_type": "node",
  "place_type": "suburb",
  "amenity_count": 61,
  "amenities": [
    {
      "type": "node",
      "id": 731740934,
      "lat": 12.8757246,
      "lon": 77.6173186,
      "tags": {
        "amenity": "post_box",
        "name": "DLF New Town"
      }
    },
    {
      "type": "node",
      "id": 731741251,
      "lat": 12.8762947,
      "lon": 77.6164979,
      "tags": {
        "name": "Mamata",
        "shop": "convenience"
      }
    },
    {
      "type": "node",
      "id": 731781098,
      "lat": 12.8761792,
      "lon": 77.6169752,
      "tags": {
        "amenity": "pharmacy",
        "name": "Greeshma"
      }
    },
    {
      "type": "node",
      "id": 1818494842,
      "lat": 12.8778532,
      "lon": 77.6246582,
      "tags": {
        "addr:district": "Bangalore",
        "addr:full": "Begur Main Road, Classic Paradise Layout, Bommanhalli, Bengaluru",
        "addr:postcode": "560068",
        "addr:state": "Karnataka",
        "addr:subdistrict": "Bangalore South",
        "amenity": "hospital",
        "description": "Primary Health Centre",
        "healthcare": "centre",
        "name": "Government Primary Healthcare Center, Begur",
        "name:kn": "ಸರ್ಕಾರಿ ಪ್ರಾಥಮಿಕ ಆರೋಗ್ಯ ಕೇಂದ್ರ",
        "source": "OpenGovernmentData"
      }
    },
    {
      "type": "node",
      "id": 2339551591,
      "lat": 12.8758604,
      "lon": 77.6169923,
      "tags": {
        "amenity": "atm",
        "brand": "Corporation Bank",
        "brand:wikidata": "Q2003387",
        "check_date": "2021-06-19",
        "designation": "ATM",
        "fee": "no",
        "name": "Corporation Bank",
        "operator": "Corporation Bank",
        "operator:wikidata": "Q2003387",
        "source": "survey"
      }
    },
    {
      "type": "node",
      "id": 2339552995,
      "lat": 12.8759179,
      "lon": 77.6167938,
      "tags": {
        "addr:housename": "Ample Mart",
        "addr:postcode": "560068",
        "addr:street": "Akshayanagar",
        "designation": "Supermarket",
        "name": "Ample Mart",
        "shop": "supermarket",
        "source": "Survey"
      }
    },
    {
      "type": "node",
      "id": 2645107023,
      "lat": 12.8760411,
      "lon": 77.616299,
      "tags": {
        "amenity": "bank",
        "atm": "yes",
        "brand": "Canara Bank",
        "brand:en": "Canara Bank",
        "brand:hi": "केनरा बैंक",
        "brand:kn": "ಕೆನರಾ ಬ್ಯಾಂಕ್",
        "brand:pa": "ਕੇਨਰਾ ਬੈਂਕ",
        "brand:pnb": "کینرا بینک",
        "brand:ur": "کینرا بینک",
        "brand:wikidata": "Q2003777",
        "brand:wikipedia": "en:Canara Bank",
        "brand:wikipedia:pa": "ਕੇਨਰਾ ਬੈਂਕ",
        "name": "Canara Bank",
        "name:en": "Canara Bank",
        "name:hi": "केनरा बैंक",
        "name:kn": "ಕೆನರಾ ಬ್ಯಾಂಕ್",
        "name:pa": "ਕੇਨਰਾ ਬੈਂਕ",
        "name:pnb": "کینرا بینک",
        "name:ur": "کینرا بینک",
        "website": "https://www.canarabank.com/"
      }
    },
    {
      "type": "node",
      "id": 2645107028,
      "lat": 12.8763027,
      "lon": 77.613762,
      "tags": {
        "amenity": "bank",
        "atm": "yes",
        "brand": "Andhra Bank",
        "brand:wikidata": "Q2003476",
        "brand:wikipedia": "en:Andhra Bank",
        "name": "Andhra Bank",
        "name:en": "Andhra Bank",
        "name:kn": "ಆಂಧ್ರ ಬ್ಯಾಂಕ್",
        "website": "https://www.andhrabank.in"
      }
    },
    {
      "type": "node",
      "id": 2645107031,
      "lat": 12.8763432,
      "lon": 77.6160768,
      "tags": {
        "amenity": "bank",
        "atm": "yes",
        "brand": "State Bank of India",
        "brand:wikidata": "Q1340361",
        "brand:wikipedia": "en:State Bank of India",
        "name": "State Bank of India",
        "name:kn": "ಭಾರತೀಯ ಸ್ಟೇಟ್ ಬ್ಯಾಂಕ್",
        "short_name": "SBI"
      }
    },
    {
      "type": "node",
      "id": 2907073150,
      "lat": 12.8730251,
      "lon": 77.6260135,
      "tags": {
        "addr:city": "Begur",
        "addr:place": "Begur",
        "amenity": "school",
        "isced:level": "2",
        "name": "St Teresa Hps Begur",
        "name:kn": "ಸೆಂಟ್‌ ತೆರೇಸಾ ಹಿರಿಯ ಪ್ರಾಥಮಿಕ ಶಾಲೆ ಬೇಗೂರು",
        "operator": "Department of Education",
        "school": "primary"
      }
    },
    {
      "type": "node",
      "id": 2907073152,
      "lat": 12.8737507,
      "lon": 77.6259345,
      "tags": {
        "addr:place": "Begur",
        "amenity": "school",
        "isced:level": "3",
        "name": "St Teresa Hs",
        "name:kn": "ಸೆಂಟ್‌ ತೆರೇಸಾ ಪ್ರೌಢಶಾಲೆ, ಬೇಗೂರು",
        "operator": "Private Un-Aided",
        "school": "secondary"
      }
    },
    {
      "type": "node",
      "id": 5959076193,
      "lat": 12.881611,
      "lon": 77.6260763,
      "tags": {
        "addr:district": "Bengaluru Rural",
        "addr:full": "#25,26,27, B Block, Viswapriyanagara, Near Chowdeshwari Temple, Begur",
        "addr:postcode": "560068",
        "addr:state": "Karnataka",
        "amenity": "hospital",
        "healthcare": "hospital",
        "name": "Jayashree Multi Specilaity Hospital",
        "source": "OpenGovernmentData"
      }
    },
    {
      "type": "node",
      "id": 5959076196,
      "lat": 12.8816846,
      "lon": 77.6264499,
      "tags": {
        "amenity": "atm",
        "brand": "Canara Bank",
        "brand:en": "Canara Bank",
        "brand:hi": "केनरा बैंक",
        "brand:kn": "ಕೆನರಾ ಬ್ಯಾಂಕ್",
        "brand:pa": "ਕੇਨਰਾ ਬੈਂਕ",
        "brand:pnb": "کینرا بینک",
        "brand:ur": "کینرا بینک",
        "brand:wikidata": "Q2003777",
        "name": "Canara Bank",
        "name:en": "Canara Bank",
        "name:hi": "केनरा बैंक",
        "name:kn": "ಕೆನರಾ ಬ್ಯಾಂಕ್",
        "name:pa": "ਕੇਨਰਾ ਬੈਂਕ",
        "name:pnb": "کینرا بینک",
        "name:ur": "کینرا بینک",
        "operator": "Canara Bank",
        "operator:wikidata": "Q2003777"
      }
    },
    {
      "type": "node",
      "id": 5959076197,
      "lat": 12.881686,
      "lon": 77.6279626,
      "tags": {
        "amenity": "atm",
        "brand": "ICICI Bank",
        "brand:wikidata": "Q1653258",
        "currency:INR": "yes",
        "name": "ICICI Bank",
        "name:kn": "ಐಸಿಐಸಿಐ ಬ್ಯಾಂಕು",
        "operator": "ICICI Bank",
        "operator:wikidata": "Q1653258",
        "short_name": "ICICI"
      }
    },
    {
      "type": "node",
      "id": 6430475977,
      "lat": 12.8826959,
      "lon": 77.6265059,
      "tags": {
        "addr:place": "Begur",
        "amenity": "school",
        "isced:level": "3",
        "name": "The Selony LPS Begur",
        "name:kn": "ದಿ ಸೆಲೋನಿ ಕಿರಿಯ ಪ್ರಾಥಮಿಕ ಶಾಲೆ ಬೇಗೂರು",
        "operator": "Private Un-Aided",
        "school": "Higher Secondary"
      }
    },
    {
      "type": "node",
      "id": 6430493134,
      "lat": 12.8780562,
      "lon": 77.6167931,
      "tags": {
        "addr:place": "Begur",
        "amenity": "school",
        "isced": "1",
        "name": "St Pauls School, Begur",
        "name:kn": "ಸೆಂಟ್ ಪಾಲ್ಸ್ ಶಾಲೆ,ಬೇಗೂರು",
        "operator": "Private Un-Aided",
        "school": "primary"
      }
    },
    {
      "type": "node",
      "id": 7572669043,
      "lat": 12.877267,
      "lon": 77.6182941,
      "tags": {
        "addr:district": "Bengaluru Urban",
        "addr:full": "Classic Paradise Layout, Akshayanagar, Bengaluru",
        "addr:postcode": "560076",
        "addr:state": "Karnataka",
        "amenity": "clinic",
        "name": "Dr. Hebbal Homeo and Polyclinic",
        "source": "Local Knowledge"
      }
    },
    {
      "type": "node",
      "id": 7572669045,
      "lat": 12.874266,
      "lon": 77.616922,
      "tags": {
        "addr:district": "Bengaluru Urban",
        "addr:full": "Golden Height Apartment, Akshay Nagar Main Road, Bengaluru",
        "addr:postcode": "560076",
        "addr:state": "Karnataka",
        "amenity": "clinic",
        "name": "Dr. Shankar's Ear Nose & Throat",
        "source": "Local Knowledge"
      }
    },
    {
      "type": "node",
      "id": 7572669052,
      "lat": 12.8773392,
      "lon": 77.6163766,
      "tags": {
        "addr:district": "Bengaluru Urban",
        "addr:full": "Sugama Layout, Devarachikkana Halli, Bengaluru",
        "addr:postcode": "560076",
        "addr:state": "Karnataka",
        "amenity": "dentist",
        "name": "St. Michael's Dental, Medical and Diagnostics",
        "source": "Local Knowledge"
      }
    },
    {
      "type": "node",
      "id": 7572669053,
      "lat": 12.87174,
      "lon": 77.6168758,
      "tags": {
        "addr:district": "Bengaluru Urban",
        "addr:full": "Akshayanagar, Bengaluru",
        "addr:postcode": "560076",
        "addr:state": "Karnataka",
        "amenity": "clinic",
        "name": "Mahima Clinic",
        "source": "Local Knowledge"
      }
    },
    {
      "type": "node",
      "id": 10242924675,
      "lat": 12.872932,
      "lon": 77.626696,
      "tags": {
        "amenity": "recycling",
        "recycling_type": "centre"
      }
    },
    {
      "type": "node",
      "id": 11625402106,
      "lat": 12.8749413,
      "lon": 77.6161595,
      "tags": {
        "access": "yes",
        "leisure": "pitch",
        "name": "MP Sports Arena",
        "sport": "badminton;swimming"
      }
    },
    {
      "type": "node",
      "id": 11625402107,
      "lat": 12.8749232,
      "lon": 77.6167526,
      "tags": {
        "addr:city": "Bangalore",
        "addr:district": "Bengaluru Urban",
        "addr:full": "Yelanahalli Main Road, Akshaynagar, DLF New Town,Bengaluru-560068",
        "addr:postcode": "560068",
        "name": "Safari Super Mart",
        "opening_hours": "Mo-Su 09:00-21:00",
        "payment:app": "yes",
        "payment:cash": "yes",
        "payment:credit_cards": "yes",
        "payment:upi": "yes",
        "shop": "supermarket"
      }
    },
    {
      "type": "node",
      "id": 12754772231,
      "lat": 12.8729362,
      "lon": 77.6181679,
      "tags": {
        "access": "private",
        "amenity": "parking_entrance",
        "parking": "underground"
      }
    },
    {
      "type": "node",
      "id": 12754772233,
      "lat": 12.8742675,
      "lon": 77.6184174,
      "tags": {
        "access": "private",
        "amenity": "parking_entrance",
        "parking": "underground"
      }
    },
    {
      "type": "node",
      "id": 12799711892,
      "lat": 12.8749831,
      "lon": 77.6164752,
      "tags": {
        "addr:city": "Bangalore",
        "addr:district": "Bengaluru Urban",
        "addr:housenumber": "21",
        "addr:postcode": "560076",
        "addr:street": "1st Cross Road yelenahalli main road",
        "amenity": "car_wash",
        "name": "Sparkx Auto Detailing",
        "opening_hours": "Mo-Su 08:00-22:00",
        "operator": "Prabhu",
        "payment:cash": "yes",
        "payment:google_pay": "yes",
        "self_service": "no"
      }
    },
    {
      "type": "way",
      "id": 126890301,
      "center": {
        "lat": 12.872591,
        "lon": 77.6155189
      },
      "tags": {
        "amenity": "public_building",
        "name": "Ashram"
      }
    },
    {
      "type": "way",
      "id": 126890306,
      "center": {
        "lat": 12.8706259,
        "lon": 77.6148793
      },
      "tags": {
        "amenity": "place_of_worship",
        "name": "Subramanya Temple",
        "name:kn": "ಸುಬ್ರಮಣ್ಯ ದೇವಸ್ಥಾನ",
        "religion": "hindu"
      }
    },
    {
      "type": "way",
      "id": 259157357,
      "center": {
        "lat": 12.8682011,
        "lon": 77.6165729
      },
      "tags": {
        "addr:city": "Bangalore",
        "addr:housename": "Akshaya Nagar, Yellahanahalli",
        "addr:postcode": "560068",
        "addr:street": "Begur Main Road",
        "amenity": "college",
        "email": "fullinfawscollege@yahoo.in",
        "name": "Fullinfaws College",
        "website": "http://fullinfawscollege.blogspot.in/"
      }
    },
    {
      "type": "way",
      "id": 334653046,
      "center": {
        "lat": 12.8828291,
        "lon": 77.6241711
      },
      "tags": {
        "amenity": "school",
        "name": "Government High School",
        "name:kn": "ಸರ್ಕಾರಿ ಪ್ರೌಢ ಶಾಲೆ"
      }
    },
    {
      "type": "way",
      "id": 347147615,
      "center": {
        "lat": 12.8816137,
        "lon": 77.6236081
      },
      "tags": {
        "addr:city": "Begur",
        "alt_name": "GMPS Begur",
        "amenity": "school",
        "building": "yes",
        "name": "Government Lower Primary School",
        "name:kn": "ಸರ್ಕಾರಿ ಹಿರಿಯ ಪ್ರಾಥಮಿಕ ಶಾಲೆ ಬೇಗೂರು"
      }
    },
    {
      "type": "way",
      "id": 347181161,
      "center": {
        "lat": 12.8823637,
        "lon": 77.6252334
      },
      "tags": {
        "addr:city": "Bengaluru",
        "addr:district": "Bengaluru Rural",
        "addr:postcode": "560068",
        "addr:street": "Begur Rd, Vishwapriya Nagar, Begur",
        "amenity": "place_of_worship",
        "building": "yes",
        "name": "Sri Chowdeshwari Ammanavara Temple",
        "religion": "hindu"
      }
    },
    {
      "type": "way",
      "id": 362885313,
      "center": {
        "lat": 12.8683951,
        "lon": 77.6196899
      },
      "tags": {
        "leisure": "park"
      }
    },
    {
      "type": "way",
      "id": 523040857,
      "center": {
        "lat": 12.8710995,
        "lon": 77.6227956
      },
      "tags": {
        "amenity": "place_of_worship",
        "building": "yes",
        "religion": "hindu"
      }
    },
    {
      "type": "way",
      "id": 630719307,
      "center": {
        "lat": 12.8821434,
        "lon": 77.6249568
      },
      "tags": {
        "amenity": "fuel",
        "brand": "Bharat Petroleum",
        "brand:wikidata": "Q854826",
        "name": "Bharat Petroleum",
        "name:kn": "ಭಾರತ್ ಪೆಟ್ರೋಲಿಯಂ"
      }
    },
    {
      "type": "way",
      "id": 631054120,
      "center": {
        "lat": 12.8777691,
        "lon": 77.6275646
      },
      "tags": {
        "amenity": "place_of_worship",
        "building": "yes",
        "name": "Ganesha Temple",
        "name:kn": "ಗಣೇಶ ದೇವಸ್ಥಾನ",
        "religion": "hindu"
      }
    },
    {
      "type": "way",
      "id": 1119921711,
      "center": {
        "lat": 12.8736907,
        "lon": 77.6262626
      },
      "tags": {
        "amenity": "place_of_worship",
        "name": "St. Ignatius Loyola Church",
        "religion": "christian"
      }
    },
    {
      "type": "way",
      "id": 1261422222,
      "center": {
        "lat": 12.877063,
        "lon": 77.6266562
      },
      "tags": {
        "amenity": "place_of_worship",
        "name": "Naganatheshwara Temple",
        "name:kn": "ನಾಗನಾಥೇಶ್ವರ ದೇವಾಲಯ",
        "religion": "hindu",
        "tourism": "attraction"
      }
    },
    {
      "type": "way",
      "id": 1261422248,
      "center": {
        "lat": 12.8733846,
        "lon": 77.6261578
      },
      "tags": {
        "amenity": "school",
        "name": "St. Teresa School, Begur",
        "name:kn": "ಸಂತ ತೆರೇಸರ ಶಾಲೆ"
      }
    },
    {
      "type": "way",
      "id": 1261422249,
      "center": {
        "lat": 12.8736489,
        "lon": 77.6184985
      },
      "tags": {
        "leisure": "park"
      }
    },
    {
      "type": "way",
      "id": 1261422250,
      "center": {
        "lat": 12.8739242,
        "lon": 77.619818
      },
      "tags": {
        "access": "permissive",
        "amenity": "parking",
        "parking": "surface"
      }
    },
    {
      "type": "way",
      "id": 1261422251,
      "center": {
        "lat": 12.8738154,
        "lon": 77.6197413
      },
      "tags": {
        "access": "permissive",
        "amenity": "parking",
        "parking": "surface"
      }
    },
    {
      "type": "way",
      "id": 1261422252,
      "center": {
        "lat": 12.8741177,
        "lon": 77.6196126
      },
      "tags": {
        "access": "permissive",
        "amenity": "parking",
        "parking": "surface"
      }
    },
    {
      "type": "way",
      "id": 1261422253,
      "center": {
        "lat": 12.8729515,
        "lon": 77.6180558
      },
      "tags": {
        "access": "permissive",
        "amenity": "parking",
        "parking": "surface"
      }
    },
    {
      "type": "way",
      "id": 1261422254,
      "center": {
        "lat": 12.873841,
        "lon": 77.6191139
      },
      "tags": {
        "access": "permissive",
        "amenity": "parking",
        "parking": "surface"
      }
    },
    {
      "type": "way",
      "id": 1261422255,
      "center": {
        "lat": 12.8738258,
        "lon": 77.6186517
      },
      "tags": {
        "access": "permissive",
        "amenity": "parking",
        "parking": "surface"
      }
    },
    {
      "type": "way",
      "id": 1261422256,
      "center": {
        "lat": 12.8739455,
        "lon": 77.6181705
      },
      "tags": {
        "access": "permissive",
        "amenity": "parking",
        "parking": "surface"
      }
    },
    {
      "type": "way",
      "id": 1261422257,
      "center": {
        "lat": 12.8739419,
        "lon": 77.6182965
      },
      "tags": {
        "access": "permissive",
        "amenity": "parking",
        "parking": "surface"
      }
    },
    {
      "type": "way",
      "id": 1261422258,
      "center": {
        "lat": 12.8741004,
        "lon": 77.6185584
      },
      "tags": {
        "access": "permissive",
        "amenity": "parking",
        "parking": "surface"
      }
    },
    {
      "type": "way",
      "id": 1261422259,
      "center": {
        "lat": 12.8741162,
        "lon": 77.6184594
      },
      "tags": {
        "access": "permissive",
        "amenity": "parking",
        "parking": "surface"
      }
    },
    {
      "type": "way",
      "id": 1261422260,
      "center": {
        "lat": 12.8766879,
        "lon": 77.6182469
      },
      "tags": {
        "access": "permissive",
        "amenity": "parking",
        "parking": "surface"
      }
    },
    {
      "type": "way",
      "id": 1261422262,
      "center": {
        "lat": 12.8751601,
        "lon": 77.6180915
      },
      "tags": {
        "leisure": "park"
      }
    },
    {
      "type": "way",
      "id": 1261422264,
      "center": {
        "lat": 12.8738176,
        "lon": 77.6215859
      },
      "tags": {
        "access": "private",
        "leisure": "swimming_pool"
      }
    },
    {
      "type": "way",
      "id": 1261422265,
      "center": {
        "lat": 12.8741149,
        "lon": 77.6215622
      },
      "tags": {
        "access": "private",
        "leisure": "pitch",
        "sport": "tennis"
      }
    },
    {
      "type": "way",
      "id": 1261422313,
      "center": {
        "lat": 12.8685916,
        "lon": 77.6216155
      },
      "tags": {
        "amenity": "fuel"
      }
    },
    {
      "type": "way",
      "id": 1302259151,
      "center": {
        "lat": 12.8785121,
        "lon": 77.6251255
      },
      "tags": {
        "amenity": "grave_yard",
        "landuse": "cemetery"
      }
    },
    {
      "type": "way",
      "id": 1302261867,
      "center": {
        "lat": 12.8744351,
        "lon": 77.6191498
      },
      "tags": {
        "access": "permissive",
        "amenity": "parking",
        "parking": "surface"
      }
    },
    {
      "type": "way",
      "id": 1302261868,
      "center": {
        "lat": 12.873805,
        "lon": 77.6184492
      },
      "tags": {
        "access": "permissive",
        "amenity": "parking",
        "parking": "surface"
      }
    },
    {
      "type": "way",
      "id": 1302261869,
      "center": {
        "lat": 12.8733525,
        "lon": 77.6194617
      },
      "tags": {
        "access": "permissive",
        "amenity": "parking",
        "parking": "surface"
      }
    },
    {
      "type": "way",
      "id": 1302261870,
      "center": {
        "lat": 12.8738121,
        "lon": 77.6203488
      },
      "tags": {
        "access": "permissive",
        "amenity": "parking",
        "parking": "surface"
      }
    },
    {
      "type": "way",
      "id": 1302261871,
      "center": {
        "lat": 12.8737942,
        "lon": 77.6210813
      },
      "tags": {
        "access": "permissive",
        "amenity": "parking",
        "parking": "surface"
      }
    }
  ]
}