{
  "area_name": "BEL Colony",
  "osm_id": 433747869,
  "osm_type": "node",
  "place_type": "neighbourhood",
  "amenity_count": 77,
  "amenities": [
    {
      "type": "node",
      "id": 426926468,
      "lat": 13.0492109,
      "lon": 77.547547,
      "tags": {
        "amenity": "restaurant",
        "name": "Kamat Nandanvan",
        "name:kn": "ಕಾಮತ್ ನಂದನವನ",
        "wheelchair": "no"
      }
    },
    {
      "type": "node",
      "id": 443726342,
      "lat": 13.0483161,
      "lon": 77.5520608,
      "tags": {
        "amenity": "place_of_worship",
        "name": "Ekadanta Temple",
        "name:kn": "ಏಕದಂತ ದೇವಸ್ಥಾನ",
        "religion": "hindu",
        "wheelchair": "no"
      }
    },
    {
      "type": "node",
      "id": 521144263,
      "lat": 13.0452298,
      "lon": 77.547996,
      "tags": {
        "amenity": "bus_station",
        "name": "Jalahalli Village",
        "name:kn": "ಜಾಲಹಳ್ಳಿ",
        "wheelchair": "no"
      }
    },
    {
      "type": "node",
      "id": 521144406,
      "lat": 13.0468252,
      "lon": 77.5494119,
      "tags": {
        "amenity": "fast_food",
        "name": "Ganesh Upahara",
        "wheelchair": "no"
      }
    },
    {
      "type": "node",
      "id": 521144416,
      "lat": 13.0486481,
      "lon": 77.5495673,
      "tags": {
        "amenity": "police",
        "name": "Jalahalli Police Station",
        "name:kn": "ಜಾಲಹಳ್ಳಿ ಆರಕ್ಷಕ ಠಾಣೆ",
        "wheelchair": "no"
      }
    },
    {
      "type": "node",
      "id": 521144440,
      "lat": 13.0492252,
      "lon": 77.5474051,
      "tags": {
        "name": "Nilgiris",
        "name:kn": "ನೀಲ್ಗಿರೀಸ್",
        "shop": "supermarket",
        "wheelchair": "no"
      }
    },
    {
      "type": "node",
      "id": 521157750,
      "lat": 13.0508316,
      "lon": 77.5531101,
      "tags": {
        "amenity": "post_office",
        "name": "Jalahalli Post Office",
        "name:kn": "ಜಾಲಹಳ್ಳಿ ಅಂಚೆ ಕಛೇರಿ",
        "wheelchair": "no"
      }
    },
    {
      "type": "node",
      "id": 589848191,
      "lat": 13.0397585,
      "lon": 77.5555028,
      "tags": {
        "name": "City Supermarket",
        "shop": "supermarket"
      }
    },
    {
      "type": "node",
      "id": 589848959,
      "lat": 13.0400303,
      "lon": 77.5555993,
      "tags": {
        "addr:street": "Pipeline Road",
        "name": "Spencers Daily",
        "organic": "yes",
        "shop": "supermarket",
        "website": "https://www.spencers.in/"
      }
    },
    {
      "type": "node",
      "id": 590002267,
      "lat": 13.0436252,
      "lon": 77.5536883,
      "tags": {
        "amenity": "fuel",
        "brand": "Hindustan Petroleum",
        "brand:wikidata": "Q1619375",
        "compressed_air": "yes",
        "name": "Hindustan Petroleum",
        "official_name": "Hindustan Petroleum",
        "operator": "Hindustan Petroleum",
        "wheelchair": "limited"
      }
    },
    {
      "type": "node",
      "id": 590006118,
      "lat": 13.0460808,
      "lon": 77.5460984,
      "tags": {
        "amenity": "place_of_worship",
        "name": "Sharadamba Temple",
        "name:kn": "ಶಾರದಾಂಬ ದೇವಸ್ಥಾನ",
        "religion": "hindu"
      }
    },
    {
      "type": "node",
      "id": 590010907,
      "lat": 13.0521546,
      "lon": 77.5515881,
      "tags": {
        "amenity": "restaurant",
        "cuisine": "regional",
        "microbrewery": "no",
        "name": "Bharath",
        "name:kn": "ಭಾರತ್",
        "outdoor_seating": "no",
        "toilets:wheelchair": "no",
        "wheelchair": "no"
      }
    },
    {
      "type": "node",
      "id": 590011234,
      "lat": 13.051811,
      "lon": 77.5517989,
      "tags": {
        "addr:postcode": "560013",
        "addr:street": "Bel Market",
        "amenity": "fast_food",
        "name": "Kadamba Veg",
        "toilets:wheelchair": "no",
        "wheelchair": "no"
      }
    },
    {
      "type": "node",
      "id": 806309398,
      "lat": 13.0459551,
      "lon": 77.5469084,
      "tags": {
        "shop": "hairdresser"
      }
    },
    {
      "type": "node",
      "id": 806309408,
      "lat": 13.0453098,
      "lon": 77.548111,
      "tags": {
        "amenity": "parking",
        "wheelchair": "no"
      }
    },
    {
      "type": "node",
      "id": 1462240589,
      "lat": 13.0511982,
      "lon": 77.5526747,
      "tags": {
        "amenity": "bank",
        "atm": "yes",
        "brand": "State Bank of India",
        "brand:wikidata": "Q1340361",
        "brand:wikipedia": "en:State Bank of India",
        "name": "State Bank of India",
        "name:kn": "ಎಸ್ ಬಿ ಐ",
        "short_name": "SBI",
        "toilets:wheelchair": "no",
        "wheelchair": "limited"
      }
    },
    {
      "type": "node",
      "id": 2344091934,
      "lat": 13.0493747,
      "lon": 77.5557397,
      "tags": {
        "amenity": "theatre",
        "name": "BEL Kalakshetra"
      }
    },
    {
      "type": "node",
      "id": 2859829423,
      "lat": 13.0400516,
      "lon": 77.5573893,
      "tags": {
        "amenity": "bank",
        "atm": "yes",
        "brand": "Union Bank of India",
        "brand:wikidata": "Q2004078",
        "brand:wikipedia": "en:Union Bank of India",
        "name": "Union Bank of India",
        "name:en": "Union Bank of India",
        "name:kn": "ಯೂನಿಯನ್ ಬ್ಯಾಂಕ್",
        "short_name": "UBI",
        "website": "https://www.unionbankofindia.co.in/",
        "wheelchair": "no"
      }
    },
    {
      "type": "node",
      "id": 2859829724,
      "lat": 13.0403573,
      "lon": 77.5574215,
      "tags": {
        "amenity": "bank",
        "atm": "yes",
        "name": "Vijaya Bank - Gokula",
        "name:kn": "ವಿಜಯ ಬ್ಯಾಂಕು",
        "wheelchair": "no"
      }
    },
    {
      "type": "node",
      "id": 4488039310,
      "lat": 13.0435746,
      "lon": 77.5532589,
      "tags": {
        "addr:city": "Bangalore",
        "addr:housenumber": "901",
        "addr:postcode": "560054",
        "addr:street": "MES Ring Road, Muthyala Nagar,",
        "name": "New Kiran Super Bazar",
        "phone": "+91 9986875053",
        "shop": "supermarket",
        "website": "NA"
      }
    },
    {
      "type": "node",
      "id": 4488602509,
      "lat": 13.039288,
      "lon": 77.5537006,
      "tags": {
        "addr:city": "Bengaluru",
        "addr:housenumber": "10",
        "addr:postcode": "560054",
        "addr:street": "Muthyalamma Nagar 1st Main Road",
        "name": "I Mart",
        "phone": "(91)-80-39629225",
        "shop": "supermarket"
      }
    },
    {
      "type": "node",
      "id": 7228148584,
      "lat": 13.0401787,
      "lon": 77.5574362,
      "tags": {
        "amenity": "fast_food",
        "cuisine": "juice",
        "name": "Lassi Shop"
      }
    },
    {
      "type": "node",
      "id": 7228151802,
      "lat": 13.0448155,
      "lon": 77.5569279,
      "tags": {
        "access": "yes",
        "amenity": "toilets"
      }
    },
    {
      "type": "node",
      "id": 7228151822,
      "lat": 13.0496063,
      "lon": 77.5534585,
      "tags": {
        "name": "Nandini Milk Galaxy",
        "shop": "dairy"
      }
    },
    {
      "type": "node",
      "id": 8137530880,
      "lat": 13.04116,
      "lon": 77.5580795,
      "tags": {
        "amenity": "vending_machine",
        "name": "Water ATM",
        "operator": "BBMP",
        "vending": "water"
      }
    },
    {
      "type": "node",
      "id": 8137538969,
      "lat": 13.0419839,
      "lon": 77.5557271,
      "tags": {
        "amenity": "vending_machine",
        "name": "Water ATM",
        "operator": "BBMP",
        "vending": "water"
      }
    },
    {
      "type": "node",
      "id": 8188057146,
      "lat": 13.044658,
      "lon": 77.552906,
      "tags": {
        "addr:full": "7 main near hp gas agency bahubali nagar jalahalli, Bahubali Nagar, Jalahalli, Bengaluru, Karnataka",
        "addr:state": "Karnataka",
        "amenity": "restaurant",
        "name": "Dashami Fast Food"
      }
    },
    {
      "type": "node",
      "id": 8427345271,
      "lat": 13.0435248,
      "lon": 77.5520426,
      "tags": {
        "amenity": "dentist",
        "name": "Kushi Dental Clinic",
        "phone": "9886059236"
      }
    },
    {
      "type": "node",
      "id": 9912846653,
      "lat": 13.0438016,
      "lon": 77.5542565,
      "tags": {
        "amenity": "toilets",
        "fee": "no",
        "operator": "BBMP"
      }
    },
    {
      "type": "node",
      "id": 11496155848,
      "lat": 13.0402331,
      "lon": 77.55714,
      "tags": {
        "amenity": "post_office",
        "check_date": "2024-01-07",
        "name": "MS Ramaiah Post Office",
        "operator": "India Post",
        "operator:wikidata": "Q3519720"
      }
    },
    {
      "type": "node",
      "id": 12676265205,
      "lat": 13.0401523,
      "lon": 77.5571714,
      "tags": {
        "amenity": "post_box"
      }
    },
    {
      "type": "node",
      "id": 12676265206,
      "lat": 13.0421041,
      "lon": 77.5573027,
      "tags": {
        "check_date": "2025-03-18",
        "name": "Girias",
        "shop": "electronics"
      }
    },
    {
      "type": "node",
      "id": 12676265207,
      "lat": 13.0424609,
      "lon": 77.5572131,
      "tags": {
        "check_date": "2025-03-18",
        "name": "Car Care",
        "shop": "car_repair"
      }
    },
    {
      "type": "node",
      "id": 12676265212,
      "lat": 13.0493054,
      "lon": 77.553817,
      "tags": {
        "amenity": "social_centre",
        "check_date": "2025-03-18",
        "name": "Bharat Electronics Employee Co-operative Society Limited"
      }
    },
    {
      "type": "node",
      "id": 12676265214,
      "lat": 13.0522469,
      "lon": 77.551486,
      "tags": {
        "check_date": "2025-03-18",
        "name": "BL Suguna",
        "shop": "butcher"
      }
    },
    {
      "type": "node",
      "id": 12676265220,
      "lat": 13.0516497,
      "lon": 77.5515983,
      "tags": {
        "amenity": "pharmacy",
        "brand": "Apollo Pharmacy",
        "brand:wikidata": "Q62562612",
        "check_date": "2025-03-18",
        "healthcare": "pharmacy",
        "name": "Apollo Pharmacy"
      }
    },
    {
      "type": "node",
      "id": 12676265221,
      "lat": 13.0496128,
      "lon": 77.5535048,
      "tags": {
        "amenity": "fast_food",
        "check_date": "2025-03-18",
        "name": "Sri Mahalasa Grand"
      }
    },
    {
      "type": "node",
      "id": 12676265223,
      "lat": 13.0406654,
      "lon": 77.5574556,
      "tags": {
        "check_date": "2025-03-18",
        "shop": "garden_centre"
      }
    },
    {
      "type": "way",
      "id": 40584702,
      "center": {
        "lat": 13.0528721,
        "lon": 77.5526773
      },
      "tags": {
        "leisure": "park"
      }
    },
    {
      "type": "way",
      "id": 40584732,
      "center": {
        "lat": 13.0491555,
        "lon": 77.5567322
      },
      "tags": {
        "leisure": "pitch",
        "name": "BEL School Ground",
        "wheelchair": "no"
      }
    },
    {
      "type": "way",
      "id": 41212267,
      "center": {
        "lat": 13.0472016,
        "lon": 77.5561007
      },
      "tags": {
        "alt_name": "BEL Ayappa Park",
        "leisure": "park",
        "name": "General Iyappa Park",
        "name:etymology:wikidata": "Q4780908"
      }
    },
    {
      "type": "way",
      "id": 41972358,
      "center": {
        "lat": 13.043819,
        "lon": 77.5448045
      },
      "tags": {
        "amenity": "college",
        "name": "St. Claret College"
      }
    },
    {
      "type": "way",
      "id": 42013538,
      "center": {
        "lat": 13.0488415,
        "lon": 77.5467445
      },
      "tags": {
        "leisure": "park",
        "name": "HMT Park"
      }
    },
    {
      "type": "way",
      "id": 42014451,
      "center": {
        "lat": 13.0458868,
        "lon": 77.5497795
      },
      "tags": {
        "amenity": "college",
        "name": "Government College",
        "name:kn": "ಸರ್ಕಾರಿ ಕಾಲೆಜು",
        "wheelchair": "no"
      }
    },
    {
      "type": "way",
      "id": 42014454,
      "center": {
        "lat": 13.04958,
        "lon": 77.5509219
      },
      "tags": {
        "amenity": "hospital",
        "name": "HMT Hospital",
        "name:kn": "ಎಚ್ಎಂಟಿ ಆಸ್ಪತ್ರೆ",
        "wheelchair": "limited"
      }
    },
    {
      "type": "way",
      "id": 42407828,
      "center": {
        "lat": 13.0503387,
        "lon": 77.5567647
      },
      "tags": {
        "addr:district": "Bengaluru Urban",
        "addr:full": "Jalahalli Post",
        "addr:postcode": "560013",
        "addr:state": "Karnataka",
        "amenity": "hospital",
        "name": "BEL Hospital",
        "name:etymology:wikidata": "Q3630918",
        "name:kn": "ಬೀ ಈ ಎಲ್ ಆಸ್ಪತ್ರೆ",
        "source": "OpenGovernmentData",
        "wheelchair": "limited"
      }
    },
    {
      "type": "way",
      "id": 42407829,
      "center": {
        "lat": 13.0502782,
        "lon": 77.5552088
      },
      "tags": {
        "amenity": "college",
        "name": "BEL PU Composite College and First Grade College",
        "wheelchair": "no"
      }
    },
    {
      "type": "way",
      "id": 42407830,
      "center": {
        "lat": 13.0490487,
        "lon": 77.555062
      },
      "tags": {
        "amenity": "school",
        "name": "BEL High School",
        "name:etymology:wikidata": "Q3630918",
        "name:kn": "ಬೀ ಈ ಎಲ್ ಪ್ರೌಢಶಾಲೆ",
        "wheelchair": "no"
      }
    },
    {
      "type": "way",
      "id": 42407831,
      "center": {
        "lat": 13.0514205,
        "lon": 77.5584032
      },
      "tags": {
        "leisure": "sports_centre",
        "name": "Ambedkar Sports Club",
        "name:etymology:wikidata": "Q231690",
        "sport": "multi"
      }
    },
    {
      "type": "way",
      "id": 42407835,
      "center": {
        "lat": 13.0518553,
        "lon": 77.5552463
      },
      "tags": {
        "leisure": "park"
      }
    },
    {
      "type": "way",
      "id": 42407837,
      "center": {
        "lat": 13.056135,
        "lon": 77.5530783
      },
      "tags": {
        "amenity": "college",
        "landuse": "industrial",
        "name": "Central Research Labarotary",
        "office": "research",
        "short_name": "CRL"
      }
    },
    {
      "type": "way",
      "id": 42407850,
      "center": {
        "lat": 13.0550594,
        "lon": 77.5572982
      },
      "tags": {
        "leisure": "park"
      }
    },
    {
      "type": "way",
      "id": 133020179,
      "center": {
        "lat": 13.0444977,
        "lon": 77.5545298
      },
      "tags": {
        "amenity": "school",
        "name": "BEL CBSE Vidyalaya",
        "wheelchair": "limited"
      }
    },
    {
      "type": "way",
      "id": 133020314,
      "center": {
        "lat": 13.0434541,
        "lon": 77.5510744
      },
      "tags": {
        "amenity": "school",
        "name": "ತಾಯಿ ತೆರೇಸಾ ಶಾಲೆ",
        "wheelchair": "no"
      }
    },
    {
      "type": "way",
      "id": 346459984,
      "center": {
        "lat": 13.0384448,
        "lon": 77.5524873
      },
      "tags": {
        "amenity": "cinema",
        "building": "yes",
        "name": "Swagath Murali Cinema"
      }
    },
    {
      "type": "way",
      "id": 362689532,
      "center": {
        "lat": 13.0514512,
        "lon": 77.5536465
      },
      "tags": {
        "leisure": "park"
      }
    },
    {
      "type": "way",
      "id": 363126115,
      "center": {
        "lat": 13.0437363,
        "lon": 77.5626393
      },
      "tags": {
        "alt_name": "Nalanda",
        "amenity": "college",
        "name": "BEL Academy for Excellence",
        "office": "educational_institution",
        "official_name": "Abhyudaya"
      }
    },
    {
      "type": "way",
      "id": 767320220,
      "center": {
        "lat": 13.0438343,
        "lon": 77.5451856
      },
      "tags": {
        "leisure": "pitch",
        "sport": "basketball"
      }
    },
    {
      "type": "way",
      "id": 767320225,
      "center": {
        "lat": 13.0443834,
        "lon": 77.5454065
      },
      "tags": {
        "amenity": "place_of_worship",
        "name": "St. Thomas Church",
        "name:kn": "ಸೇಂಟ್ ಥೋಮಸ್ ಚರ್ಚ್",
        "religion": "christian"
      }
    },
    {
      "type": "way",
      "id": 767631167,
      "center": {
        "lat": 13.0561661,
        "lon": 77.5552086
      },
      "tags": {
        "leisure": "garden"
      }
    },
    {
      "type": "way",
      "id": 774708672,
      "center": {
        "lat": 13.0405827,
        "lon": 77.5569057
      },
      "tags": {
        "amenity": "place_of_worship",
        "name": "Venkateswara Temple",
        "name:kn": "ವೆಂಕಟೇಶ್ವರ ದೇವಸ್ಥಾನ",
        "religion": "hindu",
        "wheelchair": "no"
      }
    },
    {
      "type": "way",
      "id": 774708673,
      "center": {
        "lat": 13.0409309,
        "lon": 77.5563535
      },
      "tags": {
        "amenity": "community_centre"
      }
    },
    {
      "type": "way",
      "id": 774708680,
      "center": {
        "lat": 13.0477733,
        "lon": 77.5547259
      },
      "tags": {
        "leisure": "garden"
      }
    },
    {
      "type": "way",
      "id": 774708681,
      "center": {
        "lat": 13.0462568,
        "lon": 77.5557062
      },
      "tags": {
        "leisure": "garden"
      }
    },
    {
      "type": "way",
      "id": 774708682,
      "center": {
        "lat": 13.0504359,
        "lon": 77.5516648
      },
      "tags": {
        "amenity": "community_centre",
        "building": "yes",
        "name": "BEL Kalyana Mantapa"
      }
    },
    {
      "type": "way",
      "id": 774708683,
      "center": {
        "lat": 13.0505443,
        "lon": 77.5525439
      },
      "tags": {
        "leisure": "park"
      }
    },
    {
      "type": "way",
      "id": 874066501,
      "center": {
        "lat": 13.0410007,
        "lon": 77.5582603
      },
      "tags": {
        "leisure": "park",
        "name": "Sundaranagar Park",
        "name:kn": "ಸುಂದರನಗರ ಉದ್ಯಾನ",
        "operator": "ಬೃಹತ್ ಬೆಂಗಳೂರು ಮಹಾನಗರ ಪಾಲಿಕೆ",
        "operator:en": "Bruhat Bengaluru Mahanagara Palike",
        "operator:ka": "ಬೃಹತ್ ಬೆಂಗಳೂರು ಮಹಾನಗರ ಪಾಲಿಕೆ",
        "operator:short": "BBMP",
        "operator:type": "government",
        "operator:wikidata": "Q4978693"
      }
    },
    {
      "type": "way",
      "id": 1061098442,
      "center": {
        "lat": 13.0554628,
        "lon": 77.5565863
      },
      "tags": {
        "access": "private",
        "leisure": "swimming_pool",
        "location": "outdoor"
      }
    },
    {
      "type": "way",
      "id": 1061098443,
      "center": {
        "lat": 13.0556639,
        "lon": 77.5565529
      },
      "tags": {
        "access": "private",
        "addr:city": "Bengaluru",
        "addr:postcode": "560013",
        "addr:street": "Near Nagaland Circle",
        "leisure": "swimming_pool",
        "location": "outdoor",
        "name": "BEL Swimming Pool",
        "operator": "BEL"
      }
    },
    {
      "type": "way",
      "id": 1095440449,
      "center": {
        "lat": 13.0513858,
        "lon": 77.5570865
      },
      "tags": {
        "leisure": "park"
      }
    },
    {
      "type": "way",
      "id": 1181411206,
      "center": {
        "lat": 13.048044,
        "lon": 77.5584693
      },
      "tags": {
        "access": "permissive",
        "amenity": "parking",
        "parking": "surface"
      }
    },
    {
      "type": "way",
      "id": 1232959580,
      "center": {
        "lat": 13.0528931,
        "lon": 77.5562621
      },
      "tags": {
        "access": "private",
        "leisure": "pitch",
        "sport": "tennis"
      }
    },
    {
      "type": "way",
      "id": 1232959596,
      "center": {
        "lat": 13.0487565,
        "lon": 77.5630087
      },
      "tags": {
        "leisure": "garden"
      }
    },
    {
      "type": "way",
      "id": 1308403425,
      "center": {
        "lat": 13.0426534,
        "lon": 77.5567946
      },
      "tags": {
        "alt_name": "Sri Laxmi Petrol / Gas Station",
        "amenity": "fuel",
        "brand": "Bharat Petroleum",
        "brand:wikidata": "Q854826",
        "check_date": "2025-08-08",
        "name": "Bharat Petroleum",
        "name:kn": "ಭಾರತ್ ಪೆಟ್ರೋಲಿಯಂ",
        "operator": "Bharat Petroleum",
        "wheelchair": "limited"
      }
    },
    {
      "type": "way",
      "id": 1308403427,
      "center": {
        "lat": 13.0431085,
        "lon": 77.5567444
      },
      "tags": {
        "alt_name": "Mohan Gas Station",
        "amenity": "fuel",
        "brand": "Indian Oil",
        "brand:wikidata": "Q1289348",
        "brand:wikipedia": "en:Indian Oil Corporation",
        "check_date": "2025-08-08",
        "name": "Indian Oil",
        "operator": "Indian Oil",
        "wheelchair": "no"
      }
    },
    {
      "type": "way",
      "id": 1379629462,
      "center": {
        "lat": 13.0545819,
        "lon": 77.5567245
      },
      "tags": {
        "access": "private",
        "amenity": "parking",
        "parking": "surface"
      }
    },
    {
      "type": "way",
      "id": 1379629474,
      "center": {
        "lat": 13.0449016,
        "lon": 77.5608117
      },
      "tags": {
        "access": "permissive",
        "amenity": "parking",
        "parking": "surface"
      }
    }
  ]
}