{
  "area_name": "Belathur",
  "osm_id": 19883264,
  "osm_type": "relation",
  "place_type": "administrative",
  "amenity_count": 163,
  "amenities": [
    {
      "type": "node",
      "id": 1497217077,
      "lat": 12.995384,
      "lon": 77.7574684,
      "tags": {
        "amenity": "police",
        "name": "Kadugodi Police Station",
        "name:kn": "ಕಾಡುಗೋಡಿ ಆರಕ್ಷಕ ಟಾಣೆ"
      }
    },
    {
      "type": "node",
      "id": 2474969412,
      "lat": 13.0053531,
      "lon": 77.7550286,
      "tags": {
        "amenity": "school"
      }
    },
    {
      "type": "node",
      "id": 3592522250,
      "lat": 13.0031746,
      "lon": 77.757283,
      "tags": {
        "amenity": "atm",
        "operator": "State Bank of India"
      }
    },
    {
      "type": "node",
      "id": 4278444396,
      "lat": 13.0058128,
      "lon": 77.7567846,
      "tags": {
        "addr:street": "Kadugodi Main Road",
        "amenity": "restaurant",
        "name": "Aiswarya Malayali Hotel"
      }
    },
    {
      "type": "node",
      "id": 4278474191,
      "lat": 13.0043776,
      "lon": 77.7570407,
      "tags": {
        "name": "Mayura",
        "name:kn": "ಮಯೂರ",
        "shop": "bakery"
      }
    },
    {
      "type": "node",
      "id": 4445137095,
      "lat": 13.0073839,
      "lon": 77.7579441,
      "tags": {
        "addr:city": "Belthur",
        "addr:postcode": "560037",
        "addr:street": "Near Sai Baba Ashram, Kadugodi,",
        "amenity": "restaurant",
        "cuisine": "regional",
        "delivery": "yes",
        "name": "Delhi Mahal Restaurant",
        "opening_hours": "11:00-16:00, 19:00-23:00",
        "phone": "+91 99008 03433",
        "smoking": "no",
        "takeaway": "yes",
        "website": "https://www.delhirestaurant.com/"
      }
    },
    {
      "type": "node",
      "id": 4445163720,
      "lat": 12.9977711,
      "lon": 77.7548105,
      "tags": {
        "addr:city": "Bangalore",
        "addr:housenumber": "817/744",
        "addr:postcode": "560067,",
        "addr:street": "Kk White Castle Apartment, Vijaya Lakshmi Colony, Kumbena Agaraha Main Rd, Kadugodi",
        "amenity": "hospital",
        "name": "Sky Diagnostic Centre kumbena agrahara",
        "phone": "08033051529"
      }
    },
    {
      "type": "node",
      "id": 4446887432,
      "lat": 12.9992982,
      "lon": 77.7575636,
      "tags": {
        "addr:city": "bangalore",
        "addr:housenumber": "34/1 B",
        "addr:postcode": "560067",
        "addr:street": "First Floor Above Dominos Pizza Opposite Sai Baba Ashram Kadugodi, Kadugodi",
        "amenity": "hospital",
        "name": "Tele Rad RX DX Health care Pvt Ltd",
        "phone": "080 4926 1111",
        "website": "https://rxdx.in/"
      }
    },
    {
      "type": "node",
      "id": 4446938197,
      "lat": 12.9967611,
      "lon": 77.7591252,
      "tags": {
        "addr:city": "Bangalore",
        "addr:postcode": "560067",
        "addr:street": "Opposite Whitefield Railway Station, Kadugodi",
        "amenity": "hospital",
        "emergency": "yes",
        "name": "New Life Hospital bangalore",
        "phone": "080 4954 0540",
        "source": "http://www.justdial.com/Bangalore/",
        "website": "https://newlifehospital.in/"
      }
    },
    {
      "type": "node",
      "id": 4448098655,
      "lat": 13.0082033,
      "lon": 77.7572551,
      "tags": {
        "addr:city": "Bangalore",
        "addr:postcode": "560067",
        "addr:street": "Apple City, Chaitanya Ananya, Shigehalli, Krishnarajapuram",
        "amenity": "clinic",
        "name": "Nationwide Kadugodi Clinic",
        "phone": "+9181057 11126",
        "website": "nationwidedocs.org"
      }
    },
    {
      "type": "node",
      "id": 4489331989,
      "lat": 13.0069903,
      "lon": 77.7543365,
      "tags": {
        "addr:city": "bangalore",
        "addr:housenumber": "#1",
        "addr:postcode": "560067",
        "addr:street": "Sai Sannidhi Layout, Belthur 2nd Cross, Kadugodi, Belatur, Krishnarajapuram",
        "leisure": "sports_centre",
        "name": "R Sports",
        "opening_hours": "09:00-22:00",
        "phone": "+919343934954",
        "sport": "soccer"
      }
    },
    {
      "type": "node",
      "id": 5423028221,
      "lat": 13.0028637,
      "lon": 77.7569157,
      "tags": {
        "amenity": "hospital",
        "name": "Telerad RXDX Kadugodi"
      }
    },
    {
      "type": "node",
      "id": 10307990282,
      "lat": 13.0060923,
      "lon": 77.756807,
      "tags": {
        "brand": "Reliance Digital",
        "brand:wikidata": "Q7311012",
        "name": "Reliance Digital",
        "shop": "electronics"
      }
    },
    {
      "type": "node",
      "id": 11007058414,
      "lat": 12.9995492,
      "lon": 77.7571949,
      "tags": {
        "access": "private",
        "amenity": "parking_entrance",
        "parking": "underground"
      }
    },
    {
      "type": "node",
      "id": 11164983505,
      "lat": 13.0060174,
      "lon": 77.7516859,
      "tags": {
        "addr:postcode": "560067",
        "addr:street": "Belathur Main Road",
        "name": "Liquor Galaxy",
        "name:hi": "शराब गैलेक्सी",
        "name:mr": "अल्कोहोल गॅलेक्सी",
        "opening_hours": "Mo-Su 09:00-22:00",
        "shop": "alcohol"
      }
    },
    {
      "type": "node",
      "id": 12135160549,
      "lat": 12.9957425,
      "lon": 77.7578469,
      "tags": {
        "access": "customers",
        "amenity": "drinking_water",
        "indoor": "yes",
        "level": "1",
        "operator": "BMRCL"
      }
    },
    {
      "type": "node",
      "id": 12135160550,
      "lat": 12.9954341,
      "lon": 77.7577583,
      "tags": {
        "access": "customers",
        "amenity": "toilets",
        "fee": "no",
        "level": "1",
        "male": "yes",
        "operator": "BMRCL"
      }
    },
    {
      "type": "node",
      "id": 12135160551,
      "lat": 12.9958157,
      "lon": 77.757871,
      "tags": {
        "access": "customers",
        "amenity": "toilets",
        "fee": "no",
        "female": "yes",
        "level": "1",
        "operator": "BMRCL"
      }
    },
    {
      "type": "node",
      "id": 12135160553,
      "lat": 12.995834,
      "lon": 77.7576041,
      "tags": {
        "amenity": "veterinary",
        "name": "Veterinary Dispensary"
      }
    },
    {
      "type": "node",
      "id": 12231652223,
      "lat": 12.9860865,
      "lon": 77.746705,
      "tags": {
        "amenity": "bench",
        "armrest": "no",
        "backrest": "no",
        "material": "stone"
      }
    },
    {
      "type": "node",
      "id": 12231652224,
      "lat": 12.9860932,
      "lon": 77.7466835,
      "tags": {
        "amenity": "waste_basket"
      }
    },
    {
      "type": "node",
      "id": 12232459990,
      "lat": 12.9859601,
      "lon": 77.7466685,
      "tags": {
        "amenity": "motorcycle_parking",
        "covered": "yes",
        "fee": "yes"
      }
    },
    {
      "type": "node",
      "id": 12232459994,
      "lat": 12.986719,
      "lon": 77.7447523,
      "tags": {
        "shop": "ticket"
      }
    },
    {
      "type": "node",
      "id": 12260570017,
      "lat": 12.9928925,
      "lon": 77.7530873,
      "tags": {
        "amenity": "restaurant",
        "cuisine": "seafood",
        "name": "Seven Seas Seafood Restaurant",
        "website": "https://sevenseasfood.in/"
      }
    },
    {
      "type": "node",
      "id": 12300985823,
      "lat": 12.9867471,
      "lon": 77.7447863,
      "tags": {
        "amenity": "waste_basket"
      }
    },
    {
      "type": "node",
      "id": 12300985824,
      "lat": 12.9871038,
      "lon": 77.7450101,
      "tags": {
        "amenity": "bench",
        "armrest": "no",
        "backrest": "yes",
        "material": "stone"
      }
    },
    {
      "type": "node",
      "id": 12300985825,
      "lat": 12.9874219,
      "lon": 77.7448373,
      "tags": {
        "amenity": "waste_basket"
      }
    },
    {
      "type": "node",
      "id": 12300985826,
      "lat": 12.9874324,
      "lon": 77.7449245,
      "tags": {
        "amenity": "bench",
        "armrest": "no",
        "backrest": "no",
        "material": "stone"
      }
    },
    {
      "type": "node",
      "id": 12301096033,
      "lat": 12.9877243,
      "lon": 77.7458948,
      "tags": {
        "amenity": "bench",
        "armrest": "no",
        "backrest": "yes",
        "material": "stone"
      }
    },
    {
      "type": "node",
      "id": 12301096034,
      "lat": 12.9879645,
      "lon": 77.7450803,
      "tags": {
        "amenity": "bench",
        "armrest": "no",
        "backrest": "no",
        "material": "stone"
      }
    },
    {
      "type": "node",
      "id": 12301096035,
      "lat": 12.9882532,
      "lon": 77.744915,
      "tags": {
        "amenity": "waste_basket"
      }
    },
    {
      "type": "node",
      "id": 12301096036,
      "lat": 12.9883661,
      "lon": 77.7449096,
      "tags": {
        "amenity": "bench",
        "armrest": "no",
        "backrest": "no",
        "material": "stone"
      }
    },
    {
      "type": "node",
      "id": 12301096037,
      "lat": 12.9885482,
      "lon": 77.7453686,
      "tags": {
        "amenity": "bench",
        "armrest": "no",
        "backrest": "yes",
        "material": "stone"
      }
    },
    {
      "type": "node",
      "id": 12301096038,
      "lat": 12.9885235,
      "lon": 77.7454179,
      "tags": {
        "amenity": "waste_basket"
      }
    },
    {
      "type": "node",
      "id": 12301096039,
      "lat": 12.9885274,
      "lon": 77.7455383,
      "tags": {
        "amenity": "bench",
        "armrest": "no",
        "backrest": "no",
        "material": "stone"
      }
    },
    {
      "type": "node",
      "id": 12301096040,
      "lat": 12.9885833,
      "lon": 77.7457059,
      "tags": {
        "amenity": "bench",
        "armrest": "no",
        "backrest": "no",
        "material": "stone"
      }
    },
    {
      "type": "node",
      "id": 12301096041,
      "lat": 12.988571,
      "lon": 77.7457396,
      "tags": {
        "amenity": "waste_basket"
      }
    },
    {
      "type": "node",
      "id": 12301096042,
      "lat": 12.9885751,
      "lon": 77.7459579,
      "tags": {
        "amenity": "bench",
        "armrest": "no",
        "backrest": "yes",
        "material": "stone"
      }
    },
    {
      "type": "node",
      "id": 12301096043,
      "lat": 12.988559,
      "lon": 77.7463712,
      "tags": {
        "amenity": "waste_basket"
      }
    },
    {
      "type": "node",
      "id": 12301096044,
      "lat": 12.9885594,
      "lon": 77.7464282,
      "tags": {
        "amenity": "bench",
        "armrest": "no",
        "backrest": "no",
        "material": "stone"
      }
    },
    {
      "type": "node",
      "id": 12301096045,
      "lat": 12.988558,
      "lon": 77.7464638,
      "tags": {
        "amenity": "bench",
        "armrest": "no",
        "backrest": "yes",
        "material": "stone"
      }
    },
    {
      "type": "node",
      "id": 12301096046,
      "lat": 12.988326,
      "lon": 77.7463677,
      "tags": {
        "amenity": "waste_basket"
      }
    },
    {
      "type": "node",
      "id": 12301096047,
      "lat": 12.9882632,
      "lon": 77.7463606,
      "tags": {
        "amenity": "bench",
        "armrest": "no",
        "backrest": "yes",
        "material": "stone"
      }
    },
    {
      "type": "node",
      "id": 12301096048,
      "lat": 12.9880925,
      "lon": 77.7463754,
      "tags": {
        "amenity": "bench",
        "armrest": "no",
        "backrest": "yes",
        "material": "stone"
      }
    },
    {
      "type": "node",
      "id": 12301096049,
      "lat": 12.9876486,
      "lon": 77.7462077,
      "tags": {
        "amenity": "bench",
        "armrest": "no",
        "backrest": "yes",
        "material": "stone"
      }
    },
    {
      "type": "node",
      "id": 12301096050,
      "lat": 12.9875473,
      "lon": 77.7461837,
      "tags": {
        "amenity": "bench",
        "armrest": "no",
        "backrest": "yes",
        "material": "stone"
      }
    },
    {
      "type": "node",
      "id": 12301096051,
      "lat": 12.9874587,
      "lon": 77.7461581,
      "tags": {
        "amenity": "bench",
        "armrest": "no",
        "backrest": "yes",
        "material": "stone"
      }
    },
    {
      "type": "node",
      "id": 12301096052,
      "lat": 12.9873577,
      "lon": 77.7461332,
      "tags": {
        "amenity": "bench",
        "armrest": "no",
        "backrest": "yes",
        "material": "stone"
      }
    },
    {
      "type": "node",
      "id": 12301096053,
      "lat": 12.9876547,
      "lon": 77.7461854,
      "tags": {
        "amenity": "waste_basket"
      }
    },
    {
      "type": "node",
      "id": 12301096054,
      "lat": 12.9875385,
      "lon": 77.7461558,
      "tags": {
        "amenity": "waste_basket"
      }
    },
    {
      "type": "node",
      "id": 12301096055,
      "lat": 12.9877054,
      "lon": 77.7459603,
      "tags": {
        "amenity": "waste_basket"
      }
    },
    {
      "type": "node",
      "id": 12301096056,
      "lat": 12.9876183,
      "lon": 77.745951,
      "tags": {
        "amenity": "waste_basket"
      }
    },
    {
      "type": "node",
      "id": 12301096057,
      "lat": 12.9876016,
      "lon": 77.7459201,
      "tags": {
        "amenity": "bench",
        "armrest": "no",
        "backrest": "yes",
        "material": "stone"
      }
    },
    {
      "type": "node",
      "id": 12301096058,
      "lat": 12.9876561,
      "lon": 77.7459328,
      "tags": {
        "amenity": "bench",
        "armrest": "no",
        "backrest": "yes",
        "material": "stone"
      }
    },
    {
      "type": "node",
      "id": 12301096059,
      "lat": 12.9877124,
      "lon": 77.7459408,
      "tags": {
        "amenity": "bench",
        "armrest": "no",
        "backrest": "yes",
        "material": "stone"
      }
    },
    {
      "type": "node",
      "id": 12301096060,
      "lat": 12.9876186,
      "lon": 77.7458663,
      "tags": {
        "amenity": "bench",
        "armrest": "no",
        "backrest": "yes",
        "material": "stone"
      }
    },
    {
      "type": "node",
      "id": 12301096061,
      "lat": 12.9876707,
      "lon": 77.7458825,
      "tags": {
        "amenity": "bench",
        "armrest": "no",
        "backrest": "yes",
        "material": "stone"
      }
    },
    {
      "type": "node",
      "id": 12301096062,
      "lat": 12.9879768,
      "lon": 77.7449957,
      "tags": {
        "amenity": "waste_basket"
      }
    },
    {
      "type": "node",
      "id": 12301096063,
      "lat": 12.9876021,
      "lon": 77.7458739,
      "tags": {
        "amenity": "waste_basket"
      }
    },
    {
      "type": "node",
      "id": 12301096064,
      "lat": 12.9875813,
      "lon": 77.7458518,
      "tags": {
        "amenity": "bench",
        "armrest": "no",
        "backrest": "yes",
        "material": "stone"
      }
    },
    {
      "type": "node",
      "id": 12301096065,
      "lat": 12.9875139,
      "lon": 77.7458323,
      "tags": {
        "amenity": "bench",
        "armrest": "no",
        "backrest": "yes",
        "material": "stone"
      }
    },
    {
      "type": "node",
      "id": 12301096066,
      "lat": 12.9874408,
      "lon": 77.7458162,
      "tags": {
        "amenity": "bench",
        "armrest": "no",
        "backrest": "yes",
        "material": "stone"
      }
    },
    {
      "type": "node",
      "id": 12301096067,
      "lat": 12.9874316,
      "lon": 77.7458309,
      "tags": {
        "amenity": "waste_basket"
      }
    },
    {
      "type": "node",
      "id": 12301096068,
      "lat": 12.9874129,
      "lon": 77.7458757,
      "tags": {
        "amenity": "bench",
        "armrest": "no",
        "backrest": "yes",
        "material": "stone"
      }
    },
    {
      "type": "node",
      "id": 12301096069,
      "lat": 12.9873074,
      "lon": 77.7458452,
      "tags": {
        "amenity": "bench",
        "armrest": "no",
        "backrest": "yes",
        "material": "stone"
      }
    },
    {
      "type": "node",
      "id": 12301096070,
      "lat": 12.9873417,
      "lon": 77.7459358,
      "tags": {
        "amenity": "bench",
        "armrest": "no",
        "backrest": "yes",
        "material": "stone"
      }
    },
    {
      "type": "node",
      "id": 12301096071,
      "lat": 12.9873605,
      "lon": 77.7461039,
      "tags": {
        "amenity": "waste_basket"
      }
    },
    {
      "type": "node",
      "id": 12301096072,
      "lat": 12.9878049,
      "lon": 77.7455693,
      "tags": {
        "amenity": "waste_basket"
      }
    },
    {
      "type": "node",
      "id": 12301096073,
      "lat": 12.9878562,
      "lon": 77.7455745,
      "tags": {
        "amenity": "bench",
        "armrest": "no",
        "backrest": "no",
        "material": "stone"
      }
    },
    {
      "type": "node",
      "id": 12301096074,
      "lat": 12.987695,
      "lon": 77.746423,
      "tags": {
        "amenity": "bench",
        "armrest": "no",
        "backrest": "yes",
        "material": "stone"
      }
    },
    {
      "type": "node",
      "id": 12301096075,
      "lat": 12.9876224,
      "lon": 77.7467761,
      "tags": {
        "amenity": "waste_basket"
      }
    },
    {
      "type": "node",
      "id": 12301096076,
      "lat": 12.9876073,
      "lon": 77.7468515,
      "tags": {
        "amenity": "bench",
        "armrest": "no",
        "backrest": "yes",
        "material": "stone"
      }
    },
    {
      "type": "node",
      "id": 12301096077,
      "lat": 12.9875238,
      "lon": 77.7469566,
      "tags": {
        "amenity": "waste_basket"
      }
    },
    {
      "type": "node",
      "id": 12301096078,
      "lat": 12.9875212,
      "lon": 77.7469942,
      "tags": {
        "amenity": "bench",
        "armrest": "no",
        "backrest": "no",
        "material": "stone"
      }
    },
    {
      "type": "node",
      "id": 12301096079,
      "lat": 12.9874403,
      "lon": 77.7477225,
      "tags": {
        "amenity": "bench",
        "armrest": "no",
        "backrest": "no",
        "material": "stone"
      }
    },
    {
      "type": "node",
      "id": 12301096080,
      "lat": 12.9874594,
      "lon": 77.7477234,
      "tags": {
        "amenity": "waste_basket"
      }
    },
    {
      "type": "node",
      "id": 12301096081,
      "lat": 12.987798,
      "lon": 77.7477915,
      "tags": {
        "amenity": "bench",
        "armrest": "no",
        "backrest": "yes",
        "material": "stone"
      }
    },
    {
      "type": "node",
      "id": 12301096082,
      "lat": 12.987826,
      "lon": 77.7477949,
      "tags": {
        "amenity": "waste_basket"
      }
    },
    {
      "type": "node",
      "id": 12301096083,
      "lat": 12.9884795,
      "lon": 77.7478656,
      "tags": {
        "amenity": "waste_basket"
      }
    },
    {
      "type": "node",
      "id": 12301096084,
      "lat": 12.9884957,
      "lon": 77.7478041,
      "tags": {
        "amenity": "bench",
        "armrest": "no",
        "backrest": "no",
        "material": "stone"
      }
    },
    {
      "type": "node",
      "id": 12301096085,
      "lat": 12.9884558,
      "lon": 77.7477927,
      "tags": {
        "amenity": "bench",
        "armrest": "no",
        "backrest": "yes",
        "material": "stone"
      }
    },
    {
      "type": "node",
      "id": 12301096086,
      "lat": 12.988462,
      "lon": 77.7471886,
      "tags": {
        "amenity": "bench",
        "armrest": "no",
        "backrest": "no",
        "material": "stone"
      }
    },
    {
      "type": "node",
      "id": 12301096087,
      "lat": 12.9885343,
      "lon": 77.7468388,
      "tags": {
        "amenity": "waste_basket"
      }
    },
    {
      "type": "node",
      "id": 12301096088,
      "lat": 12.9884615,
      "lon": 77.7468597,
      "tags": {
        "amenity": "bench",
        "armrest": "no",
        "backrest": "yes",
        "material": "stone"
      }
    },
    {
      "type": "node",
      "id": 12301096089,
      "lat": 12.9869294,
      "lon": 77.7459713,
      "tags": {
        "amenity": "bench",
        "armrest": "no",
        "backrest": "yes",
        "material": "stone"
      }
    },
    {
      "type": "node",
      "id": 12301096090,
      "lat": 12.9867857,
      "lon": 77.7445116,
      "tags": {
        "amenity": "bench",
        "armrest": "no",
        "backrest": "no",
        "material": "stone"
      }
    },
    {
      "type": "node",
      "id": 12301096091,
      "lat": 12.9869466,
      "lon": 77.7459164,
      "tags": {
        "amenity": "bench",
        "armrest": "no",
        "backrest": "yes",
        "material": "stone"
      }
    },
    {
      "type": "node",
      "id": 12301096092,
      "lat": 12.9867646,
      "lon": 77.7460101,
      "tags": {
        "amenity": "waste_basket"
      }
    },
    {
      "type": "node",
      "id": 12301096093,
      "lat": 12.9869318,
      "lon": 77.745696,
      "tags": {
        "amenity": "waste_basket"
      }
    },
    {
      "type": "node",
      "id": 12301096094,
      "lat": 12.9869252,
      "lon": 77.7456421,
      "tags": {
        "amenity": "bench",
        "armrest": "no",
        "backrest": "yes",
        "material": "stone"
      }
    },
    {
      "type": "node",
      "id": 12301096095,
      "lat": 12.9869271,
      "lon": 77.7453762,
      "tags": {
        "amenity": "waste_basket"
      }
    },
    {
      "type": "node",
      "id": 12301096096,
      "lat": 12.986938,
      "lon": 77.745337,
      "tags": {
        "amenity": "bench",
        "armrest": "no",
        "backrest": "no",
        "material": "stone"
      }
    },
    {
      "type": "node",
      "id": 12301096097,
      "lat": 12.9865888,
      "lon": 77.7459078,
      "tags": {
        "amenity": "bench",
        "armrest": "no",
        "backrest": "yes",
        "material": "stone"
      }
    },
    {
      "type": "node",
      "id": 12301096098,
      "lat": 12.986421,
      "lon": 77.7458657,
      "tags": {
        "amenity": "bench",
        "armrest": "no",
        "backrest": "yes",
        "material": "stone"
      }
    },
    {
      "type": "node",
      "id": 12301096099,
      "lat": 12.986314,
      "lon": 77.7458263,
      "tags": {
        "amenity": "waste_basket"
      }
    },
    {
      "type": "node",
      "id": 12301096100,
      "lat": 12.9862959,
      "lon": 77.7458618,
      "tags": {
        "amenity": "bench",
        "armrest": "no",
        "backrest": "no",
        "material": "stone"
      }
    },
    {
      "type": "node",
      "id": 12301097801,
      "lat": 12.9859088,
      "lon": 77.7473989,
      "tags": {
        "amenity": "bench",
        "armrest": "no",
        "backrest": "no",
        "material": "stone"
      }
    },
    {
      "type": "node",
      "id": 12301097802,
      "lat": 12.9858849,
      "lon": 77.7474368,
      "tags": {
        "amenity": "waste_basket"
      }
    },
    {
      "type": "node",
      "id": 12301097803,
      "lat": 12.9862681,
      "lon": 77.7474595,
      "tags": {
        "amenity": "bench",
        "armrest": "no",
        "backrest": "yes",
        "material": "stone"
      }
    },
    {
      "type": "node",
      "id": 12301097804,
      "lat": 12.9863171,
      "lon": 77.7474767,
      "tags": {
        "amenity": "waste_basket"
      }
    },
    {
      "type": "node",
      "id": 12301097805,
      "lat": 12.9864289,
      "lon": 77.7475378,
      "tags": {
        "amenity": "bench",
        "armrest": "no",
        "backrest": "no",
        "material": "stone"
      }
    },
    {
      "type": "node",
      "id": 12301097806,
      "lat": 12.9864448,
      "lon": 77.7475372,
      "tags": {
        "amenity": "waste_basket"
      }
    },
    {
      "type": "node",
      "id": 12301097807,
      "lat": 12.9869524,
      "lon": 77.7476353,
      "tags": {
        "amenity": "waste_basket"
      }
    },
    {
      "type": "node",
      "id": 12301097808,
      "lat": 12.9869609,
      "lon": 77.7476,
      "tags": {
        "amenity": "bench",
        "armrest": "no",
        "backrest": "yes",
        "material": "stone"
      }
    },
    {
      "type": "node",
      "id": 12301097809,
      "lat": 12.9865904,
      "lon": 77.7467969,
      "tags": {
        "amenity": "bench",
        "armrest": "no",
        "backrest": "no",
        "material": "stone"
      }
    },
    {
      "type": "node",
      "id": 12301097810,
      "lat": 12.9867436,
      "lon": 77.7464698,
      "tags": {
        "amenity": "bench",
        "armrest": "no",
        "backrest": "yes",
        "material": "stone"
      }
    },
    {
      "type": "node",
      "id": 12301097811,
      "lat": 12.9867193,
      "lon": 77.7465407,
      "tags": {
        "amenity": "waste_basket"
      }
    },
    {
      "type": "node",
      "id": 12301097812,
      "lat": 12.9865297,
      "lon": 77.7453233,
      "tags": {
        "amenity": "waste_basket"
      }
    },
    {
      "type": "node",
      "id": 12301097813,
      "lat": 12.9865073,
      "lon": 77.7451468,
      "tags": {
        "amenity": "bench",
        "armrest": "no",
        "backrest": "yes",
        "material": "stone"
      }
    },
    {
      "type": "node",
      "id": 12301097814,
      "lat": 12.9866343,
      "lon": 77.7448091,
      "tags": {
        "amenity": "waste_basket"
      }
    },
    {
      "type": "node",
      "id": 12301097815,
      "lat": 12.9866652,
      "lon": 77.7447366,
      "tags": {
        "amenity": "waste_basket"
      }
    },
    {
      "type": "node",
      "id": 12301097816,
      "lat": 12.986707,
      "lon": 77.7446607,
      "tags": {
        "amenity": "waste_basket"
      }
    },
    {
      "type": "node",
      "id": 12301097817,
      "lat": 12.9866784,
      "lon": 77.7446635,
      "tags": {
        "amenity": "bench",
        "armrest": "no",
        "backrest": "no",
        "material": "stone"
      }
    },
    {
      "type": "node",
      "id": 12301097818,
      "lat": 12.9866999,
      "lon": 77.7447389,
      "tags": {
        "amenity": "bench",
        "armrest": "no",
        "backrest": "no",
        "material": "stone"
      }
    },
    {
      "type": "node",
      "id": 12301097819,
      "lat": 12.9867714,
      "lon": 77.7447144,
      "tags": {
        "amenity": "bench",
        "armrest": "no",
        "backrest": "no",
        "material": "stone"
      }
    },
    {
      "type": "node",
      "id": 12301097820,
      "lat": 12.9868952,
      "lon": 77.7459285,
      "tags": {
        "amenity": "bench",
        "armrest": "no",
        "backrest": "yes",
        "material": "stone"
      }
    },
    {
      "type": "node",
      "id": 12852810064,
      "lat": 12.9868453,
      "lon": 77.7440031,
      "tags": {
        "amenity": "toilets",
        "check_date": "2025-07-23"
      }
    },
    {
      "type": "node",
      "id": 13041059062,
      "lat": 12.9969301,
      "lon": 77.7224123,
      "tags": {
        "amenity": "parking_entrance"
      }
    },
    {
      "type": "node",
      "id": 13070773910,
      "lat": 13.0020286,
      "lon": 77.7395417,
      "tags": {
        "amenity": "school",
        "name": "Gopalpur Primary School"
      }
    },
    {
      "type": "node",
      "id": 13112309201,
      "lat": 12.9886572,
      "lon": 77.7388377,
      "tags": {
        "shop": "agrarian"
      }
    },
    {
      "type": "node",
      "id": 13161427733,
      "lat": 13.0003789,
      "lon": 77.756831,
      "tags": {
        "access": "private",
        "amenity": "parking_entrance",
        "parking": "underground"
      }
    },
    {
      "type": "node",
      "id": 13161427740,
      "lat": 13.0012289,
      "lon": 77.7566908,
      "tags": {
        "access": "private",
        "amenity": "parking_entrance",
        "parking": "underground"
      }
    },
    {
      "type": "node",
      "id": 13161427764,
      "lat": 12.9997974,
      "lon": 77.7566747,
      "tags": {
        "access": "private",
        "amenity": "parking_entrance",
        "parking": "underground"
      }
    },
    {
      "type": "way",
      "id": 130645776,
      "center": {
        "lat": 12.9983305,
        "lon": 77.758957
      },
      "tags": {
        "amenity": "place_of_worship",
        "landuse": "religious",
        "name": "Brindavan Ashram",
        "name:kn": "ಬೃಂದಾವನ ಆಶ್ರಮ",
        "religion": "hindu"
      }
    },
    {
      "type": "way",
      "id": 130645780,
      "center": {
        "lat": 13.0012666,
        "lon": 77.7595963
      },
      "tags": {
        "amenity": "college",
        "name": "Sri Sathya Sai Institute of Higher Learning"
      }
    },
    {
      "type": "way",
      "id": 136492654,
      "center": {
        "lat": 12.9942469,
        "lon": 77.7571802
      },
      "tags": {
        "amenity": "police",
        "building": "yes",
        "name": "Whitefield Traffic Police Station",
        "name:kn": "ಸಂಚಾರ ಪೊಲೀಸ್ ಠಾಣೆ"
      }
    },
    {
      "type": "way",
      "id": 239572655,
      "center": {
        "lat": 12.9984828,
        "lon": 77.7531194
      },
      "tags": {
        "addr:street": "Junior College Road, Kadugodi Industrial Area",
        "amenity": "college",
        "name": "Government High School & Junior College,Belatur Colony"
      }
    },
    {
      "type": "way",
      "id": 627968106,
      "center": {
        "lat": 13.0000438,
        "lon": 77.7571576
      },
      "tags": {
        "leisure": "park"
      }
    },
    {
      "type": "way",
      "id": 627968107,
      "center": {
        "lat": 12.9996569,
        "lon": 77.7575522
      },
      "tags": {
        "leisure": "park"
      }
    },
    {
      "type": "way",
      "id": 627968108,
      "center": {
        "lat": 13.0011035,
        "lon": 77.7569673
      },
      "tags": {
        "access": "private",
        "leisure": "pitch",
        "sport": "tennis"
      }
    },
    {
      "type": "way",
      "id": 627968110,
      "center": {
        "lat": 12.9996968,
        "lon": 77.7561376
      },
      "tags": {
        "leisure": "swimming_pool"
      }
    },
    {
      "type": "way",
      "id": 1156196453,
      "center": {
        "lat": 12.9872159,
        "lon": 77.7460902
      },
      "tags": {
        "fee": "yes",
        "landuse": "forest",
        "leisure": "park",
        "name": "Kadugodi Reserved Forest",
        "name:kn": "ಕಾಡುಗೋಡಿ ಟ್ರೀ ಪಾರ್ಕ್",
        "opening_hours": "Mo-Su 06:00-21:00",
        "toilets:wheelchair": "yes",
        "wheelchair": "limited"
      }
    },
    {
      "type": "way",
      "id": 1156196459,
      "center": {
        "lat": 12.9874401,
        "lon": 77.7459692
      },
      "tags": {
        "access": "yes",
        "leisure": "playground"
      }
    },
    {
      "type": "way",
      "id": 1157456784,
      "center": {
        "lat": 12.987627,
        "lon": 77.7460223
      },
      "tags": {
        "leisure": "fitness_station",
        "sport": "fitness"
      }
    },
    {
      "type": "way",
      "id": 1157456785,
      "center": {
        "lat": 12.9869842,
        "lon": 77.7459111
      },
      "tags": {
        "amenity": "shelter",
        "shelter_type": "gazebo"
      }
    },
    {
      "type": "way",
      "id": 1157456787,
      "center": {
        "lat": 12.9868163,
        "lon": 77.7439845
      },
      "tags": {
        "access": "yes",
        "amenity": "parking",
        "fee": "yes",
        "parking": "surface"
      }
    },
    {
      "type": "way",
      "id": 1251508640,
      "center": {
        "lat": 13.0015888,
        "lon": 77.7440443
      },
      "tags": {
        "amenity": "school"
      }
    },
    {
      "type": "way",
      "id": 1272642962,
      "center": {
        "lat": 12.9996507,
        "lon": 77.7265702
      },
      "tags": {
        "access": "private",
        "leisure": "swimming_pool",
        "location": "outdoor"
      }
    },
    {
      "type": "way",
      "id": 1272642965,
      "center": {
        "lat": 12.9996139,
        "lon": 77.7240666
      },
      "tags": {
        "access": "private",
        "leisure": "swimming_pool",
        "location": "outdoor"
      }
    },
    {
      "type": "way",
      "id": 1272642978,
      "center": {
        "lat": 12.9966088,
        "lon": 77.7213042
      },
      "tags": {
        "access": "private",
        "leisure": "swimming_pool",
        "location": "outdoor"
      }
    },
    {
      "type": "way",
      "id": 1272642982,
      "center": {
        "lat": 12.9964684,
        "lon": 77.7207048
      },
      "tags": {
        "leisure": "pitch",
        "sport": "tennis"
      }
    },
    {
      "type": "way",
      "id": 1273983470,
      "center": {
        "lat": 12.9917468,
        "lon": 77.7461605
      },
      "tags": {
        "access": "private",
        "amenity": "parking",
        "parking": "surface"
      }
    },
    {
      "type": "way",
      "id": 1280086942,
      "center": {
        "lat": 13.0024651,
        "lon": 77.7487656
      },
      "tags": {
        "amenity": "school",
        "name": "National Public School Whitefield",
        "name:kn": "ರಾಷ್ಟ್ರೀಯ ಸಾರ್ವಜನಿಕ ಶಾಲೆ ವೈಟ್ಫೀಲ್ಡ್"
      }
    },
    {
      "type": "way",
      "id": 1280086971,
      "center": {
        "lat": 13.0008487,
        "lon": 77.7393872
      },
      "tags": {
        "access": "customers",
        "leisure": "sports_centre",
        "name": "Murugan Academy of Tennis",
        "sport": "tennis"
      }
    },
    {
      "type": "way",
      "id": 1280086980,
      "center": {
        "lat": 13.0029618,
        "lon": 77.7427018
      },
      "tags": {
        "leisure": "sports_centre",
        "name": "Zee Swimming Academy"
      }
    },
    {
      "type": "way",
      "id": 1280086981,
      "center": {
        "lat": 13.0027824,
        "lon": 77.7424195
      },
      "tags": {
        "amenity": "school",
        "name": "Mount Litera Zee School"
      }
    },
    {
      "type": "way",
      "id": 1280086982,
      "center": {
        "lat": 13.0030066,
        "lon": 77.7423028
      },
      "tags": {
        "leisure": "pitch",
        "sport": "tennis"
      }
    },
    {
      "type": "way",
      "id": 1280086983,
      "center": {
        "lat": 13.0030408,
        "lon": 77.7421258
      },
      "tags": {
        "leisure": "pitch",
        "sport": "basketball"
      }
    },
    {
      "type": "way",
      "id": 1280086984,
      "center": {
        "lat": 13.0029862,
        "lon": 77.7427038
      },
      "tags": {
        "access": "private",
        "leisure": "swimming_pool"
      }
    },
    {
      "type": "way",
      "id": 1280087015,
      "center": {
        "lat": 13.0017514,
        "lon": 77.7447624
      },
      "tags": {
        "access": "private",
        "leisure": "swimming_pool"
      }
    },
    {
      "type": "way",
      "id": 1286464113,
      "center": {
        "lat": 13.0019416,
        "lon": 77.7490471
      },
      "tags": {
        "leisure": "pitch",
        "sport": "basketball"
      }
    },
    {
      "type": "way",
      "id": 1306213262,
      "center": {
        "lat": 12.9933131,
        "lon": 77.7572503
      },
      "tags": {
        "access": "no",
        "garden:type": "landscaping",
        "leisure": "garden"
      }
    },
    {
      "type": "way",
      "id": 1310982672,
      "center": {
        "lat": 12.9979601,
        "lon": 77.7549005
      },
      "tags": {
        "amenity": "school"
      }
    },
    {
      "type": "way",
      "id": 1347717510,
      "center": {
        "lat": 13.0081014,
        "lon": 77.7395002
      },
      "tags": {
        "leisure": "sports_centre"
      }
    },
    {
      "type": "way",
      "id": 1347718939,
      "center": {
        "lat": 13.0061364,
        "lon": 77.7369857
      },
      "tags": {
        "access": "private",
        "leisure": "swimming_pool"
      }
    },
    {
      "type": "way",
      "id": 1347718941,
      "center": {
        "lat": 13.0051967,
        "lon": 77.7345749
      },
      "tags": {
        "access": "private",
        "leisure": "swimming_pool"
      }
    },
    {
      "type": "way",
      "id": 1379107389,
      "center": {
        "lat": 13.0014703,
        "lon": 77.7510869
      },
      "tags": {
        "leisure": "swimming_pool"
      }
    },
    {
      "type": "way",
      "id": 1431902893,
      "center": {
        "lat": 13.0011094,
        "lon": 77.756837
      },
      "tags": {
        "access": "private",
        "leisure": "pitch",
        "sport": "basketball"
      }
    },
    {
      "type": "way",
      "id": 1431902894,
      "center": {
        "lat": 13.0012871,
        "lon": 77.7567706
      },
      "tags": {
        "access": "private",
        "leisure": "playground"
      }
    },
    {
      "type": "way",
      "id": 1431902897,
      "center": {
        "lat": 12.9995763,
        "lon": 77.7570576
      },
      "tags": {
        "access": "private",
        "leisure": "playground"
      }
    },
    {
      "type": "way",
      "id": 1431902898,
      "center": {
        "lat": 13.0004715,
        "lon": 77.7572202
      },
      "tags": {
        "access": "private",
        "leisure": "playground"
      }
    },
    {
      "type": "way",
      "id": 1455401177,
      "center": {
        "lat": 12.998062,
        "lon": 77.752349
      },
      "tags": {
        "access": "private",
        "leisure": "swimming_pool"
      }
    },
    {
      "type": "way",
      "id": 1455401207,
      "center": {
        "lat": 13.0002717,
        "lon": 77.7277096
      },
      "tags": {
        "leisure": "park"
      }
    }
  ]
}