{
  "area_name": "Belur Nagasandra",
  "osm_id": 3772206672,
  "osm_type": "node",
  "place_type": "neighbourhood",
  "amenity_count": 25,
  "amenities": [
    {
      "type": "node",
      "id": 4445119859,
      "lat": 12.9462787,
      "lon": 77.647749,
      "tags": {
        "addr:city": "bengaluru",
        "addr:postcode": "560017",
        "addr:street": "Challaghatta",
        "name": "Sunland Boutique",
        "shop": "clothes"
      }
    },
    {
      "type": "node",
      "id": 4445126004,
      "lat": 12.9463798,
      "lon": 77.649199,
      "tags": {
        "addr:city": "bengaluru",
        "addr:housenumber": "NA402,",
        "addr:postcode": "560017",
        "addr:street": "Sriram Spandhana, Challaghatta Jct Rd",
        "name": "Buffet Daily Fresh",
        "phone": "+9190081 71212",
        "shop": "butcher"
      }
    },
    {
      "type": "node",
      "id": 4445137284,
      "lat": 12.9458292,
      "lon": 77.650581,
      "tags": {
        "addr:city": "bengaluru",
        "addr:postcode": "560017",
        "addr:street": "Challaghatta",
        "name": "Government Hardware",
        "shop": "hardware"
      }
    },
    {
      "type": "node",
      "id": 4445148618,
      "lat": 12.9453705,
      "lon": 77.6490422,
      "tags": {
        "addr:city": "bengaluru",
        "addr:postcode": "560017",
        "addr:street": "Challaghatta Jct Rd, Challaghatta,",
        "amenity": "car_wash",
        "name": "Car Clinic"
      }
    },
    {
      "type": "node",
      "id": 4445215172,
      "lat": 12.9434622,
      "lon": 77.6563502,
      "tags": {
        "addr:city": "BENGALURU",
        "addr:postcode": "560017",
        "addr:street": "Belur Nagasandra, Bellandur",
        "amenity": "place_of_worship",
        "name": "Hanuman Temple",
        "name:kn": "ಹನುಮಂತ ದೇವಸ್ಥಾನ",
        "religion": "hindu"
      }
    },
    {
      "type": "node",
      "id": 4445218429,
      "lat": 12.9438224,
      "lon": 77.6546548,
      "tags": {
        "addr:city": "BENGALURU",
        "addr:postcode": "560017",
        "addr:street": "Belur Nagasandra, Bellandur",
        "amenity": "place_of_worship",
        "name": "Chowdeshwaramma Temple",
        "name:kn": "ಚೌಡೇಶ್ವರಮ್ಮ ದೇವಸ್ಧಾನ",
        "religion": "hindu"
      }
    },
    {
      "type": "node",
      "id": 4445221831,
      "lat": 12.9426028,
      "lon": 77.6512289,
      "tags": {
        "addr:city": "BENGALURU",
        "addr:housenumber": "SE 202",
        "addr:postcode": "560017",
        "addr:street": "Shriram Spandana, Near Embassy Golk Links, Challaghatta",
        "name": "Gowntown",
        "phone": "+91 98863 31844",
        "shop": "beauty",
        "website": "gowntown.in"
      }
    },
    {
      "type": "node",
      "id": 4446993670,
      "lat": 12.9448255,
      "lon": 77.6645367,
      "tags": {
        "addr:city": "bangalore",
        "addr:postcode": "560017",
        "addr:street": "Wind tunnel road, HAL airport area",
        "leisure": "park",
        "name": "Indosyke Nal",
        "phone": "+91 9035088980"
      }
    },
    {
      "type": "node",
      "id": 4447050160,
      "lat": 12.943888,
      "lon": 77.6517988,
      "tags": {
        "addr:city": "BENGALURU",
        "addr:postcode": "560037",
        "addr:street": "Challaghatta",
        "amenity": "library",
        "name": "kglibrary",
        "website": "https://kglibrary.webs.com/"
      }
    },
    {
      "type": "node",
      "id": 4447060354,
      "lat": 12.9443978,
      "lon": 77.6514662,
      "tags": {
        "addr:city": "BENGALURU",
        "addr:postcode": "560037",
        "addr:street": "Challaghatta",
        "amenity": "car_wash",
        "name": "Car & Bike Wash, WorkShop"
      }
    },
    {
      "type": "node",
      "id": 4447070617,
      "lat": 12.9440595,
      "lon": 77.6517665,
      "tags": {
        "addr:city": "Bengaluru",
        "addr:housenumber": "B2-401",
        "addr:postcode": "560037",
        "addr:street": "Shriram Spandhana,challaghata",
        "name": "silverphoenix",
        "phone": "+91 98453 47327",
        "shop": "tattoo",
        "website": "https://silverphoenix.in/"
      }
    },
    {
      "type": "node",
      "id": 4447072623,
      "lat": 12.9441348,
      "lon": 77.6490102,
      "tags": {
        "addr:city": "bengaluru",
        "addr:postcode": "560037",
        "addr:street": "Challaghatta Jct Rd, Challaghatta",
        "name": "Government Stores",
        "shop": "doityourself"
      }
    },
    {
      "type": "node",
      "id": 4447079175,
      "lat": 12.9455409,
      "lon": 77.6493327,
      "tags": {
        "addr:city": "bengaluru",
        "addr:postcode": "560037",
        "addr:street": "Challaghatta Main Road, Challaghatta,Yemlur-Post",
        "name": "Akshaya Beauty Salon & Boutiqu",
        "phone": "+91 93415 75390",
        "shop": "clothes"
      }
    },
    {
      "type": "node",
      "id": 4447083609,
      "lat": 12.9448218,
      "lon": 77.6491702,
      "tags": {
        "addr:city": "bengaluru",
        "addr:postcode": "560037",
        "addr:street": "Challaghatta",
        "amenity": "place_of_worship",
        "name": "Ram Mandir & Anjaneya (Hanuma"
      }
    },
    {
      "type": "node",
      "id": 4447086337,
      "lat": 12.9443025,
      "lon": 77.6525847,
      "tags": {
        "addr:city": "BENGALURU",
        "addr:postcode": "560037",
        "addr:street": "Challaghatta",
        "name": "Ideal Supermarket",
        "phone": "+91 96865 99611",
        "shop": "supermarket"
      }
    },
    {
      "type": "way",
      "id": 28452979,
      "center": {
        "lat": 12.9517345,
        "lon": 77.6473911
      },
      "tags": {
        "alt_name": "KGA Golf Course",
        "golf:course": "18_hole",
        "leisure": "golf_course",
        "name": "Karnataka Golf Association Golf Course",
        "short_name": "KGA",
        "start_date": "1986-12-28",
        "website": "https://kga.in"
      }
    },
    {
      "type": "way",
      "id": 235408658,
      "center": {
        "lat": 12.9433365,
        "lon": 77.6512293
      },
      "tags": {
        "leisure": "pitch",
        "name": "Shriram Spandhana Tennis Court",
        "sport": "tennis"
      }
    },
    {
      "type": "way",
      "id": 365630068,
      "center": {
        "lat": 12.9430853,
        "lon": 77.6509033
      },
      "tags": {
        "leisure": "swimming_pool"
      }
    },
    {
      "type": "way",
      "id": 365630235,
      "center": {
        "lat": 12.94288,
        "lon": 77.6512399
      },
      "tags": {
        "leisure": "park"
      }
    },
    {
      "type": "way",
      "id": 387461393,
      "center": {
        "lat": 12.9461195,
        "lon": 77.6485712
      },
      "tags": {
        "leisure": "common"
      }
    },
    {
      "type": "way",
      "id": 387461395,
      "center": {
        "lat": 12.9450775,
        "lon": 77.6519189
      },
      "tags": {
        "amenity": "school",
        "email": "admissions@nalapadacademy.in",
        "name": "Nalapad Academy",
        "phone": "+91 91208 88888",
        "school:gender": "mixed",
        "website": "https://nalapadacademy.in/"
      }
    },
    {
      "type": "way",
      "id": 387461397,
      "center": {
        "lat": 12.9451617,
        "lon": 77.6489469
      },
      "tags": {
        "amenity": "place_of_worship",
        "building": "temple",
        "religion": "hindu"
      }
    },
    {
      "type": "way",
      "id": 462105123,
      "center": {
        "lat": 12.9427154,
        "lon": 77.6511045
      },
      "tags": {
        "leisure": "park"
      }
    },
    {
      "type": "way",
      "id": 462105124,
      "center": {
        "lat": 12.94288,
        "lon": 77.6515162
      },
      "tags": {
        "leisure": "park"
      }
    },
    {
      "type": "way",
      "id": 1307288764,
      "center": {
        "lat": 12.9423354,
        "lon": 77.6507195
      },
      "tags": {
        "access": "private",
        "amenity": "parking",
        "parking": "surface"
      }
    }
  ]
}