{
  "area_name": "BEML Township",
  "osm_id": 3298366363,
  "osm_type": "node",
  "place_type": "neighbourhood",
  "amenity_count": 100,
  "amenities": [
    {
      "type": "node",
      "id": 1675527565,
      "lat": 12.9762388,
      "lon": 77.6738244,
      "tags": {
        "addr:postcode": "560075",
        "addr:street": "Mallesh Palaya 5th Main",
        "name": "Super Market",
        "shop": "convenience"
      }
    },
    {
      "type": "node",
      "id": 1675528607,
      "lat": 12.9746026,
      "lon": 77.6731914,
      "tags": {
        "amenity": "atm",
        "name": "DCB",
        "operator": "DCB"
      }
    },
    {
      "type": "node",
      "id": 1675529723,
      "lat": 12.974059,
      "lon": 77.673001,
      "tags": {
        "addr:housename": "Rajagopal Complex",
        "addr:housenumber": "145",
        "addr:postcode": "560075",
        "addr:street": "5th Main Road, Malleshpalya",
        "name": "More Store",
        "phone": "+91-80-64535780",
        "shop": "convenience"
      }
    },
    {
      "type": "node",
      "id": 1776312874,
      "lat": 12.9736082,
      "lon": 77.6743886,
      "tags": {
        "addr:city": "Bengaluru",
        "addr:housename": "Burma Supermarket",
        "addr:housenumber": "116",
        "addr:postcode": "560075",
        "addr:street": "Malleshpalya Main Road",
        "alt_name": "Burma Super Market",
        "name": "Burma Supernarket",
        "payment:credit_cards": "yes",
        "payment:debit_cards": "yes",
        "phone": "+91-80-25340194",
        "shop": "supermarket",
        "wheelchair": "limited"
      }
    },
    {
      "type": "node",
      "id": 3202584686,
      "lat": 12.9780265,
      "lon": 77.6754957,
      "tags": {
        "addr:city": "Bangalore",
        "addr:postcode": "560093",
        "addr:street": "19th Cross, Kaggadasapura",
        "name": "Fresh Reach",
        "opening_hours": "07:00-22:00",
        "shop": "supermarket"
      }
    },
    {
      "type": "node",
      "id": 3722411925,
      "lat": 12.9749216,
      "lon": 77.6703057,
      "tags": {
        "amenity": "atm",
        "brand": "Axis Bank",
        "brand:wikidata": "Q2003549",
        "cash_in": "no",
        "currency": "INR",
        "drive_through": "no",
        "language:en": "yes",
        "language:hn": "yes",
        "name": "Axis Bank",
        "name:kn": "ಆಕ್ಸಿಸ್ ಬ್ಯಾಂಕ್",
        "operator": "Axis Bank",
        "operator:wikidata": "Q2003549",
        "speech_output:lg": "yes",
        "wheelchair": "no"
      }
    },
    {
      "type": "node",
      "id": 3722417685,
      "lat": 12.9756859,
      "lon": 77.6671061,
      "tags": {
        "addr:city": "Bangalore",
        "addr:postcode": "560075",
        "addr:street": "GM Palya Main Road",
        "name": "Kaveri Departmental Store",
        "opening_hours": "08:00-22:00",
        "operator": "Private",
        "shop": "supermarket"
      }
    },
    {
      "type": "node",
      "id": 4067004487,
      "lat": 12.9765781,
      "lon": 77.6738208,
      "tags": {
        "amenity": "atm",
        "brand": "State Bank of India",
        "brand:wikidata": "Q1340361",
        "name": "State Bank of India",
        "name:kn": "ಭಾರತೀಯ ಸ್ಟೇಟ್ ಬ್ಯಾಂಕ್",
        "operator": "State Bank of India",
        "operator:wikidata": "Q1340361",
        "short_name": "SBI"
      }
    },
    {
      "type": "node",
      "id": 4067004488,
      "lat": 12.9744681,
      "lon": 77.673175,
      "tags": {
        "amenity": "atm",
        "brand": "ICICI Bank",
        "brand:wikidata": "Q1653258",
        "name": "ICICI Bank",
        "name:kn": "ಐಸಿಐಸಿಐ ಬ್ಯಾಂಕ್",
        "operator": "ICICI Bank",
        "operator:wikidata": "Q1653258",
        "short_name": "ICICI"
      }
    },
    {
      "type": "node",
      "id": 4163019490,
      "lat": 12.9733693,
      "lon": 77.675399,
      "tags": {
        "addr:street": "Malleshpalya Main Road",
        "amenity": "bank",
        "brand": "State Bank of India",
        "brand:wikidata": "Q1340361",
        "brand:wikipedia": "en:State Bank of India",
        "name": "State Bank of India",
        "name:kn": "ಭಾರತೀಯ ಸ್ಟೇಟ್ ಬ್ಯಾಂಕ್",
        "short_name": "SBI",
        "website": "https://www.sbi.co.in"
      }
    },
    {
      "type": "node",
      "id": 4163019889,
      "lat": 12.9733649,
      "lon": 77.6754389,
      "tags": {
        "amenity": "atm",
        "check_date": "2022-03-27",
        "opening_hours": "24/7"
      }
    },
    {
      "type": "node",
      "id": 4163019989,
      "lat": 12.9733622,
      "lon": 77.6753236,
      "tags": {
        "amenity": "atm",
        "opening_hours": "24/7"
      }
    },
    {
      "type": "node",
      "id": 4199209705,
      "lat": 12.9649652,
      "lon": 77.6660577,
      "tags": {
        "amenity": "place_of_worship",
        "religion": "hindu"
      }
    },
    {
      "type": "node",
      "id": 4208561016,
      "lat": 12.9683842,
      "lon": 77.6701118,
      "tags": {
        "name": "Thilags Market",
        "shop": "supermarket"
      }
    },
    {
      "type": "node",
      "id": 4310360791,
      "lat": 12.9688819,
      "lon": 77.6730004,
      "tags": {
        "indoor_seating": "no",
        "name": "Aiwas",
        "outdoor_seating": "no",
        "shop": "bakery",
        "takeaway": "only"
      }
    },
    {
      "type": "node",
      "id": 4488617089,
      "lat": 12.9677841,
      "lon": 77.6634104,
      "tags": {
        "addr:city": "Bangalore",
        "addr:housenumber": "21",
        "addr:postcode": "560075",
        "addr:street": "Tippasandra",
        "name": "Maataji Privision Store",
        "shop": "supermarket"
      }
    },
    {
      "type": "node",
      "id": 4489842892,
      "lat": 12.9757537,
      "lon": 77.6762462,
      "tags": {
        "addr:city": "BANGALORE",
        "addr:postcode": "560093",
        "addr:street": "58, 8th Cross, Kaggadasapura Main Rd, C.V. Raman Nagar, Aishwarya Lake View Residency, Kaggadasapura, Bengaluru, Karnataka 560093",
        "name": "Bharath Cycle Shop",
        "shop": "sports",
        "wheelchair": "no"
      }
    },
    {
      "type": "node",
      "id": 4490332758,
      "lat": 12.976618,
      "lon": 77.6730321,
      "tags": {
        "addr:city": "Bangalore",
        "addr:housenumber": "143",
        "addr:postcode": "560075",
        "addr:street": "5th Main Road, 6th Cross, Malleshpalya, Bhadrappa Layout, Malleshpalya, Kaggadasapura, Bengaluru,",
        "leisure": "sports_centre",
        "name": "Bangalore Games and Fitness Institute",
        "opening_hours": "6:00-21:00",
        "phone": "8041706896",
        "sport": "gymnasium"
      }
    },
    {
      "type": "node",
      "id": 4646644516,
      "lat": 12.9680901,
      "lon": 77.6700742,
      "tags": {
        "name": "Mayura Bakery and Sweets",
        "shop": "bakery"
      }
    },
    {
      "type": "node",
      "id": 4646644517,
      "lat": 12.9678261,
      "lon": 77.6700421,
      "tags": {
        "name": "Day to Day",
        "shop": "supermarket"
      }
    },
    {
      "type": "node",
      "id": 4899556155,
      "lat": 12.9675399,
      "lon": 77.6703009,
      "tags": {
        "name": "Hassan Iyangar's Bakery",
        "shop": "bakery"
      }
    },
    {
      "type": "node",
      "id": 4899556156,
      "lat": 12.9680705,
      "lon": 77.6702137,
      "tags": {
        "amenity": "dentist",
        "name": "VHC International"
      }
    },
    {
      "type": "node",
      "id": 6162779589,
      "lat": 12.974343,
      "lon": 77.6750273,
      "tags": {
        "amenity": "kindergarten",
        "name": "Ayon International Pre School",
        "operator": "Private"
      }
    },
    {
      "type": "node",
      "id": 6162779590,
      "lat": 12.9740567,
      "lon": 77.6752488,
      "tags": {
        "amenity": "kindergarten",
        "name": "Kids Castle"
      }
    },
    {
      "type": "node",
      "id": 7178894209,
      "lat": 12.9756865,
      "lon": 77.6669815,
      "tags": {
        "amenity": "post_office",
        "brand": "Desk to Desk Courier & Cargo",
        "brand:short": "DTDC",
        "brand:wikidata": "Q55608802",
        "name": "DTDC Courier",
        "operator": "Desk to Desk Courier & Cargo",
        "operator:short": "DTDC",
        "operator:wikidata": "Q55608802"
      }
    },
    {
      "type": "node",
      "id": 7466913100,
      "lat": 12.9741205,
      "lon": 77.6729001,
      "tags": {
        "amenity": "restaurant"
      }
    },
    {
      "type": "node",
      "id": 7466913101,
      "lat": 12.9734284,
      "lon": 77.6752338,
      "tags": {
        "amenity": "pharmacy",
        "dispensing": "yes",
        "healthcare": "pharmacy",
        "name": "Ramdev Pharmacy"
      }
    },
    {
      "type": "node",
      "id": 7476145133,
      "lat": 12.9747067,
      "lon": 77.6757118,
      "tags": {
        "addr:city": "Bengaluru",
        "amenity": "place_of_worship",
        "name": "Srinivasa Temple",
        "religion": "hindu"
      }
    },
    {
      "type": "node",
      "id": 7572131822,
      "lat": 12.9742358,
      "lon": 77.6726374,
      "tags": {
        "addr:district": "Bengaluru Urban",
        "addr:full": "Malleshpalya, Kaggadasapura, Bengaluru",
        "addr:postcode": "560093",
        "addr:state": "Karnataka",
        "amenity": "clinic",
        "name": "Health Care Medi Clinic",
        "source": "Local Knowledge"
      }
    },
    {
      "type": "node",
      "id": 7572131834,
      "lat": 12.9731172,
      "lon": 77.6767223,
      "tags": {
        "addr:district": "Bengaluru Urban",
        "addr:full": "BEML Main Road, Malleshpalya, Kaggadasapura, Bengaluru",
        "addr:postcode": "560093",
        "addr:state": "Karnataka",
        "amenity": "clinic",
        "healthcare": "clinic",
        "name": "Apple Clinic",
        "source": "Local Knowledge"
      }
    },
    {
      "type": "node",
      "id": 7572131857,
      "lat": 12.975622,
      "lon": 77.666082,
      "tags": {
        "addr:district": "Bengaluru Urban",
        "addr:full": "GM Palya, C V Raman Nagar, Bengaluru",
        "addr:postcode": "560075",
        "addr:state": "Karnataka",
        "amenity": "clinic",
        "name": "Rapha Polyclinic & Lab",
        "source": "Local Knowledge"
      }
    },
    {
      "type": "node",
      "id": 7572131881,
      "lat": 12.9750951,
      "lon": 77.6660888,
      "tags": {
        "addr:district": "Bengaluru Urban",
        "addr:full": "GM Palya, C V Raman Nagar, Bengaluru",
        "addr:postcode": "560017",
        "addr:state": "Karnataka",
        "amenity": "clinic",
        "name": "Netrajyoti Eye Centre",
        "source": "Local Knowledge",
        "wheelchair": "no"
      }
    },
    {
      "type": "node",
      "id": 7572131883,
      "lat": 12.9753191,
      "lon": 77.6660778,
      "tags": {
        "addr:district": "Bengaluru Urban",
        "addr:full": "Cauveri Colony, GM Palya, C V Raman Nagar, Bengaluru",
        "addr:postcode": "560093",
        "addr:state": "Karnataka",
        "amenity": "dentist",
        "name": "Dr. Ranganath Jingade Dental Hospital",
        "source": "Local Knowledge"
      }
    },
    {
      "type": "node",
      "id": 7572131892,
      "lat": 12.973637,
      "lon": 77.675186,
      "tags": {
        "addr:district": "Bengaluru Urban",
        "addr:full": "Malleshpalya, New Tippasandra, Bengaluru",
        "addr:postcode": "560075",
        "addr:state": "Karnataka",
        "amenity": "hospital",
        "healthcare": "hospital",
        "name": "Medihope Super Specialty Hospital",
        "source": "Local Knowledge"
      }
    },
    {
      "type": "node",
      "id": 7572526699,
      "lat": 12.9635299,
      "lon": 77.6662889,
      "tags": {
        "addr:district": "Bengaluru Urban",
        "addr:full": "Jyothi Nagar, Bengaluru",
        "addr:postcode": "560017",
        "addr:state": "Karnataka",
        "amenity": "hospital",
        "name": "Jhon's Medical Hospital",
        "source": "Local Knowledge"
      }
    },
    {
      "type": "node",
      "id": 7572526705,
      "lat": 12.9648095,
      "lon": 77.6725587,
      "tags": {
        "addr:district": "Bengaluru Urban",
        "addr:full": "Islampur, Vimanapura, Bengaluru",
        "addr:postcode": "560017",
        "addr:state": "Karnataka",
        "amenity": "dentist",
        "name": "SRK Dental Clinic",
        "source": "Local Knowledge"
      }
    },
    {
      "type": "node",
      "id": 7572526714,
      "lat": 12.9674869,
      "lon": 77.6701879,
      "tags": {
        "addr:district": "Bengaluru Urban",
        "addr:full": "LBS Nagar, Kaggadasapura, Bengaluru",
        "addr:postcode": "560017",
        "addr:state": "Karnataka",
        "amenity": "clinic",
        "name": "Nms Sanjivini Health Center",
        "source": "Local Knowledge"
      }
    },
    {
      "type": "node",
      "id": 7572526716,
      "lat": 12.9644469,
      "lon": 77.6719687,
      "tags": {
        "addr:district": "Bengaluru Urban",
        "addr:full": "Annasandrapalya Extension, Islampur, Vibhutipura, Bengaluru",
        "addr:postcode": "560017",
        "addr:state": "Karnataka",
        "amenity": "clinic",
        "name": "Dr. Harish Tyagi Clinic",
        "source": "Local Knowledge"
      }
    },
    {
      "type": "node",
      "id": 7572526737,
      "lat": 12.9676391,
      "lon": 77.6728616,
      "tags": {
        "addr:district": "Bengaluru Urban",
        "addr:full": "LBS Nagar, Kaggadasapura, Bengaluru",
        "addr:postcode": "560017",
        "addr:state": "Karnataka",
        "amenity": "clinic",
        "name": "Samruddhi Health Care Centre",
        "source": "Local Knowledge"
      }
    },
    {
      "type": "node",
      "id": 7572526743,
      "lat": 12.9705317,
      "lon": 77.6657706,
      "tags": {
        "addr:district": "Bengaluru Urban",
        "addr:full": "Jagadish Nagar, Kaggadasapura, Bengaluru",
        "addr:postcode": "560075",
        "addr:state": "Karnataka",
        "amenity": "clinic",
        "name": "Sri Balaji Clinic",
        "source": "Local Knowledge"
      }
    },
    {
      "type": "node",
      "id": 7572526794,
      "lat": 12.9640923,
      "lon": 77.6716941,
      "tags": {
        "addr:district": "Bengaluru Urban",
        "addr:full": "Annasandrapalya Extension, Vimanapura, Bengaluru",
        "addr:postcode": "560017",
        "addr:state": "Karnataka",
        "amenity": "clinic",
        "name": "SNP Homoeopathy Clinic",
        "source": "Local Knowledge"
      }
    },
    {
      "type": "node",
      "id": 11149339763,
      "lat": 12.9772353,
      "lon": 77.6747329,
      "tags": {
        "name": "Eden Fresh",
        "shop": "vegetables",
        "wheelchair": "no"
      }
    },
    {
      "type": "node",
      "id": 11199831337,
      "lat": 12.9739312,
      "lon": 77.6736939,
      "tags": {
        "addr:city": "Bengaluru",
        "addr:housenumber": "48",
        "addr:postcode": "560075",
        "addr:street": "7th Main Road",
        "amenity": "library",
        "contact:facebook": "thinkboxlibrary",
        "contact:instagram": "thinkboxblore",
        "email": "ethinkbox@gmail.com",
        "name": "ThinkBox Children's Library",
        "phone": "+91 9742849955",
        "website": "https://thinkbox.co.in/",
        "wheelchair": "limited"
      }
    },
    {
      "type": "node",
      "id": 12204996493,
      "lat": 12.9751626,
      "lon": 77.6653229,
      "tags": {
        "amenity": "parking_entrance"
      }
    },
    {
      "type": "node",
      "id": 12560650226,
      "lat": 12.9686756,
      "lon": 77.6745035,
      "tags": {
        "addr:city": "Bengaluru",
        "addr:district": "Bengaluru Urban",
        "addr:full": "149/3 l.b.s nagar, 7th cross, 8th Main Rd, HAL",
        "addr:postcode": "560017",
        "addr:street": "7th A Cross Road",
        "amenity": "studio",
        "name": "Denzong Films - Video Production Company in Bangalore",
        "studio": "video",
        "website": "https://denzongfilms.com/"
      }
    },
    {
      "type": "node",
      "id": 13070823030,
      "lat": 12.9726226,
      "lon": 77.6775871,
      "tags": {
        "access": "yes",
        "amenity": "toilets"
      }
    },
    {
      "type": "node",
      "id": 13251268817,
      "lat": 12.9769205,
      "lon": 77.673297,
      "tags": {
        "amenity": "shelter",
        "shelter_type": "gazebo"
      }
    },
    {
      "type": "node",
      "id": 13251268818,
      "lat": 12.9769298,
      "lon": 77.6735807,
      "tags": {
        "amenity": "shelter",
        "shelter_type": "gazebo"
      }
    },
    {
      "type": "node",
      "id": 13275766738,
      "lat": 12.9779204,
      "lon": 77.662729,
      "tags": {
        "amenity": "shelter",
        "shelter_type": "gazebo"
      }
    },
    {
      "type": "way",
      "id": 144989752,
      "center": {
        "lat": 12.9640092,
        "lon": 77.6637028
      },
      "tags": {
        "leisure": "park"
      }
    },
    {
      "type": "way",
      "id": 144989754,
      "center": {
        "lat": 12.9673805,
        "lon": 77.6614527
      },
      "tags": {
        "leisure": "park"
      }
    },
    {
      "type": "way",
      "id": 290187542,
      "center": {
        "lat": 12.9623685,
        "lon": 77.6664034
      },
      "tags": {
        "alt_name": "Hindustan Aeronautics Limited Hospital",
        "amenity": "hospital",
        "emergency": "yes",
        "name": "HAL Hospital",
        "name:kn": "ಎಚ್ಎಎಲ್ ಆಸ್ಪತ್ರೆ",
        "wheelchair": "yes"
      }
    },
    {
      "type": "way",
      "id": 314210261,
      "center": {
        "lat": 12.9790506,
        "lon": 77.6739877
      },
      "tags": {
        "amenity": "school",
        "education": "school",
        "name": "NCFE School"
      }
    },
    {
      "type": "way",
      "id": 323037303,
      "center": {
        "lat": 12.9730342,
        "lon": 77.6690277
      },
      "tags": {
        "amenity": "school",
        "name": "Shishya BEML Public School"
      }
    },
    {
      "type": "way",
      "id": 323037305,
      "center": {
        "lat": 12.9736002,
        "lon": 77.6685704
      },
      "tags": {
        "amenity": "theatre",
        "name": "BEML Kala Mandir"
      }
    },
    {
      "type": "way",
      "id": 323037941,
      "center": {
        "lat": 12.974433,
        "lon": 77.6694265
      },
      "tags": {
        "leisure": "park",
        "name": "BEML Playground"
      }
    },
    {
      "type": "way",
      "id": 362927830,
      "center": {
        "lat": 12.9688571,
        "lon": 77.6747601
      },
      "tags": {
        "leisure": "playground",
        "name": "Utkarsha",
        "name:kn": "ಉತ್ಕರ್ಷ"
      }
    },
    {
      "type": "way",
      "id": 415116796,
      "center": {
        "lat": 12.9722456,
        "lon": 77.6683221
      },
      "tags": {
        "leisure": "common"
      }
    },
    {
      "type": "way",
      "id": 415116797,
      "center": {
        "lat": 12.972982,
        "lon": 77.6696754
      },
      "tags": {
        "leisure": "park"
      }
    },
    {
      "type": "way",
      "id": 415116798,
      "center": {
        "lat": 12.9725574,
        "lon": 77.6686068
      },
      "tags": {
        "leisure": "sports_centre"
      }
    },
    {
      "type": "way",
      "id": 415116799,
      "center": {
        "lat": 12.9745137,
        "lon": 77.6703174
      },
      "tags": {
        "leisure": "park"
      }
    },
    {
      "type": "way",
      "id": 415124236,
      "center": {
        "lat": 12.9726274,
        "lon": 77.6777335
      },
      "tags": {
        "amenity": "bus_station",
        "name": "Vignananagar Bus Station",
        "name:kn": "ವಿಜ್ಞಾನನಗರ ಬಸ್ ನಿಲ್ದಾಣ",
        "wheelchair": "limited"
      }
    },
    {
      "type": "way",
      "id": 415125446,
      "center": {
        "lat": 12.9774258,
        "lon": 77.6713351
      },
      "tags": {
        "amenity": "school",
        "name": "Global City International School"
      }
    },
    {
      "type": "way",
      "id": 553065507,
      "center": {
        "lat": 12.9652111,
        "lon": 77.6620234
      },
      "tags": {
        "amenity": "school",
        "name": "Sacred Heart Girls High School"
      }
    },
    {
      "type": "way",
      "id": 574696674,
      "center": {
        "lat": 12.9728591,
        "lon": 77.668856
      },
      "tags": {
        "leisure": "playground"
      }
    },
    {
      "type": "way",
      "id": 583915625,
      "center": {
        "lat": 12.9651959,
        "lon": 77.66924
      },
      "tags": {
        "leisure": "park"
      }
    },
    {
      "type": "way",
      "id": 658040989,
      "center": {
        "lat": 12.9764955,
        "lon": 77.6751122
      },
      "tags": {
        "amenity": "school",
        "building": "school",
        "name": "Chaitanya E-Techno Scool",
        "operator": "Private"
      }
    },
    {
      "type": "way",
      "id": 1054384478,
      "center": {
        "lat": 12.9763384,
        "lon": 77.6728844
      },
      "tags": {
        "amenity": "school",
        "name": "Sishu Griha Junior School"
      }
    },
    {
      "type": "way",
      "id": 1065296605,
      "center": {
        "lat": 12.9790731,
        "lon": 77.6648439
      },
      "tags": {
        "access": "permissive",
        "amenity": "parking",
        "parking": "surface"
      }
    },
    {
      "type": "way",
      "id": 1065296606,
      "center": {
        "lat": 12.9782451,
        "lon": 77.6639012
      },
      "tags": {
        "access": "permissive",
        "amenity": "parking",
        "parking": "surface"
      }
    },
    {
      "type": "way",
      "id": 1213188974,
      "center": {
        "lat": 12.9694677,
        "lon": 77.6681406
      },
      "tags": {
        "addr:full": "Khata no:152, CV Raman Nagar, Survey no 136/3B, 7th Cross Road,, Vibhutipura Village, Jagadish Nagar, New Tippasandra, Bengaluru, Karnataka 560075",
        "amenity": "school",
        "email": "communications.oiscvr@orchids.edu.in",
        "name": "Orchids The International School - C V Raman Nagar",
        "opening_hours": "Mo-Su 09:00-18:30",
        "operator": "Orchids International School",
        "phone": "9513922803",
        "website": "https://www.orchidsinternationalschool.com/bangalore-branches/cv-raman-nagar/"
      }
    },
    {
      "type": "way",
      "id": 1213188978,
      "center": {
        "lat": 12.9693692,
        "lon": 77.6685547
      },
      "tags": {
        "leisure": "pitch",
        "sport": "soccer"
      }
    },
    {
      "type": "way",
      "id": 1213188980,
      "center": {
        "lat": 12.9694793,
        "lon": 77.6677153
      },
      "tags": {
        "leisure": "pitch"
      }
    },
    {
      "type": "way",
      "id": 1251186677,
      "center": {
        "lat": 12.9783306,
        "lon": 77.6621393
      },
      "tags": {
        "leisure": "park"
      }
    },
    {
      "type": "way",
      "id": 1252257170,
      "center": {
        "lat": 12.977855,
        "lon": 77.6712792
      },
      "tags": {
        "leisure": "pitch",
        "sport": "basketball"
      }
    },
    {
      "type": "way",
      "id": 1252257176,
      "center": {
        "lat": 12.9776249,
        "lon": 77.6610112
      },
      "tags": {
        "access": "permissive",
        "leisure": "pitch",
        "sport": "tennis"
      }
    },
    {
      "type": "way",
      "id": 1303541161,
      "center": {
        "lat": 12.9637092,
        "lon": 77.6674464
      },
      "tags": {
        "leisure": "playground"
      }
    },
    {
      "type": "way",
      "id": 1320013842,
      "center": {
        "lat": 12.9748041,
        "lon": 77.6648258
      },
      "tags": {
        "amenity": "place_of_worship",
        "landuse": "religious",
        "name": "Shri Viranjaneya Temple",
        "name:kn": "ಶ್ರೀ ವೀರಾಂಜನೇಯ",
        "religion": "hindu"
      }
    },
    {
      "type": "way",
      "id": 1320013891,
      "center": {
        "lat": 12.971172,
        "lon": 77.6651791
      },
      "tags": {
        "amenity": "hospital",
        "name": "BEML Hospital"
      }
    },
    {
      "type": "way",
      "id": 1320013898,
      "center": {
        "lat": 12.9709309,
        "lon": 77.6700324
      },
      "tags": {
        "amenity": "place_of_worship",
        "landuse": "religious",
        "name": "Ayappa Temple",
        "religion": "hindu"
      }
    },
    {
      "type": "way",
      "id": 1363975879,
      "center": {
        "lat": 12.9803321,
        "lon": 77.6714056
      },
      "tags": {
        "leisure": "park",
        "name": "Atal Bihari Vajpayee Park"
      }
    },
    {
      "type": "way",
      "id": 1363975904,
      "center": {
        "lat": 12.9769543,
        "lon": 77.6725405
      },
      "tags": {
        "leisure": "sports_centre",
        "name": "SAI Cricket Academy",
        "sport": "cricket"
      }
    },
    {
      "type": "way",
      "id": 1429354942,
      "center": {
        "lat": 12.9694885,
        "lon": 77.6717057
      },
      "tags": {
        "access": "private",
        "leisure": "swimming_pool"
      }
    },
    {
      "type": "way",
      "id": 1443894895,
      "center": {
        "lat": 12.9734409,
        "lon": 77.6778471
      },
      "tags": {
        "amenity": "school",
        "landuse": "education",
        "name": "Hayagriva Girls' School"
      }
    },
    {
      "type": "way",
      "id": 1444109296,
      "center": {
        "lat": 12.9768828,
        "lon": 77.6737751
      },
      "tags": {
        "leisure": "playground"
      }
    },
    {
      "type": "way",
      "id": 1444109298,
      "center": {
        "lat": 12.9775221,
        "lon": 77.6724957
      },
      "tags": {
        "amenity": "place_of_worship",
        "landuse": "religious",
        "name": "Sri Jalakanteshwara Temple",
        "religion": "hindu"
      }
    },
    {
      "type": "way",
      "id": 1444109352,
      "center": {
        "lat": 12.9763507,
        "lon": 77.6728482
      },
      "tags": {
        "access": "private",
        "leisure": "pitch",
        "sport": "basketball"
      }
    },
    {
      "type": "way",
      "id": 1446914636,
      "center": {
        "lat": 12.9776002,
        "lon": 77.6637228
      },
      "tags": {
        "access": "private",
        "amenity": "parking",
        "parking": "surface"
      }
    },
    {
      "type": "way",
      "id": 1447172802,
      "center": {
        "lat": 12.9794379,
        "lon": 77.6742159
      },
      "tags": {
        "leisure": "pitch",
        "sport": "basketball"
      }
    },
    {
      "type": "way",
      "id": 1447515030,
      "center": {
        "lat": 12.9710241,
        "lon": 77.6670774
      },
      "tags": {
        "access": "private",
        "leisure": "park"
      }
    },
    {
      "type": "way",
      "id": 1447685563,
      "center": {
        "lat": 12.9702664,
        "lon": 77.6711596
      },
      "tags": {
        "access": "private",
        "leisure": "swimming_pool"
      }
    },
    {
      "type": "way",
      "id": 1447685569,
      "center": {
        "lat": 12.969985,
        "lon": 77.6690582
      },
      "tags": {
        "access": "private",
        "leisure": "swimming_pool"
      }
    },
    {
      "type": "way",
      "id": 1447686030,
      "center": {
        "lat": 12.9705805,
        "lon": 77.6671334
      },
      "tags": {
        "access": "private",
        "leisure": "swimming_pool"
      }
    },
    {
      "type": "way",
      "id": 1447686031,
      "center": {
        "lat": 12.9706273,
        "lon": 77.6672605
      },
      "tags": {
        "access": "private",
        "leisure": "pitch",
        "sport": "basketball"
      }
    },
    {
      "type": "way",
      "id": 1447903282,
      "center": {
        "lat": 12.9648647,
        "lon": 77.6708772
      },
      "tags": {
        "amenity": "place_of_worship",
        "landuse": "religious",
        "name": "Yallamma Devasthana",
        "name:kn": "ಯಲ್ಲಮ್ಮ ದೇವಸ್ಥಾನ",
        "religion": "hindu"
      }
    },
    {
      "type": "way",
      "id": 1447954496,
      "center": {
        "lat": 12.9644941,
        "lon": 77.6722226
      },
      "tags": {
        "amenity": "place_of_worship",
        "denomination": "hindu",
        "landuse": "religious",
        "name": "Sri Ram Mandir",
        "religion": "hindu"
      }
    },
    {
      "type": "way",
      "id": 1448548594,
      "center": {
        "lat": 12.9706513,
        "lon": 77.6692983
      },
      "tags": {
        "leisure": "pitch",
        "sport": "tennis"
      }
    },
    {
      "type": "way",
      "id": 1448548595,
      "center": {
        "lat": 12.9708669,
        "lon": 77.669343
      },
      "tags": {
        "leisure": "pitch",
        "sport": "tennis"
      }
    },
    {
      "type": "way",
      "id": 1448550990,
      "center": {
        "lat": 12.967369,
        "lon": 77.6682712
      },
      "tags": {
        "access": "private",
        "leisure": "playground"
      }
    },
    {
      "type": "way",
      "id": 1449319752,
      "center": {
        "lat": 12.9643867,
        "lon": 77.6701798
      },
      "tags": {
        "access": "private",
        "leisure": "playground"
      }
    }
  ]
}