{
  "area_name": "Bestcounty2",
  "osm_id": 13008635705,
  "osm_type": "node",
  "place_type": "neighbourhood",
  "amenity_count": 24,
  "amenities": [
    {
      "type": "node",
      "id": 1462443864,
      "lat": 13.0900453,
      "lon": 77.54119,
      "tags": {
        "name": "Brothers Supermarket",
        "shop": "supermarket"
      }
    },
    {
      "type": "node",
      "id": 4488073917,
      "lat": 13.0942914,
      "lon": 77.5459382,
      "tags": {
        "addr:city": "bangalore",
        "addr:housenumber": "37/2",
        "addr:street": "Virat Nagar Main Road, Roopen Agrahara",
        "name": "SLN Super Market",
        "phone": "+918033569365",
        "shop": "supermarket"
      }
    },
    {
      "type": "node",
      "id": 7577248196,
      "lat": 13.0897212,
      "lon": 77.5442226,
      "tags": {
        "addr:district": "Bengaluru Urban",
        "addr:full": "Vidyaranyapura, Bengaluru",
        "addr:postcode": "560097",
        "addr:state": "Karnataka",
        "amenity": "clinic",
        "name": "Sri Gopalan Clinic",
        "source": "Local Knowledge"
      }
    },
    {
      "type": "node",
      "id": 7577248214,
      "lat": 13.0892527,
      "lon": 77.5388313,
      "tags": {
        "addr:district": "Bengaluru Urban",
        "addr:full": "Sadguru Layout, Kanshiram Nagar, Bengaluru",
        "addr:postcode": "560097",
        "addr:state": "Karnataka",
        "amenity": "clinic",
        "name": "Sanjeevani Health Care",
        "source": "Local Knowledge"
      }
    },
    {
      "type": "node",
      "id": 7577248248,
      "lat": 13.087007,
      "lon": 77.547943,
      "tags": {
        "addr:district": "Bengaluru Urban",
        "addr:full": "Adityanagar, Vidyaranyapura, Bengaluru",
        "addr:postcode": "560097",
        "addr:state": "Karnataka",
        "amenity": "dentist",
        "name": "Floss and Gloss Dental Clinic",
        "source": "Local Knowledge"
      }
    },
    {
      "type": "node",
      "id": 7577248262,
      "lat": 13.0885791,
      "lon": 77.5455057,
      "tags": {
        "addr:district": "Bengaluru Urban",
        "addr:full": "Vinayak Nagar, Vidyaranyapura, Bengaluru",
        "addr:postcode": "560097",
        "addr:state": "Karnataka",
        "amenity": "hospital",
        "name": "Shree Sai Hospital",
        "source": "Local Knowledge"
      }
    },
    {
      "type": "node",
      "id": 8226727454,
      "lat": 13.0972087,
      "lon": 77.5454177,
      "tags": {
        "amenity": "place_of_worship",
        "name": "Ambabavani Temple",
        "religion": "hindu"
      }
    },
    {
      "type": "way",
      "id": 133000232,
      "center": {
        "lat": 13.0897175,
        "lon": 77.5458768
      },
      "tags": {
        "amenity": "college",
        "landuse": "education",
        "name": "Sambhram Institute of Technology"
      }
    },
    {
      "type": "way",
      "id": 413529794,
      "center": {
        "lat": 13.085631,
        "lon": 77.5473552
      },
      "tags": {
        "amenity": "place_of_worship",
        "name": "Missionaries of Charity",
        "religion": "christian"
      }
    },
    {
      "type": "way",
      "id": 413529795,
      "center": {
        "lat": 13.0856703,
        "lon": 77.5492593
      },
      "tags": {
        "amenity": "school",
        "name": "Shrada Vidyanikethan",
        "name:kn": "ಶ್ರಧ್ಧ ವಿದ್ಯಾನಿಕೇತನ"
      }
    },
    {
      "type": "way",
      "id": 413529796,
      "center": {
        "lat": 13.0848132,
        "lon": 77.5490275
      },
      "tags": {
        "amenity": "school",
        "check_date": "2024-12-24",
        "name": "National Public School, Vidyaranyapura"
      }
    },
    {
      "type": "way",
      "id": 1127727174,
      "center": {
        "lat": 13.0911878,
        "lon": 77.5400421
      },
      "tags": {
        "amenity": "events_venue",
        "landuse": "commercial",
        "name": "The King's Meadows"
      }
    },
    {
      "type": "way",
      "id": 1181417684,
      "center": {
        "lat": 13.0902224,
        "lon": 77.551656
      },
      "tags": {
        "amenity": "place_of_worship",
        "landuse": "religious",
        "religion": "hindu"
      }
    },
    {
      "type": "way",
      "id": 1380270901,
      "center": {
        "lat": 13.0946055,
        "lon": 77.5464251
      },
      "tags": {
        "leisure": "park"
      }
    },
    {
      "type": "way",
      "id": 1382977359,
      "center": {
        "lat": 13.0908867,
        "lon": 77.5367329
      },
      "tags": {
        "amenity": "fuel",
        "brand": "Hindustan Petroleum",
        "brand:wikidata": "Q1619375",
        "name": "HP",
        "official_name": "Hindustan Petroleum"
      }
    },
    {
      "type": "way",
      "id": 1382977360,
      "center": {
        "lat": 13.0910562,
        "lon": 77.53603
      },
      "tags": {
        "amenity": "fuel",
        "brand": "Nayara",
        "brand:wikidata": "Q5399377",
        "name": "Nayara"
      }
    },
    {
      "type": "way",
      "id": 1382977476,
      "center": {
        "lat": 13.0846042,
        "lon": 77.541693
      },
      "tags": {
        "leisure": "pitch",
        "sport": "basketball"
      }
    },
    {
      "type": "way",
      "id": 1382977477,
      "center": {
        "lat": 13.0845993,
        "lon": 77.5413685
      },
      "tags": {
        "access": "private",
        "leisure": "swimming_pool"
      }
    },
    {
      "type": "way",
      "id": 1382977679,
      "center": {
        "lat": 13.0944933,
        "lon": 77.5465688
      },
      "tags": {
        "leisure": "playground"
      }
    },
    {
      "type": "way",
      "id": 1382977687,
      "center": {
        "lat": 13.0932036,
        "lon": 77.5451269
      },
      "tags": {
        "amenity": "place_of_worship",
        "landuse": "religious",
        "name": "Sai baba Mandir",
        "religion": "hindu"
      }
    },
    {
      "type": "way",
      "id": 1382977862,
      "center": {
        "lat": 13.091178,
        "lon": 77.5405017
      },
      "tags": {
        "access": "private",
        "amenity": "parking",
        "parking": "surface"
      }
    },
    {
      "type": "way",
      "id": 1419417211,
      "center": {
        "lat": 13.0910781,
        "lon": 77.5379151
      },
      "tags": {
        "amenity": "fuel"
      }
    },
    {
      "type": "way",
      "id": 1419417227,
      "center": {
        "lat": 13.088134,
        "lon": 77.5465619
      },
      "tags": {
        "amenity": "place_of_worship",
        "building": "yes",
        "religion": "hindu"
      }
    },
    {
      "type": "way",
      "id": 1419417232,
      "center": {
        "lat": 13.0875061,
        "lon": 77.543024
      },
      "tags": {
        "leisure": "park"
      }
    }
  ]
}