{
  "area_name": "BHBCS Layout",
  "osm_id": 11293105794,
  "osm_type": "node",
  "place_type": "neighbourhood",
  "amenity_count": 593,
  "amenities": [
    {
      "type": "node",
      "id": 306850490,
      "lat": 12.9163076,
      "lon": 77.6103158,
      "tags": {
        "addr:city": "BTM Layout, Bangalore",
        "addr:housenumber": "72",
        "addr:street": "2nd Stage, 16th Main",
        "amenity": "pub",
        "name": "Avon Pub"
      }
    },
    {
      "type": "node",
      "id": 362539259,
      "lat": 12.9141893,
      "lon": 77.5933299,
      "tags": {
        "amenity": "place_of_worship",
        "name": "Ragigudda Temple",
        "name:kn": "ರಾಗಿಗುಡ್ಡ ದೇವಸ್ತಾನ",
        "religion": "hindu"
      }
    },
    {
      "type": "node",
      "id": 876627766,
      "lat": 12.9130435,
      "lon": 77.6099326,
      "tags": {
        "name": "Trends Woman",
        "shop": "clothes"
      }
    },
    {
      "type": "node",
      "id": 949313545,
      "lat": 12.9140567,
      "lon": 77.6099682,
      "tags": {
        "check_date": "2023-10-15",
        "clothes": "underwear",
        "name": "Jockey",
        "opening_hours": "Mo-Su 09:00-21:00",
        "shop": "clothes"
      }
    },
    {
      "type": "node",
      "id": 949313551,
      "lat": 12.9136384,
      "lon": 77.6074718,
      "tags": {
        "amenity": "pharmacy",
        "brand": "MedPlus",
        "brand:wikidata": "Q65684234",
        "healthcare": "pharmacy",
        "name": "MedPlus",
        "opening_hours": "PH,Mo-Su 08:00-23:00"
      }
    },
    {
      "type": "node",
      "id": 949313557,
      "lat": 12.9136816,
      "lon": 77.6077065,
      "tags": {
        "name": "Cashify",
        "opening_hours": "Mo-Su 09:00-21:00",
        "shop": "mobile_phone"
      }
    },
    {
      "type": "node",
      "id": 949313559,
      "lat": 12.9140156,
      "lon": 77.6092776,
      "tags": {
        "addr:postcode": "560076",
        "air_conditioning": "yes",
        "brand": "Allen Solly",
        "brand:wikidata": "Q110036995",
        "check_date": "2023-12-27",
        "clothes": "workwear;men;western;accessories;shirts",
        "currency:INR": "yes",
        "internet_access": "no",
        "level": "0;1",
        "name": "Allen Solly",
        "opening_hours": "Mo-Su 10:00-21:00",
        "payment:cash": "yes",
        "payment:credit_cards": "yes",
        "payment:debit_cards": "yes",
        "second_hand": "no",
        "shop": "clothes",
        "source": "local knowledge",
        "stroller": "limited",
        "wheelchair": "no"
      }
    },
    {
      "type": "node",
      "id": 951203512,
      "lat": 12.913127,
      "lon": 77.6101684,
      "tags": {
        "amenity": "restaurant",
        "name": "Beijing Bites",
        "name:kn": "ಬೀಜಿಂಗ್ ಬೈಟ್ಸ್",
        "opening_hours": "Mo-Su 09:00-21:30"
      }
    },
    {
      "type": "node",
      "id": 951203518,
      "lat": 12.9127285,
      "lon": 77.6064015,
      "tags": {
        "amenity": "atm",
        "brand": "Indian Bank",
        "brand:wikidata": "Q2003789",
        "check_date": "2023-10-15",
        "name": "Indian Bank",
        "operator": "Indian Bank",
        "operator:wikidata": "Q2003789"
      }
    },
    {
      "type": "node",
      "id": 951203520,
      "lat": 12.9136099,
      "lon": 77.6102033,
      "tags": {
        "name": "Mom & Kid",
        "opening_hours": "Mo-Su 09:30-21:00",
        "shop": "clothes"
      }
    },
    {
      "type": "node",
      "id": 951203524,
      "lat": 12.9136689,
      "lon": 77.6099505,
      "tags": {
        "amenity": "restaurant",
        "check_date": "2023-10-15",
        "name": "Punjabi Swag",
        "opening_hours": "Mo-Su 10:00-21:00",
        "wheelchair": "limited"
      }
    },
    {
      "type": "node",
      "id": 951203525,
      "lat": 12.9138062,
      "lon": 77.6099744,
      "tags": {
        "check_date": "2023-10-15",
        "name": "Honey Drops",
        "opening_hours": "Mo-Su 09:00-21:00",
        "shop": "alcohol"
      }
    },
    {
      "type": "node",
      "id": 951203531,
      "lat": 12.9133476,
      "lon": 77.6101635,
      "tags": {
        "amenity": "pharmacy",
        "brand": "Apollo Pharmacy",
        "brand:wikidata": "Q62562612",
        "healthcare": "pharmacy",
        "name": "Apollo Pharmacy",
        "name:kn": "ಅಪೋಲೋ ಫಾರ್ಮಸಿ",
        "opening_hours": "PH,Mo-Su 08:00-23:00",
        "wheelchair": "no"
      }
    },
    {
      "type": "node",
      "id": 1280127947,
      "lat": 12.916193,
      "lon": 77.6053993,
      "tags": {
        "amenity": "bank",
        "atm": "yes",
        "brand": "Karnataka Bank",
        "brand:wikidata": "Q2042632",
        "brand:wikipedia": "en:Karnataka Bank",
        "name": "Karnataka Bank",
        "name:kn": "ಕರ್ನಾಟಕ ಬ್ಯಾಂಕ್",
        "opening_hours": "Mo-Sa 10:00-16:00",
        "operator": "Karnataka Bank"
      }
    },
    {
      "type": "node",
      "id": 1388103603,
      "lat": 12.9115937,
      "lon": 77.6062818,
      "tags": {
        "amenity": "pharmacy",
        "healthcare": "pharmacy",
        "name": "Aravind Medicals and General stores"
      }
    },
    {
      "type": "node",
      "id": 1388103606,
      "lat": 12.9125207,
      "lon": 77.6064232,
      "tags": {
        "name": "Sri Devi Baker's",
        "opening_hours": "PH,Mo-Su 09:00-22:00",
        "shop": "bakery"
      }
    },
    {
      "type": "node",
      "id": 1388103608,
      "lat": 12.9127092,
      "lon": 77.6061623,
      "tags": {
        "amenity": "bank",
        "brand": "City Union Bank",
        "brand:en": "City Union Bank",
        "brand:hi": "सिटी यूनियन बैंक",
        "brand:ta": "சிட்டி யூனியன் வங்கி",
        "brand:wikidata": "Q2040264",
        "name": "City Union Bank",
        "name:en": "City Union Bank",
        "name:hi": "सिटी यूनियन बैंक",
        "name:ta": "சிட்டி யூனியன் வங்கி",
        "short_name": "CUB"
      }
    },
    {
      "type": "node",
      "id": 1388103622,
      "lat": 12.9106552,
      "lon": 77.6063086,
      "tags": {
        "addr:city": "Bangalore",
        "addr:floor": "1",
        "addr:housenumber": "107",
        "addr:postcode": "560076",
        "addr:street": "7th Main Road",
        "air_conditioning": "no",
        "currency:INR": "yes",
        "internet_access": "no",
        "name": "Homeneeds",
        "opening_hours": "Mo-Su 10:00-22:00",
        "payment:cash": "yes",
        "payment:credit_cards": "yes",
        "payment:debit_cards": "yes",
        "phone": "80-33618025",
        "shop": "supermarket",
        "source": "local knowledge",
        "stroller": "no",
        "toilets": "no",
        "wheelchair": "limited"
      }
    },
    {
      "type": "node",
      "id": 1396823306,
      "lat": 12.9114652,
      "lon": 77.6041516,
      "tags": {
        "brand": "HOPCOMS",
        "brand:wikidata": "Q22908959",
        "name": "HOPCOMS",
        "name:kn": "ಹಾಪ್ ಕಾಮ್ಸ್",
        "shop": "greengrocer"
      }
    },
    {
      "type": "node",
      "id": 1396823314,
      "lat": 12.9116247,
      "lon": 77.6026978,
      "tags": {
        "amenity": "place_of_worship",
        "name": "Rama Temple",
        "name:kn": "ರಾಮ ದೇವಸ್ಥಾನ",
        "religion": "hindu"
      }
    },
    {
      "type": "node",
      "id": 1397247990,
      "lat": 12.9117638,
      "lon": 77.6010896,
      "tags": {
        "leisure": "sports_centre",
        "name": "Reliance Club"
      }
    },
    {
      "type": "node",
      "id": 1463771768,
      "lat": 12.9162428,
      "lon": 77.592424,
      "tags": {
        "amenity": "cinema",
        "brand": "INOX Leisure",
        "brand:wikidata": "Q5972349",
        "name": "Inox",
        "short_name": "INOX"
      }
    },
    {
      "type": "node",
      "id": 1465122307,
      "lat": 12.9153417,
      "lon": 77.5948673,
      "tags": {
        "amenity": "restaurant",
        "name": "SLV",
        "name:kn": "ಎಸ್ಎಲ್‌ವಿ"
      }
    },
    {
      "type": "node",
      "id": 1465122321,
      "lat": 12.9190717,
      "lon": 77.5936093,
      "tags": {
        "amenity": "marketplace",
        "name": "Jayanagar 9th Block market"
      }
    },
    {
      "type": "node",
      "id": 1465122326,
      "lat": 12.9162325,
      "lon": 77.5949182,
      "tags": {
        "amenity": "pharmacy",
        "brand": "Apollo Pharmacy",
        "brand:wikidata": "Q62562612",
        "healthcare": "pharmacy",
        "name": "Apollo Pharmacy",
        "name:kn": "ಅಪೋಲೋ ಫಾರ್ಮಸಿ"
      }
    },
    {
      "type": "node",
      "id": 1466669150,
      "lat": 12.9071627,
      "lon": 77.5988768,
      "tags": {
        "name": "Crossword",
        "shop": "books"
      }
    },
    {
      "type": "node",
      "id": 1467143629,
      "lat": 12.9140071,
      "lon": 77.5993825,
      "tags": {
        "amenity": "cinema",
        "level": "3",
        "name": "Gopalan Cinemas",
        "name:kn": "ಗೋಪಾಲನ್ ಸಿನೆಮಾಸ್",
        "opening_hours": "PH,Mo-Su 09:00-22:00"
      }
    },
    {
      "type": "node",
      "id": 1467149940,
      "lat": 12.9175358,
      "lon": 77.5934343,
      "tags": {
        "amenity": "pharmacy",
        "brand": "Apollo Pharmacy",
        "brand:wikidata": "Q62562612",
        "healthcare": "pharmacy",
        "name": "Apollo Pharmacy",
        "name:kn": "ಅಪೋಲೋ ಫಾರ್ಮಸಿ"
      }
    },
    {
      "type": "node",
      "id": 1468035295,
      "lat": 12.9189547,
      "lon": 77.607059,
      "tags": {
        "amenity": "place_of_worship",
        "name": "Ganesha Temple",
        "name:kn": "ಗಣೇಶ ದೇವಸ್ಥಾನ",
        "religion": "hindu"
      }
    },
    {
      "type": "node",
      "id": 1468035313,
      "lat": 12.9168527,
      "lon": 77.6034541,
      "tags": {
        "amenity": "fast_food",
        "check_date": "2023-12-04",
        "name": "Juice Burg Cafe"
      }
    },
    {
      "type": "node",
      "id": 1468035355,
      "lat": 12.9180449,
      "lon": 77.6018824,
      "tags": {
        "amenity": "place_of_worship",
        "name": "Saibaba Temple",
        "name:kn": "ಸಾಯಿಬಾಬಾ ದೇವಸ್ಥಾನ",
        "religion": "hindu"
      }
    },
    {
      "type": "node",
      "id": 1468035390,
      "lat": 12.9168632,
      "lon": 77.6045592,
      "tags": {
        "amenity": "atm",
        "fee": "ING vysya"
      }
    },
    {
      "type": "node",
      "id": 1470600205,
      "lat": 12.9149827,
      "lon": 77.605687,
      "tags": {
        "amenity": "bank",
        "name": "Sir M. Visvesvaraya Co-Operative Bank Limited",
        "opening_hours": "Mo-Sa 09:30-16:30"
      }
    },
    {
      "type": "node",
      "id": 1470603498,
      "lat": 12.914434,
      "lon": 77.6050207,
      "tags": {
        "amenity": "hospital",
        "designation": "Kids Care Clinic",
        "healthcare": "hospital",
        "name": "Kids Care Clinic"
      }
    },
    {
      "type": "node",
      "id": 1470604112,
      "lat": 12.9134789,
      "lon": 77.6065671,
      "tags": {
        "amenity": "bank",
        "atm": "yes",
        "brand": "Union Bank of India",
        "brand:wikidata": "Q2004078",
        "brand:wikipedia": "en:Union Bank of India",
        "name": "Union Bank of India",
        "opening_hours": "Mo-Sa 10:00-15:30",
        "wheelchair": "no"
      }
    },
    {
      "type": "node",
      "id": 1470639973,
      "lat": 12.9161642,
      "lon": 77.6029009,
      "tags": {
        "addr:housenumber": "4/A",
        "addr:street": "1st Main Road",
        "amenity": "place_of_worship",
        "check_date": "2023-09-03",
        "name": "Sri Lakshmi Venkateshwara Siddi Vinayaka Varadanjeya Swamy Temple",
        "phone": "+91 80 2668 0913",
        "religion": "hindu"
      }
    },
    {
      "type": "node",
      "id": 1470640244,
      "lat": 12.916875,
      "lon": 77.6024995,
      "tags": {
        "amenity": "place_of_worship",
        "name": "Lord Shiva Temple",
        "name:kn": "ಶಿವ ದೇವಸ್ಥಾನ",
        "religion": "hindu"
      }
    },
    {
      "type": "node",
      "id": 1474299627,
      "lat": 12.9161449,
      "lon": 77.6054538,
      "tags": {
        "amenity": "atm",
        "check_date": "2021-10-07",
        "operator": "ICICI ATM"
      }
    },
    {
      "type": "node",
      "id": 1474819351,
      "lat": 12.9151822,
      "lon": 77.6059587,
      "tags": {
        "addr:city": "Bengaluru",
        "addr:housenumber": "284",
        "addr:postcode": "560076",
        "addr:street": "7th Main Road",
        "name": "Ashirwad Super Market",
        "opening_hours": "Mo-Su 10:00-21:00",
        "phone": "(91)-80-65333340",
        "shop": "supermarket"
      }
    },
    {
      "type": "node",
      "id": 1514981781,
      "lat": 12.9139161,
      "lon": 77.6102112,
      "tags": {
        "amenity": "restaurant",
        "check_date": "2023-10-19",
        "name": "Swadista Ahara",
        "name:kn": "ಸ್ವಾದಿಷ್ಟ ಅಹಾರ",
        "opening_hours": "PH,Mo-Su 08:00-22:00",
        "wheelchair": "limited"
      }
    },
    {
      "type": "node",
      "id": 1741779229,
      "lat": 12.9170457,
      "lon": 77.5931523,
      "tags": {
        "amenity": "restaurant",
        "diet:vegetarian": "only",
        "name": "Raghavendra Upahara",
        "name:kn": "ರಾಘವೇಂದ್ರ ಉಪಹಾರ"
      }
    },
    {
      "type": "node",
      "id": 1741781102,
      "lat": 12.9165024,
      "lon": 77.6034897,
      "tags": {
        "amenity": "atm",
        "brand": "ICICI Bank",
        "brand:wikidata": "Q1653258",
        "name": "ICICI Bank",
        "operator": "ICICI Bank",
        "operator:wikidata": "Q1653258",
        "short_name": "ICICI"
      }
    },
    {
      "type": "node",
      "id": 1782771941,
      "lat": 12.9173594,
      "lon": 77.5931667,
      "tags": {
        "addr:housenumber": "1225",
        "addr:postcode": "560069",
        "addr:street": "26th Main",
        "amenity": "ice_cream",
        "brand": "Corner House",
        "cuisine": "ice_cream",
        "delivery": "yes",
        "name": "Corner House",
        "takeaway": "yes",
        "website": "https://cornerhouse.in/"
      }
    },
    {
      "type": "node",
      "id": 1782771944,
      "lat": 12.9170404,
      "lon": 77.5934403,
      "tags": {
        "amenity": "restaurant",
        "diet:vegetarian": "only",
        "name": "UpSouth",
        "name:kn": "ಅಪ್‌ಸೌತ್"
      }
    },
    {
      "type": "node",
      "id": 2357184852,
      "lat": 12.9117616,
      "lon": 77.5990109,
      "tags": {
        "amenity": "restaurant",
        "cuisine": "regional",
        "name": "MTR 1924"
      }
    },
    {
      "type": "node",
      "id": 2357184857,
      "lat": 12.9114243,
      "lon": 77.5990217,
      "tags": {
        "amenity": "fast_food",
        "cuisine": "regional",
        "name": "Park View"
      }
    },
    {
      "type": "node",
      "id": 2561072706,
      "lat": 12.9167048,
      "lon": 77.6069253,
      "tags": {
        "amenity": "bank",
        "atm": "yes",
        "brand": "Corporation Bank",
        "brand:wikidata": "Q2003387",
        "brand:wikipedia": "en:Corporation Bank",
        "name": "Corporation Bank",
        "name:en": "Corporation Bank",
        "name:kn": "ಕಾರ್ಪರೇಷನ್ ಬ್ಯಾಂಕ್",
        "website": "https://corpbank.com/"
      }
    },
    {
      "type": "node",
      "id": 2677285854,
      "lat": 12.9076665,
      "lon": 77.596728,
      "tags": {
        "amenity": "school",
        "name": "Ekya School"
      }
    },
    {
      "type": "node",
      "id": 2712283239,
      "lat": 12.9122652,
      "lon": 77.5937771,
      "tags": {
        "amenity": "place_of_worship",
        "name:kn": "ಮಸೀದಿ",
        "religion": "muslim"
      }
    },
    {
      "type": "node",
      "id": 2893518450,
      "lat": 12.9104004,
      "lon": 77.5947964,
      "tags": {
        "amenity": "fuel",
        "brand": "Indian Oil",
        "brand:wikidata": "Q1289348",
        "brand:wikipedia": "en:Indian Oil Corporation",
        "name": "Indian Oil Corporation",
        "name:kn": "ಇಂಡಿಯನ್ ಆಯಿಲ್"
      }
    },
    {
      "type": "node",
      "id": 2901127015,
      "lat": 12.9117776,
      "lon": 77.6006489,
      "tags": {
        "addr:street": "2nd Main",
        "amenity": "restaurant",
        "cuisine": "indian",
        "name": "Udupi Krishna Vihar",
        "name:en": "Sri Chaitanya Grand",
        "smoking": "no",
        "wheelchair": "limited"
      }
    },
    {
      "type": "node",
      "id": 2918827908,
      "lat": 12.9099094,
      "lon": 77.5998609,
      "tags": {
        "amenity": "bank",
        "atm": "yes",
        "brand": "Yes Bank",
        "brand:wikidata": "Q2040394",
        "brand:wikipedia": "en:Yes Bank",
        "name": "Yes Bank",
        "name:en": "YES Bank",
        "name:kn": "ಯಸ್ ಬ್ಯಾಂಕ್",
        "website": "https://www.yesbank.in"
      }
    },
    {
      "type": "node",
      "id": 2918828415,
      "lat": 12.9088379,
      "lon": 77.5999309,
      "tags": {
        "amenity": "bank",
        "brand": "Axis Bank",
        "brand:wikidata": "Q2003549",
        "brand:wikipedia": "en:Axis Bank",
        "name": "Axis Bank",
        "name:en": "Axis Bank",
        "name:kn": "ಆಕ್ಸಿಸ್ ಬ್ಯಾಂಕ್",
        "website": "https://www.axisbank.com"
      }
    },
    {
      "type": "node",
      "id": 2934044440,
      "lat": 12.9165996,
      "lon": 77.5970356,
      "tags": {
        "amenity": "pharmacy",
        "dispensing": "yes",
        "healthcare": "pharmacy",
        "name": "Bharathi Medical Stores"
      }
    },
    {
      "type": "node",
      "id": 2934044441,
      "lat": 12.9166576,
      "lon": 77.5970419,
      "tags": {
        "name": "Cake Corner",
        "shop": "bakery"
      }
    },
    {
      "type": "node",
      "id": 2934044442,
      "lat": 12.9166467,
      "lon": 77.5971555,
      "tags": {
        "name": "Dennys Bar",
        "shop": "alcohol"
      }
    },
    {
      "type": "node",
      "id": 2934044443,
      "lat": 12.9164737,
      "lon": 77.596929,
      "tags": {
        "amenity": "restaurant",
        "brand": "Denny's",
        "brand:wikidata": "Q1189695",
        "check_date": "2023-11-29",
        "cuisine": "american",
        "name": "Denny's"
      }
    },
    {
      "type": "node",
      "id": 2934044444,
      "lat": 12.9156738,
      "lon": 77.5967485,
      "tags": {
        "amenity": "place_of_worship",
        "name": "Ganesha Temple",
        "name:kn": "ಗಣೇಶ ದೇವಸ್ಥಾನ",
        "religion": "hindu"
      }
    },
    {
      "type": "node",
      "id": 2934044445,
      "lat": 12.9165607,
      "lon": 77.5972018,
      "tags": {
        "amenity": "bank",
        "atm": "no",
        "brand": "HDFC Bank",
        "brand:wikidata": "Q631047",
        "brand:wikipedia": "en:HDFC Bank",
        "check_date": "2023-11-29",
        "name": "HDFC Bank",
        "name:kn": "ಎಚ್ ಡಿ ಎಫ್ ಸಿ",
        "short_name": "HDFC",
        "website": "https://www.hdfcbank.com"
      }
    },
    {
      "type": "node",
      "id": 2934044446,
      "lat": 12.9162927,
      "lon": 77.5966944,
      "tags": {
        "amenity": "bank",
        "brand": "Indian Overseas Bank",
        "brand:wikidata": "Q2003611",
        "brand:wikipedia": "en:Indian Overseas Bank",
        "name": "Indian Overseas Bank",
        "name:en": "Indian Overseas Bank",
        "short_name": "IOB",
        "website": "https://www.iob.in"
      }
    },
    {
      "type": "node",
      "id": 2934044447,
      "lat": 12.9162385,
      "lon": 77.5970407,
      "tags": {
        "amenity": "restaurant",
        "cuisine": "indian",
        "name": "Kabab Magic"
      }
    },
    {
      "type": "node",
      "id": 2934044448,
      "lat": 12.9165635,
      "lon": 77.5970388,
      "tags": {
        "name": "Nandini Shoppe",
        "note": "Milk & Milk products",
        "shop": "kiosk"
      }
    },
    {
      "type": "node",
      "id": 2934044449,
      "lat": 12.9166518,
      "lon": 77.5967457,
      "tags": {
        "amenity": "bank",
        "brand": "Ujjivan Small Finance Bank",
        "brand:wikidata": "Q42529272",
        "check_date": "2023-11-28",
        "name": "Ujjivan Small Finance Bank"
      }
    },
    {
      "type": "node",
      "id": 2934044450,
      "lat": 12.9158974,
      "lon": 77.5967626,
      "tags": {
        "amenity": "restaurant",
        "cuisine": "indian",
        "name": "The Pongal"
      }
    },
    {
      "type": "node",
      "id": 2934044451,
      "lat": 12.9159963,
      "lon": 77.5967482,
      "tags": {
        "shop": "printer_ink"
      }
    },
    {
      "type": "node",
      "id": 2934044452,
      "lat": 12.9166472,
      "lon": 77.5972012,
      "tags": {
        "amenity": "atm",
        "brand": "HDFC Bank",
        "brand:wikidata": "Q631047",
        "name": "HDFC Bank",
        "operator": "HDFC Bank",
        "operator:wikidata": "Q631047",
        "short_name": "HDFC"
      }
    },
    {
      "type": "node",
      "id": 3016052468,
      "lat": 12.9101075,
      "lon": 77.5950902,
      "tags": {
        "branch": "Shoppe",
        "brand": "Nandini",
        "brand:wikidata": "Q124374212",
        "name": "Nandini",
        "shop": "dairy"
      }
    },
    {
      "type": "node",
      "id": 3016052470,
      "lat": 12.9104179,
      "lon": 77.5950737,
      "tags": {
        "amenity": "bank",
        "atm": "no",
        "brand": "State Bank of India",
        "brand:wikidata": "Q1340361",
        "brand:wikipedia": "en:State Bank of India",
        "name": "State Bank of India",
        "name:kn": "ಭಾರತೀಯ ಸ್ಟೇಟ್ ಬ್ಯಾಂಕ್",
        "operator": "State Bank of India",
        "short_name": "SBI"
      }
    },
    {
      "type": "node",
      "id": 3016090359,
      "lat": 12.9164462,
      "lon": 77.6072593,
      "tags": {
        "amenity": "payment_centre",
        "name": "BWSSB Payment Kiosk"
      }
    },
    {
      "type": "node",
      "id": 3016090370,
      "lat": 12.9145163,
      "lon": 77.5987874,
      "tags": {
        "amenity": "school",
        "name": "St. Marks School",
        "name:kn": "ಸಂತ ಮಾರ್ಕ್ಸ್ ಶಾಲೆ"
      }
    },
    {
      "type": "node",
      "id": 3016090373,
      "lat": 12.9165191,
      "lon": 77.5987455,
      "tags": {
        "amenity": "atm",
        "brand": "Axis Bank",
        "brand:wikidata": "Q2003549",
        "name": "Axis Bank",
        "operator": "Axis Bank",
        "operator:wikidata": "Q2003549"
      }
    },
    {
      "type": "node",
      "id": 3022074189,
      "lat": 12.9109222,
      "lon": 77.5997273,
      "tags": {
        "amenity": "auditorium",
        "name": "Shilpa Kala Mantap",
        "note": "A large hall were events like marriages are performed",
        "source": "survey"
      }
    },
    {
      "type": "node",
      "id": 3024935600,
      "lat": 12.910453,
      "lon": 77.5962584,
      "tags": {
        "amenity": "post_box",
        "operator": "India Post",
        "operator:wikidata": "Q3519720",
        "source": "survey"
      }
    },
    {
      "type": "node",
      "id": 3072185609,
      "lat": 12.9155512,
      "lon": 77.5951874,
      "tags": {
        "name": "Cake Art",
        "shop": "bakery"
      }
    },
    {
      "type": "node",
      "id": 3072185610,
      "lat": 12.9140657,
      "lon": 77.5949385,
      "tags": {
        "amenity": "bank",
        "atm": "no",
        "brand": "ICICI Bank",
        "brand:wikidata": "Q1653258",
        "name": "ICICI Bank",
        "name:en": "ICICI Bank",
        "name:kn": "ಐಸಿಐಸಿಐ ಬ್ಯಾಂಕು",
        "operator": "ICICI Bank",
        "short_name": "ICICI",
        "website": "https://www.icicibank.com"
      }
    },
    {
      "type": "node",
      "id": 3072185611,
      "lat": 12.9149192,
      "lon": 77.5951905,
      "tags": {
        "name": "Lakme Salon",
        "shop": "beauty",
        "source": "survey"
      }
    },
    {
      "type": "node",
      "id": 3072185612,
      "lat": 12.917008,
      "lon": 77.5951912,
      "tags": {
        "name": "M D Tyers & Tubes",
        "shop": "tyres",
        "source": "survey"
      }
    },
    {
      "type": "node",
      "id": 3221380822,
      "lat": 12.914181,
      "lon": 77.5949195,
      "tags": {
        "amenity": "bank",
        "atm": "yes",
        "brand": "Andhra Bank",
        "brand:wikidata": "Q2003476",
        "brand:wikipedia": "en:Andhra Bank",
        "name": "Andhra Bank",
        "name:en": "Andhra Bank",
        "name:kn": "ಆಂಧ್ರ ಬ್ಯಾಂಕ್",
        "operator": "Andhra Bank",
        "website": "https://www.andhrabank.in"
      }
    },
    {
      "type": "node",
      "id": 3221387166,
      "lat": 12.9156159,
      "lon": 77.5951971,
      "tags": {
        "name": "Kunchum Foods",
        "shop": "supermarket"
      }
    },
    {
      "type": "node",
      "id": 3221387167,
      "lat": 12.9160519,
      "lon": 77.5951937,
      "tags": {
        "amenity": "restaurant",
        "cuisine": "pizza",
        "name": "US Pizza"
      }
    },
    {
      "type": "node",
      "id": 3221387168,
      "lat": 12.9138048,
      "lon": 77.5951113,
      "tags": {
        "amenity": "post_box",
        "name": "Post Office",
        "name:kn": "ಅಂಚೆ ಕಛೇರಿ",
        "operator": "India Post",
        "operator:wikidata": "Q3519720",
        "source": "survey"
      }
    },
    {
      "type": "node",
      "id": 3231750612,
      "lat": 12.9168242,
      "lon": 77.6037973,
      "tags": {
        "amenity": "atm",
        "brand": "Citibank",
        "brand:wikidata": "Q857063",
        "name": "Citibank",
        "operator": "Citibank",
        "operator:wikidata": "Q857063",
        "short_name": "Citi",
        "source": "Survey"
      }
    },
    {
      "type": "node",
      "id": 3231750613,
      "lat": 12.9168242,
      "lon": 77.6038323,
      "tags": {
        "amenity": "atm",
        "brand": "Kotak Mahindra Bank",
        "brand:wikidata": "Q2040404",
        "operator": "Kotak Mahindra Bank",
        "operator:wikidata": "Q2040404",
        "source": "Survey"
      }
    },
    {
      "type": "node",
      "id": 3231750614,
      "lat": 12.9168388,
      "lon": 77.6033703,
      "tags": {
        "amenity": "atm",
        "brand": "Karur Vysya Bank",
        "brand:wikidata": "Q6373724",
        "name": "Karur Vysya Bank",
        "operator": "Karur Vysya Bank",
        "operator:wikidata": "Q6373724",
        "source": "Survey"
      }
    },
    {
      "type": "node",
      "id": 3231750615,
      "lat": 12.9168388,
      "lon": 77.6034052,
      "tags": {
        "amenity": "atm",
        "brand": "State Bank of India",
        "brand:wikidata": "Q1340361",
        "name": "State Bank of India",
        "operator": "State Bank of India",
        "operator:wikidata": "Q1340361",
        "short_name": "SBI",
        "source": "Survey"
      }
    },
    {
      "type": "node",
      "id": 3392655752,
      "lat": 12.9116521,
      "lon": 77.6002227,
      "tags": {
        "name": "Girias",
        "name:kn": "ಗಿರ್ಯಾಸ್",
        "shop": "electronics"
      }
    },
    {
      "type": "node",
      "id": 3395243171,
      "lat": 12.9169861,
      "lon": 77.596996,
      "tags": {
        "amenity": "pharmacy",
        "healthcare": "pharmacy",
        "name": "Maruthi Medical Stores"
      }
    },
    {
      "type": "node",
      "id": 3395246648,
      "lat": 12.9102709,
      "lon": 77.5993958,
      "tags": {
        "name": "Laguna Clothing",
        "shop": "clothes"
      }
    },
    {
      "type": "node",
      "id": 3401671688,
      "lat": 12.9115865,
      "lon": 77.6002227,
      "tags": {
        "amenity": "restaurant",
        "name": "Hotel Aradhana"
      }
    },
    {
      "type": "node",
      "id": 3401687013,
      "lat": 12.9123494,
      "lon": 77.6004812,
      "tags": {
        "addr:housename": "Commerce @ Mantri",
        "addr:street": "Bannerghatta Road",
        "brand": "Shoppers Stop",
        "brand:wikidata": "Q7501155",
        "level": "0",
        "name": "Shoppers Stop",
        "shop": "department_store",
        "website": "https://www.shoppersstop.com"
      }
    },
    {
      "type": "node",
      "id": 3401695387,
      "lat": 12.9107034,
      "lon": 77.6002334,
      "tags": {
        "shop": "yes"
      }
    },
    {
      "type": "node",
      "id": 3401699861,
      "lat": 12.9109162,
      "lon": 77.600202,
      "tags": {
        "amenity": "fast_food",
        "cuisine": "kebab",
        "name": "New Kabab Zone"
      }
    },
    {
      "type": "node",
      "id": 3401699875,
      "lat": 12.9109842,
      "lon": 77.6001833,
      "tags": {
        "amenity": "fast_food",
        "name": "Brahmashree Juice and Condiments"
      }
    },
    {
      "type": "node",
      "id": 3403067273,
      "lat": 12.9110992,
      "lon": 77.6001886,
      "tags": {
        "amenity": "fast_food",
        "name": "Kebab"
      }
    },
    {
      "type": "node",
      "id": 3403067274,
      "lat": 12.9112404,
      "lon": 77.6001886,
      "tags": {
        "amenity": "bar",
        "building": "restaurant",
        "name": "Sri Nanjundeshwara bar and restaurant"
      }
    },
    {
      "type": "node",
      "id": 3403067275,
      "lat": 12.9113058,
      "lon": 77.6001591,
      "tags": {
        "amenity": "restaurant",
        "building": "restaurant",
        "name": "Shri Lakshmi Darshini"
      }
    },
    {
      "type": "node",
      "id": 3403067459,
      "lat": 12.9112273,
      "lon": 77.6001377,
      "tags": {
        "amenity": "fast_food",
        "name": "Kebab"
      }
    },
    {
      "type": "node",
      "id": 3403067460,
      "lat": 12.9113345,
      "lon": 77.6001135,
      "tags": {
        "amenity": "restaurant",
        "building": "restaurant",
        "name": "Prasanna bar and restaurant"
      }
    },
    {
      "type": "node",
      "id": 3403067697,
      "lat": 12.9110469,
      "lon": 77.6001538,
      "tags": {
        "amenity": "fast_food",
        "name": "Kebab"
      }
    },
    {
      "type": "node",
      "id": 3408154563,
      "lat": 12.9166283,
      "lon": 77.6001166,
      "tags": {
        "name": "Iyengar's Bakery",
        "shop": "bakery"
      }
    },
    {
      "type": "node",
      "id": 3408154565,
      "lat": 12.9161526,
      "lon": 77.6001688,
      "tags": {
        "amenity": "restaurant",
        "name": "Amaan Restaurant"
      }
    },
    {
      "type": "node",
      "id": 3412353036,
      "lat": 12.9165473,
      "lon": 77.6001273,
      "tags": {
        "amenity": "fast_food",
        "building": "restaurant",
        "name": "Ambur Chicken Biriyani and Chinese food"
      }
    },
    {
      "type": "node",
      "id": 3424841452,
      "lat": 12.9079522,
      "lon": 77.6062306,
      "tags": {
        "amenity": "pharmacy",
        "healthcare": "pharmacy",
        "name": "Reddy's Pharma",
        "wheelchair": "limited"
      }
    },
    {
      "type": "node",
      "id": 3424841457,
      "lat": 12.9090104,
      "lon": 77.606404,
      "tags": {
        "amenity": "pharmacy",
        "brand": "Apollo Pharmacy",
        "brand:wikidata": "Q62562612",
        "healthcare": "pharmacy",
        "name": "Apollo Pharmacy",
        "name:kn": "ಅಪೋಲೋ ಫಾರ್ಮಸಿ"
      }
    },
    {
      "type": "node",
      "id": 3702258470,
      "lat": 12.9210143,
      "lon": 77.6015318,
      "tags": {
        "amenity": "place_of_worship",
        "name": "Masjid Salafia",
        "religion": "muslim"
      }
    },
    {
      "type": "node",
      "id": 3702261163,
      "lat": 12.9202457,
      "lon": 77.6002095,
      "tags": {
        "amenity": "restaurant",
        "cuisine": "South_India",
        "name": "Panchami Garden"
      }
    },
    {
      "type": "node",
      "id": 3702279319,
      "lat": 12.9149734,
      "lon": 77.6099595,
      "tags": {
        "addr:housenumber": "782",
        "addr:street": "16th Main Road",
        "level": "-1",
        "name": "Mahalaxmi Mart",
        "opening_hours": "Mo-Su 09:00-21:00",
        "shop": "houseware"
      }
    },
    {
      "type": "node",
      "id": 3702281012,
      "lat": 12.9195986,
      "lon": 77.608563,
      "tags": {
        "amenity": "college",
        "name": "Wisdom International School"
      }
    },
    {
      "type": "node",
      "id": 3995048781,
      "lat": 12.9204156,
      "lon": 77.5973219,
      "tags": {
        "addr:city": "Bangalore",
        "addr:housenumber": "1669",
        "addr:postcode": "560069",
        "addr:street": "39 Cross",
        "name": "Jago Supermarket",
        "name:kn": "ನಾವು ಮಾರ್ಟ್ ಸೂಪರ್ ಮಾರುಕಟ್ಟೆ",
        "opening_hours": "08:00-22:30",
        "operator": "Private",
        "phone": "080 2653 0306",
        "shop": "department_store",
        "wheelchair": "no"
      }
    },
    {
      "type": "node",
      "id": 3995050517,
      "lat": 12.9202957,
      "lon": 77.59682,
      "tags": {
        "branch": "Jayanagar",
        "contact:email": "jn1.blr@printo.in",
        "contact:mobile": "+91-7899-934-267",
        "contact:website": "https://printo.in/",
        "name": "Printo",
        "opening_hours": "Mo-Sa 10:00-20:00, Su 12:30-20:00",
        "shop": "printing",
        "wheelchair": "limited"
      }
    },
    {
      "type": "node",
      "id": 3995057637,
      "lat": 12.9170191,
      "lon": 77.5972034,
      "tags": {
        "addr:city": "bangalore",
        "addr:postcode": "560069",
        "addr:street": "Marenahalli Road (South End)",
        "brand": "Royal Enfield",
        "brand:wikidata": "Q2668720",
        "name": "Royal Enfield Brand Store",
        "shop": "motorcycle"
      }
    },
    {
      "type": "node",
      "id": 4135046589,
      "lat": 12.9147113,
      "lon": 77.6024933,
      "tags": {
        "addr:housenumber": "58",
        "addr:place": "Madivala",
        "addr:street": "1st Main",
        "amenity": "school",
        "isced:level": "2",
        "name": "Shantiniketan English High School, B M P 64",
        "name:kn": "ಶಾಂತಿನಿಕೇತನ ಆಂಗ್ಲ ಪ್ರೌಢಶಾಲೆ, ಬಿ.ಎಂ.ಪಿ. 64",
        "operator": "Private Un-Aided"
      }
    },
    {
      "type": "node",
      "id": 4195979551,
      "lat": 12.918083,
      "lon": 77.5958017,
      "tags": {
        "opening_hours": "08:30-12:30,15:30-20:00",
        "shop": "butcher",
        "wheelchair": "no"
      }
    },
    {
      "type": "node",
      "id": 4195979556,
      "lat": 12.9181994,
      "lon": 77.5958138,
      "tags": {
        "amenity": "recycling",
        "opening_hours": "08:30-12:30,15:30-20:00",
        "recycling:paper": "yes",
        "recycling:scrap_metal": "yes",
        "recycling_type": "centre",
        "wheelchair": "no"
      }
    },
    {
      "type": "node",
      "id": 4195979561,
      "lat": 12.9183771,
      "lon": 77.5958232,
      "tags": {
        "opening_hours": "08:30-12:30,15:30-20:00",
        "shop": "butcher",
        "wheelchair": "no"
      }
    },
    {
      "type": "node",
      "id": 4197693023,
      "lat": 12.9174665,
      "lon": 77.595836,
      "tags": {
        "name": "Dishad Fashions",
        "shop": "tailor",
        "wheelchair": "no"
      }
    },
    {
      "type": "node",
      "id": 4197693024,
      "lat": 12.917308,
      "lon": 77.5958374,
      "tags": {
        "name": "Salaam Auto Clinic",
        "parts": "yes",
        "sales": "no",
        "shop": "motorcycle_repair",
        "wheelchair": "no"
      }
    },
    {
      "type": "node",
      "id": 4197693025,
      "lat": 12.9178015,
      "lon": 77.5957843,
      "tags": {
        "motorcycle:parts": "yes",
        "motorcycle:repair": "yes",
        "name": "Vikas Enterprise",
        "shop": "motorcycle",
        "wheelchair": "no"
      }
    },
    {
      "type": "node",
      "id": 4197698506,
      "lat": 12.916973,
      "lon": 77.5958573,
      "tags": {
        "amenity": "bureau_de_change",
        "name": "Manapurram Gold Loan",
        "wheelchair": "no"
      }
    },
    {
      "type": "node",
      "id": 4197698507,
      "lat": 12.9164337,
      "lon": 77.5950331,
      "tags": {
        "name": "New Karnataka Hardware",
        "shop": "hardware",
        "wheelchair": "no"
      }
    },
    {
      "type": "node",
      "id": 4197698512,
      "lat": 12.9172621,
      "lon": 77.5957949,
      "tags": {
        "shop": "bookmaker",
        "wheelchair": "no"
      }
    },
    {
      "type": "node",
      "id": 4197712275,
      "lat": 12.9169736,
      "lon": 77.5960975,
      "tags": {
        "name": "Karnataka Engineering Works",
        "shop": "hardware"
      }
    },
    {
      "type": "node",
      "id": 4197712276,
      "lat": 12.9177769,
      "lon": 77.5961824,
      "tags": {
        "name": "Public Distribution Shop",
        "name:kn": "ನ್ಯಾಯ ಬೆಲೆ ಅಂಗಡಿ",
        "opening_hours": "08:30-12:30,15:30-20:00",
        "shop": "convenience",
        "wheelchair": "no"
      }
    },
    {
      "type": "node",
      "id": 4197712277,
      "lat": 12.9170642,
      "lon": 77.5961094,
      "tags": {
        "name": "S L Men's wear",
        "shop": "tailor",
        "wheelchair": "no"
      }
    },
    {
      "type": "node",
      "id": 4197712278,
      "lat": 12.9173423,
      "lon": 77.5961254,
      "tags": {
        "name": "Vijay Paints",
        "shop": "paint"
      }
    },
    {
      "type": "node",
      "id": 4197719557,
      "lat": 12.918707,
      "lon": 77.5964054,
      "tags": {
        "amenity": "place_of_worship",
        "denomination": "shaivism",
        "name": "Shiva Temple",
        "name:kn": "ಶಿವ ದೇವಸ್ಥಾನ",
        "religion": "hindu",
        "wheelchair": "no"
      }
    },
    {
      "type": "node",
      "id": 4197719558,
      "lat": 12.9185951,
      "lon": 77.5961373,
      "tags": {
        "amenity": "place_of_worship",
        "denomination": "shaktism",
        "name": "Sri Devi Karimariamma Temple",
        "opening_hours": "sunrise-sunset",
        "religion": "hindu",
        "service_times": "sunset,sunrise",
        "wheelchair": "no"
      }
    },
    {
      "type": "node",
      "id": 4197719559,
      "lat": 12.9189327,
      "lon": 77.5964279,
      "tags": {
        "amenity": "fast_food",
        "cuisine": "chicken;indian",
        "internet_access": "no",
        "name": "Street side food",
        "smoking": "yes",
        "takeaway": "no",
        "wheelchair": "no"
      }
    },
    {
      "type": "node",
      "id": 4197719562,
      "lat": 12.9189101,
      "lon": 77.5958772,
      "tags": {
        "amenity": "waste_disposal"
      }
    },
    {
      "type": "node",
      "id": 4197757507,
      "lat": 12.9189411,
      "lon": 77.5958321,
      "tags": {
        "motorcycle:repair": "yes",
        "motorcycle:sales": "yes",
        "name": "AF Motors",
        "shop": "motorcycle",
        "wheelchair": "no"
      }
    },
    {
      "type": "node",
      "id": 4197757508,
      "lat": 12.9204886,
      "lon": 77.5956678,
      "tags": {
        "brand": "BMW",
        "brand:wikidata": "Q249173",
        "motorcycle:parts": "yes",
        "motorcycle:repair": "yes",
        "name": "BMW Motorcycle Works",
        "shop": "motorcycle"
      }
    },
    {
      "type": "node",
      "id": 4197757509,
      "lat": 12.9189814,
      "lon": 77.5958851,
      "tags": {
        "name": "Bangles Store",
        "shop": "beauty"
      }
    },
    {
      "type": "node",
      "id": 4197757510,
      "lat": 12.9204794,
      "lon": 77.5956182,
      "tags": {
        "amenity": "restaurant",
        "cuisine": "chicken;regional",
        "internet_access": "no",
        "name": "Donne Biriyani Hotel",
        "smoking": "yes"
      }
    },
    {
      "type": "node",
      "id": 4197757511,
      "lat": 12.9188764,
      "lon": 77.5958387,
      "tags": {
        "name": "JMR Pasha",
        "shop": "clothes"
      }
    },
    {
      "type": "node",
      "id": 4197757512,
      "lat": 12.9204847,
      "lon": 77.5957496,
      "tags": {
        "name": "Mahesh Condiments",
        "shop": "confectionery"
      }
    },
    {
      "type": "node",
      "id": 4197757513,
      "lat": 12.9204873,
      "lon": 77.5957966,
      "tags": {
        "amenity": "recycling",
        "name": "Mahesh Waste Paper Mart",
        "recycling:paper": "yes",
        "recycling_type": "centre"
      }
    },
    {
      "type": "node",
      "id": 4197757514,
      "lat": 12.9204402,
      "lon": 77.5956155,
      "tags": {
        "name": "My Ride Car Accessories",
        "shop": "car_parts"
      }
    },
    {
      "type": "node",
      "id": 4197757516,
      "lat": 12.9204873,
      "lon": 77.5957,
      "tags": {
        "name": "Public Distribution Shop",
        "name:kn": "ನ್ಯಾಯ ಬೆಲೆ ಅಂಗಡಿ",
        "shop": "convenience"
      }
    },
    {
      "type": "node",
      "id": 4197757517,
      "lat": 12.9203644,
      "lon": 77.5956075,
      "tags": {
        "name": "Safa Furniture",
        "shop": "furniture"
      }
    },
    {
      "type": "node",
      "id": 4197757518,
      "lat": 12.9204899,
      "lon": 77.5958314,
      "tags": {
        "name": "Suchitra Graphics",
        "shop": "bookmaker"
      }
    },
    {
      "type": "node",
      "id": 4197757522,
      "lat": 12.9199487,
      "lon": 77.595865,
      "tags": {
        "amenity": "place_of_worship",
        "denomination": "shaktism",
        "religion": "hindu"
      }
    },
    {
      "type": "node",
      "id": 4197758133,
      "lat": 12.918988,
      "lon": 77.5956262,
      "tags": {
        "name": "Cel net Communications",
        "shop": "mobile_phone"
      }
    },
    {
      "type": "node",
      "id": 4197758134,
      "lat": 12.9189801,
      "lon": 77.5956678,
      "tags": {
        "name": "MPS Bakery",
        "shop": "bakery"
      }
    },
    {
      "type": "node",
      "id": 4197758135,
      "lat": 12.9189814,
      "lon": 77.59559,
      "tags": {
        "name": "S N Printers",
        "shop": "bookmaker"
      }
    },
    {
      "type": "node",
      "id": 4254309393,
      "lat": 12.916485,
      "lon": 77.5982924,
      "tags": {
        "addr:housenumber": "118/47",
        "addr:postcode": "560067",
        "addr:street": "Marenahalli Road",
        "amenity": "restaurant",
        "cuisine": "arab",
        "name": "AL-BEK"
      }
    },
    {
      "type": "node",
      "id": 4321212103,
      "lat": 12.9104062,
      "lon": 77.5951099,
      "tags": {
        "amenity": "atm",
        "brand": "State Bank of India",
        "brand:wikidata": "Q1340361",
        "check_date": "2024-12-28",
        "name": "State Bank of India",
        "operator": "State Bank of India",
        "operator:wikidata": "Q1340361",
        "short_name": "SBI"
      }
    },
    {
      "type": "node",
      "id": 4443267488,
      "lat": 12.9153987,
      "lon": 77.6010351,
      "tags": {
        "addr:city": "Bangalore",
        "addr:housenumber": "1st Main Road",
        "addr:postcode": "560076",
        "addr:street": "Opp Vijaya Bank, Bannerghatta Road, Bangalore",
        "amenity": "restaurant",
        "cuisine": "regional",
        "name": "Paratha Junction",
        "opening_hours": "10:00-23:00",
        "smoking": "no"
      }
    },
    {
      "type": "node",
      "id": 4446852004,
      "lat": 12.9175511,
      "lon": 77.6039486,
      "tags": {
        "addr:city": "Bengaluru",
        "addr:housenumber": "57",
        "addr:postcode": "560029",
        "addr:street": "8th B Main Road, BTM Layout 1st Stage, KEB Colony, New Gurappana Palya, BTM Layout 1, Karnataka",
        "amenity": "hospital",
        "name": "Vedam Ayurveda Multispeciality Hospital",
        "phone": "080 4120 2911",
        "website": "https://vedamayurveda.co.in/"
      }
    },
    {
      "type": "node",
      "id": 4446879222,
      "lat": 12.9133671,
      "lon": 77.6041142,
      "tags": {
        "addr:city": "Bengaluru",
        "addr:housenumber": "458",
        "addr:postcode": "560076",
        "addr:street": "7th Cross Road",
        "male": "yes",
        "name": "My Barber",
        "opening_hours": "Mo-Su 09:00-21:00",
        "shop": "hairdresser"
      }
    },
    {
      "type": "node",
      "id": 4447353516,
      "lat": 12.91032,
      "lon": 77.5935628,
      "tags": {
        "addr:city": "Bangalore",
        "addr:housenumber": "213",
        "addr:postcode": "560078",
        "addr:street": "9th Cross Road",
        "amenity": "pharmacy",
        "check_date": "2025-06-21",
        "fixme": "the name doesn't sound very pharmacy like, also there are ambulances here",
        "healthcare": "pharmacy",
        "name": "Trinity Diagnostic And Imaging Research Centre",
        "phone": "080 2658 1757",
        "source": "justdial"
      }
    },
    {
      "type": "node",
      "id": 4455261200,
      "lat": 12.9176041,
      "lon": 77.5927545,
      "tags": {
        "addr:street": "25th Main",
        "name": "Lassi",
        "name:en": "Lassi",
        "shop": "beverages"
      }
    },
    {
      "type": "node",
      "id": 4487317090,
      "lat": 12.9164396,
      "lon": 77.5925822,
      "tags": {
        "addr:city": "Bangalore",
        "addr:postcode": "560078",
        "addr:street": "South End C Cross",
        "brand": "Puma",
        "brand:wikidata": "Q157064",
        "brand:wikipedia": "en:Puma (brand)",
        "name": "Puma",
        "name:kn": "ಪೂಮ",
        "phone": "081422 75227",
        "shop": "clothes",
        "website": "https://in.puma.com/"
      }
    },
    {
      "type": "node",
      "id": 4487934284,
      "lat": 12.9070546,
      "lon": 77.5985562,
      "tags": {
        "addr:city": "bangalore",
        "addr:housenumber": "72/A, 3rd Floor",
        "addr:postcode": "560078",
        "addr:street": "15th Cross Road",
        "leisure": "sports_centre",
        "name": "Kaizen Fitness"
      }
    },
    {
      "type": "node",
      "id": 4487952843,
      "lat": 12.9102884,
      "lon": 77.6039944,
      "tags": {
        "addr:city": "Bengaluru",
        "addr:district": "Bengaluru",
        "addr:housenumber": "28/1",
        "addr:postcode": "560076",
        "addr:street": "4th Main Road, N.S Palya",
        "name": "M.N.C SPORTS",
        "phone": "09591696131",
        "shop": "sports"
      }
    },
    {
      "type": "node",
      "id": 4488143029,
      "lat": 12.9136522,
      "lon": 77.6076486,
      "tags": {
        "addr:city": "bangalore",
        "addr:housenumber": "726",
        "addr:postcode": "560076",
        "addr:street": "7th Cross Road",
        "name": "Om sports",
        "opening_hours": "Mo-Su 09:00-21:00",
        "phone": "09980383846",
        "shop": "sports"
      }
    },
    {
      "type": "node",
      "id": 4488157957,
      "lat": 12.9109555,
      "lon": 77.6065615,
      "tags": {
        "addr:city": "Bangalore",
        "addr:housenumber": "46",
        "addr:postcode": "560076",
        "addr:street": "7th Main Road",
        "name": "Ramdev Sports & Stationary",
        "phone": "09620656041",
        "shop": "sports"
      }
    },
    {
      "type": "node",
      "id": 4488513390,
      "lat": 12.9215816,
      "lon": 77.6003237,
      "tags": {
        "addr:city": "Bangalore",
        "addr:housenumber": "Studio: 55, 2nd Floor",
        "addr:postcode": "560076",
        "addr:street": "Bannerghatta Road",
        "leisure": "sports_centre",
        "name": "Indian Combat Sports Academy",
        "opening_hours": "5:30-22:00",
        "phone": "086870 08888",
        "sport": "gymnastics"
      }
    },
    {
      "type": "node",
      "id": 4489093093,
      "lat": 12.9164708,
      "lon": 77.6047081,
      "tags": {
        "addr:city": "Bengaluru",
        "addr:housenumber": "55/373/2",
        "addr:postcode": "560076",
        "addr:street": "BTM layout",
        "brand": "Reliance Fresh",
        "brand:wikidata": "Q7311014",
        "name": "Reliance Fresh",
        "name:kn": "ರಿಲಾಯನ್ಸ್ ಫ್ರೆಶ್",
        "phone": "(91)-80-41573392",
        "shop": "supermarket"
      }
    },
    {
      "type": "node",
      "id": 4489365813,
      "lat": 12.9133022,
      "lon": 77.6064761,
      "tags": {
        "addr:city": "bangalore",
        "addr:housenumber": "#429",
        "addr:postcode": "560076",
        "addr:street": "7th Main Road",
        "name": "B T M Sports And Stationery",
        "opening_hours": "09:00-22:00",
        "phone": "+91 99724 19321",
        "shop": "sports"
      }
    },
    {
      "type": "node",
      "id": 4489366673,
      "lat": 12.9171012,
      "lon": 77.5941849,
      "tags": {
        "addr:city": "Bangalore",
        "addr:postcode": "560041",
        "addr:street": "Marenahalli Rd, Jayanagara 9th Block, Jayanagara Jaya Nagar",
        "leisure": "sports_centre",
        "name": "Nike Factory Store",
        "phone": "018008066453",
        "website": "help-en-us.nike.com"
      }
    },
    {
      "type": "node",
      "id": 4489436831,
      "lat": 12.9090478,
      "lon": 77.6062393,
      "tags": {
        "addr:city": "Bangalore",
        "addr:housenumber": "#45",
        "addr:postcode": "560076",
        "addr:street": "7th Main Road, N S Palya, BTM Layout 2nd Stage,",
        "name": "Ramdev Sports",
        "opening_hours": "09:30-21:30",
        "phone": "+917090955586",
        "shop": "sports"
      }
    },
    {
      "type": "node",
      "id": 4489768592,
      "lat": 12.9148059,
      "lon": 77.6001736,
      "tags": {
        "addr:city": "Bangalore",
        "addr:postcode": "560076",
        "addr:street": "No 29, 2nd Floor, Btm Layout, 2nd Stage, Bannerghatta Road, Bannerghatta Road, BHBCS Layout, Stage 2, BTM 2nd Stage, , Karnataka",
        "leisure": "sports_centre",
        "name": "Verve Health & Fitness Centre",
        "phone": "080 4150 0399"
      }
    },
    {
      "type": "node",
      "id": 4489771123,
      "lat": 12.9141965,
      "lon": 77.6098793,
      "tags": {
        "addr:city": "Bengaluru",
        "addr:housenumber": "775",
        "addr:postcode": "560076",
        "addr:street": "16th Main Road",
        "leisure": "sports_centre",
        "level": "1",
        "name": "Muscle Tribes Gym",
        "opening_hours": "05:30-22:00",
        "phone": "+91 74114 17447"
      }
    },
    {
      "type": "node",
      "id": 4490228415,
      "lat": 12.9174823,
      "lon": 77.5934466,
      "tags": {
        "addr:city": "Bangalore",
        "addr:housenumber": "#1188/2",
        "addr:postcode": "560069",
        "addr:street": "26th Main, Above Food Fields, 9th Block, Jayanagar, 6th Phase, Jayanagara 9th Block, Jayanagara Jaya Nagar,",
        "leisure": "sports_centre",
        "name": "O2 The Fitness",
        "opening_hours": "5:00-21:00",
        "phone": "8026646854",
        "sport": "gymnastics",
        "website": "https://www.o2thefitness.com"
      }
    },
    {
      "type": "node",
      "id": 4545893192,
      "lat": 12.9205227,
      "lon": 77.5951235,
      "tags": {
        "amenity": "bank",
        "brand": "Karnataka Bank",
        "brand:wikidata": "Q2042632",
        "name": "Karnataka Bank",
        "name:en": "Karnataka Bank",
        "name:kn": "ಕರ್ನಾಟಕ ಬ್ಯಾಂಕ್"
      }
    },
    {
      "type": "node",
      "id": 4545906691,
      "lat": 12.9205691,
      "lon": 77.5951275,
      "tags": {
        "amenity": "atm",
        "operator": "Karnataka Bank ATM"
      }
    },
    {
      "type": "node",
      "id": 4586451891,
      "lat": 12.916778,
      "lon": 77.5925291,
      "tags": {
        "amenity": "restaurant",
        "name": "Upahara Darshini",
        "name:en": "Upahara Darshini",
        "name:kn": "ಉಪಹಾರ ದರ್ಶಿನಿ"
      }
    },
    {
      "type": "node",
      "id": 4586768489,
      "lat": 12.9148191,
      "lon": 77.5982088,
      "tags": {
        "amenity": "fast_food",
        "name": "Brahmins Special",
        "name:en": "Brahmins Special"
      }
    },
    {
      "type": "node",
      "id": 4839776498,
      "lat": 12.9131684,
      "lon": 77.6061172,
      "tags": {
        "name": "Continental Tyre Park",
        "shop": "tyres"
      }
    },
    {
      "type": "node",
      "id": 4875557994,
      "lat": 12.9194713,
      "lon": 77.5967266,
      "tags": {
        "addr:housenumber": "480",
        "addr:street": "East End A Main Road",
        "name": "Cadence90",
        "service:bicycle:retail": "yes",
        "shop": "bicycle"
      }
    },
    {
      "type": "node",
      "id": 4946500324,
      "lat": 12.9139703,
      "lon": 77.6060989,
      "tags": {
        "addr:housenumber": "294",
        "addr:postcode": "560076",
        "addr:street": "7th Main Road",
        "amenity": "fast_food",
        "brand": "Subway",
        "brand:wikidata": "Q244457",
        "check_date": "2023-12-27",
        "cuisine": "sandwich",
        "drive_through": "no",
        "internet_access": "no",
        "name": "Subway",
        "opening_hours": "PH,Mo-Su 09:30-21:30",
        "payment:cash": "yes",
        "payment:credit_cards": "yes",
        "payment:debit_cards": "yes",
        "takeaway": "yes",
        "wheelchair": "limited"
      }
    },
    {
      "type": "node",
      "id": 5402224046,
      "lat": 12.9077496,
      "lon": 77.6008578,
      "tags": {
        "addr:city": "Bengaluru",
        "addr:postcode": "560076",
        "addr:street": "Bannerghatta Road",
        "brand": "Spar",
        "brand:wikidata": "Q610492",
        "brand:wikipedia": "en:Spar (retailer)",
        "check_date": "2025-08-26",
        "name": "Spar",
        "opening_hours": "Mo-Su 10:00-21:00",
        "organic": "yes",
        "payment:credit_cards": "yes",
        "payment:mastercard": "yes",
        "shop": "supermarket",
        "website": "https://www.sparindia.com/"
      }
    },
    {
      "type": "node",
      "id": 5402308136,
      "lat": 12.9065334,
      "lon": 77.598516,
      "tags": {
        "shop": "tyres"
      }
    },
    {
      "type": "node",
      "id": 5615099566,
      "lat": 12.9137354,
      "lon": 77.6063863,
      "tags": {
        "addr:postcode": "560076",
        "check_date": "2023-12-27",
        "fee": "yes",
        "internet_access": "no",
        "leisure": "fitness_centre",
        "name": "Play On Fitness",
        "opening_hours": "Mo-Su 07:00-21:00",
        "payment:cash": "yes",
        "payment:credit_cards": "yes",
        "payment:debit_cards": "yes",
        "source": "local knowledge",
        "wheelchair": "no"
      }
    },
    {
      "type": "node",
      "id": 5615100289,
      "lat": 12.9124714,
      "lon": 77.606448,
      "tags": {
        "leisure": "fitness_centre",
        "name": "The Grand Platinum Fitness",
        "sport": "fitness"
      }
    },
    {
      "type": "node",
      "id": 5615100291,
      "lat": 12.9126706,
      "lon": 77.6061609,
      "tags": {
        "check_date": "2023-10-15",
        "dance:style": "salsa",
        "dance:teaching": "yes",
        "leisure": "dance",
        "name": "The Venus Studio"
      }
    },
    {
      "type": "node",
      "id": 6024722727,
      "lat": 12.9170401,
      "lon": 77.6097678,
      "tags": {
        "amenity": "toilets"
      }
    },
    {
      "type": "node",
      "id": 6347037472,
      "lat": 12.9087935,
      "lon": 77.6045543,
      "tags": {
        "addr:place": "NS palya",
        "amenity": "school",
        "isced:level": "2",
        "name": "GHPS NS Palya",
        "name:kn": "ಸರ್ಕಾರಿ ಹಿರಿಯ ಪ್ರಾಥಮಿಕ ಶಾಲೆ ಎನ್ಎಸ್ ಪಾಳ್ಯ",
        "operator": "Department of Education",
        "school": "primary",
        "wheelchair": "no"
      }
    },
    {
      "type": "node",
      "id": 6349012849,
      "lat": 12.9174015,
      "lon": 77.6036834,
      "tags": {
        "addr:suburb": "Neelasandra",
        "amenity": "school",
        "isced:level": "2",
        "name": "GUHPS Neelasandra",
        "name:kn": "ಸರ್ಕಾರಿ ಹಿರಿಯ ಪ್ರಾಥಮಿಕ ಶಾಲೆ ನೀಲಸಂದ್ರ",
        "operator": "Department of Primary and Secondary Education",
        "operator:wikidata": "Q111467381",
        "school": "primary"
      }
    },
    {
      "type": "node",
      "id": 6349215701,
      "lat": 12.9180064,
      "lon": 77.5978472,
      "tags": {
        "addr:place": "Jayanagar",
        "amenity": "school",
        "isced:level": "2",
        "name": "Sahakari Vidyakendra AHPS Jayanagar",
        "name:kn": "ಸಹಕಾರಿ ವಿದ್ಯಾಕೇಂದ್ರ ಹಿರಿಯ ಪ್ರಾಥಮಿಕ ಶಾಲೆ ಜಯನಗರ",
        "operator": "Pvt. Aided",
        "school": "primary"
      }
    },
    {
      "type": "node",
      "id": 6349222321,
      "lat": 12.9188794,
      "lon": 77.605562,
      "tags": {
        "addr:place": "Gurappana Palya",
        "amenity": "school",
        "isced:level": "2",
        "name": "GHPS Gurappana Palya",
        "name:kn": "ಸರ್ಕಾರಿ ಹಿರಿಯ ಪ್ರಾಥಮಿಕ ಶಾಲೆ ಗುರಪ್ಪನಪಾಳ್ಯ",
        "operator": "Department of Education",
        "school": "primary"
      }
    },
    {
      "type": "node",
      "id": 6349228135,
      "lat": 12.9197208,
      "lon": 77.5940053,
      "tags": {
        "addr:place": "Puttayyana Palya",
        "amenity": "school",
        "isced:level": "2",
        "name": "GHPS Puttayyana Palya",
        "name:kn": "ಸರ್ಕಾರಿ ಹಿರಿಯ ಪ್ರಾಥಮಿಕ ಶಾಲೆ ಪುಟ್ಟಯ್ಯನಪಾಳ್ಯ",
        "operator": "Department of Education",
        "school": "primary"
      }
    },
    {
      "type": "node",
      "id": 6349534102,
      "lat": 12.9116316,
      "lon": 77.6023166,
      "tags": {
        "addr:place": "Byrasandra",
        "amenity": "school",
        "isced:level": "2",
        "name": "Sangameshwara HPS Byrasandra",
        "name:kn": "ಸಂಗಮೇಶ್ವರ ಹಿರಿಯ ಪ್ರಾಥಮಿಕ ಶಾಲೆ ಬೈರಸಂದ್ರ",
        "operator": "Pvt. Aided",
        "school": "primary"
      }
    },
    {
      "type": "node",
      "id": 6406473545,
      "lat": 12.9071902,
      "lon": 77.6067335,
      "tags": {
        "addr:place": "BTM Layout",
        "amenity": "school",
        "isced:level": "2",
        "name": "Hillside Public LPS Ns Palya, B T M Layout W No 65",
        "name:kn": "ಹಿಲ್‌ಸೈಡ್ ಪಬ್ಲಿಕ್ ಕಿರಿಯ ಪ್ರಾಥಮಿಕ ಶಾಲೆ ಎನ್.ಎಸ್ ಪಾಳ್ಯ , ಬಿ.ಟಿ.ಎಂ. ಲೇಔಟ್",
        "operator": "Private Un-Aided",
        "school": "Higher secondary",
        "wheelchair": "limited"
      }
    },
    {
      "type": "node",
      "id": 6406473546,
      "lat": 12.9087576,
      "lon": 77.6025747,
      "tags": {
        "addr:place": "BTM Layout",
        "amenity": "school",
        "isced:level": "2",
        "name": "Sri Balamuri Vidya Samste LPS, B T M Layout W No 65",
        "name:kn": "ಶ್ರೀ ಬಲಮುರಿ ವಿದ್ಯಾ ಸಂಸ್ಥೆ ಕಿರಿಯ ಪ್ರಾಥಮಿಕ ಶಾಲೆ, ಬಿ.ಟಿ.ಎಂ. ಲೇಔಟ್",
        "operator": "Pvt. Unaided",
        "school": "Higher Primary"
      }
    },
    {
      "type": "node",
      "id": 6408164827,
      "lat": 12.9105841,
      "lon": 77.6008291,
      "tags": {
        "addr:place": "BTM Layout",
        "amenity": "school",
        "isced:level": "3",
        "name": "Green Paschers KHPS Ns Palya, B T M Layout W No 65",
        "name:kn": "ಗ್ರೀನ್ ಪಾಸೇರ್ಸ್ ಕೆಎಚ್ಪಿಎಸ್ ಎನ್ಎಸ್ ಪಾಳ್ಯ, ಬಿ.ಟಿ.ಎಂ ಲೇಔಟ್",
        "operator": "Private Un-Aided",
        "school": "Higher secondary"
      }
    },
    {
      "type": "node",
      "id": 6481871896,
      "lat": 12.9179288,
      "lon": 77.5934244,
      "tags": {
        "name": "RcBazaar Bengaluru",
        "shop": "electrical"
      }
    },
    {
      "type": "node",
      "id": 6882713317,
      "lat": 12.9163171,
      "lon": 77.5949228,
      "tags": {
        "addr:city": "Bengaluru",
        "addr:district": "BENGALURU URBAN",
        "addr:full": "1897/A, Cellar Floor, Gulora, 26th Main Road, Sount End Cross Road, 9th Block, Jayanagar",
        "addr:postcode": "560069",
        "addr:state": "Karnataka",
        "amenity": "blood_bank",
        "contact:mobile": "9342171911",
        "contact:phone": "8026494748",
        "name": "Sanjeevini Trust Jayanagar Voluntary Blood Bank",
        "opening_hours": "24/7",
        "operator:type": "ngo",
        "source": "OpenGovernmentData"
      }
    },
    {
      "type": "node",
      "id": 6882713318,
      "lat": 12.9180569,
      "lon": 77.5991875,
      "tags": {
        "addr:city": "Bengaluru",
        "addr:district": "BENGALURU URBAN",
        "addr:full": "Gurappanapaly Post, Banneraghatta Road",
        "addr:postcode": "560069",
        "addr:state": "Karnataka",
        "amenity": "blood_bank",
        "contact:mobile": "9886812718",
        "contact:phone": "8022977213",
        "name": "Sri Jayadeva Institute of Cardiology Blood Bank",
        "opening_hours": "24/7",
        "operator:type": "government",
        "source": "OpenGovernmentData"
      }
    },
    {
      "type": "node",
      "id": 6938741378,
      "lat": 12.9122295,
      "lon": 77.5994906,
      "tags": {
        "addr:district": "Bengaluru Urban",
        "addr:full": "C K Emerald, No-10,N S Palya Kaveriappa Industrial Area, Bannergatta Road",
        "addr:postcode": "560076",
        "addr:state": "Karnataka",
        "amenity": "hospital",
        "healthcare": "hospital",
        "name": "Dr Agarwals Eye Hospital Ltd",
        "operator": "Dr. Agarwal's Eye Hospital",
        "operator:type": "private",
        "operator:wikidata": "Q17052044",
        "source": "OpenGovernmentData"
      }
    },
    {
      "type": "node",
      "id": 6938863247,
      "lat": 12.917589,
      "lon": 77.5948906,
      "tags": {
        "addr:district": "Bengaluru Urban",
        "addr:full": "#942, 28Th Main, 9Th Block,Jayanagar",
        "addr:postcode": "560039",
        "addr:state": "Karnataka",
        "amenity": "hospital",
        "healthcare": "hospital",
        "name": "Shekhar Hospital, Jayanagar",
        "name:kn": "ಶೇಖರ ಆಸ್ಪತ್ರೆ",
        "source": "OpenGovernmentData"
      }
    },
    {
      "type": "node",
      "id": 6944290483,
      "lat": 12.9144587,
      "lon": 77.6003156,
      "tags": {
        "addr:district": "Bengaluru Urban",
        "addr:full": "# 33, Bannerghatta Road (Service Road), B.T.M.Layout B.T.M. Layout 2nd Stage",
        "addr:postcode": "560076",
        "addr:state": "Karnataka",
        "amenity": "hospital",
        "name": "Sri Sai Ram Hospital - Bangalore",
        "source": "OpenGovernmentData"
      }
    },
    {
      "type": "node",
      "id": 6944578930,
      "lat": 12.9188948,
      "lon": 77.6058905,
      "tags": {
        "addr:district": "Bengaluru Urban",
        "addr:full": "No.53, 3Road Main Road, Opposite To Maruti Layout, B.T.M Layout 1st Stage",
        "addr:postcode": "560029",
        "addr:state": "Karnataka",
        "amenity": "hospital",
        "healthcare": "hospital",
        "name": "Kareem E.N.T and Multispeciality Centre",
        "source": "OpenGovernmentData"
      }
    },
    {
      "type": "node",
      "id": 6947707900,
      "lat": 12.9164779,
      "lon": 77.6033811,
      "tags": {
        "addr:district": "Bengaluru Urban",
        "addr:full": "# 68, 1st Floor, 100 Ft. Ring Road, 2nd Stage, B.T.M. Layout",
        "addr:postcode": "560076",
        "addr:state": "Karnataka",
        "amenity": "clinic",
        "name": "Vinayaka Nethralaya",
        "name:kn": "ವಿನಾಯಕ ನೇತ್ರಾಲಯ",
        "source": "OpenGovernmentData"
      }
    },
    {
      "type": "node",
      "id": 7059564160,
      "lat": 12.9197711,
      "lon": 77.5952734,
      "tags": {
        "name": "Maa Janki Ceramics",
        "opening_hours": "Mo-Su 08:00-20:00",
        "shop": "interior_decoration",
        "website": "https://www.concretewalltexture.com/"
      }
    },
    {
      "type": "node",
      "id": 7109696063,
      "lat": 12.9073592,
      "lon": 77.5982079,
      "tags": {
        "addr:city": "Bengaluru",
        "addr:postcode": "560078",
        "addr:street": "14th Cross Road",
        "name": "KIA SERVICE CENTRE",
        "payment:cash": "yes",
        "payment:credit_cards": "yes",
        "payment:electronic_purses": "yes",
        "service:vehicle:car_repair": "yes",
        "shop": "car_repair"
      }
    },
    {
      "type": "node",
      "id": 7389053966,
      "lat": 12.912531,
      "lon": 77.6061644,
      "tags": {
        "amenity": "events_venue",
        "check_date": "2023-10-15",
        "name": "IWWA",
        "wheelchair": "no"
      }
    },
    {
      "type": "node",
      "id": 7389053980,
      "lat": 12.9123595,
      "lon": 77.6067215,
      "tags": {
        "amenity": "clinic",
        "healthcare": "clinic",
        "healthcare:speciality": "orthopaedics",
        "name": "Ortho Centre Clinic",
        "opening_hours": "Mo-Sa 09:00-21:00"
      }
    },
    {
      "type": "node",
      "id": 7389053981,
      "lat": 12.9125653,
      "lon": 77.6090271,
      "tags": {
        "amenity": "kindergarten",
        "name": "first step",
        "preschool": "yes"
      }
    },
    {
      "type": "node",
      "id": 7389053982,
      "lat": 12.9136164,
      "lon": 77.607218,
      "tags": {
        "name": "Disney Bakery",
        "opening_hours": "PH,Mo-Su 07:00-23:00",
        "shop": "bakery"
      }
    },
    {
      "type": "node",
      "id": 7389053983,
      "lat": 12.9138357,
      "lon": 77.607426,
      "tags": {
        "amenity": "pharmacy",
        "dispensing": "yes",
        "healthcare": "pharmacy",
        "name": "Nandi Pharma",
        "opening_hours": "PH,Mo-Su 10:00-22:00"
      }
    },
    {
      "type": "node",
      "id": 7389053984,
      "lat": 12.9138331,
      "lon": 77.6072707,
      "tags": {
        "amenity": "dentist",
        "healthcare": "dentist",
        "name": "Srinivasa Dental Clinic",
        "opening_hours": "Mo-Sa 10:00-14:00,17:00-21:00; Su 10:00-14:00",
        "wheelchair": "yes"
      }
    },
    {
      "type": "node",
      "id": 7389069385,
      "lat": 12.9126033,
      "lon": 77.6064243,
      "tags": {
        "name": "Health & Glow",
        "opening_hours": "PH,Mo-Su 10:00-22:00",
        "shop": "cosmetics"
      }
    },
    {
      "type": "node",
      "id": 7389069386,
      "lat": 12.9135395,
      "lon": 77.6065388,
      "tags": {
        "amenity": "restaurant",
        "cuisine": "indian",
        "name": "Dhansagar",
        "opening_hours": "Mo-Su 10:00-21:00"
      }
    },
    {
      "type": "node",
      "id": 7389069387,
      "lat": 12.9135912,
      "lon": 77.6067733,
      "tags": {
        "name": "Shri Shirdi Sai Stationery",
        "opening_hours": "Mo-Su 09:00-21:00",
        "shop": "stationery",
        "wheelchair": "limited"
      }
    },
    {
      "type": "node",
      "id": 7389069388,
      "lat": 12.9137418,
      "lon": 77.6063534,
      "tags": {
        "addr:floor": "G",
        "check_date": "2023-12-27",
        "internet_access": "no",
        "level": "0",
        "name": "Poorvika Mobiles",
        "opening_hours": "Mo-Su 09:00-21:00",
        "payment:cash": "yes",
        "payment:credit_cards": "yes",
        "payment:debit_cards": "yes",
        "shop": "mobile_phone",
        "wheelchair": "limited"
      }
    },
    {
      "type": "node",
      "id": 7389069389,
      "lat": 12.9137202,
      "lon": 77.6056646,
      "tags": {
        "name": "Bhati Electricals",
        "opening_hours": "PH,Mo-Su 10:00-21:00",
        "shop": "electrical"
      }
    },
    {
      "type": "node",
      "id": 7389069390,
      "lat": 12.9134377,
      "lon": 77.6049873,
      "tags": {
        "addr:floor": "G",
        "addr:postcode": "560076",
        "air_conditioning": "yes",
        "check_date": "2023-12-27",
        "currency:INR": "yes",
        "internet_access": "no",
        "level": "0",
        "name": "Pet Choice",
        "opening_hours": "Mo-Su 10:00-21:00",
        "payment:cash": "yes",
        "payment:credit_cards": "yes",
        "payment:debit_cards": "yes",
        "second_hand": "no",
        "shop": "pet",
        "source": "local knowledge",
        "stroller": "limited",
        "toilets": "no",
        "toilets:wheelchair": "no",
        "wheelchair": "limited"
      }
    },
    {
      "type": "node",
      "id": 7389069391,
      "lat": 12.9134456,
      "lon": 77.6051098,
      "tags": {
        "addr:floor": "G",
        "addr:postcode": "560076",
        "amenity": "pharmacy",
        "brand": "MedPlus",
        "brand:wikidata": "Q65684234",
        "brand:wikipedia": "en:MedPlus",
        "check_date": "2023-12-27",
        "dispensing": "yes",
        "drive_through": "no",
        "healthcare": "pharmacy",
        "internet_access": "no",
        "level": "0",
        "name": "MedPlus",
        "opening_hours": "PH,Mo-Su 08:00-23:00",
        "payment:cash": "yes",
        "payment:credit_cards": "yes",
        "payment:debit_cards": "yes",
        "source": "local knowledge",
        "wheelchair": "limited"
      }
    },
    {
      "type": "node",
      "id": 7579924707,
      "lat": 12.9147481,
      "lon": 77.6063204,
      "tags": {
        "addr:district": "Bengaluru Urban",
        "addr:full": "BTM Layout, Bengaluru",
        "addr:postcode": "560076",
        "addr:state": "Karnataka",
        "amenity": "clinic",
        "healthcare": "clinic",
        "name": "Daivik Clinic",
        "source": "Local Knowledge"
      }
    },
    {
      "type": "node",
      "id": 7579924713,
      "lat": 12.9165942,
      "lon": 77.5965621,
      "tags": {
        "addr:district": "Bengaluru Urban",
        "addr:full": "J.P. Nagar, Bengaluru",
        "addr:postcode": "560078",
        "addr:state": "Karnataka",
        "amenity": "clinic",
        "healthcare": "clinic",
        "name": "Reviva Dermaesthetic",
        "source": "Local Knowledge"
      }
    },
    {
      "type": "node",
      "id": 7579924720,
      "lat": 12.913031,
      "lon": 77.6034614,
      "tags": {
        "addr:district": "Bengaluru Urban",
        "addr:full": "Bengaluru",
        "addr:postcode": "560076",
        "addr:state": "Karnataka",
        "amenity": "clinic",
        "name": "Disney Family Clinic",
        "source": "Local Knowledge"
      }
    },
    {
      "type": "node",
      "id": 7579924724,
      "lat": 12.917483,
      "lon": 77.6028048,
      "tags": {
        "addr:district": "Bengaluru Urban",
        "addr:full": "Bannerghatta Road, Bengaluru",
        "addr:postcode": "560029",
        "addr:state": "Karnataka",
        "amenity": "dentist",
        "healthcare": "dentist",
        "name": "M.F. Dental Care",
        "source": "Local Knowledge"
      }
    },
    {
      "type": "node",
      "id": 7579924729,
      "lat": 12.9121632,
      "lon": 77.6098276,
      "tags": {
        "addr:district": "Bengaluru Urban",
        "addr:full": "Mahadeshwara Nagar, BTM Layout, Bengaluru",
        "addr:postcode": "560076",
        "addr:state": "Karnataka",
        "amenity": "hospital",
        "name": "Shree Vaishnavi Heart Centre and Multi Speciality",
        "source": "Local Knowledge"
      }
    },
    {
      "type": "node",
      "id": 7579924731,
      "lat": 12.9136262,
      "lon": 77.6045369,
      "tags": {
        "addr:district": "Bengaluru Urban",
        "addr:floor": "3",
        "addr:full": "BTM, Bengaluru",
        "addr:postcode": "560076",
        "addr:state": "Karnataka",
        "amenity": "hospital",
        "check_date": "2023-12-27",
        "emergency": "no",
        "healthcare": "hospital",
        "internet_access": "no",
        "level": "3",
        "name": "Marigold Hospital",
        "operator:type": "private",
        "payment:cash": "yes",
        "payment:credit_cards": "yes",
        "payment:debit_cards": "yes",
        "source": "Local Knowledge",
        "wheelchair": "limited"
      }
    },
    {
      "type": "node",
      "id": 7579924741,
      "lat": 12.9138294,
      "lon": 77.6070373,
      "tags": {
        "addr:district": "Bengaluru Urban",
        "addr:full": "Mico Layout, Bengaluru",
        "addr:postcode": "560076",
        "addr:state": "Karnataka",
        "amenity": "clinic",
        "healthcare": "clinic",
        "name": "Nisa Multi Speciality Clinics",
        "opening_hours": "Mo-Sa 10:00-22:00",
        "source": "Local Knowledge"
      }
    },
    {
      "type": "node",
      "id": 7579924743,
      "lat": 12.9232355,
      "lon": 77.6021539,
      "tags": {
        "addr:district": "Bengaluru Urban",
        "addr:full": "BTM Layout, Bengaluru",
        "addr:postcode": "560029",
        "addr:state": "Karnataka",
        "amenity": "clinic",
        "name": "Dr. Seema Sultana's Women's Clinic",
        "source": "Local Knowledge"
      }
    },
    {
      "type": "node",
      "id": 7579924749,
      "lat": 12.907377,
      "lon": 77.6040762,
      "tags": {
        "addr:district": "Bengaluru Urban",
        "addr:full": "Abbaappa Layout, BTM Layout, Bengaluru",
        "addr:postcode": "560076",
        "addr:state": "Karnataka",
        "amenity": "clinic",
        "healthcare": "clinic",
        "name": "Ashya Clinic",
        "source": "Local Knowledge"
      }
    },
    {
      "type": "node",
      "id": 7579924752,
      "lat": 12.917402,
      "lon": 77.6010132,
      "tags": {
        "addr:district": "Bengaluru Urban",
        "addr:full": "KEB Colony, BTM Layout 1, Bengaluru",
        "addr:postcode": "560029",
        "addr:state": "Karnataka",
        "amenity": "clinic",
        "healthcare": "clinic",
        "name": "Shenoy's Children Clinic",
        "source": "Local Knowledge"
      }
    },
    {
      "type": "node",
      "id": 7579924753,
      "lat": 12.9159348,
      "lon": 77.6034098,
      "tags": {
        "addr:district": "Bengaluru Urban",
        "addr:full": "Bannerghatta Main Road, BTM, Bengaluru",
        "addr:postcode": "560076",
        "addr:state": "Karnataka",
        "amenity": "hospital",
        "healthcare": "hospital",
        "name": "Pothys Hospital",
        "source": "Local Knowledge"
      }
    },
    {
      "type": "node",
      "id": 7579924754,
      "lat": 12.916234,
      "lon": 77.593019,
      "tags": {
        "addr:district": "Bengaluru Urban",
        "addr:full": "J.P. Nagar, Bengaluru",
        "addr:postcode": "560078",
        "addr:state": "Karnataka",
        "amenity": "hospital",
        "healthcare": "hospital",
        "name": "Center for Liver Disease Hospital",
        "source": "Local Knowledge"
      }
    },
    {
      "type": "node",
      "id": 7579924756,
      "lat": 12.918787,
      "lon": 77.605897,
      "tags": {
        "addr:district": "Bengaluru Urban",
        "addr:full": "KEB Colony, Bengaluru",
        "addr:postcode": "560029",
        "addr:state": "Karnataka",
        "amenity": "clinic",
        "healthcare": "clinic",
        "name": "Kareem ENT",
        "source": "Local Knowledge"
      }
    },
    {
      "type": "node",
      "id": 7579924757,
      "lat": 12.9190762,
      "lon": 77.6092154,
      "tags": {
        "addr:district": "Bengaluru Urban",
        "addr:full": "Tavarekere, Aicobo Nagar, BTM Layout, Bengaluru",
        "addr:postcode": "560029",
        "addr:state": "Karnataka",
        "amenity": "clinic",
        "name": "Dr. Santosh Clinic",
        "source": "Local Knowledge"
      }
    },
    {
      "type": "node",
      "id": 7579924769,
      "lat": 12.912832,
      "lon": 77.605728,
      "tags": {
        "addr:district": "Bengaluru Urban",
        "addr:full": "BTM Layout, Bengaluru",
        "addr:postcode": "560076",
        "addr:state": "Karnataka",
        "amenity": "clinic",
        "healthcare": "clinic",
        "name": "Anugraha Clinic",
        "source": "Local Knowledge"
      }
    },
    {
      "type": "node",
      "id": 7579924781,
      "lat": 12.918036,
      "lon": 77.603516,
      "tags": {
        "addr:district": "Bengaluru Urban",
        "addr:full": "BTM Layout, Bengaluru",
        "addr:postcode": "560029",
        "addr:state": "Karnataka",
        "amenity": "clinic",
        "healthcare": "clinic",
        "name": "Ayesha Speciality Clinic",
        "source": "Local Knowledge"
      }
    },
    {
      "type": "node",
      "id": 7579924782,
      "lat": 12.9082942,
      "lon": 77.6050646,
      "tags": {
        "addr:district": "Bengaluru Urban",
        "addr:full": "Mahadeshwara Nagar, BTM, Bengaluru",
        "addr:postcode": "560076",
        "addr:state": "Karnataka",
        "amenity": "clinic",
        "healthcare": "clinic",
        "name": "Bharat Clinic",
        "source": "Local Knowledge"
      }
    },
    {
      "type": "node",
      "id": 7653024618,
      "lat": 12.9072819,
      "lon": 77.6065286,
      "tags": {
        "amenity": "place_of_worship",
        "name": "ECI Church",
        "religion": "christian",
        "wheelchair": "no"
      }
    },
    {
      "type": "node",
      "id": 7653024620,
      "lat": 12.9170835,
      "lon": 77.6057329,
      "tags": {
        "amenity": "place_of_worship",
        "name": "Kerala Mosque",
        "religion": "muslim"
      }
    },
    {
      "type": "node",
      "id": 9102882915,
      "lat": 12.9141809,
      "lon": 77.6062896,
      "tags": {
        "amenity": "restaurant",
        "bar": "no",
        "brand": "Pizza Hut",
        "brand:wikidata": "Q191615",
        "brand:wikipedia": "en:Pizza Hut",
        "brewery": "no",
        "cuisine": "pizza",
        "delivery": "yes",
        "highchair": "yes",
        "microbrewery": "no",
        "name": "Pizza Hut",
        "opening_hours": "Mo-Su 10:00-21:00",
        "outdoor_seating": "no",
        "payment:cash": "yes",
        "payment:credit_cards": "yes",
        "payment:debit_cards": "yes",
        "reservation": "no",
        "smoking": "no",
        "source": "local knowledge",
        "takeaway": "yes",
        "toilets": "yes",
        "toilets:wheelchair": "limited",
        "wheelchair": "limited"
      }
    },
    {
      "type": "node",
      "id": 9102898264,
      "lat": 12.9140433,
      "lon": 77.6101988,
      "tags": {
        "amenity": "fast_food",
        "check_date": "2023-10-19",
        "name": "Pathan Sir",
        "opening_hours": "Mo-Su 09:00-21:00",
        "wheelchair": "yes"
      }
    },
    {
      "type": "node",
      "id": 9102904801,
      "lat": 12.913395,
      "lon": 77.604436,
      "tags": {
        "amenity": "atm",
        "brand": "HDFC Bank",
        "brand:wikidata": "Q631047",
        "brand:wikipedia": "en:HDFC Bank",
        "name": "HDFC Bank",
        "name:kn": "ಎಚ್ ಡಿ ಎಫ್ ಸಿ",
        "operator": "HDFC Bank",
        "operator:wikidata": "Q631047",
        "operator:wikipedia": "en:HDFC Bank",
        "short_name": "HDFC"
      }
    },
    {
      "type": "node",
      "id": 9102904802,
      "lat": 12.913395,
      "lon": 77.6044106,
      "tags": {
        "amenity": "bank",
        "brand": "HDFC Bank",
        "brand:wikidata": "Q631047",
        "brand:wikipedia": "en:HDFC Bank",
        "name": "HDFC Bank",
        "name:kn": "ಎಚ್ ಡಿ ಎಫ್ ಸಿ",
        "opening_hours": "Mo-Sa 10:00-16:00",
        "short_name": "HDFC"
      }
    },
    {
      "type": "node",
      "id": 9102921808,
      "lat": 12.9140054,
      "lon": 77.6095041,
      "tags": {
        "amenity": "fast_food",
        "brand": "Domino's",
        "brand:ks": "ڈومینوز",
        "brand:pa": "ਡੋਮੀਨੋਜ਼",
        "brand:ur": "ڈومینوز",
        "brand:wikidata": "Q839466",
        "brand:wikipedia": "en:Domino's Pizza",
        "cuisine": "pizza",
        "name": "Domino's",
        "name:ks": "ڈومینوز",
        "name:pa": "ਡੋਮੀਨੋਜ਼",
        "name:ur": "ڈومینوز",
        "opening_hours": "PH,Mo-Su 10:30-22:00",
        "takeaway": "yes"
      }
    },
    {
      "type": "node",
      "id": 9103711349,
      "lat": 12.9157468,
      "lon": 77.6102135,
      "tags": {
        "check_date": "2023-10-15",
        "name": "Chai Days",
        "opening_hours": "Mo-Su 09:00-21:00",
        "shop": "tea"
      }
    },
    {
      "type": "node",
      "id": 9103721184,
      "lat": 12.9157801,
      "lon": 77.6102665,
      "tags": {
        "amenity": "ice_cream",
        "name": "Frozen Bottle"
      }
    },
    {
      "type": "node",
      "id": 9103732101,
      "lat": 12.9157629,
      "lon": 77.6103253,
      "tags": {
        "brand": "cult.fit",
        "brand:wikidata": "Q121289250",
        "leisure": "fitness_centre",
        "name": "cult.fit"
      }
    },
    {
      "type": "node",
      "id": 9119109730,
      "lat": 12.9137356,
      "lon": 77.6083728,
      "tags": {
        "name": "Keventers",
        "shop": "pastry"
      }
    },
    {
      "type": "node",
      "id": 9119109731,
      "lat": 12.9137347,
      "lon": 77.6084413,
      "tags": {
        "name": "Healthkart",
        "shop": "nutrition_supplements"
      }
    },
    {
      "type": "node",
      "id": 9121624210,
      "lat": 12.9137312,
      "lon": 77.6085315,
      "tags": {
        "brand": "Samsung",
        "brand:wikidata": "Q20718",
        "brand:wikipedia": "en:Samsung Electronics",
        "name": "Samsung SmartCafe",
        "shop": "mobile_phone"
      }
    },
    {
      "type": "node",
      "id": 9121624211,
      "lat": 12.9136723,
      "lon": 77.6085836,
      "tags": {
        "dance:style": "zumba",
        "dance:teaching": "yes",
        "leisure": "dance",
        "name": "Rami's Dance Inc"
      }
    },
    {
      "type": "node",
      "id": 9121624212,
      "lat": 12.9137363,
      "lon": 77.6085865,
      "tags": {
        "name": "Titan World",
        "shop": "optician"
      }
    },
    {
      "type": "node",
      "id": 9121624213,
      "lat": 12.9136989,
      "lon": 77.6085688,
      "tags": {
        "name": "YLG",
        "shop": "beauty"
      }
    },
    {
      "type": "node",
      "id": 9123478831,
      "lat": 12.9137513,
      "lon": 77.6087148,
      "tags": {
        "check_date": "2023-12-27",
        "internet_access": "no",
        "level": "0",
        "name": "Wildcraft",
        "payment:cash": "yes",
        "payment:credit_cards": "yes",
        "payment:debit_cards": "yes",
        "shop": "outdoor",
        "wheelchair": "no"
      }
    },
    {
      "type": "node",
      "id": 9123478832,
      "lat": 12.9137533,
      "lon": 77.6089023,
      "tags": {
        "name": "Dry Fruit Gallery",
        "opening_hours": "PH,Mo-Su 10:00-22:00",
        "shop": "health_food"
      }
    },
    {
      "type": "node",
      "id": 9123478833,
      "lat": 12.9137433,
      "lon": 77.6087482,
      "tags": {
        "air_conditioning": "no",
        "amenity": "bank",
        "atm": "yes",
        "brand": "Kotak Mahindra Bank",
        "brand:wikidata": "Q2040404",
        "check_date": "2023-12-27",
        "currency:INR": "yes",
        "drive_through": "no",
        "internet_access": "no",
        "level": "0",
        "name": "Kotak Mahindra Bank",
        "name:kn": "ಕೋಟಕ್ ಮಹಿಂದ್ರ ಬ್ಯಾಂಕ್",
        "payment:cash": "yes",
        "payment:credit_cards": "yes",
        "payment:debit_cards": "yes",
        "source": "local knowledge",
        "wheelchair": "no"
      }
    },
    {
      "type": "node",
      "id": 9123488844,
      "lat": 12.9136528,
      "lon": 77.6075368,
      "tags": {
        "name": "Eye World Opticians",
        "opening_hours": "Mo-Su 10:30-21:00",
        "shop": "optician",
        "wheelchair": "limited"
      }
    },
    {
      "type": "node",
      "id": 9130871853,
      "lat": 12.9132521,
      "lon": 77.60992,
      "tags": {
        "check_date": "2023-10-15",
        "name": "Wellness Forever",
        "opening_hours": "24/7",
        "shop": "chemist"
      }
    },
    {
      "type": "node",
      "id": 9159982974,
      "lat": 12.9133887,
      "lon": 77.6043111,
      "tags": {
        "amenity": "bank",
        "brand": "State Bank of India",
        "brand:wikidata": "Q1340361",
        "brand:wikipedia": "en:State Bank of India",
        "name": "State Bank of India",
        "opening_hours": "Mo-Sa 11:00-16:00",
        "short_name": "SBI"
      }
    },
    {
      "type": "node",
      "id": 9159982975,
      "lat": 12.9133861,
      "lon": 77.6043326,
      "tags": {
        "amenity": "atm",
        "brand": "State Bank of India",
        "brand:wikidata": "Q1340361",
        "brand:wikipedia": "en:State Bank of India",
        "name": "State Bank of India",
        "operator": "State Bank of India",
        "operator:wikidata": "Q1340361",
        "operator:wikipedia": "en:State Bank of India",
        "short_name": "SBI"
      }
    },
    {
      "type": "node",
      "id": 9159993157,
      "lat": 12.9137661,
      "lon": 77.6088434,
      "tags": {
        "name": "Cell Kafe",
        "opening_hours": "PH,Mo-Su 10:30-21:30",
        "shop": "mobile_phone"
      }
    },
    {
      "type": "node",
      "id": 9159993158,
      "lat": 12.9139792,
      "lon": 77.6088233,
      "tags": {
        "brand": "Lenskart",
        "brand:wikidata": "Q17068753",
        "name": "Lenskart",
        "opening_hours": "Mo-Su 10:00-21:00",
        "shop": "optician"
      }
    },
    {
      "type": "node",
      "id": 9159993159,
      "lat": 12.9139857,
      "lon": 77.6088608,
      "tags": {
        "amenity": "bank",
        "brand": "RBL Bank",
        "brand:wikidata": "Q13120398",
        "brand:wikipedia": "en:RBL Bank",
        "name": "RBL Bank"
      }
    },
    {
      "type": "node",
      "id": 9165209208,
      "lat": 12.9138932,
      "lon": 77.6060959,
      "tags": {
        "addr:floor": "G",
        "air_conditioning": "no",
        "amenity": "restaurant",
        "bar": "no",
        "brewery": "no",
        "check_date": "2023-12-27",
        "cuisine": "indian;regional",
        "delivery": "yes",
        "diet:vegetarian": "yes",
        "highchair": "yes",
        "internet_access": "no",
        "level": "0",
        "microbrewery": "no",
        "name": "Sri Krishna Sagar",
        "opening_hours": "PH,Mo-Su 09:00-22:00",
        "outdoor_seating": "no",
        "payment:cash": "yes",
        "payment:credit_cards": "yes",
        "payment:debit_cards": "yes",
        "reservation": "no",
        "smoking": "no",
        "source": "local knowledge",
        "takeaway": "yes",
        "toilets": "no",
        "toilets:wheelchair": "no",
        "wheelchair": "limited"
      }
    },
    {
      "type": "node",
      "id": 9165273183,
      "lat": 12.9136612,
      "lon": 77.6076138,
      "tags": {
        "amenity": "pharmacy",
        "healthcare": "pharmacy",
        "name": "Om Medicals",
        "opening_hours": "PH,Mo-Su 10:00-22:00"
      }
    },
    {
      "type": "node",
      "id": 9165273184,
      "lat": 12.9136456,
      "lon": 77.6073952,
      "tags": {
        "amenity": "atm",
        "brand": "IndusInd Bank",
        "brand:wikidata": "Q2040323",
        "brand:wikipedia": "en:IndusInd Bank",
        "check_date": "2023-10-15",
        "name": "IndusInd Bank",
        "name:kn": "ಇಂಡಸ್ಇಂಡ್",
        "operator": "IndusInd Bank",
        "operator:wikidata": "Q2040323",
        "operator:wikipedia": "en:IndusInd Bank"
      }
    },
    {
      "type": "node",
      "id": 9165273185,
      "lat": 12.9136469,
      "lon": 77.6073617,
      "tags": {
        "name": "Star Mobiles",
        "opening_hours": "Mo-Su 10:00-21:00",
        "shop": "mobile_phone"
      }
    },
    {
      "type": "node",
      "id": 9165273190,
      "lat": 12.9138125,
      "lon": 77.6067629,
      "tags": {
        "name": "Herbal Ambience",
        "opening_hours": "Mo-Su 10:30-21:00",
        "shop": "beauty"
      }
    },
    {
      "type": "node",
      "id": 9165337880,
      "lat": 12.9136582,
      "lon": 77.610198,
      "tags": {
        "amenity": "restaurant",
        "check_date": "2023-10-15",
        "cuisine": "indian",
        "name": "Laddoos",
        "opening_hours": "PH,Mo-Su 09:30-21:30",
        "wheelchair": "no"
      }
    },
    {
      "type": "node",
      "id": 9165337881,
      "lat": 12.9135458,
      "lon": 77.6101845,
      "tags": {
        "amenity": "cafe",
        "brand": "Chai Point",
        "brand:wikidata": "Q28173415",
        "cuisine": "coffee_shop",
        "name": "Chai Point",
        "opening_hours": "PH,Mo-Su 09:30-21:30",
        "takeaway": "yes",
        "wheelchair": "no"
      }
    },
    {
      "type": "node",
      "id": 9165337882,
      "lat": 12.9134635,
      "lon": 77.6101698,
      "tags": {
        "amenity": "bank",
        "atm": "yes",
        "brand": "ICICI Bank",
        "brand:wikidata": "Q1653258",
        "brand:wikipedia": "en:ICICI Bank",
        "check_date": "2023-10-15",
        "name": "ICICI Bank",
        "name:kn": "ಐಸಿಐಸಿಐ ಬ್ಯಾಂಕು",
        "opening_hours": "Mo-Sa 09:30-16:30",
        "short_name": "ICICI"
      }
    },
    {
      "type": "node",
      "id": 9165337883,
      "lat": 12.91347,
      "lon": 77.6099391,
      "tags": {
        "check_date": "2023-10-15",
        "name": "Amma's Pastries",
        "opening_hours": "PH,Mo-Su 09:30-22:00",
        "shop": "pastry"
      }
    },
    {
      "type": "node",
      "id": 9173864225,
      "lat": 12.9126995,
      "lon": 77.6064081,
      "tags": {
        "amenity": "bank",
        "atm": "yes",
        "brand": "Indian Bank",
        "brand:wikidata": "Q2003789",
        "name": "Indian Bank",
        "opening_hours": "Mo-Sa 11:00-17:00"
      }
    },
    {
      "type": "node",
      "id": 9173864227,
      "lat": 12.9135009,
      "lon": 77.6099273,
      "tags": {
        "check_date": "2023-10-19",
        "dance:teaching": "yes",
        "leisure": "dance",
        "name": "Hello Dance"
      }
    },
    {
      "type": "node",
      "id": 9173864228,
      "lat": 12.9136329,
      "lon": 77.6099505,
      "tags": {
        "name": "Asus",
        "opening_hours": "Mo-Su 10:00-22:00",
        "shop": "computer"
      }
    },
    {
      "type": "node",
      "id": 9173864230,
      "lat": 12.9134831,
      "lon": 77.6098827,
      "tags": {
        "name": "Wink Unisex Salon",
        "opening_hours": "Mo-Su 10:00-22:00",
        "shop": "beauty"
      }
    },
    {
      "type": "node",
      "id": 9174380012,
      "lat": 12.9136459,
      "lon": 77.6049936,
      "tags": {
        "addr:housenumber": "246",
        "addr:street": "7th Cross Road",
        "amenity": "fast_food",
        "name": "Eat Again",
        "opening_hours": "Mo-Su 11:00-22:00"
      }
    },
    {
      "type": "node",
      "id": 9174380013,
      "lat": 12.9134524,
      "lon": 77.605455,
      "tags": {
        "amenity": "bank",
        "brand": "Bank of Maharashtra",
        "brand:wikidata": "Q2004304",
        "brand:wikipedia": "en:Bank of Maharashtra",
        "name": "Bank of Maharashtra"
      }
    },
    {
      "type": "node",
      "id": 9174433688,
      "lat": 12.9134224,
      "lon": 77.6048622,
      "tags": {
        "addr:housenumber": "452",
        "addr:street": "7th Cross Road",
        "amenity": "school",
        "name": "Sambhavam - Centre for Autism"
      }
    },
    {
      "type": "node",
      "id": 9712714914,
      "lat": 12.9154241,
      "lon": 77.609941,
      "tags": {
        "name": "Preethi General Stores",
        "opening_hours": "PH,Mo-Su 08:00-22:00",
        "shop": "general"
      }
    },
    {
      "type": "node",
      "id": 9795169359,
      "lat": 12.9147553,
      "lon": 77.6102465,
      "tags": {
        "addr:housenumber": "942",
        "addr:street": "16th Main Road",
        "alt_name": "Kentucky Fried Chicken",
        "alt_name:en": "Kentucky Fried Chicken",
        "alt_name:hi": "केंटुकी फ्राइड चिकन",
        "alt_name:pa": "ਕੈਂਟੁਕੀ ਫ੍ਰਾਈਡ ਚਿਕਨ",
        "alt_name:pnb": "کینٹکی فرائیڈ چکن",
        "alt_name:ur": "کینٹکی فرائیڈ چکن",
        "amenity": "fast_food",
        "brand": "KFC",
        "brand:en": "KFC",
        "brand:hi": "केएफसी",
        "brand:pa": "ਕੇਐਫਸੀ",
        "brand:pnb": "کے ایف سی",
        "brand:ur": "کے ایف سی",
        "brand:wikidata": "Q524757",
        "cuisine": "chicken",
        "name": "KFC",
        "name:en": "KFC",
        "name:hi": "केएफसी",
        "name:pa": "ਕੇਐਫਸੀ",
        "name:pnb": "کے ایف سی",
        "name:ur": "کے ایف سی",
        "opening_hours": "PH,Mo-Su 10:00-22:00",
        "takeaway": "yes"
      }
    },
    {
      "type": "node",
      "id": 9795169360,
      "lat": 12.9149903,
      "lon": 77.6099319,
      "tags": {
        "addr:housenumber": "782",
        "addr:street": "16th Main Road",
        "brand": "Bata",
        "brand:wikidata": "Q688082",
        "name": "Bata",
        "name:kn": "ಬಾಟಾ",
        "opening_hours": "PH,Mo-Su 10:00-21:30",
        "shop": "shoes"
      }
    },
    {
      "type": "node",
      "id": 9892036252,
      "lat": 12.9068098,
      "lon": 77.5995603,
      "tags": {
        "amenity": "restaurant",
        "name": "Klayworkz Barista"
      }
    },
    {
      "type": "node",
      "id": 9903783534,
      "lat": 12.9137929,
      "lon": 77.6095504,
      "tags": {
        "level": "0",
        "name": "Acer mall",
        "shop": "computer"
      }
    },
    {
      "type": "node",
      "id": 9904111106,
      "lat": 12.9170177,
      "lon": 77.5947337,
      "tags": {
        "amenity": "restaurant",
        "check_date": "2023-10-28",
        "name": "Kota Kachori"
      }
    },
    {
      "type": "node",
      "id": 9904111107,
      "lat": 12.9171118,
      "lon": 77.5927033,
      "tags": {
        "amenity": "bank",
        "atm": "yes",
        "brand": "Kotak Mahindra Bank",
        "brand:wikidata": "Q2040404",
        "name": "Kotak Mahindra Bank",
        "name:kn": "ಕೋಟಕ್ ಮಹಿಂದ್ರ ಬ್ಯಾಂಕ್",
        "operator": "Kotak Mahindra Bank"
      }
    },
    {
      "type": "node",
      "id": 10032026860,
      "lat": 12.9074857,
      "lon": 77.6011683,
      "tags": {
        "amenity": "bar",
        "contact:instagram": "meterbar.official",
        "indoor_seating": "yes",
        "name": "Meter Bar",
        "outdoor_seating": "no"
      }
    },
    {
      "type": "node",
      "id": 10051816951,
      "lat": 12.9070051,
      "lon": 77.5982256,
      "tags": {
        "amenity": "restaurant",
        "name": "The Studs Sports Bar + Grill"
      }
    },
    {
      "type": "node",
      "id": 10293686911,
      "lat": 12.9203767,
      "lon": 77.5971434,
      "tags": {
        "amenity": "bank",
        "atm": "yes",
        "brand": "Punjab & Sind Bank",
        "brand:en": "Punjab & Sind Bank",
        "brand:hi": "पंजाब एण्ड सिंध बैंक",
        "brand:wikidata": "Q2003302",
        "name": "Punjab & Sind Bank",
        "name:en": "Punjab & Sind Bank",
        "name:hi": "पंजाब एण्ड सिंध बैंक",
        "operator": "Punjab & Sind Bank"
      }
    },
    {
      "type": "node",
      "id": 10293686919,
      "lat": 12.9206882,
      "lon": 77.5951038,
      "tags": {
        "amenity": "fast_food",
        "name": "Hotel Prashanth"
      }
    },
    {
      "type": "node",
      "id": 10302703775,
      "lat": 12.9077667,
      "lon": 77.6012689,
      "tags": {
        "amenity": "fast_food",
        "brand": "Popeyes",
        "brand:wikidata": "Q1330910",
        "brand:wikipedia": "en:Popeyes",
        "check_date": "2025-08-26",
        "cuisine": "chicken",
        "delivery": "yes",
        "indoor_seating": "yes",
        "name": "Popeyes",
        "official_name": "Popeyes Louisiana Kitchen",
        "outdoor_seating": "no",
        "payment:cash": "yes",
        "payment:credit_cards": "yes",
        "payment:debit_cards": "yes",
        "takeaway": "yes",
        "website": "https://www.popeyes.in/",
        "wheelchair": "yes"
      }
    },
    {
      "type": "node",
      "id": 10302703776,
      "lat": 12.9140256,
      "lon": 77.6090446,
      "tags": {
        "amenity": "fast_food",
        "brand": "Popeyes",
        "brand:wikidata": "Q1330910",
        "brand:wikipedia": "en:Popeyes",
        "cuisine": "chicken",
        "delivery": "yes",
        "name": "Popeyes",
        "official_name": "Popeyes Louisiana Kitchen",
        "takeaway": "yes",
        "website": "https://www.popeyes.in/"
      }
    },
    {
      "type": "node",
      "id": 10632949330,
      "lat": 12.9169027,
      "lon": 77.6021902,
      "tags": {
        "amenity": "recycling",
        "name": "BBMP Dry Waste Collection Center",
        "recycling_type": "centre"
      }
    },
    {
      "type": "node",
      "id": 10697707067,
      "lat": 12.9125107,
      "lon": 77.5995074,
      "tags": {
        "name": "Reliance Trends",
        "shop": "clothes"
      }
    },
    {
      "type": "node",
      "id": 10853180819,
      "lat": 12.9163903,
      "lon": 77.6042891,
      "tags": {
        "name": "Bounce Infinity",
        "operator": "Bounce",
        "shop": "motorcycle"
      }
    },
    {
      "type": "node",
      "id": 10854298558,
      "lat": 12.9170314,
      "lon": 77.5954331,
      "tags": {
        "name": "Factory Outlet",
        "shop": "clothes"
      }
    },
    {
      "type": "node",
      "id": 10854298563,
      "lat": 12.9170197,
      "lon": 77.5948866,
      "tags": {
        "brand": "TVS",
        "brand:wikidata": "Q3300084",
        "name": "Synergy TVS",
        "shop": "motorcycle"
      }
    },
    {
      "type": "node",
      "id": 10854298565,
      "lat": 12.9170504,
      "lon": 77.5938009,
      "tags": {
        "amenity": "bank",
        "atm": "yes",
        "brand": "Yes Bank",
        "brand:wikidata": "Q2040394",
        "name": "Yes Bank",
        "name:kn": "ಯಸ್ ಬ್ಯಾಂಕ್",
        "operator": "Yes Bank"
      }
    },
    {
      "type": "node",
      "id": 10854298566,
      "lat": 12.9170308,
      "lon": 77.5935119,
      "tags": {
        "brand": "Manyavar",
        "brand:wikidata": "Q24906783",
        "name": "Manyavar",
        "name:kn": "ಮಾನ್ಯವಾರ್",
        "shop": "clothes"
      }
    },
    {
      "type": "node",
      "id": 10855355394,
      "lat": 12.9078534,
      "lon": 77.601101,
      "tags": {
        "check_date": "2025-08-26",
        "name": "Rare Rabbit",
        "payment:cash": "yes",
        "payment:credit_cards": "yes",
        "payment:debit_cards": "yes",
        "shop": "clothes"
      }
    },
    {
      "type": "node",
      "id": 10978033369,
      "lat": 12.9078687,
      "lon": 77.6009256,
      "tags": {
        "name": "Kindlife LiteStore",
        "shop": "beauty"
      }
    },
    {
      "type": "node",
      "id": 11048973795,
      "lat": 12.9101235,
      "lon": 77.5953898,
      "tags": {
        "amenity": "bank",
        "brand": "CSB Bank",
        "brand:wikidata": "Q5053244",
        "name": "CSB Bank",
        "official_name": "Catholic Syrian Bank"
      }
    },
    {
      "type": "node",
      "id": 11162603758,
      "lat": 12.9100271,
      "lon": 77.5953771,
      "tags": {
        "amenity": "restaurant",
        "name": "Vyana World Cuisine",
        "website": "https://thevyana.com"
      }
    },
    {
      "type": "node",
      "id": 11164777495,
      "lat": 12.9141742,
      "lon": 77.5995886,
      "tags": {
        "amenity": "fast_food",
        "brand": "Taco Bell",
        "brand:wikidata": "Q752941",
        "check_date": "2023-09-03",
        "cuisine": "tex-mex",
        "name": "Taco Bell",
        "source": "survey",
        "takeaway": "yes"
      }
    },
    {
      "type": "node",
      "id": 11201322521,
      "lat": 12.9107075,
      "lon": 77.5992431,
      "tags": {
        "amenity": "restaurant",
        "check_date": "2023-09-19",
        "cuisine": "indian;seafood",
        "name": "Check Post",
        "opening_hours": "11:00-23:00",
        "payment:mastercard": "yes",
        "payment:visa": "yes"
      }
    },
    {
      "type": "node",
      "id": 11275764774,
      "lat": 12.9158497,
      "lon": 77.6102464,
      "tags": {
        "addr:housenumber": "114",
        "addr:street": "16th Main Road",
        "amenity": "fast_food",
        "brand": "McDonald's",
        "brand:pa": "ਮੈਕਡੋਨਲਡ’ਜ਼",
        "brand:ur": "مکڈونلڈز",
        "brand:wikidata": "Q38076",
        "brand:wikipedia": "en:McDonald's",
        "brand:wikipedia:pa": "ਮੈਕਡੋਨਲਡ’ਜ਼",
        "brand:wikipedia:ur": "مکڈونلڈز",
        "cuisine": "burger",
        "delivery": "no",
        "name": "McDonald's",
        "name:kn": "ಮ್ಯಾಕ್‌ಡೊನಾಲ್ಡ್ಸ್",
        "name:pa": "ਮੈਕਡੋਨਲਡ’ਜ਼",
        "name:ur": "مکڈونلڈز",
        "opening_hours": "Mo-Su 09:00-01:00",
        "outdoor_seating": "yes",
        "phone": "+91 089283 04189",
        "smoking": "no",
        "takeaway": "yes"
      }
    },
    {
      "type": "node",
      "id": 11279857280,
      "lat": 12.9164413,
      "lon": 77.6065113,
      "tags": {
        "name": "FB Cakes",
        "shop": "bakery"
      }
    },
    {
      "type": "node",
      "id": 11279857281,
      "lat": 12.916427,
      "lon": 77.605636,
      "tags": {
        "amenity": "fast_food",
        "check_date": "2023-11-28",
        "name": "Krishna Vaibhava"
      }
    },
    {
      "type": "node",
      "id": 11279857282,
      "lat": 12.9164334,
      "lon": 77.60502,
      "tags": {
        "amenity": "bank",
        "atm": "yes",
        "brand": "State Bank of India",
        "brand:wikidata": "Q1340361",
        "name": "State Bank of India",
        "operator": "State Bank of India",
        "short_name": "SBI"
      }
    },
    {
      "type": "node",
      "id": 11279857283,
      "lat": 12.9165105,
      "lon": 77.6024008,
      "tags": {
        "name": "Spyce Interiors",
        "shop": "interior_decoration"
      }
    },
    {
      "type": "node",
      "id": 11279857284,
      "lat": 12.9165053,
      "lon": 77.602323,
      "tags": {
        "amenity": "fast_food",
        "name": "SLV Juice & Chats"
      }
    },
    {
      "type": "node",
      "id": 11279857285,
      "lat": 12.9165053,
      "lon": 77.6020816,
      "tags": {
        "amenity": "cafe",
        "name": "Neena's Steakhouse and Burgers"
      }
    },
    {
      "type": "node",
      "id": 11279857303,
      "lat": 12.9165615,
      "lon": 77.5981025,
      "tags": {
        "brand": "Triumph",
        "brand:wikidata": "Q1140383",
        "name": "Triumph",
        "shop": "motorcycle"
      }
    },
    {
      "type": "node",
      "id": 11279857304,
      "lat": 12.9165524,
      "lon": 77.5974065,
      "tags": {
        "name": "Divine Interior",
        "shop": "interior_decoration"
      }
    },
    {
      "type": "node",
      "id": 11279857305,
      "lat": 12.9166007,
      "lon": 77.5963256,
      "tags": {
        "amenity": "fast_food",
        "name": "Ambur Star Dum Biryani"
      }
    },
    {
      "type": "node",
      "id": 11279857306,
      "lat": 12.9166713,
      "lon": 77.5937976,
      "tags": {
        "name": "Eastern Edition",
        "shop": "clothes"
      }
    },
    {
      "type": "node",
      "id": 11279857307,
      "lat": 12.9166635,
      "lon": 77.5937037,
      "tags": {
        "name": "Twin Birds",
        "shop": "clothes"
      }
    },
    {
      "type": "node",
      "id": 11279857308,
      "lat": 12.9166713,
      "lon": 77.5936165,
      "tags": {
        "brand": "Vision Express",
        "brand:wikidata": "Q7936150",
        "name": "Vision Express",
        "shop": "optician"
      }
    },
    {
      "type": "node",
      "id": 11279857309,
      "lat": 12.9166682,
      "lon": 77.5930319,
      "tags": {
        "amenity": "restaurant",
        "check_date": "2023-11-29",
        "name": "Biryani Mane"
      }
    },
    {
      "type": "node",
      "id": 11289658363,
      "lat": 12.9137332,
      "lon": 77.6058898,
      "tags": {
        "amenity": "fast_food",
        "cuisine": "burger",
        "name": "Biggies Burger"
      }
    },
    {
      "type": "node",
      "id": 11289658364,
      "lat": 12.9135135,
      "lon": 77.6058549,
      "tags": {
        "brand": "Peter England",
        "brand:wikidata": "Q19573665",
        "clothes": "men",
        "name": "Peter England",
        "shop": "clothes"
      }
    },
    {
      "type": "node",
      "id": 11289658365,
      "lat": 12.9136185,
      "lon": 77.6072771,
      "tags": {
        "level": "1",
        "name": "Glamvie Unisex Salon & Spa",
        "shop": "beauty"
      }
    },
    {
      "type": "node",
      "id": 11289658366,
      "lat": 12.9136273,
      "lon": 77.6073039,
      "tags": {
        "name": "Pigeon",
        "shop": "kitchen"
      }
    },
    {
      "type": "node",
      "id": 11290256855,
      "lat": 12.9137362,
      "lon": 77.605835,
      "tags": {
        "clothes": "men",
        "name": "Damensch",
        "shop": "clothes"
      }
    },
    {
      "type": "node",
      "id": 11290256856,
      "lat": 12.9132656,
      "lon": 77.6057264,
      "tags": {
        "amenity": "clinic",
        "healthcare": "clinic",
        "healthcare:speciality": "urology",
        "name": "Urocare Urology Superspeciality Clinic"
      }
    },
    {
      "type": "node",
      "id": 11290256857,
      "lat": 12.9135271,
      "lon": 77.6061385,
      "tags": {
        "amenity": "dentist",
        "healthcare": "dentist",
        "name": "Odont Dental Care"
      }
    },
    {
      "type": "node",
      "id": 11290256858,
      "lat": 12.9135339,
      "lon": 77.6061043,
      "tags": {
        "name": "The Badminton Shop",
        "shop": "sports"
      }
    },
    {
      "type": "node",
      "id": 11290812039,
      "lat": 12.91302,
      "lon": 77.6037806,
      "tags": {
        "name": "Tip Top Dry Cleaners",
        "shop": "dry_cleaning"
      }
    },
    {
      "type": "node",
      "id": 11290812040,
      "lat": 12.9136069,
      "lon": 77.6040059,
      "tags": {
        "amenity": "restaurant",
        "cuisine": "indian",
        "name": "Roti Wala"
      }
    },
    {
      "type": "node",
      "id": 11290812041,
      "lat": 12.9136855,
      "lon": 77.6051806,
      "tags": {
        "amenity": "cafe",
        "name": "Third Wave Coffee"
      }
    },
    {
      "type": "node",
      "id": 11290812042,
      "lat": 12.913347,
      "lon": 77.606165,
      "tags": {
        "male": "yes",
        "name": "Traits Men's Salon",
        "shop": "hairdresser"
      }
    },
    {
      "type": "node",
      "id": 11290812043,
      "lat": 12.9133829,
      "lon": 77.606163,
      "tags": {
        "female": "yes",
        "name": "Traits Salon",
        "shop": "hairdresser"
      }
    },
    {
      "type": "node",
      "id": 11290812044,
      "lat": 12.9131319,
      "lon": 77.6061046,
      "tags": {
        "name": "Reborn Beauty",
        "shop": "beauty"
      }
    },
    {
      "type": "node",
      "id": 11290812045,
      "lat": 12.9127391,
      "lon": 77.6061817,
      "tags": {
        "leisure": "fitness_centre",
        "name": "Zoom Fitness"
      }
    },
    {
      "type": "node",
      "id": 11291647600,
      "lat": 12.9138966,
      "lon": 77.6079561,
      "tags": {
        "name": "Sangeetha Mobiles",
        "name:kn": "ಸಂಗೀತ",
        "shop": "mobile_phone",
        "wheelchair": "no"
      }
    },
    {
      "type": "node",
      "id": 11291647601,
      "lat": 12.9139064,
      "lon": 77.6081076,
      "tags": {
        "amenity": "dentist",
        "healthcare": "dentist",
        "name": "Cloud Dental Care",
        "wheelchair": "limited"
      }
    },
    {
      "type": "node",
      "id": 11291647602,
      "lat": 12.9137077,
      "lon": 77.608168,
      "tags": {
        "name": "Photo Circle",
        "shop": "photo"
      }
    },
    {
      "type": "node",
      "id": 11291647603,
      "lat": 12.9137938,
      "lon": 77.6090636,
      "tags": {
        "amenity": "restaurant",
        "check_date": "2023-12-27",
        "cuisine": "pizza",
        "internet_access": "no",
        "name": "La Pino'z Pizza",
        "payment:cash": "yes",
        "payment:credit_cards": "yes",
        "payment:debit_cards": "yes"
      }
    },
    {
      "type": "node",
      "id": 11291647604,
      "lat": 12.9137948,
      "lon": 77.6091679,
      "tags": {
        "name": "Korean Trendz",
        "shop": "bag"
      }
    },
    {
      "type": "node",
      "id": 11291647605,
      "lat": 12.9138241,
      "lon": 77.6093536,
      "tags": {
        "name": "Durga Condiments",
        "shop": "bakery"
      }
    },
    {
      "type": "node",
      "id": 11291647606,
      "lat": 12.9138293,
      "lon": 77.6098606,
      "tags": {
        "name": "Just Bake",
        "name:kn": "ಜಸ್ಟ್ ಬೇಕ್",
        "shop": "pastry"
      }
    },
    {
      "type": "node",
      "id": 11291647607,
      "lat": 12.914062,
      "lon": 77.6098881,
      "tags": {
        "brand": "Toni & Guy",
        "brand:wikidata": "Q324784",
        "female": "yes",
        "male": "yes",
        "name": "Toni & Guy",
        "shop": "hairdresser"
      }
    },
    {
      "type": "node",
      "id": 11291647608,
      "lat": 12.9137729,
      "lon": 77.6102012,
      "tags": {
        "name": "Spykar",
        "shop": "clothes"
      }
    },
    {
      "type": "node",
      "id": 11291647609,
      "lat": 12.9138744,
      "lon": 77.6102072,
      "tags": {
        "female": "yes",
        "level": "1",
        "male": "yes",
        "name": "Creative Scissors",
        "shop": "hairdresser"
      }
    },
    {
      "type": "node",
      "id": 11291647610,
      "lat": 12.9132142,
      "lon": 77.6101657,
      "tags": {
        "name": "Haryana Handloom House",
        "shop": "bed"
      }
    },
    {
      "type": "node",
      "id": 11291647611,
      "lat": 12.9130339,
      "lon": 77.6101804,
      "tags": {
        "amenity": "bank",
        "brand": "Bandhan Bank",
        "brand:wikidata": "Q19882235",
        "name": "Bandhan Bank"
      }
    },
    {
      "type": "node",
      "id": 11291647612,
      "lat": 12.9128391,
      "lon": 77.610165,
      "tags": {
        "amenity": "fast_food",
        "cuisine": "juice",
        "name": "Juice & Sandwich Center"
      }
    },
    {
      "type": "node",
      "id": 11291647613,
      "lat": 12.914043,
      "lon": 77.6098083,
      "tags": {
        "name": "HP World",
        "shop": "computer"
      }
    },
    {
      "type": "node",
      "id": 11291647616,
      "lat": 12.9140918,
      "lon": 77.6099262,
      "tags": {
        "dance:teaching": "yes",
        "leisure": "dance",
        "name": "Just Dance"
      }
    },
    {
      "type": "node",
      "id": 11291647617,
      "lat": 12.914221,
      "lon": 77.6099694,
      "tags": {
        "amenity": "bank",
        "brand": "IDFC First Bank",
        "brand:wikidata": "Q22031467",
        "name": "IDFC First Bank"
      }
    },
    {
      "type": "node",
      "id": 11291647618,
      "lat": 12.9141779,
      "lon": 77.609964,
      "tags": {
        "amenity": "ice_cream",
        "name": "nic",
        "wheelchair": "limited"
      }
    },
    {
      "type": "node",
      "id": 11291647619,
      "lat": 12.9137001,
      "lon": 77.608221,
      "tags": {
        "name": "Balaji Bakers & Sweets",
        "shop": "pastry"
      }
    },
    {
      "type": "node",
      "id": 11291647620,
      "lat": 12.9137004,
      "lon": 77.6082555,
      "tags": {
        "name": "Lenovo",
        "shop": "computer"
      }
    },
    {
      "type": "node",
      "id": 11291647621,
      "lat": 12.9126429,
      "lon": 77.6099166,
      "tags": {
        "amenity": "cafe",
        "name": "Kullad Cafe"
      }
    },
    {
      "type": "node",
      "id": 11291647622,
      "lat": 12.9138546,
      "lon": 77.6076296,
      "tags": {
        "name": "Maa Flowers",
        "shop": "florist"
      }
    },
    {
      "type": "node",
      "id": 11291647623,
      "lat": 12.913803,
      "lon": 77.6068471,
      "tags": {
        "name": "Pai Mobiles",
        "shop": "mobile_phone"
      }
    },
    {
      "type": "node",
      "id": 11291647624,
      "lat": 12.9136049,
      "lon": 77.606949,
      "tags": {
        "amenity": "pharmacy",
        "healthcare": "pharmacy",
        "name": "Life Care Medicals",
        "wheelchair": "no"
      }
    },
    {
      "type": "node",
      "id": 11291647625,
      "lat": 12.9136053,
      "lon": 77.6070457,
      "tags": {
        "amenity": "clinic",
        "healthcare": "clinic",
        "healthcare:speciality": "otolaryngology",
        "name": "Smruthi ENT Clinic & Multispeciality Centre"
      }
    },
    {
      "type": "node",
      "id": 11291647626,
      "lat": 12.9138202,
      "lon": 77.6096521,
      "tags": {
        "name": "Laptop Splutions",
        "repair": "yes",
        "shop": "computer"
      }
    },
    {
      "type": "node",
      "id": 11291647627,
      "lat": 12.9139319,
      "lon": 77.6104393,
      "tags": {
        "amenity": "cafe",
        "name": "Olive Street Food Cafe",
        "wheelchair": "no"
      }
    },
    {
      "type": "node",
      "id": 11292715483,
      "lat": 12.9123979,
      "lon": 77.6098929,
      "tags": {
        "amenity": "kindergarten",
        "name": "Kids Castle"
      }
    },
    {
      "type": "node",
      "id": 11294646338,
      "lat": 12.9195785,
      "lon": 77.5950152,
      "tags": {
        "amenity": "atm"
      }
    },
    {
      "type": "node",
      "id": 11294646339,
      "lat": 12.9166371,
      "lon": 77.5949539,
      "tags": {
        "level": "0",
        "name": "Rajshree Hardware",
        "shop": "hardware"
      }
    },
    {
      "type": "node",
      "id": 11294646353,
      "lat": 12.9149556,
      "lon": 77.5949412,
      "tags": {
        "amenity": "fast_food",
        "name": "Welcome Upahara"
      }
    },
    {
      "type": "node",
      "id": 11296562017,
      "lat": 12.9070559,
      "lon": 77.6003303,
      "tags": {
        "amenity": "restaurant",
        "name": "Millenials"
      }
    },
    {
      "type": "node",
      "id": 11296562020,
      "lat": 12.9064253,
      "lon": 77.5981787,
      "tags": {
        "amenity": "atm",
        "brand": "Kotak Mahindra Bank",
        "brand:wikidata": "Q2040404",
        "check_date": "2025-09-19",
        "level": "0",
        "opening_hours": "24/7",
        "operator": "Kotak Mahindra Bank",
        "operator:wikidata": "Q2040404",
        "wheelchair": "no"
      }
    },
    {
      "type": "node",
      "id": 11296562021,
      "lat": 12.9068787,
      "lon": 77.5997761,
      "tags": {
        "amenity": "atm",
        "brand": "HDFC Bank",
        "brand:wikidata": "Q631047",
        "level": "0",
        "operator": "HDFC Bank",
        "operator:wikidata": "Q631047",
        "short_name": "HDFC",
        "wheelchair": "no"
      }
    },
    {
      "type": "node",
      "id": 11296562022,
      "lat": 12.9071793,
      "lon": 77.5997596,
      "tags": {
        "amenity": "shelter",
        "name": "JP Nagar 3rd Phase",
        "name:kn": "ಜೆಪಿ ನಗರ ೩ನೇ ಹಂತ",
        "shelter_type": "public_transport"
      }
    },
    {
      "type": "node",
      "id": 11296562023,
      "lat": 12.9071348,
      "lon": 77.5996493,
      "tags": {
        "amenity": "shelter",
        "name": "JD Mara",
        "shelter_type": "public_transport"
      }
    },
    {
      "type": "node",
      "id": 11296562024,
      "lat": 12.9071096,
      "lon": 77.5995703,
      "tags": {
        "amenity": "shelter",
        "shelter_type": "public_transport"
      }
    },
    {
      "type": "node",
      "id": 11296562026,
      "lat": 12.9069216,
      "lon": 77.5998856,
      "tags": {
        "amenity": "atm",
        "brand": "RBL Bank",
        "brand:wikidata": "Q13120398",
        "level": "0",
        "operator": "RBL Bank",
        "operator:wikidata": "Q13120398",
        "wheelchair": "no"
      }
    },
    {
      "type": "node",
      "id": 11296562027,
      "lat": 12.9069377,
      "lon": 77.5999429,
      "tags": {
        "amenity": "bank",
        "branch": "4th Phase, JP Nagar",
        "brand": "RBL Bank",
        "brand:wikidata": "Q13120398",
        "level": "0",
        "name": "RBL Bank",
        "wheelchair": "no"
      }
    },
    {
      "type": "node",
      "id": 11296562028,
      "lat": 12.9070463,
      "lon": 77.6002896,
      "tags": {
        "amenity": "restaurant",
        "name": "Crumb Together"
      }
    },
    {
      "type": "node",
      "id": 11296562029,
      "lat": 12.9068917,
      "lon": 77.5998225,
      "tags": {
        "amenity": "bank",
        "branch": "Bilekahalli, JP Nagar 4th Phase",
        "brand": "HDFC Bank",
        "brand:wikidata": "Q631047",
        "level": "0",
        "name": "HDFC Bank",
        "short_name": "HDFC",
        "wheelchair": "no"
      }
    },
    {
      "type": "node",
      "id": 11296562030,
      "lat": 12.9065152,
      "lon": 77.5984826,
      "tags": {
        "amenity": "fast_food",
        "diet:lacto_vegetarian": "yes",
        "name": "Saanvi Sagar"
      }
    },
    {
      "type": "node",
      "id": 11296660884,
      "lat": 12.9068092,
      "lon": 77.5980072,
      "tags": {
        "level": "0",
        "shop": "supermarket",
        "wheelchair": "limited"
      }
    },
    {
      "type": "node",
      "id": 11296660886,
      "lat": 12.9063159,
      "lon": 77.5977639,
      "tags": {
        "name": "Avenue Automotives",
        "shop": "car"
      }
    },
    {
      "type": "node",
      "id": 11296660887,
      "lat": 12.906721,
      "lon": 77.5992833,
      "tags": {
        "amenity": "cafe",
        "cuisine": "coffee_shop",
        "delivery": "yes",
        "name": "Blue Tokai Coffee Roasters",
        "takeaway": "yes",
        "toilets": "yes"
      }
    },
    {
      "type": "node",
      "id": 11296660890,
      "lat": 12.9062801,
      "lon": 77.597683,
      "tags": {
        "amenity": "restaurant",
        "cuisine": "japanese",
        "name": "Saiko"
      }
    },
    {
      "type": "node",
      "id": 11296660893,
      "lat": 12.9134212,
      "lon": 77.6083447,
      "tags": {
        "addr:city": "Bangalore",
        "addr:district": "Bengaluru Urban",
        "addr:postcode": "560076",
        "addr:street": "11th Main Road",
        "amenity": "cafe",
        "cuisine": "indian",
        "name": "Puneri Katta"
      }
    },
    {
      "type": "node",
      "id": 11296908431,
      "lat": 12.9134477,
      "lon": 77.605435,
      "tags": {
        "amenity": "veterinary",
        "name": "BTM Vet Clinic"
      }
    },
    {
      "type": "node",
      "id": 11296908432,
      "lat": 12.9134261,
      "lon": 77.6050916,
      "tags": {
        "amenity": "clinic",
        "healthcare": "clinic",
        "healthcare:speciality": "orthopaedics",
        "name": "Bangalore Orthopaedic Clinic"
      }
    },
    {
      "type": "node",
      "id": 11302751565,
      "lat": 12.9177118,
      "lon": 77.5996743,
      "tags": {
        "amenity": "atm",
        "branch": "Sri Jayadeva Institute of Cardiology",
        "brand": "Canara Bank",
        "brand:en": "Canara Bank",
        "brand:hi": "केनरा बैंक",
        "brand:kn": "ಕೆನರಾ ಬ್ಯಾಂಕ್",
        "brand:pa": "ਕੇਨਰਾ ਬੈਂਕ",
        "brand:pnb": "کینرا بینک",
        "brand:ur": "کینرا بینک",
        "brand:wikidata": "Q2003777",
        "level": "0",
        "name:en": "Canara Bank",
        "name:hi": "केनरा बैंक",
        "name:kn": "ಕೆನರಾ ಬ್ಯಾಂಕ್",
        "name:pa": "ਕੇਨਰਾ ਬੈਂਕ",
        "name:pnb": "کینرا بینک",
        "name:ur": "کینرا بینک",
        "operator": "Canara Bank",
        "operator:wikidata": "Q2003777",
        "wheelchair": "limited"
      }
    },
    {
      "type": "node",
      "id": 11309805453,
      "lat": 12.9164443,
      "lon": 77.6063121,
      "tags": {
        "check_date": "2023-11-03",
        "name": "James Bond Dry Cleaners",
        "shop": "dry_cleaning"
      }
    },
    {
      "type": "node",
      "id": 11309805454,
      "lat": 12.9165006,
      "lon": 77.6028339,
      "tags": {
        "check_date": "2023-11-03",
        "name": "Rajkamal Jewelers",
        "shop": "jewelry"
      }
    },
    {
      "type": "node",
      "id": 11309805455,
      "lat": 12.9165,
      "lon": 77.6013893,
      "tags": {
        "check_date": "2023-11-03",
        "name": "Ola",
        "shop": "motorcycle"
      }
    },
    {
      "type": "node",
      "id": 11309805458,
      "lat": 12.9165695,
      "lon": 77.5973579,
      "tags": {
        "check_date": "2023-11-03",
        "name": "Power Sports",
        "shop": "outdoor"
      }
    },
    {
      "type": "node",
      "id": 11309805460,
      "lat": 12.9166467,
      "lon": 77.5947595,
      "tags": {
        "check_date": "2023-11-03",
        "name": "Light Store",
        "shop": "lighting"
      }
    },
    {
      "type": "node",
      "id": 11309805461,
      "lat": 12.9166445,
      "lon": 77.5936147,
      "tags": {
        "amenity": "clinic",
        "check_date": "2023-11-03",
        "healthcare": "clinic",
        "name": "partha"
      }
    },
    {
      "type": "node",
      "id": 11309805462,
      "lat": 12.9166967,
      "lon": 77.5929637,
      "tags": {
        "amenity": "pharmacy",
        "check_date": "2023-11-03",
        "healthcare": "pharmacy",
        "name": "Bengaluru Drug House"
      }
    },
    {
      "type": "node",
      "id": 11309805467,
      "lat": 12.9166293,
      "lon": 77.5969461,
      "tags": {
        "check_date": "2023-11-03",
        "name": "Kurukulu Thindi",
        "shop": "kiosk"
      }
    },
    {
      "type": "node",
      "id": 11380741677,
      "lat": 12.9164343,
      "lon": 77.6028196,
      "tags": {
        "addr:floor": "1",
        "check_date": "2023-11-28",
        "level": "1",
        "name": "Hei Chords",
        "shop": "music"
      }
    },
    {
      "type": "node",
      "id": 11380741678,
      "lat": 12.9164362,
      "lon": 77.6058931,
      "tags": {
        "check_date": "2023-11-28",
        "name": "Looking Good Furniture",
        "shop": "furniture"
      }
    },
    {
      "type": "node",
      "id": 11380741679,
      "lat": 12.9163971,
      "lon": 77.6065089,
      "tags": {
        "amenity": "dentist",
        "check_date": "2024-01-20",
        "healthcare": "dentist",
        "name": "Dr. Braces and Faces"
      }
    },
    {
      "type": "node",
      "id": 11382935806,
      "lat": 12.916688,
      "lon": 77.5927914,
      "tags": {
        "check_date": "2023-11-29",
        "name": "Soch",
        "shop": "clothes"
      }
    },
    {
      "type": "node",
      "id": 11382935807,
      "lat": 12.9167011,
      "lon": 77.5931305,
      "tags": {
        "amenity": "atm",
        "brand": "Axis Bank",
        "brand:wikidata": "Q2003549",
        "check_date": "2023-11-29",
        "operator": "Axis Bank",
        "operator:wikidata": "Q2003549"
      }
    },
    {
      "type": "node",
      "id": 11382935808,
      "lat": 12.9166966,
      "lon": 77.5931883,
      "tags": {
        "amenity": "atm",
        "brand": "IndusInd Bank",
        "brand:wikidata": "Q2040323",
        "check_date": "2023-11-29",
        "operator": "IndusInd Bank",
        "operator:wikidata": "Q2040323"
      }
    },
    {
      "type": "node",
      "id": 11382935809,
      "lat": 12.9166545,
      "lon": 77.5942339,
      "tags": {
        "check_date": "2023-11-29",
        "name": "Reliance Trends",
        "shop": "clothes"
      }
    },
    {
      "type": "node",
      "id": 11382935810,
      "lat": 12.9166485,
      "lon": 77.5945955,
      "tags": {
        "check_date": "2023-11-29",
        "name": "Philips Hue",
        "shop": "lighting"
      }
    },
    {
      "type": "node",
      "id": 11382935811,
      "lat": 12.9166408,
      "lon": 77.5945176,
      "tags": {
        "check_date": "2023-11-29",
        "name": "Kadence Experience",
        "shop": "musical_instrument"
      }
    },
    {
      "type": "node",
      "id": 11382935812,
      "lat": 12.9166134,
      "lon": 77.5947605,
      "tags": {
        "check_date": "2023-11-29",
        "name": "Trust Cycles",
        "shop": "bicycle"
      }
    },
    {
      "type": "node",
      "id": 11382935813,
      "lat": 12.9166298,
      "lon": 77.5957278,
      "tags": {
        "check_date": "2023-11-29",
        "name": "Fish Mart",
        "shop": "seafood"
      }
    },
    {
      "type": "node",
      "id": 11382935814,
      "lat": 12.9166283,
      "lon": 77.5957461,
      "tags": {
        "amenity": "dentist",
        "check_date": "2023-11-29",
        "healthcare": "dentist",
        "name": "Dental Clinic"
      }
    },
    {
      "type": "node",
      "id": 11382935815,
      "lat": 12.9166388,
      "lon": 77.5959639,
      "tags": {
        "amenity": "motorcycle_rental",
        "check_date": "2023-12-06",
        "name": "BeepKart"
      }
    },
    {
      "type": "node",
      "id": 11382935816,
      "lat": 12.9166219,
      "lon": 77.5964674,
      "tags": {
        "check_date": "2023-11-29",
        "name": "Dinesh Electricals",
        "shop": "electrical"
      }
    },
    {
      "type": "node",
      "id": 11382935817,
      "lat": 12.9166156,
      "lon": 77.5965051,
      "tags": {
        "check_date": "2023-11-29",
        "name": "Deepak Hardware",
        "shop": "hardware"
      }
    },
    {
      "type": "node",
      "id": 11382935821,
      "lat": 12.9165727,
      "lon": 77.5969464,
      "tags": {
        "amenity": "fast_food",
        "check_date": "2023-11-29",
        "name": "Sri Krishna Mane Holige"
      }
    },
    {
      "type": "node",
      "id": 11382935822,
      "lat": 12.9169011,
      "lon": 77.5972275,
      "tags": {
        "check_date": "2023-11-29",
        "name": "Nandini",
        "shop": "dairy"
      }
    },
    {
      "type": "node",
      "id": 11382935823,
      "lat": 12.9169736,
      "lon": 77.5984763,
      "tags": {
        "check_date": "2023-11-29",
        "shop": "copyshop"
      }
    },
    {
      "type": "node",
      "id": 11382935824,
      "lat": 12.9164212,
      "lon": 77.6045349,
      "tags": {
        "amenity": "place_of_worship",
        "check_date": "2023-11-29",
        "religion": "hindu"
      }
    },
    {
      "type": "node",
      "id": 11393362100,
      "lat": 12.9169721,
      "lon": 77.5977608,
      "tags": {
        "amenity": "cafe",
        "check_date": "2023-12-04",
        "name": "The Coffee Brewery"
      }
    },
    {
      "type": "node",
      "id": 11393362101,
      "lat": 12.9168676,
      "lon": 77.6004295,
      "tags": {
        "amenity": "bank",
        "brand": "State Bank of India",
        "brand:wikidata": "Q1340361",
        "check_date": "2023-12-04",
        "name": "State Bank of India",
        "name:kn": "ಎಸ್ ಬಿ ಐ",
        "short_name": "SBI"
      }
    },
    {
      "type": "node",
      "id": 11393362102,
      "lat": 12.9165149,
      "lon": 77.603164,
      "tags": {
        "amenity": "bank",
        "brand": "CSB Bank",
        "brand:wikidata": "Q5053244",
        "check_date": "2023-12-04",
        "name": "CSB Bank",
        "official_name": "Catholic Syrian Bank"
      }
    },
    {
      "type": "node",
      "id": 11394086038,
      "lat": 12.9168157,
      "lon": 77.6048362,
      "tags": {
        "check_date": "2023-12-04",
        "name": "Swathi's Furniture",
        "shop": "furniture"
      }
    },
    {
      "type": "node",
      "id": 11394086039,
      "lat": 12.9168516,
      "lon": 77.6040297,
      "tags": {
        "amenity": "bank",
        "brand": "IndusInd Bank",
        "brand:wikidata": "Q2040323",
        "check_date": "2023-12-04",
        "name": "IndusInd Bank",
        "name:kn": "ಇಂಡಸ್ಇಂಡ್"
      }
    },
    {
      "type": "node",
      "id": 11394086041,
      "lat": 12.9169468,
      "lon": 77.5980837,
      "tags": {
        "amenity": "fast_food",
        "check_date": "2023-12-04",
        "name": "Udupi Thindi"
      }
    },
    {
      "type": "node",
      "id": 11394086042,
      "lat": 12.9169667,
      "lon": 77.5984499,
      "tags": {
        "amenity": "fast_food",
        "check_date": "2023-12-04",
        "name": "Lilliput Upahar"
      }
    },
    {
      "type": "node",
      "id": 11394086043,
      "lat": 12.9170097,
      "lon": 77.5974513,
      "tags": {
        "leisure": "park"
      }
    },
    {
      "type": "node",
      "id": 11394086044,
      "lat": 12.9170173,
      "lon": 77.593916,
      "tags": {
        "check_date": "2023-12-04",
        "name": "Jute Cute",
        "shop": "interior_decoration"
      }
    },
    {
      "type": "node",
      "id": 11394086045,
      "lat": 12.9171186,
      "lon": 77.5936368,
      "tags": {
        "check_date": "2023-12-04",
        "name": "Anugraha Netralaya",
        "shop": "optician"
      }
    },
    {
      "type": "node",
      "id": 11395345914,
      "lat": 12.9166415,
      "lon": 77.5939487,
      "tags": {
        "amenity": "fast_food",
        "check_date": "2023-12-05",
        "name": "Hot Gridle"
      }
    },
    {
      "type": "node",
      "id": 11395345915,
      "lat": 12.9165208,
      "lon": 77.5949428,
      "tags": {
        "check_date": "2023-12-05",
        "name": "Trikannad Poornima Travels",
        "shop": "travel_agency"
      }
    },
    {
      "type": "node",
      "id": 11395345916,
      "lat": 12.9166328,
      "lon": 77.5952237,
      "tags": {
        "amenity": "fast_food",
        "check_date": "2023-12-05",
        "name": "Hotel 9th Smile"
      }
    },
    {
      "type": "node",
      "id": 11395345917,
      "lat": 12.9166451,
      "lon": 77.5954774,
      "tags": {
        "amenity": "fast_food",
        "check_date": "2023-12-05",
        "name": "The Red Box"
      }
    },
    {
      "type": "node",
      "id": 11395345918,
      "lat": 12.916627,
      "lon": 77.5962281,
      "tags": {
        "check_date": "2023-12-05",
        "name": "Shree Mahalakshmi Hardware",
        "shop": "hardware"
      }
    },
    {
      "type": "node",
      "id": 11395345919,
      "lat": 12.9166224,
      "lon": 77.5962623,
      "tags": {
        "check_date": "2023-12-05",
        "name": "Sujan Enterprises",
        "shop": "interior_decoration"
      }
    },
    {
      "type": "node",
      "id": 11395345921,
      "lat": 12.9169578,
      "lon": 77.5961811,
      "tags": {
        "check_date": "2023-12-05",
        "shop": "hairdresser"
      }
    },
    {
      "type": "node",
      "id": 11395345922,
      "lat": 12.9164799,
      "lon": 77.5967531,
      "tags": {
        "amenity": "bank",
        "brand": "Bank of India",
        "brand:wikidata": "Q2004439",
        "check_date": "2023-12-05",
        "name": "Bank of India"
      }
    },
    {
      "type": "node",
      "id": 11395345923,
      "lat": 12.9164726,
      "lon": 77.596667,
      "tags": {
        "amenity": "bank",
        "brand": "HDFC Bank",
        "brand:wikidata": "Q631047",
        "check_date": "2023-12-05",
        "name": "HDFC Bank",
        "short_name": "HDFC"
      }
    },
    {
      "type": "node",
      "id": 11395345924,
      "lat": 12.9169678,
      "lon": 77.5985202,
      "tags": {
        "amenity": "pharmacy",
        "check_date": "2023-12-05",
        "healthcare": "pharmacy",
        "name": "Poornima Medicals"
      }
    },
    {
      "type": "node",
      "id": 11395345925,
      "lat": 12.9168623,
      "lon": 77.602811,
      "tags": {
        "amenity": "cafe",
        "check_date": "2023-12-05",
        "name": "Tea Time"
      }
    },
    {
      "type": "node",
      "id": 11395345926,
      "lat": 12.9168575,
      "lon": 77.6028425,
      "tags": {
        "amenity": "atm",
        "brand": "IDFC First Bank",
        "brand:wikidata": "Q22031467",
        "check_date": "2023-12-05",
        "operator": "IDFC First Bank",
        "operator:wikidata": "Q22031467"
      }
    },
    {
      "type": "node",
      "id": 11395345927,
      "lat": 12.9168319,
      "lon": 77.6039247,
      "tags": {
        "amenity": "pharmacy",
        "brand": "Apollo Pharmacy",
        "brand:wikidata": "Q62562612",
        "check_date": "2023-12-05",
        "healthcare": "pharmacy",
        "name": "Apollo Pharmacy"
      }
    },
    {
      "type": "node",
      "id": 11397272611,
      "lat": 12.917015,
      "lon": 77.5961948,
      "tags": {
        "check_date": "2023-12-06",
        "name": "Izaan Chicken Center",
        "shop": "butcher"
      }
    },
    {
      "type": "node",
      "id": 11422632434,
      "lat": 12.9139581,
      "lon": 77.6063704,
      "tags": {
        "addr:housenumber": "323",
        "addr:street": "7th Main Road",
        "name": "First Cry",
        "shop": "baby_goods"
      }
    },
    {
      "type": "node",
      "id": 11422632435,
      "lat": 12.9142238,
      "lon": 77.6102058,
      "tags": {
        "addr:housenumber": "947",
        "addr:street": "16th Main Road",
        "name": "Shristi Silks",
        "shop": "fabric"
      }
    },
    {
      "type": "node",
      "id": 11422632436,
      "lat": 12.9136824,
      "lon": 77.6079255,
      "tags": {
        "addr:housenumber": "731",
        "addr:street": "7th Cross Road",
        "name": "whami",
        "shop": "mobile_phone"
      }
    },
    {
      "type": "node",
      "id": 11422632437,
      "lat": 12.913472,
      "lon": 77.6057079,
      "tags": {
        "amenity": "bank",
        "atm": "yes",
        "brand": "Yes Bank",
        "brand:wikidata": "Q2040394",
        "name": "Yes Bank",
        "name:kn": "ಯಸ್ ಬ್ಯಾಂಕ್"
      }
    },
    {
      "type": "node",
      "id": 11422632438,
      "lat": 12.913557,
      "lon": 77.6102402,
      "tags": {
        "leisure": "fitness_centre",
        "level": "1",
        "name": "I-Fitness"
      }
    },
    {
      "type": "node",
      "id": 11422632439,
      "lat": 12.9136597,
      "lon": 77.610265,
      "tags": {
        "beauty": "hair;spa",
        "brand": "Naturals",
        "brand:wikidata": "Q125728261",
        "level": "1",
        "name": "Naturals",
        "shop": "beauty"
      }
    },
    {
      "type": "node",
      "id": 11464753886,
      "lat": 12.9155231,
      "lon": 77.6099553,
      "tags": {
        "addr:housenumber": "787",
        "addr:street": "16th Main Road",
        "name": "Preethi Bakery",
        "shop": "bakery"
      }
    },
    {
      "type": "node",
      "id": 11464753887,
      "lat": 12.9144358,
      "lon": 77.6102182,
      "tags": {
        "addr:housenumber": "945",
        "addr:street": "16th Main Road",
        "level": "1",
        "name": "Turning Heads",
        "shop": "beauty"
      }
    },
    {
      "type": "node",
      "id": 11464753888,
      "lat": 12.9146557,
      "lon": 77.6102354,
      "tags": {
        "addr:housenumber": "943",
        "addr:street": "16th Main Road",
        "name": "Tulasi",
        "shop": "clothes"
      }
    },
    {
      "type": "node",
      "id": 11464753889,
      "lat": 12.9145421,
      "lon": 77.6102193,
      "tags": {
        "addr:housenumber": "944",
        "addr:street": "16th Main Road",
        "name": "Titan Eye+",
        "shop": "optician"
      }
    },
    {
      "type": "node",
      "id": 11464753890,
      "lat": 12.9152038,
      "lon": 77.6102199,
      "tags": {
        "addr:housenumber": "938",
        "addr:street": "16th Main Road",
        "brand": "Lenskart",
        "brand:wikidata": "Q17068753",
        "name": "Lenskart",
        "shop": "optician"
      }
    },
    {
      "type": "node",
      "id": 11464753891,
      "lat": 12.9149811,
      "lon": 77.6102483,
      "tags": {
        "addr:housenumber": "940",
        "addr:street": "16th Main Road",
        "name": "Cheers",
        "shop": "alcohol"
      }
    },
    {
      "type": "node",
      "id": 11464753892,
      "lat": 12.9147407,
      "lon": 77.6099008,
      "tags": {
        "addr:housenumber": "780",
        "addr:street": "16th Main Road",
        "level": "1",
        "name": "Hair Speak Family Salon",
        "shop": "beauty"
      }
    },
    {
      "type": "node",
      "id": 11464753893,
      "lat": 12.914543,
      "lon": 77.6102676,
      "tags": {
        "addr:housenumber": "944",
        "addr:street": "16th Main Road",
        "level": "1",
        "name": "IRITZ",
        "shop": "beauty"
      }
    },
    {
      "type": "node",
      "id": 11464753894,
      "lat": 12.9147432,
      "lon": 77.6099448,
      "tags": {
        "addr:housenumber": "780",
        "addr:street": "16th Main Road",
        "name": "health & glow",
        "shop": "cosmetics"
      }
    },
    {
      "type": "node",
      "id": 11464753895,
      "lat": 12.91545,
      "lon": 77.6102441,
      "tags": {
        "addr:housenumber": "936",
        "addr:street": "16th Main Road",
        "name": "Kanti Sweets",
        "shop": "confectionery"
      }
    },
    {
      "type": "node",
      "id": 11464753896,
      "lat": 12.9144334,
      "lon": 77.6102754,
      "tags": {
        "addr:housenumber": "945",
        "addr:street": "16th Main Road",
        "leisure": "fitness_centre",
        "level": "2",
        "name": "Fitness Tycoon"
      }
    },
    {
      "type": "node",
      "id": 11464753897,
      "lat": 12.9155336,
      "lon": 77.610242,
      "tags": {
        "addr:housenumber": "935",
        "addr:street": "16th Main Road",
        "name": "Lakme Salon",
        "shop": "beauty"
      }
    },
    {
      "type": "node",
      "id": 11468397653,
      "lat": 12.9110518,
      "lon": 77.6098576,
      "tags": {
        "addr:housenumber": "1196",
        "addr:street": "16th Main Road",
        "leisure": "fitness_centre",
        "level": "2",
        "name": "Pump Up Bengauru"
      }
    },
    {
      "type": "node",
      "id": 11468397657,
      "lat": 12.9109699,
      "lon": 77.6098679,
      "tags": {
        "addr:housenumber": "1195",
        "addr:street": "16th Main Road",
        "leisure": "fitness_centre",
        "level": "1",
        "name": "Physique Freaks"
      }
    },
    {
      "type": "node",
      "id": 11502593621,
      "lat": 12.9121692,
      "lon": 77.6064581,
      "tags": {
        "amenity": "restaurant",
        "cuisine": "indian",
        "name": "Sri Annapurneswari Restaurant",
        "name:kn": "ಶ್ರೀ ಅನ್ನಪೂರ್ಣೇಶ್ವರಿ"
      }
    },
    {
      "type": "node",
      "id": 11502593622,
      "lat": 12.9122253,
      "lon": 77.6064502,
      "tags": {
        "name": "Time Telecom and Gift House",
        "shop": "watches"
      }
    },
    {
      "type": "node",
      "id": 11532796980,
      "lat": 12.9166351,
      "lon": 77.5949081,
      "tags": {
        "check_date": "2024-01-20",
        "name": "Bimba Designer Boutique",
        "shop": "clothes"
      }
    },
    {
      "type": "node",
      "id": 11532843227,
      "lat": 12.9165245,
      "lon": 77.6032301,
      "tags": {
        "amenity": "pharmacy",
        "check_date": "2024-01-20",
        "healthcare": "pharmacy",
        "name": "Sri Amulya Medicals"
      }
    },
    {
      "type": "node",
      "id": 11602938164,
      "lat": 12.9107013,
      "lon": 77.5991351,
      "tags": {
        "amenity": "restaurant",
        "cuisine": "indian",
        "name": "Cafe Khadya"
      }
    },
    {
      "type": "node",
      "id": 11602938165,
      "lat": 12.9107288,
      "lon": 77.5993819,
      "tags": {
        "amenity": "restaurant",
        "cuisine": "indian;italian",
        "name": "three dots & a dash"
      }
    },
    {
      "type": "node",
      "id": 11630831052,
      "lat": 12.9130361,
      "lon": 77.6000043,
      "tags": {
        "amenity": "atm",
        "brand": "ICICI Bank",
        "brand:wikidata": "Q1653258",
        "operator": "ICICI Bank",
        "operator:wikidata": "Q1653258",
        "short_name": "ICICI"
      }
    },
    {
      "type": "node",
      "id": 11757924267,
      "lat": 12.905666,
      "lon": 77.6012072,
      "tags": {
        "amenity": "restaurant",
        "name": "Thelagram"
      }
    },
    {
      "type": "node",
      "id": 11757924268,
      "lat": 12.9057693,
      "lon": 77.6012005,
      "tags": {
        "amenity": "restaurant",
        "cuisine": "regional",
        "name": "IDC Kitchen"
      }
    },
    {
      "type": "node",
      "id": 11758069169,
      "lat": 12.9057288,
      "lon": 77.6009323,
      "tags": {
        "amenity": "pub",
        "name": "URU Brewpark",
        "toilets:wheelchair": "no",
        "wheelchair": "limited"
      }
    },
    {
      "type": "node",
      "id": 11939332953,
      "lat": 12.916813,
      "lon": 77.6052477,
      "tags": {
        "amenity": "bank",
        "atm": "yes",
        "brand": "HDFC Bank",
        "brand:wikidata": "Q631047",
        "name": "HDFC Bank",
        "short_name": "HDFC"
      }
    },
    {
      "type": "node",
      "id": 11946809266,
      "lat": 12.9069046,
      "lon": 77.6040856,
      "tags": {
        "name": "Olive Mart Supermarket",
        "shop": "supermarket",
        "wheelchair": "no"
      }
    },
    {
      "type": "node",
      "id": 11946809267,
      "lat": 12.9070903,
      "lon": 77.6038657,
      "tags": {
        "amenity": "bank",
        "atm": "yes",
        "brand": "UCO Bank",
        "brand:wikidata": "Q2005310",
        "name": "UCO Bank"
      }
    },
    {
      "type": "node",
      "id": 11946809268,
      "lat": 12.9058817,
      "lon": 77.6037517,
      "tags": {
        "amenity": "hospital",
        "healthcare": "hospital",
        "name": "Chirag Global Hospital"
      }
    },
    {
      "type": "node",
      "id": 12031693104,
      "lat": 12.9112761,
      "lon": 77.6098899,
      "tags": {
        "name": "Athenian Salon and Academy",
        "shop": "beauty"
      }
    },
    {
      "type": "node",
      "id": 12035150490,
      "lat": 12.9163712,
      "lon": 77.5928203,
      "tags": {
        "addr:housenumber": "1424/81",
        "addr:street": "South End C Cross",
        "amenity": "cafe",
        "check_date": "2024-07-05",
        "contact:instagram": "https://www.instagram.com/thecaffeinebaar",
        "cuisine": "coffee_shop",
        "delivery": "yes",
        "internet_access": "wlan",
        "internet_access:fee": "customers",
        "name": "The Caffeine Baar",
        "opening_hours": "08:00-23:00",
        "takeaway": "yes",
        "toilets": "yes",
        "website": "https://www.thecaffeinebaar.com",
        "wheelchair": "yes"
      }
    },
    {
      "type": "node",
      "id": 12050796484,
      "lat": 12.9129175,
      "lon": 77.6099493,
      "tags": {
        "addr:street": "16th Main Road",
        "amenity": "ice_cream",
        "name": "Thanco's Natural Ice Creams"
      }
    },
    {
      "type": "node",
      "id": 12050796485,
      "lat": 12.9129175,
      "lon": 77.6101638,
      "tags": {
        "name": "Frisson Family Mart",
        "shop": "convenience"
      }
    },
    {
      "type": "node",
      "id": 12050800986,
      "lat": 12.9134871,
      "lon": 77.6063457,
      "tags": {
        "addr:postcode": "560076",
        "addr:street": "7th Main Road",
        "amenity": "ice_cream",
        "name": "3 Mangos",
        "wheelchair": "yes"
      }
    },
    {
      "type": "node",
      "id": 12051379640,
      "lat": 12.9164675,
      "lon": 77.6048202,
      "tags": {
        "addr:postcode": "560076",
        "addr:street": "Outer Ring Road",
        "brand": "Reliance Digital",
        "brand:wikidata": "Q7311012",
        "name": "Reliance Digital",
        "operator": "Reliance Digital",
        "shop": "electronics"
      }
    },
    {
      "type": "node",
      "id": 12051379641,
      "lat": 12.9164793,
      "lon": 77.6051434,
      "tags": {
        "amenity": "atm",
        "brand": "State Bank of India",
        "brand:wikidata": "Q1340361",
        "operator": "State Bank of India",
        "operator:wikidata": "Q1340361",
        "short_name": "SBI"
      }
    },
    {
      "type": "node",
      "id": 12051379642,
      "lat": 12.9164448,
      "lon": 77.6046546,
      "tags": {
        "addr:postcode": "560076",
        "addr:street": "Outer Ring Road",
        "amenity": "clinic",
        "healthcare": "clinic",
        "healthcare:speciality": "fertility",
        "level": "1",
        "name": "Fertilite IVF"
      }
    },
    {
      "type": "node",
      "id": 12051379643,
      "lat": 12.9164193,
      "lon": 77.6047377,
      "tags": {
        "amenity": "restaurant",
        "cuisine": "indian;italian",
        "level": "2",
        "name": "Absolute Barbecues"
      }
    },
    {
      "type": "node",
      "id": 12094546907,
      "lat": 12.9079432,
      "lon": 77.6013453,
      "tags": {
        "name": "Azorte",
        "shop": "clothes"
      }
    },
    {
      "type": "node",
      "id": 12161830069,
      "lat": 12.9208893,
      "lon": 77.5971712,
      "tags": {
        "contact:email": "info@i-print.in",
        "contact:mobile": "+91-97434-20444;+91-98454-48001;+91-80-4147-2255",
        "name": "i-Print",
        "shop": "printing"
      }
    },
    {
      "type": "node",
      "id": 12161830085,
      "lat": 12.9207582,
      "lon": 77.5967675,
      "tags": {
        "amenity": "drinking_water",
        "indoor": "yes"
      }
    },
    {
      "type": "node",
      "id": 12161830093,
      "lat": 12.9204166,
      "lon": 77.5972503,
      "tags": {
        "amenity": "atm",
        "brand": "Punjab & Sind Bank",
        "brand:en": "Punjab & Sind Bank",
        "brand:hi": "पंजाब एण्ड सिंध बैंक",
        "brand:wikidata": "Q2003302",
        "level": "0",
        "name": "Punjab & Sind Bank",
        "name:en": "Punjab & Sind Bank",
        "name:hi": "पंजाब एण्ड सिंध बैंक",
        "operator": "Punjab & Sind Bank",
        "operator:wikidata": "Q2003302"
      }
    },
    {
      "type": "node",
      "id": 12161877005,
      "lat": 12.920204,
      "lon": 77.597169,
      "tags": {
        "addr:block": "9",
        "addr:city": "Bangalore",
        "addr:housenumber": "1588/42",
        "addr:place": "Jayanagar",
        "addr:postcode": "560069",
        "addr:street": "East End Main Road",
        "name": "Khan Motors",
        "note": "\"Advisor for sellers and buyers of all kinds of two and four wheelers.\"",
        "second_hand": "only",
        "shop": "car"
      }
    },
    {
      "type": "node",
      "id": 12169787154,
      "lat": 12.9121757,
      "lon": 77.6011666,
      "tags": {
        "access": "private",
        "amenity": "parking_entrance",
        "parking": "underground"
      }
    },
    {
      "type": "node",
      "id": 12219081017,
      "lat": 12.9164837,
      "lon": 77.6022732,
      "tags": {
        "amenity": "restaurant",
        "name": "Ninan Steak house and Burgers"
      }
    },
    {
      "type": "node",
      "id": 12229802211,
      "lat": 12.9103614,
      "lon": 77.5991174,
      "tags": {
        "name": "Bengaluru Brand Warehouse",
        "shop": "clothes"
      }
    },
    {
      "type": "node",
      "id": 12247828085,
      "lat": 12.9145426,
      "lon": 77.599578,
      "tags": {
        "name": "IBO",
        "shop": "hardware"
      }
    },
    {
      "type": "node",
      "id": 12247839778,
      "lat": 12.9143531,
      "lon": 77.6006777,
      "tags": {
        "addr:postcode": "560076",
        "name": "Sri Ram Sweet Centre",
        "shop": "confectionery"
      }
    },
    {
      "type": "node",
      "id": 12247839779,
      "lat": 12.9143521,
      "lon": 77.6002077,
      "tags": {
        "addr:housenumber": "34",
        "addr:postcode": "560076",
        "addr:street": "Bannerghatta Road",
        "name": "Aaradhya Travels",
        "shop": "travel_agency"
      }
    },
    {
      "type": "node",
      "id": 12247839782,
      "lat": 12.9143691,
      "lon": 77.600264,
      "tags": {
        "addr:housenumber": "34",
        "addr:postcode": "560076",
        "addr:street": "Bannerghatta Road",
        "name": "Bethliving",
        "shop": "interior_decoration"
      }
    },
    {
      "type": "node",
      "id": 12247852084,
      "lat": 12.9138636,
      "lon": 77.607781,
      "tags": {
        "addr:postcode": "560076",
        "addr:street": "7th Cross Road",
        "name": "Bolas",
        "shop": "nuts"
      }
    },
    {
      "type": "node",
      "id": 12247852085,
      "lat": 12.9136098,
      "lon": 77.6074794,
      "tags": {
        "name": "Avantika Wellness Spa",
        "shop": "massage"
      }
    },
    {
      "type": "node",
      "id": 12247852086,
      "lat": 12.9138278,
      "lon": 77.6068639,
      "tags": {
        "addr:postcode": "560076",
        "addr:street": "7th Cross Road",
        "name": "Lavish Locks",
        "shop": "hairdresser"
      }
    },
    {
      "type": "node",
      "id": 12247876724,
      "lat": 12.9129409,
      "lon": 77.6037801,
      "tags": {
        "amenity": "post_office",
        "brand": "Desk to Desk Courier & Cargo",
        "brand:short": "DTDC",
        "brand:wikidata": "Q55608802",
        "name": "DTDC",
        "operator": "Desk to Desk Courier & Cargo",
        "operator:short": "DTDC",
        "operator:wikidata": "Q55608802"
      }
    },
    {
      "type": "node",
      "id": 12247876725,
      "lat": 12.9135558,
      "lon": 77.6031886,
      "tags": {
        "addr:postcode": "560076",
        "addr:street": "7th Cross Road",
        "name": "Wash n Wear",
        "shop": "laundry"
      }
    },
    {
      "type": "node",
      "id": 12247899717,
      "lat": 12.9135804,
      "lon": 77.6043652,
      "tags": {
        "addr:postcode": "560076",
        "addr:street": "7th Cross Road",
        "amenity": "cafe",
        "name": "Cremeux"
      }
    },
    {
      "type": "node",
      "id": 12247899718,
      "lat": 12.9137236,
      "lon": 77.6051894,
      "tags": {
        "addr:postcode": "560076",
        "addr:street": "7th Cross Road",
        "amenity": "restaurant",
        "cuisine": "asian",
        "level": "1",
        "name": "The Koi"
      }
    },
    {
      "type": "node",
      "id": 12379077731,
      "lat": 12.9068713,
      "lon": 77.5979725,
      "tags": {
        "addr:city": "Bengaluru",
        "addr:floor": "3",
        "addr:postcode": "560078",
        "addr:street": "Outer Ring Road",
        "addr:suburb": "JP Nagar",
        "amenity": "bar",
        "name": "Jollygunj",
        "toilets": "yes"
      }
    },
    {
      "type": "node",
      "id": 12459243355,
      "lat": 12.9148564,
      "lon": 77.598488,
      "tags": {
        "blind": "no",
        "fitness_station": "yes",
        "leisure": "fitness_station",
        "sport": "fitness",
        "wheelchair": "no"
      }
    },
    {
      "type": "node",
      "id": 12461000333,
      "lat": 12.9071543,
      "lon": 77.5988211,
      "tags": {
        "amenity": "restaurant",
        "contact:facebook": "pastastreet",
        "contact:instagram": "pasta.street",
        "cuisine": "pasta",
        "email": "info@pastastreet.co.in",
        "name": "Pasta Street",
        "phone": "+91 9266844026",
        "website": "https://pastastreet.co.in/"
      }
    },
    {
      "type": "node",
      "id": 12666413603,
      "lat": 12.9190531,
      "lon": 77.5970575,
      "tags": {
        "addr:city": "Jayanagar",
        "addr:district": "Bengaluru Urban",
        "addr:street": "East End Main Road",
        "amenity": "restaurant",
        "check_date": "2025-03-15",
        "cuisine": "indian;chinese;coffee_shop;regional;noodle",
        "diet:vegetarian": "yes",
        "name": "Udupi Garden"
      }
    },
    {
      "type": "node",
      "id": 12676813327,
      "lat": 12.9071,
      "lon": 77.6003438,
      "tags": {
        "addr:city": "Bengaluru",
        "addr:district": "Bangalore Urban",
        "addr:street": "Outer Ring Road",
        "amenity": "restaurant",
        "cuisine": "regional;indian",
        "diet:vegetarian": "yes",
        "name": "Dakshin Cafe"
      }
    },
    {
      "type": "node",
      "id": 12676833806,
      "lat": 12.9178963,
      "lon": 77.5969663,
      "tags": {
        "addr:city": "Jayanagar",
        "addr:district": "Bengaluru Urban",
        "addr:street": "East End Main Road",
        "amenity": "restaurant",
        "check_date": "2025-03-15",
        "cuisine": "regional;coffee_shop;indian",
        "diet:halal": "yes",
        "diet:non-vegetarian": "yes",
        "name": "Laddu Boy"
      }
    },
    {
      "type": "node",
      "id": 12753585501,
      "lat": 12.9150394,
      "lon": 77.607435,
      "tags": {
        "leisure": "playground",
        "name": "Kempegowda Playground Gate"
      }
    },
    {
      "type": "node",
      "id": 12941883828,
      "lat": 12.9103445,
      "lon": 77.5949151,
      "tags": {
        "building": "kiosk",
        "check_date": "2025-06-21",
        "contact:phone": "+91 98863 37871",
        "fixme": "unsure if this is the most appropriate tag",
        "name": "Puncture Star Services",
        "shop": "tyres"
      }
    },
    {
      "type": "node",
      "id": 12941883829,
      "lat": 12.9103658,
      "lon": 77.5946245,
      "tags": {
        "check_date": "2025-06-21",
        "name": "Big Bear Customs",
        "shop": "motorcycle_repair"
      }
    },
    {
      "type": "node",
      "id": 12941883830,
      "lat": 12.910312,
      "lon": 77.5939578,
      "tags": {
        "addr:floor": "0",
        "amenity": "school",
        "check_date": "2025-06-21",
        "level": "0",
        "name": "Community Learning Center"
      }
    },
    {
      "type": "node",
      "id": 12941883831,
      "lat": 12.9103115,
      "lon": 77.5937865,
      "tags": {
        "check_date": "2025-06-21",
        "shop": "butcher"
      }
    },
    {
      "type": "node",
      "id": 12941883832,
      "lat": 12.9103017,
      "lon": 77.5937162,
      "tags": {
        "check_date": "2025-06-21",
        "shop": "motorcycle_repair"
      }
    },
    {
      "type": "node",
      "id": 13013958067,
      "lat": 12.9173863,
      "lon": 77.6089494,
      "tags": {
        "amenity": "pub",
        "name": "Boozy Dozzy"
      }
    },
    {
      "type": "node",
      "id": 13062869343,
      "lat": 12.9162412,
      "lon": 77.5925774,
      "tags": {
        "amenity": "cafe",
        "brand": "Starbucks",
        "brand:wikidata": "Q37158",
        "cuisine": "coffee_shop",
        "indoor_seating": "yes",
        "name": "Starbucks",
        "official_name": "Starbucks Coffee",
        "outdoor_seating": "no",
        "takeaway": "yes"
      }
    },
    {
      "type": "node",
      "id": 13062869345,
      "lat": 12.9075889,
      "lon": 77.6012716,
      "tags": {
        "amenity": "cafe",
        "brand": "Starbucks",
        "brand:wikidata": "Q37158",
        "check_date": "2025-08-26",
        "cuisine": "coffee_shop",
        "indoor_seating": "yes",
        "name": "Starbucks",
        "official_name": "Starbucks Coffee",
        "outdoor_seating": "no",
        "payment:cash": "yes",
        "payment:credit_cards": "yes",
        "payment:debit_cards": "yes",
        "takeaway": "yes"
      }
    },
    {
      "type": "node",
      "id": 13070296260,
      "lat": 12.9166478,
      "lon": 77.6081863,
      "tags": {
        "access": "yes",
        "amenity": "motorcycle_parking",
        "capacity": "216",
        "fee": "yes",
        "name": "BTM Layout Metro Parking",
        "operator": "BMRCL",
        "parking": "surface"
      }
    },
    {
      "type": "node",
      "id": 13072721958,
      "lat": 12.9119746,
      "lon": 77.609868,
      "tags": {
        "amenity": "cafe",
        "contact:instagram": "happen.blr",
        "cuisine": "coffee_shop",
        "name": "happen blr",
        "outdoor_seating": "yes",
        "takeaway": "yes"
      }
    },
    {
      "type": "node",
      "id": 13086275907,
      "lat": 12.9056206,
      "lon": 77.6014402,
      "tags": {
        "amenity": "restaurant",
        "contact:instagram": "thebombaychapter003",
        "name": "The Bombay Chapter 003"
      }
    },
    {
      "type": "node",
      "id": 13097020409,
      "lat": 12.9079957,
      "lon": 77.6011627,
      "tags": {
        "addr:floor": "4;5",
        "air_conditioning": "yes",
        "amenity": "cinema",
        "brand": "PVR Cinemas",
        "brand:short": "PVR",
        "brand:wikidata": "Q3359908",
        "check_date": "2025-08-26",
        "level": "4;5",
        "name": "PVR Cinemas",
        "payment:cash": "yes",
        "payment:credit_cards": "yes",
        "payment:debit_cards": "yes"
      }
    },
    {
      "type": "node",
      "id": 13097020410,
      "lat": 12.9080475,
      "lon": 77.6009808,
      "tags": {
        "brand": "H&M",
        "brand:wikidata": "Q188326",
        "check_date": "2025-08-26",
        "name": "H&M",
        "payment:cash": "yes",
        "payment:credit_cards": "yes",
        "payment:debit_cards": "yes",
        "shop": "clothes"
      }
    },
    {
      "type": "node",
      "id": 13097020411,
      "lat": 12.9080993,
      "lon": 77.6012587,
      "tags": {
        "brand": "Max",
        "brand:wikidata": "Q24939079",
        "check_date": "2025-08-26",
        "name": "Max",
        "payment:cash": "yes",
        "payment:credit_cards": "yes",
        "payment:debit_cards": "yes",
        "shop": "clothes"
      }
    },
    {
      "type": "node",
      "id": 13097020412,
      "lat": 12.9080953,
      "lon": 77.6014897,
      "tags": {
        "brand": "Lifestyle",
        "brand:wikidata": "Q6545496",
        "check_date": "2025-08-26",
        "name": "Lifestyle",
        "payment:cash": "yes",
        "payment:credit_cards": "yes",
        "payment:debit_cards": "yes",
        "shop": "clothes"
      }
    },
    {
      "type": "node",
      "id": 13108162628,
      "lat": 12.914753,
      "lon": 77.6097071,
      "tags": {
        "amenity": "kindergarten",
        "check_date": "2025-08-30",
        "name": "Boogie-Woogie"
      }
    },
    {
      "type": "node",
      "id": 13130546131,
      "lat": 12.9072691,
      "lon": 77.6059652,
      "tags": {
        "addr:city": "Bengaluru",
        "addr:district": "Bengaluru Urban",
        "addr:housenumber": "9-8",
        "addr:postcode": "560076",
        "addr:street": "19th Cross Road",
        "leisure": "fitness_centre",
        "name": "Jaguar Fitness",
        "opening_hours": "Mo-Sa 05:00-24:00. Su 05:00-22:00",
        "phone": "9986777944",
        "sport": "fitness;gymnastics;yoga;exercise"
      }
    },
    {
      "type": "node",
      "id": 13130546132,
      "lat": 12.9072633,
      "lon": 77.6060977,
      "tags": {
        "addr:city": "Bengaluru",
        "addr:district": "Bengaluru Urban",
        "addr:housenumber": "256/1-4",
        "addr:postcode": "560076",
        "addr:street": "7th Main Road",
        "name": "VMart Supermarket",
        "opening_hours": "Mo-Su 10:00-21:30",
        "payment:cash": "yes",
        "payment:contactless": "yes",
        "payment:credit_cards": "yes",
        "payment:debit_cards": "yes",
        "payment:google_pay": "yes",
        "payment:mastercard": "yes",
        "payment:paypal": "yes",
        "payment:visa": "yes",
        "shop": "supermarket"
      }
    },
    {
      "type": "node",
      "id": 13154049413,
      "lat": 12.9129563,
      "lon": 77.6010992,
      "tags": {
        "access": "private",
        "amenity": "parking_entrance",
        "parking": "underground"
      }
    },
    {
      "type": "node",
      "id": 13159852004,
      "lat": 12.9106158,
      "lon": 77.5966659,
      "tags": {
        "level": "0",
        "name": "Beku",
        "shop": "books",
        "wheelchair": "no"
      }
    },
    {
      "type": "node",
      "id": 13164727392,
      "lat": 12.9061909,
      "lon": 77.5985444,
      "tags": {
        "addr:floor": "G",
        "check_date": "2025-09-19",
        "level": "0",
        "shop": "convenience"
      }
    },
    {
      "type": "node",
      "id": 13168786890,
      "lat": 12.9112282,
      "lon": 77.5992921,
      "tags": {
        "amenity": "cafe",
        "contact:instagram": "nombre.india",
        "cuisine": "coffee_shop",
        "name": "Nombre"
      }
    },
    {
      "type": "node",
      "id": 13176393733,
      "lat": 12.9187759,
      "lon": 77.5967671,
      "tags": {
        "shop": "bakery"
      }
    },
    {
      "type": "node",
      "id": 13176401337,
      "lat": 12.9179144,
      "lon": 77.5967581,
      "tags": {
        "amenity": "clinic",
        "name": "Chiranjeevi Specialist Center"
      }
    },
    {
      "type": "node",
      "id": 13205603112,
      "lat": 12.916356,
      "lon": 77.6102331,
      "tags": {
        "level": "0",
        "name": "J&J Eye Care Optical",
        "shop": "optician"
      }
    },
    {
      "type": "node",
      "id": 13261961508,
      "lat": 12.9067026,
      "lon": 77.5992461,
      "tags": {
        "name": "BBLUNT",
        "shop": "beauty"
      }
    },
    {
      "type": "node",
      "id": 13324229361,
      "lat": 12.9168328,
      "lon": 77.6050816,
      "tags": {
        "name": "Sangeetha",
        "shop": "mobile_phone"
      }
    },
    {
      "type": "node",
      "id": 13324307072,
      "lat": 12.9118323,
      "lon": 77.6064625,
      "tags": {
        "amenity": "fast_food",
        "check_date": "2025-11-22",
        "cuisine": "juice",
        "name": "Shree Ganesha Fruit Juice Shop"
      }
    },
    {
      "type": "way",
      "id": 28086224,
      "center": {
        "lat": 12.9149524,
        "lon": 77.6070156
      },
      "tags": {
        "leisure": "park",
        "wheelchair": "no"
      }
    },
    {
      "type": "way",
      "id": 28120266,
      "center": {
        "lat": 12.9147542,
        "lon": 77.6089217
      },
      "tags": {
        "leisure": "park",
        "name": "Kuvempu Park",
        "name:etymology:wikidata": "Q3351108",
        "name:kn": "ಕುವೆಂಪು ಉದ್ಯಾನ",
        "name:ta": "குவேம்பூ பூங்கா",
        "wheelchair": "limited"
      }
    },
    {
      "type": "way",
      "id": 32426424,
      "center": {
        "lat": 12.9210822,
        "lon": 77.5962995
      },
      "tags": {
        "amenity": "college",
        "name": "ME & WA College"
      }
    },
    {
      "type": "way",
      "id": 40678727,
      "center": {
        "lat": 12.9185194,
        "lon": 77.599254
      },
      "tags": {
        "addr:district": "Bengaluru Urban",
        "addr:full": "Jayanagar 9Th Block, B.G. Road, Banglore",
        "addr:postcode": "560041",
        "addr:state": "Karnataka",
        "addr:street": "Bannerghatta Road",
        "amenity": "hospital",
        "emergency": "yes",
        "healthcare": "hospital",
        "healthcare:speciality": "cardiology",
        "name": "Sri Jayadeva Institute Of Cardiology",
        "name:kn": "ಜಯದೇವ ಹೃದ್ರೋಗ ಸಂಸ್ಥೆ",
        "name:ta": "ஸ்ரீ ஜெயதேவா இருதய மருத்துவமனை",
        "source": "OpenGovernmentData"
      }
    },
    {
      "type": "way",
      "id": 118923756,
      "center": {
        "lat": 12.9143458,
        "lon": 77.5994854
      },
      "tags": {
        "building": "yes",
        "name": "Gopalan Innovation Mall",
        "name:kn": "ಗೋಪಾಲನ್ ಮಾಲ್",
        "opening_hours": "Mo-Su 08:00-23:00",
        "shop": "mall",
        "toilets": "yes",
        "wheelchair": "yes"
      }
    },
    {
      "type": "way",
      "id": 125860879,
      "center": {
        "lat": 12.9112883,
        "lon": 77.6045664
      },
      "tags": {
        "leisure": "park",
        "name": "BTM",
        "wheelchair": "limited"
      }
    },
    {
      "type": "way",
      "id": 164568988,
      "center": {
        "lat": 12.9162738,
        "lon": 77.5923203
      },
      "tags": {
        "addr:housename": "Mantri Junction",
        "building": "retail",
        "check_date": "2023-11-29",
        "name": "Mantri Junction",
        "shop": "mall",
        "toilets": "yes"
      }
    },
    {
      "type": "way",
      "id": 166853467,
      "center": {
        "lat": 12.9123867,
        "lon": 77.6006154
      },
      "tags": {
        "alt_name": "Mantri Commerce",
        "landuse": "retail",
        "name": "Commerce @ Mantri",
        "shop": "mall",
        "toilets": "yes"
      }
    },
    {
      "type": "way",
      "id": 243774644,
      "center": {
        "lat": 12.9148413,
        "lon": 77.6041058
      },
      "tags": {
        "leisure": "park"
      }
    },
    {
      "type": "way",
      "id": 243910231,
      "center": {
        "lat": 12.913347,
        "lon": 77.599406
      },
      "tags": {
        "leisure": "park"
      }
    },
    {
      "type": "way",
      "id": 243929433,
      "center": {
        "lat": 12.9077073,
        "lon": 77.6011533
      },
      "tags": {
        "addr:city": "Bengaluru",
        "addr:housenumber": "172/1 Srinivas Industrial Estate",
        "addr:postcode": "560076",
        "addr:street": "Bannerghatta Road",
        "alt_name": "Vega City Mall",
        "building": "commercial",
        "building:levels": "6",
        "email": "info@vegacitymall.com",
        "name": "Nexus Vega City",
        "opening_hours": "Mo-Su 09:00-22:00",
        "payment:cards": "yes",
        "payment:coins": "yes",
        "payment:contactless": "yes",
        "payment:credit_cards": "yes",
        "payment:debit_cards": "yes",
        "payment:google_pay": "yes",
        "payment:mastercard": "yes",
        "payment:notes": "yes",
        "payment:visa": "yes",
        "phone": "+91 80 67922333, +91 80 67922444",
        "shop": "mall",
        "toilets": "yes",
        "website": "https://vegacitymall.com/",
        "wheelchair": "yes"
      }
    },
    {
      "type": "way",
      "id": 323470679,
      "center": {
        "lat": 12.9172838,
        "lon": 77.5989772
      },
      "tags": {
        "leisure": "garden"
      }
    },
    {
      "type": "way",
      "id": 333052404,
      "center": {
        "lat": 12.9105446,
        "lon": 77.6004163
      },
      "tags": {
        "building": "commercial",
        "name": "Prasiddhi Silks",
        "shop": "clothes"
      }
    },
    {
      "type": "way",
      "id": 333052556,
      "center": {
        "lat": 12.9103586,
        "lon": 77.600474
      },
      "tags": {
        "amenity": "hospital",
        "building": "yes",
        "healthcare": "hospital",
        "name": "Dr. Agarwal's Eye Hospital",
        "operator": "Dr. Agarwal's Eye Hospital",
        "operator:type": "private",
        "operator:wikidata": "Q17052044"
      }
    },
    {
      "type": "way",
      "id": 334548999,
      "center": {
        "lat": 12.9070807,
        "lon": 77.6063246
      },
      "tags": {
        "amenity": "food_court",
        "internet_access": "no",
        "name": "Kabab Zone"
      }
    },
    {
      "type": "way",
      "id": 335370086,
      "center": {
        "lat": 12.9093177,
        "lon": 77.6063448
      },
      "tags": {
        "building": "yes",
        "name": "Bake '26'",
        "opening_hours": "Mo-Su 08:00-22:00",
        "payment:credit_cards": "no",
        "payment:debit_cards": "no",
        "shop": "bakery",
        "wheelchair": "no"
      }
    },
    {
      "type": "way",
      "id": 335371169,
      "center": {
        "lat": 12.9086553,
        "lon": 77.6080209
      },
      "tags": {
        "building": "yes",
        "name": "HKGN Chicken shop",
        "shop": "Chicken",
        "wheelchair": "no"
      }
    },
    {
      "type": "way",
      "id": 344194886,
      "center": {
        "lat": 12.9170499,
        "lon": 77.5930332
      },
      "tags": {
        "brand": "Manyavar",
        "brand:wikidata": "Q24906783",
        "building": "yes",
        "name": "Manyavar",
        "name:kn": "ಮಾನ್ಯವಾರ್",
        "shop": "clothes"
      }
    },
    {
      "type": "way",
      "id": 348083610,
      "center": {
        "lat": 12.913061,
        "lon": 77.6021741
      },
      "tags": {
        "access": "private",
        "leisure": "pitch"
      }
    },
    {
      "type": "way",
      "id": 348198471,
      "center": {
        "lat": 12.9160905,
        "lon": 77.6103122
      },
      "tags": {
        "addr:housenumber": "71",
        "addr:street": "16th Main Road",
        "amenity": "pub",
        "building": "yes",
        "building:levels": "2",
        "check_date": "2023-10-15",
        "name": "Avon Pub",
        "opening_hours": "Mo-Su 07:00-23:00",
        "phone": "+91 080 2668 2939",
        "smoking": "no"
      }
    },
    {
      "type": "way",
      "id": 348202500,
      "center": {
        "lat": 12.9158099,
        "lon": 77.6103436
      },
      "tags": {
        "addr:housenumber": "114",
        "addr:street": "16th Main Road",
        "building": "yes",
        "name": "ND Fusion Mall",
        "shop": "mall"
      }
    },
    {
      "type": "way",
      "id": 348204163,
      "center": {
        "lat": 12.9169249,
        "lon": 77.6097614
      },
      "tags": {
        "amenity": "fuel",
        "brand": "Bharath Petroleum",
        "compressed_air": "yes",
        "name": "Advaith",
        "name:kn": "ಅದ್ವೈತ",
        "wheelchair": "limited"
      }
    },
    {
      "type": "way",
      "id": 348229736,
      "center": {
        "lat": 12.9071086,
        "lon": 77.6005145
      },
      "tags": {
        "amenity": "place_of_worship",
        "building": "yes",
        "name": "Shree Raksha Ganapathy Temple",
        "name:kn": "ರಕ್ಷಾ ಗಣಪತಿ ದೇವಸ್ಥಾನ",
        "religion": "hindu"
      }
    },
    {
      "type": "way",
      "id": 348498473,
      "center": {
        "lat": 12.9147118,
        "lon": 77.59407
      },
      "tags": {
        "addr:place": "Gurappanapalya",
        "amenity": "school",
        "building": "yes",
        "isced:level": "2",
        "name": "Ragigudda Sri Prasanna Anjaneya Gurappanapalya",
        "name:kn": "ರಾಗಿಗುಡ್ಡ ಶ್ರೀಪ್ರಸನ್ನಆಂಜನೇಯ ಗುರಪ್ಪನಪಾಳ್ಯ",
        "operator": "Pvt. Aided",
        "school": "primary"
      }
    },
    {
      "type": "way",
      "id": 349513455,
      "center": {
        "lat": 12.9208583,
        "lon": 77.5990246
      },
      "tags": {
        "addr:city": "Bangalore",
        "addr:postcode": "560076",
        "amenity": "place_of_worship",
        "denomination": "sunni",
        "name": "Masjid-e-eidgah Bilal",
        "name:kn": "ಮಸ್ಜೀದ್ ಎ ಬಿಲಾಲ್",
        "religion": "muslim"
      }
    },
    {
      "type": "way",
      "id": 349542323,
      "center": {
        "lat": 12.9184936,
        "lon": 77.5959747
      },
      "tags": {
        "addr:city": "Bengaluru",
        "addr:street": "East End Main Road",
        "addr:suburb": "Jayanagar 9th Block",
        "alt_name": "GHS Jayanagar 9th Block",
        "amenity": "school",
        "building": "school",
        "building:levels": "3",
        "capacity": "180",
        "max_age": "16",
        "min_age": "13",
        "name": "Government High School",
        "name:kn": "ಸರ್ಕಾರಿ ಪ್ರೌಢ ಶಾಲೆ"
      }
    },
    {
      "type": "way",
      "id": 359115595,
      "center": {
        "lat": 12.9088788,
        "lon": 77.5998534
      },
      "tags": {
        "addr:city": "Bengaluru",
        "addr:postcode": "560078",
        "addr:street": "Bannerghatta Road",
        "amenity": "community_centre",
        "building": "yes",
        "name": "N G R Kalyana Mantap"
      }
    },
    {
      "type": "way",
      "id": 362886442,
      "center": {
        "lat": 12.9207334,
        "lon": 77.607243
      },
      "tags": {
        "leisure": "park",
        "name": "Maruthi Layout Park"
      }
    },
    {
      "type": "way",
      "id": 419771780,
      "center": {
        "lat": 12.9188156,
        "lon": 77.5960357
      },
      "tags": {
        "access": "yes",
        "amenity": "parking_space",
        "fee": "no",
        "lit": "no",
        "opening_hours": "24/7",
        "parking": "surface",
        "supervised": "no",
        "surface": "ground"
      }
    },
    {
      "type": "way",
      "id": 485554984,
      "center": {
        "lat": 12.9154665,
        "lon": 77.6017729
      },
      "tags": {
        "alt_name": "SFHS Park",
        "leisure": "park",
        "name": "BTM Water Tank Park"
      }
    },
    {
      "type": "way",
      "id": 491890396,
      "center": {
        "lat": 12.9120552,
        "lon": 77.6061017
      },
      "tags": {
        "amenity": "library",
        "building": "yes",
        "name": "BTM Library",
        "opening_hours": "Tu-Sa 08:30-20:00",
        "wheelchair": "yes"
      }
    },
    {
      "type": "way",
      "id": 547652016,
      "center": {
        "lat": 12.9095679,
        "lon": 77.5941468
      },
      "tags": {
        "leisure": "park",
        "name": "BNV Park"
      }
    },
    {
      "type": "way",
      "id": 577663645,
      "center": {
        "lat": 12.9123841,
        "lon": 77.6005095
      },
      "tags": {
        "building": "commercial",
        "shop": "mall",
        "toilets": "yes"
      }
    },
    {
      "type": "way",
      "id": 639368292,
      "center": {
        "lat": 12.9168827,
        "lon": 77.609506
      },
      "tags": {
        "addr:housenumber": "3",
        "amenity": "restaurant",
        "brand": "Adyar Ananda Bhavan",
        "brand:wikidata": "Q15178238",
        "building": "yes",
        "cuisine": "regional",
        "name": "Adyar Ananda Bhavan",
        "name:kn": "ಆದ್ಯಾರ್ ಆನಂದ ಭವನ",
        "opening_hours": "Mo-Su 07:00-23:00",
        "phone": "+91 073388 16688",
        "shop": "confectionery",
        "smoking": "no",
        "website": "https://aabsweets.in"
      }
    },
    {
      "type": "way",
      "id": 639372091,
      "center": {
        "lat": 12.9146296,
        "lon": 77.6092757
      },
      "tags": {
        "leisure": "pitch",
        "lit": "yes",
        "sport": "skateboard;badminton",
        "surface": "concrete"
      }
    },
    {
      "type": "way",
      "id": 674036333,
      "center": {
        "lat": 12.9093593,
        "lon": 77.6023033
      },
      "tags": {
        "brand": "Maruti",
        "building": "yes",
        "name": "Classic Transport Solution",
        "name:kn": "ಕ್ಲಾಸಿಕ್ ಟ್ರಾನ್ಸ್ಪೋರ್ಟ್ ಸೊಲ್ಯೂಷನ್",
        "payment:cash": "yes",
        "payment:credit_cards": "yes",
        "payment:debit_cards": "yes",
        "payment:paytm": "yes",
        "service:vehicle:body_repair": "yes",
        "service:vehicle:painting": "yes",
        "shop": "car_repair"
      }
    },
    {
      "type": "way",
      "id": 691997512,
      "center": {
        "lat": 12.9164072,
        "lon": 77.6053473
      },
      "tags": {
        "amenity": "fuel",
        "brand": "Indian Oil",
        "brand:wikidata": "Q1289348",
        "compressed_air": "yes",
        "name": "Indian Oil",
        "name:kn": "ಇಂಡಿಯನ್ ಆಯಿಲ್"
      }
    },
    {
      "type": "way",
      "id": 790361814,
      "center": {
        "lat": 12.9117293,
        "lon": 77.6061936
      },
      "tags": {
        "addr:city": "Bengaluru",
        "addr:postcode": "560076",
        "addr:street": "12th Cross Road,NS Palya, BTM 2nd Stage, BTM Layout",
        "amenity": "fast_food",
        "brand": "Indira Canteen",
        "brand:wikidata": "Q36164828",
        "building": "yes",
        "cuisine": "south_indian",
        "name": "Indira Canteen",
        "operator": "BBMP",
        "takeaway": "yes"
      }
    },
    {
      "type": "way",
      "id": 984700814,
      "center": {
        "lat": 12.9133136,
        "lon": 77.6039922
      },
      "tags": {
        "addr:housenumber": "459",
        "addr:street": "7th Cross Road",
        "building": "retail",
        "building:levels": "1",
        "name": "Autoholics",
        "opening_hours": "Mo-Su 09:00-21:00",
        "second_hand": "only",
        "shop": "car"
      }
    },
    {
      "type": "way",
      "id": 984930666,
      "center": {
        "lat": 12.9149198,
        "lon": 77.6093611
      },
      "tags": {
        "leisure": "playground",
        "playground": "structure"
      }
    },
    {
      "type": "way",
      "id": 1085952669,
      "center": {
        "lat": 12.9208561,
        "lon": 77.5996654
      },
      "tags": {
        "amenity": "place_of_worship",
        "religion": "muslim"
      }
    },
    {
      "type": "way",
      "id": 1106333598,
      "center": {
        "lat": 12.9165723,
        "lon": 77.5975557
      },
      "tags": {
        "amenity": "fuel",
        "brand": "Indian Oil",
        "brand:wikidata": "Q1289348",
        "name": "Indian Oil",
        "name:kn": "ಇಂಡಿಯನ್ ಆಯಿಲ್"
      }
    },
    {
      "type": "way",
      "id": 1125669868,
      "center": {
        "lat": 12.9213587,
        "lon": 77.5955111
      },
      "tags": {
        "leisure": "park"
      }
    },
    {
      "type": "way",
      "id": 1141414942,
      "center": {
        "lat": 12.9189955,
        "lon": 77.6032376
      },
      "tags": {
        "leisure": "park"
      }
    },
    {
      "type": "way",
      "id": 1141414944,
      "center": {
        "lat": 12.9187229,
        "lon": 77.5985354
      },
      "tags": {
        "leisure": "park"
      }
    },
    {
      "type": "way",
      "id": 1149959372,
      "center": {
        "lat": 12.9131243,
        "lon": 77.5993103
      },
      "tags": {
        "access": "private",
        "leisure": "swimming_pool",
        "location": "outdoor",
        "sport": "swimming"
      }
    },
    {
      "type": "way",
      "id": 1157395073,
      "center": {
        "lat": 12.9129034,
        "lon": 77.5938603
      },
      "tags": {
        "leisure": "park"
      }
    },
    {
      "type": "way",
      "id": 1157395074,
      "center": {
        "lat": 12.9122543,
        "lon": 77.5928722
      },
      "tags": {
        "leisure": "park"
      }
    },
    {
      "type": "way",
      "id": 1157395075,
      "center": {
        "lat": 12.913857,
        "lon": 77.5925644
      },
      "tags": {
        "addr:city": "Bengaluru",
        "addr:district": "Bengaluru Urban",
        "addr:postcode": "560078",
        "addr:street": "16th A Main Road, KSRTC Layout, 2nd Phase, J. P. Nagar",
        "amenity": "place_of_worship",
        "landuse": "religious",
        "name": "Sri Lakshmi Narayana Temple",
        "religion": "hindu"
      }
    },
    {
      "type": "way",
      "id": 1157395077,
      "center": {
        "lat": 12.9136583,
        "lon": 77.5962921
      },
      "tags": {
        "amenity": "place_of_worship",
        "landuse": "religious",
        "religion": "hindu"
      }
    },
    {
      "type": "way",
      "id": 1167162947,
      "center": {
        "lat": 12.9146334,
        "lon": 77.6010348
      },
      "tags": {
        "leisure": "park"
      }
    },
    {
      "type": "way",
      "id": 1218763834,
      "center": {
        "lat": 12.9124792,
        "lon": 77.6029976
      },
      "tags": {
        "leisure": "park"
      }
    },
    {
      "type": "way",
      "id": 1242203373,
      "center": {
        "lat": 12.9196286,
        "lon": 77.5993316
      },
      "tags": {
        "access": "permissive",
        "amenity": "parking",
        "parking": "surface"
      }
    },
    {
      "type": "way",
      "id": 1249829825,
      "center": {
        "lat": 12.9156772,
        "lon": 77.5985086
      },
      "tags": {
        "leisure": "park",
        "name": "Rajguru Park",
        "name:etymology:wikidata": "Q2721886"
      }
    },
    {
      "type": "way",
      "id": 1249829826,
      "center": {
        "lat": 12.9137173,
        "lon": 77.5985609
      },
      "tags": {
        "leisure": "park",
        "name": "Sukhdev Park",
        "name:etymology:wikidata": "Q2721919"
      }
    },
    {
      "type": "way",
      "id": 1249829827,
      "center": {
        "lat": 12.9116507,
        "lon": 77.5987341
      },
      "tags": {
        "leisure": "park",
        "name": "Bhagat Singh Park",
        "name:etymology:wikidata": "Q377808"
      }
    },
    {
      "type": "way",
      "id": 1249829828,
      "center": {
        "lat": 12.9087483,
        "lon": 77.5990498
      },
      "tags": {
        "leisure": "park",
        "name": "Sanna Kaadu - Small Forest"
      }
    },
    {
      "type": "way",
      "id": 1249829829,
      "center": {
        "lat": 12.9075874,
        "lon": 77.5999871
      },
      "tags": {
        "brand": "Maruti Suzuki",
        "brand:wikidata": "Q963718",
        "name": "Mandovi Motors",
        "name:kn": "ಮಂಡೋವಿ ಮೋಟರ್ಸ್",
        "operator": "Mandovi Motors Private Limited",
        "service": "parts;repair",
        "shop": "car_repair"
      }
    },
    {
      "type": "way",
      "id": 1253314093,
      "center": {
        "lat": 12.9138505,
        "lon": 77.6010619
      },
      "tags": {
        "leisure": "pitch",
        "sport": "basketball"
      }
    },
    {
      "type": "way",
      "id": 1253314094,
      "center": {
        "lat": 12.9134881,
        "lon": 77.601073
      },
      "tags": {
        "access": "private",
        "baby": "yes",
        "leisure": "playground",
        "playground": "structure"
      }
    },
    {
      "type": "way",
      "id": 1265794484,
      "center": {
        "lat": 12.9064232,
        "lon": 77.6004308
      },
      "tags": {
        "leisure": "park",
        "wheelchair": "yes"
      }
    },
    {
      "type": "way",
      "id": 1265794538,
      "center": {
        "lat": 12.9062571,
        "lon": 77.6018225
      },
      "tags": {
        "amenity": "fuel",
        "brand": "Shell",
        "brand:wikidata": "Q110716465",
        "landuse": "commercial",
        "name": "Shell",
        "name:kn": "ಶೆಲ್",
        "wheelchair": "yes"
      }
    },
    {
      "type": "way",
      "id": 1274548649,
      "center": {
        "lat": 12.9213761,
        "lon": 77.6004341
      },
      "tags": {
        "amenity": "fuel",
        "brand": "Totalgaz",
        "fuel:cng": "yes",
        "name": "Totalgaz"
      }
    },
    {
      "type": "way",
      "id": 1313972719,
      "center": {
        "lat": 12.9206935,
        "lon": 77.5967678
      },
      "tags": {
        "addr:block": "9",
        "addr:city": "Bengaluru",
        "addr:parentstreet": "East End Main Road",
        "addr:place": "Jayanagar",
        "addr:postcode": "560069",
        "addr:street": "38th Cross",
        "amenity": "restaurant",
        "building": "yes",
        "building:levels": "2",
        "contact:email": "cafekrishnam1983@gmail.com",
        "contact:mobile": "+91-76768-69139;+91-63611-01075;+91-80884-06229",
        "cuisine": "north_indian;south_indian;chinese",
        "diet:lacto_vegetarian": "yes",
        "diet:vegan": "yes",
        "level": "0",
        "name": "Cafe Krishnam",
        "wheelchair": "no"
      }
    },
    {
      "type": "way",
      "id": 1346915452,
      "center": {
        "lat": 12.9149466,
        "lon": 77.5984858
      },
      "tags": {
        "amenity": "shelter",
        "building": "yes",
        "shelter_type": "gazebo"
      }
    },
    {
      "type": "way",
      "id": 1354222232,
      "center": {
        "lat": 12.9124985,
        "lon": 77.6009738
      },
      "tags": {
        "access": "customers",
        "amenity": "parking",
        "parking": "surface"
      }
    },
    {
      "type": "way",
      "id": 1390995568,
      "center": {
        "lat": 12.9231956,
        "lon": 77.6015123
      },
      "tags": {
        "access": "private",
        "leisure": "pitch",
        "sport": "tennis"
      }
    },
    {
      "type": "way",
      "id": 1421292393,
      "center": {
        "lat": 12.916133,
        "lon": 77.6091225
      },
      "tags": {
        "access": "private",
        "leisure": "swimming_pool"
      }
    },
    {
      "type": "way",
      "id": 1431024646,
      "center": {
        "lat": 12.9125463,
        "lon": 77.601578
      },
      "tags": {
        "access": "private",
        "leisure": "swimming_pool"
      }
    },
    {
      "type": "way",
      "id": 1431024650,
      "center": {
        "lat": 12.9125359,
        "lon": 77.6013047
      },
      "tags": {
        "access": "private",
        "leisure": "playground"
      }
    },
    {
      "type": "way",
      "id": 1431706427,
      "center": {
        "lat": 12.910525,
        "lon": 77.5966495
      },
      "tags": {
        "access": "customers",
        "leisure": "outdoor_seating",
        "weather_protection": "roof"
      }
    },
    {
      "type": "way",
      "id": 1431706428,
      "center": {
        "lat": 12.9105907,
        "lon": 77.5966425
      },
      "tags": {
        "air_conditioning": "yes",
        "amenity": "restaurant",
        "diet:lactose_free": "yes",
        "diet:vegan": "yes",
        "diet:vegetarian": "only",
        "image:menu": "339a5244-c9aa-4cbd-9ead-730e3f4cbead",
        "image:menu:0": "08aa4a2c-6424-4045-8bcd-31510018320e",
        "image:menu:1": "7e5f752c-09bc-4f11-83c0-889f25c2091e",
        "image:menu:2": "01959ba5-027d-4922-b8f8-ab7cae4653e0",
        "image:menu:3": "651c4d10-31fe-4e51-89d8-0780be7a3cca",
        "image:menu:4": "8c57d782-2ba6-4219-9f18-65b95240c519",
        "indoor_seating": "yes",
        "level": "0",
        "name": "Beku",
        "operator": "S.S. Enterprises",
        "outdoor_seating": "yes",
        "panoramax": "c9dcd7aa-f7aa-49ea-9a5f-1ccb94ccfdda",
        "payment:cards": "yes",
        "payment:cash": "yes",
        "payment:qr_code": "no",
        "toilets": "separate",
        "wheelchair": "no",
        "wikimedia_commons": "Category:Beku,_JP_Nagar,_Bangalore"
      }
    },
    {
      "type": "way",
      "id": 1431816379,
      "center": {
        "lat": 12.9106772,
        "lon": 77.5966806
      },
      "tags": {
        "access": "permissive",
        "amenity": "toilets",
        "fee": "no",
        "level": "0",
        "panoramax": "beedef3e-a5cf-4943-ad01-ecca1c5f7ffc",
        "panoramax:0": "5aa15f97-4511-45da-9f76-533cde23bec4",
        "panoramax:1": "bd875d20-565e-4433-b82e-23b3b0d4a26a",
        "panoramax:2": "5e7dd92f-71d0-40d0-807b-a3d4cf8cd291",
        "panoramax:3": "51624e91-a5d9-46de-a427-9a1a665f793c",
        "toilets:disposal": "flush",
        "toilets:handwashing": "yes",
        "toilets:position": "seated",
        "unisex": "yes",
        "wheelchair": "no"
      }
    }
  ]
}