{
  "area_name": "Bheereshwara Nagar",
  "osm_id": 19884516,
  "osm_type": "relation",
  "place_type": "administrative",
  "amenity_count": 12,
  "amenities": [
    {
      "type": "node",
      "id": 2167156600,
      "lat": 12.8875501,
      "lon": 77.5706995,
      "tags": {
        "amenity": "atm",
        "brand": "HDFC Bank",
        "brand:wikidata": "Q631047",
        "operator": "HDFC Bank",
        "operator:wikidata": "Q631047",
        "short_name": "HDFC"
      }
    },
    {
      "type": "node",
      "id": 2177250483,
      "lat": 12.8921409,
      "lon": 77.5721791,
      "tags": {
        "amenity": "atm",
        "brand": "HDFC Bank",
        "brand:wikidata": "Q631047",
        "name": "HDFC Bank",
        "operator": "HDFC Bank",
        "operator:wikidata": "Q631047",
        "short_name": "HDFC"
      }
    },
    {
      "type": "node",
      "id": 4456678391,
      "lat": 12.8835026,
      "lon": 77.5714748,
      "tags": {
        "name": "Mahalakshmi Provision Store",
        "name:en": "Mahalakshmi Provision Store",
        "shop": "department_store"
      }
    },
    {
      "type": "node",
      "id": 4486708297,
      "lat": 12.8857953,
      "lon": 77.5705791,
      "tags": {
        "amenity": "atm",
        "brand": "Canara Bank",
        "brand:en": "Canara Bank",
        "brand:hi": "केनरा बैंक",
        "brand:kn": "ಕೆನರಾ ಬ್ಯಾಂಕ್",
        "brand:pa": "ਕੇਨਰਾ ਬੈਂਕ",
        "brand:pnb": "کینرا بینک",
        "brand:ur": "کینرا بینک",
        "brand:wikidata": "Q2003777",
        "name:en": "Canara Bank",
        "name:hi": "केनरा बैंक",
        "name:kn": "ಕೆನರಾ ಬ್ಯಾಂಕ್",
        "name:pa": "ਕੇਨਰਾ ਬੈਂਕ",
        "name:pnb": "کینرا بینک",
        "name:ur": "کینرا بینک",
        "opening_hours": "24/7",
        "operator": "Canara Bank",
        "operator:wikidata": "Q2003777"
      }
    },
    {
      "type": "node",
      "id": 4489814074,
      "lat": 12.8915823,
      "lon": 77.5769612,
      "tags": {
        "addr:city": "bangalore",
        "addr:housenumber": "No. 724",
        "addr:postcode": "560078",
        "addr:street": ", Rini Pearl, 2nd Floor, Opposite To EK Retail, RBI Layout, Krishna Nagar, Elita Promenade, JP Nagar 7th Phase, JP Nagar, Kothnur, Karnataka",
        "leisure": "sports_centre",
        "name": "N-Gage Fitness Center",
        "opening_hours": "5:30-22:00",
        "phone": "080500 00016"
      }
    },
    {
      "type": "node",
      "id": 6348741188,
      "lat": 12.885891,
      "lon": 77.5738805,
      "tags": {
        "addr:place": "Chunchana Gatta",
        "amenity": "school",
        "isced:level": "2",
        "name": "GHPS Chunchaghatta",
        "name:kn": "ಸರ್ಕಾರಿ ಹಿರಿಯ ಪ್ರಾಥಮಿಕ ಶಾಲೆ ಚುಂಚನಘಟ್ಟ",
        "not:operator:wikidata": "Q111467381",
        "operator": "Department of Education",
        "operator:type": "public",
        "school": "primary"
      }
    },
    {
      "type": "node",
      "id": 6349173947,
      "lat": 12.8873821,
      "lon": 77.5688673,
      "tags": {
        "addr:place": "Konanakunte",
        "amenity": "school",
        "isced:level": "2",
        "name": "GHPS Konanakunte",
        "name:kn": "ಸರ್ಕಾರಿ ಹಿರಿಯ ಪ್ರಾಥಮಿಕ ಶಾಲೆ ಕೋಣನಕುಂಟೆ",
        "operator": "Department of Education",
        "school": "primary"
      }
    },
    {
      "type": "node",
      "id": 6438101117,
      "lat": 12.8898311,
      "lon": 77.5728954,
      "tags": {
        "addr:place": "Chunchanagatta",
        "amenity": "school",
        "isced:level": "3",
        "name": "Carmel Jyothi LPS, Chunchanagatta",
        "name:kn": "ಕಾರ್ಮೆಲ್ ಜ್ಯೋತಿ ಕಿರಿಯ ಪ್ರಾಥಮಿಕ ಶಾಲೆ , ಚುಂಚನಗಟ್ಟಾ",
        "operator": "Private Un-Aided",
        "school": "Higher Secondary"
      }
    },
    {
      "type": "node",
      "id": 10687931404,
      "lat": 12.891779,
      "lon": 77.5771096,
      "tags": {
        "addr:street": "Nr Ragvendra Swami Layout",
        "amenity": "fuel",
        "brand": "Shell",
        "brand:wikidata": "Q110716465",
        "fuel:GTL_diesel": "yes",
        "fuel:octane_95": "yes",
        "fuel:octane_98": "yes",
        "name": "Shell Pertol Station",
        "operator": "Shell"
      }
    },
    {
      "type": "node",
      "id": 12033484413,
      "lat": 12.8857545,
      "lon": 77.5711601,
      "tags": {
        "name": "Ramdev Electronics & Electricals",
        "shop": "electrical"
      }
    },
    {
      "type": "way",
      "id": 1270788423,
      "center": {
        "lat": 12.8983062,
        "lon": 77.5778787
      },
      "tags": {
        "leisure": "park"
      }
    },
    {
      "type": "way",
      "id": 1424148417,
      "center": {
        "lat": 12.8943168,
        "lon": 77.5762315
      },
      "tags": {
        "leisure": "pitch",
        "sport": "soccer"
      }
    }
  ]
}