{
  "area_name": "Bhimanakuppe",
  "osm_id": 2595139570,
  "osm_type": "node",
  "place_type": "neighbourhood",
  "amenity_count": 6,
  "amenities": [
    {
      "type": "node",
      "id": 12284200062,
      "lat": 12.9000514,
      "lon": 77.4358242,
      "tags": {
        "amenity": "shelter",
        "shelter_type": "gazebo"
      }
    },
    {
      "type": "node",
      "id": 12284200063,
      "lat": 12.9000482,
      "lon": 77.4353756,
      "tags": {
        "amenity": "shelter",
        "shelter_type": "gazebo"
      }
    },
    {
      "type": "way",
      "id": 1327758216,
      "center": {
        "lat": 12.9052987,
        "lon": 77.4469199
      },
      "tags": {
        "amenity": "college",
        "landuse": "religious",
        "name": "De Paul Institute of Religion and Philosopgy"
      }
    },
    {
      "type": "way",
      "id": 1327758220,
      "center": {
        "lat": 12.900052,
        "lon": 77.4355211
      },
      "tags": {
        "leisure": "park"
      }
    },
    {
      "type": "way",
      "id": 1365570119,
      "center": {
        "lat": 12.9003641,
        "lon": 77.4444793
      },
      "tags": {
        "amenity": "place_of_worship",
        "landuse": "religious",
        "religion": "hindu"
      }
    },
    {
      "type": "way",
      "id": 1365570130,
      "center": {
        "lat": 12.9119537,
        "lon": 77.4375898
      },
      "tags": {
        "amenity": "place_of_worship",
        "landuse": "religious",
        "religion": "hindu"
      }
    }
  ]
}