{
  "area_name": "Bhuvaneshwari Nagar",
  "osm_id": 841805570,
  "osm_type": "node",
  "place_type": "neighbourhood",
  "amenity_count": 149,
  "amenities": [
    {
      "type": "node",
      "id": 953663233,
      "lat": 12.9265852,
      "lon": 77.5509047,
      "tags": {
        "name": "Big Bazaar",
        "name:kn": "ಬಿಗ್ ಬಜಾರ್",
        "shop": "supermarket",
        "toilets:wheelchair": "no",
        "wheelchair": "limited"
      }
    },
    {
      "type": "node",
      "id": 953663303,
      "lat": 12.925511,
      "lon": 77.5501686,
      "tags": {
        "name": "Food World",
        "name:kn": "ಫುಡ್ ವರ್ಲ್ಡ್",
        "shop": "supermarket"
      }
    },
    {
      "type": "node",
      "id": 953663359,
      "lat": 12.9261046,
      "lon": 77.5502503,
      "tags": {
        "amenity": "restaurant",
        "name": "Anna Kuteera",
        "name:kn": "ಅಣ್ಣ ಕುಟೀರ",
        "toilets:wheelchair": "no",
        "wheelchair": "no"
      }
    },
    {
      "type": "node",
      "id": 953674808,
      "lat": 12.9236391,
      "lon": 77.5534075,
      "tags": {
        "addr:street": "Outer Ring Road",
        "amenity": "cinema",
        "name": "Eeshwari Theatre",
        "name:en": "Eshwari Theater"
      }
    },
    {
      "type": "node",
      "id": 953675751,
      "lat": 12.9237141,
      "lon": 77.5534616,
      "tags": {
        "addr:street": "Outer Ring Road",
        "amenity": "restaurant",
        "name": "Shanthi Sagar",
        "name:kn": "ಶಾಂತಿ ಸಾಗರ"
      }
    },
    {
      "type": "node",
      "id": 1462194226,
      "lat": 12.9256218,
      "lon": 77.5502249,
      "tags": {
        "alt_name": "Kentucky Fried Chicken",
        "alt_name:en": "Kentucky Fried Chicken",
        "alt_name:hi": "केंटुकी फ्राइड चिकन",
        "alt_name:pa": "ਕੈਂਟੁਕੀ ਫ੍ਰਾਈਡ ਚਿਕਨ",
        "alt_name:pnb": "کینٹکی فرائیڈ چکن",
        "alt_name:ur": "کینٹکی فرائیڈ چکن",
        "amenity": "fast_food",
        "brand": "KFC",
        "brand:en": "KFC",
        "brand:hi": "केएफसी",
        "brand:pa": "ਕੇਐਫਸੀ",
        "brand:pnb": "کے ایف سی",
        "brand:ur": "کے ایف سی",
        "brand:wikidata": "Q524757",
        "brand:wikipedia": "en:KFC",
        "brand:wikipedia:pa": "ਕੇਐਫਸੀ",
        "brand:wikipedia:ur": "کینٹکی فرائیڈ چکن",
        "cuisine": "chicken",
        "name": "KFC",
        "name:en": "KFC",
        "name:hi": "केएफसी",
        "name:kn": "ಕೆಎಫ್‌ಸಿ",
        "name:pa": "ਕੇਐਫਸੀ",
        "name:pnb": "کے ایف سی",
        "name:ur": "کے ایف سی",
        "takeaway": "yes"
      }
    },
    {
      "type": "node",
      "id": 1462237219,
      "lat": 12.9256318,
      "lon": 77.5498709,
      "tags": {
        "amenity": "restaurant",
        "name": "Dal Tadka",
        "name:kn": "ದಾಲ್ ತಡ್ಕ"
      }
    },
    {
      "type": "node",
      "id": 1465026171,
      "lat": 12.9293305,
      "lon": 77.5483881,
      "tags": {
        "leisure": "park"
      }
    },
    {
      "type": "node",
      "id": 1465027748,
      "lat": 12.9296442,
      "lon": 77.5479375,
      "tags": {
        "amenity": "fountain"
      }
    },
    {
      "type": "node",
      "id": 1465031293,
      "lat": 12.9257438,
      "lon": 77.5498097,
      "tags": {
        "amenity": "bank",
        "atm": "yes",
        "brand": "Bank of India",
        "brand:wikidata": "Q2004439",
        "name": "Bank of India",
        "name:kn": "ಬ್ಯಾಂಕ್ ಅಫ್ ಇಂಡಿಯ",
        "operator": "Bank of India"
      }
    },
    {
      "type": "node",
      "id": 1465032919,
      "lat": 12.9296912,
      "lon": 77.5519662,
      "tags": {
        "amenity": "atm",
        "brand": "State Bank of India",
        "brand:wikidata": "Q1340361",
        "operator": "State Bank of India",
        "operator:wikidata": "Q1340361",
        "short_name": "SBI"
      }
    },
    {
      "type": "node",
      "id": 1465033352,
      "lat": 12.9296755,
      "lon": 77.5519983,
      "tags": {
        "amenity": "bank",
        "atm": "yes",
        "brand": "State Bank of India",
        "brand:wikidata": "Q1340361",
        "brand:wikipedia": "en:State Bank of India",
        "name": "State Bank of India",
        "name:kn": "ಭಾರತೀಯ ಸ್ಟೇಟ್ ಬ್ಯಾಂಕ್",
        "short_name": "SBI",
        "website": "https://www.sbi.co.in"
      }
    },
    {
      "type": "node",
      "id": 1466477036,
      "lat": 12.9256842,
      "lon": 77.5489346,
      "tags": {
        "addr:district": "Bengaluru Urban",
        "addr:full": "No:114, 100 Feet Ring Road, 3Road Stage Banashankari",
        "addr:postcode": "560085",
        "addr:state": "Karnataka",
        "amenity": "hospital",
        "emergency": "yes",
        "name": "Udhbhava Hospital",
        "name:kn": "ಉದ್ಭವ ಆಸ್ಪತ್ರೆ",
        "source": "OpenGovernmentData"
      }
    },
    {
      "type": "node",
      "id": 1466478562,
      "lat": 12.925977,
      "lon": 77.5504903,
      "tags": {
        "addr:postcode": "560085",
        "addr:street": "Kathriguppa main road",
        "brand": "Levi's",
        "brand:wikidata": "Q127962",
        "clothes": "denim;men;women",
        "name": "Levi's",
        "shop": "clothes"
      }
    },
    {
      "type": "node",
      "id": 1466479502,
      "lat": 12.927054,
      "lon": 77.5506405,
      "tags": {
        "addr:city": "Bengaluru",
        "addr:housenumber": "92/3",
        "addr:postcode": "560085",
        "addr:street": "Kathriguppa Main Road",
        "addr:suburb": "Banashankri",
        "brand": "Puma",
        "brand:wikidata": "Q157064",
        "name": "Puma",
        "name:kn": "ಪೂಮ",
        "opening_hours": "10:00-22:00",
        "phone": "080 4171 1671",
        "shop": "clothes",
        "website": "https://in.puma.com/?mktID=PL:Brand%20Marketing:Puma.com-CatchAllPage:India-en&plinkID=Brand"
      }
    },
    {
      "type": "node",
      "id": 1471945408,
      "lat": 12.9253564,
      "lon": 77.5496136,
      "tags": {
        "amenity": "restaurant",
        "cuisine": "indian",
        "name": "Nandhini",
        "name:kn": "ನಂದಿನಿ"
      }
    },
    {
      "type": "node",
      "id": 1471945412,
      "lat": 12.9251321,
      "lon": 77.5507224,
      "tags": {
        "amenity": "restaurant",
        "brand": "Pizza Hut",
        "brand:wikidata": "Q191615",
        "cuisine": "pizza",
        "name": "Pizza Hut",
        "name:kn": "ಪಿಟ್ಸ ಹಟ್"
      }
    },
    {
      "type": "node",
      "id": 1471945416,
      "lat": 12.9251112,
      "lon": 77.55076,
      "tags": {
        "name": "Lakme Salon",
        "shop": "hairdresser"
      }
    },
    {
      "type": "node",
      "id": 1473888090,
      "lat": 12.9232307,
      "lon": 77.5547094,
      "tags": {
        "name": "Cake of the day",
        "shop": "bakery"
      }
    },
    {
      "type": "node",
      "id": 1473889273,
      "lat": 12.9279154,
      "lon": 77.5563831,
      "tags": {
        "amenity": "place_of_worship",
        "name": "Shiva Temple",
        "name:kn": "ಶಿವ ದೇವಸ್ಥಾನ",
        "religion": "hindu"
      }
    },
    {
      "type": "node",
      "id": 1473946325,
      "lat": 12.9233352,
      "lon": 77.5545915,
      "tags": {
        "amenity": "fast_food",
        "name": "Mane Thindi",
        "name:kn": "ಮನೆ ತಿಂಡಿ"
      }
    },
    {
      "type": "node",
      "id": 1473950469,
      "lat": 12.9251478,
      "lon": 77.5507385,
      "tags": {
        "amenity": "restaurant",
        "cuisine": "chinese",
        "name": "Chung wah",
        "name:kn": "ಚುಂಗ್ ವ"
      }
    },
    {
      "type": "node",
      "id": 1473950471,
      "lat": 12.9234639,
      "lon": 77.5550356,
      "tags": {
        "name": "Vikranth Tyre shop",
        "shop": "motorcycle"
      }
    },
    {
      "type": "node",
      "id": 1474820884,
      "lat": 12.923688,
      "lon": 77.5535473,
      "tags": {
        "amenity": "bank",
        "brand": "Canara Bank",
        "brand:en": "Canara Bank",
        "brand:hi": "केनरा बैंक",
        "brand:kn": "ಕೆನರಾ ಬ್ಯಾಂಕ್",
        "brand:pa": "ਕੇਨਰਾ ਬੈਂਕ",
        "brand:pnb": "کینرا بینک",
        "brand:ur": "کینرا بینک",
        "brand:wikidata": "Q2003777",
        "brand:wikipedia": "en:Canara Bank",
        "brand:wikipedia:pa": "ਕੇਨਰਾ ਬੈਂਕ",
        "name": "Canara Bank",
        "name:en": "Canara Bank",
        "name:hi": "केनरा बैंक",
        "name:kn": "ಕೆನರಾ ಬ್ಯಾಂಕ್",
        "name:pa": "ਕੇਨਰਾ ਬੈਂਕ",
        "name:pnb": "کینرا بینک",
        "name:ur": "کینرا بینک",
        "website": "https://www.canarabank.com/"
      }
    },
    {
      "type": "node",
      "id": 1474820885,
      "lat": 12.9236725,
      "lon": 77.5536141,
      "tags": {
        "amenity": "bank",
        "brand": "Axis Bank",
        "brand:wikidata": "Q2003549",
        "name": "Axis Bank",
        "name:kn": "ಆಕ್ಸಿಸ್ ಬ್ಯಾಂಕ್",
        "operator": "ATM"
      }
    },
    {
      "type": "node",
      "id": 1474820886,
      "lat": 12.923626,
      "lon": 77.5538171,
      "tags": {
        "name": "Salon",
        "shop": "convenience"
      }
    },
    {
      "type": "node",
      "id": 1474821031,
      "lat": 12.9237619,
      "lon": 77.5532989,
      "tags": {
        "amenity": "fast_food",
        "name": "Iyangar Bakery"
      }
    },
    {
      "type": "node",
      "id": 1474821033,
      "lat": 12.9240181,
      "lon": 77.5533888,
      "tags": {
        "amenity": "pharmacy",
        "brand": "Apollo Pharmacy",
        "brand:wikidata": "Q62562612",
        "healthcare": "pharmacy",
        "name": "Apollo Pharmacy",
        "name:kn": "ಅಪೋಲೋ ಫಾರ್ಮಸಿ"
      }
    },
    {
      "type": "node",
      "id": 1474821040,
      "lat": 12.9240077,
      "lon": 77.5534639,
      "tags": {
        "name": "Spectacles store",
        "shop": "convenience"
      }
    },
    {
      "type": "node",
      "id": 1474821317,
      "lat": 12.9235841,
      "lon": 77.5539351,
      "tags": {
        "name": "Titan Eye+",
        "shop": "convenience"
      }
    },
    {
      "type": "node",
      "id": 1474821378,
      "lat": 12.9240913,
      "lon": 77.553374,
      "tags": {
        "alt_name": "Goli Vada Pav No.1",
        "amenity": "fast_food",
        "brand": "Goli Vada Pav",
        "brand:wikidata": "Q5580697",
        "cuisine": "indian",
        "name": "Goli Vada Pav",
        "takeaway": "yes"
      }
    },
    {
      "type": "node",
      "id": 1474821379,
      "lat": 12.9241697,
      "lon": 77.552991,
      "tags": {
        "name": "Chroma Mega Store",
        "shop": "convenience"
      }
    },
    {
      "type": "node",
      "id": 1474831725,
      "lat": 12.9249818,
      "lon": 77.5512039,
      "tags": {
        "amenity": "fast_food",
        "brand": "Domino's",
        "brand:ks": "ڈومینوز",
        "brand:pa": "ਡੋਮੀਨੋਜ਼",
        "brand:ur": "ڈومینوز",
        "brand:wikidata": "Q839466",
        "brand:wikipedia": "en:Domino's Pizza",
        "cuisine": "pizza",
        "name": "Domino's",
        "name:ks": "ڈومینوز",
        "name:pa": "ਡੋਮੀਨੋਜ਼",
        "name:ur": "ڈومینوز",
        "takeaway": "yes"
      }
    },
    {
      "type": "node",
      "id": 1474831726,
      "lat": 12.9246981,
      "lon": 77.5508112,
      "tags": {
        "name": "Reebok Store",
        "shop": "supermarket"
      }
    },
    {
      "type": "node",
      "id": 1474831729,
      "lat": 12.9258745,
      "lon": 77.5501431,
      "tags": {
        "amenity": "cafe",
        "brand": "Cafe Coffee Day",
        "brand:wikidata": "Q5017235",
        "cuisine": "coffee_shop",
        "name": "Cafe Coffee Day",
        "name:kn": "ಕಫೆ ಕಾಫಿ ಡೇ",
        "takeaway": "yes"
      }
    },
    {
      "type": "node",
      "id": 1474831732,
      "lat": 12.925817,
      "lon": 77.550127,
      "tags": {
        "amenity": "fast_food",
        "name": "Beijing Bites",
        "name:kn": "ಬೀಜಿಂಗ್ ಬೈಟ್ಸ್"
      }
    },
    {
      "type": "node",
      "id": 1474832786,
      "lat": 12.9260889,
      "lon": 77.5504555,
      "tags": {
        "amenity": "fast_food",
        "name": "Mast Kalandar",
        "name:kn": "ಮಸ್ತ್ ಕಲಂದರ್"
      }
    },
    {
      "type": "node",
      "id": 1474835281,
      "lat": 12.926078,
      "lon": 77.5484214,
      "tags": {
        "name": "Mom and Me",
        "shop": "clothes"
      }
    },
    {
      "type": "node",
      "id": 1809622951,
      "lat": 12.9185562,
      "lon": 77.5553293,
      "tags": {
        "name": "Royal Mart",
        "shop": "supermarket"
      }
    },
    {
      "type": "node",
      "id": 1812653243,
      "lat": 12.9181694,
      "lon": 77.5547822,
      "tags": {
        "amenity": "atm",
        "operator": "SBI ATM",
        "source": "Survey"
      }
    },
    {
      "type": "node",
      "id": 1812685208,
      "lat": 12.918619,
      "lon": 77.5518425,
      "tags": {
        "amenity": "place_of_worship",
        "name": "Temple",
        "name:kn": "ದೇವಸ್ಥಾನ",
        "religion": "hindu"
      }
    },
    {
      "type": "node",
      "id": 1816331548,
      "lat": 12.9235553,
      "lon": 77.5533335,
      "tags": {
        "amenity": "police",
        "name": "BSK 3rd stage Police Station",
        "wheelchair": "no"
      }
    },
    {
      "type": "node",
      "id": 2012855686,
      "lat": 12.9255011,
      "lon": 77.5499538,
      "tags": {
        "amenity": "atm",
        "brand": "HDFC Bank",
        "brand:wikidata": "Q631047",
        "designation": "HDFC Bank",
        "operator": "HDFC Bank",
        "operator:wikidata": "Q631047",
        "short_name": "HDFC"
      }
    },
    {
      "type": "node",
      "id": 2012858067,
      "lat": 12.9254619,
      "lon": 77.5499726,
      "tags": {
        "addr:postcode": "560085",
        "addr:street": "Outer Ring Road",
        "amenity": "bank",
        "atm": "yes",
        "brand": "HDFC Bank",
        "brand:wikidata": "Q631047",
        "brand:wikipedia": "en:HDFC Bank",
        "name": "HDFC Bank",
        "name:kn": "ಎಚ್ ಡಿ ಎಫ್ ಸಿ",
        "short_name": "HDFC",
        "website": "https://www.hdfcbank.com"
      }
    },
    {
      "type": "node",
      "id": 2123629154,
      "lat": 12.9151671,
      "lon": 77.552159,
      "tags": {
        "amenity": "bus_station",
        "name": "Chikkalasandra Bus Stop",
        "name:kn": "ಚಿಕ್ಕಲಸಂದ್ರ"
      }
    },
    {
      "type": "node",
      "id": 2124813862,
      "lat": 12.9179548,
      "lon": 77.555816,
      "tags": {
        "amenity": "hospital",
        "name": "Bangalore Kidney Foundation - NU Hospital"
      }
    },
    {
      "type": "node",
      "id": 2124814947,
      "lat": 12.9178136,
      "lon": 77.5561808,
      "tags": {
        "shop": "convenience"
      }
    },
    {
      "type": "node",
      "id": 2124814950,
      "lat": 12.9178868,
      "lon": 77.5561969,
      "tags": {
        "amenity": "pharmacy"
      }
    },
    {
      "type": "node",
      "id": 2199535405,
      "lat": 12.9286056,
      "lon": 77.5453234,
      "tags": {
        "amenity": "cafe",
        "brand": "Cafe Coffee Day",
        "brand:wikidata": "Q5017235",
        "cuisine": "coffee_shop",
        "name": "Cafe Coffee Day",
        "name:kn": "ಕಫೆ ಕಾಫಿ ಡೇ",
        "opening_hours": "Mo-Su,PH 10:00-22:00",
        "takeaway": "yes",
        "wifi": "no"
      }
    },
    {
      "type": "node",
      "id": 2513845209,
      "lat": 12.9238423,
      "lon": 77.5540301,
      "tags": {
        "amenity": "shelter",
        "bench": "yes",
        "covered": "yes",
        "shelter": "yes",
        "shelter_type": "public_transport"
      }
    },
    {
      "type": "node",
      "id": 2587475453,
      "lat": 12.9307314,
      "lon": 77.5471958,
      "tags": {
        "amenity": "marketplace",
        "name": "Homemart"
      }
    },
    {
      "type": "node",
      "id": 2587475455,
      "lat": 12.9307552,
      "lon": 77.5475178,
      "tags": {
        "amenity": "bank",
        "atm": "yes",
        "branch": "Kathriguppe",
        "brand:wikidata": "Q1340361",
        "brand:wikipedia": "en:State Bank of India",
        "name": "State Bank of India",
        "name:kn": "ಭಾರತೀಯ ಸ್ಟೇಟ್ ಬ್ಯಾಂಕ್",
        "opening_hours": "Mo-Fr 09:00-16:30",
        "short_name": "SBI",
        "website": "https://www.sbi.co.in"
      }
    },
    {
      "type": "node",
      "id": 2591242677,
      "lat": 12.9305998,
      "lon": 77.5471604,
      "tags": {
        "name": "Sai Dry Cleaners",
        "shop": "dry_cleaning"
      }
    },
    {
      "type": "node",
      "id": 2623603733,
      "lat": 12.924471,
      "lon": 77.5523785,
      "tags": {
        "amenity": "atm",
        "brand": "Standard Chartered",
        "brand:wikidata": "Q548278",
        "name": "Standard Chartered Bank",
        "operator": "Standard Chartered",
        "operator:wikidata": "Q548278"
      }
    },
    {
      "type": "node",
      "id": 2623606892,
      "lat": 12.9233245,
      "lon": 77.5533301,
      "tags": {
        "amenity": "cinema",
        "name": "Kamakya Theatre",
        "name:kn": "ಕಾಮಾಖ್ಯ"
      }
    },
    {
      "type": "node",
      "id": 2984295033,
      "lat": 12.9184617,
      "lon": 77.5555842,
      "tags": {
        "addr:district": "Bengaluru Urban",
        "addr:full": "Thimmaiah Road, Padmanabhanagar, Bengaluru",
        "addr:postcode": "560070",
        "addr:state": "Karnataka",
        "amenity": "hospital",
        "name": "Shraddha Eye Care",
        "source": "Local Knowledge"
      }
    },
    {
      "type": "node",
      "id": 4445170393,
      "lat": 12.9235989,
      "lon": 77.5550354,
      "tags": {
        "addr:city": "Bangalore",
        "addr:housenumber": "224/Y,10224/Y",
        "addr:postcode": "560085",
        "addr:street": "Outer Ring Road",
        "amenity": "restaurant",
        "cuisine": "indian",
        "name": "Mantra Multicuisine Restaurant",
        "opening_hours": "10:30-22:30",
        "phone": "+91 9900093379",
        "takeaway": "yes"
      }
    },
    {
      "type": "node",
      "id": 4445574724,
      "lat": 12.9268231,
      "lon": 77.548292,
      "tags": {
        "addr:city": "Bangalore",
        "addr:housenumber": "222",
        "addr:postcode": "560085",
        "addr:street": "Kathriguppe Main Road",
        "amenity": "restaurant",
        "cuisine": "indian",
        "name": "Chicken Hunt",
        "opening_hours": "11:30-22:30",
        "phone": "+91 9341128791",
        "takeaway": "yes"
      }
    },
    {
      "type": "node",
      "id": 4445597227,
      "lat": 12.9306311,
      "lon": 77.5535559,
      "tags": {
        "addr:city": "Banashankari,Bangalore",
        "addr:housenumber": "45",
        "addr:postcode": "560085",
        "addr:street": "Kathriguppe Main Road",
        "amenity": "restaurant",
        "cuisine": "indian",
        "name": "Karavali Lunch Home",
        "opening_hours": "12:00-16:00,18:30-23:00",
        "phone": "080 2669 1046",
        "takeaway": "yes"
      }
    },
    {
      "type": "node",
      "id": 4446338453,
      "lat": 12.9278495,
      "lon": 77.5462411,
      "tags": {
        "addr:city": "Banashankari,Bangalore",
        "addr:housenumber": "76",
        "addr:postcode": "560085",
        "addr:street": "1st Main Road",
        "amenity": "restaurant",
        "cuisine": "indian",
        "name": "Mandara Bar and Restaurant",
        "opening_hours": "00:00-24:00",
        "phone": "097318 20559",
        "takeaway": "yes",
        "wheelchair": "no"
      }
    },
    {
      "type": "node",
      "id": 4446359270,
      "lat": 12.9285834,
      "lon": 77.5457702,
      "tags": {
        "addr:city": "Banashankari,Bangalore",
        "addr:postcode": "560085",
        "addr:street": "Outer Ring Road",
        "amenity": "restaurant",
        "cuisine": "regional",
        "name": "Ayodhya Upachar",
        "name:kn": "ಅಯೋಧ್ಯ ಉಪಚಾರ",
        "opening_hours": "07:00-23:00",
        "phone": "099013 93214",
        "takeaway": "yes",
        "wheelchair": "no"
      }
    },
    {
      "type": "node",
      "id": 4446409048,
      "lat": 12.9279866,
      "lon": 77.5519145,
      "tags": {
        "addr:city": "Banashankari,bangalore",
        "addr:housenumber": "119",
        "addr:postcode": "560085",
        "addr:street": "Kathriguppe Main Road",
        "amenity": "restaurant",
        "cuisine": "regional",
        "name": "Janahaar",
        "opening_hours": "09:00-21:00",
        "phone": "+91 90351 04559",
        "takeaway": "yes"
      }
    },
    {
      "type": "node",
      "id": 4446907220,
      "lat": 12.9274553,
      "lon": 77.5516293,
      "tags": {
        "addr:city": "Bangalore",
        "addr:housenumber": "165",
        "addr:postcode": "560085",
        "addr:street": "1st Main Road, Kathreguppe Cross Road, Kathreguppe, Banashankari 3rd Stage",
        "amenity": "hospital",
        "name": "Ring Road Hospital",
        "phone": "080 2679 7040",
        "source": "just dial"
      }
    },
    {
      "type": "node",
      "id": 4446911787,
      "lat": 12.9263669,
      "lon": 77.5546536,
      "tags": {
        "addr:city": "bangalore",
        "addr:housenumber": "62/1",
        "addr:postcode": "560085",
        "addr:street": "4th Main Road, Chennamanakere Achukatte, BSK 3rd Stage, Banashankari",
        "amenity": "clinic",
        "name": "Sri Srinivasa Clinic",
        "phone": "+9198450 26791",
        "source": "just dial"
      }
    },
    {
      "type": "node",
      "id": 4447005792,
      "lat": 12.9237223,
      "lon": 77.5434609,
      "tags": {
        "addr:city": "bangalore",
        "addr:housenumber": "56",
        "addr:postcode": "560085",
        "addr:street": "1st floor, Ittamadu main road, Ittamadu, Banashankari 3rd Stage, Banashankari",
        "name": "Mediwave Diagnostics",
        "phone": "+9197393 08859",
        "shop": "medical_supply",
        "source": "justdial"
      }
    },
    {
      "type": "node",
      "id": 4447009759,
      "lat": 12.9302815,
      "lon": 77.5467741,
      "tags": {
        "addr:city": "bangalore",
        "addr:housenumber": "56",
        "addr:postcode": "560085",
        "addr:street": "BMS Plaza, First Floor, Opposite Kathriguppe Water Tank, 3rd Cross Rd, 1st Block, Banashankari 3rd Stage, Banashankari,",
        "amenity": "pharmacy",
        "name": "Sunrise Diagnostic Laboratory",
        "phone": "+9189710 01078",
        "source": "justdial"
      }
    },
    {
      "type": "node",
      "id": 4447087215,
      "lat": 12.9266045,
      "lon": 77.5459463,
      "tags": {
        "addr:city": "Bangalore",
        "addr:housenumber": "11",
        "addr:postcode": "560085",
        "addr:street": "Near Aiyappa Temple, Madivala",
        "amenity": "restaurant",
        "cuisine": "regional",
        "delivery": "yes",
        "name": "Kairali",
        "name:kn": "ಕೈರಲಿ",
        "opening_hours": "08:00-23:00",
        "phone": "+91 9844034033",
        "smoking": "no",
        "takeaway": "yes",
        "website": "https://www.kairali.com/"
      }
    },
    {
      "type": "node",
      "id": 4488323871,
      "lat": 12.9249152,
      "lon": 77.5504288,
      "tags": {
        "addr:city": "bangalore",
        "addr:postcode": "560085",
        "addr:street": "Outer Ring Road",
        "name": "Deep Breath Unisex Salon And Spa",
        "opening_hours": "07:00-21:00",
        "phone": "8197818685",
        "shop": "beauty"
      }
    },
    {
      "type": "node",
      "id": 4488335404,
      "lat": 12.9284682,
      "lon": 77.5452795,
      "tags": {
        "addr:city": "Banashankari,Bangalore",
        "addr:housenumber": "no.10",
        "addr:postcode": "560085",
        "addr:street": "50 Feet Road",
        "name": "Green Trends Hair & Style Salon",
        "opening_hours": "09:00-20:00",
        "phone": "9972936226",
        "shop": "beauty",
        "website": "https://www.mygreentrends.in/"
      }
    },
    {
      "type": "node",
      "id": 4489851280,
      "lat": 12.9234645,
      "lon": 77.5434478,
      "tags": {
        "addr:city": "bangalore",
        "addr:postcode": "560085",
        "addr:street": "Ittamadu Main Road, Near-Reliance Fresh, Banashankari 3rd Stage, Ittamadu, Banashankari 3rd Stage, Banashankari",
        "name": "G S S Cycles",
        "phone": "092412 18195",
        "shop": "sports"
      }
    },
    {
      "type": "node",
      "id": 4490018874,
      "lat": 12.9253941,
      "lon": 77.5504463,
      "tags": {
        "FIXME": "the website url appears to be clipped and non-functional. Can someone please fix it?",
        "addr:city": "Banashankari,bangalore",
        "addr:postcode": "560085",
        "addr:street": "Kathriguppe Main Road",
        "fixme:website": "www.fitnesssolutionsgloba..",
        "leisure": "sports_centre",
        "name": "Fitness Solution",
        "opening_hours": "12:00-23:30",
        "phone": "099160 02240"
      }
    },
    {
      "type": "node",
      "id": 4797659571,
      "lat": 12.9293898,
      "lon": 77.5519618,
      "tags": {
        "addr:city": "Bengaluru",
        "addr:postcode": "560085",
        "addr:street": "Kathriguppe Main Road",
        "amenity": "restaurant",
        "brand": "Adyar Ananda Bhavan",
        "brand:wikidata": "Q15178238",
        "cuisine": "regional",
        "name": "Adyar Ananda Bhavan",
        "name:kn": "ಆದ್ಯಾರ್ ಆನಂದ ಭವನ",
        "phone": "919886823031",
        "shop": "confectionery",
        "website": "https://aabsweets.com"
      }
    },
    {
      "type": "node",
      "id": 4969981521,
      "lat": 12.9285357,
      "lon": 77.5453297,
      "tags": {
        "addr:postcode": "560085",
        "addr:street": "Outer Ring Road",
        "name": "Creatise office",
        "name:en": "Creatise office",
        "shop": "cosmetics"
      }
    },
    {
      "type": "node",
      "id": 4988213023,
      "lat": 12.9191661,
      "lon": 77.5511655,
      "tags": {
        "name": "RoyalMart",
        "shop": "supermarket"
      }
    },
    {
      "type": "node",
      "id": 5112171717,
      "lat": 12.9235363,
      "lon": 77.5530586,
      "tags": {
        "addr:city": "Bangalore",
        "addr:housenumber": "512",
        "addr:postcode": "560085",
        "addr:street": "2nd Cross,Banashankari",
        "amenity": "restaurant",
        "cuisine": "indian",
        "name": "Vaishali",
        "opening_hours": "11:30-23:30",
        "phone": "080 2672 2170",
        "takeaway": "yes"
      }
    },
    {
      "type": "node",
      "id": 5302772310,
      "lat": 12.9309162,
      "lon": 77.5473845,
      "tags": {
        "amenity": "restaurant",
        "level": "0",
        "name": "Bengaluru Coffee House",
        "opening_hours": "06:30-12:30,16:00-20:30"
      }
    },
    {
      "type": "node",
      "id": 5302772311,
      "lat": 12.9306675,
      "lon": 77.5474147,
      "tags": {
        "amenity": "clinic",
        "level": "-1",
        "name": "Shekhar Clinic",
        "opening_hours": "10:00-13:00,18:00-21:00"
      }
    },
    {
      "type": "node",
      "id": 5302772312,
      "lat": 12.9306773,
      "lon": 77.5474666,
      "tags": {
        "amenity": "bank",
        "branch": "Banashankari 3rd Stage",
        "level": "1",
        "name": "Karnataka State Co-Operative Apex Bank Ltd",
        "opening_hours": "Mo-Fr 09:00-13:30,14:00-17:00",
        "short_name": "Apex Bank"
      }
    },
    {
      "type": "node",
      "id": 5302772313,
      "lat": 12.9306492,
      "lon": 77.547441,
      "tags": {
        "amenity": "pharmacy",
        "brand": "MedPlus",
        "brand:wikidata": "Q65684234",
        "healthcare": "pharmacy",
        "level": "0",
        "name": "MedPlus"
      }
    },
    {
      "type": "node",
      "id": 5302772314,
      "lat": 12.9306982,
      "lon": 77.5474396,
      "tags": {
        "amenity": "restaurant",
        "level": "-1",
        "name": "Davanagere Bajji Centre"
      }
    },
    {
      "type": "node",
      "id": 5626258373,
      "lat": 12.9227174,
      "lon": 77.5563021,
      "tags": {
        "addr:city": "Bengaluru",
        "addr:postcode": "560085",
        "addr:street": "Outer Ring Road",
        "amenity": "fast_food",
        "cuisine": "south_indian;north_indian",
        "drive_through": "no",
        "name": "Mane Thindi",
        "name:kn": "ಮನೆ ತಿಂಡಿ",
        "outdoor_seating": "no",
        "smoking": "no",
        "takeaway": "yes"
      }
    },
    {
      "type": "node",
      "id": 5626258374,
      "lat": 12.9227144,
      "lon": 77.556339,
      "tags": {
        "addr:city": "Bengaluru",
        "addr:postcode": "560085",
        "addr:street": "Outer Ring Road",
        "name": "Cake of the Day",
        "operator": "Cake of the Day",
        "payment:cards": "yes",
        "payment:cash": "yes",
        "payment:paytm": "yes",
        "shop": "pastry"
      }
    },
    {
      "type": "node",
      "id": 6210612230,
      "lat": 12.9228505,
      "lon": 77.5570544,
      "tags": {
        "amenity": "shelter",
        "bench": "yes",
        "covered": "yes",
        "shelter": "yes",
        "shelter_type": "public_transport"
      }
    },
    {
      "type": "node",
      "id": 6907496182,
      "lat": 12.9267487,
      "lon": 77.5475121,
      "tags": {
        "addr:city": "Hassan",
        "addr:district": "HASSAN",
        "addr:full": "K. R. Puram",
        "addr:postcode": "573201",
        "addr:state": "Karnataka",
        "amenity": "blood_bank",
        "contact:mobile": "9448885440",
        "contact:phone": "8172266124",
        "name": "Manjunath Orthopaedic and Trauma Centre Hospital Blood Bank",
        "opening_hours": "24/7",
        "operator:type": "private",
        "source": "OpenGovernmentData"
      }
    },
    {
      "type": "node",
      "id": 6936794825,
      "lat": 12.9179183,
      "lon": 77.5567127,
      "tags": {
        "addr:city": "Bengaluru",
        "addr:postcode": "560070",
        "addr:street": "C J Venkatesa Das Road",
        "name": "Iyengar Bakery",
        "name:kn": "ಐಯ್ಯಂಗಾರ್ ಬೇಕರಿ",
        "payment:cash": "yes",
        "shop": "bakery"
      }
    },
    {
      "type": "node",
      "id": 6938675648,
      "lat": 12.9244632,
      "lon": 77.5535296,
      "tags": {
        "addr:district": "Bengaluru Urban",
        "addr:full": "# 244,7Th Cross Vi Block.Iii Phase Iii Block, Banashankari",
        "addr:postcode": "560085",
        "addr:state": "Karnataka",
        "amenity": "clinic",
        "email": "adityanetralaya@gmail.com",
        "name": "Aditya Netralaya",
        "operator:type": "private",
        "source": "OpenGovernmentData",
        "website": "https://adityanetralaya.com/"
      }
    },
    {
      "type": "node",
      "id": 6938777925,
      "lat": 12.9291283,
      "lon": 77.5461361,
      "tags": {
        "addr:district": "Bengaluru Urban",
        "addr:full": "No.160, 1st Floor,Rashi Complex,2nd Stage,2nd Block,Near Bda Complex, Nagarabhavi",
        "addr:postcode": "560072",
        "addr:state": "Karnataka",
        "amenity": "hospital",
        "name": "Netraspandana Healthcare and Research Pvt. Ltd",
        "source": "OpenGovernmentData"
      }
    },
    {
      "type": "node",
      "id": 6938777945,
      "lat": 12.9176216,
      "lon": 77.5550705,
      "tags": {
        "addr:district": "Bengaluru Urban",
        "addr:full": "Bkf Chand , Nephro- Urology Centre, Ca - 6,15Th, Main Street, 11Th Cross, Padmanabhanagar",
        "addr:postcode": "560070",
        "addr:state": "Karnataka",
        "amenity": "hospital",
        "name": "Nu Trust",
        "source": "OpenGovernmentData"
      }
    },
    {
      "type": "node",
      "id": 6938783140,
      "lat": 12.9278657,
      "lon": 77.5519297,
      "tags": {
        "addr:district": "Bengaluru Urban",
        "addr:full": "#129, 1 Main Road, Kattriguppe, Banashankari Iii Stage",
        "addr:postcode": "560085",
        "addr:state": "Karnataka",
        "amenity": "hospital",
        "name": "Ring Road Hospital",
        "source": "OpenGovernmentData"
      }
    },
    {
      "type": "node",
      "id": 6939444286,
      "lat": 12.9246384,
      "lon": 77.5509238,
      "tags": {
        "addr:district": "Bengaluru Urban",
        "addr:full": "#271, 5Th Block, 100 Feet Road, 3Road Phase, Banashankari",
        "addr:postcode": "560085",
        "addr:state": "Karnataka",
        "amenity": "hospital",
        "name": "Abhilash Hospital And Sara Rehabilitation Centre",
        "source": "OpenGovernmentData"
      }
    },
    {
      "type": "node",
      "id": 6939582677,
      "lat": 12.9275311,
      "lon": 77.5457901,
      "tags": {
        "addr:district": "Bengaluru Urban",
        "addr:full": "30, 2nd Cross Anjaneya Nagar, 3Road Stage Banashankari",
        "addr:postcode": "560085",
        "addr:state": "Karnataka",
        "amenity": "hospital",
        "name": "Sg Hospital",
        "source": "OpenGovernmentData"
      }
    },
    {
      "type": "node",
      "id": 6944201468,
      "lat": 12.9271131,
      "lon": 77.5471291,
      "tags": {
        "addr:district": "Bengaluru Urban",
        "addr:full": "# 77, 100 Ft.Ring Road, B.S.K.3rd Stage, 5th Block",
        "addr:postcode": "560085",
        "addr:state": "Karnataka",
        "amenity": "hospital",
        "email": "abhayaeye@yahoo.com",
        "healthcare:speciality": "Cataract",
        "name": "Abhaya Eye Hospital, Super Speciality Eye Care Centre",
        "operator:type": "private",
        "source": "OpenGovernmentData",
        "website": "http://www.abhayaeyehospital.com/"
      }
    },
    {
      "type": "node",
      "id": 7059472363,
      "lat": 12.9275729,
      "lon": 77.5470424,
      "tags": {
        "addr:city": "Bangalore",
        "addr:postcode": "560085",
        "name": "Curtains N More",
        "opening_hours": "10:30-21:00",
        "shop": "furniture",
        "source": "survey;local knowledge;gps"
      }
    },
    {
      "type": "node",
      "id": 7579924702,
      "lat": 12.9209147,
      "lon": 77.5432594,
      "tags": {
        "addr:district": "Bengaluru Urban",
        "addr:full": "Banashankari, Bengaluru",
        "addr:postcode": "560085",
        "addr:state": "Karnataka",
        "amenity": "clinic",
        "name": "Beta Clinic",
        "source": "Local Knowledge"
      }
    },
    {
      "type": "node",
      "id": 7579924709,
      "lat": 12.9222659,
      "lon": 77.550702,
      "tags": {
        "addr:district": "Bengaluru Urban",
        "addr:full": "Bhuvaneshwari Nagar, Abbigere, Bengaluru",
        "addr:postcode": "560090",
        "addr:state": "Karnataka",
        "amenity": "clinic",
        "name": "Prashant Clinic",
        "source": "Local Knowledge"
      }
    },
    {
      "type": "node",
      "id": 7579924712,
      "lat": 12.9280659,
      "lon": 77.5446602,
      "tags": {
        "addr:district": "Bengaluru Urban",
        "addr:full": "Hosakerehalli, Bengaluru",
        "addr:postcode": "560085",
        "addr:state": "Karnataka",
        "amenity": "clinic",
        "name": "Hanumagiri Clinic",
        "source": "Local Knowledge"
      }
    },
    {
      "type": "node",
      "id": 7579924718,
      "lat": 12.9233888,
      "lon": 77.5512272,
      "tags": {
        "addr:district": "Bengaluru Urban",
        "addr:full": "Banashankari, Bengaluru",
        "addr:postcode": "560085",
        "addr:state": "Karnataka",
        "amenity": "doctors",
        "name": "Dr. S C Veerendra Kumar",
        "source": "Local Knowledge"
      }
    },
    {
      "type": "node",
      "id": 7579924722,
      "lat": 12.924971,
      "lon": 77.549831,
      "tags": {
        "addr:district": "Bengaluru Urban",
        "addr:full": "Banashankari, Bengaluru",
        "addr:postcode": "560085",
        "addr:state": "Karnataka",
        "amenity": "clinic",
        "name": "Shrinetra Eye Clinic",
        "source": "Local Knowledge"
      }
    },
    {
      "type": "node",
      "id": 7579924726,
      "lat": 12.9271897,
      "lon": 77.5447555,
      "tags": {
        "addr:district": "Bengaluru Urban",
        "addr:full": "Anjaneya Nagar, Ittamadu, Banashankari, Bengaluru",
        "addr:postcode": "560085",
        "addr:state": "Karnataka",
        "amenity": "clinic",
        "name": "Ramdas Homeopathy Clinic",
        "source": "Local Knowledge"
      }
    },
    {
      "type": "node",
      "id": 7579924739,
      "lat": 12.9212952,
      "lon": 77.5416399,
      "tags": {
        "addr:district": "Bengaluru Urban",
        "addr:full": "Banashankari, Bengaluru",
        "addr:postcode": "560085",
        "addr:state": "Karnataka",
        "amenity": "clinic",
        "name": "Arogya Clinic",
        "source": "Local Knowledge"
      }
    },
    {
      "type": "node",
      "id": 7579924740,
      "lat": 12.925261,
      "lon": 77.549434,
      "tags": {
        "addr:district": "Bengaluru Urban",
        "addr:full": "Banashankari, Bengaluru",
        "addr:postcode": "560085",
        "addr:state": "Karnataka",
        "amenity": "clinic",
        "name": "Dermacare Skin Clinic",
        "source": "Local Knowledge"
      }
    },
    {
      "type": "node",
      "id": 7579924746,
      "lat": 12.9250629,
      "lon": 77.5453371,
      "tags": {
        "addr:district": "Bengaluru Urban",
        "addr:full": "Banashankari 2nd Stage, Banglore",
        "addr:postcode": "560001",
        "addr:state": "Karnataka",
        "amenity": "clinic",
        "name": "Metropolis Healthcare",
        "source": "Local Knowledge"
      }
    },
    {
      "type": "node",
      "id": 7579924747,
      "lat": 12.9278507,
      "lon": 77.5506292,
      "tags": {
        "addr:district": "Bengaluru Urban",
        "addr:full": "Kathreguppe, Banashankari, Bengaluru",
        "addr:postcode": "560085",
        "addr:state": "Karnataka",
        "amenity": "clinic",
        "name": "Anand Kids",
        "source": "Local Knowledge"
      }
    },
    {
      "type": "node",
      "id": 7579924751,
      "lat": 12.9245451,
      "lon": 77.5492886,
      "tags": {
        "addr:district": "Bengaluru Urban",
        "addr:full": "Banashankari, Bengaluru",
        "addr:postcode": "560085",
        "addr:state": "Karnataka",
        "amenity": "doctors",
        "name": "Dr. Jagadish Adiga",
        "source": "Local Knowledge"
      }
    },
    {
      "type": "node",
      "id": 7579924760,
      "lat": 12.9254569,
      "lon": 77.5467101,
      "tags": {
        "addr:district": "Bengaluru Urban",
        "addr:full": "Banashankari, Bengaluru",
        "addr:postcode": "560085",
        "addr:state": "Karnataka",
        "amenity": "hospital",
        "name": "Sudha Prevention Centre",
        "source": "Local Knowledge"
      }
    },
    {
      "type": "node",
      "id": 7579924761,
      "lat": 12.9249909,
      "lon": 77.5440968,
      "tags": {
        "addr:district": "Bengaluru Urban",
        "addr:full": "Banashankari, Bengaluru",
        "addr:postcode": "560085",
        "addr:state": "Karnataka",
        "amenity": "clinic",
        "name": "Sri Devi Clinic",
        "source": "Local Knowledge"
      }
    },
    {
      "type": "node",
      "id": 7579924763,
      "lat": 12.925235,
      "lon": 77.540841,
      "tags": {
        "addr:district": "Bengaluru Urban",
        "addr:full": "Ittamadu, Dattatreya Nagar, Hosakerehalli, Bengaluru",
        "addr:postcode": "560085",
        "addr:state": "Karnataka",
        "amenity": "clinic",
        "name": "Nargund Clinics",
        "source": "Local Knowledge"
      }
    },
    {
      "type": "node",
      "id": 7579924771,
      "lat": 12.9245021,
      "lon": 77.5511045,
      "tags": {
        "addr:district": "Bengaluru Urban",
        "addr:full": "Banashankari, Bengaluru",
        "addr:postcode": "560085",
        "addr:state": "Karnataka",
        "amenity": "dentist",
        "name": "Dental Plus Multispeciality Centre",
        "source": "Local Knowledge"
      }
    },
    {
      "type": "node",
      "id": 7579924775,
      "lat": 12.924474,
      "lon": 77.55082,
      "tags": {
        "addr:district": "Bengaluru Urban",
        "addr:full": "Banashankari, Bengaluru",
        "addr:postcode": "560085",
        "addr:state": "Karnataka",
        "amenity": "clinic",
        "name": "Hopeberry Clinic",
        "source": "Local Knowledge"
      }
    },
    {
      "type": "node",
      "id": 7579924778,
      "lat": 12.923358,
      "lon": 77.5467868,
      "tags": {
        "addr:district": "Bengaluru Urban",
        "addr:full": "Ittamadu, Banashankari, Bengaluru",
        "addr:postcode": "560085",
        "addr:state": "Karnataka",
        "amenity": "clinic",
        "name": "Ravi Clinic",
        "source": "Local Knowledge"
      }
    },
    {
      "type": "node",
      "id": 11279447619,
      "lat": 12.9250501,
      "lon": 77.551074,
      "tags": {
        "amenity": "bar",
        "name": "GULP",
        "name:kn": "ಸರ್ಕಾರಿ ಉರ್ದು ಪ್ರಾಥಮಿಕ ಶಾಲೆ"
      }
    },
    {
      "type": "node",
      "id": 11279634288,
      "lat": 12.9198739,
      "lon": 77.5578868,
      "tags": {
        "amenity": "shelter",
        "shelter_type": "gazebo"
      }
    },
    {
      "type": "node",
      "id": 11279634293,
      "lat": 12.9238149,
      "lon": 77.5541143,
      "tags": {
        "amenity": "shelter",
        "bench": "yes",
        "covered": "yes",
        "shelter": "yes",
        "shelter_type": "public_transport"
      }
    },
    {
      "type": "node",
      "id": 11279815777,
      "lat": 12.9228274,
      "lon": 77.5571312,
      "tags": {
        "amenity": "shelter",
        "bench": "yes",
        "covered": "yes",
        "shelter": "yes",
        "shelter_type": "public_transport"
      }
    },
    {
      "type": "node",
      "id": 12330791159,
      "lat": 12.9266369,
      "lon": 77.5478043,
      "tags": {
        "addr:city": "Banashankari,Bangalore",
        "addr:district": "Bengaluru Urban",
        "addr:housenumber": "7, Mythri Park view, 1st Floor,",
        "addr:postcode": "560085",
        "addr:street": "5th Block, 3rd Phase, Banashankari 3rd Stage",
        "amenity": "studio",
        "name": "PIXELLOID STUDIOS PVT LTD",
        "studio": "video",
        "website": "https://pixelloid.com/"
      }
    },
    {
      "type": "node",
      "id": 12462536465,
      "lat": 12.9186803,
      "lon": 77.5482356,
      "tags": {
        "addr:city": "Bengaluru",
        "addr:district": "Bengaluru South",
        "addr:housenumber": "39",
        "addr:postcode": "560061",
        "addr:street": "5th A Main, 3rd Cross, Hanumagiri Layout, Chikkalsandra",
        "amenity": "restaurant",
        "contact:facebook": "https://www.facebook.com/profile.php?id=61567838247673",
        "cuisine": "indian;punjabi;north_indian",
        "delivery": "yes",
        "description": "Dive into a culinary journey to Punjab from the heart of Chikkalsandra, Bengaluru, at Ambala Cantt - Cloud Kitchen. Experience the warmth of homemade Punjabi meals prepared with traditional recipes.",
        "diet:vegetarian": "yes",
        "email": "soniaventures28@gmail.com",
        "level": "1",
        "mobile": "+917892630802",
        "name": "Ambala Cantt- Cloud Kitchen",
        "opening_hours": "Sa-Su 12:00-23:30",
        "payment:cash": "yes",
        "payment:google_pay": "yes",
        "start_date": "2024-11-02",
        "takeaway": "only"
      }
    },
    {
      "type": "node",
      "id": 12522217327,
      "lat": 12.9225556,
      "lon": 77.5568479,
      "tags": {
        "addr:city": "Bengaluru",
        "addr:district": "Bengaluru Urban",
        "addr:housenumber": "No. 299, B-No. 7",
        "addr:postcode": "560085",
        "addr:street": "100 Feet Ring Road, near Indian Bank, Banashankari 3rd Stage",
        "amenity": "bank",
        "brand": "Federal Bank",
        "brand:wikidata": "Q2044983",
        "name": "Federal Bank"
      }
    },
    {
      "type": "node",
      "id": 12590497685,
      "lat": 12.9280341,
      "lon": 77.5435903,
      "tags": {
        "access": "private",
        "amenity": "parking_entrance",
        "parking": "underground"
      }
    },
    {
      "type": "node",
      "id": 12862846460,
      "lat": 12.9271408,
      "lon": 77.5479307,
      "tags": {
        "amenity": "fast_food",
        "cuisine": "burger",
        "delivery": "yes",
        "name": "Easy Bites by Empire",
        "takeaway": "yes"
      }
    },
    {
      "type": "node",
      "id": 13112261001,
      "lat": 12.9266268,
      "lon": 77.547741,
      "tags": {
        "addr:housenumber": "7",
        "addr:postcode": "560085",
        "addr:street": "100 Feet Ring Road",
        "amenity": "fast_food",
        "cuisine": "burger;chicken;sandwich",
        "level": "0",
        "name": "KFC",
        "opening_hours": "Mo-Su 11:00-23:00",
        "phone": "+91 97110 89497",
        "self_service": "partially",
        "website": "https://restaurants.kfc.co.in/",
        "website:menu": "https://restaurants.kfc.co.in/kfc-banashankari-restaurants-banashankari-bengaluru-103018/Home"
      }
    },
    {
      "type": "way",
      "id": 81251699,
      "center": {
        "lat": 12.9309219,
        "lon": 77.5444503
      },
      "tags": {
        "leisure": "park",
        "name": "BBMP Park",
        "name:kn": "ಬೃ. ಬೆ. ಮ. ಪಾ. ಉದ್ಯಾನವನ"
      }
    },
    {
      "type": "way",
      "id": 132924556,
      "center": {
        "lat": 12.9296424,
        "lon": 77.5479735
      },
      "tags": {
        "designation": "BBMP Park - mysore mallige KS narasimhaswamy park",
        "leisure": "park"
      }
    },
    {
      "type": "way",
      "id": 132924564,
      "center": {
        "lat": 12.9295491,
        "lon": 77.5507012
      },
      "tags": {
        "leisure": "pitch",
        "name": "Rama Rao Layout BBMP Sports Ground",
        "note": "'playground' in OSM is a children's playground with swings et.c."
      }
    },
    {
      "type": "way",
      "id": 133145563,
      "center": {
        "lat": 12.9275531,
        "lon": 77.5552342
      },
      "tags": {
        "leisure": "stadium",
        "name": "Basket ball, shuttle court"
      }
    },
    {
      "type": "way",
      "id": 133145605,
      "center": {
        "lat": 12.9268596,
        "lon": 77.5542156
      },
      "tags": {
        "leisure": "park",
        "name": "Chenamma Kere Park"
      }
    },
    {
      "type": "way",
      "id": 141802256,
      "center": {
        "lat": 12.924759,
        "lon": 77.540126
      },
      "tags": {
        "amenity": "place_of_worship",
        "denomination": "hosakerehalli",
        "name": "Dattatreya Temple",
        "name:kn": "ದತ್ತಾತ್ರೇಯ ದೇವಸ್ಥಾನ",
        "religion": "hindu"
      }
    },
    {
      "type": "way",
      "id": 141813089,
      "center": {
        "lat": 12.929527,
        "lon": 77.5438362
      },
      "tags": {
        "amenity": "college",
        "name": "NCERT"
      }
    },
    {
      "type": "way",
      "id": 244032263,
      "center": {
        "lat": 12.9257536,
        "lon": 77.554778
      },
      "tags": {
        "amenity": "community_centre",
        "building": "yes",
        "name": "Venkatadri Kalyana Mantapa",
        "name:kn": "ವೆಂಕಟಾದ್ರಿ ಕಲ್ಯಾಣ ಮಂಟಪ"
      }
    },
    {
      "type": "way",
      "id": 244032543,
      "center": {
        "lat": 12.9256691,
        "lon": 77.5535484
      },
      "tags": {
        "leisure": "park",
        "name": "Chennamma Kere Achukattu Park",
        "name:kn": "ಚೆನ್ನಮ್ಮನ ಕೆರೆ ಅಚ್ಚುಕಟ್ಟು ಉದ್ಯಾನವನ"
      }
    },
    {
      "type": "way",
      "id": 334651222,
      "center": {
        "lat": 12.9232707,
        "lon": 77.5492432
      },
      "tags": {
        "leisure": "park"
      }
    },
    {
      "type": "way",
      "id": 334651226,
      "center": {
        "lat": 12.9179562,
        "lon": 77.5553876
      },
      "tags": {
        "landuse": "commercial",
        "name": "Padmanabhanagara BSNL Office",
        "name:kn": "ಪದ್ಮನಾಭನಗರ ಬಿಎಸ್ಎನ್ಎಲ್ ಕಛೇರಿ",
        "shop": "telecommunication"
      }
    },
    {
      "type": "way",
      "id": 350509765,
      "center": {
        "lat": 12.927045,
        "lon": 77.5559702
      },
      "tags": {
        "amenity": "school",
        "building": "yes",
        "name": "Sri Saraswati Vidya Mandira School"
      }
    },
    {
      "type": "way",
      "id": 362892752,
      "center": {
        "lat": 12.9250329,
        "lon": 77.5470519
      },
      "tags": {
        "leisure": "park"
      }
    },
    {
      "type": "way",
      "id": 362894271,
      "center": {
        "lat": 12.9322491,
        "lon": 77.5490336
      },
      "tags": {
        "leisure": "park"
      }
    },
    {
      "type": "way",
      "id": 362894524,
      "center": {
        "lat": 12.9228933,
        "lon": 77.5586199
      },
      "tags": {
        "leisure": "park",
        "name": "Banagiri Nagar BBMP Park"
      }
    },
    {
      "type": "way",
      "id": 393741532,
      "center": {
        "lat": 12.9252465,
        "lon": 77.556299
      },
      "tags": {
        "leisure": "park",
        "name": "BDA Park"
      }
    },
    {
      "type": "way",
      "id": 1087732060,
      "center": {
        "lat": 12.923469,
        "lon": 77.5571154
      },
      "tags": {
        "amenity": "place_of_worship",
        "building": "yes",
        "name": "Sri Banagiri Varasiddhi Vinayaka Temple",
        "name:kn": "ಶ್ರೀ ವರಸಿದ್ಧಿ ವಿನಾಯಕ ದೇವಾಲಯ",
        "religion": "hindu"
      }
    },
    {
      "type": "way",
      "id": 1087732061,
      "center": {
        "lat": 12.9231645,
        "lon": 77.5576937
      },
      "tags": {
        "amenity": "school",
        "name": "Apollo National Public School"
      }
    },
    {
      "type": "way",
      "id": 1087732062,
      "center": {
        "lat": 12.9231682,
        "lon": 77.556496
      },
      "tags": {
        "amenity": "bank",
        "brand": "Kotak Mahindra Bank",
        "brand:wikidata": "Q2040404",
        "building": "yes",
        "name": "Kotak Mahindra Bank",
        "name:kn": "ಕೋಟಕ್ ಮಹಿಂದ್ರ ಬ್ಯಾಂಕ್"
      }
    },
    {
      "type": "way",
      "id": 1217326870,
      "center": {
        "lat": 12.9291128,
        "lon": 77.5422803
      },
      "tags": {
        "access": "private",
        "leisure": "swimming_pool"
      }
    },
    {
      "type": "way",
      "id": 1217350555,
      "center": {
        "lat": 12.9240672,
        "lon": 77.5448218
      },
      "tags": {
        "amenity": "school"
      }
    },
    {
      "type": "way",
      "id": 1217372154,
      "center": {
        "lat": 12.9233092,
        "lon": 77.5571644
      },
      "tags": {
        "amenity": "place_of_worship",
        "religion": "hindu"
      }
    },
    {
      "type": "way",
      "id": 1217372155,
      "center": {
        "lat": 12.9231185,
        "lon": 77.5569212
      },
      "tags": {
        "leisure": "sports_centre"
      }
    },
    {
      "type": "way",
      "id": 1302188264,
      "center": {
        "lat": 12.9267397,
        "lon": 77.5483957
      },
      "tags": {
        "amenity": "parking"
      }
    },
    {
      "type": "way",
      "id": 1352846823,
      "center": {
        "lat": 12.9208102,
        "lon": 77.5581159
      },
      "tags": {
        "addr:city": "Bengaluru",
        "addr:district": "Bengaluru Urban",
        "addr:postcode": "560070",
        "addr:street": "13th Main Road",
        "leisure": "park",
        "name": "Gururaghavendra Layout Park",
        "opening_hours": "Mo-Sa 05:00-20:00",
        "operator": "ಬೃಹತ್ ಬೆಂಗಳೂರು ಮಹಾನಗರ ಪಾಲಿಕೆ",
        "operator:en": "Bruhat Bengaluru Mahanagara Palike",
        "operator:ka": "ಬೃಹತ್ ಬೆಂಗಳೂರು ಮಹಾನಗರ ಪಾಲಿಕೆ",
        "operator:short": "BBMP",
        "operator:type": "government",
        "operator:wikidata": "Q4978693"
      }
    },
    {
      "type": "way",
      "id": 1360123892,
      "center": {
        "lat": 12.9287096,
        "lon": 77.5435724
      },
      "tags": {
        "access": "private",
        "amenity": "parking",
        "orientation": "perpendicular",
        "parking": "street_side"
      }
    },
    {
      "type": "way",
      "id": 1360123893,
      "center": {
        "lat": 12.9277859,
        "lon": 77.5435403
      },
      "tags": {
        "access": "private",
        "amenity": "parking",
        "parking": "street_side"
      }
    },
    {
      "type": "way",
      "id": 1360123910,
      "center": {
        "lat": 12.9275136,
        "lon": 77.5437387
      },
      "tags": {
        "access": "private",
        "leisure": "pitch",
        "sport": "tennis"
      }
    },
    {
      "type": "way",
      "id": 1427123916,
      "center": {
        "lat": 12.9261305,
        "lon": 77.5476418
      },
      "tags": {
        "leisure": "park",
        "name": "Kuvempu Park"
      }
    }
  ]
}