{
  "area_name": "Bhuvaneshwari Nagara 1st Stage",
  "osm_id": 7289176015,
  "osm_type": "node",
  "place_type": "neighbourhood",
  "amenity_count": 28,
  "amenities": [
    {
      "type": "node",
      "id": 6280468546,
      "lat": 12.9461955,
      "lon": 77.4861173,
      "tags": {
        "addr:city": "Bangalore,Karnataka",
        "addr:housenumber": "136, Mata Amritanandamayi Road, 2 nd stage",
        "addr:postcode": "560056",
        "addr:street": "Jnana Bharathi",
        "amenity": "place_of_worship",
        "name": "Mata Amritanandamayi Math"
      }
    },
    {
      "type": "node",
      "id": 6947707903,
      "lat": 12.9418827,
      "lon": 77.48376,
      "tags": {
        "addr:district": "Bengaluru Urban",
        "addr:full": "4,Kirloskar Colony, Basaveshwaranagar",
        "addr:postcode": "560079",
        "addr:state": "Karnataka",
        "amenity": "hospital",
        "name": "Vijaya Hospital, Bengaluru Urban",
        "source": "OpenGovernmentData"
      }
    },
    {
      "type": "node",
      "id": 6948187839,
      "lat": 12.95119,
      "lon": 77.4918039,
      "tags": {
        "addr:district": "Mysuru",
        "addr:full": "34/1, Ta.Ra.Su. Circla Yadavagiri",
        "addr:postcode": "570020",
        "addr:state": "Karnataka",
        "amenity": "hospital",
        "name": "Sankalpa Hospital",
        "name:kn": "ಸಂಕಲ್ಪ ಆಸ್ಪತ್ರೆ",
        "source": "OpenGovernmentData"
      }
    },
    {
      "type": "node",
      "id": 9213563987,
      "lat": 12.9383074,
      "lon": 77.4926135,
      "tags": {
        "amenity": "fuel",
        "name": "Ageis auto gas/Emission testng"
      }
    },
    {
      "type": "node",
      "id": 9654252398,
      "lat": 12.9455725,
      "lon": 77.4955295,
      "tags": {
        "name": "Nandini Milk Parlor",
        "shop": "dairy"
      }
    },
    {
      "type": "node",
      "id": 9654252399,
      "lat": 12.9431662,
      "lon": 77.4946216,
      "tags": {
        "amenity": "school",
        "name": "VSS International Public School"
      }
    },
    {
      "type": "node",
      "id": 12089402758,
      "lat": 12.9515993,
      "lon": 77.4845912,
      "tags": {
        "amenity": "fuel",
        "brand": "Indian Oil",
        "brand:wikidata": "Q1289348",
        "brand:wikipedia": "en:Indian Oil Corporation",
        "name": "Indian Oil",
        "opening_hours": "05:30-22:30",
        "phone": "+91 94482 76566",
        "self_service": "no",
        "survey:date": "2024-08-03"
      }
    },
    {
      "type": "node",
      "id": 12956759781,
      "lat": 12.9413336,
      "lon": 77.4829497,
      "tags": {
        "amenity": "shelter",
        "shelter_type": "gazebo"
      }
    },
    {
      "type": "way",
      "id": 149584314,
      "center": {
        "lat": 12.9469929,
        "lon": 77.4918533
      },
      "tags": {
        "leisure": "park"
      }
    },
    {
      "type": "way",
      "id": 150288038,
      "center": {
        "lat": 12.9433793,
        "lon": 77.4856774
      },
      "tags": {
        "leisure": "park"
      }
    },
    {
      "type": "way",
      "id": 150633008,
      "center": {
        "lat": 12.9404895,
        "lon": 77.4911938
      },
      "tags": {
        "leisure": "park"
      }
    },
    {
      "type": "way",
      "id": 150633065,
      "center": {
        "lat": 12.9399955,
        "lon": 77.493782
      },
      "tags": {
        "leisure": "park"
      }
    },
    {
      "type": "way",
      "id": 330321125,
      "center": {
        "lat": 12.9515827,
        "lon": 77.4876548
      },
      "tags": {
        "amenity": "school",
        "name": "Vidyanikethan Public School",
        "name:kn": "ವಿದ್ಯಾನಿಕೇತನ ಶಾಲೆ"
      }
    },
    {
      "type": "way",
      "id": 348140718,
      "center": {
        "lat": 12.9413757,
        "lon": 77.4931777
      },
      "tags": {
        "amenity": "fuel",
        "brand": "Hindustan Petroleum",
        "brand:wikidata": "Q1619375",
        "brand:wikipedia": "en:Hindustan Petroleum",
        "name": "HP",
        "name:kn": "ಹಿಂದುಸ್ತಾನ್ ಪೆಟ್ರೋಲಿಯಂ",
        "official_name": "Hindustan Petroleum"
      }
    },
    {
      "type": "way",
      "id": 720154506,
      "center": {
        "lat": 12.945187,
        "lon": 77.4871548
      },
      "tags": {
        "leisure": "park",
        "name": "KPSC Layout Mini Park"
      }
    },
    {
      "type": "way",
      "id": 720154507,
      "center": {
        "lat": 12.9451498,
        "lon": 77.4863361
      },
      "tags": {
        "leisure": "park",
        "name": "KPSC Layout Park",
        "operator": "KPSC Layout Association"
      }
    },
    {
      "type": "way",
      "id": 722099086,
      "center": {
        "lat": 12.9454979,
        "lon": 77.4865667
      },
      "tags": {
        "addr:postcode": "560056",
        "addr:street": "KPSC Layout",
        "amenity": "place_of_worship",
        "building": "yes",
        "name": "Shree Durga Parameshwari Temple",
        "name:kn": "ದುರ್ಗಾ ಪರಮೇಶ್ವರಿ ದೇವಸ್ತಾನ",
        "religion": "hindu"
      }
    },
    {
      "type": "way",
      "id": 780585926,
      "center": {
        "lat": 12.9357382,
        "lon": 77.4836151
      },
      "tags": {
        "leisure": "park",
        "name": "Sonnenahalli Park"
      }
    },
    {
      "type": "way",
      "id": 780593037,
      "center": {
        "lat": 12.9355867,
        "lon": 77.4877685
      },
      "tags": {
        "leisure": "park"
      }
    },
    {
      "type": "way",
      "id": 1286755643,
      "center": {
        "lat": 12.9368604,
        "lon": 77.4867902
      },
      "tags": {
        "leisure": "park"
      }
    },
    {
      "type": "way",
      "id": 1286756022,
      "center": {
        "lat": 12.9407888,
        "lon": 77.4802785
      },
      "tags": {
        "amenity": "school",
        "name": "National Public School, SMV"
      }
    },
    {
      "type": "way",
      "id": 1286756030,
      "center": {
        "lat": 12.9400679,
        "lon": 77.479276
      },
      "tags": {
        "amenity": "fuel"
      }
    },
    {
      "type": "way",
      "id": 1296085053,
      "center": {
        "lat": 12.9518186,
        "lon": 77.4891204
      },
      "tags": {
        "leisure": "park"
      }
    },
    {
      "type": "way",
      "id": 1296085055,
      "center": {
        "lat": 12.951245,
        "lon": 77.4882209
      },
      "tags": {
        "leisure": "pitch",
        "sport": "tennis"
      }
    },
    {
      "type": "way",
      "id": 1296085065,
      "center": {
        "lat": 12.9516562,
        "lon": 77.4846217
      },
      "tags": {
        "amenity": "fuel"
      }
    },
    {
      "type": "way",
      "id": 1360644152,
      "center": {
        "lat": 12.9507195,
        "lon": 77.4836097
      },
      "tags": {
        "amenity": "school",
        "name": "Janani Vidya Mandira",
        "survey:date": "2024-08-03",
        "website": "jananividyamandira.com"
      }
    },
    {
      "type": "way",
      "id": 1360644157,
      "center": {
        "lat": 12.9510658,
        "lon": 77.4810597
      },
      "tags": {
        "amenity": "hospital",
        "name": "Government Multi-Speciality Hospital"
      }
    },
    {
      "type": "way",
      "id": 1410092219,
      "center": {
        "lat": 12.941145,
        "lon": 77.4830817
      },
      "tags": {
        "leisure": "park",
        "name": "Vishveshwaraiah Layout 3rd Block Park"
      }
    }
  ]
}