{
  "area_name": "Bismillah Nagar",
  "osm_id": 493530617,
  "osm_type": "node",
  "place_type": "neighbourhood",
  "amenity_count": 218,
  "amenities": [
    {
      "type": "node",
      "id": 493530632,
      "lat": 12.9233773,
      "lon": 77.598919,
      "tags": {
        "amenity": "cinema",
        "name": "Maheshwari",
        "name:kn": "ಮಹೇಶ್ವರಿ"
      }
    },
    {
      "type": "node",
      "id": 922289018,
      "lat": 12.924695,
      "lon": 77.6012962,
      "tags": {
        "amenity": "Office Space",
        "name": "Subramanya Arcade"
      }
    },
    {
      "type": "node",
      "id": 1070254109,
      "lat": 12.9276723,
      "lon": 77.5998977,
      "tags": {
        "amenity": "parking",
        "name": "Sagar Hospital Parking"
      }
    },
    {
      "type": "node",
      "id": 1307555240,
      "lat": 12.9308436,
      "lon": 77.5955007,
      "tags": {
        "name": "Sagar Automobiles",
        "shop": "car"
      }
    },
    {
      "type": "node",
      "id": 1466684135,
      "lat": 12.9309662,
      "lon": 77.6004616,
      "tags": {
        "amenity": "fuel",
        "brand": "Auto LPG",
        "fuel:cng": "yes",
        "fuel:lpg": "yes",
        "name": "Classic Auto Gas"
      }
    },
    {
      "type": "node",
      "id": 1466688325,
      "lat": 12.9301626,
      "lon": 77.6011209,
      "tags": {
        "addr:city": "Bangalore",
        "addr:housename": "Spar Hyper Market",
        "addr:housenumber": "39/3",
        "addr:postcode": "560029",
        "addr:street": "Bannerghatta Road",
        "branch": "Hypermarket",
        "brand": "Spar",
        "brand:wikidata": "Q610492",
        "name": "Spar",
        "phone": "(91)-80-41811600",
        "shop": "supermarket"
      }
    },
    {
      "type": "node",
      "id": 1466921785,
      "lat": 12.9335033,
      "lon": 77.606469,
      "tags": {
        "addr:city": "Bangalore",
        "addr:postcode": "560029",
        "amenity": "library",
        "name": "Christ University Library"
      }
    },
    {
      "type": "node",
      "id": 1466932410,
      "lat": 12.93091,
      "lon": 77.608255,
      "tags": {
        "amenity": "place_of_worship",
        "name": "Anjaneya Temple",
        "name:kn": "ಆಂಜನೇಯ ದೇವಸ್ಥಾನ",
        "religion": "hindu"
      }
    },
    {
      "type": "node",
      "id": 1466932413,
      "lat": 12.9309532,
      "lon": 77.6084387,
      "tags": {
        "amenity": "place_of_worship",
        "name": "Srirama Temple",
        "name:kn": "ಶ್ರೀರಾಮ ದೇವಸ್ಥಾನ",
        "religion": "hindu"
      }
    },
    {
      "type": "node",
      "id": 1468035295,
      "lat": 12.9189547,
      "lon": 77.607059,
      "tags": {
        "amenity": "place_of_worship",
        "name": "Ganesha Temple",
        "name:kn": "ಗಣೇಶ ದೇವಸ್ಥಾನ",
        "religion": "hindu"
      }
    },
    {
      "type": "node",
      "id": 1468035355,
      "lat": 12.9180449,
      "lon": 77.6018824,
      "tags": {
        "amenity": "place_of_worship",
        "name": "Saibaba Temple",
        "name:kn": "ಸಾಯಿಬಾಬಾ ದೇವಸ್ಥಾನ",
        "religion": "hindu"
      }
    },
    {
      "type": "node",
      "id": 1473309603,
      "lat": 12.9285393,
      "lon": 77.6001599,
      "tags": {
        "amenity": "bank",
        "atm": "yes",
        "brand": "ICICI Bank",
        "brand:wikidata": "Q1653258",
        "name": "ICICI Bank",
        "name:en": "ICICI Bank",
        "name:kn": "ಐಸಿಐಸಿಐ ಬ್ಯಾಂಕು",
        "short_name": "ICICI",
        "website": "https://www.icicibank.com"
      }
    },
    {
      "type": "node",
      "id": 1473311719,
      "lat": 12.9279589,
      "lon": 77.6008251,
      "tags": {
        "name": "Popular Bajaj",
        "shop": "motorcycle"
      }
    },
    {
      "type": "node",
      "id": 1473314929,
      "lat": 12.9277289,
      "lon": 77.6007983,
      "tags": {
        "name": "Popular Motor Corporation, Bajaj RE Commercial vehicle sales",
        "shop": "car"
      }
    },
    {
      "type": "node",
      "id": 1473315750,
      "lat": 12.9271381,
      "lon": 77.6006588,
      "tags": {
        "name": "Mahindra 2 Wheelers",
        "shop": "motorcycle"
      }
    },
    {
      "type": "node",
      "id": 1474432226,
      "lat": 12.930861,
      "lon": 77.6069707,
      "tags": {
        "addr:street": "Christ School Road",
        "amenity": "dentist",
        "name": "Tooth N Care"
      }
    },
    {
      "type": "node",
      "id": 1474432228,
      "lat": 12.9316137,
      "lon": 77.6072662,
      "tags": {
        "addr:street": "8th Cross",
        "name": "Bakery",
        "shop": "bakery"
      }
    },
    {
      "type": "node",
      "id": 1474446679,
      "lat": 12.9234682,
      "lon": 77.611734,
      "tags": {
        "name": "Bake O Fresh Bakery",
        "shop": "bakery"
      }
    },
    {
      "type": "node",
      "id": 1474449391,
      "lat": 12.9239335,
      "lon": 77.61116,
      "tags": {
        "addr:district": "Bengaluru Urban",
        "addr:full": "#22, 1st Main, Chocolate Factory Road , Tavarekere Btm Layout",
        "addr:postcode": "560029",
        "addr:state": "Karnataka",
        "amenity": "hospital",
        "healthcare": "hospital",
        "name": "Spurthy Hospital",
        "source": "OpenGovernmentData"
      }
    },
    {
      "type": "node",
      "id": 1474449978,
      "lat": 12.9245296,
      "lon": 77.6094944,
      "tags": {
        "amenity": "atm",
        "brand": "Federal Bank",
        "brand:wikidata": "Q2044983",
        "name": "Federal Bank",
        "operator": "Federal Bank",
        "operator:wikidata": "Q2044983"
      }
    },
    {
      "type": "node",
      "id": 1474450888,
      "lat": 12.9243597,
      "lon": 77.6094434,
      "tags": {
        "amenity": "atm",
        "brand": "HDFC Bank",
        "brand:wikidata": "Q631047",
        "name": "HDFC Bank",
        "operator": "HDFC Bank",
        "operator:wikidata": "Q631047",
        "short_name": "HDFC"
      }
    },
    {
      "type": "node",
      "id": 1474455985,
      "lat": 12.9312664,
      "lon": 77.6097492,
      "tags": {
        "name": "SreeVinayaka Alcohol Shop",
        "shop": "alcohol"
      }
    },
    {
      "type": "node",
      "id": 1669903424,
      "lat": 12.9255356,
      "lon": 77.6012383,
      "tags": {
        "amenity": "bank",
        "atm": "yes",
        "brand": "State Bank of India",
        "brand:wikidata": "Q1340361",
        "brand:wikipedia": "en:State Bank of India",
        "name": "State Bank of India",
        "name:kn": "ಭಾರತೀಯ ಸ್ಟೇಟ್ ಬ್ಯಾಂಕ್",
        "short_name": "SBI"
      }
    },
    {
      "type": "node",
      "id": 1674625846,
      "lat": 12.9221307,
      "lon": 77.5952856,
      "tags": {
        "amenity": "marketplace",
        "name": "Sri Shakthi Medicals"
      }
    },
    {
      "type": "node",
      "id": 1674647382,
      "lat": 12.9223393,
      "lon": 77.5953285,
      "tags": {
        "amenity": "atm",
        "brand": "State Bank of India",
        "brand:wikidata": "Q1340361",
        "name": "State Bank of India",
        "operator": "State Bank of India",
        "operator:wikidata": "Q1340361",
        "short_name": "SBI"
      }
    },
    {
      "type": "node",
      "id": 2322770073,
      "lat": 12.934646,
      "lon": 77.6067313,
      "tags": {
        "amenity": "food_court",
        "name": "Christ University Food Court"
      }
    },
    {
      "type": "node",
      "id": 2523956870,
      "lat": 12.9322822,
      "lon": 77.5981308,
      "tags": {
        "addr:city": "Bengaluru",
        "addr:postcode": "560041",
        "amenity": "school",
        "name": "New Baldwin School",
        "name:kn": "ನ್ಯೂ ಬಾಲ್ಡ್ ವಿನ್ ಶಾಲೆ"
      }
    },
    {
      "type": "node",
      "id": 2638243343,
      "lat": 12.9237751,
      "lon": 77.5969146,
      "tags": {
        "amenity": "restaurant",
        "cuisine": "indian",
        "name": "Chefmaster"
      }
    },
    {
      "type": "node",
      "id": 2941500439,
      "lat": 12.9338837,
      "lon": 77.6072471,
      "tags": {
        "addr:street": "Christ School Road",
        "amenity": "fast_food",
        "cuisine": "chinese",
        "name": "Hot n Cool"
      }
    },
    {
      "type": "node",
      "id": 3221387165,
      "lat": 12.9298056,
      "lon": 77.6008877,
      "tags": {
        "brand": "Hyundai",
        "brand:wikidata": "Q55931",
        "name": "Advaith Hyundai",
        "name:kn": "ಅದ್ವೈತ ಹ್ಯುಂಡೈ",
        "shop": "car"
      }
    },
    {
      "type": "node",
      "id": 3391135052,
      "lat": 12.9280697,
      "lon": 77.6007661,
      "tags": {
        "name": "all car service",
        "shop": "mechanic"
      }
    },
    {
      "type": "node",
      "id": 3395246646,
      "lat": 12.9263525,
      "lon": 77.5970518,
      "tags": {
        "name": "Branded Sale",
        "shop": "furniture"
      }
    },
    {
      "type": "node",
      "id": 3400223630,
      "lat": 12.9296663,
      "lon": 77.6009087,
      "tags": {
        "amenity": "kindergarten",
        "name": "Your kids r our kids"
      }
    },
    {
      "type": "node",
      "id": 3417176625,
      "lat": 12.9311572,
      "lon": 77.6070088,
      "tags": {
        "addr:street": "Christ School Road",
        "amenity": "fast_food",
        "cuisine": "indian",
        "name": "Ande Ka Funda"
      }
    },
    {
      "type": "node",
      "id": 3702210813,
      "lat": 12.9311314,
      "lon": 77.6007942,
      "tags": {
        "amenity": "restaurant",
        "cuisine": "Multi-cuisne",
        "name": "Seashell Savoury",
        "note": "Halal Restaurant"
      }
    },
    {
      "type": "node",
      "id": 3702258470,
      "lat": 12.9210143,
      "lon": 77.6015318,
      "tags": {
        "amenity": "place_of_worship",
        "name": "Masjid Salafia",
        "religion": "muslim"
      }
    },
    {
      "type": "node",
      "id": 3702261163,
      "lat": 12.9202457,
      "lon": 77.6002095,
      "tags": {
        "amenity": "restaurant",
        "cuisine": "South_India",
        "name": "Panchami Garden"
      }
    },
    {
      "type": "node",
      "id": 3702268573,
      "lat": 12.9307235,
      "lon": 77.6004442,
      "tags": {
        "amenity": "restaurant",
        "cuisine": "indian",
        "name": "Chicken County",
        "note": "Halal Restaurant"
      }
    },
    {
      "type": "node",
      "id": 3702281012,
      "lat": 12.9195986,
      "lon": 77.608563,
      "tags": {
        "amenity": "college",
        "name": "Wisdom International School"
      }
    },
    {
      "type": "node",
      "id": 3995048781,
      "lat": 12.9204156,
      "lon": 77.5973219,
      "tags": {
        "addr:city": "Bangalore",
        "addr:housenumber": "1669",
        "addr:postcode": "560069",
        "addr:street": "39 Cross",
        "name": "Jago Supermarket",
        "name:kn": "ನಾವು ಮಾರ್ಟ್ ಸೂಪರ್ ಮಾರುಕಟ್ಟೆ",
        "opening_hours": "08:00-22:30",
        "operator": "Private",
        "phone": "080 2653 0306",
        "shop": "department_store",
        "wheelchair": "no"
      }
    },
    {
      "type": "node",
      "id": 3995050517,
      "lat": 12.9202957,
      "lon": 77.59682,
      "tags": {
        "branch": "Jayanagar",
        "contact:email": "jn1.blr@printo.in",
        "contact:mobile": "+91-7899-934-267",
        "contact:website": "https://printo.in/",
        "name": "Printo",
        "opening_hours": "Mo-Sa 10:00-20:00, Su 12:30-20:00",
        "shop": "printing",
        "wheelchair": "limited"
      }
    },
    {
      "type": "node",
      "id": 4117092201,
      "lat": 12.9310409,
      "lon": 77.6081159,
      "tags": {
        "amenity": "restaurant",
        "cuisine": "indian",
        "name": "Jose Mess",
        "source": "gps"
      }
    },
    {
      "type": "node",
      "id": 4254383391,
      "lat": 12.9230018,
      "lon": 77.5972171,
      "tags": {
        "addr:street": "East End Main Road",
        "amenity": "restaurant",
        "cuisine": "indian",
        "name": "Curry Leaves"
      }
    },
    {
      "type": "node",
      "id": 4254428890,
      "lat": 12.9238477,
      "lon": 77.5972198,
      "tags": {
        "addr:street": "East End Main Road",
        "amenity": "money_transfer",
        "brand": "Western Union",
        "brand:wikidata": "Q861042",
        "name": "Western Union"
      }
    },
    {
      "type": "node",
      "id": 4254482289,
      "lat": 12.9239069,
      "lon": 77.5969076,
      "tags": {
        "addr:street": "East End Main Road",
        "name": "Parimala",
        "name:kn": "ಪರಿಮಳ",
        "shop": "supermarket"
      }
    },
    {
      "type": "node",
      "id": 4445200414,
      "lat": 12.927082,
      "lon": 77.6034417,
      "tags": {
        "addr:city": "Bangalore",
        "addr:housenumber": "No.26/10",
        "addr:postcode": "560029",
        "addr:street": "Bismillanagar, BTM Layout 1st Stage",
        "amenity": "clinic",
        "name": "Kubra Maternity And Nursing Home",
        "phone": "+9198444 56346"
      }
    },
    {
      "type": "node",
      "id": 4446852004,
      "lat": 12.9175511,
      "lon": 77.6039486,
      "tags": {
        "addr:city": "Bengaluru",
        "addr:housenumber": "57",
        "addr:postcode": "560029",
        "addr:street": "8th B Main Road, BTM Layout 1st Stage, KEB Colony, New Gurappana Palya, BTM Layout 1, Karnataka",
        "amenity": "hospital",
        "name": "Vedam Ayurveda Multispeciality Hospital",
        "phone": "080 4120 2911",
        "website": "https://vedamayurveda.co.in/"
      }
    },
    {
      "type": "node",
      "id": 4447007998,
      "lat": 12.926767,
      "lon": 77.5965015,
      "tags": {
        "addr:city": "Bangalore",
        "addr:housenumber": "32nd \"E\" Cross",
        "addr:postcode": "560041",
        "addr:street": "28th Main Road, 4th T Block East, Jayanagara Jaya",
        "amenity": "clinic",
        "healthcare": "clinic",
        "name": "Sunrise Diagnostics",
        "phone": "081529 44944",
        "source": "http://www.justdial.com/"
      }
    },
    {
      "type": "node",
      "id": 4448107135,
      "lat": 12.927672,
      "lon": 77.6012024,
      "tags": {
        "addr:city": "Bangalore",
        "addr:housenumber": "26/10",
        "addr:postcode": "560029",
        "addr:street": "Mosque Road, Bismillanagar, BTM Layout 1st Stage",
        "amenity": "clinic",
        "healthcare": "clinic",
        "name": "Kubra Maternity And Nursing Home",
        "phone": "080 2678 2728",
        "source": "http://www.justdial.com/Bangalore/"
      }
    },
    {
      "type": "node",
      "id": 4456801277,
      "lat": 12.9240616,
      "lon": 77.6021808,
      "tags": {
        "amenity": "community_centre",
        "name": "Ambedkar Community Computer Center(AC3)",
        "website": "https://slumdweller.wikispaces.com/"
      }
    },
    {
      "type": "node",
      "id": 4488513390,
      "lat": 12.9215816,
      "lon": 77.6003237,
      "tags": {
        "addr:city": "Bangalore",
        "addr:housenumber": "Studio: 55, 2nd Floor",
        "addr:postcode": "560076",
        "addr:street": "Bannerghatta Road",
        "leisure": "sports_centre",
        "name": "Indian Combat Sports Academy",
        "opening_hours": "5:30-22:00",
        "phone": "086870 08888",
        "sport": "gymnastics"
      }
    },
    {
      "type": "node",
      "id": 4488816716,
      "lat": 12.9261819,
      "lon": 77.5973726,
      "tags": {
        "addr:city": "Bangalore",
        "addr:postcode": "560029",
        "addr:street": "East End Main Road",
        "motorcycle:repair": "yes",
        "name": "Silicon Honda Service Center",
        "phone": "096632 99621",
        "shop": "motorcycle",
        "website": "https://siliconhonda.com/"
      }
    },
    {
      "type": "node",
      "id": 4489848534,
      "lat": 12.9245268,
      "lon": 77.6098595,
      "tags": {
        "addr:city": "bangalore",
        "addr:housenumber": "Shop No:H1/1-2",
        "addr:street": "1st Cross,Tavarekere, Chocolate Factory Rd, Maruti Nagar, Stage 1, BTM Layout",
        "leisure": "sports_centre",
        "name": "Fitness Maniac",
        "opening_hours": "10:00-21:00",
        "phone": "9845725015",
        "sport": "gymnastics",
        "website": "fitnessmaniacgym.com"
      }
    },
    {
      "type": "node",
      "id": 4489902389,
      "lat": 12.9222104,
      "lon": 77.6106061,
      "tags": {
        "addr:city": "Banglore",
        "addr:postcode": "560029",
        "addr:street": "Tavarekere Main Rd, Narayan Gowda Layout, 1st Stage, BTM Layout,",
        "leisure": "sports_centre",
        "name": "Hi Tech Gym",
        "opening_hours": "05:00-22:00",
        "phone": "098863 88813",
        "sport": "gymnastics",
        "website": "https://www.gymchalo.com/"
      }
    },
    {
      "type": "node",
      "id": 4489911938,
      "lat": 12.9220361,
      "lon": 77.6104841,
      "tags": {
        "addr:city": "Bengaluru",
        "addr:housenumber": "#88/26,",
        "addr:postcode": "560029",
        "addr:street": "1st Floor, Mariyappa Building, bus Stop near Banyan Tree, Narayan Gowda Layout, Tavarekere, Suddagunte Palya, , Karnataka",
        "leisure": "sports_centre",
        "name": "Sinew Fitness",
        "opening_hours": "5:30-22:00"
      }
    },
    {
      "type": "node",
      "id": 4545893490,
      "lat": 12.924386,
      "lon": 77.6000893,
      "tags": {
        "amenity": "atm",
        "brand": "Union Bank of India",
        "brand:wikidata": "Q2004078",
        "name": "Union Bank of India",
        "operator": "Union Bank of India",
        "operator:wikidata": "Q2004078"
      }
    },
    {
      "type": "node",
      "id": 4545906692,
      "lat": 12.9231214,
      "lon": 77.5970987,
      "tags": {
        "amenity": "restaurant",
        "cuisine": "chicken",
        "name": "Curry Leaves Andhra Restaurant",
        "name:en": "Curry Leaves Andhra Restaurant"
      }
    },
    {
      "type": "node",
      "id": 5234782692,
      "lat": 12.9268254,
      "lon": 77.5946896,
      "tags": {
        "amenity": "car_wash"
      }
    },
    {
      "type": "node",
      "id": 5234799277,
      "lat": 12.9283464,
      "lon": 77.595684,
      "tags": {
        "amenity": "restaurant",
        "name": "Al Dubai Family Restaurant"
      }
    },
    {
      "type": "node",
      "id": 5234803135,
      "lat": 12.928555,
      "lon": 77.599351,
      "tags": {
        "amenity": "restaurant",
        "name": "4 Seasons Multi Cuisine Restaurant"
      }
    },
    {
      "type": "node",
      "id": 5234805899,
      "lat": 12.9285254,
      "lon": 77.6000608,
      "tags": {
        "amenity": "restaurant",
        "name": "Vijayalakshmi Veg"
      }
    },
    {
      "type": "node",
      "id": 5234807614,
      "lat": 12.9285122,
      "lon": 77.6001778,
      "tags": {
        "amenity": "bank",
        "brand": "Muthoot Finance",
        "brand:wikidata": "Q6943861",
        "name": "Muthoot Finance",
        "office": "financial"
      }
    },
    {
      "type": "node",
      "id": 6348945619,
      "lat": 12.9305952,
      "lon": 77.6083105,
      "tags": {
        "addr:place": "Suddagunte Palya",
        "amenity": "school",
        "isced:level": "2",
        "name": "GHPS Suddagunte Palya",
        "name:kn": "ಸರ್ಕಾರಿ ಹಿರಿಯ ಪ್ರಾಥಮಿಕ ಶಾಲೆ ಸುದ್ದಗುಂಟೆ ಪಾಳ್ಯ",
        "operator": "Department of Primary and Secondary Education",
        "operator:type": "government",
        "operator:wikidata": "Q111467381",
        "school": "primary"
      }
    },
    {
      "type": "node",
      "id": 6348998895,
      "lat": 12.9199038,
      "lon": 77.6087264,
      "tags": {
        "amenity": "school",
        "name": "GUHPS  New Tavarekere",
        "name:kn": "ಸರ್ಕಾರಿ ಉರ್ದು ಹಿರಿಯ ಪ್ರಾಥಮಿಕ ಶಾಲೆ ಹೊಸ ತಾವರೆಕೆರೆ",
        "operator": "Department of Education",
        "school": "primary"
      }
    },
    {
      "type": "node",
      "id": 6349000293,
      "lat": 12.9218216,
      "lon": 77.61023,
      "tags": {
        "amenity": "school",
        "isced:level": "2",
        "name": "GHPS Tavarekere",
        "name:kn": "ಸರ್ಕಾರಿ ಹಿರಿಯ ಪ್ರಾಥಮಿಕ ಶಾಲೆ ತಾವರೆಕೆರೆ",
        "operator": "Department of Education",
        "school": "primary"
      }
    },
    {
      "type": "node",
      "id": 6349012849,
      "lat": 12.9174015,
      "lon": 77.6036834,
      "tags": {
        "addr:suburb": "Neelasandra",
        "amenity": "school",
        "isced:level": "2",
        "name": "GUHPS Neelasandra",
        "name:kn": "ಸರ್ಕಾರಿ ಹಿರಿಯ ಪ್ರಾಥಮಿಕ ಶಾಲೆ ನೀಲಸಂದ್ರ",
        "operator": "Department of Primary and Secondary Education",
        "operator:wikidata": "Q111467381",
        "school": "primary"
      }
    },
    {
      "type": "node",
      "id": 6349067615,
      "lat": 12.9296754,
      "lon": 77.5965327,
      "tags": {
        "amenity": "school",
        "isced:level": "2",
        "name": "Government Urdu Higher Primary School",
        "name:kn": "ಸರ್ಕಾರಿ ಉರ್ದು ಹಿರಿಯ ಪ್ರಾಥಮಿಕ ಶಾಲೆ ಎಸ್‌.ರ್.ಕೆ ಗಾರ್ಡನ್",
        "operator": "Department of Education",
        "school": "primary"
      }
    },
    {
      "type": "node",
      "id": 6349222321,
      "lat": 12.9188794,
      "lon": 77.605562,
      "tags": {
        "addr:place": "Gurappana Palya",
        "amenity": "school",
        "isced:level": "2",
        "name": "GHPS Gurappana Palya",
        "name:kn": "ಸರ್ಕಾರಿ ಹಿರಿಯ ಪ್ರಾಥಮಿಕ ಶಾಲೆ ಗುರಪ್ಪನಪಾಳ್ಯ",
        "operator": "Department of Education",
        "school": "primary"
      }
    },
    {
      "type": "node",
      "id": 6349232637,
      "lat": 12.9242342,
      "lon": 77.6041393,
      "tags": {
        "addr:place": "Gurappana Palya",
        "amenity": "school",
        "isced:level": "2",
        "name": "GUHPS New Gurappana Palya",
        "name:kn": "ಸರ್ಕಾರಿ ಉರ್ದು ಹಿರಿಯ ಪ್ರಾಥಮಿಕ ಶಾಲೆ ಹೊಸ ಗುರಪ್ಪನಪಾಳ್ಯ",
        "operator": "Department of Education",
        "school": "primary"
      }
    },
    {
      "type": "node",
      "id": 6349248890,
      "lat": 12.9224842,
      "lon": 77.6058977,
      "tags": {
        "addr:place": "old gurappana Palya",
        "amenity": "school",
        "isced:level": "2",
        "name": "GUMHPS Old Gurappana Palya",
        "name:kn": "ಸರ್ಕಾರಿ ಉರ್ದು ಮಾದರಿ ಹಿರಿಯ ಪ್ರಾಥಮಿಕ ಶಾಲೆ ಹಳೆ ಗುರಪ್ಪನಪಾಳ್ಯ",
        "operator": "Department of Education",
        "school": "primary"
      }
    },
    {
      "type": "node",
      "id": 6349268338,
      "lat": 12.9264405,
      "lon": 77.6000111,
      "tags": {
        "addr:place": "Gurappana Palya",
        "amenity": "school",
        "isced:level": "2",
        "name": "Saint Anthony Higher Primary School",
        "name:kn": "ಸೆಂಟ್‌ ಅಂಥೋನಿ ಹಿರಿಯ ಪ್ರಾಥಮಿಕ ಶಾಲೆ ಗುರಪ್ಪನಪಾಳ್ಯ",
        "operator": "Pvt. Aided",
        "school": "primary"
      }
    },
    {
      "type": "node",
      "id": 6349293094,
      "lat": 12.9314978,
      "lon": 77.5995415,
      "tags": {
        "addr:place": "Tilak Nagar",
        "amenity": "school",
        "isced:level": "2",
        "name": "GHPS Tilak Nagar",
        "name:kn": "ಸರ್ಕಾರಿ ಹಿರಿಯ ಪ್ರಾಥಮಿಕ ಶಾಲೆ ತಿಲಕ್ ನಗರ",
        "operator": "Department of Education",
        "school": "primary"
      }
    },
    {
      "type": "node",
      "id": 6349591431,
      "lat": 12.93132,
      "lon": 77.6088007,
      "tags": {
        "addr:place": "S G Palya",
        "amenity": "school",
        "isced:level": "2",
        "name": "Francescon S G Palya",
        "name:kn": "ಫ್ರಾನ್ಸೆಸ್ಕಾನ್ ಎಸ್.ಜಿ ಪಾಳ್ಯ",
        "operator": "Pvt. Aided",
        "school": "primary"
      }
    },
    {
      "type": "node",
      "id": 6536731028,
      "lat": 12.9299028,
      "lon": 77.6071901,
      "tags": {
        "addr:place": "Lakkasandra",
        "amenity": "school",
        "isced:level": "3",
        "name": "Genises Public School, Lakkasandra",
        "name:kn": "ಜೆನೆಸಿಸ್ ಪಬ್ಲಿಕ್ ಶಾಲೆ, ಲಕ್ಕಸಂದ್ರ",
        "operator": "Pvt. Unaided",
        "school": "Higher Secondary"
      }
    },
    {
      "type": "node",
      "id": 6536965027,
      "lat": 12.9237085,
      "lon": 77.6116936,
      "tags": {
        "addr:place": "Madivala",
        "amenity": "school",
        "isced": "3",
        "name": "A V S Convent, Madiwala",
        "name:kn": "ಎ.ವಿ.ಎಸ್ ಕಾನ್ವೆಂಟ್,ಮಡಿವಾಳ",
        "operator": "Private Un-Aided",
        "school": "Higher Secondary"
      }
    },
    {
      "type": "node",
      "id": 6690648242,
      "lat": 12.9205575,
      "lon": 77.6088459,
      "tags": {
        "addr:place": "Madiwala",
        "amenity": "school",
        "isced:level": "1",
        "name": "Kamala Neharu Gandhi Tavarekere,Primary school Madiwala",
        "name:kn": "ಕಮಲಾ ನೆಹರು ಗಾಂಧಿ ಪ್ರಾಥಮಿಕ ಶಾಲೆ,ತವೆರೆಕೆರೆ,ಮಡಿವಾಳ",
        "operator": "Private Un-Aided",
        "school": "primary"
      }
    },
    {
      "type": "node",
      "id": 6690688559,
      "lat": 12.9215986,
      "lon": 77.6084916,
      "tags": {
        "addr:place": "Madiwala",
        "amenity": "school",
        "isced:level": "3",
        "name": "St Flourence HS, Madiwala",
        "name:kn": "ಸೇಂಟ್ ಫ್ಲೋರೆನ್ಸ್ ಪ್ರೌಢಶಾಲೆ, ಮಡಿವಾಳ",
        "operator": "Private Un-Aided",
        "school": "Higher Secondary"
      }
    },
    {
      "type": "node",
      "id": 6690692245,
      "lat": 12.9228196,
      "lon": 77.6095716,
      "tags": {
        "addr:place": "Madiwala",
        "amenity": "school",
        "isced:level": "3",
        "name": "Indira Convent HS, Madiwala",
        "name:kn": "ಇಂದಿರಾ ಕಾನ್ವೆಂಟ್ ಪ್ರೌಢಶಾಲೆ,ಮಡಿವಾಳ",
        "operator": "Private Un-Aided",
        "school": "Higher Secondary"
      }
    },
    {
      "type": "node",
      "id": 6882713319,
      "lat": 12.9279951,
      "lon": 77.5996596,
      "tags": {
        "addr:city": "Bengaluru",
        "addr:district": "BENGALURU URBAN",
        "addr:full": "44/54, 30th Cross, Tilak Nagar, Jayangar Extension",
        "addr:postcode": "560041",
        "addr:state": "Karnataka",
        "amenity": "blood_bank",
        "contact:mobile": "9448004502",
        "contact:phone": "8026536712",
        "name": "Sagar Hospital Blood Bank",
        "name:kn": "ಸಾಗರ ಆಸ್ಪತ್ರೆ ರಕ್ತ ಸಂಗ್ರಹ",
        "operator:type": "private",
        "source": "OpenGovernmentData"
      }
    },
    {
      "type": "node",
      "id": 6944578930,
      "lat": 12.9188948,
      "lon": 77.6058905,
      "tags": {
        "addr:district": "Bengaluru Urban",
        "addr:full": "No.53, 3Road Main Road, Opposite To Maruti Layout, B.T.M Layout 1st Stage",
        "addr:postcode": "560029",
        "addr:state": "Karnataka",
        "amenity": "hospital",
        "healthcare": "hospital",
        "name": "Kareem E.N.T and Multispeciality Centre",
        "source": "OpenGovernmentData"
      }
    },
    {
      "type": "node",
      "id": 6945045472,
      "lat": 12.9265324,
      "lon": 77.6006922,
      "tags": {
        "addr:district": "Bengaluru Urban",
        "addr:full": "No 1 Uma Admiralty First Floor Bannerghatta Road",
        "addr:postcode": "560029",
        "addr:state": "Karnataka",
        "amenity": "clinic",
        "healthcare": "clinic",
        "name": "Dr Patil Fertility And Endoscopy Clinic",
        "source": "OpenGovernmentData"
      }
    },
    {
      "type": "node",
      "id": 7035335585,
      "lat": 12.9317986,
      "lon": 77.6101387,
      "tags": {
        "name": "Look Smart",
        "shop": "clothes"
      }
    },
    {
      "type": "node",
      "id": 7035372785,
      "lat": 12.9314962,
      "lon": 77.609838,
      "tags": {
        "amenity": "restaurant",
        "cuisine": "chinese;chicken;asian;indian",
        "name": "BNG Dining",
        "phone": "7259452829"
      }
    },
    {
      "type": "node",
      "id": 7528043670,
      "lat": 12.9338933,
      "lon": 77.6059367,
      "tags": {
        "leisure": "pitch",
        "name": "Gourmet Basketball Court",
        "sport": "basketball"
      }
    },
    {
      "type": "node",
      "id": 7528043683,
      "lat": 12.9288228,
      "lon": 77.6074009,
      "tags": {
        "name": "Arbiya Fashion Jewellery",
        "shop": "jewelry"
      }
    },
    {
      "type": "node",
      "id": 7528068987,
      "lat": 12.928049,
      "lon": 77.60724,
      "tags": {
        "amenity": "fast_food",
        "cuisine": "juice",
        "name": "DREAM JUICE"
      }
    },
    {
      "type": "node",
      "id": 7528068989,
      "lat": 12.9282084,
      "lon": 77.6066821,
      "tags": {
        "amenity": "ice_cream",
        "name": "BOMBAY KULFS"
      }
    },
    {
      "type": "node",
      "id": 7528068991,
      "lat": 12.9277065,
      "lon": 77.6063548,
      "tags": {
        "name": "New Badar Bakery",
        "shop": "bakery"
      }
    },
    {
      "type": "node",
      "id": 7528068992,
      "lat": 12.9281771,
      "lon": 77.6063602,
      "tags": {
        "name": "Anna Tea Shop",
        "shop": "tea"
      }
    },
    {
      "type": "node",
      "id": 7528068995,
      "lat": 12.9281352,
      "lon": 77.6052337,
      "tags": {
        "amenity": "place_of_worship",
        "name": "Vicariate House Precious Blood"
      }
    },
    {
      "type": "node",
      "id": 7528068996,
      "lat": 12.9282921,
      "lon": 77.605239,
      "tags": {
        "amenity": "atm",
        "operator": "AXIS BANK ATM"
      }
    },
    {
      "type": "node",
      "id": 7528068999,
      "lat": 12.92805,
      "lon": 77.6046838,
      "tags": {
        "amenity": "place_of_worship",
        "name": "Shiva Temple",
        "religion": "hindu"
      }
    },
    {
      "type": "node",
      "id": 7528069000,
      "lat": 12.9279298,
      "lon": 77.604767,
      "tags": {
        "amenity": "place_of_worship",
        "name": "Anthony Church",
        "religion": "christian"
      }
    },
    {
      "type": "node",
      "id": 7528069001,
      "lat": 12.934076,
      "lon": 77.6056306,
      "tags": {
        "amenity": "restaurant",
        "name": "Just Bake",
        "name:kn": "ಜಸ್ಟ್ ಬೇಕ್"
      }
    },
    {
      "type": "node",
      "id": 7528069002,
      "lat": 12.9337727,
      "lon": 77.6047348,
      "tags": {
        "amenity": "restaurant",
        "name": "Raja Rajeswari Hotel"
      }
    },
    {
      "type": "node",
      "id": 7579924705,
      "lat": 12.9238004,
      "lon": 77.6024467,
      "tags": {
        "addr:district": "Bengaluru Urban",
        "addr:full": "Bannerghatta Main Road, Bengaluru",
        "addr:postcode": "560029",
        "addr:state": "Karnataka",
        "amenity": "clinic",
        "name": "Safa Health care",
        "source": "Local Knowledge"
      }
    },
    {
      "type": "node",
      "id": 7579924708,
      "lat": 12.9264311,
      "lon": 77.6016717,
      "tags": {
        "addr:district": "Bengaluru Urban",
        "addr:full": "Bismillahnagar, BTM Layout, Bengaluru",
        "addr:postcode": "560029",
        "addr:state": "Karnataka",
        "amenity": "clinic",
        "healthcare": "clinic",
        "name": "Usha Clinic",
        "source": "Local Knowledge"
      }
    },
    {
      "type": "node",
      "id": 7579924711,
      "lat": 12.925461,
      "lon": 77.609021,
      "tags": {
        "addr:district": "Bengaluru Urban",
        "addr:full": "Maruti Nagar, Brindavan Nagar, BTM Layout, Bengaluru",
        "addr:postcode": "560029",
        "addr:state": "Karnataka",
        "amenity": "hospital",
        "name": "Lavis Hospital",
        "source": "Local Knowledge"
      }
    },
    {
      "type": "node",
      "id": 7579924724,
      "lat": 12.917483,
      "lon": 77.6028048,
      "tags": {
        "addr:district": "Bengaluru Urban",
        "addr:full": "Bannerghatta Road, Bengaluru",
        "addr:postcode": "560029",
        "addr:state": "Karnataka",
        "amenity": "dentist",
        "healthcare": "dentist",
        "name": "M.F. Dental Care",
        "source": "Local Knowledge"
      }
    },
    {
      "type": "node",
      "id": 7579924743,
      "lat": 12.9232355,
      "lon": 77.6021539,
      "tags": {
        "addr:district": "Bengaluru Urban",
        "addr:full": "BTM Layout, Bengaluru",
        "addr:postcode": "560029",
        "addr:state": "Karnataka",
        "amenity": "clinic",
        "name": "Dr. Seema Sultana's Women's Clinic",
        "source": "Local Knowledge"
      }
    },
    {
      "type": "node",
      "id": 7579924756,
      "lat": 12.918787,
      "lon": 77.605897,
      "tags": {
        "addr:district": "Bengaluru Urban",
        "addr:full": "KEB Colony, Bengaluru",
        "addr:postcode": "560029",
        "addr:state": "Karnataka",
        "amenity": "clinic",
        "healthcare": "clinic",
        "name": "Kareem ENT",
        "source": "Local Knowledge"
      }
    },
    {
      "type": "node",
      "id": 7579924764,
      "lat": 12.928795,
      "lon": 77.609192,
      "tags": {
        "addr:district": "Bengaluru Urban",
        "addr:full": "Thavarekere Main Road, Bengaluru",
        "addr:postcode": "560029",
        "addr:state": "Karnataka",
        "amenity": "dentist",
        "name": "Vinayaka Sai Dental Clinic",
        "source": "Local Knowledge"
      }
    },
    {
      "type": "node",
      "id": 7579924765,
      "lat": 12.9221202,
      "lon": 77.610766,
      "tags": {
        "addr:district": "Bengaluru Urban",
        "addr:full": "Madiwala, Bengaluru",
        "addr:postcode": "560068",
        "addr:state": "Karnataka",
        "amenity": "clinic",
        "healthcare": "clinic",
        "name": "Sri Jyoti Eye Clinic",
        "source": "Local Knowledge"
      }
    },
    {
      "type": "node",
      "id": 7579924766,
      "lat": 12.9265183,
      "lon": 77.6090995,
      "tags": {
        "addr:district": "Bengaluru Urban",
        "addr:full": "Brindavan Nagar, S.G. Palya, Bengaluru",
        "addr:postcode": "560029",
        "addr:state": "Karnataka",
        "amenity": "hospital",
        "name": "Health India Hospital",
        "source": "Local Knowledge"
      }
    },
    {
      "type": "node",
      "id": 7579924779,
      "lat": 12.923857,
      "lon": 77.611355,
      "tags": {
        "addr:district": "Bengaluru Urban",
        "addr:full": "Taverekere, Bengaluru",
        "addr:postcode": "560029",
        "addr:state": "Karnataka",
        "amenity": "hospital",
        "name": "Spurthy Hospital",
        "source": "Local Knowledge"
      }
    },
    {
      "type": "node",
      "id": 7579924781,
      "lat": 12.918036,
      "lon": 77.603516,
      "tags": {
        "addr:district": "Bengaluru Urban",
        "addr:full": "BTM Layout, Bengaluru",
        "addr:postcode": "560029",
        "addr:state": "Karnataka",
        "amenity": "clinic",
        "healthcare": "clinic",
        "name": "Ayesha Speciality Clinic",
        "source": "Local Knowledge"
      }
    },
    {
      "type": "node",
      "id": 8559578719,
      "lat": 12.9263406,
      "lon": 77.6037971,
      "tags": {
        "addr:postcode": "560030",
        "addr:street": "F cross, Bismillah Nagar , Bannerghatta Road, Bangalore",
        "amenity": "school",
        "name": "Lilly Rose English High School"
      }
    },
    {
      "type": "node",
      "id": 10009959427,
      "lat": 12.925489,
      "lon": 77.6050963,
      "tags": {
        "changing_table": "no",
        "name": "TestApp",
        "shop": "electronics",
        "toilets:access": "yes",
        "toilets:wheelchair": "no",
        "wheelchair": "no"
      }
    },
    {
      "type": "node",
      "id": 10293629606,
      "lat": 12.9231483,
      "lon": 77.5984338,
      "tags": {
        "access": "yes",
        "amenity": "toilets"
      }
    },
    {
      "type": "node",
      "id": 10293686911,
      "lat": 12.9203767,
      "lon": 77.5971434,
      "tags": {
        "amenity": "bank",
        "atm": "yes",
        "brand": "Punjab & Sind Bank",
        "brand:en": "Punjab & Sind Bank",
        "brand:hi": "पंजाब एण्ड सिंध बैंक",
        "brand:wikidata": "Q2003302",
        "name": "Punjab & Sind Bank",
        "name:en": "Punjab & Sind Bank",
        "name:hi": "पंजाब एण्ड सिंध बैंक",
        "operator": "Punjab & Sind Bank"
      }
    },
    {
      "type": "node",
      "id": 10895986054,
      "lat": 12.9340175,
      "lon": 77.6073173,
      "tags": {
        "access": "yes",
        "amenity": "toilets",
        "fee": "yes",
        "operator": "ಬೃಹತ್ ಬೆಂಗಳೂರು ಮಹಾನಗರ ಪಾಲಿಕೆ",
        "operator:en": "Bruhat Bengaluru Mahanagara Palike",
        "operator:ka": "ಬೃಹತ್ ಬೆಂಗಳೂರು ಮಹಾನಗರ ಪಾಲಿಕೆ",
        "operator:short": "BBMP",
        "operator:wikidata": "Q4978693"
      }
    },
    {
      "type": "node",
      "id": 11013472860,
      "lat": 12.9244226,
      "lon": 77.5973974,
      "tags": {
        "amenity": "community_centre",
        "name": "Samudaya Bhavan",
        "name:kn": "ಸಮುದಾಯ ಭವನ"
      }
    },
    {
      "type": "node",
      "id": 11013472861,
      "lat": 12.9243354,
      "lon": 77.5973974,
      "tags": {
        "amenity": "place_of_worship",
        "name": "Kaurmariyamma temple",
        "religion": "hindu"
      }
    },
    {
      "type": "node",
      "id": 11013472862,
      "lat": 12.924161,
      "lon": 77.5971697,
      "tags": {
        "amenity": "pharmacy",
        "healthcare": "pharmacy",
        "name": "Leaf pharma"
      }
    },
    {
      "type": "node",
      "id": 11126552283,
      "lat": 12.9242018,
      "lon": 77.598808,
      "tags": {
        "amenity": "car_wash"
      }
    },
    {
      "type": "node",
      "id": 11126563764,
      "lat": 12.9237169,
      "lon": 77.5988844,
      "tags": {
        "shop": "car_repair"
      }
    },
    {
      "type": "node",
      "id": 11294646350,
      "lat": 12.9243224,
      "lon": 77.5951283,
      "tags": {
        "amenity": "kindergarten",
        "name": "Sudarshan Vidya Mandir Pre Primary School"
      }
    },
    {
      "type": "node",
      "id": 11296933565,
      "lat": 12.9273812,
      "lon": 77.6001621,
      "tags": {
        "amenity": "theatre",
        "name": "Mother Veronica Auditorium"
      }
    },
    {
      "type": "node",
      "id": 11475762991,
      "lat": 12.9265197,
      "lon": 77.6006498,
      "tags": {
        "amenity": "bank",
        "atm": "yes",
        "brand": "HDFC Bank",
        "brand:wikidata": "Q631047",
        "name": "HDFC Bank",
        "name:kn": "ಎಚ್ ಡಿ ಎಫ್ ಸಿ",
        "short_name": "HDFC"
      }
    },
    {
      "type": "node",
      "id": 12020097499,
      "lat": 12.9241254,
      "lon": 77.6043409,
      "tags": {
        "addr:city": "Bangalore",
        "addr:postcode": "560029",
        "addr:street": "7th Cross Road",
        "amenity": "place_of_worship",
        "denomination": "sunni",
        "name": "Masjid e Munawara",
        "religion": "muslim"
      }
    },
    {
      "type": "node",
      "id": 12161830069,
      "lat": 12.9208893,
      "lon": 77.5971712,
      "tags": {
        "contact:email": "info@i-print.in",
        "contact:mobile": "+91-97434-20444;+91-98454-48001;+91-80-4147-2255",
        "name": "i-Print",
        "shop": "printing"
      }
    },
    {
      "type": "node",
      "id": 12161830085,
      "lat": 12.9207582,
      "lon": 77.5967675,
      "tags": {
        "amenity": "drinking_water",
        "indoor": "yes"
      }
    },
    {
      "type": "node",
      "id": 12161830093,
      "lat": 12.9204166,
      "lon": 77.5972503,
      "tags": {
        "amenity": "atm",
        "brand": "Punjab & Sind Bank",
        "brand:en": "Punjab & Sind Bank",
        "brand:hi": "पंजाब एण्ड सिंध बैंक",
        "brand:wikidata": "Q2003302",
        "level": "0",
        "name": "Punjab & Sind Bank",
        "name:en": "Punjab & Sind Bank",
        "name:hi": "पंजाब एण्ड सिंध बैंक",
        "operator": "Punjab & Sind Bank",
        "operator:wikidata": "Q2003302"
      }
    },
    {
      "type": "node",
      "id": 12161877005,
      "lat": 12.920204,
      "lon": 77.597169,
      "tags": {
        "addr:block": "9",
        "addr:city": "Bangalore",
        "addr:housenumber": "1588/42",
        "addr:place": "Jayanagar",
        "addr:postcode": "560069",
        "addr:street": "East End Main Road",
        "name": "Khan Motors",
        "note": "\"Advisor for sellers and buyers of all kinds of two and four wheelers.\"",
        "second_hand": "only",
        "shop": "car"
      }
    },
    {
      "type": "node",
      "id": 12252356228,
      "lat": 12.9255563,
      "lon": 77.5952012,
      "tags": {
        "check_date": "2024-10-15",
        "contact:instagram": "junysbakehouse",
        "delivery": "only",
        "name": "Juny's Bakehouse",
        "shop": "pastry",
        "takeaway": "only"
      }
    },
    {
      "type": "node",
      "id": 12717562301,
      "lat": 12.9266801,
      "lon": 77.6088941,
      "tags": {
        "addr:street": "Tavarekere Main Road",
        "name": "The Green Fruits",
        "shop": "grocery"
      }
    },
    {
      "type": "node",
      "id": 13103315636,
      "lat": 12.9308506,
      "lon": 77.6065375,
      "tags": {
        "amenity": "cafe",
        "cuisine": "coffee_shop;tea;indian",
        "name": "Malabar Cafe"
      }
    },
    {
      "type": "way",
      "id": 32426424,
      "center": {
        "lat": 12.9210822,
        "lon": 77.5962995
      },
      "tags": {
        "amenity": "college",
        "name": "ME & WA College"
      }
    },
    {
      "type": "way",
      "id": 38774082,
      "center": {
        "lat": 12.9337333,
        "lon": 77.6051298
      },
      "tags": {
        "amenity": "university",
        "name": "Christ University",
        "name:kn": "ಕ್ರಿಸ್ತ ವಿಶ್ವವಿದ್ಯಾಲಯ",
        "name:ta": "கிறிஸ்ட் பல்கலைக்கழகம்",
        "old_name": "Christ College",
        "start_date": "1969",
        "website": "https://christuniversity.in/",
        "wikidata": "Q5108941",
        "wikipedia": "en:Christ University"
      }
    },
    {
      "type": "way",
      "id": 40631636,
      "center": {
        "lat": 12.9268815,
        "lon": 77.5996431
      },
      "tags": {
        "addr:street": "Bannerghatta Road",
        "amenity": "college",
        "landuse": "education",
        "name": "Carmel Convent PU College",
        "name:en": "Carmel Convent PU College",
        "name:kn": "ಕಾರ್ಮೆಲ್ ಕಾನ್ವೆಂಟ್"
      }
    },
    {
      "type": "way",
      "id": 40631651,
      "center": {
        "lat": 12.9251084,
        "lon": 77.5957927
      },
      "tags": {
        "leisure": "park"
      }
    },
    {
      "type": "way",
      "id": 40631652,
      "center": {
        "lat": 12.9251027,
        "lon": 77.594732
      },
      "tags": {
        "leisure": "park",
        "name": "Vishnuvardhan Park",
        "name:kn": "ವಿಷ್ಣುವರ್ಧನ ಉದ್ಯಾನವನ"
      }
    },
    {
      "type": "way",
      "id": 40678727,
      "center": {
        "lat": 12.9185194,
        "lon": 77.599254
      },
      "tags": {
        "addr:district": "Bengaluru Urban",
        "addr:full": "Jayanagar 9Th Block, B.G. Road, Banglore",
        "addr:postcode": "560041",
        "addr:state": "Karnataka",
        "addr:street": "Bannerghatta Road",
        "amenity": "hospital",
        "emergency": "yes",
        "healthcare": "hospital",
        "healthcare:speciality": "cardiology",
        "name": "Sri Jayadeva Institute Of Cardiology",
        "name:kn": "ಜಯದೇವ ಹೃದ್ರೋಗ ಸಂಸ್ಥೆ",
        "name:ta": "ஸ்ரீ ஜெயதேவா இருதய மருத்துவமனை",
        "source": "OpenGovernmentData"
      }
    },
    {
      "type": "way",
      "id": 131608822,
      "center": {
        "lat": 12.9313367,
        "lon": 77.6028731
      },
      "tags": {
        "addr:city": "Bangalore",
        "addr:housenumber": "St. Thomas Parish Hall",
        "addr:postcode": "560029",
        "addr:street": "Christ School Road, SaddaguntePalya, Dairy Circle",
        "amenity": "community_centre",
        "building": "yes",
        "name": "St. Thomas Parish Hall",
        "name:kn": "ಸೇಂಟ್ ತೋಮಸ್ ಭವನ"
      }
    },
    {
      "type": "way",
      "id": 131608823,
      "center": {
        "lat": 12.9313556,
        "lon": 77.6020313
      },
      "tags": {
        "amenity": "community_centre",
        "building": "yes",
        "name": "Chandrodaya",
        "name:kn": "ಚಂದ್ರೋದಯ"
      }
    },
    {
      "type": "way",
      "id": 131608824,
      "center": {
        "lat": 12.9314529,
        "lon": 77.6017526
      },
      "tags": {
        "addr:city": "Bengaluru",
        "addr:housenumber": "39",
        "addr:postcode": "560029",
        "addr:street": "Bannerghatta Rd, Bhavani Nagar, Hombegowda Nagar",
        "alt_name": "Chandrodaya Convention Center",
        "amenity": "community_centre",
        "building": "yes",
        "name": "Chandrodaya",
        "name:kn": "ಅರುಣೋದಯ"
      }
    },
    {
      "type": "way",
      "id": 131610640,
      "center": {
        "lat": 12.9288628,
        "lon": 77.5955361
      },
      "tags": {
        "amenity": "place_of_worship",
        "denomination": "sunni",
        "religion": "muslim"
      }
    },
    {
      "type": "way",
      "id": 131610643,
      "center": {
        "lat": 12.9318533,
        "lon": 77.6017138
      },
      "tags": {
        "amenity": "office",
        "building": "office",
        "name": "Adobe India",
        "name:kn": "ಅಡೋಬಿ ಇಂಡ್ಯ"
      }
    },
    {
      "type": "way",
      "id": 131610644,
      "center": {
        "lat": 12.9286346,
        "lon": 77.6025375
      },
      "tags": {
        "leisure": "park",
        "name": "BBMP Thavarkere Park",
        "name:kn": "ತಾವರೆಕೆರೆ ಉದ್ಯಾನವನ",
        "operator": "ಬೃಹತ್ ಬೆಂಗಳೂರು ಮಹಾನಗರ ಪಾಲಿಕೆ",
        "operator:en": "Bruhat Bengaluru Mahanagara Palike",
        "operator:ka": "ಬೃಹತ್ ಬೆಂಗಳೂರು ಮಹಾನಗರ ಪಾಲಿಕೆ",
        "operator:short": "BBMP",
        "operator:type": "government",
        "operator:wikidata": "Q4978693"
      }
    },
    {
      "type": "way",
      "id": 133179621,
      "center": {
        "lat": 12.9318731,
        "lon": 77.6076887
      },
      "tags": {
        "addr:street": "8th Cross",
        "amenity": "cinema",
        "building": "yes",
        "name": "Srinivasa Theatre, SG palaya",
        "name:kn": "ಶ್ರೀನಿವಾಸ"
      }
    },
    {
      "type": "way",
      "id": 133256306,
      "center": {
        "lat": 12.9301392,
        "lon": 77.6012683
      },
      "tags": {
        "addr:city": "Bangalore",
        "addr:housename": "39/3 &44 SR Krishnappa Garden",
        "addr:housenumber": "Hombegowda Nagar",
        "addr:postcode": "560029",
        "addr:street": "Bannerghatta Road",
        "brand": "Spar",
        "brand:wikidata": "Q610492",
        "building": "yes",
        "landuse": "commercial",
        "layer": "-1",
        "name": "Spar",
        "name:kn": "ಸ್ಪಾರ್",
        "organic": "yes",
        "shop": "supermarket",
        "website": "https://www.sparindia.com/"
      }
    },
    {
      "type": "way",
      "id": 133524191,
      "center": {
        "lat": 12.9313292,
        "lon": 77.6021955
      },
      "tags": {
        "amenity": "community_centre",
        "building": "yes",
        "name": "Suryodhaya",
        "name:kn": "ಸುರ್ಯೋದಯ"
      }
    },
    {
      "type": "way",
      "id": 134032583,
      "center": {
        "lat": 12.9305539,
        "lon": 77.6102858
      },
      "tags": {
        "amenity": "office",
        "building": "office",
        "name": "Oracle",
        "name:kn": "ಒರೇಕಲ್"
      }
    },
    {
      "type": "way",
      "id": 134042991,
      "center": {
        "lat": 12.9252285,
        "lon": 77.6076159
      },
      "tags": {
        "amenity": "cinema",
        "name": "Lakshmi Theatre",
        "name:kn": "ಲಕ್ಷ್ಮೀ"
      }
    },
    {
      "type": "way",
      "id": 157837663,
      "center": {
        "lat": 12.9326684,
        "lon": 77.6049886
      },
      "tags": {
        "addr:city": "Bangalore",
        "addr:postcode": "560029",
        "addr:street": "Dharmaram Vidya Kshetram, Dairy Circle,Dharmarm College PO, Bangalore 560029, Hosur Rd, DVK Rd, Bhavani Nagar, S.G. Palya",
        "amenity": "library",
        "building": "yes",
        "name": "DVK Central Library"
      }
    },
    {
      "type": "way",
      "id": 197122158,
      "center": {
        "lat": 12.9315321,
        "lon": 77.6053257
      },
      "tags": {
        "amenity": "cafe",
        "building": "yes",
        "name": "Cafeteria"
      }
    },
    {
      "type": "way",
      "id": 197122161,
      "center": {
        "lat": 12.9338255,
        "lon": 77.6042365
      },
      "tags": {
        "amenity": "parking"
      }
    },
    {
      "type": "way",
      "id": 239738394,
      "center": {
        "lat": 12.9357539,
        "lon": 77.6001395
      },
      "tags": {
        "amenity": "college",
        "name": "Government Technical Industrial Institute"
      }
    },
    {
      "type": "way",
      "id": 239738396,
      "center": {
        "lat": 12.9331301,
        "lon": 77.5980883
      },
      "tags": {
        "amenity": "college",
        "name": "Fire Service Campus",
        "name:kn": "ಅಗ್ನಿ ಸೇವಾ ಆವರಣ"
      }
    },
    {
      "type": "way",
      "id": 345363762,
      "center": {
        "lat": 12.9331522,
        "lon": 77.6057992
      },
      "tags": {
        "leisure": "pitch",
        "sport": "soccer"
      }
    },
    {
      "type": "way",
      "id": 345363764,
      "center": {
        "lat": 12.9346675,
        "lon": 77.6063589
      },
      "tags": {
        "leisure": "pitch",
        "sport": "basketball"
      }
    },
    {
      "type": "way",
      "id": 347209599,
      "center": {
        "lat": 12.9259714,
        "lon": 77.5987129
      },
      "tags": {
        "addr:city": "Bangalore",
        "addr:postcode": "560041",
        "amenity": "community_centre",
        "building": "yes",
        "building:levels": "1",
        "community_centre": "events_centre",
        "name": "Kashmir Bhavan",
        "name:kn": "ಕಾಶ್ಮೀರ ಭವನ"
      }
    },
    {
      "type": "way",
      "id": 347482780,
      "center": {
        "lat": 12.9307596,
        "lon": 77.6030109
      },
      "tags": {
        "amenity": "restaurant",
        "building": "yes",
        "building:levels": "1",
        "name": "Hotel delight"
      }
    },
    {
      "type": "way",
      "id": 347482919,
      "center": {
        "lat": 12.9295624,
        "lon": 77.6031531
      },
      "tags": {
        "addr:city": "Bengaluru",
        "addr:street": "Christ School Road",
        "amenity": "cafe",
        "building": "yes",
        "cuisine": "regional;teax-mex",
        "internet_access": "wlan",
        "name": "juice magic"
      }
    },
    {
      "type": "way",
      "id": 347484379,
      "center": {
        "lat": 12.9310555,
        "lon": 77.600919
      },
      "tags": {
        "addr:city": "Bangalore",
        "addr:housenumber": "#10, Bhavani Layout",
        "addr:postcode": "560029",
        "addr:street": "Bannerghatta Road",
        "amenity": "cafe",
        "building": "commercial",
        "cuisine": "international",
        "internet_access": "yes",
        "name": "Savoury - Sea Shell Restaurant",
        "opening_hours": "24/7",
        "smoking": "isolated"
      }
    },
    {
      "type": "way",
      "id": 347488024,
      "center": {
        "lat": 12.9288456,
        "lon": 77.5971454
      },
      "tags": {
        "addr:city": "Bengaluru",
        "addr:postcode": "560029",
        "addr:street": "SR Krishnappa Garden, Hombegowda Nagar,",
        "amenity": "place_of_worship",
        "building": "yes",
        "denomination": "sunni",
        "name": "Masjid-e-Husna",
        "name:kn": "ಮಸ್ಜಿದ್ ಎ ಹುಸ್ನ",
        "religion": "muslim"
      }
    },
    {
      "type": "way",
      "id": 347520080,
      "center": {
        "lat": 12.9256655,
        "lon": 77.6001167
      },
      "tags": {
        "amenity": "fuel",
        "brand": "Bharat Petroleum",
        "brand:wikidata": "Q854826",
        "name": "Bharat Petroleum",
        "name:en": "Bharat Petroleum",
        "name:kn": "ಭಾರತ ಪೆಟ್ರೋಲಿಯಂ"
      }
    },
    {
      "type": "way",
      "id": 348197609,
      "center": {
        "lat": 12.9204387,
        "lon": 77.6087266
      },
      "tags": {
        "amenity": "place_of_worship",
        "building": "yes",
        "name": "Madeena Masjid",
        "name:kn": "ಮದೀನ ಮಸ್ಜಿದ್",
        "religion": "muslim"
      }
    },
    {
      "type": "way",
      "id": 349513455,
      "center": {
        "lat": 12.9208583,
        "lon": 77.5990246
      },
      "tags": {
        "addr:city": "Bangalore",
        "addr:postcode": "560076",
        "amenity": "place_of_worship",
        "denomination": "sunni",
        "name": "Masjid-e-eidgah Bilal",
        "name:kn": "ಮಸ್ಜೀದ್ ಎ ಬಿಲಾಲ್",
        "religion": "muslim"
      }
    },
    {
      "type": "way",
      "id": 362886442,
      "center": {
        "lat": 12.9207334,
        "lon": 77.607243
      },
      "tags": {
        "leisure": "park",
        "name": "Maruthi Layout Park"
      }
    },
    {
      "type": "way",
      "id": 442048030,
      "center": {
        "lat": 12.9279005,
        "lon": 77.5998446
      },
      "tags": {
        "addr:district": "Bengaluru Urban",
        "addr:full": "#44, 54, 30th Cross Rd, Bannerughatta Approach Road Layout, 4th T Block East, Tilak Nagar, Jayanagar,",
        "addr:postcode": "560041",
        "addr:state": "Karnataka",
        "amenity": "hospital",
        "email": "infojnr@sagarhospitals.in",
        "emergency": "yes",
        "healthcare": "hospital",
        "name": "Sagar Hospitals",
        "name:kn": "ಸಾಗರ್ ಆಸ್ಪತ್ರೆ",
        "operator:type": "private",
        "phone": "08042888888",
        "source": "OpenGovernmentData",
        "website": "http://www.sagarhospitals.in/"
      }
    },
    {
      "type": "way",
      "id": 514073933,
      "center": {
        "lat": 12.9312257,
        "lon": 77.6040464
      },
      "tags": {
        "addr:place": "Suddagunte Palya",
        "alt_name": "Christha Vidyalaya Suddagunte Palya",
        "amenity": "school",
        "isced:level": "2",
        "name": "Christ School CBSE",
        "name:kn": "ಕ್ರಿಸ್ತ ವಿದ್ಯಾಲಯ ಸುದ್ದಗುಂಟೆ ಪಾಳ್ಯ",
        "operator": "Department of Education",
        "school": "primary",
        "wheelchair": "no"
      }
    },
    {
      "type": "way",
      "id": 514073938,
      "center": {
        "lat": 12.9313293,
        "lon": 77.6033131
      },
      "tags": {
        "amenity": "place_of_worship",
        "building": "church",
        "name": "St. Thomas Forane Church",
        "name:kn": "ಸೇಂಟ್ ಥೋಮಸ್ ಚರ್ಚ್",
        "religion": "christian"
      }
    },
    {
      "type": "way",
      "id": 581851110,
      "center": {
        "lat": 12.9251058,
        "lon": 77.6010535
      },
      "tags": {
        "addr:city": "Bangalore",
        "addr:housenumber": "12",
        "addr:postcode": "560029",
        "addr:street": "Bannerghatta Road",
        "amenity": "place_of_worship",
        "building": "temple",
        "name": "Subramanya Swamy Temple",
        "name:kn": "ಸುಬ್ರಮಣ್ಯ ಸ್ವಾಮಿ ದೇವಸ್ಥಾನ",
        "religion": "hindu"
      }
    },
    {
      "type": "way",
      "id": 585820761,
      "center": {
        "lat": 12.9325791,
        "lon": 77.6018233
      },
      "tags": {
        "leisure": "park",
        "name": "IBC Evacuation area park"
      }
    },
    {
      "type": "way",
      "id": 627077106,
      "center": {
        "lat": 12.9233938,
        "lon": 77.6081731
      },
      "tags": {
        "leisure": "swimming_pool"
      }
    },
    {
      "type": "way",
      "id": 755819914,
      "center": {
        "lat": 12.9244961,
        "lon": 77.5988297
      },
      "tags": {
        "leisure": "park"
      }
    },
    {
      "type": "way",
      "id": 755819915,
      "center": {
        "lat": 12.9251535,
        "lon": 77.5989584
      },
      "tags": {
        "leisure": "park"
      }
    },
    {
      "type": "way",
      "id": 755819916,
      "center": {
        "lat": 12.9259469,
        "lon": 77.5989654
      },
      "tags": {
        "leisure": "park"
      }
    },
    {
      "type": "way",
      "id": 755819917,
      "center": {
        "lat": 12.9239658,
        "lon": 77.5982758
      },
      "tags": {
        "amenity": "grave_yard",
        "religion": "hindu"
      }
    },
    {
      "type": "way",
      "id": 755822416,
      "center": {
        "lat": 12.9260471,
        "lon": 77.5981082
      },
      "tags": {
        "leisure": "park"
      }
    },
    {
      "type": "way",
      "id": 788256779,
      "center": {
        "lat": 12.9337951,
        "lon": 77.600289
      },
      "tags": {
        "amenity": "fire_station",
        "name": "Jayanagara Fire Station",
        "name:kn": "ಫೈರ್ ಅಂಡ್ ತುರ್ತು ಸೇವೆಗಳು ಅಕಾಡೆಮಿ",
        "name:ta": "ஜெயாநகர் தீயணைப்பு நிலையம்"
      }
    },
    {
      "type": "way",
      "id": 1085952669,
      "center": {
        "lat": 12.9208561,
        "lon": 77.5996654
      },
      "tags": {
        "amenity": "place_of_worship",
        "religion": "muslim"
      }
    },
    {
      "type": "way",
      "id": 1125669868,
      "center": {
        "lat": 12.9213587,
        "lon": 77.5955111
      },
      "tags": {
        "leisure": "park"
      }
    },
    {
      "type": "way",
      "id": 1141414942,
      "center": {
        "lat": 12.9189955,
        "lon": 77.6032376
      },
      "tags": {
        "leisure": "park"
      }
    },
    {
      "type": "way",
      "id": 1141414944,
      "center": {
        "lat": 12.9187229,
        "lon": 77.5985354
      },
      "tags": {
        "leisure": "park"
      }
    },
    {
      "type": "way",
      "id": 1148279217,
      "center": {
        "lat": 12.9328248,
        "lon": 77.6063946
      },
      "tags": {
        "leisure": "garden"
      }
    },
    {
      "type": "way",
      "id": 1148279219,
      "center": {
        "lat": 12.9321536,
        "lon": 77.6063926
      },
      "tags": {
        "leisure": "garden"
      }
    },
    {
      "type": "way",
      "id": 1160859548,
      "center": {
        "lat": 12.9315791,
        "lon": 77.6117802
      },
      "tags": {
        "amenity": "monastery",
        "denomination": "catholic",
        "landuse": "religious",
        "name": "Augustine Nivas",
        "religion": "christian"
      }
    },
    {
      "type": "way",
      "id": 1199655576,
      "center": {
        "lat": 12.9267471,
        "lon": 77.596997
      },
      "tags": {
        "amenity": "bank",
        "atm": "yes",
        "brand": "Bank of Baroda",
        "brand:wikidata": "Q2003797",
        "brand:wikipedia": "en:Bank of Baroda",
        "name": "Bank of Baroda",
        "name:en": "Bank of Baroda",
        "name:kn": "ಬ್ಯಾಂಕ್ ಆಫ್ ಬರೊಡಾ",
        "short_name": "BOB",
        "website": "http://www.bankofbaroda.com"
      }
    },
    {
      "type": "way",
      "id": 1199657418,
      "center": {
        "lat": 12.9252406,
        "lon": 77.5961825
      },
      "tags": {
        "name": "Nandini",
        "name:kn": "ನಂದಿನಿ",
        "shop": "dairy"
      }
    },
    {
      "type": "way",
      "id": 1199657419,
      "center": {
        "lat": 12.925006,
        "lon": 77.5953767
      },
      "tags": {
        "amenity": "toilets",
        "fee": "yes"
      }
    },
    {
      "type": "way",
      "id": 1219030819,
      "center": {
        "lat": 12.9306937,
        "lon": 77.6107959
      },
      "tags": {
        "access": "private",
        "amenity": "parking"
      }
    },
    {
      "type": "way",
      "id": 1219030820,
      "center": {
        "lat": 12.9304258,
        "lon": 77.6109431
      },
      "tags": {
        "access": "private",
        "leisure": "park"
      }
    },
    {
      "type": "way",
      "id": 1219030821,
      "center": {
        "lat": 12.9305404,
        "lon": 77.6110871
      },
      "tags": {
        "access": "private",
        "amenity": "parking"
      }
    },
    {
      "type": "way",
      "id": 1219030822,
      "center": {
        "lat": 12.9300572,
        "lon": 77.6115421
      },
      "tags": {
        "access": "private",
        "amenity": "parking"
      }
    },
    {
      "type": "way",
      "id": 1219030823,
      "center": {
        "lat": 12.929951,
        "lon": 77.6107502
      },
      "tags": {
        "access": "private",
        "amenity": "parking"
      }
    },
    {
      "type": "way",
      "id": 1219030824,
      "center": {
        "lat": 12.9286314,
        "lon": 77.6114439
      },
      "tags": {
        "access": "private",
        "leisure": "pitch",
        "sport": "basketball"
      }
    },
    {
      "type": "way",
      "id": 1219030826,
      "center": {
        "lat": 12.929375,
        "lon": 77.6103938
      },
      "tags": {
        "leisure": "playground"
      }
    },
    {
      "type": "way",
      "id": 1219030827,
      "center": {
        "lat": 12.9297306,
        "lon": 77.6109174
      },
      "tags": {
        "access": "private",
        "leisure": "park"
      }
    },
    {
      "type": "way",
      "id": 1219030828,
      "center": {
        "lat": 12.9294989,
        "lon": 77.6110888
      },
      "tags": {
        "access": "private",
        "amenity": "parking",
        "parking": "surface"
      }
    },
    {
      "type": "way",
      "id": 1219030830,
      "center": {
        "lat": 12.9295685,
        "lon": 77.6112926
      },
      "tags": {
        "access": "no",
        "leisure": "swimming_pool"
      }
    },
    {
      "type": "way",
      "id": 1219030831,
      "center": {
        "lat": 12.9299776,
        "lon": 77.6102008
      },
      "tags": {
        "access": "private",
        "leisure": "pitch",
        "sport": "tennis"
      }
    },
    {
      "type": "way",
      "id": 1219030832,
      "center": {
        "lat": 12.9301428,
        "lon": 77.6100962
      },
      "tags": {
        "access": "private",
        "amenity": "parking",
        "name": "Visitor Parking",
        "name:kn": "ವಿಮಾನ ನಿಲ್ದಾಣ"
      }
    },
    {
      "type": "way",
      "id": 1242193135,
      "center": {
        "lat": 12.9276043,
        "lon": 77.6060605
      },
      "tags": {
        "amenity": "monastery",
        "name": "Assisi Bhavan",
        "religion": "christian"
      }
    },
    {
      "type": "way",
      "id": 1242193137,
      "center": {
        "lat": 12.9277218,
        "lon": 77.6052339
      },
      "tags": {
        "alt_name": "St. Camillus Study House",
        "amenity": "monastery",
        "name": "Upasana",
        "religion": "christian"
      }
    },
    {
      "type": "way",
      "id": 1242193138,
      "center": {
        "lat": 12.9309587,
        "lon": 77.6040416
      },
      "tags": {
        "leisure": "pitch",
        "sport": "basketball"
      }
    },
    {
      "type": "way",
      "id": 1242193141,
      "center": {
        "lat": 12.9284937,
        "lon": 77.6070364
      },
      "tags": {
        "addr:place": "Lakkasandra",
        "amenity": "school",
        "isced:level": "3",
        "name": "Christ School S G Palya, Lakkasandra",
        "name:kn": "ಕ್ರೈಸ್ಟ್ ಶಾಲೆ,ಎಸ್ ಜಿ ಪಲ್ಯ, ಲಕ್ಕಸಂದ್ರ",
        "operator": "Private Un-Aided",
        "school": "Higher Secondary"
      }
    },
    {
      "type": "way",
      "id": 1242193142,
      "center": {
        "lat": 12.9300972,
        "lon": 77.6061825
      },
      "tags": {
        "amenity": "monastery",
        "denomination": "catholic",
        "landuse": "religious",
        "name": "Alphonsa Bhavan",
        "religion": "christian"
      }
    },
    {
      "type": "way",
      "id": 1242193146,
      "center": {
        "lat": 12.9286636,
        "lon": 77.6048038
      },
      "tags": {
        "amenity": "school",
        "name": "Christ Special School"
      }
    },
    {
      "type": "way",
      "id": 1242193149,
      "center": {
        "lat": 12.9289837,
        "lon": 77.6055212
      },
      "tags": {
        "addr:suburb": "Lakkasandra",
        "alt_name": "Christha Vidyalaya HS, Lakkasandra",
        "amenity": "school",
        "isced:level": "3",
        "name": "Christ School ICSE",
        "name:kn": "ಕ್ರಿಸ್ತ ವಿದ್ಯಾಲಯ ಪ್ರೌಢಶಾಲೆ, ಲಕ್ಕಸಂದ್ರ",
        "operator": "Pvt. Unaided",
        "school": "Higher Secondary"
      }
    },
    {
      "type": "way",
      "id": 1242193155,
      "center": {
        "lat": 12.935714,
        "lon": 77.6026979
      },
      "tags": {
        "alt_name": "Dharmaram College",
        "amenity": "university",
        "name": "Dharmaram Vidya Kshetra",
        "name:kn": "ಧರ್ಮಾರಂ ವಿದ್ಯಾಕ್ಷೇತ್ರ",
        "wikidata": "Q5269317",
        "wikipedia": "en:Dharmaram College"
      }
    },
    {
      "type": "way",
      "id": 1242203373,
      "center": {
        "lat": 12.9196286,
        "lon": 77.5993316
      },
      "tags": {
        "access": "permissive",
        "amenity": "parking",
        "parking": "surface"
      }
    },
    {
      "type": "way",
      "id": 1242203386,
      "center": {
        "lat": 12.9264705,
        "lon": 77.5978168
      },
      "tags": {
        "addr:street": "Bannerghatta Road",
        "amenity": "school",
        "landuse": "education",
        "name": "Lourdes Convent School"
      }
    },
    {
      "type": "way",
      "id": 1242203388,
      "center": {
        "lat": 12.9272459,
        "lon": 77.5980996
      },
      "tags": {
        "addr:street": "Bannerghatta Road",
        "amenity": "school",
        "landuse": "education",
        "name": "Carmel Convent School",
        "name:kn": "ಕಾರ್ಮೆಲ್ ಕಾನ್ವೆಂಟ್ ಶಾಲೆ"
      }
    },
    {
      "type": "way",
      "id": 1242203390,
      "center": {
        "lat": 12.9286828,
        "lon": 77.6018722
      },
      "tags": {
        "leisure": "playground"
      }
    },
    {
      "type": "way",
      "id": 1242203393,
      "center": {
        "lat": 12.9311623,
        "lon": 77.5976836
      },
      "tags": {
        "leisure": "park"
      }
    },
    {
      "type": "way",
      "id": 1242203428,
      "center": {
        "lat": 12.9304914,
        "lon": 77.5954162
      },
      "tags": {
        "leisure": "park",
        "name": "Byrasandra Lake Park"
      }
    },
    {
      "type": "way",
      "id": 1274548649,
      "center": {
        "lat": 12.9213761,
        "lon": 77.6004341
      },
      "tags": {
        "amenity": "fuel",
        "brand": "Totalgaz",
        "fuel:cng": "yes",
        "name": "Totalgaz"
      }
    },
    {
      "type": "way",
      "id": 1274548654,
      "center": {
        "lat": 12.9268126,
        "lon": 77.600711
      },
      "tags": {
        "amenity": "fuel",
        "name": "Go Gas",
        "name:en": "Go Gas"
      }
    },
    {
      "type": "way",
      "id": 1274548656,
      "center": {
        "lat": 12.9271233,
        "lon": 77.6018707
      },
      "tags": {
        "amenity": "college"
      }
    },
    {
      "type": "way",
      "id": 1274548721,
      "center": {
        "lat": 12.9234541,
        "lon": 77.6081387
      },
      "tags": {
        "leisure": "park"
      }
    },
    {
      "type": "way",
      "id": 1274548724,
      "center": {
        "lat": 12.9255943,
        "lon": 77.6077662
      },
      "tags": {
        "amenity": "cinema",
        "name": "Balaji Theatre",
        "name:kn": "ಬಾಲಾಜಿ"
      }
    },
    {
      "type": "way",
      "id": 1313972719,
      "center": {
        "lat": 12.9206935,
        "lon": 77.5967678
      },
      "tags": {
        "addr:block": "9",
        "addr:city": "Bengaluru",
        "addr:parentstreet": "East End Main Road",
        "addr:place": "Jayanagar",
        "addr:postcode": "560069",
        "addr:street": "38th Cross",
        "amenity": "restaurant",
        "building": "yes",
        "building:levels": "2",
        "contact:email": "cafekrishnam1983@gmail.com",
        "contact:mobile": "+91-76768-69139;+91-63611-01075;+91-80884-06229",
        "cuisine": "north_indian;south_indian;chinese",
        "diet:lacto_vegetarian": "yes",
        "diet:vegan": "yes",
        "level": "0",
        "name": "Cafe Krishnam",
        "wheelchair": "no"
      }
    },
    {
      "type": "way",
      "id": 1354228613,
      "center": {
        "lat": 12.9284892,
        "lon": 77.6008072
      },
      "tags": {
        "addr:street": "Bannerghatta Road",
        "amenity": "fuel",
        "brand": "Indian Oil",
        "brand:wikidata": "Q1289348",
        "brand:wikipedia": "en:Indian Oil Corporation",
        "name": "Indian Oil Petrol Bunk",
        "name:kn": "ಇಂಡಿಯನ್ ಆಯಿಲ್",
        "operator": "Indian Oil"
      }
    },
    {
      "type": "way",
      "id": 1390995568,
      "center": {
        "lat": 12.9231956,
        "lon": 77.6015123
      },
      "tags": {
        "access": "private",
        "leisure": "pitch",
        "sport": "tennis"
      }
    },
    {
      "type": "way",
      "id": 1442261830,
      "center": {
        "lat": 12.9252902,
        "lon": 77.61237
      },
      "tags": {
        "addr:place": "Madiwala",
        "amenity": "school",
        "isced:level": "3",
        "name": "Venkateshwara HS, Madiwala W No 66",
        "name:kn": "ವೆಂಕಟೇಶ್ವರ ಪ್ರೌಢಶಾಲೆ,ಮಡಿವಾಳ",
        "operator": "Private Un-Aided",
        "school": "Higher Secondary"
      }
    },
    {
      "type": "way",
      "id": 1442599076,
      "center": {
        "lat": 12.9282374,
        "lon": 77.607007
      },
      "tags": {
        "leisure": "pitch",
        "sport": "basketball"
      }
    }
  ]
}