{
  "area_name": "Brookes Haven Layout",
  "osm_id": 2917077003,
  "osm_type": "node",
  "place_type": "neighbourhood",
  "amenity_count": 57,
  "amenities": [
    {
      "type": "node",
      "id": 1922035929,
      "lat": 12.8773766,
      "lon": 77.5806683,
      "tags": {
        "amenity": "post_office",
        "name": "JP Nagar 8th Phase 560076",
        "operator": "India Post",
        "source": "Bing, Local knowledge"
      }
    },
    {
      "type": "node",
      "id": 4447345728,
      "lat": 12.8725257,
      "lon": 77.5667017,
      "tags": {
        "addr:city": "bangalore",
        "addr:housenumber": "3",
        "addr:postcode": "560062",
        "addr:street": ",shop No 3,sun Complex, Circle, Anjanapura post,&nbsp;J P, Avalahalii, JP Nagar 9th Phase, JP Nagar",
        "name": "Sri Nidhi Medicals",
        "phone": "+9198459 87349",
        "shop": "medical_supply",
        "source": "justdial"
      }
    },
    {
      "type": "node",
      "id": 4489696067,
      "lat": 12.8684675,
      "lon": 77.5755685,
      "tags": {
        "addr:city": "Bangalore",
        "addr:housenumber": "24",
        "addr:postcode": "560076",
        "addr:street": "JP Nagar",
        "phone": "(91)-9980633995",
        "shop": "supermarket"
      }
    },
    {
      "type": "node",
      "id": 4489862219,
      "lat": 12.8654395,
      "lon": 77.579798,
      "tags": {
        "addr:city": "bangaluru",
        "addr:housenumber": "Shop No.5",
        "addr:postcode": "560076",
        "addr:street": ", Byrappa Circle, Jambusavari Dinne, 8th Phase, JP Nagar, Bengaluru, Karnataka",
        "leisure": "sports_centre",
        "name": "Unique Fitness",
        "opening_hours": "6:00-18:00",
        "phone": "\"097401 97997 \"",
        "sport": "gymnasium"
      }
    },
    {
      "type": "node",
      "id": 6348900704,
      "lat": 12.8764315,
      "lon": 77.5786186,
      "tags": {
        "addr:place": "Kothanur",
        "amenity": "school",
        "isced:level": "2",
        "name": "GHPS Kothanur",
        "name:kn": "ಸರ್ಕಾರಿ ಹಿರಿಯ ಪ್ರಾಥಮಿಕ ಶಾಲೆ ಕೊತ್ತನೂರ್",
        "operator": "Department of Education",
        "school": "primary"
      }
    },
    {
      "type": "node",
      "id": 6349178484,
      "lat": 12.8655347,
      "lon": 77.5815146,
      "tags": {
        "addr:place": "Jambusavari Dinne",
        "amenity": "school",
        "isced:level": "2",
        "name": "GHPS Jambusavari Dinne",
        "name:kn": "ಸರ್ಕಾರಿ ಹಿರಿಯ ಪ್ರಾಥಮಿಕ ಶಾಲೆ ಜಂಬುಸವಾರಿ ದಿಣ್ಣೆ",
        "operator": "Department of Education",
        "school": "primary"
      }
    },
    {
      "type": "node",
      "id": 6349580757,
      "lat": 12.8773044,
      "lon": 77.5701079,
      "tags": {
        "addr:place": "Hari Nagar",
        "amenity": "school",
        "isced:level": "2",
        "name": "GKHPS Hari Nagar",
        "name:kn": "ಸರ್ಕಾರಿ ಕನ್ನಡ ಹಿರಿಯ ಪ್ರಾಥಮಿಕ ಶಾಲೆ ಹರಿನಗರ",
        "operator": "Department of Primary and Secondary Education",
        "operator:type": "government",
        "operator:wikidata": "Q111467381",
        "school": "primary"
      }
    },
    {
      "type": "node",
      "id": 6349585531,
      "lat": 12.8779168,
      "lon": 77.5704224,
      "tags": {
        "addr:place": "Hari Nagar",
        "amenity": "school",
        "isced:level": "2",
        "name": "GULPS Hari Nagar",
        "name:kn": "ಸರ್ಕಾರಿ ಉರ್ದು ಪ್ರಾಥಮಿಕ ಶಾಲೆ ಹರಿನಗರ",
        "operator": "Department of Education",
        "school": "primary"
      }
    },
    {
      "type": "node",
      "id": 6536363498,
      "lat": 12.8732088,
      "lon": 77.5744133,
      "tags": {
        "addr:place": "Kothanur",
        "amenity": "school",
        "isced:level": "1",
        "name": "Sri Sarathy English School, Kothanur",
        "name:kn": "ಶ್ರೀ ಸಾರಥಿ ಆಂಗ್ಲ ಶಾಲೆ,ಕೊತ್ತನೂರು",
        "operator": "Private Un-Aided",
        "school": "primary"
      }
    },
    {
      "type": "node",
      "id": 6536364433,
      "lat": 12.8767474,
      "lon": 77.5725941,
      "tags": {
        "addr:place": "Kothanur",
        "amenity": "school",
        "isced:level": "3",
        "name": "Ennar School Aadithya Nagar, Kothanur",
        "name:kn": "ಎನ್ನಾರ್ ಶಾಲೆ ಆದಿತ್ಯ ನಗರ, ಕೊತ್ತನೂರು",
        "operator": "Private Un-Aided",
        "school": "Higher Secondary"
      }
    },
    {
      "type": "node",
      "id": 6536381254,
      "lat": 12.8755011,
      "lon": 77.5806222,
      "tags": {
        "addr:place": "Kothanur",
        "amenity": "school",
        "isced:level": "2",
        "name": "A E T School Sree Annapoornesh, Kothanur",
        "name:kn": "ಎ.ಇ.ಟಿ. ಶಾಲೆ ಶ್ರೀ ಅನ್ನಪೂರ್ಣೇಶ್,ಕೊತ್ತನೂರು",
        "operator": "Private Un-Aided",
        "school": "Higher primary"
      }
    },
    {
      "type": "node",
      "id": 6536406541,
      "lat": 12.8787866,
      "lon": 77.5777581,
      "tags": {
        "addr:place": "Kothanur",
        "amenity": "school",
        "isced:level": "3",
        "name": "Jnanavikas HPS, Kothanur",
        "name:kn": "ಜ್ಞಾನ ವಿಕಾಸ್ ಹಿರಿಯ ಪ್ರಾಥಮಿಕ ಶಾಲೆ, ಕೊತ್ತನೂರು",
        "operator": "Private Un-Aided",
        "school": "Higher Secondary"
      }
    },
    {
      "type": "node",
      "id": 9568556292,
      "lat": 12.8730816,
      "lon": 77.5666726,
      "tags": {
        "addr:city": "Bangalore",
        "addr:postcode": "560062",
        "addr:street": "Amruth Nagar Main Road",
        "name": "Reliance SMART Point",
        "operator": "Reliance",
        "payment:cash": "yes",
        "payment:credit_cards": "yes",
        "payment:debit_cards": "yes",
        "payment:upi": "yes",
        "shop": "supermarket"
      }
    },
    {
      "type": "node",
      "id": 9568586470,
      "lat": 12.873081,
      "lon": 77.5666966,
      "tags": {
        "addr:city": "Bangalore",
        "addr:postcode": "560062",
        "addr:street": "Amruth Nagar Main Road",
        "amenity": "pharmacy",
        "dispensing": "yes",
        "drive_through": "no",
        "healthcare": "pharmacy",
        "name": "Netmeds",
        "operator": "Reliance",
        "website": "https://www.netmeds.com/"
      }
    },
    {
      "type": "node",
      "id": 9568589340,
      "lat": 12.8758414,
      "lon": 77.5684744,
      "tags": {
        "amenity": "fuel",
        "brand": "Indian Oil",
        "brand:wikidata": "Q1289348",
        "compressed_air": "yes",
        "name": "Indian Oil Fuel Station"
      }
    },
    {
      "type": "node",
      "id": 9568597065,
      "lat": 12.8731205,
      "lon": 77.5666746,
      "tags": {
        "addr:city": "Bangalore",
        "addr:postcode": "560062",
        "addr:street": "Amruth Nagar Main Road",
        "amenity": "fast_food",
        "brand": "Domino's",
        "brand:wikidata": "Q839466",
        "brand:wikipedia": "en:Domino's Pizza",
        "cuisine": "pizza",
        "drive_through": "no",
        "name": "Domino's",
        "name:kn": "ಡಾಮಿನೋಸ್",
        "takeaway": "yes",
        "website": "https://pizzaonline.dominos.co.in/"
      }
    },
    {
      "type": "node",
      "id": 9568641748,
      "lat": 12.8677963,
      "lon": 77.5769733,
      "tags": {
        "addr:city": "Bangalore",
        "addr:postcode": "560076",
        "addr:street": "Amruth Nagar Main Road",
        "name": "Reliance SMART Point",
        "operator": "Reliance",
        "shop": "supermarket"
      }
    },
    {
      "type": "node",
      "id": 9568686471,
      "lat": 12.8678116,
      "lon": 77.5770306,
      "tags": {
        "addr:city": "Bangalore",
        "addr:postcode": "560076",
        "addr:street": "Amruth Nagar Main Road",
        "name": "Naturals Unisex Salon & Spa",
        "payment:cash": "yes",
        "payment:credit_cards": "yes",
        "payment:debit_cards": "yes",
        "payment:upi": "yes",
        "shop": "beauty",
        "website": "https://naturals.in"
      }
    },
    {
      "type": "node",
      "id": 9568796528,
      "lat": 12.8726746,
      "lon": 77.5663573,
      "tags": {
        "addr:city": "Bangalore",
        "addr:postcode": "560062",
        "addr:street": "Anjanapura 60 Feet Road",
        "amenity": "pharmacy",
        "dispensing": "yes",
        "drive_through": "no",
        "healthcare": "pharmacy",
        "name": "Best Medical and General Store"
      }
    },
    {
      "type": "node",
      "id": 9577537663,
      "lat": 12.8717049,
      "lon": 77.5738395,
      "tags": {
        "name": "Plant Nursery",
        "shop": "florist"
      }
    },
    {
      "type": "node",
      "id": 9577551017,
      "lat": 12.8741353,
      "lon": 77.570379,
      "tags": {
        "amenity": "fuel",
        "compressed_air": "yes",
        "name": "MRPL Fuel Station"
      }
    },
    {
      "type": "node",
      "id": 9887427429,
      "lat": 12.876303,
      "lon": 77.5670186,
      "tags": {
        "addr:city": "Bengaluru",
        "addr:postcode": "560062",
        "addr:street": "Amruth Nagar Main Road",
        "name": "Kolar Farm Fresh",
        "payment:cash": "yes",
        "payment:debit_cards": "yes",
        "payment:upi": "yes",
        "shop": "greengrocer"
      }
    },
    {
      "type": "node",
      "id": 9925140127,
      "lat": 12.8640503,
      "lon": 77.5733065,
      "tags": {
        "addr:city": "Bengaluru",
        "addr:housenumber": "373",
        "addr:postcode": "560083",
        "addr:street": "2nd Block, JP Nagar 8th Phase",
        "name": "Shivashakti Ply",
        "shop": "hardware"
      }
    },
    {
      "type": "node",
      "id": 9925167938,
      "lat": 12.8641395,
      "lon": 77.5753734,
      "tags": {
        "addr:city": "Bengaluru",
        "addr:postcode": "560083",
        "addr:street": "Royal count 1st phase",
        "name": "Nandini milk store",
        "shop": "dairy"
      }
    },
    {
      "type": "node",
      "id": 11178356426,
      "lat": 12.8735988,
      "lon": 77.5837422,
      "tags": {
        "check_date": "2023-09-09",
        "description": "Since 1959",
        "name": "Sri Jayalakshmi Bakery",
        "opening_hours": "07:30-21:30",
        "payment:mastercard": "yes",
        "payment:visa": "yes",
        "shop": "bakery",
        "wheelchair": "limited"
      }
    },
    {
      "type": "node",
      "id": 12632074325,
      "lat": 12.8714758,
      "lon": 77.576331,
      "tags": {
        "amenity": "restaurant",
        "name": "The Mansion"
      }
    },
    {
      "type": "node",
      "id": 12980126533,
      "lat": 12.8699117,
      "lon": 77.576084,
      "tags": {
        "amenity": "bank",
        "atm": "yes",
        "brand": "HDFC Bank",
        "brand:wikidata": "Q631047",
        "drive_through": "no",
        "name": "HDFC Bank",
        "short_name": "HDFC"
      }
    },
    {
      "type": "node",
      "id": 12984936557,
      "lat": 12.8713439,
      "lon": 77.5831454,
      "tags": {
        "addr:city": "Bengaluru",
        "addr:district": "Bengaluru Urban",
        "addr:postcode": "560076",
        "addr:street": "1st floor, Kothanur Main Rd, next to Royal Public school, Nayak Layout, JP nagar 8th Phase",
        "leisure": "fitness_centre",
        "name": "Fitness hive",
        "opening_hours": "Mo-Sa 05:30-23:00, Mo-Su 06:00-23:00",
        "phone": "+91 9482306515",
        "sport": "fitness;yoga"
      }
    },
    {
      "type": "node",
      "id": 12984944734,
      "lat": 12.8713791,
      "lon": 77.583156,
      "tags": {
        "amenity": "bank",
        "atm": "yes",
        "brand": "Axis Bank",
        "brand:wikidata": "Q2003549",
        "drive_through": "no",
        "name": "Axis Bank",
        "opening_hours": "Mo-Fr 09:30-3:30"
      }
    },
    {
      "type": "node",
      "id": 12992403981,
      "lat": 12.8756037,
      "lon": 77.5688495,
      "tags": {
        "amenity": "restaurant",
        "name": "Sri Vasavi Cafe"
      }
    },
    {
      "type": "node",
      "id": 13119166342,
      "lat": 12.8716311,
      "lon": 77.5834317,
      "tags": {
        "addr:city": "Bengaluru",
        "addr:district": "Bengaluru Urban",
        "addr:housenumber": "7",
        "addr:postcode": "560076",
        "addr:street": "Kothnur Main Road, Krishnanagar, Shreya Colony, Kothnur,  J. P. Nagar 8th Phase, Karnataka",
        "amenity": "bank",
        "atm": "yes",
        "brand": "State Bank of India",
        "brand:wikidata": "Q1340361",
        "drive_through": "no",
        "name": "State Bank of India",
        "opening_hours": "Mo-Sa 09:30-15:30",
        "operator": "SBI",
        "short_name": "SBI"
      }
    },
    {
      "type": "node",
      "id": 13131326933,
      "lat": 12.8720023,
      "lon": 77.5701117,
      "tags": {
        "name": "veggie's lover - Tea, vegetables & groceries",
        "shop": "supermarket"
      }
    },
    {
      "type": "node",
      "id": 13131326934,
      "lat": 12.8715697,
      "lon": 77.5696132,
      "tags": {
        "amenity": "cafe",
        "name": "Tea & cigarette stall"
      }
    },
    {
      "type": "node",
      "id": 13167997469,
      "lat": 12.8737909,
      "lon": 77.5718585,
      "tags": {
        "amenity": "bank",
        "atm": "yes",
        "brand": "Axis Bank",
        "brand:wikidata": "Q2003549",
        "drive_through": "no",
        "name": "Axis Bank"
      }
    },
    {
      "type": "node",
      "id": 13205997044,
      "lat": 12.8715628,
      "lon": 77.5760581,
      "tags": {
        "amenity": "police",
        "operational_status": "needs_maintenance",
        "operator": "Bengaluru Police - Konankunte Beat"
      }
    },
    {
      "type": "node",
      "id": 13259525668,
      "lat": 12.8764048,
      "lon": 77.5755103,
      "tags": {
        "name": "Indian Garage",
        "shop": "motorcycle_repair"
      }
    },
    {
      "type": "node",
      "id": 13259525669,
      "lat": 12.8765224,
      "lon": 77.5750231,
      "tags": {
        "name": "Sri Guruprasanna Enterprises",
        "shop": "mobile_phone_accessories"
      }
    },
    {
      "type": "node",
      "id": 13259525670,
      "lat": 12.8765307,
      "lon": 77.5749621,
      "tags": {
        "name": "Sri mahalakshmi Fancy and gift center",
        "shop": "gift"
      }
    },
    {
      "type": "node",
      "id": 13259525671,
      "lat": 12.8765326,
      "lon": 77.5749168,
      "tags": {
        "name": "Bengaluru Horticulture Flowers, Fruits and Vegetables shop",
        "shop": "greengrocer"
      }
    },
    {
      "type": "node",
      "id": 13259525672,
      "lat": 12.8765388,
      "lon": 77.5748667,
      "tags": {
        "name": "Sri guru Samba Shiva rice traders",
        "shop": "convenience"
      }
    },
    {
      "type": "node",
      "id": 13259525673,
      "lat": 12.8764914,
      "lon": 77.5746366,
      "tags": {
        "name": "Ramdev Departmental Store",
        "shop": "convenience"
      }
    },
    {
      "type": "way",
      "id": 120108572,
      "center": {
        "lat": 12.8682046,
        "lon": 77.5673977
      },
      "tags": {
        "amenity": "school",
        "name": "Gurukul School",
        "name:kn": "ಗುರುಕುಲ"
      }
    },
    {
      "type": "way",
      "id": 455958466,
      "center": {
        "lat": 12.8657411,
        "lon": 77.5814308
      },
      "tags": {
        "amenity": "bus_station",
        "name": "Jambu Savari Dinne Bus Bay"
      }
    },
    {
      "type": "way",
      "id": 1039075120,
      "center": {
        "lat": 12.8727119,
        "lon": 77.5658939
      },
      "tags": {
        "addr:city": "Bangalore",
        "addr:postcode": "560062",
        "addr:street": "Anjanapura 60 Feet Road",
        "amenity": "community_centre",
        "building": "yes",
        "name": "TS Convention Hall"
      }
    },
    {
      "type": "way",
      "id": 1176579524,
      "center": {
        "lat": 12.8775146,
        "lon": 77.5686277
      },
      "tags": {
        "amenity": "school",
        "name": "DPS Bengaluru South, Junior School"
      }
    },
    {
      "type": "way",
      "id": 1328835858,
      "center": {
        "lat": 12.8737977,
        "lon": 77.5797985
      },
      "tags": {
        "leisure": "park"
      }
    },
    {
      "type": "way",
      "id": 1328835873,
      "center": {
        "lat": 12.8744868,
        "lon": 77.5754453
      },
      "tags": {
        "leisure": "park"
      }
    },
    {
      "type": "way",
      "id": 1328835876,
      "center": {
        "lat": 12.8724262,
        "lon": 77.5760129
      },
      "tags": {
        "leisure": "pitch"
      }
    },
    {
      "type": "way",
      "id": 1328835877,
      "center": {
        "lat": 12.8728257,
        "lon": 77.5760771
      },
      "tags": {
        "leisure": "pitch"
      }
    },
    {
      "type": "way",
      "id": 1328835878,
      "center": {
        "lat": 12.8727897,
        "lon": 77.5758253
      },
      "tags": {
        "amenity": "college",
        "name": "RV Institute of Technology and Management"
      }
    },
    {
      "type": "way",
      "id": 1328835914,
      "center": {
        "lat": 12.8714215,
        "lon": 77.5834596
      },
      "tags": {
        "amenity": "fuel",
        "brand": "GAIL",
        "building": "yes",
        "fuel:cng": "yes"
      }
    },
    {
      "type": "way",
      "id": 1328835948,
      "center": {
        "lat": 12.8712521,
        "lon": 77.5834651
      },
      "tags": {
        "amenity": "fuel",
        "brand": "Nayara",
        "brand:wikidata": "Q5399377",
        "fuel:diesel": "yes",
        "fuel:octane_80": "yes",
        "name": "Achyutha Fules - Nayara Petrol"
      }
    },
    {
      "type": "way",
      "id": 1356599513,
      "center": {
        "lat": 12.863864,
        "lon": 77.5779813
      },
      "tags": {
        "amenity": "school",
        "name": "Sri Chaitanya Techno School"
      }
    },
    {
      "type": "way",
      "id": 1432600214,
      "center": {
        "lat": 12.8747914,
        "lon": 77.5763354
      },
      "tags": {
        "amenity": "fuel",
        "brand": "Indian Oil",
        "brand:wikidata": "Q1289348",
        "fuel:diesel": "yes",
        "fuel:octane_80": "yes",
        "fuel:octane_95": "yes",
        "name": "Indian Oil",
        "self_service": "no"
      }
    },
    {
      "type": "way",
      "id": 1432600215,
      "center": {
        "lat": 12.8750716,
        "lon": 77.5701896
      },
      "tags": {
        "amenity": "cinema",
        "building": "yes",
        "name": "Vinayaka Theater",
        "payment:cash": "yes",
        "payment:upi": "yes",
        "screen": "1"
      }
    },
    {
      "type": "way",
      "id": 1432600216,
      "center": {
        "lat": 12.8748536,
        "lon": 77.5703085
      },
      "tags": {
        "amenity": "restaurant",
        "building": "yes",
        "cuisine": "regional",
        "diet:vegetarian": "yes",
        "name": "Brundavan Delicacy",
        "phone": "+91-9900364985"
      }
    },
    {
      "type": "way",
      "id": 1432600217,
      "center": {
        "lat": 12.8754255,
        "lon": 77.5703725
      },
      "tags": {
        "amenity": "events_venue",
        "building": "yes",
        "name": "Sri Lakshmi Narasimha Sabangana (Girija Kalyana Mantapa)"
      }
    }
  ]
}