{
  "area_name": "Brundavana Nagara",
  "osm_id": 19883391,
  "osm_type": "relation",
  "place_type": "administrative",
  "amenity_count": 90,
  "amenities": [
    {
      "type": "node",
      "id": 638917146,
      "lat": 13.0369962,
      "lon": 77.5573938,
      "tags": {
        "amenity": "place_of_worship",
        "name": "Mathikere Masjid",
        "name:kn": "ಮತ್ತಿಕೆರೆ ಮಸೀದಿ",
        "religion": "muslim",
        "toilets:wheelchair": "no",
        "wheelchair": "limited"
      }
    },
    {
      "type": "node",
      "id": 638989415,
      "lat": 13.0352764,
      "lon": 77.5536076,
      "tags": {
        "amenity": "toilets",
        "wheelchair": "no"
      }
    },
    {
      "type": "node",
      "id": 1096875581,
      "lat": 13.0357887,
      "lon": 77.554688,
      "tags": {
        "shop": "hairdresser"
      }
    },
    {
      "type": "node",
      "id": 1462340034,
      "lat": 13.0325342,
      "lon": 77.5587342,
      "tags": {
        "amenity": "bank",
        "atm": "yes",
        "brand": "State Bank of India",
        "brand:wikidata": "Q1340361",
        "brand:wikipedia": "en:State Bank of India",
        "name": "State Bank of India",
        "name:kn": "ಭಾರತೀಯ ಸ್ಟೇಟ್ ಬ್ಯಾಂಕ್",
        "short_name": "SBI",
        "website": "https://www.sbi.co.in",
        "wheelchair": "no"
      }
    },
    {
      "type": "node",
      "id": 1472732143,
      "lat": 13.0340331,
      "lon": 77.5563802,
      "tags": {
        "amenity": "atm",
        "fee": "yes",
        "operator": "ICICI ATM"
      }
    },
    {
      "type": "node",
      "id": 1581346714,
      "lat": 13.030076,
      "lon": 77.5593983,
      "tags": {
        "amenity": "restaurant",
        "cuisine": "indian",
        "name": "New Sagar",
        "name:kn": "ನ್ಯೂ ಸಾಗರ್"
      }
    },
    {
      "type": "node",
      "id": 4446306863,
      "lat": 13.0291434,
      "lon": 77.5579617,
      "tags": {
        "addr:city": "bangalore",
        "addr:housenumber": "375/A",
        "addr:postcode": "560054",
        "addr:street": "6th Cross, 8th Cross, 13th Main Rd, Mathikere, HMT Layout, Yeshwanthpur, Karnataka",
        "amenity": "pharmacy",
        "name": "OM Shakthi Medicals & General Stores",
        "phone": "+9190351 57235"
      }
    },
    {
      "type": "node",
      "id": 4446502570,
      "lat": 13.0325717,
      "lon": 77.5582602,
      "tags": {
        "addr:city": "bangalore",
        "addr:district": "Bengaluru Urban",
        "addr:postcode": "560054",
        "addr:state": "Karnataka",
        "addr:street": "#426/12, 2 Cross,Mathikere Layout,Behind Canara Bank",
        "amenity": "hospital",
        "name": "Sumathi Nursing and Maternity Home",
        "phone": "+9180 2337 2762"
      }
    },
    {
      "type": "node",
      "id": 4488026117,
      "lat": 13.0352764,
      "lon": 77.5536076,
      "tags": {
        "addr:city": "Bangalore",
        "addr:housenumber": "12",
        "addr:postcode": "560054",
        "addr:street": "SBM Colony, Tank Bund Road, Gokula Extension,",
        "name": "More For You",
        "phone": "(91)-9845794196",
        "shop": "supermarket",
        "website": "http://www.morestore.com/"
      }
    },
    {
      "type": "node",
      "id": 5535769505,
      "lat": 13.0307262,
      "lon": 77.5582323,
      "tags": {
        "amenity": "place_of_worship",
        "name": "Raghavendra Temple",
        "name:kn": "ರಾಘವೇಂದ್ರ ದೇವಸ್ಥಾನ",
        "religion": "hindu"
      }
    },
    {
      "type": "node",
      "id": 5535770505,
      "lat": 13.0297077,
      "lon": 77.5584857,
      "tags": {
        "amenity": "place_of_worship",
        "name": "Subramanya Swami Temple",
        "name:kn": "ಸುಬ್ರಮಣ್ಯ ಸ್ವಾಮಿ",
        "religion": "hindu"
      }
    },
    {
      "type": "node",
      "id": 5535771206,
      "lat": 13.0294516,
      "lon": 77.5586948,
      "tags": {
        "amenity": "post_office",
        "name": "Mathikere Post office",
        "name:kn": "ಮತಿಕೆರೆ ಅಂಚೆ ಕಛೇರಿ"
      }
    },
    {
      "type": "node",
      "id": 5535772369,
      "lat": 13.0297633,
      "lon": 77.5583147,
      "tags": {
        "amenity": "place_of_worship",
        "name": "Ganesha Temple",
        "name:kn": "ಗಣೇಶ ದೇವಸ್ಥಾನ",
        "religion": "hindu"
      }
    },
    {
      "type": "node",
      "id": 5535777989,
      "lat": 13.0306296,
      "lon": 77.5594066,
      "tags": {
        "amenity": "place_of_worship",
        "religion": "christian"
      }
    },
    {
      "type": "node",
      "id": 5536066532,
      "lat": 13.0284739,
      "lon": 77.5588351,
      "tags": {
        "name": "Raghu Medicals",
        "shop": "chemist"
      }
    },
    {
      "type": "node",
      "id": 6404125090,
      "lat": 13.0322915,
      "lon": 77.5587286,
      "tags": {
        "name": "Sri Gurudarshan Sweet's",
        "shop": "bakery"
      }
    },
    {
      "type": "node",
      "id": 6938860232,
      "lat": 13.0333056,
      "lon": 77.5558276,
      "tags": {
        "addr:district": "Bengaluru Urban",
        "addr:full": "818/819 16Th 'A' Main, 2nd Cross Gokul Extension, Mathikere",
        "addr:postcode": "560056",
        "addr:state": "Karnataka",
        "amenity": "clinic",
        "name": "Mathrushree Nethralaya",
        "name:kn": "ಮಾತೃಶ್ರೀ ನಿಲಯ",
        "source": "OpenGovernmentData"
      }
    },
    {
      "type": "node",
      "id": 7228148555,
      "lat": 13.0313098,
      "lon": 77.559531,
      "tags": {
        "brand": "Bata",
        "brand:wikidata": "Q688082",
        "name": "Bata",
        "name:kn": "ಬಾಟಾ",
        "shop": "shoes"
      }
    },
    {
      "type": "node",
      "id": 7228148557,
      "lat": 13.0334853,
      "lon": 77.5579613,
      "tags": {
        "name": "Boots",
        "shop": "shoes"
      }
    },
    {
      "type": "node",
      "id": 7228148558,
      "lat": 13.0336721,
      "lon": 77.5578305,
      "tags": {
        "amenity": "fast_food",
        "name": "Mirchi"
      }
    },
    {
      "type": "node",
      "id": 8148761741,
      "lat": 13.0286524,
      "lon": 77.5588569,
      "tags": {
        "name": "Mathaji book center",
        "shop": "stationery"
      }
    },
    {
      "type": "node",
      "id": 8148770393,
      "lat": 13.0262907,
      "lon": 77.5578304,
      "tags": {
        "brand": "Bombay Dyeing",
        "shop": "clothes"
      }
    },
    {
      "type": "node",
      "id": 8151014160,
      "lat": 13.0316873,
      "lon": 77.5592885,
      "tags": {
        "name": "Fish stall",
        "shop": "butcher"
      }
    },
    {
      "type": "node",
      "id": 8151044496,
      "lat": 13.0321385,
      "lon": 77.5589552,
      "tags": {
        "description": "wholesale condiments",
        "name": "Sree Ayappa foods",
        "shop": "spices"
      }
    },
    {
      "type": "node",
      "id": 8255021025,
      "lat": 13.0291064,
      "lon": 77.5588449,
      "tags": {
        "brand": "Jockey",
        "shop": "clothes"
      }
    },
    {
      "type": "node",
      "id": 8364333709,
      "lat": 13.0331581,
      "lon": 77.5547661,
      "tags": {
        "name": "A-1 chicken center",
        "shop": "butcher"
      }
    },
    {
      "type": "node",
      "id": 8364343832,
      "lat": 13.0278875,
      "lon": 77.5559789,
      "tags": {
        "name": "Tawakkaltu Mutton and chicken",
        "shop": "butcher"
      }
    },
    {
      "type": "node",
      "id": 8364348296,
      "lat": 13.0332219,
      "lon": 77.5549236,
      "tags": {
        "amenity": "hospital",
        "name": "Sun Orthopaedic center"
      }
    },
    {
      "type": "node",
      "id": 8364351022,
      "lat": 13.0338742,
      "lon": 77.5539838,
      "tags": {
        "brand": "More",
        "brand:wikidata": "Q6910891",
        "name": "More",
        "shop": "supermarket"
      }
    },
    {
      "type": "node",
      "id": 8364357469,
      "lat": 13.0278944,
      "lon": 77.5553769,
      "tags": {
        "name": "Yarabh mutton stall",
        "shop": "butcher"
      }
    },
    {
      "type": "node",
      "id": 8364361959,
      "lat": 13.0336742,
      "lon": 77.5540036,
      "tags": {
        "name": "New Varier cake time",
        "shop": "bakery"
      }
    },
    {
      "type": "node",
      "id": 8364362122,
      "lat": 13.0344221,
      "lon": 77.5573196,
      "tags": {
        "name": "Star Chicken Stall",
        "shop": "butcher"
      }
    },
    {
      "type": "node",
      "id": 8364366885,
      "lat": 13.03363,
      "lon": 77.5578782,
      "tags": {
        "brand": "Prestige",
        "shop": "appliance"
      }
    },
    {
      "type": "node",
      "id": 8364369224,
      "lat": 13.0336253,
      "lon": 77.557897,
      "tags": {
        "name": "The county meat",
        "shop": "butcher"
      }
    },
    {
      "type": "node",
      "id": 8364370218,
      "lat": 13.0334391,
      "lon": 77.5557171,
      "tags": {
        "name": "Nandi Automobiles",
        "shop": "car"
      }
    },
    {
      "type": "node",
      "id": 8364370641,
      "lat": 13.0333661,
      "lon": 77.5541308,
      "tags": {
        "name": "Food Supermarket",
        "shop": "supermarket"
      }
    },
    {
      "type": "node",
      "id": 8427351535,
      "lat": 13.0318689,
      "lon": 77.5544426,
      "tags": {
        "name": "Maamsa Adda",
        "shop": "butcher"
      }
    },
    {
      "type": "node",
      "id": 8427355017,
      "lat": 13.0376774,
      "lon": 77.5535627,
      "tags": {
        "amenity": "pharmacy",
        "name": "Raghu Medicals"
      }
    },
    {
      "type": "node",
      "id": 8463192155,
      "lat": 13.0327048,
      "lon": 77.5549556,
      "tags": {
        "amenity": "place_of_worship",
        "religion": "hindu"
      }
    },
    {
      "type": "node",
      "id": 8463212018,
      "lat": 13.0345082,
      "lon": 77.5550823,
      "tags": {
        "amenity": "place_of_worship",
        "religion": "christian"
      }
    },
    {
      "type": "node",
      "id": 8518507322,
      "lat": 13.0263466,
      "lon": 77.5579099,
      "tags": {
        "name": "New Karnataka mutton and chicken point",
        "shop": "butcher"
      }
    },
    {
      "type": "node",
      "id": 8518513243,
      "lat": 13.0278362,
      "lon": 77.5562995,
      "tags": {
        "amenity": "school",
        "name": "L.C.R. English School"
      }
    },
    {
      "type": "node",
      "id": 8518524396,
      "lat": 13.0278653,
      "lon": 77.5564664,
      "tags": {
        "amenity": "water_point"
      }
    },
    {
      "type": "node",
      "id": 8534495400,
      "lat": 13.0326988,
      "lon": 77.5544078,
      "tags": {
        "brand": "Nandini",
        "name": "Nandini",
        "shop": "diary"
      }
    },
    {
      "type": "node",
      "id": 8534528586,
      "lat": 13.0322562,
      "lon": 77.553745,
      "tags": {
        "name": "Meat bazzar",
        "shop": "butcher"
      }
    },
    {
      "type": "node",
      "id": 8544073652,
      "lat": 13.0308544,
      "lon": 77.5534958,
      "tags": {
        "name": "Fish Land Aquarium",
        "shop": "pet"
      }
    },
    {
      "type": "node",
      "id": 8544079274,
      "lat": 13.0292972,
      "lon": 77.555177,
      "tags": {
        "name": "SKN chicken and mutton center",
        "shop": "butcher"
      }
    },
    {
      "type": "node",
      "id": 8544083789,
      "lat": 13.0308986,
      "lon": 77.5542479,
      "tags": {
        "name": "Nexgen supermarket",
        "shop": "supermarket"
      }
    },
    {
      "type": "node",
      "id": 8544086856,
      "lat": 13.0342713,
      "lon": 77.5574207,
      "tags": {
        "name": "Sri Ayappa Bakery anf Sweets",
        "shop": "bakery"
      }
    },
    {
      "type": "node",
      "id": 8544087806,
      "lat": 13.0297929,
      "lon": 77.5536843,
      "tags": {
        "name": "Star collections",
        "shop": "clothes"
      }
    },
    {
      "type": "node",
      "id": 8544093297,
      "lat": 13.0297527,
      "lon": 77.5552304,
      "tags": {
        "name": "Afreshstore",
        "shop": "greengrocer"
      }
    },
    {
      "type": "node",
      "id": 8544095247,
      "lat": 13.0301868,
      "lon": 77.5536757,
      "tags": {
        "name": "Chetan Electrical",
        "shop": "electrical"
      }
    },
    {
      "type": "node",
      "id": 8873812715,
      "lat": 13.0278171,
      "lon": 77.5572395,
      "tags": {
        "amenity": "internet_cafe",
        "name": "Ajanta Networld"
      }
    },
    {
      "type": "node",
      "id": 8873818151,
      "lat": 13.0290638,
      "lon": 77.5582198,
      "tags": {
        "name": "Yeshwanth hair style",
        "shop": "hairdresser"
      }
    },
    {
      "type": "node",
      "id": 9249655400,
      "lat": 13.0254048,
      "lon": 77.5575363,
      "tags": {
        "amenity": "pharmacy",
        "name": "Raghu Pharma"
      }
    },
    {
      "type": "node",
      "id": 9249675886,
      "lat": 13.0280696,
      "lon": 77.5585824,
      "tags": {
        "name": "Power TV",
        "shop": "newsagent"
      }
    },
    {
      "type": "node",
      "id": 9538902718,
      "lat": 13.0312117,
      "lon": 77.5596191,
      "tags": {
        "amenity": "bank",
        "branch": "Mattikere",
        "brand": "HDFC Bank",
        "brand:wikidata": "Q631047",
        "name": "HDFC Bank",
        "short_name": "HDFC"
      }
    },
    {
      "type": "node",
      "id": 9538931895,
      "lat": 13.02952,
      "lon": 77.5583544,
      "tags": {
        "amenity": "drinking_water"
      }
    },
    {
      "type": "node",
      "id": 9909726555,
      "lat": 13.0333345,
      "lon": 77.5562606,
      "tags": {
        "addr:city": "Bengaluru",
        "addr:housenumber": "773",
        "addr:postcode": "560054",
        "addr:street": "15th B Main road",
        "amenity": "bank",
        "name": "The Mathikere Credit Co-operative Society Ltd."
      }
    },
    {
      "type": "node",
      "id": 11496155843,
      "lat": 13.034187,
      "lon": 77.55755,
      "tags": {
        "amenity": "atm",
        "brand": "IDFC First Bank",
        "brand:wikidata": "Q22031467",
        "check_date": "2024-01-07",
        "operator": "IDFC First Bank",
        "operator:wikidata": "Q22031467"
      }
    },
    {
      "type": "node",
      "id": 11496155844,
      "lat": 13.0341321,
      "lon": 77.5575695,
      "tags": {
        "amenity": "atm",
        "brand": "HDFC Bank",
        "brand:wikidata": "Q631047",
        "check_date": "2024-01-07",
        "operator": "HDFC Bank",
        "operator:wikidata": "Q631047",
        "short_name": "HDFC"
      }
    },
    {
      "type": "node",
      "id": 11496155845,
      "lat": 13.0343801,
      "lon": 77.5573308,
      "tags": {
        "check_date": "2024-01-07",
        "name": "A-One Mutton Stall",
        "shop": "butcher"
      }
    },
    {
      "type": "node",
      "id": 11496155846,
      "lat": 13.0344713,
      "lon": 77.5572896,
      "tags": {
        "check_date": "2024-01-07",
        "name": "Balaji Wines",
        "shop": "alcohol"
      }
    },
    {
      "type": "node",
      "id": 11496155847,
      "lat": 13.0355885,
      "lon": 77.5573862,
      "tags": {
        "amenity": "clinic",
        "check_date": "2024-01-07",
        "healthcare": "clinic",
        "name": "Sri Shakthi Clinic"
      }
    },
    {
      "type": "node",
      "id": 12676261381,
      "lat": 13.0265793,
      "lon": 77.5579761,
      "tags": {
        "amenity": "bank",
        "brand": "IDBI Bank",
        "brand:wikidata": "Q3633485",
        "check_date": "2025-03-18",
        "name": "IDBI Bank",
        "short_name": "IDBI"
      }
    },
    {
      "type": "node",
      "id": 12676261383,
      "lat": 13.02691,
      "lon": 77.5580938,
      "tags": {
        "amenity": "atm",
        "brand": "Axis Bank",
        "brand:wikidata": "Q2003549",
        "check_date": "2025-03-18",
        "operator": "Axis Bank",
        "operator:wikidata": "Q2003549"
      }
    },
    {
      "type": "node",
      "id": 12676261389,
      "lat": 13.0296108,
      "lon": 77.559213,
      "tags": {
        "brand": "More",
        "brand:wikidata": "Q6910891",
        "check_date": "2025-03-18",
        "name": "More",
        "shop": "supermarket"
      }
    },
    {
      "type": "node",
      "id": 12676261390,
      "lat": 13.030241,
      "lon": 77.5594912,
      "tags": {
        "amenity": "bank",
        "brand": "Ujjivan Small Finance Bank",
        "brand:wikidata": "Q42529272",
        "check_date": "2025-03-18",
        "name": "Ujjivan Small Finance Bank"
      }
    },
    {
      "type": "node",
      "id": 12676261391,
      "lat": 13.0306563,
      "lon": 77.5597156,
      "tags": {
        "brand": "Just Bake",
        "brand:wikidata": "Q124374121",
        "check_date": "2025-03-18",
        "delivery": "yes",
        "name": "Just Bake",
        "shop": "pastry",
        "takeaway": "yes"
      }
    },
    {
      "type": "node",
      "id": 12676261392,
      "lat": 13.0307751,
      "lon": 77.5597481,
      "tags": {
        "amenity": "restaurant",
        "check_date": "2025-03-18",
        "name": "Chandan Bar & Restaurant"
      }
    },
    {
      "type": "node",
      "id": 12676261394,
      "lat": 13.0329235,
      "lon": 77.558371,
      "tags": {
        "brand": "TVS",
        "brand:wikidata": "Q3300084",
        "check_date": "2025-03-18",
        "name": "TVS",
        "shop": "motorcycle"
      }
    },
    {
      "type": "node",
      "id": 12676261395,
      "lat": 13.0332305,
      "lon": 77.5581139,
      "tags": {
        "amenity": "restaurant",
        "brand": "Pizza Hut",
        "brand:wikidata": "Q191615",
        "check_date": "2025-03-18",
        "cuisine": "pizza",
        "name": "Pizza Hut"
      }
    },
    {
      "type": "node",
      "id": 12676261399,
      "lat": 13.0339182,
      "lon": 77.5577027,
      "tags": {
        "amenity": "fast_food",
        "check_date": "2025-03-18",
        "name": "Ambur Hot Dum Biryani"
      }
    },
    {
      "type": "node",
      "id": 12676265204,
      "lat": 13.0383044,
      "lon": 77.5572442,
      "tags": {
        "check_date": "2025-03-18",
        "name": "Vision Care Opticals",
        "shop": "optician"
      }
    },
    {
      "type": "node",
      "id": 12676265231,
      "lat": 13.0305663,
      "lon": 77.5596963,
      "tags": {
        "amenity": "ice_cream",
        "check_date": "2025-03-18",
        "name": "Sanjana Ice Creams"
      }
    },
    {
      "type": "node",
      "id": 12676265232,
      "lat": 13.0301341,
      "lon": 77.5594504,
      "tags": {
        "amenity": "fast_food",
        "check_date": "2025-03-18",
        "name": "Malgudi's Donne Biryani"
      }
    },
    {
      "type": "node",
      "id": 12676265233,
      "lat": 13.0291844,
      "lon": 77.5590389,
      "tags": {
        "check_date": "2025-03-18",
        "name": "Pai",
        "shop": "electronics"
      }
    },
    {
      "type": "node",
      "id": 12676265234,
      "lat": 13.0284,
      "lon": 77.5586943,
      "tags": {
        "check_date": "2025-03-18",
        "name": "Kulfi Shulfi",
        "shop": "confectionery"
      }
    },
    {
      "type": "node",
      "id": 12676265235,
      "lat": 13.0277421,
      "lon": 77.5584595,
      "tags": {
        "check_date": "2025-03-18",
        "name": "The Kanchipuram Silks",
        "shop": "clothes"
      }
    },
    {
      "type": "node",
      "id": 12676265236,
      "lat": 13.0273848,
      "lon": 77.5583197,
      "tags": {
        "check_date": "2025-03-18",
        "name": "Iyengar's Cake House",
        "shop": "bakery"
      }
    },
    {
      "type": "node",
      "id": 12676265237,
      "lat": 13.0263832,
      "lon": 77.5578954,
      "tags": {
        "check_date": "2025-03-18",
        "shop": "greengrocer"
      }
    },
    {
      "type": "node",
      "id": 12676265238,
      "lat": 13.0254939,
      "lon": 77.5575302,
      "tags": {
        "amenity": "restaurant",
        "check_date": "2025-03-18",
        "name": "Trupti Bar & Restaurant"
      }
    },
    {
      "type": "node",
      "id": 13253782361,
      "lat": 13.0332125,
      "lon": 77.5575383,
      "tags": {
        "amenity": "kindergarten",
        "check_date": "2025-10-24",
        "name": "Srinidhi Vidyaniketan School"
      }
    },
    {
      "type": "way",
      "id": 46918812,
      "center": {
        "lat": 13.0300022,
        "lon": 77.5587277
      },
      "tags": {
        "amenity": "school"
      }
    },
    {
      "type": "way",
      "id": 307146077,
      "center": {
        "lat": 13.0351357,
        "lon": 77.5570461
      },
      "tags": {
        "addr:city": "Mathikere",
        "addr:postcode": "560054",
        "addr:street": "MS Ramaiah Road",
        "amenity": "school",
        "name": "Iyer High School",
        "name:kn": "ಅಯ್ಯರ್ ಪ್ರೌಡಶಾಲೆ",
        "wheelchair": "limited"
      }
    },
    {
      "type": "way",
      "id": 312368470,
      "center": {
        "lat": 13.0316113,
        "lon": 77.5593212
      },
      "tags": {
        "addr:city": "Mathikere",
        "addr:postcode": "560054",
        "addr:street": "MS Ramaiah Road",
        "amenity": "restaurant",
        "building": "yes",
        "cuisine": "regional",
        "name": "Kanthi Sweets",
        "shop": "confectionery"
      }
    },
    {
      "type": "way",
      "id": 346812356,
      "center": {
        "lat": 13.0340019,
        "lon": 77.5576024
      },
      "tags": {
        "amenity": "place_of_worship",
        "building": "yes",
        "religion": "hindu"
      }
    },
    {
      "type": "way",
      "id": 347071790,
      "center": {
        "lat": 13.0285228,
        "lon": 77.5587301
      },
      "tags": {
        "amenity": "hospital",
        "healthcare": "hospital",
        "name": "Medicare Diagnostics"
      }
    },
    {
      "type": "way",
      "id": 1308403450,
      "center": {
        "lat": 13.0268662,
        "lon": 77.5579948
      },
      "tags": {
        "amenity": "fuel"
      }
    },
    {
      "type": "way",
      "id": 1370050088,
      "center": {
        "lat": 13.0326879,
        "lon": 77.5585076
      },
      "tags": {
        "leisure": "garden"
      }
    }
  ]
}