{
  "area_name": "Byadarahalli",
  "osm_id": 4401556759,
  "osm_type": "node",
  "place_type": "neighbourhood",
  "amenity_count": 56,
  "amenities": [
    {
      "type": "node",
      "id": 2026103149,
      "lat": 12.9759458,
      "lon": 77.4832366,
      "tags": {
        "amenity": "school",
        "name": "East West Institue of Technology"
      }
    },
    {
      "type": "node",
      "id": 4446730454,
      "lat": 12.9886463,
      "lon": 77.4880192,
      "tags": {
        "addr:city": "bangalore",
        "addr:housenumber": "87",
        "addr:postcode": "560075,",
        "addr:street": "BEML Main Rd, GM Palya, C V Raman Nagar",
        "amenity": "pharmacy",
        "name": "Sri Lakshmi Venkateshwara Medicals",
        "phone": "+919986468151"
      }
    },
    {
      "type": "node",
      "id": 4490333116,
      "lat": 12.9881358,
      "lon": 77.4733815,
      "tags": {
        "addr:city": "Bangalore",
        "addr:postcode": "560064",
        "addr:street": "No, Santhe road , Yelahanka Opp to cambridge school",
        "name": "Ambika Provision Store",
        "phone": "(91)-9663358532,",
        "shop": "supermarket"
      }
    },
    {
      "type": "node",
      "id": 4516825791,
      "lat": 12.9853579,
      "lon": 77.4791733,
      "tags": {
        "addr:postcode": "560091",
        "addr:street": "Magadi Road",
        "amenity": "school",
        "name": "Prajawal Nursing school",
        "name:en": "Prajawal Nursing school"
      }
    },
    {
      "type": "node",
      "id": 4516854189,
      "lat": 12.9857834,
      "lon": 77.4784608,
      "tags": {
        "addr:postcode": "560091",
        "addr:street": "Magadi Road",
        "name": "Pai Mobile Shop",
        "name:en": "Pai Mobile Shop",
        "shop": "mobile_phone"
      }
    },
    {
      "type": "node",
      "id": 4516854289,
      "lat": 12.985304,
      "lon": 77.4798633,
      "tags": {
        "addr:postcode": "560091",
        "addr:street": "Magadi Road",
        "name": "Royal Mart",
        "name:en": "Royal Mart",
        "shop": "supermarket"
      }
    },
    {
      "type": "node",
      "id": 4516854589,
      "lat": 12.9856793,
      "lon": 77.480059,
      "tags": {
        "addr:postcode": "560091",
        "addr:street": "Magadi Road",
        "amenity": "fuel",
        "brand": "Shell",
        "brand:wikidata": "Q110716465",
        "name": "Shell gas station",
        "name:en": "Shell gas station"
      }
    },
    {
      "type": "node",
      "id": 4516854789,
      "lat": 12.9853349,
      "lon": 77.4796592,
      "tags": {
        "addr:postcode": "560091",
        "addr:street": "Magadi Road",
        "name": "Kaveri Provision store",
        "name:en": "Kaveri Provision store",
        "shop": "department_store"
      }
    },
    {
      "type": "node",
      "id": 4516950889,
      "lat": 12.9852813,
      "lon": 77.4800802,
      "tags": {
        "addr:postcode": "560091",
        "addr:street": "Magadi Road",
        "amenity": "restaurant",
        "name": "Sanidhi",
        "name:en": "Sanidhi"
      }
    },
    {
      "type": "node",
      "id": 4518518598,
      "lat": 12.9858493,
      "lon": 77.4792481,
      "tags": {
        "addr:street": "Magadi Road",
        "amenity": "fuel",
        "brand": "Hindustan Petroleum",
        "brand:wikidata": "Q1619375",
        "name": "HP petrol pump",
        "name:en": "HP petrol pump",
        "official_name": "Hindustan Petroleum"
      }
    },
    {
      "type": "node",
      "id": 4518518599,
      "lat": 12.98575,
      "lon": 77.4797543,
      "tags": {
        "addr:street": "Magadi Road",
        "amenity": "fuel",
        "name": "Petronas CNG Gas station",
        "name:en": "Petronas CNG Gas station"
      }
    },
    {
      "type": "node",
      "id": 4518518893,
      "lat": 12.9838763,
      "lon": 77.4788534,
      "tags": {
        "amenity": "hospital",
        "name": "Anupama Hospital",
        "name:en": "Anupama hospital",
        "name:kn": "ಅನುಪಮ ಆಸ್ಪತ್ರೆ"
      }
    },
    {
      "type": "node",
      "id": 4518535692,
      "lat": 12.986164,
      "lon": 77.4784133,
      "tags": {
        "addr:street": "Magadi Road",
        "name": "Feet Mart",
        "name:en": "Feet Mart",
        "shop": "shoes"
      }
    },
    {
      "type": "node",
      "id": 4519069998,
      "lat": 12.9761181,
      "lon": 77.4765336,
      "tags": {
        "amenity": "community_centre",
        "name": "CIIQ",
        "name:en": "CIIQ"
      }
    },
    {
      "type": "node",
      "id": 4519115594,
      "lat": 12.9852326,
      "lon": 77.4807794,
      "tags": {
        "amenity": "atm",
        "operator": "Canara Bank ATM"
      }
    },
    {
      "type": "node",
      "id": 4519115595,
      "lat": 12.9824536,
      "lon": 77.4788252,
      "tags": {
        "amenity": "atm",
        "operator": "Karnataka Bank ATM"
      }
    },
    {
      "type": "node",
      "id": 4519115596,
      "lat": 12.9858942,
      "lon": 77.4879367,
      "tags": {
        "addr:street": "Magadi Road",
        "amenity": "bank",
        "brand:wikidata": "Q2003387",
        "brand:wikipedia": "en:Corporation Bank",
        "name": "Corporation Bank",
        "name:en": "Corporation Bank",
        "name:kn": "ಕಾರ್ಪರೇಷನ್ ಬ್ಯಾಂಕ್",
        "website": "https://corpbank.com/"
      }
    },
    {
      "type": "node",
      "id": 4519131292,
      "lat": 12.9824941,
      "lon": 77.4788347,
      "tags": {
        "amenity": "bank",
        "name": "Karnataka Bank",
        "name:en": "Karnataka Bank",
        "name:kn": "ಕರ್ನಾಟಕ ಬ್ಯಾಂಕ್"
      }
    },
    {
      "type": "node",
      "id": 4519140989,
      "lat": 12.9833026,
      "lon": 77.4788057,
      "tags": {
        "amenity": "restaurant",
        "name": "Majushree veg",
        "name:en": "Majushree veg"
      }
    },
    {
      "type": "node",
      "id": 4519141089,
      "lat": 12.9832122,
      "lon": 77.478807,
      "tags": {
        "name": "Manjushree Bakery",
        "name:en": "Manjushree bakery",
        "shop": "bakery"
      }
    },
    {
      "type": "node",
      "id": 4519141289,
      "lat": 12.9834972,
      "lon": 77.4860976,
      "tags": {
        "amenity": "bank",
        "brand": "State Bank of India",
        "brand:wikidata": "Q1340361",
        "brand:wikipedia": "en:State Bank of India",
        "name": "State Bank of India",
        "name:en": "State bank of India",
        "name:kn": "ಭಾರತೀಯ ಸ್ಟೇಟ್ ಬ್ಯಾಂಕ್",
        "short_name": "SBI"
      }
    },
    {
      "type": "node",
      "id": 4541312892,
      "lat": 12.9858843,
      "lon": 77.47819,
      "tags": {
        "name": "Madur millan shop",
        "name:en": "Madur millan shop",
        "shop": "clothes"
      }
    },
    {
      "type": "node",
      "id": 4541328992,
      "lat": 12.985982,
      "lon": 77.4778547,
      "tags": {
        "name": "Srinivas wines",
        "name:en": "Srinivas wines",
        "shop": "wine"
      }
    },
    {
      "type": "node",
      "id": 4541343492,
      "lat": 12.9859012,
      "lon": 77.4776562,
      "tags": {
        "amenity": "restaurant",
        "name": "Doddmane hotel",
        "name:en": "Doddmane hotel"
      }
    },
    {
      "type": "node",
      "id": 4541383689,
      "lat": 12.984899,
      "lon": 77.4812378,
      "tags": {
        "amenity": "school",
        "name": "Government school",
        "name:en": "Government school",
        "name:kn": "ಸರ್ಕಾರಿ ಶಾಲೆ"
      }
    },
    {
      "type": "node",
      "id": 5001385721,
      "lat": 12.9860915,
      "lon": 77.4776166,
      "tags": {
        "addr:postcode": "560091",
        "addr:street": "Magadi Road",
        "amenity": "restaurant",
        "name": "Indira Canteen",
        "name:en": "Indira Canteen"
      }
    },
    {
      "type": "node",
      "id": 5001385821,
      "lat": 12.9856231,
      "lon": 77.4788722,
      "tags": {
        "addr:street": "Magadi Road",
        "name": "R R Electronic Shop",
        "name:en": "R R Electronic Shop",
        "shop": "electronics"
      }
    },
    {
      "type": "node",
      "id": 5001385822,
      "lat": 12.9860762,
      "lon": 77.4872663,
      "tags": {
        "amenity": "atm",
        "operator": "ICICI Bank ATM"
      }
    },
    {
      "type": "node",
      "id": 5130801923,
      "lat": 12.9845313,
      "lon": 77.481983,
      "tags": {
        "amenity": "drinking_water",
        "name": "RO water"
      }
    },
    {
      "type": "node",
      "id": 5130853622,
      "lat": 12.9859674,
      "lon": 77.4779948,
      "tags": {
        "addr:postcode": "560091",
        "addr:street": "Magadi Road",
        "amenity": "fuel",
        "name": "Essar"
      }
    },
    {
      "type": "node",
      "id": 5130861821,
      "lat": 12.9857279,
      "lon": 77.4786325,
      "tags": {
        "addr:street": "Magadi Road",
        "name": "Smart electronics",
        "shop": "electronics"
      }
    },
    {
      "type": "node",
      "id": 6944895084,
      "lat": 12.9868695,
      "lon": 77.4794832,
      "tags": {
        "addr:district": "Bengaluru Rural",
        "addr:full": "116/2, Herohalli, Anjananagar, Opposite Petrol Bunk",
        "addr:postcode": "560091",
        "addr:state": "Karnataka",
        "amenity": "hospital",
        "name": "S.S.G. Hospital",
        "source": "OpenGovernmentData"
      }
    },
    {
      "type": "node",
      "id": 8187963478,
      "lat": 12.9755713,
      "lon": 77.4836808,
      "tags": {
        "addr:full": "BEL Layout, Phase 2, Bharat Nagar, Bengaluru, Karnataka",
        "addr:state": "Karnataka",
        "amenity": "bank",
        "brand": "Canara Bank",
        "brand:pa": "ਕੇਨਰਾ ਬੈਂਕ",
        "brand:ur": "کینرا بینک",
        "brand:wikidata": "Q2003777",
        "brand:wikipedia": "en:Canara Bank",
        "brand:wikipedia:pa": "ਕੇਨਰਾ ਬੈਂਕ",
        "name": "Canara Bank",
        "name:kn": "ಕೆನರಾ ಬ್ಯಾಂಕ್",
        "name:pa": "ਕੇਨਰਾ ਬੈਂਕ",
        "name:ur": "کینرا بینک"
      }
    },
    {
      "type": "node",
      "id": 8188038795,
      "lat": 12.9831814,
      "lon": 77.4787872,
      "tags": {
        "addr:full": "72/3 CIIQ, Magadi Main Road, Bel Layout, 2nd Phase, Near Karnataka Bank, Byadarahalli, Balaji Layout, Bedarahalli, Bengaluru, Karnataka",
        "addr:state": "Karnataka",
        "amenity": "hospital",
        "name": "Anupama Hospital",
        "name:kn": "ಅನುಪಮ ಆಸ್ಪತ್ರೆ"
      }
    },
    {
      "type": "node",
      "id": 8196809395,
      "lat": 12.97713,
      "lon": 77.4824667,
      "tags": {
        "addr:full": "BEL Layout, Phase 2, Bedarahalli, Bengaluru, Karnataka",
        "addr:state": "Karnataka",
        "amenity": "college",
        "name": "East West College of Nursing And Management"
      }
    },
    {
      "type": "node",
      "id": 8196809404,
      "lat": 12.9764149,
      "lon": 77.4825255,
      "tags": {
        "addr:full": "63, I PHASE, BHARATH NAGAR, B E L LAYOUT, VISHWANEEDAM POST, OFF MAGADI ROAD, BEL Layout, Phase 2, Bedarahalli, Bengaluru, Karnataka",
        "addr:state": "Karnataka",
        "amenity": "college",
        "name": "East West College of Pharmacy"
      }
    },
    {
      "type": "node",
      "id": 9575193015,
      "lat": 12.9886601,
      "lon": 77.4753487,
      "tags": {
        "addr:city": "Bengaluru",
        "addr:housenumber": "8/4",
        "addr:postcode": "560091",
        "addr:street": "Hosahalli Main Road, Gollarhatti, Magadi Road",
        "amenity": "events_venue",
        "name": "Radha Manjunatha Convention Hall"
      }
    },
    {
      "type": "way",
      "id": 169984937,
      "center": {
        "lat": 12.9768386,
        "lon": 77.4831368
      },
      "tags": {
        "amenity": "college",
        "name": "East West Group of Institutions"
      }
    },
    {
      "type": "way",
      "id": 192050833,
      "center": {
        "lat": 12.9770697,
        "lon": 77.4833707
      },
      "tags": {
        "leisure": "park"
      }
    },
    {
      "type": "way",
      "id": 347601097,
      "center": {
        "lat": 12.9887773,
        "lon": 77.4753207
      },
      "tags": {
        "addr:city": "Bengaluru",
        "addr:housenumber": "8/4",
        "addr:postcode": "560091",
        "addr:street": "Hosahalli Main Road, Gollarhatti, Magadi Road",
        "amenity": "events_venue",
        "building": "commercial",
        "name": "Radha Manjunatha Convention Hall"
      }
    },
    {
      "type": "way",
      "id": 350856582,
      "center": {
        "lat": 12.9858847,
        "lon": 77.479807
      },
      "tags": {
        "amenity": "fuel"
      }
    },
    {
      "type": "way",
      "id": 350856872,
      "center": {
        "lat": 12.9858677,
        "lon": 77.4801379
      },
      "tags": {
        "amenity": "fuel"
      }
    },
    {
      "type": "way",
      "id": 351086394,
      "center": {
        "lat": 12.9901327,
        "lon": 77.4853073
      },
      "tags": {
        "amenity": "community_centre",
        "building": "yes",
        "name": "Heritage Convention Center"
      }
    },
    {
      "type": "way",
      "id": 351409577,
      "center": {
        "lat": 12.9846884,
        "lon": 77.4890453
      },
      "tags": {
        "amenity": "shelter",
        "building": "yes",
        "shelter_type": "gazebo"
      }
    },
    {
      "type": "way",
      "id": 362916658,
      "center": {
        "lat": 12.9793727,
        "lon": 77.4763917
      },
      "tags": {
        "leisure": "park"
      }
    },
    {
      "type": "way",
      "id": 362916704,
      "center": {
        "lat": 12.982169,
        "lon": 77.4766638
      },
      "tags": {
        "leisure": "park"
      }
    },
    {
      "type": "way",
      "id": 362916805,
      "center": {
        "lat": 12.98213,
        "lon": 77.4846034
      },
      "tags": {
        "leisure": "park"
      }
    },
    {
      "type": "way",
      "id": 1122444426,
      "center": {
        "lat": 12.9768945,
        "lon": 77.4859646
      },
      "tags": {
        "amenity": "community_centre",
        "name": "SpoorthiDhaama",
        "website": "https://spoorthidhama.com/"
      }
    },
    {
      "type": "way",
      "id": 1241552546,
      "center": {
        "lat": 12.9846673,
        "lon": 77.4889974
      },
      "tags": {
        "leisure": "park"
      }
    },
    {
      "type": "way",
      "id": 1241555392,
      "center": {
        "lat": 12.9811586,
        "lon": 77.4832432
      },
      "tags": {
        "leisure": "park"
      }
    },
    {
      "type": "way",
      "id": 1393102032,
      "center": {
        "lat": 12.9866431,
        "lon": 77.477489
      },
      "tags": {
        "amenity": "fuel",
        "brand": "TotalEnergies",
        "brand:wikidata": "Q154037",
        "name": "TotalEnergies"
      }
    },
    {
      "type": "way",
      "id": 1393102033,
      "center": {
        "lat": 12.9865431,
        "lon": 77.4777505
      },
      "tags": {
        "addr:street": "Magadi Road",
        "amenity": "fuel",
        "brand": "Indian Oil",
        "brand:wikidata": "Q1289348",
        "brand:wikipedia": "en:Indian Oil Corporation",
        "name": "Indian oil pump",
        "name:en": "Indian oil pump"
      }
    },
    {
      "type": "way",
      "id": 1393102034,
      "center": {
        "lat": 12.9863811,
        "lon": 77.4766011
      },
      "tags": {
        "brand": "Kia",
        "brand:wikidata": "Q35349",
        "landuse": "commercial",
        "name": "Kia",
        "shop": "car"
      }
    },
    {
      "type": "way",
      "id": 1412647454,
      "center": {
        "lat": 12.9831049,
        "lon": 77.4870141
      },
      "tags": {
        "leisure": "park"
      }
    },
    {
      "type": "way",
      "id": 1412647455,
      "center": {
        "lat": 12.9817902,
        "lon": 77.486339
      },
      "tags": {
        "leisure": "park"
      }
    },
    {
      "type": "way",
      "id": 1434051413,
      "center": {
        "lat": 12.9891237,
        "lon": 77.478603
      },
      "tags": {
        "addr:full": "No.50 3rd Cross, Police quarter Road, near Byadarahalli College Stop, Kempegowdanagar, Bengaluru, Karnataka 560091.",
        "addr:housenumber": "50",
        "amenity": "school",
        "name": "New Baldwin Public School"
      }
    }
  ]
}