{
  "area_name": "Byatarayanapura",
  "osm_id": 9851292486,
  "osm_type": "node",
  "place_type": "neighbourhood",
  "amenity_count": 620,
  "amenities": [
    {
      "type": "node",
      "id": 1097927623,
      "lat": 13.0592352,
      "lon": 77.5939566,
      "tags": {
        "addr:street": "Bellary Road",
        "amenity": "school",
        "name": "Green Country Public School"
      }
    },
    {
      "type": "node",
      "id": 1471776772,
      "lat": 13.0629571,
      "lon": 77.592948,
      "tags": {
        "name": "Lakme",
        "name:kn": "ಲಾಕ್ಮೆ",
        "shop": "hairdresser",
        "wheelchair": "no"
      }
    },
    {
      "type": "node",
      "id": 1471776773,
      "lat": 13.0591093,
      "lon": 77.5931284,
      "tags": {
        "amenity": "restaurant",
        "cuisine": "indian",
        "name": "Swathi garden",
        "name:kn": "ಸ್ವಾತಿ ಗಾರ್ಡನ್"
      }
    },
    {
      "type": "node",
      "id": 1471776774,
      "lat": 13.0630617,
      "lon": 77.5929373,
      "tags": {
        "name": "Bata show room",
        "shop": "hifi"
      }
    },
    {
      "type": "node",
      "id": 1471776775,
      "lat": 13.0627642,
      "lon": 77.5929313,
      "tags": {
        "name": "SAFA",
        "shop": "clothes"
      }
    },
    {
      "type": "node",
      "id": 1472114366,
      "lat": 13.0579806,
      "lon": 77.5942266,
      "tags": {
        "check_date": "2024-07-11",
        "name": "Maruti Service Center",
        "operator": "RNS Motors",
        "shop": "car_repair"
      }
    },
    {
      "type": "node",
      "id": 1610063667,
      "lat": 13.0663685,
      "lon": 77.5936278,
      "tags": {
        "amenity": "fuel",
        "brand": "Shell",
        "brand:wikidata": "Q110716465",
        "name": "Shell Ganesh Enterprises"
      }
    },
    {
      "type": "node",
      "id": 1824255919,
      "lat": 13.0614104,
      "lon": 77.5930766,
      "tags": {
        "name": "Raymond Shop",
        "shop": "clothes"
      }
    },
    {
      "type": "node",
      "id": 2108234086,
      "lat": 13.0626765,
      "lon": 77.5878626,
      "tags": {
        "amenity": "post_office",
        "name": "Sahakaranagara Post Office",
        "name:kn": "ಸಹಕಾರನಗರ ಅಂಚೆ ಕಛೇರಿ"
      }
    },
    {
      "type": "node",
      "id": 2389680142,
      "lat": 13.0729591,
      "lon": 77.592187,
      "tags": {
        "amenity": "parking"
      }
    },
    {
      "type": "node",
      "id": 4196988842,
      "lat": 13.0579847,
      "lon": 77.5919058,
      "tags": {
        "branch": "Mega Store",
        "brand": "More",
        "brand:wikidata": "Q6910891",
        "name": "More",
        "shop": "supermarket"
      }
    },
    {
      "type": "node",
      "id": 4197977499,
      "lat": 13.0608187,
      "lon": 77.5873,
      "tags": {
        "check_date": "2024-06-01",
        "cuisine": "continental",
        "name": "Madira Spirits",
        "shop": "alcohol"
      }
    },
    {
      "type": "node",
      "id": 4197977500,
      "lat": 13.0610589,
      "lon": 77.5872299,
      "tags": {
        "amenity": "cafe",
        "brand": "Third Wave Coffee Roasters",
        "brand:wikidata": "Q7785004",
        "check_date": "2024-06-01",
        "cuisine": "coffee_shop",
        "delivery": "yes",
        "name": "Third Wave Coffee Roasters",
        "takeaway": "yes"
      }
    },
    {
      "type": "node",
      "id": 4197977501,
      "lat": 13.0591909,
      "lon": 77.5875414,
      "tags": {
        "addr:city": "Bangalore",
        "addr:postcode": "560092",
        "amenity": "restaurant",
        "cuisine": "regional",
        "name": "Hyderabad Biryani",
        "name:kn": "ಹೈದರಾಬಾದ್ ಬಿರಿಯಾನಿ",
        "outdoor_seating": "no"
      }
    },
    {
      "type": "node",
      "id": 4197977502,
      "lat": 13.0589975,
      "lon": 77.5875951,
      "tags": {
        "amenity": "restaurant",
        "diet:vegetarian": "yes",
        "name": "Adigas",
        "name:kn": "ಅಡಿಗಾಸ್"
      }
    },
    {
      "type": "node",
      "id": 4198040362,
      "lat": 13.0632698,
      "lon": 77.5912514,
      "tags": {
        "amenity": "pharmacy",
        "brand": "Apollo Pharmacy",
        "brand:wikidata": "Q62562612",
        "healthcare": "pharmacy",
        "name": "Apollo Pharmacy",
        "name:kn": "ಅಪೊಲೋ ಫಾರ್ಮಸಿ"
      }
    },
    {
      "type": "node",
      "id": 4198043790,
      "lat": 13.063622,
      "lon": 77.5909427,
      "tags": {
        "amenity": "bank",
        "atm": "yes",
        "brand": "ICICI Bank",
        "brand:wikidata": "Q1653258",
        "name": "ICICI Bank",
        "name:en": "ICICI Bank",
        "name:kn": "ಐಸಿಐಸಿಐ ಬ್ಯಾಂಕು",
        "short_name": "ICICI",
        "website": "https://www.icicibank.com"
      }
    },
    {
      "type": "node",
      "id": 4198043791,
      "lat": 13.0625784,
      "lon": 77.5926891,
      "tags": {
        "name": "SLNS Wine Paradise",
        "shop": "wine"
      }
    },
    {
      "type": "node",
      "id": 4198043792,
      "lat": 13.0623962,
      "lon": 77.5930084,
      "tags": {
        "name": "The Big Market",
        "shop": "supermarket"
      }
    },
    {
      "type": "node",
      "id": 4198043793,
      "lat": 13.0632832,
      "lon": 77.5917375,
      "tags": {
        "amenity": "bank",
        "atm": "yes",
        "brand": "HDFC Bank",
        "brand:wikidata": "Q631047",
        "brand:wikipedia": "en:HDFC Bank",
        "name": "HDFC Bank",
        "name:kn": "ಎಚ್ ಡಿ ಎಫ್ ಸಿ",
        "short_name": "HDFC",
        "website": "https://www.hdfcbank.com"
      }
    },
    {
      "type": "node",
      "id": 4198402538,
      "lat": 13.0637714,
      "lon": 77.5905824,
      "tags": {
        "amenity": "cafe",
        "cuisine": "ice_cream",
        "name": "Svensens Icrecream"
      }
    },
    {
      "type": "node",
      "id": 4320933119,
      "lat": 13.063575,
      "lon": 77.5901585,
      "tags": {
        "name": "Reliance Trends Footwear",
        "operator": "Reliance",
        "shop": "shoes"
      }
    },
    {
      "type": "node",
      "id": 4320933120,
      "lat": 13.0632045,
      "lon": 77.592116,
      "tags": {
        "amenity": "fast_food",
        "brand": "Domino's",
        "brand:ks": "ڈومینوز",
        "brand:pa": "ਡੋਮੀਨੋਜ਼",
        "brand:ur": "ڈومینوز",
        "brand:wikidata": "Q839466",
        "brand:wikipedia": "en:Domino's Pizza",
        "cuisine": "pizza",
        "name": "Domino's",
        "name:kn": "ಡಾಮಿನೋಸ್",
        "name:ks": "ڈومینوز",
        "name:pa": "ਡੋਮੀਨੋਜ਼",
        "name:ur": "ڈومینوز",
        "takeaway": "yes"
      }
    },
    {
      "type": "node",
      "id": 4320933123,
      "lat": 13.0633532,
      "lon": 77.5906518,
      "tags": {
        "brand": "Reliance Fresh",
        "brand:wikidata": "Q7311014",
        "internet_access": "wlan",
        "name": "Reliance Fresh",
        "name:kn": "ರಿಲಾಯನ್ಸ್ ಫ್ರೆಶ್",
        "shop": "supermarket"
      }
    },
    {
      "type": "node",
      "id": 4320933124,
      "lat": 13.0631724,
      "lon": 77.5914073,
      "tags": {
        "amenity": "bank",
        "brand": "Bank of India",
        "brand:wikidata": "Q2004439",
        "brand:wikipedia": "en:Bank of India",
        "name": "Bank of India",
        "name:en": "Bank of India",
        "short_name": "BoI",
        "website": "http://www.bankofindia.co.in"
      }
    },
    {
      "type": "node",
      "id": 4320933964,
      "lat": 13.0607699,
      "lon": 77.5896859,
      "tags": {
        "addr:housenumber": "216/2",
        "addr:street": "10th Cross",
        "amenity": "bank",
        "name": "The Janatha Co-Op Bank Ltd",
        "opening_hours": "Mo-Fr 10:00-14:00,15:00-18:00"
      }
    },
    {
      "type": "node",
      "id": 4320934703,
      "lat": 13.0632562,
      "lon": 77.5886973,
      "tags": {
        "name": "S N Colour Tech",
        "shop": "copyshop"
      }
    },
    {
      "type": "node",
      "id": 4320934745,
      "lat": 13.0604648,
      "lon": 77.5895297,
      "tags": {
        "amenity": "waste_basket"
      }
    },
    {
      "type": "node",
      "id": 4320935205,
      "lat": 13.0633333,
      "lon": 77.59087,
      "tags": {
        "amenity": "bank",
        "brand": "IndusInd Bank",
        "brand:wikidata": "Q2040323",
        "brand:wikipedia": "en:IndusInd Bank",
        "name": "IndusInd Bank",
        "name:en": "IndusInd Bank",
        "name:kn": "ಇಂಡಸ್ಇಂಡ್",
        "website": "https://www.indusind.com"
      }
    },
    {
      "type": "node",
      "id": 4320935242,
      "lat": 13.0635308,
      "lon": 77.591253,
      "tags": {
        "brand": "Reliance Digital",
        "brand:wikidata": "Q7311012",
        "name": "Reliance Digital",
        "name:kn": "ರಿಲಾಯನ್ಸ್ ಡಿಜಿಟಲ್",
        "shop": "electronics"
      }
    },
    {
      "type": "node",
      "id": 4489701345,
      "lat": 13.063594,
      "lon": 77.5895541,
      "tags": {
        "addr:city": "bangalore",
        "addr:housenumber": "19",
        "addr:postcode": "560092",
        "addr:street": "2nd Floor, Diamond Arcade, 60 Feet Road, F Block, Sahakara Nagar",
        "leisure": "fitness_centre",
        "name": "Snap Fitness",
        "opening_hours": "5:00-11:00",
        "phone": "(91)-80-39557019",
        "sport": "gymnastics",
        "website": "www.snapfitnessindia.com"
      }
    },
    {
      "type": "node",
      "id": 4490121585,
      "lat": 13.063557,
      "lon": 77.591335,
      "tags": {
        "addr:city": "bangalore",
        "addr:housenumber": "40/1",
        "addr:postcode": "560092",
        "addr:street": "Sahakara Nagar Main Rd 2nd floor Century Corbel Commercial Sahakaranagar, Bhadrappa Layout, Park View Layout, Bengaluru",
        "leisure": "sports_centre",
        "name": "Haute Fitness",
        "opening_hours": "5:30-21:00",
        "phone": "9008800800"
      }
    },
    {
      "type": "node",
      "id": 4590999273,
      "lat": 13.0659754,
      "lon": 77.600105,
      "tags": {
        "addr:city": "Bangalore",
        "addr:postcode": "560092",
        "addr:street": "Amrutahalli Main Road",
        "amenity": "fast_food",
        "brand": "Five Star Chicken",
        "brand:wikidata": "Q124374267",
        "cuisine": "chicken",
        "delivery": "yes",
        "name": "Five Star Chicken",
        "takeaway": "yes"
      }
    },
    {
      "type": "node",
      "id": 4590999275,
      "lat": 13.0661389,
      "lon": 77.5983966,
      "tags": {
        "addr:city": "Bangalore",
        "addr:postcode": "560092",
        "addr:street": "Amrutahalli Main Road",
        "amenity": "bank",
        "atm": "yes",
        "brand": "State Bank of India",
        "brand:wikidata": "Q1340361",
        "brand:wikipedia": "en:State Bank of India",
        "name": "State Bank of India",
        "name:kn": "ಭಾರತೀಯ ಸ್ಟೇಟ್ ಬ್ಯಾಂಕ್",
        "phone": "080 2594 3190",
        "short_name": "SBI",
        "website": "https://sbi.co.in/"
      }
    },
    {
      "type": "node",
      "id": 4590999276,
      "lat": 13.0661892,
      "lon": 77.5981298,
      "tags": {
        "addr:city": "Bangalore",
        "addr:postcode": "560092",
        "addr:street": "Amrutahalli Main Road",
        "name": "VBS Iyengar Bakery & Sweets",
        "shop": "bakery"
      }
    },
    {
      "type": "node",
      "id": 5018090468,
      "lat": 13.0673396,
      "lon": 77.593683,
      "tags": {
        "addr:street": "Amruthahalli Main Road",
        "amenity": "bank",
        "name": "Vijaya Bank",
        "name:kn": "ವಿಜಯ ಬ್ಯಾಂಕ್"
      }
    },
    {
      "type": "node",
      "id": 5018092228,
      "lat": 13.0672845,
      "lon": 77.5941277,
      "tags": {
        "amenity": "toilets",
        "name": "Public Toilet",
        "name:kn": "ಸಾರ್ವಜನಿಕ ಶೌಚಾಲಯ"
      }
    },
    {
      "type": "node",
      "id": 5018092645,
      "lat": 13.0661591,
      "lon": 77.5971544,
      "tags": {
        "brand": "Reliance Fresh",
        "brand:wikidata": "Q7311014",
        "name": "Reliance Fresh",
        "name:kn": "ರಿಲಾಯನ್ಸ್ ಫ್ರೆಶ್",
        "shop": "supermarket"
      }
    },
    {
      "type": "node",
      "id": 5036644470,
      "lat": 13.0636119,
      "lon": 77.5913837,
      "tags": {
        "addr:postcode": "560092",
        "amenity": "pub",
        "cuisine": "indian",
        "level": "3;4",
        "microbrewery": "yes",
        "name": "The Druid Garden",
        "smoking": "separated"
      }
    },
    {
      "type": "node",
      "id": 5313506321,
      "lat": 13.0637012,
      "lon": 77.5917136,
      "tags": {
        "name": "Ramesh Chicken centre",
        "shop": "butcher"
      }
    },
    {
      "type": "node",
      "id": 5414858921,
      "lat": 13.0628795,
      "lon": 77.5926056,
      "tags": {
        "amenity": "restaurant",
        "name": "rara avis"
      }
    },
    {
      "type": "node",
      "id": 5685480838,
      "lat": 13.0641199,
      "lon": 77.5868748,
      "tags": {
        "name": "Cake Palace",
        "shop": "pastry"
      }
    },
    {
      "type": "node",
      "id": 5685496066,
      "lat": 13.0639984,
      "lon": 77.5868445,
      "tags": {
        "addr:housenumber": "144/42/2",
        "addr:street": "20th Main",
        "name": "Muskan Electrical Sales & Service",
        "shop": "appliance"
      }
    },
    {
      "type": "node",
      "id": 5685533527,
      "lat": 13.0638551,
      "lon": 77.5885041,
      "tags": {
        "name": "Poorvika",
        "shop": "mobile_phone"
      }
    },
    {
      "type": "node",
      "id": 5685537319,
      "lat": 13.0641993,
      "lon": 77.5866078,
      "tags": {
        "amenity": "studio",
        "name": "Guru Kala Kutir"
      }
    },
    {
      "type": "node",
      "id": 5685537320,
      "lat": 13.06502,
      "lon": 77.5843009,
      "tags": {
        "name": "Lee Car Decor",
        "shop": "car_parts"
      }
    },
    {
      "type": "node",
      "id": 5685537492,
      "lat": 13.0638286,
      "lon": 77.5864221,
      "tags": {
        "amenity": "kindergarten",
        "name": "Oi Playschool"
      }
    },
    {
      "type": "node",
      "id": 5685537583,
      "lat": 13.0637485,
      "lon": 77.5867282,
      "tags": {
        "name": "Iyengar's Bakery & Sweets",
        "name:kn": "ಐಯ್ಯಂಗಾರ್ ಬೇಕರಿ",
        "shop": "pastry"
      }
    },
    {
      "type": "node",
      "id": 5685538293,
      "lat": 13.0635883,
      "lon": 77.5870373,
      "tags": {
        "name": "Kyara",
        "shop": "clothes"
      }
    },
    {
      "type": "node",
      "id": 5685540790,
      "lat": 13.0654131,
      "lon": 77.5845668,
      "tags": {
        "name": "Kar Dry Cleaners",
        "shop": "dry_cleaning"
      }
    },
    {
      "type": "node",
      "id": 5685542194,
      "lat": 13.0638835,
      "lon": 77.5880338,
      "tags": {
        "amenity": "restaurant",
        "name": "Breadworks"
      }
    },
    {
      "type": "node",
      "id": 5685542907,
      "lat": 13.0638295,
      "lon": 77.5871557,
      "tags": {
        "amenity": "bank",
        "branch": "Sahakaranagara",
        "brand": "Canara Bank",
        "brand:en": "Canara Bank",
        "brand:hi": "केनरा बैंक",
        "brand:kn": "ಕೆನರಾ ಬ್ಯಾಂಕ್",
        "brand:pa": "ਕੇਨਰਾ ਬੈਂਕ",
        "brand:pnb": "کینرا بینک",
        "brand:ur": "کینرا بینک",
        "brand:wikidata": "Q2003777",
        "brand:wikipedia": "en:Canara Bank",
        "brand:wikipedia:pa": "ਕੇਨਰਾ ਬੈਂਕ",
        "name": "Canara Bank",
        "name:en": "Canara Bank",
        "name:hi": "केनरा बैंक",
        "name:kn": "ಕೆನರಾ ಬ್ಯಾಂಕ್",
        "name:pa": "ਕੇਨਰਾ ਬੈਂਕ",
        "name:pnb": "کینرا بینک",
        "name:ur": "کینرا بینک"
      }
    },
    {
      "type": "node",
      "id": 5685544903,
      "lat": 13.063618,
      "lon": 77.5874401,
      "tags": {
        "name": "Vinayaka Electricals",
        "shop": "electrical"
      }
    },
    {
      "type": "node",
      "id": 5685583485,
      "lat": 13.0636397,
      "lon": 77.5886718,
      "tags": {
        "name": "LaundrEx",
        "shop": "laundry"
      }
    },
    {
      "type": "node",
      "id": 5685583887,
      "lat": 13.0638577,
      "lon": 77.5901963,
      "tags": {
        "amenity": "pub",
        "name": "Blyton's Bar"
      }
    },
    {
      "type": "node",
      "id": 5685589694,
      "lat": 13.063911,
      "lon": 77.5831924,
      "tags": {
        "amenity": "bank",
        "brand": "Allahabad Bank",
        "brand:wikidata": "Q2018840",
        "name": "Allahabad Bank",
        "name:kn": "ಅಲಹಾಬಾದ್ ಬ್ಯಾಂಕ"
      }
    },
    {
      "type": "node",
      "id": 5685596884,
      "lat": 13.0668023,
      "lon": 77.594974,
      "tags": {
        "amenity": "fast_food",
        "name": "Sri Vinayaka Hot Chips"
      }
    },
    {
      "type": "node",
      "id": 5685604413,
      "lat": 13.0666013,
      "lon": 77.5955056,
      "tags": {
        "amenity": "restaurant",
        "diet:vegetarian": "yes",
        "name": "Udupi Garden"
      }
    },
    {
      "type": "node",
      "id": 5685607107,
      "lat": 13.0666891,
      "lon": 77.5957734,
      "tags": {
        "amenity": "atm",
        "brand": "ICICI Bank",
        "brand:wikidata": "Q1653258",
        "name": "ICICI Bank",
        "name:kn": "ಐಸಿಐಸಿಐ",
        "operator": "ICICI Bank",
        "operator:wikidata": "Q1653258",
        "short_name": "ICICI"
      }
    },
    {
      "type": "node",
      "id": 5685610667,
      "lat": 13.0668568,
      "lon": 77.5956679,
      "tags": {
        "name": "Shoba Hyper Mart",
        "shop": "department_store"
      }
    },
    {
      "type": "node",
      "id": 5685610668,
      "lat": 13.0666502,
      "lon": 77.5960248,
      "tags": {
        "name": "Karnataka Liquor Mart",
        "shop": "alcohol"
      }
    },
    {
      "type": "node",
      "id": 5685611178,
      "lat": 13.0666217,
      "lon": 77.5961004,
      "tags": {
        "brand": "Kanti Sweets",
        "name": "Kanti Sweets",
        "shop": "confectionery"
      }
    },
    {
      "type": "node",
      "id": 5685618141,
      "lat": 13.0664697,
      "lon": 77.5966503,
      "tags": {
        "butcher": "poultry",
        "name": "KMV Chicken Centre",
        "shop": "butcher"
      }
    },
    {
      "type": "node",
      "id": 5685621495,
      "lat": 13.0664714,
      "lon": 77.5966904,
      "tags": {
        "name": "NSF Fish Point",
        "shop": "seafood"
      }
    },
    {
      "type": "node",
      "id": 5685631844,
      "lat": 13.0664518,
      "lon": 77.5967472,
      "tags": {
        "name": "Disco Mutton Point",
        "shop": "butcher"
      }
    },
    {
      "type": "node",
      "id": 5685633085,
      "lat": 13.0662346,
      "lon": 77.5972173,
      "tags": {
        "shop": "florist"
      }
    },
    {
      "type": "node",
      "id": 5685633086,
      "lat": 13.066291,
      "lon": 77.5970377,
      "tags": {
        "shop": "florist"
      }
    },
    {
      "type": "node",
      "id": 5685633233,
      "lat": 13.066374,
      "lon": 77.5971954,
      "tags": {
        "amenity": "fast_food",
        "name": "Sip 'N' Crunch"
      }
    },
    {
      "type": "node",
      "id": 6298970281,
      "lat": 13.0632918,
      "lon": 77.5910715,
      "tags": {
        "amenity": "cafe",
        "name": "Swiss Cream"
      }
    },
    {
      "type": "node",
      "id": 6777955236,
      "lat": 13.0659919,
      "lon": 77.5979601,
      "tags": {
        "name": "Medplus",
        "name:kn": "ಮೆಡ್‍ಪ್ಲಸ್",
        "shop": "medical_supply"
      }
    },
    {
      "type": "node",
      "id": 6779080168,
      "lat": 13.0665131,
      "lon": 77.5966238,
      "tags": {
        "amenity": "bank",
        "branch": "Amruthahalli Branch",
        "brand": "State Bank of India",
        "brand:wikidata": "Q1340361",
        "name": "State Bank of India",
        "opening_hours": "Mo-Fr 10:00-16:00",
        "short_name": "SBI"
      }
    },
    {
      "type": "node",
      "id": 6779108057,
      "lat": 13.0661787,
      "lon": 77.5979961,
      "tags": {
        "amenity": "atm",
        "brand": "ICICI Bank",
        "brand:wikidata": "Q1653258",
        "cash_in": "no",
        "drive_through": "no",
        "name": "ICICI Bank ATM",
        "opening_hours": "Mo-Su 00:00-12:00",
        "operator": "ICICI Bank",
        "operator:wikidata": "Q1653258",
        "short_name": "ICICI"
      }
    },
    {
      "type": "node",
      "id": 6779113256,
      "lat": 13.0662126,
      "lon": 77.597857,
      "tags": {
        "amenity": "bank",
        "brand": "HDFC Bank",
        "brand:wikidata": "Q631047",
        "name": "HDFC Bank",
        "name:kn": "ಎಚ್ ಡಿ ಎಫ್ ಸಿ",
        "opening_hours": "Mo-Fr 10:00-16:00",
        "short_name": "HDFC"
      }
    },
    {
      "type": "node",
      "id": 6779117312,
      "lat": 13.066438,
      "lon": 77.5969948,
      "tags": {
        "amenity": "restaurant",
        "name": "Mylari-Inn"
      }
    },
    {
      "type": "node",
      "id": 6779119335,
      "lat": 13.0665572,
      "lon": 77.59647,
      "tags": {
        "amenity": "hospital",
        "name": "Venus Bone & Joint Centre",
        "opening_hours": "Mo-Su 10:00-21:00"
      }
    },
    {
      "type": "node",
      "id": 6779131246,
      "lat": 13.0666281,
      "lon": 77.596213,
      "tags": {
        "name": "Adishwar Electro World",
        "opening_hours": "Mo-Su 10:00-22:00",
        "shop": "electrical"
      }
    },
    {
      "type": "node",
      "id": 6779132020,
      "lat": 13.0665416,
      "lon": 77.596517,
      "tags": {
        "amenity": "pharmacy",
        "name": "Sri Srinivasa Medical Centre"
      }
    },
    {
      "type": "node",
      "id": 6779132395,
      "lat": 13.0662012,
      "lon": 77.5979099,
      "tags": {
        "amenity": "atm",
        "brand": "HDFC Bank",
        "brand:wikidata": "Q631047",
        "name": "HDFC Bank Atm",
        "opening_hours": "Mo-Su 00:00-12:00",
        "operator": "HDFC Bank",
        "operator:wikidata": "Q631047",
        "short_name": "HDFC"
      }
    },
    {
      "type": "node",
      "id": 6779132676,
      "lat": 13.0663696,
      "lon": 77.5972154,
      "tags": {
        "name": "Lakshmi Eye Care & Opticals",
        "shop": "optician"
      }
    },
    {
      "type": "node",
      "id": 6779134427,
      "lat": 13.0665224,
      "lon": 77.596578,
      "tags": {
        "amenity": "atm",
        "brand": "State Bank of India",
        "brand:wikidata": "Q1340361",
        "name": "SBI ATM",
        "name:kn": "ಭಾರತೀಯ ಸ್ಟೇಟ್ ಬ್ಯಾಂಕ್",
        "opening_hours": "Mo-Su 00:00-12:00",
        "operator": "State Bank of India",
        "operator:wikidata": "Q1340361",
        "short_name": "SBI"
      }
    },
    {
      "type": "node",
      "id": 6782951690,
      "lat": 13.0605479,
      "lon": 77.588392,
      "tags": {
        "amenity": "pharmacy",
        "check_date": "2024-06-01",
        "healthcare": "pharmacy",
        "name": "SLR Pharma"
      }
    },
    {
      "type": "node",
      "id": 6783354336,
      "lat": 13.066602,
      "lon": 77.5963556,
      "tags": {
        "amenity": "bank",
        "name": "Sri Sudha Co-Operative Bank Ltd"
      }
    },
    {
      "type": "node",
      "id": 6783371675,
      "lat": 13.0665055,
      "lon": 77.5966478,
      "tags": {
        "amenity": "clinic",
        "name": "Amrithasai Dental Clinic",
        "opening_hours": "Mo-Sa 10:00-21:00"
      }
    },
    {
      "type": "node",
      "id": 6857427254,
      "lat": 13.0728382,
      "lon": 77.5962612,
      "tags": {
        "male": "yes",
        "name": "Amog Gents Hair Style",
        "shop": "hairdresser"
      }
    },
    {
      "type": "node",
      "id": 6857427255,
      "lat": 13.0730328,
      "lon": 77.595246,
      "tags": {
        "addr:city": "Bengaluru",
        "addr:country": "IN",
        "addr:housenumber": "10/1",
        "addr:postcode": "560064",
        "addr:street": "Jakkur Main Road",
        "email": "info@stanz.in",
        "name": "Stanz",
        "phone": "+91 80 4377 3475",
        "shop": "interior_decoration",
        "website": "http://stanz.in/"
      }
    },
    {
      "type": "node",
      "id": 6857427289,
      "lat": 13.0731021,
      "lon": 77.5931659,
      "tags": {
        "name": "Anand Timbers",
        "shop": "furniture"
      }
    },
    {
      "type": "node",
      "id": 6857427291,
      "lat": 13.0678231,
      "lon": 77.5934744,
      "tags": {
        "brand": "Hero",
        "brand:wikidata": "Q1613763",
        "name": "Hero",
        "shop": "motorcycle"
      }
    },
    {
      "type": "node",
      "id": 6944577884,
      "lat": 13.0657486,
      "lon": 77.5992653,
      "tags": {
        "addr:district": "Bengaluru Urban",
        "addr:full": "No. 1, Near Water Tank Jakkur Main Road Amruthahalli",
        "addr:postcode": "560092",
        "addr:state": "Karnataka",
        "amenity": "hospital",
        "name": "Amrutha Hospital",
        "name:kn": "ಅಂಬುರ್ ಬಿರಿಯಾನಿ",
        "source": "OpenGovernmentData"
      }
    },
    {
      "type": "node",
      "id": 7179084273,
      "lat": 13.0660933,
      "lon": 77.5983768,
      "tags": {
        "amenity": "restaurant",
        "cuisine": "indian",
        "name": "Kadak Hotel"
      }
    },
    {
      "type": "node",
      "id": 7179366518,
      "lat": 13.0659269,
      "lon": 77.6002158,
      "tags": {
        "amenity": "fast_food",
        "name": "Rolls Delight"
      }
    },
    {
      "type": "node",
      "id": 7235029659,
      "lat": 13.063717,
      "lon": 77.5906393,
      "tags": {
        "amenity": "restaurant",
        "name": "Watsons"
      }
    },
    {
      "type": "node",
      "id": 7299151127,
      "lat": 13.0626929,
      "lon": 77.5898165,
      "tags": {
        "addr:city": "Bengaluru",
        "addr:country": "IN",
        "addr:hamlet": "Sahakar Nagar",
        "addr:housenumber": "194",
        "addr:postcode": "560092",
        "addr:street": "10th Cross F/G Block Rd",
        "addr:suburb": "Byatarayanapura",
        "amenity": "school",
        "email": "music@nathanielschool.com",
        "name": "Nathaniel School of Music",
        "website": "https://www.nathanielschool.com/"
      }
    },
    {
      "type": "node",
      "id": 7577248269,
      "lat": 13.0658472,
      "lon": 77.5992844,
      "tags": {
        "addr:district": "Bengaluru Urban",
        "addr:full": "Talacauvery Layout, Sneha Nagar, Byatarayanapura, Bengaluru",
        "addr:postcode": "560092",
        "addr:state": "Karnataka",
        "amenity": "hospital",
        "healthcare": "hospital",
        "name": "Eswar Women and Day Care Hospital",
        "source": "Local Knowledge"
      }
    },
    {
      "type": "node",
      "id": 7973362701,
      "lat": 13.0635732,
      "lon": 77.5878216,
      "tags": {
        "name": "Cake Delight",
        "shop": "bakery"
      }
    },
    {
      "type": "node",
      "id": 7973373583,
      "lat": 13.0635756,
      "lon": 77.5855555,
      "tags": {
        "description": "mobile and computer accessories",
        "name": "Krissh Tech World",
        "shop": "electronics"
      }
    },
    {
      "type": "node",
      "id": 7976280929,
      "lat": 13.0661029,
      "lon": 77.5983289,
      "tags": {
        "name": "Meaty",
        "shop": "butcher"
      }
    },
    {
      "type": "node",
      "id": 7976322812,
      "lat": 13.0626666,
      "lon": 77.5871974,
      "tags": {
        "addr:housenumber": "547",
        "check_date": "2024-07-17",
        "name": "Nandi Stationary",
        "shop": "books"
      }
    },
    {
      "type": "node",
      "id": 8094091476,
      "lat": 13.0663964,
      "lon": 77.5966956,
      "tags": {
        "name": "R.K. Color lab and studio",
        "shop": "photo_studio"
      }
    },
    {
      "type": "node",
      "id": 8094156976,
      "lat": 13.0587702,
      "lon": 77.5914001,
      "tags": {
        "name": "My Pintoo",
        "shop": "shoe_repair"
      }
    },
    {
      "type": "node",
      "id": 8283583120,
      "lat": 13.0639874,
      "lon": 77.58574,
      "tags": {
        "amenity": "dentist",
        "name": "Dental Conceptz",
        "phone": "080 2363 6923",
        "website": "https://www.dentalconceptz.com/"
      }
    },
    {
      "type": "node",
      "id": 8283691140,
      "lat": 13.0637882,
      "lon": 77.585851,
      "tags": {
        "description": "fresh fruits and vegetables",
        "name": "Taaza Vegetables & Fruits",
        "opening_hours": "Mo-Su 08:00-20:30",
        "shop": "farm"
      }
    },
    {
      "type": "node",
      "id": 8543840371,
      "lat": 13.0639837,
      "lon": 77.5857473,
      "tags": {
        "amenity": "dentist",
        "name": "Dental Concepts"
      }
    },
    {
      "type": "node",
      "id": 8985207467,
      "lat": 13.0586132,
      "lon": 77.5931287,
      "tags": {
        "amenity": "restaurant",
        "name": "Thalassery Restaurant",
        "opening_hours": "Mo-Su 11:00-22:30"
      }
    },
    {
      "type": "node",
      "id": 9583428989,
      "lat": 13.0577416,
      "lon": 77.5929648,
      "tags": {
        "name": "Girias",
        "name:kn": "ಗಿರಿಯಾಸ್",
        "shop": "electronics"
      }
    },
    {
      "type": "node",
      "id": 9583428990,
      "lat": 13.0596934,
      "lon": 77.5930734,
      "tags": {
        "brand": "Nature's Basket",
        "brand:wikidata": "Q28174237",
        "name": "Nature's Basket",
        "shop": "supermarket"
      }
    },
    {
      "type": "node",
      "id": 9583509820,
      "lat": 13.0632886,
      "lon": 77.5911462,
      "tags": {
        "name": "Just Bake",
        "name:kn": "ಜಸ್ಟ್ ಬೇಕ್",
        "shop": "bakery"
      }
    },
    {
      "type": "node",
      "id": 9583509823,
      "lat": 13.0634991,
      "lon": 77.59136,
      "tags": {
        "access": "customers",
        "amenity": "parking_entrance",
        "entrance": "yes",
        "fee": "yes",
        "lit": "yes",
        "parking": "underground"
      }
    },
    {
      "type": "node",
      "id": 9583509828,
      "lat": 13.0624773,
      "lon": 77.5928615,
      "tags": {
        "name": "Amma's Pastries",
        "shop": "bakery"
      }
    },
    {
      "type": "node",
      "id": 9583509836,
      "lat": 13.0668211,
      "lon": 77.5928883,
      "tags": {
        "amenity": "restaurant",
        "cuisine": "regional",
        "name": "Huliyappa's Donne Biryani"
      }
    },
    {
      "type": "node",
      "id": 9895593204,
      "lat": 13.0606314,
      "lon": 77.5896449,
      "tags": {
        "amenity": "cafe",
        "cuisine": "italian",
        "name": "Cafe Rome"
      }
    },
    {
      "type": "node",
      "id": 10110472158,
      "lat": 13.0605339,
      "lon": 77.5897128,
      "tags": {
        "amenity": "restaurant",
        "cuisine": "korean",
        "name": "Hi Seoul"
      }
    },
    {
      "type": "node",
      "id": 10110472159,
      "lat": 13.0610484,
      "lon": 77.5890472,
      "tags": {
        "name": "Winni Cakes and More",
        "shop": "bakery"
      }
    },
    {
      "type": "node",
      "id": 10110472160,
      "lat": 13.061073,
      "lon": 77.5890724,
      "tags": {
        "name": "Encapture Unisex Salon",
        "shop": "hairdresser"
      }
    },
    {
      "type": "node",
      "id": 10110472161,
      "lat": 13.0619585,
      "lon": 77.5878057,
      "tags": {
        "amenity": "restaurant",
        "cuisine": "south Indian",
        "name": "Davanagere Benne Dosa",
        "name:kn": "ದಾವಣಗೆರೆ ಬೆಣ್ಣೆ ದೋಸೆ"
      }
    },
    {
      "type": "node",
      "id": 10110472162,
      "lat": 13.0620285,
      "lon": 77.5876772,
      "tags": {
        "amenity": "atm",
        "brand": "State Bank of India",
        "brand:wikidata": "Q1340361",
        "name": "State Bank of India",
        "name:kn": "ಎಸ್ ಬಿ ಐ",
        "operator": "State Bank of India",
        "operator:wikidata": "Q1340361",
        "short_name": "SBI"
      }
    },
    {
      "type": "node",
      "id": 10110472163,
      "lat": 13.0623347,
      "lon": 77.587278,
      "tags": {
        "name": "Lakshmi Silk and Sarees",
        "shop": "clothes"
      }
    },
    {
      "type": "node",
      "id": 10110472164,
      "lat": 13.0626418,
      "lon": 77.5868586,
      "tags": {
        "name": "Flaunt Styling",
        "shop": "hairdresser"
      }
    },
    {
      "type": "node",
      "id": 10110472165,
      "lat": 13.0629512,
      "lon": 77.5864279,
      "tags": {
        "name": "Ganga bakes",
        "shop": "bakery"
      }
    },
    {
      "type": "node",
      "id": 10110472166,
      "lat": 13.0632343,
      "lon": 77.5860528,
      "tags": {
        "name": "Vaibhav Jewels",
        "shop": "jewelry"
      }
    },
    {
      "type": "node",
      "id": 10110472167,
      "lat": 13.0637468,
      "lon": 77.5853374,
      "tags": {
        "amenity": "restaurant",
        "name": "Brahmin's Thatte Idli"
      }
    },
    {
      "type": "node",
      "id": 10110472172,
      "lat": 13.0638985,
      "lon": 77.5851344,
      "tags": {
        "brand": "Kanti Sweets",
        "name": "Kanti Sweets",
        "shop": "confectionery"
      }
    },
    {
      "type": "node",
      "id": 10110472173,
      "lat": 13.0641062,
      "lon": 77.5848818,
      "tags": {
        "amenity": "kindergarten",
        "name": "Canadian Play School"
      }
    },
    {
      "type": "node",
      "id": 10242924674,
      "lat": 13.058757,
      "lon": 77.5913487,
      "tags": {
        "amenity": "recycling",
        "name": "BBMP Dry Waste Collection Center",
        "name:kn": "ಒಣ ತ್ಯಾಜ್ಯ ನಿರ್ವಹಣೆಗೆ ಸ್ಥಳ",
        "recycling_type": "centre"
      }
    },
    {
      "type": "node",
      "id": 10293921756,
      "lat": 13.0628823,
      "lon": 77.5940591,
      "tags": {
        "brand": "Simpli Namdhari's",
        "diet:vegetarian": "only",
        "name": "Simpli Namdhari's",
        "organic": "only",
        "shop": "supermarket",
        "website": "https://www.simplinamdharis.com/"
      }
    },
    {
      "type": "node",
      "id": 10574692876,
      "lat": 13.0637785,
      "lon": 77.5906715,
      "tags": {
        "amenity": "restaurant",
        "cuisine": "regional",
        "name": "And It Was Called Yellow"
      }
    },
    {
      "type": "node",
      "id": 10574692877,
      "lat": 13.0635574,
      "lon": 77.5902577,
      "tags": {
        "amenity": "fast_food",
        "cuisine": "regional",
        "name": "Holige Mane"
      }
    },
    {
      "type": "node",
      "id": 10731130898,
      "lat": 13.072895,
      "lon": 77.5979094,
      "tags": {
        "amenity": "waste_disposal"
      }
    },
    {
      "type": "node",
      "id": 10731130899,
      "lat": 13.0728937,
      "lon": 77.5979443,
      "tags": {
        "amenity": "waste_disposal"
      }
    },
    {
      "type": "node",
      "id": 10731130900,
      "lat": 13.0728944,
      "lon": 77.5978746,
      "tags": {
        "amenity": "waste_disposal"
      }
    },
    {
      "type": "node",
      "id": 10731130901,
      "lat": 13.0728957,
      "lon": 77.5978397,
      "tags": {
        "amenity": "waste_disposal"
      }
    },
    {
      "type": "node",
      "id": 11117270548,
      "lat": 13.0627726,
      "lon": 77.5872356,
      "tags": {
        "amenity": "cafe",
        "brand": "Glen's Bakehouse",
        "delivery": "yes",
        "name": "Glen's Bakehouse",
        "shop": "pastry",
        "takeaway": "yes"
      }
    },
    {
      "type": "node",
      "id": 11125643764,
      "lat": 13.063013,
      "lon": 77.58524,
      "tags": {
        "access": "yes",
        "amenity": "toilets",
        "fee": "yes",
        "operator": "BBMP"
      }
    },
    {
      "type": "node",
      "id": 11125643772,
      "lat": 13.0621534,
      "lon": 77.5868708,
      "tags": {
        "amenity": "shelter",
        "shelter_type": "gazebo"
      }
    },
    {
      "type": "node",
      "id": 11125643773,
      "lat": 13.0592218,
      "lon": 77.5907848,
      "tags": {
        "amenity": "shelter",
        "shelter_type": "gazebo"
      }
    },
    {
      "type": "node",
      "id": 11153633341,
      "lat": 13.0600654,
      "lon": 77.592715,
      "tags": {
        "amenity": "restaurant",
        "name": "Kyba"
      }
    },
    {
      "type": "node",
      "id": 11209916090,
      "lat": 13.058685,
      "lon": 77.5924599,
      "tags": {
        "amenity": "restaurant",
        "check_date": "2023-09-22",
        "name": "Mani's Dum Biryani",
        "wheelchair": "no"
      }
    },
    {
      "type": "node",
      "id": 11209916091,
      "lat": 13.0586257,
      "lon": 77.5924592,
      "tags": {
        "amenity": "doctors",
        "check_date": "2023-09-22",
        "healthcare": "doctor",
        "healthcare:speciality": "paediatrics",
        "name": "mom&me"
      }
    },
    {
      "type": "node",
      "id": 11209916092,
      "lat": 13.0586149,
      "lon": 77.5926095,
      "tags": {
        "amenity": "restaurant",
        "check_date": "2023-09-22",
        "name": "Malwan Tadka"
      }
    },
    {
      "type": "node",
      "id": 11215500029,
      "lat": 13.0579787,
      "lon": 77.5929997,
      "tags": {
        "brand": "Hyundai",
        "brand:wikidata": "Q55931",
        "name": "Hyundai",
        "operator": "Lakshmi Hyundai",
        "shop": "car"
      }
    },
    {
      "type": "node",
      "id": 11219782001,
      "lat": 13.0625167,
      "lon": 77.5928357,
      "tags": {
        "amenity": "pharmacy",
        "healthcare": "pharmacy",
        "name": "SVM Pharmacy"
      }
    },
    {
      "type": "node",
      "id": 11219782002,
      "lat": 13.062485,
      "lon": 77.5929199,
      "tags": {
        "name": "Baby Nest",
        "shop": "baby_goods"
      }
    },
    {
      "type": "node",
      "id": 11219782011,
      "lat": 13.0625843,
      "lon": 77.5923963,
      "tags": {
        "name": "FNP Cakes",
        "shop": "bakery"
      }
    },
    {
      "type": "node",
      "id": 11219782012,
      "lat": 13.0626229,
      "lon": 77.5923979,
      "tags": {
        "name": "FNP Ferns and Petals",
        "shop": "garden_centre"
      }
    },
    {
      "type": "node",
      "id": 11219782013,
      "lat": 13.0627349,
      "lon": 77.5923801,
      "tags": {
        "amenity": "money_transfer",
        "brand": "Western Union",
        "brand:wikidata": "Q861042",
        "name": "Western Union"
      }
    },
    {
      "type": "node",
      "id": 11219782014,
      "lat": 13.0627057,
      "lon": 77.5923785,
      "tags": {
        "name": "lenzkare.in",
        "shop": "optician"
      }
    },
    {
      "type": "node",
      "id": 11219782015,
      "lat": 13.0627373,
      "lon": 77.5923307,
      "tags": {
        "name": "faye.in",
        "shop": "clothes"
      }
    },
    {
      "type": "node",
      "id": 11219782016,
      "lat": 13.0627974,
      "lon": 77.592266,
      "tags": {
        "clothes": "underwear",
        "name": "Jockey",
        "shop": "clothes"
      }
    },
    {
      "type": "node",
      "id": 11219782017,
      "lat": 13.0628197,
      "lon": 77.5922136,
      "tags": {
        "name": "Bounce Spa and Salon",
        "shop": "hairdresser"
      }
    },
    {
      "type": "node",
      "id": 11219782018,
      "lat": 13.0627654,
      "lon": 77.5922289,
      "tags": {
        "amenity": "dentist",
        "healthcare": "dentist",
        "name": "Dentium"
      }
    },
    {
      "type": "node",
      "id": 11219782019,
      "lat": 13.0628956,
      "lon": 77.5920611,
      "tags": {
        "name": "Designer Destinations",
        "shop": "travel_agency"
      }
    },
    {
      "type": "node",
      "id": 11219782020,
      "lat": 13.0629097,
      "lon": 77.5920231,
      "tags": {
        "name": "Mahadev mobiles",
        "shop": "mobile_phone"
      }
    },
    {
      "type": "node",
      "id": 11219782021,
      "lat": 13.0629266,
      "lon": 77.5919849,
      "tags": {
        "name": "Image Beauty World",
        "shop": "hairdresser"
      }
    },
    {
      "type": "node",
      "id": 11219782022,
      "lat": 13.0629461,
      "lon": 77.5920035,
      "tags": {
        "name": "Protein Point",
        "shop": "nutrition_supplements"
      }
    },
    {
      "type": "node",
      "id": 11219782023,
      "lat": 13.0629383,
      "lon": 77.5919502,
      "tags": {
        "name": "Jayateja Jewellers",
        "shop": "jewelry"
      }
    },
    {
      "type": "node",
      "id": 11219782024,
      "lat": 13.0629587,
      "lon": 77.5919622,
      "tags": {
        "amenity": "restaurant",
        "name": "Donne Biriyani Aramane"
      }
    },
    {
      "type": "node",
      "id": 11219782025,
      "lat": 13.0629032,
      "lon": 77.5919506,
      "tags": {
        "amenity": "fast_food",
        "cuisine": "pizza",
        "name": "Mojo Pizza"
      }
    },
    {
      "type": "node",
      "id": 11219782026,
      "lat": 13.0628837,
      "lon": 77.5920111,
      "tags": {
        "amenity": "restaurant",
        "name": "Box8"
      }
    },
    {
      "type": "node",
      "id": 11219782027,
      "lat": 13.0629924,
      "lon": 77.5918882,
      "tags": {
        "name": "Blak The Shoe Store",
        "shop": "shoes"
      }
    },
    {
      "type": "node",
      "id": 11219782028,
      "lat": 13.0630176,
      "lon": 77.5918405,
      "tags": {
        "brand": "Samsung",
        "brand:wikidata": "Q20718",
        "name": "Samsung",
        "name:kn": "ಸ್ಯಾಮ್‌ಸಂಗ್",
        "operator": "Pinnacle Enterprises",
        "shop": "electronics"
      }
    },
    {
      "type": "node",
      "id": 11219782030,
      "lat": 13.06299,
      "lon": 77.5918316,
      "tags": {
        "amenity": "dentist",
        "healthcare": "dentist",
        "name": "Cross Dental Care"
      }
    },
    {
      "type": "node",
      "id": 11219782031,
      "lat": 13.0630418,
      "lon": 77.5917159,
      "tags": {
        "amenity": "bank",
        "brand": "Yes Bank",
        "brand:wikidata": "Q2040394",
        "name": "Yes Bank",
        "name:kn": "ಯಸ್ ಬ್ಯಾಂಕ್"
      }
    },
    {
      "type": "node",
      "id": 11219782034,
      "lat": 13.0631702,
      "lon": 77.5915292,
      "tags": {
        "name": "Occhi Eyewear",
        "shop": "optician"
      }
    },
    {
      "type": "node",
      "id": 11219782035,
      "lat": 13.0631751,
      "lon": 77.5914991,
      "tags": {
        "amenity": "ice_cream",
        "name": "thancos natural"
      }
    },
    {
      "type": "node",
      "id": 11219782036,
      "lat": 13.0632771,
      "lon": 77.591221,
      "tags": {
        "name": "Sona Stationers",
        "shop": "stationery"
      }
    },
    {
      "type": "node",
      "id": 11219784438,
      "lat": 13.0632511,
      "lon": 77.5910266,
      "tags": {
        "amenity": "fast_food",
        "name": "Sangeetha Restaurant"
      }
    },
    {
      "type": "node",
      "id": 11219784439,
      "lat": 13.0632715,
      "lon": 77.591067,
      "tags": {
        "fixme": "Unable to find out the full name of the book store",
        "name": "Sadan",
        "shop": "books"
      }
    },
    {
      "type": "node",
      "id": 11219784440,
      "lat": 13.0633458,
      "lon": 77.5908133,
      "tags": {
        "amenity": "doctors",
        "healthcare": "doctor",
        "name": "Pristyn Care"
      }
    },
    {
      "type": "node",
      "id": 11219784442,
      "lat": 13.0635119,
      "lon": 77.5904691,
      "tags": {
        "name": "P.V. Bakery & Sweets",
        "shop": "bakery"
      }
    },
    {
      "type": "node",
      "id": 11219784443,
      "lat": 13.0635189,
      "lon": 77.5904386,
      "tags": {
        "name": "Nuts & Bites",
        "shop": "nuts"
      }
    },
    {
      "type": "node",
      "id": 11219784444,
      "lat": 13.0635219,
      "lon": 77.5904076,
      "tags": {
        "amenity": "fast_food",
        "cuisine": "juice",
        "name": "Sree Ganesha Fruits"
      }
    },
    {
      "type": "node",
      "id": 11219784445,
      "lat": 13.063533,
      "lon": 77.590357,
      "tags": {
        "name": "Durga Times",
        "shop": "watches"
      }
    },
    {
      "type": "node",
      "id": 11219784446,
      "lat": 13.0635426,
      "lon": 77.5903265,
      "tags": {
        "name": "Sri Hanuman Rice Traders",
        "shop": "rice"
      }
    },
    {
      "type": "node",
      "id": 11219784451,
      "lat": 13.0635556,
      "lon": 77.5902084,
      "tags": {
        "name": "Perimeter Unisex Salon",
        "shop": "hairdresser"
      }
    },
    {
      "type": "node",
      "id": 11219784468,
      "lat": 13.0636616,
      "lon": 77.5899684,
      "tags": {
        "name": "Go Colours!",
        "shop": "clothes"
      }
    },
    {
      "type": "node",
      "id": 11219784469,
      "lat": 13.0636637,
      "lon": 77.5898966,
      "tags": {
        "brand": "Xiaomi",
        "brand:wikidata": "Q1636958",
        "name": "Xiaomi",
        "shop": "mobile_phone"
      }
    },
    {
      "type": "node",
      "id": 11219784470,
      "lat": 13.0636324,
      "lon": 77.5899294,
      "tags": {
        "amenity": "clinic",
        "contact:email": "nammaclinicals@gmail.com",
        "healthcare": "clinic",
        "name": "Namma Clinics",
        "phone": "+918310092635"
      }
    },
    {
      "type": "node",
      "id": 11219784471,
      "lat": 13.0636656,
      "lon": 77.5898283,
      "tags": {
        "name": "Swathishri",
        "shop": "clothes"
      }
    },
    {
      "type": "node",
      "id": 11219784472,
      "lat": 13.0636703,
      "lon": 77.5897697,
      "tags": {
        "name": "Radha Krishna Collection",
        "shop": "clothes"
      }
    },
    {
      "type": "node",
      "id": 11219784473,
      "lat": 13.0636377,
      "lon": 77.5897879,
      "tags": {
        "name": "Scent Salon",
        "shop": "hairdresser"
      }
    },
    {
      "type": "node",
      "id": 11219784480,
      "lat": 13.0636455,
      "lon": 77.5895433,
      "tags": {
        "amenity": "fast_food",
        "brand": "McDonald's",
        "brand:wikidata": "Q38076",
        "cuisine": "burger",
        "name": "McDonald's",
        "takeaway": "yes"
      }
    },
    {
      "type": "node",
      "id": 11219784482,
      "lat": 13.0636355,
      "lon": 77.5896015,
      "tags": {
        "name": "Dazzle Branded Garments",
        "shop": "clothes"
      }
    },
    {
      "type": "node",
      "id": 11219784487,
      "lat": 13.0636404,
      "lon": 77.5894759,
      "tags": {
        "amenity": "post_office",
        "brand": "Desk to Desk Courier & Cargo",
        "brand:short": "DTDC",
        "brand:wikidata": "Q55608802",
        "name": "Sri Manjunatha Enterprises",
        "operator": "Desk to Desk Courier & Cargo",
        "operator:short": "DTDC",
        "operator:wikidata": "Q55608802"
      }
    },
    {
      "type": "node",
      "id": 11219784488,
      "lat": 13.0636387,
      "lon": 77.5894321,
      "tags": {
        "name": "Rajesh Home Appliances",
        "shop": "appliance"
      }
    },
    {
      "type": "node",
      "id": 11219784497,
      "lat": 13.0636466,
      "lon": 77.5893918,
      "tags": {
        "name": "Basics",
        "shop": "clothes"
      }
    },
    {
      "type": "node",
      "id": 11219784499,
      "lat": 13.0636056,
      "lon": 77.5893748,
      "tags": {
        "name": "Excess Interior",
        "shop": "interior_decoration"
      }
    },
    {
      "type": "node",
      "id": 11219784504,
      "lat": 13.0636446,
      "lon": 77.5892088,
      "tags": {
        "name": "Asha Sweet Center",
        "shop": "confectionery"
      }
    },
    {
      "type": "node",
      "id": 11219784505,
      "lat": 13.0636037,
      "lon": 77.5892082,
      "tags": {
        "name": "Godrej Interio Kitchens",
        "shop": "kitchen"
      }
    },
    {
      "type": "node",
      "id": 11219784510,
      "lat": 13.0636423,
      "lon": 77.5891278,
      "tags": {
        "fixme": "can't make out the name",
        "shop": "hardware"
      }
    },
    {
      "type": "node",
      "id": 11219784515,
      "lat": 13.0636482,
      "lon": 77.5890425,
      "tags": {
        "name": "Hanuman Stores",
        "shop": "department_store"
      }
    },
    {
      "type": "node",
      "id": 11219784516,
      "lat": 13.0636015,
      "lon": 77.5890437,
      "tags": {
        "name": "B'Bob Salon",
        "shop": "hairdresser"
      }
    },
    {
      "type": "node",
      "id": 11219784535,
      "lat": 13.0636337,
      "lon": 77.5888045,
      "tags": {
        "name": "Swathi Enterprises",
        "shop": "clothes"
      }
    },
    {
      "type": "node",
      "id": 11219784536,
      "lat": 13.0635953,
      "lon": 77.5887631,
      "tags": {
        "amenity": "dentist",
        "healthcare": "dentist",
        "name": "Smile Studio Dental Care"
      }
    },
    {
      "type": "node",
      "id": 11219784538,
      "lat": 13.0636066,
      "lon": 77.5886894,
      "tags": {
        "name": "HP Store",
        "operator": "Computer Planet",
        "shop": "computer"
      }
    },
    {
      "type": "node",
      "id": 11219784583,
      "lat": 13.0636355,
      "lon": 77.588526,
      "tags": {
        "amenity": "pharmacy",
        "healthcare": "pharmacy",
        "name": "Shree Mohan Medicines & General Stores"
      }
    },
    {
      "type": "node",
      "id": 11219784584,
      "lat": 13.0635993,
      "lon": 77.588529,
      "tags": {
        "amenity": "dentist",
        "healthcare": "dentist",
        "name": "Aesthetic Dental Care"
      }
    },
    {
      "type": "node",
      "id": 11219784585,
      "lat": 13.0636377,
      "lon": 77.5884858,
      "tags": {
        "shop": "clothes"
      }
    },
    {
      "type": "node",
      "id": 11219784586,
      "lat": 13.0635963,
      "lon": 77.5884225,
      "tags": {
        "brand": "Amplifon",
        "brand:wikidata": "Q477222",
        "name": "Amplifon",
        "opening_hours": "Mo-Su 10:00-19:00",
        "phone": "080-41736884",
        "shop": "hearing_aids"
      }
    },
    {
      "type": "node",
      "id": 11219784587,
      "lat": 13.0636339,
      "lon": 77.588422,
      "tags": {
        "name": "Uniso",
        "shop": "variety_store"
      }
    },
    {
      "type": "node",
      "id": 11219784588,
      "lat": 13.0635663,
      "lon": 77.588335,
      "tags": {
        "name": "Naresh Tadimarri",
        "shop": "hairdresser"
      }
    },
    {
      "type": "node",
      "id": 11219784589,
      "lat": 13.0635932,
      "lon": 77.588335,
      "tags": {
        "amenity": "doctors",
        "healthcare": "doctor",
        "mobile": "9480390855",
        "name": "Dr. Prashanth MV",
        "opening_hours": "Mo-Su 10:00-14:00,17:00-21:00",
        "phone": "080-48518559"
      }
    },
    {
      "type": "node",
      "id": 11219784590,
      "lat": 13.0636301,
      "lon": 77.5883122,
      "tags": {
        "name": "Maya Mobiles Sales & Service",
        "shop": "mobile_phone"
      }
    },
    {
      "type": "node",
      "id": 11219784591,
      "lat": 13.0636318,
      "lon": 77.5883566,
      "tags": {
        "name": "Marrak Mewa",
        "shop": "nuts"
      }
    },
    {
      "type": "node",
      "id": 11219784592,
      "lat": 13.063619,
      "lon": 77.5882408,
      "tags": {
        "name": "Slv Buy & Save",
        "shop": "department_store"
      }
    },
    {
      "type": "node",
      "id": 11219784593,
      "lat": 13.0636273,
      "lon": 77.5881871,
      "tags": {
        "amenity": "clinic",
        "healthcare": "clinic",
        "healthcare:speciality": "fertility",
        "name": "Amogha Fertility Clinic"
      }
    },
    {
      "type": "node",
      "id": 11219784596,
      "lat": 13.0636264,
      "lon": 77.5879642,
      "tags": {
        "name": "Cauvery Arts & Frames",
        "shop": "art"
      }
    },
    {
      "type": "node",
      "id": 11219784603,
      "lat": 13.063619,
      "lon": 77.5877547,
      "tags": {
        "amenity": "fast_food",
        "name": "Bangarpet Chats"
      }
    },
    {
      "type": "node",
      "id": 11219784604,
      "lat": 13.063619,
      "lon": 77.5877168,
      "tags": {
        "amenity": "fast_food",
        "cuisine": "juice",
        "name": "Sree Ganesh Fruit Juice Centre"
      }
    },
    {
      "type": "node",
      "id": 11219784605,
      "lat": 13.0636267,
      "lon": 77.5876478,
      "tags": {
        "amenity": "fast_food",
        "cuisine": "juice",
        "name": "Lassi Shop"
      }
    },
    {
      "type": "node",
      "id": 11219784606,
      "lat": 13.0636156,
      "lon": 77.5875776,
      "tags": {
        "shop": "hairdresser"
      }
    },
    {
      "type": "node",
      "id": 11219784608,
      "lat": 13.0635837,
      "lon": 77.5874871,
      "tags": {
        "name": "Signia",
        "shop": "hearing_aids"
      }
    },
    {
      "type": "node",
      "id": 11219784609,
      "lat": 13.0636229,
      "lon": 77.5874859,
      "tags": {
        "name": "Himalaya",
        "shop": "cosmetics"
      }
    },
    {
      "type": "node",
      "id": 11219784614,
      "lat": 13.0636252,
      "lon": 77.5872571,
      "tags": {
        "name": "Sangeetha",
        "name:kn": "ಸಂಗೀತ",
        "shop": "mobile_phone"
      }
    },
    {
      "type": "node",
      "id": 11219784616,
      "lat": 13.0636133,
      "lon": 77.5871835,
      "tags": {
        "name": "Springwel Mattress",
        "shop": "bed"
      }
    },
    {
      "type": "node",
      "id": 11219784617,
      "lat": 13.0635437,
      "lon": 77.5870164,
      "tags": {
        "brand": "cult.fit",
        "brand:wikidata": "Q121289250",
        "leisure": "fitness_centre",
        "name": "cult.fit"
      }
    },
    {
      "type": "node",
      "id": 11220149668,
      "lat": 13.0638372,
      "lon": 77.5872251,
      "tags": {
        "name": "Aurelia",
        "name:kn": "ಅರೆಲಿಯ",
        "shop": "clothes"
      }
    },
    {
      "type": "node",
      "id": 11220149669,
      "lat": 13.0638418,
      "lon": 77.5872695,
      "tags": {
        "name": "W for woman",
        "shop": "clothes"
      }
    },
    {
      "type": "node",
      "id": 11220149670,
      "lat": 13.063838,
      "lon": 77.587358,
      "tags": {
        "name": "Eye Vision Plus",
        "shop": "optician"
      }
    },
    {
      "type": "node",
      "id": 11220149672,
      "lat": 13.0638317,
      "lon": 77.5874436,
      "tags": {
        "shop": "clothes"
      }
    },
    {
      "type": "node",
      "id": 11220149673,
      "lat": 13.0638363,
      "lon": 77.5874944,
      "tags": {
        "name": "Sree Sreedhara Jewels",
        "shop": "jewelry"
      }
    },
    {
      "type": "node",
      "id": 11220149674,
      "lat": 13.0638503,
      "lon": 77.5875648,
      "tags": {
        "brand": "Fabindia",
        "brand:wikidata": "Q5427779",
        "name": "Fabindia",
        "shop": "clothes"
      }
    },
    {
      "type": "node",
      "id": 11220149675,
      "lat": 13.0638494,
      "lon": 77.5876124,
      "tags": {
        "name": "O3 Spa & Salon",
        "shop": "hairdresser"
      }
    },
    {
      "type": "node",
      "id": 11220149678,
      "lat": 13.063843,
      "lon": 77.5881151,
      "tags": {
        "amenity": "restaurant",
        "check_date": "2024-04-30",
        "diet:vegetarian": "yes",
        "name": "Restaurant 1179"
      }
    },
    {
      "type": "node",
      "id": 11220149683,
      "lat": 13.0638874,
      "lon": 77.5887347,
      "tags": {
        "brand": "Allen Solly",
        "brand:wikidata": "Q110036995",
        "name": "Allen Solly",
        "shop": "clothes"
      }
    },
    {
      "type": "node",
      "id": 11220149684,
      "lat": 13.0638968,
      "lon": 77.5885044,
      "tags": {
        "amenity": "dentist",
        "healthcare": "dentist",
        "name": "clove dental"
      }
    },
    {
      "type": "node",
      "id": 11220149685,
      "lat": 13.0639506,
      "lon": 77.588505,
      "tags": {
        "name": "Lykke Salon",
        "shop": "hairdresser"
      }
    },
    {
      "type": "node",
      "id": 11220149686,
      "lat": 13.0638407,
      "lon": 77.5886028,
      "tags": {
        "name": "Trust Opticals",
        "shop": "optician"
      }
    },
    {
      "type": "node",
      "id": 11220149687,
      "lat": 13.0638488,
      "lon": 77.5883852,
      "tags": {
        "brand": "Peter England",
        "brand:wikidata": "Q19573665",
        "clothes": "men",
        "name": "Peter England",
        "shop": "clothes"
      }
    },
    {
      "type": "node",
      "id": 11220149688,
      "lat": 13.0639031,
      "lon": 77.5883845,
      "tags": {
        "amenity": "doctors",
        "healthcare": "doctor",
        "healthcare:speciality": "plastic_surgery",
        "name": "Dr. Sculpt Aesthetic Clinic"
      }
    },
    {
      "type": "node",
      "id": 11220149689,
      "lat": 13.0639156,
      "lon": 77.5882644,
      "tags": {
        "name": "Sukho Thai",
        "shop": "massage"
      }
    },
    {
      "type": "node",
      "id": 11220149690,
      "lat": 13.0638586,
      "lon": 77.5890881,
      "tags": {
        "amenity": "driving_school",
        "name": "Best New India Motor Driving School"
      }
    },
    {
      "type": "node",
      "id": 11220149700,
      "lat": 13.0638609,
      "lon": 77.5891702,
      "tags": {
        "name": "Kandha the baby shop",
        "shop": "baby_goods"
      }
    },
    {
      "type": "node",
      "id": 11220149701,
      "lat": 13.0638568,
      "lon": 77.5892788,
      "tags": {
        "amenity": "pharmacy",
        "brand": "MedPlus",
        "brand:wikidata": "Q65684234",
        "healthcare": "pharmacy",
        "name": "MedPlus"
      }
    },
    {
      "type": "node",
      "id": 11220149702,
      "lat": 13.0638895,
      "lon": 77.5892812,
      "tags": {
        "name": "YLG",
        "shop": "hairdresser"
      }
    },
    {
      "type": "node",
      "id": 11220149703,
      "lat": 13.0639293,
      "lon": 77.5892806,
      "tags": {
        "amenity": "clinic",
        "healthcare": "clinic",
        "healthcare:speciality": "fertility",
        "name": "B mom"
      }
    },
    {
      "type": "node",
      "id": 11220149704,
      "lat": 13.063874,
      "lon": 77.5893876,
      "tags": {
        "name": "globaldesi",
        "shop": "clothes"
      }
    },
    {
      "type": "node",
      "id": 11220149705,
      "lat": 13.063908,
      "lon": 77.5895456,
      "tags": {
        "name": "100! Interiors",
        "shop": "interior_decoration"
      }
    },
    {
      "type": "node",
      "id": 11220149706,
      "lat": 13.063972,
      "lon": 77.5895482,
      "tags": {
        "name": "Wise Men",
        "shop": "interior_decoration"
      }
    },
    {
      "type": "node",
      "id": 11220149707,
      "lat": 13.0638745,
      "lon": 77.5895504,
      "tags": {
        "name": "HB Ply & Boards",
        "shop": "hardware"
      }
    },
    {
      "type": "node",
      "id": 11220149708,
      "lat": 13.0638767,
      "lon": 77.589644,
      "tags": {
        "brand": "Levi's",
        "brand:wikidata": "Q127962",
        "clothes": "denim;men;women",
        "name": "Levi's",
        "shop": "clothes"
      }
    },
    {
      "type": "node",
      "id": 11220149709,
      "lat": 13.0639147,
      "lon": 77.589641,
      "tags": {
        "name": "Prestige Xclusive",
        "shop": "houseware"
      }
    },
    {
      "type": "node",
      "id": 11220149711,
      "lat": 13.063868,
      "lon": 77.5897493,
      "tags": {
        "brand": "Manyavar",
        "brand:wikidata": "Q24906783",
        "clothes": "wedding",
        "name": "Manyavar",
        "shop": "clothes"
      }
    },
    {
      "type": "node",
      "id": 11220149713,
      "lat": 13.0639758,
      "lon": 77.5898809,
      "tags": {
        "amenity": "bank",
        "brand": "Axis Bank",
        "brand:wikidata": "Q2003549",
        "name": "Axis Bank",
        "name:kn": "ಆಕ್ಸಿಸ್ ಬ್ಯಾಂಕ್"
      }
    },
    {
      "type": "node",
      "id": 11220149714,
      "lat": 13.0639378,
      "lon": 77.5899559,
      "tags": {
        "name": "Siyaram's Shop",
        "shop": "clothes"
      }
    },
    {
      "type": "node",
      "id": 11220149715,
      "lat": 13.0639963,
      "lon": 77.5899876,
      "tags": {
        "amenity": "dentist",
        "healthcare": "dentist",
        "name": "Dentyscan 3D"
      }
    },
    {
      "type": "node",
      "id": 11220149720,
      "lat": 13.0638672,
      "lon": 77.5899136,
      "tags": {
        "amenity": "ice_cream",
        "name": "Kelvin Scale"
      }
    },
    {
      "type": "node",
      "id": 11220149721,
      "lat": 13.0637287,
      "lon": 77.590293,
      "tags": {
        "amenity": "taxi",
        "taxi_vehicle": "auto_rickshaw"
      }
    },
    {
      "type": "node",
      "id": 11220149722,
      "lat": 13.0636881,
      "lon": 77.5905633,
      "tags": {
        "name": "Louis Philippe",
        "shop": "clothes"
      }
    },
    {
      "type": "node",
      "id": 11220149723,
      "lat": 13.0636847,
      "lon": 77.5905928,
      "tags": {
        "brand": "Van Heusen",
        "brand:wikidata": "Q67551865",
        "clothes": "men",
        "name": "Van Heusen",
        "shop": "clothes"
      }
    },
    {
      "type": "node",
      "id": 11220149725,
      "lat": 13.0636487,
      "lon": 77.5908375,
      "tags": {
        "name": "aomi",
        "shop": "baby_goods"
      }
    },
    {
      "type": "node",
      "id": 11220149726,
      "lat": 13.0636761,
      "lon": 77.5907629,
      "tags": {
        "amenity": "restaurant",
        "brand": "Pizza Hut",
        "brand:wikidata": "Q191615",
        "cuisine": "pizza",
        "name": "Pizza Hut"
      }
    },
    {
      "type": "node",
      "id": 11220149727,
      "lat": 13.0632662,
      "lon": 77.5919337,
      "tags": {
        "name": "Unlimited",
        "shop": "clothes"
      }
    },
    {
      "type": "node",
      "id": 11220149728,
      "lat": 13.0632661,
      "lon": 77.5917897,
      "tags": {
        "amenity": "atm",
        "brand": "HDFC Bank",
        "brand:wikidata": "Q631047",
        "operator": "HDFC Bank",
        "operator:wikidata": "Q631047",
        "short_name": "HDFC"
      }
    },
    {
      "type": "node",
      "id": 11220149729,
      "lat": 13.0631601,
      "lon": 77.5920908,
      "tags": {
        "name": "health & glow",
        "shop": "cosmetics"
      }
    },
    {
      "type": "node",
      "id": 11220149730,
      "lat": 13.0632636,
      "lon": 77.5921517,
      "tags": {
        "name": "Naturals",
        "shop": "hairdresser"
      }
    },
    {
      "type": "node",
      "id": 11220149731,
      "lat": 13.0630734,
      "lon": 77.5921547,
      "tags": {
        "amenity": "fast_food",
        "cuisine": "kebab",
        "name": "Shiva's kabab corner"
      }
    },
    {
      "type": "node",
      "id": 11220149732,
      "lat": 13.0630591,
      "lon": 77.5922004,
      "tags": {
        "amenity": "restaurant",
        "name": "hyderabad bawarchi Multi Cuisine Restaurant"
      }
    },
    {
      "type": "node",
      "id": 11220149733,
      "lat": 13.0630687,
      "lon": 77.5923045,
      "tags": {
        "brand": "Thomas Cook",
        "brand:wikidata": "Q2141800",
        "name": "Thomas Cook",
        "shop": "travel_agency"
      }
    },
    {
      "type": "node",
      "id": 11220149734,
      "lat": 13.0630093,
      "lon": 77.592307,
      "tags": {
        "brand": "Samsung",
        "brand:wikidata": "Q20718",
        "name": "Samsung",
        "shop": "electronics"
      }
    },
    {
      "type": "node",
      "id": 11220149735,
      "lat": 13.0630267,
      "lon": 77.5922791,
      "tags": {
        "shop": "dry_cleaning"
      }
    },
    {
      "type": "node",
      "id": 11220149736,
      "lat": 13.062827,
      "lon": 77.5927911,
      "tags": {
        "amenity": "dentist",
        "healthcare": "dentist",
        "name": "All Smiles the dental clinic"
      }
    },
    {
      "type": "node",
      "id": 11220149737,
      "lat": 13.0627945,
      "lon": 77.5927627,
      "tags": {
        "name": "Krishna",
        "shop": "electrical"
      }
    },
    {
      "type": "node",
      "id": 11280734301,
      "lat": 13.0670641,
      "lon": 77.5934388,
      "tags": {
        "amenity": "shelter",
        "bench": "yes",
        "covered": "yes",
        "shelter": "yes",
        "shelter_type": "public_transport"
      }
    },
    {
      "type": "node",
      "id": 11280734303,
      "lat": 13.0671183,
      "lon": 77.5934375,
      "tags": {
        "amenity": "shelter",
        "bench": "yes",
        "covered": "yes",
        "shelter": "yes",
        "shelter_type": "public_transport"
      }
    },
    {
      "type": "node",
      "id": 11304909312,
      "lat": 13.0616595,
      "lon": 77.5940832,
      "tags": {
        "amenity": "parking_entrance",
        "parking": "underground"
      }
    },
    {
      "type": "node",
      "id": 11305116629,
      "lat": 13.071089,
      "lon": 77.5895275,
      "tags": {
        "addr:city": "Bengaluru",
        "addr:country": "IN",
        "addr:floor": "UG",
        "addr:hamlet": "Byatarayanapura",
        "addr:place": "Phoenix Mall of Asia",
        "addr:postcode": "560092",
        "addr:suburb": "Yelahanka",
        "brand": "Pottery Barn",
        "brand:wikidata": "Q3400126",
        "level": "1",
        "name": "Pottery Barn",
        "shop": "furniture"
      }
    },
    {
      "type": "node",
      "id": 11305116630,
      "lat": 13.0712131,
      "lon": 77.590296,
      "tags": {
        "addr:city": "Bengaluru",
        "addr:country": "IN",
        "addr:floor": "UG",
        "addr:hamlet": "Byatarayanapura",
        "addr:place": "Phoenix Mall of Asia",
        "addr:postcode": "560092",
        "addr:suburb": "Yelahanka",
        "brand": "Breitling",
        "brand:wikidata": "Q665740",
        "level": "1",
        "name": "Breitling",
        "shop": "watches"
      }
    },
    {
      "type": "node",
      "id": 11305116631,
      "lat": 13.0711687,
      "lon": 77.5905193,
      "tags": {
        "addr:city": "Bengaluru",
        "addr:country": "IN",
        "addr:floor": "UG",
        "addr:hamlet": "Byatarayanapura",
        "addr:place": "Phoenix Mall of Asia",
        "addr:postcode": "560092",
        "addr:suburb": "Yelahanka",
        "brand": "Tod's",
        "brand:wikidata": "Q1342350",
        "level": "1",
        "name": "Tod's",
        "shop": "shoes"
      }
    },
    {
      "type": "node",
      "id": 11305116632,
      "lat": 13.0710596,
      "lon": 77.5907312,
      "tags": {
        "addr:city": "Bengaluru",
        "addr:country": "IN",
        "addr:floor": "UG",
        "addr:hamlet": "Byatarayanapura",
        "addr:place": "Phoenix Mall of Asia",
        "addr:postcode": "560092",
        "addr:suburb": "Yelahanka",
        "brand": "Jimmy Choo",
        "brand:wikidata": "Q5213855",
        "level": "1",
        "name": "Jimmy Choo",
        "shop": "shoes"
      }
    },
    {
      "type": "node",
      "id": 11305116633,
      "lat": 13.0706618,
      "lon": 77.5909437,
      "tags": {
        "addr:city": "Bengaluru",
        "addr:country": "IN",
        "addr:floor": "G",
        "addr:hamlet": "Byatarayanapura",
        "addr:place": "Phoenix Mall of Asia",
        "addr:postcode": "560092",
        "addr:suburb": "Yelahanka",
        "brand": "Nautica",
        "brand:wikidata": "Q6981479",
        "level": "0",
        "name": "Nautica",
        "shop": "clothes"
      }
    },
    {
      "type": "node",
      "id": 11305116634,
      "lat": 13.0708173,
      "lon": 77.590992,
      "tags": {
        "addr:city": "Bengaluru",
        "addr:country": "IN",
        "addr:floor": "G",
        "addr:hamlet": "Byatarayanapura",
        "addr:place": "Phoenix Mall of Asia",
        "addr:postcode": "560092",
        "addr:suburb": "Yelahanka",
        "brand": "La Vie en Rose",
        "brand:wikidata": "Q4950452",
        "clothes": "underwear;women",
        "level": "0",
        "name": "La Vie en Rose",
        "shop": "clothes"
      }
    },
    {
      "type": "node",
      "id": 11305116635,
      "lat": 13.0707363,
      "lon": 77.591228,
      "tags": {
        "addr:city": "Bengaluru",
        "addr:country": "IN",
        "addr:floor": "G",
        "addr:hamlet": "Byatarayanapura",
        "addr:place": "Phoenix Mall of Asia",
        "addr:postcode": "560092",
        "addr:suburb": "Yelahanka",
        "brand": "Jockey",
        "brand:wikidata": "Q534235",
        "level": "0",
        "name": "Jockey",
        "shop": "clothes"
      }
    },
    {
      "type": "node",
      "id": 11305116636,
      "lat": 13.0706115,
      "lon": 77.5910839,
      "tags": {
        "addr:city": "Bengaluru",
        "addr:country": "IN",
        "addr:floor": "G",
        "addr:hamlet": "Byatarayanapura",
        "addr:place": "Phoenix Mall of Asia",
        "addr:postcode": "560092",
        "addr:suburb": "Yelahanka",
        "brand": "Hidesign",
        "brand:wikidata": "Q5752690",
        "level": "0",
        "name": "Hidesign",
        "shop": "leather"
      }
    },
    {
      "type": "node",
      "id": 11305116637,
      "lat": 13.0707729,
      "lon": 77.5911342,
      "tags": {
        "addr:city": "Bengaluru",
        "addr:country": "IN",
        "addr:floor": "G",
        "addr:hamlet": "Byatarayanapura",
        "addr:place": "Phoenix Mall of Asia",
        "addr:postcode": "560092",
        "addr:suburb": "Yelahanka",
        "brand": "Samsonite",
        "brand:wikidata": "Q1203426",
        "level": "0",
        "name": "Samsonite",
        "shop": "bag"
      }
    },
    {
      "type": "node",
      "id": 11305116638,
      "lat": 13.0712451,
      "lon": 77.590135,
      "tags": {
        "addr:city": "Bengaluru",
        "addr:country": "IN",
        "addr:floor": "G",
        "addr:hamlet": "Byatarayanapura",
        "addr:place": "Phoenix Mall of Asia",
        "addr:postcode": "560092",
        "addr:suburb": "Yelahanka",
        "brand": "Woodland",
        "brand:wikidata": "Q123068491",
        "level": "0",
        "name": "Woodland",
        "shop": "shoes"
      }
    },
    {
      "type": "node",
      "id": 11305116639,
      "lat": 13.0710714,
      "lon": 77.589907,
      "tags": {
        "addr:city": "Bengaluru",
        "addr:country": "IN",
        "addr:floor": "G",
        "addr:hamlet": "Byatarayanapura",
        "addr:place": "Phoenix Mall of Asia",
        "addr:postcode": "560092",
        "addr:suburb": "Yelahanka",
        "brand": "Columbia",
        "brand:wikidata": "Q1112588",
        "clothes": "outdoor",
        "level": "0",
        "name": "Columbia",
        "official_name": "Columbia Sportswear",
        "shop": "clothes"
      }
    },
    {
      "type": "node",
      "id": 11305116640,
      "lat": 13.0712556,
      "lon": 77.5899875,
      "tags": {
        "addr:city": "Bengaluru",
        "addr:country": "IN",
        "addr:floor": "G",
        "addr:hamlet": "Byatarayanapura",
        "addr:place": "Phoenix Mall of Asia",
        "addr:postcode": "560092",
        "addr:suburb": "Yelahanka",
        "brand": "ASICS",
        "brand:wikidata": "Q327247",
        "level": "0",
        "name": "ASICS",
        "shop": "shoes"
      }
    },
    {
      "type": "node",
      "id": 11305116641,
      "lat": 13.0706821,
      "lon": 77.5901444,
      "tags": {
        "addr:city": "Bengaluru",
        "addr:country": "IN",
        "addr:floor": "G",
        "addr:hamlet": "Byatarayanapura",
        "addr:place": "Phoenix Mall of Asia",
        "addr:postcode": "560092",
        "addr:suburb": "Yelahanka",
        "brand": "Vision Express",
        "brand:wikidata": "Q7936150",
        "level": "0",
        "name": "Vision Express",
        "shop": "optician"
      }
    },
    {
      "type": "node",
      "id": 11305116642,
      "lat": 13.0705201,
      "lon": 77.5907345,
      "tags": {
        "addr:city": "Bengaluru",
        "addr:country": "IN",
        "addr:floor": "G",
        "addr:hamlet": "Byatarayanapura",
        "addr:place": "Phoenix Mall of Asia",
        "addr:postcode": "560092",
        "addr:suburb": "Yelahanka",
        "brand": "Malabar Gold and Diamonds",
        "brand:wikidata": "Q60748883",
        "level": "0",
        "name": "Malabar Gold and Diamonds",
        "shop": "jewelry"
      }
    },
    {
      "type": "node",
      "id": 11305116643,
      "lat": 13.0704482,
      "lon": 77.5909618,
      "tags": {
        "addr:city": "Bengaluru",
        "addr:country": "IN",
        "addr:floor": "G",
        "addr:hamlet": "Byatarayanapura",
        "addr:place": "Phoenix Mall of Asia",
        "addr:postcode": "560092",
        "addr:suburb": "Yelahanka",
        "amenity": "cafe",
        "level": "0",
        "name": "Third Wave Coffee"
      }
    },
    {
      "type": "node",
      "id": 11305116644,
      "lat": 13.0704391,
      "lon": 77.5911308,
      "tags": {
        "addr:city": "Bengaluru",
        "addr:country": "IN",
        "addr:floor": "G",
        "addr:hamlet": "Byatarayanapura",
        "addr:place": "Phoenix Mall of Asia",
        "addr:postcode": "560092",
        "addr:suburb": "Yelahanka",
        "amenity": "cafe",
        "brand": "Chaayos",
        "brand:wikidata": "Q117235235",
        "cuisine": "tea",
        "level": "0",
        "name": "Chaayos",
        "takeaway": "yes"
      }
    },
    {
      "type": "node",
      "id": 11305116656,
      "lat": 13.0704162,
      "lon": 77.5911033,
      "tags": {
        "addr:city": "Bengaluru",
        "addr:country": "IN",
        "addr:floor": "UG",
        "addr:hamlet": "Byatarayanapura",
        "addr:place": "Phoenix Mall of Asia",
        "addr:postcode": "560092",
        "addr:suburb": "Yelahanka",
        "brand": "Canali",
        "brand:wikidata": "Q5031079",
        "clothes": "men",
        "level": "1",
        "name": "Canali",
        "shop": "clothes"
      }
    },
    {
      "type": "node",
      "id": 11305116657,
      "lat": 13.0706866,
      "lon": 77.5915311,
      "tags": {
        "addr:city": "Bengaluru",
        "addr:country": "IN",
        "addr:floor": "UG",
        "addr:hamlet": "Byatarayanapura",
        "addr:place": "Phoenix Mall of Asia",
        "addr:postcode": "560092",
        "addr:suburb": "Yelahanka",
        "brand": "Bulgari",
        "brand:wikidata": "Q752515",
        "level": "1",
        "name": "Bvlgari",
        "shop": "fashion_accessories"
      }
    },
    {
      "type": "node",
      "id": 11305116658,
      "lat": 13.0712092,
      "lon": 77.5904489,
      "tags": {
        "addr:city": "Bengaluru",
        "addr:country": "IN",
        "addr:floor": "UG",
        "addr:hamlet": "Byatarayanapura",
        "addr:place": "Phoenix Mall of Asia",
        "addr:postcode": "560092",
        "addr:suburb": "Yelahanka",
        "brand": "Michael Kors",
        "brand:wikidata": "Q19572998",
        "level": "1",
        "name": "Michael Kors",
        "shop": "clothes"
      }
    },
    {
      "type": "node",
      "id": 11305116659,
      "lat": 13.0708754,
      "lon": 77.5901927,
      "tags": {
        "addr:city": "Bengaluru",
        "addr:country": "IN",
        "addr:floor": "UG",
        "addr:hamlet": "Byatarayanapura",
        "addr:place": "Phoenix Mall of Asia",
        "addr:postcode": "560092",
        "addr:suburb": "Yelahanka",
        "brand": "Brooks Brothers",
        "brand:wikidata": "Q929722",
        "level": "1",
        "name": "Brooks Brothers",
        "shop": "clothes"
      }
    },
    {
      "type": "node",
      "id": 11305116660,
      "lat": 13.0708473,
      "lon": 77.5903456,
      "tags": {
        "addr:city": "Bengaluru",
        "addr:country": "IN",
        "addr:floor": "UG",
        "addr:hamlet": "Byatarayanapura",
        "addr:place": "Phoenix Mall of Asia",
        "addr:postcode": "560092",
        "addr:suburb": "Yelahanka",
        "brand": "Bally",
        "brand:wikidata": "Q688195",
        "level": "1",
        "name": "Bally",
        "shop": "shoes"
      }
    },
    {
      "type": "node",
      "id": 11305116661,
      "lat": 13.0709714,
      "lon": 77.5903603,
      "tags": {
        "addr:city": "Bengaluru",
        "addr:country": "IN",
        "addr:floor": "UG",
        "addr:hamlet": "Byatarayanapura",
        "addr:place": "Phoenix Mall of Asia",
        "addr:postcode": "560092",
        "addr:suburb": "Yelahanka",
        "brand": "Coach",
        "brand:wikidata": "Q727697",
        "level": "1",
        "name": "Coach",
        "shop": "bag"
      }
    },
    {
      "type": "node",
      "id": 11305116662,
      "lat": 13.0710864,
      "lon": 77.5899325,
      "tags": {
        "addr:city": "Bengaluru",
        "addr:country": "IN",
        "addr:floor": "UG",
        "addr:hamlet": "Byatarayanapura",
        "addr:place": "Phoenix Mall of Asia",
        "addr:postcode": "560092",
        "addr:suburb": "Yelahanka",
        "brand": "Polo Ralph Lauren",
        "brand:wikidata": "Q1641437",
        "level": "1",
        "name": "Polo Ralph Lauren",
        "shop": "clothes"
      }
    },
    {
      "type": "node",
      "id": 11305116663,
      "lat": 13.0709714,
      "lon": 77.5899097,
      "tags": {
        "addr:city": "Bengaluru",
        "addr:country": "IN",
        "addr:floor": "UG",
        "addr:hamlet": "Byatarayanapura",
        "addr:place": "Phoenix Mall of Asia",
        "addr:postcode": "560092",
        "addr:suburb": "Yelahanka",
        "brand": "Diesel",
        "brand:wikidata": "Q158285",
        "level": "1",
        "name": "Diesel",
        "shop": "clothes"
      }
    },
    {
      "type": "node",
      "id": 11305116664,
      "lat": 13.0709244,
      "lon": 77.5900385,
      "tags": {
        "addr:city": "Bengaluru",
        "addr:country": "IN",
        "addr:floor": "UG",
        "addr:hamlet": "Byatarayanapura",
        "addr:place": "Phoenix Mall of Asia",
        "addr:postcode": "560092",
        "addr:suburb": "Yelahanka",
        "brand": "Chanel",
        "brand:wikidata": "Q218115",
        "level": "1",
        "name": "Chanel",
        "shop": "clothes"
      }
    },
    {
      "type": "node",
      "id": 11305116665,
      "lat": 13.0710132,
      "lon": 77.5902584,
      "tags": {
        "addr:city": "Bengaluru",
        "addr:country": "IN",
        "addr:floor": "UG",
        "addr:hamlet": "Byatarayanapura",
        "addr:place": "Phoenix Mall of Asia",
        "addr:postcode": "560092",
        "addr:suburb": "Yelahanka",
        "brand": "Kate Spade New York",
        "brand:wikidata": "Q6375797",
        "level": "1",
        "name": "Kate Spade New York",
        "shop": "clothes",
        "short_name": "Kate Spade"
      }
    },
    {
      "type": "node",
      "id": 11305116666,
      "lat": 13.0710067,
      "lon": 77.590984,
      "tags": {
        "addr:city": "Bengaluru",
        "addr:country": "IN",
        "addr:floor": "UG",
        "addr:hamlet": "Byatarayanapura",
        "addr:place": "Phoenix Mall of Asia",
        "addr:postcode": "560092",
        "addr:suburb": "Yelahanka",
        "brand": "Bottega Veneta",
        "brand:wikidata": "Q894874",
        "level": "1",
        "name": "Bottega Veneta",
        "shop": "fashion_accessories"
      }
    },
    {
      "type": "node",
      "id": 11305116667,
      "lat": 13.0710511,
      "lon": 77.5908592,
      "tags": {
        "addr:city": "Bengaluru",
        "addr:country": "IN",
        "addr:floor": "UG",
        "addr:hamlet": "Byatarayanapura",
        "addr:place": "Phoenix Mall of Asia",
        "addr:postcode": "560092",
        "addr:suburb": "Yelahanka",
        "brand": "Versace",
        "brand:wikidata": "Q696376",
        "level": "1",
        "name": "Versace",
        "shop": "clothes"
      }
    },
    {
      "type": "node",
      "id": 11305116668,
      "lat": 13.0704802,
      "lon": 77.5908405,
      "tags": {
        "addr:city": "Bengaluru",
        "addr:country": "IN",
        "addr:floor": "UG",
        "addr:hamlet": "Byatarayanapura",
        "addr:place": "Phoenix Mall of Asia",
        "addr:postcode": "560092",
        "addr:suburb": "Yelahanka",
        "brand": "Ermenegildo Zegna",
        "brand:wikidata": "Q1355904",
        "clothes": "men",
        "level": "1",
        "name": "Ermenegildo Zegna",
        "shop": "clothes",
        "short_name": "Zegna"
      }
    },
    {
      "type": "node",
      "id": 11305149269,
      "lat": 13.0703365,
      "lon": 77.5914466,
      "tags": {
        "addr:city": "Bengaluru",
        "addr:country": "IN",
        "addr:floor": "UG",
        "addr:hamlet": "Byatarayanapura",
        "addr:place": "Phoenix Mall of Asia",
        "addr:postcode": "560092",
        "addr:suburb": "Yelahanka",
        "brand": "Hermès",
        "brand:wikidata": "Q843887",
        "level": "1",
        "name": "Hermès",
        "shop": "clothes"
      }
    },
    {
      "type": "node",
      "id": 11305149270,
      "lat": 13.070313,
      "lon": 77.5915915,
      "tags": {
        "addr:city": "Bengaluru",
        "addr:country": "IN",
        "addr:floor": "UG",
        "addr:hamlet": "Byatarayanapura",
        "addr:place": "Phoenix Mall of Asia",
        "addr:postcode": "560092",
        "addr:suburb": "Yelahanka",
        "brand": "Burberry",
        "brand:wikidata": "Q390107",
        "clothes": "men;women",
        "level": "1",
        "name": "Burberry",
        "shop": "clothes"
      }
    },
    {
      "type": "node",
      "id": 11305149271,
      "lat": 13.0706174,
      "lon": 77.5916974,
      "tags": {
        "addr:city": "Bengaluru",
        "addr:country": "IN",
        "addr:floor": "UG",
        "addr:hamlet": "Byatarayanapura",
        "addr:place": "Phoenix Mall of Asia",
        "addr:postcode": "560092",
        "addr:suburb": "Yelahanka",
        "brand": "Balenciaga",
        "brand:wikidata": "Q1530892",
        "level": "1",
        "name": "Balenciaga",
        "shop": "clothes"
      }
    },
    {
      "type": "node",
      "id": 11305149272,
      "lat": 13.0708656,
      "lon": 77.5915499,
      "tags": {
        "addr:city": "Bengaluru",
        "addr:country": "IN",
        "addr:floor": "UG",
        "addr:hamlet": "Byatarayanapura",
        "addr:place": "Phoenix Mall of Asia",
        "addr:postcode": "560092",
        "addr:suburb": "Yelahanka",
        "brand": "Dior",
        "brand:wikidata": "Q542767",
        "level": "1",
        "name": "Dior",
        "shop": "clothes"
      }
    },
    {
      "type": "node",
      "id": 11305149273,
      "lat": 13.071153,
      "lon": 77.5906862,
      "tags": {
        "addr:city": "Bengaluru",
        "addr:country": "IN",
        "addr:floor": "UG",
        "addr:hamlet": "Byatarayanapura",
        "addr:place": "Phoenix Mall of Asia",
        "addr:postcode": "560092",
        "addr:suburb": "Yelahanka",
        "brand": "Valentino",
        "brand:wikidata": "Q649646",
        "level": "1",
        "name": "Valentino",
        "shop": "clothes"
      }
    },
    {
      "type": "node",
      "id": 11305149274,
      "lat": 13.0708238,
      "lon": 77.590473,
      "tags": {
        "addr:city": "Bengaluru",
        "addr:country": "IN",
        "addr:floor": "UG",
        "addr:hamlet": "Byatarayanapura",
        "addr:place": "Phoenix Mall of Asia",
        "addr:postcode": "560092",
        "addr:suburb": "Yelahanka",
        "brand": "Gucci",
        "brand:wikidata": "Q178516",
        "level": "1",
        "name": "Gucci",
        "shop": "clothes"
      }
    },
    {
      "type": "node",
      "id": 11305149275,
      "lat": 13.0706252,
      "lon": 77.5904381,
      "tags": {
        "addr:city": "Bengaluru",
        "addr:country": "IN",
        "addr:floor": "UG",
        "addr:hamlet": "Byatarayanapura",
        "addr:place": "Phoenix Mall of Asia",
        "addr:postcode": "560092",
        "addr:suburb": "Yelahanka",
        "brand": "Emporio Armani",
        "brand:wikidata": "Q3497483",
        "level": "1",
        "name": "Emporio Armani",
        "shop": "clothes"
      }
    },
    {
      "type": "node",
      "id": 11305149276,
      "lat": 13.0707454,
      "lon": 77.5909853,
      "tags": {
        "addr:city": "Bengaluru",
        "addr:country": "IN",
        "addr:floor": "UG",
        "addr:hamlet": "Byatarayanapura",
        "addr:place": "Phoenix Mall of Asia",
        "addr:postcode": "560092",
        "addr:suburb": "Yelahanka",
        "brand": "Louis Vuitton",
        "brand:wikidata": "Q191485",
        "level": "1",
        "name": "Louis Vuitton",
        "shop": "clothes"
      }
    },
    {
      "type": "node",
      "id": 11305149277,
      "lat": 13.0708173,
      "lon": 77.5897796,
      "tags": {
        "addr:city": "Bengaluru",
        "addr:country": "IN",
        "addr:floor": "UG",
        "addr:hamlet": "Byatarayanapura",
        "addr:place": "Phoenix Mall of Asia",
        "addr:postcode": "560092",
        "addr:suburb": "Yelahanka",
        "brand": "Victoria's Secret",
        "brand:wikidata": "Q332477",
        "clothes": "underwear;women",
        "level": "1",
        "name": "Victoria's Secret",
        "shop": "clothes"
      }
    },
    {
      "type": "node",
      "id": 11305149278,
      "lat": 13.0711021,
      "lon": 77.5906728,
      "tags": {
        "addr:city": "Bengaluru",
        "addr:country": "IN",
        "addr:floor": "G",
        "addr:hamlet": "Byatarayanapura",
        "addr:place": "Phoenix Mall of Asia",
        "addr:postcode": "560092",
        "addr:suburb": "Yelahanka",
        "brand": "Jack & Jones",
        "brand:wikidata": "Q6077665",
        "level": "0",
        "name": "Jack & Jones",
        "shop": "clothes"
      }
    },
    {
      "type": "node",
      "id": 11305149279,
      "lat": 13.0711106,
      "lon": 77.590597,
      "tags": {
        "addr:city": "Bengaluru",
        "addr:country": "IN",
        "addr:floor": "G",
        "addr:hamlet": "Byatarayanapura",
        "addr:place": "Phoenix Mall of Asia",
        "addr:postcode": "560092",
        "addr:suburb": "Yelahanka",
        "brand": "American Eagle Outfitters",
        "brand:wikidata": "Q2842931",
        "clothes": "men;women",
        "level": "0",
        "name": "American Eagle Outfitters",
        "shop": "clothes",
        "short_name": "American Eagle"
      }
    },
    {
      "type": "node",
      "id": 11305149280,
      "lat": 13.0709878,
      "lon": 77.5908934,
      "tags": {
        "addr:city": "Bengaluru",
        "addr:country": "IN",
        "addr:floor": "G",
        "addr:hamlet": "Byatarayanapura",
        "addr:place": "Phoenix Mall of Asia",
        "addr:postcode": "560092",
        "addr:suburb": "Yelahanka",
        "amenity": "cafe",
        "contact:instagram": "perchinbengaluru",
        "level": "0",
        "name": "Perch"
      }
    },
    {
      "type": "node",
      "id": 11305149281,
      "lat": 13.0709708,
      "lon": 77.5911912,
      "tags": {
        "addr:city": "Bengaluru",
        "addr:country": "IN",
        "addr:floor": "G",
        "addr:hamlet": "Byatarayanapura",
        "addr:place": "Phoenix Mall of Asia",
        "addr:postcode": "560092",
        "addr:suburb": "Yelahanka",
        "brand": "Allen Solly",
        "brand:wikidata": "Q110036995",
        "level": "0",
        "name": "Allen Solly",
        "shop": "clothes"
      }
    },
    {
      "type": "node",
      "id": 11305149282,
      "lat": 13.0709368,
      "lon": 77.5912844,
      "tags": {
        "addr:city": "Bengaluru",
        "addr:country": "IN",
        "addr:floor": "G",
        "addr:hamlet": "Byatarayanapura",
        "addr:place": "Phoenix Mall of Asia",
        "addr:postcode": "560092",
        "addr:suburb": "Yelahanka",
        "level": "0",
        "name": "Louis Phillippe",
        "shop": "clothes"
      }
    },
    {
      "type": "node",
      "id": 11305149283,
      "lat": 13.0708506,
      "lon": 77.5914191,
      "tags": {
        "addr:city": "Bengaluru",
        "addr:country": "IN",
        "addr:floor": "G",
        "addr:hamlet": "Byatarayanapura",
        "addr:place": "Phoenix Mall of Asia",
        "addr:postcode": "560092",
        "addr:suburb": "Yelahanka",
        "brand": "Van Heusen",
        "brand:wikidata": "Q67551865",
        "clothes": "men",
        "level": "0",
        "name": "Van Heusen",
        "shop": "clothes"
      }
    },
    {
      "type": "node",
      "id": 11305149284,
      "lat": 13.0707337,
      "lon": 77.5916103,
      "tags": {
        "addr:city": "Bengaluru",
        "addr:country": "IN",
        "addr:floor": "G",
        "addr:hamlet": "Byatarayanapura",
        "addr:place": "Phoenix Mall of Asia",
        "addr:postcode": "560092",
        "addr:suburb": "Yelahanka",
        "level": "0",
        "name": "Loyal World Supermarket",
        "shop": "supermarket"
      }
    },
    {
      "type": "node",
      "id": 11305149285,
      "lat": 13.0704045,
      "lon": 77.5914963,
      "tags": {
        "addr:city": "Bengaluru",
        "addr:country": "IN",
        "addr:floor": "G",
        "addr:hamlet": "Byatarayanapura",
        "addr:place": "Phoenix Mall of Asia",
        "addr:postcode": "560092",
        "addr:suburb": "Yelahanka",
        "brand": "Pantaloons",
        "brand:wikidata": "Q7131643",
        "level": "0",
        "name": "Pantaloons",
        "shop": "clothes"
      }
    },
    {
      "type": "node",
      "id": 11305149286,
      "lat": 13.070603,
      "lon": 77.5905374,
      "tags": {
        "addr:city": "Bengaluru",
        "addr:country": "IN",
        "addr:floor": "G",
        "addr:hamlet": "Byatarayanapura",
        "addr:place": "Phoenix Mall of Asia",
        "addr:postcode": "560092",
        "addr:suburb": "Yelahanka",
        "brand": "Tanishq",
        "brand:en": "Tanishq",
        "brand:wikidata": "Q13117711",
        "level": "0",
        "name": "Tanishq",
        "name:en": "Tanishq",
        "shop": "jewelry"
      }
    },
    {
      "type": "node",
      "id": 11305149287,
      "lat": 13.0712797,
      "lon": 77.5898943,
      "tags": {
        "addr:city": "Bengaluru",
        "addr:country": "IN",
        "addr:floor": "G",
        "addr:hamlet": "Byatarayanapura",
        "addr:place": "Phoenix Mall of Asia",
        "addr:postcode": "560092",
        "addr:suburb": "Yelahanka",
        "brand": "Puma",
        "brand:wikidata": "Q157064",
        "level": "0",
        "name": "Puma",
        "shop": "clothes"
      }
    },
    {
      "type": "node",
      "id": 11305149288,
      "lat": 13.0713052,
      "lon": 77.5897696,
      "tags": {
        "addr:city": "Bengaluru",
        "addr:country": "IN",
        "addr:floor": "G",
        "addr:hamlet": "Byatarayanapura",
        "addr:place": "Phoenix Mall of Asia",
        "addr:postcode": "560092",
        "addr:suburb": "Yelahanka",
        "brand": "Skechers",
        "brand:wikidata": "Q2945643",
        "level": "0",
        "name": "Skechers",
        "shop": "shoes"
      }
    },
    {
      "type": "node",
      "id": 11305149289,
      "lat": 13.0713209,
      "lon": 77.5896945,
      "tags": {
        "addr:city": "Bengaluru",
        "addr:country": "IN",
        "addr:floor": "G",
        "addr:hamlet": "Byatarayanapura",
        "addr:place": "Phoenix Mall of Asia",
        "addr:postcode": "560092",
        "addr:suburb": "Yelahanka",
        "brand": "Reebok",
        "brand:wikidata": "Q466183",
        "level": "0",
        "name": "Reebok",
        "shop": "clothes"
      }
    },
    {
      "type": "node",
      "id": 11305149290,
      "lat": 13.0711119,
      "lon": 77.5896053,
      "tags": {
        "addr:city": "Bengaluru",
        "addr:country": "IN",
        "addr:floor": "G",
        "addr:hamlet": "Byatarayanapura",
        "addr:place": "Phoenix Mall of Asia",
        "addr:postcode": "560092",
        "addr:suburb": "Yelahanka",
        "brand": "Nike",
        "brand:wikidata": "Q483915",
        "level": "0",
        "name": "Nike",
        "shop": "clothes"
      }
    },
    {
      "type": "node",
      "id": 11305149291,
      "lat": 13.070978,
      "lon": 77.5895812,
      "tags": {
        "addr:city": "Bengaluru",
        "addr:country": "IN",
        "addr:floor": "G",
        "addr:hamlet": "Byatarayanapura",
        "addr:place": "Phoenix Mall of Asia",
        "addr:postcode": "560092",
        "addr:suburb": "Yelahanka",
        "brand": "Adidas",
        "brand:wikidata": "Q3895",
        "level": "0",
        "name": "Adidas",
        "name:kn": "ಅಡಿಡಾಸ್",
        "shop": "sports"
      }
    },
    {
      "type": "node",
      "id": 11305149292,
      "lat": 13.0705632,
      "lon": 77.5906654,
      "tags": {
        "addr:city": "Bengaluru",
        "addr:country": "IN",
        "addr:floor": "G",
        "addr:hamlet": "Byatarayanapura",
        "addr:place": "Phoenix Mall of Asia",
        "addr:postcode": "560092",
        "addr:suburb": "Yelahanka",
        "amenity": "cafe",
        "brand": "Tim Hortons",
        "brand:wikidata": "Q175106",
        "cuisine": "coffee_shop",
        "level": "0",
        "name": "Tim Hortons",
        "takeaway": "yes"
      }
    },
    {
      "type": "node",
      "id": 11305149293,
      "lat": 13.0710204,
      "lon": 77.5907325,
      "tags": {
        "addr:city": "Bengaluru",
        "addr:country": "IN",
        "addr:floor": "G",
        "addr:hamlet": "Byatarayanapura",
        "addr:place": "Phoenix Mall of Asia",
        "addr:postcode": "560092",
        "addr:suburb": "Yelahanka",
        "amenity": "cafe",
        "brand": "Starbucks",
        "brand:wikidata": "Q37158",
        "cuisine": "coffee_shop",
        "level": "0",
        "name": "Starbucks",
        "official_name": "Starbucks Coffee",
        "takeaway": "yes"
      }
    },
    {
      "type": "node",
      "id": 11305149315,
      "lat": 13.0706004,
      "lon": 77.5900948,
      "tags": {
        "amenity": "toilets"
      }
    },
    {
      "type": "node",
      "id": 11305149316,
      "lat": 13.0710981,
      "lon": 77.5909518,
      "tags": {
        "amenity": "toilets"
      }
    },
    {
      "type": "node",
      "id": 11305169242,
      "lat": 13.0705336,
      "lon": 77.591824,
      "tags": {
        "access": "customers",
        "amenity": "parking_entrance",
        "fee": "yes",
        "parking": "underground"
      }
    },
    {
      "type": "node",
      "id": 11305169244,
      "lat": 13.070522,
      "lon": 77.5918637,
      "tags": {
        "access": "customers",
        "amenity": "parking_entrance",
        "fee": "yes",
        "parking": "underground"
      }
    },
    {
      "type": "node",
      "id": 11305184192,
      "lat": 13.0709244,
      "lon": 77.5912099,
      "tags": {
        "addr:city": "Bengaluru",
        "addr:country": "IN",
        "addr:floor": "3",
        "addr:hamlet": "Byatarayanapura",
        "addr:place": "Phoenix Mall of Asia",
        "addr:postcode": "560092",
        "addr:suburb": "Yelahanka",
        "amenity": "fast_food",
        "level": "4",
        "name": "Nagas"
      }
    },
    {
      "type": "node",
      "id": 11305184193,
      "lat": 13.0709035,
      "lon": 77.5912837,
      "tags": {
        "addr:city": "Bengaluru",
        "addr:country": "IN",
        "addr:floor": "3",
        "addr:hamlet": "Byatarayanapura",
        "addr:place": "Phoenix Mall of Asia",
        "addr:postcode": "560092",
        "addr:suburb": "Yelahanka",
        "amenity": "fast_food",
        "brand": "Wow! Momo",
        "brand:wikidata": "Q8037446",
        "cuisine": "momo",
        "level": "4",
        "name": "Wow! Momo",
        "takeaway": "yes"
      }
    },
    {
      "type": "node",
      "id": 11305184194,
      "lat": 13.0706821,
      "lon": 77.5911798,
      "tags": {
        "addr:city": "Bengaluru",
        "addr:country": "IN",
        "addr:floor": "3",
        "addr:hamlet": "Byatarayanapura",
        "addr:place": "Phoenix Mall of Asia",
        "addr:postcode": "560092",
        "addr:suburb": "Yelahanka",
        "amenity": "fast_food",
        "level": "4",
        "name": "Keventers"
      }
    },
    {
      "type": "node",
      "id": 11305184195,
      "lat": 13.0708963,
      "lon": 77.5913313,
      "tags": {
        "addr:city": "Bengaluru",
        "addr:country": "IN",
        "addr:floor": "3",
        "addr:hamlet": "Byatarayanapura",
        "addr:place": "Phoenix Mall of Asia",
        "addr:postcode": "560092",
        "addr:suburb": "Yelahanka",
        "amenity": "fast_food",
        "level": "4",
        "name": "Shiv Sagar"
      }
    },
    {
      "type": "node",
      "id": 11305184196,
      "lat": 13.0707075,
      "lon": 77.5911127,
      "tags": {
        "addr:city": "Bengaluru",
        "addr:country": "IN",
        "addr:floor": "3",
        "addr:hamlet": "Byatarayanapura",
        "addr:place": "Phoenix Mall of Asia",
        "addr:postcode": "560092",
        "addr:suburb": "Yelahanka",
        "amenity": "fast_food",
        "brand": "Subway",
        "brand:wikidata": "Q244457",
        "cuisine": "sandwich",
        "level": "4",
        "name": "Subway",
        "takeaway": "yes"
      }
    },
    {
      "type": "node",
      "id": 11305184197,
      "lat": 13.0707663,
      "lon": 77.5915734,
      "tags": {
        "addr:city": "Bengaluru",
        "addr:country": "IN",
        "addr:floor": "3",
        "addr:hamlet": "Byatarayanapura",
        "addr:place": "Phoenix Mall of Asia",
        "addr:postcode": "560092",
        "addr:suburb": "Yelahanka",
        "leisure": "amusement_arcade",
        "level": "4",
        "name": "Timezone"
      }
    },
    {
      "type": "node",
      "id": 11305184198,
      "lat": 13.0704058,
      "lon": 77.5914212,
      "tags": {
        "addr:city": "Bengaluru",
        "addr:country": "IN",
        "addr:floor": "3",
        "addr:hamlet": "Byatarayanapura",
        "addr:place": "Phoenix Mall of Asia",
        "addr:postcode": "560092",
        "addr:suburb": "Yelahanka",
        "brand": "Hamleys",
        "brand:wikidata": "Q60299",
        "level": "4",
        "name": "Hamleys",
        "shop": "toys",
        "wheelchair": "limited"
      }
    },
    {
      "type": "node",
      "id": 11305184199,
      "lat": 13.070411,
      "lon": 77.5911362,
      "tags": {
        "addr:city": "Bengaluru",
        "addr:country": "IN",
        "addr:floor": "3",
        "addr:hamlet": "Byatarayanapura",
        "addr:place": "Phoenix Mall of Asia",
        "addr:postcode": "560092",
        "addr:suburb": "Yelahanka",
        "amenity": "fast_food",
        "brand": "Popeyes",
        "brand:wikidata": "Q1330910",
        "cuisine": "chicken",
        "level": "4",
        "name": "Popeyes",
        "official_name": "Popeyes Louisiana Kitchen",
        "takeaway": "yes"
      }
    },
    {
      "type": "node",
      "id": 11305184200,
      "lat": 13.0704489,
      "lon": 77.591047,
      "tags": {
        "addr:city": "Bengaluru",
        "addr:country": "IN",
        "addr:floor": "3",
        "addr:hamlet": "Byatarayanapura",
        "addr:place": "Phoenix Mall of Asia",
        "addr:postcode": "560092",
        "addr:suburb": "Yelahanka",
        "amenity": "restaurant",
        "brand": "Pizza Hut",
        "brand:wikidata": "Q191615",
        "cuisine": "pizza",
        "level": "4",
        "name": "Pizza Hut"
      }
    },
    {
      "type": "node",
      "id": 11305184201,
      "lat": 13.0704704,
      "lon": 77.5909793,
      "tags": {
        "addr:city": "Bengaluru",
        "addr:country": "IN",
        "addr:floor": "3",
        "addr:hamlet": "Byatarayanapura",
        "addr:place": "Phoenix Mall of Asia",
        "addr:postcode": "560092",
        "addr:suburb": "Yelahanka",
        "amenity": "fast_food",
        "brand": "Burger King",
        "brand:wikidata": "Q177054",
        "cuisine": "burger",
        "level": "4",
        "name": "Burger King",
        "takeaway": "yes"
      }
    },
    {
      "type": "node",
      "id": 11305184202,
      "lat": 13.0704913,
      "lon": 77.5908566,
      "tags": {
        "addr:city": "Bengaluru",
        "addr:country": "IN",
        "addr:floor": "3",
        "addr:hamlet": "Byatarayanapura",
        "addr:place": "Phoenix Mall of Asia",
        "addr:postcode": "560092",
        "addr:suburb": "Yelahanka",
        "amenity": "restaurant",
        "brand": "Chili's",
        "brand:wikidata": "Q1072948",
        "cuisine": "tex-mex",
        "level": "4",
        "name": "Chili's",
        "official_name": "Chili's Grill & Bar"
      }
    },
    {
      "type": "node",
      "id": 11305184203,
      "lat": 13.0705612,
      "lon": 77.5905608,
      "tags": {
        "addr:city": "Bengaluru",
        "addr:country": "IN",
        "addr:floor": "3",
        "addr:hamlet": "Byatarayanapura",
        "addr:place": "Phoenix Mall of Asia",
        "addr:postcode": "560092",
        "addr:suburb": "Yelahanka",
        "amenity": "restaurant",
        "brand": "PizzaExpress",
        "brand:wikidata": "Q662845",
        "cuisine": "pizza",
        "level": "4",
        "name": "PizzaExpress"
      }
    },
    {
      "type": "node",
      "id": 11305184204,
      "lat": 13.0705828,
      "lon": 77.5904703,
      "tags": {
        "addr:city": "Bengaluru",
        "addr:country": "IN",
        "addr:floor": "3",
        "addr:hamlet": "Byatarayanapura",
        "addr:place": "Phoenix Mall of Asia",
        "addr:postcode": "560092",
        "addr:suburb": "Yelahanka",
        "amenity": "restaurant",
        "level": "4",
        "name": "Rajdhani"
      }
    },
    {
      "type": "node",
      "id": 11305184205,
      "lat": 13.0705985,
      "lon": 77.5903831,
      "tags": {
        "addr:city": "Bengaluru",
        "addr:country": "IN",
        "addr:floor": "3",
        "addr:hamlet": "Byatarayanapura",
        "addr:place": "Phoenix Mall of Asia",
        "addr:postcode": "560092",
        "addr:suburb": "Yelahanka",
        "amenity": "restaurant",
        "brand": "Nando's",
        "brand:wikidata": "Q3472954",
        "cuisine": "chicken;portuguese",
        "level": "4",
        "name": "Nando's"
      }
    },
    {
      "type": "node",
      "id": 11305184206,
      "lat": 13.0706703,
      "lon": 77.5903221,
      "tags": {
        "addr:city": "Bengaluru",
        "addr:country": "IN",
        "addr:floor": "3",
        "addr:hamlet": "Byatarayanapura",
        "addr:place": "Phoenix Mall of Asia",
        "addr:postcode": "560092",
        "addr:suburb": "Yelahanka",
        "amenity": "fast_food",
        "level": "4",
        "name": "Waffle World"
      }
    },
    {
      "type": "node",
      "id": 11305184207,
      "lat": 13.0708088,
      "lon": 77.5903818,
      "tags": {
        "addr:city": "Bengaluru",
        "addr:country": "IN",
        "addr:floor": "3",
        "addr:hamlet": "Byatarayanapura",
        "addr:place": "Phoenix Mall of Asia",
        "addr:postcode": "560092",
        "addr:suburb": "Yelahanka",
        "amenity": "restaurant",
        "brand": "Punjab Grill",
        "brand:wikidata": "Q124374761",
        "cuisine": "north_indian",
        "delivery": "yes",
        "level": "4",
        "name": "Punjab Grill",
        "takeaway": "yes"
      }
    },
    {
      "type": "node",
      "id": 11305184208,
      "lat": 13.0708316,
      "lon": 77.5902115,
      "tags": {
        "addr:city": "Bengaluru",
        "addr:country": "IN",
        "addr:floor": "3",
        "addr:hamlet": "Byatarayanapura",
        "addr:place": "Phoenix Mall of Asia",
        "addr:postcode": "560092",
        "addr:suburb": "Yelahanka",
        "alt_name": "YouMee",
        "amenity": "restaurant",
        "full_name": "YouMee - Phoenix Mall of Asia",
        "level": "4",
        "name": "You Mee"
      }
    },
    {
      "type": "node",
      "id": 11305184209,
      "lat": 13.0709479,
      "lon": 77.5899017,
      "tags": {
        "addr:city": "Bengaluru",
        "addr:country": "IN",
        "addr:floor": "3",
        "addr:hamlet": "Byatarayanapura",
        "addr:place": "Phoenix Mall of Asia",
        "addr:postcode": "560092",
        "addr:suburb": "Yelahanka",
        "amenity": "restaurant",
        "level": "4",
        "name": "Jamie's Italian"
      }
    },
    {
      "type": "node",
      "id": 11305184210,
      "lat": 13.0709074,
      "lon": 77.5900231,
      "tags": {
        "addr:city": "Bengaluru",
        "addr:country": "IN",
        "addr:floor": "3",
        "addr:hamlet": "Byatarayanapura",
        "addr:place": "Phoenix Mall of Asia",
        "addr:postcode": "560092",
        "addr:suburb": "Yelahanka",
        "amenity": "restaurant",
        "cuisine": "burger",
        "level": "4",
        "name": "Burger Seigneur"
      }
    },
    {
      "type": "node",
      "id": 11305184211,
      "lat": 13.0710328,
      "lon": 77.5900586,
      "tags": {
        "addr:city": "Bengaluru",
        "addr:country": "IN",
        "addr:floor": "3",
        "addr:hamlet": "Byatarayanapura",
        "addr:place": "Phoenix Mall of Asia",
        "addr:postcode": "560092",
        "addr:suburb": "Yelahanka",
        "alt_name": "Kentucky Fried Chicken",
        "alt_name:en": "Kentucky Fried Chicken",
        "alt_name:hi": "केंटुकी फ्राइड चिकन",
        "alt_name:pa": "ਕੈਂਟੁਕੀ ਫ੍ਰਾਈਡ ਚਿਕਨ",
        "alt_name:pnb": "کینٹکی فرائیڈ چکن",
        "alt_name:ur": "کینٹکی فرائیڈ چکن",
        "amenity": "fast_food",
        "brand": "KFC",
        "brand:en": "KFC",
        "brand:hi": "केएफसी",
        "brand:pa": "ਕੇਐਫਸੀ",
        "brand:pnb": "کے ایف سی",
        "brand:ur": "کے ایف سی",
        "brand:wikidata": "Q524757",
        "cuisine": "chicken",
        "level": "4",
        "name": "KFC",
        "name:en": "KFC",
        "name:hi": "केएफसी",
        "name:pa": "ਕੇਐਫਸੀ",
        "name:pnb": "کے ایف سی",
        "name:ur": "کے ایف سی",
        "takeaway": "yes"
      }
    },
    {
      "type": "node",
      "id": 11305184212,
      "lat": 13.0710518,
      "lon": 77.5899285,
      "tags": {
        "addr:city": "Bengaluru",
        "addr:country": "IN",
        "addr:floor": "3",
        "addr:hamlet": "Byatarayanapura",
        "addr:place": "Phoenix Mall of Asia",
        "addr:postcode": "560092",
        "addr:suburb": "Yelahanka",
        "amenity": "restaurant",
        "brand": "Bhartiya Jalpan",
        "brand:wikidata": "Q124374711",
        "cuisine": "indian",
        "delivery": "yes",
        "level": "4",
        "name": "Bhartiya Jalpan",
        "takeaway": "yes"
      }
    },
    {
      "type": "node",
      "id": 11305184213,
      "lat": 13.071136,
      "lon": 77.589502,
      "tags": {
        "addr:city": "Bengaluru",
        "addr:country": "IN",
        "addr:floor": "3",
        "addr:hamlet": "Byatarayanapura",
        "addr:place": "Phoenix Mall of Asia",
        "addr:postcode": "560092",
        "addr:suburb": "Yelahanka",
        "amenity": "cinema",
        "brand": "INOX Leisure",
        "brand:wikidata": "Q5972349",
        "drive_in": "no",
        "level": "4",
        "name": "INOX Megaplex",
        "operator": "INOX",
        "screen": "14",
        "short_name": "INOX"
      }
    },
    {
      "type": "node",
      "id": 11305184214,
      "lat": 13.0713359,
      "lon": 77.5896308,
      "tags": {
        "addr:city": "Bengaluru",
        "addr:country": "IN",
        "addr:floor": "2",
        "addr:hamlet": "Byatarayanapura",
        "addr:place": "Phoenix Mall of Asia",
        "addr:postcode": "560092",
        "addr:suburb": "Yelahanka",
        "level": "3",
        "name": "Home Center",
        "shop": "interior_decoration"
      }
    },
    {
      "type": "node",
      "id": 11305184215,
      "lat": 13.0705638,
      "lon": 77.5905307,
      "tags": {
        "addr:city": "Bengaluru",
        "addr:country": "IN",
        "addr:floor": "2",
        "addr:hamlet": "Byatarayanapura",
        "addr:place": "Phoenix Mall of Asia",
        "addr:postcode": "560092",
        "addr:suburb": "Yelahanka",
        "amenity": "restaurant",
        "level": "3",
        "name": "Burma Burma"
      }
    },
    {
      "type": "node",
      "id": 11305184216,
      "lat": 13.0704868,
      "lon": 77.5909122,
      "tags": {
        "addr:city": "Bengaluru",
        "addr:country": "IN",
        "addr:floor": "2",
        "addr:hamlet": "Byatarayanapura",
        "addr:place": "Phoenix Mall of Asia",
        "addr:postcode": "560092",
        "addr:suburb": "Yelahanka",
        "amenity": "cafe",
        "level": "3",
        "name": "Cafe Allora"
      }
    },
    {
      "type": "node",
      "id": 11305184217,
      "lat": 13.0707121,
      "lon": 77.5912106,
      "tags": {
        "addr:city": "Bengaluru",
        "addr:country": "IN",
        "addr:floor": "2",
        "addr:hamlet": "Byatarayanapura",
        "addr:place": "Phoenix Mall of Asia",
        "addr:postcode": "560092",
        "addr:suburb": "Yelahanka",
        "brand": "Crossword Bookstores",
        "brand:wikidata": "Q5188909",
        "level": "3",
        "name": "Crossword Bookstores",
        "shop": "books"
      }
    },
    {
      "type": "node",
      "id": 11305184218,
      "lat": 13.0708401,
      "lon": 77.5916163,
      "tags": {
        "addr:city": "Bengaluru",
        "addr:country": "IN",
        "addr:floor": "2",
        "addr:hamlet": "Byatarayanapura",
        "addr:place": "Phoenix Mall of Asia",
        "addr:postcode": "560092",
        "addr:suburb": "Yelahanka",
        "level": "3",
        "name": "Reliance Trends",
        "shop": "clothes"
      }
    },
    {
      "type": "node",
      "id": 11305184219,
      "lat": 13.0706514,
      "lon": 77.591623,
      "tags": {
        "addr:city": "Bengaluru",
        "addr:country": "IN",
        "addr:floor": "2",
        "addr:hamlet": "Byatarayanapura",
        "addr:place": "Phoenix Mall of Asia",
        "addr:postcode": "560092",
        "addr:suburb": "Yelahanka",
        "brand": "Reliance Digital",
        "brand:wikidata": "Q7311012",
        "level": "3",
        "name": "Reliance Digital",
        "shop": "electronics"
      }
    },
    {
      "type": "node",
      "id": 11305184220,
      "lat": 13.0704809,
      "lon": 77.591566,
      "tags": {
        "addr:city": "Bengaluru",
        "addr:country": "IN",
        "addr:floor": "2",
        "addr:hamlet": "Byatarayanapura",
        "addr:place": "Phoenix Mall of Asia",
        "addr:postcode": "560092",
        "addr:suburb": "Yelahanka",
        "brand": "Cromā",
        "brand:wikidata": "Q5187683",
        "level": "3",
        "name": "Cromā",
        "shop": "electronics"
      }
    },
    {
      "type": "node",
      "id": 11305184221,
      "lat": 13.0703,
      "lon": 77.5914741,
      "tags": {
        "addr:city": "Bengaluru",
        "addr:country": "IN",
        "addr:floor": "2",
        "addr:hamlet": "Byatarayanapura",
        "addr:place": "Phoenix Mall of Asia",
        "addr:postcode": "560092",
        "addr:suburb": "Yelahanka",
        "brand": "Max",
        "brand:wikidata": "Q24939079",
        "level": "3",
        "name": "Max",
        "shop": "clothes"
      }
    },
    {
      "type": "node",
      "id": 11305184222,
      "lat": 13.0706736,
      "lon": 77.5909732,
      "tags": {
        "addr:city": "Bengaluru",
        "addr:country": "IN",
        "addr:floor": "1",
        "addr:hamlet": "Byatarayanapura",
        "addr:place": "Phoenix Mall of Asia",
        "addr:postcode": "560092",
        "addr:suburb": "Yelahanka",
        "brand": "Tissot",
        "brand:wikidata": "Q659530",
        "level": "2",
        "name": "Tissot",
        "shop": "watches"
      }
    },
    {
      "type": "node",
      "id": 11305184223,
      "lat": 13.0708421,
      "lon": 77.5905367,
      "tags": {
        "addr:city": "Bengaluru",
        "addr:country": "IN",
        "addr:floor": "1",
        "addr:hamlet": "Byatarayanapura",
        "addr:place": "Phoenix Mall of Asia",
        "addr:postcode": "560092",
        "addr:suburb": "Yelahanka",
        "brand": "Swarovski",
        "brand:wikidata": "Q611115",
        "level": "2",
        "name": "Swarovski",
        "shop": "jewelry"
      }
    },
    {
      "type": "node",
      "id": 11305184224,
      "lat": 13.0711798,
      "lon": 77.5906949,
      "tags": {
        "addr:city": "Bengaluru",
        "addr:country": "IN",
        "addr:floor": "1",
        "addr:hamlet": "Byatarayanapura",
        "addr:place": "Phoenix Mall of Asia",
        "addr:postcode": "560092",
        "addr:suburb": "Yelahanka",
        "brand": "Tommy Hilfiger",
        "brand:wikidata": "Q634881",
        "level": "2",
        "name": "Tommy Hilfiger",
        "shop": "clothes"
      }
    },
    {
      "type": "node",
      "id": 11305184225,
      "lat": 13.0711563,
      "lon": 77.5906084,
      "tags": {
        "addr:city": "Bengaluru",
        "addr:country": "IN",
        "addr:floor": "1",
        "addr:hamlet": "Byatarayanapura",
        "addr:place": "Phoenix Mall of Asia",
        "addr:postcode": "560092",
        "addr:suburb": "Yelahanka",
        "brand": "Calvin Klein",
        "brand:wikidata": "Q1068628",
        "level": "2",
        "name": "Calvin Klein",
        "name:kn": "ಕಾಲ್ವಿನ್ ಕ್ಲೈನ್",
        "shop": "clothes"
      }
    },
    {
      "type": "node",
      "id": 11305184226,
      "lat": 13.071202,
      "lon": 77.5904073,
      "tags": {
        "addr:city": "Bengaluru",
        "addr:country": "IN",
        "addr:floor": "1",
        "addr:hamlet": "Byatarayanapura",
        "addr:place": "Phoenix Mall of Asia",
        "addr:postcode": "560092",
        "addr:suburb": "Yelahanka",
        "amenity": "cafe",
        "level": "2",
        "name": "Magnolia Bakery"
      }
    },
    {
      "type": "node",
      "id": 11305184227,
      "lat": 13.0710518,
      "lon": 77.5900231,
      "tags": {
        "addr:city": "Bengaluru",
        "addr:country": "IN",
        "addr:floor": "1",
        "addr:hamlet": "Byatarayanapura",
        "addr:place": "Phoenix Mall of Asia",
        "addr:postcode": "560092",
        "addr:suburb": "Yelahanka",
        "brand": "Clarks",
        "brand:wikidata": "Q1095857",
        "level": "2",
        "name": "Clarks",
        "name:kn": "ಕ್ಲಾರ್ಕ್ಸ್",
        "shop": "shoes"
      }
    },
    {
      "type": "node",
      "id": 11305184228,
      "lat": 13.0709571,
      "lon": 77.5899942,
      "tags": {
        "addr:city": "Bengaluru",
        "addr:country": "IN",
        "addr:floor": "1",
        "addr:hamlet": "Byatarayanapura",
        "addr:place": "Phoenix Mall of Asia",
        "addr:postcode": "560092",
        "addr:suburb": "Yelahanka",
        "brand": "Birkenstock",
        "brand:wikidata": "Q648458",
        "level": "2",
        "name": "Birkenstock",
        "shop": "shoes"
      }
    },
    {
      "type": "node",
      "id": 11305184229,
      "lat": 13.0712634,
      "lon": 77.590239,
      "tags": {
        "addr:city": "Bengaluru",
        "addr:country": "IN",
        "addr:floor": "1",
        "addr:hamlet": "Byatarayanapura",
        "addr:place": "Phoenix Mall of Asia",
        "addr:postcode": "560092",
        "addr:suburb": "Yelahanka",
        "brand": "Lacoste",
        "brand:wikidata": "Q309031",
        "level": "2",
        "name": "Lacoste",
        "shop": "clothes"
      }
    },
    {
      "type": "node",
      "id": 11305184230,
      "lat": 13.0713509,
      "lon": 77.5898024,
      "tags": {
        "addr:city": "Bengaluru",
        "addr:country": "IN",
        "addr:floor": "1",
        "addr:hamlet": "Byatarayanapura",
        "addr:place": "Phoenix Mall of Asia",
        "addr:postcode": "560092",
        "addr:suburb": "Yelahanka",
        "brand": "Marks & Spencer",
        "brand:short": "M&S",
        "brand:wikidata": "Q714491",
        "level": "2",
        "name": "Marks & Spencer",
        "shop": "department_store"
      }
    },
    {
      "type": "node",
      "id": 11305184231,
      "lat": 13.0711602,
      "lon": 77.5895671,
      "tags": {
        "addr:city": "Bengaluru",
        "addr:country": "IN",
        "addr:floor": "1",
        "addr:hamlet": "Byatarayanapura",
        "addr:place": "Phoenix Mall of Asia",
        "addr:postcode": "560092",
        "addr:suburb": "Yelahanka",
        "brand": "Lifestyle",
        "brand:wikidata": "Q6545496",
        "level": "2",
        "name": "Lifestyle",
        "shop": "clothes"
      }
    },
    {
      "type": "node",
      "id": 11305184232,
      "lat": 13.0708682,
      "lon": 77.5895852,
      "tags": {
        "addr:city": "Bengaluru",
        "addr:country": "IN",
        "addr:floor": "1",
        "addr:hamlet": "Byatarayanapura",
        "addr:place": "Phoenix Mall of Asia",
        "addr:postcode": "560092",
        "addr:suburb": "Yelahanka",
        "brand": "H&M",
        "brand:wikidata": "Q188326",
        "level": "2",
        "name": "H&M",
        "shop": "clothes",
        "start_date": "2024-02-09"
      }
    },
    {
      "type": "node",
      "id": 11305184233,
      "lat": 13.0704861,
      "lon": 77.5907399,
      "tags": {
        "addr:city": "Bengaluru",
        "addr:country": "IN",
        "addr:floor": "1",
        "addr:hamlet": "Byatarayanapura",
        "addr:place": "Phoenix Mall of Asia",
        "addr:postcode": "560092",
        "addr:suburb": "Yelahanka",
        "brand": "Armani Exchange",
        "brand:wikidata": "Q56045740",
        "clothes": "men;women",
        "level": "2",
        "name": "Armani Exchange",
        "shop": "clothes"
      }
    },
    {
      "type": "node",
      "id": 11305184234,
      "lat": 13.0704737,
      "lon": 77.5908156,
      "tags": {
        "addr:city": "Bengaluru",
        "addr:country": "IN",
        "addr:floor": "1",
        "addr:hamlet": "Byatarayanapura",
        "addr:place": "Phoenix Mall of Asia",
        "addr:postcode": "560092",
        "addr:suburb": "Yelahanka",
        "brand": "Bath & Body Works",
        "brand:wikidata": "Q810773",
        "level": "2",
        "name": "Bath & Body Works",
        "shop": "cosmetics"
      }
    },
    {
      "type": "node",
      "id": 11305184235,
      "lat": 13.0704554,
      "lon": 77.590878,
      "tags": {
        "addr:city": "Bengaluru",
        "addr:country": "IN",
        "addr:floor": "1",
        "addr:hamlet": "Byatarayanapura",
        "addr:place": "Phoenix Mall of Asia",
        "addr:postcode": "560092",
        "addr:suburb": "Yelahanka",
        "brand": "The Body Shop",
        "brand:wikidata": "Q837851",
        "level": "2",
        "name": "The Body Shop",
        "shop": "cosmetics"
      }
    },
    {
      "type": "node",
      "id": 11305184236,
      "lat": 13.0703862,
      "lon": 77.5910202,
      "tags": {
        "addr:city": "Bengaluru",
        "addr:country": "IN",
        "addr:floor": "1",
        "addr:hamlet": "Byatarayanapura",
        "addr:place": "Phoenix Mall of Asia",
        "addr:postcode": "560092",
        "addr:suburb": "Yelahanka",
        "brand": "Vero Moda",
        "brand:wikidata": "Q640418",
        "clothes": "women",
        "level": "2",
        "name": "Vero Moda",
        "shop": "clothes"
      }
    },
    {
      "type": "node",
      "id": 11305184237,
      "lat": 13.0703692,
      "lon": 77.5911207,
      "tags": {
        "addr:city": "Bengaluru",
        "addr:country": "IN",
        "addr:floor": "1",
        "addr:hamlet": "Byatarayanapura",
        "addr:place": "Phoenix Mall of Asia",
        "addr:postcode": "560092",
        "addr:suburb": "Yelahanka",
        "brand": "Mango",
        "brand:wikidata": "Q136503",
        "level": "2",
        "name": "Mango",
        "shop": "clothes"
      }
    },
    {
      "type": "node",
      "id": 11305184238,
      "lat": 13.0705756,
      "lon": 77.5915781,
      "tags": {
        "addr:city": "Bengaluru",
        "addr:country": "IN",
        "addr:floor": "1",
        "addr:hamlet": "Byatarayanapura",
        "addr:place": "Phoenix Mall of Asia",
        "addr:postcode": "560092",
        "addr:suburb": "Yelahanka",
        "brand": "Zara",
        "brand:wikidata": "Q147662",
        "level": "2",
        "name": "Zara",
        "shop": "clothes"
      }
    },
    {
      "type": "node",
      "id": 11423202993,
      "lat": 13.0709074,
      "lon": 77.5907533,
      "tags": {
        "addr:city": "Bengaluru",
        "addr:country": "IN",
        "addr:floor": "1",
        "addr:hamlet": "Byatarayanapura",
        "addr:place": "Phoenix Mall of Asia",
        "addr:postcode": "560092",
        "addr:suburb": "Yelahanka",
        "amenity": "restaurant",
        "contact:instagram": "andreasdining",
        "cuisine": "italian",
        "level": "2",
        "name": "Andrea's Brasserie",
        "phone": "8588823878",
        "website": "https://andreas.co.in/andrea-s-brasserie-bengaluru"
      }
    },
    {
      "type": "node",
      "id": 11534769007,
      "lat": 13.0705715,
      "lon": 77.5905475,
      "tags": {
        "addr:city": "Bengaluru",
        "addr:country": "IN",
        "addr:hamlet": "Byatarayanapura",
        "addr:place": "Phoenix Mall of Asia",
        "addr:postcode": "560092",
        "addr:suburb": "Yelahanka",
        "amenity": "pub",
        "check_date": "2024-01-21",
        "level": "3",
        "name": "Sally by 1522",
        "website": "https://sallyby1522.com/"
      }
    },
    {
      "type": "node",
      "id": 11559397479,
      "lat": 13.0660899,
      "lon": 77.5993983,
      "tags": {
        "amenity": "marketplace",
        "check_date": "2024-01-28"
      }
    },
    {
      "type": "node",
      "id": 11559397480,
      "lat": 13.0661942,
      "lon": 77.5973699,
      "tags": {
        "check_date": "2024-01-28",
        "name": "Trend & Tailor Boutique",
        "shop": "hairdresser"
      }
    },
    {
      "type": "node",
      "id": 11566358594,
      "lat": 13.0710194,
      "lon": 77.5909062,
      "tags": {
        "addr:city": "Bengaluru",
        "addr:country": "IN",
        "addr:floor": "2",
        "addr:hamlet": "Byatarayanapura",
        "addr:place": "Phoenix Mall of Asia",
        "addr:postcode": "560092",
        "addr:suburb": "Yelahanka",
        "amenity": "restaurant",
        "level": "3",
        "name": "Plan B"
      }
    },
    {
      "type": "node",
      "id": 11566358595,
      "lat": 13.070892,
      "lon": 77.590808,
      "tags": {
        "addr:city": "Bengaluru",
        "addr:country": "IN",
        "addr:floor": "2",
        "addr:hamlet": "Byatarayanapura",
        "addr:place": "Phoenix Mall of Asia",
        "addr:postcode": "560092",
        "addr:suburb": "Yelahanka",
        "amenity": "restaurant",
        "brand": "Cafe Noir",
        "brand:wikidata": "Q124374751",
        "cuisine": "french",
        "delivery": "yes",
        "level": "3",
        "name": "Cafe Noir",
        "takeaway": "yes"
      }
    },
    {
      "type": "node",
      "id": 11566358596,
      "lat": 13.0711959,
      "lon": 77.5903508,
      "tags": {
        "addr:city": "Bengaluru",
        "addr:country": "IN",
        "addr:floor": "2",
        "addr:hamlet": "Byatarayanapura",
        "addr:place": "Phoenix Mall of Asia",
        "addr:postcode": "560092",
        "addr:suburb": "Yelahanka",
        "level": "3",
        "name": "DJI",
        "shop": "electronics"
      }
    },
    {
      "type": "node",
      "id": 11566358597,
      "lat": 13.0710537,
      "lon": 77.5900683,
      "tags": {
        "addr:city": "Bengaluru",
        "addr:country": "IN",
        "addr:floor": "2",
        "addr:hamlet": "Byatarayanapura",
        "addr:place": "Phoenix Mall of Asia",
        "addr:postcode": "560092",
        "addr:suburb": "Yelahanka",
        "brand": "Bose",
        "brand:wikidata": "Q328568",
        "level": "3",
        "name": "Bose",
        "shop": "hifi"
      }
    },
    {
      "type": "node",
      "id": 11566358598,
      "lat": 13.0706075,
      "lon": 77.5911879,
      "tags": {
        "addr:city": "Bengaluru",
        "addr:country": "IN",
        "addr:floor": "2",
        "addr:hamlet": "Byatarayanapura",
        "addr:place": "Phoenix Mall of Asia",
        "addr:postcode": "560092",
        "addr:suburb": "Yelahanka",
        "brand": "Biba",
        "brand:wikidata": "Q4902942",
        "level": "3",
        "name": "Biba",
        "name:kn": "ಬೀಬ",
        "shop": "clothes"
      }
    },
    {
      "type": "node",
      "id": 11566358599,
      "lat": 13.0706432,
      "lon": 77.5903939,
      "tags": {
        "addr:city": "Bengaluru",
        "addr:country": "IN",
        "addr:floor": "2",
        "addr:hamlet": "Byatarayanapura",
        "addr:place": "Phoenix Mall of Asia",
        "addr:postcode": "560092",
        "addr:suburb": "Yelahanka",
        "level": "3",
        "name": "W",
        "shop": "clothes"
      }
    },
    {
      "type": "node",
      "id": 11566358600,
      "lat": 13.070951,
      "lon": 77.5899653,
      "tags": {
        "addr:city": "Bengaluru",
        "addr:country": "IN",
        "addr:floor": "2",
        "addr:hamlet": "Byatarayanapura",
        "addr:place": "Phoenix Mall of Asia",
        "addr:postcode": "560092",
        "addr:suburb": "Yelahanka",
        "level": "3",
        "name": "IndieFusion",
        "shop": "clothes"
      }
    },
    {
      "type": "node",
      "id": 11566358601,
      "lat": 13.0709744,
      "lon": 77.5898855,
      "tags": {
        "addr:city": "Bengaluru",
        "addr:country": "IN",
        "addr:floor": "2",
        "addr:hamlet": "Byatarayanapura",
        "addr:place": "Phoenix Mall of Asia",
        "addr:postcode": "560092",
        "addr:suburb": "Yelahanka",
        "level": "3",
        "name": "Mohanlal Sons",
        "shop": "clothes"
      }
    },
    {
      "type": "node",
      "id": 11566358602,
      "lat": 13.0709643,
      "lon": 77.5903859,
      "tags": {
        "addr:city": "Bengaluru",
        "addr:country": "IN",
        "addr:floor": "2",
        "addr:hamlet": "Byatarayanapura",
        "addr:place": "Phoenix Mall of Asia",
        "addr:postcode": "560092",
        "addr:suburb": "Yelahanka",
        "level": "3",
        "name": "Soch",
        "shop": "clothes"
      }
    },
    {
      "type": "node",
      "id": 11566358603,
      "lat": 13.0712519,
      "lon": 77.5900659,
      "tags": {
        "addr:city": "Bengaluru",
        "addr:country": "IN",
        "addr:floor": "2",
        "addr:hamlet": "Byatarayanapura",
        "addr:place": "Phoenix Mall of Asia",
        "addr:postcode": "560092",
        "addr:suburb": "Yelahanka",
        "level": "3",
        "name": "Mama Earth",
        "shop": "beauty"
      }
    },
    {
      "type": "node",
      "id": 11566358604,
      "lat": 13.0708611,
      "lon": 77.5901247,
      "tags": {
        "addr:city": "Bengaluru",
        "addr:country": "IN",
        "addr:floor": "UG",
        "addr:hamlet": "Byatarayanapura",
        "addr:place": "Phoenix Mall of Asia",
        "addr:postcode": "560092",
        "addr:suburb": "Yelahanka",
        "brand": "Jo Malone",
        "brand:wikidata": "Q28940761",
        "level": "1",
        "name": "Jo Malone",
        "shop": "perfumery"
      }
    },
    {
      "type": "node",
      "id": 11655446700,
      "lat": 13.0711439,
      "lon": 77.5889294,
      "tags": {
        "access": "customers",
        "amenity": "parking_entrance",
        "fee": "yes",
        "parking": "underground"
      }
    },
    {
      "type": "node",
      "id": 11777585622,
      "lat": 13.0709551,
      "lon": 77.5905318,
      "tags": {
        "addr:city": "Bengaluru",
        "addr:country": "IN",
        "addr:floor": "3",
        "addr:hamlet": "Byatarayanapura",
        "addr:place": "Phoenix Mall of Asia",
        "addr:postcode": "560092",
        "addr:suburb": "Yelahanka",
        "air_conditioning": "yes",
        "amenity": "restaurant",
        "contact:instagram": "ishaara.blr",
        "delivery": "yes",
        "dinner": "yes",
        "level": "4",
        "lunch": "yes",
        "name": "Ishaara",
        "opening_hours": "10:30-22:30",
        "reservation": "recommended",
        "takeaway": "yes"
      }
    },
    {
      "type": "node",
      "id": 11777585623,
      "lat": 13.0711653,
      "lon": 77.5904409,
      "tags": {
        "addr:city": "Bengaluru",
        "addr:country": "IN",
        "addr:floor": "3",
        "addr:hamlet": "Byatarayanapura",
        "addr:place": "Phoenix Mall of Asia",
        "addr:postcode": "560092",
        "addr:suburb": "Yelahanka",
        "air_conditioning": "yes",
        "amenity": "restaurant",
        "contact:instagram": "karigari.bangalore",
        "delivery": "yes",
        "dinner": "yes",
        "full_name": "Karigari by Chef Parpal Singh Sokhi",
        "level": "4",
        "lunch": "yes",
        "name": "Karigari",
        "opening_hours": "12:00-23:30",
        "reservation": "recommended",
        "takeaway": "yes",
        "website": "https://karigariindia.com/"
      }
    },
    {
      "type": "node",
      "id": 11777585624,
      "lat": 13.0711299,
      "lon": 77.5905713,
      "tags": {
        "addr:city": "Bengaluru",
        "addr:country": "IN",
        "addr:floor": "3",
        "addr:hamlet": "Byatarayanapura",
        "addr:place": "Phoenix Mall of Asia",
        "addr:postcode": "560092",
        "addr:suburb": "Yelahanka",
        "air_conditioning": "yes",
        "amenity": "restaurant",
        "bar": "yes",
        "contact:instagram": "plaka_india",
        "delivery": "no",
        "dinner": "yes",
        "full_name": "Plaka by Chef Ajay Chopra",
        "level": "4",
        "lunch": "yes",
        "name": "Plaka",
        "opening_hours": "11:00-00:00",
        "reservation": "recommended",
        "takeaway": "no",
        "website": "https://linktr.ee/PlakaByChefAjayChopra"
      }
    },
    {
      "type": "node",
      "id": 11817854695,
      "lat": 13.0723261,
      "lon": 77.5859582,
      "tags": {
        "amenity": "prep_school",
        "name": "Vaidya Medical Academy",
        "office": "educational_institution"
      }
    },
    {
      "type": "node",
      "id": 11817854700,
      "lat": 13.0707996,
      "lon": 77.5896261,
      "tags": {
        "addr:city": "Bengaluru",
        "addr:country": "IN",
        "addr:floor": "G",
        "addr:hamlet": "Byatarayanapura",
        "addr:place": "Phoenix Mall of Asia",
        "addr:postcode": "560092",
        "addr:suburb": "Yelahanka",
        "level": "0",
        "name": "Azorte",
        "shop": "clothes"
      }
    },
    {
      "type": "node",
      "id": 11865663529,
      "lat": 13.0599102,
      "lon": 77.5877157,
      "tags": {
        "brand": "Theobroma",
        "delivery": "yes",
        "name": "Theobroma",
        "shop": "pastry",
        "takeaway": "yes"
      }
    },
    {
      "type": "node",
      "id": 11865663530,
      "lat": 13.0588573,
      "lon": 77.5876258,
      "tags": {
        "amenity": "fast_food",
        "name": "Gopizza"
      }
    },
    {
      "type": "node",
      "id": 11865663531,
      "lat": 13.0595575,
      "lon": 77.5875065,
      "tags": {
        "amenity": "cafe",
        "brand": "Chaayos",
        "brand:wikidata": "Q117235235",
        "cuisine": "tea",
        "name": "Chaayos",
        "takeaway": "yes"
      }
    },
    {
      "type": "node",
      "id": 11865663544,
      "lat": 13.0601781,
      "lon": 77.5876486,
      "tags": {
        "amenity": "cafe",
        "brand": "Starbucks",
        "brand:wikidata": "Q37158",
        "cuisine": "coffee_shop",
        "name": "Starbucks",
        "official_name": "Starbucks Coffee",
        "takeaway": "yes"
      }
    },
    {
      "type": "node",
      "id": 11913886655,
      "lat": 13.0708826,
      "lon": 77.5888033,
      "tags": {
        "access": "customers",
        "amenity": "parking_entrance",
        "fee": "yes",
        "parking": "underground"
      }
    },
    {
      "type": "node",
      "id": 11949142525,
      "lat": 13.0625046,
      "lon": 77.5922214,
      "tags": {
        "amenity": "fixme",
        "check_date": "2024-06-01",
        "fixme": "type",
        "fixme:type": "dental",
        "name": "Amaya Dental Clinic"
      }
    },
    {
      "type": "node",
      "id": 11949145526,
      "lat": 13.0595565,
      "lon": 77.5903055,
      "tags": {
        "amenity": "waste_basket"
      }
    },
    {
      "type": "node",
      "id": 11949145527,
      "lat": 13.0595189,
      "lon": 77.5901398,
      "tags": {
        "amenity": "bench"
      }
    },
    {
      "type": "node",
      "id": 11949145528,
      "lat": 13.0595453,
      "lon": 77.5900956,
      "tags": {
        "amenity": "bench"
      }
    },
    {
      "type": "node",
      "id": 11949175713,
      "lat": 13.0590424,
      "lon": 77.5917658,
      "tags": {
        "addr:floor": "G",
        "check_date": "2024-06-01",
        "level": "0",
        "name": "Chai Garam",
        "name:en": "Chai Garam",
        "shop": "tea"
      }
    },
    {
      "type": "node",
      "id": 11949185950,
      "lat": 13.060184,
      "lon": 77.5888665,
      "tags": {
        "addr:city": "Bengaluru",
        "addr:district": "Bengaluru Urban",
        "addr:hamlet": "E Block, Sahakarnagar, Byatarayanapura",
        "addr:housenumber": "2444",
        "addr:postcode": "560092",
        "addr:state": "KA",
        "addr:street": "13th Main Road",
        "amenity": "doctors",
        "baby_feeding": "no",
        "check_date": "2024-06-01",
        "healthcare": "doctor",
        "healthcare:speciality": "dermatology",
        "level": "1",
        "name": "4 Senses Advanced Skin, Hair & ENT Clinic",
        "opening_hours": "Mo-Tu,Th-Sa 10:00-13:30,17:30-21:00; Su 10:00-14:00",
        "shop": "bakery",
        "wheelchair": "no"
      }
    },
    {
      "type": "node",
      "id": 11949185951,
      "lat": 13.0602165,
      "lon": 77.5888831,
      "tags": {
        "amenity": "clinic",
        "check_date": "2024-06-01",
        "healthcare": "clinic",
        "name": "Aditya Kids Clinic"
      }
    },
    {
      "type": "node",
      "id": 11949185952,
      "lat": 13.0604878,
      "lon": 77.5885002,
      "tags": {
        "amenity": "clinic",
        "check_date": "2024-06-01",
        "description": "homeo clinic",
        "healthcare": "clinic",
        "name": "Victory Homeo Speciality Clinic"
      }
    },
    {
      "type": "node",
      "id": 11949185967,
      "lat": 13.0602266,
      "lon": 77.5876257,
      "tags": {
        "check_date": "2024-06-01",
        "name": "Sound For Life",
        "phone": "+91 90157 06707",
        "shop": "hearing_aids"
      }
    },
    {
      "type": "node",
      "id": 11949205695,
      "lat": 13.0595653,
      "lon": 77.5903192,
      "tags": {
        "amenity": "bench",
        "backrest": "yes",
        "material": "concrete",
        "seats": "3"
      }
    },
    {
      "type": "node",
      "id": 11949205696,
      "lat": 13.0595797,
      "lon": 77.5903069,
      "tags": {
        "amenity": "bench",
        "backrest": "yes",
        "material": "concrete",
        "seats": "3"
      }
    },
    {
      "type": "node",
      "id": 11949205697,
      "lat": 13.0595847,
      "lon": 77.5903196,
      "tags": {
        "amenity": "bench",
        "backrest": "yes",
        "material": "concrete",
        "seats": "3"
      }
    },
    {
      "type": "node",
      "id": 11949205698,
      "lat": 13.0595906,
      "lon": 77.5903199,
      "tags": {
        "amenity": "bench",
        "backrest": "yes",
        "material": "concrete",
        "seats": "3"
      }
    },
    {
      "type": "node",
      "id": 11949205699,
      "lat": 13.0596,
      "lon": 77.5903111,
      "tags": {
        "amenity": "bench",
        "backrest": "yes",
        "material": "concrete",
        "seats": "3"
      }
    },
    {
      "type": "node",
      "id": 11949205700,
      "lat": 13.059606,
      "lon": 77.5903218,
      "tags": {
        "amenity": "bench",
        "backrest": "yes",
        "material": "concrete",
        "seats": "3"
      }
    },
    {
      "type": "node",
      "id": 11949205701,
      "lat": 13.059618,
      "lon": 77.5903239,
      "tags": {
        "amenity": "bench",
        "backrest": "yes",
        "material": "concrete",
        "seats": "3"
      }
    },
    {
      "type": "node",
      "id": 11949205702,
      "lat": 13.0596305,
      "lon": 77.5903172,
      "tags": {
        "amenity": "bench",
        "backrest": "yes",
        "material": "concrete",
        "seats": "3"
      }
    },
    {
      "type": "node",
      "id": 11949205703,
      "lat": 13.0596405,
      "lon": 77.5903272,
      "tags": {
        "amenity": "bench",
        "backrest": "yes",
        "material": "concrete",
        "seats": "3"
      }
    },
    {
      "type": "node",
      "id": 11949215106,
      "lat": 13.0593261,
      "lon": 77.5903604,
      "tags": {
        "amenity": "bench"
      }
    },
    {
      "type": "node",
      "id": 11949215107,
      "lat": 13.0594298,
      "lon": 77.5904563,
      "tags": {
        "amenity": "waste_basket"
      }
    },
    {
      "type": "node",
      "id": 11949215108,
      "lat": 13.05929,
      "lon": 77.5906977,
      "tags": {
        "amenity": "waste_basket"
      }
    },
    {
      "type": "node",
      "id": 11949215109,
      "lat": 13.0591748,
      "lon": 77.5908591,
      "tags": {
        "amenity": "bench"
      }
    },
    {
      "type": "node",
      "id": 11949215110,
      "lat": 13.0591156,
      "lon": 77.5908806,
      "tags": {
        "amenity": "bench"
      }
    },
    {
      "type": "node",
      "id": 11949215111,
      "lat": 13.0589662,
      "lon": 77.5908384,
      "tags": {
        "amenity": "bench"
      }
    },
    {
      "type": "node",
      "id": 11949215112,
      "lat": 13.0591834,
      "lon": 77.590838,
      "tags": {
        "amenity": "waste_basket"
      }
    },
    {
      "type": "node",
      "id": 11949215113,
      "lat": 13.0592399,
      "lon": 77.5907809,
      "tags": {
        "amenity": "bench"
      }
    },
    {
      "type": "node",
      "id": 11949215114,
      "lat": 13.0592221,
      "lon": 77.590809,
      "tags": {
        "amenity": "bench"
      }
    },
    {
      "type": "node",
      "id": 11949215115,
      "lat": 13.0591971,
      "lon": 77.5908034,
      "tags": {
        "amenity": "bench"
      }
    },
    {
      "type": "node",
      "id": 11949215116,
      "lat": 13.0591863,
      "lon": 77.5907854,
      "tags": {
        "amenity": "bench"
      }
    },
    {
      "type": "node",
      "id": 11949215117,
      "lat": 13.0591982,
      "lon": 77.5907612,
      "tags": {
        "amenity": "bench"
      }
    },
    {
      "type": "node",
      "id": 11949215118,
      "lat": 13.0591374,
      "lon": 77.5906157,
      "tags": {
        "amenity": "bench"
      }
    },
    {
      "type": "node",
      "id": 11949215119,
      "lat": 13.059197,
      "lon": 77.5905307,
      "tags": {
        "amenity": "bench"
      }
    },
    {
      "type": "node",
      "id": 11949215120,
      "lat": 13.0592557,
      "lon": 77.5904473,
      "tags": {
        "amenity": "bench"
      }
    },
    {
      "type": "node",
      "id": 11949229012,
      "lat": 13.0596175,
      "lon": 77.5926342,
      "tags": {
        "addr:floor": "1;2",
        "amenity": "restaurant",
        "check_date": "2024-06-01",
        "cuisine": "andhra",
        "diet:non-vegetarian": "yes",
        "level": "1;2",
        "name": "Nandha Palace",
        "name:en": "Nandha Palace"
      }
    },
    {
      "type": "node",
      "id": 11949230486,
      "lat": 13.0592369,
      "lon": 77.5904742,
      "tags": {
        "amenity": "waste_basket"
      }
    },
    {
      "type": "node",
      "id": 11949230487,
      "lat": 13.0589143,
      "lon": 77.5906286,
      "tags": {
        "amenity": "events_venue",
        "check_date": "2024-06-01",
        "name": "Ashirwad Banquets"
      }
    },
    {
      "type": "node",
      "id": 11949230488,
      "lat": 13.0588992,
      "lon": 77.5905918,
      "tags": {
        "amenity": "clinic",
        "check_date": "2024-06-01",
        "healthcare": "clinic",
        "healthcare:speciality": "fertility"
      }
    },
    {
      "type": "node",
      "id": 11949230567,
      "lat": 13.0592363,
      "lon": 77.5913196,
      "tags": {
        "addr:floor": "G",
        "amenity": "restaurant",
        "check_date": "2024-06-01",
        "level": "0",
        "name": "Royal Chef Biriyani RCB",
        "name:en": "Royal Chef Biriyani RCB"
      }
    },
    {
      "type": "node",
      "id": 11949231431,
      "lat": 13.0591811,
      "lon": 77.5928742,
      "tags": {
        "addr:floor": "1",
        "amenity": "events_venue",
        "check_date": "2024-06-01",
        "level": "1",
        "name": "Swathi groups Banquet Hall"
      }
    },
    {
      "type": "node",
      "id": 11949231538,
      "lat": 13.0587342,
      "lon": 77.5909461,
      "tags": {
        "amenity": "fixme",
        "check_date": "2024-06-01",
        "fixme": "type",
        "fixme:type": "house",
        "name": "2588/1 E block"
      }
    },
    {
      "type": "node",
      "id": 11949232735,
      "lat": 13.0592427,
      "lon": 77.5903262,
      "tags": {
        "amenity": "atm",
        "cash_in": "no",
        "check_date": "2024-06-01",
        "currency:INR": "yes",
        "drive_through": "no",
        "indoor": "yes",
        "operator": "Bank Of Baroda ATM"
      }
    },
    {
      "type": "node",
      "id": 11949232736,
      "lat": 13.0592505,
      "lon": 77.5903083,
      "tags": {
        "check_date": "2024-06-01",
        "internet_access": "no",
        "name": "Shri Raghavendra Bakery",
        "name:en": "Shri Raghavendra Bakery",
        "payment:cash": "yes",
        "shop": "bakery",
        "wheelchair": "no"
      }
    },
    {
      "type": "node",
      "id": 11949234684,
      "lat": 13.0595166,
      "lon": 77.5909281,
      "tags": {
        "check_date": "2024-06-01",
        "name": "Sri Annapoornaswari Rice Traders",
        "shop": "convenience"
      }
    },
    {
      "type": "node",
      "id": 11949236065,
      "lat": 13.0590635,
      "lon": 77.5928484,
      "tags": {
        "addr:floor": "G",
        "amenity": "restaurant",
        "check_date": "2024-06-01",
        "level": "0",
        "name": "Bhubaneswari Hotel",
        "name:en": "Bhubaneswari Hotel"
      }
    },
    {
      "type": "node",
      "id": 11949236364,
      "lat": 13.0595771,
      "lon": 77.5926555,
      "tags": {
        "addr:floor": "3",
        "amenity": "restaurant",
        "check_date": "2024-06-01",
        "level": "3",
        "name": "Hotel Lasara",
        "name:en": "Hotel Lasara"
      }
    },
    {
      "type": "node",
      "id": 11949236365,
      "lat": 13.0623256,
      "lon": 77.5921925,
      "tags": {
        "amenity": "kindergarten",
        "check_date": "2024-06-01",
        "description": "Canadian pre school",
        "name": "Maple Bear"
      }
    },
    {
      "type": "node",
      "id": 11949244176,
      "lat": 13.0598323,
      "lon": 77.5893021,
      "tags": {
        "amenity": "fixme",
        "check_date": "2024-06-01",
        "fixme": "type",
        "fixme:type": "office",
        "name": "KEC International limited"
      }
    },
    {
      "type": "node",
      "id": 11949255340,
      "lat": 13.0605948,
      "lon": 77.5873304,
      "tags": {
        "amenity": "clinic",
        "check_date": "2024-06-01",
        "healthcare": "clinic",
        "name": "Apollo Diagnostics"
      }
    },
    {
      "type": "node",
      "id": 11949298717,
      "lat": 13.0589986,
      "lon": 77.5914909,
      "tags": {
        "addr:floor": "G",
        "amenity": "restaurant",
        "check_date": "2024-06-01",
        "level": "0",
        "name": "Cubbonpete Donne Biriyani",
        "name:en": "Cubbonpete Donne Biriyani"
      }
    },
    {
      "type": "node",
      "id": 11949298722,
      "lat": 13.0632365,
      "lon": 77.5900752,
      "tags": {
        "addr:housenumber": "187",
        "amenity": "clinic",
        "name": "Aishwarya health care centre",
        "opening_hours": "Mo-Fr 08:30-10:30, 16:30-17:30",
        "phone": "+919448104831"
      }
    },
    {
      "type": "node",
      "id": 11949298723,
      "lat": 13.0593638,
      "lon": 77.5928984,
      "tags": {
        "addr:floor": "1",
        "amenity": "restaurant",
        "check_date": "2024-06-01",
        "diet:vegetarian": "yes",
        "level": "1",
        "name": "Hotel Jagannath",
        "name:en": "Hotel Jagannath"
      }
    },
    {
      "type": "node",
      "id": 11949298724,
      "lat": 13.0593628,
      "lon": 77.5927727,
      "tags": {
        "addr:floor": "G",
        "amenity": "restaurant",
        "check_date": "2024-06-01",
        "level": "0",
        "name": "Kadal Machili",
        "name:en": "Kadal Machili"
      }
    },
    {
      "type": "node",
      "id": 11949300648,
      "lat": 13.0608102,
      "lon": 77.5875391,
      "tags": {
        "check_date": "2024-06-01",
        "description": "Store timings 11 am - 9.30 pm",
        "name": "Titan Eye+",
        "operator": "Tata Enterprise",
        "shop": "optician"
      }
    },
    {
      "type": "node",
      "id": 11949301163,
      "lat": 13.058578,
      "lon": 77.5915142,
      "tags": {
        "amenity": "restaurant",
        "check_date": "2024-06-01",
        "name": "New Punjabi Pure Veg Restaurant"
      }
    },
    {
      "type": "node",
      "id": 11949302143,
      "lat": 13.0588947,
      "lon": 77.5929577,
      "tags": {
        "addr:floor": "G",
        "amenity": "restaurant",
        "check_date": "2024-06-01",
        "cuisine": "regional",
        "diet:vegetarian": "only",
        "level": "0",
        "name": "Udupi Veg",
        "name:en": "Udupi Veg"
      }
    },
    {
      "type": "node",
      "id": 11949302447,
      "lat": 13.0590348,
      "lon": 77.591951,
      "tags": {
        "addr:floor": "3",
        "check_date": "2024-06-01",
        "leisure": "fitness_centre",
        "level": "3",
        "name": "Playmore",
        "name:en": "Playmore"
      }
    },
    {
      "type": "node",
      "id": 11949303463,
      "lat": 13.0583301,
      "lon": 77.5916852,
      "tags": {
        "air_conditioning": "no",
        "check_date": "2024-06-01",
        "name": "Fast Tri Motors",
        "phone": "+91 99725 27009",
        "shop": "motorcycle_repair",
        "wheelchair": "yes"
      }
    },
    {
      "type": "node",
      "id": 11949307017,
      "lat": 13.0586887,
      "lon": 77.5910526,
      "tags": {
        "amenity": "dentist",
        "check_date": "2024-06-01",
        "healthcare": "dentist",
        "name": "Shalom Dental Clinic",
        "name:en": "Shalom Dental Clinic",
        "wheelchair": "no"
      }
    },
    {
      "type": "node",
      "id": 11949307018,
      "lat": 13.0588662,
      "lon": 77.592623,
      "tags": {
        "addr:floor": "G",
        "beauty": "unisex",
        "check_date": "2024-06-01",
        "level": "0",
        "name": "Cut & Looks",
        "name:en": "Cut & Looks",
        "shop": "beauty"
      }
    },
    {
      "type": "node",
      "id": 11949307443,
      "lat": 13.0629032,
      "lon": 77.5921632,
      "tags": {
        "amenity": "fixme",
        "check_date": "2024-06-01",
        "fixme": "type",
        "fixme:type": "juice",
        "name": "Nature Fresh Juice"
      }
    },
    {
      "type": "node",
      "id": 11949307490,
      "lat": 13.0589242,
      "lon": 77.5924612,
      "tags": {
        "amenity": "restaurant",
        "check_date": "2024-06-01",
        "cuisine": "regional",
        "name": "Hotel Raanga",
        "name:en": "Hotel Raanga"
      }
    },
    {
      "type": "node",
      "id": 11949307907,
      "lat": 13.0587704,
      "lon": 77.5914148,
      "tags": {
        "amenity": "restaurant",
        "check_date": "2024-06-01",
        "name": "Ambur Dum Biryani"
      }
    },
    {
      "type": "node",
      "id": 11949308565,
      "lat": 13.0601923,
      "lon": 77.5879248,
      "tags": {
        "check_date": "2024-06-01",
        "name": "Takshati Vastra Designing House",
        "shop": "clothes"
      }
    },
    {
      "type": "node",
      "id": 11949309178,
      "lat": 13.0602238,
      "lon": 77.5900692,
      "tags": {
        "check_date": "2024-06-01",
        "name": "Jana's Boutique",
        "shop": "clothes"
      }
    },
    {
      "type": "node",
      "id": 11949309179,
      "lat": 13.0603457,
      "lon": 77.5899013,
      "tags": {
        "amenity": "driving_school",
        "check_date": "2024-06-01",
        "mobile": "960676339",
        "name": "Brilliant Driving School"
      }
    },
    {
      "type": "node",
      "id": 11949309245,
      "lat": 13.0590516,
      "lon": 77.5927236,
      "tags": {
        "amenity": "restaurant",
        "check_date": "2024-06-01",
        "name": "Ajji Hotel",
        "name:en": "Ajji Hotel"
      }
    },
    {
      "type": "node",
      "id": 11949310104,
      "lat": 13.0590283,
      "lon": 77.5918333,
      "tags": {
        "beauty": "men",
        "check_date": "2024-06-01",
        "name": "Smart Look",
        "name:en": "Smart Look",
        "shop": "beauty"
      }
    },
    {
      "type": "node",
      "id": 11949313681,
      "lat": 13.0601804,
      "lon": 77.5902202,
      "tags": {
        "check_date": "2024-06-01",
        "name": "Pushpa Beauty Clinic",
        "shop": "beauty"
      }
    },
    {
      "type": "node",
      "id": 11949313683,
      "lat": 13.0631276,
      "lon": 77.5898717,
      "tags": {
        "amenity": "fixme",
        "check_date": "2024-06-01",
        "fixme": "type",
        "fixme:type": "house",
        "name": "Vishala Karnataka Government And Private Employees Housing Cooperative Society"
      }
    },
    {
      "type": "node",
      "id": 11949313690,
      "lat": 13.0590246,
      "lon": 77.5924979,
      "tags": {
        "addr:floor": "2",
        "beauty": "spa;haircut",
        "check_date": "2024-06-01",
        "level": "2",
        "name": "VK Spa",
        "name:en": "VK Spa",
        "shop": "beauty"
      }
    },
    {
      "type": "node",
      "id": 11949313691,
      "lat": 13.0612215,
      "lon": 77.5874562,
      "tags": {
        "amenity": "college",
        "check_date": "2024-06-01",
        "name": "Cauvery First Grade college"
      }
    },
    {
      "type": "node",
      "id": 11949313692,
      "lat": 13.0608558,
      "lon": 77.5875414,
      "tags": {
        "amenity": "pharmacy",
        "check_date": "2024-06-01",
        "healthcare": "pharmacy",
        "name": "Krishna Medical"
      }
    },
    {
      "type": "node",
      "id": 11949313695,
      "lat": 13.0601933,
      "lon": 77.5873812,
      "tags": {
        "amenity": "restaurant",
        "check_date": "2024-06-01",
        "cuisine": "indian",
        "diet:vegetarian": "yes",
        "name": "Udupi Aatithya"
      }
    },
    {
      "type": "node",
      "id": 11949314939,
      "lat": 13.0599723,
      "lon": 77.5892474,
      "tags": {
        "check_date": "2024-06-01",
        "name": "Laundry Masters",
        "shop": "laundry"
      }
    },
    {
      "type": "node",
      "id": 11949314940,
      "lat": 13.0633719,
      "lon": 77.5913796,
      "tags": {
        "amenity": "ice_cream",
        "brand": "Baskin-Robbins",
        "brand:wikidata": "Q584601",
        "check_date": "2024-06-01",
        "cuisine": "ice_cream",
        "name": "Baskin-Robbins"
      }
    },
    {
      "type": "node",
      "id": 11949314941,
      "lat": 13.0633605,
      "lon": 77.5914078,
      "tags": {
        "check_date": "2024-06-01",
        "name": "Raymond",
        "shop": "clothes"
      }
    },
    {
      "type": "node",
      "id": 11949314942,
      "lat": 13.0633812,
      "lon": 77.5914149,
      "tags": {
        "check_date": "2024-06-01",
        "name": "Luxury Salon",
        "shop": "beauty"
      }
    },
    {
      "type": "node",
      "id": 11949315156,
      "lat": 13.0589387,
      "lon": 77.5922508,
      "tags": {
        "addr:floor": "G",
        "check_date": "2024-06-01",
        "level": "0",
        "name": "Kaar Clinic",
        "name:en": "Kaar Clinic",
        "shop": "car_repair"
      }
    },
    {
      "type": "node",
      "id": 11949316302,
      "lat": 13.0595123,
      "lon": 77.5929942,
      "tags": {
        "addr:floor": "G",
        "amenity": "restaurant",
        "check_date": "2024-06-01",
        "level": "0",
        "name": "Hello Indore"
      }
    },
    {
      "type": "node",
      "id": 11949319859,
      "lat": 13.0610985,
      "lon": 77.5872132,
      "tags": {
        "amenity": "dentist",
        "check_date": "2024-06-01",
        "healthcare": "dentist",
        "name": "Impressions Dental"
      }
    },
    {
      "type": "node",
      "id": 11949321000,
      "lat": 13.0598425,
      "lon": 77.5893436,
      "tags": {
        "check_date": "2024-06-01",
        "name": "Smart Agro",
        "shop": "agrarian"
      }
    },
    {
      "type": "node",
      "id": 11949322577,
      "lat": 13.0590116,
      "lon": 77.5929348,
      "tags": {
        "addr:floor": "G",
        "amenity": "cafe",
        "check_date": "2024-06-01",
        "level": "0",
        "name": "Disha Hyderabad Irani Tea",
        "name:en": "Disha Hyderabad Irani Tea"
      }
    },
    {
      "type": "node",
      "id": 11949322855,
      "lat": 13.0589649,
      "lon": 77.590642,
      "tags": {
        "air_conditioning": "yes",
        "amenity": "clinic",
        "check_date": "2024-06-01",
        "healthcare": "clinic",
        "healthcare:speciality": "fertility",
        "name": "Archish Fertility & IVF",
        "name:en": "Archish Fertility & IVF",
        "operator:type": "private",
        "payment:cash": "yes",
        "payment:credit_cards": "yes",
        "payment:debit_cards": "yes",
        "wheelchair": "no"
      }
    },
    {
      "type": "node",
      "id": 11949323006,
      "lat": 13.0598417,
      "lon": 77.5893457,
      "tags": {
        "check_date": "2024-06-01",
        "name": "Smart Agro",
        "shop": "agrarian"
      }
    },
    {
      "type": "node",
      "id": 11949323644,
      "lat": 13.0599563,
      "lon": 77.5892681,
      "tags": {
        "check_date": "2024-06-01",
        "name": "Bharath men’s wear",
        "shop": "tailor"
      }
    },
    {
      "type": "node",
      "id": 11949324002,
      "lat": 13.0602212,
      "lon": 77.5888572,
      "tags": {
        "amenity": "pharmacy",
        "check_date": "2024-06-01",
        "healthcare": "pharmacy",
        "name": "Mahalaxmi Medical & General Store"
      }
    },
    {
      "type": "node",
      "id": 11949324003,
      "lat": 13.0630046,
      "lon": 77.5900529,
      "tags": {
        "addr:housenumber": "190",
        "addr:street": "10 cross",
        "amenity": "kindergarten",
        "contact:email": "bangalore. sahakarnagar@kangarookids.co.in",
        "name": "Kangaroo kids international preschool",
        "phone": "+919008297722"
      }
    },
    {
      "type": "node",
      "id": 11949324065,
      "lat": 13.0604354,
      "lon": 77.5898325,
      "tags": {
        "amenity": "driving_school",
        "name": "Brilliant driving school",
        "phone": "+91960676339"
      }
    },
    {
      "type": "node",
      "id": 11949324219,
      "lat": 13.0633952,
      "lon": 77.5914488,
      "tags": {
        "amenity": "pharmacy",
        "brand": "Apollo Pharmacy",
        "brand:wikidata": "Q62562612",
        "check_date": "2024-06-01",
        "healthcare": "pharmacy",
        "name": "Apollo Pharmacy"
      }
    },
    {
      "type": "node",
      "id": 11949327621,
      "lat": 13.0624568,
      "lon": 77.592227,
      "tags": {
        "amenity": "hospital",
        "check_date": "2024-06-01",
        "healthcare": "hospital",
        "name": "Manipal Hospital OPD",
        "phone": "18001025555"
      }
    },
    {
      "type": "node",
      "id": 11949328643,
      "lat": 13.0598763,
      "lon": 77.5937633,
      "tags": {
        "addr:floor": "G",
        "amenity": "pub",
        "check_date": "2024-06-01",
        "level": "0",
        "name": "DJ Bar And Family Restaurant Pub",
        "name:en": "DJ Bar And Family Restaurant Pub"
      }
    },
    {
      "type": "node",
      "id": 11949329811,
      "lat": 13.0586588,
      "lon": 77.591111,
      "tags": {
        "amenity": "doctors",
        "check_date": "2024-06-01",
        "healthcare": "doctor",
        "healthcare:speciality": "pathology",
        "name": "Metropolis The Pathology Specialist",
        "name:en": "Metropolis The Pathology Specialist",
        "phone": "+91 99160 35248",
        "wheelchair": "yes"
      }
    },
    {
      "type": "node",
      "id": 11949329869,
      "lat": 13.06,
      "lon": 77.589227,
      "tags": {
        "check_date": "2024-06-01",
        "name": "S.L.V Ladies Fashion Tailor",
        "shop": "tailor"
      }
    },
    {
      "type": "node",
      "id": 11949329870,
      "lat": 13.0633061,
      "lon": 77.5895364,
      "tags": {
        "addr:housenumber": "459/7",
        "addr:street": "11cross",
        "amenity": "pharmacy",
        "name": "Pradhan mantri bharatiya jan aushadh kendra",
        "phone": "+919741602399"
      }
    },
    {
      "type": "node",
      "id": 11949330259,
      "lat": 13.0593748,
      "lon": 77.5926249,
      "tags": {
        "addr:floor": "G",
        "amenity": "clinic",
        "check_date": "2024-06-01",
        "healthcare": "clinic",
        "level": "0",
        "name": "Mother And Heart Care",
        "name:en": "Mother And Heart Care"
      }
    },
    {
      "type": "node",
      "id": 11949330276,
      "lat": 13.0592637,
      "lon": 77.5925581,
      "tags": {
        "addr:floor": "G",
        "amenity": "courier",
        "brand": "Desk to Desk Courier & Cargo",
        "brand:short": "DTDC",
        "brand:wikidata": "Q55608802",
        "check_date": "2024-06-01",
        "level": "0",
        "name": "DTDC",
        "name:en": "DTDC",
        "operator": "Desk to Desk Courier & Cargo",
        "operator:short": "DTDC",
        "operator:wikidata": "Q55608802"
      }
    },
    {
      "type": "node",
      "id": 11949330286,
      "lat": 13.0593006,
      "lon": 77.5931791,
      "tags": {
        "addr:floor": "G",
        "amenity": "fast_food",
        "check_date": "2024-06-01",
        "cuisine": "juice",
        "level": "0",
        "name": "Go Naturals Fresh Cane Juice"
      }
    },
    {
      "type": "node",
      "id": 11949332175,
      "lat": 13.0590645,
      "lon": 77.5925304,
      "tags": {
        "addr:floor": "G",
        "amenity": "restaurant",
        "check_date": "2024-06-01",
        "level": "0",
        "name": "Pitambara Restaurant",
        "name:en": "Pitambara Restaurant"
      }
    },
    {
      "type": "node",
      "id": 11949332643,
      "lat": 13.0592214,
      "lon": 77.5903843,
      "tags": {
        "amenity": "atm",
        "brand": "Bank of Baroda",
        "brand:wikidata": "Q2003797",
        "name": "Bank of Baroda",
        "operator": "Bank of Baroda",
        "operator:wikidata": "Q2003797"
      }
    },
    {
      "type": "node",
      "id": 11949334734,
      "lat": 13.0606761,
      "lon": 77.5875176,
      "tags": {
        "check_date": "2024-06-01",
        "name": "Liberty",
        "shop": "shoes"
      }
    },
    {
      "type": "node",
      "id": 11949334859,
      "lat": 13.0598851,
      "lon": 77.5931516,
      "tags": {
        "addr:floor": "G",
        "check_date": "2024-06-01",
        "level": "0",
        "name": "Lakshmi Wines",
        "name:en": "Lakshmi Wines",
        "shop": "alcohol"
      }
    },
    {
      "type": "node",
      "id": 11949334931,
      "lat": 13.0606946,
      "lon": 77.58822,
      "tags": {
        "amenity": "fixme",
        "check_date": "2024-06-01",
        "fixme": "type",
        "fixme:type": "cooperative",
        "name": "Gnanashale",
        "name:kn": "ಜ್ಞಾನ ಶಾಲೆ"
      }
    },
    {
      "type": "node",
      "id": 11949335968,
      "lat": 13.0598624,
      "lon": 77.5926701,
      "tags": {
        "amenity": "conference_centre",
        "check_date": "2024-06-01",
        "name": "Nandhana Party Hall",
        "name:en": "Nandhana Party Hall"
      }
    },
    {
      "type": "node",
      "id": 11949336568,
      "lat": 13.0592673,
      "lon": 77.5924667,
      "tags": {
        "addr:floor": "G",
        "amenity": "restaurant",
        "check_date": "2024-06-01",
        "diet:non-vegetarian": "yes",
        "level": "0",
        "name": "Shaambhavi",
        "name:en": "Shaambhavi"
      }
    },
    {
      "type": "node",
      "id": 11949336786,
      "lat": 13.0610523,
      "lon": 77.5871633,
      "tags": {
        "amenity": "clinic",
        "check_date": "2024-06-01",
        "healthcare": "clinic",
        "name": "Glow up Skin, Hair & Laser clinic"
      }
    },
    {
      "type": "node",
      "id": 11949336927,
      "lat": 13.0596498,
      "lon": 77.5927922,
      "tags": {
        "addr:floor": "2",
        "amenity": "dentist",
        "check_date": "2024-06-01",
        "healthcare": "dentist",
        "healthcare:speciality": "dentist",
        "level": "2",
        "name": "Sanjeevini Dental",
        "name:en": "Sanjeevini Dental"
      }
    },
    {
      "type": "node",
      "id": 11949337145,
      "lat": 13.0604649,
      "lon": 77.5875761,
      "tags": {
        "amenity": "dentist",
        "check_date": "2024-06-01",
        "description": "Dental, skin , hair",
        "healthcare": "dentist",
        "name": "Partha dental"
      }
    },
    {
      "type": "node",
      "id": 11949339769,
      "lat": 13.0635448,
      "lon": 77.5895761,
      "tags": {
        "amenity": "clinic",
        "name": "Healing hands"
      }
    },
    {
      "type": "node",
      "id": 11949340380,
      "lat": 13.0595227,
      "lon": 77.5903099,
      "tags": {
        "amenity": "waste_basket"
      }
    },
    {
      "type": "node",
      "id": 11949340381,
      "lat": 13.0597416,
      "lon": 77.5904147,
      "tags": {
        "amenity": "waste_basket"
      }
    },
    {
      "type": "node",
      "id": 11949340384,
      "lat": 13.0595895,
      "lon": 77.5905552,
      "tags": {
        "amenity": "waste_basket"
      }
    },
    {
      "type": "node",
      "id": 11949340389,
      "lat": 13.0591991,
      "lon": 77.5910315,
      "tags": {
        "amenity": "waste_basket"
      }
    },
    {
      "type": "node",
      "id": 11949340391,
      "lat": 13.0589565,
      "lon": 77.5910272,
      "tags": {
        "amenity": "bench"
      }
    },
    {
      "type": "node",
      "id": 11949340392,
      "lat": 13.0588422,
      "lon": 77.5910231,
      "tags": {
        "amenity": "bench"
      }
    },
    {
      "type": "node",
      "id": 11949340393,
      "lat": 13.0587635,
      "lon": 77.5911334,
      "tags": {
        "amenity": "bench"
      }
    },
    {
      "type": "node",
      "id": 11949340394,
      "lat": 13.0588994,
      "lon": 77.5909346,
      "tags": {
        "amenity": "bench"
      }
    },
    {
      "type": "node",
      "id": 11949340395,
      "lat": 13.0590324,
      "lon": 77.5907392,
      "tags": {
        "amenity": "bench"
      }
    },
    {
      "type": "node",
      "id": 11949340396,
      "lat": 13.0592878,
      "lon": 77.5904071,
      "tags": {
        "amenity": "waste_basket"
      }
    },
    {
      "type": "node",
      "id": 11949340991,
      "lat": 13.0619804,
      "lon": 77.5918661,
      "tags": {
        "amenity": "fixme",
        "check_date": "2024-06-01",
        "fixme": "type",
        "fixme:type": "pg",
        "name": "Manjunatha Gents Pg"
      }
    },
    {
      "type": "node",
      "id": 11949343492,
      "lat": 13.0602852,
      "lon": 77.5873424,
      "tags": {
        "amenity": "bank",
        "atm": "yes",
        "brand": "State Bank of India",
        "brand:wikidata": "Q1340361",
        "check_date": "2024-06-01",
        "name": "State Bank of India",
        "short_name": "SBI"
      }
    },
    {
      "type": "node",
      "id": 11949343569,
      "lat": 13.0608362,
      "lon": 77.5875116,
      "tags": {
        "check_date": "2024-06-01",
        "leisure": "fitness_centre",
        "name": "mithun's fitness factory"
      }
    },
    {
      "type": "node",
      "id": 11949344300,
      "lat": 13.0594237,
      "lon": 77.5931288,
      "tags": {
        "addr:floor": "G",
        "check_date": "2024-06-01",
        "level": "0",
        "name": "Welcare",
        "name:en": "Welcare",
        "shop": "sports"
      }
    },
    {
      "type": "node",
      "id": 11949344369,
      "lat": 13.0600088,
      "lon": 77.5926696,
      "tags": {
        "amenity": "bar",
        "check_date": "2024-06-01",
        "name": "Omega IX"
      }
    },
    {
      "type": "node",
      "id": 11949344370,
      "lat": 13.0604183,
      "lon": 77.5873596,
      "tags": {
        "amenity": "clinic",
        "check_date": "2024-06-01",
        "healthcare": "clinic",
        "name": "Sukhibhava ayurvedic Clinic"
      }
    },
    {
      "type": "node",
      "id": 11949347826,
      "lat": 13.0593147,
      "lon": 77.5931056,
      "tags": {
        "addr:floor": "2",
        "amenity": "restaurant",
        "check_date": "2024-06-01",
        "level": "2",
        "name": "Kritunga Restaurant And Take Awa",
        "name:en": "Kritunga Restaurant And Take Away"
      }
    },
    {
      "type": "node",
      "id": 11949351187,
      "lat": 13.0604981,
      "lon": 77.5875519,
      "tags": {
        "amenity": "restaurant",
        "check_date": "2024-06-01",
        "cuisine": "chinese",
        "name": "Beijing Bites",
        "name:kn": "ಬೀಜಿಂಗ್ ಬೈಟ್ಸ್"
      }
    },
    {
      "type": "node",
      "id": 11949351188,
      "lat": 13.0604388,
      "lon": 77.587561,
      "tags": {
        "check_date": "2024-06-01",
        "name": "Titan",
        "shop": "watches"
      }
    },
    {
      "type": "node",
      "id": 11949351189,
      "lat": 13.0603622,
      "lon": 77.5875681,
      "tags": {
        "amenity": "fixme",
        "check_date": "2024-06-01",
        "fixme": "type",
        "fixme:type": "logistics",
        "name": "R.E. Rogers India Pvt. Ltd."
      }
    },
    {
      "type": "node",
      "id": 11949351190,
      "lat": 13.0602384,
      "lon": 77.5878403,
      "tags": {
        "amenity": "cafe",
        "check_date": "2024-10-25",
        "contact:instagram": "https://www.instagram.com/fika.sipsavor",
        "name": "fika sip savor",
        "opening_hours": "09:30-21:30"
      }
    },
    {
      "type": "node",
      "id": 11949351191,
      "lat": 13.0600394,
      "lon": 77.5876573,
      "tags": {
        "amenity": "cafe",
        "check_date": "2024-06-01",
        "name": "BubLee"
      }
    },
    {
      "type": "node",
      "id": 11949351192,
      "lat": 13.0600566,
      "lon": 77.5877205,
      "tags": {
        "check_date": "2024-06-01",
        "name": "BLONDE",
        "shop": "hairdresser"
      }
    },
    {
      "type": "node",
      "id": 11949351193,
      "lat": 13.0599925,
      "lon": 77.5876676,
      "tags": {
        "brand": "Lenskart",
        "brand:wikidata": "Q17068753",
        "check_date": "2024-06-01",
        "name": "Lenskart",
        "shop": "optician"
      }
    },
    {
      "type": "node",
      "id": 11977326690,
      "lat": 13.0707807,
      "lon": 77.5909786,
      "tags": {
        "addr:city": "Bengaluru",
        "addr:country": "IN",
        "addr:floor": "1",
        "addr:hamlet": "Byatarayanapura",
        "addr:place": "Phoenix Mall of Asia",
        "addr:postcode": "560092",
        "addr:suburb": "Yelahanka",
        "brand": "Superdry",
        "brand:wikidata": "Q1684445",
        "contact:facebook": "Superdry",
        "contact:instagram": "superdry",
        "contact:twitter": "superdry",
        "level": "2",
        "name": "Superdry",
        "shop": "clothes",
        "website": "https://www.superdry.com/"
      }
    },
    {
      "type": "node",
      "id": 12032606639,
      "lat": 13.0606314,
      "lon": 77.5927784,
      "tags": {
        "access": "private",
        "amenity": "parking_entrance",
        "parking": "underground"
      }
    },
    {
      "type": "node",
      "id": 12059052245,
      "lat": 13.0624439,
      "lon": 77.587205,
      "tags": {
        "amenity": "bank",
        "brand": "Bank of Baroda",
        "brand:wikidata": "Q2003797",
        "check_date": "2024-07-17",
        "name": "Bank of Baroda"
      }
    },
    {
      "type": "node",
      "id": 12059052246,
      "lat": 13.0624433,
      "lon": 77.5872737,
      "tags": {
        "check_date": "2024-07-17",
        "name": "Green Trends",
        "shop": "beauty"
      }
    },
    {
      "type": "node",
      "id": 12059052247,
      "lat": 13.0625632,
      "lon": 77.5871948,
      "tags": {
        "check_date": "2024-07-17",
        "name": "Affection Maternity, Kids And Toys",
        "shop": "clothes"
      }
    },
    {
      "type": "node",
      "id": 12059052248,
      "lat": 13.0625274,
      "lon": 77.5871872,
      "tags": {
        "brand": "Snack Shop",
        "check_date": "2024-07-17",
        "name": "Sunny Namkins",
        "shop": "convenience"
      }
    },
    {
      "type": "node",
      "id": 12059052249,
      "lat": 13.0628619,
      "lon": 77.5871538,
      "tags": {
        "amenity": "bank",
        "brand": "Indian Overseas Bank",
        "brand:wikidata": "Q2003611",
        "check_date": "2024-07-17",
        "name": "Indian Overseas Bank"
      }
    },
    {
      "type": "node",
      "id": 12117952601,
      "lat": 13.0620051,
      "lon": 77.5930638,
      "tags": {
        "addr:street": "Bellary Road",
        "amenity": "hospital",
        "name": "Motherhood Children's Hospital",
        "opening_hours": "24/7"
      }
    },
    {
      "type": "node",
      "id": 12174443786,
      "lat": 13.0636423,
      "lon": 77.5881608,
      "tags": {
        "name": "N S Digital",
        "shop": "photo_studio"
      }
    },
    {
      "type": "node",
      "id": 12208562951,
      "lat": 13.0605491,
      "lon": 77.5919187,
      "tags": {
        "amenity": "restaurant",
        "name": "Underdoggs",
        "website": "https://underdoggs.com/"
      }
    },
    {
      "type": "node",
      "id": 12294001134,
      "lat": 13.070718,
      "lon": 77.5899795,
      "tags": {
        "amenity": "fast_food",
        "contact:instagram": "goodflippin",
        "cuisine": "burger",
        "delivery": "yes",
        "name": "Good Flippin' Burgers",
        "takeaway": "yes",
        "website": "https://goodflippin.com/"
      }
    },
    {
      "type": "node",
      "id": 12461000336,
      "lat": 13.063603,
      "lon": 77.5912381,
      "tags": {
        "amenity": "restaurant",
        "contact:facebook": "pastastreet",
        "contact:instagram": "pasta.street",
        "cuisine": "pasta",
        "email": "info@pastastreet.co.in",
        "name": "Pasta Street",
        "phone": "+91 9266844026",
        "website": "https://pastastreet.co.in/"
      }
    },
    {
      "type": "node",
      "id": 12495410070,
      "lat": 13.0648728,
      "lon": 77.5841846,
      "tags": {
        "name": "PNS Silks",
        "shop": "clothes"
      }
    },
    {
      "type": "node",
      "id": 12495427370,
      "lat": 13.0578786,
      "lon": 77.5913447,
      "tags": {
        "name": "Gundu Hanuman temple",
        "shop": "religion"
      }
    },
    {
      "type": "node",
      "id": 12495429438,
      "lat": 13.0586162,
      "lon": 77.5915583,
      "tags": {
        "amenity": "restaurant",
        "name": "Annapurna Mess"
      }
    },
    {
      "type": "node",
      "id": 12526068618,
      "lat": 13.0667638,
      "lon": 77.5958116,
      "tags": {
        "addr:city": "Bengaluru",
        "addr:housenumber": "360",
        "addr:postcode": "560092",
        "addr:street": "Tala Cavery Layout, Amruthhalli Road, Bytarany",
        "amenity": "bank",
        "brand": "ICICI Bank",
        "brand:wikidata": "Q1653258",
        "name": "ICICI Bank",
        "short_name": "ICICI"
      }
    },
    {
      "type": "node",
      "id": 12651750822,
      "lat": 13.0688754,
      "lon": 77.5922614,
      "tags": {
        "access": "private",
        "amenity": "parking_entrance",
        "parking": "underground"
      }
    },
    {
      "type": "node",
      "id": 12651750840,
      "lat": 13.0693019,
      "lon": 77.5916545,
      "tags": {
        "access": "private",
        "amenity": "parking_entrance",
        "parking": "underground"
      }
    },
    {
      "type": "node",
      "id": 12651750846,
      "lat": 13.0679426,
      "lon": 77.5914641,
      "tags": {
        "access": "private",
        "amenity": "parking_entrance",
        "parking": "underground"
      }
    },
    {
      "type": "node",
      "id": 12959009302,
      "lat": 13.0676759,
      "lon": 77.5927458,
      "tags": {
        "addr:street": "Bellary Road",
        "amenity": "restaurant",
        "cuisine": "chinese;indian",
        "diet:vegetarian": "yes",
        "name:en": "Udupi Kitchen",
        "self_service": "only"
      }
    },
    {
      "type": "node",
      "id": 13084774559,
      "lat": 13.0600997,
      "lon": 77.5876527,
      "tags": {
        "name": "AA Hair Craft",
        "shop": "hairdresser",
        "unisex": "yes"
      }
    },
    {
      "type": "node",
      "id": 13084774560,
      "lat": 13.0598684,
      "lon": 77.5874247,
      "tags": {
        "brand": "Toni & Guy",
        "brand:wikidata": "Q324784",
        "name": "Toni & Guy",
        "shop": "hairdresser"
      }
    },
    {
      "type": "node",
      "id": 13084774561,
      "lat": 13.059645,
      "lon": 77.5877546,
      "tags": {
        "amenity": "cafe",
        "brand": "Cafe Coffee Day",
        "brand:wikidata": "Q5017235",
        "cuisine": "coffee_shop",
        "name": "Cafe Coffee Day",
        "takeaway": "yes"
      }
    },
    {
      "type": "node",
      "id": 13086372169,
      "lat": 13.0703979,
      "lon": 77.5912706,
      "tags": {
        "brand": "Apple Store",
        "brand:wikidata": "Q421253",
        "name": "Apple Store",
        "official_name": "Apple Hebbal",
        "shop": "electronics",
        "short_name": "Apple",
        "start_date": "2025-09-02"
      }
    },
    {
      "type": "node",
      "id": 13207117728,
      "lat": 13.0705273,
      "lon": 77.5914842,
      "tags": {
        "brand": "Massimo Dutti",
        "brand:wikidata": "Q788231",
        "name": "Massimo Dutti",
        "shop": "clothes"
      }
    },
    {
      "type": "node",
      "id": 13207117729,
      "lat": 13.0705952,
      "lon": 77.5915056,
      "tags": {
        "name": "Onitsuka Tiger",
        "shop": "clothes"
      }
    },
    {
      "type": "node",
      "id": 13288585226,
      "lat": 13.0586141,
      "lon": 77.5927775,
      "tags": {
        "amenity": "restaurant",
        "name": "Matsya"
      }
    },
    {
      "type": "node",
      "id": 13325952226,
      "lat": 13.0578613,
      "lon": 77.5918782,
      "tags": {
        "amenity": "pub",
        "full_name": "Yaakay Bar and Canteen",
        "name": "Yaakay"
      }
    },
    {
      "type": "way",
      "id": 191349832,
      "center": {
        "lat": 13.0593644,
        "lon": 77.5929013
      },
      "tags": {
        "building": "yes",
        "shop": "bakery"
      }
    },
    {
      "type": "way",
      "id": 249189366,
      "center": {
        "lat": 13.0592448,
        "lon": 77.590817
      },
      "tags": {
        "leisure": "park"
      }
    },
    {
      "type": "way",
      "id": 249189373,
      "center": {
        "lat": 13.0604055,
        "lon": 77.5892603
      },
      "tags": {
        "leisure": "park"
      }
    },
    {
      "type": "way",
      "id": 249189384,
      "center": {
        "lat": 13.0624801,
        "lon": 77.5862547
      },
      "tags": {
        "leisure": "park"
      }
    },
    {
      "type": "way",
      "id": 275613842,
      "center": {
        "lat": 13.0670066,
        "lon": 77.5938837
      },
      "tags": {
        "amenity": "school",
        "check_date": "2024-01-28",
        "name": "Vidyashilp School",
        "name:kn": "ವಿದ್ಯಾಶಿಲ್ಪ ಶಾಲೆ"
      }
    },
    {
      "type": "way",
      "id": 275613844,
      "center": {
        "lat": 13.0655211,
        "lon": 77.5928997
      },
      "tags": {
        "addr:city": "Bengaluru",
        "addr:district": "Bengaluru Urban",
        "addr:housenumber": "77",
        "addr:postcode": "560001",
        "addr:street": "Sabari Nagar, Park View Layout, Sahakar Nagar",
        "alt_name": "Byatarayanapura Shri KodandaRaama Swami Temple",
        "amenity": "place_of_worship",
        "building": "yes",
        "name": "Sri Kodandaramaswamy Temple",
        "name:kn": "ಶ್ರೀ ಕೋದಂಡರಾಮಸ್ವಾಮಿ ದೇವಸ್ಥಾನ",
        "religion": "hindu"
      }
    },
    {
      "type": "way",
      "id": 346195951,
      "center": {
        "lat": 13.065084,
        "lon": 77.5936343
      },
      "tags": {
        "addr:district": "Bengaluru Urban",
        "addr:full": "Byatarayanapura, Bengaluru",
        "addr:postcode": "560092",
        "addr:state": "Karnataka",
        "amenity": "hospital",
        "building": "hospital",
        "healthcare": "hospital",
        "name": "Prolife Hospital",
        "source": "Local Knowledge"
      }
    },
    {
      "type": "way",
      "id": 346211252,
      "center": {
        "lat": 13.0644624,
        "lon": 77.5975538
      },
      "tags": {
        "building": "yes",
        "opening_hours": "Mo-Su 07:00-22:00",
        "payment:cash": "yes",
        "shop": "greengrocer"
      }
    },
    {
      "type": "way",
      "id": 346249376,
      "center": {
        "lat": 13.0633022,
        "lon": 77.5917655
      },
      "tags": {
        "amenity": "bank",
        "brand": "HDFC Bank",
        "brand:wikidata": "Q631047",
        "building": "yes",
        "name": "HDFC Bank",
        "short_name": "HDFC"
      }
    },
    {
      "type": "way",
      "id": 346249486,
      "center": {
        "lat": 13.058025,
        "lon": 77.5902265
      },
      "tags": {
        "addr:city": "Bengaluru",
        "addr:housenumber": "2286",
        "addr:street": "Kodigehalli Main Road, Sanjivini Nagar",
        "amenity": "place_of_worship",
        "building": "yes",
        "name": "Sri Gundanjaneya Swamy Temple",
        "religion": "hindu"
      }
    },
    {
      "type": "way",
      "id": 346422195,
      "center": {
        "lat": 13.0686816,
        "lon": 77.5878466
      },
      "tags": {
        "amenity": "place_of_worship",
        "building": "yes",
        "name": "Swamy Ayappa Temple",
        "religion": "hindu"
      }
    },
    {
      "type": "way",
      "id": 419801990,
      "center": {
        "lat": 13.0610163,
        "lon": 77.588327
      },
      "tags": {
        "leisure": "pitch",
        "name": "Tennis Court",
        "name:kn": "ಟೆನ್ನಿಸ್ ಅಂಗಣ",
        "sport": "tennis",
        "surface": "unpaved"
      }
    },
    {
      "type": "way",
      "id": 419802283,
      "center": {
        "lat": 13.0607766,
        "lon": 77.5886385
      },
      "tags": {
        "hoops": "2",
        "leisure": "pitch",
        "name": "Basketball Court",
        "name:kn": "ಬಾಸ್ಕೆಟ್ ಬಾಲ್ ಅಂಕಣ",
        "sport": "basketball",
        "surface": "paved"
      }
    },
    {
      "type": "way",
      "id": 594570783,
      "center": {
        "lat": 13.0640638,
        "lon": 77.5841822
      },
      "tags": {
        "leisure": "park"
      }
    },
    {
      "type": "way",
      "id": 594570786,
      "center": {
        "lat": 13.0646954,
        "lon": 77.5833047
      },
      "tags": {
        "leisure": "park"
      }
    },
    {
      "type": "way",
      "id": 594572531,
      "center": {
        "lat": 13.0581897,
        "lon": 77.5912075
      },
      "tags": {
        "leisure": "park",
        "name": "Temple park"
      }
    },
    {
      "type": "way",
      "id": 635487458,
      "center": {
        "lat": 13.0672404,
        "lon": 77.5863503
      },
      "tags": {
        "amenity": "community_centre",
        "name": "Radha Krishna Kalyana Mantapa"
      }
    },
    {
      "type": "way",
      "id": 635509936,
      "center": {
        "lat": 13.0708864,
        "lon": 77.5904608
      },
      "tags": {
        "contact:instagram": "phoenixmoa",
        "landuse": "retail",
        "name": "Phoenix Mall of Asia",
        "opening_hours": "10:00-01:00",
        "operator": "The Phoenix Mills",
        "shop": "mall"
      }
    },
    {
      "type": "way",
      "id": 732232651,
      "center": {
        "lat": 13.0578784,
        "lon": 77.592544
      },
      "tags": {
        "access": "customers",
        "amenity": "parking",
        "parking": "surface"
      }
    },
    {
      "type": "way",
      "id": 781846361,
      "center": {
        "lat": 13.0635393,
        "lon": 77.584907
      },
      "tags": {
        "amenity": "place_of_worship",
        "name": "Ganesha Temple",
        "name:kn": "ಗಣೇಶ ದೇವಸ್ಥಾನ",
        "religion": "hindu"
      }
    },
    {
      "type": "way",
      "id": 963698077,
      "center": {
        "lat": 13.0682545,
        "lon": 77.5890277
      },
      "tags": {
        "leisure": "park"
      }
    },
    {
      "type": "way",
      "id": 963698078,
      "center": {
        "lat": 13.0683184,
        "lon": 77.5903207
      },
      "tags": {
        "access": "private",
        "leisure": "pitch",
        "sport": "tennis"
      }
    },
    {
      "type": "way",
      "id": 1040899010,
      "center": {
        "lat": 13.0598721,
        "lon": 77.5917561
      },
      "tags": {
        "access": "private",
        "leisure": "swimming_pool"
      }
    },
    {
      "type": "way",
      "id": 1040899015,
      "center": {
        "lat": 13.0655778,
        "lon": 77.5937383
      },
      "tags": {
        "amenity": "hospital",
        "name": "Rainbow Children's Hospital"
      }
    },
    {
      "type": "way",
      "id": 1068394022,
      "center": {
        "lat": 13.071778,
        "lon": 77.5932014
      },
      "tags": {
        "amenity": "fuel",
        "brand": "Shell",
        "brand:wikidata": "Q110716465",
        "name": "Shell",
        "name:kn": "ಶೆಲ್"
      }
    },
    {
      "type": "way",
      "id": 1112530385,
      "center": {
        "lat": 13.0731527,
        "lon": 77.596779
      },
      "tags": {
        "amenity": "college",
        "name": "Gyan Jyothi, State Bank of India"
      }
    },
    {
      "type": "way",
      "id": 1153855770,
      "center": {
        "lat": 13.0724432,
        "lon": 77.5954251
      },
      "tags": {
        "amenity": "events_venue",
        "landuse": "commercial",
        "name": "Amara Convention Center"
      }
    },
    {
      "type": "way",
      "id": 1188310709,
      "center": {
        "lat": 13.0689322,
        "lon": 77.5897592
      },
      "tags": {
        "access": "private",
        "leisure": "swimming_pool"
      }
    },
    {
      "type": "way",
      "id": 1188310710,
      "center": {
        "lat": 13.0681377,
        "lon": 77.5906298
      },
      "tags": {
        "leisure": "park"
      }
    },
    {
      "type": "way",
      "id": 1188310711,
      "center": {
        "lat": 13.0685099,
        "lon": 77.5907567
      },
      "tags": {
        "leisure": "park"
      }
    },
    {
      "type": "way",
      "id": 1188310712,
      "center": {
        "lat": 13.0695478,
        "lon": 77.5910359
      },
      "tags": {
        "leisure": "park"
      }
    },
    {
      "type": "way",
      "id": 1199532065,
      "center": {
        "lat": 13.0597757,
        "lon": 77.5900955
      },
      "tags": {
        "leisure": "park"
      }
    },
    {
      "type": "way",
      "id": 1199532066,
      "center": {
        "lat": 13.0599445,
        "lon": 77.5897788
      },
      "tags": {
        "leisure": "playground",
        "name": "Skating Rink"
      }
    },
    {
      "type": "way",
      "id": 1217466598,
      "center": {
        "lat": 13.0657224,
        "lon": 77.5997239
      },
      "tags": {
        "amenity": "school",
        "name": "Amrutha English School"
      }
    },
    {
      "type": "way",
      "id": 1220056673,
      "center": {
        "lat": 13.0618784,
        "lon": 77.5950098
      },
      "tags": {
        "leisure": "park"
      }
    },
    {
      "type": "way",
      "id": 1220056676,
      "center": {
        "lat": 13.0625281,
        "lon": 77.5957896
      },
      "tags": {
        "leisure": "playground"
      }
    },
    {
      "type": "way",
      "id": 1220056677,
      "center": {
        "lat": 13.0625178,
        "lon": 77.595957
      },
      "tags": {
        "leisure": "pitch",
        "sport": "basketball"
      }
    },
    {
      "type": "way",
      "id": 1220056678,
      "center": {
        "lat": 13.0620176,
        "lon": 77.5949474
      },
      "tags": {
        "leisure": "pitch",
        "sport": "soccer"
      }
    },
    {
      "type": "way",
      "id": 1242739282,
      "center": {
        "lat": 13.0689629,
        "lon": 77.5992193
      },
      "tags": {
        "leisure": "swimming_pool"
      }
    },
    {
      "type": "way",
      "id": 1242739284,
      "center": {
        "lat": 13.0693818,
        "lon": 77.6000667
      },
      "tags": {
        "leisure": "swimming_pool"
      }
    },
    {
      "type": "way",
      "id": 1242739285,
      "center": {
        "lat": 13.0695255,
        "lon": 77.6004818
      },
      "tags": {
        "leisure": "swimming_pool"
      }
    },
    {
      "type": "way",
      "id": 1242739286,
      "center": {
        "lat": 13.0693016,
        "lon": 77.6005905
      },
      "tags": {
        "leisure": "swimming_pool"
      }
    },
    {
      "type": "way",
      "id": 1244997551,
      "center": {
        "lat": 13.0604899,
        "lon": 77.59468
      },
      "tags": {
        "access": "permissive",
        "amenity": "parking",
        "parking": "surface"
      }
    },
    {
      "type": "way",
      "id": 1278156574,
      "center": {
        "lat": 13.0582609,
        "lon": 77.5894624
      },
      "tags": {
        "leisure": "park"
      }
    },
    {
      "type": "way",
      "id": 1279046877,
      "center": {
        "lat": 13.0581868,
        "lon": 77.593874
      },
      "tags": {
        "amenity": "fuel",
        "brand": "Indian Oil",
        "brand:wikidata": "Q1289348",
        "compressed_air": "yes",
        "fuel:diesel": "yes",
        "name": "Indian Oil",
        "name:kn": "ಇಂಡಿಯನ್ ಆಯಿಲ್",
        "operator": "Indian Oil"
      }
    },
    {
      "type": "way",
      "id": 1279046878,
      "center": {
        "lat": 13.0584725,
        "lon": 77.5951688
      },
      "tags": {
        "leisure": "pitch",
        "sport": "tennis"
      }
    },
    {
      "type": "way",
      "id": 1284192704,
      "center": {
        "lat": 13.0711099,
        "lon": 77.5889756
      },
      "tags": {
        "access": "customers",
        "amenity": "parking",
        "fee": "yes",
        "parking": "surface"
      }
    },
    {
      "type": "way",
      "id": 1284192705,
      "center": {
        "lat": 13.0711891,
        "lon": 77.5886963
      },
      "tags": {
        "access": "customers",
        "amenity": "parking",
        "fee": "yes",
        "parking": "surface"
      }
    },
    {
      "type": "way",
      "id": 1287065121,
      "center": {
        "lat": 13.0645062,
        "lon": 77.5873482
      },
      "tags": {
        "access": "private",
        "leisure": "swimming_pool"
      }
    },
    {
      "type": "way",
      "id": 1287281063,
      "center": {
        "lat": 13.0667928,
        "lon": 77.5865936
      },
      "tags": {
        "access": "permissive",
        "amenity": "parking",
        "parking": "surface"
      }
    },
    {
      "type": "way",
      "id": 1287281064,
      "center": {
        "lat": 13.0668092,
        "lon": 77.58601
      },
      "tags": {
        "access": "permissive",
        "amenity": "parking",
        "parking": "surface"
      }
    },
    {
      "type": "way",
      "id": 1287281065,
      "center": {
        "lat": 13.0667962,
        "lon": 77.5863678
      },
      "tags": {
        "access": "private",
        "leisure": "swimming_pool"
      }
    },
    {
      "type": "way",
      "id": 1287281066,
      "center": {
        "lat": 13.0659678,
        "lon": 77.5859905
      },
      "tags": {
        "access": "permissive",
        "amenity": "parking",
        "parking": "surface"
      }
    },
    {
      "type": "way",
      "id": 1287281136,
      "center": {
        "lat": 13.0634878,
        "lon": 77.5918453
      },
      "tags": {
        "addr:city": "Sahakar Nagar",
        "addr:district": "Bengaluru Urban",
        "addr:housenumber": "52",
        "addr:postcode": "560001",
        "addr:street": "G block",
        "amenity": "restaurant",
        "building": "yes",
        "cuisine": "ice_cream;froyo;frozen_yogurt;dessert;sorbet",
        "diet:dairy_free": "yes",
        "diet:vegan": "yes",
        "diet:vegetarian": "yes",
        "name": "Myfroyoland Premium Frozen Yogurt",
        "opening_hours": "10:00-00:00",
        "phone": "+917259465191",
        "website": "https://myfroyoland.com/"
      }
    },
    {
      "type": "way",
      "id": 1287284182,
      "center": {
        "lat": 13.0611397,
        "lon": 77.5875753
      },
      "tags": {
        "amenity": "school",
        "name": "Cauvery School",
        "name:kn": "ಕಾವೇರಿ ಶಾಲೆ"
      }
    },
    {
      "type": "way",
      "id": 1288366074,
      "center": {
        "lat": 13.0628757,
        "lon": 77.5855212
      },
      "tags": {
        "leisure": "playground"
      }
    },
    {
      "type": "way",
      "id": 1288366075,
      "center": {
        "lat": 13.0603942,
        "lon": 77.5890763
      },
      "tags": {
        "leisure": "playground"
      }
    },
    {
      "type": "way",
      "id": 1288366076,
      "center": {
        "lat": 13.059684,
        "lon": 77.5900879
      },
      "tags": {
        "leisure": "playground"
      }
    },
    {
      "type": "way",
      "id": 1288366077,
      "center": {
        "lat": 13.0592642,
        "lon": 77.5905785
      },
      "tags": {
        "access": "yes",
        "leisure": "fitness_station"
      }
    },
    {
      "type": "way",
      "id": 1366161307,
      "center": {
        "lat": 13.0701262,
        "lon": 77.5888188
      },
      "tags": {
        "leisure": "park"
      }
    },
    {
      "type": "way",
      "id": 1366161308,
      "center": {
        "lat": 13.0693261,
        "lon": 77.5886203
      },
      "tags": {
        "leisure": "park"
      }
    },
    {
      "type": "way",
      "id": 1366161309,
      "center": {
        "lat": 13.0692953,
        "lon": 77.5897693
      },
      "tags": {
        "leisure": "park"
      }
    },
    {
      "type": "way",
      "id": 1366161314,
      "center": {
        "lat": 13.0679818,
        "lon": 77.5903644
      },
      "tags": {
        "amenity": "theatre",
        "leisure": "garden",
        "name": "Raintree Boulevard Amphitheatre",
        "theatre:type": "amphi"
      }
    },
    {
      "type": "way",
      "id": 1366161318,
      "center": {
        "lat": 13.0688789,
        "lon": 77.5923854
      },
      "tags": {
        "access": "private",
        "leisure": "garden"
      }
    },
    {
      "type": "way",
      "id": 1419422308,
      "center": {
        "lat": 13.073076,
        "lon": 77.5993277
      },
      "tags": {
        "leisure": "park"
      }
    }
  ]
}