{
  "area_name": "Byrasandra",
  "osm_id": 12150911631,
  "osm_type": "node",
  "place_type": "neighbourhood",
  "amenity_count": 157,
  "amenities": [
    {
      "type": "node",
      "id": 414032162,
      "lat": 12.9812136,
      "lon": 77.6570884,
      "tags": {
        "amenity": "fuel",
        "brand": "Hindustan Petroleum",
        "brand:wikidata": "Q1619375",
        "name": "HP Auto Care",
        "official_name": "Hindustan Petroleum"
      }
    },
    {
      "type": "node",
      "id": 985256296,
      "lat": 12.9858685,
      "lon": 77.6687185,
      "tags": {
        "addr:street": "Kaggadasspura Main Road",
        "amenity": "fast_food",
        "brand": "Domino's",
        "brand:ks": "ڈومینوز",
        "brand:pa": "ਡੋਮੀਨੋਜ਼",
        "brand:ur": "ڈومینوز",
        "brand:wikidata": "Q839466",
        "brand:wikipedia": "en:Domino's Pizza",
        "cuisine": "pizza",
        "name": "Domino's",
        "name:kn": "ಡಾಮಿನೋಸ್",
        "name:ks": "ڈومینوز",
        "name:pa": "ਡੋਮੀਨੋਜ਼",
        "name:ur": "ڈومینوز",
        "operator": "Dominos",
        "takeaway": "yes"
      }
    },
    {
      "type": "node",
      "id": 985256304,
      "lat": 12.9858451,
      "lon": 77.6686567,
      "tags": {
        "addr:street": "Kaggadasspura Main Road",
        "amenity": "cafe",
        "brand": "Cafe Coffee Day",
        "brand:wikidata": "Q5017235",
        "cuisine": "coffee_shop",
        "name": "Cafe Coffee Day",
        "name:kn": "ಕಫೆ ಕಾಫಿ ಡೇ",
        "takeaway": "yes"
      }
    },
    {
      "type": "node",
      "id": 1076567658,
      "lat": 12.9851864,
      "lon": 77.6736268,
      "tags": {
        "addr:street": "Kaggadasspura Main Road",
        "name": "New City Super Market",
        "shop": "supermarket"
      }
    },
    {
      "type": "node",
      "id": 1076571318,
      "lat": 12.9851522,
      "lon": 77.6737584,
      "tags": {
        "addr:street": "Kaggadasspura Main Road",
        "amenity": "pharmacy",
        "name": "Trust"
      }
    },
    {
      "type": "node",
      "id": 1078161780,
      "lat": 12.9855001,
      "lon": 77.6732164,
      "tags": {
        "addr:street": "Kaggadasspura Main Road",
        "amenity": "restaurant",
        "name": "Reddys",
        "name:kn": "ರೆಡ್ಡಿಸ್"
      }
    },
    {
      "type": "node",
      "id": 1078161782,
      "lat": 12.9856566,
      "lon": 77.6730826,
      "tags": {
        "addr:street": "Kaggadasspura Main Road",
        "name": "Smart Cars",
        "shop": "car_repair"
      }
    },
    {
      "type": "node",
      "id": 1078209943,
      "lat": 12.985926,
      "lon": 77.6688553,
      "tags": {
        "addr:street": "Kaggadasspura Main Road",
        "brand": "Reliance Fresh",
        "brand:wikidata": "Q7311014",
        "name": "Reliance Fresh",
        "name:kn": "ರಿಲಾಯನ್ಸ್ ಫ್ರೆಶ್",
        "shop": "supermarket"
      }
    },
    {
      "type": "node",
      "id": 1078209945,
      "lat": 12.9852309,
      "lon": 77.6636329,
      "tags": {
        "amenity": "bank",
        "atm": "yes",
        "brand": "State Bank of India",
        "brand:wikidata": "Q1340361",
        "brand:wikipedia": "en:State Bank of India",
        "name": "State Bank of India",
        "name:kn": "ಎಸ್ ಬಿ ಐ",
        "short_name": "SBI"
      }
    },
    {
      "type": "node",
      "id": 1078209946,
      "lat": 12.9859601,
      "lon": 77.6689329,
      "tags": {
        "addr:street": "Kaggadasspura Main Road",
        "brand": "Nilgiri's",
        "brand:wikidata": "Q17079567",
        "name": "Nilgiri's",
        "name:kn": "ನೀಲ್ಗಿರೀಸ್",
        "shop": "supermarket"
      }
    },
    {
      "type": "node",
      "id": 1078235338,
      "lat": 12.9851708,
      "lon": 77.6716822,
      "tags": {
        "addr:street": "Kaggadasspura Main Road",
        "name": "Cosmos",
        "shop": "convenience"
      }
    },
    {
      "type": "node",
      "id": 1569153265,
      "lat": 12.9795192,
      "lon": 77.6578339,
      "tags": {
        "amenity": "atm",
        "brand": "Citibank",
        "brand:wikidata": "Q857063",
        "name": "Citibank",
        "operator": "Citibank",
        "operator:wikidata": "Q857063",
        "short_name": "Citi"
      }
    },
    {
      "type": "node",
      "id": 3451663033,
      "lat": 12.9897481,
      "lon": 77.6639572,
      "tags": {
        "amenity": "place_of_worship",
        "name": "Hanuman Temple",
        "name:kn": "ಹನುಮಂತ ದೇವಸ್ಥಾನ",
        "religion": "hindu"
      }
    },
    {
      "type": "node",
      "id": 3451665997,
      "lat": 12.9895641,
      "lon": 77.6636078,
      "tags": {
        "amenity": "clinic",
        "name": "Supriya Diagnostic Center"
      }
    },
    {
      "type": "node",
      "id": 3451667183,
      "lat": 12.9895434,
      "lon": 77.6638556,
      "tags": {
        "name": "Modern Men's Saloon",
        "shop": "hairdresser"
      }
    },
    {
      "type": "node",
      "id": 3451678553,
      "lat": 12.990095,
      "lon": 77.6636365,
      "tags": {
        "amenity": "place_of_worship",
        "religion": "hindu"
      }
    },
    {
      "type": "node",
      "id": 3451678556,
      "lat": 12.9906151,
      "lon": 77.6637049,
      "tags": {
        "amenity": "place_of_worship",
        "religion": "hindu"
      }
    },
    {
      "type": "node",
      "id": 3451678926,
      "lat": 12.9892805,
      "lon": 77.6653699,
      "tags": {
        "amenity": "place_of_worship",
        "name": "Yellamma Temple",
        "name:kn": "ಯಲ್ಲಮ್ಮ ದೇವಸ್ಥಾನ",
        "religion": "hindu"
      }
    },
    {
      "type": "node",
      "id": 3451682131,
      "lat": 12.9905092,
      "lon": 77.6626052,
      "tags": {
        "amenity": "place_of_worship",
        "name": "Ganesha Temple",
        "name:kn": "ಗಣೇಶ ದೇವಸ್ಥಾನ",
        "religion": "hindu"
      }
    },
    {
      "type": "node",
      "id": 3714504725,
      "lat": 12.9823036,
      "lon": 77.6661836,
      "tags": {
        "addr:city": "Bangalore",
        "addr:postcode": "560093",
        "amenity": "place_of_worship",
        "name": "Anjaneya Swami Temple",
        "name:kn": "ಆಂಜನೇಯ ಸ್ವಾಮಿ ದೇವಸ್ಥಾನ",
        "religion": "hindu"
      }
    },
    {
      "type": "node",
      "id": 3722411925,
      "lat": 12.9749216,
      "lon": 77.6703057,
      "tags": {
        "amenity": "atm",
        "brand": "Axis Bank",
        "brand:wikidata": "Q2003549",
        "cash_in": "no",
        "currency": "INR",
        "drive_through": "no",
        "language:en": "yes",
        "language:hn": "yes",
        "name": "Axis Bank",
        "name:kn": "ಆಕ್ಸಿಸ್ ಬ್ಯಾಂಕ್",
        "operator": "Axis Bank",
        "operator:wikidata": "Q2003549",
        "speech_output:lg": "yes",
        "wheelchair": "no"
      }
    },
    {
      "type": "node",
      "id": 3722417685,
      "lat": 12.9756859,
      "lon": 77.6671061,
      "tags": {
        "addr:city": "Bangalore",
        "addr:postcode": "560075",
        "addr:street": "GM Palya Main Road",
        "name": "Kaveri Departmental Store",
        "opening_hours": "08:00-22:00",
        "operator": "Private",
        "shop": "supermarket"
      }
    },
    {
      "type": "node",
      "id": 4141966889,
      "lat": 12.9871041,
      "lon": 77.6620214,
      "tags": {
        "addr:district": "Bengaluru Urban",
        "addr:full": "CGHS Dispensary No.10, DRDO Complex DRDOComplex, C.V.Raman Nagar",
        "addr:postcode": "560093",
        "addr:state": "Karnataka",
        "addr:street": "Dr. APJ Abdul Kalam Road",
        "amenity": "clinic",
        "health_facility:type": "dispensary",
        "healthcare": "centre",
        "name": "CGHS Dispensary No.10",
        "operator:type": "government",
        "source": "OpenGovernmentData",
        "website": "http://nb.bsf.gov.in/CGHS%20DIspenseries.pdf"
      }
    },
    {
      "type": "node",
      "id": 4167644194,
      "lat": 12.9898501,
      "lon": 77.6645457,
      "tags": {
        "name": "Tender Chicken",
        "shop": "butcher"
      }
    },
    {
      "type": "node",
      "id": 4167717190,
      "lat": 12.9894846,
      "lon": 77.6639748,
      "tags": {
        "amenity": "pharmacy",
        "name": "Trust medical store"
      }
    },
    {
      "type": "node",
      "id": 4167718789,
      "lat": 12.9812284,
      "lon": 77.6572925,
      "tags": {
        "amenity": "atm",
        "brand": "Axis Bank",
        "brand:wikidata": "Q2003549",
        "opening_hours": "24/7",
        "operator": "Axis Bank",
        "operator:wikidata": "Q2003549"
      }
    },
    {
      "type": "node",
      "id": 4171465001,
      "lat": 12.9862101,
      "lon": 77.6623936,
      "tags": {
        "amenity": "clinic",
        "name": "Homeopathic Self Reliance Forum"
      }
    },
    {
      "type": "node",
      "id": 4171468392,
      "lat": 12.9814182,
      "lon": 77.6659562,
      "tags": {
        "amenity": "school",
        "name": "Government Primary School",
        "name:kn": "ಸರ್ಕಾರಿ ಪ್ರಾಥಮಿಕ ಶಾಲೆ"
      }
    },
    {
      "type": "node",
      "id": 4235494001,
      "lat": 12.9852284,
      "lon": 77.6740857,
      "tags": {
        "amenity": "clinic",
        "name": "Garden City Polyclinic"
      }
    },
    {
      "type": "node",
      "id": 4235519191,
      "lat": 12.9850377,
      "lon": 77.6741395,
      "tags": {
        "addr:street": "Kaggadasspura Main Road",
        "name": "Little Boss",
        "shop": "toys"
      }
    },
    {
      "type": "node",
      "id": 4235525003,
      "lat": 12.9857434,
      "lon": 77.6717154,
      "tags": {
        "addr:street": "Kaggadasspura Main Road",
        "amenity": "pharmacy",
        "name": "Care Medicals"
      }
    },
    {
      "type": "node",
      "id": 4391425090,
      "lat": 12.9849585,
      "lon": 77.6744639,
      "tags": {
        "amenity": "kindergarten",
        "name": "Bachpan",
        "name:en": "Bachpan"
      }
    },
    {
      "type": "node",
      "id": 4448093648,
      "lat": 12.9857338,
      "lon": 77.6684774,
      "tags": {
        "addr:city": "Bengaluru",
        "addr:housenumber": "18",
        "addr:postcode": "560092",
        "addr:street": "Kaggadasapura Main Road, Varsova Layout, Kaggadasapura",
        "amenity": "pharmacy",
        "name": "Kottakil Arya Vaidya Sala",
        "phone": "080 4170 8703",
        "source": "http://bestofhealthindia.com/",
        "website": "https://aryavaidyasala.com/"
      }
    },
    {
      "type": "node",
      "id": 4470988804,
      "lat": 12.988962,
      "lon": 77.6638451,
      "tags": {
        "amenity": "pharmacy",
        "brand": "MedPlus",
        "brand:wikidata": "Q65684234",
        "healthcare": "pharmacy",
        "name": "MedPlus",
        "name:en": "MedPlus",
        "name:kn": "ಮೆಡ್‍ಪ್ಲಸ್"
      }
    },
    {
      "type": "node",
      "id": 4471006190,
      "lat": 12.9903868,
      "lon": 77.6626633,
      "tags": {
        "name": "Feminity Beauty Salon",
        "name:en": "Feminity Beauty Salon",
        "shop": "cosmetics"
      }
    },
    {
      "type": "node",
      "id": 4563708889,
      "lat": 12.9849883,
      "lon": 77.6743396,
      "tags": {
        "name": "Plaza cleaners",
        "name:en": "Plaza cleaners",
        "shop": "dry_cleaning"
      }
    },
    {
      "type": "node",
      "id": 4594331190,
      "lat": 12.9851858,
      "lon": 77.673685,
      "tags": {
        "name": "City style",
        "name:en": "City style",
        "shop": "clothes"
      }
    },
    {
      "type": "node",
      "id": 4594342490,
      "lat": 12.9851301,
      "lon": 77.6740156,
      "tags": {
        "amenity": "fast_food",
        "name": "Softy station",
        "name:en": "Softy station"
      }
    },
    {
      "type": "node",
      "id": 4594342491,
      "lat": 12.9851387,
      "lon": 77.6739584,
      "tags": {
        "name": "Green Line",
        "name:en": "Green Line",
        "shop": "travel_agency"
      }
    },
    {
      "type": "node",
      "id": 4594342492,
      "lat": 12.985224,
      "lon": 77.6738357,
      "tags": {
        "name": "Bhavani hardware",
        "name:en": "Bhavani hardware",
        "shop": "hardware"
      }
    },
    {
      "type": "node",
      "id": 4594344989,
      "lat": 12.9851657,
      "lon": 77.6736086,
      "tags": {
        "addr:district": "Bengaluru Urban",
        "addr:full": "Varsova Layout, Kaggadasapura, Bengaluru",
        "addr:postcode": "560093",
        "addr:state": "Karnataka",
        "amenity": "dentist",
        "name": "Tooth Affair Dental Clinic",
        "name:en": "Tooth Affair Dental Clinic",
        "source": "Local Knowledge"
      }
    },
    {
      "type": "node",
      "id": 4594366490,
      "lat": 12.9852988,
      "lon": 77.6737302,
      "tags": {
        "amenity": "place_of_worship",
        "name": "Vinayaka Temple",
        "name:en": "Vinayaka temple",
        "name:kn": "ವಿನಾಯಕ ದೇವಸ್ಥಾನ",
        "religion": "hindu"
      }
    },
    {
      "type": "node",
      "id": 4599152890,
      "lat": 12.9890578,
      "lon": 77.6640639,
      "tags": {
        "amenity": "restaurant",
        "name": "Janpriya Tiffin",
        "name:en": "Janpriya Tiffin"
      }
    },
    {
      "type": "node",
      "id": 4599153790,
      "lat": 12.9891957,
      "lon": 77.663856,
      "tags": {
        "amenity": "clinic",
        "name": "Life line clinic",
        "name:en": "Life line clinic"
      }
    },
    {
      "type": "node",
      "id": 4599173691,
      "lat": 12.9821034,
      "lon": 77.6575557,
      "tags": {
        "amenity": "community_centre",
        "name": "Karunadu services",
        "name:en": "Karunadu services",
        "phone": "08042123520"
      }
    },
    {
      "type": "node",
      "id": 4599826589,
      "lat": 12.9795556,
      "lon": 77.6578756,
      "tags": {
        "amenity": "bank",
        "atm": "yes",
        "brand": "State Bank of India",
        "brand:wikidata": "Q1340361",
        "brand:wikipedia": "en:State Bank of India",
        "name": "State Bank of India",
        "name:en": "SBI",
        "name:kn": "ಭಾರತೀಯ ಸ್ಟೇಟ್ ಬ್ಯಾಂಕ್",
        "short_name": "SBI",
        "website": "https://www.sbi.co.in",
        "wheelchair": "limited"
      }
    },
    {
      "type": "node",
      "id": 4680308195,
      "lat": 12.9877536,
      "lon": 77.6624285,
      "tags": {
        "leisure": "pitch"
      }
    },
    {
      "type": "node",
      "id": 4680308696,
      "lat": 12.984816,
      "lon": 77.6656733,
      "tags": {
        "amenity": "clinic",
        "name": "Government Health Center",
        "name:hi": "Government Health Center"
      }
    },
    {
      "type": "node",
      "id": 4680308697,
      "lat": 12.9907544,
      "lon": 77.6638013,
      "tags": {
        "amenity": "dentist",
        "name": "Grace dental",
        "name:en": "Grace dental"
      }
    },
    {
      "type": "node",
      "id": 4680353494,
      "lat": 12.9853876,
      "lon": 77.6647856,
      "tags": {
        "amenity": "atm",
        "brand": "City Union Bank",
        "brand:en": "City Union Bank",
        "brand:hi": "सिटी यूनियन बैंक",
        "brand:ta": "சிட்டி யூனியன் வங்கி",
        "brand:wikidata": "Q2040264",
        "name:en": "City Union Bank",
        "name:hi": "सिटी यूनियन बैंक",
        "name:ta": "சிட்டி யூனியன் வங்கி",
        "operator": "City Union Bank",
        "operator:wikidata": "Q2040264",
        "short_name": "CUB"
      }
    },
    {
      "type": "node",
      "id": 4685192097,
      "lat": 12.9854091,
      "lon": 77.6734083,
      "tags": {
        "amenity": "atm",
        "operator": "SBH"
      }
    },
    {
      "type": "node",
      "id": 4685201691,
      "lat": 12.9853868,
      "lon": 77.667554,
      "tags": {
        "amenity": "restaurant",
        "name": "New Tandoor",
        "name:hi": "New Tandoor"
      }
    },
    {
      "type": "node",
      "id": 4685249489,
      "lat": 12.9854258,
      "lon": 77.6733538,
      "tags": {
        "amenity": "bank",
        "brand": "State Bank of India",
        "brand:wikidata": "Q1340361",
        "brand:wikipedia": "en:State Bank of India",
        "name": "State Bank of India",
        "name:kn": "ಭಾರತೀಯ ಸ್ಟೇಟ್ ಬ್ಯಾಂಕ್",
        "short_name": "SBI",
        "website": "https://www.sbi.co.in"
      }
    },
    {
      "type": "node",
      "id": 4686164290,
      "lat": 12.9853409,
      "lon": 77.6678905,
      "tags": {
        "amenity": "atm",
        "brand": "Canara Bank",
        "brand:en": "Canara Bank",
        "brand:hi": "केनरा बैंक",
        "brand:kn": "ಕೆನರಾ ಬ್ಯಾಂಕ್",
        "brand:pa": "ਕੇਨਰਾ ਬੈਂਕ",
        "brand:pnb": "کینرا بینک",
        "brand:ur": "کینرا بینک",
        "brand:wikidata": "Q2003777",
        "operator": "Canara Bank",
        "operator:wikidata": "Q2003777"
      }
    },
    {
      "type": "node",
      "id": 4686175590,
      "lat": 12.9861596,
      "lon": 77.6700732,
      "tags": {
        "amenity": "pharmacy",
        "name": "Cure and Care",
        "name:en": "Cure and Care"
      }
    },
    {
      "type": "node",
      "id": 4686175591,
      "lat": 12.9856559,
      "lon": 77.6682476,
      "tags": {
        "amenity": "restaurant",
        "brand": "Pizza Hut",
        "brand:wikidata": "Q191615",
        "cuisine": "pizza",
        "name": "Pizza Hut",
        "name:en": "Pizza Hut",
        "name:kn": "ಪಿಜ್ಜಾ ಹಟ್"
      }
    },
    {
      "type": "node",
      "id": 4686180789,
      "lat": 12.9861566,
      "lon": 77.670012,
      "tags": {
        "name": "Sport Trendz",
        "name:en": "Sport Trendz",
        "shop": "sports"
      }
    },
    {
      "type": "node",
      "id": 4686180790,
      "lat": 12.9861507,
      "lon": 77.6702891,
      "tags": {
        "name": "Max Bakery",
        "name:en": "Max Bakery",
        "shop": "bakery"
      }
    },
    {
      "type": "node",
      "id": 4686180889,
      "lat": 12.9861036,
      "lon": 77.670047,
      "tags": {
        "amenity": "dentist",
        "name": "Sai Dental",
        "name:en": "Sai Dental"
      }
    },
    {
      "type": "node",
      "id": 4686180890,
      "lat": 12.9858822,
      "lon": 77.6687616,
      "tags": {
        "amenity": "restaurant",
        "name": "Mast calender",
        "name:en": "Mast calender"
      }
    },
    {
      "type": "node",
      "id": 4686183789,
      "lat": 12.9855509,
      "lon": 77.668072,
      "tags": {
        "amenity": "bank",
        "brand": "HDFC Bank",
        "brand:wikidata": "Q631047",
        "name": "HDFC Bank",
        "name:en": "HDFC CV Raman Nagar",
        "short_name": "HDFC"
      }
    },
    {
      "type": "node",
      "id": 4686184889,
      "lat": 12.9860914,
      "lon": 77.670399,
      "tags": {
        "name": "SK Motors Bajaj",
        "name:en": "SK Motors Bajaj",
        "shop": "car_repair"
      }
    },
    {
      "type": "node",
      "id": 4686804000,
      "lat": 12.9907421,
      "lon": 77.6637709,
      "tags": {
        "amenity": "atm",
        "brand": "Canara Bank",
        "brand:en": "Canara Bank",
        "brand:hi": "केनरा बैंक",
        "brand:kn": "ಕೆನರಾ ಬ್ಯಾಂಕ್",
        "brand:pa": "ਕੇਨਰਾ ਬੈਂਕ",
        "brand:pnb": "کینرا بینک",
        "brand:ur": "کینرا بینک",
        "brand:wikidata": "Q2003777",
        "name": "Canara Bank",
        "name:en": "Canara Bank",
        "name:hi": "केनरा बैंक",
        "name:kn": "ಕೆನರಾ ಬ್ಯಾಂಕ್",
        "name:pa": "ਕੇਨਰਾ ਬੈਂਕ",
        "name:pnb": "کینرا بینک",
        "name:ur": "کینرا بینک",
        "operator": "Canara Bank",
        "operator:wikidata": "Q2003777"
      }
    },
    {
      "type": "node",
      "id": 4686804190,
      "lat": 12.9853014,
      "lon": 77.6736783,
      "tags": {
        "name": "Hasanamba",
        "name:en": "Hasanamba",
        "shop": "bakery"
      }
    },
    {
      "type": "node",
      "id": 4686864195,
      "lat": 12.9853614,
      "lon": 77.6734987,
      "tags": {
        "amenity": "restaurant",
        "name": "Punjab junction",
        "name:en": "Punjab junction"
      }
    },
    {
      "type": "node",
      "id": 4686864294,
      "lat": 12.9853071,
      "lon": 77.6736189,
      "tags": {
        "name": "Hasan studio",
        "name:en": "Hasan studio",
        "shop": "photo"
      }
    },
    {
      "type": "node",
      "id": 4686864295,
      "lat": 12.9854892,
      "lon": 77.6679809,
      "tags": {
        "amenity": "bank",
        "brand": "ICICI Bank",
        "brand:wikidata": "Q1653258",
        "name": "ICICI Bank",
        "name:en": "ICICI CV Raman nagar",
        "short_name": "ICICI"
      }
    },
    {
      "type": "node",
      "id": 4686864296,
      "lat": 12.9852368,
      "lon": 77.6679566,
      "tags": {
        "amenity": "bank",
        "brand": "Syndicate Bank",
        "brand:wikidata": "Q2004088",
        "name": "Syndicate Bank",
        "name:en": "Syndicate Bank",
        "name:kn": "ಸಿಂಡಿಕೇಟ್ ಬ್ಯಾಂಕ್",
        "website": "https://www.syndicatebank.in",
        "wikimedia_commons": "Category:Syndicate Bank"
      }
    },
    {
      "type": "node",
      "id": 4688842193,
      "lat": 12.9861537,
      "lon": 77.6708546,
      "tags": {
        "amenity": "clinic",
        "name": "Kottakkal Aryavaidyasala",
        "name:en": "Kottakkal Aryavaidyasala",
        "name:kn": "ಕೊಟ್ಟಕಲ್ ಆರ್ಯ ವೈದ್ಯಶಾಲ"
      }
    },
    {
      "type": "node",
      "id": 4688860290,
      "lat": 12.9861348,
      "lon": 77.670909,
      "tags": {
        "name": "Ratna Electrical",
        "name:en": "Ratna Electrical",
        "shop": "electronics"
      }
    },
    {
      "type": "node",
      "id": 4688875789,
      "lat": 12.9861123,
      "lon": 77.6709562,
      "tags": {
        "amenity": "car_wash",
        "automated": "no",
        "name": "Mobiccarspa",
        "name:en": "Mobiccarspa",
        "self_service": "no"
      }
    },
    {
      "type": "node",
      "id": 4689032589,
      "lat": 12.9860689,
      "lon": 77.6705963,
      "tags": {
        "amenity": "restaurant",
        "name": "HotPot",
        "name:en": "HotPot"
      }
    },
    {
      "type": "node",
      "id": 4691718001,
      "lat": 12.985675,
      "lon": 77.6720849,
      "tags": {
        "name": "People",
        "name:en": "People",
        "shop": "clothes"
      }
    },
    {
      "type": "node",
      "id": 4838623026,
      "lat": 12.9816838,
      "lon": 77.6748633,
      "tags": {
        "name": "SLS computers & Hardware",
        "name:en": "SLS computers & Hardware",
        "shop": "computer"
      }
    },
    {
      "type": "node",
      "id": 4930612921,
      "lat": 12.990128,
      "lon": 77.6630368,
      "tags": {
        "amenity": "place_of_worship",
        "name:kn": "ಮಸೀದಿ",
        "religion": "muslim"
      }
    },
    {
      "type": "node",
      "id": 7178894209,
      "lat": 12.9756865,
      "lon": 77.6669815,
      "tags": {
        "amenity": "post_office",
        "brand": "Desk to Desk Courier & Cargo",
        "brand:short": "DTDC",
        "brand:wikidata": "Q55608802",
        "name": "DTDC Courier",
        "operator": "Desk to Desk Courier & Cargo",
        "operator:short": "DTDC",
        "operator:wikidata": "Q55608802"
      }
    },
    {
      "type": "node",
      "id": 7572131831,
      "lat": 12.9847198,
      "lon": 77.6717957,
      "tags": {
        "addr:district": "Bengaluru Urban",
        "addr:full": "Varsova Layout, Kaggadasapura, Bengaluru",
        "addr:postcode": "560093",
        "addr:state": "Karnataka",
        "amenity": "dentist",
        "name": "I-labs Dental",
        "source": "Local Knowledge"
      }
    },
    {
      "type": "node",
      "id": 7572131847,
      "lat": 12.985023,
      "lon": 77.671603,
      "tags": {
        "addr:district": "Bengaluru Urban",
        "addr:full": "Kaggadasapura Main Road, C.V Raman Nagar, Bengaluru",
        "addr:postcode": "560093",
        "addr:state": "Karnataka",
        "amenity": "dentist",
        "name": "Sparkle Dental Clinic and Healthcare",
        "source": "Local Knowledge"
      }
    },
    {
      "type": "node",
      "id": 7572131857,
      "lat": 12.975622,
      "lon": 77.666082,
      "tags": {
        "addr:district": "Bengaluru Urban",
        "addr:full": "GM Palya, C V Raman Nagar, Bengaluru",
        "addr:postcode": "560075",
        "addr:state": "Karnataka",
        "amenity": "clinic",
        "name": "Rapha Polyclinic & Lab",
        "source": "Local Knowledge"
      }
    },
    {
      "type": "node",
      "id": 7572131881,
      "lat": 12.9750951,
      "lon": 77.6660888,
      "tags": {
        "addr:district": "Bengaluru Urban",
        "addr:full": "GM Palya, C V Raman Nagar, Bengaluru",
        "addr:postcode": "560017",
        "addr:state": "Karnataka",
        "amenity": "clinic",
        "name": "Netrajyoti Eye Centre",
        "source": "Local Knowledge",
        "wheelchair": "no"
      }
    },
    {
      "type": "node",
      "id": 7572131883,
      "lat": 12.9753191,
      "lon": 77.6660778,
      "tags": {
        "addr:district": "Bengaluru Urban",
        "addr:full": "Cauveri Colony, GM Palya, C V Raman Nagar, Bengaluru",
        "addr:postcode": "560093",
        "addr:state": "Karnataka",
        "amenity": "dentist",
        "name": "Dr. Ranganath Jingade Dental Hospital",
        "source": "Local Knowledge"
      }
    },
    {
      "type": "node",
      "id": 7572131889,
      "lat": 12.985164,
      "lon": 77.671732,
      "tags": {
        "addr:district": "Bengaluru Urban",
        "addr:full": "Varsova Layout, Kaggadasapura, Bengaluru",
        "addr:postcode": "560093",
        "addr:state": "Karnataka",
        "amenity": "clinic",
        "name": "Sri Vinayaka Homeopathic Clinic",
        "source": "Local Knowledge"
      }
    },
    {
      "type": "node",
      "id": 7572131918,
      "lat": 12.9841083,
      "lon": 77.6744171,
      "tags": {
        "addr:district": "Bengaluru Urban",
        "addr:full": "C V Raman Nagar, Bengaluru",
        "addr:postcode": "560093",
        "addr:state": "Karnataka",
        "amenity": "clinic",
        "name": "Winter Mist Clinic",
        "source": "Local Knowledge"
      }
    },
    {
      "type": "node",
      "id": 7572131928,
      "lat": 12.990029,
      "lon": 77.670352,
      "tags": {
        "addr:district": "Bengaluru Urban",
        "addr:full": "Mahadevapura, Bengaluru",
        "addr:postcode": "560016",
        "addr:state": "Karnataka",
        "amenity": "dentist",
        "name": "Feather Touch Dental Care",
        "source": "Local Knowledge"
      }
    },
    {
      "type": "node",
      "id": 11281361293,
      "lat": 12.986976,
      "lon": 77.6703418,
      "tags": {
        "amenity": "bicycle_rental",
        "name": "Yulu"
      }
    },
    {
      "type": "node",
      "id": 11281361367,
      "lat": 12.9851158,
      "lon": 77.6675168,
      "tags": {
        "amenity": "fast_food",
        "name": "Vaishanavi Vaibhava"
      }
    },
    {
      "type": "node",
      "id": 11630436766,
      "lat": 12.9878946,
      "lon": 77.6666644,
      "tags": {
        "access": "private",
        "amenity": "parking_entrance",
        "parking": "underground"
      }
    },
    {
      "type": "node",
      "id": 11630436767,
      "lat": 12.9883666,
      "lon": 77.6672798,
      "tags": {
        "access": "private",
        "amenity": "parking_entrance",
        "parking": "underground"
      }
    },
    {
      "type": "node",
      "id": 11630509670,
      "lat": 12.98708,
      "lon": 77.66737,
      "tags": {
        "amenity": "parking_entrance",
        "parking": "underground"
      }
    },
    {
      "type": "node",
      "id": 11908994205,
      "lat": 12.9843724,
      "lon": 77.6654448,
      "tags": {
        "check_date": "2024-05-17",
        "name": "Solanki Medicals",
        "shop": "chemist"
      }
    },
    {
      "type": "node",
      "id": 11908994206,
      "lat": 12.9844253,
      "lon": 77.6654609,
      "tags": {
        "check_date": "2024-05-17",
        "name": "Kahinoor Rice Traders",
        "shop": "wholesale_grain_trader"
      }
    },
    {
      "type": "node",
      "id": 11908994207,
      "lat": 12.9843282,
      "lon": 77.6654378,
      "tags": {
        "amenity": "dentist",
        "check_date": "2024-05-17",
        "healthcare": "dentist",
        "name": "Chitra Dental Care"
      }
    },
    {
      "type": "node",
      "id": 12204996493,
      "lat": 12.9751626,
      "lon": 77.6653229,
      "tags": {
        "amenity": "parking_entrance"
      }
    },
    {
      "type": "node",
      "id": 13150307874,
      "lat": 12.9892067,
      "lon": 77.6665143,
      "tags": {
        "access": "private",
        "amenity": "parking_entrance",
        "parking": "underground"
      }
    },
    {
      "type": "node",
      "id": 13173750204,
      "lat": 12.9860538,
      "lon": 77.6704131,
      "tags": {
        "amenity": "bar"
      }
    },
    {
      "type": "node",
      "id": 13275766738,
      "lat": 12.9779204,
      "lon": 77.662729,
      "tags": {
        "amenity": "shelter",
        "shelter_type": "gazebo"
      }
    },
    {
      "type": "way",
      "id": 35311978,
      "center": {
        "lat": 12.9822274,
        "lon": 77.6533084
      },
      "tags": {
        "amenity": "research_institute",
        "check_date": "2024-11-10",
        "landuse": "industrial",
        "name": "Gas Turbine Research Establishment",
        "name:kn": "ಆವಿ ನೀರುಗಾಲಿ ಸಂಶೋಧನ ನೆಲೆ",
        "operator:type": "military",
        "short_name": "GTRE",
        "start_date": "1961",
        "wikidata": "Q5526315",
        "wikimedia_commons": "Category:GTRE aircraft engines",
        "wikipedia": "en:Gas Turbine Research Establishment"
      }
    },
    {
      "type": "way",
      "id": 314210261,
      "center": {
        "lat": 12.9790506,
        "lon": 77.6739877
      },
      "tags": {
        "amenity": "school",
        "education": "school",
        "name": "NCFE School"
      }
    },
    {
      "type": "way",
      "id": 323037305,
      "center": {
        "lat": 12.9736002,
        "lon": 77.6685704
      },
      "tags": {
        "amenity": "theatre",
        "name": "BEML Kala Mandir"
      }
    },
    {
      "type": "way",
      "id": 323037941,
      "center": {
        "lat": 12.974433,
        "lon": 77.6694265
      },
      "tags": {
        "leisure": "park",
        "name": "BEML Playground"
      }
    },
    {
      "type": "way",
      "id": 338104350,
      "center": {
        "lat": 12.9902358,
        "lon": 77.6635792
      },
      "tags": {
        "amenity": "school",
        "name": "Government Kannada Primary School",
        "name:kn": "ಸರ್ಕಾರಿ ಕನ್ನಡ ಪ್ರಾಥಮಿಕ ಶಾಲೆ",
        "operator": "government"
      }
    },
    {
      "type": "way",
      "id": 338106507,
      "center": {
        "lat": 12.9903484,
        "lon": 77.662795
      },
      "tags": {
        "building": "yes",
        "name": "9 to 9 Step N Shop",
        "shop": "yes"
      }
    },
    {
      "type": "way",
      "id": 346163701,
      "center": {
        "lat": 12.9861901,
        "lon": 77.6678754
      },
      "tags": {
        "amenity": "parking",
        "building": "yes",
        "name": "CAIR Parking",
        "parking": "multi-storey"
      }
    },
    {
      "type": "way",
      "id": 346421773,
      "center": {
        "lat": 12.9850652,
        "lon": 77.6575652
      },
      "tags": {
        "access": "private",
        "leisure": "pitch",
        "sport": "basketball"
      }
    },
    {
      "type": "way",
      "id": 346775300,
      "center": {
        "lat": 12.9850987,
        "lon": 77.6631173
      },
      "tags": {
        "amenity": "post_office",
        "building": "commercial",
        "name": "DRDO Shopping complex / CV Raman Nagar PO",
        "operator": "India Posts",
        "ref": "CV Raman Nagar PO"
      }
    },
    {
      "type": "way",
      "id": 346776018,
      "center": {
        "lat": 12.9847018,
        "lon": 77.6631402
      },
      "tags": {
        "amenity": "community_centre",
        "building": "yes",
        "name": "DRDO Community Hall"
      }
    },
    {
      "type": "way",
      "id": 347084114,
      "center": {
        "lat": 12.9847652,
        "lon": 77.6626318
      },
      "tags": {
        "amenity": "theatre",
        "name": "Open Air Theatre"
      }
    },
    {
      "type": "way",
      "id": 347182995,
      "center": {
        "lat": 12.9803577,
        "lon": 77.657137
      },
      "tags": {
        "access": "customers",
        "amenity": "parking",
        "building": "yes",
        "parking": "multi-storey"
      }
    },
    {
      "type": "way",
      "id": 363617609,
      "center": {
        "lat": 12.9841178,
        "lon": 77.663424
      },
      "tags": {
        "leisure": "pitch",
        "name": "Phase 1 Tennis Court",
        "sport": "tennis",
        "surface": "paved"
      }
    },
    {
      "type": "way",
      "id": 363617610,
      "center": {
        "lat": 12.9839744,
        "lon": 77.6615189
      },
      "tags": {
        "leisure": "pitch"
      }
    },
    {
      "type": "way",
      "id": 415116799,
      "center": {
        "lat": 12.9745137,
        "lon": 77.6703174
      },
      "tags": {
        "leisure": "park"
      }
    },
    {
      "type": "way",
      "id": 415125446,
      "center": {
        "lat": 12.9774258,
        "lon": 77.6713351
      },
      "tags": {
        "amenity": "school",
        "name": "Global City International School"
      }
    },
    {
      "type": "way",
      "id": 420436334,
      "center": {
        "lat": 12.9856425,
        "lon": 77.6640815
      },
      "tags": {
        "amenity": "bus_station",
        "name": "C V Raman Nagar Bus Stand",
        "name:kn": "ಸಿ ವಿ ರಾಮನ್ ನಗರ ಬಸ್ ನಿಲ್ದಾಣ",
        "operator": "BMTC"
      }
    },
    {
      "type": "way",
      "id": 1053086089,
      "center": {
        "lat": 12.9855823,
        "lon": 77.6590148
      },
      "tags": {
        "leisure": "golf_course",
        "name": "HAL Golf Course"
      }
    },
    {
      "type": "way",
      "id": 1053086094,
      "center": {
        "lat": 12.9859338,
        "lon": 77.6661957
      },
      "tags": {
        "leisure": "pitch"
      }
    },
    {
      "type": "way",
      "id": 1053086117,
      "center": {
        "lat": 12.983105,
        "lon": 77.6601185
      },
      "tags": {
        "leisure": "playground",
        "name": "DRDO Playground"
      }
    },
    {
      "type": "way",
      "id": 1053086118,
      "center": {
        "lat": 12.9887637,
        "lon": 77.6596321
      },
      "tags": {
        "access": "private",
        "leisure": "pitch",
        "sport": "tennis"
      }
    },
    {
      "type": "way",
      "id": 1053086119,
      "center": {
        "lat": 12.9888989,
        "lon": 77.6600823
      },
      "tags": {
        "leisure": "pitch",
        "sport": "basketball"
      }
    },
    {
      "type": "way",
      "id": 1053086120,
      "center": {
        "lat": 12.9875892,
        "lon": 77.6672509
      },
      "tags": {
        "access": "private",
        "leisure": "swimming_pool"
      }
    },
    {
      "type": "way",
      "id": 1053086121,
      "center": {
        "lat": 12.9888213,
        "lon": 77.66725
      },
      "tags": {
        "leisure": "pitch",
        "sport": "tennis"
      }
    },
    {
      "type": "way",
      "id": 1053086122,
      "center": {
        "lat": 12.9893158,
        "lon": 77.6669265
      },
      "tags": {
        "leisure": "park"
      }
    },
    {
      "type": "way",
      "id": 1053086130,
      "center": {
        "lat": 12.9868422,
        "lon": 77.6643563
      },
      "tags": {
        "addr:street": "Naganarapalaya Main Road",
        "amenity": "school",
        "name": "Kendriya Vidhyalaya DRDO",
        "name:kn": "ಕೆಂದ್ರೀಯ ವಿದ್ಯಾಲಯ"
      }
    },
    {
      "type": "way",
      "id": 1053086135,
      "center": {
        "lat": 12.9850948,
        "lon": 77.6654174
      },
      "tags": {
        "leisure": "park"
      }
    },
    {
      "type": "way",
      "id": 1053353597,
      "center": {
        "lat": 12.9879573,
        "lon": 77.670647
      },
      "tags": {
        "leisure": "park"
      }
    },
    {
      "type": "way",
      "id": 1053353598,
      "center": {
        "lat": 12.9881291,
        "lon": 77.6710331
      },
      "tags": {
        "access": "private",
        "leisure": "swimming_pool"
      }
    },
    {
      "type": "way",
      "id": 1053353599,
      "center": {
        "lat": 12.9883336,
        "lon": 77.6709752
      },
      "tags": {
        "leisure": "playground"
      }
    },
    {
      "type": "way",
      "id": 1053353600,
      "center": {
        "lat": 12.9881888,
        "lon": 77.6713563
      },
      "tags": {
        "leisure": "pitch",
        "sport": "tennis"
      }
    },
    {
      "type": "way",
      "id": 1054384478,
      "center": {
        "lat": 12.9763384,
        "lon": 77.6728844
      },
      "tags": {
        "amenity": "school",
        "name": "Sishu Griha Junior School"
      }
    },
    {
      "type": "way",
      "id": 1065296604,
      "center": {
        "lat": 12.9780051,
        "lon": 77.6597076
      },
      "tags": {
        "access": "permissive",
        "amenity": "parking",
        "parking": "surface"
      }
    },
    {
      "type": "way",
      "id": 1065296605,
      "center": {
        "lat": 12.9790731,
        "lon": 77.6648439
      },
      "tags": {
        "access": "permissive",
        "amenity": "parking",
        "parking": "surface"
      }
    },
    {
      "type": "way",
      "id": 1065296606,
      "center": {
        "lat": 12.9782451,
        "lon": 77.6639012
      },
      "tags": {
        "access": "permissive",
        "amenity": "parking",
        "parking": "surface"
      }
    },
    {
      "type": "way",
      "id": 1065300633,
      "center": {
        "lat": 12.9786838,
        "lon": 77.6611835
      },
      "tags": {
        "access": "permissive",
        "amenity": "parking",
        "parking": "surface"
      }
    },
    {
      "type": "way",
      "id": 1190960741,
      "center": {
        "lat": 12.9863174,
        "lon": 77.6688109
      },
      "tags": {
        "amenity": "childcare",
        "building": "yes",
        "name": "CAIR Creche"
      }
    },
    {
      "type": "way",
      "id": 1217530866,
      "center": {
        "lat": 12.9875258,
        "lon": 77.6699596
      },
      "tags": {
        "amenity": "school"
      }
    },
    {
      "type": "way",
      "id": 1251186677,
      "center": {
        "lat": 12.9783306,
        "lon": 77.6621393
      },
      "tags": {
        "leisure": "park"
      }
    },
    {
      "type": "way",
      "id": 1252257170,
      "center": {
        "lat": 12.977855,
        "lon": 77.6712792
      },
      "tags": {
        "leisure": "pitch",
        "sport": "basketball"
      }
    },
    {
      "type": "way",
      "id": 1252257176,
      "center": {
        "lat": 12.9776249,
        "lon": 77.6610112
      },
      "tags": {
        "access": "permissive",
        "leisure": "pitch",
        "sport": "tennis"
      }
    },
    {
      "type": "way",
      "id": 1252262807,
      "center": {
        "lat": 12.9814109,
        "lon": 77.6743372
      },
      "tags": {
        "leisure": "pitch",
        "sport": "tennis"
      }
    },
    {
      "type": "way",
      "id": 1320013842,
      "center": {
        "lat": 12.9748041,
        "lon": 77.6648258
      },
      "tags": {
        "amenity": "place_of_worship",
        "landuse": "religious",
        "name": "Shri Viranjaneya Temple",
        "name:kn": "ಶ್ರೀ ವೀರಾಂಜನೇಯ",
        "religion": "hindu"
      }
    },
    {
      "type": "way",
      "id": 1320014017,
      "center": {
        "lat": 12.9779487,
        "lon": 77.6587271
      },
      "tags": {
        "access": "permissive",
        "amenity": "parking",
        "parking": "surface"
      }
    },
    {
      "type": "way",
      "id": 1354098107,
      "center": {
        "lat": 12.9886043,
        "lon": 77.6593421
      },
      "tags": {
        "access": "private",
        "leisure": "pitch",
        "sport": "tennis"
      }
    },
    {
      "type": "way",
      "id": 1363975877,
      "center": {
        "lat": 12.982326,
        "lon": 77.6729649
      },
      "tags": {
        "access": "private",
        "leisure": "swimming_pool"
      }
    },
    {
      "type": "way",
      "id": 1363975879,
      "center": {
        "lat": 12.9803321,
        "lon": 77.6714056
      },
      "tags": {
        "leisure": "park",
        "name": "Atal Bihari Vajpayee Park"
      }
    },
    {
      "type": "way",
      "id": 1363975904,
      "center": {
        "lat": 12.9769543,
        "lon": 77.6725405
      },
      "tags": {
        "leisure": "sports_centre",
        "name": "SAI Cricket Academy",
        "sport": "cricket"
      }
    },
    {
      "type": "way",
      "id": 1363975921,
      "center": {
        "lat": 12.9848026,
        "lon": 77.6653924
      },
      "tags": {
        "addr:street": "Kaggadasspura Main Road",
        "amenity": "place_of_worship",
        "landuse": "religious",
        "name": "Bhuvaneshwari/Shiva Temple",
        "religion": "hindu"
      }
    },
    {
      "type": "way",
      "id": 1430649320,
      "center": {
        "lat": 12.9870008,
        "lon": 77.6667131
      },
      "tags": {
        "access": "private",
        "leisure": "playground"
      }
    },
    {
      "type": "way",
      "id": 1430649326,
      "center": {
        "lat": 12.9891648,
        "lon": 77.6674091
      },
      "tags": {
        "leisure": "bleachers"
      }
    },
    {
      "type": "way",
      "id": 1430649327,
      "center": {
        "lat": 12.989185,
        "lon": 77.66741
      },
      "tags": {
        "access": "private",
        "amenity": "theatre",
        "theatre:type": "amphi"
      }
    },
    {
      "type": "way",
      "id": 1430649328,
      "center": {
        "lat": 12.9894247,
        "lon": 77.6669543
      },
      "tags": {
        "access": "private",
        "leisure": "playground",
        "surface": "grass"
      }
    },
    {
      "type": "way",
      "id": 1444109298,
      "center": {
        "lat": 12.9775221,
        "lon": 77.6724957
      },
      "tags": {
        "amenity": "place_of_worship",
        "landuse": "religious",
        "name": "Sri Jalakanteshwara Temple",
        "religion": "hindu"
      }
    },
    {
      "type": "way",
      "id": 1444109352,
      "center": {
        "lat": 12.9763507,
        "lon": 77.6728482
      },
      "tags": {
        "access": "private",
        "leisure": "pitch",
        "sport": "basketball"
      }
    },
    {
      "type": "way",
      "id": 1446434696,
      "center": {
        "lat": 12.9825795,
        "lon": 77.6724319
      },
      "tags": {
        "amenity": "place_of_worship",
        "building": "yes",
        "name": "Ganesha Temple",
        "name:kn": "ಗಣೇಶ ದೇವಸ್ಥಾನ",
        "religion": "hindu"
      }
    },
    {
      "type": "way",
      "id": 1446434701,
      "center": {
        "lat": 12.9858463,
        "lon": 77.6725
      },
      "tags": {
        "leisure": "sports_centre",
        "name": "Namma United Box Cricket and Football Academy"
      }
    },
    {
      "type": "way",
      "id": 1446568061,
      "center": {
        "lat": 12.9818497,
        "lon": 77.6578125
      },
      "tags": {
        "amenity": "place_of_worship",
        "landuse": "religious",
        "religion": "hindu"
      }
    },
    {
      "type": "way",
      "id": 1446914636,
      "center": {
        "lat": 12.9776002,
        "lon": 77.6637228
      },
      "tags": {
        "access": "private",
        "amenity": "parking",
        "parking": "surface"
      }
    },
    {
      "type": "way",
      "id": 1447096789,
      "center": {
        "lat": 12.9816997,
        "lon": 77.6671956
      },
      "tags": {
        "addr:city": "Bangalore",
        "addr:housenumber": "Lake Road",
        "addr:postcode": "560093",
        "addr:street": "Byrasandra, C V Raman Nagar",
        "amenity": "place_of_worship",
        "landuse": "religious",
        "name": "Chowdheshwari Temple",
        "name:kn": "ಚೌಡೇಶ್ವರಿ ದೇವಸ್ಥಾನ",
        "religion": "hindu"
      }
    },
    {
      "type": "way",
      "id": 1447172802,
      "center": {
        "lat": 12.9794379,
        "lon": 77.6742159
      },
      "tags": {
        "leisure": "pitch",
        "sport": "basketball"
      }
    }
  ]
}