{
  "area_name": "Byraveshwara Nagara",
  "osm_id": 12820381008,
  "osm_type": "node",
  "place_type": "neighbourhood",
  "amenity_count": 8,
  "amenities": [
    {
      "type": "way",
      "id": 346167952,
      "center": {
        "lat": 13.0365215,
        "lon": 77.4987163
      },
      "tags": {
        "amenity": "library",
        "building": "yes"
      }
    },
    {
      "type": "way",
      "id": 1202361063,
      "center": {
        "lat": 13.0296909,
        "lon": 77.4959252
      },
      "tags": {
        "amenity": "monastery",
        "name": "Kentenich Vidhyaniketan",
        "religion": "christian"
      }
    },
    {
      "type": "way",
      "id": 1202361065,
      "center": {
        "lat": 13.0324851,
        "lon": 77.4983257
      },
      "tags": {
        "leisure": "park"
      }
    },
    {
      "type": "way",
      "id": 1202361066,
      "center": {
        "lat": 13.0322107,
        "lon": 77.4982077
      },
      "tags": {
        "amenity": "place_of_worship",
        "landuse": "religious",
        "religion": "hindu"
      }
    },
    {
      "type": "way",
      "id": 1376522585,
      "center": {
        "lat": 13.0462742,
        "lon": 77.4906022
      },
      "tags": {
        "amenity": "school"
      }
    },
    {
      "type": "way",
      "id": 1383280161,
      "center": {
        "lat": 13.0399847,
        "lon": 77.4972233
      },
      "tags": {
        "amenity": "school",
        "name": "Sri Chaitanya Techno School"
      }
    },
    {
      "type": "way",
      "id": 1383280318,
      "center": {
        "lat": 13.0367653,
        "lon": 77.498713
      },
      "tags": {
        "amenity": "place_of_worship",
        "landuse": "religious",
        "religion": "hindu"
      }
    },
    {
      "type": "way",
      "id": 1384707727,
      "center": {
        "lat": 13.0289201,
        "lon": 77.4889457
      },
      "tags": {
        "amenity": "school"
      }
    }
  ]
}