{
  "area_name": "Chamarajapete",
  "osm_id": 429853694,
  "osm_type": "node",
  "place_type": "suburb",
  "amenity_count": 297,
  "amenities": [
    {
      "type": "node",
      "id": 674529633,
      "lat": 12.965341,
      "lon": 77.565392,
      "tags": {
        "amenity": "toilets"
      }
    },
    {
      "type": "node",
      "id": 711707870,
      "lat": 12.9625258,
      "lon": 77.5656883,
      "tags": {
        "amenity": "place_of_worship",
        "name": "Anjaneya Temple",
        "name:kn": "ಆಂಜನೇಯ ದೇವಸ್ಥಾನ",
        "religion": "hindu"
      }
    },
    {
      "type": "node",
      "id": 1437301865,
      "lat": 12.9586516,
      "lon": 77.5716741,
      "tags": {
        "name": "Kannada Sahitya Parishath",
        "name:kn": "ಕನ್ನಡ ಸಾಹಿತ್ಯ ಪರಿಷತ್ತು",
        "shop": "books",
        "wheelchair": "limited"
      }
    },
    {
      "type": "node",
      "id": 1617398428,
      "lat": 12.9539396,
      "lon": 77.5688104,
      "tags": {
        "addr:street": "2nd Cross Road",
        "amenity": "fast_food",
        "diet:vegetarian": "only",
        "name": "Brahmin's Coffee Bar",
        "name:kn": "ಬ್ರಾಹ್ಮಣರ ಕಾಫಿ ಬಾರ್",
        "wheelchair": "no"
      }
    },
    {
      "type": "node",
      "id": 1782116875,
      "lat": 12.9577755,
      "lon": 77.5694742,
      "tags": {
        "addr:postcode": "560018",
        "addr:street": "1st Cross, 5th Main, Chamarajpet",
        "amenity": "restaurant",
        "cuisine": "indian",
        "designation": "S.L.V",
        "name": "S.L.V Hotel",
        "name:kn": "ಎಸ್.ಎಲ್.ವಿ ಹೋಟೆಲ್",
        "wheelchair": "no"
      }
    },
    {
      "type": "node",
      "id": 1782170339,
      "lat": 12.9545656,
      "lon": 77.5653115,
      "tags": {
        "addr:district": "BENGALURU URBAN",
        "addr:full": "93/2 Keshava Shilpa 1st Main Road, Kempegowda Nagar",
        "addr:postcode": "560019",
        "addr:state": "Karnataka",
        "amenity": "blood_bank",
        "contact:mobile": "9480436702",
        "contact:phone": "8026610916",
        "designation": "Blood Bank",
        "emergency": "no",
        "name": "Blood Bank - Rastrothana Trust",
        "opening_hours": "24/7",
        "operator:type": "private",
        "wheelchair": "limited"
      }
    },
    {
      "type": "node",
      "id": 1782176660,
      "lat": 12.9571508,
      "lon": 77.5624395,
      "tags": {
        "amenity": "fuel",
        "brand": "Indian Oil",
        "brand:wikidata": "Q1289348",
        "fuel:1_25": "no",
        "fuel:GTL_diesel": "no",
        "fuel:HGV_diesel": "yes",
        "fuel:biodiesel": "no",
        "fuel:biogas": "no",
        "fuel:cng": "no",
        "fuel:diesel": "yes",
        "fuel:e10": "no",
        "fuel:e85": "no",
        "fuel:electricity": "no",
        "fuel:lpg": "yes",
        "fuel:octane_100": "no",
        "fuel:octane_91": "yes",
        "fuel:octane_95": "no",
        "fuel:octane_98": "no",
        "name": "Anjandri Petrol / Gas Station",
        "toilets:wheelchair": "no",
        "wheelchair": "yes"
      }
    },
    {
      "type": "node",
      "id": 1789725915,
      "lat": 12.9604713,
      "lon": 77.5652214,
      "tags": {
        "amenity": "atm",
        "brand": "HDFC Bank",
        "brand:wikidata": "Q631047",
        "fee": "no",
        "name": "HDFC Bank",
        "name:kn": "ಎಚ್ ಡಿ ಎಫ್ ಸಿ",
        "operator": "HDFC Bank",
        "operator:wikidata": "Q631047",
        "short_name": "HDFC"
      }
    },
    {
      "type": "node",
      "id": 1789726678,
      "lat": 12.9604765,
      "lon": 77.5643202,
      "tags": {
        "amenity": "police",
        "name": "Chamarajapet Police Station",
        "name:kn": "ಆರಕ್ಷಕ ಠಾಣೆ",
        "wheelchair": "limited"
      }
    },
    {
      "type": "node",
      "id": 1789726918,
      "lat": 12.9604086,
      "lon": 77.5633761,
      "tags": {
        "amenity": "atm",
        "fee": "no",
        "operator": "State Bank ATM"
      }
    },
    {
      "type": "node",
      "id": 1789727639,
      "lat": 12.9598806,
      "lon": 77.5640252,
      "tags": {
        "amenity": "school"
      }
    },
    {
      "type": "node",
      "id": 1791567417,
      "lat": 12.9538729,
      "lon": 77.570101,
      "tags": {
        "addr:street": "Shankar Matt Road",
        "amenity": "police",
        "name": "Shankarapuram Police Station",
        "name:kn": "ಆರಕ್ಷಕ ಠಾಣೆ",
        "wheelchair": "no"
      }
    },
    {
      "type": "node",
      "id": 1791886696,
      "lat": 12.9573769,
      "lon": 77.5717084,
      "tags": {
        "amenity": "atm",
        "brand": "State Bank of India",
        "brand:wikidata": "Q1340361",
        "fee": "no",
        "name": "State Bank of India",
        "operator": "State Bank of India",
        "operator:wikidata": "Q1340361",
        "short_name": "SBI",
        "wheelchair": "no"
      }
    },
    {
      "type": "node",
      "id": 1791982458,
      "lat": 12.9544493,
      "lon": 77.5699435,
      "tags": {
        "amenity": "atm",
        "brand": "Karnataka Bank",
        "brand:wikidata": "Q2042632",
        "name": "Karnataka Bank",
        "operator": "Karnataka Bank",
        "operator:wikidata": "Q2042632"
      }
    },
    {
      "type": "node",
      "id": 1791990800,
      "lat": 12.9556831,
      "lon": 77.5676261,
      "tags": {
        "amenity": "atm",
        "brand": "State Bank of India",
        "brand:wikidata": "Q1340361",
        "name": "State Bank of India",
        "name:kn": "ಎಸ್ ಬಿ ಐ",
        "operator": "State Bank of India",
        "operator:wikidata": "Q1340361",
        "short_name": "SBI",
        "wheelchair": "no"
      }
    },
    {
      "type": "node",
      "id": 1791991192,
      "lat": 12.9557511,
      "lon": 77.567272,
      "tags": {
        "amenity": "atm",
        "wheelchair": "no"
      }
    },
    {
      "type": "node",
      "id": 1791991768,
      "lat": 12.9551211,
      "lon": 77.5663064,
      "tags": {
        "amenity": "bank",
        "atm": "yes",
        "brand": "HDFC Bank",
        "brand:wikidata": "Q631047",
        "brand:wikipedia": "en:HDFC Bank",
        "name": "HDFC Bank",
        "short_name": "HDFC",
        "website": "https://www.hdfcbank.com",
        "wheelchair": "no"
      }
    },
    {
      "type": "node",
      "id": 1792715612,
      "lat": 12.954621,
      "lon": 77.5672723,
      "tags": {
        "name": "Reliance Digital Electronic Store",
        "shop": "supermarket",
        "wheelchair": "no"
      }
    },
    {
      "type": "node",
      "id": 1796647802,
      "lat": 12.9552655,
      "lon": 77.5675942,
      "tags": {
        "amenity": "fast_food",
        "cuisine": "indian",
        "name": "Darshini",
        "name:kn": "ದರ್ಶಿನಿ",
        "wheelchair": "no"
      }
    },
    {
      "type": "node",
      "id": 1806971412,
      "lat": 12.95954,
      "lon": 77.5685551,
      "tags": {
        "amenity": "bank",
        "atm": "yes",
        "brand": "Canara Bank",
        "brand:en": "Canara Bank",
        "brand:hi": "केनरा बैंक",
        "brand:kn": "ಕೆನರಾ ಬ್ಯಾಂಕ್",
        "brand:pa": "ਕੇਨਰਾ ਬੈਂਕ",
        "brand:pnb": "کینرا بینک",
        "brand:ur": "کینرا بینک",
        "brand:wikidata": "Q2003777",
        "brand:wikipedia": "en:Canara Bank",
        "brand:wikipedia:pa": "ਕੇਨਰਾ ਬੈਂਕ",
        "name": "Canara Bank",
        "name:en": "Canara Bank",
        "name:hi": "केनरा बैंक",
        "name:kn": "ಕೆನರಾ ಬ್ಯಾಂಕ್",
        "name:pa": "ਕੇਨਰਾ ਬੈਂਕ",
        "name:pnb": "کینرا بینک",
        "name:ur": "کینرا بینک",
        "toilets:wheelchair": "no",
        "website": "https://www.canarabank.com/",
        "wheelchair": "no"
      }
    },
    {
      "type": "node",
      "id": 1843616701,
      "lat": 12.9608365,
      "lon": 77.5701609,
      "tags": {
        "amenity": "place_of_worship",
        "name": "Adi Shakti Chikka Annamma Temple",
        "name:kn": "ಆದಿಶಕ್ತಿ ಚಿಕ್ಕ ಅಣ್ಣಮ್ಮ ದೇವಸ್ಥಾನ",
        "religion": "hindu"
      }
    },
    {
      "type": "node",
      "id": 1843617173,
      "lat": 12.9614011,
      "lon": 77.5698739,
      "tags": {
        "amenity": "place_of_worship",
        "name": "Lakshmi Satyanarana Temple",
        "religion": "hindu"
      }
    },
    {
      "type": "node",
      "id": 1843617409,
      "lat": 12.9617331,
      "lon": 77.5700133,
      "tags": {
        "amenity": "place_of_worship",
        "name": "Anjaneya Temple",
        "name:kn": "ಆಂಜನೇಯ ದೇವಸ್ಥಾನ",
        "religion": "hindu"
      }
    },
    {
      "type": "node",
      "id": 3395243168,
      "lat": 12.9606678,
      "lon": 77.5714841,
      "tags": {
        "name": "Guruprakash General Stores",
        "shop": "general"
      }
    },
    {
      "type": "node",
      "id": 3395246644,
      "lat": 12.9606852,
      "lon": 77.5715513,
      "tags": {
        "amenity": "pharmacy",
        "check_date": "2025-06-19",
        "name": "Sri Manjunatha Medical & General Stores"
      }
    },
    {
      "type": "node",
      "id": 4101067196,
      "lat": 12.9606146,
      "lon": 77.5565401,
      "tags": {
        "addr:street": "Mysore Road",
        "amenity": "place_of_worship",
        "check_date": "2023-10-08",
        "name": "Masjid e Khabristan",
        "religion": "muslim"
      }
    },
    {
      "type": "node",
      "id": 4101094992,
      "lat": 12.9635168,
      "lon": 77.5580738,
      "tags": {
        "addr:street": "Hosahalli Main Road",
        "amenity": "place_of_worship",
        "name": "Masjid e Jamia",
        "name:kn": "ಮಸ್ಜಿದ್ ಎ ಜಾಮ್ಯ",
        "religion": "muslim"
      }
    },
    {
      "type": "node",
      "id": 4130913293,
      "lat": 12.9602862,
      "lon": 77.5570381,
      "tags": {
        "amenity": "fuel",
        "brand": "Bharat Petroleum",
        "brand:wikidata": "Q854826",
        "compressed_air": "no",
        "name": "Bharat Petroleum",
        "name:kn": "ಭಾರತ್ ಪೆಟ್ರೋಲಿಯಂ"
      }
    },
    {
      "type": "node",
      "id": 4130913296,
      "lat": 12.9597748,
      "lon": 77.5548192,
      "tags": {
        "addr:street": "Mysore Road",
        "amenity": "place_of_worship",
        "name": "Mysore Road Eidgha"
      }
    },
    {
      "type": "node",
      "id": 4130934092,
      "lat": 12.9600503,
      "lon": 77.5539163,
      "tags": {
        "amenity": "place_of_worship",
        "building": "mosque",
        "name:kn": "ಮಸೀದಿ",
        "religion": "muslim"
      }
    },
    {
      "type": "node",
      "id": 4130960190,
      "lat": 12.965813,
      "lon": 77.5622167,
      "tags": {
        "addr:street": "Tank Bund Road",
        "amenity": "cinema",
        "brand": "Cinepolis",
        "brand:wikidata": "Q5686673",
        "name": "Cinepolis ETA Mall"
      }
    },
    {
      "type": "node",
      "id": 4130960195,
      "lat": 12.964346,
      "lon": 77.557164,
      "tags": {
        "addr:street": "Hosahalli Main Road",
        "amenity": "place_of_worship",
        "name": "Peter Paul Church",
        "religion": "christian"
      }
    },
    {
      "type": "node",
      "id": 4130960789,
      "lat": 12.9551248,
      "lon": 77.566492,
      "tags": {
        "amenity": "atm"
      }
    },
    {
      "type": "node",
      "id": 4197221689,
      "lat": 12.9577751,
      "lon": 77.5688772,
      "tags": {
        "addr:district": "Bengaluru Urban",
        "addr:full": "No 17 4Th Mein Road Chamarajpet",
        "addr:postcode": "560018",
        "addr:state": "Karnataka",
        "amenity": "clinic",
        "name": "Brindavan Aerion Hospitals",
        "source": "OpenGovernmentData"
      }
    },
    {
      "type": "node",
      "id": 4446894387,
      "lat": 12.9559132,
      "lon": 77.5561779,
      "tags": {
        "addr:city": "bangalore",
        "addr:housenumber": "9",
        "addr:postcode": "560026",
        "addr:street": "2nd Main Road valmikinagar Mysore Road, Ramachandra Agrahara, Azad Nagar",
        "amenity": "pharmacy",
        "name": "Sri Ganesh Pharma",
        "phone": "089708 85482"
      }
    },
    {
      "type": "node",
      "id": 4488831477,
      "lat": 12.9610541,
      "lon": 77.5613113,
      "tags": {
        "addr:city": "bangalore",
        "addr:housenumber": "168",
        "addr:postcode": "560018",
        "addr:street": "1st Floor, 9th Cross, 1st Main Road, Chamarajpet",
        "leisure": "sports_centre",
        "name": "Sanjeevini Fitness World",
        "opening_hours": "06:00-22:00",
        "sport": "gymnastics"
      }
    },
    {
      "type": "node",
      "id": 4489688022,
      "lat": 12.9606014,
      "lon": 77.5592964,
      "tags": {
        "addr:city": "bangalore",
        "addr:housenumber": "17/19",
        "addr:postcode": "560021",
        "addr:street": "HVR Complex, Subramayam Nagar Road, Subramanya Nagar",
        "leisure": "sports_centre",
        "name": "Body Line Fitness Center",
        "opening_hours": "05:00  - 12:30",
        "phone": "(91)-80-33092920",
        "sport": "gymnastics"
      }
    },
    {
      "type": "node",
      "id": 4489690811,
      "lat": 12.9604735,
      "lon": 77.5593446,
      "tags": {
        "addr:city": "bangalore",
        "addr:postcode": "560026",
        "addr:street": "Sirsi Circle, Jagajeevanram Nagar",
        "leisure": "sports_centre",
        "name": "Sanjeevini Fitness World",
        "opening_hours": "06:00-22:00",
        "phone": "(91)-9901650250",
        "sport": "gymnastics"
      }
    },
    {
      "type": "node",
      "id": 4881135463,
      "lat": 12.965491,
      "lon": 77.5616184,
      "tags": {
        "brand": "Decathlon",
        "brand:wikidata": "Q509349",
        "name": "Decathlon",
        "shop": "sports"
      }
    },
    {
      "type": "node",
      "id": 5716797221,
      "lat": 12.9542624,
      "lon": 77.5709473,
      "tags": {
        "addr:district": "Bengaluru Urban",
        "addr:full": "1st Cross, Shankarapuram, Basavanaagudi",
        "addr:postcode": "560004",
        "addr:state": "Karnataka",
        "amenity": "hospital",
        "name": "Sri Shankara Cancer Hospital And Research Centre (A Service Unit Of Sscf)",
        "operator:type": "private",
        "phone": "080-26981000",
        "source": "OpenGovernmentData",
        "website": "http://shankaracancerfoundation.org/"
      }
    },
    {
      "type": "node",
      "id": 5848373887,
      "lat": 12.9651869,
      "lon": 77.5617183,
      "tags": {
        "name": "Metro Cash and Carry",
        "shop": "supermarket"
      }
    },
    {
      "type": "node",
      "id": 6882713298,
      "lat": 12.9616862,
      "lon": 77.5713676,
      "tags": {
        "addr:city": "Bengaluru",
        "addr:district": "BENGALURU URBAN",
        "addr:full": "No. 23 and 84, Sharoff Basappa Commercial Complex, 2nd Main, Ist Cross, New Tharugpet",
        "addr:postcode": "560002",
        "addr:state": "Karnataka",
        "amenity": "blood_bank",
        "contact:mobile": "9845801539",
        "contact:phone": "8025990583",
        "name": "Sri Vinayaka Charitable Trust Jeeva Voluntary Blood Bank",
        "opening_hours": "24/7",
        "operator:type": "ngo",
        "source": "OpenGovernmentData"
      }
    },
    {
      "type": "node",
      "id": 6937761221,
      "lat": 12.959352,
      "lon": 77.567929,
      "tags": {
        "addr:district": "Bengaluru Rural",
        "addr:full": "Near Hemavathi Kalyana Mantap, Mysore Road , Channarayapatna",
        "addr:postcode": "562135",
        "addr:state": "Karnataka",
        "amenity": "clinic",
        "name": "Kumar Nursing Home, Bengaluru Rural",
        "source": "OpenGovernmentData"
      }
    },
    {
      "type": "node",
      "id": 6938775845,
      "lat": 12.95727,
      "lon": 77.5640827,
      "tags": {
        "addr:district": "Bengaluru Urban",
        "addr:full": "# 122, 5th Main Road, Chamarajpet",
        "addr:postcode": "560018",
        "addr:state": "Karnataka",
        "amenity": "hospital",
        "email": "retinaKarnatakaa@gmail.com",
        "name": "Retina Institute Of Karnataka",
        "operator:type": "private",
        "source": "OpenGovernmentData",
        "website": "https://www.retinainstitute.org/"
      }
    },
    {
      "type": "node",
      "id": 6938775846,
      "lat": 12.9572978,
      "lon": 77.5644522,
      "tags": {
        "addr:district": "Bengaluru Urban",
        "addr:full": "123, 5Th Main Road, Chamarajpet",
        "addr:postcode": "560018",
        "addr:state": "Karnataka",
        "amenity": "hospital",
        "name": "The Venlakh Hospital",
        "source": "OpenGovernmentData"
      }
    },
    {
      "type": "node",
      "id": 6938775851,
      "lat": 12.9583613,
      "lon": 77.5713274,
      "tags": {
        "addr:district": "Bengaluru Urban",
        "addr:full": "248,4 Th Main Road Chamarajpet",
        "addr:postcode": "560018",
        "addr:state": "Karnataka",
        "amenity": "clinic",
        "name": "Jubilee Nursing Home",
        "source": "OpenGovernmentData"
      }
    },
    {
      "type": "node",
      "id": 6938988878,
      "lat": 12.9566544,
      "lon": 77.5635275,
      "tags": {
        "addr:district": "Bengaluru Urban",
        "addr:full": "No.9, 6Th Cross, 5Th Main, Chamarapet",
        "addr:postcode": "560018",
        "addr:state": "Karnataka",
        "amenity": "clinic",
        "name": "Amar Nursing Home",
        "source": "OpenGovernmentData"
      }
    },
    {
      "type": "node",
      "id": 6939319393,
      "lat": 12.9548208,
      "lon": 77.5672585,
      "tags": {
        "addr:district": "Bengaluru Urban",
        "addr:full": "127/1, Bull Temple Road",
        "addr:postcode": "560019",
        "addr:state": "Karnataka",
        "amenity": "hospital",
        "name": "Kalasa Maternity Home",
        "source": "OpenGovernmentData"
      }
    },
    {
      "type": "node",
      "id": 6944392364,
      "lat": 12.9632506,
      "lon": 77.5602901,
      "tags": {
        "addr:district": "Bengaluru Urban",
        "addr:full": "No. 40/1, J.J.R. Nagar Main Road, K.H. Ranganath Colony, Behind Sadarshini Hotel",
        "addr:postcode": "560018",
        "addr:state": "Karnataka",
        "amenity": "hospital",
        "healthcare": "hospital",
        "name": "Balaji Hospital, K.H. Ranganath Colony",
        "source": "OpenGovernmentData"
      }
    },
    {
      "type": "node",
      "id": 6944842472,
      "lat": 12.9610131,
      "lon": 77.5603162,
      "tags": {
        "addr:district": "Bengaluru Urban",
        "addr:full": "No 57 & 58 Sirsi Road Near Sirsi Circle Chamarajpet",
        "addr:postcode": "560018",
        "addr:state": "Karnataka",
        "amenity": "clinic",
        "healthcare": "clinic",
        "name": "Joshi Nursing Home",
        "source": "OpenGovernmentData"
      }
    },
    {
      "type": "node",
      "id": 6945001435,
      "lat": 12.9550181,
      "lon": 77.5683897,
      "tags": {
        "addr:district": "Bengaluru Urban",
        "addr:full": "No. 36, Vagdevi, Shankara Park, Opposite Jnanodaya School",
        "addr:postcode": "560004",
        "addr:state": "Karnataka",
        "amenity": "hospital",
        "healthcare": "hospital",
        "name": "Abhinava Eye Hospital",
        "source": "OpenGovernmentData"
      }
    },
    {
      "type": "node",
      "id": 7292337013,
      "lat": 12.9619946,
      "lon": 77.5604966,
      "tags": {
        "access": "permissive",
        "amenity": "parking",
        "parking": "surface"
      }
    },
    {
      "type": "node",
      "id": 7576958023,
      "lat": 12.953833,
      "lon": 77.565184,
      "tags": {
        "addr:district": "Bengaluru Urban",
        "addr:full": "Kempegowda Nagar, Bengaluru",
        "addr:state": "Karnataka",
        "amenity": "doctors",
        "name": "Dr. Madhuri",
        "source": "Local Knowledge"
      }
    },
    {
      "type": "node",
      "id": 7576958038,
      "lat": 12.9531087,
      "lon": 77.5646023,
      "tags": {
        "addr:district": "Bengaluru Urban",
        "addr:full": "KG Nagar Main Road, Kempegowda Nagar, Bengaluru",
        "addr:state": "Karnataka",
        "amenity": "clinic",
        "name": "Ashraya Clinic",
        "source": "Local Knowledge"
      }
    },
    {
      "type": "node",
      "id": 7576958041,
      "lat": 12.9580215,
      "lon": 77.5629353,
      "tags": {
        "addr:district": "Bengaluru Urban",
        "addr:full": "Chamrajpet, Bengaluru",
        "addr:state": "Karnataka",
        "amenity": "clinic",
        "name": "Advanced Gastro Care",
        "source": "Local Knowledge"
      }
    },
    {
      "type": "node",
      "id": 7576958043,
      "lat": 12.961345,
      "lon": 77.560893,
      "tags": {
        "addr:district": "Bengaluru Urban",
        "addr:full": "Mahaveer Arcade, Sirsi Road, Chamrajpet, Bengaluru",
        "addr:postcode": "560018",
        "addr:state": "Karnataka",
        "amenity": "hospital",
        "name": "Corporation Hospital",
        "source": "Local Knowledge"
      }
    },
    {
      "type": "node",
      "id": 7576958052,
      "lat": 12.9609494,
      "lon": 77.5613939,
      "tags": {
        "addr:district": "Bengaluru Urban",
        "addr:full": "Sirsi Road, Chamrajpet, Bengaluru",
        "addr:postcode": "560018",
        "addr:state": "Karnataka",
        "amenity": "hospital",
        "name": "Government Hospital",
        "name:kn": "ಚಾಮರಾಜಪೇಟೆ ಸರ್ಕಾರಿ ಆಸ್ಪತ್ರೆ",
        "source": "Local Knowledge"
      }
    },
    {
      "type": "node",
      "id": 7576958056,
      "lat": 12.9575488,
      "lon": 77.5594846,
      "tags": {
        "addr:district": "Bengaluru Urban",
        "addr:full": "Chamrajpet, Bengaluru",
        "addr:state": "Karnataka",
        "amenity": "doctors",
        "name": "Dr. M Kishore",
        "source": "Local Knowledge"
      }
    },
    {
      "type": "node",
      "id": 7576958061,
      "lat": 12.9587464,
      "lon": 77.5573456,
      "tags": {
        "addr:district": "Bengaluru Urban",
        "addr:full": "Ramachandra Agrahara, Azad Nagar, Bengaluru",
        "addr:postcode": "560026",
        "addr:state": "Karnataka",
        "amenity": "hospital",
        "name": "Government Hospital, Banglore",
        "source": "Local Knowledge"
      }
    },
    {
      "type": "node",
      "id": 7576958062,
      "lat": 12.960311,
      "lon": 77.568274,
      "tags": {
        "addr:district": "Bengaluru Urban",
        "addr:full": "Kamalanagar, Chamrajpet, Bengaluru",
        "addr:postcode": "560018",
        "addr:state": "Karnataka",
        "amenity": "hospital",
        "name": "Royan Maternity & Child Welfare Centre",
        "source": "Local Knowledge"
      }
    },
    {
      "type": "node",
      "id": 7576958070,
      "lat": 12.9569684,
      "lon": 77.5695045,
      "tags": {
        "addr:district": "Bengaluru Urban",
        "addr:full": "Shankar Mutt Road, Chikkanna Garden, Shankarapura, Bengaluru",
        "addr:postcode": "560004",
        "addr:state": "Karnataka",
        "amenity": "hospital",
        "name": "Mahaveer Ortho Care Speciality Centre",
        "source": "Local Knowledge"
      }
    },
    {
      "type": "node",
      "id": 7576958091,
      "lat": 12.957222,
      "lon": 77.566486,
      "tags": {
        "addr:district": "Bengaluru Urban",
        "addr:full": "Chamrajpet, Bengaluru",
        "addr:postcode": "560018",
        "addr:state": "Karnataka",
        "amenity": "hospital",
        "name": "Spandana Heart Centre",
        "source": "Local Knowledge"
      }
    },
    {
      "type": "node",
      "id": 7576958096,
      "lat": 12.960972,
      "lon": 77.5609696,
      "tags": {
        "addr:district": "Bengaluru Urban",
        "addr:full": "Chamrajpet, Bengaluru",
        "addr:postcode": "560018",
        "addr:state": "Karnataka",
        "amenity": "hospital",
        "name": "Herige Hospital",
        "source": "Local Knowledge"
      }
    },
    {
      "type": "node",
      "id": 7576958102,
      "lat": 12.9576956,
      "lon": 77.5663234,
      "tags": {
        "addr:district": "Bengaluru Urban",
        "addr:full": "Chamrajpet, Bengaluru",
        "addr:postcode": "560018",
        "addr:state": "Karnataka",
        "amenity": "clinic",
        "name": "Suhruda Clinic",
        "source": "Local Knowledge"
      }
    },
    {
      "type": "node",
      "id": 7576958104,
      "lat": 12.9516862,
      "lon": 77.5665921,
      "tags": {
        "addr:district": "Bengaluru Urban",
        "addr:full": "Kempegowda Nagar, Bengaluru",
        "addr:state": "Karnataka",
        "amenity": "clinic",
        "name": "Saraswathi Maternity Centre",
        "source": "Local Knowledge"
      }
    },
    {
      "type": "node",
      "id": 7576958107,
      "lat": 12.9585302,
      "lon": 77.5636336,
      "tags": {
        "addr:district": "Bengaluru Urban",
        "addr:full": "Chamrajpet, Bengaluru",
        "addr:postcode": "560018",
        "addr:state": "Karnataka",
        "amenity": "clinic",
        "name": "Chamarajpete Skin care clinic",
        "source": "Local Knowledge"
      }
    },
    {
      "type": "node",
      "id": 7576958113,
      "lat": 12.9554046,
      "lon": 77.5639228,
      "tags": {
        "addr:district": "Bengaluru Urban",
        "addr:full": "Chamrajpet, Bengaluru",
        "addr:state": "Karnataka",
        "amenity": "clinic",
        "name": "Tejas Clinic",
        "source": "Local Knowledge"
      }
    },
    {
      "type": "node",
      "id": 8457582817,
      "lat": 12.959775,
      "lon": 77.5674788,
      "tags": {
        "amenity": "clinic",
        "name": "Cuti Care"
      }
    },
    {
      "type": "node",
      "id": 9134314452,
      "lat": 12.9562454,
      "lon": 77.5695102,
      "tags": {
        "name": "Shri Hariprasad Automobiles",
        "shop": "car_repair"
      }
    },
    {
      "type": "node",
      "id": 11178076767,
      "lat": 12.9512861,
      "lon": 77.5653468,
      "tags": {
        "amenity": "prep_school",
        "check_date": "2023-09-09",
        "description": "Runs Abacus Classes",
        "name": "Vandhya Academy",
        "office": "educational_institution",
        "phone": "+91 63605 17839"
      }
    },
    {
      "type": "node",
      "id": 11178079804,
      "lat": 12.9540237,
      "lon": 77.5674382,
      "tags": {
        "check_date": "2023-09-09",
        "name": "Corporation Store",
        "payment:cards": "no",
        "payment:cash": "yes",
        "payment:credit_cards": "no",
        "payment:debit_cards": "no",
        "payment:upi": "yes",
        "shop": "convenience"
      }
    },
    {
      "type": "node",
      "id": 11178079806,
      "lat": 12.9570985,
      "lon": 77.5671766,
      "tags": {
        "addr:housenumber": "238",
        "addr:street": "5th Main Road",
        "amenity": "fixme",
        "check_date": "2023-09-09",
        "email": "kubera1impex@gmail.com",
        "fixme": "type",
        "fixme:type": "office",
        "name": "Kuber A1 Packaging Machinery Impex",
        "phone": "+91 98450 31967"
      }
    },
    {
      "type": "node",
      "id": 11178079807,
      "lat": 12.9570197,
      "lon": 77.5660532,
      "tags": {
        "addr:housenumber": "48",
        "addr:street": "Chamrajpet 5th Main Road",
        "amenity": "fixme",
        "check_date": "2023-09-09",
        "fixme": "type",
        "fixme:type": "godown",
        "name": "Sri Maruthi Enterprises Godown",
        "phone": "+91 98800 80219"
      }
    },
    {
      "type": "node",
      "id": 11178079808,
      "lat": 12.9570292,
      "lon": 77.566049,
      "tags": {
        "addr:housenumber": "48",
        "addr:street": "Chamrajpet 5th Main Road",
        "check_date": "2023-09-09",
        "leisure": "fitness_centre",
        "name": "Flame Fitness 24-7"
      }
    },
    {
      "type": "node",
      "id": 11178079809,
      "lat": 12.9570351,
      "lon": 77.566046,
      "tags": {
        "addr:housenumber": "48",
        "addr:street": "Chamrajpet 5th Main Road",
        "check_date": "2023-09-09",
        "name": "Nano Technology",
        "phone": "+91 86606 80577",
        "shop": "electronics"
      }
    },
    {
      "type": "node",
      "id": 11178079810,
      "lat": 12.957032,
      "lon": 77.5656384,
      "tags": {
        "addr:housenumber": "169",
        "addr:street": "Chamrajpet 5th Main Road",
        "check_date": "2023-09-09",
        "name": "Vijayalakshmi Tours & Travels",
        "phone": "+91 93421 42102",
        "shop": "travel_agency"
      }
    },
    {
      "type": "node",
      "id": 11178079811,
      "lat": 12.957032,
      "lon": 77.5656363,
      "tags": {
        "addr:housenumber": "51",
        "addr:street": "5th Main Road",
        "amenity": "community_centre",
        "check_date": "2023-09-09",
        "name": "Sri Srinivasa Kalyana Mantapa",
        "phone": "+91 80 2650 6002"
      }
    },
    {
      "type": "node",
      "id": 11178079812,
      "lat": 12.957032,
      "lon": 77.5656384,
      "tags": {
        "addr:housenumber": "51",
        "addr:street": "5th Main Road",
        "check_date": "2023-09-09",
        "name": "A1 Sunshine Blinds",
        "phone": "+91 99001 79813",
        "shop": "window_blind"
      }
    },
    {
      "type": "node",
      "id": 11178079813,
      "lat": 12.957032,
      "lon": 77.5656384,
      "tags": {
        "addr:housenumber": "177",
        "addr:street": "Chamrajpet 5th Main Road",
        "check_date": "2023-09-09",
        "description": "Dealer in Stationery, Xerox",
        "name": "Sri Kumara Stores",
        "phone": "+91 90607 06020",
        "shop": "stationery"
      }
    },
    {
      "type": "node",
      "id": 11178079815,
      "lat": 12.957032,
      "lon": 77.5656384,
      "tags": {
        "amenity": "place_of_worship",
        "check_date": "2023-09-09",
        "name": "Sriman Madhava Sangha",
        "religion": "hindu"
      }
    },
    {
      "type": "node",
      "id": 11178079816,
      "lat": 12.9570024,
      "lon": 77.5648634,
      "tags": {
        "addr:housenumber": "59",
        "addr:street": "Chamrajpet 5th Main Road",
        "amenity": "bank",
        "brand": "Axis Bank",
        "brand:wikidata": "Q2003549",
        "check_date": "2023-09-09",
        "name": "Axis Bank"
      }
    },
    {
      "type": "node",
      "id": 11178079817,
      "lat": 12.9569921,
      "lon": 77.5644924,
      "tags": {
        "amenity": "school",
        "check_date": "2023-09-09",
        "name": "Athena Public School"
      }
    },
    {
      "type": "node",
      "id": 11178079818,
      "lat": 12.9569798,
      "lon": 77.564357,
      "tags": {
        "amenity": "bank",
        "atm": "yes",
        "brand": "Kotak Mahindra Bank",
        "brand:wikidata": "Q2040404",
        "check_date": "2023-09-09",
        "name": "Kotak Mahindra Bank"
      }
    },
    {
      "type": "node",
      "id": 11178091264,
      "lat": 12.9586805,
      "lon": 77.5667244,
      "tags": {
        "check_date": "2023-09-09",
        "name": "Eswari Medical Specialities",
        "name:en": "Eswari Medical Specialities",
        "shop": "medical_supply"
      }
    },
    {
      "type": "node",
      "id": 11178091267,
      "lat": 12.9586336,
      "lon": 77.5665263,
      "tags": {
        "amenity": "place_of_worship",
        "check_date": "2023-09-09",
        "name": "Sri Vasavi Temple",
        "name:en": "Sri Vasavi Temple",
        "religion": "hindu"
      }
    },
    {
      "type": "node",
      "id": 11178091268,
      "lat": 12.9586402,
      "lon": 77.566479,
      "tags": {
        "check_date": "2023-09-09",
        "name": "Padmasri Digital Prints",
        "name:en": "Padmasri Digital Prints",
        "shop": "copyshop"
      }
    },
    {
      "type": "node",
      "id": 11178091273,
      "lat": 12.9577566,
      "lon": 77.5696795,
      "tags": {
        "check_date": "2023-09-09",
        "name": "Mithaiwala",
        "shop": "confectionery"
      }
    },
    {
      "type": "node",
      "id": 11178097118,
      "lat": 12.9513033,
      "lon": 77.5651998,
      "tags": {
        "check_date": "2023-09-09",
        "name": "Arun Ladies Wear House",
        "shop": "clothes"
      }
    },
    {
      "type": "node",
      "id": 11178097988,
      "lat": 12.9540074,
      "lon": 77.5673748,
      "tags": {
        "check_date": "2023-09-09",
        "name": "Arun Enterprises",
        "name:en": "Arun Enterprises",
        "shop": "convenience"
      }
    },
    {
      "type": "node",
      "id": 11178098070,
      "lat": 12.9573178,
      "lon": 77.5697265,
      "tags": {
        "amenity": "atm",
        "brand": "Bank of Baroda",
        "brand:wikidata": "Q2003797",
        "check_date": "2023-09-09",
        "operator": "Bank of Baroda",
        "operator:wikidata": "Q2003797"
      }
    },
    {
      "type": "node",
      "id": 11178098071,
      "lat": 12.9573514,
      "lon": 77.5697176,
      "tags": {
        "amenity": "dentist",
        "check_date": "2023-09-09",
        "healthcare": "dentist",
        "name": "DRN Dental Care"
      }
    },
    {
      "type": "node",
      "id": 11178098072,
      "lat": 12.9573821,
      "lon": 77.569714,
      "tags": {
        "check_date": "2023-09-09",
        "name": "Manjunatha Enterprises",
        "shop": "pet"
      }
    },
    {
      "type": "node",
      "id": 11178098073,
      "lat": 12.9574238,
      "lon": 77.569714,
      "tags": {
        "amenity": "bank",
        "check_date": "2023-09-09",
        "name": "Tumkur Veerashaiva Co-opperative Bank"
      }
    },
    {
      "type": "node",
      "id": 11178098074,
      "lat": 12.9576632,
      "lon": 77.5696706,
      "tags": {
        "check_date": "2023-09-09",
        "name": "J. S. Plqntain Leaf Merchants",
        "shop": "wholesale"
      }
    },
    {
      "type": "node",
      "id": 11178098075,
      "lat": 12.9578199,
      "lon": 77.5696771,
      "tags": {
        "check_date": "2023-09-09",
        "name": "Pavan Kumar",
        "shop": "travel_agency"
      }
    },
    {
      "type": "node",
      "id": 11178098076,
      "lat": 12.9578605,
      "lon": 77.5696757,
      "tags": {
        "amenity": "post_office",
        "check_date": "2023-09-09",
        "name": "SR&KT"
      }
    },
    {
      "type": "node",
      "id": 11178098077,
      "lat": 12.9578857,
      "lon": 77.5694792,
      "tags": {
        "check_date": "2023-09-09",
        "name": "GG Apparels",
        "shop": "clothes"
      }
    },
    {
      "type": "node",
      "id": 11178098078,
      "lat": 12.9578846,
      "lon": 77.5694661,
      "tags": {
        "amenity": "restaurant",
        "check_date": "2023-09-09",
        "name": "Sri Ranganatha Military Hotel"
      }
    },
    {
      "type": "node",
      "id": 11178098249,
      "lat": 12.9569748,
      "lon": 77.5689944,
      "tags": {
        "amenity": "bank",
        "atm": "yes",
        "branch": "Shanakarapuram",
        "brand": "State Bank of India",
        "brand:wikidata": "Q1340361",
        "check_date": "2023-09-09",
        "drive_through": "no",
        "full_name": "SBI Shanakarapuram Branch",
        "name": "State Bank of India",
        "operator": "State Bank of India",
        "short_name": "SBI"
      }
    },
    {
      "type": "node",
      "id": 11178098253,
      "lat": 12.9523331,
      "lon": 77.5678264,
      "tags": {
        "amenity": "kindergarten",
        "check_date": "2023-09-09",
        "description": "A raw yel pre-school for life",
        "internet_access": "no",
        "name": "Child's Kingdom",
        "name:en": "Child's Kingdom",
        "wheelchair": "yes"
      }
    },
    {
      "type": "node",
      "id": 11178099498,
      "lat": 12.9586066,
      "lon": 77.564198,
      "tags": {
        "check_date": "2023-09-09",
        "name": "MB Stores",
        "name:en": "MB Stores",
        "phone": "+91 88617 77729",
        "shop": "convenience"
      }
    },
    {
      "type": "node",
      "id": 11178103762,
      "lat": 12.9511489,
      "lon": 77.5652571,
      "tags": {
        "amenity": "fast_food",
        "check_date": "2023-09-09",
        "cuisine": "indian",
        "name": "Tiffin Services"
      }
    },
    {
      "type": "node",
      "id": 11178103830,
      "lat": 12.9586069,
      "lon": 77.5654343,
      "tags": {
        "amenity": "atm",
        "brand": "State Bank of India",
        "brand:wikidata": "Q1340361",
        "check_date": "2023-09-09",
        "operator": "State Bank of India",
        "operator:wikidata": "Q1340361",
        "short_name": "SBI"
      }
    },
    {
      "type": "node",
      "id": 11178105552,
      "lat": 12.9512128,
      "lon": 77.565545,
      "tags": {
        "check_date": "2023-09-09",
        "description": "Hair salon",
        "name": "Mayura Men's Saloon",
        "shop": "beauty",
        "wheelchair": "no"
      }
    },
    {
      "type": "node",
      "id": 11178107442,
      "lat": 12.9506784,
      "lon": 77.5673607,
      "tags": {
        "amenity": "bench",
        "backrest": "yes",
        "colour": "green",
        "seats": "4"
      }
    },
    {
      "type": "node",
      "id": 11178107443,
      "lat": 12.9513399,
      "lon": 77.564975,
      "tags": {
        "check_date": "2023-09-09",
        "name": "Nyaya Bele Angadi BLS-55",
        "opening_hours": "Mo,We-Su 07:00-12:00,17:00-21:00",
        "operator": "government",
        "operator:type": "public",
        "shop": "convenience"
      }
    },
    {
      "type": "node",
      "id": 11178116151,
      "lat": 12.9535429,
      "lon": 77.5701028,
      "tags": {
        "amenity": "library",
        "check_date": "2023-09-09",
        "name": "Autism Resource Library and Training Centre"
      }
    },
    {
      "type": "node",
      "id": 11178120464,
      "lat": 12.9571522,
      "lon": 77.5713645,
      "tags": {
        "check_date": "2023-09-09",
        "clothes": "women",
        "name": "Instring The Lifestyle Studio",
        "operator": "MFV",
        "shop": "clothes",
        "wheelchair": "no"
      }
    },
    {
      "type": "node",
      "id": 11178120465,
      "lat": 12.957158,
      "lon": 77.5714299,
      "tags": {
        "check_date": "2023-09-09",
        "description": "Specialist in Home Theatre Auditorium, Multiplex and Industrial Acoustics",
        "level": "0",
        "name": "Nishabd Solutions",
        "shop": "interior_decoration",
        "source": "survey"
      }
    },
    {
      "type": "node",
      "id": 11178120466,
      "lat": 12.9571561,
      "lon": 77.5715914,
      "tags": {
        "check_date": "2023-09-09",
        "clothes": "women",
        "level": "0",
        "name": "H.007 Ladies Wear",
        "shop": "clothes"
      }
    },
    {
      "type": "node",
      "id": 11178120771,
      "lat": 12.953865,
      "lon": 77.5686754,
      "tags": {
        "check_date": "2023-09-09",
        "name": "SLN Enterprises",
        "shop": "beverages"
      }
    },
    {
      "type": "node",
      "id": 11178120773,
      "lat": 12.9536706,
      "lon": 77.5687703,
      "tags": {
        "check_date": "2023-09-09",
        "description": "Only butter/ghee/paneer/oil",
        "name": "PVKR & CO",
        "shop": "convenience",
        "website": "https://pvkrdairy.com"
      }
    },
    {
      "type": "node",
      "id": 11178123506,
      "lat": 12.9541209,
      "lon": 77.5686792,
      "tags": {
        "amenity": "library",
        "check_date": "2023-09-09",
        "name": "Shankara Rotary Children's Library"
      }
    },
    {
      "type": "node",
      "id": 11178123507,
      "lat": 12.9546145,
      "lon": 77.5686391,
      "tags": {
        "addr:housenumber": "48",
        "addr:street": "Ranga Rao Road",
        "check_date": "2023-09-09",
        "name": "Vividha Interior Products Pvt Ltd",
        "shop": "interior_decoration"
      }
    },
    {
      "type": "node",
      "id": 11178123511,
      "lat": 12.9572772,
      "lon": 77.5686741,
      "tags": {
        "addr:housenumber": "147",
        "addr:street": "5th Main Road",
        "check_date": "2023-09-09",
        "name": "Sree Dorai Enterprises",
        "phone": "+91 96113 24463",
        "shop": "party"
      }
    },
    {
      "type": "node",
      "id": 11178123512,
      "lat": 12.9576037,
      "lon": 77.568449,
      "tags": {
        "addr:housenumber": "13",
        "addr:street": "2nd Cross, 4th Main",
        "check_date": "2023-09-09",
        "email": "lakshmihardwares99@gmail.com",
        "name": "Lakshmi Hardware",
        "phone": "+91 80 2661 2937",
        "shop": "hardware"
      }
    },
    {
      "type": "node",
      "id": 11178123514,
      "lat": 12.9577327,
      "lon": 77.568567,
      "tags": {
        "addr:housenumber": "21/1",
        "addr:street": "SV Narayanaswamy Rao Marg",
        "check_date": "2023-09-09",
        "name": "Sun Prints",
        "phone": "+91 94480 67224",
        "shop": "copyshop"
      }
    },
    {
      "type": "node",
      "id": 11178123516,
      "lat": 12.9577676,
      "lon": 77.5685625,
      "tags": {
        "addr:housenumber": "21/1",
        "addr:street": "SV Narayanaswamy Rao Marg",
        "check_date": "2023-09-09",
        "name": "Gowtham Plantain Leaf",
        "phone": "+91 99027 46055",
        "shop": "party"
      }
    },
    {
      "type": "node",
      "id": 11178123519,
      "lat": 12.9576825,
      "lon": 77.5684466,
      "tags": {
        "amenity": "charging_station",
        "brand": "Ather",
        "operator": "Ather"
      }
    },
    {
      "type": "node",
      "id": 11178123520,
      "lat": 12.9578645,
      "lon": 77.5684456,
      "tags": {
        "check_date": "2023-09-09",
        "name": "Future Digital Color Press",
        "shop": "copyshop"
      }
    },
    {
      "type": "node",
      "id": 11178123521,
      "lat": 12.9581135,
      "lon": 77.5684411,
      "tags": {
        "amenity": "cafe",
        "check_date": "2023-09-09",
        "cuisine": "coffee_shop",
        "name": "2 Half Coffee"
      }
    },
    {
      "type": "node",
      "id": 11178123522,
      "lat": 12.9581396,
      "lon": 77.5684399,
      "tags": {
        "check_date": "2023-09-09",
        "name": "Deluxe Hair Salon",
        "phone": "+91 99646 05563",
        "shop": "hairdresser"
      }
    },
    {
      "type": "node",
      "id": 11178123523,
      "lat": 12.958132,
      "lon": 77.5685497,
      "tags": {
        "addr:housenumber": "235",
        "addr:street": "2nd Cross, 4th Main",
        "check_date": "2023-09-09",
        "name": "Sree Ram Electricals",
        "phone": "+91 99005 95936",
        "shop": "electrical"
      }
    },
    {
      "type": "node",
      "id": 11178123524,
      "lat": 12.958223,
      "lon": 77.5684377,
      "tags": {
        "amenity": "bank",
        "check_date": "2023-09-09",
        "name": "The Hotel Industrialist's Co-Op Bank Ltd",
        "opening_hours": "Mo-Sa 10:00-18:00"
      }
    },
    {
      "type": "node",
      "id": 11178123525,
      "lat": 12.9582214,
      "lon": 77.5685411,
      "tags": {
        "addr:housenumber": "235",
        "addr:street": "2nd Cross, 4th Main",
        "check_date": "2023-09-09",
        "name": "Nisha Sweets",
        "phone": "+91 90084 08566",
        "shop": "confectionery"
      }
    },
    {
      "type": "node",
      "id": 11178123527,
      "lat": 12.9589489,
      "lon": 77.5683821,
      "tags": {
        "addr:housenumber": "251",
        "addr:street": "2nd Cross, 3rd Main",
        "amenity": "restaurant",
        "check_date": "2023-09-09",
        "name": "Vasu Donne Biryani"
      }
    },
    {
      "type": "node",
      "id": 11178123528,
      "lat": 12.9589736,
      "lon": 77.5683791,
      "tags": {
        "addr:housenumber": "251",
        "addr:street": "2nd Cross, 3rd Main",
        "addr:unit": "3",
        "check_date": "2023-09-09",
        "name": "Life Style Men's Salon",
        "shop": "hairdresser"
      }
    },
    {
      "type": "node",
      "id": 11178123530,
      "lat": 12.9590291,
      "lon": 77.5683861,
      "tags": {
        "check_date": "2023-09-09",
        "name": "Choice Traders",
        "shop": "trade"
      }
    },
    {
      "type": "node",
      "id": 11178123531,
      "lat": 12.95908,
      "lon": 77.5683855,
      "tags": {
        "check_date": "2023-09-09",
        "name": "Sri Guru Raghavendra Juice & Condiments",
        "shop": "convenience"
      }
    },
    {
      "type": "node",
      "id": 11178123532,
      "lat": 12.9591557,
      "lon": 77.5683851,
      "tags": {
        "addr:housenumber": "246",
        "addr:street": "2nd Cross",
        "check_date": "2023-09-09",
        "name": "Suresh Enterprises",
        "shop": "party"
      }
    },
    {
      "type": "node",
      "id": 11178123533,
      "lat": 12.9591192,
      "lon": 77.5683872,
      "tags": {
        "addr:housenumber": "246",
        "addr:street": "2nd Cross",
        "check_date": "2023-09-09",
        "name": "Shree Veerabhadreshwara Tenginakaayi Angadi",
        "phone": "+91 98450 67445",
        "shop": "greengrocer"
      }
    },
    {
      "type": "node",
      "id": 11178123534,
      "lat": 12.9593018,
      "lon": 77.5683815,
      "tags": {
        "addr:housenumber": "167",
        "addr:street": "2nd Cross",
        "check_date": "2023-09-09",
        "description": "Food flavours and colors, perfumery compounds and aroma oils",
        "fixme:type": "Food Flavour Shop",
        "name": "Benson Co Flavours & Fragrances",
        "shop": "perfumery"
      }
    },
    {
      "type": "node",
      "id": 11178123920,
      "lat": 12.9516968,
      "lon": 77.5673971,
      "tags": {
        "amenity": "atm",
        "check_date": "2023-09-09"
      }
    },
    {
      "type": "node",
      "id": 11178123922,
      "lat": 12.9541489,
      "lon": 77.5696658,
      "tags": {
        "check_date": "2023-09-09",
        "name": "HOPCOMS",
        "shop": "greengrocer"
      }
    },
    {
      "type": "node",
      "id": 11178123923,
      "lat": 12.9541937,
      "lon": 77.5696628,
      "tags": {
        "check_date": "2023-09-09",
        "name": "Nandini",
        "shop": "dairy"
      }
    },
    {
      "type": "node",
      "id": 11178123930,
      "lat": 12.9568006,
      "lon": 77.5697604,
      "tags": {
        "amenity": "clinic",
        "check_date": "2023-09-09",
        "healthcare": "clinic",
        "name": "Shankarapuram Diagnostic Centre"
      }
    },
    {
      "type": "node",
      "id": 11178123931,
      "lat": 12.9569356,
      "lon": 77.5697116,
      "tags": {
        "check_date": "2023-09-09",
        "name": "Satya Tyres",
        "shop": "tyres"
      }
    },
    {
      "type": "node",
      "id": 11178123932,
      "lat": 12.9569746,
      "lon": 77.5697157,
      "tags": {
        "check_date": "2023-09-09",
        "name": "Aishwarya Opticals",
        "shop": "optician"
      }
    },
    {
      "type": "node",
      "id": 11178123933,
      "lat": 12.9570155,
      "lon": 77.5697127,
      "tags": {
        "check_date": "2023-09-09",
        "name": "Iyengar's Bakery",
        "name:kn": "ಐಯ್ಯಂಗಾರ್ ಬೇಕರಿ",
        "shop": "bakery"
      }
    },
    {
      "type": "node",
      "id": 11178123934,
      "lat": 12.957054,
      "lon": 77.569713,
      "tags": {
        "check_date": "2023-09-09",
        "name": "Shiva Tulsi Medicals",
        "shop": "medical_supply"
      }
    },
    {
      "type": "node",
      "id": 11178123935,
      "lat": 12.9555133,
      "lon": 77.5695095,
      "tags": {
        "amenity": "bank",
        "check_date": "2023-09-09",
        "name": "Sir M Vishweshwaraya Co Operative Bank",
        "wheelchair": "no"
      }
    },
    {
      "type": "node",
      "id": 11178124710,
      "lat": 12.9587271,
      "lon": 77.5669671,
      "tags": {
        "check_date": "2023-09-09",
        "name": "Royal Collections",
        "name:en": "Royal Collections",
        "shop": "fashion_accessories"
      }
    },
    {
      "type": "node",
      "id": 11178124711,
      "lat": 12.958669,
      "lon": 77.5669587,
      "tags": {
        "check_date": "2023-09-09",
        "email": "ashokkataria457@gmail.com",
        "name": "Hiren Electric Corporation",
        "name:en": "Hiren Electric Corporation",
        "phone": "+91 98440 23866",
        "shop": "electrical"
      }
    },
    {
      "type": "node",
      "id": 11178124713,
      "lat": 12.9586694,
      "lon": 77.566875,
      "tags": {
        "check_date": "2023-09-09",
        "name": "Skanda Condiments",
        "name:en": "Skanda Condiments",
        "shop": "convenience"
      }
    },
    {
      "type": "node",
      "id": 11178124991,
      "lat": 12.9511825,
      "lon": 77.5650588,
      "tags": {
        "check_date": "2023-09-09",
        "name": "Ambemaa Enterprises",
        "name:en": "Ambemaa Enterprises",
        "phone": "+91 99167 32626",
        "shop": "hardware"
      }
    },
    {
      "type": "node",
      "id": 11178125277,
      "lat": 12.9570218,
      "lon": 77.5659981,
      "tags": {
        "amenity": "post_box",
        "collection_times": "15:45"
      }
    },
    {
      "type": "node",
      "id": 11178125303,
      "lat": 12.9533506,
      "lon": 77.5700275,
      "tags": {
        "amenity": "college",
        "check_date": "2023-09-09",
        "name": "South India Banks Staff Training College"
      }
    },
    {
      "type": "node",
      "id": 11178125304,
      "lat": 12.9535319,
      "lon": 77.5700449,
      "tags": {
        "amenity": "library",
        "check_date": "2023-09-09",
        "name": "Autism Resource Library and Training Centre",
        "phone": "08026670001"
      }
    },
    {
      "type": "node",
      "id": 11178129283,
      "lat": 12.9520229,
      "lon": 77.5677542,
      "tags": {
        "check_date": "2023-09-09",
        "description": "The complete shop for new born upto 14 years old kids and moms",
        "name": "The Kids Window",
        "name:en": "The Kids Window",
        "shop": "toys",
        "wheelchair": "no"
      }
    },
    {
      "type": "node",
      "id": 11178137595,
      "lat": 12.9572923,
      "lon": 77.569517,
      "tags": {
        "check_date": "2023-09-09",
        "name": "Sri Raghavendra Coffee Center",
        "shop": "coffee"
      }
    },
    {
      "type": "node",
      "id": 11178139427,
      "lat": 12.9586036,
      "lon": 77.5649173,
      "tags": {
        "check_date": "2023-09-09",
        "description": "Everest spices wholesaler",
        "name": "Kalomax",
        "name:en": "Kalomax",
        "shop": "spices"
      }
    },
    {
      "type": "node",
      "id": 11178139576,
      "lat": 12.9527119,
      "lon": 77.5695634,
      "tags": {
        "amenity": "dentist",
        "check_date": "2023-09-09",
        "healthcare": "dentist",
        "name": "Dr. Trivikran's All smiles",
        "opening_hours": "Mo-Sa 09:30-13:30,16:00-19:30"
      }
    },
    {
      "type": "node",
      "id": 11178139577,
      "lat": 12.9525434,
      "lon": 77.569727,
      "tags": {
        "amenity": "clinic",
        "check_date": "2023-09-09",
        "email": "rayarakirana@gmail.com",
        "healthcare": "physiotherapist",
        "name": "Rayara Kirana",
        "opening_hours": "08:30-20:30,12:30-16:30",
        "phone": "+91 99727 77111",
        "website": "https://rayarakirana.com",
        "wheelchair": "no"
      }
    },
    {
      "type": "node",
      "id": 11178139737,
      "lat": 12.9570211,
      "lon": 77.5694976,
      "tags": {
        "amenity": "dentist",
        "check_date": "2023-09-09",
        "healthcare": "dentist",
        "name": "Balaji Dental Clinic"
      }
    },
    {
      "type": "node",
      "id": 11178139738,
      "lat": 12.9569823,
      "lon": 77.5694494,
      "tags": {
        "check_date": "2023-09-09",
        "name": "Perimeter",
        "shop": "hairdresser"
      }
    },
    {
      "type": "node",
      "id": 11178140427,
      "lat": 12.9603952,
      "lon": 77.5691466,
      "tags": {
        "amenity": "restaurant",
        "check_date": "2023-09-09",
        "name": "Bharathi Refreshments"
      }
    },
    {
      "type": "node",
      "id": 11178141510,
      "lat": 12.9586063,
      "lon": 77.5652163,
      "tags": {
        "check_date": "2023-09-09",
        "name": "Srinivas Opticals",
        "name:en": "Srinivas Opticals",
        "phone": "+91 98867 31546",
        "shop": "optician"
      }
    },
    {
      "type": "node",
      "id": 11178141746,
      "lat": 12.9586066,
      "lon": 77.5649345,
      "tags": {
        "check_date": "2023-09-09",
        "name": "Abhinaya Tailors",
        "name:en": "Abhinaya Tailors",
        "phone": "+91 98804 15969",
        "shop": "tailor"
      }
    },
    {
      "type": "node",
      "id": 11178141747,
      "lat": 12.9586011,
      "lon": 77.5649231,
      "tags": {
        "check_date": "2023-09-09",
        "name": "R.M.J Wedding Rental",
        "name:en": "R.M.J Wedding Rental",
        "phone": "+91 70227 15561; +91 79758 15561",
        "shop": "clothes"
      }
    },
    {
      "type": "node",
      "id": 11178141748,
      "lat": 12.958602,
      "lon": 77.5649145,
      "tags": {
        "check_date": "2023-09-09",
        "name": "Datta Men's Fashion",
        "name:en": "Datta Men's Fashion",
        "shop": "clothes"
      }
    },
    {
      "type": "node",
      "id": 11178142855,
      "lat": 12.9586705,
      "lon": 77.5657888,
      "tags": {
        "check_date": "2023-09-09",
        "name": "Sumangali Jewels Paragon",
        "name:en": "Sumangali Jewels Paragon",
        "shop": "jewelry"
      }
    },
    {
      "type": "node",
      "id": 11178143120,
      "lat": 12.9586012,
      "lon": 77.5644126,
      "tags": {
        "amenity": "place_of_worship",
        "check_date": "2023-09-09",
        "name": "Sri Kashi Vishveshwara Swamy Davastana",
        "name:en": "Sri Kashi Vishveshwara Swamy Temple",
        "religion": "hindu"
      }
    },
    {
      "type": "node",
      "id": 11178144185,
      "lat": 12.9571645,
      "lon": 77.5717017,
      "tags": {
        "check_date": "2023-09-09",
        "description": "Smart home",
        "name": "Grazyna",
        "shop": "electronics"
      }
    },
    {
      "type": "node",
      "id": 11178144186,
      "lat": 12.9571579,
      "lon": 77.5718768,
      "tags": {
        "addr:housenumber": "38/1",
        "addr:street": "Pampa Mahakavi Road",
        "addr:unit": "3",
        "amenity": "pharmacy",
        "check_date": "2023-09-09",
        "dispensing": "yes",
        "drive_through": "no",
        "healthcare": "pharmacy",
        "name": "Sri Lakshminarasimha Drug Centre"
      }
    },
    {
      "type": "node",
      "id": 11178144187,
      "lat": 12.9571636,
      "lon": 77.5719094,
      "tags": {
        "check_date": "2023-09-09",
        "level": "0",
        "name": "Shree Angala Parameshwari",
        "shop": "tyres"
      }
    },
    {
      "type": "node",
      "id": 11178144188,
      "lat": 12.9571591,
      "lon": 77.571976,
      "tags": {
        "amenity": "fast_food",
        "check_date": "2023-09-09",
        "cuisine": "regional",
        "diet:vegetarian": "yes",
        "drive_through": "no",
        "level": "0",
        "name": "Sri Sai Vasavi Tiffin Centre",
        "opening_hours": "Mo-Sa 06:00-21:30; Su off"
      }
    },
    {
      "type": "node",
      "id": 11178144316,
      "lat": 12.9510711,
      "lon": 77.5654133,
      "tags": {
        "check_date": "2023-09-09",
        "internet_access": "no",
        "name": "Rainbow Electricals and Engineers",
        "phone": "+91 98450 71783",
        "shop": "electrical",
        "wheelchair": "no"
      }
    },
    {
      "type": "node",
      "id": 11178144317,
      "lat": 12.9511675,
      "lon": 77.5650797,
      "tags": {
        "check_date": "2023-09-09",
        "name": "Bhartiya Jan Aushadhi Kendra",
        "shop": "chemist",
        "wheelchair": "yes"
      }
    },
    {
      "type": "node",
      "id": 11178144784,
      "lat": 12.9602144,
      "lon": 77.568269,
      "tags": {
        "check_date": "2023-09-09",
        "name": "Nandini",
        "shop": "dairy"
      }
    },
    {
      "type": "node",
      "id": 11178144786,
      "lat": 12.9596067,
      "lon": 77.5682933,
      "tags": {
        "amenity": "post_office",
        "check_date": "2023-09-09",
        "name": "Trackon"
      }
    },
    {
      "type": "node",
      "id": 11178146173,
      "lat": 12.9586051,
      "lon": 77.5653986,
      "tags": {
        "check_date": "2023-09-09",
        "level": "0",
        "name": "My Atelier",
        "name:en": "My Atelier",
        "phone": "+91 98453 11902",
        "shop": "boutique"
      }
    },
    {
      "type": "node",
      "id": 11178146174,
      "lat": 12.9585988,
      "lon": 77.5653861,
      "tags": {
        "check_date": "2023-09-09",
        "name": "Babu Scooter Service",
        "name:en": "Babu Scooter Service",
        "phone": "+91 94480 58846",
        "shop": "motorcycle_repair"
      }
    },
    {
      "type": "node",
      "id": 11178146175,
      "lat": 12.9510913,
      "lon": 77.5677782,
      "tags": {
        "amenity": "bank",
        "atm": "yes",
        "brand": "IDFC First Bank",
        "brand:wikidata": "Q22031467",
        "check_date": "2023-09-09",
        "description": "Basavanagudi Branch",
        "name": "IDFC First Bank",
        "name:en": "IDFC First Bank",
        "wheelchair": "yes"
      }
    },
    {
      "type": "node",
      "id": 11178147825,
      "lat": 12.9569978,
      "lon": 77.5636814,
      "tags": {
        "addr:housenumber": "64",
        "addr:street": "Chamrajpet 5th Main Road",
        "amenity": "dentist",
        "check_date": "2023-09-09",
        "healthcare": "dentist",
        "name": "Sri Vaari Dental Clinic"
      }
    },
    {
      "type": "node",
      "id": 11178147827,
      "lat": 12.9569814,
      "lon": 77.5636441,
      "tags": {
        "addr:housenumber": "66",
        "addr:street": "Chamrajpet 5th Main Road",
        "amenity": "dentist",
        "check_date": "2023-09-09",
        "healthcare": "dentist",
        "name": "Sri Bhagavan Mahaveer Jain Dental Care",
        "phone": "+91 78920 49865"
      }
    },
    {
      "type": "node",
      "id": 11178147828,
      "lat": 12.9569802,
      "lon": 77.5636474,
      "tags": {
        "addr:housenumber": "66",
        "addr:street": "Chamrajpet 5th Main Road",
        "amenity": "bank",
        "check_date": "2023-09-09",
        "name": "Daivajna Credit Cooperative Society"
      }
    },
    {
      "type": "node",
      "id": 11178147829,
      "lat": 12.9571072,
      "lon": 77.5636036,
      "tags": {
        "check_date": "2023-09-09",
        "name": "FabricSpa",
        "phone": "+91 95353 34304",
        "shop": "laundry"
      }
    },
    {
      "type": "node",
      "id": 11178147830,
      "lat": 12.9570772,
      "lon": 77.5636008,
      "tags": {
        "check_date": "2023-09-09",
        "name": "J K Xerox",
        "shop": "copyshop"
      }
    },
    {
      "type": "node",
      "id": 11178147831,
      "lat": 12.957102,
      "lon": 77.5636922,
      "tags": {
        "addr:housenumber": "118/1",
        "addr:street": "Chamrajpet 5th Main Road",
        "check_date": "2023-09-09",
        "name": "Vineet Plywood",
        "shop": "hardware"
      }
    },
    {
      "type": "node",
      "id": 11178150968,
      "lat": 12.9570283,
      "lon": 77.5694518,
      "tags": {
        "amenity": "clinic",
        "check_date": "2023-09-09",
        "healthcare": "clinic",
        "name": "ProDerma Skin Clinic",
        "operator:type": "private"
      }
    },
    {
      "type": "node",
      "id": 11178150969,
      "lat": 12.9570859,
      "lon": 77.5701608,
      "tags": {
        "amenity": "clinic",
        "check_date": "2023-09-09",
        "healthcare": "clinic",
        "healthcare:speciality": "ayurveda",
        "name": "Pandit Clinic (Ayurveda and Panchkarma Center)",
        "operator:type": "private"
      }
    },
    {
      "type": "node",
      "id": 11178150970,
      "lat": 12.9570712,
      "lon": 77.5703413,
      "tags": {
        "amenity": "restaurant",
        "check_date": "2024-03-16",
        "cuisine": "regional",
        "diet:vegetarian": "yes",
        "name": "Udipi Aatithya",
        "outdoor_seating": "no",
        "payment:cash": "yes",
        "payment:credit_cards": "yes",
        "payment:debit_cards": "yes",
        "smoking": "no",
        "source": "survey",
        "takeaway": "yes",
        "toilets": "yes"
      }
    },
    {
      "type": "node",
      "id": 11178150971,
      "lat": 12.9571059,
      "lon": 77.5705359,
      "tags": {
        "amenity": "bank",
        "atm": "no",
        "branch": "Chamrajpet",
        "brand": "Karnataka Bank",
        "brand:wikidata": "Q2042632",
        "check_date": "2023-09-09",
        "drive_through": "no",
        "name": "Karnataka Bank",
        "name:kn": "ಕರ್ನಾಟಕ ಬ್ಯಾಂಕ್",
        "opening_hours": "Mo-Sa 10:00-14:00,14:30-16:00; Sa[2,4] off",
        "operator": "Karnataka Bank"
      }
    },
    {
      "type": "node",
      "id": 11178150972,
      "lat": 12.9571399,
      "lon": 77.5707603,
      "tags": {
        "amenity": "childcare",
        "check_date": "2023-09-09",
        "name": "Celebrate Health",
        "operator:type": "private",
        "shop": "chemist",
        "wheelchair": "no"
      }
    },
    {
      "type": "node",
      "id": 11178154957,
      "lat": 12.9522093,
      "lon": 77.5677528,
      "tags": {
        "check_date": "2023-09-09",
        "description": "The sound specialist",
        "name": "Rajdeep Electronics",
        "name:en": "Rajdeep Electronics",
        "payment:mastercard": "yes",
        "payment:visa": "yes",
        "shop": "electronics"
      }
    },
    {
      "type": "node",
      "id": 11178156321,
      "lat": 12.9509619,
      "lon": 77.5674465,
      "tags": {
        "check_date": "2023-09-09",
        "internet_access": "wlan",
        "internet_access:fee": "customers",
        "name": "Anurag Motors",
        "opening_hours": "Mo-Sa 08:30-20:00",
        "payment:mastercard": "yes",
        "payment:visa": "yes",
        "shop": "motorcycle"
      }
    },
    {
      "type": "node",
      "id": 11178159732,
      "lat": 12.957053,
      "lon": 77.56383,
      "tags": {
        "amenity": "bank",
        "atm": "yes",
        "brand": "State Bank of India",
        "brand:wikidata": "Q1340361",
        "check_date": "2023-09-09",
        "name": "State Bank of India",
        "operator": "State Bank of India",
        "short_name": "SBI"
      }
    },
    {
      "type": "node",
      "id": 11178159733,
      "lat": 12.9571016,
      "lon": 77.5639451,
      "tags": {
        "addr:housenumber": "120/121",
        "addr:street": "Chamrajpet 5th Main Road",
        "check_date": "2023-09-09",
        "description": "Invitation cards store",
        "name": "King of Cards",
        "phone": "+91 63637 26201",
        "shop": "party"
      }
    },
    {
      "type": "node",
      "id": 11178159734,
      "lat": 12.9571046,
      "lon": 77.5640563,
      "tags": {
        "check_date": "2023-09-09",
        "name": "Aroma Lifestyle Fragrances",
        "shop": "perfumery"
      }
    },
    {
      "type": "node",
      "id": 11178159735,
      "lat": 12.9571025,
      "lon": 77.5640477,
      "tags": {
        "addr:housenumber": "121/1",
        "addr:street": "Chamrajpet 5th Main Road",
        "check_date": "2023-09-09",
        "name": "Yes Electronics",
        "shop": "electronics"
      }
    },
    {
      "type": "node",
      "id": 11178159873,
      "lat": 12.9535152,
      "lon": 77.5689213,
      "tags": {
        "check_date": "2023-09-09",
        "name": "PVK & CO",
        "opening_hours": "Mo-Sa 10:00-20:00; Su 10:00-01:00",
        "shop": "dairy"
      }
    },
    {
      "type": "node",
      "id": 11178164350,
      "lat": 12.9585978,
      "lon": 77.5646841,
      "tags": {
        "check_date": "2023-09-09",
        "name": "Girish Enterprises",
        "name:en": "Girish Enterprises",
        "shop": "stationery"
      }
    },
    {
      "type": "node",
      "id": 11178164351,
      "lat": 12.9585986,
      "lon": 77.564657,
      "tags": {
        "check_date": "2023-09-09",
        "clothes": "underwear",
        "name": "Milap NX",
        "name:en": "Milap NX",
        "phone": "+91 90369 60713",
        "shop": "clothes"
      }
    },
    {
      "type": "node",
      "id": 11178172460,
      "lat": 12.9586044,
      "lon": 77.5641861,
      "tags": {
        "check_date": "2023-09-09",
        "level": "0",
        "name": "Meghana Motors & Pumps",
        "name:en": "Meghana Motors & Pumps",
        "phone": "+91 93412 13815",
        "shop": "hardware"
      }
    },
    {
      "type": "node",
      "id": 11178176260,
      "lat": 12.9525075,
      "lon": 77.5673681,
      "tags": {
        "amenity": "events_venue",
        "check_date": "2023-09-09",
        "name": "Sai Shubh Convention Center",
        "name:en": "Sai Shubh Convention Center",
        "wheelchair": "yes"
      }
    },
    {
      "type": "node",
      "id": 11178179805,
      "lat": 12.9523691,
      "lon": 77.5697301,
      "tags": {
        "check_date": "2023-09-09",
        "name": "Mangalaa Seeds",
        "shop": "agrarian"
      }
    },
    {
      "type": "node",
      "id": 11178186947,
      "lat": 12.9587492,
      "lon": 77.564095,
      "tags": {
        "amenity": "place_of_worship",
        "check_date": "2023-09-09",
        "name": "Sri Mahaveer Swamy Jain Shwethamber Mandir",
        "religion": "jain"
      }
    },
    {
      "type": "node",
      "id": 11178186948,
      "lat": 12.9540062,
      "lon": 77.5673571,
      "tags": {
        "brand": "HOPCOMS",
        "brand:wikidata": "Q22908959",
        "check_date": "2023-09-09",
        "internet_access": "no",
        "name": "HOPCOMS",
        "name:en": "HOPCOMS",
        "operator": "HOPCOMS",
        "shop": "greengrocer",
        "wheelchair": "no"
      }
    },
    {
      "type": "node",
      "id": 11178186950,
      "lat": 12.9589454,
      "lon": 77.5670958,
      "tags": {
        "check_date": "2023-09-09",
        "name": "Healcure Surgicals",
        "shop": "medical_supply"
      }
    },
    {
      "type": "node",
      "id": 11178186951,
      "lat": 12.9588873,
      "lon": 77.5664585,
      "tags": {
        "check_date": "2023-09-09",
        "name": "Rishabh Marketing",
        "shop": "hardware"
      }
    },
    {
      "type": "node",
      "id": 11178186952,
      "lat": 12.9588784,
      "lon": 77.5662116,
      "tags": {
        "check_date": "2023-09-09",
        "name": "Shah Cycle Trading Co",
        "shop": "bicycle"
      }
    },
    {
      "type": "node",
      "id": 11178186953,
      "lat": 12.9588647,
      "lon": 77.5661913,
      "tags": {
        "check_date": "2023-09-09",
        "name": "Heeraji Fashion LLP",
        "shop": "clothes"
      }
    },
    {
      "type": "node",
      "id": 11178186955,
      "lat": 12.9588384,
      "lon": 77.5660035,
      "tags": {
        "amenity": "restaurant",
        "check_date": "2023-09-09",
        "cuisine": "indian",
        "name": "Sri Sai Cafe"
      }
    },
    {
      "type": "node",
      "id": 11178186956,
      "lat": 12.9588147,
      "lon": 77.565836,
      "tags": {
        "check_date": "2023-09-09",
        "shop": "greengrocer"
      }
    },
    {
      "type": "node",
      "id": 11178186957,
      "lat": 12.9588056,
      "lon": 77.565796,
      "tags": {
        "check_date": "2023-09-09",
        "name": "Nandini Milk Store",
        "shop": "dairy"
      }
    },
    {
      "type": "node",
      "id": 11178186958,
      "lat": 12.9587893,
      "lon": 77.565249,
      "tags": {
        "check_date": "2023-09-09",
        "name": "Mahalakshmi Sweets",
        "shop": "confectionery"
      }
    },
    {
      "type": "node",
      "id": 11178186959,
      "lat": 12.9587702,
      "lon": 77.565213,
      "tags": {
        "check_date": "2023-09-09",
        "name": "Bharath Tailoring Hall",
        "shop": "tailor"
      }
    },
    {
      "type": "node",
      "id": 11178186960,
      "lat": 12.9588046,
      "lon": 77.5649867,
      "tags": {
        "amenity": "pharmacy",
        "check_date": "2023-09-09",
        "healthcare": "pharmacy",
        "name": "Arihant Shri Jain Pharma"
      }
    },
    {
      "type": "node",
      "id": 11178186961,
      "lat": 12.958803,
      "lon": 77.5649131,
      "tags": {
        "beauty": "nails",
        "check_date": "2023-09-09",
        "name": "Say it with Colors",
        "shop": "beauty"
      }
    },
    {
      "type": "node",
      "id": 11178186962,
      "lat": 12.9588,
      "lon": 77.5647589,
      "tags": {
        "check_date": "2023-09-09",
        "name": "Bhairav Stationers",
        "shop": "stationery"
      }
    },
    {
      "type": "node",
      "id": 11178186963,
      "lat": 12.958805,
      "lon": 77.5643946,
      "tags": {
        "check_date": "2023-09-09",
        "name": "Sri Banashankari Coffee Bar",
        "shop": "coffee"
      }
    },
    {
      "type": "node",
      "id": 11178186964,
      "lat": 12.9587876,
      "lon": 77.5643105,
      "tags": {
        "check_date": "2023-09-09",
        "name": "Sri Lakshmi Battery Point and Car Garage",
        "shop": "car_repair"
      }
    },
    {
      "type": "node",
      "id": 11178186965,
      "lat": 12.9587893,
      "lon": 77.5642271,
      "tags": {
        "check_date": "2023-09-09",
        "name": "Vivid Creations",
        "shop": "hardware"
      }
    },
    {
      "type": "node",
      "id": 11178186966,
      "lat": 12.9585492,
      "lon": 77.5620042,
      "tags": {
        "amenity": "fast_food",
        "check_date": "2023-09-09",
        "name": "Sri Venkateshwara Hot Chips"
      }
    },
    {
      "type": "node",
      "id": 11178186968,
      "lat": 12.9587575,
      "lon": 77.563759,
      "tags": {
        "check_date": "2023-09-09",
        "name": "KN Bike Zone",
        "shop": "motorcycle_repair"
      }
    },
    {
      "type": "node",
      "id": 11178186969,
      "lat": 12.9587416,
      "lon": 77.5636695,
      "tags": {
        "check_date": "2023-09-09",
        "name": "Siga Gases and Dry Ice",
        "shop": "medical_supply"
      }
    },
    {
      "type": "node",
      "id": 11178186972,
      "lat": 12.9587526,
      "lon": 77.5633853,
      "tags": {
        "check_date": "2023-09-09",
        "name": "M Electronics",
        "shop": "electronics"
      }
    },
    {
      "type": "node",
      "id": 11178186973,
      "lat": 12.958754,
      "lon": 77.5631381,
      "tags": {
        "name": "Sri Vinayaka Paper Shop",
        "shop": "yes"
      }
    },
    {
      "type": "node",
      "id": 11178186974,
      "lat": 12.9587388,
      "lon": 77.5630677,
      "tags": {
        "check_date": "2023-09-09",
        "name": "Vishal Marketing",
        "shop": "hardware"
      }
    },
    {
      "type": "node",
      "id": 11178186975,
      "lat": 12.958745,
      "lon": 77.5628802,
      "tags": {
        "check_date": "2023-09-09",
        "name": "Sanjay Jewellers",
        "shop": "jewelry"
      }
    },
    {
      "type": "node",
      "id": 11178186976,
      "lat": 12.9587236,
      "lon": 77.5627992,
      "tags": {
        "check_date": "2023-09-09",
        "name": "Riddhi Siddhi Enterprises",
        "shop": "hardware"
      }
    },
    {
      "type": "node",
      "id": 11178186977,
      "lat": 12.9587173,
      "lon": 77.5624,
      "tags": {
        "check_date": "2023-09-09",
        "name": "Mahadev Tea House",
        "shop": "tea"
      }
    },
    {
      "type": "node",
      "id": 11178186978,
      "lat": 12.9587215,
      "lon": 77.5621584,
      "tags": {
        "amenity": "fast_food",
        "check_date": "2023-09-09",
        "cuisine": "juice",
        "name": "Bhavani Juice and Chats"
      }
    },
    {
      "type": "node",
      "id": 11178186979,
      "lat": 12.9587166,
      "lon": 77.5619858,
      "tags": {
        "amenity": "restaurant",
        "check_date": "2023-09-09",
        "cuisine": "indian",
        "name": "Udupi Coffee Time"
      }
    },
    {
      "type": "node",
      "id": 11178186980,
      "lat": 12.9587028,
      "lon": 77.5617364,
      "tags": {
        "check_date": "2023-09-09",
        "name": "Ravi Kiran Dry Cleaners",
        "shop": "dry_cleaning"
      }
    },
    {
      "type": "node",
      "id": 11178186981,
      "lat": 12.9586869,
      "lon": 77.5616576,
      "tags": {
        "check_date": "2023-09-09",
        "name": "Shree Gopalakrishna Printing Press",
        "shop": "copyshop"
      }
    },
    {
      "type": "node",
      "id": 11178186982,
      "lat": 12.9586786,
      "lon": 77.5615915,
      "tags": {
        "check_date": "2023-09-09",
        "name": "Patanjali Chikitsalaya and Store",
        "shop": "herbalist"
      }
    },
    {
      "type": "node",
      "id": 11178186983,
      "lat": 12.9586675,
      "lon": 77.5615425,
      "tags": {
        "check_date": "2023-09-09",
        "name": "Victor Fashions",
        "shop": "fashion_accessories"
      }
    },
    {
      "type": "node",
      "id": 11178186984,
      "lat": 12.9585612,
      "lon": 77.5623501,
      "tags": {
        "check_date": "2023-09-09",
        "name": "Ashoka Stores",
        "shop": "convenience"
      }
    },
    {
      "type": "node",
      "id": 11178186986,
      "lat": 12.9586687,
      "lon": 77.5613008,
      "tags": {
        "check_date": "2023-09-09",
        "name": "Surana Solar Solutions",
        "shop": "hardware"
      }
    },
    {
      "type": "node",
      "id": 11178186988,
      "lat": 12.9586547,
      "lon": 77.5611719,
      "tags": {
        "check_date": "2023-09-09",
        "name": "Skyward Publishers",
        "shop": "books"
      }
    },
    {
      "type": "node",
      "id": 11178186989,
      "lat": 12.958664,
      "lon": 77.5610979,
      "tags": {
        "check_date": "2023-09-09",
        "name": "Chaitanya Graphics",
        "shop": "copyshop"
      }
    },
    {
      "type": "node",
      "id": 11178186990,
      "lat": 12.9586508,
      "lon": 77.5608592,
      "tags": {
        "check_date": "2023-09-09",
        "name": "Fruits and Grocery",
        "shop": "greengrocer"
      }
    },
    {
      "type": "node",
      "id": 11178186994,
      "lat": 12.9585997,
      "lon": 77.559338,
      "tags": {
        "brand": "Nandini",
        "check_date": "2023-09-09",
        "name": "Nandini",
        "shop": "dairy"
      }
    },
    {
      "type": "node",
      "id": 11178186995,
      "lat": 12.9584415,
      "lon": 77.5591653,
      "tags": {
        "check_date": "2023-09-09",
        "name": "Iyengar Bakery",
        "name:kn": "ಐಯ್ಯಂಗಾರ್ ಬೇಕರಿ",
        "shop": "bakery"
      }
    },
    {
      "type": "node",
      "id": 11178186997,
      "lat": 12.9584991,
      "lon": 77.5600849,
      "tags": {
        "check_date": "2023-09-09",
        "name": "Dev Pharma",
        "shop": "medical_supply"
      }
    },
    {
      "type": "node",
      "id": 11178186998,
      "lat": 12.958515,
      "lon": 77.5609724,
      "tags": {
        "check_date": "2023-09-09",
        "name": "Highlights Hafele",
        "shop": "hardware"
      }
    },
    {
      "type": "node",
      "id": 11178186999,
      "lat": 12.9585127,
      "lon": 77.5611714,
      "tags": {
        "check_date": "2023-09-09",
        "name": "Neev Glass company",
        "shop": "hardware"
      }
    },
    {
      "type": "node",
      "id": 11178187000,
      "lat": 12.9585429,
      "lon": 77.5618917,
      "tags": {
        "check_date": "2023-09-09",
        "name": "Ramya Medicals",
        "shop": "medical_supply"
      }
    },
    {
      "type": "node",
      "id": 11178187001,
      "lat": 12.9585405,
      "lon": 77.5619529,
      "tags": {
        "check_date": "2023-09-09",
        "name": "Sri Subramanya Enterprises Pipes Sanitary Fittings",
        "shop": "hardware"
      }
    },
    {
      "type": "node",
      "id": 11178187002,
      "lat": 12.9586836,
      "lon": 77.561399,
      "tags": {
        "check_date": "2023-09-09",
        "name": "Lab Rats Apparel",
        "shop": "clothes"
      }
    },
    {
      "type": "node",
      "id": 12000067102,
      "lat": 12.9564695,
      "lon": 77.5697791,
      "tags": {
        "amenity": "bank",
        "check_date": "2024-03-16",
        "name": "Saraswat Co-operative Bank Ltd"
      }
    },
    {
      "type": "node",
      "id": 12060775542,
      "lat": 12.9550804,
      "lon": 77.5655815,
      "tags": {
        "addr:housenumber": "62/1",
        "addr:street": "6th main road",
        "amenity": "cafe",
        "name": "Sri Shakthi Condiments"
      }
    },
    {
      "type": "node",
      "id": 12118826140,
      "lat": 12.9595796,
      "lon": 77.5619677,
      "tags": {
        "amenity": "atm",
        "brand": "Bank of Baroda",
        "brand:wikidata": "Q2003797",
        "operator": "Bank of Baroda",
        "operator:wikidata": "Q2003797"
      }
    },
    {
      "type": "node",
      "id": 12466417386,
      "lat": 12.9573521,
      "lon": 77.5676114,
      "tags": {
        "brand": "Vishal Mega Mart",
        "brand:wikidata": "Q124374377",
        "check_date": "2025-01-01",
        "name": "Vishal Mega Mart",
        "shop": "supermarket"
      }
    },
    {
      "type": "node",
      "id": 12466417387,
      "lat": 12.9550078,
      "lon": 77.5675577,
      "tags": {
        "amenity": "toilets",
        "check_date": "2025-01-01"
      }
    },
    {
      "type": "node",
      "id": 12466417389,
      "lat": 12.9510222,
      "lon": 77.5677852,
      "tags": {
        "amenity": "atm",
        "brand": "IDFC First Bank",
        "brand:wikidata": "Q22031467",
        "check_date": "2025-01-01",
        "operator": "IDFC First Bank",
        "operator:wikidata": "Q22031467"
      }
    },
    {
      "type": "way",
      "id": 40629062,
      "center": {
        "lat": 12.9552255,
        "lon": 77.570634
      },
      "tags": {
        "amenity": "place_of_worship",
        "heritage": "2",
        "heritage:operator": "nmma",
        "heritage:website": "https://nmma.nic.in/nmma/exploreBuiltState.do?state=29",
        "landuse": "religious",
        "name": "Sringeri Mutt",
        "name:kn": "ಶೃಂಗೇರಿ ಮಠ",
        "ref:nmma": "KR20010658",
        "religion": "hindu",
        "wheelchair": "no"
      }
    },
    {
      "type": "way",
      "id": 53831905,
      "center": {
        "lat": 12.9653039,
        "lon": 77.5627769
      },
      "tags": {
        "amenity": "marketplace",
        "landuse": "retail",
        "name": "APMC",
        "name:kn": "ಕೃಷಿ ಉತ್ಪನ್ನ ಮಾರುಕಟ್ಟೆ ಸಮಿತಿ"
      }
    },
    {
      "type": "way",
      "id": 53849353,
      "center": {
        "lat": 12.9599135,
        "lon": 77.562643
      },
      "tags": {
        "addr:street": "Albert Victor Road",
        "landuse": "religious",
        "leisure": "common",
        "name": "Chamrajpet Eidgha",
        "name:kn": "ಚಾಮರಾಜಪೇಟೆ ಈದ್ಗ",
        "religion": "muslim"
      }
    },
    {
      "type": "way",
      "id": 53849356,
      "center": {
        "lat": 12.9628398,
        "lon": 77.569866
      },
      "tags": {
        "amenity": "school",
        "name": "St. Joseph's School",
        "name:kn": "ಸೆಂಟ್ ಜೋಸೆಫ್ ಶಾಲೆ",
        "wheelchair": "no"
      }
    },
    {
      "type": "way",
      "id": 53849361,
      "center": {
        "lat": 12.9641529,
        "lon": 77.5676947
      },
      "tags": {
        "amenity": "hospital",
        "healthcare": "hospital",
        "name": "Government Veterinary Hospital",
        "name:kn": "ಸರ್ಕಾರಿ ಪಶುವೈದ್ಯ ಆಸ್ಪತ್ರೆ"
      }
    },
    {
      "type": "way",
      "id": 55684220,
      "center": {
        "lat": 12.951867,
        "lon": 77.5589753
      },
      "tags": {
        "alt_name": "Jinke Park",
        "leisure": "park",
        "name": "Dr Rajkumar Park",
        "name:etymology:wikidata": "Q984634",
        "name:kn": "ರಾಜಕುಮಾರ ಉದ್ಯಾನವನ"
      }
    },
    {
      "type": "way",
      "id": 133116295,
      "center": {
        "lat": 12.9545796,
        "lon": 77.5679194
      },
      "tags": {
        "amenity": "school",
        "name": "Jnanodaya School",
        "name:kn": "ಜ್ಞಾನೋದಯ ಶಾಲೆ",
        "wheelchair": "no"
      }
    },
    {
      "type": "way",
      "id": 166584397,
      "center": {
        "lat": 12.9584995,
        "lon": 77.5534667
      },
      "tags": {
        "landuse": "retail",
        "name": "Gopalan Mall",
        "name:kn": "ಗೋಪಾಲನ್ ಮಾಲ್",
        "shop": "mall"
      }
    },
    {
      "type": "way",
      "id": 166769940,
      "center": {
        "lat": 12.9601303,
        "lon": 77.5720622
      },
      "tags": {
        "amenity": "police",
        "designation": "Central Police Station",
        "name": "Central Police Station",
        "name:kn": "ಕೇಂದ್ರಿಯ ಆರಕ್ಷಕ ಠಾಣೆ"
      }
    },
    {
      "type": "way",
      "id": 182819011,
      "center": {
        "lat": 12.9582804,
        "lon": 77.5551362
      },
      "tags": {
        "leisure": "park"
      }
    },
    {
      "type": "way",
      "id": 327032477,
      "center": {
        "lat": 12.9636652,
        "lon": 77.5700557
      },
      "tags": {
        "amenity": "place_of_worship",
        "name": "St. Joseph's Church",
        "name:kn": "ಸಂತ ಜೋಸೆಫರ ಚರ್ಚ್",
        "religion": "christian"
      }
    },
    {
      "type": "way",
      "id": 346504152,
      "center": {
        "lat": 12.9656763,
        "lon": 77.5616212
      },
      "tags": {
        "alt_name": "Binnypet Mall",
        "building": "yes",
        "name": "ETA Namma Mall",
        "name:en": "ETA Mall",
        "shop": "mall"
      }
    },
    {
      "type": "way",
      "id": 347110755,
      "center": {
        "lat": 12.9595616,
        "lon": 77.5693459
      },
      "tags": {
        "amenity": "place_of_worship",
        "building": "yes",
        "check_date": "2023-09-09",
        "religion": "jain"
      }
    },
    {
      "type": "way",
      "id": 347111500,
      "center": {
        "lat": 12.9601168,
        "lon": 77.5714852
      },
      "tags": {
        "addr:city": "Bengaluru",
        "addr:postcode": "560018",
        "addr:street": "Albert Victor Road",
        "amenity": "bank",
        "atm": "no",
        "building": "yes",
        "name": "Karnataka Apex Bank"
      }
    },
    {
      "type": "way",
      "id": 347447029,
      "center": {
        "lat": 12.9537466,
        "lon": 77.5673376
      },
      "tags": {
        "amenity": "restaurant",
        "building": "yes",
        "cuisine": "indian;south_indian",
        "diet:vegetarian": "yes",
        "name": "Shanti Sagar",
        "name:kn": "ಶಾಂತಿ ಸಾಗರ್",
        "opening_hours": "08:00-22:00"
      }
    },
    {
      "type": "way",
      "id": 349428214,
      "center": {
        "lat": 12.9584756,
        "lon": 77.5700691
      },
      "tags": {
        "amenity": "place_of_worship",
        "building": "temple",
        "religion": "hindu"
      }
    },
    {
      "type": "way",
      "id": 373574996,
      "center": {
        "lat": 12.9635299,
        "lon": 77.5702106
      },
      "tags": {
        "amenity": "place_of_worship",
        "building": "church",
        "religion": "christian",
        "toilets:wheelchair": "no",
        "wheelchair": "limited"
      }
    },
    {
      "type": "way",
      "id": 411052969,
      "center": {
        "lat": 12.9490641,
        "lon": 77.5661149
      },
      "tags": {
        "amenity": "place_of_worship",
        "landuse": "religious",
        "name": "Ramakrishna Math",
        "name:kn": "ರಾಮಕೃಷ್ಣ ಮಠ",
        "religion": "hindu",
        "website": "http://rkmathbangalore.org",
        "wheelchair": "limited"
      }
    },
    {
      "type": "way",
      "id": 411067253,
      "center": {
        "lat": 12.9513805,
        "lon": 77.5670105
      },
      "tags": {
        "barrier": "fence",
        "check_date": "2023-09-09",
        "landuse": "recreation_ground",
        "leisure": "playground",
        "name": "Udayabhanu Public Playground"
      }
    },
    {
      "type": "way",
      "id": 411067254,
      "center": {
        "lat": 12.9596424,
        "lon": 77.5721865
      },
      "tags": {
        "amenity": "place_of_worship",
        "religion": "christian"
      }
    },
    {
      "type": "way",
      "id": 411067255,
      "center": {
        "lat": 12.9590235,
        "lon": 77.5722549
      },
      "tags": {
        "addr:postcode": "560018",
        "addr:street": "Pampa Mahakavi Road",
        "amenity": "school",
        "name": "Government Sanskrit College",
        "name:kn": "ಸರ್ಕಾರಿ ಸಂಸ್ಕೃತ ಕಾಲೇಜು"
      }
    },
    {
      "type": "way",
      "id": 411067257,
      "center": {
        "lat": 12.960157,
        "lon": 77.569811
      },
      "tags": {
        "addr:housename": "Sharada Stree Samaj Building",
        "addr:postcode": "560018",
        "addr:street": "Albert Victor Road",
        "amenity": "school",
        "name": "Sharada Stree Samaja School",
        "name:kn": "ಶಾರದಾ ಸ್ತ್ರೀ ಸಮಾಜ ಶಾಲೆ"
      }
    },
    {
      "type": "way",
      "id": 411069162,
      "center": {
        "lat": 12.9627432,
        "lon": 77.5697651
      },
      "tags": {
        "leisure": "playground"
      }
    },
    {
      "type": "way",
      "id": 411069163,
      "center": {
        "lat": 12.9584747,
        "lon": 77.5700521
      },
      "tags": {
        "amenity": "place_of_worship",
        "name": "Rameshwara Temple",
        "name:kn": "ರಾಮೇಶ್ವರ ದೇವಸ್ತಾನ",
        "religion": "hindu",
        "wheelchair": "no"
      }
    },
    {
      "type": "way",
      "id": 437565300,
      "center": {
        "lat": 12.9640791,
        "lon": 77.5557436
      },
      "tags": {
        "addr:street": "Hosahalli Main Road",
        "leisure": "park",
        "name": "JJR Nagar Park"
      }
    },
    {
      "type": "way",
      "id": 440327189,
      "center": {
        "lat": 12.9633913,
        "lon": 77.5627248
      },
      "tags": {
        "leisure": "pitch"
      }
    },
    {
      "type": "way",
      "id": 440327190,
      "center": {
        "lat": 12.9639802,
        "lon": 77.5617653
      },
      "tags": {
        "leisure": "pitch"
      }
    },
    {
      "type": "way",
      "id": 512515892,
      "center": {
        "lat": 12.9576875,
        "lon": 77.5725669
      },
      "tags": {
        "designation": "Makkala Koota",
        "leisure": "park",
        "name": "Makkala Koota Playground & Children Park"
      }
    },
    {
      "type": "way",
      "id": 1052004251,
      "center": {
        "lat": 12.9633296,
        "lon": 77.56638
      },
      "tags": {
        "amenity": "cinema",
        "name": "Vinayaka Talkies",
        "name:kn": "ವಿನಾಯಕ ಟಾಕೀಸ್"
      }
    },
    {
      "type": "way",
      "id": 1052004252,
      "center": {
        "lat": 12.9619155,
        "lon": 77.5641626
      },
      "tags": {
        "amenity": "fuel",
        "brand": "Bharat Petroleum",
        "brand:wikidata": "Q854826",
        "name": "Bharat Petroleum",
        "name:kn": "ಭಾರತ್ ಪೆಟ್ರೋಲಿಯಂ",
        "operator": "Bharat Petroleum"
      }
    },
    {
      "type": "way",
      "id": 1052004253,
      "center": {
        "lat": 12.9598109,
        "lon": 77.5640932
      },
      "tags": {
        "amenity": "school"
      }
    },
    {
      "type": "way",
      "id": 1052004254,
      "center": {
        "lat": 12.9598055,
        "lon": 77.5635588
      },
      "tags": {
        "amenity": "school"
      }
    },
    {
      "type": "way",
      "id": 1069013461,
      "center": {
        "lat": 12.9517131,
        "lon": 77.5672859
      },
      "tags": {
        "addr:city": "Bengaluru",
        "addr:housenumber": "109",
        "addr:postcode": "560019",
        "addr:street": "Bull Temple Road",
        "air_conditioning": "yes",
        "amenity": "bank",
        "atm": "yes",
        "brand": "Karnataka Bank",
        "brand:wikidata": "Q2042632",
        "building": "yes",
        "check_date": "2023-09-09",
        "name": "Karnataka Bank",
        "name:kn": "ಕರ್ನಾಟಕ ಬ್ಯಾಂಕ್",
        "opening_hours": "Mo-Sa 10:00-03:30",
        "wheelchair": "yes"
      }
    },
    {
      "type": "way",
      "id": 1069014337,
      "center": {
        "lat": 12.9523167,
        "lon": 77.5669814
      },
      "tags": {
        "addr:city": "Bengaluru",
        "addr:postcode": "560019",
        "addr:street": "Bull Temple Road",
        "brand": "More",
        "brand:wikidata": "Q6910891",
        "building": "yes",
        "check_date": "2022-10-31",
        "name": "More",
        "name:kn": "ಮೋರ್",
        "opening_hours": "Mo-Su 09:00-21:00",
        "shop": "supermarket",
        "wheelchair": "yes"
      }
    },
    {
      "type": "way",
      "id": 1134831510,
      "center": {
        "lat": 12.9625043,
        "lon": 77.5634324
      },
      "tags": {
        "alt_name": "Agni Shamaka Dala Fire Office",
        "amenity": "fire_station",
        "name": "Bengaluru North Fire Station",
        "name:kn": "ಪೊಲೀಸ್ ವಸತಿಗೃಹ"
      }
    },
    {
      "type": "way",
      "id": 1203069042,
      "center": {
        "lat": 12.9535295,
        "lon": 77.5570806
      },
      "tags": {
        "amenity": "crematorium",
        "landuse": "crematorium",
        "name": "Chamrajapet Crematorium",
        "name:kn": "ಚಾಮರಾಜಪೇಟೆ ಚಿತಾಗಾರ",
        "note": "10 Cremation Sites, conventional, wood burning, includes burial area.",
        "operator": "BBMP",
        "religion": "hindu"
      }
    },
    {
      "type": "way",
      "id": 1203069053,
      "center": {
        "lat": 12.9529923,
        "lon": 77.5620617
      },
      "tags": {
        "amenity": "school"
      }
    },
    {
      "type": "way",
      "id": 1203069061,
      "center": {
        "lat": 12.9501669,
        "lon": 77.5659287
      },
      "tags": {
        "leisure": "park"
      }
    },
    {
      "type": "way",
      "id": 1203069063,
      "center": {
        "lat": 12.9502148,
        "lon": 77.5654296
      },
      "tags": {
        "leisure": "pitch",
        "sport": "tennis"
      }
    },
    {
      "type": "way",
      "id": 1203406064,
      "center": {
        "lat": 12.9573879,
        "lon": 77.5683918
      },
      "tags": {
        "amenity": "fuel",
        "toilets:wheelchair": "no",
        "wheelchair": "yes"
      }
    },
    {
      "type": "way",
      "id": 1205832177,
      "center": {
        "lat": 12.9601729,
        "lon": 77.5640895
      },
      "tags": {
        "amenity": "school"
      }
    },
    {
      "type": "way",
      "id": 1205832181,
      "center": {
        "lat": 12.9609247,
        "lon": 77.5611731
      },
      "tags": {
        "amenity": "hospital"
      }
    },
    {
      "type": "way",
      "id": 1206037819,
      "center": {
        "lat": 12.953579,
        "lon": 77.5672418
      },
      "tags": {
        "amenity": "fuel",
        "brand": "Shell",
        "brand:wikidata": "Q110716465",
        "fuel:diesel": "yes",
        "landuse": "commercial",
        "name": "Shell",
        "name:kn": "ಶೆಲ್",
        "wheelchair": "limited"
      }
    },
    {
      "type": "way",
      "id": 1206360030,
      "center": {
        "lat": 12.958257,
        "lon": 77.569312
      },
      "tags": {
        "amenity": "social_facility",
        "name": "BOSCO Mane",
        "social_facility": "group_home",
        "social_facility:for": "child",
        "website": "https://boscoban.org/our-centres/bosco-mane/"
      }
    },
    {
      "type": "way",
      "id": 1213970890,
      "center": {
        "lat": 12.9613893,
        "lon": 77.5581433
      },
      "tags": {
        "access": "private",
        "leisure": "pitch",
        "sport": "basketball"
      }
    },
    {
      "type": "way",
      "id": 1224937916,
      "center": {
        "lat": 12.9550831,
        "lon": 77.5659679
      },
      "tags": {
        "alt_name": "by 2 coffee",
        "amenity": "cafe",
        "building": "yes",
        "internet_access": "no",
        "name": "by2coffee",
        "takeaway": "yes"
      }
    },
    {
      "type": "way",
      "id": 1290606661,
      "center": {
        "lat": 12.953203,
        "lon": 77.5569578
      },
      "tags": {
        "access": "yes",
        "amenity": "shower",
        "description": "shower area",
        "fee": "no",
        "operator": "BBMP",
        "unisex": "yes",
        "wheelchair": "no"
      }
    },
    {
      "type": "way",
      "id": 1307300212,
      "center": {
        "lat": 12.9654225,
        "lon": 77.559297
      },
      "tags": {
        "leisure": "park"
      }
    },
    {
      "type": "way",
      "id": 1307949928,
      "center": {
        "lat": 12.9538911,
        "lon": 77.5711462
      },
      "tags": {
        "addr:district": "Bengaluru Urban",
        "addr:full": "1st Cross, Shankarapuram, Basavanagudi",
        "addr:postcode": "560004",
        "addr:state": "Karnataka",
        "addr:street": "DV Gundappa Road",
        "amenity": "hospital",
        "emergency": "yes",
        "healthcare": "hospital",
        "name": "Rangadore Memorial Hospital",
        "source": "OpenGovernmentData",
        "wheelchair": "yes"
      }
    },
    {
      "type": "way",
      "id": 1348696401,
      "center": {
        "lat": 12.9591122,
        "lon": 77.555799
      },
      "tags": {
        "amenity": "fuel",
        "brand": "Indian Oil",
        "brand:wikidata": "Q1289348",
        "compressed_air": "yes",
        "name": "Indian Oil"
      }
    }
  ]
}