{
  "area_name": "Chandapura",
  "osm_id": 2244866500,
  "osm_type": "node",
  "place_type": "suburb",
  "amenity_count": 61,
  "amenities": [
    {
      "type": "node",
      "id": 4445944288,
      "lat": 12.799338,
      "lon": 77.7054997,
      "tags": {
        "addr:city": "Bangalore",
        "addr:postcode": "560100",
        "addr:street": "Ruchitha Complex, Anekal Road, Chandapura, Electronic City",
        "amenity": "restaurant",
        "cuisine": "regional",
        "delivery": "yes",
        "name": "Rddy Restaurent Electronic City",
        "opening_hours": "09:00-21:30",
        "phone": "+91 9448518849    +919844747711",
        "smoking": "no",
        "takeaway": "yes"
      }
    },
    {
      "type": "node",
      "id": 4445959980,
      "lat": 12.8001497,
      "lon": 77.7057269,
      "tags": {
        "addr:city": "Bangalore",
        "addr:postcode": "560100",
        "addr:street": "Anekal Main Road",
        "amenity": "restaurant",
        "cuisine": "regional",
        "delivery": "yes",
        "name": "Sri Ragavendhra Upahar Electronic City",
        "opening_hours": "08:00-22:00",
        "phone": "+91 9886777306",
        "smoking": "no",
        "takeaway": "yes"
      }
    },
    {
      "type": "node",
      "id": 4445966449,
      "lat": 12.7982342,
      "lon": 77.7059205,
      "tags": {
        "addr:city": "Bangalore",
        "addr:housenumber": "56",
        "addr:postcode": "560100",
        "addr:street": "Anekal Road, Above Canara Bank, Chandapura, Electronic City",
        "amenity": "restaurant",
        "cuisine": "regional",
        "delivery": "yes",
        "name": "Hotel Sinchara Electronic City",
        "opening_hours": "10:30-16:00,18:30-22:30",
        "phone": "+91 9663361770     +919060013888",
        "smoking": "no",
        "takeaway": "yes"
      }
    },
    {
      "type": "node",
      "id": 4446042010,
      "lat": 12.7996539,
      "lon": 77.7054334,
      "tags": {
        "addr:city": "Bangalore",
        "addr:postcode": "560100",
        "addr:street": "Anekal Road, Above Canara Bank, Chandapura, Electronic City,",
        "amenity": "restaurant",
        "cuisine": "regional",
        "delivery": "yes",
        "name": "Hotel Sinchara",
        "opening_hours": "10:30-16:00,18:30-22:30",
        "phone": "+91 9663361770       +919060013888",
        "smoking": "no",
        "takeaway": "yes"
      }
    },
    {
      "type": "node",
      "id": 4446045144,
      "lat": 12.7996278,
      "lon": 77.7054387,
      "tags": {
        "addr:city": "Bangalore",
        "addr:postcode": "560100",
        "addr:street": "Anekal Road, Above Canara Bank, Chandapura, Electronic City",
        "amenity": "restaurant",
        "cuisine": "regional",
        "delivery": "yes",
        "name": "Hotel Sinchara",
        "opening_hours": "10:30-16:00,18:30-22:30",
        "phone": "+91 9663361770       +919060013888",
        "smoking": "no",
        "takeaway": "yes"
      }
    },
    {
      "type": "node",
      "id": 4489732616,
      "lat": 12.7965425,
      "lon": 77.7059035,
      "tags": {
        "addr:city": "Bengaluru,",
        "addr:postcode": "562106",
        "addr:street": "Anekal Main Road, Terracon Residency, Suryanagar, Karnataka",
        "leisure": "sports_centre",
        "name": "Classic Fitness",
        "opening_hours": "5:00-22:00",
        "phone": "084538 82155"
      }
    },
    {
      "type": "node",
      "id": 6043072316,
      "lat": 12.7936585,
      "lon": 77.7020065,
      "tags": {
        "leisure": "park",
        "name": "Public Park"
      }
    },
    {
      "type": "node",
      "id": 6043075831,
      "lat": 12.7954959,
      "lon": 77.7015415,
      "tags": {
        "addr:street": "Surya Nagar",
        "amenity": "bank",
        "branch": "Surya Nagar",
        "brand": "Federal Bank",
        "brand:wikidata": "Q2044983",
        "name": "Federal Bank",
        "opening_hours": "Mo-Fr 10:00-16:00; Sa 10:00-13:00"
      }
    },
    {
      "type": "node",
      "id": 6877944122,
      "lat": 12.7971487,
      "lon": 77.6991233,
      "tags": {
        "addr:city": "Bangalore",
        "addr:postcode": "560099",
        "addr:street": "Banahali",
        "amenity": "place_of_worship",
        "name": "Hanuman Temple",
        "religion": "hindu"
      }
    },
    {
      "type": "node",
      "id": 6877992377,
      "lat": 12.8018588,
      "lon": 77.704292,
      "tags": {
        "amenity": "place_of_worship",
        "name": "Ram Temple",
        "religion": "hindu"
      }
    },
    {
      "type": "node",
      "id": 6877992378,
      "lat": 12.7986359,
      "lon": 77.6995609,
      "tags": {
        "amenity": "place_of_worship",
        "name": "Goddess Temple",
        "religion": "hindu"
      }
    },
    {
      "type": "node",
      "id": 6944392358,
      "lat": 12.7945637,
      "lon": 77.7068165,
      "tags": {
        "addr:district": "Kodagu",
        "addr:full": "Government Of Karnataka Dept. Of Labauv Gonikoppal Road, Opposite Ksrtc Bus Stant",
        "addr:postcode": "571218",
        "addr:state": "Karnataka",
        "amenity": "hospital",
        "name": "Athreya Hospital",
        "source": "OpenGovernmentData",
        "wheelchair": "yes"
      }
    },
    {
      "type": "node",
      "id": 6944525394,
      "lat": 12.7945363,
      "lon": 77.7068715,
      "tags": {
        "addr:district": "Bengaluru Urban",
        "addr:full": "6/2 B, Opposite Suryanagara, Phase 1, Chandpura, Anekal Main Road",
        "addr:postcode": "560081",
        "addr:state": "Karnataka",
        "amenity": "hospital",
        "email": "Athreya@athreyahospital.in; drswamy@athreyahospital.in",
        "healthcare:speciality": "multi speciality",
        "name": "Athreya Hospital, Chandpura",
        "operator:type": "private",
        "source": "OpenGovernmentData",
        "website": "https://www.athreyahospital.in/"
      }
    },
    {
      "type": "node",
      "id": 7572669019,
      "lat": 12.79603,
      "lon": 77.706405,
      "tags": {
        "addr:district": "Bengaluru Urban",
        "addr:full": "Venkateshappa Layout, Chandapura, Bengaluru",
        "addr:postcode": "562107",
        "addr:state": "Karnataka",
        "amenity": "hospital",
        "name": "Sri Swaranaamrutha Hospital",
        "source": "Local Knowledge"
      }
    },
    {
      "type": "node",
      "id": 7572669038,
      "lat": 12.805444,
      "lon": 77.700372,
      "tags": {
        "addr:district": "Bengaluru Urban",
        "addr:full": "Chandapura, Bengaluru",
        "addr:postcode": "560099",
        "addr:state": "Karnataka",
        "amenity": "clinic",
        "name": "E-City Allergy & Asthma Specialty Clinic",
        "source": "Local Knowledge"
      }
    },
    {
      "type": "node",
      "id": 7572669039,
      "lat": 12.796036,
      "lon": 77.7072855,
      "tags": {
        "addr:district": "Bengaluru Urban",
        "addr:full": "Venkateshappa Layout, Chandapura, Bommasandra",
        "addr:postcode": "560099",
        "addr:state": "Karnataka",
        "amenity": "clinic",
        "name": "RMHC Homeopathy Clinic",
        "source": "Local Knowledge"
      }
    },
    {
      "type": "node",
      "id": 7572669050,
      "lat": 12.796888,
      "lon": 77.706122,
      "tags": {
        "addr:district": "Bengaluru Urban",
        "addr:full": "Suryanagar, Bengaluru",
        "addr:postcode": "562107",
        "addr:state": "Karnataka",
        "amenity": "hospital",
        "name": "Naryana Hrudalya",
        "source": "Local Knowledge"
      }
    },
    {
      "type": "node",
      "id": 7572669054,
      "lat": 12.7967495,
      "lon": 77.7067736,
      "tags": {
        "addr:district": "Bengaluru Urban",
        "addr:full": "Anekal Main Road, Bengaluru",
        "addr:postcode": "560081",
        "addr:state": "Karnataka",
        "amenity": "clinic",
        "name": "Jaya Krishna Clinic",
        "source": "Local Knowledge"
      }
    },
    {
      "type": "node",
      "id": 7572669055,
      "lat": 12.798453,
      "lon": 77.6996449,
      "tags": {
        "addr:district": "Bengaluru Urban",
        "addr:full": "Suryanagar, Bommasandra",
        "addr:postcode": "562106",
        "addr:state": "Karnataka",
        "amenity": "clinic",
        "name": "Balaji Clinic",
        "source": "Local Knowledge"
      }
    },
    {
      "type": "node",
      "id": 10278031556,
      "lat": 12.8057638,
      "lon": 77.6993057,
      "tags": {
        "shop": "electronics"
      }
    },
    {
      "type": "node",
      "id": 10278034385,
      "lat": 12.8064366,
      "lon": 77.6995393,
      "tags": {
        "amenity": "bank",
        "brand": "Bank of Baroda",
        "brand:wikidata": "Q2003797",
        "check_date": "2024-08-29",
        "name": "Bank of Baroda",
        "source": "survey"
      }
    },
    {
      "type": "node",
      "id": 10278043187,
      "lat": 12.8024836,
      "lon": 77.7032429,
      "tags": {
        "amenity": "clinic",
        "healthcare": "clinic",
        "name": "Sri Balaji"
      }
    },
    {
      "type": "node",
      "id": 10278052849,
      "lat": 12.8019681,
      "lon": 77.705089,
      "tags": {
        "name": "Sri Sai",
        "shop": "chemist"
      }
    },
    {
      "type": "node",
      "id": 10278075240,
      "lat": 12.8022103,
      "lon": 77.7036396,
      "tags": {
        "amenity": "bank",
        "brand": "Bank of Baroda",
        "brand:wikidata": "Q2003797",
        "name": "Bank of Baroda"
      }
    },
    {
      "type": "node",
      "id": 10278088497,
      "lat": 12.8009805,
      "lon": 77.7053159,
      "tags": {
        "amenity": "bank",
        "brand": "Canara Bank",
        "brand:en": "Canara Bank",
        "brand:hi": "केनरा बैंक",
        "brand:kn": "ಕೆನರಾ ಬ್ಯಾಂಕ್",
        "brand:pa": "ਕੇਨਰਾ ਬੈਂਕ",
        "brand:pnb": "کینرا بینک",
        "brand:ur": "کینرا بینک",
        "brand:wikidata": "Q2003777",
        "name": "Canara Bank",
        "name:en": "Canara Bank",
        "name:hi": "केनरा बैंक",
        "name:kn": "ಕೆನರಾ ಬ್ಯಾಂಕ್",
        "name:pa": "ਕੇਨਰਾ ਬੈਂਕ",
        "name:pnb": "کینرا بینک",
        "name:ur": "کینرا بینک"
      }
    },
    {
      "type": "node",
      "id": 10278104489,
      "lat": 12.7980337,
      "lon": 77.7060937,
      "tags": {
        "name": "Sri Sai Telelinks",
        "shop": "mobile_phone"
      }
    },
    {
      "type": "node",
      "id": 10278109631,
      "lat": 12.7989896,
      "lon": 77.7057982,
      "tags": {
        "name": "Mediplus",
        "shop": "chemist"
      }
    },
    {
      "type": "node",
      "id": 10278116429,
      "lat": 12.7980842,
      "lon": 77.706077,
      "tags": {
        "amenity": "bank",
        "brand": "Bank of Baroda",
        "brand:wikidata": "Q2003797",
        "name": "Bank of Baroda"
      }
    },
    {
      "type": "node",
      "id": 10278125582,
      "lat": 12.7964411,
      "lon": 77.709534,
      "tags": {
        "addr:city": "Bengaluru",
        "addr:postcode": "560099",
        "addr:state": "KA",
        "addr:street": "Keerthi Layout",
        "amenity": "kindergarten",
        "name": "Rising Kids Pre School",
        "wheelchair": "no"
      }
    },
    {
      "type": "node",
      "id": 10278125603,
      "lat": 12.7963799,
      "lon": 77.7100252,
      "tags": {
        "name:signed": "no",
        "opening_hours": "Mo-Su 07:00-21:00",
        "payment:credit_cards": "no",
        "payment:debit_cards": "no",
        "shop": "grocery",
        "wheelchair": "limited"
      }
    },
    {
      "type": "node",
      "id": 10278126727,
      "lat": 12.7961121,
      "lon": 77.7083505,
      "tags": {
        "name": "Stylish gents beauty parler",
        "shop": "hairdresser"
      }
    },
    {
      "type": "node",
      "id": 10278127101,
      "lat": 12.7972425,
      "lon": 77.7064655,
      "tags": {
        "diet:halal": "yes",
        "diet:kosher": "no",
        "name": "The Big Market",
        "opening_hours": "Mo-Su 08:00-09:30",
        "payment:credit_cards": "yes",
        "payment:debit_cards": "yes",
        "shop": "supermarket",
        "wheelchair": "no"
      }
    },
    {
      "type": "node",
      "id": 10569153045,
      "lat": 12.7964304,
      "lon": 77.7100071,
      "tags": {
        "name:signed": "no",
        "opening_hours": "Mo-Su 07:00-21:00",
        "payment:credit_cards": "no",
        "payment:debit_cards": "no",
        "shop": "general",
        "wheelchair": "limited"
      }
    },
    {
      "type": "node",
      "id": 10688149977,
      "lat": 12.8054573,
      "lon": 77.6991854,
      "tags": {
        "amenity": "bank",
        "brand": "IndusInd Bank",
        "brand:wikidata": "Q2040323",
        "check_date": "2023-02-23",
        "name": "IndusInd Bank"
      }
    },
    {
      "type": "node",
      "id": 12326206856,
      "lat": 12.8046795,
      "lon": 77.700856,
      "tags": {
        "amenity": "fixme",
        "check_date": "2024-11-09",
        "fixme": "type",
        "fixme:type": "ICDS",
        "name": "Kallavi ICDS Centre"
      }
    },
    {
      "type": "node",
      "id": 12364809501,
      "lat": 12.8020292,
      "lon": 77.7117883,
      "tags": {
        "addr:housenumber": "2",
        "addr:postcode": "560099",
        "addr:street": "Lakshmisagara Road",
        "amenity": "clinic",
        "name": "Sudama Clinic",
        "opening_hours": "Mo-Sa 09:00-14:00, 16:00-21:00",
        "website": "https://sudama.org"
      }
    },
    {
      "type": "node",
      "id": 12536338711,
      "lat": 12.7999051,
      "lon": 77.7138301,
      "tags": {
        "brand": "Shell",
        "brand:wikidata": "Q110716465",
        "check_date": "2025-01-27",
        "name": "Shell",
        "payment:cash": "yes",
        "payment:credit_cards": "yes",
        "payment:debit_cards": "yes",
        "shop": "convenience",
        "source": "survey"
      }
    },
    {
      "type": "node",
      "id": 12536338712,
      "lat": 12.8015345,
      "lon": 77.7079091,
      "tags": {
        "amenity": "hospital",
        "check_date": "2025-01-27",
        "healthcare": "hospital",
        "name": "Best Hospital",
        "source": "survey"
      }
    },
    {
      "type": "node",
      "id": 12706314914,
      "lat": 12.8055601,
      "lon": 77.6991413,
      "tags": {
        "check_date": "2025-03-28",
        "name": "Sangeetha",
        "shop": "electronics"
      }
    },
    {
      "type": "node",
      "id": 12977371114,
      "lat": 12.8030495,
      "lon": 77.7033858,
      "tags": {
        "amenity": "atm",
        "brand": "Union Bank of India",
        "brand:wikidata": "Q2004078",
        "check_date": "2025-07-04",
        "opening_hours": "24/7",
        "operator": "Union Bank of India",
        "operator:wikidata": "Q2004078"
      }
    },
    {
      "type": "node",
      "id": 12977371119,
      "lat": 12.8019687,
      "lon": 77.7119242,
      "tags": {
        "amenity": "place_of_worship",
        "check_date": "2025-07-04",
        "religion": "hindu"
      }
    },
    {
      "type": "node",
      "id": 12977371120,
      "lat": 12.8025702,
      "lon": 77.7086925,
      "tags": {
        "amenity": "veterinary",
        "check_date": "2025-07-04"
      }
    },
    {
      "type": "node",
      "id": 12977371122,
      "lat": 12.8030587,
      "lon": 77.7033527,
      "tags": {
        "amenity": "bank",
        "brand": "Union Bank of India",
        "brand:wikidata": "Q2004078",
        "check_date": "2025-07-04",
        "name": "Union Bank of India"
      }
    },
    {
      "type": "node",
      "id": 12977371123,
      "lat": 12.8060227,
      "lon": 77.699892,
      "tags": {
        "amenity": "pharmacy",
        "check_date": "2025-07-04",
        "healthcare": "pharmacy",
        "name": "SLV Pharmacy"
      }
    },
    {
      "type": "way",
      "id": 326770617,
      "center": {
        "lat": 12.8030789,
        "lon": 77.7053521
      },
      "tags": {
        "amenity": "marketplace",
        "name": "Chandrapura Market"
      }
    },
    {
      "type": "way",
      "id": 734444604,
      "center": {
        "lat": 12.7930815,
        "lon": 77.7019947
      },
      "tags": {
        "access": "yes",
        "leisure": "playground",
        "max_age": "0",
        "min_age": "0",
        "surface": "ground"
      }
    },
    {
      "type": "way",
      "id": 746901596,
      "center": {
        "lat": 12.7938386,
        "lon": 77.7022974
      },
      "tags": {
        "leisure": "park"
      }
    },
    {
      "type": "way",
      "id": 746901597,
      "center": {
        "lat": 12.7943613,
        "lon": 77.6997426
      },
      "tags": {
        "leisure": "park"
      }
    },
    {
      "type": "way",
      "id": 746901598,
      "center": {
        "lat": 12.7972519,
        "lon": 77.699179
      },
      "tags": {
        "amenity": "place_of_worship",
        "building": "yes"
      }
    },
    {
      "type": "way",
      "id": 746901604,
      "center": {
        "lat": 12.8018435,
        "lon": 77.7042771
      },
      "tags": {
        "amenity": "place_of_worship",
        "building": "yes",
        "religion": "hindu"
      }
    },
    {
      "type": "way",
      "id": 966839072,
      "center": {
        "lat": 12.7950695,
        "lon": 77.7019808
      },
      "tags": {
        "leisure": "park"
      }
    },
    {
      "type": "way",
      "id": 966839311,
      "center": {
        "lat": 12.795321,
        "lon": 77.7028786
      },
      "tags": {
        "leisure": "park"
      }
    },
    {
      "type": "way",
      "id": 1021865525,
      "center": {
        "lat": 12.8000828,
        "lon": 77.7085321
      },
      "tags": {
        "dog": "yes",
        "leisure": "park",
        "name": "pr walking park",
        "opening_hours": "24/7",
        "operator": "pr"
      }
    },
    {
      "type": "way",
      "id": 1191870325,
      "center": {
        "lat": 12.7956502,
        "lon": 77.7033917
      },
      "tags": {
        "leisure": "park"
      }
    },
    {
      "type": "way",
      "id": 1353936114,
      "center": {
        "lat": 12.7922244,
        "lon": 77.7065994
      },
      "tags": {
        "amenity": "school"
      }
    },
    {
      "type": "way",
      "id": 1353936117,
      "center": {
        "lat": 12.7942545,
        "lon": 77.7041631
      },
      "tags": {
        "amenity": "school"
      }
    },
    {
      "type": "way",
      "id": 1414010192,
      "center": {
        "lat": 12.7940986,
        "lon": 77.7050706
      },
      "tags": {
        "amenity": "school"
      }
    },
    {
      "type": "way",
      "id": 1422345963,
      "center": {
        "lat": 12.7998053,
        "lon": 77.7138748
      },
      "tags": {
        "amenity": "fuel",
        "brand": "Shell",
        "brand:wikidata": "Q110716465",
        "check_date": "2025-03-05",
        "check_date:compressed_air": "2025-03-05",
        "compressed_air": "yes",
        "name": "Shell",
        "source": "survey"
      }
    },
    {
      "type": "way",
      "id": 1422345964,
      "center": {
        "lat": 12.8006444,
        "lon": 77.7143217
      },
      "tags": {
        "amenity": "fuel",
        "check_date": "2025-07-04",
        "name": "Gail Gas"
      }
    },
    {
      "type": "way",
      "id": 1422345975,
      "center": {
        "lat": 12.8007507,
        "lon": 77.7048554
      },
      "tags": {
        "amenity": "school"
      }
    },
    {
      "type": "way",
      "id": 1422346074,
      "center": {
        "lat": 12.7990963,
        "lon": 77.7152158
      },
      "tags": {
        "amenity": "community_centre",
        "check_date": "2025-03-05",
        "landuse": "commercial",
        "name": "Sun Palace"
      }
    }
  ]
}