{
  "area_name": "Chandranagara",
  "osm_id": 19883429,
  "osm_type": "relation",
  "place_type": "administrative",
  "amenity_count": 29,
  "amenities": [
    {
      "type": "node",
      "id": 2986480255,
      "lat": 12.9046865,
      "lon": 77.565528,
      "tags": {
        "amenity": "atm",
        "brand": "Axis Bank",
        "brand:wikidata": "Q2003549",
        "name": "Axis Bank",
        "name:kn": "ಆಕ್ಸಿಸ್ ಬ್ಯಾಂಕ್",
        "operator": "Axis Bank",
        "operator:wikidata": "Q2003549"
      }
    },
    {
      "type": "node",
      "id": 2986480256,
      "lat": 12.9048653,
      "lon": 77.5657348,
      "tags": {
        "amenity": "restaurant",
        "cuisine": "regional",
        "name": "Shri Banashankari Darshini"
      }
    },
    {
      "type": "node",
      "id": 2986480267,
      "lat": 12.9049515,
      "lon": 77.5676264,
      "tags": {
        "amenity": "pharmacy",
        "name": "Karnataka Medicals and general stores"
      }
    },
    {
      "type": "node",
      "id": 7520954480,
      "lat": 12.9001694,
      "lon": 77.5603874,
      "tags": {
        "amenity": "restaurant",
        "cuisine": "south_indian",
        "name": "Veg Corner",
        "opening_hours:covid19": "off"
      }
    },
    {
      "type": "node",
      "id": 7520954481,
      "lat": 12.9001862,
      "lon": 77.5603615,
      "tags": {
        "amenity": "restaurant",
        "name": "Veg Corner"
      }
    },
    {
      "type": "node",
      "id": 8999979617,
      "lat": 12.8967362,
      "lon": 77.5633917,
      "tags": {
        "email": "hello@themilletstore.in",
        "name": "The Millet Store",
        "opening_hours": "Mo-Su 09:00-19:00",
        "phone": "+916362033034",
        "shop": "convenience",
        "website": "https://themilletstore.in"
      }
    },
    {
      "type": "node",
      "id": 11762795434,
      "lat": 12.9041368,
      "lon": 77.568103,
      "tags": {
        "addr:city": "Bengaluru",
        "addr:district": "Bengaluru",
        "addr:full": "Fayazabad, Kanka Nagar,Kumaraswamy layou, Bengaluru-560078",
        "addr:postcode": "560078",
        "name": "AS Sign Shop",
        "opening_hours": "Mo-Sa 11:00-20:00",
        "payment:cards": "yes",
        "payment:cash": "yes",
        "phone": "9900699969",
        "shop": "3d_printing",
        "website": "https://assignshop.com/"
      }
    },
    {
      "type": "node",
      "id": 11813198349,
      "lat": 12.9036202,
      "lon": 77.5684011,
      "tags": {
        "name": "Iyengar's Amma's Pastries",
        "shop": "bakery"
      }
    },
    {
      "type": "node",
      "id": 11813225340,
      "lat": 12.9043117,
      "lon": 77.568727,
      "tags": {
        "amenity": "school",
        "name": "New Era Primary & High School"
      }
    },
    {
      "type": "node",
      "id": 11813225397,
      "lat": 12.9048902,
      "lon": 77.5683146,
      "tags": {
        "name": "Yaseen Store",
        "shop": "convenience"
      }
    },
    {
      "type": "node",
      "id": 11813225398,
      "lat": 12.9047967,
      "lon": 77.568269,
      "tags": {
        "name": "Hello Provision Store",
        "shop": "convenience"
      }
    },
    {
      "type": "node",
      "id": 11813225524,
      "lat": 12.9036411,
      "lon": 77.5680175,
      "tags": {
        "amenity": "school",
        "name": "St. Thomas International School"
      }
    },
    {
      "type": "node",
      "id": 11813227397,
      "lat": 12.9075935,
      "lon": 77.5707809,
      "tags": {
        "amenity": "hospital",
        "name": "Bengaluru City Hospital"
      }
    },
    {
      "type": "node",
      "id": 11813227431,
      "lat": 12.9071295,
      "lon": 77.5701486,
      "tags": {
        "name": "Iyengar Bakery",
        "shop": "bakery"
      }
    },
    {
      "type": "node",
      "id": 11813227436,
      "lat": 12.9045719,
      "lon": 77.5682455,
      "tags": {
        "name": "Mutton Stall",
        "shop": "butcher"
      }
    },
    {
      "type": "node",
      "id": 11813266184,
      "lat": 12.9056987,
      "lon": 77.5693486,
      "tags": {
        "shop": "butcher"
      }
    },
    {
      "type": "node",
      "id": 11813266185,
      "lat": 12.9057262,
      "lon": 77.5693989,
      "tags": {
        "shop": "hairdresser"
      }
    },
    {
      "type": "node",
      "id": 12508642648,
      "lat": 12.898493,
      "lon": 77.5620708,
      "tags": {
        "addr:city": "Bengaluru",
        "addr:housenumber": "153",
        "addr:postcode": "560078",
        "addr:street": "40 Fort Rd, Vikram Nagar, Yalachenahalli",
        "name": "JBR",
        "shop": "yes"
      }
    },
    {
      "type": "way",
      "id": 362891218,
      "center": {
        "lat": 12.9002135,
        "lon": 77.5621488
      },
      "tags": {
        "leisure": "park",
        "name": "BBMP",
        "name:kn": "ಬೃ. ಬೆಂ. ಮ. ಪಾ.",
        "operator": "ಬೃಹತ್ ಬೆಂಗಳೂರು ಮಹಾನಗರ ಪಾಲಿಕೆ",
        "operator:en": "Bruhat Bengaluru Mahanagara Palike",
        "operator:ka": "ಬೃಹತ್ ಬೆಂಗಳೂರು ಮಹಾನಗರ ಪಾಲಿಕೆ",
        "operator:short": "BBMP",
        "operator:type": "government",
        "operator:wikidata": "Q4978693"
      }
    },
    {
      "type": "way",
      "id": 1208265152,
      "center": {
        "lat": 12.9032862,
        "lon": 77.5655639
      },
      "tags": {
        "leisure": "park"
      }
    },
    {
      "type": "way",
      "id": 1208265155,
      "center": {
        "lat": 12.9057145,
        "lon": 77.566493
      },
      "tags": {
        "leisure": "park"
      }
    },
    {
      "type": "way",
      "id": 1208265157,
      "center": {
        "lat": 12.9037019,
        "lon": 77.5641337
      },
      "tags": {
        "leisure": "park"
      }
    },
    {
      "type": "way",
      "id": 1208265158,
      "center": {
        "lat": 12.9026489,
        "lon": 77.5628262
      },
      "tags": {
        "leisure": "park"
      }
    },
    {
      "type": "way",
      "id": 1208265159,
      "center": {
        "lat": 12.9011571,
        "lon": 77.5617683
      },
      "tags": {
        "leisure": "park"
      }
    },
    {
      "type": "way",
      "id": 1270568400,
      "center": {
        "lat": 12.9027309,
        "lon": 77.5645404
      },
      "tags": {
        "amenity": "place_of_worship",
        "landuse": "religious",
        "name": "108 Ganesha Temple",
        "name:kn": "೧೦೮ ಗಣೇಶ",
        "religion": "hindu"
      }
    },
    {
      "type": "way",
      "id": 1270568405,
      "center": {
        "lat": 12.901644,
        "lon": 77.5616377
      },
      "tags": {
        "leisure": "park"
      }
    },
    {
      "type": "way",
      "id": 1270568418,
      "center": {
        "lat": 12.9058582,
        "lon": 77.5696094
      },
      "tags": {
        "amenity": "place_of_worship",
        "landuse": "religious",
        "name": "Noorani Masjid",
        "name:kn": "ನೂರಾನಿ ಮಸೀದಿ",
        "religion": "muslim"
      }
    },
    {
      "type": "way",
      "id": 1270568427,
      "center": {
        "lat": 12.90408,
        "lon": 77.5665779
      },
      "tags": {
        "amenity": "school",
        "landuse": "education",
        "name": "Government Urdu Higher Primary School"
      }
    },
    {
      "type": "way",
      "id": 1271081094,
      "center": {
        "lat": 12.9006894,
        "lon": 77.5650342
      },
      "tags": {
        "amenity": "place_of_worship",
        "landuse": "religious",
        "religion": "hindu"
      }
    }
  ]
}