{
  "area_name": "Chellakere",
  "osm_id": 19883287,
  "osm_type": "relation",
  "place_type": "administrative",
  "amenity_count": 46,
  "amenities": [
    {
      "type": "node",
      "id": 440690464,
      "lat": 13.038559,
      "lon": 77.6472476,
      "tags": {
        "amenity": "place_of_worship",
        "name": "Bethel Assembly of God Church",
        "religion": "christian"
      }
    },
    {
      "type": "node",
      "id": 443615520,
      "lat": 13.032254,
      "lon": 77.6438151,
      "tags": {
        "amenity": "place_of_worship",
        "name": "Rays of Peace",
        "religion": "christian"
      }
    },
    {
      "type": "node",
      "id": 443615521,
      "lat": 13.0317498,
      "lon": 77.6437784,
      "tags": {
        "amenity": "school",
        "name": "Sinclairs High School",
        "name:kn": "ಸಿಂಕ್ಲೇರ್ಸ್ ಪ್ರೌಡಶಾಲೆ"
      }
    },
    {
      "type": "node",
      "id": 443616778,
      "lat": 13.0248848,
      "lon": 77.6458889,
      "tags": {
        "amenity": "place_of_worship",
        "name": "Peniel Presbyterian Church",
        "religion": "christian",
        "wheelchair": "limited"
      }
    },
    {
      "type": "node",
      "id": 443636563,
      "lat": 13.0254302,
      "lon": 77.6417703,
      "tags": {
        "amenity": "atm",
        "brand": "State Bank of India",
        "brand:wikidata": "Q1340361",
        "name": "State Bank of India",
        "operator": "State Bank of India",
        "operator:wikidata": "Q1340361",
        "short_name": "SBI"
      }
    },
    {
      "type": "node",
      "id": 443636917,
      "lat": 13.0250166,
      "lon": 77.6435019,
      "tags": {
        "amenity": "kindergarten",
        "name": "Vinus Play Home and Day Care",
        "wheelchair": "limited"
      }
    },
    {
      "type": "node",
      "id": 443646019,
      "lat": 13.0259923,
      "lon": 77.6405519,
      "tags": {
        "addr:city": "Kalyan Nagar, Bangalore",
        "addr:housename": "Sri Shankar Reddy Building",
        "addr:housenumber": "122/4",
        "addr:postcode": "560043",
        "addr:street": "Outer Ring Road",
        "amenity": "restaurant",
        "name": "Ginger Greens",
        "name:kn": "ಜಿಂಜರ್ ಗ್ರೀನ್ಸ್",
        "opening_hours": "Mo-Su 11:00-23:00",
        "phone": "+91-80-25434744"
      }
    },
    {
      "type": "node",
      "id": 2404638854,
      "lat": 13.0314943,
      "lon": 77.6421926,
      "tags": {
        "amenity": "school",
        "name": "St Paul"
      }
    },
    {
      "type": "node",
      "id": 2475357989,
      "lat": 13.0237703,
      "lon": 77.6457711,
      "tags": {
        "addr:city": "Babusabpalya, Hennur",
        "addr:street": "Outer Ring Road",
        "amenity": "police",
        "check_date": "2024-07-05",
        "name": "Hennur Police Station",
        "name:kn": "ಹೆಣ್ಣೂರು ಆರಕ್ಷಕ ಠಾಣೆ"
      }
    },
    {
      "type": "node",
      "id": 4443583791,
      "lat": 13.0278559,
      "lon": 77.6397264,
      "tags": {
        "addr:city": "bangalore",
        "addr:housenumber": "8",
        "addr:postcode": "560043",
        "addr:street": "Chelekere Main Road",
        "addr:suburb": "Kalyan Nagar",
        "amenity": "restaurant",
        "cuisine": "regional",
        "delivery": "yes",
        "name": "Fragrant Kitchen",
        "opening_hours": "10:30-23:00",
        "phone": "+91 96633 33004",
        "smoking": "no",
        "takeaway": "yes",
        "website": "http://www.fragrantkitchen.in/"
      }
    },
    {
      "type": "node",
      "id": 4446954987,
      "lat": 13.0259923,
      "lon": 77.6405519,
      "tags": {
        "addr:city": "bangalore",
        "addr:housenumber": "G 28",
        "addr:postcode": "560043",
        "addr:street": "Chelikere Ring Road, Near-23rd Bmtc Bus Depot, Kalyan Nagar,",
        "amenity": "restaurant",
        "cuisine": "regional",
        "delivery": "yes",
        "name": "Matru Sagar",
        "opening_hours": "11:00-23:00",
        "smoking": "no",
        "takeaway": "yes"
      }
    },
    {
      "type": "node",
      "id": 4447271702,
      "lat": 13.0263547,
      "lon": 77.6405892,
      "tags": {
        "addr:city": "bangalore",
        "addr:postcode": "560043",
        "addr:street": "1st Floor, L.G.R. Complex, Outer Ring Rd, Chelekare",
        "amenity": "restaurant",
        "cuisine": "regional",
        "delivery": "yes",
        "name": "Delicacy Restaurant",
        "opening_hours": "11:00-23:00",
        "phone": "080 2544 9944",
        "smoking": "no",
        "takeaway": "yes",
        "website": "http://ww2.delicacyrestaurant.com/?folio=7POYGN0G2"
      }
    },
    {
      "type": "node",
      "id": 4973060957,
      "lat": 13.0284576,
      "lon": 77.633619,
      "tags": {
        "amenity": "pharmacy",
        "name": "V R Pharmacy"
      }
    },
    {
      "type": "node",
      "id": 5402307948,
      "lat": 13.0256698,
      "lon": 77.6413199,
      "tags": {
        "amenity": "place_of_worship",
        "religion": "hindu"
      }
    },
    {
      "type": "node",
      "id": 10687892756,
      "lat": 13.0305597,
      "lon": 77.6391018,
      "tags": {
        "name": "Kwality Super Bazar",
        "shop": "convenience"
      }
    },
    {
      "type": "node",
      "id": 11348726232,
      "lat": 13.0319607,
      "lon": 77.6435697,
      "tags": {
        "amenity": "atm",
        "name": "HDFC bank ATM"
      }
    },
    {
      "type": "node",
      "id": 11622375962,
      "lat": 13.0268329,
      "lon": 77.6369701,
      "tags": {
        "amenity": "cafe",
        "brand": "Cafe Coffee Day",
        "brand:wikidata": "Q5017235",
        "check_date": "2024-02-14",
        "cuisine": "coffee_shop",
        "name": "Cafe Coffee Day",
        "name:kn": "ಕಫೆ ಕಾಫಿ ಡೇ",
        "takeaway": "yes"
      }
    },
    {
      "type": "node",
      "id": 11817881015,
      "lat": 13.0344614,
      "lon": 77.6498444,
      "tags": {
        "amenity": "kindergarten",
        "contact:email": "littlelilies82@gmail.com",
        "name": "Little lilies",
        "phone": "+919036060432"
      }
    },
    {
      "type": "node",
      "id": 12941957158,
      "lat": 13.0235297,
      "lon": 77.6457606,
      "tags": {
        "amenity": "shelter",
        "shelter_type": "gazebo"
      }
    },
    {
      "type": "way",
      "id": 37827777,
      "center": {
        "lat": 13.0258374,
        "lon": 77.6438717
      },
      "tags": {
        "leisure": "pitch",
        "sport": "basketball"
      }
    },
    {
      "type": "way",
      "id": 37827925,
      "center": {
        "lat": 13.0253767,
        "lon": 77.6425302
      },
      "tags": {
        "addr:city": "Kalyan Nagar, Bangalore",
        "addr:postcode": "560043",
        "addr:street": "6th B Main (HRBR Layout)",
        "amenity": "school",
        "check_date": "2025-11-16",
        "email": "info@rcis.in",
        "name": "Royale Concorde International School",
        "phone": "+91 80 2543 5455",
        "school:gender": "mixed",
        "website": "https://www.rcis.in/"
      }
    },
    {
      "type": "way",
      "id": 37828583,
      "center": {
        "lat": 13.0278651,
        "lon": 77.6406464
      },
      "tags": {
        "amenity": "school",
        "check_date": "2025-11-16",
        "name": "Royale Concorde High School"
      }
    },
    {
      "type": "way",
      "id": 37828595,
      "center": {
        "lat": 13.0284669,
        "lon": 77.6397006
      },
      "tags": {
        "amenity": "college",
        "name": "Bangalore City College",
        "name:kn": "ನಗರ ಕಾಲೇಜು"
      }
    },
    {
      "type": "way",
      "id": 37828662,
      "center": {
        "lat": 13.0266869,
        "lon": 77.6401929
      },
      "tags": {
        "amenity": "college",
        "building": "yes",
        "name": "Indo Asian Academy of Management Studies"
      }
    },
    {
      "type": "way",
      "id": 37828776,
      "center": {
        "lat": 13.0270228,
        "lon": 77.6394042
      },
      "tags": {
        "amenity": "doctors",
        "name": "Susruta Nursing Home"
      }
    },
    {
      "type": "way",
      "id": 37828884,
      "center": {
        "lat": 13.0260401,
        "lon": 77.6410045
      },
      "tags": {
        "addr:city": "Kalyan Nagar, Bangalore",
        "addr:housename": "S S Manor",
        "addr:postcode": "560043",
        "addr:street": "Basbusabpalaya Service Road",
        "brand": "Cromā",
        "brand:wikidata": "Q5187683",
        "building": "yes",
        "landuse": "retail",
        "name": "Cromā",
        "name:kn": "ಕ್ರೋಮ",
        "opening_hours": "Mo-Su 10:30-21:30",
        "phone": "+91-80-67127288",
        "shop": "electronics"
      }
    },
    {
      "type": "way",
      "id": 183863407,
      "center": {
        "lat": 13.0270303,
        "lon": 77.6362369
      },
      "tags": {
        "amenity": "college",
        "building": "yes",
        "name": "Chris Canadian Institutions"
      }
    },
    {
      "type": "way",
      "id": 340956581,
      "center": {
        "lat": 13.0302973,
        "lon": 77.6385689
      },
      "tags": {
        "leisure": "pitch",
        "sport": "soccer"
      }
    },
    {
      "type": "way",
      "id": 346136743,
      "center": {
        "lat": 13.0279136,
        "lon": 77.6394093
      },
      "tags": {
        "building": "yes",
        "name": "Family Point",
        "shop": "convenience"
      }
    },
    {
      "type": "way",
      "id": 530861581,
      "center": {
        "lat": 13.0279653,
        "lon": 77.6338225
      },
      "tags": {
        "addr:city": "Bangalore",
        "addr:housenumber": "36/2",
        "addr:postcode": "560043",
        "addr:street": "Hennur Flyover",
        "amenity": "college",
        "contact:facebook": "https://www.facebook.com/rcmsbangalore",
        "ele": "5",
        "internet_access": "yes",
        "internet_access:fee": "customers",
        "name": "Royal College of Management Studies",
        "website": "https://www.rcms.co.in/"
      }
    },
    {
      "type": "way",
      "id": 530861582,
      "center": {
        "lat": 13.0280972,
        "lon": 77.6335813
      },
      "tags": {
        "leisure": "pitch",
        "lit": "yes",
        "name": "Bangalore Football Turf",
        "sport": "soccer",
        "surface": "grass"
      }
    },
    {
      "type": "way",
      "id": 687173199,
      "center": {
        "lat": 13.0265644,
        "lon": 77.6383427
      },
      "tags": {
        "amenity": "bus_station",
        "name": "Kalyan Nagar BMTC Depot"
      }
    },
    {
      "type": "way",
      "id": 687173212,
      "center": {
        "lat": 13.0288442,
        "lon": 77.6370308
      },
      "tags": {
        "amenity": "social_facility",
        "landuse": "residential",
        "name": "Little Sisters of Poor",
        "social_facility": "assisted_living",
        "social_facility:for": "senior"
      }
    },
    {
      "type": "way",
      "id": 687173217,
      "center": {
        "lat": 13.0282997,
        "lon": 77.637756
      },
      "tags": {
        "amenity": "place_of_worship",
        "building": "church",
        "check_date": "2024-05-27",
        "name": "Saint Rocks Church",
        "religion": "christian"
      }
    },
    {
      "type": "way",
      "id": 687173234,
      "center": {
        "lat": 13.0286442,
        "lon": 77.637889
      },
      "tags": {
        "leisure": "pitch"
      }
    },
    {
      "type": "way",
      "id": 687173287,
      "center": {
        "lat": 13.0297477,
        "lon": 77.6415271
      },
      "tags": {
        "amenity": "college",
        "landuse": "college",
        "name": "St Vincent Pallotti College"
      }
    },
    {
      "type": "way",
      "id": 771923571,
      "center": {
        "lat": 13.0308225,
        "lon": 77.642713
      },
      "tags": {
        "amenity": "parking"
      }
    },
    {
      "type": "way",
      "id": 771923576,
      "center": {
        "lat": 13.0269511,
        "lon": 77.6379541
      },
      "tags": {
        "leisure": "pitch",
        "sport": "basketball"
      }
    },
    {
      "type": "way",
      "id": 771923577,
      "center": {
        "lat": 13.0269406,
        "lon": 77.6381818
      },
      "tags": {
        "leisure": "pitch",
        "sport": "tennis"
      }
    },
    {
      "type": "way",
      "id": 771923579,
      "center": {
        "lat": 13.027528,
        "lon": 77.6382344
      },
      "tags": {
        "access": "private",
        "leisure": "swimming_pool"
      }
    },
    {
      "type": "way",
      "id": 1347467890,
      "center": {
        "lat": 13.0299492,
        "lon": 77.6406743
      },
      "tags": {
        "leisure": "pitch"
      }
    },
    {
      "type": "way",
      "id": 1347735212,
      "center": {
        "lat": 13.0341902,
        "lon": 77.6484144
      },
      "tags": {
        "access": "private",
        "leisure": "swimming_pool"
      }
    },
    {
      "type": "way",
      "id": 1366656563,
      "center": {
        "lat": 13.0266048,
        "lon": 77.6431271
      },
      "tags": {
        "amenity": "school",
        "name": "Narayana e-Techno School"
      }
    },
    {
      "type": "way",
      "id": 1388143634,
      "center": {
        "lat": 13.0342908,
        "lon": 77.6435324
      },
      "tags": {
        "amenity": "school",
        "name": "Sri Chaitanya Techno School, Kalyan Nagar"
      }
    },
    {
      "type": "way",
      "id": 1409539450,
      "center": {
        "lat": 13.0271904,
        "lon": 77.636099
      },
      "tags": {
        "amenity": "college"
      }
    },
    {
      "type": "way",
      "id": 1409539462,
      "center": {
        "lat": 13.0238349,
        "lon": 77.6450462
      },
      "tags": {
        "leisure": "park"
      }
    }
  ]
}