{
  "area_name": "Chikka Adugodi",
  "osm_id": 19884538,
  "osm_type": "relation",
  "place_type": "administrative",
  "amenity_count": 58,
  "amenities": [
    {
      "type": "node",
      "id": 1462978306,
      "lat": 12.9342498,
      "lon": 77.6099223,
      "tags": {
        "addr:postcode": "560095",
        "addr:street": "Near Forum Mall, Koramangala",
        "name": "Forum Cars",
        "shop": "car"
      }
    },
    {
      "type": "node",
      "id": 1466932410,
      "lat": 12.93091,
      "lon": 77.608255,
      "tags": {
        "amenity": "place_of_worship",
        "name": "Anjaneya Temple",
        "name:kn": "ಆಂಜನೇಯ ದೇವಸ್ಥಾನ",
        "religion": "hindu"
      }
    },
    {
      "type": "node",
      "id": 1466932413,
      "lat": 12.9309532,
      "lon": 77.6084387,
      "tags": {
        "amenity": "place_of_worship",
        "name": "Srirama Temple",
        "name:kn": "ಶ್ರೀರಾಮ ದೇವಸ್ಥಾನ",
        "religion": "hindu"
      }
    },
    {
      "type": "node",
      "id": 1472748545,
      "lat": 12.9335885,
      "lon": 77.6107455,
      "tags": {
        "addr:street": "Hosur road",
        "name": "@home",
        "shop": "furniture",
        "wheelchair": "no"
      }
    },
    {
      "type": "node",
      "id": 1474432223,
      "lat": 12.9340524,
      "lon": 77.6102738,
      "tags": {
        "name": "Mom & Me",
        "shop": "clothes",
        "wheelchair": "no"
      }
    },
    {
      "type": "node",
      "id": 1474432224,
      "lat": 12.9339607,
      "lon": 77.6104356,
      "tags": {
        "addr:street": "hosur road",
        "amenity": "restaurant",
        "indoor_seating": "yes",
        "name": "Shiva Sagar",
        "name:kn": "ಶಿವಸಾಗರ್",
        "outdoor_seating": "yes"
      }
    },
    {
      "type": "node",
      "id": 1474455985,
      "lat": 12.9312664,
      "lon": 77.6097492,
      "tags": {
        "name": "SreeVinayaka Alcohol Shop",
        "shop": "alcohol"
      }
    },
    {
      "type": "node",
      "id": 1474456651,
      "lat": 12.9325892,
      "lon": 77.6101676,
      "tags": {
        "amenity": "place_of_worship",
        "name": "Ayyappa Swami Temple",
        "name:kn": "ಅಯ್ಯಪ್ಪ ಸ್ವಾಮಿ ದೇವಸ್ಥಾನ",
        "religion": "hindu"
      }
    },
    {
      "type": "node",
      "id": 2694347072,
      "lat": 12.9250286,
      "lon": 77.6143616,
      "tags": {
        "addr:city": "Bangalore",
        "addr:postcode": "560068",
        "addr:street": "Maruthi Nagar Main Road",
        "amenity": "restaurant",
        "cuisine": "sweet_and_chat_shop",
        "name": "New Surya Sweets",
        "wheelchair": "limited"
      }
    },
    {
      "type": "node",
      "id": 3924977249,
      "lat": 12.9302063,
      "lon": 77.6140996,
      "tags": {
        "addr:street": "Hosur road",
        "amenity": "cafe",
        "name": "Seekers Cafe",
        "wheelchair": "yes"
      }
    },
    {
      "type": "node",
      "id": 3931929663,
      "lat": 12.9341108,
      "lon": 77.6099202,
      "tags": {
        "addr:city": "Bengaluru",
        "addr:country": "IN",
        "addr:housenumber": "16",
        "addr:postcode": "560029",
        "addr:street": "Tavarekere Main Road",
        "amenity": "coworking_space",
        "email": "ikpeden@ikpknowledgepark.com",
        "leisure": "hackerspace",
        "name": "IKP EDEN",
        "name:kn": "ಐಕೆಪಿ-ಇಡೆನ್",
        "phone": "+91-8790672424",
        "source": "https://ikpeden.com",
        "website": "https://ikpeden.com/"
      }
    },
    {
      "type": "node",
      "id": 6348945619,
      "lat": 12.9305952,
      "lon": 77.6083105,
      "tags": {
        "addr:place": "Suddagunte Palya",
        "amenity": "school",
        "isced:level": "2",
        "name": "GHPS Suddagunte Palya",
        "name:kn": "ಸರ್ಕಾರಿ ಹಿರಿಯ ಪ್ರಾಥಮಿಕ ಶಾಲೆ ಸುದ್ದಗುಂಟೆ ಪಾಳ್ಯ",
        "operator": "Department of Primary and Secondary Education",
        "operator:type": "government",
        "operator:wikidata": "Q111467381",
        "school": "primary"
      }
    },
    {
      "type": "node",
      "id": 6349591431,
      "lat": 12.93132,
      "lon": 77.6088007,
      "tags": {
        "addr:place": "S G Palya",
        "amenity": "school",
        "isced:level": "2",
        "name": "Francescon S G Palya",
        "name:kn": "ಫ್ರಾನ್ಸೆಸ್ಕಾನ್ ಎಸ್.ಜಿ ಪಾಳ್ಯ",
        "operator": "Pvt. Aided",
        "school": "primary"
      }
    },
    {
      "type": "node",
      "id": 6408950782,
      "lat": 12.9219732,
      "lon": 77.6156311,
      "tags": {
        "addr:place": "BTM Layout",
        "amenity": "school",
        "isced:level": "3",
        "name": "Our Lady Fathima HPS, B T M Layout W No 65",
        "name:kn": "ಅವರ್ ಲೇಡಿ ಫಾತೀಮ ಹಿರಿಯ ಪ್ರಾಥಮಿಕ ಶಾಲೆ, ಬಿ.ಟಿ.ಎಂ ಲೇಔಟ್",
        "operator": "Private Un-Aided",
        "school": "Higher Secondary"
      }
    },
    {
      "type": "node",
      "id": 6536937302,
      "lat": 12.9246386,
      "lon": 77.6149532,
      "tags": {
        "addr:place": "Madivala",
        "amenity": "school",
        "isced:level": "2",
        "name": "Padmavathi HPS Madivala",
        "name:kn": "ಪದ್ಮಾವತಿ ಹಿರಿಯ ಪ್ರಾಥಮಿಕ ಶಾಲೆ ಮಡಿವಾಳ",
        "operator": "Private Un-Aided",
        "school": "primary"
      }
    },
    {
      "type": "node",
      "id": 7035335585,
      "lat": 12.9317986,
      "lon": 77.6101387,
      "tags": {
        "name": "Look Smart",
        "shop": "clothes"
      }
    },
    {
      "type": "node",
      "id": 7035372785,
      "lat": 12.9314962,
      "lon": 77.609838,
      "tags": {
        "amenity": "restaurant",
        "cuisine": "chinese;chicken;asian;indian",
        "name": "BNG Dining",
        "phone": "7259452829"
      }
    },
    {
      "type": "node",
      "id": 7579924711,
      "lat": 12.925461,
      "lon": 77.609021,
      "tags": {
        "addr:district": "Bengaluru Urban",
        "addr:full": "Maruti Nagar, Brindavan Nagar, BTM Layout, Bengaluru",
        "addr:postcode": "560029",
        "addr:state": "Karnataka",
        "amenity": "hospital",
        "name": "Lavis Hospital",
        "source": "Local Knowledge"
      }
    },
    {
      "type": "node",
      "id": 7579924764,
      "lat": 12.928795,
      "lon": 77.609192,
      "tags": {
        "addr:district": "Bengaluru Urban",
        "addr:full": "Thavarekere Main Road, Bengaluru",
        "addr:postcode": "560029",
        "addr:state": "Karnataka",
        "amenity": "dentist",
        "name": "Vinayaka Sai Dental Clinic",
        "source": "Local Knowledge"
      }
    },
    {
      "type": "node",
      "id": 7579924766,
      "lat": 12.9265183,
      "lon": 77.6090995,
      "tags": {
        "addr:district": "Bengaluru Urban",
        "addr:full": "Brindavan Nagar, S.G. Palya, Bengaluru",
        "addr:postcode": "560029",
        "addr:state": "Karnataka",
        "amenity": "hospital",
        "name": "Health India Hospital",
        "source": "Local Knowledge"
      }
    },
    {
      "type": "node",
      "id": 10571105440,
      "lat": 12.9335943,
      "lon": 77.6108114,
      "tags": {
        "addr:city": "Bengaluru",
        "addr:housenumber": "518",
        "addr:postcode": "560029",
        "addr:street": "1st Floor, Above Orion Suzuki Showroom, Bhoovanappa Layout, Hosur Road, Opposite to Forum, Kormangala",
        "name": "Orion Motors Riding Store",
        "opening_hours": "Mo-Su 09:30-20:00",
        "phone": "09902077488",
        "shop": "motorcycle"
      }
    },
    {
      "type": "node",
      "id": 12187048816,
      "lat": 12.9231056,
      "lon": 77.6156589,
      "tags": {
        "amenity": "toilets",
        "check_date": "2024-09-18",
        "fee": "yes",
        "name": "Pay & Use Toilet",
        "wheelchair": "no"
      }
    },
    {
      "type": "node",
      "id": 12187048818,
      "lat": 12.9248794,
      "lon": 77.6150117,
      "tags": {
        "amenity": "pharmacy",
        "brand": "Apollo Pharmacy",
        "brand:wikidata": "Q62562612",
        "check_date": "2024-09-18",
        "healthcare": "pharmacy",
        "name": "Apollo Pharmacy",
        "payment:cash": "yes",
        "payment:mastercard": "yes",
        "payment:visa": "yes",
        "source": "survey"
      }
    },
    {
      "type": "node",
      "id": 12187048820,
      "lat": 12.922672,
      "lon": 77.6154911,
      "tags": {
        "amenity": "place_of_worship",
        "check_date": "2024-09-18",
        "name": "Om Sakthi Adiparashakthi Temple",
        "religion": "hindu",
        "source": "survey"
      }
    },
    {
      "type": "node",
      "id": 12187048821,
      "lat": 12.923402,
      "lon": 77.6148551,
      "tags": {
        "air_conditioning": "no",
        "check_date": "2024-09-18",
        "drive_through": "no",
        "name": "Maruthi Spirit Zone",
        "shop": "alcohol",
        "source": "survey"
      }
    },
    {
      "type": "node",
      "id": 12285338811,
      "lat": 12.9333391,
      "lon": 77.6110527,
      "tags": {
        "amenity": "atm",
        "brand": "HDFC Bank",
        "brand:wikidata": "Q631047",
        "check_date": "2024-10-23",
        "operator": "HDFC Bank",
        "operator:wikidata": "Q631047",
        "short_name": "HDFC"
      }
    },
    {
      "type": "node",
      "id": 12466486195,
      "lat": 12.931069,
      "lon": 77.613948,
      "tags": {
        "amenity": "post_box",
        "operator": "India Post",
        "operator:wikidata": "Q3519720"
      }
    },
    {
      "type": "node",
      "id": 12581402358,
      "lat": 12.934097,
      "lon": 77.6102499,
      "tags": {
        "alt_name": "Konians",
        "amenity": "bar",
        "check_date": "2025-02-12",
        "name": "Konian Bar And Restaurant"
      }
    },
    {
      "type": "node",
      "id": 13013584294,
      "lat": 12.9341515,
      "lon": 77.6101349,
      "tags": {
        "amenity": "bar",
        "name": "404 by TOF"
      }
    },
    {
      "type": "way",
      "id": 133179621,
      "center": {
        "lat": 12.9318731,
        "lon": 77.6076887
      },
      "tags": {
        "addr:street": "8th Cross",
        "amenity": "cinema",
        "building": "yes",
        "name": "Srinivasa Theatre, SG palaya",
        "name:kn": "ಶ್ರೀನಿವಾಸ"
      }
    },
    {
      "type": "way",
      "id": 134032583,
      "center": {
        "lat": 12.9305539,
        "lon": 77.6102858
      },
      "tags": {
        "amenity": "office",
        "building": "office",
        "name": "Oracle",
        "name:kn": "ಒರೇಕಲ್"
      }
    },
    {
      "type": "way",
      "id": 347187533,
      "center": {
        "lat": 12.9299327,
        "lon": 77.6141788
      },
      "tags": {
        "amenity": "place_of_worship",
        "building": "church",
        "check_date": "2025-06-05",
        "name": "St Antonys Friary Church",
        "name:kn": "ಸಂತ ಆಂಟೊನಿ ದೇವಾಲಯ",
        "religion": "christian",
        "wheelchair": "yes"
      }
    },
    {
      "type": "way",
      "id": 347188098,
      "center": {
        "lat": 12.9334436,
        "lon": 77.6110208
      },
      "tags": {
        "brand": "Yamaha",
        "brand:wikidata": "Q158888",
        "brand:wikipedia": "en:Yamaha Motor Company",
        "building": "yes",
        "name": "Orion Motors",
        "operator": "Orion Motors",
        "shop": "motorcycle"
      }
    },
    {
      "type": "way",
      "id": 347188384,
      "center": {
        "lat": 12.9332194,
        "lon": 77.6114581
      },
      "tags": {
        "addr:housenumber": "150/1&2",
        "addr:street": "Dr. M H Marigowda Road",
        "brand": "Honda",
        "brand:wikidata": "Q9584",
        "brand:wikipedia": "en:Honda",
        "building": "yes",
        "name": "Raja Honda",
        "opening_hours": "Mo-Sa 09:00-18:00; Su 09:00-16:00",
        "phone": "9035015619",
        "shop": "motorcycle"
      }
    },
    {
      "type": "way",
      "id": 389341670,
      "center": {
        "lat": 12.9288993,
        "lon": 77.6131406
      },
      "tags": {
        "leisure": "pitch"
      }
    },
    {
      "type": "way",
      "id": 389341672,
      "center": {
        "lat": 12.9306379,
        "lon": 77.6138852
      },
      "tags": {
        "amenity": "place_of_worship",
        "name": "St Antonys Friary Church",
        "name:kn": "ಸಂತ ಆಂಟೊನಿ ದೇವಾಲಯ",
        "religion": "christian"
      }
    },
    {
      "type": "way",
      "id": 389341676,
      "center": {
        "lat": 12.9305145,
        "lon": 77.6135148
      },
      "tags": {
        "amenity": "college",
        "building": "yes",
        "name": "Indian Institute of Psychology & Research",
        "short_name": "IIPR",
        "website": "https://iipr.in"
      }
    },
    {
      "type": "way",
      "id": 1160859548,
      "center": {
        "lat": 12.9315791,
        "lon": 77.6117802
      },
      "tags": {
        "amenity": "monastery",
        "denomination": "catholic",
        "landuse": "religious",
        "name": "Augustine Nivas",
        "religion": "christian"
      }
    },
    {
      "type": "way",
      "id": 1160859551,
      "center": {
        "lat": 12.9314127,
        "lon": 77.6130167
      },
      "tags": {
        "leisure": "park",
        "name": "BBMP Park",
        "name:kn": "ಬೃ. ಬೆ. ಮ. ಪಾ. ಉದ್ಯಾನವನ",
        "operator": "ಬೃಹತ್ ಬೆಂಗಳೂರು ಮಹಾನಗರ ಪಾಲಿಕೆ",
        "operator:en": "Bruhat Bengaluru Mahanagara Palike",
        "operator:ka": "ಬೃಹತ್ ಬೆಂಗಳೂರು ಮಹಾನಗರ ಪಾಲಿಕೆ",
        "operator:short": "BBMP",
        "operator:type": "government",
        "operator:wikidata": "Q4978693"
      }
    },
    {
      "type": "way",
      "id": 1219030819,
      "center": {
        "lat": 12.9306937,
        "lon": 77.6107959
      },
      "tags": {
        "access": "private",
        "amenity": "parking"
      }
    },
    {
      "type": "way",
      "id": 1219030820,
      "center": {
        "lat": 12.9304258,
        "lon": 77.6109431
      },
      "tags": {
        "access": "private",
        "leisure": "park"
      }
    },
    {
      "type": "way",
      "id": 1219030821,
      "center": {
        "lat": 12.9305404,
        "lon": 77.6110871
      },
      "tags": {
        "access": "private",
        "amenity": "parking"
      }
    },
    {
      "type": "way",
      "id": 1219030822,
      "center": {
        "lat": 12.9300572,
        "lon": 77.6115421
      },
      "tags": {
        "access": "private",
        "amenity": "parking"
      }
    },
    {
      "type": "way",
      "id": 1219030823,
      "center": {
        "lat": 12.929951,
        "lon": 77.6107502
      },
      "tags": {
        "access": "private",
        "amenity": "parking"
      }
    },
    {
      "type": "way",
      "id": 1219030824,
      "center": {
        "lat": 12.9286314,
        "lon": 77.6114439
      },
      "tags": {
        "access": "private",
        "leisure": "pitch",
        "sport": "basketball"
      }
    },
    {
      "type": "way",
      "id": 1219030826,
      "center": {
        "lat": 12.929375,
        "lon": 77.6103938
      },
      "tags": {
        "leisure": "playground"
      }
    },
    {
      "type": "way",
      "id": 1219030827,
      "center": {
        "lat": 12.9297306,
        "lon": 77.6109174
      },
      "tags": {
        "access": "private",
        "leisure": "park"
      }
    },
    {
      "type": "way",
      "id": 1219030828,
      "center": {
        "lat": 12.9294989,
        "lon": 77.6110888
      },
      "tags": {
        "access": "private",
        "amenity": "parking",
        "parking": "surface"
      }
    },
    {
      "type": "way",
      "id": 1219030830,
      "center": {
        "lat": 12.9295685,
        "lon": 77.6112926
      },
      "tags": {
        "access": "no",
        "leisure": "swimming_pool"
      }
    },
    {
      "type": "way",
      "id": 1219030831,
      "center": {
        "lat": 12.9299776,
        "lon": 77.6102008
      },
      "tags": {
        "access": "private",
        "leisure": "pitch",
        "sport": "tennis"
      }
    },
    {
      "type": "way",
      "id": 1219030832,
      "center": {
        "lat": 12.9301428,
        "lon": 77.6100962
      },
      "tags": {
        "access": "private",
        "amenity": "parking",
        "name": "Visitor Parking",
        "name:kn": "ವಿಮಾನ ನಿಲ್ದಾಣ"
      }
    },
    {
      "type": "way",
      "id": 1354222898,
      "center": {
        "lat": 12.9272388,
        "lon": 77.6145138
      },
      "tags": {
        "alt_name": "Society of the Sisters of the Holy Cross",
        "amenity": "monastery",
        "community:gender": "female",
        "name": "Medico Social Centre",
        "religion": "christian"
      }
    },
    {
      "type": "way",
      "id": 1409123687,
      "center": {
        "lat": 12.9319899,
        "lon": 77.6124959
      },
      "tags": {
        "amenity": "social_facility",
        "name": "Elizabeth Care home",
        "social_facility": "assisted_living",
        "social_facility:for": "senior"
      }
    },
    {
      "type": "way",
      "id": 1409123744,
      "center": {
        "lat": 12.9304883,
        "lon": 77.6135836
      },
      "tags": {
        "leisure": "garden"
      }
    },
    {
      "type": "way",
      "id": 1442261765,
      "center": {
        "lat": 12.9242678,
        "lon": 77.614629
      },
      "tags": {
        "amenity": "fuel",
        "check_date": "2024-09-18",
        "self_service": "no"
      }
    },
    {
      "type": "way",
      "id": 1442261830,
      "center": {
        "lat": 12.9252902,
        "lon": 77.61237
      },
      "tags": {
        "addr:place": "Madiwala",
        "amenity": "school",
        "isced:level": "3",
        "name": "Venkateshwara HS, Madiwala W No 66",
        "name:kn": "ವೆಂಕಟೇಶ್ವರ ಪ್ರೌಢಶಾಲೆ,ಮಡಿವಾಳ",
        "operator": "Private Un-Aided",
        "school": "Higher Secondary"
      }
    },
    {
      "type": "way",
      "id": 1442271947,
      "center": {
        "lat": 12.9265187,
        "lon": 77.6146547
      },
      "tags": {
        "amenity": "place_of_worship",
        "name": "Srinivasa Temple",
        "name:kn": "ಶ್ರೀನಿವಾಸ ದೇವಸ್ಥಾನ",
        "religion": "hindu"
      }
    },
    {
      "type": "way",
      "id": 1442330288,
      "center": {
        "lat": 12.9239736,
        "lon": 77.6133232
      },
      "tags": {
        "addr:city": "Bangalore",
        "addr:housenumber": "2324, Om Comple",
        "addr:postcode": "560068",
        "addr:street": "Maruthi Nagar Main Road",
        "amenity": "hospital",
        "emergency": "yes",
        "name": "Life Care Hospital",
        "phone": "080 2684 6677"
      }
    }
  ]
}