{
  "area_name": "Chinnappanahalli",
  "osm_id": 2937449067,
  "osm_type": "node",
  "place_type": "neighbourhood",
  "amenity_count": 460,
  "amenities": [
    {
      "type": "node",
      "id": 413368456,
      "lat": 12.9563782,
      "lon": 77.7108662,
      "tags": {
        "addr:housenumber": "35/1A",
        "addr:postcode": "560037",
        "addr:street": "Varthur Road",
        "amenity": "restaurant",
        "cuisine": "chinese",
        "phone": "+91-80-28540039"
      }
    },
    {
      "type": "node",
      "id": 975680681,
      "lat": 12.9559302,
      "lon": 77.7112689,
      "tags": {
        "addr:city": "Bangalore",
        "addr:street": "Varthur Road",
        "amenity": "hospital",
        "emergency": "yes",
        "healthcare": "hospital",
        "name": "Yashomathi Hospitals"
      }
    },
    {
      "type": "node",
      "id": 983942385,
      "lat": 12.9622669,
      "lon": 77.7014635,
      "tags": {
        "addr:city": "Doddanekundi, Marathahalli",
        "addr:street": "Outer Ring Road",
        "amenity": "cafe",
        "cuisine": "coffee_shop",
        "name": "The Coffee Brewery"
      }
    },
    {
      "type": "node",
      "id": 1024500714,
      "lat": 12.9647425,
      "lon": 77.701796,
      "tags": {
        "addr:city": "Marathhalli, Bangalore",
        "addr:housenumber": "95/3",
        "addr:postcode": "560037",
        "addr:street": "Outer Ring Road",
        "email": "nayeemahmed@yahoo.com",
        "name": "Auto Sound",
        "phone": "+9-80-65838277",
        "service": "parts",
        "shop": "car"
      }
    },
    {
      "type": "node",
      "id": 1038847086,
      "lat": 12.9589311,
      "lon": 77.7014273,
      "tags": {
        "amenity": "place_of_worship",
        "check_date": "2023-12-28",
        "name": "Anjaneya Temple",
        "name:kn": "ಆಂಜನೇಯ ದೇವಸ್ಥಾನ",
        "religion": "hindu",
        "wheelchair": "limited"
      }
    },
    {
      "type": "node",
      "id": 1047248383,
      "lat": 12.9570571,
      "lon": 77.7091042,
      "tags": {
        "addr:city": "Marathhalli",
        "addr:postcode": "560037",
        "addr:street": "HAL Airport Road (near Marathahalli Bridge)",
        "amenity": "restaurant",
        "name": "Spice Garden",
        "name:kn": "ಸ್ಪೈಸ್ ಗಾರ್ಡನ್",
        "phone": "+91-80-28476688;+91-80-65636522;+91-80-41705020",
        "wheelchair": "limited"
      }
    },
    {
      "type": "node",
      "id": 1058729953,
      "lat": 12.9656267,
      "lon": 77.7018348,
      "tags": {
        "addr:city": "Doddanekundi, Bangalore",
        "addr:housename": "MR Kote Plaza",
        "addr:housenumber": "95/3",
        "addr:street": "Outer Ring Road",
        "amenity": "restaurant",
        "name": "Infusion Restaurant",
        "name:kn": "ಇನ್‌ಫ್ಯುಶನ್ ರೆಸ್ಟೋರೆಂಟ್"
      }
    },
    {
      "type": "node",
      "id": 1058729963,
      "lat": 12.9655927,
      "lon": 77.7018319,
      "tags": {
        "addr:city": "Doddanekundi, Bangalore",
        "addr:street": "Outer Ring Road",
        "check_date": "2024-10-20",
        "name": "Smart Point",
        "payment:cash": "yes",
        "payment:credit_cards": "yes",
        "payment:debit_cards": "yes",
        "shop": "supermarket"
      }
    },
    {
      "type": "node",
      "id": 1135052608,
      "lat": 12.9611813,
      "lon": 77.7054148,
      "tags": {
        "amenity": "pharmacy"
      }
    },
    {
      "type": "node",
      "id": 1150839598,
      "lat": 12.9568527,
      "lon": 77.6990468,
      "tags": {
        "addr:district": "Bengaluru Urban",
        "addr:full": "93/1, 565, Srinivasa Complex Ring Road Attached To Main Road",
        "addr:postcode": "560037",
        "addr:state": "Karnataka",
        "addr:street": "Varthur Road",
        "amenity": "hospital",
        "level": "0",
        "name": "New Akshay Mallya Hospital",
        "source": "OpenGovernmentData"
      }
    },
    {
      "type": "node",
      "id": 1150839601,
      "lat": 12.9569453,
      "lon": 77.6992375,
      "tags": {
        "addr:street": "Varthur Road",
        "brand": "Puma",
        "brand:wikidata": "Q157064",
        "name": "Puma",
        "name:kn": "ಪೂಮ",
        "shop": "clothes"
      }
    },
    {
      "type": "node",
      "id": 1150839607,
      "lat": 12.956906,
      "lon": 77.698972,
      "tags": {
        "addr:street": "Varthur Road",
        "name": "Happy Mart",
        "shop": "convenience"
      }
    },
    {
      "type": "node",
      "id": 1150839622,
      "lat": 12.9569514,
      "lon": 77.6992246,
      "tags": {
        "addr:street": "Varthur Road",
        "brand": "Reebok",
        "brand:wikidata": "Q466183",
        "name": "Reebok",
        "shop": "clothes"
      }
    },
    {
      "type": "node",
      "id": 1150839626,
      "lat": 12.9568693,
      "lon": 77.6987024,
      "tags": {
        "addr:street": "Varthur Road",
        "name": "Lilliput",
        "shop": "clothes"
      }
    },
    {
      "type": "node",
      "id": 1168221740,
      "lat": 12.9570622,
      "lon": 77.7087772,
      "tags": {
        "amenity": "restaurant",
        "brand": "Pizza Hut",
        "brand:wikidata": "Q191615",
        "cuisine": "pizza",
        "name": "Pizza Hut",
        "name:kn": "ಪಿಟ್ಸ ಹಟ್",
        "smoking": "no"
      }
    },
    {
      "type": "node",
      "id": 1386045373,
      "lat": 12.9686771,
      "lon": 77.7010336,
      "tags": {
        "air_conditioning": "yes",
        "amenity": "cafe",
        "brand": "Cafe Coffee Day",
        "brand:wikidata": "Q5017235",
        "check_date:opening_hours": "2024-04-01",
        "cuisine": "coffee_shop",
        "diet:halal": "yes",
        "diet:vegan": "yes",
        "diet:vegetarian": "yes",
        "indoor_seating": "yes",
        "name": "Cafe Coffee Day",
        "name:kn": "ಕಫೆ ಕಾಫಿ ಡೇ",
        "opening_hours": "Mo-Su 08:00-24:00",
        "outdoor_seating": "yes",
        "smoking": "no",
        "takeaway": "yes",
        "wheelchair": "no"
      }
    },
    {
      "type": "node",
      "id": 1428600902,
      "lat": 12.9573067,
      "lon": 77.7087044,
      "tags": {
        "addr:city": "Marathahalli, Bangalore",
        "addr:housenumber": "S1,S2",
        "addr:street": "Spice Garden Compound Road",
        "amenity": "hospital",
        "check_date": "2024-08-25",
        "emergency": "no",
        "name": "Tenet diagnostics"
      }
    },
    {
      "type": "node",
      "id": 1428601793,
      "lat": 12.9573761,
      "lon": 77.7086858,
      "tags": {
        "addr:city": "Marathahalli, Bangalore",
        "amenity": "pharmacy",
        "name": "Trust Pharmacy"
      }
    },
    {
      "type": "node",
      "id": 1464786131,
      "lat": 12.9567592,
      "lon": 77.708841,
      "tags": {
        "name": "Village Hypermart",
        "shop": "supermarket"
      }
    },
    {
      "type": "node",
      "id": 1465206235,
      "lat": 12.9565185,
      "lon": 77.6979303,
      "tags": {
        "name": "Citizen Bakery",
        "shop": "bakery"
      }
    },
    {
      "type": "node",
      "id": 1465208705,
      "lat": 12.9560062,
      "lon": 77.6979089,
      "tags": {
        "amenity": "bar",
        "name": "Tirumala Bar And Resturant"
      }
    },
    {
      "type": "node",
      "id": 1465210892,
      "lat": 12.955452,
      "lon": 77.697866,
      "tags": {
        "amenity": "restaurant",
        "name": "Megha Restaurant",
        "name:kn": "ಮೇಘ ರೆಸ್ಟೋರೆಂಟ್"
      }
    },
    {
      "type": "node",
      "id": 1465217391,
      "lat": 12.9548561,
      "lon": 77.6981235,
      "tags": {
        "addr:housename": "little flower bakery",
        "addr:street": "Tuasi theater rd, 3rd cross, Marathalli east",
        "name": "Little Flower Bakery",
        "shop": "bakery"
      }
    },
    {
      "type": "node",
      "id": 1496447448,
      "lat": 12.967649,
      "lon": 77.7041355,
      "tags": {
        "amenity": "place_of_worship",
        "name": "Mariamma Temple",
        "name:kn": "ಮಾರಿಯಮ್ಮ ದೇವಸ್ಥಾನ",
        "religion": "hindu"
      }
    },
    {
      "type": "node",
      "id": 1657041179,
      "lat": 12.957444,
      "lon": 77.7091287,
      "tags": {
        "amenity": "restaurant",
        "name": "Holly Flames",
        "name:kn": "ಹಾಲಿ ಫ್ಲೇಮ್ಸ್"
      }
    },
    {
      "type": "node",
      "id": 1657041224,
      "lat": 12.957695,
      "lon": 77.709012,
      "tags": {
        "amenity": "cafe",
        "cuisine": "coffee_shop",
        "name": "Vista Lounge"
      }
    },
    {
      "type": "node",
      "id": 1752570100,
      "lat": 12.9573026,
      "lon": 77.7006958,
      "tags": {
        "amenity": "bank",
        "brand": "State Bank of India",
        "brand:wikidata": "Q1340361",
        "brand:wikipedia": "en:State Bank of India",
        "check_date": "2023-08-05",
        "name": "State Bank of India",
        "name:kn": "ಭಾರತೀಯ ಸ್ಟೇಟ್ ಬ್ಯಾಂಕ್",
        "short_name": "SBI",
        "website": "https://www.sbi.co.in",
        "wheelchair": "no"
      }
    },
    {
      "type": "node",
      "id": 1752602639,
      "lat": 12.9572537,
      "lon": 77.7006526,
      "tags": {
        "amenity": "atm",
        "branch": "24x7 e Lobby",
        "brand": "State Bank of India",
        "brand:wikidata": "Q1340361",
        "check_date": "2023-08-05",
        "fee": "no",
        "name": "State Bank of India",
        "name:kn": "ಎಸ್ ಬಿ ಐ",
        "operator": "State Bank of India",
        "operator:wikidata": "Q1340361",
        "short_name": "SBI",
        "wheelchair": "no"
      }
    },
    {
      "type": "node",
      "id": 1752648998,
      "lat": 12.9557166,
      "lon": 77.6979892,
      "tags": {
        "amenity": "pharmacy",
        "check_date": "2025-11-15",
        "wheelchair": "no"
      }
    },
    {
      "type": "node",
      "id": 1752650060,
      "lat": 12.9559362,
      "lon": 77.6975091,
      "tags": {
        "shop": "kiosk"
      }
    },
    {
      "type": "node",
      "id": 1752651317,
      "lat": 12.9560469,
      "lon": 77.6979205,
      "tags": {
        "shop": "greengrocer"
      }
    },
    {
      "type": "node",
      "id": 1837245438,
      "lat": 12.9559516,
      "lon": 77.7115294,
      "tags": {
        "name": "Car Care",
        "shop": "car_parts"
      }
    },
    {
      "type": "node",
      "id": 2105029468,
      "lat": 12.9571022,
      "lon": 77.7022467,
      "tags": {
        "name": "Chemmannur Jewelry",
        "shop": "jewelry"
      }
    },
    {
      "type": "node",
      "id": 2319910810,
      "lat": 12.9576091,
      "lon": 77.7009192,
      "tags": {
        "amenity": "bank",
        "brand": "Canara Bank",
        "brand:en": "Canara Bank",
        "brand:hi": "केनरा बैंक",
        "brand:kn": "ಕೆನರಾ ಬ್ಯಾಂಕ್",
        "brand:pa": "ਕੇਨਰਾ ਬੈਂਕ",
        "brand:pnb": "کینرا بینک",
        "brand:ur": "کینرا بینک",
        "brand:wikidata": "Q2003777",
        "brand:wikipedia": "en:Canara Bank",
        "brand:wikipedia:pa": "ਕੇਨਰਾ ਬੈਂਕ",
        "name": "Canara Bank",
        "name:en": "Canara Bank",
        "name:hi": "केनरा बैंक",
        "name:kn": "ಕೆನರಾ ಬ್ಯಾಂಕ್",
        "name:pa": "ਕੇਨਰਾ ਬੈਂਕ",
        "name:pnb": "کینرا بینک",
        "name:ur": "کینرا بینک",
        "website": "https://www.canarabank.com/"
      }
    },
    {
      "type": "node",
      "id": 2319910824,
      "lat": 12.9626081,
      "lon": 77.7014948,
      "tags": {
        "air_conditioning": "yes",
        "amenity": "fast_food",
        "brand": "Domino's",
        "brand:ks": "ڈومینوز",
        "brand:pa": "ਡੋਮੀਨੋਜ਼",
        "brand:ur": "ڈومینوز",
        "brand:wikidata": "Q839466",
        "brand:wikipedia": "en:Domino's Pizza",
        "check_date": "2023-08-15",
        "cuisine": "pizza",
        "diet:vegetarian": "yes",
        "drive_through": "no",
        "highchair": "no",
        "indoor_seating": "yes",
        "name": "Domino's",
        "name:ks": "ڈومینوز",
        "name:pa": "ਡੋਮੀਨੋਜ਼",
        "name:ur": "ڈومینوز",
        "outdoor_seating": "no",
        "payment:mastercard": "yes",
        "payment:visa": "yes",
        "smoking": "no",
        "takeaway": "yes",
        "wheelchair": "limited"
      }
    },
    {
      "type": "node",
      "id": 2319910827,
      "lat": 12.9608453,
      "lon": 77.7012326,
      "tags": {
        "amenity": "bank",
        "atm": "yes",
        "brand": "IndusInd Bank",
        "brand:wikidata": "Q2040323",
        "brand:wikipedia": "en:IndusInd Bank",
        "check_date": "2025-04-04",
        "name": "IndusInd Bank",
        "name:en": "IndusInd Bank",
        "website": "https://www.indusind.com",
        "wheelchair": "no"
      }
    },
    {
      "type": "node",
      "id": 2319910832,
      "lat": 12.9621049,
      "lon": 77.7014185,
      "tags": {
        "check_date": "2025-04-09",
        "name": "Just Bake",
        "shop": "bakery"
      }
    },
    {
      "type": "node",
      "id": 2319910852,
      "lat": 12.9605015,
      "lon": 77.7016821,
      "tags": {
        "addr:floor": "3",
        "amenity": "restaurant",
        "check_date": "2023-07-08",
        "indoor_seating": "yes",
        "level": "3",
        "name": "Nizam's Biryani House",
        "outdoor_seating": "no",
        "source": "survey",
        "wheelchair": "no"
      }
    },
    {
      "type": "node",
      "id": 2319910855,
      "lat": 12.9611673,
      "lon": 77.7012927,
      "tags": {
        "name": "Reliance Mobile Store",
        "shop": "mobile_phone",
        "wheelchair": "no"
      }
    },
    {
      "type": "node",
      "id": 2319910858,
      "lat": 12.9651619,
      "lon": 77.7017201,
      "tags": {
        "amenity": "restaurant",
        "cuisine": "chinese",
        "name": "Shogun"
      }
    },
    {
      "type": "node",
      "id": 2319910861,
      "lat": 12.9609553,
      "lon": 77.7012529,
      "tags": {
        "amenity": "bank",
        "atm": "yes",
        "brand": "State Bank of India",
        "brand:wikidata": "Q1340361",
        "brand:wikipedia": "en:State Bank of India",
        "name": "State Bank of India",
        "name:kn": "ಭಾರತೀಯ ಸ್ಟೇಟ್ ಬ್ಯಾಂಕ್",
        "short_name": "SBI",
        "website": "https://www.sbi.co.in",
        "wheelchair": "no"
      }
    },
    {
      "type": "node",
      "id": 2319910863,
      "lat": 12.9567268,
      "lon": 77.7017644,
      "tags": {
        "amenity": "restaurant",
        "name": "Suchitra Biryani",
        "wheelchair": "no"
      }
    },
    {
      "type": "node",
      "id": 2319910865,
      "lat": 12.965205,
      "lon": 77.7017287,
      "tags": {
        "amenity": "restaurant",
        "check_date": "2022-10-15",
        "indoor_seating": "yes",
        "name": "ORR Dhaba",
        "outdoor_seating": "no",
        "wheelchair": "no"
      }
    },
    {
      "type": "node",
      "id": 2319910871,
      "lat": 12.9616519,
      "lon": 77.7019055,
      "tags": {
        "name": "iDeal Drapes N Decor",
        "shop": "furniture"
      }
    },
    {
      "type": "node",
      "id": 2319911059,
      "lat": 12.9604135,
      "lon": 77.701674,
      "tags": {
        "amenity": "bank",
        "atm": "yes",
        "brand": "Karnataka Bank",
        "brand:wikidata": "Q2042632",
        "name": "Karnataka Bank",
        "operator": "Karnataka Bank"
      }
    },
    {
      "type": "node",
      "id": 2510955873,
      "lat": 12.955947,
      "lon": 77.7117133,
      "tags": {
        "amenity": "restaurant",
        "check_date": "2025-09-03",
        "name": "Bageecha Family Restaurant",
        "phone": "+91 80 2852 5124",
        "website": "http://www.bageecha.net.in/"
      }
    },
    {
      "type": "node",
      "id": 2534917862,
      "lat": 12.9560226,
      "lon": 77.7091896,
      "tags": {
        "amenity": "place_of_worship",
        "check_date": "2025-09-03",
        "name": "Sri Muneeshwara Temple",
        "name:kn": "ಮುನೇಶ್ವರ ದೇವಸ್ಥಾನ",
        "religion": "hindu"
      }
    },
    {
      "type": "node",
      "id": 2653583620,
      "lat": 12.9525408,
      "lon": 77.7060929,
      "tags": {
        "amenity": "bank",
        "brand": "State Bank of India",
        "brand:wikidata": "Q1340361",
        "name": "State Bank of India",
        "short_name": "SBI"
      }
    },
    {
      "type": "node",
      "id": 2678554080,
      "lat": 12.957602,
      "lon": 77.7086578,
      "tags": {
        "amenity": "studio",
        "name": "G K Vale",
        "type": "Photo_Studio"
      }
    },
    {
      "type": "node",
      "id": 2678556603,
      "lat": 12.9569985,
      "lon": 77.7032975,
      "tags": {
        "amenity": "restaurant",
        "name": "New Tandoori Point",
        "wheelchair": "no"
      }
    },
    {
      "type": "node",
      "id": 2841260105,
      "lat": 12.956702,
      "lon": 77.708882,
      "tags": {
        "amenity": "atm",
        "brand": "South Indian Bank",
        "brand:wikidata": "Q2044973",
        "drive_through": "no",
        "name": "South Indian Bank",
        "operator": "South Indian Bank",
        "operator:wikidata": "Q2044973",
        "wheelchair": "no"
      }
    },
    {
      "type": "node",
      "id": 2841270901,
      "lat": 12.9567291,
      "lon": 77.7087726,
      "tags": {
        "addr:postcode": "560037",
        "addr:state": "KARNATAKA",
        "addr:street": "Varthur Road",
        "amenity": "fast_food",
        "cuisine": "indian",
        "drive_in": "no",
        "drive_through": "no",
        "internet_access": "no",
        "name": "Puchkas Chaat Shop",
        "wheelchair": "no"
      }
    },
    {
      "type": "node",
      "id": 2841271801,
      "lat": 12.956521,
      "lon": 77.709481,
      "tags": {
        "addr:city": "Marathhalli",
        "addr:street": "Varthur Road",
        "check_date": "2024-04-22",
        "name": "Sweet Chariot",
        "shop": "bakery",
        "wheelchair": "no"
      }
    },
    {
      "type": "node",
      "id": 3150184719,
      "lat": 12.9547536,
      "lon": 77.7100815,
      "tags": {
        "addr:city": "Bangalore",
        "addr:housenumber": "36",
        "addr:postcode": "560037",
        "addr:street": "2nd Cross",
        "amenity": "dojo",
        "name": "M S Gurukkal's Kalari Academy",
        "opening_hours": "06:00-19:00",
        "sport": "Kalaripayattu,_Martial_Arts"
      }
    },
    {
      "type": "node",
      "id": 3197266302,
      "lat": 12.9546272,
      "lon": 77.7051109,
      "tags": {
        "amenity": "atm",
        "brand": "State Bank of India",
        "brand:wikidata": "Q1340361",
        "name": "State Bank of India",
        "name:kn": "ಭಾರತೀಯ ಸ್ಟೇಟ್ ಬ್ಯಾಂಕ್",
        "operator": "State Bank of India",
        "operator:wikidata": "Q1340361",
        "short_name": "SBI",
        "wheelchair": "no"
      }
    },
    {
      "type": "node",
      "id": 3205833586,
      "lat": 12.9599335,
      "lon": 77.7026354,
      "tags": {
        "amenity": "prep_school",
        "name": "Hindustan Electronics Academy"
      }
    },
    {
      "type": "node",
      "id": 3205834304,
      "lat": 12.9596512,
      "lon": 77.7026729,
      "tags": {
        "amenity": "school",
        "name:ta": "அரசு ஆரம்ப பள்ளி"
      }
    },
    {
      "type": "node",
      "id": 3236447734,
      "lat": 12.9571171,
      "lon": 77.702098,
      "tags": {
        "name": "Gili Diamond",
        "shop": "jewelry"
      }
    },
    {
      "type": "node",
      "id": 3327855633,
      "lat": 12.9575217,
      "lon": 77.7009254,
      "tags": {
        "amenity": "atm",
        "brand": "Canara Bank",
        "brand:en": "Canara Bank",
        "brand:hi": "केनरा बैंक",
        "brand:kn": "ಕೆನರಾ ಬ್ಯಾಂಕ್",
        "brand:pa": "ਕੇਨਰਾ ਬੈਂਕ",
        "brand:pnb": "کینرا بینک",
        "brand:ur": "کینرا بینک",
        "brand:wikidata": "Q2003777",
        "brand:wikipedia": "en:Canara Bank",
        "brand:wikipedia:pa": "ਕੇਨਰਾ ਬੈਂਕ",
        "name": "Canara Bank",
        "name:en": "Canara Bank",
        "name:hi": "केनरा बैंक",
        "name:kn": "ಕೆನರಾ ಬ್ಯಾಂಕ್",
        "name:pa": "ਕੇਨਰਾ ਬੈਂਕ",
        "name:pnb": "کینرا بینک",
        "name:ur": "کینرا بینک",
        "operator": "Canara Bank",
        "operator:wikidata": "Q2003777"
      }
    },
    {
      "type": "node",
      "id": 3327855634,
      "lat": 12.9571178,
      "lon": 77.7017117,
      "tags": {
        "amenity": "bank",
        "brand": "State Bank of India",
        "brand:wikidata": "Q1340361",
        "brand:wikipedia": "en:State Bank of India",
        "level": "1",
        "name": "State Bank of India",
        "name:kn": "ಭಾರತೀಯ ಸ್ಟೇಟ್ ಬ್ಯಾಂಕ್",
        "short_name": "SBI",
        "website": "https://www.sbi.co.in"
      }
    },
    {
      "type": "node",
      "id": 3327855635,
      "lat": 12.9572002,
      "lon": 77.7016323,
      "tags": {
        "amenity": "atm",
        "brand": "State Bank of India",
        "brand:wikidata": "Q1340361",
        "cash_in": "no",
        "check_date": "2022-06-09",
        "level": "0",
        "name": "State Bank of India",
        "name:kn": "ಎಸ್ ಬಿ ಐ",
        "operator": "State Bank of India",
        "operator:wikidata": "Q1340361",
        "short_name": "SBI"
      }
    },
    {
      "type": "node",
      "id": 3606926074,
      "lat": 12.9563135,
      "lon": 77.700711,
      "tags": {
        "check_date": "2025-06-25",
        "level": "0",
        "name": "RR Cycle Mart",
        "shop": "bicycle",
        "wheelchair": "no"
      }
    },
    {
      "type": "node",
      "id": 3646921989,
      "lat": 12.9634063,
      "lon": 77.7083686,
      "tags": {
        "address": "270, 60 Feet Main Rd, AECS Layout - A Block, AECS Layout, Marathahalli, Bengaluru, Karnataka 560037",
        "name": "Ragam Mega Store",
        "opening_hours": "Mo-Su 08:30-22:30",
        "phone": "08028541140",
        "shop": "supermarket"
      }
    },
    {
      "type": "node",
      "id": 3761268951,
      "lat": 12.9571037,
      "lon": 77.7008753,
      "tags": {
        "check_date": "2023-08-05",
        "level": "0",
        "name": "New Jagat Associates",
        "shop": "mobile_phone",
        "source": "survey",
        "toilets": "no"
      }
    },
    {
      "type": "node",
      "id": 3761286869,
      "lat": 12.956351,
      "lon": 77.7007162,
      "tags": {
        "check_date": "2023-08-06",
        "level": "1",
        "name": "Panicker's Travels & Real Estate",
        "shop": "travel_agency"
      }
    },
    {
      "type": "node",
      "id": 3761299366,
      "lat": 12.9570945,
      "lon": 77.7009028,
      "tags": {
        "level": "0",
        "name": "Hot Spot",
        "shop": "mobile_phone"
      }
    },
    {
      "type": "node",
      "id": 3761304078,
      "lat": 12.9571024,
      "lon": 77.7008445,
      "tags": {
        "brand": "Samsonite",
        "brand:wikidata": "Q1203426",
        "level": "0",
        "name": "Samsonite- American Tourister Factory Outlet",
        "shop": "bag"
      }
    },
    {
      "type": "node",
      "id": 3761304085,
      "lat": 12.9571142,
      "lon": 77.7007048,
      "tags": {
        "level": "0",
        "name": "Anu Opticians",
        "shop": "optician"
      }
    },
    {
      "type": "node",
      "id": 3761306339,
      "lat": 12.957105,
      "lon": 77.7008014,
      "tags": {
        "level": "0",
        "name": "The Phone Store",
        "shop": "mobile_phone"
      }
    },
    {
      "type": "node",
      "id": 3761309507,
      "lat": 12.9565818,
      "lon": 77.7007699,
      "tags": {
        "check_date": "2023-08-06",
        "level": "0",
        "name": "I-Fab",
        "shop": "bag"
      }
    },
    {
      "type": "node",
      "id": 3761309916,
      "lat": 12.9567092,
      "lon": 77.7008303,
      "tags": {
        "level": "1",
        "name": "Little Dreams",
        "shop": "gift",
        "wheelchair": "limited"
      }
    },
    {
      "type": "node",
      "id": 3761357857,
      "lat": 12.9565641,
      "lon": 77.7007646,
      "tags": {
        "check_date": "2023-08-06",
        "level": "0",
        "name": "Veda Optical Gallery",
        "shop": "optician",
        "wheelchair": "no"
      }
    },
    {
      "type": "node",
      "id": 3783578335,
      "lat": 12.956742,
      "lon": 77.7018997,
      "tags": {
        "name": "Nandi Hardware & Sanitaryware",
        "shop": "hardware",
        "wheelchair": "no"
      }
    },
    {
      "type": "node",
      "id": 3783578336,
      "lat": 12.956742,
      "lon": 77.7019319,
      "tags": {
        "name": "Sun Times",
        "shop": "watches"
      }
    },
    {
      "type": "node",
      "id": 3783584167,
      "lat": 12.9568555,
      "lon": 77.7011085,
      "tags": {
        "amenity": "police",
        "check_date": "2023-08-05",
        "name": "Traffic Police Cabin"
      }
    },
    {
      "type": "node",
      "id": 3783586442,
      "lat": 12.9570986,
      "lon": 77.7017274,
      "tags": {
        "level": "0",
        "name": "Eye Life Opticians",
        "shop": "optician"
      }
    },
    {
      "type": "node",
      "id": 3783592591,
      "lat": 12.9571142,
      "lon": 77.7016469,
      "tags": {
        "brand": "Liberty",
        "brand:wikidata": "Q6541947",
        "check_date": "2025-06-14",
        "level": "0",
        "name": "Liberty Exclusive Showroom",
        "shop": "shoes"
      }
    },
    {
      "type": "node",
      "id": 3784885354,
      "lat": 12.9571174,
      "lon": 77.7005747,
      "tags": {
        "level": "0",
        "name": "SmartCafe",
        "shop": "mobile_phone"
      }
    },
    {
      "type": "node",
      "id": 3784893363,
      "lat": 12.9571626,
      "lon": 77.7000533,
      "tags": {
        "check_date": "2024-12-29",
        "level": "0,1",
        "name": "Farico",
        "shop": "fabric"
      }
    },
    {
      "type": "node",
      "id": 3785981721,
      "lat": 12.9571169,
      "lon": 77.700724,
      "tags": {
        "check_date": "2025-06-14",
        "level": "0",
        "name": "Sangeetha Mobiles",
        "name:kn": "ಸಂಗೀತ",
        "payment:mastercard": "yes",
        "payment:visa": "yes",
        "shop": "mobile_phone"
      }
    },
    {
      "type": "node",
      "id": 3785986687,
      "lat": 12.9571497,
      "lon": 77.7001515,
      "tags": {
        "check_date": "2024-12-29",
        "level": "0,1",
        "name": "The Raymonds Shop",
        "shop": "clothes"
      }
    },
    {
      "type": "node",
      "id": 3786002759,
      "lat": 12.9571939,
      "lon": 77.7000016,
      "tags": {
        "level": "0,-1",
        "name": "Woodlands Factory Outlet",
        "shop": "shoes"
      }
    },
    {
      "type": "node",
      "id": 3786002836,
      "lat": 12.9571939,
      "lon": 77.6999801,
      "tags": {
        "name": "BSA",
        "shop": "bicycle"
      }
    },
    {
      "type": "node",
      "id": 3786002837,
      "lat": 12.9571782,
      "lon": 77.6998621,
      "tags": {
        "name": "Live In Jeans",
        "shop": "clothes"
      }
    },
    {
      "type": "node",
      "id": 3797612835,
      "lat": 12.9566572,
      "lon": 77.7013888,
      "tags": {
        "level": "0,1",
        "name": "Srinivasa Enterprises",
        "shop": "hardware",
        "wheelchair": "no"
      }
    },
    {
      "type": "node",
      "id": 3803200447,
      "lat": 12.9571303,
      "lon": 77.701865,
      "tags": {
        "amenity": "restaurant",
        "check_date": "2025-09-03",
        "cuisine": "Andhra",
        "name": "Bhagini Deluxe"
      }
    },
    {
      "type": "node",
      "id": 3803201072,
      "lat": 12.9571332,
      "lon": 77.7018887,
      "tags": {
        "amenity": "restaurant",
        "cuisine": "Andhra",
        "name": "Vaikuntam",
        "name:kn": "ವೈಕುಂಟಂ"
      }
    },
    {
      "type": "node",
      "id": 3803204973,
      "lat": 12.9571137,
      "lon": 77.701818,
      "tags": {
        "name": "Shoba",
        "shop": "supermarket"
      }
    },
    {
      "type": "node",
      "id": 3803761227,
      "lat": 12.9577457,
      "lon": 77.7009447,
      "tags": {
        "amenity": "pub",
        "level": "2",
        "name": "Shakespeare's Pub"
      }
    },
    {
      "type": "node",
      "id": 3803767316,
      "lat": 12.9572912,
      "lon": 77.7009165,
      "tags": {
        "amenity": "events_venue",
        "level": "1",
        "name": "Krishna Vaibhav Party Hall and Dining Hall"
      }
    },
    {
      "type": "node",
      "id": 3803774587,
      "lat": 12.9571159,
      "lon": 77.7017731,
      "tags": {
        "level": "2",
        "name": "Lighting Palace",
        "shop": "lighting"
      }
    },
    {
      "type": "node",
      "id": 3803777261,
      "lat": 12.9571564,
      "lon": 77.7018603,
      "tags": {
        "amenity": "pub",
        "cuisine": "Andhra",
        "level": "3",
        "name": "Kadambini"
      }
    },
    {
      "type": "node",
      "id": 3805138252,
      "lat": 12.9572917,
      "lon": 77.7009166,
      "tags": {
        "amenity": "restaurant",
        "check_date": "2023-08-05",
        "level": "0",
        "name": "Udupi Vaibhava",
        "name:kn": "ಕೃಷ್ಣ ವೈಭವ",
        "source": "survey"
      }
    },
    {
      "type": "node",
      "id": 3805147819,
      "lat": 12.9573679,
      "lon": 77.7009184,
      "tags": {
        "amenity": "restaurant",
        "level": "0",
        "name": "Krishna Vaibhava",
        "name:kn": "ಕೃಷ್ಣ ವೈಭವ"
      }
    },
    {
      "type": "node",
      "id": 3805157267,
      "lat": 12.9577112,
      "lon": 77.7009592,
      "tags": {
        "amenity": "clinic",
        "level": "1",
        "name": "Dr. Batra's Clinic"
      }
    },
    {
      "type": "node",
      "id": 3805157268,
      "lat": 12.9577434,
      "lon": 77.7008842,
      "tags": {
        "level": "1",
        "name": "Probikes & Fitness",
        "shop": "bicycle"
      }
    },
    {
      "type": "node",
      "id": 3805159716,
      "lat": 12.957795,
      "lon": 77.7009621,
      "tags": {
        "check_date": "2022-07-23",
        "level": "0",
        "name": "Khazana Jewellery",
        "shop": "jewelry"
      }
    },
    {
      "type": "node",
      "id": 3805531457,
      "lat": 12.9571982,
      "lon": 77.69979,
      "tags": {
        "level": "0",
        "name": "VIP Outlet",
        "shop": "bag"
      }
    },
    {
      "type": "node",
      "id": 3805531458,
      "lat": 12.9571877,
      "lon": 77.6997993,
      "tags": {
        "level": "1",
        "name": "Jawed Habib Hair & Beauty",
        "shop": "hairdresser"
      }
    },
    {
      "type": "node",
      "id": 3805617087,
      "lat": 12.956735,
      "lon": 77.6982165,
      "tags": {
        "name": "Lotto",
        "shop": "shoes"
      }
    },
    {
      "type": "node",
      "id": 3805617088,
      "lat": 12.9567642,
      "lon": 77.6982646,
      "tags": {
        "brand": "Fila",
        "brand:wikidata": "Q482539",
        "level": "0,_-1",
        "name": "Fila",
        "shop": "clothes"
      }
    },
    {
      "type": "node",
      "id": 3805617089,
      "lat": 12.9567912,
      "lon": 77.6982225,
      "tags": {
        "brand": "Levi's",
        "brand:wikidata": "Q127962",
        "clothes": "denim;men;women",
        "name": "Levi's",
        "shop": "clothes"
      }
    },
    {
      "type": "node",
      "id": 3805644662,
      "lat": 12.9567662,
      "lon": 77.6982162,
      "tags": {
        "brand": "Puma",
        "brand:wikidata": "Q157064",
        "level": "-1",
        "name": "Puma",
        "name:kn": "ಪೂಮ",
        "shop": "clothes"
      }
    },
    {
      "type": "node",
      "id": 3805644663,
      "lat": 12.9567636,
      "lon": 77.6981931,
      "tags": {
        "brand": "Pepe Jeans",
        "brand:wikidata": "Q426992",
        "name": "Pepe Jeans",
        "shop": "clothes"
      }
    },
    {
      "type": "node",
      "id": 3805644664,
      "lat": 12.9567642,
      "lon": 77.6982431,
      "tags": {
        "level": "0",
        "name": "Proline",
        "shop": "clothes"
      }
    },
    {
      "type": "node",
      "id": 3805644665,
      "lat": 12.9567691,
      "lon": 77.698303,
      "tags": {
        "level": "0",
        "name": "Gini & Jony Factory Outlet",
        "shop": "clothes"
      }
    },
    {
      "type": "node",
      "id": 3805644667,
      "lat": 12.9567852,
      "lon": 77.6983261,
      "tags": {
        "brand": "Adidas",
        "brand:wikidata": "Q3895",
        "level": "0",
        "name": "Adidas",
        "name:kn": "ಅಡಿಡಾಸ್",
        "shop": "sports"
      }
    },
    {
      "type": "node",
      "id": 3805644668,
      "lat": 12.9567899,
      "lon": 77.6982706,
      "tags": {
        "level": "0",
        "name": "Identiti Factory Outlet",
        "shop": "clothes"
      }
    },
    {
      "type": "node",
      "id": 3805653772,
      "lat": 12.9568239,
      "lon": 77.6985146,
      "tags": {
        "level": "-1",
        "name": "Feet World",
        "shop": "shoes"
      }
    },
    {
      "type": "node",
      "id": 3805655110,
      "lat": 12.9568381,
      "lon": 77.6985511,
      "tags": {
        "brand": "Manyavar",
        "brand:wikidata": "Q24906783",
        "level": "0",
        "name": "Manyavar",
        "shop": "clothes"
      }
    },
    {
      "type": "node",
      "id": 3805655111,
      "lat": 12.9568447,
      "lon": 77.6985746,
      "tags": {
        "brand": "Peter England",
        "brand:wikidata": "Q19573665",
        "clothes": "men",
        "level": "0",
        "name": "Peter England",
        "name:kn": "ಪೀಟರ್ ಇಂಗ್ಲೆಂಡ್",
        "shop": "clothes"
      }
    },
    {
      "type": "node",
      "id": 3805655918,
      "lat": 12.9568447,
      "lon": 77.6986322,
      "tags": {
        "brand": "Woodland",
        "brand:wikidata": "Q123068491",
        "level": "0,1",
        "name": "Woodland Factory Outlet",
        "shop": "shoes"
      }
    },
    {
      "type": "node",
      "id": 3805657012,
      "lat": 12.9568492,
      "lon": 77.6986001,
      "tags": {
        "level": "1",
        "name": "Park Avenue",
        "shop": "clothes"
      }
    },
    {
      "type": "node",
      "id": 3806283876,
      "lat": 12.9567914,
      "lon": 77.6987064,
      "tags": {
        "amenity": "pharmacy",
        "level": "0",
        "name": "Deepika Pharma and General Stores"
      }
    },
    {
      "type": "node",
      "id": 3806289667,
      "lat": 12.9568638,
      "lon": 77.698938,
      "tags": {
        "level": "1,2",
        "name": "Blak",
        "shop": "clothes"
      }
    },
    {
      "type": "node",
      "id": 3806289668,
      "lat": 12.9568753,
      "lon": 77.6989793,
      "tags": {
        "level": "0",
        "name": "Woodlands",
        "shop": "shoes"
      }
    },
    {
      "type": "node",
      "id": 3806289669,
      "lat": 12.9568911,
      "lon": 77.6989534,
      "tags": {
        "brand": "Lacoste",
        "brand:wikidata": "Q309031",
        "level": "-1",
        "name": "Lacoste Outlet",
        "shop": "clothes"
      }
    },
    {
      "type": "node",
      "id": 3806469944,
      "lat": 12.9577155,
      "lon": 77.7009373,
      "tags": {
        "check_date": "2023-08-05",
        "level": "3",
        "name": "Attica Gold Company",
        "shop": "money_lender",
        "source": "survey"
      }
    },
    {
      "type": "node",
      "id": 3806469946,
      "lat": 12.9577993,
      "lon": 77.7009213,
      "tags": {
        "amenity": "community_centre",
        "check_date": "2022-07-23",
        "name": "Krishna Summit Banquet Hall"
      }
    },
    {
      "type": "node",
      "id": 3806473464,
      "lat": 12.957461,
      "lon": 77.7008832,
      "tags": {
        "amenity": "fast_food",
        "name": "Eat Eroo"
      }
    },
    {
      "type": "node",
      "id": 3806502331,
      "lat": 12.9579687,
      "lon": 77.7009753,
      "tags": {
        "level": "-1",
        "name": "Anand Electric & Home Appliances",
        "shop": "electrical"
      }
    },
    {
      "type": "node",
      "id": 3806502332,
      "lat": 12.9579892,
      "lon": 77.7009753,
      "tags": {
        "amenity": "pharmacy",
        "check_date": "2023-08-05",
        "dispensing": "no",
        "drive_through": "no",
        "healthcare": "pharmacy",
        "level": "-1",
        "name": "Jeanne Medicals",
        "source": "survey",
        "wheelchair": "no"
      }
    },
    {
      "type": "node",
      "id": 3806502334,
      "lat": 12.95802,
      "lon": 77.7009796,
      "tags": {
        "amenity": "bank",
        "check_date": "2023-08-05",
        "level": "0",
        "name": "Tumkur Grain Merchant Bank",
        "source": "survey",
        "wheelchair": "no"
      }
    },
    {
      "type": "node",
      "id": 3806502336,
      "lat": 12.9580645,
      "lon": 77.700979,
      "tags": {
        "amenity": "bank",
        "atm": "yes",
        "brand": "Bank of Baroda",
        "brand:wikidata": "Q2003797",
        "check_date": "2023-08-05",
        "level": "0",
        "name": "Bank of Baroda",
        "source": "survey"
      }
    },
    {
      "type": "node",
      "id": 3806505924,
      "lat": 12.9581038,
      "lon": 77.7009715,
      "tags": {
        "level": "2",
        "name": "Samsung Mobile Service Center",
        "shop": "mobile_phone"
      }
    },
    {
      "type": "node",
      "id": 3806508060,
      "lat": 12.9577806,
      "lon": 77.7009521,
      "tags": {
        "check_date": "2023-08-05",
        "clothes": "women",
        "level": "1",
        "name": "Kala Karni",
        "shop": "clothes",
        "source": "survey"
      }
    },
    {
      "type": "node",
      "id": 3815223846,
      "lat": 12.9571131,
      "lon": 77.7008342,
      "tags": {
        "level": "1",
        "name": "UAE Xchange",
        "shop": "travel_agency"
      }
    },
    {
      "type": "node",
      "id": 4040026810,
      "lat": 12.9525488,
      "lon": 77.7058831,
      "tags": {
        "amenity": "restaurant"
      }
    },
    {
      "type": "node",
      "id": 4040031904,
      "lat": 12.9562384,
      "lon": 77.708926,
      "tags": {
        "amenity": "taxi",
        "name": "Autorickshaw Stand",
        "name:kn": "ಆಟೋ ನಿಲ್ದಾಣ"
      }
    },
    {
      "type": "node",
      "id": 4040031905,
      "lat": 12.9567322,
      "lon": 77.7086463,
      "tags": {
        "shop": "bakery"
      }
    },
    {
      "type": "node",
      "id": 4040031906,
      "lat": 12.9562405,
      "lon": 77.7086508,
      "tags": {
        "name": "Auto Parts",
        "shop": "car_repair"
      }
    },
    {
      "type": "node",
      "id": 4040031907,
      "lat": 12.9565247,
      "lon": 77.7086216,
      "tags": {
        "amenity": "taxi",
        "name": "Autorickshaw Stand",
        "name:kn": "ಆಟೋ ನಿಲ್ದಾಣ"
      }
    },
    {
      "type": "node",
      "id": 4301868889,
      "lat": 12.9590896,
      "lon": 77.701758,
      "tags": {
        "amenity": "cafe",
        "cuisine": "coffee_shop"
      }
    },
    {
      "type": "node",
      "id": 4350017198,
      "lat": 12.9608703,
      "lon": 77.7017044,
      "tags": {
        "amenity": "bank",
        "brand": "HDFC Bank",
        "brand:wikidata": "Q631047",
        "name": "HDFC Bank",
        "name:kn": "ಎಚ್ ಡಿ ಎಫ್ ಸಿ",
        "short_name": "HDFC",
        "wheelchair": "no"
      }
    },
    {
      "type": "node",
      "id": 4365624393,
      "lat": 12.959495,
      "lon": 77.7029392,
      "tags": {
        "amenity": "atm",
        "brand": "HDFC Bank",
        "brand:wikidata": "Q631047",
        "name": "HDFC Bank",
        "name:en": "HDFC",
        "operator": "HDFC Bank",
        "operator:wikidata": "Q631047",
        "short_name": "HDFC"
      }
    },
    {
      "type": "node",
      "id": 4365624394,
      "lat": 12.9582803,
      "lon": 77.7027141,
      "tags": {
        "amenity": "atm",
        "brand": "Canara Bank",
        "brand:en": "Canara Bank",
        "brand:hi": "केनरा बैंक",
        "brand:kn": "ಕೆನರಾ ಬ್ಯಾಂಕ್",
        "brand:pa": "ਕੇਨਰਾ ਬੈਂਕ",
        "brand:pnb": "کینرا بینک",
        "brand:ur": "کینرا بینک",
        "brand:wikidata": "Q2003777",
        "brand:wikipedia": "en:Canara Bank",
        "name": "Canara Bank",
        "name:en": "Canara Bank",
        "name:hi": "केनरा बैंक",
        "name:kn": "ಕೆನರಾ ಬ್ಯಾಂಕ್",
        "name:pa": "ਕੇਨਰਾ ਬੈਂਕ",
        "name:pnb": "کینرا بینک",
        "name:ur": "کینرا بینک",
        "operator": "Canara Bank",
        "operator:wikidata": "Q2003777",
        "operator:wikipedia": "en:Canara Bank",
        "wheelchair": "no"
      }
    },
    {
      "type": "node",
      "id": 4365671891,
      "lat": 12.9570758,
      "lon": 77.7023408,
      "tags": {
        "name:en": "Mahabazzar",
        "shop": "supermarket"
      }
    },
    {
      "type": "node",
      "id": 4365692089,
      "lat": 12.959287,
      "lon": 77.702705,
      "tags": {
        "amenity": "atm",
        "name:en": "State bank ATM",
        "wheelchair": "no"
      }
    },
    {
      "type": "node",
      "id": 4365692189,
      "lat": 12.9591657,
      "lon": 77.7028809,
      "tags": {
        "amenity": "atm",
        "name:en": "Axis bank ATM",
        "wheelchair": "no"
      }
    },
    {
      "type": "node",
      "id": 4365701689,
      "lat": 12.9569408,
      "lon": 77.7030025,
      "tags": {
        "amenity": "fast_food",
        "name:en": "HFB"
      }
    },
    {
      "type": "node",
      "id": 4417324580,
      "lat": 12.9526893,
      "lon": 77.7059193,
      "tags": {
        "name": "Car repairs",
        "shop": "car_repair"
      }
    },
    {
      "type": "node",
      "id": 4417324581,
      "lat": 12.9559406,
      "lon": 77.7051134,
      "tags": {
        "amenity": "atm",
        "brand": "South Indian Bank",
        "brand:wikidata": "Q2044973",
        "name": "South Indian Bank",
        "operator": "South Indian Bank",
        "operator:wikidata": "Q2044973",
        "wheelchair": "no"
      }
    },
    {
      "type": "node",
      "id": 4417325575,
      "lat": 12.9563432,
      "lon": 77.7052006,
      "tags": {
        "name": "White collar",
        "shop": "laundry"
      }
    },
    {
      "type": "node",
      "id": 4443741171,
      "lat": 12.9582651,
      "lon": 77.7088259,
      "tags": {
        "addr:city": "Bangalore",
        "addr:housenumber": "32/30",
        "addr:postcode": "560037",
        "addr:street": "Silver Springs Layout, Marathahalli, Bengaluru",
        "amenity": "restaurant",
        "cuisine": "regional",
        "delivery": "yes",
        "name": "Holy Flames",
        "opening_hours": "11:00-21:00",
        "phone": "+91 70226 12902",
        "smoking": "no",
        "takeaway": "yes",
        "website": "https://www.holyflames.in/"
      }
    },
    {
      "type": "node",
      "id": 4443803111,
      "lat": 12.9573463,
      "lon": 77.7075932,
      "tags": {
        "addr:city": "Bangalore",
        "addr:postcode": "560037",
        "addr:street": "Purva Riviera Shopping Complex, Marathahalli",
        "amenity": "restaurant",
        "cuisine": "indian;pizza",
        "delivery": "yes",
        "name": "Sanjha Chulha Restaurant",
        "opening_hours": "12:00-15:30, 19:00-23:00",
        "outdoor_seating": "no",
        "phone": "+91 96866 78120",
        "smoking": "no",
        "takeaway": "yes"
      }
    },
    {
      "type": "node",
      "id": 4444204034,
      "lat": 12.9566607,
      "lon": 77.7026574,
      "tags": {
        "addr:city": "Bangalore",
        "addr:postcode": "560037",
        "addr:street": "Chandra Layout, Marathahalli, Bengaluru,",
        "amenity": "restaurant",
        "check_date": "2025-09-03",
        "delivery": "yes",
        "indoor_seating": "yes",
        "name": "Thalassery Restaurant",
        "opening_hours": "07:00-23:00",
        "outdoor_seating": "no",
        "phone": "+91 80 3271 3030",
        "smoking": "no",
        "takeaway": "yes"
      }
    },
    {
      "type": "node",
      "id": 4444224749,
      "lat": 12.9654302,
      "lon": 77.7018173,
      "tags": {
        "addr:city": "Bangalore",
        "addr:housenumber": "95/3",
        "addr:postcode": "560037",
        "addr:street": "Outer Ring Road",
        "air_conditioning": "yes",
        "amenity": "fast_food",
        "brand": "Burger King",
        "brand:wikidata": "Q177054",
        "check_date": "2025-02-26",
        "cuisine": "burger",
        "delivery": "yes",
        "diet:vegetarian": "yes",
        "indoor_seating": "yes",
        "name": "Burger King",
        "opening_hours": "08:00-01:00",
        "outdoor_seating": "no",
        "payment:cash": "yes",
        "payment:credit_cards": "yes",
        "payment:debit_cards": "yes",
        "smoking": "no",
        "source": "survey",
        "takeaway": "yes"
      }
    },
    {
      "type": "node",
      "id": 4444318900,
      "lat": 12.9555378,
      "lon": 77.7004205,
      "tags": {
        "addr:city": "Bangalore",
        "addr:housenumber": "93/7",
        "addr:postcode": "560037",
        "addr:street": "Near Home Town, Outer Ring Rd, Marathahalli, Bengaluru",
        "amenity": "restaurant",
        "cuisine": "regional",
        "delivery": "yes",
        "indoor_seating": "yes",
        "name": "Shanmukha Restaurant",
        "opening_hours": "11:30-16:00, 19:00-23:00",
        "outdoor_seating": "no",
        "phone": "+91 80 4228 7405",
        "smoking": "no",
        "takeaway": "yes",
        "website": "www.shanmukharestaurant.com",
        "wheelchair": "limited"
      }
    },
    {
      "type": "node",
      "id": 4445991554,
      "lat": 12.9601016,
      "lon": 77.7002857,
      "tags": {
        "addr:city": "Bangalore",
        "addr:housenumber": "69",
        "addr:postcode": "560037",
        "addr:street": "5th Cross,Outer Ring Road, Marathahalli, Behind Venus Bakery Opposite Kalamandir",
        "amenity": "pharmacy",
        "name": "Mathru Homoeo Medical",
        "phone": "08025400618"
      }
    },
    {
      "type": "node",
      "id": 4446005798,
      "lat": 12.9587958,
      "lon": 77.7026919,
      "tags": {
        "addr:city": "Bengaluru",
        "addr:housenumber": "130",
        "addr:postcode": "560037",
        "addr:street": "2nd Main, 7th Cross, 6th Cross Road, Aswath Nagar, Marathahalli,Karnataka",
        "amenity": "pharmacy",
        "name": "Sri Tulsi Medicals General Store",
        "phone": "08861061489",
        "wheelchair": "no"
      }
    },
    {
      "type": "node",
      "id": 4446060669,
      "lat": 12.9623251,
      "lon": 77.7097014,
      "tags": {
        "addr:city": "Bengaluru",
        "addr:housenumber": "73",
        "addr:postcode": "560037",
        "addr:street": "Shop No Opposite to SLN Temple, Munnekolala, Post,, 1126/2, 4th Main Rd, Marathahalli, Karnataka",
        "amenity": "pharmacy",
        "name": "Kalleshwara Medicals",
        "phone": "+9199640 04295"
      }
    },
    {
      "type": "node",
      "id": 4446234513,
      "lat": 12.9525048,
      "lon": 77.7061945,
      "tags": {
        "addr:city": "Bengaluru",
        "addr:postcode": "560037",
        "addr:street": "First Floor, Trilochan Complex, Opp Govt School, Munnekolala Main Road, Marthahalli, Karnataka",
        "amenity": "clinic",
        "name": "Family Care Homeopathy Clinic & Pharmacy",
        "phone": "080 3255 2975",
        "website": "family-care.in"
      }
    },
    {
      "type": "node",
      "id": 4446238233,
      "lat": 12.9525519,
      "lon": 77.7059853,
      "tags": {
        "addr:city": "Bengaluru",
        "addr:postcode": "560037",
        "addr:street": "Triloachan Complex , Munekollalu main road , Munekollal",
        "amenity": "clinic",
        "name": "Family Dental care",
        "phone": "+919886130837"
      }
    },
    {
      "type": "node",
      "id": 4446853180,
      "lat": 12.9566683,
      "lon": 77.7099226,
      "tags": {
        "addr:city": "Bengaluru",
        "addr:housenumber": "35/1",
        "addr:postcode": "560037",
        "addr:street": "1st Floor, CRM Sowbhagya Enclave, Near Spice Garden Bus Stop, HAL-Airport-Varthur Main Road , Marathahalli, Karnataka",
        "amenity": "clinic",
        "check_date": "2024-04-21",
        "name": "Dr Priyas Skin And Hair Clinic",
        "phone": "080 2847 6999",
        "website": "https://www.drpriyaskinandhairclinic.com/"
      }
    },
    {
      "type": "node",
      "id": 4446905132,
      "lat": 12.9557846,
      "lon": 77.7050853,
      "tags": {
        "addr:city": "bangalore",
        "addr:housenumber": "103p",
        "addr:postcode": "560037",
        "addr:street": "Munnekolala Varthur Road",
        "amenity": "pharmacy",
        "name": "Lions Airport City Medicals",
        "phone": "+9190604 48812",
        "wheelchair": "no"
      }
    },
    {
      "type": "node",
      "id": 4447087023,
      "lat": 12.9617937,
      "lon": 77.7013456,
      "tags": {
        "addr:city": "Bengaluru",
        "addr:postcode": "560037",
        "addr:street": "Next to US Pizza, Ring Road,Marathahalli",
        "amenity": "restaurant",
        "cuisine": "regional",
        "delivery": "yes",
        "name": "Delhi Walle",
        "opening_hours": "11:00-23:00",
        "phone": "080 64539513",
        "smoking": "no",
        "takeaway": "yes"
      }
    },
    {
      "type": "node",
      "id": 4447173684,
      "lat": 12.9651193,
      "lon": 77.7017267,
      "tags": {
        "addr:city": "Marathhalli, Bangalore",
        "addr:housenumber": "3",
        "addr:postcode": "560037",
        "addr:street": "Marathahalli-Sarjapur Outer Ring Road, Marathahalli",
        "amenity": "restaurant",
        "check_date": "2022-10-15",
        "cuisine": "regional",
        "delivery": "yes",
        "name": "Malgudi Southern Cuisine",
        "opening_hours": "11:30-15:30, 19:00-23:30",
        "phone": "080 2540 1351",
        "smoking": "no",
        "takeaway": "yes",
        "wheelchair": "limited"
      }
    },
    {
      "type": "node",
      "id": 4487929798,
      "lat": 12.9558317,
      "lon": 77.7115223,
      "tags": {
        "addr:city": "Bangalore",
        "addr:full": "Saroj Square, Marathahalli Main Road, Whitefield, Silver Springs Layout, Munnekollal, Bengaluru, Karnataka;Saroj Square, Marathahalli Main Road, Whitefield, Silver Springs Layout, Munnekollal",
        "addr:housenumber": "2nd Floor",
        "addr:postcode": "560037;560066",
        "addr:street": "Varthur Road",
        "leisure": "sports_centre",
        "name": "Snap Fitness",
        "opening_hours": "06:00 -21:00",
        "phone": "095384 47777",
        "sport": "gymnastics"
      }
    },
    {
      "type": "node",
      "id": 4487958120,
      "lat": 12.9612173,
      "lon": 77.7042426,
      "tags": {
        "addr:city": "Bangalore",
        "addr:housenumber": "280",
        "addr:postcode": "560037",
        "addr:street": "Chinnappanahalli Road",
        "name": "WheelSports",
        "phone": "088615 64439",
        "shop": "sports",
        "website": "http://wheelsports.in/"
      }
    },
    {
      "type": "node",
      "id": 4487973598,
      "lat": 12.9571323,
      "lon": 77.7005111,
      "tags": {
        "addr:city": "Bangalore",
        "addr:housenumber": "97/2, 1st Floor",
        "addr:postcode": "560037",
        "addr:street": "Marathahalli Underpass,97/2, 1st Floor, Marathahalli Main Road, Above Woodland Showroom, Opposite- M G A HOSPITAL, Marathahalli",
        "name": "Karnataka Cycle Shoppee",
        "opening_hours": "10:30-21:00",
        "phone": "080 2540 1449",
        "shop": "sports"
      }
    },
    {
      "type": "node",
      "id": 4488069597,
      "lat": 12.9655735,
      "lon": 77.7018297,
      "tags": {
        "addr:city": "Marathhalli, Bangalore",
        "addr:postcode": "560037",
        "addr:street": "Outer Ring Road",
        "brand": "Reliance Fresh",
        "brand:wikidata": "Q7311014",
        "name": "Reliance Fresh",
        "name:kn": "ರಿಲಾಯನ್ಸ್ ಫ್ರೆಶ್",
        "opening_hours": "07:00-21:00",
        "phone": "(91)-22-40176400",
        "shop": "supermarket"
      }
    },
    {
      "type": "node",
      "id": 4488558501,
      "lat": 12.9557206,
      "lon": 77.6980417,
      "tags": {
        "addr:city": "Bengaluru",
        "addr:housenumber": "Behind Tulasi Theatre",
        "addr:postcode": "560037",
        "addr:street": "Tulsi Theatre Road",
        "leisure": "sports_centre",
        "name": "Body Artz",
        "opening_hours": "5:30-22:00",
        "phone": "9686671245",
        "sport": "gymnastics"
      }
    },
    {
      "type": "node",
      "id": 4489203242,
      "lat": 12.9650782,
      "lon": 77.7025083,
      "tags": {
        "addr:city": "Bangalore",
        "addr:postcode": "560037",
        "addr:street": "JCR Tower, 1st A Main Road, Aswath Nagar, Chinnapanna Halli, Anand Nagar, Aswath Nagar",
        "name": "Sports365.in",
        "opening_hours": "11:00-19:00",
        "phone": "080 6555 5956",
        "shop": "sports",
        "website": "https://sports365.in/"
      }
    },
    {
      "type": "node",
      "id": 4489268451,
      "lat": 12.9568069,
      "lon": 77.6983637,
      "tags": {
        "addr:city": "Bengaluru",
        "addr:housenumber": "G-2",
        "addr:postcode": "560037",
        "addr:street": "Sigma Arcade, Old Airport Road, Marathahalli village, Marathahalli, Marathahalli Village, Marathahalli,",
        "brand": "Nike",
        "brand:wikidata": "Q483915",
        "name": "Nike",
        "name:kn": "ನೈಕ್",
        "opening_hours": "10:00-22:00",
        "phone": "08041485488",
        "shop": "clothes",
        "website": "https://www.nike.com/"
      }
    },
    {
      "type": "node",
      "id": 4489295106,
      "lat": 12.9567585,
      "lon": 77.6983837,
      "tags": {
        "addr:city": "Bengaluru",
        "addr:housenumber": "G5-G9",
        "addr:postcode": "560037",
        "addr:street": "Sigma Arcade, No. 227/70, Next To Tulsi Theater,, Marathahalli Main Rd, Marathahalli Village, Marathahalli",
        "brand": "Reebok",
        "brand:wikidata": "Q466183",
        "name": "Reebok",
        "name:kn": "ರೀಬಾಕ್",
        "phone": "08042029317",
        "shop": "clothes",
        "website": "https://www.reebok.com/"
      }
    },
    {
      "type": "node",
      "id": 4489402142,
      "lat": 12.9564359,
      "lon": 77.7094941,
      "tags": {
        "addr:city": "Bengaluru",
        "addr:postcode": "560037",
        "addr:street": "Sweet Chariot, Spice Garden, Lakshminarayana Pura, Munnekollal",
        "name": "Willow Sportz",
        "opening_hours": "09:00-22:00",
        "phone": "08553631883",
        "shop": "sports",
        "website": "willowsportz.com"
      }
    },
    {
      "type": "node",
      "id": 4489725394,
      "lat": 12.9547472,
      "lon": 77.6982166,
      "tags": {
        "addr:street": "Tulasi Theatre Road, Marathahalli Village, Marathahalli, Bengaluru, Karnataka",
        "leisure": "sports_centre",
        "name": "Sweat Zone",
        "sport": "gymnasium"
      }
    },
    {
      "type": "node",
      "id": 4489728472,
      "lat": 12.9576318,
      "lon": 77.7007871,
      "tags": {
        "addr:city": "Bangalore",
        "addr:housenumber": "#97/2D",
        "addr:postcode": "560037",
        "addr:street": ",M T K Reedy Building, Below Krishna Vaibhava Hotel, Marathahalli, Bridge",
        "leisure": "sports_centre",
        "name": "West Coast Sports & Fittness Shop",
        "phone": "080 4126 4084"
      }
    },
    {
      "type": "node",
      "id": 4489731989,
      "lat": 12.9580735,
      "lon": 77.7008861,
      "tags": {
        "addr:city": "Bengaluru",
        "addr:housenumber": "18",
        "addr:postcode": "560037",
        "name": "Firefox",
        "operator": "Firefox",
        "phone": "080 4204 8625",
        "shop": "bicycle",
        "website": "https://www.firefoxbikes.com/"
      }
    },
    {
      "type": "node",
      "id": 4489733589,
      "lat": 12.9592688,
      "lon": 77.7017695,
      "tags": {
        "addr:city": "Bengaluru",
        "addr:housenumber": "141",
        "addr:postcode": "560037",
        "addr:street": "7th Cross, 1st & 2nd Floor, Near Kalamandir, Marathahalli, Anand Nagar, Aswath Nagar, Marathahalli, Bengaluru,",
        "check_date": "2022-11-16",
        "leisure": "sports_centre",
        "name": "Fit Life Gym",
        "phone": "+91 81052 91333",
        "sport": "gymnasium"
      }
    },
    {
      "type": "node",
      "id": 4489823228,
      "lat": 12.9575174,
      "lon": 77.7087169,
      "tags": {
        "addr:city": "Bangalore",
        "addr:housenumber": "#S1-S2",
        "addr:postcode": "560037",
        "addr:street": "Spice Garden Complex, Marathahalli Main Rd, Spice Garden Layout, Lakshminarayana Pura, Marathahall",
        "leisure": "sports_centre",
        "name": "Body and Soul Fitness Academy",
        "opening_hours": "05:30-22:00",
        "phone": "8042086029",
        "sport": "gymnastics",
        "website": "https://bodyandsoul.org/"
      }
    },
    {
      "type": "node",
      "id": 4489895353,
      "lat": 12.9651102,
      "lon": 77.7017888,
      "tags": {
        "addr:city": "Bengaluru,",
        "addr:housenumber": "No. 95/3",
        "addr:postcode": "560037",
        "addr:street": ", Doddanakundi, Marathahalli Ring Road, Marathahalli, Sanjay Nagar,, Anand Nagar, Aswath Nagar, Chinnapanna Halli, Bengaluru, Karnataka",
        "leisure": "sports_centre",
        "name": "O2 Health Studio",
        "opening_hours": "5:00-22:00"
      }
    },
    {
      "type": "node",
      "id": 4489929763,
      "lat": 12.9558912,
      "lon": 77.7111725,
      "tags": {
        "addr:city": "Bangalore",
        "addr:housenumber": "25",
        "addr:postcode": "560036",
        "addr:street": "Devasandra Main Road, Krishnarajapuram",
        "name": "V L Care",
        "opening_hours": "10:00-21:00",
        "phone": "(91)-80-33294401",
        "shop": "beauty"
      }
    },
    {
      "type": "node",
      "id": 4490471071,
      "lat": 12.9642955,
      "lon": 77.7129952,
      "tags": {
        "addr:city": "Banglore",
        "addr:housenumber": "no:36",
        "addr:postcode": "560063",
        "addr:street": "Arvind Avenue",
        "leisure": "sports_centre",
        "name": "F6 FITNESS PLANET",
        "opening_hours": "6:00-22:00",
        "phone": "8041141166",
        "website": "www.f6fitnessplanet.com"
      }
    },
    {
      "type": "node",
      "id": 4635146966,
      "lat": 12.9559476,
      "lon": 77.711571,
      "tags": {
        "amenity": "fast_food",
        "brand": "Domino's",
        "brand:ks": "ڈومینوز",
        "brand:pa": "ਡੋਮੀਨੋਜ਼",
        "brand:ur": "ڈومینوز",
        "brand:wikidata": "Q839466",
        "brand:wikipedia": "en:Domino's Pizza",
        "cuisine": "pizza",
        "name": "Domino's",
        "name:kn": "ಡಾಮಿನೋಸ್",
        "name:ks": "ڈومینوز",
        "name:pa": "ਡੋਮੀਨੋਜ਼",
        "name:ur": "ڈومینوز",
        "takeaway": "yes"
      }
    },
    {
      "type": "node",
      "id": 5745160620,
      "lat": 12.9546696,
      "lon": 77.7027783,
      "tags": {
        "name": "Sri Venkat Satyanarayana Tedared",
        "shop": "greengrocer"
      }
    },
    {
      "type": "node",
      "id": 5812487527,
      "lat": 12.9638073,
      "lon": 77.7121179,
      "tags": {
        "amenity": "dentist",
        "name": "Ivory Dental"
      }
    },
    {
      "type": "node",
      "id": 5812487551,
      "lat": 12.963231,
      "lon": 77.713113,
      "tags": {
        "shop": "greengrocer"
      }
    },
    {
      "type": "node",
      "id": 5812487966,
      "lat": 12.9625069,
      "lon": 77.7132592,
      "tags": {
        "address": "No. 1339, D block, AECS layout, Oppo. BBMP office, Marathahalli, Bengaluru, Karnataka 560037",
        "amenity": "restaurant",
        "delivery": "yes",
        "name": "Chatpatlal Sweets and Snacks",
        "opening_hours": "Mo-Su 07:30-23:00",
        "phone": "08043020071"
      }
    },
    {
      "type": "node",
      "id": 5812487967,
      "lat": 12.9624638,
      "lon": 77.7132672,
      "tags": {
        "address": "1339, 60 Feet Rd, AECS Layout - D Block, AECS Layout, Brookefield, Bengaluru, Karnataka 560037",
        "name": "Follicle Unisex Hair Saloon",
        "opening_hours": "Mo-Su 09:00-21:30",
        "phone": "08043717035",
        "shop": "hairdresser"
      }
    },
    {
      "type": "node",
      "id": 5812487968,
      "lat": 12.9620286,
      "lon": 77.7133477,
      "tags": {
        "amenity": "dentist",
        "name": "Axiss Dental"
      }
    },
    {
      "type": "node",
      "id": 5812487969,
      "lat": 12.961762,
      "lon": 77.7134167,
      "tags": {
        "address": "1346, D Block, AECS layout, 60 Feet Main Rd, near Hathway building, Kundalahalli, Bengaluru, Karnataka 560093",
        "name": "White Collar Dry Cleaners",
        "phone": "08884479400",
        "shop": "dry_cleaning",
        "website": "https://sskwhitecollar.com/"
      }
    },
    {
      "type": "node",
      "id": 5812487970,
      "lat": 12.9616685,
      "lon": 77.7134295,
      "tags": {
        "amenity": "dentist",
        "name": "Maa Sheshasayi Multi Speciality Dental Clinic"
      }
    },
    {
      "type": "node",
      "id": 6013565861,
      "lat": 12.966089,
      "lon": 77.7023894,
      "tags": {
        "addr:city": "Marathhalli, Bangalore",
        "addr:street": "Service Road",
        "check_date": "2024-09-18",
        "name": "Royal Enfield Exclusive Service Centre",
        "shop": "motorcycle_repair",
        "source": "survey"
      }
    },
    {
      "type": "node",
      "id": 6034177868,
      "lat": 12.9660184,
      "lon": 77.7119979,
      "tags": {
        "amenity": "library",
        "internet_access": "wlan",
        "name": "CMRIT Library",
        "opening_hours": "Mo-Fr 08:00-19:30"
      }
    },
    {
      "type": "node",
      "id": 6034197732,
      "lat": 12.9666784,
      "lon": 77.7114169,
      "tags": {
        "amenity": "toilets"
      }
    },
    {
      "type": "node",
      "id": 6034197733,
      "lat": 12.9667676,
      "lon": 77.7116241,
      "tags": {
        "leisure": "fitness_centre"
      }
    },
    {
      "type": "node",
      "id": 6040742751,
      "lat": 12.9619887,
      "lon": 77.7014082,
      "tags": {
        "name": "Chai Mania",
        "shop": "coffee"
      }
    },
    {
      "type": "node",
      "id": 6040742827,
      "lat": 12.9618934,
      "lon": 77.7013316,
      "tags": {
        "amenity": "ice_cream",
        "brand": "Baskin-Robbins",
        "brand:wikidata": "Q584601",
        "cuisine": "ice_cream",
        "indoor_seating": "yes",
        "name": "Baskin-Robbins",
        "outdoor_seating": "no"
      }
    },
    {
      "type": "node",
      "id": 6040742828,
      "lat": 12.9620241,
      "lon": 77.7013733,
      "tags": {
        "amenity": "fast_food",
        "name": "Rolls on Wheels"
      }
    },
    {
      "type": "node",
      "id": 6095248119,
      "lat": 12.9567706,
      "lon": 77.7007709,
      "tags": {
        "air_conditioning": "yes",
        "check_date": "2025-06-14",
        "level": "0;1;2;3",
        "name": "KLM Fashion Mall",
        "operator": "Sai Silks (Kalamandir) Ltd",
        "payment:mastercard": "yes",
        "payment:visa": "yes",
        "phone": "+91 80 4374 6553",
        "shop": "mall",
        "source": "survey",
        "website": "https://www.klmfashionmall.com/"
      }
    },
    {
      "type": "node",
      "id": 6095248120,
      "lat": 12.9565198,
      "lon": 77.6976884,
      "tags": {
        "check_date": "2025-06-14",
        "name": "Brand Factory",
        "shop": "mall"
      }
    },
    {
      "type": "node",
      "id": 6114925935,
      "lat": 12.9642256,
      "lon": 77.7128475,
      "tags": {
        "amenity": "cafe",
        "brand": "Chai Point",
        "brand:wikidata": "Q28173415",
        "check_date": "2024-07-13",
        "cuisine": "coffee_shop",
        "name": "Chai Point",
        "shop": "tea",
        "takeaway": "yes"
      }
    },
    {
      "type": "node",
      "id": 6389225430,
      "lat": 12.9655187,
      "lon": 77.7018296,
      "tags": {
        "branch": "showroom",
        "brand": "KTM",
        "brand:wikidata": "Q215657",
        "name": "KTM",
        "shop": "motorcycle_repair"
      }
    },
    {
      "type": "node",
      "id": 6938889541,
      "lat": 12.9551501,
      "lon": 77.7051643,
      "tags": {
        "addr:district": "Bengaluru Urban",
        "addr:full": "#103, Munnekolal, Verthur Road, Marthahalli Post",
        "addr:postcode": "560037",
        "addr:state": "Karnataka",
        "amenity": "hospital",
        "name": "Lions Airport City Hospital",
        "source": "OpenGovernmentData"
      }
    },
    {
      "type": "node",
      "id": 6944290475,
      "lat": 12.9568547,
      "lon": 77.7002262,
      "tags": {
        "addr:district": "Bengaluru Urban",
        "addr:full": "96,Varthur Main Road, Marathahalli",
        "addr:postcode": "560037",
        "addr:state": "Karnataka",
        "amenity": "hospital",
        "check_date": "2024-12-29",
        "healthcare": "hospital",
        "name": "MGA Hospital",
        "source": "OpenGovernmentData"
      }
    },
    {
      "type": "node",
      "id": 7511152439,
      "lat": 12.9658605,
      "lon": 77.7120227,
      "tags": {
        "amenity": "toilets"
      }
    },
    {
      "type": "node",
      "id": 7511152440,
      "lat": 12.9663806,
      "lon": 77.7110665,
      "tags": {
        "amenity": "toilets"
      }
    },
    {
      "type": "node",
      "id": 7511152441,
      "lat": 12.9658788,
      "lon": 77.7112555,
      "tags": {
        "amenity": "toilets"
      }
    },
    {
      "type": "node",
      "id": 7518127508,
      "lat": 12.9658359,
      "lon": 77.7112826,
      "tags": {
        "amenity": "drinking_water"
      }
    },
    {
      "type": "node",
      "id": 7518141837,
      "lat": 12.9666425,
      "lon": 77.7114362,
      "tags": {
        "amenity": "cafe"
      }
    },
    {
      "type": "node",
      "id": 7518141838,
      "lat": 12.9663686,
      "lon": 77.7110717,
      "tags": {
        "amenity": "drinking_water"
      }
    },
    {
      "type": "node",
      "id": 7518337053,
      "lat": 12.9667228,
      "lon": 77.7116352,
      "tags": {
        "leisure": "fitness_centre"
      }
    },
    {
      "type": "node",
      "id": 7522860741,
      "lat": 12.9629284,
      "lon": 77.713176,
      "tags": {
        "address": "929, 3rd Main Rd, AECS Layout - D Block, Kundalahalli, Marathahalli, Bengaluru, Karnataka 560037",
        "leisure": "dance",
        "name": "Infinity Dance Crew",
        "phone": "09739244999"
      }
    },
    {
      "type": "node",
      "id": 7522922975,
      "lat": 12.9622586,
      "lon": 77.713294,
      "tags": {
        "address": "AECS Layout, Kundalahalli, Bengaluru, Karnataka 560065",
        "amenity": "restaurant",
        "diet:vegetarian": "yes",
        "dine_in": "yes",
        "drive_through": "no",
        "name": "Udupi Upachar",
        "phone": "+91 8041125125"
      }
    },
    {
      "type": "node",
      "id": 7881423570,
      "lat": 12.9583131,
      "lon": 77.7067099,
      "tags": {
        "addr:city": "Bangalore",
        "addr:postcode": "560037",
        "addr:street": "Rohan Vasantha Apartment",
        "name": "Green Mantra, Online zero waste store",
        "shop": "supermarket",
        "zero_waste": "yes"
      }
    },
    {
      "type": "node",
      "id": 8935990995,
      "lat": 12.9611494,
      "lon": 77.704242,
      "tags": {
        "name": "Cycle Station",
        "shop": "bicycle"
      }
    },
    {
      "type": "node",
      "id": 9291056386,
      "lat": 12.9606981,
      "lon": 77.7012155,
      "tags": {
        "leisure": "fitness_centre",
        "name": "Day & Day Gym"
      }
    },
    {
      "type": "node",
      "id": 9332449847,
      "lat": 12.9585861,
      "lon": 77.7085301,
      "tags": {
        "amenity": "dentist",
        "healthcare": "dentist",
        "healthcare:speciality": "dentist",
        "level": "0",
        "name": "Smile On Complete Dental Care"
      }
    },
    {
      "type": "node",
      "id": 9381352860,
      "lat": 12.9563206,
      "lon": 77.6967944,
      "tags": {
        "clothes": "women;wedding",
        "name": "Sudarshan Silks and Sarees",
        "shop": "clothes"
      }
    },
    {
      "type": "node",
      "id": 9381352861,
      "lat": 12.9565679,
      "lon": 77.6970278,
      "tags": {
        "brand": "Skechers",
        "brand:wikidata": "Q2945643",
        "brand:wikipedia": "en:Skechers",
        "name": "Skechers",
        "shop": "shoes"
      }
    },
    {
      "type": "node",
      "id": 9381352862,
      "lat": 12.9565619,
      "lon": 77.6972364,
      "tags": {
        "amenity": "cafe",
        "name": "Unitea Hub Cafe"
      }
    },
    {
      "type": "node",
      "id": 9381352863,
      "lat": 12.9565234,
      "lon": 77.6972006,
      "tags": {
        "brand": "Bata",
        "brand:wikidata": "Q688082",
        "brand:wikipedia": "en:Bata Corporation",
        "name": "Bata",
        "shop": "shoes"
      }
    },
    {
      "type": "node",
      "id": 9381352864,
      "lat": 12.9568093,
      "lon": 77.6984543,
      "tags": {
        "level": "-1",
        "name": "Plum Health and Beauty",
        "shop": "cosmetics"
      }
    },
    {
      "type": "node",
      "id": 9381352865,
      "lat": 12.9568272,
      "lon": 77.6984718,
      "tags": {
        "brand": "Lenskart",
        "brand:wikidata": "Q17068753",
        "brand:wikipedia": "en:Lenskart",
        "name": "Lenskart",
        "shop": "optician"
      }
    },
    {
      "type": "node",
      "id": 9782472322,
      "lat": 12.9627812,
      "lon": 77.7014411,
      "tags": {
        "brand": "Mahindra",
        "check_date": "2025-04-09",
        "name": "Mahindra",
        "shop": "car"
      }
    },
    {
      "type": "node",
      "id": 9889712440,
      "lat": 12.9548374,
      "lon": 77.6979822,
      "tags": {
        "name": "Carry Mart",
        "shop": "supermarket"
      }
    },
    {
      "type": "node",
      "id": 9909036523,
      "lat": 12.9583674,
      "lon": 77.7009495,
      "tags": {
        "check_date": "2022-07-23",
        "name": "Patanjali Chikitsalaya & Store",
        "shop": "general",
        "wheelchair": "limited"
      }
    },
    {
      "type": "node",
      "id": 9909036719,
      "lat": 12.969231,
      "lon": 77.7013535,
      "tags": {
        "check_date": "2024-09-04",
        "name": "Jodhpuri Furniture",
        "payment:credit_cards": "yes",
        "payment:debit_cards": "yes",
        "shop": "furniture",
        "website": "https://www.jodhpurifurniture.com/",
        "wheelchair": "no"
      }
    },
    {
      "type": "node",
      "id": 9909036720,
      "lat": 12.9562753,
      "lon": 77.7013248,
      "tags": {
        "check_date": "2025-09-03",
        "name": "Trijal TVS",
        "opening_hours": "08:00-13:00,14:00-18:30",
        "shop": "motorcycle"
      }
    },
    {
      "type": "node",
      "id": 9909036721,
      "lat": 12.9561554,
      "lon": 77.701215,
      "tags": {
        "check_date": "2022-07-23",
        "name": "Laddu Furnitures",
        "phone": "+919739724461",
        "shop": "furniture",
        "wheelchair": "no"
      }
    },
    {
      "type": "node",
      "id": 9909036722,
      "lat": 12.9578487,
      "lon": 77.7016208,
      "tags": {
        "amenity": "bank",
        "atm": "yes",
        "brand": "City Union Bank",
        "brand:en": "City Union Bank",
        "brand:fa": "سیتی یونیون بنک",
        "brand:hi": "सिटी यूनियन बैंक",
        "brand:mr": "सिटी युनियन बँक",
        "brand:ta": "சிட்டி யூனியன் வங்கி",
        "brand:ur": "سٹی یونین بینک",
        "brand:website": "https://www.cityunionbank.com",
        "brand:wikidata": "Q2040264",
        "name": "City Union Bank",
        "name:en": "City Union Bank",
        "name:fa": "سیتی یونیون بنک",
        "name:hi": "सिटी यूनियन बैंक",
        "name:mr": "सिटी युनियन बँक",
        "name:ta": "சிட்டி யூனியன் வங்கி",
        "name:ur": "سٹی یونین بینک",
        "short_name": "CUB",
        "short_name:pa": "ਸੀ ਯੂ ਬੀ",
        "short_name:ur": "سی یو بی"
      }
    },
    {
      "type": "node",
      "id": 9909062225,
      "lat": 12.9586642,
      "lon": 77.7015964,
      "tags": {
        "amenity": "atm",
        "brand": "IDFC First Bank",
        "brand:wikidata": "Q22031467",
        "cash_in": "no",
        "check_date": "2024-08-20",
        "name": "IDFC First Bank",
        "operator": "IDFC First Bank",
        "operator:wikidata": "Q22031467"
      }
    },
    {
      "type": "node",
      "id": 9909062518,
      "lat": 12.9589036,
      "lon": 77.7016002,
      "tags": {
        "amenity": "pharmacy",
        "brand": "Apollo Pharmacy",
        "brand:wikidata": "Q62562612",
        "check_date": "2022-07-23",
        "healthcare": "pharmacy",
        "name": "Apollo Pharmacy"
      }
    },
    {
      "type": "node",
      "id": 9909082517,
      "lat": 12.9609128,
      "lon": 77.7016259,
      "tags": {
        "check_date": "2022-07-23",
        "name": "Nandini Milk Parlour",
        "shop": "dairy"
      }
    },
    {
      "type": "node",
      "id": 9909083117,
      "lat": 12.9558992,
      "lon": 77.7011725,
      "tags": {
        "brand": "Honda",
        "brand:wikidata": "Q9584",
        "brand:wikipedia": "en:Honda",
        "check_date": "2025-08-18",
        "level": "0;1",
        "name": "Tansi Honda",
        "opening_hours": "09:30-20:30",
        "payment:mastercard": "yes",
        "payment:visa": "yes",
        "phone": "+919742622227",
        "shop": "motorcycle",
        "source": "survey",
        "wheelchair": "no"
      }
    },
    {
      "type": "node",
      "id": 9920825257,
      "lat": 12.9566213,
      "lon": 77.710398,
      "tags": {
        "name": "Bounce Salon",
        "shop": "beauty"
      }
    },
    {
      "type": "node",
      "id": 9920825259,
      "lat": 12.9564598,
      "lon": 77.7102806,
      "tags": {
        "amenity": "restaurant",
        "check_date": "2022-09-14",
        "name": "Tirupathi Bheemas",
        "wheelchair": "no"
      }
    },
    {
      "type": "node",
      "id": 9921945891,
      "lat": 12.9533575,
      "lon": 77.7004454,
      "tags": {
        "air_conditioning": "yes",
        "amenity": "restaurant",
        "indoor_seating": "yes",
        "name": "Le Arabia",
        "outdoor_seating": "no"
      }
    },
    {
      "type": "node",
      "id": 9967069617,
      "lat": 12.9650736,
      "lon": 77.701674,
      "tags": {
        "amenity": "clinic",
        "name": "Iswarya Fertility"
      }
    },
    {
      "type": "node",
      "id": 9967070882,
      "lat": 12.9694108,
      "lon": 77.700554,
      "tags": {
        "addr:housenumber": "9",
        "addr:street": "Outer Ring Road",
        "addr:unit": "UB Elega",
        "air_conditioning": "yes",
        "amenity": "cafe",
        "bar": "no",
        "changing_table": "no",
        "check_date": "2025-09-11",
        "check_date:diet:halal": "2025-09-11",
        "check_date:opening_hours": "2025-09-11",
        "cuisine": "coffee_shop;sandwich;burger",
        "diet:halal": "yes",
        "diet:non-vegetarian": "yes",
        "diet:vegan": "yes",
        "diet:vegetarian": "yes",
        "email": "karthiknagar@thirdwavecoffee.in",
        "highchair": "yes",
        "indoor_seating": "yes",
        "internet_access": "wlan",
        "internet_access:fee": "no",
        "name": "Third Wave Coffee",
        "opening_hours": "08:00-01:00",
        "outdoor_seating": "no",
        "payment:cash": "yes",
        "payment:credit_cards": "yes",
        "payment:debit_cards": "yes",
        "payment:mastercard": "yes",
        "payment:upi": "yes",
        "payment:visa": "yes",
        "phone": "+91 80957 99577",
        "smoking": "no",
        "source": "survey",
        "takeaway": "yes",
        "website": "https://cafe.thirdwavecoffee.in/coffee-cafe-bengaluru-north-bengaluru-29973/home",
        "wheelchair": "no"
      }
    },
    {
      "type": "node",
      "id": 9978416918,
      "lat": 12.9689247,
      "lon": 77.7007968,
      "tags": {
        "check_date": "2025-04-04",
        "name": "Naturals",
        "shop": "hairdresser",
        "wheelchair": "no"
      }
    },
    {
      "type": "node",
      "id": 10046457182,
      "lat": 12.9569282,
      "lon": 77.707628,
      "tags": {
        "name": "Daily Basket",
        "shop": "department_store"
      }
    },
    {
      "type": "node",
      "id": 10067234338,
      "lat": 12.9616928,
      "lon": 77.7013123,
      "tags": {
        "brand": "Airtel",
        "brand:wikidata": "Q854867",
        "name": "Airtel",
        "shop": "mobile_phone"
      }
    },
    {
      "type": "node",
      "id": 10067234339,
      "lat": 12.9660089,
      "lon": 77.7018486,
      "tags": {
        "brand": "Bajaj",
        "brand:wikidata": "Q10910065",
        "name": "Bajaj",
        "name:kn": "ಬಜಾಜ್",
        "shop": "motorcycle",
        "wheelchair": "no"
      }
    },
    {
      "type": "node",
      "id": 10067234340,
      "lat": 12.965789,
      "lon": 77.7018296,
      "tags": {
        "brand": "KTM",
        "brand:wikidata": "Q215657",
        "check_date": "2025-04-09",
        "name": "KTM",
        "shop": "motorcycle"
      }
    },
    {
      "type": "node",
      "id": 10067234353,
      "lat": 12.9609687,
      "lon": 77.7017563,
      "tags": {
        "air_conditioning": "yes",
        "amenity": "restaurant",
        "cuisine": "chinese",
        "diet:vegetarian": "yes",
        "indoor_seating": "yes",
        "name": "Chinese Wok",
        "outdoor_seating": "no",
        "smoking": "no"
      }
    },
    {
      "type": "node",
      "id": 10067234358,
      "lat": 12.9611587,
      "lon": 77.7018185,
      "tags": {
        "check_date": "2025-04-05",
        "clothes": "women",
        "name": "Kalanikethan",
        "shop": "clothes"
      }
    },
    {
      "type": "node",
      "id": 10109541423,
      "lat": 12.9642685,
      "lon": 77.713017,
      "tags": {
        "clothes": "women",
        "name": "Reliance Trends Women",
        "shop": "clothes"
      }
    },
    {
      "type": "node",
      "id": 10110415035,
      "lat": 12.9650534,
      "lon": 77.7017054,
      "tags": {
        "air_conditioning": "yes",
        "amenity": "restaurant",
        "bar": "no",
        "check_date": "2025-04-09",
        "cuisine": "regional",
        "delivery": "yes",
        "diet:non-vegetarian": "yes",
        "diet:vegetarian": "yes",
        "highchair": "no",
        "indoor_seating": "yes",
        "internet_access": "no",
        "name": "Paradise Biryani",
        "opening_hours": "11:00-23:00",
        "outdoor_seating": "no",
        "payment:cash": "yes",
        "payment:credit_cards": "yes",
        "payment:debit_cards": "yes",
        "payment:upi": "yes",
        "smoking": "no",
        "source": "survey",
        "takeaway": "yes",
        "wheelchair": "limited"
      }
    },
    {
      "type": "node",
      "id": 10131908633,
      "lat": 12.9600457,
      "lon": 77.7016254,
      "tags": {
        "check_date": "2025-11-27",
        "clothes": "women",
        "name": "Ambara Silks",
        "payment:credit_cards": "yes",
        "payment:debit_cards": "yes",
        "shop": "clothes",
        "source": "survey",
        "wheelchair": "no"
      }
    },
    {
      "type": "node",
      "id": 10197726124,
      "lat": 12.9585663,
      "lon": 77.7028132,
      "tags": {
        "amenity": "pharmacy",
        "check_date": "2022-11-16",
        "healthcare": "pharmacy",
        "name": "Health Care Pharmacy",
        "source": "survey"
      }
    },
    {
      "type": "node",
      "id": 10197726125,
      "lat": 12.9592397,
      "lon": 77.7015645,
      "tags": {
        "amenity": "pharmacy",
        "check_date": "2022-11-16",
        "healthcare": "pharmacy",
        "name": "Sri Balaji Medicals & Surgicals",
        "source": "survey"
      }
    },
    {
      "type": "node",
      "id": 10197726126,
      "lat": 12.9593413,
      "lon": 77.7017001,
      "tags": {
        "amenity": "pharmacy",
        "check_date": "2022-11-16",
        "healthcare": "pharmacy",
        "name": "Ramdev Medicrest",
        "source": "survey"
      }
    },
    {
      "type": "node",
      "id": 10197726127,
      "lat": 12.9595911,
      "lon": 77.7016523,
      "tags": {
        "amenity": "atm",
        "brand": "ICICI Bank",
        "brand:wikidata": "Q1653258",
        "cash_in": "no",
        "check_date": "2024-12-15",
        "name": "ICICI Bank",
        "name:kn": "ಐಸಿಐಸಿಐ ಬ್ಯಾಂಕು",
        "operator": "ICICI Bank",
        "operator:wikidata": "Q1653258",
        "short_name": "ICICI",
        "source": "survey"
      }
    },
    {
      "type": "node",
      "id": 10257576948,
      "lat": 12.9608617,
      "lon": 77.7135387,
      "tags": {
        "amenity": "fast_food",
        "cuisine": "juice;ice_cream",
        "name": "Lassi Dhar"
      }
    },
    {
      "type": "node",
      "id": 10257576977,
      "lat": 12.9639674,
      "lon": 77.7132227,
      "tags": {
        "check_date": "2024-07-13",
        "name": "Fresho - by BigBasket",
        "shop": "greengrocer"
      }
    },
    {
      "type": "node",
      "id": 10257576978,
      "lat": 12.9642303,
      "lon": 77.7125694,
      "tags": {
        "addr:full": "No. 295 Ground Floor, AECS Layout Main Rd, Kundalahalli, Bengaluru, Karnataka 560037",
        "amenity": "fast_food",
        "brand": "Domino's",
        "brand:ks": "ڈومینوز",
        "brand:pa": "ਡੋਮੀਨੋਜ਼",
        "brand:ur": "ڈومینوز",
        "brand:wikidata": "Q839466",
        "brand:wikipedia": "en:Domino's Pizza",
        "cuisine": "pizza",
        "delivery": "yes",
        "description": "Delivery/carryout chain offering a wide range of pizzas & a variety of other dishes & sides.",
        "drive_through": "no",
        "internet_access": "no",
        "name": "Domino's",
        "name:ks": "ڈومینوز",
        "name:pa": "ਡੋਮੀਨੋਜ਼",
        "name:ur": "ڈومینوز",
        "opening_hours": "Mo-Su 10:00-23:00",
        "outdoor_seating": "no",
        "phone": "18602100000",
        "reservation": "no",
        "smoking": "no",
        "takeaway": "yes"
      }
    },
    {
      "type": "node",
      "id": 10257576979,
      "lat": 12.9641842,
      "lon": 77.7124284,
      "tags": {
        "amenity": "bank",
        "brand": "Indian Bank",
        "brand:wikidata": "Q2003789",
        "brand:wikipedia": "en:Indian Bank",
        "name": "Indian Bank",
        "name:kn": "ಇಂಡಿಯನ್ ಬ್ಯಾಂಕ್"
      }
    },
    {
      "type": "node",
      "id": 10564154369,
      "lat": 12.956997,
      "lon": 77.7038375,
      "tags": {
        "name": "Berlynoak",
        "shop": "furniture"
      }
    },
    {
      "type": "node",
      "id": 10564154370,
      "lat": 12.9569816,
      "lon": 77.7029045,
      "tags": {
        "leisure": "fitness_centre",
        "name": "Burnout Fitness Centre"
      }
    },
    {
      "type": "node",
      "id": 10564154371,
      "lat": 12.9569803,
      "lon": 77.7029966,
      "tags": {
        "brand": "Kanti Sweets",
        "check_date": "2025-09-03",
        "name": "Kanti Sweets",
        "shop": "confectionery"
      }
    },
    {
      "type": "node",
      "id": 10564154381,
      "lat": 12.9569894,
      "lon": 77.7035327,
      "tags": {
        "amenity": "dentist",
        "healthcare": "dentist",
        "name": "Kush Oral Surgery"
      }
    },
    {
      "type": "node",
      "id": 10675551013,
      "lat": 12.9663948,
      "lon": 77.7080119,
      "tags": {
        "amenity": "place_of_worship",
        "name": "Kateriamma and Shiva Temple",
        "religion": "hindu"
      }
    },
    {
      "type": "node",
      "id": 10719499934,
      "lat": 12.9597192,
      "lon": 77.7029037,
      "tags": {
        "amenity": "restaurant",
        "name": "Kundana"
      }
    },
    {
      "type": "node",
      "id": 10760842108,
      "lat": 12.9627176,
      "lon": 77.7132186,
      "tags": {
        "check_date": "2024-07-13",
        "name": "Iyengar's Bread Basket",
        "shop": "bakery"
      }
    },
    {
      "type": "node",
      "id": 10760842109,
      "lat": 12.9625983,
      "lon": 77.7132337,
      "tags": {
        "check_date": "2024-07-13",
        "name": "Gramp Green World",
        "shop": "greengrocer"
      }
    },
    {
      "type": "node",
      "id": 10760842110,
      "lat": 12.9624755,
      "lon": 77.7131906,
      "tags": {
        "name": "Titan Eye+",
        "shop": "optician"
      }
    },
    {
      "type": "node",
      "id": 10760842111,
      "lat": 12.9617336,
      "lon": 77.7133527,
      "tags": {
        "addr:housename": "Tom & Jerry Creche",
        "addr:housenumber": "1345, D Block, AECS Layout",
        "addr:street": "60 Ft Road, AECS Layout",
        "amenity": "school",
        "name": "Tom & Jerry Creche"
      }
    },
    {
      "type": "node",
      "id": 10760842112,
      "lat": 12.9617117,
      "lon": 77.7134168,
      "tags": {
        "name": "Hirisha Pet World",
        "shop": "pet"
      }
    },
    {
      "type": "node",
      "id": 10760842118,
      "lat": 12.9630052,
      "lon": 77.7131416,
      "tags": {
        "amenity": "fast_food",
        "cuisine": "juice",
        "name": "The Liquid Fruit"
      }
    },
    {
      "type": "node",
      "id": 10760842119,
      "lat": 12.9630734,
      "lon": 77.7131276,
      "tags": {
        "amenity": "ice_cream",
        "name": "Kelvin Scale"
      }
    },
    {
      "type": "node",
      "id": 11003395608,
      "lat": 12.9634686,
      "lon": 77.7133118,
      "tags": {
        "amenity": "pharmacy",
        "brand": "Apollo Pharmacy",
        "brand:wikidata": "Q62562612",
        "healthcare": "pharmacy",
        "name": "Apollo Pharmacy"
      }
    },
    {
      "type": "node",
      "id": 11051170146,
      "lat": 12.9568772,
      "lon": 77.7087819,
      "tags": {
        "brand": "cult.fit",
        "brand:wikidata": "Q121289250",
        "leisure": "fitness_centre",
        "name": "cult.fit"
      }
    },
    {
      "type": "node",
      "id": 11056993028,
      "lat": 12.9692353,
      "lon": 77.7006739,
      "tags": {
        "addr:housenumber": "92",
        "addr:street": "Outer Ring Road",
        "amenity": "college",
        "check_date": "2025-09-11",
        "email": "srushtidegreecollege@gmail.com",
        "name": "Srushti Degree College",
        "phone": "+91 99646 45111; +91 97409 56262",
        "source": "survey",
        "website": "https://srushtidegreecollege.com/"
      }
    },
    {
      "type": "node",
      "id": 11091113618,
      "lat": 12.9564551,
      "lon": 77.709996,
      "tags": {
        "amenity": "restaurant",
        "name": "Red Box"
      }
    },
    {
      "type": "node",
      "id": 11091113620,
      "lat": 12.9564788,
      "lon": 77.7100837,
      "tags": {
        "amenity": "restaurant",
        "cuisine": "indian",
        "diet:vegetarian": "yes",
        "name": "Tirupathi Bhimas"
      }
    },
    {
      "type": "node",
      "id": 11116490522,
      "lat": 12.9552736,
      "lon": 77.7004273,
      "tags": {
        "check_date": "2025-09-03",
        "name": "First Cry",
        "payment:mastercard": "yes",
        "payment:visa": "yes",
        "shop": "baby_goods"
      }
    },
    {
      "type": "node",
      "id": 11192491329,
      "lat": 12.9628816,
      "lon": 77.7131542,
      "tags": {
        "amenity": "pharmacy",
        "check_date": "2023-09-15",
        "healthcare": "pharmacy",
        "name": "Krishna Medical"
      }
    },
    {
      "type": "node",
      "id": 11192491330,
      "lat": 12.9629034,
      "lon": 77.7131569,
      "tags": {
        "check_date": "2023-09-15",
        "name": "DOT",
        "shop": "hairdresser"
      }
    },
    {
      "type": "node",
      "id": 11192491331,
      "lat": 12.9630399,
      "lon": 77.7131382,
      "tags": {
        "check_date": "2023-09-15",
        "leisure": "fitness_centre",
        "name": "Ashish Yoga Fitness",
        "sport": "yoga"
      }
    },
    {
      "type": "node",
      "id": 11331571988,
      "lat": 12.9592984,
      "lon": 77.7027271,
      "tags": {
        "name": "Sharon's",
        "shop": "tea"
      }
    },
    {
      "type": "node",
      "id": 11423311803,
      "lat": 12.9575031,
      "lon": 77.7093642,
      "tags": {
        "amenity": "fast_food",
        "check_date": "2023-12-16",
        "name": "Olive"
      }
    },
    {
      "type": "node",
      "id": 11423311804,
      "lat": 12.9577122,
      "lon": 77.7095997,
      "tags": {
        "amenity": "pharmacy",
        "check_date": "2023-12-16",
        "healthcare": "pharmacy",
        "name": "Brothers Pharma"
      }
    },
    {
      "type": "node",
      "id": 11423311805,
      "lat": 12.9577887,
      "lon": 77.7091478,
      "tags": {
        "amenity": "cafe",
        "check_date": "2023-12-16",
        "name": "Mom's Kitchen"
      }
    },
    {
      "type": "node",
      "id": 11425682973,
      "lat": 12.9549447,
      "lon": 77.7003108,
      "tags": {
        "amenity": "restaurant",
        "check_date": "2023-12-17",
        "cuisine": "pizza",
        "name": "La Melano"
      }
    },
    {
      "type": "node",
      "id": 11535639646,
      "lat": 12.9555082,
      "lon": 77.7005091,
      "tags": {
        "amenity": "bank",
        "brand": "Union Bank of India",
        "brand:wikidata": "Q2004078",
        "check_date": "2024-01-21",
        "name": "Union Bank of India",
        "name:kn": "ಯೂನಿಯನ್ ಬ್ಯಾಂಕ್",
        "source": "survey"
      }
    },
    {
      "type": "node",
      "id": 11535639647,
      "lat": 12.9554389,
      "lon": 77.7004848,
      "tags": {
        "amenity": "atm",
        "brand": "Union Bank of India",
        "brand:wikidata": "Q2004078",
        "check_date": "2024-01-21",
        "opening_hours": "24/7",
        "operator": "Union Bank of India",
        "operator:wikidata": "Q2004078",
        "source": "survey"
      }
    },
    {
      "type": "node",
      "id": 11609697416,
      "lat": 12.9602893,
      "lon": 77.7096646,
      "tags": {
        "amenity": "waste_basket",
        "material": "metal"
      }
    },
    {
      "type": "node",
      "id": 11609697417,
      "lat": 12.9618196,
      "lon": 77.7089281,
      "tags": {
        "amenity": "bench",
        "backrest": "yes",
        "material": "stone",
        "seats": "2"
      }
    },
    {
      "type": "node",
      "id": 11609697418,
      "lat": 12.961734,
      "lon": 77.7089677,
      "tags": {
        "amenity": "bench",
        "backrest": "yes",
        "material": "stone",
        "seats": "2"
      }
    },
    {
      "type": "node",
      "id": 11609697419,
      "lat": 12.9617837,
      "lon": 77.7089394,
      "tags": {
        "amenity": "waste_basket",
        "material": "metal"
      }
    },
    {
      "type": "node",
      "id": 11609697458,
      "lat": 12.9621806,
      "lon": 77.708277,
      "tags": {
        "amenity": "bench",
        "material": "stone",
        "seats": "2"
      }
    },
    {
      "type": "node",
      "id": 11609697459,
      "lat": 12.9621896,
      "lon": 77.7082123,
      "tags": {
        "amenity": "bench",
        "material": "stone",
        "seats": "2"
      }
    },
    {
      "type": "node",
      "id": 11609697460,
      "lat": 12.9621963,
      "lon": 77.7082435,
      "tags": {
        "amenity": "waste_basket",
        "material": "metal"
      }
    },
    {
      "type": "node",
      "id": 11698082619,
      "lat": 12.9630388,
      "lon": 77.7025776,
      "tags": {
        "access": "private",
        "amenity": "parking_entrance",
        "parking": "underground"
      }
    },
    {
      "type": "node",
      "id": 11698082624,
      "lat": 12.964246,
      "lon": 77.7025456,
      "tags": {
        "access": "private",
        "amenity": "parking_entrance",
        "parking": "underground"
      }
    },
    {
      "type": "node",
      "id": 11891881942,
      "lat": 12.968751,
      "lon": 77.7072133,
      "tags": {
        "amenity": "smoking_area",
        "bench": "yes",
        "bin": "yes",
        "shelter": "no"
      }
    },
    {
      "type": "node",
      "id": 11944331744,
      "lat": 12.9557242,
      "lon": 77.6979149,
      "tags": {
        "amenity": "restaurant",
        "name": "Sri Udupi Park Cafe",
        "survey:date": "2024-05-30"
      }
    },
    {
      "type": "node",
      "id": 11944342159,
      "lat": 12.9558437,
      "lon": 77.697913,
      "tags": {
        "amenity": "pharmacy",
        "brand": "Apollo Pharmacy",
        "brand:wikidata": "Q62562612",
        "healthcare": "pharmacy",
        "name": "Apollo Pharmacy",
        "opening_hours": "07:00-23:00",
        "survey:date": "2024-05-30"
      }
    },
    {
      "type": "node",
      "id": 11944379185,
      "lat": 12.9554995,
      "lon": 77.6979759,
      "tags": {
        "amenity": "atm",
        "brand": "South Indian Bank",
        "brand:wikidata": "Q2044973",
        "currency:INR": "yes",
        "name": "South Indian Bank",
        "operator": "South Indian Bank",
        "operator:wikidata": "Q2044973",
        "survey:date": "2024-05-30"
      }
    },
    {
      "type": "node",
      "id": 12050406751,
      "lat": 12.9624953,
      "lon": 77.7132281,
      "tags": {
        "check_date": "2024-07-13",
        "leisure": "fitness_centre",
        "name": "Burnout Fitness",
        "wheelchair": "no"
      }
    },
    {
      "type": "node",
      "id": 12050432135,
      "lat": 12.9638918,
      "lon": 77.7125659,
      "tags": {
        "amenity": "ice_cream",
        "brand": "Polar Bear",
        "brand:wikidata": "Q124374249",
        "check_date": "2024-07-13",
        "delivery": "yes",
        "name": "Polar Bear",
        "takeaway": "yes"
      }
    },
    {
      "type": "node",
      "id": 12050432136,
      "lat": 12.9638729,
      "lon": 77.7125005,
      "tags": {
        "check_date": "2024-07-13",
        "name": "Teera",
        "shop": "clothes"
      }
    },
    {
      "type": "node",
      "id": 12050443411,
      "lat": 12.9618315,
      "lon": 77.7133611,
      "tags": {
        "check_date": "2024-07-13",
        "name": "Midas Daily Supermarket",
        "shop": "supermarket"
      }
    },
    {
      "type": "node",
      "id": 12050444578,
      "lat": 12.9638965,
      "lon": 77.7123703,
      "tags": {
        "check_date": "2024-07-13",
        "name": "Ratnadeep",
        "shop": "supermarket"
      }
    },
    {
      "type": "node",
      "id": 12050444587,
      "lat": 12.9640676,
      "lon": 77.71178,
      "tags": {
        "addr:floor": "1",
        "check_date": "2024-07-13",
        "level": "1",
        "name": "Miracurl",
        "opening_hours": "10:00-21:00",
        "shop": "hairdresser"
      }
    },
    {
      "type": "node",
      "id": 12050458112,
      "lat": 12.9612928,
      "lon": 77.7135052,
      "tags": {
        "amenity": "cafe",
        "check_date": "2024-07-13",
        "name": "Patil Katta"
      }
    },
    {
      "type": "node",
      "id": 12050464427,
      "lat": 12.9612558,
      "lon": 77.7134479,
      "tags": {
        "check_date": "2024-07-13",
        "name": "MK Zion Men’s Saloon",
        "shop": "hairdresser"
      }
    },
    {
      "type": "node",
      "id": 12050465123,
      "lat": 12.9626893,
      "lon": 77.7132234,
      "tags": {
        "amenity": "restaurant",
        "check_date": "2024-07-13",
        "cuisine": "pizza",
        "name": "Thyme - Wood Fired Pizzeria"
      }
    },
    {
      "type": "node",
      "id": 12050465775,
      "lat": 12.9622347,
      "lon": 77.7132712,
      "tags": {
        "amenity": "dentist",
        "check_date": "2024-07-13",
        "healthcare": "dentist",
        "name": "Dr.Regish’s Dental care & implant Center"
      }
    },
    {
      "type": "node",
      "id": 12050483996,
      "lat": 12.9638305,
      "lon": 77.7115966,
      "tags": {
        "check_date": "2024-07-13",
        "name": "Puncture Shop",
        "operator": "9677837260",
        "shop": "repair"
      }
    },
    {
      "type": "node",
      "id": 12050485608,
      "lat": 12.9608513,
      "lon": 77.7135638,
      "tags": {
        "amenity": "doctors",
        "check_date": "2024-07-13",
        "healthcare": "doctor",
        "name": "Sachins Dental Clinic",
        "phone": "+91 88614 46589"
      }
    },
    {
      "type": "node",
      "id": 12050531246,
      "lat": 12.9633833,
      "lon": 77.7097519,
      "tags": {
        "air_conditioning": "yes",
        "amenity": "restaurant",
        "check_date": "2024-07-13",
        "cuisine": "noodle;chinese",
        "diet:vegetarian": "yes",
        "name": "The Noodle Theory",
        "note": "3 high steps for entry to building. Noodle Theory is on ground floor and level, but the steps may not be accessible",
        "outdoor_seating": "no",
        "takeaway": "yes",
        "wheelchair": "limited"
      }
    },
    {
      "type": "node",
      "id": 12136228072,
      "lat": 12.9565467,
      "lon": 77.7099853,
      "tags": {
        "amenity": "clock",
        "name": "R Gold's Cuckoo Clock"
      }
    },
    {
      "type": "node",
      "id": 12136228073,
      "lat": 12.9566478,
      "lon": 77.7098961,
      "tags": {
        "amenity": "fast_food",
        "name": "Mani's Dum Biryani",
        "takeaway": "only"
      }
    },
    {
      "type": "node",
      "id": 12145301108,
      "lat": 12.9573524,
      "lon": 77.7008566,
      "tags": {
        "amenity": "restaurant",
        "name": "Malnad Spicy"
      }
    },
    {
      "type": "node",
      "id": 12150868662,
      "lat": 12.9633754,
      "lon": 77.7096873,
      "tags": {
        "amenity": "restaurant",
        "cuisine": "indian;regional",
        "name": "Muraamba",
        "outdoor_seating": "yes"
      }
    },
    {
      "type": "node",
      "id": 12270718858,
      "lat": 12.9651511,
      "lon": 77.7023679,
      "tags": {
        "amenity": "school",
        "check_date": "2024-10-20",
        "name": "Government Lower Primary School",
        "operator:type": "government"
      }
    },
    {
      "type": "node",
      "id": 12270718859,
      "lat": 12.9658546,
      "lon": 77.7025095,
      "tags": {
        "amenity": "pharmacy",
        "check_date": "2024-10-20",
        "healthcare": "pharmacy",
        "name": "Jeevika Pharmacy"
      }
    },
    {
      "type": "node",
      "id": 12460866493,
      "lat": 12.9567767,
      "lon": 77.7005293,
      "tags": {
        "addr:floor": "G;1",
        "air_conditioning": "yes",
        "brand": "Tanishq",
        "brand:en": "Tanishq",
        "brand:wikidata": "Q13117711",
        "check_date": "2025-06-14",
        "level": "0;1",
        "name": "Tanishq",
        "name:en": "Tanishq",
        "opening_hours": "11:00-20:30",
        "payment:cash": "yes",
        "payment:credit_cards": "yes",
        "payment:debit_cards": "yes",
        "shop": "jewelry",
        "toilets": "yes"
      }
    },
    {
      "type": "node",
      "id": 12460866494,
      "lat": 12.9566765,
      "lon": 77.699907,
      "tags": {
        "check_date": "2024-12-29",
        "name": "PMJ Jewels",
        "shop": "jewelry"
      }
    },
    {
      "type": "node",
      "id": 12460866495,
      "lat": 12.9567807,
      "lon": 77.6993445,
      "tags": {
        "air_conditioning": "yes",
        "brand": "Kalyan Jewellers",
        "brand:wikidata": "Q6354854",
        "check_date": "2024-12-29",
        "name": "Kalyan Jewellers",
        "payment:cash": "yes",
        "payment:credit_cards": "yes",
        "payment:debit_cards": "yes",
        "shop": "jewelry",
        "source": "survey"
      }
    },
    {
      "type": "node",
      "id": 12460866496,
      "lat": 12.9566917,
      "lon": 77.699838,
      "tags": {
        "check_date": "2024-12-29",
        "name": "Bluestone",
        "shop": "jewelry"
      }
    },
    {
      "type": "node",
      "id": 12460866497,
      "lat": 12.9567549,
      "lon": 77.6996047,
      "tags": {
        "addr:floor": "G;1",
        "air_conditioning": "yes",
        "brand": "Max",
        "brand:wikidata": "Q24939079",
        "check_date": "2025-08-26",
        "clothes": "women;men;babies;children",
        "level": "0;1;2;3",
        "name": "Max",
        "payment:cash": "yes",
        "payment:credit_cards": "yes",
        "payment:debit_cards": "yes",
        "shop": "clothes",
        "wheelchair": "no"
      }
    },
    {
      "type": "node",
      "id": 12460866498,
      "lat": 12.9567017,
      "lon": 77.6997705,
      "tags": {
        "brand": "U.S. Polo Assn.",
        "brand:wikidata": "Q7863282",
        "check_date": "2024-12-29",
        "name": "U.S. Polo Assn.",
        "payment:cash": "yes",
        "payment:credit_cards": "yes",
        "payment:debit_cards": "yes",
        "shop": "clothes"
      }
    },
    {
      "type": "node",
      "id": 12460866499,
      "lat": 12.9566705,
      "lon": 77.6999969,
      "tags": {
        "addr:floor": "G;1",
        "air_conditioning": "yes",
        "brand": "Bhima Jewellers",
        "brand:wikidata": "Q17004889",
        "check_date": "2024-12-29",
        "level": "0;1",
        "name": "Bhima Jewellers",
        "payment:cash": "yes",
        "payment:credit_cards": "yes",
        "payment:debit_cards": "yes",
        "shop": "jewelry",
        "wheelchair": "no"
      }
    },
    {
      "type": "node",
      "id": 12460866500,
      "lat": 12.9567726,
      "lon": 77.7003897,
      "tags": {
        "brand": "Forever 21",
        "brand:wikidata": "Q1060537",
        "check_date": "2025-06-14",
        "name": "Forever 21",
        "shop": "clothes"
      }
    },
    {
      "type": "node",
      "id": 12460949601,
      "lat": 12.9567487,
      "lon": 77.700455,
      "tags": {
        "brand": "Reebok",
        "brand:wikidata": "Q466183",
        "check_date": "2025-06-14",
        "name": "Reebok",
        "shop": "clothes"
      }
    },
    {
      "type": "node",
      "id": 12541403707,
      "lat": 12.966116,
      "lon": 77.701998,
      "tags": {
        "name": "Trijal TVS",
        "shop": "motorcycle"
      }
    },
    {
      "type": "node",
      "id": 12580972673,
      "lat": 12.9608165,
      "lon": 77.7012261,
      "tags": {
        "amenity": "atm",
        "brand": "IndusInd Bank",
        "brand:wikidata": "Q2040323",
        "check_date": "2025-02-12",
        "opening_hours": "24/7",
        "operator": "IndusInd Bank",
        "operator:wikidata": "Q2040323",
        "source": "survey"
      }
    },
    {
      "type": "node",
      "id": 12886637754,
      "lat": 12.9673091,
      "lon": 77.7073923,
      "tags": {
        "amenity": "bench",
        "armrest": "no",
        "backrest": "yes",
        "material": "stone",
        "seats": "4"
      }
    },
    {
      "type": "node",
      "id": 12886637755,
      "lat": 12.9672526,
      "lon": 77.707424,
      "tags": {
        "amenity": "bench",
        "armrest": "no",
        "backrest": "yes",
        "material": "stone",
        "seats": "4"
      }
    },
    {
      "type": "node",
      "id": 12886637756,
      "lat": 12.967143,
      "lon": 77.7075125,
      "tags": {
        "amenity": "bench",
        "armrest": "no",
        "backrest": "no",
        "material": "stone",
        "seats": "4"
      }
    },
    {
      "type": "node",
      "id": 12886637757,
      "lat": 12.9669411,
      "lon": 77.7076136,
      "tags": {
        "amenity": "waste_basket",
        "colour": "green",
        "material": "plastic"
      }
    },
    {
      "type": "node",
      "id": 12886637758,
      "lat": 12.9669411,
      "lon": 77.7076136,
      "tags": {
        "amenity": "bench",
        "armrest": "no",
        "backrest": "yes",
        "material": "stone",
        "seats": "4"
      }
    },
    {
      "type": "node",
      "id": 12886637759,
      "lat": 12.9669411,
      "lon": 77.7076136,
      "tags": {
        "amenity": "bench",
        "armrest": "no",
        "backrest": "no",
        "material": "stone",
        "seats": "4"
      }
    },
    {
      "type": "node",
      "id": 12886637760,
      "lat": 12.9664881,
      "lon": 77.7077109,
      "tags": {
        "amenity": "bench",
        "armrest": "no",
        "backrest": "yes",
        "material": "stone",
        "seats": "4"
      }
    },
    {
      "type": "node",
      "id": 12886637761,
      "lat": 12.9662394,
      "lon": 77.707748,
      "tags": {
        "amenity": "bench",
        "armrest": "no",
        "backrest": "yes",
        "material": "stone",
        "seats": "4"
      }
    },
    {
      "type": "node",
      "id": 12886637762,
      "lat": 12.9660408,
      "lon": 77.7078226,
      "tags": {
        "amenity": "bench",
        "armrest": "no",
        "backrest": "yes",
        "material": "stone",
        "seats": "4"
      }
    },
    {
      "type": "node",
      "id": 12886637763,
      "lat": 12.9660408,
      "lon": 77.7078226,
      "tags": {
        "amenity": "waste_basket",
        "colour": "green",
        "material": "plastic"
      }
    },
    {
      "type": "node",
      "id": 12886637764,
      "lat": 12.965493,
      "lon": 77.7081374,
      "tags": {
        "amenity": "bench",
        "armrest": "no",
        "backrest": "yes",
        "material": "stone",
        "seats": "4"
      }
    },
    {
      "type": "node",
      "id": 12886637765,
      "lat": 12.9652881,
      "lon": 77.7081688,
      "tags": {
        "amenity": "bench",
        "armrest": "no",
        "backrest": "yes",
        "material": "stone",
        "seats": "4"
      }
    },
    {
      "type": "node",
      "id": 12930139204,
      "lat": 12.96468,
      "lon": 77.711295,
      "tags": {
        "amenity": "bench"
      }
    },
    {
      "type": "node",
      "id": 12930139210,
      "lat": 12.9638732,
      "lon": 77.7089438,
      "tags": {
        "addr:floor": "G;1",
        "addr:housenumber": "274",
        "addr:street": "AECS Layout, AECS Main Road",
        "amenity": "kindergarten",
        "check_date": "2025-06-04",
        "level": "0;1",
        "name": "Hello kidz"
      }
    },
    {
      "type": "node",
      "id": 12930139218,
      "lat": 12.9643576,
      "lon": 77.7111797,
      "tags": {
        "amenity": "bench"
      }
    },
    {
      "type": "node",
      "id": 12930139226,
      "lat": 12.9642814,
      "lon": 77.7109293,
      "tags": {
        "amenity": "bench"
      }
    },
    {
      "type": "node",
      "id": 12951424131,
      "lat": 12.9544765,
      "lon": 77.7001952,
      "tags": {
        "check_date": "2025-06-25",
        "level": "0",
        "name": "Foot Fashion",
        "shop": "shoes"
      }
    },
    {
      "type": "node",
      "id": 12951424132,
      "lat": 12.9545064,
      "lon": 77.700129,
      "tags": {
        "check_date": "2025-06-25",
        "level": "1",
        "name": "Asus Laptop & Mobile Repair",
        "shop": "repair"
      }
    },
    {
      "type": "node",
      "id": 12951424133,
      "lat": 12.9545059,
      "lon": 77.7001971,
      "tags": {
        "check_date": "2025-06-25",
        "shop": "clothes"
      }
    },
    {
      "type": "node",
      "id": 12951424134,
      "lat": 12.9546922,
      "lon": 77.700256,
      "tags": {
        "amenity": "restaurant",
        "check_date": "2025-06-25",
        "cuisine": "andhra",
        "diet:vegetarian": "yes",
        "level": "0",
        "name": "Sri Guntu Ruchulu"
      }
    },
    {
      "type": "node",
      "id": 12951424135,
      "lat": 12.9547135,
      "lon": 77.7002599,
      "tags": {
        "check_date": "2025-06-25",
        "name": "Bag & Footware",
        "shop": "bag;shoes"
      }
    },
    {
      "type": "node",
      "id": 12951424136,
      "lat": 12.9547599,
      "lon": 77.700275,
      "tags": {
        "check_date": "2025-06-25",
        "name": "Sanndhi Bakery",
        "shop": "bakery"
      }
    },
    {
      "type": "node",
      "id": 12951424137,
      "lat": 12.9547359,
      "lon": 77.7002677,
      "tags": {
        "check_date": "2025-06-25",
        "clothes": "men",
        "name": "Fabio",
        "shop": "clothes"
      }
    },
    {
      "type": "node",
      "id": 12951424138,
      "lat": 12.9548113,
      "lon": 77.7003014,
      "tags": {
        "check_date": "2025-06-25",
        "clothes": "men",
        "name": "Flash Gents Wear",
        "shop": "clothes"
      }
    },
    {
      "type": "node",
      "id": 12951424139,
      "lat": 12.9548261,
      "lon": 77.7003098,
      "tags": {
        "check_date": "2025-06-25",
        "clothes": "women",
        "name": "Flash Women's Wear",
        "shop": "clothes"
      }
    },
    {
      "type": "node",
      "id": 12951424140,
      "lat": 12.9547867,
      "lon": 77.7002958,
      "tags": {
        "check_date": "2025-06-25",
        "shop": "shoes"
      }
    },
    {
      "type": "node",
      "id": 12956507867,
      "lat": 12.9548832,
      "lon": 77.7002763,
      "tags": {
        "brand:website": "firstcry.com",
        "check_date": "2025-06-27",
        "name": "Firstcry",
        "shop": "baby_goods"
      }
    },
    {
      "type": "node",
      "id": 12976257453,
      "lat": 12.9636165,
      "lon": 77.7081858,
      "tags": {
        "access": "private",
        "amenity": "parking_entrance",
        "parking": "underground"
      }
    },
    {
      "type": "node",
      "id": 12977423652,
      "lat": 12.9688976,
      "lon": 77.7015009,
      "tags": {
        "amenity": "atm",
        "brand": "IDFC First Bank",
        "brand:wikidata": "Q22031467",
        "check_date": "2025-07-04",
        "opening_hours": "24/7",
        "operator": "IDFC First Bank",
        "operator:wikidata": "Q22031467",
        "wheelchair": "no"
      }
    },
    {
      "type": "node",
      "id": 12977423653,
      "lat": 12.9689452,
      "lon": 77.7014681,
      "tags": {
        "amenity": "bank",
        "brand": "IDFC First Bank",
        "brand:wikidata": "Q22031467",
        "check_date": "2025-07-04",
        "name": "IDFC First Bank",
        "wheelchair": "no"
      }
    },
    {
      "type": "node",
      "id": 13033289901,
      "lat": 12.9572779,
      "lon": 77.7094779,
      "tags": {
        "amenity": "bar",
        "name": "Divine Drops"
      }
    },
    {
      "type": "node",
      "id": 13049444664,
      "lat": 12.9638419,
      "lon": 77.7122376,
      "tags": {
        "check_date": "2025-08-05",
        "name": "KPN Fresh",
        "shop": "greengrocer"
      }
    },
    {
      "type": "node",
      "id": 13049444665,
      "lat": 12.9641493,
      "lon": 77.7122095,
      "tags": {
        "brand": "Nandini",
        "brand:wikidata": "Q124374212",
        "check_date": "2025-08-05",
        "name": "Nandini",
        "shop": "dairy"
      }
    },
    {
      "type": "node",
      "id": 13049444666,
      "lat": 12.9640998,
      "lon": 77.7120498,
      "tags": {
        "brand": "Vision Express",
        "brand:wikidata": "Q7936150",
        "check_date": "2025-08-05",
        "name": "Vision Express",
        "shop": "optician"
      }
    },
    {
      "type": "node",
      "id": 13049444667,
      "lat": 12.9641072,
      "lon": 77.7120056,
      "tags": {
        "amenity": "bank",
        "brand": "ICICI Bank",
        "brand:wikidata": "Q1653258",
        "check_date": "2025-08-05",
        "name": "ICICI Bank",
        "short_name": "ICICI"
      }
    },
    {
      "type": "node",
      "id": 13049444668,
      "lat": 12.9641723,
      "lon": 77.7124942,
      "tags": {
        "amenity": "cafe",
        "brand": "Chai Point",
        "brand:wikidata": "Q28173415",
        "check_date": "2025-08-05",
        "cuisine": "coffee_shop",
        "name": "Chai Point",
        "takeaway": "yes"
      }
    },
    {
      "type": "node",
      "id": 13128777124,
      "lat": 12.9634786,
      "lon": 77.7130533,
      "tags": {
        "name": "Mewari",
        "shop": "bakery"
      }
    },
    {
      "type": "node",
      "id": 13128777125,
      "lat": 12.9634022,
      "lon": 77.7130716,
      "tags": {
        "hairdresser": "barber",
        "name": "The Man",
        "shop": "hairdresser"
      }
    },
    {
      "type": "node",
      "id": 13128777126,
      "lat": 12.9634508,
      "lon": 77.7130514,
      "tags": {
        "amenity": "dancing_school",
        "name": "Infinite Dance Crew",
        "short_name": "IDC"
      }
    },
    {
      "type": "way",
      "id": 122157597,
      "center": {
        "lat": 12.9574104,
        "lon": 77.7134875
      },
      "tags": {
        "amenity": "hospital",
        "healthcare": "hospital",
        "name": "Karunashraya",
        "name:kn": "ಕರುಣಾಶ್ರಯ",
        "website": "https://www.karunashraya.org/"
      }
    },
    {
      "type": "way",
      "id": 122691466,
      "center": {
        "lat": 12.9665657,
        "lon": 77.7123549
      },
      "tags": {
        "addr:full": "132 AECS Layout ITPL Main Road, Kundalahalli Bangalore 560037",
        "amenity": "college",
        "barrier": "wall",
        "email": "info@cmrit.ac.in",
        "name": "CMR Institute of Technology",
        "phone": "+91 80 28524466",
        "website": "https://www.cmrit.ac.in/",
        "wikidata": "Q5012995",
        "wikipedia": "en:CMR Institute of Technology"
      }
    },
    {
      "type": "way",
      "id": 124013168,
      "center": {
        "lat": 12.9571436,
        "lon": 77.7128215
      },
      "tags": {
        "addr:city": "Bengaluru",
        "addr:district": "Bengaluru Urban",
        "addr:full": "Varthur Main Road, Kundalahalli Gate, Marahahalli-White Field Road",
        "addr:postcode": "560037",
        "addr:state": "Karnataka",
        "addr:street": "Varthur Road",
        "amenity": "hospital",
        "boundary": "wall",
        "check_date": "2025-09-03",
        "email": "bangalore@sankaraeye.com",
        "healthcare": "hospital",
        "healthcare:speciality": "ophthalmology",
        "name": "Sankara Eye Hospital",
        "name:kn": "ಶಂಕರ ನೇತ್ರಾಲಯ",
        "website": "https://www.sankaraeye.com"
      }
    },
    {
      "type": "way",
      "id": 124373428,
      "center": {
        "lat": 12.9633055,
        "lon": 77.702895
      },
      "tags": {
        "addr:housename": "ezone sporting",
        "alt_name": "Torq03",
        "leisure": "sports_centre",
        "name": "Ezone sporting",
        "sport": "multi"
      }
    },
    {
      "type": "way",
      "id": 152941097,
      "center": {
        "lat": 12.9588037,
        "lon": 77.7073577
      },
      "tags": {
        "amenity": "parking",
        "name": "Visitors'Car Park",
        "parking": "lane"
      }
    },
    {
      "type": "way",
      "id": 152941098,
      "center": {
        "lat": 12.9580467,
        "lon": 77.7073377
      },
      "tags": {
        "leisure": "pitch",
        "sport": "tennis"
      }
    },
    {
      "type": "way",
      "id": 152941109,
      "center": {
        "lat": 12.9577225,
        "lon": 77.7073913
      },
      "tags": {
        "leisure": "pitch",
        "sport": "tennis",
        "surface": "acrylic"
      }
    },
    {
      "type": "way",
      "id": 152941116,
      "center": {
        "lat": 12.9587665,
        "lon": 77.7072472
      },
      "tags": {
        "access": "private",
        "leisure": "playground",
        "name": "Children's Play Area"
      }
    },
    {
      "type": "way",
      "id": 152941117,
      "center": {
        "lat": 12.9568453,
        "lon": 77.7082826
      },
      "tags": {
        "leisure": "garden"
      }
    },
    {
      "type": "way",
      "id": 152941156,
      "center": {
        "lat": 12.9620618,
        "lon": 77.7094173
      },
      "tags": {
        "leisure": "park",
        "operator": "ಬೃಹತ್ ಬೆಂಗಳೂರು ಮಹಾನಗರ ಪಾಲಿಕೆ",
        "operator:en": "Bruhat Bengaluru Mahanagara Palike",
        "operator:ka": "ಬೃಹತ್ ಬೆಂಗಳೂರು ಮಹಾನಗರ ಪಾಲಿಕೆ",
        "operator:short": "BBMP",
        "operator:type": "government",
        "operator:wikidata": "Q4978693"
      }
    },
    {
      "type": "way",
      "id": 152980571,
      "center": {
        "lat": 12.9589965,
        "lon": 77.7055513
      },
      "tags": {
        "access": "private",
        "leisure": "swimming_pool",
        "outdoor": "yes"
      }
    },
    {
      "type": "way",
      "id": 152980573,
      "center": {
        "lat": 12.9602084,
        "lon": 77.7049042
      },
      "tags": {
        "leisure": "pitch",
        "sport": "tennis"
      }
    },
    {
      "type": "way",
      "id": 152980576,
      "center": {
        "lat": 12.9569249,
        "lon": 77.7055692
      },
      "tags": {
        "amenity": "parking"
      }
    },
    {
      "type": "way",
      "id": 152980577,
      "center": {
        "lat": 12.9593032,
        "lon": 77.7055356
      },
      "tags": {
        "leisure": "garden"
      }
    },
    {
      "type": "way",
      "id": 152980580,
      "center": {
        "lat": 12.96026,
        "lon": 77.7047178
      },
      "tags": {
        "leisure": "pitch",
        "sport": "volleyball"
      }
    },
    {
      "type": "way",
      "id": 152980581,
      "center": {
        "lat": 12.9577549,
        "lon": 77.7057382
      },
      "tags": {
        "leisure": "garden"
      }
    },
    {
      "type": "way",
      "id": 152980586,
      "center": {
        "lat": 12.960221,
        "lon": 77.7051064
      },
      "tags": {
        "leisure": "playground"
      }
    },
    {
      "type": "way",
      "id": 157204432,
      "center": {
        "lat": 12.9566419,
        "lon": 77.7114601
      },
      "tags": {
        "addr:street": "Varthur Road",
        "amenity": "school",
        "check_date": "2025-04-14",
        "name": "Navaprajna Public School"
      }
    },
    {
      "type": "way",
      "id": 223045583,
      "center": {
        "lat": 12.9531178,
        "lon": 77.7004459
      },
      "tags": {
        "building": "yes",
        "building:levels": "4",
        "name": "Sofa & More",
        "shop": "furniture",
        "wheelchair": "no"
      }
    },
    {
      "type": "way",
      "id": 223045584,
      "center": {
        "lat": 12.9599574,
        "lon": 77.7016382
      },
      "tags": {
        "addr:housename": "S. V  M. Orchid",
        "addr:street": "Outer Ring Road",
        "air_conditioning": "yes",
        "building": "retail",
        "building:levels": "4",
        "check_date": "2024-12-15",
        "clothes": "women;men",
        "email": "nalliblr@nalli.com",
        "internet_access": "no",
        "name": "Nalli Silk Saree",
        "name:kn": "ನಳ್ಳಿ ಸಿಲ್ಕ್ಸ್",
        "payment:cash": "yes",
        "payment:credit_cards": "yes",
        "payment:debit_cards": "yes",
        "payment:upi": "yes",
        "phone": "08025239191",
        "second_hand": "no",
        "shop": "clothes",
        "source": "survey",
        "website": "https://www.nalli.com",
        "wheelchair": "no"
      }
    },
    {
      "type": "way",
      "id": 223045588,
      "center": {
        "lat": 12.9644903,
        "lon": 77.7016268
      },
      "tags": {
        "amenity": "place_of_worship",
        "check_date": "2025-04-04",
        "name": "St. Baselios Orthodox Church",
        "religion": "christian"
      }
    },
    {
      "type": "way",
      "id": 223045590,
      "center": {
        "lat": 12.9621859,
        "lon": 77.7019858
      },
      "tags": {
        "brand": "Yamaha",
        "brand:wikidata": "Q158888",
        "check_date": "2025-02-09",
        "name": "Panache Enterprises",
        "name:kn": "ಯಮಹಾ",
        "opening_hours": "Mo-Sa 10:00-19:30",
        "service": "dealer",
        "shop": "motorcycle",
        "wheelchair": "yes"
      }
    },
    {
      "type": "way",
      "id": 223045593,
      "center": {
        "lat": 12.9566395,
        "lon": 77.7018021
      },
      "tags": {
        "building": "yes",
        "name": "Jos Alukas",
        "shop": "jewelry"
      }
    },
    {
      "type": "way",
      "id": 223045596,
      "center": {
        "lat": 12.9598114,
        "lon": 77.7016128
      },
      "tags": {
        "building": "commercial",
        "check_date": "2024-12-15",
        "name": "Kalamandir",
        "name:kn": "ಕಲಾಮಂದಿರ",
        "payment:credit_cards": "yes",
        "payment:debit_cards": "yes",
        "shop": "clothes",
        "wheelchair": "no"
      }
    },
    {
      "type": "way",
      "id": 262198741,
      "center": {
        "lat": 12.9555043,
        "lon": 77.7053083
      },
      "tags": {
        "amenity": "hospital",
        "building": "yes",
        "healthcare": "hospital",
        "name": "Lions Seva Hospital"
      }
    },
    {
      "type": "way",
      "id": 343430402,
      "center": {
        "lat": 12.9567322,
        "lon": 77.699529
      },
      "tags": {
        "addr:city": "Marathahalli, Bengaluru",
        "addr:district": "Bengaluru Urban",
        "addr:postcode": "560037",
        "addr:street": "Munnekolalu, Varthur Main Road",
        "building": "yes",
        "check_date": "2025-08-26",
        "name": "Soch Factory outlet",
        "payment:cash": "yes",
        "payment:credit_cards": "yes",
        "payment:debit_cards": "yes",
        "shop": "clothes",
        "wheelchair": "no"
      }
    },
    {
      "type": "way",
      "id": 343434792,
      "center": {
        "lat": 12.9567787,
        "lon": 77.6992354
      },
      "tags": {
        "addr:city": "Marathahalli, Bengaluru",
        "addr:district": "Bengaluru Urban",
        "addr:housenumber": "96",
        "addr:postcode": "560037",
        "addr:street": "Munnekolalu, Varthur Main Road",
        "building": "retail",
        "name": "GRT",
        "shop": "jewelry"
      }
    },
    {
      "type": "way",
      "id": 343434819,
      "center": {
        "lat": 12.9566748,
        "lon": 77.6988406
      },
      "tags": {
        "building": "yes",
        "name": "Khazana Jewellery",
        "shop": "jewelry"
      }
    },
    {
      "type": "way",
      "id": 346535731,
      "center": {
        "lat": 12.9602152,
        "lon": 77.7016899
      },
      "tags": {
        "building": "yes",
        "check_date": "2025-11-27",
        "clothes": "women",
        "name": "Mugdha Art Studio",
        "payment:credit_cards": "yes",
        "payment:debit_cards": "yes",
        "payment:mastercard": "yes",
        "payment:visa": "yes",
        "shop": "clothes",
        "source": "survey",
        "website": "https://mugdha.co/",
        "wheelchair": "no"
      }
    },
    {
      "type": "way",
      "id": 346546655,
      "center": {
        "lat": 12.9573999,
        "lon": 77.7048432
      },
      "tags": {
        "addr:city": "Bengaluru",
        "addr:housenumber": "1021",
        "addr:postcode": "560037",
        "addr:street": "Munnekolala, near Railway Bridge, Maruthinagar, Lakshminarayana Pura, Marathahalli",
        "building": "commercial",
        "name": "Advaith motors",
        "shop": "repair"
      }
    },
    {
      "type": "way",
      "id": 346714039,
      "center": {
        "lat": 12.9599619,
        "lon": 77.7126304
      },
      "tags": {
        "addr:city": "Bangalore",
        "addr:district": "Bengaluru Urban",
        "addr:housenumber": "15",
        "addr:postcode": "560037",
        "addr:street": "3rd Cross Road, Vaikuntam Layout",
        "amenity": "hospital",
        "building:levels": "1",
        "description": "Speech Therapy Center",
        "healthcare": "hospital",
        "name": "Ways2Guide Speech Therapy Center"
      }
    },
    {
      "type": "way",
      "id": 346797021,
      "center": {
        "lat": 12.9558154,
        "lon": 77.7081084
      },
      "tags": {
        "leisure": "swimming_pool"
      }
    },
    {
      "type": "way",
      "id": 346829024,
      "center": {
        "lat": 12.953485,
        "lon": 77.708708
      },
      "tags": {
        "amenity": "place_of_worship",
        "building": "yes",
        "name": "Muneshwara Swami Temple",
        "name:kn": "ಮುನೇಶ್ವರ ಸ್ವಾಮಿ ದೇವಾಲಯ",
        "religion": "hindu"
      }
    },
    {
      "type": "way",
      "id": 360347699,
      "center": {
        "lat": 12.9659074,
        "lon": 77.7025531
      },
      "tags": {
        "amenity": "hospital",
        "building": "yes",
        "check_date": "2025-05-31",
        "emergency": "yes",
        "name": "Jeevika Hospital",
        "name:kn": "ಜೀವಿಕ ಆಸ್ಪತ್ರೆ",
        "payment:cash": "yes",
        "payment:credit_cards": "yes",
        "payment:debit_cards": "yes",
        "source": "survey",
        "wheelchair": "yes"
      }
    },
    {
      "type": "way",
      "id": 363099987,
      "center": {
        "lat": 12.9560069,
        "lon": 77.7003672
      },
      "tags": {
        "amenity": "school",
        "check_date": "2025-04-06",
        "name": "Sri Chaitanya School",
        "name:kn": "ಶ್ರೀ ಚೈತನ್ಯ ಶಾಲೆ",
        "wheelchair": "yes"
      }
    },
    {
      "type": "way",
      "id": 373522629,
      "center": {
        "lat": 12.9592059,
        "lon": 77.7055154
      },
      "tags": {
        "access": "private",
        "leisure": "swimming_pool",
        "outdoor": "yes"
      }
    },
    {
      "type": "way",
      "id": 374976332,
      "center": {
        "lat": 12.9566845,
        "lon": 77.7019092
      },
      "tags": {
        "amenity": "place_of_worship",
        "building": "yes",
        "name": "Ganapati temple",
        "name:kn": "ಗಣಪತಿ ದೇವಸ್ಥಾನ",
        "religion": "hindu",
        "wheelchair": "no"
      }
    },
    {
      "type": "way",
      "id": 378409368,
      "center": {
        "lat": 12.9570922,
        "lon": 77.7011629
      },
      "tags": {
        "amenity": "taxi",
        "auto_rickshaw": "yes",
        "motorcar": "no",
        "name": "Auto Stand",
        "name:kn": "ಆಟೋ ನಿಲ್ದಾಣ"
      }
    },
    {
      "type": "way",
      "id": 402014656,
      "center": {
        "lat": 12.9688911,
        "lon": 77.7003939
      },
      "tags": {
        "leisure": "park"
      }
    },
    {
      "type": "way",
      "id": 402014661,
      "center": {
        "lat": 12.9681256,
        "lon": 77.6983308
      },
      "tags": {
        "leisure": "sports_centre",
        "name": "U. R. Rao Sports Complex",
        "name:etymology:wikidata": "Q7877236",
        "sport": "basketball;soccer;cricket"
      }
    },
    {
      "type": "way",
      "id": 414834999,
      "center": {
        "lat": 12.9663964,
        "lon": 77.7117076
      },
      "tags": {
        "Ground": "Cricket Ground",
        "leisure": "pitch",
        "name": "play ground"
      }
    },
    {
      "type": "way",
      "id": 464282944,
      "center": {
        "lat": 12.9685895,
        "lon": 77.7022979
      },
      "tags": {
        "leisure": "park",
        "name": "BBMP Park",
        "name:kn": "ಬೃ. ಬೆ. ಮ. ಪಾ. ಉದ್ಯಾನವನ",
        "operator": "ಬೃಹತ್ ಬೆಂಗಳೂರು ಮಹಾನಗರ ಪಾಲಿಕೆ",
        "operator:en": "Bruhat Bengaluru Mahanagara Palike",
        "operator:ka": "ಬೃಹತ್ ಬೆಂಗಳೂರು ಮಹಾನಗರ ಪಾಲಿಕೆ",
        "operator:short": "BBMP",
        "operator:type": "government",
        "operator:wikidata": "Q4978693"
      }
    },
    {
      "type": "way",
      "id": 525510061,
      "center": {
        "lat": 12.9607921,
        "lon": 77.6947793
      },
      "tags": {
        "amenity": "school",
        "name": "Vimanapura East Extension Primary School"
      }
    },
    {
      "type": "way",
      "id": 540755867,
      "center": {
        "lat": 12.9652273,
        "lon": 77.7084177
      },
      "tags": {
        "leisure": "playground",
        "name": "Chinnappanahalli Lake Park",
        "name:kn": "ಚಿನ್ನಪ್ಪನಹಳ್ಳಿ ಉದ್ಯಾನವನ",
        "service_times": "Su 06:00-18:00"
      }
    },
    {
      "type": "way",
      "id": 582562270,
      "center": {
        "lat": 12.9662303,
        "lon": 77.7071598
      },
      "tags": {
        "leisure": "park"
      }
    },
    {
      "type": "way",
      "id": 640540674,
      "center": {
        "lat": 12.9669088,
        "lon": 77.7114335
      },
      "tags": {
        "leisure": "pitch",
        "name": "Basketball court 1",
        "sport": "basketball"
      }
    },
    {
      "type": "way",
      "id": 640540675,
      "center": {
        "lat": 12.9669336,
        "lon": 77.7115048
      },
      "tags": {
        "leisure": "pitch",
        "name": "Basketball court 2",
        "sport": "basketball"
      }
    },
    {
      "type": "way",
      "id": 640540676,
      "center": {
        "lat": 12.9669492,
        "lon": 77.7115907
      },
      "tags": {
        "leisure": "outdoor_seating",
        "name": "basketball sitting area"
      }
    },
    {
      "type": "way",
      "id": 640540677,
      "center": {
        "lat": 12.9668751,
        "lon": 77.7113409
      },
      "tags": {
        "leisure": "outdoor_seating",
        "name": "outdoor seating"
      }
    },
    {
      "type": "way",
      "id": 648492133,
      "center": {
        "lat": 12.964464,
        "lon": 77.7064481
      },
      "tags": {
        "leisure": "swimming_pool"
      }
    },
    {
      "type": "way",
      "id": 805098053,
      "center": {
        "lat": 12.966834,
        "lon": 77.7112364
      },
      "tags": {
        "leisure": "outdoor_seating",
        "name": "outdoor seating"
      }
    },
    {
      "type": "way",
      "id": 805155362,
      "center": {
        "lat": 12.9669942,
        "lon": 77.7109522
      },
      "tags": {
        "amenity": "waste_disposal"
      }
    },
    {
      "type": "way",
      "id": 1066371901,
      "center": {
        "lat": 12.9649545,
        "lon": 77.7064666
      },
      "tags": {
        "leisure": "swimming_pool"
      }
    },
    {
      "type": "way",
      "id": 1066371917,
      "center": {
        "lat": 12.9621547,
        "lon": 77.7069651
      },
      "tags": {
        "leisure": "pitch",
        "sport": "basketball"
      }
    },
    {
      "type": "way",
      "id": 1066371918,
      "center": {
        "lat": 12.9622522,
        "lon": 77.7071658
      },
      "tags": {
        "leisure": "pitch",
        "sport": "tennis"
      }
    },
    {
      "type": "way",
      "id": 1066371922,
      "center": {
        "lat": 12.9614808,
        "lon": 77.7072099
      },
      "tags": {
        "amenity": "school",
        "name": "GJR International School"
      }
    },
    {
      "type": "way",
      "id": 1066371923,
      "center": {
        "lat": 12.9611971,
        "lon": 77.706772
      },
      "tags": {
        "leisure": "sports_centre"
      }
    },
    {
      "type": "way",
      "id": 1066371924,
      "center": {
        "lat": 12.9611665,
        "lon": 77.7067723
      },
      "tags": {
        "leisure": "track",
        "sport": "running"
      }
    },
    {
      "type": "way",
      "id": 1066371927,
      "center": {
        "lat": 12.9601848,
        "lon": 77.7062249
      },
      "tags": {
        "access": "private",
        "leisure": "pitch",
        "sport": "tennis"
      }
    },
    {
      "type": "way",
      "id": 1066506652,
      "center": {
        "lat": 12.9556193,
        "lon": 77.7043668
      },
      "tags": {
        "addr:city": "Marathalli",
        "addr:district": "Bengaluru Urban",
        "addr:housenumber": "6",
        "addr:postcode": "560037",
        "addr:street": "Munekolala Main Road",
        "amenity": "place_of_worship",
        "building": "church",
        "name": "St. Anthony's Church",
        "name:kn": "ಸೇಂಟ್ ಆಂಟೊನಿ ಚರ್ಚ್",
        "religion": "christian"
      }
    },
    {
      "type": "way",
      "id": 1066921708,
      "center": {
        "lat": 12.9595803,
        "lon": 77.7014978
      },
      "tags": {
        "building": "retail",
        "name": "Mr. Sofa",
        "shop": "furniture",
        "source": "survey"
      }
    },
    {
      "type": "way",
      "id": 1072561555,
      "center": {
        "lat": 12.9564431,
        "lon": 77.7106316
      },
      "tags": {
        "amenity": "fuel",
        "brand": "Hindustan Petroleum",
        "brand:wikidata": "Q1619375",
        "check_date": "2025-09-15",
        "check_date:compressed_air": "2025-09-15",
        "compressed_air": "yes",
        "fuel:diesel": "yes",
        "fuel:petrol": "yes",
        "name": "HP",
        "name:kn": "ಹಿಂದುಸ್ತಾನ್ ಪೆಟ್ರೋಲಿಯಂ",
        "official_name": "Hindustan Petroleum",
        "payment:cash": "yes",
        "payment:credit_cards": "yes",
        "payment:debit_cards": "yes",
        "payment:upi": "yes",
        "self_service": "no"
      }
    },
    {
      "type": "way",
      "id": 1073336189,
      "center": {
        "lat": 12.9565792,
        "lon": 77.6974368
      },
      "tags": {
        "amenity": "fuel",
        "brand": "Hindustan Petroleum",
        "brand:wikidata": "Q1619375",
        "check_date": "2025-06-14",
        "compressed_air": "yes",
        "name": "HP",
        "name:kn": "ಹಿಂದುಸ್ತಾನ್ ಪೆಟ್ರೋಲಿಯಂ",
        "official_name": "Hindustan Petroleum"
      }
    },
    {
      "type": "way",
      "id": 1075546069,
      "center": {
        "lat": 12.9580551,
        "lon": 77.7070339
      },
      "tags": {
        "access": "private",
        "leisure": "swimming_pool"
      }
    },
    {
      "type": "way",
      "id": 1085409220,
      "center": {
        "lat": 12.9556043,
        "lon": 77.7109803
      },
      "tags": {
        "access": "private",
        "leisure": "swimming_pool"
      }
    },
    {
      "type": "way",
      "id": 1097499989,
      "center": {
        "lat": 12.9565461,
        "lon": 77.7089821
      },
      "tags": {
        "amenity": "toilets",
        "building": "yes"
      }
    },
    {
      "type": "way",
      "id": 1104753187,
      "center": {
        "lat": 12.9619545,
        "lon": 77.7138692
      },
      "tags": {
        "addr:city": "Bengaluru",
        "addr:full": "4th Cross Rd, E Block, AECS Layout",
        "addr:postcode": "560037",
        "addr:street": "4th Cross Road",
        "alt_name": "Ashtanga Yoga Centre",
        "building": "yes",
        "leisure": "fitness_centre",
        "name": "Rashtrotthana Arogya Sankeerna",
        "name:kn": "ಅಷ್ಟಾಂಗ ಯೋಗ ಸೆಂಟರ್",
        "opening_hours": "Mo-Sa 06:00-20:00",
        "operator": "Rashtrothana Yogic Science and Research Institute",
        "phone": "+919481936449",
        "source": "local knowledge",
        "sport": "yoga;swimming"
      }
    },
    {
      "type": "way",
      "id": 1150511287,
      "center": {
        "lat": 12.9643439,
        "lon": 77.7131371
      },
      "tags": {
        "amenity": "school",
        "check_date": "2024-07-13",
        "name": "TALC - The Alternative Learning Community",
        "website": "https://www.talcworld.com/"
      }
    },
    {
      "type": "way",
      "id": 1152477163,
      "center": {
        "lat": 12.9565725,
        "lon": 77.7030558
      },
      "tags": {
        "brand": "Nandini",
        "brand:wikidata": "Q124374212",
        "building": "retail",
        "check_date": "2025-09-03",
        "name": "Nandini",
        "name:en": "Nandini",
        "shop": "dairy"
      }
    },
    {
      "type": "way",
      "id": 1157170086,
      "center": {
        "lat": 12.9581423,
        "lon": 77.7078793
      },
      "tags": {
        "access": "private",
        "leisure": "swimming_pool"
      }
    },
    {
      "type": "way",
      "id": 1193082966,
      "center": {
        "lat": 12.9554768,
        "lon": 77.7117502
      },
      "tags": {
        "amenity": "restaurant",
        "building": "commercial",
        "contact:instagram": "zodiacbarandkitchen",
        "name": "Zodiac Bar and Kitchen",
        "smoking": "separated"
      }
    },
    {
      "type": "way",
      "id": 1194928866,
      "center": {
        "lat": 12.9564025,
        "lon": 77.7104486
      },
      "tags": {
        "access": "customers",
        "amenity": "parking",
        "fee": "no",
        "parking": "surface"
      }
    },
    {
      "type": "way",
      "id": 1194928867,
      "center": {
        "lat": 12.9563765,
        "lon": 77.7103079
      },
      "tags": {
        "access": "customers",
        "amenity": "parking",
        "fee": "no",
        "parking": "surface"
      }
    },
    {
      "type": "way",
      "id": 1194928868,
      "center": {
        "lat": 12.9563957,
        "lon": 77.7101373
      },
      "tags": {
        "access": "customers",
        "amenity": "parking",
        "fee": "no",
        "parking": "surface"
      }
    },
    {
      "type": "way",
      "id": 1194928870,
      "center": {
        "lat": 12.9562737,
        "lon": 77.7063517
      },
      "tags": {
        "building": "yes",
        "name": "Mandava",
        "shop": "jewelry"
      }
    },
    {
      "type": "way",
      "id": 1214864411,
      "center": {
        "lat": 12.9645339,
        "lon": 77.7120294
      },
      "tags": {
        "amenity": "training",
        "building": "yes",
        "training": "art"
      }
    },
    {
      "type": "way",
      "id": 1214864435,
      "center": {
        "lat": 12.9650565,
        "lon": 77.7073563
      },
      "tags": {
        "amenity": "parking"
      }
    },
    {
      "type": "way",
      "id": 1214864453,
      "center": {
        "lat": 12.9649827,
        "lon": 77.7069242
      },
      "tags": {
        "addr:postcode": "560037",
        "landuse": "commercial",
        "leisure": "resort",
        "name": "Ezone Lagoon Resort",
        "phone": "+91 99451 79112"
      }
    },
    {
      "type": "way",
      "id": 1232079597,
      "center": {
        "lat": 12.956179,
        "lon": 77.7006311
      },
      "tags": {
        "access": "customers",
        "amenity": "parking",
        "parking": "surface",
        "supervised": "yes",
        "surface": "ground"
      }
    },
    {
      "type": "way",
      "id": 1234104570,
      "center": {
        "lat": 12.9657818,
        "lon": 77.6964364
      },
      "tags": {
        "leisure": "park"
      }
    },
    {
      "type": "way",
      "id": 1234104602,
      "center": {
        "lat": 12.9656827,
        "lon": 77.7001006
      },
      "tags": {
        "leisure": "garden"
      }
    },
    {
      "type": "way",
      "id": 1234104603,
      "center": {
        "lat": 12.9663762,
        "lon": 77.6990618
      },
      "tags": {
        "access": "permissive",
        "amenity": "parking",
        "parking": "surface"
      }
    },
    {
      "type": "way",
      "id": 1248997193,
      "center": {
        "lat": 12.9601874,
        "lon": 77.7097324
      },
      "tags": {
        "access": "yes",
        "leisure": "playground",
        "max_age": "12"
      }
    },
    {
      "type": "way",
      "id": 1248997194,
      "center": {
        "lat": 12.9599272,
        "lon": 77.7097935
      },
      "tags": {
        "access": "yes",
        "amenity": "toilets",
        "building": "yes",
        "female": "yes",
        "male": "yes"
      }
    },
    {
      "type": "way",
      "id": 1248997196,
      "center": {
        "lat": 12.9622105,
        "lon": 77.7083502
      },
      "tags": {
        "amenity": "shelter",
        "bench": "yes",
        "building": "yes",
        "shelter_type": "gazebo"
      }
    },
    {
      "type": "way",
      "id": 1253169438,
      "center": {
        "lat": 12.9599338,
        "lon": 77.7063051
      },
      "tags": {
        "leisure": "pitch",
        "name": "Basketball Court",
        "name:kn": "ಬಾಸ್ಕೆಟ್ ಬಾಲ್",
        "sport": "basketball"
      }
    },
    {
      "type": "way",
      "id": 1253169439,
      "center": {
        "lat": 12.95978,
        "lon": 77.706328
      },
      "tags": {
        "leisure": "playground",
        "name": "Childrens Playground"
      }
    },
    {
      "type": "way",
      "id": 1253169440,
      "center": {
        "lat": 12.9583459,
        "lon": 77.706913
      },
      "tags": {
        "leisure": "playground",
        "name": "Childrens Playground"
      }
    },
    {
      "type": "way",
      "id": 1257432366,
      "center": {
        "lat": 12.961161,
        "lon": 77.7067746
      },
      "tags": {
        "leisure": "pitch",
        "sport": "soccer",
        "wheelchair": "limited"
      }
    },
    {
      "type": "way",
      "id": 1257432368,
      "center": {
        "lat": 12.9636688,
        "lon": 77.7043515
      },
      "tags": {
        "access": "private",
        "leisure": "swimming_pool"
      }
    },
    {
      "type": "way",
      "id": 1296336694,
      "center": {
        "lat": 12.9624471,
        "lon": 77.7032494
      },
      "tags": {
        "amenity": "school"
      }
    },
    {
      "type": "way",
      "id": 1311156067,
      "center": {
        "lat": 12.9564757,
        "lon": 77.7099076
      },
      "tags": {
        "amenity": "parking"
      }
    },
    {
      "type": "way",
      "id": 1347724899,
      "center": {
        "lat": 12.9566836,
        "lon": 77.712382
      },
      "tags": {
        "amenity": "hospital",
        "emergency": "yes",
        "healthcare": "hospital",
        "name": "Sri Vishveshathirtha Memorial Hospital",
        "short_name": "SVM Hospital"
      }
    },
    {
      "type": "way",
      "id": 1409998534,
      "center": {
        "lat": 12.9640332,
        "lon": 77.7063615
      },
      "tags": {
        "leisure": "sports_centre",
        "name": "Machaxi Schooled Sports Centre"
      }
    },
    {
      "type": "way",
      "id": 1412115638,
      "center": {
        "lat": 12.964029,
        "lon": 77.7064702
      },
      "tags": {
        "access": "customers",
        "fee": "yes",
        "leisure": "pitch",
        "sport": "tennis"
      }
    },
    {
      "type": "way",
      "id": 1412115639,
      "center": {
        "lat": 12.9640478,
        "lon": 77.7066825
      },
      "tags": {
        "access": "customers",
        "fee": "yes",
        "leisure": "pitch",
        "sport": "futsal"
      }
    },
    {
      "type": "way",
      "id": 1412115641,
      "center": {
        "lat": 12.9640753,
        "lon": 77.7069191
      },
      "tags": {
        "access": "customers",
        "amenity": "parking",
        "parking": "surface"
      }
    },
    {
      "type": "way",
      "id": 1418245175,
      "center": {
        "lat": 12.956741,
        "lon": 77.7094538
      },
      "tags": {
        "access": "customers",
        "amenity": "parking",
        "parking": "surface"
      }
    },
    {
      "type": "way",
      "id": 1434043775,
      "center": {
        "lat": 12.9536276,
        "lon": 77.706051
      },
      "tags": {
        "access": "private",
        "leisure": "playground"
      }
    },
    {
      "type": "way",
      "id": 1434043776,
      "center": {
        "lat": 12.9536197,
        "lon": 77.7058868
      },
      "tags": {
        "access": "private",
        "leisure": "swimming_pool"
      }
    }
  ]
}