{
  "area_name": "Chinnappa Garden",
  "osm_id": 11652617759,
  "osm_type": "node",
  "place_type": "neighbourhood",
  "amenity_count": 75,
  "amenities": [
    {
      "type": "node",
      "id": 534659750,
      "lat": 12.9971601,
      "lon": 77.5974721,
      "tags": {
        "addr:city": "Bangalore",
        "addr:housename": "Jayamahal Hotel",
        "addr:street": "Jayamahal Road",
        "amenity": "bar",
        "name": "Formula III Bar",
        "opening_hours": "11:00-23:00"
      }
    },
    {
      "type": "node",
      "id": 665871301,
      "lat": 12.9993627,
      "lon": 77.6008367,
      "tags": {
        "addr:street": "Benson Cross Road",
        "amenity": "bank",
        "atm": "yes",
        "brand": "Indian Bank",
        "brand:wikidata": "Q2003789",
        "brand:wikipedia": "en:Indian Bank",
        "name": "Indian Bank",
        "name:en": "Indian Bank",
        "name:kn": "ಇಂಡಿಯನ್ ಬ್ಯಾಂಕ್",
        "website": "https://www.indianbank.in/"
      }
    },
    {
      "type": "node",
      "id": 665871303,
      "lat": 12.9995673,
      "lon": 77.599394,
      "tags": {
        "addr:street": "Nandi Durg Road",
        "amenity": "ice_cream",
        "name": "Hangyo Icecream"
      }
    },
    {
      "type": "node",
      "id": 665871308,
      "lat": 13.0016562,
      "lon": 77.596687,
      "tags": {
        "amenity": "kindergarten",
        "name": "Kara4Kids",
        "url": "www.kara.in"
      }
    },
    {
      "type": "node",
      "id": 665871309,
      "lat": 13.0014631,
      "lon": 77.5983593,
      "tags": {
        "addr:street": "Nandi Durg Road",
        "amenity": "atm",
        "brand": "Syndicate Bank",
        "brand:wikidata": "Q2004088",
        "name": "Syndicate Bank",
        "name:kn": "ಸಿಂಡಿಕೇಟ್ ಬ್ಯಾಂಕ್",
        "operator": "Syndicate Bank",
        "operator:wikidata": "Q2004088"
      }
    },
    {
      "type": "node",
      "id": 665871310,
      "lat": 12.9998077,
      "lon": 77.5996733,
      "tags": {
        "addr:street": "Nandi Durg Road",
        "brand": "More",
        "brand:wikidata": "Q6910891",
        "name": "More",
        "name:kn": "ಮೋರ್",
        "shop": "supermarket"
      }
    },
    {
      "type": "node",
      "id": 665871313,
      "lat": 12.9979339,
      "lon": 77.6031017,
      "tags": {
        "addr:street": "Benson Cross Road",
        "name": "Benson Auto Garage",
        "shop": "car_repair"
      }
    },
    {
      "type": "node",
      "id": 1060580204,
      "lat": 13.006983,
      "lon": 77.5928253,
      "tags": {
        "addr:postcode": "560005",
        "addr:street": "Jayamahal Road",
        "amenity": "post_office",
        "name": "J C Nagar Post Office"
      }
    },
    {
      "type": "node",
      "id": 1067181192,
      "lat": 13.0038999,
      "lon": 77.6039313,
      "tags": {
        "addr:district": "Bengaluru Urban",
        "addr:full": "110,6Th Main Iti Layout Benson Town Post",
        "addr:postcode": "560046",
        "addr:state": "Karnataka",
        "amenity": "hospital",
        "name": "Devine Hospital",
        "name:kn": "ಡಿವೈನ್ ಆಸ್ಪತ್ರೆ",
        "source": "OpenGovernmentData"
      }
    },
    {
      "type": "node",
      "id": 1067181200,
      "lat": 13.0044271,
      "lon": 77.6037741,
      "tags": {
        "amenity": "pharmacy",
        "healthcare": "pharmacy",
        "name": "Vijay Medicals",
        "name:kn": "ವಿಜಯ್ ಮೆಡಿಕಲ್ಸ್"
      }
    },
    {
      "type": "node",
      "id": 1067192719,
      "lat": 12.9994929,
      "lon": 77.5989568,
      "tags": {
        "addr:street": "Nandi Durg Road",
        "amenity": "atm",
        "brand": "ICICI Bank",
        "brand:wikidata": "Q1653258",
        "name": "ICICI Bank",
        "operator": "ICICI Bank",
        "operator:wikidata": "Q1653258",
        "short_name": "ICICI"
      }
    },
    {
      "type": "node",
      "id": 1067205123,
      "lat": 13.001892,
      "lon": 77.5992036,
      "tags": {
        "addr:street": "Nandi Durg Road",
        "amenity": "telephone",
        "name": "Airtel Office",
        "name:kn": "ಏರ್ಟೆಲ್"
      }
    },
    {
      "type": "node",
      "id": 1067206582,
      "lat": 13.0015628,
      "lon": 77.5993592,
      "tags": {
        "addr:street": "Nandi Durg Road",
        "amenity": "restaurant",
        "name": "Elements",
        "name:kn": "ಎಲಿಮೆಂಟ್ಸ್"
      }
    },
    {
      "type": "node",
      "id": 1067214962,
      "lat": 12.9997425,
      "lon": 77.5970015,
      "tags": {
        "amenity": "place_of_worship",
        "name": "Jayamahal Shani Mandir",
        "name:kn": "ಜಯಮಹಲ್ ಶನಿ ದೇವಸ್ಥಾನ",
        "religion": "hindu"
      }
    },
    {
      "type": "node",
      "id": 3537449249,
      "lat": 13.0033101,
      "lon": 77.607122,
      "tags": {
        "amenity": "place_of_worship"
      }
    },
    {
      "type": "node",
      "id": 4237195595,
      "lat": 13.00579,
      "lon": 77.5932698,
      "tags": {
        "amenity": "bank",
        "brand": "Axis Bank",
        "brand:wikidata": "Q2003549",
        "brand:wikipedia": "en:Axis Bank",
        "name": "Axis Bank",
        "name:en": "Axis Bank",
        "name:kn": "ಅಕ್ಸಿಸ್ ಬ್ಯಾಂಕ್",
        "website": "https://www.axisbank.com"
      }
    },
    {
      "type": "node",
      "id": 4304451297,
      "lat": 13.0025965,
      "lon": 77.5981195,
      "tags": {
        "addr:postcode": "560046",
        "addr:street": "Nandi Durg Road",
        "name": "Nilgiri Supermarket",
        "shop": "supermarket"
      }
    },
    {
      "type": "node",
      "id": 4362379252,
      "lat": 12.996341,
      "lon": 77.5999117,
      "tags": {
        "amenity": "theatre",
        "name": "Tagore Hall"
      }
    },
    {
      "type": "node",
      "id": 4371078994,
      "lat": 13.0018629,
      "lon": 77.5988299,
      "tags": {
        "amenity": "bank",
        "atm": "yes",
        "brand": "HDFC Bank",
        "brand:wikidata": "Q631047",
        "brand:wikipedia": "en:HDFC Bank",
        "name": "HDFC Bank",
        "name:kn": "ಎಚ್ ಡಿ ಎಫ್ ಸಿ",
        "short_name": "HDFC",
        "website": "https://www.hdfcbank.com"
      }
    },
    {
      "type": "node",
      "id": 4489190825,
      "lat": 12.9994164,
      "lon": 77.5969578,
      "tags": {
        "addr:city": "bangalore",
        "addr:postcode": "560046",
        "addr:street": "Emerald Mega Mall, Jayamahal Extension, Bhadrappa Layout, Jayamahal Extension, Jayamahal",
        "name": "Jm sports",
        "opening_hours": "10:00-21:30",
        "phone": "+9188009 05719",
        "shop": "sports",
        "website": "https://www.pantaloons.com/"
      }
    },
    {
      "type": "node",
      "id": 5174704944,
      "lat": 13.0018586,
      "lon": 77.5988817,
      "tags": {
        "amenity": "atm",
        "brand": "HDFC Bank",
        "brand:wikidata": "Q631047",
        "name": "HDFC Bank",
        "name:kn": "ಎಚ್ ಡಿ ಎಫ್ ಸಿ",
        "operator": "HDFC Bank",
        "operator:wikidata": "Q631047",
        "short_name": "HDFC"
      }
    },
    {
      "type": "node",
      "id": 5482915622,
      "lat": 13.0053314,
      "lon": 77.5937908,
      "tags": {
        "amenity": "fuel",
        "brand": "Bharat Petroleum",
        "brand:wikidata": "Q854826",
        "brand:wikipedia": "en:Bharat Petroleum",
        "name": "Bharat Petroleum",
        "name:kn": "ಭಾರತ್ ಪೆಟ್ರೋಲಿಯಂ"
      }
    },
    {
      "type": "node",
      "id": 5862563586,
      "lat": 13.0057165,
      "lon": 77.5934124,
      "tags": {
        "amenity": "police",
        "name": "JC Nagara Police Station",
        "name:kn": "ಜೆಸಿ ನಗರ ಆರಕ್ಷಕ ಠಾಣೆ"
      }
    },
    {
      "type": "node",
      "id": 5862563685,
      "lat": 13.006676,
      "lon": 77.5930473,
      "tags": {
        "amenity": "place_of_worship",
        "check_date": "2025-03-26",
        "religion": "hindu"
      }
    },
    {
      "type": "node",
      "id": 7087593358,
      "lat": 13.0062133,
      "lon": 77.5931539,
      "tags": {
        "amenity": "fast_food",
        "name": "Udupi Veg"
      }
    },
    {
      "type": "node",
      "id": 8188038706,
      "lat": 12.9981064,
      "lon": 77.6008126,
      "tags": {
        "addr:full": "79/10, Nandi Durga Rd, Byadarahalli, Benson Town, Bengaluru, Karnataka",
        "addr:state": "Karnataka",
        "amenity": "hospital",
        "name": "Appllo Diagnostic"
      }
    },
    {
      "type": "node",
      "id": 8240810686,
      "lat": 13.0005017,
      "lon": 77.599504,
      "tags": {
        "amenity": "fast_food",
        "name": "Lassi Shop"
      }
    },
    {
      "type": "node",
      "id": 8240810687,
      "lat": 13.0009956,
      "lon": 77.599335,
      "tags": {
        "amenity": "bank",
        "atm": "yes",
        "brand": "Kotak Mahindra Bank",
        "brand:wikidata": "Q2040404",
        "name": "Kotak Mahindra Bank"
      }
    },
    {
      "type": "node",
      "id": 8240810688,
      "lat": 12.9972714,
      "lon": 77.6013547,
      "tags": {
        "amenity": "place_of_worship",
        "name": "Annunciation Church",
        "religion": "christian"
      }
    },
    {
      "type": "node",
      "id": 9835538871,
      "lat": 13.0027078,
      "lon": 77.5963338,
      "tags": {
        "addr:city": "Bengaluru",
        "addr:housenumber": "22",
        "addr:place": "Jayamahal Extension",
        "addr:postcode": "560046",
        "addr:street": "13th Cross Street",
        "addr:suburb": "Jayamahal",
        "mobile": "+91-984-5646-545",
        "name": "Mostly Harmless",
        "opening_hours": "Mo-Sa 09:00-20:30; PH closed",
        "shop": "computer",
        "website": "https://mostlyharmless.io/"
      }
    },
    {
      "type": "node",
      "id": 12229239088,
      "lat": 13.0053048,
      "lon": 77.5934781,
      "tags": {
        "amenity": "toilets",
        "check_date": "2024-10-06"
      }
    },
    {
      "type": "node",
      "id": 12404912802,
      "lat": 12.9996817,
      "lon": 77.6000976,
      "tags": {
        "addr:floor": "G",
        "air_conditioning": "yes",
        "amenity": "cafe",
        "check_date": "2024-12-08",
        "level": "0",
        "name": "Velvet Bakes",
        "outdoor_seating": "no",
        "toilets": "no"
      }
    },
    {
      "type": "node",
      "id": 12470693217,
      "lat": 12.9999372,
      "lon": 77.5962116,
      "tags": {
        "amenity": "place_of_worship",
        "religion": "hindu"
      }
    },
    {
      "type": "node",
      "id": 12470693239,
      "lat": 13.0020645,
      "lon": 77.5928172,
      "tags": {
        "access": "private",
        "amenity": "toilets"
      }
    },
    {
      "type": "node",
      "id": 12470693542,
      "lat": 13.0016412,
      "lon": 77.601576,
      "tags": {
        "amenity": "fast_food",
        "brand": "Indira Canteen",
        "brand:wikidata": "Q36164828",
        "cuisine": "south_indian",
        "name": "Indira Canteen",
        "operator": "BBMP",
        "takeaway": "yes"
      }
    },
    {
      "type": "node",
      "id": 12470693552,
      "lat": 13.001798,
      "lon": 77.6023847,
      "tags": {
        "amenity": "place_of_worship",
        "religion": "hindu"
      }
    },
    {
      "type": "way",
      "id": 39022406,
      "center": {
        "lat": 13.0012098,
        "lon": 77.5976652
      },
      "tags": {
        "leisure": "park",
        "name": "Jayamahal Park",
        "name:kn": "ಜಯಮಹಲ್ ಉದ್ಯಾನವನ",
        "opening_hours": "Mo-Su 05:00-09:00,16:00-20:30"
      }
    },
    {
      "type": "way",
      "id": 39022417,
      "center": {
        "lat": 13.00218,
        "lon": 77.5963121
      },
      "tags": {
        "access": "yes",
        "leisure": "playground",
        "name": "Chacha Park"
      }
    },
    {
      "type": "way",
      "id": 143384384,
      "center": {
        "lat": 12.9981618,
        "lon": 77.5924696
      },
      "tags": {
        "leisure": "garden",
        "name": "Palace Greens"
      }
    },
    {
      "type": "way",
      "id": 163198436,
      "center": {
        "lat": 12.9961923,
        "lon": 77.5988126
      },
      "tags": {
        "addr:city": "Bangalore",
        "addr:country": "IN",
        "addr:housenumber": "63",
        "addr:postcode": "560046",
        "addr:street": "Millers Road",
        "addr:suburb": "Benson Town",
        "amenity": "college",
        "name": "United Theological College",
        "short_name": "UTC",
        "start_date": "1910",
        "website": "https://utc.edu.in/",
        "wikidata": "Q7893600",
        "wikimedia_commons": "Category:United Theological College, Bangalore",
        "wikipedia": "en:United Theological College, Bangalore"
      }
    },
    {
      "type": "way",
      "id": 346756797,
      "center": {
        "lat": 13.0028072,
        "lon": 77.5953858
      },
      "tags": {
        "amenity": "place_of_worship",
        "building": "mosque",
        "religion": "muslim"
      }
    },
    {
      "type": "way",
      "id": 346798436,
      "center": {
        "lat": 12.9976146,
        "lon": 77.5977124
      },
      "tags": {
        "leisure": "swimming_pool"
      }
    },
    {
      "type": "way",
      "id": 362940504,
      "center": {
        "lat": 13.0051069,
        "lon": 77.604059
      },
      "tags": {
        "leisure": "park"
      }
    },
    {
      "type": "way",
      "id": 400439506,
      "center": {
        "lat": 12.9995021,
        "lon": 77.5925097
      },
      "tags": {
        "leisure": "garden"
      }
    },
    {
      "type": "way",
      "id": 400442772,
      "center": {
        "lat": 13.0012629,
        "lon": 77.5935327
      },
      "tags": {
        "amenity": "community_centre",
        "community_centre": "events_venue",
        "name": "Chamara Vajra",
        "name:kn": "ಚಾಮರ ವಜ್ರ"
      }
    },
    {
      "type": "way",
      "id": 411055942,
      "center": {
        "lat": 12.9971956,
        "lon": 77.596916
      },
      "tags": {
        "access": "permissive",
        "amenity": "parking",
        "capacity": "50",
        "parking": "surface"
      }
    },
    {
      "type": "way",
      "id": 438495206,
      "center": {
        "lat": 12.9959386,
        "lon": 77.5993189
      },
      "tags": {
        "leisure": "garden"
      }
    },
    {
      "type": "way",
      "id": 673959416,
      "center": {
        "lat": 13.0060147,
        "lon": 77.5954888
      },
      "tags": {
        "amenity": "place_of_worship",
        "building": "mosque",
        "religion": "muslim"
      }
    },
    {
      "type": "way",
      "id": 673959420,
      "center": {
        "lat": 13.0041285,
        "lon": 77.5941368
      },
      "tags": {
        "amenity": "place_of_worship",
        "building": "mosque",
        "religion": "muslim"
      }
    },
    {
      "type": "way",
      "id": 673959423,
      "center": {
        "lat": 13.0026757,
        "lon": 77.5944814
      },
      "tags": {
        "amenity": "place_of_worship",
        "building": "mosque",
        "religion": "muslim"
      }
    },
    {
      "type": "way",
      "id": 673959425,
      "center": {
        "lat": 13.0024728,
        "lon": 77.594542
      },
      "tags": {
        "amenity": "place_of_worship",
        "building": "mosque",
        "religion": "muslim"
      }
    },
    {
      "type": "way",
      "id": 785341394,
      "center": {
        "lat": 13.0022168,
        "lon": 77.5921105
      },
      "tags": {
        "addr:city": "Bengaluru",
        "addr:country": "IN",
        "addr:postcode": "560006",
        "addr:street": "Jayamahal Road",
        "amenity": "college",
        "email": "iiamr@yahoo.com",
        "name": "Indian Institute of Ayurvedic Medicine & Research",
        "phone": "080 - 2343 7895",
        "website": "http://iiamr.co.in"
      }
    },
    {
      "type": "way",
      "id": 796374051,
      "center": {
        "lat": 13.0099309,
        "lon": 77.5941222
      },
      "tags": {
        "addr:district": "Bengaluru",
        "addr:full": "Munireddypalya, J.C.Nagar, Bengaluru",
        "addr:postcode": "560006",
        "addr:state": "Karnataka",
        "amenity": "hospital",
        "name": "JC Nagar Municipal Hospital",
        "source": "OpenGovernmentData"
      }
    },
    {
      "type": "way",
      "id": 796374105,
      "center": {
        "lat": 13.0015611,
        "lon": 77.6073478
      },
      "tags": {
        "leisure": "park"
      }
    },
    {
      "type": "way",
      "id": 994820814,
      "center": {
        "lat": 13.0099473,
        "lon": 77.5994061
      },
      "tags": {
        "leisure": "pitch",
        "sport": "basketball"
      }
    },
    {
      "type": "way",
      "id": 1023657481,
      "center": {
        "lat": 13.0123443,
        "lon": 77.5946694
      },
      "tags": {
        "amenity": "school"
      }
    },
    {
      "type": "way",
      "id": 1160844624,
      "center": {
        "lat": 12.997306,
        "lon": 77.6000075
      },
      "tags": {
        "leisure": "park"
      }
    },
    {
      "type": "way",
      "id": 1160845582,
      "center": {
        "lat": 13.0038413,
        "lon": 77.597227
      },
      "tags": {
        "amenity": "monastery",
        "landuse": "religious",
        "name": "Sri Sarada Matha",
        "name:kn": "ಶ್ರೀ ಶಾರದ ಮಠ",
        "religion": "hindu"
      }
    },
    {
      "type": "way",
      "id": 1305182789,
      "center": {
        "lat": 12.9995073,
        "lon": 77.6012527
      },
      "tags": {
        "access": "private",
        "leisure": "swimming_pool"
      }
    },
    {
      "type": "way",
      "id": 1308476316,
      "center": {
        "lat": 12.9991068,
        "lon": 77.6005921
      },
      "tags": {
        "access": "private",
        "leisure": "swimming_pool"
      }
    },
    {
      "type": "way",
      "id": 1338260811,
      "center": {
        "lat": 13.0046284,
        "lon": 77.5895866
      },
      "tags": {
        "addr:place": "Palace Grounds",
        "amenity": "events_venue",
        "name": "Anantya"
      }
    },
    {
      "type": "way",
      "id": 1338260824,
      "center": {
        "lat": 13.0046242,
        "lon": 77.5873025
      },
      "tags": {
        "addr:place": "Palace Grounds",
        "amenity": "events_venue",
        "name": "Princess Shrine"
      }
    },
    {
      "type": "way",
      "id": 1338260876,
      "center": {
        "lat": 13.0041553,
        "lon": 77.5922294
      },
      "tags": {
        "access": "private",
        "leisure": "swimming_pool"
      }
    },
    {
      "type": "way",
      "id": 1339448451,
      "center": {
        "lat": 13.0027861,
        "lon": 77.5967064
      },
      "tags": {
        "amenity": "cafe",
        "brand": "Cafe Coffee Day",
        "brand:wikidata": "Q5017235",
        "building": "yes",
        "cuisine": "coffee_shop",
        "internet_access": "no",
        "name": "Cafe Coffee Day",
        "outdoor_seating": "yes",
        "takeaway": "yes"
      }
    },
    {
      "type": "way",
      "id": 1348168076,
      "center": {
        "lat": 12.9969365,
        "lon": 77.6032101
      },
      "tags": {
        "leisure": "garden"
      }
    },
    {
      "type": "way",
      "id": 1348168098,
      "center": {
        "lat": 12.9990228,
        "lon": 77.6033757
      },
      "tags": {
        "access": "private",
        "leisure": "swimming_pool"
      }
    },
    {
      "type": "way",
      "id": 1348168112,
      "center": {
        "lat": 13.0014902,
        "lon": 77.5988482
      },
      "tags": {
        "amenity": "school",
        "name": "Gulabi School"
      }
    },
    {
      "type": "way",
      "id": 1348168125,
      "center": {
        "lat": 13.002769,
        "lon": 77.5932757
      },
      "tags": {
        "access": "private",
        "amenity": "parking",
        "parking": "surface"
      }
    },
    {
      "type": "way",
      "id": 1348168138,
      "center": {
        "lat": 13.0028438,
        "lon": 77.60042
      },
      "tags": {
        "amenity": "college"
      }
    },
    {
      "type": "way",
      "id": 1348168191,
      "center": {
        "lat": 13.0060524,
        "lon": 77.598076
      },
      "tags": {
        "amenity": "school",
        "name": "St. JG Margaret School"
      }
    },
    {
      "type": "way",
      "id": 1348168192,
      "center": {
        "lat": 13.0062613,
        "lon": 77.5977187
      },
      "tags": {
        "amenity": "place_of_worship",
        "denomination": "catholic",
        "name": "St. John the Evangelist Church",
        "religion": "christian"
      }
    },
    {
      "type": "way",
      "id": 1348168195,
      "center": {
        "lat": 13.0016986,
        "lon": 77.6013148
      },
      "tags": {
        "leisure": "park"
      }
    },
    {
      "type": "way",
      "id": 1372952383,
      "center": {
        "lat": 13.0062349,
        "lon": 77.5925893
      },
      "tags": {
        "access": "customers",
        "amenity": "parking",
        "parking": "surface"
      }
    },
    {
      "type": "way",
      "id": 1415835958,
      "center": {
        "lat": 12.9960037,
        "lon": 77.5949973
      },
      "tags": {
        "leisure": "sports_centre"
      }
    },
    {
      "type": "way",
      "id": 1415838697,
      "center": {
        "lat": 13.0010594,
        "lon": 77.5894062
      },
      "tags": {
        "amenity": "parking",
        "surface": "earth"
      }
    }
  ]
}