{
  "area_name": "Choodasandra",
  "osm_id": 7298320806,
  "osm_type": "node",
  "place_type": "suburb",
  "amenity_count": 52,
  "amenities": [
    {
      "type": "node",
      "id": 267216388,
      "lat": 12.8878334,
      "lon": 77.6729219,
      "tags": {
        "amenity": "telephone"
      }
    },
    {
      "type": "node",
      "id": 4273047590,
      "lat": 12.8899392,
      "lon": 77.6733771,
      "tags": {
        "addr:housenumber": "65/1",
        "addr:postcode": "560099",
        "addr:street": "Central Jail Road",
        "name": "Loyal World Retail Mart",
        "opening_hours": "Mo-Sa 08:30-21:30; Su 08:30-09:30",
        "phone": "08025746285",
        "shop": "supermarket"
      }
    },
    {
      "type": "node",
      "id": 4441925587,
      "lat": 12.8901398,
      "lon": 77.6734141,
      "tags": {
        "addr:city": "Bangaluru",
        "addr:housename": "Muniyellapa Building",
        "addr:postcode": "560099",
        "addr:street": "Central Jail Road",
        "amenity": "clinic",
        "healthcare": "clinic",
        "name": "Harmony Wellness Concepts Center",
        "phone": "+91-97418 99116",
        "website": "https://www.harmonywellnessconcepts.com/"
      }
    },
    {
      "type": "node",
      "id": 5004546590,
      "lat": 12.8996788,
      "lon": 77.6753159,
      "tags": {
        "addr:city": "Bangalore",
        "addr:housenumber": "Shell Heights, Hosa Road, Opp.Owners court, Kasavanahalli",
        "addr:postcode": "560035",
        "addr:street": "Central Jail Road",
        "brand": "Reliance Fresh",
        "brand:wikidata": "Q7311014",
        "name": "Reliance Fresh",
        "name:kn": "ರಿಲಾಯನ್ಸ್ ಫ್ರೆಶ್",
        "shop": "supermarket",
        "source": "http://www.reliancefresh.co.in/storeadd377c.php"
      }
    },
    {
      "type": "node",
      "id": 6801884242,
      "lat": 12.8985491,
      "lon": 77.6753954,
      "tags": {
        "name": "Just Bake",
        "shop": "bakery"
      }
    },
    {
      "type": "node",
      "id": 11657341574,
      "lat": 12.899526,
      "lon": 77.6752508,
      "tags": {
        "amenity": "bar",
        "name": "Budweiser"
      }
    },
    {
      "type": "node",
      "id": 11662741917,
      "lat": 12.899519,
      "lon": 77.6752339,
      "tags": {
        "leisure": "fitness_centre",
        "name": "Body Forge",
        "phone": "07618705096",
        "sport": "fitness"
      }
    },
    {
      "type": "node",
      "id": 11662768862,
      "lat": 12.899593,
      "lon": 77.6755634,
      "tags": {
        "amenity": "restaurant",
        "cuisine": "kebab;shawarma",
        "name": "Rotana Cafe"
      }
    },
    {
      "type": "node",
      "id": 11662768863,
      "lat": 12.8991427,
      "lon": 77.6755711,
      "tags": {
        "male": "yes",
        "name": "Infinity Men's parlour",
        "shop": "hairdresser"
      }
    },
    {
      "type": "node",
      "id": 11662768864,
      "lat": 12.8993376,
      "lon": 77.6755636,
      "tags": {
        "air_conditioning": "no",
        "amenity": "restaurant",
        "cuisine": "biriyani",
        "diet:halal": "yes",
        "indoor_seating": "yes",
        "name": "Indian Dum Biriyani",
        "outdoor_seating": "no"
      }
    },
    {
      "type": "node",
      "id": 11662811567,
      "lat": 12.8985354,
      "lon": 77.6753954,
      "tags": {
        "amenity": "cafe",
        "name": "Chai Kada"
      }
    },
    {
      "type": "node",
      "id": 11662811568,
      "lat": 12.8985408,
      "lon": 77.6753792,
      "tags": {
        "amenity": "dentist",
        "healthcare": "dentist",
        "name": "Supra Dental Care"
      }
    },
    {
      "type": "node",
      "id": 11662811969,
      "lat": 12.8984117,
      "lon": 77.6753647,
      "tags": {
        "name": "Mobicom",
        "phone": "07899256949",
        "shop": "mobile_phone"
      }
    },
    {
      "type": "node",
      "id": 11664019648,
      "lat": 12.8989754,
      "lon": 77.6761562,
      "tags": {
        "amenity": "restaurant",
        "name": "Pita Pocket Factory"
      }
    },
    {
      "type": "node",
      "id": 11664019649,
      "lat": 12.8989725,
      "lon": 77.6763124,
      "tags": {
        "amenity": "dentist",
        "healthcare": "dentist",
        "name": "RCT Dental Inn"
      }
    },
    {
      "type": "node",
      "id": 11680911320,
      "lat": 12.8995858,
      "lon": 77.6782177,
      "tags": {
        "leisure": "pitch",
        "name": "Tennis Gurukul",
        "sport": "tennis"
      }
    },
    {
      "type": "way",
      "id": 170583173,
      "center": {
        "lat": 12.8997614,
        "lon": 77.6845015
      },
      "tags": {
        "amenity": "clubhouse",
        "leisure": "sports_centre",
        "name": "Green Villa Club"
      }
    },
    {
      "type": "way",
      "id": 613757688,
      "center": {
        "lat": 12.8834187,
        "lon": 77.6794502
      },
      "tags": {
        "addr:city": "Bengaluru",
        "addr:postcode": "560099",
        "addr:street": "Notre Dame Nagar, Huskur, Choodasandra",
        "amenity": "school",
        "landuse": "education",
        "name": "Notre Dame Academy"
      }
    },
    {
      "type": "way",
      "id": 613757694,
      "center": {
        "lat": 12.8836939,
        "lon": 77.6789462
      },
      "tags": {
        "access": "private",
        "hoops": "2",
        "leisure": "pitch",
        "lit": "no",
        "sport": "basketball",
        "surface": "concrete"
      }
    },
    {
      "type": "way",
      "id": 688813393,
      "center": {
        "lat": 12.898759,
        "lon": 77.686632
      },
      "tags": {
        "leisure": "pitch",
        "sport": "cricket"
      }
    },
    {
      "type": "way",
      "id": 705755078,
      "center": {
        "lat": 12.896195,
        "lon": 77.6777571
      },
      "tags": {
        "leisure": "swimming_pool"
      }
    },
    {
      "type": "way",
      "id": 902970378,
      "center": {
        "lat": 12.8958024,
        "lon": 77.6789688
      },
      "tags": {
        "amenity": "school",
        "name": "Narayana CO-Kaveri Bhavan",
        "operator": "Narayana",
        "operator:type": "private",
        "phone": "1800 102 3344",
        "website": "https://narayanaschools.in"
      }
    },
    {
      "type": "way",
      "id": 902970380,
      "center": {
        "lat": 12.8958223,
        "lon": 77.6792509
      },
      "tags": {
        "leisure": "pitch",
        "sport": "basketball"
      }
    },
    {
      "type": "way",
      "id": 902970381,
      "center": {
        "lat": 12.8957321,
        "lon": 77.6791209
      },
      "tags": {
        "leisure": "pitch",
        "sport": "tennis"
      }
    },
    {
      "type": "way",
      "id": 907621380,
      "center": {
        "lat": 12.8977399,
        "lon": 77.6847952
      },
      "tags": {
        "amenity": "school",
        "name": "Glentree Academy"
      }
    },
    {
      "type": "way",
      "id": 907621385,
      "center": {
        "lat": 12.8972738,
        "lon": 77.6833476
      },
      "tags": {
        "amenity": "school",
        "name": "Government School"
      }
    },
    {
      "type": "way",
      "id": 922840254,
      "center": {
        "lat": 12.8960717,
        "lon": 77.6726794
      },
      "tags": {
        "amenity": "school",
        "name": "Amatra Academy"
      }
    },
    {
      "type": "way",
      "id": 922840256,
      "center": {
        "lat": 12.8964625,
        "lon": 77.6727841
      },
      "tags": {
        "amenity": "conference_centre",
        "building": "yes"
      }
    },
    {
      "type": "way",
      "id": 922840257,
      "center": {
        "lat": 12.8959844,
        "lon": 77.6730456
      },
      "tags": {
        "access": "private",
        "hoops": "4",
        "leisure": "pitch",
        "sport": "basketball"
      }
    },
    {
      "type": "way",
      "id": 1065763508,
      "center": {
        "lat": 12.8919766,
        "lon": 77.6751207
      },
      "tags": {
        "access": "customers",
        "leisure": "swimming_pool",
        "location": "outdoor",
        "swimming_pool": "outdoor"
      }
    },
    {
      "type": "way",
      "id": 1240048340,
      "center": {
        "lat": 12.8837912,
        "lon": 77.6840136
      },
      "tags": {
        "amenity": "school",
        "name": "Amrita International Vidyalayam"
      }
    },
    {
      "type": "way",
      "id": 1254114731,
      "center": {
        "lat": 12.8990834,
        "lon": 77.6751555
      },
      "tags": {
        "brand": "Max",
        "brand:wikidata": "Q24939079",
        "building": "yes",
        "clothes": "men;women;children",
        "name": "Max",
        "operator": "Max",
        "shop": "clothes"
      }
    },
    {
      "type": "way",
      "id": 1256466794,
      "center": {
        "lat": 12.899699,
        "lon": 77.678446
      },
      "tags": {
        "leisure": "pitch",
        "name": "Tennis Gurukul",
        "sport": "tennis"
      }
    },
    {
      "type": "way",
      "id": 1256466795,
      "center": {
        "lat": 12.9000363,
        "lon": 77.67849
      },
      "tags": {
        "leisure": "pitch",
        "name": "Tennis Gurukul",
        "sport": "tennis"
      }
    },
    {
      "type": "way",
      "id": 1312726769,
      "center": {
        "lat": 12.8947463,
        "lon": 77.6730225
      },
      "tags": {
        "leisure": "track",
        "sport": "athletics"
      }
    },
    {
      "type": "way",
      "id": 1312726773,
      "center": {
        "lat": 12.8958898,
        "lon": 77.6728081
      },
      "tags": {
        "access": "private",
        "leisure": "pitch",
        "sport": "tennis"
      }
    },
    {
      "type": "way",
      "id": 1350940828,
      "center": {
        "lat": 12.8888659,
        "lon": 77.6796355
      },
      "tags": {
        "leisure": "pitch",
        "sport": "tennis"
      }
    },
    {
      "type": "way",
      "id": 1363512459,
      "center": {
        "lat": 12.8955025,
        "lon": 77.6796803
      },
      "tags": {
        "addr:city": "Bangalore",
        "addr:postcode": "560035",
        "addr:street": "15th Main Road",
        "amenity": "school",
        "name": "Narayana",
        "roof:colour": "#f8f7f7"
      }
    },
    {
      "type": "way",
      "id": 1363512461,
      "center": {
        "lat": 12.8954126,
        "lon": 77.6798388
      },
      "tags": {
        "leisure": "pitch",
        "sport": "basketball"
      }
    },
    {
      "type": "way",
      "id": 1363512462,
      "center": {
        "lat": 12.8954628,
        "lon": 77.6797301
      },
      "tags": {
        "leisure": "pitch",
        "sport": "volleyball"
      }
    },
    {
      "type": "way",
      "id": 1364175577,
      "center": {
        "lat": 12.8922036,
        "lon": 77.6890401
      },
      "tags": {
        "leisure": "park"
      }
    },
    {
      "type": "way",
      "id": 1364175578,
      "center": {
        "lat": 12.8931011,
        "lon": 77.6891863
      },
      "tags": {
        "leisure": "pitch",
        "sport": "tennis"
      }
    },
    {
      "type": "way",
      "id": 1364208382,
      "center": {
        "lat": 12.8948642,
        "lon": 77.6862856
      },
      "tags": {
        "leisure": "park"
      }
    },
    {
      "type": "way",
      "id": 1364208383,
      "center": {
        "lat": 12.8947078,
        "lon": 77.6865573
      },
      "tags": {
        "leisure": "pitch",
        "sport": "tennis"
      }
    },
    {
      "type": "way",
      "id": 1420116975,
      "center": {
        "lat": 12.8935753,
        "lon": 77.6831825
      },
      "tags": {
        "access": "private",
        "leisure": "swimming_pool"
      }
    },
    {
      "type": "way",
      "id": 1420117184,
      "center": {
        "lat": 12.8957568,
        "lon": 77.6740463
      },
      "tags": {
        "amenity": "college",
        "name": "Karnataka Reddyjana Sangha Medical College"
      }
    },
    {
      "type": "way",
      "id": 1420117288,
      "center": {
        "lat": 12.8855582,
        "lon": 77.6794888
      },
      "tags": {
        "leisure": "pitch",
        "sport": "basketball"
      }
    },
    {
      "type": "way",
      "id": 1420117299,
      "center": {
        "lat": 12.8941467,
        "lon": 77.6877011
      },
      "tags": {
        "leisure": "pitch",
        "sport": "tennis"
      }
    },
    {
      "type": "way",
      "id": 1429153342,
      "center": {
        "lat": 12.8978384,
        "lon": 77.685015
      },
      "tags": {
        "access": "private",
        "leisure": "pitch",
        "sport": "basketball"
      }
    },
    {
      "type": "way",
      "id": 1429153347,
      "center": {
        "lat": 12.8971376,
        "lon": 77.677667
      },
      "tags": {
        "access": "private",
        "leisure": "swimming_pool"
      }
    },
    {
      "type": "way",
      "id": 1429319327,
      "center": {
        "lat": 12.8922855,
        "lon": 77.674971
      },
      "tags": {
        "access": "private",
        "leisure": "swimming_pool"
      }
    },
    {
      "type": "way",
      "id": 1453020421,
      "center": {
        "lat": 12.8938083,
        "lon": 77.6750777
      },
      "tags": {
        "amenity": "restaurant",
        "building": "yes",
        "name": "cafeteria"
      }
    }
  ]
}