{
  "area_name": "Concept City",
  "osm_id": 5277512119,
  "osm_type": "node",
  "place_type": "neighbourhood",
  "amenity_count": 27,
  "amenities": [
    {
      "type": "node",
      "id": 1228960966,
      "lat": 12.90306,
      "lon": 77.4974982,
      "tags": {
        "addr:district": "Bengaluru Urban",
        "addr:full": "67, Uttarahalli Road, Kengeri",
        "addr:postcode": "560060",
        "addr:state": "Karnataka",
        "amenity": "hospital",
        "email": "web.enquiries@globalhospitalsindia.com",
        "healthcare": "hospital",
        "healthcare:speciality": "multi speciality",
        "name": "BGS Gleneagles Hospitals",
        "name:kn": "ಬಿಜಿಎಸ್ ಆಸ್ಪತ್ರೆ",
        "operator:type": "private",
        "source": "OpenGovernmentData",
        "website": "https://bgsgleneaglesglobalhospitalbengaluru.com/"
      }
    },
    {
      "type": "node",
      "id": 1228960967,
      "lat": 12.9022641,
      "lon": 77.4974982,
      "tags": {
        "amenity": "school",
        "name": "BGS Public School"
      }
    },
    {
      "type": "node",
      "id": 3214435257,
      "lat": 12.8990538,
      "lon": 77.4963065,
      "tags": {
        "amenity": "college",
        "name": "SJB Institute of Technology",
        "phone": "08028612445",
        "website": "https://www.sjbit.edu.in/"
      }
    },
    {
      "type": "node",
      "id": 3512412163,
      "lat": 12.899315,
      "lon": 77.4963246,
      "tags": {
        "amenity": "atm",
        "operator": "Bank of Baroda"
      }
    },
    {
      "type": "node",
      "id": 3512417933,
      "lat": 12.8996006,
      "lon": 77.4958799,
      "tags": {
        "amenity": "cafe",
        "name": "Tea Coffee",
        "name:kn": "ಟೀ ಕಾಫಿ",
        "opening_hours": "Mo-Sa 09:00-17:00"
      }
    },
    {
      "type": "node",
      "id": 4559404789,
      "lat": 12.9113106,
      "lon": 77.4847857,
      "tags": {
        "amenity": "atm",
        "brand": "Axis Bank",
        "brand:wikidata": "Q2003549",
        "operator": "Axis Bank",
        "operator:wikidata": "Q2003549"
      }
    },
    {
      "type": "node",
      "id": 6254207185,
      "lat": 12.9102591,
      "lon": 77.4901432,
      "tags": {
        "amenity": "place_of_worship",
        "name": "Pushpa Sadan",
        "religion": "christian"
      }
    },
    {
      "type": "node",
      "id": 6886585302,
      "lat": 12.9029457,
      "lon": 77.497285,
      "tags": {
        "addr:city": "Kengeri",
        "addr:district": "BENGALURU RURAL",
        "addr:full": "No. 67, Uttarahalli Road",
        "addr:postcode": "560060",
        "addr:state": "Karnataka",
        "amenity": "blood_bank",
        "contact:mobile": "9535408623",
        "contact:phone": "8026255555",
        "name": "BGS Gleneagles Hospitals",
        "opening_hours": "24/7",
        "operator:type": "private",
        "source": "OpenGovernmentData"
      }
    },
    {
      "type": "node",
      "id": 7289130265,
      "lat": 12.9109393,
      "lon": 77.4843889,
      "tags": {
        "amenity": "bank",
        "atm": "yes",
        "brand": "UCO Bank",
        "brand:wikidata": "Q2005310",
        "name": "UCO Bank",
        "name:kn": "ಯೂಕೊ ಬ್ಯಾಂಕ್",
        "operator": "UCO Bank"
      }
    },
    {
      "type": "node",
      "id": 11248318180,
      "lat": 12.9115175,
      "lon": 77.4846294,
      "tags": {
        "amenity": "atm",
        "brand": "IDFC First Bank",
        "brand:wikidata": "Q22031467",
        "check_date": "2023-10-08",
        "operator": "IDFC First Bank",
        "operator:wikidata": "Q22031467"
      }
    },
    {
      "type": "node",
      "id": 12507331058,
      "lat": 12.9138844,
      "lon": 77.4870121,
      "tags": {
        "amenity": "restaurant",
        "name": "Kadamba Veg"
      }
    },
    {
      "type": "way",
      "id": 331547213,
      "center": {
        "lat": 12.9012695,
        "lon": 77.4972635
      },
      "tags": {
        "amenity": "college",
        "landuse": "education",
        "name": "Adichunchanagiri Shikshana Trust",
        "name:kn": "ಆದಿಚುಂಚನಗಿರಿ ಶಿಕ್ಷಣ ಸಂಸ್ಥೆ"
      }
    },
    {
      "type": "way",
      "id": 347572849,
      "center": {
        "lat": 12.9121751,
        "lon": 77.4847186
      },
      "tags": {
        "amenity": "fuel",
        "brand": "Bharat Petroleum",
        "brand:wikidata": "Q854826",
        "building": "roof",
        "compressed_air": "yes",
        "name": "Bharat Petroleum",
        "name:kn": "ಭಾರತ್ ಪೆಟ್ರೋಲಿಯಂ",
        "operator": "Bharat Petroleum"
      }
    },
    {
      "type": "way",
      "id": 347597626,
      "center": {
        "lat": 12.9107092,
        "lon": 77.4838249
      },
      "tags": {
        "amenity": "place_of_worship",
        "building": "yes",
        "check_date": "2023-10-08",
        "religion": "muslim"
      }
    },
    {
      "type": "way",
      "id": 437563235,
      "center": {
        "lat": 12.9137066,
        "lon": 77.4870405
      },
      "tags": {
        "alt_name": "Kengeri Transit and Traffic Management Center",
        "amenity": "bus_station",
        "bus": "yes",
        "name": "Kengeri TTMC",
        "name:kn": "ಕೆಂಗೇರಿ",
        "operator": "BMTC",
        "public_transport": "station"
      }
    },
    {
      "type": "way",
      "id": 437563236,
      "center": {
        "lat": 12.9127328,
        "lon": 77.4856958
      },
      "tags": {
        "amenity": "fuel",
        "name": "Madhu Petrol / Gas Station",
        "operator": "Indianoil"
      }
    },
    {
      "type": "way",
      "id": 726521045,
      "center": {
        "lat": 12.9117658,
        "lon": 77.4938608
      },
      "tags": {
        "leisure": "park"
      }
    },
    {
      "type": "way",
      "id": 775176997,
      "center": {
        "lat": 12.9009122,
        "lon": 77.4965199
      },
      "tags": {
        "leisure": "garden"
      }
    },
    {
      "type": "way",
      "id": 775176998,
      "center": {
        "lat": 12.900509,
        "lon": 77.4965005
      },
      "tags": {
        "leisure": "garden"
      }
    },
    {
      "type": "way",
      "id": 775176999,
      "center": {
        "lat": 12.9000482,
        "lon": 77.4964173
      },
      "tags": {
        "leisure": "garden"
      }
    },
    {
      "type": "way",
      "id": 775177000,
      "center": {
        "lat": 12.899673,
        "lon": 77.4963469
      },
      "tags": {
        "leisure": "garden"
      }
    },
    {
      "type": "way",
      "id": 1157248009,
      "center": {
        "lat": 12.9102556,
        "lon": 77.4956636
      },
      "tags": {
        "amenity": "monastery",
        "fixme": "Boundaries of the area",
        "landuse": "religious",
        "name": "Sawan Durbar Ashram",
        "religion": "hindu"
      }
    },
    {
      "type": "way",
      "id": 1157248024,
      "center": {
        "lat": 12.9097857,
        "lon": 77.4899319
      },
      "tags": {
        "amenity": "school",
        "name": "St. Theresa's School",
        "name:kn": "ಸಂತ ತೆರೇಸರ ಶಾಲೆ"
      }
    },
    {
      "type": "way",
      "id": 1364433561,
      "center": {
        "lat": 12.9049222,
        "lon": 77.4948419
      },
      "tags": {
        "amenity": "college",
        "name": "St. Mary's Global Academy"
      }
    },
    {
      "type": "way",
      "id": 1365489282,
      "center": {
        "lat": 12.9085275,
        "lon": 77.4875244
      },
      "tags": {
        "amenity": "fuel"
      }
    },
    {
      "type": "way",
      "id": 1365489291,
      "center": {
        "lat": 12.9007541,
        "lon": 77.4884411
      },
      "tags": {
        "amenity": "school"
      }
    },
    {
      "type": "way",
      "id": 1365489293,
      "center": {
        "lat": 12.9102301,
        "lon": 77.4854866
      },
      "tags": {
        "leisure": "pitch",
        "sport": "tennis"
      }
    }
  ]
}