{
  "area_name": "Cox Town",
  "osm_id": 19883402,
  "osm_type": "relation",
  "place_type": "administrative",
  "amenity_count": 61,
  "amenities": [
    {
      "type": "node",
      "id": 1469282330,
      "lat": 12.9960742,
      "lon": 77.6170891,
      "tags": {
        "amenity": "restaurant",
        "name": "Komala Refreshment",
        "name:kn": "ಕೊಮಲ ರಿಫ್ರೆಶ್‌ಮೆಂಟ್"
      }
    },
    {
      "type": "node",
      "id": 1469314053,
      "lat": 12.9965077,
      "lon": 77.6220456,
      "tags": {
        "amenity": "hospital",
        "name": "Srinivasa Nursing Home"
      }
    },
    {
      "type": "node",
      "id": 1469314069,
      "lat": 12.9963828,
      "lon": 77.6202753,
      "tags": {
        "amenity": "bank",
        "name": "Vijaya Bank",
        "name:kn": "ವಿಜಯ ಬ್ಯಾಂಕು"
      }
    },
    {
      "type": "node",
      "id": 1469320276,
      "lat": 12.9950065,
      "lon": 77.6202748,
      "tags": {
        "amenity": "place_of_worship",
        "name": "Mouna Guru Swamy Mutt and Temple",
        "religion": "hindu"
      }
    },
    {
      "type": "node",
      "id": 1469320280,
      "lat": 12.9969092,
      "lon": 77.6198773,
      "tags": {
        "amenity": "bank",
        "brand": "Axis Bank",
        "brand:wikidata": "Q2003549",
        "brand:wikipedia": "en:Axis Bank",
        "name": "Axis Bank",
        "name:en": "Axis Bank",
        "name:kn": "ಅಕ್ಸಿಸ್ ಬ್ಯಾಂಕ್",
        "website": "https://www.axisbank.com"
      }
    },
    {
      "type": "node",
      "id": 1469320296,
      "lat": 12.9975424,
      "lon": 77.6225532,
      "tags": {
        "amenity": "place_of_worship",
        "name": "Sri Varasiddhi Vinayaka Temple",
        "name:kn": "ವರಸಿದ್ದಿ ವಿನಾಯಕ ದೇವಸ್ಥಾನ",
        "religion": "hindu",
        "toilets:wheelchair": "no",
        "wheelchair": "yes"
      }
    },
    {
      "type": "node",
      "id": 1852659127,
      "lat": 12.9966824,
      "lon": 77.6193965,
      "tags": {
        "amenity": "fuel",
        "brand": "Indian Oil",
        "brand:wikidata": "Q1289348",
        "compressed_air": "yes",
        "name": "Indian Oil"
      }
    },
    {
      "type": "node",
      "id": 1852660681,
      "lat": 12.9965335,
      "lon": 77.6190505,
      "tags": {
        "name": "Mandovi Motors",
        "shop": "car"
      }
    },
    {
      "type": "node",
      "id": 1852663951,
      "lat": 12.9875167,
      "lon": 77.6203112,
      "tags": {
        "amenity": "place_of_worship",
        "name": "Raghavendra Swami Mutt",
        "name:kn": "ರಾಘವೇಂದ್ರ ಸ್ವಾಮಿ ಮಠ",
        "religion": "hindu"
      }
    },
    {
      "type": "node",
      "id": 2003935536,
      "lat": 12.994291,
      "lon": 77.6196026,
      "tags": {
        "amenity": "school",
        "name": "St Aloysius Pre Unniversity College"
      }
    },
    {
      "type": "node",
      "id": 3193521628,
      "lat": 12.9977551,
      "lon": 77.6205782,
      "tags": {
        "amenity": "restaurant",
        "cuisine": "regional",
        "name": "Sri Devi Café"
      }
    },
    {
      "type": "node",
      "id": 4385108289,
      "lat": 12.996332,
      "lon": 77.6170443,
      "tags": {
        "amenity": "restaurant",
        "name": "ಕೋಮಲ ರಿಫ್ರೆಷ್‌ಮೆಂಟ್ಸ್",
        "name:en": "Komala Refreshments",
        "name:kn": "ಕೋಮಲ ರಿಫ್ರೆಷ್‌ಮೆಂಟ್ಸ್"
      }
    },
    {
      "type": "node",
      "id": 4490426429,
      "lat": 12.9962218,
      "lon": 77.6174002,
      "tags": {
        "addr:city": "Bangalore",
        "addr:postcode": "56005",
        "addr:street": "Wheeler Road",
        "leisure": "sports_centre",
        "name": "Steve's Gym",
        "opening_hours": "6:00-20:00",
        "phone": "8025353323",
        "website": "https://stevesgym.com/"
      }
    },
    {
      "type": "node",
      "id": 4570423792,
      "lat": 12.9983463,
      "lon": 77.6206293,
      "tags": {
        "amenity": "fast_food",
        "name": "Lemon Rice",
        "name:en": "Lemon Rice"
      }
    },
    {
      "type": "node",
      "id": 4577045761,
      "lat": 12.9983402,
      "lon": 77.6200927,
      "tags": {
        "amenity": "hospital",
        "name": "Government Maternity Home",
        "name:kn": "ಸರ್ಕಾರಿ ಮಾತೃತ್ವ ಮನೆ"
      }
    },
    {
      "type": "node",
      "id": 4582783591,
      "lat": 12.9980438,
      "lon": 77.6205601,
      "tags": {
        "name": "Thomsons",
        "name:en": "Thomsons",
        "shop": "bakery"
      }
    },
    {
      "type": "node",
      "id": 4582787590,
      "lat": 12.9978934,
      "lon": 77.6203017,
      "tags": {
        "amenity": "clinic",
        "name": "Saldana Diagnostic Center",
        "name:en": "Saldana Diagnostic Center"
      }
    },
    {
      "type": "node",
      "id": 4582794490,
      "lat": 12.998501,
      "lon": 77.6203996,
      "tags": {
        "shop": "butcher"
      }
    },
    {
      "type": "node",
      "id": 4582794589,
      "lat": 12.9984473,
      "lon": 77.6204212,
      "tags": {
        "shop": "greengrocer"
      }
    },
    {
      "type": "node",
      "id": 4582801689,
      "lat": 12.998375,
      "lon": 77.6204488,
      "tags": {
        "name": "Fresh vegetables",
        "name:en": "Fresh vegetables",
        "shop": "greengrocer"
      }
    },
    {
      "type": "node",
      "id": 4607621918,
      "lat": 12.9984122,
      "lon": 77.6204312,
      "tags": {
        "name": "Star Fresh Egg Center",
        "name:en": "Star Fresh Egg Center",
        "shop": "butcher"
      }
    },
    {
      "type": "node",
      "id": 4844863349,
      "lat": 12.9968223,
      "lon": 77.6195998,
      "tags": {
        "amenity": "restaurant",
        "check_date": "2024-08-11",
        "name": "Dolphins",
        "name:en": "Dolphins"
      }
    },
    {
      "type": "node",
      "id": 4844863386,
      "lat": 12.9958599,
      "lon": 77.6202844,
      "tags": {
        "name": "International travel house Limited",
        "name:en": "International travel house Limited",
        "shop": "travel_agency"
      }
    },
    {
      "type": "node",
      "id": 4844865047,
      "lat": 12.9963245,
      "lon": 77.61771,
      "tags": {
        "name": "Digital Express",
        "name:en": "Digital Express",
        "shop": "electronics"
      }
    },
    {
      "type": "node",
      "id": 4844865048,
      "lat": 12.9974737,
      "lon": 77.6202808,
      "tags": {
        "amenity": "bank",
        "brand": "HDFC Bank",
        "brand:wikidata": "Q631047",
        "brand:wikipedia": "en:HDFC Bank",
        "name": "HDFC Bank",
        "name:en": "Hdfc Bank",
        "name:kn": "ಎಚ್ ಡಿ ಎಫ್ ಸಿ",
        "short_name": "HDFC",
        "website": "https://www.hdfcbank.com"
      }
    },
    {
      "type": "node",
      "id": 4844867524,
      "lat": 12.9964814,
      "lon": 77.621145,
      "tags": {
        "amenity": "pharmacy",
        "name": "Manoj Medicals",
        "name:en": "Manoj Medicals"
      }
    },
    {
      "type": "node",
      "id": 6944418995,
      "lat": 12.9876196,
      "lon": 77.6204668,
      "tags": {
        "addr:district": "Bengaluru Urban",
        "addr:full": "11, Ulsoor Tank Road Ulsoor Lake",
        "addr:postcode": "560042",
        "addr:state": "Karnataka",
        "amenity": "clinic",
        "name": "Sai Jyothi Netra Seva",
        "source": "OpenGovernmentData"
      }
    },
    {
      "type": "node",
      "id": 10979409744,
      "lat": 12.9958745,
      "lon": 77.6213506,
      "tags": {
        "amenity": "fast_food",
        "brand": "Indira Canteen",
        "brand:wikidata": "Q36164828",
        "cuisine": "south_indian",
        "name": "Indira Canteen",
        "operator": "BBMP",
        "takeaway": "yes"
      }
    },
    {
      "type": "node",
      "id": 10979409745,
      "lat": 12.9961581,
      "lon": 77.6213264,
      "tags": {
        "addr:city": "Bengaluru",
        "addr:country": "IN",
        "addr:housenumber": "14",
        "addr:postcode": "560005",
        "addr:street": "Sundaramurthi Road",
        "addr:suburb": "Cox Town",
        "name": "Fresh World",
        "shop": "supermarket"
      }
    },
    {
      "type": "node",
      "id": 10979409746,
      "lat": 12.9966455,
      "lon": 77.6211025,
      "tags": {
        "addr:city": "Bengaluru",
        "addr:country": "IN",
        "addr:housenumber": "2/1",
        "addr:postcode": "560005",
        "addr:street": "MM Road",
        "addr:suburb": "Cox Town",
        "amenity": "clinic",
        "name": "Kirti Eye and Dental Hospital",
        "name:kn": "ಕೀರ್ತಿ ಐ ಅಂಡ್ ಡೆಂಟಲ್ ಹಾಸ್ಪಿಟಲ್"
      }
    },
    {
      "type": "node",
      "id": 11129099866,
      "lat": 12.9953074,
      "lon": 77.6216752,
      "tags": {
        "addr:city": "Bengaluru",
        "addr:country": "IN",
        "addr:housenumber": "51",
        "addr:postcode": "560005",
        "addr:street": "MM Road",
        "addr:suburb": "Cox Town",
        "contact:facebook": "breadtimestories.blr",
        "contact:instagram": "breadtimestories.blr",
        "email": "breadtimestories.blr@gmail.com",
        "name": "Breadtime Stories",
        "shop": "bakery",
        "website": "https://www.breadtimestories.in"
      }
    },
    {
      "type": "node",
      "id": 11917162002,
      "lat": 12.9962008,
      "lon": 77.6173604,
      "tags": {
        "amenity": "bank",
        "brand": "Canara Bank",
        "brand:en": "Canara Bank",
        "brand:hi": "केनरा बैंक",
        "brand:kn": "ಕೆನರಾ ಬ್ಯಾಂಕ್",
        "brand:pa": "ਕੇਨਰਾ ਬੈਂਕ",
        "brand:pnb": "کینرا بینک",
        "brand:ur": "کینرا بینک",
        "brand:wikidata": "Q2003777",
        "check_date": "2024-05-19",
        "name": "Canara Bank",
        "name:en": "Canara Bank",
        "name:hi": "केनरा बैंक",
        "name:kn": "ಕೆನರಾ ಬ್ಯಾಂಕ್",
        "name:pa": "ਕੇਨਰਾ ਬੈਂਕ",
        "name:pnb": "کینرا بینک",
        "name:ur": "کینرا بینک"
      }
    },
    {
      "type": "node",
      "id": 11982393482,
      "lat": 12.9962215,
      "lon": 77.6171763,
      "tags": {
        "amenity": "bank",
        "brand": "Jana Small Finance Bank",
        "brand:wikidata": "Q65122274",
        "check_date": "2024-06-15",
        "name": "Jana Small Finance Bank"
      }
    },
    {
      "type": "node",
      "id": 12103825746,
      "lat": 12.9966991,
      "lon": 77.6184919,
      "tags": {
        "check_date": "2024-08-11",
        "name": "New Mahesh Men's Salon",
        "shop": "hairdresser"
      }
    },
    {
      "type": "node",
      "id": 12103825748,
      "lat": 12.9963463,
      "lon": 77.6177673,
      "tags": {
        "check_date": "2024-08-11",
        "name": "Pearls Salon",
        "shop": "beauty"
      }
    },
    {
      "type": "node",
      "id": 12103968915,
      "lat": 12.9969502,
      "lon": 77.6200616,
      "tags": {
        "check_date": "2024-08-11",
        "name": "Kundan Electronics",
        "shop": "electronics"
      }
    },
    {
      "type": "node",
      "id": 12495403807,
      "lat": 12.9985311,
      "lon": 77.620385,
      "tags": {
        "brand": "Nandini",
        "brand:wikidata": "Q124374212",
        "name": "Nandini",
        "shop": "dairy"
      }
    },
    {
      "type": "node",
      "id": 13143950901,
      "lat": 12.9977025,
      "lon": 77.6217069,
      "tags": {
        "addr:housenumber": "114",
        "addr:postcode": "560005",
        "addr:street": "Wheeler Road",
        "name": "Bharat Gas Agency - Manav Enterprises",
        "opening_hours": "Mo-Sa 10:00-17:30",
        "phone": "098804 91280",
        "shop": "gas"
      }
    },
    {
      "type": "node",
      "id": 13290544301,
      "lat": 12.9875972,
      "lon": 77.6208401,
      "tags": {
        "name": "6oz Coffee and Roasters",
        "opening_hours": "Mo-Su 09:00-22:00",
        "phone": "+91 80502 02148",
        "shop": "coffee",
        "website": "http://6oz.coffee"
      }
    },
    {
      "type": "way",
      "id": 138314536,
      "center": {
        "lat": 12.9870764,
        "lon": 77.6195355
      },
      "tags": {
        "leisure": "park"
      }
    },
    {
      "type": "way",
      "id": 217558961,
      "center": {
        "lat": 12.9954933,
        "lon": 77.6180858
      },
      "tags": {
        "leisure": "sports_centre",
        "name": "Indian Gymkhana"
      }
    },
    {
      "type": "way",
      "id": 217558963,
      "center": {
        "lat": 12.9938563,
        "lon": 77.6194601
      },
      "tags": {
        "amenity": "school",
        "name": "St. Aloysius High School"
      }
    },
    {
      "type": "way",
      "id": 217558972,
      "center": {
        "lat": 12.9946242,
        "lon": 77.6188542
      },
      "tags": {
        "leisure": "playground",
        "name": "Clarence High School Playground"
      }
    },
    {
      "type": "way",
      "id": 344643275,
      "center": {
        "lat": 12.9987966,
        "lon": 77.6199599
      },
      "tags": {
        "leisure": "pitch",
        "sport": "tennis"
      }
    },
    {
      "type": "way",
      "id": 346011124,
      "center": {
        "lat": 12.9995594,
        "lon": 77.6201666
      },
      "tags": {
        "amenity": "marketplace"
      }
    },
    {
      "type": "way",
      "id": 346025222,
      "center": {
        "lat": 12.999408,
        "lon": 77.6203085
      },
      "tags": {
        "barrier": "fence",
        "leisure": "park",
        "name": "Sarvagna Park"
      }
    },
    {
      "type": "way",
      "id": 350872983,
      "center": {
        "lat": 12.9981103,
        "lon": 77.6202423
      },
      "tags": {
        "amenity": "place_of_worship",
        "building": "church",
        "building:levels": "2",
        "name": "St Peters Tamil Church",
        "religion": "christian"
      }
    },
    {
      "type": "way",
      "id": 351582432,
      "center": {
        "lat": 12.9969574,
        "lon": 77.6191261
      },
      "tags": {
        "amenity": "recycling",
        "building": "yes",
        "name": "Kamala Refinery",
        "recycling:scrap_metal": "yes",
        "recycling_type": "centre"
      }
    },
    {
      "type": "way",
      "id": 1107016495,
      "center": {
        "lat": 12.9993467,
        "lon": 77.619613
      },
      "tags": {
        "alt_name": "Frazer Town Police Station",
        "amenity": "police",
        "name": "Pulakeshi Nagar Police Station",
        "name:kn": "ಪುಲಕೇಶಿನಗರ ಆರಕ್ಷಕ ಠಾಣೆ"
      }
    },
    {
      "type": "way",
      "id": 1125007550,
      "center": {
        "lat": 12.9921005,
        "lon": 77.6252113
      },
      "tags": {
        "golf:course": "18_hole",
        "landuse": "grass",
        "leisure": "golf_course",
        "name": "MEG Golf Course"
      }
    },
    {
      "type": "way",
      "id": 1217671311,
      "center": {
        "lat": 12.9973095,
        "lon": 77.6212792
      },
      "tags": {
        "amenity": "school",
        "name": "Government First Grade College",
        "name:kn": "ಸರಕಾರಿ ಪ್ರಥಮ ದರ್ಜೆ ಕಾಲೇಜು"
      }
    },
    {
      "type": "way",
      "id": 1235995421,
      "center": {
        "lat": 12.9893901,
        "lon": 77.621104
      },
      "tags": {
        "access": "private",
        "leisure": "pitch",
        "sport": "tennis"
      }
    },
    {
      "type": "way",
      "id": 1267604513,
      "center": {
        "lat": 12.9954087,
        "lon": 77.6178134
      },
      "tags": {
        "leisure": "pitch",
        "sport": "basketball"
      }
    },
    {
      "type": "way",
      "id": 1267604514,
      "center": {
        "lat": 12.9955902,
        "lon": 77.6176384
      },
      "tags": {
        "leisure": "pitch",
        "sport": "tennis"
      }
    },
    {
      "type": "way",
      "id": 1305737836,
      "center": {
        "lat": 12.9899666,
        "lon": 77.6261665
      },
      "tags": {
        "access": "private",
        "leisure": "pitch",
        "sport": "basketball"
      }
    },
    {
      "type": "way",
      "id": 1349194555,
      "center": {
        "lat": 12.9876888,
        "lon": 77.6210655
      },
      "tags": {
        "amenity": "events_venue",
        "building": "yes"
      }
    },
    {
      "type": "way",
      "id": 1350607175,
      "center": {
        "lat": 12.9957881,
        "lon": 77.6186034
      },
      "tags": {
        "access": "customers",
        "amenity": "parking",
        "parking": "surface"
      }
    },
    {
      "type": "way",
      "id": 1350607177,
      "center": {
        "lat": 12.9949693,
        "lon": 77.6194125
      },
      "tags": {
        "amenity": "place_of_worship",
        "landuse": "religious",
        "religion": "hindu"
      }
    },
    {
      "type": "way",
      "id": 1350607179,
      "center": {
        "lat": 12.9984364,
        "lon": 77.6203075
      },
      "tags": {
        "amenity": "marketplace",
        "landuse": "retail",
        "name": "Cox Town Market"
      }
    },
    {
      "type": "way",
      "id": 1350607181,
      "center": {
        "lat": 12.9989578,
        "lon": 77.6199465
      },
      "tags": {
        "amenity": "community_centre",
        "name": "Women's Indian Association"
      }
    },
    {
      "type": "way",
      "id": 1375061408,
      "center": {
        "lat": 12.997406,
        "lon": 77.6176512
      },
      "tags": {
        "addr:city": "Bangalore",
        "addr:postcode": "56005",
        "addr:street": "Buddha Vihar Road",
        "amenity": "place_of_worship",
        "denomination": "tibetan",
        "name": "Buddha Vihar",
        "name:hi": "बुद्धा विहार",
        "name:kn": "ಬುದ್ಧ ವಿಹಾರ್",
        "religion": "buddhist",
        "service_times": "Su 11:00-13:00",
        "start_date": "1907"
      }
    }
  ]
}