{
  "area_name": "Da.Ra. Bendre Ward",
  "osm_id": 19883254,
  "osm_type": "relation",
  "place_type": "administrative",
  "amenity_count": 35,
  "amenities": [
    {
      "type": "node",
      "id": 1348265190,
      "lat": 12.9827809,
      "lon": 77.5592036,
      "tags": {
        "addr:city": "Bengaluru",
        "addr:postcode": "560010",
        "addr:street": "1st Main Road",
        "name": "Total Superstore",
        "organic": "yes",
        "shop": "supermarket",
        "website": "http://www.totalsuperstore.com/"
      }
    },
    {
      "type": "node",
      "id": 1813501241,
      "lat": 12.9831416,
      "lon": 77.5593081,
      "tags": {
        "amenity": "fast_food",
        "brand": "Domino's",
        "brand:ks": "ڈومینوز",
        "brand:pa": "ਡੋਮੀਨੋਜ਼",
        "brand:ur": "ڈومینوز",
        "brand:wikidata": "Q839466",
        "brand:wikipedia": "en:Domino's Pizza",
        "cuisine": "pizza",
        "name": "Domino's",
        "name:kn": "ಡಾಮಿನೋಸ್",
        "name:ks": "ڈومینوز",
        "name:pa": "ਡੋਮੀਨੋਜ਼",
        "name:ur": "ڈومینوز",
        "takeaway": "yes"
      }
    },
    {
      "type": "node",
      "id": 1813501243,
      "lat": 12.9831807,
      "lon": 77.5597454,
      "tags": {
        "amenity": "fast_food",
        "brand": "McDonald's",
        "brand:pa": "ਮੈਕਡੋਨਲਡ’ਜ਼",
        "brand:ur": "مکڈونلڈز",
        "brand:wikidata": "Q38076",
        "brand:wikipedia": "en:McDonald's",
        "brand:wikipedia:pa": "ਮੈਕਡੋਨਲਡ’ਜ਼",
        "brand:wikipedia:ur": "مکڈونلڈز",
        "cuisine": "burger",
        "name": "McDonald's",
        "name:kn": "ಮ್ಯಾಕ್‌ಡೊನಾಲ್ಡ್ಸ್",
        "name:pa": "ਮੈਕਡੋਨਲਡ’ਜ਼",
        "name:ur": "مکڈونلڈز",
        "takeaway": "yes"
      }
    },
    {
      "type": "node",
      "id": 2249052140,
      "lat": 12.9863548,
      "lon": 77.5603215,
      "tags": {
        "brand": "Honda",
        "brand:wikidata": "Q9584",
        "name": "Honda 2 Wheeler Service",
        "shop": "motorcycle"
      }
    },
    {
      "type": "node",
      "id": 2249053699,
      "lat": 12.9810568,
      "lon": 77.5583911,
      "tags": {
        "amenity": "fuel",
        "brand": "Indian Oil",
        "brand:wikidata": "Q1289348",
        "brand:wikipedia": "en:Indian Oil Corporation",
        "name": "Indian Oil",
        "name:kn": "ಇಂಡಿಯನ್ ಆಯಿಲ್",
        "wheelchair": "yes"
      }
    },
    {
      "type": "node",
      "id": 2249055949,
      "lat": 12.9800113,
      "lon": 77.5566101,
      "tags": {
        "amenity": "school",
        "name": "St Ann's School",
        "name:kn": "ಸೆಂಟ್ ಆನ್ಸ್ ಶಾಲೆ",
        "wheelchair": "no"
      }
    },
    {
      "type": "node",
      "id": 2249058820,
      "lat": 12.9776695,
      "lon": 77.5553656,
      "tags": {
        "amenity": "school",
        "name": "St Mira's School"
      }
    },
    {
      "type": "node",
      "id": 2513711691,
      "lat": 12.9829933,
      "lon": 77.5593852,
      "tags": {
        "addr:city": "Bangalore",
        "addr:street": "Dr Rajkumar Road",
        "name": "FBB",
        "name:en": "Fashion at Big Bazar",
        "shop": "clothes",
        "wheelchair": "no"
      }
    },
    {
      "type": "node",
      "id": 2554302336,
      "lat": 12.9843805,
      "lon": 77.5558016,
      "tags": {
        "amenity": "community_centre",
        "name": "KTSVS Rajatha Mahotsava Samudaaya Bhavana"
      }
    },
    {
      "type": "node",
      "id": 2554302473,
      "lat": 12.9846268,
      "lon": 77.5558117,
      "tags": {
        "amenity": "bank",
        "atm": "yes",
        "brand": "State Bank of India",
        "brand:wikidata": "Q1340361",
        "brand:wikipedia": "en:State Bank of India",
        "name": "State Bank of India",
        "name:kn": "ಭಾರತೀಯ ಸ್ಟೇಟ್ ಬ್ಯಾಂಕ್",
        "short_name": "SBI"
      }
    },
    {
      "type": "node",
      "id": 4446322676,
      "lat": 12.9903931,
      "lon": 77.5584441,
      "tags": {
        "addr:city": "bangalore",
        "addr:housenumber": "73",
        "addr:postcode": "560010",
        "addr:street": "Kantha Complex, Dr. Rajkumar Road, 3rd Stage, Rajajinaga",
        "amenity": "restaurant",
        "cuisine": "regional",
        "name": "Kudla beach",
        "opening_hours": "11:30-16:30,18:30-23:00",
        "phone": "080 32409844"
      }
    },
    {
      "type": "node",
      "id": 4446968478,
      "lat": 12.9869612,
      "lon": 77.5602264,
      "tags": {
        "addr:city": "bangalore",
        "addr:housenumber": "2/10",
        "addr:postcode": "560010",
        "addr:street": "Dr Rajkumar Rd, 4N Block",
        "amenity": "pharmacy",
        "name": "Kanva Diagnostics",
        "phone": "+9180 2313 3840",
        "source": "www.yellowpages.co.in",
        "website": "https://kanvadiagnostic.com/"
      }
    },
    {
      "type": "node",
      "id": 4490300851,
      "lat": 12.983366,
      "lon": 77.5591007,
      "tags": {
        "addr:city": "Bangalore",
        "addr:postcode": "560010",
        "addr:street": "Marriott Hotel, Sujatha Circle, Rajajinagar,",
        "name": "Scent Spa",
        "opening_hours": "10:00-23:30",
        "phone": "91)-9742212700",
        "shop": "beauty",
        "website": "https://www.scentlifestyle.com/"
      }
    },
    {
      "type": "node",
      "id": 5402302822,
      "lat": 12.9910874,
      "lon": 77.5580951,
      "tags": {
        "shop": "motorcycle"
      }
    },
    {
      "type": "node",
      "id": 5402307921,
      "lat": 12.9889292,
      "lon": 77.5593177,
      "tags": {
        "amenity": "toilets"
      }
    },
    {
      "type": "node",
      "id": 5623433276,
      "lat": 12.9848766,
      "lon": 77.5559878,
      "tags": {
        "amenity": "college",
        "name": "Rajajinagar PU Degree College"
      }
    },
    {
      "type": "node",
      "id": 5815730353,
      "lat": 12.9821384,
      "lon": 77.5560857,
      "tags": {
        "amenity": "place_of_worship",
        "denomination": "hindu",
        "name": "Temple",
        "name:kn": "ದೇವಸ್ಥಾನ",
        "religion": "hindu",
        "service_times": "07:00-12:00; 16:00-20:30"
      }
    },
    {
      "type": "node",
      "id": 6487165550,
      "lat": 12.9826939,
      "lon": 77.5607271,
      "tags": {
        "amenity": "bank",
        "atm": "yes",
        "brand": "Syndicate Bank",
        "brand:wikidata": "Q2004088",
        "name": "Syndicate Bank",
        "name:kn": "ಸಿಂಡಿಕೇಟ್ ಬ್ಯಾಂಕ್"
      }
    },
    {
      "type": "node",
      "id": 6938690600,
      "lat": 12.9822186,
      "lon": 77.5599374,
      "tags": {
        "addr:district": "Bengaluru Urban",
        "addr:full": "1033,4 Th Block Dr Rajdumar Road",
        "addr:postcode": "560010",
        "addr:state": "Karnataka",
        "amenity": "hospital",
        "name": "Sri Dhavantari Ayurveda Hoapital",
        "source": "OpenGovernmentData"
      }
    },
    {
      "type": "node",
      "id": 7297186445,
      "lat": 12.9812241,
      "lon": 77.5561622,
      "tags": {
        "amenity": "place_of_worship",
        "denomination": "hindu",
        "name": "Temple",
        "name:kn": "ದೇವಸ್ಥಾನ",
        "religion": "hindu",
        "service_times": "07:00-12:00; 16:00-20:30"
      }
    },
    {
      "type": "node",
      "id": 8187929955,
      "lat": 12.990191,
      "lon": 77.560667,
      "tags": {
        "addr:full": "2, Prakash Nagar, Rajajinagar, Bengaluru, Karnataka",
        "addr:state": "Karnataka",
        "amenity": "atm",
        "brand": "Axis Bank",
        "brand:wikidata": "Q2003549",
        "name": "Axis Bank",
        "name:kn": "ಆಕ್ಸಿಸ್ ಬ್ಯಾಂಕ್ ಎಟಿಎಂ",
        "operator": "Axis Bank",
        "operator:wikidata": "Q2003549"
      }
    },
    {
      "type": "node",
      "id": 8187963420,
      "lat": 12.9807621,
      "lon": 77.5585094,
      "tags": {
        "addr:full": "Near-Variar Bakery, 1050 A, SSI Area, 4th M Block, Dr Rajkumar Rd, Rajaji Nagar, 6th Block, Rajajinagar, Bengaluru, Karnataka",
        "addr:state": "Karnataka",
        "amenity": "bank",
        "brand": "Andhra Bank",
        "brand:wikidata": "Q2003476",
        "name": "Andhra Bank",
        "name:kn": "ಆಂಧ್ರ ಬ್ಯಾಂಕ್"
      }
    },
    {
      "type": "node",
      "id": 9870839648,
      "lat": 12.982478,
      "lon": 77.5611357,
      "tags": {
        "name": "Ather",
        "shop": "motorcycle"
      }
    },
    {
      "type": "node",
      "id": 10571126134,
      "lat": 12.9903362,
      "lon": 77.5584987,
      "tags": {
        "addr:city": "Bengaluru",
        "addr:housenumber": "71/61",
        "addr:postcode": "560021",
        "addr:street": "Dr. Rajkumar Road, 3rd Stage, Prakash Nagar, Rajajinagar",
        "name": "Rynox Showroom Rajajinagar",
        "opening_hours": "Mo-Su 11:00-20:00",
        "phone": "07411539955",
        "shop": "motorcycle"
      }
    },
    {
      "type": "node",
      "id": 12985437613,
      "lat": 12.9831667,
      "lon": 77.5604758,
      "tags": {
        "amenity": "clock",
        "display": "analog",
        "faces": "1",
        "support": "pole",
        "visibility": "street"
      }
    },
    {
      "type": "way",
      "id": 166612453,
      "center": {
        "lat": 12.9837431,
        "lon": 77.5566697
      },
      "tags": {
        "alt_name": "Rajajinagar PU and Degree College",
        "amenity": "college",
        "name": "MEI Polytechnic College"
      }
    },
    {
      "type": "way",
      "id": 166612470,
      "center": {
        "lat": 12.9829196,
        "lon": 77.5594515
      },
      "tags": {
        "landuse": "retail",
        "name": "Golden Heights Mall",
        "shop": "mall",
        "wheelchair": "no"
      }
    },
    {
      "type": "way",
      "id": 166612476,
      "center": {
        "lat": 12.9846189,
        "lon": 77.5559879
      },
      "tags": {
        "amenity": "school"
      }
    },
    {
      "type": "way",
      "id": 191035698,
      "center": {
        "lat": 12.9813859,
        "lon": 77.5593257
      },
      "tags": {
        "amenity": "school",
        "name": "SJR School",
        "wheelchair": "limited"
      }
    },
    {
      "type": "way",
      "id": 191035701,
      "center": {
        "lat": 12.9805003,
        "lon": 77.55978
      },
      "tags": {
        "amenity": "school",
        "name": "Venkat International School",
        "wheelchair": "limited"
      }
    },
    {
      "type": "way",
      "id": 348143055,
      "center": {
        "lat": 12.9830781,
        "lon": 77.561042
      },
      "tags": {
        "amenity": "post_office",
        "building": "yes",
        "name": "India Post",
        "name:kn": "ಅಂಚೆ ಕಛೇರಿ",
        "operator": "India Post",
        "operator:wikidata": "Q3519720"
      }
    },
    {
      "type": "way",
      "id": 781588915,
      "center": {
        "lat": 12.9810437,
        "lon": 77.5557619
      },
      "tags": {
        "addr:city": "Bengaluru",
        "addr:country": "IN",
        "addr:district": "Bangalore Urban",
        "addr:housenumber": "176",
        "addr:postcode": "560010",
        "addr:street": "6th Cross Road",
        "addr:suburb": "Rajajinagar",
        "leisure": "sports_centre",
        "name": "Tennis Temple",
        "sport": "tennis",
        "website": "https://tennis360.in"
      }
    },
    {
      "type": "way",
      "id": 851788944,
      "center": {
        "lat": 12.9821724,
        "lon": 77.5612902
      },
      "tags": {
        "addr:city": "Bangalore",
        "addr:street": "Link Road",
        "amenity": "college",
        "name": "SJR College for Women"
      }
    },
    {
      "type": "way",
      "id": 1141353122,
      "center": {
        "lat": 12.9882302,
        "lon": 77.5600393
      },
      "tags": {
        "addr:district": "Bengaluru Urban",
        "addr:full": "1A/87, Dr Rajkumar Road, 4th Block, Rajajinagar",
        "addr:postcode": "560010",
        "addr:state": "Karnataka",
        "addr:street": "Dr Rajkumar Road",
        "amenity": "hospital",
        "emergency": "yes",
        "name": "Suguna Hospital",
        "name:kn": "ಸುಗುಣ ಆಸ್ಪತ್ರೆ",
        "source": "OpenGovernmentData"
      }
    },
    {
      "type": "way",
      "id": 1228264083,
      "center": {
        "lat": 12.9882352,
        "lon": 77.5602774
      },
      "tags": {
        "amenity": "parking",
        "parking": "surface"
      }
    }
  ]
}