{
  "area_name": "Dodda Bidarakallu",
  "osm_id": 19883416,
  "osm_type": "relation",
  "place_type": "administrative",
  "amenity_count": 8,
  "amenities": [
    {
      "type": "node",
      "id": 11276565182,
      "lat": 13.0140808,
      "lon": 77.4961194,
      "tags": {
        "amenity": "fuel",
        "name": "Indian Oil Fuel Station"
      }
    },
    {
      "type": "way",
      "id": 785273431,
      "center": {
        "lat": 13.0507482,
        "lon": 77.4832827
      },
      "tags": {
        "addr:district": "Bengaluru Urban",
        "addr:full": "Jindal Nagar Tumkur Road",
        "addr:postcode": "560073",
        "addr:state": "Karnataka",
        "amenity": "hospital",
        "fixme": "Boundaries and Size of polygon",
        "name": "Jindal Naturecure Institute hospital",
        "source": "OpenGovernmentData"
      }
    },
    {
      "type": "way",
      "id": 1202361063,
      "center": {
        "lat": 13.0296909,
        "lon": 77.4959252
      },
      "tags": {
        "amenity": "monastery",
        "name": "Kentenich Vidhyaniketan",
        "religion": "christian"
      }
    },
    {
      "type": "way",
      "id": 1202361065,
      "center": {
        "lat": 13.0324851,
        "lon": 77.4983257
      },
      "tags": {
        "leisure": "park"
      }
    },
    {
      "type": "way",
      "id": 1202361066,
      "center": {
        "lat": 13.0322107,
        "lon": 77.4982077
      },
      "tags": {
        "amenity": "place_of_worship",
        "landuse": "religious",
        "religion": "hindu"
      }
    },
    {
      "type": "way",
      "id": 1336988685,
      "center": {
        "lat": 13.0287378,
        "lon": 77.4956837
      },
      "tags": {
        "amenity": "school",
        "name": "Ganga International School"
      }
    },
    {
      "type": "way",
      "id": 1383925436,
      "center": {
        "lat": 13.0251142,
        "lon": 77.494361
      },
      "tags": {
        "amenity": "school"
      }
    },
    {
      "type": "way",
      "id": 1384707727,
      "center": {
        "lat": 13.0289201,
        "lon": 77.4889457
      },
      "tags": {
        "amenity": "school"
      }
    }
  ]
}