{
  "area_name": "Domluru",
  "osm_id": 19883411,
  "osm_type": "relation",
  "place_type": "administrative",
  "amenity_count": 307,
  "amenities": [
    {
      "type": "node",
      "id": 309690273,
      "lat": 12.9604812,
      "lon": 77.6385098,
      "tags": {
        "amenity": "atm",
        "brand": "IDBI Bank",
        "brand:wikidata": "Q3633485",
        "name": "IDBI Bank",
        "operator": "IDBI Bank",
        "operator:wikidata": "Q3633485",
        "short_name": "IDBI"
      }
    },
    {
      "type": "node",
      "id": 312503506,
      "lat": 12.9606568,
      "lon": 77.6385011,
      "tags": {
        "amenity": "restaurant",
        "food": "veg",
        "name": "Shanti Sagar",
        "name:kn": "ಶಾಂತಿ ಸಾಗರ"
      }
    },
    {
      "type": "node",
      "id": 312504711,
      "lat": 12.9588137,
      "lon": 77.6382484,
      "tags": {
        "name": "Family Mall",
        "opening_hours": "Mo-Su,PH 08:00-22:00",
        "shop": "supermarket"
      }
    },
    {
      "type": "node",
      "id": 312504777,
      "lat": 12.9591813,
      "lon": 77.6382984,
      "tags": {
        "addr:city": "Bangalore",
        "addr:postcode": "560071",
        "addr:street": "7th Cross Road",
        "name": "Spencers Express",
        "organic": "yes",
        "shop": "supermarket",
        "website": "https://www.spencers.in/"
      }
    },
    {
      "type": "node",
      "id": 312504798,
      "lat": 12.9595527,
      "lon": 77.638381,
      "tags": {
        "brand": "More",
        "brand:wikidata": "Q6910891",
        "name": "More",
        "name:kn": "ಮೋರ್",
        "opening_hours": "Mo-Su,PH 09:00-21:00",
        "shop": "supermarket"
      }
    },
    {
      "type": "node",
      "id": 312504927,
      "lat": 12.9593353,
      "lon": 77.6385869,
      "tags": {
        "amenity": "fast_food",
        "food": "veg",
        "name": "Srinidhi Sagar",
        "name:kn": "ಶ್ರೀನಿಧಿ ಸಾಗರ"
      }
    },
    {
      "type": "node",
      "id": 312506295,
      "lat": 12.9621752,
      "lon": 77.6373877,
      "tags": {
        "shop": "supermarket"
      }
    },
    {
      "type": "node",
      "id": 312507443,
      "lat": 12.9601717,
      "lon": 77.6387672,
      "tags": {
        "amenity": "pharmacy",
        "created_by": "Potlatch 0.10f"
      }
    },
    {
      "type": "node",
      "id": 312507653,
      "lat": 12.9603255,
      "lon": 77.638371,
      "tags": {
        "amenity": "pharmacy"
      }
    },
    {
      "type": "node",
      "id": 312595359,
      "lat": 12.9559416,
      "lon": 77.6412371,
      "tags": {
        "amenity": "restaurant",
        "brand": "Pizza Hut",
        "brand:wikidata": "Q191615",
        "cuisine": "pizza",
        "name": "Pizza Hut",
        "name:kn": "ಪಿಜಾ ಹಟ್"
      }
    },
    {
      "type": "node",
      "id": 312595492,
      "lat": 12.9558995,
      "lon": 77.6411692,
      "tags": {
        "amenity": "restaurant",
        "name": "Nandhana",
        "name:kn": "ನಂದನ"
      }
    },
    {
      "type": "node",
      "id": 312599850,
      "lat": 12.9608935,
      "lon": 77.6359498,
      "tags": {
        "amenity": "post_office",
        "name": "Domlur Post office",
        "name:kn": "ದೊಮಲೂರು ಅಂಚೆ ಕಚೇರಿ",
        "postal_code": "560071"
      }
    },
    {
      "type": "node",
      "id": 312832762,
      "lat": 12.9621887,
      "lon": 77.6363771,
      "tags": {
        "created_by": "Potlatch 0.10f",
        "shop": "bicycle"
      }
    },
    {
      "type": "node",
      "id": 315524768,
      "lat": 12.9602773,
      "lon": 77.6373781,
      "tags": {
        "amenity": "bank",
        "atm": "yes",
        "name": "Vijaya Bank",
        "name:kn": "ವಿಜಯ ಬ್ಯಾಂಕು"
      }
    },
    {
      "type": "node",
      "id": 316111336,
      "lat": 12.9606833,
      "lon": 77.6381838,
      "tags": {
        "amenity": "bank",
        "atm": "yes",
        "brand": "Union Bank of India",
        "brand:wikidata": "Q2004078",
        "brand:wikipedia": "en:Union Bank of India",
        "name": "Union Bank of India",
        "name:en": "Union Bank of India",
        "name:kn": "ಯೂನಿಯನ್ ಬ್ಯಾಂಕ್",
        "short_name": "UBI",
        "website": "https://www.unionbankofindia.co.in/"
      }
    },
    {
      "type": "node",
      "id": 316996413,
      "lat": 12.9605409,
      "lon": 77.6372314,
      "tags": {
        "amenity": "pharmacy",
        "brand": "MedPlus",
        "brand:wikidata": "Q65684234",
        "healthcare": "pharmacy",
        "name": "MedPlus",
        "name:kn": "ಮೆಡ್ ಪ್ಲಸ್"
      }
    },
    {
      "type": "node",
      "id": 316996472,
      "lat": 12.9600511,
      "lon": 77.6371358,
      "tags": {
        "amenity": "pharmacy",
        "created_by": "Potlatch 0.10f"
      }
    },
    {
      "type": "node",
      "id": 316996475,
      "lat": 12.9586589,
      "lon": 77.6375328,
      "tags": {
        "amenity": "pharmacy",
        "created_by": "Potlatch 0.10f"
      }
    },
    {
      "type": "node",
      "id": 316996550,
      "lat": 12.9581727,
      "lon": 77.6402029,
      "tags": {
        "amenity": "pharmacy"
      }
    },
    {
      "type": "node",
      "id": 316999234,
      "lat": 12.9651393,
      "lon": 77.6383211,
      "tags": {
        "addr:street": "Paramahansa Yogananda Road",
        "amenity": "restaurant",
        "name": "Simply Native"
      }
    },
    {
      "type": "node",
      "id": 316999364,
      "lat": 12.9637134,
      "lon": 77.6403936,
      "tags": {
        "addr:street": "Indiranagar Double Road",
        "amenity": "fast_food",
        "brand": "Subway",
        "brand:pa": "ਸਬਵੇਅ",
        "brand:ur": "سب وے",
        "brand:wikidata": "Q244457",
        "brand:wikipedia": "en:Subway (restaurant)",
        "cuisine": "sandwich",
        "name": "Subway",
        "name:kn": "ಸಬ್‌ವೇ",
        "name:pa": "ਸਬਵੇਅ",
        "name:ur": "سب وے",
        "takeaway": "yes"
      }
    },
    {
      "type": "node",
      "id": 577386395,
      "lat": 12.9603346,
      "lon": 77.6382904,
      "tags": {
        "amenity": "restaurant",
        "food": "nveg",
        "name": "MintLeaf",
        "name:kn": "ಮಿಂಟ್ ಲೀಫ್"
      }
    },
    {
      "type": "node",
      "id": 710095029,
      "lat": 12.9643756,
      "lon": 77.6371873,
      "tags": {
        "addr:street": "4th Main Road",
        "amenity": "bar",
        "name": "Domlur Club"
      }
    },
    {
      "type": "node",
      "id": 736014185,
      "lat": 12.9622135,
      "lon": 77.6414116,
      "tags": {
        "addr:street": "100 Feet Road( S K Karim Khan Road)",
        "amenity": "restaurant",
        "name": "Barbeque Nation",
        "name:kn": "ಬರ್ಬಕ್ಯೂ ನೇಶನ್",
        "wheelchair": "limited"
      }
    },
    {
      "type": "node",
      "id": 739931005,
      "lat": 12.958125,
      "lon": 77.64049,
      "tags": {
        "shop": "butcher"
      }
    },
    {
      "type": "node",
      "id": 767436684,
      "lat": 12.9602685,
      "lon": 77.6401315,
      "tags": {
        "amenity": "community_centre",
        "name": "Central Govt Community Hall"
      }
    },
    {
      "type": "node",
      "id": 1420058964,
      "lat": 12.9640379,
      "lon": 77.6406718,
      "tags": {
        "amenity": "bar",
        "name": "Roadtrip",
        "wheelchair": "yes"
      }
    },
    {
      "type": "node",
      "id": 1420066677,
      "lat": 12.964528,
      "lon": 77.6396738,
      "tags": {
        "shop": "bakery"
      }
    },
    {
      "type": "node",
      "id": 1420105723,
      "lat": 12.9638721,
      "lon": 77.6400982,
      "tags": {
        "amenity": "bank",
        "atm": "yes",
        "check_date": "2023-10-08",
        "name": "Maha Bank"
      }
    },
    {
      "type": "node",
      "id": 1473330316,
      "lat": 12.9519422,
      "lon": 77.6397478,
      "tags": {
        "amenity": "restaurant",
        "brand": "Barbeque Nation",
        "brand:wikidata": "Q4859568",
        "cuisine": "barbecue",
        "name": "Barbeque Nation",
        "name:kn": "ಬರ್ಬಕ್ಯು ನೇಶನ್"
      }
    },
    {
      "type": "node",
      "id": 1473330341,
      "lat": 12.9526958,
      "lon": 77.640104,
      "tags": {
        "amenity": "restaurant",
        "cuisine": "international",
        "name": "Tandoori Hipple",
        "name:kn": "ತಂದೂರಿ ಹಿಪ್ಪಲ್"
      }
    },
    {
      "type": "node",
      "id": 1473330359,
      "lat": 12.9525546,
      "lon": 77.6400289,
      "tags": {
        "amenity": "restaurant",
        "cuisine": "international",
        "name": "LoveShack",
        "name:kn": "ಲವ್‌ಶಕ್"
      }
    },
    {
      "type": "node",
      "id": 1598949024,
      "lat": 12.952399,
      "lon": 77.6400371,
      "tags": {
        "amenity": "restaurant",
        "diet:vegetarian": "only",
        "name": "Mast Kalandar",
        "name:kn": "ಮಸ್ತ್ ಕಲಂದರ್"
      }
    },
    {
      "type": "node",
      "id": 1655553583,
      "lat": 12.9657761,
      "lon": 77.6365089,
      "tags": {
        "name": "Anveshanam",
        "shop": "travel_agency"
      }
    },
    {
      "type": "node",
      "id": 1655556504,
      "lat": 12.9653458,
      "lon": 77.6380532,
      "tags": {
        "amenity": "nursing_home",
        "name": "Enhanced Healthcare"
      }
    },
    {
      "type": "node",
      "id": 1655556505,
      "lat": 12.965378,
      "lon": 77.6379902,
      "tags": {
        "leisure": "fitness_centre",
        "name": "Fitness One",
        "name:hi": "फिटनेस वन",
        "name:kn": "ಫಿಟ್ ನೆಸ್ ಒನ್"
      }
    },
    {
      "type": "node",
      "id": 1655556669,
      "lat": 12.9649785,
      "lon": 77.6385321,
      "tags": {
        "addr:street": "Paramahansa Yogananda Road",
        "amenity": "restaurant",
        "cuisine": "indian",
        "name": "Nandhini",
        "name:kn": "ನಂದಿನಿ"
      }
    },
    {
      "type": "node",
      "id": 1659137304,
      "lat": 12.9582464,
      "lon": 77.6412466,
      "tags": {
        "amenity": "pharmacy",
        "brand": "Apollo Pharmacy",
        "brand:wikidata": "Q62562612",
        "dispensing": "no",
        "healthcare": "pharmacy",
        "name": "Apollo Pharmacy",
        "name:kn": "ಅಪೋಲೋ ಫಾರ್ಮಸಿ",
        "opening_hours": "Mo-Fr 08:30-20:00"
      }
    },
    {
      "type": "node",
      "id": 1659137306,
      "lat": 12.9581147,
      "lon": 77.6411293,
      "tags": {
        "name": "White Collar",
        "opening_hours": "Mo-Fr 08:30-20:00",
        "shop": "laundry"
      }
    },
    {
      "type": "node",
      "id": 1780091262,
      "lat": 12.9632602,
      "lon": 77.6383855,
      "tags": {
        "addr:housenumber": "1",
        "addr:street": "2nd Cross Road",
        "amenity": "place_of_worship",
        "name": "Amma Bagavan Manava Seva Samiti",
        "religion": "hindu"
      }
    },
    {
      "type": "node",
      "id": 1857028750,
      "lat": 12.9683415,
      "lon": 77.638885,
      "tags": {
        "brand": "HOPCOMS",
        "brand:wikidata": "Q22908959",
        "name": "HOPCOMS",
        "name:kn": "ಹಾಪ್ ಕಾಮ್ಸ್",
        "shop": "greengrocer"
      }
    },
    {
      "type": "node",
      "id": 1857042208,
      "lat": 12.9683642,
      "lon": 77.6397574,
      "tags": {
        "name": "Best Bakes",
        "shop": "bakery"
      }
    },
    {
      "type": "node",
      "id": 1902297692,
      "lat": 12.9569217,
      "lon": 77.6416898,
      "tags": {
        "amenity": "bank",
        "atm": "yes",
        "brand": "HDFC Bank",
        "brand:wikidata": "Q631047",
        "brand:wikipedia": "en:HDFC Bank",
        "name": "HDFC Bank",
        "name:kn": "ಎಚ್ ಡಿ ಎಫ್ ಸಿ",
        "short_name": "HDFC",
        "source": "survey",
        "website": "https://www.hdfcbank.com"
      }
    },
    {
      "type": "node",
      "id": 3016052469,
      "lat": 12.9520131,
      "lon": 77.6398096,
      "tags": {
        "amenity": "bank",
        "atm": "no",
        "brand": "Punjab National Bank",
        "brand:wikidata": "Q2743499",
        "name": "Punjab National Bank",
        "name:en": "Punjab National Bank",
        "name:kn": "ಪಂಜಾಬ ರಾಷ್ಟ್ರೀಯ ಬ್ಯಾಂಕ್",
        "operator": "Punjab National Bank",
        "short_name": "PNB",
        "source": "survey",
        "website": "https://www.pnbindia.in"
      }
    },
    {
      "type": "node",
      "id": 3016090363,
      "lat": 12.956002,
      "lon": 77.6416096,
      "tags": {
        "amenity": "restaurant",
        "cuisine": "indian;regional",
        "name": "Paramount",
        "name:kn": "ಚೊಕಿ ದಾನಿ"
      }
    },
    {
      "type": "node",
      "id": 3198716241,
      "lat": 12.9661149,
      "lon": 77.6363934,
      "tags": {
        "addr:street": "3rd Cross Road",
        "amenity": "clinic",
        "name": "Ojus Medicare"
      }
    },
    {
      "type": "node",
      "id": 3198716242,
      "lat": 12.9661911,
      "lon": 77.636518,
      "tags": {
        "addr:street": "3rd Cross Road",
        "amenity": "kindergarten",
        "name": "Rainbow Playschool"
      }
    },
    {
      "type": "node",
      "id": 3199710591,
      "lat": 12.9625424,
      "lon": 77.637545,
      "tags": {
        "brand": "HOPCOMS",
        "brand:wikidata": "Q22908959",
        "name": "HOPCOMS",
        "name:kn": "ಹಾಪ್ ಕಾಮ್ಸ್",
        "shop": "greengrocer"
      }
    },
    {
      "type": "node",
      "id": 3199710592,
      "lat": 12.9625573,
      "lon": 77.6376424,
      "tags": {
        "brand": "Nandini",
        "name": "Nandini",
        "name:kn": "ನಂದಿನಿ",
        "shop": "dairy"
      }
    },
    {
      "type": "node",
      "id": 3280223481,
      "lat": 12.9671468,
      "lon": 77.6412417,
      "tags": {
        "amenity": "pub",
        "contact:instagram": "senditbob",
        "delivery": "yes",
        "name": "Bob's Bar",
        "outdoor_seating": "yes",
        "takeaway": "yes",
        "toilets": "yes"
      }
    },
    {
      "type": "node",
      "id": 3379967922,
      "lat": 12.9607436,
      "lon": 77.6389824,
      "tags": {
        "name": "Bike Puncture repair shop",
        "opening_hours": "09:00-22:00",
        "operator": "Thoushif",
        "phone": "+91 8197310004",
        "shop": "bicycle"
      }
    },
    {
      "type": "node",
      "id": 3401269524,
      "lat": 12.956519,
      "lon": 77.6425504,
      "tags": {
        "amenity": "veterinary",
        "name": "Cessna Lifeline Veterinary care clinic"
      }
    },
    {
      "type": "node",
      "id": 3453556764,
      "lat": 12.95904,
      "lon": 77.6382864,
      "tags": {
        "amenity": "restaurant",
        "name": "Annapurna",
        "name:kn": "ಅನ್ನಪೂರ್ಣ"
      }
    },
    {
      "type": "node",
      "id": 3453556766,
      "lat": 12.9581787,
      "lon": 77.6382254,
      "tags": {
        "amenity": "car_rental",
        "name": "Adithya Travels"
      }
    },
    {
      "type": "node",
      "id": 3453556767,
      "lat": 12.9604494,
      "lon": 77.636423,
      "tags": {
        "name": "Ceekay",
        "shop": "supermarket"
      }
    },
    {
      "type": "node",
      "id": 3453556768,
      "lat": 12.9598751,
      "lon": 77.6384088,
      "tags": {
        "amenity": "bank",
        "brand": "Corporation Bank",
        "brand:wikidata": "Q2003387",
        "brand:wikipedia": "en:Corporation Bank",
        "name": "Corporation Bank",
        "name:en": "Corporation Bank",
        "name:kn": "ಕಾರ್ಪರೇಷನ್ ಬ್ಯಾಂಕ್",
        "website": "https://corpbank.com/"
      }
    },
    {
      "type": "node",
      "id": 3453556770,
      "lat": 12.9589102,
      "lon": 77.6382683,
      "tags": {
        "amenity": "driving_school",
        "name": "Manasa Mandhara"
      }
    },
    {
      "type": "node",
      "id": 3453556771,
      "lat": 12.9593929,
      "lon": 77.6383584,
      "tags": {
        "amenity": "atm",
        "brand": "Axis Bank",
        "brand:wikidata": "Q2003549",
        "name": "Axis Bank ATM",
        "name:kn": "ಆಕ್ಸಿಸ್ ಬ್ಯಾಂಕ್",
        "operator": "Axis Bank",
        "operator:wikidata": "Q2003549"
      }
    },
    {
      "type": "node",
      "id": 3453556772,
      "lat": 12.9594282,
      "lon": 77.6383636,
      "tags": {
        "amenity": "bank",
        "brand": "ICICI Bank",
        "brand:wikidata": "Q1653258",
        "name": "ICICI Bank",
        "name:kn": "ಐಸಿಐಸಿಐ ಬ್ಯಾಂಕ್",
        "short_name": "ICICI"
      }
    },
    {
      "type": "node",
      "id": 3453556773,
      "lat": 12.9564333,
      "lon": 77.6379839,
      "tags": {
        "name": "Top In Town",
        "shop": "supermarket"
      }
    },
    {
      "type": "node",
      "id": 3453556774,
      "lat": 12.9603801,
      "lon": 77.6367912,
      "tags": {
        "name": "Sri Kanaka",
        "shop": "convenience"
      }
    },
    {
      "type": "node",
      "id": 3453556775,
      "lat": 12.9603147,
      "lon": 77.6371987,
      "tags": {
        "amenity": "restaurant",
        "name": "Kerela Pavilion"
      }
    },
    {
      "type": "node",
      "id": 3453556776,
      "lat": 12.9587021,
      "lon": 77.6384108,
      "tags": {
        "amenity": "pharmacy",
        "name": "Ram Medicals"
      }
    },
    {
      "type": "node",
      "id": 3453556777,
      "lat": 12.9593777,
      "lon": 77.638355,
      "tags": {
        "amenity": "atm",
        "brand": "ICICI Bank",
        "brand:wikidata": "Q1653258",
        "name": "ICICI Bank",
        "name:kn": "ಐಸಿಐಸಿಐ ಬ್ಯಾಂಕ್",
        "operator": "ICICI Bank",
        "operator:wikidata": "Q1653258",
        "short_name": "ICICI"
      }
    },
    {
      "type": "node",
      "id": 3453556779,
      "lat": 12.9602091,
      "lon": 77.6382314,
      "tags": {
        "name": "Glamour",
        "shop": "beauty"
      }
    },
    {
      "type": "node",
      "id": 3453556780,
      "lat": 12.9582908,
      "lon": 77.6382738,
      "tags": {
        "amenity": "pharmacy",
        "name": "Sri Balaji Medicals"
      }
    },
    {
      "type": "node",
      "id": 3453556781,
      "lat": 12.9593491,
      "lon": 77.6383498,
      "tags": {
        "amenity": "bank",
        "brand": "HDFC Bank",
        "brand:wikidata": "Q631047",
        "name": "HDFC Bank",
        "name:kn": "ಎಚ್ ಡಿ ಎಫ್ ಸಿ",
        "short_name": "HDFC"
      }
    },
    {
      "type": "node",
      "id": 3453556782,
      "lat": 12.9561948,
      "lon": 77.6376138,
      "tags": {
        "amenity": "school",
        "name": "Bangalore Montessori High School"
      }
    },
    {
      "type": "node",
      "id": 3453556783,
      "lat": 12.9604518,
      "lon": 77.6369417,
      "tags": {
        "amenity": "clinic",
        "name": "Dr Thomas"
      }
    },
    {
      "type": "node",
      "id": 3453556785,
      "lat": 12.9602449,
      "lon": 77.6378691,
      "tags": {
        "amenity": "dentist",
        "name": "Kanaka"
      }
    },
    {
      "type": "node",
      "id": 3453556787,
      "lat": 12.9600655,
      "lon": 77.6385214,
      "tags": {
        "name": "Mahindra showroom",
        "name:kn": "ಮಹಿಂದ್ರ",
        "shop": "motorcycle"
      }
    },
    {
      "type": "node",
      "id": 3453556788,
      "lat": 12.9582691,
      "lon": 77.6383457,
      "tags": {
        "name": "First Avenue",
        "shop": "beauty"
      }
    },
    {
      "type": "node",
      "id": 3453556789,
      "lat": 12.9592176,
      "lon": 77.6385092,
      "tags": {
        "amenity": "restaurant",
        "name": "Under The Tree"
      }
    },
    {
      "type": "node",
      "id": 3453556790,
      "lat": 12.9552332,
      "lon": 77.6374003,
      "tags": {
        "amenity": "school",
        "name": "K.R.L.S. Patel Rama Reddy English High School"
      }
    },
    {
      "type": "node",
      "id": 3453556791,
      "lat": 12.9599473,
      "lon": 77.6384148,
      "tags": {
        "amenity": "dentist",
        "name": "Aadhi"
      }
    },
    {
      "type": "node",
      "id": 3453558193,
      "lat": 12.9591069,
      "lon": 77.6383016,
      "tags": {
        "amenity": "restaurant",
        "name": "Tamarind House"
      }
    },
    {
      "type": "node",
      "id": 3453558194,
      "lat": 12.9596492,
      "lon": 77.6383775,
      "tags": {
        "amenity": "atm",
        "brand": "Axis Bank",
        "brand:wikidata": "Q2003549",
        "name": "Axis Bank",
        "name:kn": "ಅಕ್ಸಿಸ್ ಬ್ಯಾಂಕ್",
        "operator": "Axis Bank",
        "operator:wikidata": "Q2003549"
      }
    },
    {
      "type": "node",
      "id": 3453558195,
      "lat": 12.9577479,
      "lon": 77.6382507,
      "tags": {
        "amenity": "bank",
        "brand": "Canara Bank",
        "brand:en": "Canara Bank",
        "brand:hi": "केनरा बैंक",
        "brand:kn": "ಕೆನರಾ ಬ್ಯಾಂಕ್",
        "brand:pa": "ਕੇਨਰਾ ਬੈਂਕ",
        "brand:pnb": "کینرا بینک",
        "brand:ur": "کینرا بینک",
        "brand:wikidata": "Q2003777",
        "brand:wikipedia": "en:Canara Bank",
        "brand:wikipedia:pa": "ਕੇਨਰਾ ਬੈਂਕ",
        "name": "Canara Bank",
        "name:en": "Canara Bank",
        "name:hi": "केनरा बैंक",
        "name:kn": "ಕೆನರಾ ಬ್ಯಾಂಕ್",
        "name:pa": "ਕੇਨਰਾ ਬੈਂਕ",
        "name:pnb": "کینرا بینک",
        "name:ur": "کینرا بینک",
        "website": "https://www.canarabank.com/"
      }
    },
    {
      "type": "node",
      "id": 3476877519,
      "lat": 12.9617214,
      "lon": 77.6366258,
      "tags": {
        "amenity": "bank",
        "brand": "State Bank of India",
        "brand:wikidata": "Q1340361",
        "brand:wikipedia": "en:State Bank of India",
        "name": "State Bank of India",
        "name:kn": "ಭಾರತೀಯ ಸ್ಟೇಟ್ ಬ್ಯಾಂಕ್",
        "short_name": "SBI"
      }
    },
    {
      "type": "node",
      "id": 3476887094,
      "lat": 12.9614661,
      "lon": 77.6364411,
      "tags": {
        "check_date": "2025-08-23",
        "name": "LJ Iyenger Bakery",
        "shop": "bakery"
      }
    },
    {
      "type": "node",
      "id": 3490212705,
      "lat": 12.9606881,
      "lon": 77.6380422,
      "tags": {
        "check_date": "2023-11-12",
        "name": "Vinayak Yamaha",
        "shop": "motorcycle",
        "source": "survey"
      }
    },
    {
      "type": "node",
      "id": 3497321172,
      "lat": 12.9548048,
      "lon": 77.641826,
      "tags": {
        "name": "Ganesh Juice Center",
        "shop": "beverages",
        "wheelchair": "no"
      }
    },
    {
      "type": "node",
      "id": 3497321173,
      "lat": 12.9548274,
      "lon": 77.6415855,
      "tags": {
        "amenity": "restaurant",
        "cuisine": "indian;regional",
        "description": "Veg food from North India",
        "name": "Mast Kalandar",
        "name:kn": "ಮಸ್ತ್ ಕಲಂದರ್",
        "opening_hours": "08:30-12:30,15:30-22:00",
        "smoking": "no"
      }
    },
    {
      "type": "node",
      "id": 3497347363,
      "lat": 12.9553777,
      "lon": 77.6418351,
      "tags": {
        "amenity": "kindergarten",
        "name": "Klay prep school and daycare"
      }
    },
    {
      "type": "node",
      "id": 3497347364,
      "lat": 12.9559864,
      "lon": 77.6419553,
      "tags": {
        "brand": "TVS",
        "brand:wikidata": "Q3300084",
        "motorcycle:parts": "yes",
        "motorcycle:rental": "yes",
        "motorcycle:repair": "yes",
        "motorcycle:safety_inspection": "yes",
        "motorcycle:sales": "yes;used",
        "name": "Tristar TVS Spares and Service",
        "name:kn": "ಟ್ರೈಸ್ಟಾರ್ ಟಿವಿಎಸ್",
        "opening_hours": "08:30-12:30,15:30-20:00",
        "second_hand": "yes",
        "shop": "motorcycle"
      }
    },
    {
      "type": "node",
      "id": 3497378218,
      "lat": 12.9582235,
      "lon": 77.6415281,
      "tags": {
        "amenity": "restaurant",
        "cuisine": "regional",
        "internet_access": "no",
        "internet_access:fee": "no",
        "name": "Ambur Biriyani",
        "name:kn": "ಅಂಬುರ್ ಬಿರಿಯಾನಿ"
      }
    },
    {
      "type": "node",
      "id": 3497378219,
      "lat": 12.95771,
      "lon": 77.6416441,
      "tags": {
        "amenity": "restaurant",
        "description": "Resturant and Bar",
        "name": "Chef Inn Regency",
        "name:kn": "ಚೆಫ್ ಇನ್ ರೆಜೆನ್ಸಿ"
      }
    },
    {
      "type": "node",
      "id": 3497378220,
      "lat": 12.9567381,
      "lon": 77.6416565,
      "tags": {
        "brand": "Jeep",
        "brand:wikidata": "Q30113",
        "name": "Jeep Showroom",
        "shop": "car"
      }
    },
    {
      "type": "node",
      "id": 3497378221,
      "lat": 12.9579315,
      "lon": 77.6415049,
      "tags": {
        "amenity": "fast_food",
        "cuisine": "indian;regional",
        "internet_access": "no",
        "internet_access:fee": "no",
        "name": "Kolkatta Kati Roll",
        "name:kn": "ಕೊಲ್ಕತ್ತ ಕಟಿ ರೋಲ್",
        "smoking": "yes"
      }
    },
    {
      "type": "node",
      "id": 3497378222,
      "lat": 12.9580508,
      "lon": 77.641507,
      "tags": {
        "amenity": "cafe",
        "internet_access": "no",
        "internet_access:fee": "no",
        "name": "Shabari Tea Stall",
        "name:kn": "ಶಬರಿ ಟೀ ಸ್ಟಾಲ್",
        "smoking": "yes"
      }
    },
    {
      "type": "node",
      "id": 3497378223,
      "lat": 12.9574216,
      "lon": 77.6416652,
      "tags": {
        "brand": "Tata Motors",
        "name": "Tata Motors Showroom",
        "name:kn": "ಟಾಟಾ ಮೋಟರ್ಸ್",
        "shop": "car"
      }
    },
    {
      "type": "node",
      "id": 3504968228,
      "lat": 12.9606563,
      "lon": 77.6383304,
      "tags": {
        "name": "Lakshmi Silk Palace",
        "shop": "clothes"
      }
    },
    {
      "type": "node",
      "id": 3504968229,
      "lat": 12.9606532,
      "lon": 77.6383744,
      "tags": {
        "name": "Lakshmi Golds Palace",
        "shop": "jewelry"
      }
    },
    {
      "type": "node",
      "id": 3506436513,
      "lat": 12.9648261,
      "lon": 77.6382967,
      "tags": {
        "addr:street": "2nd A Cross",
        "amenity": "kindergarten",
        "name": "Maple Bear"
      }
    },
    {
      "type": "node",
      "id": 3727147612,
      "lat": 12.9651581,
      "lon": 77.6412777,
      "tags": {
        "amenity": "pub",
        "name": "Aquila Bar"
      }
    },
    {
      "type": "node",
      "id": 3727147613,
      "lat": 12.9641752,
      "lon": 77.6413104,
      "tags": {
        "amenity": "restaurant",
        "name": "Barbeque Factory"
      }
    },
    {
      "type": "node",
      "id": 3727147615,
      "lat": 12.96597,
      "lon": 77.6412101,
      "tags": {
        "amenity": "pub",
        "name": "21st Amendment"
      }
    },
    {
      "type": "node",
      "id": 3727147616,
      "lat": 12.9626968,
      "lon": 77.6414051,
      "tags": {
        "addr:street": "100 Feet Road( S K Karim Khan Road)",
        "name": "Creative Jewels",
        "shop": "jewelry"
      }
    },
    {
      "type": "node",
      "id": 3727147617,
      "lat": 12.9664679,
      "lon": 77.641215,
      "tags": {
        "name": "Flying Machine",
        "shop": "clothes"
      }
    },
    {
      "type": "node",
      "id": 3727147618,
      "lat": 12.9670338,
      "lon": 77.6411346,
      "tags": {
        "name": "LaBOF",
        "shop": "clothes"
      }
    },
    {
      "type": "node",
      "id": 3727147619,
      "lat": 12.9676315,
      "lon": 77.6411313,
      "tags": {
        "name": "Lee",
        "name:kn": "ಲೀ",
        "shop": "clothes"
      }
    },
    {
      "type": "node",
      "id": 3727147620,
      "lat": 12.9643459,
      "lon": 77.6413254,
      "tags": {
        "branch": "com",
        "brand": "Lenskart",
        "brand:wikidata": "Q17068753",
        "name": "Lenskart",
        "shop": "optician",
        "wheelchair": "limited"
      }
    },
    {
      "type": "node",
      "id": 3727147621,
      "lat": 12.9674604,
      "lon": 77.6411657,
      "tags": {
        "brand": "Levi's",
        "brand:wikidata": "Q127962",
        "clothes": "denim;men;women",
        "name": "Levi's",
        "name:kn": "ಲೆವಿಸ್",
        "shop": "clothes",
        "wheelchair": "limited"
      }
    },
    {
      "type": "node",
      "id": 3727147622,
      "lat": 12.9651732,
      "lon": 77.6412777,
      "tags": {
        "check_date": "2023-10-08",
        "name": "Maharaja's Furniture",
        "shop": "furniture"
      }
    },
    {
      "type": "node",
      "id": 3727147623,
      "lat": 12.9659502,
      "lon": 77.6412101,
      "tags": {
        "amenity": "cafe",
        "name": "News Cafe"
      }
    },
    {
      "type": "node",
      "id": 3727147624,
      "lat": 12.9658097,
      "lon": 77.6412537,
      "tags": {
        "name": "Park Avenue",
        "shop": "clothes"
      }
    },
    {
      "type": "node",
      "id": 3727148125,
      "lat": 12.9641898,
      "lon": 77.6413104,
      "tags": {
        "name": "Pepperfry",
        "shop": "furniture"
      }
    },
    {
      "type": "node",
      "id": 3727148126,
      "lat": 12.9659936,
      "lon": 77.6412082,
      "tags": {
        "brand": "Peter England",
        "brand:wikidata": "Q19573665",
        "clothes": "men",
        "name": "Peter England",
        "shop": "clothes"
      }
    },
    {
      "type": "node",
      "id": 3727148127,
      "lat": 12.9673327,
      "lon": 77.6411618,
      "tags": {
        "amenity": "pub",
        "name": "Watson's",
        "payment:credit_cards": "yes",
        "payment:debit_cards": "yes",
        "smoking": "separated"
      }
    },
    {
      "type": "node",
      "id": 3727148128,
      "lat": 12.9673045,
      "lon": 77.6411621,
      "tags": {
        "addr:city": "Bangalore",
        "addr:postcode": "560038",
        "addr:street": "100 Feet Road",
        "addr:suburb": "Indira Nagar",
        "brand": "Puma",
        "brand:wikidata": "Q157064",
        "name": "Puma",
        "name:kn": "ಪೂಮ ಸ್ಟೋರ್",
        "phone": "080 4210 0812",
        "shop": "clothes",
        "website": "https://puma.com"
      }
    },
    {
      "type": "node",
      "id": 3727148130,
      "lat": 12.9649955,
      "lon": 77.6412989,
      "tags": {
        "check_date": "2023-10-08",
        "name": "Sai Scavaloni",
        "payment:credit_cards": "yes",
        "payment:debit_cards": "yes",
        "shop": "furniture"
      }
    },
    {
      "type": "node",
      "id": 3727148131,
      "lat": 12.9656588,
      "lon": 77.6412508,
      "tags": {
        "addr:city": "Bangalore",
        "amenity": "restaurant",
        "cuisine": "italian;burger",
        "name": "Smoke House Deli",
        "name:kn": "ಸ್ಮೋಕ್ ಹೌಸ್ ಡೇಲಿ",
        "takeaway": "yes"
      }
    },
    {
      "type": "node",
      "id": 3727148132,
      "lat": 12.9632071,
      "lon": 77.6413756,
      "tags": {
        "addr:street": "100 Feet Road( S K Karim Khan Road)",
        "name": "Stanley",
        "shop": "interior_decoration"
      }
    },
    {
      "type": "node",
      "id": 3727148133,
      "lat": 12.9661256,
      "lon": 77.6412459,
      "tags": {
        "brand": "United Colors of Benetton",
        "brand:wikidata": "Q817139",
        "name": "United Colors of Benetton",
        "shop": "clothes",
        "short_name": "Benetton"
      }
    },
    {
      "type": "node",
      "id": 3727148134,
      "lat": 12.9676481,
      "lon": 77.6411313,
      "tags": {
        "brand": "Vans",
        "brand:wikidata": "Q1135366",
        "name": "Vans",
        "name:kn": "ವ್ಯಾನ್ಸ್",
        "shop": "shoes"
      }
    },
    {
      "type": "node",
      "id": 3727148135,
      "lat": 12.9653221,
      "lon": 77.6412575,
      "tags": {
        "check_date": "2023-10-08",
        "name": "Veneta Cucine",
        "shop": "kitchen"
      }
    },
    {
      "type": "node",
      "id": 3727148136,
      "lat": 12.9678065,
      "lon": 77.641186,
      "tags": {
        "check_date": "2023-10-08",
        "name": "World of Titan",
        "shop": "watches"
      }
    },
    {
      "type": "node",
      "id": 3727148137,
      "lat": 12.9676641,
      "lon": 77.641131,
      "tags": {
        "check_date": "2023-10-08",
        "name": "Wrangler",
        "name:kn": "ವ್ರಾಂಗ್ಲ್ರ್",
        "shop": "clothes"
      }
    },
    {
      "type": "node",
      "id": 3737698474,
      "lat": 12.9610608,
      "lon": 77.6367276,
      "tags": {
        "amenity": "toilets",
        "check_date": "2022-07-03",
        "fee": "yes",
        "name": "Sulabh Toilet Complex",
        "operator": "Sulabh International",
        "operator:wikidata": "Q3064151"
      }
    },
    {
      "type": "node",
      "id": 3803151155,
      "lat": 12.9608213,
      "lon": 77.6368514,
      "tags": {
        "name": "Anugraha",
        "shop": "travel_agency"
      }
    },
    {
      "type": "node",
      "id": 3804505582,
      "lat": 12.9608001,
      "lon": 77.6372345,
      "tags": {
        "amenity": "bank",
        "brand": "HDFC Bank",
        "brand:wikidata": "Q631047",
        "level": "0",
        "name": "HDFC Bank",
        "short_name": "HDFC",
        "wheelchair": "no"
      }
    },
    {
      "type": "node",
      "id": 3819183887,
      "lat": 12.961305,
      "lon": 77.6371429,
      "tags": {
        "amenity": "atm",
        "brand": "Canara Bank",
        "brand:en": "Canara Bank",
        "brand:hi": "केनरा बैंक",
        "brand:kn": "ಕೆನರಾ ಬ್ಯಾಂಕ್",
        "brand:pa": "ਕੇਨਰਾ ਬੈਂਕ",
        "brand:pnb": "کینرا بینک",
        "brand:ur": "کینرا بینک",
        "brand:wikidata": "Q2003777",
        "brand:wikipedia": "en:Canara Bank",
        "brand:wikipedia:pa": "ਕੇਨਰਾ ਬੈਂਕ",
        "level": "0",
        "name": "Canara Bank",
        "name:en": "Canara Bank",
        "name:hi": "केनरा बैंक",
        "name:kn": "ಕೆನರಾ ಬ್ಯಾಂಕ್",
        "name:pa": "ਕੇਨਰਾ ਬੈਂਕ",
        "name:pnb": "کینرا بینک",
        "name:ur": "کینرا بینک",
        "operator": "Canara Bank",
        "operator:wikidata": "Q2003777"
      }
    },
    {
      "type": "node",
      "id": 3839535784,
      "lat": 12.9663676,
      "lon": 77.6372366,
      "tags": {
        "addr:housenumber": "225",
        "addr:street": "Indiranagar Double Road",
        "amenity": "restaurant",
        "cuisine": "chinese",
        "level": "0",
        "name": "Chung's Pavillion"
      }
    },
    {
      "type": "node",
      "id": 3839535785,
      "lat": 12.9663977,
      "lon": 77.6372165,
      "tags": {
        "addr:housenumber": "225",
        "addr:street": "Indiranagar Double Road",
        "amenity": "pharmacy",
        "name": "Fortis Healthworld"
      }
    },
    {
      "type": "node",
      "id": 3841313796,
      "lat": 12.962015,
      "lon": 77.6375462,
      "tags": {
        "addr:housenumber": "B800",
        "amenity": "restaurant",
        "capacity": "25",
        "cuisine": "kerala",
        "delivery": "yes",
        "level": "0",
        "name": "Spice n' Ginger",
        "takeaway": "yes"
      }
    },
    {
      "type": "node",
      "id": 3842746873,
      "lat": 12.963907,
      "lon": 77.6386951,
      "tags": {
        "addr:housenumber": "151",
        "addr:street": "2nd Cross Road",
        "alt_name": "Sante Spa Cuisine",
        "amenity": "restaurant",
        "contact:instagram": "santebangalore",
        "cuisine": "indian;international;italian;pasta;pizza;thai",
        "diet:vegan": "yes",
        "diet:vegetarian": "yes",
        "name": "Santé Spa Cuisine",
        "opening_hours": "Mo-Su 11:00-23:00",
        "shop": "pastry",
        "takeaway": "yes",
        "toilets": "yes",
        "wheelchair": "limited"
      }
    },
    {
      "type": "node",
      "id": 4178906396,
      "lat": 12.9664528,
      "lon": 77.6371221,
      "tags": {
        "amenity": "atm",
        "opening_hours": "24/7"
      }
    },
    {
      "type": "node",
      "id": 4256250292,
      "lat": 12.9645114,
      "lon": 77.638624,
      "tags": {
        "addr:housenumber": "172",
        "addr:street": "2nd cross domlur 2nd stage",
        "amenity": "restaurant",
        "description": "Cafe",
        "name": "Casa Fresco by Tea Brew"
      }
    },
    {
      "type": "node",
      "id": 4322754690,
      "lat": 12.9605285,
      "lon": 77.640123,
      "tags": {
        "addr:district": "Bengaluru Urban",
        "addr:full": "CGHS Dispensary No.8, Domlur, CPWD Quarters, Domlur",
        "addr:postcode": "560038",
        "addr:state": "Karnataka",
        "amenity": "clinic",
        "health_facility:type": "dispensary",
        "healthcare": "centre",
        "name": "CGHS Dispensary",
        "operator:type": "government",
        "source": "OpenGovernmentData",
        "website": "http://nb.bsf.gov.in/CGHS%20DIspenseries.pdf"
      }
    },
    {
      "type": "node",
      "id": 4382238221,
      "lat": 12.9684698,
      "lon": 77.6404858,
      "tags": {
        "amenity": "restaurant",
        "name": "Pot-O-Noodles"
      }
    },
    {
      "type": "node",
      "id": 4405318689,
      "lat": 12.9672394,
      "lon": 77.6376731,
      "tags": {
        "amenity": "place_of_worship",
        "name": "Temple",
        "name:en": "Temple",
        "religion": "hindu"
      }
    },
    {
      "type": "node",
      "id": 4446227973,
      "lat": 12.966146,
      "lon": 77.6373342,
      "tags": {
        "addr:city": "bangalore",
        "addr:postcode": "560071",
        "addr:street": "1st Floor, 1st Main, Domlur 2nd Stage, Indiranagar",
        "amenity": "clinic",
        "name": "New Look Laser Clinic",
        "phone": "080 4152 5754",
        "website": "newlookskinclinic.com"
      }
    },
    {
      "type": "node",
      "id": 4446247021,
      "lat": 12.964155,
      "lon": 77.6387585,
      "tags": {
        "addr:city": "Bangalore",
        "addr:housenumber": "166",
        "addr:postcode": "560071",
        "addr:street": "2nd Cross, 2nd Stage, 2nd Cross Rd, Stage 2, Domlur",
        "amenity": "dentist",
        "name": "Dental Clinic",
        "phone": "080 2535 6707",
        "website": "https://vibhadental.com/"
      }
    },
    {
      "type": "node",
      "id": 4446329807,
      "lat": 12.9552696,
      "lon": 77.6428508,
      "tags": {
        "addr:city": "Bengaluru",
        "addr:district": "Bengaluru Urban",
        "addr:full": "230, Amarjyothi Layout, Off.Intermediate Ring Road, Domlur Extension",
        "addr:housenumber": "230",
        "addr:postcode": "560071",
        "addr:state": "Karnataka",
        "addr:street": "Amarjyothi Layout, Off Intermediate Ring Road, Near Dell India/Millennium Motors, Domlur Extension, Amarjyoti Layout, Domlur, Karnataka",
        "amenity": "hospital",
        "email": "info@ayurvaid.com",
        "name": "Ayurvaid Hospital",
        "operator:type": "private",
        "phone": "080 4092 5555",
        "source": "OpenGovernmentData",
        "website": "https://ayurvaid.com/"
      }
    },
    {
      "type": "node",
      "id": 4446857201,
      "lat": 12.9667253,
      "lon": 77.6378289,
      "tags": {
        "addr:city": "Bengaluru",
        "addr:housenumber": "3718",
        "addr:postcode": "560008",
        "addr:street": "10th Cross Rd, Doopanahalli, Indiranagar, Karnataka",
        "amenity": "hospital",
        "name": "Ayur jagruti",
        "phone": "+9196633 81398",
        "website": "facebook.com"
      }
    },
    {
      "type": "node",
      "id": 4488116585,
      "lat": 12.9613649,
      "lon": 77.6370338,
      "tags": {
        "addr:city": "Bangalore",
        "addr:housenumber": "17",
        "addr:postcode": "560071",
        "addr:street": "HAL Airport Road",
        "name": "Sports line",
        "phone": "080-25353237",
        "shop": "sports"
      }
    },
    {
      "type": "node",
      "id": 4488197771,
      "lat": 12.961351,
      "lon": 77.6348885,
      "tags": {
        "addr:city": "Bangalore",
        "addr:housenumber": "10",
        "addr:postcode": "560071",
        "addr:street": "HAL Airport Road",
        "name": "Sri Chamudeshwari Sports Link And Fitness",
        "phone": "080-41203073",
        "shop": "sports"
      }
    },
    {
      "type": "node",
      "id": 4488481387,
      "lat": 12.9660726,
      "lon": 77.6374507,
      "tags": {
        "addr:city": "bangalore",
        "addr:postcode": "560071",
        "addr:street": "Sai Baba Temple Road, Kundanahalli Gate, Kundalahalli,",
        "name": "Namdharis Fresh",
        "opening_hours": "07:00-21:00",
        "phone": "(91)-9164286757",
        "shop": "supermarket",
        "website": "nambhdarifresh.com"
      }
    },
    {
      "type": "node",
      "id": 4489320856,
      "lat": 12.9613688,
      "lon": 77.6374635,
      "tags": {
        "addr:city": "Bangalore",
        "addr:housenumber": "10",
        "addr:postcode": "560071",
        "addr:street": "Prestige Tradent , Old Airport Road , Domlur",
        "name": "Sri Chamudeshwari Sports Link And Fitness",
        "opening_hours": "10:00-22:00",
        "phone": "+919164261481",
        "shop": "sports"
      }
    },
    {
      "type": "node",
      "id": 4489802566,
      "lat": 12.9615276,
      "lon": 77.6364413,
      "tags": {
        "addr:city": "Bangalore",
        "addr:housenumber": "1",
        "addr:postcode": "560071",
        "addr:street": "GR Complex, Old Airport Road, Domulur, Bhadrappa Layout, BDA Colony, Domlur Village, Domlur, Bengaluru,",
        "leisure": "sports_centre",
        "name": "Steve's Gym",
        "opening_hours": "5:30-22:00",
        "phone": "9845185315",
        "sport": "gymnasium",
        "website": "https://stevesgym.com/"
      }
    },
    {
      "type": "node",
      "id": 4490222589,
      "lat": 12.9526709,
      "lon": 77.6401906,
      "tags": {
        "addr:city": "Bangalore",
        "addr:housenumber": "541 - 543, 3rd Floor",
        "addr:postcode": "560071",
        "addr:street": ",Inner Ring Road, Amarjyoti Layout, Domlur, Krishna Reddy Layout, Amarjyoti Layout, Bengaluru",
        "leisure": "sports_centre",
        "name": "Fitness Fight Club",
        "opening_hours": "05:30-22:00",
        "phone": "8040990028",
        "sport": "gymnasium",
        "website": "fitnessfightclub.com"
      }
    },
    {
      "type": "node",
      "id": 4559461283,
      "lat": 12.9637741,
      "lon": 77.6377518,
      "tags": {
        "amenity": "theatre",
        "name": "TERI Auditorium"
      }
    },
    {
      "type": "node",
      "id": 4564764389,
      "lat": 12.9590429,
      "lon": 77.6384822,
      "tags": {
        "addr:postcode": "560071",
        "addr:street": "7th Cross",
        "name": "Solar panels and Equipment",
        "name:en": "Solar panels and Equipment",
        "phone": "8032961333",
        "shop": "electronics"
      }
    },
    {
      "type": "node",
      "id": 4695641136,
      "lat": 12.9643153,
      "lon": 77.6397704,
      "tags": {
        "leisure": "dance",
        "name": "Swingers"
      }
    },
    {
      "type": "node",
      "id": 5237312322,
      "lat": 12.9628718,
      "lon": 77.6364846,
      "tags": {
        "name:ko": "수산시장",
        "shop": "supermarket"
      }
    },
    {
      "type": "node",
      "id": 5251975967,
      "lat": 12.9683737,
      "lon": 77.6394501,
      "tags": {
        "name": "Shreya Hearing Clinic",
        "shop": "hearing_aids"
      }
    },
    {
      "type": "node",
      "id": 5251991249,
      "lat": 12.9623669,
      "lon": 77.6378519,
      "tags": {
        "amenity": "fast_food",
        "brand": "Indira Canteen",
        "brand:wikidata": "Q36164828",
        "cuisine": "south_indian",
        "name": "Indira Canteen",
        "operator": "BBMP",
        "takeaway": "yes"
      }
    },
    {
      "type": "node",
      "id": 5469008922,
      "lat": 12.9604789,
      "lon": 77.6350036,
      "tags": {
        "amenity": "veterinary",
        "name": "Government Veterinary Hospital",
        "name:kn": "ಸರ್ಕಾರಿ ಪಶುವೈದ್ಯ ಆಸ್ಪತ್ರೆ"
      }
    },
    {
      "type": "node",
      "id": 6348764653,
      "lat": 12.9673592,
      "lon": 77.639208,
      "tags": {
        "addr:place": "Doopanahalli",
        "amenity": "school",
        "isced": "2",
        "name": "GHPS Doopanahalli",
        "name:kn": "ಸರ್ಕಾರಿ ಹಿರಿಯ ಪ್ರಾಥಮಿಕ ಶಾಲೆ ದೂಪನಹಳ್ಳಿ",
        "operator": "Department of Education",
        "school": "primary"
      }
    },
    {
      "type": "node",
      "id": 6438148285,
      "lat": 12.9562148,
      "lon": 77.6373162,
      "tags": {
        "addr:place": "Dommalur",
        "amenity": "school",
        "isced:level": "3",
        "name": "Vidyanikethan Ehp Dommalur",
        "name:kn": "ವಿದ್ಯಾನಿಕೆಥನ್ ಇ.ಎಚ್.ಪಿ ದೊಮ್ಮಲೂರು",
        "operator": "Private Un-Aided",
        "school": "Higher Secondary"
      }
    },
    {
      "type": "node",
      "id": 6442682034,
      "lat": 12.9554582,
      "lon": 77.6374537,
      "tags": {
        "addr:place": "Dommalur",
        "amenity": "school",
        "isced:level": "2",
        "name": "Bangalore Montessori Eng School",
        "name:kn": "ಬೆಂಗಳೂರು ಮಾಂಟೆಸ್ಸರಿ ಆಂಗ್ಲ ಶಾಲೆ ,ದೊಮ್ಮಲೂರು",
        "operator": "Private Un-Aided",
        "school": "Higher Primary"
      }
    },
    {
      "type": "node",
      "id": 6444382794,
      "lat": 12.9608902,
      "lon": 77.6361692,
      "tags": {
        "addr:place": "Dommalur",
        "amenity": "school",
        "isced:level": "3",
        "name": "Little Angels HS, Dommalur",
        "name:kn": "ಲಿಟಲ್ ಏಂಜಲ್ ಪ್ರೌಢಶಾಲೆ,ದೊಮ್ಮಲೂರು",
        "operator": "Private Un-Aided",
        "school": "Higher Secondary"
      }
    },
    {
      "type": "node",
      "id": 6469091066,
      "lat": 12.9594084,
      "lon": 77.6402102,
      "tags": {
        "addr:place": "Dommalur",
        "amenity": "school",
        "isced:level": "3",
        "name": "GHS Dommalur",
        "name:kn": "ಸರ್ಕಾರಿ ಪ್ರೌಢಶಾಲೆ ದೊಮ್ಮಲೂರು",
        "operator": "Department of Education",
        "school": "Higher Secondary"
      }
    },
    {
      "type": "node",
      "id": 6496934091,
      "lat": 12.9570338,
      "lon": 77.6412876,
      "tags": {
        "amenity": "bicycle_rental",
        "brand": "Yulu",
        "brand:wikidata": "Q104871276",
        "name": "Yulu",
        "network": "Yulu",
        "network:wikidata": "Q104871276",
        "operator": "Yulu"
      }
    },
    {
      "type": "node",
      "id": 7178597283,
      "lat": 12.9631787,
      "lon": 77.6396687,
      "tags": {
        "addr:city": "Bengaluru",
        "addr:country": "IN",
        "addr:hamlet": "HAL 2nd Stage",
        "email": "krumbkraft@gmail.com",
        "name": "Krumb Kraft",
        "shop": "bakery",
        "website": "https://krumbkraft.in/"
      }
    },
    {
      "type": "node",
      "id": 7572526717,
      "lat": 12.9555948,
      "lon": 77.6418006,
      "tags": {
        "addr:district": "Bengaluru Urban",
        "addr:full": "Amarjyoti Layout, Domlur, Bengaluru",
        "addr:postcode": "560071",
        "addr:state": "Karnataka",
        "amenity": "hospital",
        "name": "Shree Sai Speciality Hospital",
        "source": "Local Knowledge"
      }
    },
    {
      "type": "node",
      "id": 7572526772,
      "lat": 12.957199,
      "lon": 77.642917,
      "tags": {
        "addr:district": "Bengaluru Urban",
        "addr:full": "Amarjyoti Layout, Domlur, Bengaluru",
        "addr:postcode": "560071",
        "addr:state": "Karnataka",
        "amenity": "dentist",
        "healthcare": "dentist",
        "name": "Golden Blossom Dental Care",
        "source": "Local Knowledge"
      }
    },
    {
      "type": "node",
      "id": 7572526801,
      "lat": 12.9544981,
      "lon": 77.6401572,
      "tags": {
        "addr:district": "Bengaluru Urban",
        "addr:full": "Amarjyoti Layout, Domlur, Bengaluru",
        "addr:postcode": "560071",
        "addr:state": "Karnataka",
        "amenity": "hospital",
        "name": "Swasthya Hospitals",
        "source": "Local Knowledge"
      }
    },
    {
      "type": "node",
      "id": 8837020453,
      "lat": 12.9611601,
      "lon": 77.6357205,
      "tags": {
        "name": "Haiku Honda",
        "shop": "motorcycle"
      }
    },
    {
      "type": "node",
      "id": 8837020457,
      "lat": 12.952795,
      "lon": 77.6402944,
      "tags": {
        "brand": "Hyundai",
        "brand:wikidata": "Q55931",
        "name": "Hyundai Service",
        "shop": "car_repair"
      }
    },
    {
      "type": "node",
      "id": 9257555904,
      "lat": 12.95618,
      "lon": 77.6368819,
      "tags": {
        "name": "The Registry of Sarees",
        "shop": "clothes",
        "tourism": "museum",
        "website": "https://theregistryofsarees.com/"
      }
    },
    {
      "type": "node",
      "id": 9545465495,
      "lat": 12.9637891,
      "lon": 77.6403908,
      "tags": {
        "addr:floor": "G",
        "amenity": "cafe",
        "check_date": "2024-11-09",
        "contact:facebook": "plume.delicacies",
        "contact:instagram": "plume.delicacies",
        "delivery": "yes",
        "level": "0",
        "name": "Café Plume",
        "outdoor_seating": "yes",
        "takeaway": "yes"
      }
    },
    {
      "type": "node",
      "id": 9689539837,
      "lat": 12.9684828,
      "lon": 77.6409515,
      "tags": {
        "alt_name": "Umesh Dosa Point",
        "amenity": "fast_food",
        "cuisine": "regional",
        "name": "Umesh Refreshments",
        "takeaway": "yes"
      }
    },
    {
      "type": "node",
      "id": 9689539838,
      "lat": 12.9684795,
      "lon": 77.6408797,
      "tags": {
        "amenity": "dentist",
        "healthcare": "dentist",
        "name": "Oral D"
      }
    },
    {
      "type": "node",
      "id": 9890195718,
      "lat": 12.9669413,
      "lon": 77.6372366,
      "tags": {
        "amenity": "restaurant",
        "cuisine": "regional",
        "name": "Nirula's",
        "operator": "Nirula's"
      }
    },
    {
      "type": "node",
      "id": 10012574396,
      "lat": 12.9638903,
      "lon": 77.6413397,
      "tags": {
        "brand": "Westside",
        "name": "Westside",
        "shop": "clothes"
      }
    },
    {
      "type": "node",
      "id": 10280775107,
      "lat": 12.9538209,
      "lon": 77.6396728,
      "tags": {
        "amenity": "pub",
        "microbrewery": "yes",
        "name": "Murphy’s Brewhouse"
      }
    },
    {
      "type": "node",
      "id": 10280801512,
      "lat": 12.9552691,
      "lon": 77.6416053,
      "tags": {
        "amenity": "pub",
        "contact:instagram": "fcafebyftv.east.blr",
        "indoor_seating": "yes",
        "microbrewery": "yes",
        "name": "F Cafe by FashionTV",
        "outdoor_seating": "no"
      }
    },
    {
      "type": "node",
      "id": 10693248095,
      "lat": 12.9664198,
      "lon": 77.6371428,
      "tags": {
        "alt_name": "Sri Udupi Veg",
        "amenity": "restaurant",
        "cuisine": "regional",
        "diet:vegetarian": "yes",
        "name": "Sri Udupi Food Hub"
      }
    },
    {
      "type": "node",
      "id": 10727955504,
      "lat": 12.9642935,
      "lon": 77.6399182,
      "tags": {
        "amenity": "fast_food",
        "cuisine": "regional",
        "delivery": "yes",
        "name": "IDC",
        "takeaway": "yes"
      }
    },
    {
      "type": "node",
      "id": 10727992299,
      "lat": 12.9605511,
      "lon": 77.6356971,
      "tags": {
        "amenity": "music_school",
        "name": "8th Note School of Music"
      }
    },
    {
      "type": "node",
      "id": 10728055707,
      "lat": 12.9641916,
      "lon": 77.6395453,
      "tags": {
        "contact:facebook": "ThePurpleTurtles",
        "contact:instagram": "thepurpleturtles",
        "contact:pinterest": "PurpleTurtles11",
        "contact:twitter": "purpleturtlesin",
        "name": "The Purple Turtles",
        "shop": "lighting",
        "website": "https://thepurpleturtles.com/"
      }
    },
    {
      "type": "node",
      "id": 10913665921,
      "lat": 12.96343,
      "lon": 77.6410807,
      "tags": {
        "alt_name": "Nerlu Cafe",
        "amenity": "cafe",
        "name": "ner.lu",
        "start_date": "2023-05-20"
      }
    },
    {
      "type": "node",
      "id": 11131430546,
      "lat": 12.9640276,
      "lon": 77.6407047,
      "tags": {
        "name": "Dhondup Hair Salon",
        "shop": "hairdresser"
      }
    },
    {
      "type": "node",
      "id": 11131430547,
      "lat": 12.9652164,
      "lon": 77.6381928,
      "tags": {
        "amenity": "studio",
        "name": "Asianet News",
        "studio": "television"
      }
    },
    {
      "type": "node",
      "id": 11131430548,
      "lat": 12.9661648,
      "lon": 77.6373655,
      "tags": {
        "name": "El Ray Salon and Spa",
        "shop": "hairdresser"
      }
    },
    {
      "type": "node",
      "id": 11247604728,
      "lat": 12.9659838,
      "lon": 77.6413096,
      "tags": {
        "brand": "Adidas",
        "brand:wikidata": "Q3895",
        "name": "Adidas",
        "name:kn": "ಅಡಿಡಾಸ್",
        "shop": "sports"
      }
    },
    {
      "type": "node",
      "id": 11268357659,
      "lat": 12.9673234,
      "lon": 77.6400936,
      "tags": {
        "amenity": "pharmacy",
        "healthcare": "pharmacy"
      }
    },
    {
      "type": "node",
      "id": 11268362649,
      "lat": 12.9671096,
      "lon": 77.6403708,
      "tags": {
        "amenity": "pharmacy",
        "healthcare": "pharmacy"
      }
    },
    {
      "type": "node",
      "id": 11268368110,
      "lat": 12.9670134,
      "lon": 77.641294,
      "tags": {
        "amenity": "restaurant",
        "name": "Paakshala"
      }
    },
    {
      "type": "node",
      "id": 11342659858,
      "lat": 12.9606771,
      "lon": 77.6382231,
      "tags": {
        "amenity": "atm",
        "brand": "Union Bank of India",
        "brand:wikidata": "Q2004078",
        "check_date": "2023-11-12",
        "drive_through": "no",
        "operator": "Union Bank of India",
        "operator:wikidata": "Q2004078",
        "source": "survey"
      }
    },
    {
      "type": "node",
      "id": 11342659859,
      "lat": 12.9608059,
      "lon": 77.6372084,
      "tags": {
        "amenity": "atm",
        "brand": "HDFC Bank",
        "brand:wikidata": "Q631047",
        "cash_in": "no",
        "check_date": "2023-11-12",
        "drive_through": "no",
        "indoor": "yes",
        "operator": "HDFC Bank",
        "operator:wikidata": "Q631047",
        "short_name": "HDFC",
        "source": "survey",
        "wheelchair": "no"
      }
    },
    {
      "type": "node",
      "id": 11359610030,
      "lat": 12.9684759,
      "lon": 77.6411761,
      "tags": {
        "clothes": "women",
        "name": "W for Women",
        "shop": "clothes"
      }
    },
    {
      "type": "node",
      "id": 11359610031,
      "lat": 12.9684691,
      "lon": 77.6406128,
      "tags": {
        "amenity": "post_office",
        "brand": "Desk to Desk Courier & Cargo",
        "brand:short": "DTDC",
        "brand:wikidata": "Q55608802",
        "name": "DTDC",
        "operator": "Desk to Desk Courier & Cargo",
        "operator:short": "DTDC",
        "operator:wikidata": "Q55608802"
      }
    },
    {
      "type": "node",
      "id": 11416184412,
      "lat": 12.9650441,
      "lon": 77.6383823,
      "tags": {
        "addr:housenumber": "210",
        "addr:street": "1st Main Road",
        "amenity": "bar",
        "check_date": "2023-12-14",
        "contact:instagram": "https://www.instagram.com/soka_blr",
        "name": "Soka",
        "phone": "+91 93530 45053"
      }
    },
    {
      "type": "node",
      "id": 11463065115,
      "lat": 12.9614804,
      "lon": 77.6363697,
      "tags": {
        "amenity": "pharmacy",
        "check_date": "2025-08-23",
        "healthcare": "pharmacy",
        "name": "Prashanth Medicals"
      }
    },
    {
      "type": "node",
      "id": 11493783925,
      "lat": 12.961585,
      "lon": 77.6364805,
      "tags": {
        "check_date": "2024-01-06",
        "level": "0",
        "name": "Sri Balaji Quality Prints",
        "shop": "copyshop"
      }
    },
    {
      "type": "node",
      "id": 11493849890,
      "lat": 12.9612402,
      "lon": 77.6380064,
      "tags": {
        "amenity": "fast_food",
        "check_date": "2024-01-06",
        "level": "0",
        "name": "Babaji Bites"
      }
    },
    {
      "type": "node",
      "id": 11556469408,
      "lat": 12.9660703,
      "lon": 77.6369131,
      "tags": {
        "amenity": "waste_basket"
      }
    },
    {
      "type": "node",
      "id": 11556469409,
      "lat": 12.9660354,
      "lon": 77.6369522,
      "tags": {
        "amenity": "bench",
        "backrest": "yes",
        "material": "stone",
        "seats": "3"
      }
    },
    {
      "type": "node",
      "id": 11556469411,
      "lat": 12.9659703,
      "lon": 77.6370127,
      "tags": {
        "amenity": "bench",
        "backrest": "yes",
        "material": "stone",
        "seats": "3"
      }
    },
    {
      "type": "node",
      "id": 11556469412,
      "lat": 12.9658931,
      "lon": 77.6370702,
      "tags": {
        "amenity": "bench",
        "backrest": "yes",
        "material": "stone",
        "seats": "3"
      }
    },
    {
      "type": "node",
      "id": 11556469413,
      "lat": 12.9657737,
      "lon": 77.6371603,
      "tags": {
        "amenity": "bench",
        "backrest": "yes",
        "material": "stone",
        "seats": "3"
      }
    },
    {
      "type": "node",
      "id": 11556469414,
      "lat": 12.9656575,
      "lon": 77.6372715,
      "tags": {
        "amenity": "bench",
        "backrest": "yes",
        "material": "stone",
        "seats": "3"
      }
    },
    {
      "type": "node",
      "id": 11556469415,
      "lat": 12.9656017,
      "lon": 77.6373219,
      "tags": {
        "amenity": "bench",
        "backrest": "yes",
        "material": "stone",
        "seats": "3"
      }
    },
    {
      "type": "node",
      "id": 11556469416,
      "lat": 12.9655427,
      "lon": 77.6373724,
      "tags": {
        "amenity": "bench",
        "backrest": "yes",
        "material": "stone",
        "seats": "3"
      }
    },
    {
      "type": "node",
      "id": 11556469417,
      "lat": 12.9655155,
      "lon": 77.6373962,
      "tags": {
        "amenity": "waste_basket"
      }
    },
    {
      "type": "node",
      "id": 11556469418,
      "lat": 12.9653198,
      "lon": 77.6373513,
      "tags": {
        "amenity": "waste_basket"
      }
    },
    {
      "type": "node",
      "id": 11556469419,
      "lat": 12.9651973,
      "lon": 77.6372195,
      "tags": {
        "amenity": "waste_basket"
      }
    },
    {
      "type": "node",
      "id": 11556469420,
      "lat": 12.9652689,
      "lon": 77.6371535,
      "tags": {
        "amenity": "bench",
        "backrest": "yes",
        "material": "stone",
        "seats": "3"
      }
    },
    {
      "type": "node",
      "id": 11556469421,
      "lat": 12.965334,
      "lon": 77.6370879,
      "tags": {
        "amenity": "bench",
        "backrest": "yes",
        "material": "stone",
        "seats": "3"
      }
    },
    {
      "type": "node",
      "id": 11556469422,
      "lat": 12.9653955,
      "lon": 77.637033,
      "tags": {
        "amenity": "bench",
        "backrest": "yes",
        "material": "stone",
        "seats": "3"
      }
    },
    {
      "type": "node",
      "id": 11556469423,
      "lat": 12.965452,
      "lon": 77.636979,
      "tags": {
        "amenity": "bench",
        "backrest": "yes",
        "material": "stone",
        "seats": "3"
      }
    },
    {
      "type": "node",
      "id": 11556469424,
      "lat": 12.9655204,
      "lon": 77.636917,
      "tags": {
        "amenity": "bench",
        "backrest": "yes",
        "material": "stone",
        "seats": "3"
      }
    },
    {
      "type": "node",
      "id": 11556469425,
      "lat": 12.9656147,
      "lon": 77.6368474,
      "tags": {
        "amenity": "bench",
        "backrest": "yes",
        "material": "stone",
        "seats": "3"
      }
    },
    {
      "type": "node",
      "id": 11556469426,
      "lat": 12.9656855,
      "lon": 77.6367857,
      "tags": {
        "amenity": "bench",
        "backrest": "yes",
        "material": "stone",
        "seats": "3"
      }
    },
    {
      "type": "node",
      "id": 11556469427,
      "lat": 12.9657966,
      "lon": 77.6366986,
      "tags": {
        "amenity": "bench",
        "backrest": "yes",
        "material": "stone",
        "seats": "3"
      }
    },
    {
      "type": "node",
      "id": 11556469428,
      "lat": 12.965834,
      "lon": 77.6366602,
      "tags": {
        "amenity": "bench",
        "backrest": "yes",
        "material": "stone",
        "seats": "3"
      }
    },
    {
      "type": "node",
      "id": 11556469429,
      "lat": 12.9658982,
      "lon": 77.6366866,
      "tags": {
        "amenity": "bench",
        "backrest": "yes",
        "material": "stone",
        "seats": "3"
      }
    },
    {
      "type": "node",
      "id": 11556469430,
      "lat": 12.9659416,
      "lon": 77.6367442,
      "tags": {
        "amenity": "bench",
        "backrest": "yes",
        "material": "stone",
        "seats": "3"
      }
    },
    {
      "type": "node",
      "id": 11556469431,
      "lat": 12.9659908,
      "lon": 77.6368027,
      "tags": {
        "amenity": "bench",
        "backrest": "yes",
        "material": "stone",
        "seats": "3"
      }
    },
    {
      "type": "node",
      "id": 11556469432,
      "lat": 12.9660376,
      "lon": 77.636865,
      "tags": {
        "amenity": "bench",
        "backrest": "yes",
        "material": "stone",
        "seats": "3"
      }
    },
    {
      "type": "node",
      "id": 11564661244,
      "lat": 12.963427,
      "lon": 77.6411439,
      "tags": {
        "brand": "Beruru",
        "name": "Beruru",
        "shop": "garden_centre"
      }
    },
    {
      "type": "node",
      "id": 11564661253,
      "lat": 12.9646059,
      "lon": 77.6386616,
      "tags": {
        "name": "CeeKay Supermarket",
        "shop": "supermarket"
      }
    },
    {
      "type": "node",
      "id": 11564661254,
      "lat": 12.9639981,
      "lon": 77.638396,
      "tags": {
        "name": "Brush amd Blush Salon",
        "shop": "beauty"
      }
    },
    {
      "type": "node",
      "id": 11564684569,
      "lat": 12.9657986,
      "lon": 77.6370304,
      "tags": {
        "amenity": "bench",
        "backrest": "yes",
        "material": "stone",
        "seats": "3"
      }
    },
    {
      "type": "node",
      "id": 11564684570,
      "lat": 12.9657945,
      "lon": 77.6370361,
      "tags": {
        "amenity": "bench",
        "backrest": "yes",
        "material": "stone",
        "seats": "3"
      }
    },
    {
      "type": "node",
      "id": 11564684571,
      "lat": 12.9657932,
      "lon": 77.6370482,
      "tags": {
        "amenity": "bench",
        "backrest": "yes",
        "material": "stone",
        "seats": "3"
      }
    },
    {
      "type": "node",
      "id": 11564684572,
      "lat": 12.9658022,
      "lon": 77.6370475,
      "tags": {
        "amenity": "bench",
        "backrest": "yes",
        "material": "stone",
        "seats": "3"
      }
    },
    {
      "type": "node",
      "id": 11564684573,
      "lat": 12.9658066,
      "lon": 77.6370418,
      "tags": {
        "amenity": "bench",
        "backrest": "yes",
        "material": "stone",
        "seats": "3"
      }
    },
    {
      "type": "node",
      "id": 11684157871,
      "lat": 12.9615359,
      "lon": 77.6364148,
      "tags": {
        "amenity": "atm",
        "brand": "Axis Bank",
        "brand:wikidata": "Q2003549",
        "check_date": "2024-03-02",
        "operator": "Axis Bank",
        "operator:wikidata": "Q2003549"
      }
    },
    {
      "type": "node",
      "id": 11684157872,
      "lat": 12.9615985,
      "lon": 77.635642,
      "tags": {
        "brand": "Suzuki",
        "brand:wikidata": "Q181642",
        "check_date": "2025-08-23",
        "name": "Suzuki",
        "shop": "motorcycle"
      }
    },
    {
      "type": "node",
      "id": 11968716837,
      "lat": 12.9667996,
      "lon": 77.6373194,
      "tags": {
        "addr:floor": "1",
        "addr:housenumber": "3754",
        "addr:street": "11th Cross Road",
        "amenity": "cafe",
        "check_date": "2024-06-10",
        "contact:instagram": "https://www.instagram.com/makipatisserie",
        "contact:twitter": "https://twitter.com/makipatisserie",
        "delivery": "yes",
        "level": "1",
        "name": "Mäki Pâtisserie",
        "opening_hours:drive_through": "We-Su 10:00-17:00",
        "shop": "pastry",
        "takeaway": "yes",
        "website": "https://airmenus.in/makipatisserie/"
      }
    },
    {
      "type": "node",
      "id": 12122128698,
      "lat": 12.966624,
      "lon": 77.6369819,
      "tags": {
        "addr:city": "Bengaluru",
        "addr:hamlet": "Domlur 2nd Stage",
        "addr:housenumber": "288",
        "addr:postcode": "560071",
        "addr:street": "3rd Cross Road",
        "addr:suburb": "Indiranagar",
        "amenity": "restaurant",
        "contact:instagram": "navathanyam",
        "cuisine": "regional",
        "delivery": "yes",
        "diet:vegetarian": "only",
        "name": "Navathanyam",
        "opening_hours": "11:00-23:00",
        "takeaway": "yes",
        "toilets": "yes",
        "toilets:access": "customers",
        "website": "https://navathanyam.com/",
        "wheelchair": "no"
      }
    },
    {
      "type": "node",
      "id": 12127595692,
      "lat": 12.9662519,
      "lon": 77.6372802,
      "tags": {
        "amenity": "fast_food",
        "cuisine": "bengali",
        "name": "Oziano"
      }
    },
    {
      "type": "node",
      "id": 12127595693,
      "lat": 12.9665858,
      "lon": 77.6369456,
      "tags": {
        "amenity": "fast_food",
        "cuisine": "regional",
        "name": "Tanjore Tiffins"
      }
    },
    {
      "type": "node",
      "id": 12145301178,
      "lat": 12.9576909,
      "lon": 77.6415798,
      "tags": {
        "amenity": "restaurant",
        "name": "CR Tavern Bar & Kitchen"
      }
    },
    {
      "type": "node",
      "id": 12419453832,
      "lat": 12.9684839,
      "lon": 77.6406361,
      "tags": {
        "addr:city": "Indira Nagar, Bangalore",
        "addr:district": "Bengaluru Urban",
        "addr:housenumber": "#777/P",
        "addr:postcode": "560008",
        "addr:street": "13th Main Road",
        "amenity": "bank",
        "name": "Algates Consulting IMF Pvt Ltd",
        "opening_hours": "Mo-Sa 08:00-18:00",
        "operator": "Algates Insurance"
      }
    },
    {
      "type": "node",
      "id": 12507390919,
      "lat": 12.9618509,
      "lon": 77.6389224,
      "tags": {
        "amenity": "drinking_water"
      }
    },
    {
      "type": "node",
      "id": 12507390921,
      "lat": 12.961628,
      "lon": 77.6386927,
      "tags": {
        "access": "yes",
        "amenity": "toilets",
        "female": "yes"
      }
    },
    {
      "type": "node",
      "id": 12507390922,
      "lat": 12.9616829,
      "lon": 77.6387497,
      "tags": {
        "access": "yes",
        "amenity": "toilets",
        "male": "yes"
      }
    },
    {
      "type": "node",
      "id": 12507390923,
      "lat": 12.961826,
      "lon": 77.6388929,
      "tags": {
        "access": "yes",
        "amenity": "toilets",
        "female": "yes"
      }
    },
    {
      "type": "node",
      "id": 12507390924,
      "lat": 12.9618809,
      "lon": 77.6389499,
      "tags": {
        "access": "yes",
        "amenity": "toilets",
        "male": "yes"
      }
    },
    {
      "type": "node",
      "id": 12611770958,
      "lat": 12.9636433,
      "lon": 77.6412982,
      "tags": {
        "addr:city": "Bengaluru",
        "addr:hamlet": "HAL 2nd Stage",
        "addr:housenumber": "4000",
        "addr:postcode": "560038",
        "addr:street": "100 Feet Road",
        "addr:suburb": "Indiranagar",
        "amenity": "fast_food",
        "contact:instagram": "thealienkind",
        "name": "Alienkind"
      }
    },
    {
      "type": "node",
      "id": 12759646717,
      "lat": 12.966328,
      "lon": 77.6371955,
      "tags": {
        "addr:housenumber": "225",
        "addr:street": "Indiranagar Double Road",
        "amenity": "restaurant",
        "check_date": "2025-04-16",
        "contact:instagram": "https://www.instagram.com/toastid_co",
        "name": "Toastid Co",
        "opening_hours": "Tu-Su 12:00-16:00,18:00-22:00",
        "phone": "+91 98303 11417"
      }
    },
    {
      "type": "node",
      "id": 12862846450,
      "lat": 12.9653164,
      "lon": 77.638073,
      "tags": {
        "amenity": "fast_food",
        "cuisine": "burger",
        "delivery": "only",
        "name": "Nashville Fried Chicken",
        "takeaway": "only"
      }
    },
    {
      "type": "node",
      "id": 12999130467,
      "lat": 12.965292,
      "lon": 77.6380121,
      "tags": {
        "amenity": "restaurant",
        "name": "Louis Burger"
      }
    },
    {
      "type": "node",
      "id": 12999130468,
      "lat": 12.965177,
      "lon": 77.6381694,
      "tags": {
        "amenity": "studio",
        "name": "Indigo 91.9FM"
      }
    },
    {
      "type": "node",
      "id": 12999130482,
      "lat": 12.9648993,
      "lon": 77.6392134,
      "tags": {
        "addr:city": "Bengaluru",
        "addr:hamlet": "HAL 2nd Stage",
        "addr:housenumber": "3578",
        "addr:postcode": "560008",
        "addr:street": "4th Cross Road",
        "addr:suburb": "Indiranagar",
        "amenity": "cafe",
        "delivery": "yes",
        "name": "Brott",
        "takeaway": "yes",
        "website": "https://brottcafe.com"
      }
    },
    {
      "type": "node",
      "id": 13061550159,
      "lat": 12.9611856,
      "lon": 77.6388419,
      "tags": {
        "amenity": "bench",
        "backrest": "yes",
        "material": "stone",
        "seats": "3"
      }
    },
    {
      "type": "node",
      "id": 13061550160,
      "lat": 12.961232,
      "lon": 77.6388037,
      "tags": {
        "amenity": "bench",
        "backrest": "yes",
        "material": "stone",
        "seats": "3"
      }
    },
    {
      "type": "node",
      "id": 13092288296,
      "lat": 12.9615904,
      "lon": 77.635809,
      "tags": {
        "check_date": "2025-08-23",
        "name": "C K Departmental Store",
        "shop": "supermarket"
      }
    },
    {
      "type": "node",
      "id": 13092288298,
      "lat": 12.9612967,
      "lon": 77.6372407,
      "tags": {
        "check_date": "2025-08-23",
        "name": "Castle Rock",
        "shop": "alcohol"
      }
    },
    {
      "type": "node",
      "id": 13092288299,
      "lat": 12.9612564,
      "lon": 77.6374819,
      "tags": {
        "check_date": "2025-08-23",
        "name": "Madhu Iyengar's Bakery",
        "shop": "bakery"
      }
    },
    {
      "type": "node",
      "id": 13092288300,
      "lat": 12.9613347,
      "lon": 77.6382044,
      "tags": {
        "amenity": "bench",
        "armrest": "no",
        "backrest": "yes",
        "material": "concrete",
        "seats": "3"
      }
    },
    {
      "type": "node",
      "id": 13288585396,
      "lat": 12.9564341,
      "lon": 77.636748,
      "tags": {
        "amenity": "fast_food",
        "delivery": "only",
        "name": "Knots & Crosses",
        "takeaway": "only"
      }
    },
    {
      "type": "node",
      "id": 13288585509,
      "lat": 12.9663636,
      "lon": 77.6377317,
      "tags": {
        "amenity": "cafe",
        "name": "Shinto"
      }
    },
    {
      "type": "node",
      "id": 13342571682,
      "lat": 12.956223,
      "lon": 77.6366045,
      "tags": {
        "air_conditioning": "no",
        "amenity": "restaurant",
        "bar": "no",
        "check_date": "2025-11-30",
        "cuisine": "regional",
        "description": "The restaurant is on the first floor. They also run a catring business on the second floor. It gets quite dark outside on the street owing to limited street lighting but the resturant is genuine. They serve Mangalorean food.",
        "internet_access": "no",
        "name": "ATIL - Domlur",
        "wheelchair": "no"
      }
    },
    {
      "type": "node",
      "id": 13347217753,
      "lat": 12.9611686,
      "lon": 77.6366559,
      "tags": {
        "amenity": "bench"
      }
    },
    {
      "type": "way",
      "id": 28444336,
      "center": {
        "lat": 12.9595519,
        "lon": 77.6402283
      },
      "tags": {
        "leisure": "pitch",
        "sport": "soccer"
      }
    },
    {
      "type": "way",
      "id": 28452979,
      "center": {
        "lat": 12.9517345,
        "lon": 77.6473911
      },
      "tags": {
        "alt_name": "KGA Golf Course",
        "golf:course": "18_hole",
        "leisure": "golf_course",
        "name": "Karnataka Golf Association Golf Course",
        "short_name": "KGA",
        "start_date": "1986-12-28",
        "website": "https://kga.in"
      }
    },
    {
      "type": "way",
      "id": 31231510,
      "center": {
        "lat": 12.9594873,
        "lon": 77.6402324
      },
      "tags": {
        "amenity": "school",
        "name": "Government PU College,Domlur",
        "name:kn": "ಸರ್ಕಾರಿ ಪದವಿಪೂರ್ವ ಕಾಲೇಜು"
      }
    },
    {
      "type": "way",
      "id": 31231545,
      "center": {
        "lat": 12.9618006,
        "lon": 77.6387125
      },
      "tags": {
        "amenity": "bus_station",
        "bus": "yes",
        "name": "Domlur Bus Station",
        "name:kn": "ದೊಮ್ಮಲೂರು ಬಸ್ ನಿಲ್ದಾಣ",
        "official_name": "Dr. BR Ambedkar Bus Terminal",
        "public_transport": "station"
      }
    },
    {
      "type": "way",
      "id": 55981268,
      "center": {
        "lat": 12.9636642,
        "lon": 77.6393577
      },
      "tags": {
        "leisure": "park",
        "name": "BBMP Park",
        "name:kn": "ಬೃ. ಬೆ. ಮ. ಪಾ. ಉದ್ಯಾನವನ",
        "operator": "ಬೃಹತ್ ಬೆಂಗಳೂರು ಮಹಾನಗರ ಪಾಲಿಕೆ",
        "operator:en": "Bruhat Bengaluru Mahanagara Palike",
        "operator:ka": "ಬೃಹತ್ ಬೆಂಗಳೂರು ಮಹಾನಗರ ಪಾಲಿಕೆ",
        "operator:short": "BBMP",
        "operator:type": "government",
        "operator:wikidata": "Q4978693"
      }
    },
    {
      "type": "way",
      "id": 56734546,
      "center": {
        "lat": 12.9636618,
        "lon": 77.6379214
      },
      "tags": {
        "amenity": "college",
        "name": "The Energy Resource Institute",
        "short_name": "TERI",
        "website": "https://www.teriin.org/"
      }
    },
    {
      "type": "way",
      "id": 56734547,
      "center": {
        "lat": 12.9656296,
        "lon": 77.63705
      },
      "tags": {
        "leisure": "park",
        "name": "BBMP Park",
        "name:kn": "ಬೃ. ಬೆ. ಮ. ಪಾ. ಉದ್ಯಾನವನ",
        "operator": "ಬೃಹತ್ ಬೆಂಗಳೂರು ಮಹಾನಗರ ಪಾಲಿಕೆ",
        "operator:en": "Bruhat Bengaluru Mahanagara Palike",
        "operator:ka": "ಬೃಹತ್ ಬೆಂಗಳೂರು ಮಹಾನಗರ ಪಾಲಿಕೆ",
        "operator:short": "BBMP",
        "operator:type": "government",
        "operator:wikidata": "Q4978693"
      }
    },
    {
      "type": "way",
      "id": 105318901,
      "center": {
        "lat": 12.9629172,
        "lon": 77.6373121
      },
      "tags": {
        "alt_name": "BBMP Park",
        "alt_name:kn": "ಬೃ. ಬೆ. ಮ. ಪಾ. ಉದ್ಯಾನವನ",
        "leisure": "park",
        "name": "Shankarnag Park",
        "operator": "ಬೃಹತ್ ಬೆಂಗಳೂರು ಮಹಾನಗರ ಪಾಲಿಕೆ",
        "operator:en": "Bruhat Bengaluru Mahanagara Palike",
        "operator:ka": "ಬೃಹತ್ ಬೆಂಗಳೂರು ಮಹಾನಗರ ಪಾಲಿಕೆ",
        "operator:short": "BBMP",
        "operator:type": "government",
        "operator:wikidata": "Q4978693"
      }
    },
    {
      "type": "way",
      "id": 106369984,
      "center": {
        "lat": 12.9638087,
        "lon": 77.6358375
      },
      "tags": {
        "leisure": "park"
      }
    },
    {
      "type": "way",
      "id": 128510775,
      "center": {
        "lat": 12.9619633,
        "lon": 77.6381971
      },
      "tags": {
        "amenity": "place_of_worship",
        "landuse": "religious",
        "name": "Shri Shaneshwara Swamy Temple",
        "religion": "hindu"
      }
    },
    {
      "type": "way",
      "id": 128515256,
      "center": {
        "lat": 12.9632107,
        "lon": 77.6384512
      },
      "tags": {
        "amenity": "place_of_worship",
        "name": "Dhyan Mandir",
        "name:kn": "ಧ್ಯಾನ ಮಂದಿರ"
      }
    },
    {
      "type": "way",
      "id": 135265537,
      "center": {
        "lat": 12.9681676,
        "lon": 77.6394515
      },
      "tags": {
        "amenity": "place_of_worship",
        "name": "Rama Temple",
        "name:kn": "ರಾಮ ದೇವಸ್ಥಾನ",
        "religion": "hindu"
      }
    },
    {
      "type": "way",
      "id": 135956751,
      "center": {
        "lat": 12.9639941,
        "lon": 77.6404897
      },
      "tags": {
        "leisure": "park"
      }
    },
    {
      "type": "way",
      "id": 166560363,
      "center": {
        "lat": 12.9619711,
        "lon": 77.636354
      },
      "tags": {
        "amenity": "place_of_worship",
        "name": "Kothandarameshwarar Temple",
        "name:kn": "ಕೋದಂಡರಾಮೇಶ್ವರ ದೇವಸ್ಥಾನ",
        "religion": "hindu"
      }
    },
    {
      "type": "way",
      "id": 166560378,
      "center": {
        "lat": 12.9612233,
        "lon": 77.6403753
      },
      "tags": {
        "alt_name": "Dry Waste Collection Center",
        "amenity": "recycling",
        "building": "yes",
        "name": "BBMP Dry Waste Collection Center",
        "name:kn": "ಒಣ ತ್ಯಾಜ್ಯ ನಿರ್ವಹಣೆಗೆ ಸ್ಥಳ",
        "official_name": "Domlur Kartavya DWCC",
        "operator": "BBMP",
        "recycling_type": "centre",
        "short_name": "DWCC"
      }
    },
    {
      "type": "way",
      "id": 166560423,
      "center": {
        "lat": 12.9618699,
        "lon": 77.6386526
      },
      "tags": {
        "amenity": "parking",
        "building": "transportation",
        "fee": "yes",
        "layer": "1",
        "parking": "multi-storey"
      }
    },
    {
      "type": "way",
      "id": 166560438,
      "center": {
        "lat": 12.9644769,
        "lon": 77.6370815
      },
      "tags": {
        "addr:city": "Bengaluru",
        "addr:housenumber": "3",
        "addr:postcode": "560071",
        "addr:street": "4th Main Road, Domlur 2nd Stage",
        "amenity": "community_centre",
        "leisure": "sports_centre",
        "name": "Domlur Club"
      }
    },
    {
      "type": "way",
      "id": 166560442,
      "center": {
        "lat": 12.9622785,
        "lon": 77.6398708
      },
      "tags": {
        "leisure": "park"
      }
    },
    {
      "type": "way",
      "id": 166560446,
      "center": {
        "lat": 12.9655717,
        "lon": 77.6360749
      },
      "tags": {
        "leisure": "park",
        "name": "L.A.Perumal Childrens Park"
      }
    },
    {
      "type": "way",
      "id": 169717849,
      "center": {
        "lat": 12.9657146,
        "lon": 77.6380721
      },
      "tags": {
        "amenity": "place_of_worship",
        "check_date": "2023-10-08",
        "name": "Temple",
        "name:kn": "ದೇವಸ್ಥಾನ",
        "religion": "hindu"
      }
    },
    {
      "type": "way",
      "id": 169717868,
      "center": {
        "lat": 12.9663077,
        "lon": 77.6375826
      },
      "tags": {
        "leisure": "park",
        "name": "Paramahansa Yogananda Circle",
        "name:kn": "ಪರಮಹಂಸ ಯೋಗಾನಂದ ವೃತ್ತ"
      }
    },
    {
      "type": "way",
      "id": 169717869,
      "center": {
        "lat": 12.9650449,
        "lon": 77.6388936
      },
      "tags": {
        "leisure": "park"
      }
    },
    {
      "type": "way",
      "id": 175055145,
      "center": {
        "lat": 12.96829,
        "lon": 77.6389392
      },
      "tags": {
        "leisure": "park"
      }
    },
    {
      "type": "way",
      "id": 217529759,
      "center": {
        "lat": 12.9621358,
        "lon": 77.6370712
      },
      "tags": {
        "amenity": "place_of_worship",
        "religion": "hindu"
      }
    },
    {
      "type": "way",
      "id": 217529760,
      "center": {
        "lat": 12.9675217,
        "lon": 77.6398231
      },
      "tags": {
        "amenity": "place_of_worship",
        "building": "temple",
        "name": "Muthyalamma Temple",
        "name:kn": "ಮುತ್ಯಾಲಮ್ಮ ದೇವಸ್ಥಾನ",
        "religion": "hindu"
      }
    },
    {
      "type": "way",
      "id": 217529761,
      "center": {
        "lat": 12.9624117,
        "lon": 77.6350605
      },
      "tags": {
        "amenity": "place_of_worship",
        "name": "Chokkanathaswamy temple",
        "name:kn": "ಶ್ರೀ ಚೊಕ್ಕನಾಥಸ್ವಾಮಿ ದೇವಸ್ಥಾನ",
        "religion": "hindu",
        "wikipedia": "en:Domlur Chokkanathaswamy temple"
      }
    },
    {
      "type": "way",
      "id": 217565212,
      "center": {
        "lat": 12.9611902,
        "lon": 77.6413946
      },
      "tags": {
        "leisure": "park",
        "name": "Kanakadasa Park",
        "name:kn": "ಕನಕದಾಸ ಉದ್ಯಾನವನ"
      }
    },
    {
      "type": "way",
      "id": 217565864,
      "center": {
        "lat": 12.9610957,
        "lon": 77.6364444
      },
      "tags": {
        "leisure": "playground"
      }
    },
    {
      "type": "way",
      "id": 217565866,
      "center": {
        "lat": 12.9609678,
        "lon": 77.6376394
      },
      "tags": {
        "leisure": "park"
      }
    },
    {
      "type": "way",
      "id": 217565867,
      "center": {
        "lat": 12.9613957,
        "lon": 77.6393137
      },
      "tags": {
        "leisure": "park",
        "name": "Domlur SAARC Park",
        "name:kn": "ದೊಮಲೂರು ಸಾರ್ಕ್ ಉದ್ಯಾನವನ",
        "operator": "ಬೃಹತ್ ಬೆಂಗಳೂರು ಮಹಾನಗರ ಪಾಲಿಕೆ",
        "operator:en": "Bruhat Bengaluru Mahanagara Palike",
        "operator:ka": "ಬೃಹತ್ ಬೆಂಗಳೂರು ಮಹಾನಗರ ಪಾಲಿಕೆ",
        "operator:short": "BBMP",
        "operator:type": "government",
        "operator:wikidata": "Q4978693"
      }
    },
    {
      "type": "way",
      "id": 313832231,
      "center": {
        "lat": 12.9635407,
        "lon": 77.636438
      },
      "tags": {
        "amenity": "place_of_worship",
        "religion": "hindu"
      }
    },
    {
      "type": "way",
      "id": 313927907,
      "center": {
        "lat": 12.964068,
        "lon": 77.6375813
      },
      "tags": {
        "addr:street": "4th Main Road",
        "leisure": "swimming_pool",
        "lit": "yes",
        "name": "Domlur Club Swimming Pool",
        "sport": "swimming"
      }
    },
    {
      "type": "way",
      "id": 313927909,
      "center": {
        "lat": 12.964886,
        "lon": 77.6367311
      },
      "tags": {
        "leisure": "pitch"
      }
    },
    {
      "type": "way",
      "id": 328435494,
      "center": {
        "lat": 12.9532993,
        "lon": 77.6399399
      },
      "tags": {
        "leisure": "park"
      }
    },
    {
      "type": "way",
      "id": 346531132,
      "center": {
        "lat": 12.9588336,
        "lon": 77.642376
      },
      "tags": {
        "access": "private",
        "leisure": "swimming_pool"
      }
    },
    {
      "type": "way",
      "id": 346533688,
      "center": {
        "lat": 12.9577804,
        "lon": 77.6442655
      },
      "tags": {
        "access": "customers",
        "amenity": "parking",
        "parking": "surface"
      }
    },
    {
      "type": "way",
      "id": 347092428,
      "center": {
        "lat": 12.9548321,
        "lon": 77.6386172
      },
      "tags": {
        "addr:city": "Bengaluru",
        "addr:postcode": "560071",
        "amenity": "place_of_worship",
        "building": "yes",
        "name": "Surya Narayana Swamy Temple",
        "name:kn": "ಸೂರ್ಯ ನಾರಯಣ ಸ್ವಾಮಿ ದೇವಸ್ಥಾನ",
        "religion": "hindu"
      }
    },
    {
      "type": "way",
      "id": 347217736,
      "center": {
        "lat": 12.968323,
        "lon": 77.639833
      },
      "tags": {
        "addr:housenumber": "3347",
        "amenity": "clinic",
        "building": "yes",
        "name": "SPARRC Institute"
      }
    },
    {
      "type": "way",
      "id": 368398986,
      "center": {
        "lat": 12.9674484,
        "lon": 77.6403017
      },
      "tags": {
        "amenity": "place_of_worship",
        "name": "Sri Maheshwaramma Devi",
        "religion": "hindu"
      }
    },
    {
      "type": "way",
      "id": 368398988,
      "center": {
        "lat": 12.9674749,
        "lon": 77.6400462
      },
      "tags": {
        "amenity": "parking"
      }
    },
    {
      "type": "way",
      "id": 368398989,
      "center": {
        "lat": 12.9681433,
        "lon": 77.6395496
      },
      "tags": {
        "amenity": "place_of_worship",
        "building": "temple",
        "religion": "hindu"
      }
    },
    {
      "type": "way",
      "id": 568518772,
      "center": {
        "lat": 12.954191,
        "lon": 77.6387603
      },
      "tags": {
        "leisure": "garden"
      }
    },
    {
      "type": "way",
      "id": 568518774,
      "center": {
        "lat": 12.9542967,
        "lon": 77.6396129
      },
      "tags": {
        "access": "private",
        "leisure": "swimming_pool"
      }
    },
    {
      "type": "way",
      "id": 568518783,
      "center": {
        "lat": 12.956039,
        "lon": 77.6381819
      },
      "tags": {
        "leisure": "swimming_pool"
      }
    },
    {
      "type": "way",
      "id": 1119921713,
      "center": {
        "lat": 12.9610014,
        "lon": 77.6401262
      },
      "tags": {
        "amenity": "recycling",
        "name": "Wet Waste Transfer Station",
        "operator": "BBMP",
        "recycling_type": "centre"
      }
    },
    {
      "type": "way",
      "id": 1146457069,
      "center": {
        "lat": 12.9581599,
        "lon": 77.6383415
      },
      "tags": {
        "amenity": "place_of_worship",
        "building": "yes",
        "name": "Shiva Temple",
        "name:kn": "ಶಿವ ದೇವಸ್ಥಾನ",
        "religion": "hindu"
      }
    },
    {
      "type": "way",
      "id": 1244111887,
      "center": {
        "lat": 12.9657978,
        "lon": 77.6370407
      },
      "tags": {
        "amenity": "shelter",
        "shelter_type": "gazebo"
      }
    },
    {
      "type": "way",
      "id": 1244111889,
      "center": {
        "lat": 12.9659229,
        "lon": 77.6369375
      },
      "tags": {
        "leisure": "fitness_station",
        "sport": "fitness"
      }
    },
    {
      "type": "way",
      "id": 1268354189,
      "center": {
        "lat": 12.958808,
        "lon": 77.64127
      },
      "tags": {
        "leisure": "park"
      }
    },
    {
      "type": "way",
      "id": 1268354208,
      "center": {
        "lat": 12.9565359,
        "lon": 77.6420975
      },
      "tags": {
        "amenity": "parking",
        "parking": "surface"
      }
    },
    {
      "type": "way",
      "id": 1268355366,
      "center": {
        "lat": 12.9604414,
        "lon": 77.6417185
      },
      "tags": {
        "amenity": "toilets",
        "building": "yes",
        "fee": "yes",
        "female": "yes",
        "male": "yes"
      }
    },
    {
      "type": "way",
      "id": 1302988903,
      "center": {
        "lat": 12.9519885,
        "lon": 77.6395726
      },
      "tags": {
        "amenity": "parking"
      }
    },
    {
      "type": "way",
      "id": 1305606064,
      "center": {
        "lat": 12.9531548,
        "lon": 77.6403548
      },
      "tags": {
        "amenity": "fuel",
        "compressed_air": "yes"
      }
    },
    {
      "type": "way",
      "id": 1307054909,
      "center": {
        "lat": 12.9620521,
        "lon": 77.6344555
      },
      "tags": {
        "addr:place": "Dommaluru",
        "amenity": "school",
        "isced:level": "2",
        "name": "Government Moedl Primary School, Domlut",
        "name:kn": "ಸರ್ಕಾರಿ ಮಾದರಿ ಪ್ರಾ.ಶಾಲೆ ದೊಮ್ಮಲೂರು",
        "official_name": "Karnataka Public School",
        "operator": "Department of Education",
        "school": "primary"
      }
    },
    {
      "type": "way",
      "id": 1351867040,
      "center": {
        "lat": 12.962186,
        "lon": 77.6379763
      },
      "tags": {
        "leisure": "common",
        "natural": "scrub"
      }
    },
    {
      "type": "way",
      "id": 1416028274,
      "center": {
        "lat": 12.9609894,
        "lon": 77.6349469
      },
      "tags": {
        "amenity": "school",
        "name": "Government School"
      }
    },
    {
      "type": "way",
      "id": 1416028304,
      "center": {
        "lat": 12.9614142,
        "lon": 77.6345753
      },
      "tags": {
        "amenity": "fuel",
        "brand": "Indian Oil",
        "brand:wikidata": "Q1289348",
        "brand:wikipedia": "en:Indian Oil Corporation",
        "compressed_air": "yes",
        "name": "Indian Oil",
        "operator": "Indian Oil"
      }
    },
    {
      "type": "way",
      "id": 1443848430,
      "center": {
        "lat": 12.9553874,
        "lon": 77.6379943
      },
      "tags": {
        "leisure": "garden"
      }
    }
  ]
}