{
  "area_name": "Dooravaninagar",
  "osm_id": 19883494,
  "osm_type": "relation",
  "place_type": "administrative",
  "amenity_count": 27,
  "amenities": [
    {
      "type": "node",
      "id": 1724460266,
      "lat": 13.0121881,
      "lon": 77.6673811,
      "tags": {
        "name": "Koutons Cloth Shop",
        "shop": "supermarket"
      }
    },
    {
      "type": "node",
      "id": 1724997151,
      "lat": 13.0128343,
      "lon": 77.6673677,
      "tags": {
        "amenity": "school",
        "check_date": "2025-06-17",
        "name": "Narayana PU College",
        "name:en": "Narayana PU College"
      }
    },
    {
      "type": "node",
      "id": 1725094667,
      "lat": 13.0123108,
      "lon": 77.6672269,
      "tags": {
        "addr:housenumber": "Sy. No. 46/1, ANR Complex",
        "addr:street": "Ramamurthy Nagar Main Road",
        "brand": "DMart",
        "brand:wikidata": "Q5203271",
        "name": "DMart",
        "opening_hours": "Mo-Su 10:00-22:00",
        "shop": "supermarket",
        "website": "https://dmartindia.com"
      }
    },
    {
      "type": "node",
      "id": 1761867450,
      "lat": 13.0118335,
      "lon": 77.668096,
      "tags": {
        "amenity": "restaurant",
        "diet:vegetarian": "only",
        "name": "Uttam Sagar",
        "name:kn": "ಉತ್ತಮ್ ಸಾಗರ್"
      }
    },
    {
      "type": "node",
      "id": 1761867730,
      "lat": 13.0127088,
      "lon": 77.6650142,
      "tags": {
        "amenity": "restaurant",
        "diet:vegetarian": "only",
        "name": "Savi Ruchi",
        "name:kn": "ಸವಿರುಚಿ"
      }
    },
    {
      "type": "node",
      "id": 1761867731,
      "lat": 13.0121288,
      "lon": 77.6660982,
      "tags": {
        "amenity": "place_of_worship",
        "name": "Shani Temple",
        "name:kn": "ಶನಿ ದೇವಸ್ಥಾನ",
        "religion": "hindu"
      }
    },
    {
      "type": "node",
      "id": 1794124098,
      "lat": 13.0122467,
      "lon": 77.6657663,
      "tags": {
        "amenity": "Muthoot Finance",
        "operator": "Muthoot Finance"
      }
    },
    {
      "type": "node",
      "id": 1794124377,
      "lat": 13.0121997,
      "lon": 77.6659808,
      "tags": {
        "name": "Megamart",
        "operator": "Clothers",
        "shop": "supermarket"
      }
    },
    {
      "type": "node",
      "id": 1958294905,
      "lat": 13.0100409,
      "lon": 77.6674667,
      "tags": {
        "amenity": "hospital",
        "name": "Charan Homeopathy, Ramamurthy Nagar"
      }
    },
    {
      "type": "node",
      "id": 4488951689,
      "lat": 13.0117538,
      "lon": 77.6694975,
      "tags": {
        "addr:city": "Bangalore",
        "addr:housenumber": "62",
        "addr:postcode": "560016",
        "addr:street": "CSA Plaza, Ramamurthy Nagar Main Road, Ramamurthy Nagar",
        "name": "Shiva Sai Sports And General Trading",
        "phone": "+918033294051",
        "shop": "sports"
      }
    },
    {
      "type": "node",
      "id": 4489743929,
      "lat": 13.0122309,
      "lon": 77.6685247,
      "tags": {
        "addr:city": "Bangalore",
        "addr:housenumber": "41",
        "addr:postcode": "560016",
        "addr:street": "H.K.R.Complex,Opp. Durga Bangalore, Sani Mahatma Temple Road, Bhadrappa Layout, Garden Street Layout, Krishna Reddy Layout, Ramamurthy Nagar",
        "leisure": "sports_centre",
        "name": "Fusion Fitness",
        "opening_hours": "05:30-22:00",
        "phone": "8025666929",
        "sport": "gymnasium"
      }
    },
    {
      "type": "node",
      "id": 4489955031,
      "lat": 13.0149422,
      "lon": 77.6661372,
      "tags": {
        "addr:city": "bangalore",
        "addr:housenumber": "46",
        "addr:postcode": "560016",
        "addr:street": "marthalli road",
        "name": "Brindas Beauty Clinic And Academy",
        "opening_hours": "10:30-21:00",
        "phone": "080-33083089",
        "shop": "beauty"
      }
    },
    {
      "type": "node",
      "id": 6947662480,
      "lat": 13.011968,
      "lon": 77.6659168,
      "tags": {
        "addr:district": "Bengaluru Urban",
        "addr:full": "#311, 4B Cross, R.M. Nagar Main Road, Kasthuri Nagar",
        "addr:postcode": "560016",
        "addr:state": "Karnataka",
        "amenity": "hospital",
        "name": "Sri Sai Eye Hospital",
        "source": "OpenGovernmentData"
      }
    },
    {
      "type": "node",
      "id": 6991301269,
      "lat": 13.0041876,
      "lon": 77.6659393,
      "tags": {
        "addr:street": "Kempegowda Underpass Road",
        "amenity": "police",
        "name": "Ramamurthy Nagar Police Station"
      }
    },
    {
      "type": "node",
      "id": 6991371023,
      "lat": 13.0076876,
      "lon": 77.6683121,
      "tags": {
        "addr:street": "3rd Cross, Subramani Layout",
        "amenity": "school",
        "name": "Manu Kannada School"
      }
    },
    {
      "type": "node",
      "id": 6991415993,
      "lat": 13.0119371,
      "lon": 77.6670609,
      "tags": {
        "addr:street": "No. 5C-404, Ramamurthy Nagar Main Road",
        "amenity": "bank",
        "brand": "Andhra Bank",
        "brand:wikidata": "Q2003476",
        "name": "Andhra Bank",
        "name:kn": "ಆಂಧ್ರ ಬ್ಯಾಂಕ್",
        "opening_hours": "Mo-Sa 09:30-16:00"
      }
    },
    {
      "type": "node",
      "id": 6991444326,
      "lat": 13.0089378,
      "lon": 77.6674347,
      "tags": {
        "addr:street": "SP Naidu Layout",
        "amenity": "bank",
        "brand": "State Bank of India",
        "brand:wikidata": "Q1340361",
        "name": "State Bank of India",
        "short_name": "SBI"
      }
    },
    {
      "type": "node",
      "id": 6991455384,
      "lat": 13.0120621,
      "lon": 77.6673126,
      "tags": {
        "addr:street": "410, #5C, Ramamurthy Nagar Main Road",
        "amenity": "bank",
        "name": "Kaveri Grameena Bank",
        "not:brand:wikidata": "Q24936908",
        "opening_hours": "Mo-Sa 10:00-17:00"
      }
    },
    {
      "type": "node",
      "id": 6991459885,
      "lat": 13.0115623,
      "lon": 77.6679382,
      "tags": {
        "addr:street": "No. 183, Ground Floor, Near Uttam Sagar Hotel",
        "brand": "Nilgiri's",
        "brand:wikidata": "Q17079567",
        "name": "Nilgiri's",
        "shop": "supermarket"
      }
    },
    {
      "type": "node",
      "id": 6992185318,
      "lat": 13.0078807,
      "lon": 77.6708126,
      "tags": {
        "addr:city": "Bangalore",
        "addr:housenumber": "351",
        "addr:postcode": "560016",
        "addr:street": "1st Main, 2nd Cross, Kuvempu Nagar, Ramamurthy Nagar",
        "name": "Sri Vinayaka Enterprises",
        "opening_hours": "Mo-Su 07:30-21:00",
        "payment:cash": "yes",
        "payment:paytm": "yes",
        "payment:upi": "yes",
        "shop": "stationery"
      }
    },
    {
      "type": "node",
      "id": 11108947099,
      "lat": 13.0129811,
      "lon": 77.6639785,
      "tags": {
        "addr:city": "Bengaluru",
        "addr:district": "Bengaluru Urban",
        "addr:housenumber": "827/6",
        "addr:postcode": "560016",
        "addr:street": "3rd Floor, D.V.R ARCADE, Ramamurthy nagar main road",
        "amenity": "theatre",
        "amenity_1": "cafe",
        "name": "Chaplin Hut",
        "website": "https://www.chaplinhut.com/"
      }
    },
    {
      "type": "node",
      "id": 12919948119,
      "lat": 13.0120327,
      "lon": 77.6671163,
      "tags": {
        "addr:floor": "G",
        "amenity": "bank",
        "atm": "yes",
        "brand": "Union Bank of India",
        "brand:wikidata": "Q2004078",
        "check_date": "2025-06-17",
        "currency:INR": "yes",
        "drive_through": "no",
        "level": "0",
        "name": "Union Bank of India",
        "name:en": "Union Bank of India"
      }
    },
    {
      "type": "way",
      "id": 1267178656,
      "center": {
        "lat": 13.0000665,
        "lon": 77.6665505
      },
      "tags": {
        "access": "private",
        "leisure": "swimming_pool"
      }
    },
    {
      "type": "way",
      "id": 1339756836,
      "center": {
        "lat": 13.0008706,
        "lon": 77.6653039
      },
      "tags": {
        "leisure": "park"
      }
    },
    {
      "type": "way",
      "id": 1395880673,
      "center": {
        "lat": 13.0124198,
        "lon": 77.6666622
      },
      "tags": {
        "amenity": "fuel",
        "name": "IBP Petrol Pump"
      }
    },
    {
      "type": "way",
      "id": 1395880704,
      "center": {
        "lat": 13.010457,
        "lon": 77.6696582
      },
      "tags": {
        "addr:city": "Bengaluru",
        "addr:postcode": "560016",
        "addr:street": "Main road, Ramamurthy Nagar",
        "amenity": "school",
        "name": "Jaigopal Garodia Rashtrotthana Vidya Kendra",
        "website": "https://rvkcbse.in/rm-nagar/index.html"
      }
    },
    {
      "type": "way",
      "id": 1395880709,
      "center": {
        "lat": 13.0075324,
        "lon": 77.666812
      },
      "tags": {
        "leisure": "park"
      }
    }
  ]
}