{
  "area_name": "Doresanipalya",
  "osm_id": 19883366,
  "osm_type": "relation",
  "place_type": "administrative",
  "amenity_count": 138,
  "amenities": [
    {
      "type": "node",
      "id": 560369938,
      "lat": 12.894851,
      "lon": 77.5984624,
      "tags": {
        "addr:street": "Bannerghatta Road",
        "amenity": "parking",
        "parking": "surface"
      }
    },
    {
      "type": "node",
      "id": 1727330720,
      "lat": 12.8941563,
      "lon": 77.5987321,
      "tags": {
        "name": "Nandhu motors",
        "shop": "car_repair"
      }
    },
    {
      "type": "node",
      "id": 2254725032,
      "lat": 12.8843474,
      "lon": 77.596172,
      "tags": {
        "addr:city": "Bangalore",
        "addr:postcode": "560076",
        "name": "Featherlite",
        "shop": "furniture"
      }
    },
    {
      "type": "node",
      "id": 2254725045,
      "lat": 12.884425,
      "lon": 77.5962042,
      "tags": {
        "addr:city": "Bangalore",
        "addr:postcode": "560076",
        "brand": "Bata",
        "brand:wikidata": "Q688082",
        "name": "Bata",
        "name:kn": "ಬಾಟಾ",
        "shop": "shoes"
      }
    },
    {
      "type": "node",
      "id": 2254725051,
      "lat": 12.885152,
      "lon": 77.595731,
      "tags": {
        "addr:city": "Bangalore",
        "addr:postcode": "560076",
        "amenity": "kindergarten",
        "name": "Euro Kids"
      }
    },
    {
      "type": "node",
      "id": 2254725055,
      "lat": 12.8846171,
      "lon": 77.5961943,
      "tags": {
        "addr:city": "Bangalore",
        "addr:postcode": "560076",
        "amenity": "restaurant",
        "name": "Aishwarya Parkland"
      }
    },
    {
      "type": "node",
      "id": 2254725057,
      "lat": 12.8836585,
      "lon": 77.5959959,
      "tags": {
        "addr:city": "Bangalore",
        "addr:street": "Bannerghatta Road",
        "name": "Benison",
        "shop": "supermarket"
      }
    },
    {
      "type": "node",
      "id": 2259659280,
      "lat": 12.8844132,
      "lon": 77.596128,
      "tags": {
        "amenity": "bank",
        "brand": "State Bank of India",
        "brand:wikidata": "Q1340361",
        "brand:wikipedia": "en:State Bank of India",
        "name": "State Bank of India",
        "name:kn": "ಭಾರತೀಯ ಸ್ಟೇಟ್ ಬ್ಯಾಂಕ್",
        "short_name": "SBI"
      }
    },
    {
      "type": "node",
      "id": 2281199651,
      "lat": 12.8894502,
      "lon": 77.5940375,
      "tags": {
        "amenity": "bus_station",
        "name": "Arekere MICO Layout Bus Station"
      }
    },
    {
      "type": "node",
      "id": 2287724232,
      "lat": 12.8868609,
      "lon": 77.5929755,
      "tags": {
        "addr:housename": "Ocean Fresh",
        "name": "Ocean Fresh Fish shop",
        "shop": "butcher"
      }
    },
    {
      "type": "node",
      "id": 2385063246,
      "lat": 12.8965246,
      "lon": 77.5975594,
      "tags": {
        "amenity": "parking",
        "capacity": "30",
        "parking": "surface"
      }
    },
    {
      "type": "node",
      "id": 2535325754,
      "lat": 12.8912734,
      "lon": 77.5941509,
      "tags": {
        "amenity": "atm",
        "brand": "HDFC Bank",
        "brand:wikidata": "Q631047",
        "operator": "HDFC Bank",
        "operator:wikidata": "Q631047",
        "short_name": "HDFC"
      }
    },
    {
      "type": "node",
      "id": 2835792671,
      "lat": 12.8911903,
      "lon": 77.5981332,
      "tags": {
        "amenity": "restaurant",
        "cuisine": "indian",
        "name": "Guru Garden Restaurant"
      }
    },
    {
      "type": "node",
      "id": 2855634916,
      "lat": 12.8847019,
      "lon": 77.5917498,
      "tags": {
        "amenity": "school",
        "name": "Aradhana Academy"
      }
    },
    {
      "type": "node",
      "id": 2892739440,
      "lat": 12.8907463,
      "lon": 77.5965269,
      "tags": {
        "addr:district": "Bengaluru Urban",
        "addr:full": "No 78,Arekere Mico Layout,Bannerghatta Road Bangaloe",
        "addr:postcode": "560076",
        "addr:state": "Karnataka",
        "amenity": "clinic",
        "emergency": "yes",
        "healthcare": "clinic",
        "name": "Aditi Maternity and Genral Nursing Home",
        "source": "OpenGovernmentData"
      }
    },
    {
      "type": "node",
      "id": 2892742440,
      "lat": 12.8908632,
      "lon": 77.5980012,
      "tags": {
        "access": "customers",
        "amenity": "parking",
        "parking": "surface"
      }
    },
    {
      "type": "node",
      "id": 2920093968,
      "lat": 12.8924249,
      "lon": 77.5985953,
      "tags": {
        "amenity": "fast_food",
        "cuisine": "indian",
        "name": "Ammis Biriyani",
        "name:kn": "ಅಮ್ಮಿ ಬಿರಿಯಾನಿ"
      }
    },
    {
      "type": "node",
      "id": 2920098830,
      "lat": 12.8910556,
      "lon": 77.5950031,
      "tags": {
        "amenity": "bank",
        "atm": "no",
        "brand": "Vijay Bank",
        "name": "Vijaya Bank",
        "name:kn": "ವಿಜಯ ಬ್ಯಾಂಕು"
      }
    },
    {
      "type": "node",
      "id": 2949121946,
      "lat": 12.8957721,
      "lon": 77.5994431,
      "tags": {
        "amenity": "atm",
        "brand": "Axis Bank",
        "brand:wikidata": "Q2003549",
        "name": "Axis Bank",
        "name:kn": "ಆಕ್ಸಿಸ್ ಬ್ಯಾಂಕ್",
        "operator": "Axis Bank",
        "operator:wikidata": "Q2003549"
      }
    },
    {
      "type": "node",
      "id": 2962764283,
      "lat": 12.8923303,
      "lon": 77.5985791,
      "tags": {
        "brand": "Titan",
        "name": "World of Titan",
        "note": "Shop selling watches",
        "shop": "watches",
        "source": "survey"
      }
    },
    {
      "type": "node",
      "id": 2962764484,
      "lat": 12.8923687,
      "lon": 77.597989,
      "tags": {
        "amenity": "bank",
        "atm": "yes",
        "brand": "Axis Bank",
        "brand:wikidata": "Q2003549",
        "brand:wikipedia": "en:Axis Bank",
        "name": "Axis Bank",
        "name:en": "Axis Bank",
        "name:kn": "ಆಕ್ಸಿಸ್ ಬ್ಯಾಂಕ್",
        "operator": "Axis Bank",
        "website": "https://www.axisbank.com"
      }
    },
    {
      "type": "node",
      "id": 2962764486,
      "lat": 12.8922835,
      "lon": 77.5982384,
      "tags": {
        "amenity": "restaurant",
        "cuisine": "chinese",
        "name": "Bejing Bites",
        "name:kn": "ಬೀಜಿಂಗ್ ಬೈಟ್ಸ್",
        "source": "survey"
      }
    },
    {
      "type": "node",
      "id": 2962764487,
      "lat": 12.8924256,
      "lon": 77.5977824,
      "tags": {
        "amenity": "bank",
        "atm": "yes",
        "brand": "Corporation Bank",
        "brand:wikidata": "Q2003387",
        "brand:wikipedia": "en:Corporation Bank",
        "name": "Corporation Bank",
        "name:en": "Corporation Bank",
        "name:kn": "ಕಾರ್ಪರೇಷನ್ ಬ್ಯಾಂಕ್",
        "source": "survey",
        "website": "https://corpbank.com/"
      }
    },
    {
      "type": "node",
      "id": 2962764488,
      "lat": 12.8920786,
      "lon": 77.5983413,
      "tags": {
        "amenity": "fast_food",
        "brand": "Five Star Chicken",
        "cuisine": "chicken",
        "delivery": "yes",
        "name": "Five Star Chicken",
        "takeaway": "yes"
      }
    },
    {
      "type": "node",
      "id": 2962764489,
      "lat": 12.8921315,
      "lon": 77.5981942,
      "tags": {
        "alt_name": "Goli Vada Pav No.1",
        "amenity": "fast_food",
        "brand": "Goli Vada Pav",
        "brand:wikidata": "Q5580697",
        "cuisine": "indian",
        "name": "Goli Vada Pav",
        "name:kn": "ಗೋಲಿ ವಡ ಪಾವ್",
        "takeaway": "yes"
      }
    },
    {
      "type": "node",
      "id": 2962764491,
      "lat": 12.892273,
      "lon": 77.5982637,
      "tags": {
        "amenity": "ice_cream",
        "brand": "Naturals",
        "brand:wikidata": "Q24439154",
        "cuisine": "ice_cream",
        "name": "Naturals"
      }
    },
    {
      "type": "node",
      "id": 2962764492,
      "lat": 12.892511,
      "lon": 77.5975778,
      "tags": {
        "shop": "beauty",
        "source": "survey"
      }
    },
    {
      "type": "node",
      "id": 2962764493,
      "lat": 12.8923846,
      "lon": 77.5979036,
      "tags": {
        "name": "Samsung Smart Plaza",
        "shop": "electronics"
      }
    },
    {
      "type": "node",
      "id": 2962764494,
      "lat": 12.8923027,
      "lon": 77.5981823,
      "tags": {
        "name": "Trinity Eye Vision",
        "shop": "optician",
        "source": "survey"
      }
    },
    {
      "type": "node",
      "id": 2962764496,
      "lat": 12.8923153,
      "lon": 77.5981397,
      "tags": {
        "addr:street": "1 Main Road",
        "amenity": "fast_food",
        "cuisine": "ice_cream;local;sandwich",
        "diet:vegetarian": "yes",
        "name": "Juice Junction",
        "note": "Diagnostic tests",
        "opening_hours": "Mo-Su 09:00-22:00",
        "shop": "diagnostic_centre",
        "source": "survey"
      }
    },
    {
      "type": "node",
      "id": 2962764497,
      "lat": 12.8920381,
      "lon": 77.5984579,
      "tags": {
        "name": "9 to 9 Sight Zone Optics",
        "shop": "optician",
        "source": "survey"
      }
    },
    {
      "type": "node",
      "id": 3019860765,
      "lat": 12.8885816,
      "lon": 77.5970487,
      "tags": {
        "amenity": "restaurant",
        "name": "Athithi Andhra Style Restaurant",
        "source": "survey"
      }
    },
    {
      "type": "node",
      "id": 3019860767,
      "lat": 12.8897004,
      "lon": 77.5974903,
      "tags": {
        "amenity": "restaurant",
        "cuisine": "bengali",
        "name": "Bengaliana",
        "source": "survey"
      }
    },
    {
      "type": "node",
      "id": 3019860768,
      "lat": 12.8884874,
      "lon": 77.5970745,
      "tags": {
        "amenity": "bank",
        "atm": "yes",
        "brand": "Canara Bank",
        "brand:en": "Canara Bank",
        "brand:hi": "केनरा बैंक",
        "brand:kn": "ಕೆನರಾ ಬ್ಯಾಂಕ್",
        "brand:pa": "ਕੇਨਰਾ ਬੈਂਕ",
        "brand:pnb": "کینرا بینک",
        "brand:ur": "کینرا بینک",
        "brand:wikidata": "Q2003777",
        "brand:wikipedia": "en:Canara Bank",
        "brand:wikipedia:pa": "ਕੇਨਰਾ ਬੈਂਕ",
        "name": "Canara Bank",
        "name:en": "Canara Bank",
        "name:hi": "केनरा बैंक",
        "name:kn": "ಕೆನರಾ ಬ್ಯಾಂಕ್",
        "name:pa": "ਕੇਨਰਾ ਬੈਂਕ",
        "name:pnb": "کینرا بینک",
        "name:ur": "کینرا بینک",
        "source": "survey",
        "website": "https://www.canarabank.com/"
      }
    },
    {
      "type": "node",
      "id": 3019860769,
      "lat": 12.890105,
      "lon": 77.5976831,
      "tags": {
        "amenity": "fast_food",
        "brand": "Domino's",
        "brand:ks": "ڈومینوز",
        "brand:pa": "ਡੋਮੀਨੋਜ਼",
        "brand:ur": "ڈومینوز",
        "brand:wikidata": "Q839466",
        "brand:wikipedia": "en:Domino's Pizza",
        "cuisine": "pizza",
        "name": "Domino's",
        "name:ks": "ڈومینوز",
        "name:pa": "ਡੋਮੀਨੋਜ਼",
        "name:ur": "ڈومینوز",
        "takeaway": "yes"
      }
    },
    {
      "type": "node",
      "id": 3019860773,
      "lat": 12.8897164,
      "lon": 77.5975027,
      "tags": {
        "addr:city": "Bangalore",
        "addr:housenumber": "7, 2nd Floor, Krish Towers, Arekere",
        "addr:postcode": "560076",
        "addr:street": "Bannerghatta Road",
        "air_conditioning": "yes",
        "amenity": "restaurant",
        "cuisine": "mughlai;hyderabadi",
        "delivery": "yes",
        "name": "Dadi's Dum Biryani",
        "phone": "+917090377777",
        "source": "survey;local knowledge",
        "takeaway": "yes"
      }
    },
    {
      "type": "node",
      "id": 3019860775,
      "lat": 12.8896402,
      "lon": 77.597468,
      "tags": {
        "brand": "Liberty",
        "brand:wikidata": "Q6541947",
        "name": "Liberty Exclusive Showroom",
        "name:kn": "ಲಿಬರ್ಟಿ",
        "shop": "shoes"
      }
    },
    {
      "type": "node",
      "id": 3019860778,
      "lat": 12.8895058,
      "lon": 77.5974312,
      "tags": {
        "amenity": "restaurant",
        "brand": "Pizza Hut",
        "brand:wikidata": "Q191615",
        "cuisine": "pizza",
        "name": "Pizza Hut",
        "name:kn": "ಪಿಟ್ಸ ಹಟ್",
        "operator": "pizza",
        "source": "survey"
      }
    },
    {
      "type": "node",
      "id": 3019860781,
      "lat": 12.8901866,
      "lon": 77.5977212,
      "tags": {
        "name": "Sangeetha",
        "name:kn": "ಸಂಗೀತ",
        "shop": "mobile_phone",
        "source": "survey"
      }
    },
    {
      "type": "node",
      "id": 3019860784,
      "lat": 12.8896659,
      "lon": 77.5974787,
      "tags": {
        "amenity": "pharmacy",
        "dispensing": "yes",
        "name": "Trust"
      }
    },
    {
      "type": "node",
      "id": 3019860785,
      "lat": 12.8895296,
      "lon": 77.5974476,
      "tags": {
        "name": "UniverCell",
        "shop": "mobile_phone",
        "source": "survey"
      }
    },
    {
      "type": "node",
      "id": 3019860786,
      "lat": 12.8895502,
      "lon": 77.5974464,
      "tags": {
        "name": "YLG",
        "shop": "beauty",
        "source": "survey"
      }
    },
    {
      "type": "node",
      "id": 3019860787,
      "lat": 12.890143,
      "lon": 77.5976943,
      "tags": {
        "amenity": "restaurant",
        "cuisine": "chinese",
        "name": "Zanghs Dynasty",
        "source": "survey"
      }
    },
    {
      "type": "node",
      "id": 3019860789,
      "lat": 12.8900746,
      "lon": 77.5976753,
      "tags": {
        "amenity": "atm",
        "brand": "Ing Vysya Bank",
        "operator": "Ing Vysya Bank"
      }
    },
    {
      "type": "node",
      "id": 3019918467,
      "lat": 12.8922596,
      "lon": 77.5983606,
      "tags": {
        "amenity": "restaurant",
        "cuisine": "chinese",
        "name": "Sufiyan",
        "source": "survey"
      }
    },
    {
      "type": "node",
      "id": 3019919812,
      "lat": 12.892252,
      "lon": 77.5983398,
      "tags": {
        "amenity": "restaurant",
        "cuisine": "burger",
        "name": "Hot Burg",
        "source": "survey"
      }
    },
    {
      "type": "node",
      "id": 3019919813,
      "lat": 12.8920557,
      "lon": 77.5983772,
      "tags": {
        "name": "Yaksheswar Bakery",
        "shop": "bakery",
        "source": "survey"
      }
    },
    {
      "type": "node",
      "id": 3208555392,
      "lat": 12.9045002,
      "lon": 77.5888265,
      "tags": {
        "addr:city": "Bangalore",
        "addr:housenumber": "58",
        "addr:street": "22nd Main, Marenahalli Extension, 2nd Phase, JP Nagar",
        "amenity": "restaurant",
        "capacity": "0",
        "cuisine": "regional_(South_Indian,_North_Indian)",
        "name": "Nammoora",
        "note": "This is a strictly \"takeaway\" food joint.   This place only sells each type of food by weight. You have to bring your own vessels. There is NO seating.  \"nammoora\" means \"(food) of our village-\".",
        "phone": "08026490077"
      }
    },
    {
      "type": "node",
      "id": 3721889728,
      "lat": 12.900609,
      "lon": 77.594713,
      "tags": {
        "addr:city": "Bengaluru",
        "amenity": "bank",
        "atm": "yes",
        "brand": "ICICI Bank",
        "brand:wikidata": "Q1653258",
        "name": "ICICI Bank",
        "name:en": "ICICI Bank",
        "name:kn": "ಐಸಿಐಸಿಐ ಬ್ಯಾಂಕು",
        "short_name": "ICICI",
        "website": "https://www.icicibank.com"
      }
    },
    {
      "type": "node",
      "id": 3721914526,
      "lat": 12.900542,
      "lon": 77.594905,
      "tags": {
        "addr:city": "Bangalore",
        "amenity": "bank",
        "atm": "yes",
        "brand": "State Bank of India",
        "brand:wikidata": "Q1340361",
        "brand:wikipedia": "en:State Bank of India",
        "drive_through": "no",
        "name": "State Bank of India",
        "name:kn": "ಭಾರತೀಯ ಸ್ಟೇಟ್ ಬ್ಯಾಂಕ್",
        "short_name": "SBI",
        "wheelchair": "limited"
      }
    },
    {
      "type": "node",
      "id": 4486741294,
      "lat": 12.8910934,
      "lon": 77.5946714,
      "tags": {
        "amenity": "pharmacy",
        "brand": "MedPlus",
        "brand:wikidata": "Q65684234",
        "healthcare": "pharmacy",
        "name": "MedPlus",
        "name:en": "MedPlus",
        "name:kn": "ಮೆಡ್ ಪ್ಲಸ್"
      }
    },
    {
      "type": "node",
      "id": 4487965892,
      "lat": 12.8908667,
      "lon": 77.597713,
      "tags": {
        "addr:city": "Bangalore",
        "addr:housenumber": "1402",
        "addr:postcode": "560076",
        "addr:street": "Bilekahalli Village",
        "name": "South India Shopping Mall",
        "shop": "mall",
        "toilets": "yes"
      }
    },
    {
      "type": "node",
      "id": 4488209145,
      "lat": 12.8909456,
      "lon": 77.5955611,
      "tags": {
        "addr:city": "Bangalore",
        "addr:housenumber": "193/5",
        "addr:postcode": "560076",
        "addr:street": "Bannerghatta Road",
        "name": "Reliance kumar sports",
        "phone": "099010 52012",
        "shop": "sports"
      }
    },
    {
      "type": "node",
      "id": 4489780938,
      "lat": 12.8929819,
      "lon": 77.5955665,
      "tags": {
        "addr:city": "Bangalore",
        "addr:postcode": "560076,",
        "addr:street": "4A Cross Road,Panduranga Nagar",
        "name": "Four Fountains De Stress Spa",
        "opening_hours": "08:00-21:00",
        "phone": "9886749888",
        "shop": "massage",
        "website": "www.thefourfountains.in"
      }
    },
    {
      "type": "node",
      "id": 4702654089,
      "lat": 12.875302,
      "lon": 77.5943821,
      "tags": {
        "amenity": "community_centre",
        "name": "Meenaakshi Convention Center",
        "name:en": "Meenaakshi Convention Center"
      }
    },
    {
      "type": "node",
      "id": 4799176113,
      "lat": 12.893068,
      "lon": 77.5987074,
      "tags": {
        "addr:city": "Bangalore",
        "addr:postcode": "560076",
        "addr:street": "Bannerghatta Road",
        "alt_name": "A2B",
        "amenity": "restaurant",
        "brand": "Adyar Ananda Bhavan",
        "brand:wikidata": "Q15178238",
        "cuisine": "regional",
        "diet:vegetarian": "only",
        "email": "info@aabsweets.com",
        "indoor_seating": "yes",
        "name": "Adyar Ananda Bhavan",
        "name:kn": "ಆದ್ಯಾರ್ ಆನಂದ ಭವನ",
        "operator": "Adyar Ananda Bhavan",
        "outdoor_seating": "no",
        "phone": "+91 80 4148 5899",
        "shop": "confectionery",
        "smoking": "no",
        "website": "https://aabsweets.com"
      }
    },
    {
      "type": "node",
      "id": 5078495163,
      "lat": 12.9037265,
      "lon": 77.5917721,
      "tags": {
        "addr:city": "Bangalore",
        "addr:housenumber": "92",
        "addr:postcode": "560078",
        "addr:street": "15th Main Road",
        "name": "Banagalore Fresh & Fresh",
        "shop": "supermarket"
      }
    },
    {
      "type": "node",
      "id": 5402307943,
      "lat": 12.8931572,
      "lon": 77.5987475,
      "tags": {
        "amenity": "restaurant",
        "name": "Fattoush"
      }
    },
    {
      "type": "node",
      "id": 6062771684,
      "lat": 12.8971075,
      "lon": 77.5964133,
      "tags": {
        "name": "Fresh n More",
        "shop": "convenience"
      }
    },
    {
      "type": "node",
      "id": 6062776198,
      "lat": 12.8970488,
      "lon": 77.5967849,
      "tags": {
        "shop": "greengrocer"
      }
    },
    {
      "type": "node",
      "id": 6062776372,
      "lat": 12.8972278,
      "lon": 77.5962173,
      "tags": {
        "name": "Eber Fresh Greens",
        "shop": "greengrocer"
      }
    },
    {
      "type": "node",
      "id": 6062776374,
      "lat": 12.897113,
      "lon": 77.5963941,
      "tags": {
        "shop": "bakery"
      }
    },
    {
      "type": "node",
      "id": 6062776586,
      "lat": 12.8971848,
      "lon": 77.5964653,
      "tags": {
        "amenity": "pharmacy"
      }
    },
    {
      "type": "node",
      "id": 6152899108,
      "lat": 12.8909043,
      "lon": 77.5978268,
      "tags": {
        "addr:city": "Bangalore",
        "addr:housenumber": "1402",
        "addr:postcode": "560076",
        "addr:street": "Bannerghatta Road",
        "name": "Reliance Smart",
        "operator": "Reliance",
        "shop": "supermarket"
      }
    },
    {
      "type": "node",
      "id": 6299172287,
      "lat": 12.8823052,
      "lon": 77.5959468,
      "tags": {
        "amenity": "bank",
        "name": "Ujjivan Bank"
      }
    },
    {
      "type": "node",
      "id": 6347237722,
      "lat": 12.8982373,
      "lon": 77.5980542,
      "tags": {
        "addr:place": "Doresanipalya",
        "amenity": "school",
        "isced:level": "2",
        "name": "St Peter Ntm School Doresanipalya",
        "name:kn": "ಸೆಂಟ್‌ ಪೀಟರ್ ಎನ್‌.ಟಿ.ಎಂ ಶಾಲೆ ದೊರೆಸಾಣಿಪಾಳ್ಯ",
        "operator": "Department of Education",
        "school": "primary"
      }
    },
    {
      "type": "node",
      "id": 6400468408,
      "lat": 12.8851154,
      "lon": 77.5917402,
      "tags": {
        "addr:place": "Arakere",
        "amenity": "school",
        "isced:level": "3",
        "name": "Aradhana KHPS Arakere",
        "name:kn": "ಆರಾಧನ ಕನ್ನಡ ಹಿರಿಯ ಪ್ರಾಥಮಿಕ ಶಾಲೆ ಅರಕೆರೆ",
        "operator": "Private Un-Aided",
        "school": "Higher Secondary"
      }
    },
    {
      "type": "node",
      "id": 6406180475,
      "lat": 12.8846325,
      "lon": 77.5920843,
      "tags": {
        "addr:place": "Arakere",
        "amenity": "school",
        "isced:level": "3",
        "name": "Aradhana EHPS Arakere, Arakere",
        "name:kn": "ಆರಾಧನ ಆಂಗ್ಲ ಹಿರಿಯ ಪ್ರಾಥಮಿಕ ಶಾಲೆ ಅರಕೆರೆ",
        "operator": "Private Un-Aided",
        "school": "Higher secondary"
      }
    },
    {
      "type": "node",
      "id": 6437807460,
      "lat": 12.8838456,
      "lon": 77.5952932,
      "tags": {
        "addr:place": "Bommana Halli cmc",
        "amenity": "school",
        "isced:level": "3",
        "name": "Janak Vidyalaya, Bommana Halli Cmc",
        "name:kn": "ಜನಕ್ ವಿದ್ಯಾಲಯ,ಬೊಮ್ಮನಹಳ್ಳಿ ಸಿ.ಎಂ.ಸಿ",
        "operator": "Private Un-Aided",
        "school": "Higher Secondary"
      }
    },
    {
      "type": "node",
      "id": 6882713315,
      "lat": 12.8947975,
      "lon": 77.598757,
      "tags": {
        "addr:city": "Bengaluru",
        "addr:district": "BENGALURU URBAN",
        "addr:full": "Bannerghatta Road",
        "addr:postcode": "560076",
        "addr:state": "Karnataka",
        "amenity": "blood_bank",
        "contact:mobile": "9341960717",
        "contact:phone": "8066214055",
        "name": "Fortis Hospital Private Limited Blood Bank, Bengaluru",
        "opening_hours": "24/7",
        "operator:type": "private",
        "source": "OpenGovernmentData"
      }
    },
    {
      "type": "node",
      "id": 6882713316,
      "lat": 12.896344,
      "lon": 77.5978813,
      "tags": {
        "addr:city": "Bengaluru",
        "addr:district": "BENGALURU URBAN",
        "addr:full": "Apollo Hospitals a unit of Imperial Cancer Hospital and Research Centre Limited, 154/11, Opp. I. I. M Bannerghatta Road",
        "addr:postcode": "560076",
        "addr:state": "Karnataka",
        "amenity": "blood_bank",
        "contact:mobile": "9945683872",
        "contact:phone": "08026304050/51",
        "fax": "080 41463151",
        "name": "Apollo Hospitals (Imperial Cancer Hospital and Research Centre) Blood Bank",
        "opening_hours": "24/7",
        "operator:type": "private",
        "source": "OpenGovernmentData",
        "website": "http://www.apollohospitalsbangalore.com"
      }
    },
    {
      "type": "node",
      "id": 6938787285,
      "lat": 12.8822813,
      "lon": 77.5957945,
      "tags": {
        "addr:district": "Bengaluru Urban",
        "addr:full": "Dsp Tower, No 40, 1st Floor Above Icici Bank Ltd",
        "addr:postcode": "560076",
        "addr:state": "Karnataka",
        "addr:subdistrict": "Arkere",
        "amenity": "hospital",
        "healthcare": "hospital",
        "name": "Vasan Eye Care Hospital, Bannergatta Road",
        "operator:type": "private",
        "source": "OpenGovernmentData",
        "website": "http://www.vasaneye.in/"
      }
    },
    {
      "type": "node",
      "id": 7389755625,
      "lat": 12.8962459,
      "lon": 77.5963547,
      "tags": {
        "leisure": "fitness_centre",
        "name": "Step In Fitness"
      }
    },
    {
      "type": "node",
      "id": 7389755626,
      "lat": 12.8962312,
      "lon": 77.5963832,
      "tags": {
        "shop": "greengrocer"
      }
    },
    {
      "type": "node",
      "id": 7389755627,
      "lat": 12.8960204,
      "lon": 77.5963832,
      "tags": {
        "shop": "kiosk"
      }
    },
    {
      "type": "node",
      "id": 7389755628,
      "lat": 12.8970998,
      "lon": 77.5966803,
      "tags": {
        "shop": "kiosk"
      }
    },
    {
      "type": "node",
      "id": 7389755629,
      "lat": 12.896897,
      "lon": 77.5970746,
      "tags": {
        "shop": "seafood"
      }
    },
    {
      "type": "node",
      "id": 7389755630,
      "lat": 12.8970634,
      "lon": 77.596866,
      "tags": {
        "amenity": "restaurant",
        "cuisine": "indian"
      }
    },
    {
      "type": "node",
      "id": 8144949269,
      "lat": 12.8846179,
      "lon": 77.596233,
      "tags": {
        "addr:city": "Bangalore",
        "addr:housenumber": "No. E1/4 & E1/11, 1st Floor, Syndicate Bank Colony, Arekere",
        "addr:postcode": "560076",
        "addr:street": "Bannerghatta Road",
        "name": "Imperial Cycles",
        "opening_hours": "Mo-Su 10:00-21:00",
        "payment:cash": "yes",
        "payment:credit_cards": "yes",
        "payment:debit_cards": "yes",
        "payment:mastercard": "yes",
        "payment:visa": "yes",
        "phone": "+91 80 49574958",
        "service:bicycle:Bicycle_Sales_and_Service": "yes",
        "service:bicycle:repair": "yes",
        "service:bicycle:retail": "yes",
        "service:bicycle:sales": "yes",
        "service:bicycle:service": "yes",
        "shop": "bicycle"
      }
    },
    {
      "type": "node",
      "id": 9852234204,
      "lat": 12.8792756,
      "lon": 77.5952473,
      "tags": {
        "amenity": "restaurant",
        "name": "Platform 65"
      }
    },
    {
      "type": "node",
      "id": 10697710311,
      "lat": 12.8843556,
      "lon": 77.5960661,
      "tags": {
        "name": "Jayant Probikes & Fitness",
        "shop": "bicycle"
      }
    },
    {
      "type": "node",
      "id": 11006391106,
      "lat": 12.8923919,
      "lon": 77.5978552,
      "tags": {
        "addr:street": "4th Cross Road",
        "amenity": "ice_cream",
        "name": "Polar Bear",
        "opening_hours": "Mo-Su 11:00-23:00",
        "website": "https://polarbear.co.in/"
      }
    },
    {
      "type": "node",
      "id": 11117270551,
      "lat": 12.8858555,
      "lon": 77.5964691,
      "tags": {
        "amenity": "cafe",
        "name": "Glen's Bakehouse",
        "shop": "bakery"
      }
    },
    {
      "type": "node",
      "id": 11125629939,
      "lat": 12.8818799,
      "lon": 77.5957811,
      "tags": {
        "addr:city": "Bengaluru",
        "addr:country": "IN",
        "addr:hamlet": "Omkar Nagar",
        "addr:housenumber": "40",
        "addr:postcode": "560076",
        "addr:street": "Bannerghatta Road",
        "addr:suburb": "Arekere",
        "amenity": "restaurant",
        "contact:facebook": "thebigbarbeque",
        "contact:instagram": "thebigbarbeque",
        "cuisine": "barbecue",
        "delivery": "yes",
        "email": "info@thebigbarbeque.com",
        "mobile": "+91 9606092044",
        "name": "The Big Barbeque",
        "opening_hours": "Mo-Su 12:00-15:30,18:30-23:30",
        "phone": "+91 9606092043",
        "takeaway": "yes",
        "website": "https://thebigbarbeque.com/marathahalli-bengaluru/"
      }
    },
    {
      "type": "node",
      "id": 11617966667,
      "lat": 12.9017025,
      "lon": 77.5932692,
      "tags": {
        "access": "private",
        "amenity": "parking_entrance",
        "parking": "underground"
      }
    },
    {
      "type": "node",
      "id": 12033486748,
      "lat": 12.9010779,
      "lon": 77.589486,
      "tags": {
        "name": "Sri Ayyappa Motors",
        "shop": "motorcycle_repair"
      }
    },
    {
      "type": "node",
      "id": 12077911516,
      "lat": 12.8951668,
      "lon": 77.5990453,
      "tags": {
        "amenity": "fast_food",
        "cuisine": "regional",
        "name": "Indira Canteen",
        "operator": "BBMP"
      }
    },
    {
      "type": "node",
      "id": 12118602001,
      "lat": 12.8895574,
      "lon": 77.5938243,
      "tags": {
        "amenity": "atm",
        "operator": "Axis Bank"
      }
    },
    {
      "type": "node",
      "id": 12160392817,
      "lat": 12.8915567,
      "lon": 77.5977606,
      "tags": {
        "amenity": "cinema",
        "name": "Cinepolis SJR Arekere"
      }
    },
    {
      "type": "node",
      "id": 12218134254,
      "lat": 12.8859507,
      "lon": 77.5964848,
      "tags": {
        "addr:city": "Bengaluru",
        "addr:housenumber": "84/1",
        "addr:postcode": "560076",
        "addr:street": "Bannerghatta Road, main road",
        "amenity": "bar",
        "name": "Miss & Mrs  India's first ever women only Lounge"
      }
    },
    {
      "type": "node",
      "id": 12632035872,
      "lat": 12.8995808,
      "lon": 77.5944346,
      "tags": {
        "amenity": "restaurant",
        "name": "High Brew"
      }
    },
    {
      "type": "node",
      "id": 12632042171,
      "lat": 12.8922383,
      "lon": 77.5985354,
      "tags": {
        "amenity": "restaurant",
        "name": "Kritunga The Palegar's Cuisine"
      }
    },
    {
      "type": "node",
      "id": 13062869344,
      "lat": 12.8915803,
      "lon": 77.5974736,
      "tags": {
        "amenity": "cafe",
        "brand": "Starbucks",
        "brand:wikidata": "Q37158",
        "cuisine": "coffee_shop",
        "indoor_seating": "yes",
        "name": "Starbucks",
        "official_name": "Starbucks Coffee",
        "outdoor_seating": "no",
        "takeaway": "yes"
      }
    },
    {
      "type": "way",
      "id": 44091443,
      "center": {
        "lat": 12.8947511,
        "lon": 77.5985816
      },
      "tags": {
        "addr:district": "Bengaluru Urban",
        "addr:full": "154/9, Bannerghatta Road, OppositeIIM-B",
        "addr:postcode": "560076",
        "addr:state": "Karnataka",
        "amenity": "hospital",
        "email": "enquiries@fortishospitals.in",
        "emergency": "yes",
        "healthcare": "hospital",
        "healthcare:speciality": "multi speciality",
        "name": "Fortis Hospitals, Bannerghatta Road",
        "name:kn": "ಫೋರ್ಟಿಸ್ ಆಸ್ಪತ್ರೆ",
        "operator:type": "private",
        "source": "OpenGovernmentData",
        "website": "www.fortishospitals.com",
        "wheelchair": "yes"
      }
    },
    {
      "type": "way",
      "id": 44091445,
      "center": {
        "lat": 12.89632,
        "lon": 77.5983495
      },
      "tags": {
        "addr:city": "Bangalore",
        "addr:district": "Bengaluru Urban",
        "addr:full": "154/11, Opp, I.I.M, Bannerghatta Road",
        "addr:postcode": "560076",
        "addr:state": "Karnataka",
        "addr:street": "Bannerghatta Road",
        "amenity": "hospital",
        "email": "customercarebangalore@apollohospitals.com",
        "emergency": "yes",
        "healthcare": "hospital",
        "healthcare:speciality": "multi speciality",
        "name": "Apollo Hospital",
        "name:kn": "ಅಪೋಲೋ ಆಸ್ಪತ್ರೆ",
        "operator:type": "private",
        "source": "OpenGovernmentData",
        "website": "www.apollohospitalsbangalore.com",
        "wheelchair": "yes"
      }
    },
    {
      "type": "way",
      "id": 121005469,
      "center": {
        "lat": 12.8748358,
        "lon": 77.5942525
      },
      "tags": {
        "amenity": "place_of_worship",
        "building": "yes",
        "name": "Shree Meenakshi Sundareshwara Temple",
        "name:kn": "ಮೀನಾಕ್ಷಿ ದೇವಸ್ಥಾನ",
        "religion": "hindu"
      }
    },
    {
      "type": "way",
      "id": 175609255,
      "center": {
        "lat": 12.8960071,
        "lon": 77.5991284
      },
      "tags": {
        "amenity": "parking",
        "capacity": "50",
        "parking": "surface"
      }
    },
    {
      "type": "way",
      "id": 175609258,
      "center": {
        "lat": 12.8949787,
        "lon": 77.5983037
      },
      "tags": {
        "amenity": "parking",
        "building": "yes",
        "parking": "multi-storey"
      }
    },
    {
      "type": "way",
      "id": 216573515,
      "center": {
        "lat": 12.8822215,
        "lon": 77.5959664
      },
      "tags": {
        "amenity": "bank",
        "brand": "ICICI Bank",
        "brand:wikidata": "Q1653258",
        "brand:wikipedia": "en:ICICI Bank",
        "name": "ICICI Bank",
        "name:en": "ICICI Bank",
        "name:kn": "ಐಸಿಐಸಿಐ ಬ್ಯಾಂಕು",
        "short_name": "ICICI",
        "website": "https://www.icicibank.com"
      }
    },
    {
      "type": "way",
      "id": 216574077,
      "center": {
        "lat": 12.8838433,
        "lon": 77.5952314
      },
      "tags": {
        "amenity": "school",
        "name": "Janak Vidhyalaya",
        "name:kn": "ಜನಕ ವಿದ್ಯಾಲಯ"
      }
    },
    {
      "type": "way",
      "id": 285608352,
      "center": {
        "lat": 12.8908812,
        "lon": 77.5976985
      },
      "tags": {
        "landuse": "retail",
        "name": "Reliance Mart",
        "shop": "supermarket"
      }
    },
    {
      "type": "way",
      "id": 334633587,
      "center": {
        "lat": 12.8905336,
        "lon": 77.593524
      },
      "tags": {
        "leisure": "park"
      }
    },
    {
      "type": "way",
      "id": 334633596,
      "center": {
        "lat": 12.8910298,
        "lon": 77.5936415
      },
      "tags": {
        "amenity": "place_of_worship",
        "name": "Ganesha Temple",
        "name:kn": "ಗಣೇಶ ದೇವಸ್ಥಾನ",
        "religion": "hindu"
      }
    },
    {
      "type": "way",
      "id": 347225353,
      "center": {
        "lat": 12.8892598,
        "lon": 77.5970931
      },
      "tags": {
        "alt_name": "AGN Kalyana Mantapa",
        "amenity": "community_centre",
        "building": "commercial",
        "name": "A.G.N. Kalyana Mandira",
        "name:kn": "ಏ.ಜೀ.ಎನ್. ಕಲ್ಯಾಣ ಮಂದಿರ"
      }
    },
    {
      "type": "way",
      "id": 362882089,
      "center": {
        "lat": 12.889091,
        "lon": 77.5904551
      },
      "tags": {
        "leisure": "park",
        "name": "South City Park"
      }
    },
    {
      "type": "way",
      "id": 469518835,
      "center": {
        "lat": 12.8885498,
        "lon": 77.5929019
      },
      "tags": {
        "leisure": "park"
      }
    },
    {
      "type": "way",
      "id": 469527203,
      "center": {
        "lat": 12.8952667,
        "lon": 77.595422
      },
      "tags": {
        "leisure": "park",
        "name": "BBMP Panduranga Park",
        "name:kn": "ಪಾಂಡುರಂಗ ಉದ್ಯಾನವನ",
        "natural": "grassland",
        "operator": "ಬೃಹತ್ ಬೆಂಗಳೂರು ಮಹಾನಗರ ಪಾಲಿಕೆ",
        "operator:en": "Bruhat Bengaluru Mahanagara Palike",
        "operator:ka": "ಬೃಹತ್ ಬೆಂಗಳೂರು ಮಹಾನಗರ ಪಾಲಿಕೆ",
        "operator:short": "BBMP",
        "operator:type": "government",
        "operator:wikidata": "Q4978693"
      }
    },
    {
      "type": "way",
      "id": 485869151,
      "center": {
        "lat": 12.9011375,
        "lon": 77.5911455
      },
      "tags": {
        "leisure": "park",
        "name:en": "Nanjudeshwara Layout Public Park"
      }
    },
    {
      "type": "way",
      "id": 485869152,
      "center": {
        "lat": 12.9017768,
        "lon": 77.5903273
      },
      "tags": {
        "leisure": "swimming_pool"
      }
    },
    {
      "type": "way",
      "id": 627083327,
      "center": {
        "lat": 12.8944474,
        "lon": 77.5969971
      },
      "tags": {
        "access": "private",
        "leisure": "swimming_pool"
      }
    },
    {
      "type": "way",
      "id": 627083329,
      "center": {
        "lat": 12.8944368,
        "lon": 77.5972425
      },
      "tags": {
        "access": "private",
        "leisure": "swimming_pool"
      }
    },
    {
      "type": "way",
      "id": 678333101,
      "center": {
        "lat": 12.884787,
        "lon": 77.5920495
      },
      "tags": {
        "amenity": "school",
        "name": "Aradhana Academy"
      }
    },
    {
      "type": "way",
      "id": 1082360480,
      "center": {
        "lat": 12.8719667,
        "lon": 77.5931317
      },
      "tags": {
        "amenity": "school",
        "name": "Holy Spirit School ICSE"
      }
    },
    {
      "type": "way",
      "id": 1082360481,
      "center": {
        "lat": 12.8729809,
        "lon": 77.5905601
      },
      "tags": {
        "amenity": "school",
        "name": "Holy Spirit PU College"
      }
    },
    {
      "type": "way",
      "id": 1082360490,
      "center": {
        "lat": 12.8688525,
        "lon": 77.5903201
      },
      "tags": {
        "amenity": "school",
        "name": "Mount St. Joseph",
        "name:kn": "ಮೌಂಟ್ ಸೆಂಟ್ ಜ್ಯೋಸೆಫ್"
      }
    },
    {
      "type": "way",
      "id": 1199401164,
      "center": {
        "lat": 12.8714885,
        "lon": 77.5907706
      },
      "tags": {
        "amenity": "social_facility",
        "name": "Holy Spirit Old Age Home",
        "social_facility": "assisted_living",
        "social_facility:for": "senior"
      }
    },
    {
      "type": "way",
      "id": 1216164352,
      "center": {
        "lat": 12.8897033,
        "lon": 77.5975741
      },
      "tags": {
        "amenity": "parking"
      }
    },
    {
      "type": "way",
      "id": 1216164359,
      "center": {
        "lat": 12.88856,
        "lon": 77.5965908
      },
      "tags": {
        "amenity": "parking",
        "parking": "surface"
      }
    },
    {
      "type": "way",
      "id": 1216164360,
      "center": {
        "lat": 12.8862685,
        "lon": 77.5963151
      },
      "tags": {
        "amenity": "parking",
        "parking": "surface"
      }
    },
    {
      "type": "way",
      "id": 1218777643,
      "center": {
        "lat": 12.9053337,
        "lon": 77.5936977
      },
      "tags": {
        "leisure": "park"
      }
    },
    {
      "type": "way",
      "id": 1242749650,
      "center": {
        "lat": 12.8742468,
        "lon": 77.5885718
      },
      "tags": {
        "leisure": "park"
      }
    },
    {
      "type": "way",
      "id": 1249810887,
      "center": {
        "lat": 12.9020502,
        "lon": 77.5947278
      },
      "tags": {
        "leisure": "park"
      }
    },
    {
      "type": "way",
      "id": 1249810888,
      "center": {
        "lat": 12.9023169,
        "lon": 77.5940576
      },
      "tags": {
        "leisure": "park"
      }
    },
    {
      "type": "way",
      "id": 1249818373,
      "center": {
        "lat": 12.8990707,
        "lon": 77.5975614
      },
      "tags": {
        "access": "private",
        "leisure": "pitch",
        "sport": "basketball"
      }
    },
    {
      "type": "way",
      "id": 1313808094,
      "center": {
        "lat": 12.8839331,
        "lon": 77.5961576
      },
      "tags": {
        "addr:city": "Bangalore",
        "addr:street": "Bannerghatta Road",
        "amenity": "fuel",
        "brand": "Bharat Petroleum",
        "brand:wikidata": "Q854826",
        "compressed_air": "yes",
        "name": "Bharat Petroleum",
        "name:kn": "ಭಾರತ್ ಪೆಟ್ರೋಲಿಯಂ"
      }
    },
    {
      "type": "way",
      "id": 1313808116,
      "center": {
        "lat": 12.8916568,
        "lon": 77.5977538
      },
      "tags": {
        "landuse": "retail",
        "name": "Centro Mall",
        "shop": "mall"
      }
    },
    {
      "type": "way",
      "id": 1328835898,
      "center": {
        "lat": 12.8813145,
        "lon": 77.5933
      },
      "tags": {
        "leisure": "pitch",
        "sport": "tennis"
      }
    },
    {
      "type": "way",
      "id": 1391367684,
      "center": {
        "lat": 12.8808818,
        "lon": 77.5901699
      },
      "tags": {
        "amenity": "social_facility",
        "name": "Snehasadan Orphanage",
        "social_facility": "shelter"
      }
    },
    {
      "type": "way",
      "id": 1424059167,
      "center": {
        "lat": 12.8731061,
        "lon": 77.5937809
      },
      "tags": {
        "access": "private",
        "leisure": "swimming_pool"
      }
    },
    {
      "type": "way",
      "id": 1445695930,
      "center": {
        "lat": 12.8730007,
        "lon": 77.5888849
      },
      "tags": {
        "leisure": "park"
      }
    },
    {
      "type": "way",
      "id": 1445695931,
      "center": {
        "lat": 12.8742624,
        "lon": 77.5911983
      },
      "tags": {
        "leisure": "park"
      }
    },
    {
      "type": "way",
      "id": 1445695932,
      "center": {
        "lat": 12.8747738,
        "lon": 77.591988
      },
      "tags": {
        "leisure": "park"
      }
    },
    {
      "type": "way",
      "id": 1445695941,
      "center": {
        "lat": 12.8737839,
        "lon": 77.5866913
      },
      "tags": {
        "leisure": "park"
      }
    },
    {
      "type": "way",
      "id": 1445695943,
      "center": {
        "lat": 12.8743996,
        "lon": 77.5866756
      },
      "tags": {
        "access": "private",
        "leisure": "swimming_pool"
      }
    },
    {
      "type": "way",
      "id": 1445703467,
      "center": {
        "lat": 12.8731326,
        "lon": 77.5893574
      },
      "tags": {
        "amenity": "place_of_worship",
        "landuse": "religious",
        "religion": "hindu"
      }
    },
    {
      "type": "way",
      "id": 1445730558,
      "center": {
        "lat": 12.8742939,
        "lon": 77.5895309
      },
      "tags": {
        "access": "private",
        "leisure": "swimming_pool"
      }
    },
    {
      "type": "way",
      "id": 1445730559,
      "center": {
        "lat": 12.8724507,
        "lon": 77.5892033
      },
      "tags": {
        "access": "private",
        "leisure": "swimming_pool"
      }
    },
    {
      "type": "way",
      "id": 1445730560,
      "center": {
        "lat": 12.8717163,
        "lon": 77.5890061
      },
      "tags": {
        "access": "private",
        "leisure": "swimming_pool"
      }
    }
  ]
}