{
  "area_name": "Fair Field Layout",
  "osm_id": 7301358178,
  "osm_type": "node",
  "place_type": "neighbourhood",
  "amenity_count": 524,
  "amenities": [
    {
      "type": "node",
      "id": 469614286,
      "lat": 12.9870759,
      "lon": 77.5947417,
      "tags": {
        "addr:city": "Bengaluru",
        "addr:country": "IN",
        "addr:housename": "Shah Sultan Complex",
        "addr:housenumber": "17/1",
        "addr:street": "Cunningham Road",
        "alt_name": "Dialogues, Infinitea Cunningham Road",
        "amenity": "cafe",
        "name": "Infinitea",
        "operator": "Infinitea"
      }
    },
    {
      "type": "node",
      "id": 660666062,
      "lat": 12.9836146,
      "lon": 77.5948986,
      "tags": {
        "amenity": "atm",
        "brand": "Syndicate Bank",
        "brand:wikidata": "Q2004088",
        "name": "Syndicate Bank",
        "operator": "Syndicate Bank",
        "operator:wikidata": "Q2004088"
      }
    },
    {
      "type": "node",
      "id": 661983025,
      "lat": 12.985511,
      "lon": 77.5889985,
      "tags": {
        "amenity": "atm",
        "brand": "Canara Bank",
        "brand:en": "Canara Bank",
        "brand:hi": "केनरा बैंक",
        "brand:kn": "ಕೆನರಾ ಬ್ಯಾಂಕ್",
        "brand:pa": "ਕੇਨਰਾ ਬੈਂਕ",
        "brand:pnb": "کینرا بینک",
        "brand:ur": "کینرا بینک",
        "brand:wikidata": "Q2003777",
        "name": "Canara Bank",
        "name:en": "Canara Bank",
        "name:hi": "केनरा बैंक",
        "name:kn": "ಕೆನರಾ ಬ್ಯಾಂಕ್",
        "name:pa": "ਕੇਨਰਾ ਬੈਂਕ",
        "name:pnb": "کینرا بینک",
        "name:ur": "کینرا بینک",
        "operator": "Canara Bank",
        "operator:wikidata": "Q2003777"
      }
    },
    {
      "type": "node",
      "id": 661983048,
      "lat": 12.9885568,
      "lon": 77.5923112,
      "tags": {
        "amenity": "bank",
        "brand": "Canara Bank",
        "brand:en": "Canara Bank",
        "brand:hi": "केनरा बैंक",
        "brand:kn": "ಕೆನರಾ ಬ್ಯಾಂಕ್",
        "brand:pa": "ਕੇਨਰਾ ਬੈਂਕ",
        "brand:pnb": "کینرا بینک",
        "brand:ur": "کینرا بینک",
        "brand:wikidata": "Q2003777",
        "name": "Canara Bank",
        "name:en": "Canara Bank",
        "name:hi": "केनरा बैंक",
        "name:kn": "ಕೆನರಾ ಬ್ಯಾಂಕ್",
        "name:pa": "ਕੇਨਰਾ ਬੈਂਕ",
        "name:pnb": "کینرا بینک",
        "name:ur": "کینرا بینک"
      }
    },
    {
      "type": "node",
      "id": 661983050,
      "lat": 12.9871688,
      "lon": 77.5946714,
      "tags": {
        "addr:city": "Bengaluru",
        "addr:country": "IN",
        "addr:housename": "Shah Sultan Complex",
        "addr:housenumber": "17/1",
        "addr:street": "Cunningham Road",
        "amenity": "restaurant",
        "name": "Shezan Restaurant",
        "name:kn": "ಶೆಸಾನ್ ರೆಸ್ಟೋರಂಟ್"
      }
    },
    {
      "type": "node",
      "id": 661983052,
      "lat": 12.988225,
      "lon": 77.5938291,
      "tags": {
        "addr:street": "Cunningham Road",
        "amenity": "fast_food",
        "brand": "Domino's",
        "brand:ks": "ڈومینوز",
        "brand:pa": "ਡੋਮੀਨੋਜ਼",
        "brand:ur": "ڈومینوز",
        "brand:wikidata": "Q839466",
        "brand:wikipedia": "en:Domino's Pizza",
        "cuisine": "pizza",
        "name": "Domino's",
        "name:ks": "ڈومینوز",
        "name:pa": "ਡੋਮੀਨੋਜ਼",
        "name:ur": "ڈومینوز",
        "takeaway": "yes"
      }
    },
    {
      "type": "node",
      "id": 661983059,
      "lat": 12.9888226,
      "lon": 77.592415,
      "tags": {
        "amenity": "bank",
        "atm": "yes",
        "brand": "HDFC Bank",
        "brand:wikidata": "Q631047",
        "brand:wikipedia": "en:HDFC Bank",
        "name": "HDFC Bank",
        "name:kn": "ಎಚ್ ಡಿ ಎಫ್ ಸಿ",
        "short_name": "HDFC",
        "website": "https://www.hdfcbank.com"
      }
    },
    {
      "type": "node",
      "id": 661983060,
      "lat": 12.9889922,
      "lon": 77.5925712,
      "tags": {
        "brand": "Citroën",
        "brand:wikidata": "Q6746",
        "name": "PPS Motors",
        "shop": "car"
      }
    },
    {
      "type": "node",
      "id": 661983062,
      "lat": 12.9887039,
      "lon": 77.5939333,
      "tags": {
        "addr:street": "Cunningham Road",
        "amenity": "restaurant",
        "cuisine": "indian",
        "name": "Ramana's",
        "name:kn": "ರಮಣ"
      }
    },
    {
      "type": "node",
      "id": 665871291,
      "lat": 12.98693,
      "lon": 77.5951971,
      "tags": {
        "addr:street": "Cunningham Road",
        "amenity": "bank",
        "atm": "yes",
        "brand": "Canara Bank",
        "brand:en": "Canara Bank",
        "brand:hi": "केनरा बैंक",
        "brand:kn": "ಕೆನರಾ ಬ್ಯಾಂಕ್",
        "brand:pa": "ਕੇਨਰਾ ਬੈਂਕ",
        "brand:pnb": "کینرا بینک",
        "brand:ur": "کینرا بینک",
        "brand:wikidata": "Q2003777",
        "brand:wikipedia": "en:Canara Bank",
        "brand:wikipedia:pa": "ਕੇਨਰਾ ਬੈਂਕ",
        "name": "Canara Bank",
        "name:en": "Canara Bank",
        "name:hi": "केनरा बैंक",
        "name:kn": "ಕೆನರಾ ಬ್ಯಾಂಕ್",
        "name:pa": "ਕੇਨਰਾ ਬੈਂਕ",
        "name:pnb": "کینرا بینک",
        "name:ur": "کینرا بینک",
        "website": "https://www.canarabank.com/"
      }
    },
    {
      "type": "node",
      "id": 673377213,
      "lat": 12.9853914,
      "lon": 77.5795059,
      "tags": {
        "amenity": "restaurant",
        "cuisine": "indian",
        "name": "Sana Di Ge",
        "name:kn": "ಸನ ದಿ ಗೆ"
      }
    },
    {
      "type": "node",
      "id": 762086048,
      "lat": 12.9893411,
      "lon": 77.5929583,
      "tags": {
        "amenity": "restaurant",
        "cuisine": "indian",
        "name": "A Masala House",
        "name:kn": "ಅ ಮಸಲಾ ಹೌಸ್"
      }
    },
    {
      "type": "node",
      "id": 1006462338,
      "lat": 12.985247,
      "lon": 77.5803846,
      "tags": {
        "addr:city": "Bangalore",
        "addr:housenumber": "31/32",
        "addr:postcode": "560001",
        "addr:street": "Crescent Rd,Nehru Nagar,Gandhi Nagar",
        "amenity": "hospital",
        "name": "Mallige Medical Centre",
        "phone": "080 2220 3333",
        "website": "https://www.mallige.com/"
      }
    },
    {
      "type": "node",
      "id": 1101607728,
      "lat": 12.9856254,
      "lon": 77.5788885,
      "tags": {
        "addr:street": "Kumara Krupa Road",
        "amenity": "restaurant",
        "check_date": "2024-12-22",
        "name": "Hotel Janardhana",
        "name:kn": "ಜನಾರ್ಧನ್"
      }
    },
    {
      "type": "node",
      "id": 1116484556,
      "lat": 12.9853569,
      "lon": 77.5792692,
      "tags": {
        "addr:housenumber": "32/3",
        "addr:street": "Crescent Road",
        "amenity": "restaurant",
        "cuisine": "indian",
        "fax": "+91-80-41138488",
        "name": "Kabab Studio",
        "name:kn": "ಕಬಾಬ್ ಸ್ಟುಡಿಯೊ",
        "phone": "+91-80-41291300",
        "website": "https://www.goldfinchhotels.com/"
      }
    },
    {
      "type": "node",
      "id": 1121253486,
      "lat": 12.9834716,
      "lon": 77.5856742,
      "tags": {
        "branch": "Showroom",
        "brand": "Nike",
        "brand:wikidata": "Q483915",
        "name": "Nike",
        "shop": "clothes"
      }
    },
    {
      "type": "node",
      "id": 1289949443,
      "lat": 12.9903369,
      "lon": 77.5874909,
      "tags": {
        "amenity": "clinic",
        "name": "Queens Nursing Home"
      }
    },
    {
      "type": "node",
      "id": 1307598721,
      "lat": 12.9823242,
      "lon": 77.594716,
      "tags": {
        "addr:street": "Dr B R Ambedkar Veedhi",
        "amenity": "cafe",
        "name": "India Coffee House",
        "name:kn": "ಇಂಡಿಯಾ ಕಾಫಿ ಹೌಸ್"
      }
    },
    {
      "type": "node",
      "id": 1363295014,
      "lat": 12.9895632,
      "lon": 77.5877862,
      "tags": {
        "amenity": "theatre",
        "name": "NGMA Auditorium"
      }
    },
    {
      "type": "node",
      "id": 1363295015,
      "lat": 12.9897809,
      "lon": 77.5880062,
      "tags": {
        "amenity": "cafe",
        "name": "NGMA Cafe"
      }
    },
    {
      "type": "node",
      "id": 1614268180,
      "lat": 12.9873383,
      "lon": 77.5805314,
      "tags": {
        "amenity": "school",
        "name": "Bharat Seva Dal",
        "name:kn": "ಭಾರತ ಸೇವಾದಳ",
        "wheelchair": "no"
      }
    },
    {
      "type": "node",
      "id": 1614268185,
      "lat": 12.9869904,
      "lon": 77.5786112,
      "tags": {
        "amenity": "bank",
        "atm": "yes",
        "brand": "Canara Bank",
        "brand:en": "Canara Bank",
        "brand:hi": "केनरा बैंक",
        "brand:kn": "ಕೆನರಾ ಬ್ಯಾಂಕ್",
        "brand:pa": "ਕੇਨਰਾ ਬੈਂਕ",
        "brand:pnb": "کینرا بینک",
        "brand:ur": "کینرا بینک",
        "brand:wikidata": "Q2003777",
        "brand:wikipedia": "en:Canara Bank",
        "brand:wikipedia:pa": "ਕੇਨਰਾ ਬੈਂਕ",
        "name": "Canara Bank",
        "name:en": "Canara Bank",
        "name:hi": "केनरा बैंक",
        "name:kn": "ಕೆನರಾ ಬ್ಯಾಂಕ್",
        "name:pa": "ਕੇਨਰਾ ਬੈਂਕ",
        "name:pnb": "کینرا بینک",
        "name:ur": "کینرا بینک",
        "website": "https://www.canarabank.com/",
        "wheelchair": "no"
      }
    },
    {
      "type": "node",
      "id": 1614268190,
      "lat": 12.9876512,
      "lon": 77.5799188,
      "tags": {
        "amenity": "bank",
        "atm": "yes",
        "brand": "ICICI Bank",
        "brand:wikidata": "Q1653258",
        "name": "ICICI Bank",
        "name:en": "ICICI Bank",
        "name:kn": "ಐಸಿಐಸಿಐ ಬ್ಯಾಂಕು",
        "short_name": "ICICI",
        "website": "https://www.icicibank.com",
        "wheelchair": "no"
      }
    },
    {
      "type": "node",
      "id": 1614268192,
      "lat": 12.9868232,
      "lon": 77.5800176,
      "tags": {
        "amenity": "restaurant",
        "name": "Richie-Rich",
        "name:kn": "ರಿಚೀ-ರಿಚ್"
      }
    },
    {
      "type": "node",
      "id": 1614268199,
      "lat": 12.9867564,
      "lon": 77.5795592,
      "tags": {
        "addr:housename": "Shivananda General Stores Complex",
        "addr:street": "Kumarakripa East",
        "name": "Shivananda Stores",
        "shop": "convenience"
      }
    },
    {
      "type": "node",
      "id": 1617398472,
      "lat": 12.9877001,
      "lon": 77.5782687,
      "tags": {
        "amenity": "restaurant",
        "name": "Park-n-Eat",
        "name:kn": "ಪಾರ್ಕ್-ಎನ್-ಈಟ್",
        "wheelchair": "no"
      }
    },
    {
      "type": "node",
      "id": 1617398477,
      "lat": 12.9865401,
      "lon": 77.5772559,
      "tags": {
        "amenity": "college",
        "name": "Yadava College",
        "name:kn": "ಯಾದವ ಕಾಲೇಜು",
        "wheelchair": "no"
      }
    },
    {
      "type": "node",
      "id": 1644358679,
      "lat": 12.9891068,
      "lon": 77.5938601,
      "tags": {
        "addr:street": "Millers Tank Bund Road",
        "amenity": "restaurant",
        "cuisine": "chinese",
        "name": "Chung's",
        "name:kn": "ಚುಂಗ್ಸ್",
        "toilets:wheelchair": "no",
        "wheelchair": "no"
      }
    },
    {
      "type": "node",
      "id": 1722589278,
      "lat": 12.9830301,
      "lon": 77.5943718,
      "tags": {
        "addr:postcode": "560001",
        "addr:street": "Infantry Road",
        "amenity": "restaurant",
        "diet:vegetarian": "only",
        "name": "Nisarga",
        "name:kn": "ನಿಸರ್ಗ"
      }
    },
    {
      "type": "node",
      "id": 1737985671,
      "lat": 12.987094,
      "lon": 77.5784442,
      "tags": {
        "amenity": "fast_food",
        "diet:vegetarian": "only",
        "name": "Bangalore Cafe"
      }
    },
    {
      "type": "node",
      "id": 2025970826,
      "lat": 12.9866761,
      "lon": 77.5796529,
      "tags": {
        "addr:housename": "Shivananada General Stores Complex",
        "addr:street": "Kumarakripa East",
        "name": "Sangam Sweets",
        "shop": "confectionery"
      }
    },
    {
      "type": "node",
      "id": 2025970848,
      "lat": 12.9867912,
      "lon": 77.5794891,
      "tags": {
        "addr:housename": "Shivananda Stores Complex",
        "addr:street": "Kumarakripa East",
        "amenity": "restaurant",
        "cuisine": "indian",
        "name": "Coastal Express"
      }
    },
    {
      "type": "node",
      "id": 2537637890,
      "lat": 12.9797671,
      "lon": 77.5858092,
      "tags": {
        "amenity": "college",
        "name": "CMS"
      }
    },
    {
      "type": "node",
      "id": 2630925035,
      "lat": 12.9888891,
      "lon": 77.5933559,
      "tags": {
        "addr:street": "Cunningham Road",
        "amenity": "fast_food",
        "brand": "Au Bon Pain",
        "brand:wikidata": "Q4818942",
        "cuisine": "sandwich",
        "name": "Au Bon Pain",
        "takeaway": "yes",
        "website": "http://www.aubonpain.com/"
      }
    },
    {
      "type": "node",
      "id": 2785999430,
      "lat": 12.9855373,
      "lon": 77.591942,
      "tags": {
        "amenity": "shelter"
      }
    },
    {
      "type": "node",
      "id": 3198616661,
      "lat": 12.98415,
      "lon": 77.5781517,
      "tags": {
        "amenity": "restaurant",
        "cuisine": "regional",
        "name": "Hotel Sanman"
      }
    },
    {
      "type": "node",
      "id": 3761248698,
      "lat": 12.9773726,
      "lon": 77.5884362,
      "tags": {
        "amenity": "police",
        "level": "-1",
        "name": "Vidhana Soudha Police Station",
        "name:kn": "ವಿಧಾನ ಸೌಧ ಆರಕ್ಷಕ ಠಾಣೆ"
      }
    },
    {
      "type": "node",
      "id": 3761261084,
      "lat": 12.9769309,
      "lon": 77.5885998,
      "tags": {
        "amenity": "post_office",
        "name": "India Post",
        "name:kn": "ಅಂಚೆ ಕಛೇರಿ",
        "operator": "India Post",
        "operator:wikidata": "Q3519720"
      }
    },
    {
      "type": "node",
      "id": 3761261085,
      "lat": 12.9775007,
      "lon": 77.5883584,
      "tags": {
        "amenity": "bank",
        "atm": "yes",
        "brand": "Syndicate Bank",
        "brand:wikidata": "Q2004088",
        "level": "-1",
        "name": "Syndicate Bank",
        "name:en": "Syndicate Bank",
        "name:kn": "ಸಿಂಡಿಕೇಟ್ ಬ್ಯಾಂಕ್",
        "website": "https://www.syndicatebank.in"
      }
    },
    {
      "type": "node",
      "id": 3761264983,
      "lat": 12.9775686,
      "lon": 77.5880097,
      "tags": {
        "amenity": "place_of_worship",
        "level": "0",
        "name": "Sri Ramanjaneyaswamy Temple",
        "name:kn": "ಶ್ರೀ ರಾಮಾಂಜನೇಯಸ್ವಾಮಿ ದೇವಸ್ಥಾನ",
        "religion": "hindu"
      }
    },
    {
      "type": "node",
      "id": 3761265943,
      "lat": 12.9782832,
      "lon": 77.5879912,
      "tags": {
        "amenity": "bank",
        "brand": "State Bank of India",
        "brand:wikidata": "Q1340361",
        "brand:wikipedia": "en:State Bank of India",
        "name": "State Bank of India",
        "name:kn": "ಸ್ಟೇಟ್ ಬ್ಯಾಂಕ್ ಆಫ್ ಮೈಸೂರು",
        "short_name": "SBI",
        "website": "https://www.sbi.co.in"
      }
    },
    {
      "type": "node",
      "id": 3872372431,
      "lat": 12.9832602,
      "lon": 77.5859672,
      "tags": {
        "addr:city": "Bengaluru",
        "addr:housenumber": "49, Khanija Bhavan, 3rd Floor, East Wing",
        "addr:postcode": "560001",
        "addr:street": "Race Course Road",
        "amenity": "courthouse",
        "name": "Arbitration Center Bengaluru",
        "operator": "Karnatak Judiciary",
        "phone": "22954571,22954572, 22954573",
        "website": "https://arbitrationcentreblr.org/home.php"
      }
    },
    {
      "type": "node",
      "id": 4067980536,
      "lat": 12.9845114,
      "lon": 77.5893647,
      "tags": {
        "access": "customers",
        "amenity": "toilets",
        "source": "gps"
      }
    },
    {
      "type": "node",
      "id": 4430492477,
      "lat": 12.9939183,
      "lon": 77.5854854,
      "tags": {
        "amenity": "restaurant",
        "cuisine": "indian",
        "name": "Royal Afghan"
      }
    },
    {
      "type": "node",
      "id": 4446518811,
      "lat": 12.9863736,
      "lon": 77.5793154,
      "tags": {
        "addr:city": "Bangalore",
        "addr:housenumber": "6/6",
        "addr:postcode": "560001",
        "addr:street": "Kumarakrupa Road, High Grounds, Madhava Nagar, Gandhi Nagar",
        "amenity": "hospital",
        "name": "Desai Nursing Home",
        "phone": "+9180 2226 0307"
      }
    },
    {
      "type": "node",
      "id": 4488415979,
      "lat": 12.9895098,
      "lon": 77.593787,
      "tags": {
        "addr:city": "Bengaluru,",
        "addr:housenumber": "11A-22",
        "addr:postcode": "560052",
        "addr:street": "Millers Tank Bund Road",
        "name": "Naturals Lounge Unisex Salon Spa Makeup Studio",
        "opening_hours": "10:00-21:00",
        "phone": "080 6577 0000",
        "shop": "beauty",
        "website": "naturals-lounge.com"
      }
    },
    {
      "type": "node",
      "id": 4488528724,
      "lat": 12.9896793,
      "lon": 77.5907826,
      "tags": {
        "addr:housenumber": "no.70",
        "addr:postcode": "560062",
        "addr:street": "Cunningham Road",
        "name": "SPA ce The Spa",
        "opening_hours": "09:00-21:00",
        "phone": "+91-80-33700700",
        "shop": "beauty",
        "website": "https://www.spacethespa.com/"
      }
    },
    {
      "type": "node",
      "id": 4489202723,
      "lat": 12.9890319,
      "lon": 77.5930442,
      "tags": {
        "addr:city": "Bengaluru",
        "addr:housenumber": "4/2",
        "addr:postcode": "560052",
        "addr:street": "Millers Road, Near Cunnigham Road, Bhadrappa Layout, Vasanth Nagar",
        "name": "Montra Café and Cycles",
        "opening_hours": "10:00-21:30",
        "phone": "080 4168 6488",
        "shop": "sports",
        "website": "https://montra.in/"
      }
    },
    {
      "type": "node",
      "id": 4505462591,
      "lat": 12.987183,
      "lon": 77.5784519,
      "tags": {
        "amenity": "fast_food",
        "name": "Super duba Raggi Dosa",
        "name:de": "Super duba Raggi Dosa",
        "name:en": "Super duba Raggi Dosa"
      }
    },
    {
      "type": "node",
      "id": 4565787289,
      "lat": 12.983394,
      "lon": 77.593893,
      "tags": {
        "name": "Kynkyny Art",
        "name:en": "Kynkyny Art",
        "opening_hours": "Su-Fr 10:00-19:00",
        "shop": "department_store",
        "website": "https://kynkyny.com/"
      }
    },
    {
      "type": "node",
      "id": 4586429691,
      "lat": 12.9874054,
      "lon": 77.5944696,
      "tags": {
        "amenity": "cafe",
        "brand": "Cafe Coffee Day",
        "brand:wikidata": "Q5017235",
        "cuisine": "coffee_shop",
        "name": "Cafe Coffee Day",
        "name:en": "Cafe Coffee Day",
        "name:kn": "ಕಫೆ ಕಾಫಿ ಡೇ",
        "takeaway": "yes"
      }
    },
    {
      "type": "node",
      "id": 4586443789,
      "lat": 12.9876942,
      "lon": 77.5948863,
      "tags": {
        "name": "F1 Info Solutions & Services Pvt Ltd",
        "name:en": "F1 Info Solutions & Services Pvt Ltd",
        "shop": "computer"
      }
    },
    {
      "type": "node",
      "id": 4607623009,
      "lat": 12.987281,
      "lon": 77.5949854,
      "tags": {
        "amenity": "bank",
        "brand": "Yes Bank",
        "brand:wikidata": "Q2040394",
        "brand:wikipedia": "en:Yes Bank",
        "name": "Yes Bank",
        "name:en": "YES Bank",
        "website": "https://www.yesbank.in"
      }
    },
    {
      "type": "node",
      "id": 4711802190,
      "lat": 12.9890974,
      "lon": 77.5936081,
      "tags": {
        "amenity": "restaurant",
        "cuisine": "chinese;thai",
        "name": "Red Latern",
        "name:en": "Red Latern"
      }
    },
    {
      "type": "node",
      "id": 4843126323,
      "lat": 12.9874951,
      "lon": 77.5948235,
      "tags": {
        "name": "Qatar Airways",
        "name:en": "Qatar Airways",
        "name:kn": "ಕತಾರ್ ಏರ್ವೇಸ್",
        "shop": "travel_agency"
      }
    },
    {
      "type": "node",
      "id": 4849618970,
      "lat": 12.9880543,
      "lon": 77.5940452,
      "tags": {
        "amenity": "bank",
        "name": "Vijaya Bank",
        "name:kn": "ವಿಜಯ ಬ್ಯಾಂಕು"
      }
    },
    {
      "type": "node",
      "id": 4898819421,
      "lat": 12.9845379,
      "lon": 77.590531,
      "tags": {
        "amenity": "fast_food",
        "name": "Nandini",
        "name:en": "Nandini",
        "name:kn": "ನಂದಿನಿ"
      }
    },
    {
      "type": "node",
      "id": 5012445078,
      "lat": 12.9860536,
      "lon": 77.5949314,
      "tags": {
        "amenity": "pub",
        "name": "Hammered",
        "smoking": "outside"
      }
    },
    {
      "type": "node",
      "id": 5012445079,
      "lat": 12.9899243,
      "lon": 77.5913426,
      "tags": {
        "amenity": "restaurant",
        "name": "Fat Buddha"
      }
    },
    {
      "type": "node",
      "id": 5229482742,
      "lat": 12.9870483,
      "lon": 77.5785854,
      "tags": {
        "amenity": "clinic",
        "healthcare": "clinic",
        "name": "Pranam Dental and Medical Speciality Clinic"
      }
    },
    {
      "type": "node",
      "id": 5229482743,
      "lat": 12.9867071,
      "lon": 77.5796028,
      "tags": {
        "amenity": "pharmacy",
        "brand": "Apollo Pharmacy",
        "brand:wikidata": "Q62562612",
        "healthcare": "pharmacy",
        "name": "Apollo Pharmacy",
        "name:kn": "ಅಪೊಲೋ ಫಾರ್ಮಸಿ"
      }
    },
    {
      "type": "node",
      "id": 5229482744,
      "lat": 12.9848902,
      "lon": 77.5828907,
      "tags": {
        "amenity": "police",
        "name": "High Grounds Traffic Police Station"
      }
    },
    {
      "type": "node",
      "id": 5402224026,
      "lat": 12.9841251,
      "lon": 77.5814938,
      "tags": {
        "brand": "Volvo",
        "brand:wikidata": "Q215293",
        "name": "Volvo",
        "shop": "car"
      }
    },
    {
      "type": "node",
      "id": 5402224027,
      "lat": 12.9866165,
      "lon": 77.579997,
      "tags": {
        "amenity": "restaurant",
        "name": "3 Page"
      }
    },
    {
      "type": "node",
      "id": 5905947501,
      "lat": 12.9855047,
      "lon": 77.5792404,
      "tags": {
        "addr:city": "Bengaluru",
        "addr:housenumber": "19/2",
        "addr:postcode": "560001",
        "addr:street": "Crescent Road",
        "amenity": "restaurant",
        "check_date": "2023-02-19",
        "name": "The London Curry House",
        "opening_hours": "Mo-Su 12:00-15:00,19:00-23:00",
        "smoking": "no",
        "website": "https://thelondoncurryhousebanglore.business.site/"
      }
    },
    {
      "type": "node",
      "id": 6594341986,
      "lat": 12.9867258,
      "lon": 77.5953828,
      "tags": {
        "alt_name": "Kentucky Fried Chicken",
        "alt_name:en": "Kentucky Fried Chicken",
        "alt_name:hi": "केंटुकी फ्राइड चिकन",
        "alt_name:pa": "ਕੈਂਟੁਕੀ ਫ੍ਰਾਈਡ ਚਿਕਨ",
        "alt_name:pnb": "کینٹکی فرائیڈ چکن",
        "alt_name:ur": "کینٹکی فرائیڈ چکن",
        "amenity": "fast_food",
        "brand": "KFC",
        "brand:en": "KFC",
        "brand:hi": "केएफसी",
        "brand:pa": "ਕੇਐਫਸੀ",
        "brand:pnb": "کے ایف سی",
        "brand:ur": "کے ایف سی",
        "brand:wikidata": "Q524757",
        "brand:wikipedia": "en:KFC",
        "brand:wikipedia:pa": "ਕੇਐਫਸੀ",
        "brand:wikipedia:ur": "کینٹکی فرائیڈ چکن",
        "cuisine": "chicken",
        "delivery": "yes",
        "name": "KFC",
        "name:en": "KFC",
        "name:hi": "केएफसी",
        "name:pa": "ਕੇਐਫਸੀ",
        "name:pnb": "کے ایف سی",
        "name:ur": "کے ایف سی",
        "takeaway": "yes"
      }
    },
    {
      "type": "node",
      "id": 6698387555,
      "lat": 12.9835262,
      "lon": 77.5942425,
      "tags": {
        "addr:city": "Bengaluru",
        "addr:housenumber": "147",
        "addr:street": "Infantry Road",
        "amenity": "restaurant",
        "name": "Nisarga"
      }
    },
    {
      "type": "node",
      "id": 6886594854,
      "lat": 12.9843552,
      "lon": 77.5787035,
      "tags": {
        "addr:city": "Bengaluru",
        "addr:district": "BENGALURU URBAN",
        "addr:full": "Red Cross Bhavan, 326, Ist Floor, Race Course Road, Bengaluru",
        "addr:postcode": "560001",
        "addr:state": "Karnataka",
        "amenity": "blood_bank",
        "contact:mobile": "9902859859",
        "contact:phone": "8022268435",
        "name": "Indian Red Cross Society - Karnataka Red Cross Blood Bank",
        "office": "ngo",
        "opening_hours": "24/7",
        "operator:type": "ngo",
        "source": "OpenGovernmentData",
        "website": "https://www.redcrosskarnataka.org/"
      }
    },
    {
      "type": "node",
      "id": 6886594858,
      "lat": 12.9884377,
      "lon": 77.5944668,
      "tags": {
        "addr:city": "Bengaluru",
        "addr:district": "BENGALURU URBAN",
        "addr:full": "14, Sheriffs Centre, Cunningham Road",
        "addr:postcode": "560052",
        "addr:state": "Karnataka",
        "amenity": "blood_bank",
        "contact:mobile": "9845438200",
        "contact:phone": "08041994515; 08022261037",
        "name": "Fortis Hospital Private Limited Blood Bank",
        "opening_hours": "24/7",
        "operator:type": "private",
        "source": "OpenGovernmentData",
        "website": "https://www.fortishealthcare.com/"
      }
    },
    {
      "type": "node",
      "id": 6938690598,
      "lat": 12.9878104,
      "lon": 77.5809833,
      "tags": {
        "addr:district": "Bengaluru Urban",
        "addr:full": "No.6/7, Crescent Road Cross, Kumar Park East",
        "addr:postcode": "560001",
        "addr:state": "Karnataka",
        "amenity": "hospital",
        "healthcare:speciality": "Dornier AlphaLithotripsy Treatment; X-Rays; US Scan; Urologist Consultation",
        "name": "Hitech Kidney Stone Hospital, Bengaluru Urban",
        "operator:type": "private",
        "source": "OpenGovernmentData",
        "website": "http://www.hitechkidneystonehospital.org/"
      }
    },
    {
      "type": "node",
      "id": 6979847311,
      "lat": 12.9884809,
      "lon": 77.5931015,
      "tags": {
        "name": "Black Village Organic Food Store",
        "organic": "only",
        "shop": "supermarket"
      }
    },
    {
      "type": "node",
      "id": 7220195485,
      "lat": 12.990736,
      "lon": 77.5870219,
      "tags": {
        "name": "Shopwel Mart",
        "shop": "supermarket"
      }
    },
    {
      "type": "node",
      "id": 7232026913,
      "lat": 12.9860194,
      "lon": 77.5881341,
      "tags": {
        "amenity": "parking_entrance",
        "parking": "underground"
      }
    },
    {
      "type": "node",
      "id": 7232026916,
      "lat": 12.9855359,
      "lon": 77.5877164,
      "tags": {
        "amenity": "parking_entrance",
        "parking": "underground"
      }
    },
    {
      "type": "node",
      "id": 7255929397,
      "lat": 12.9901417,
      "lon": 77.5932464,
      "tags": {
        "amenity": "restaurant",
        "name": "Grand Spicy"
      }
    },
    {
      "type": "node",
      "id": 7255929399,
      "lat": 12.9891878,
      "lon": 77.5927153,
      "tags": {
        "addr:city": "Bengaluru",
        "addr:country": "IN",
        "addr:housenumber": "69/3",
        "addr:postcode": "560052",
        "addr:street": "Millers Road",
        "amenity": "coworking_space",
        "fee": "yes",
        "name": "Smartworks - Sirius Building",
        "office": "coworking",
        "operator": "smartworks",
        "website": "https://www.smartworksoffice.com/"
      }
    },
    {
      "type": "node",
      "id": 7276500290,
      "lat": 12.9806334,
      "lon": 77.5791138,
      "tags": {
        "access": "yes",
        "amenity": "toilets",
        "fee": "yes"
      }
    },
    {
      "type": "node",
      "id": 7276500304,
      "lat": 12.9835372,
      "lon": 77.5858502,
      "tags": {
        "amenity": "atm",
        "brand": "Corporation Bank",
        "brand:wikidata": "Q2003387",
        "name": "Corporation Bank",
        "operator": "Corporation Bank",
        "operator:wikidata": "Q2003387"
      }
    },
    {
      "type": "node",
      "id": 7276500312,
      "lat": 12.9844624,
      "lon": 77.5831076,
      "tags": {
        "access": "yes",
        "amenity": "toilets",
        "fee": "yes"
      }
    },
    {
      "type": "node",
      "id": 7276500338,
      "lat": 12.9841696,
      "lon": 77.5795363,
      "tags": {
        "addr:city": "Bengaluru",
        "addr:country": "IN",
        "addr:hamlet": "Gandhi Nagar",
        "addr:postcode": "560001",
        "addr:street": "Race Course Road",
        "brand": "Sugama Tourists",
        "name": "Sugama Tourists",
        "shop": "travel_agency",
        "website": "https://www.sugamatourists.com"
      }
    },
    {
      "type": "node",
      "id": 7658290107,
      "lat": 12.9802518,
      "lon": 77.5861466,
      "tags": {
        "amenity": "restaurant",
        "name": "LORE"
      }
    },
    {
      "type": "node",
      "id": 7658290108,
      "lat": 12.9800179,
      "lon": 77.5859709,
      "tags": {
        "amenity": "restaurant",
        "name": "Tijuori"
      }
    },
    {
      "type": "node",
      "id": 8187929936,
      "lat": 12.9928964,
      "lon": 77.5897796,
      "tags": {
        "addr:full": "8th Main Rd, Vasanth Nagar, Bengaluru, Karnataka",
        "addr:state": "Karnataka",
        "amenity": "atm",
        "brand": "Corporation Bank",
        "brand:wikidata": "Q2003387",
        "name": "Corporation Bank",
        "name:kn": "ಕಾರ್ಪರೇಷನ್ ಬ್ಯಾಂಕ್ ಎಟಿಎಂ",
        "operator": "Corporation Bank",
        "operator:wikidata": "Q2003387"
      }
    },
    {
      "type": "node",
      "id": 8187962474,
      "lat": 12.9927951,
      "lon": 77.5898065,
      "tags": {
        "addr:full": "NANDI, GR. FL,I FLR,NO.11, 8th Main Rd, Vasanth Nagar, Bengaluru, Karnataka",
        "addr:state": "Karnataka",
        "amenity": "bank",
        "brand": "Corporation Bank",
        "brand:wikidata": "Q2003387",
        "name": "Corporation Bank",
        "name:kn": "ಕಾರ್ಪರೇಷನ್ ಬ್ಯಾಂಕ್"
      }
    },
    {
      "type": "node",
      "id": 8212843515,
      "lat": 12.9777252,
      "lon": 77.5910362,
      "tags": {
        "amenity": "bicycle_rental",
        "capacity": "20",
        "operator": "Yulu",
        "operator:type": "private",
        "website": "https://www.yulu.bike/"
      }
    },
    {
      "type": "node",
      "id": 8240293380,
      "lat": 12.9848923,
      "lon": 77.5879088,
      "tags": {
        "amenity": "fast_food",
        "name": "Gangotri",
        "name:kn": "ಗಂಗೋತ್ರಿ"
      }
    },
    {
      "type": "node",
      "id": 8240293381,
      "lat": 12.985676,
      "lon": 77.5878675,
      "tags": {
        "addr:city": "Bengaluru",
        "addr:country": "IN",
        "addr:hamlet": "High Grounds",
        "addr:housename": "Prestige Trade Tower",
        "addr:postcode": "560001",
        "addr:street": "Palace Road",
        "addr:suburb": "Sampangi Rama Nagar",
        "addr:unit": "The Courtyard by Sublime",
        "amenity": "restaurant",
        "brand": "Brik Oven",
        "brand:wikidata": "Q124374702",
        "cuisine": "pizza",
        "delivery": "yes",
        "name": "Brik Oven",
        "takeaway": "yes"
      }
    },
    {
      "type": "node",
      "id": 8403130748,
      "lat": 12.9873328,
      "lon": 77.5940132,
      "tags": {
        "addr:street": "Ali Asker Road",
        "name": "Spa.ce The Spa",
        "opening_hours": "Mo-Su 10:00-21:00",
        "phone": "+91-8310766993",
        "shop": "massage",
        "website": "https://www.spacethespa.com/"
      }
    },
    {
      "type": "node",
      "id": 9063471385,
      "lat": 12.98638,
      "lon": 77.5949228,
      "tags": {
        "amenity": "cafe",
        "check_date": "2024-08-31",
        "contact:instagram": "dolcicafeblr",
        "delivery": "yes",
        "name": "Dolci Cafe",
        "outdoor_seating": "yes",
        "takeaway": "yes"
      }
    },
    {
      "type": "node",
      "id": 9063471393,
      "lat": 12.9840625,
      "lon": 77.580813,
      "tags": {
        "amenity": "bank",
        "atm": "yes",
        "brand": "State Bank of India",
        "brand:wikidata": "Q1340361",
        "name": "State Bank of India",
        "short_name": "SBI"
      }
    },
    {
      "type": "node",
      "id": 9063471395,
      "lat": 12.984414,
      "lon": 77.578281,
      "tags": {
        "amenity": "bank",
        "atm": "yes",
        "brand": "HDFC Bank",
        "brand:wikidata": "Q631047",
        "name": "HDFC Bank",
        "short_name": "HDFC"
      }
    },
    {
      "type": "node",
      "id": 9063471396,
      "lat": 12.9879515,
      "lon": 77.5774683,
      "tags": {
        "name": "Titan Eye Plus",
        "shop": "optician"
      }
    },
    {
      "type": "node",
      "id": 9063471398,
      "lat": 12.9887173,
      "lon": 77.5779605,
      "tags": {
        "amenity": "fast_food",
        "name": "Umesh Refreshments"
      }
    },
    {
      "type": "node",
      "id": 9214166916,
      "lat": 12.986254,
      "lon": 77.5809807,
      "tags": {
        "name": "Navakarnataka Publications",
        "office": "company",
        "shop": "books"
      }
    },
    {
      "type": "node",
      "id": 9214185038,
      "lat": 12.9867313,
      "lon": 77.5797264,
      "tags": {
        "name": "Sapthagiri Xerox",
        "shop": "copyshop"
      }
    },
    {
      "type": "node",
      "id": 9214185039,
      "lat": 12.9867761,
      "lon": 77.5796677,
      "tags": {
        "amenity": "restaurant",
        "name": "Sea Rock Restaurant"
      }
    },
    {
      "type": "node",
      "id": 9214185050,
      "lat": 12.9873315,
      "lon": 77.5788718,
      "tags": {
        "name": "Megha Xerox",
        "shop": "copyshop"
      }
    },
    {
      "type": "node",
      "id": 9573432745,
      "lat": 12.9875523,
      "lon": 77.5947766,
      "tags": {
        "addr:city": "Bengaluru",
        "addr:country": "IN",
        "addr:housenumber": "18",
        "addr:postcode": "560052",
        "addr:street": "Cunningham Road",
        "amenity": "cafe",
        "brand": "Third Wave Coffee Roasters",
        "brand:wikidata": "Q7785004",
        "cuisine": "coffee_shop",
        "delivery": "yes",
        "internet_access": "yes",
        "internet_access:fee": "no",
        "name": "Third Wave Coffee Roasters",
        "opening_hours": "08:00-00:00",
        "operator": "Third Wave Coffee",
        "smoking": "no",
        "takeaway": "yes",
        "website": "https://www.thirdwavecoffeeroasters.com/pages/bangalore-cunningham-rd"
      }
    },
    {
      "type": "node",
      "id": 9573432746,
      "lat": 12.9883998,
      "lon": 77.5937028,
      "tags": {
        "amenity": "restaurant",
        "contact:facebook": "pastastreet",
        "contact:instagram": "pasta.street",
        "cuisine": "pasta",
        "email": "info@pastastreet.co.in",
        "name": "Pasta Street",
        "phone": "+91 9266844026",
        "website": "https://pastastreet.co.in/"
      }
    },
    {
      "type": "node",
      "id": 9573432747,
      "lat": 12.9891564,
      "lon": 77.5926858,
      "tags": {
        "amenity": "cafe",
        "name": "India Chai Lounge"
      }
    },
    {
      "type": "node",
      "id": 9573432754,
      "lat": 12.9892988,
      "lon": 77.5935723,
      "tags": {
        "amenity": "place_of_worship",
        "name": "Seventh Day Adventist Church",
        "name:kn": "ಸೆವೆಂತ್ ಡೇ ಅಡ್ವೆಂಟಿಸ್ಟ್ ಪ್ರೌಢ ಚರ್ಚ್",
        "religion": "christian"
      }
    },
    {
      "type": "node",
      "id": 9573432807,
      "lat": 12.9898444,
      "lon": 77.5880764,
      "tags": {
        "name": "NGMA Store",
        "shop": "art"
      }
    },
    {
      "type": "node",
      "id": 9573432808,
      "lat": 12.9898425,
      "lon": 77.5879309,
      "tags": {
        "amenity": "library",
        "name": "NGMA Library"
      }
    },
    {
      "type": "node",
      "id": 9573432815,
      "lat": 12.9887722,
      "lon": 77.5807865,
      "tags": {
        "covered": "yes",
        "leisure": "picnic_table"
      }
    },
    {
      "type": "node",
      "id": 9573432816,
      "lat": 12.9887585,
      "lon": 77.5807792,
      "tags": {
        "covered": "yes",
        "leisure": "picnic_table"
      }
    },
    {
      "type": "node",
      "id": 9573433517,
      "lat": 12.9887977,
      "lon": 77.5807993,
      "tags": {
        "covered": "yes",
        "leisure": "picnic_table"
      }
    },
    {
      "type": "node",
      "id": 9573433518,
      "lat": 12.9887843,
      "lon": 77.5807929,
      "tags": {
        "covered": "yes",
        "leisure": "picnic_table"
      }
    },
    {
      "type": "node",
      "id": 9573433519,
      "lat": 12.9887533,
      "lon": 77.580814,
      "tags": {
        "covered": "yes",
        "leisure": "picnic_table"
      }
    },
    {
      "type": "node",
      "id": 9573433520,
      "lat": 12.9887395,
      "lon": 77.5808066,
      "tags": {
        "covered": "yes",
        "leisure": "picnic_table"
      }
    },
    {
      "type": "node",
      "id": 9573433521,
      "lat": 12.9887787,
      "lon": 77.5808268,
      "tags": {
        "covered": "yes",
        "leisure": "picnic_table"
      }
    },
    {
      "type": "node",
      "id": 9573433522,
      "lat": 12.9887653,
      "lon": 77.5808204,
      "tags": {
        "covered": "yes",
        "leisure": "picnic_table"
      }
    },
    {
      "type": "node",
      "id": 9573433523,
      "lat": 12.9887631,
      "lon": 77.5808529,
      "tags": {
        "covered": "yes",
        "leisure": "picnic_table"
      }
    },
    {
      "type": "node",
      "id": 9573433524,
      "lat": 12.9887497,
      "lon": 77.5808465,
      "tags": {
        "covered": "yes",
        "leisure": "picnic_table"
      }
    },
    {
      "type": "node",
      "id": 9573433525,
      "lat": 12.9887376,
      "lon": 77.5808402,
      "tags": {
        "covered": "yes",
        "leisure": "picnic_table"
      }
    },
    {
      "type": "node",
      "id": 9573433526,
      "lat": 12.9887239,
      "lon": 77.5808328,
      "tags": {
        "covered": "yes",
        "leisure": "picnic_table"
      }
    },
    {
      "type": "node",
      "id": 9573433528,
      "lat": 12.98829,
      "lon": 77.5798635,
      "tags": {
        "amenity": "drinking_water"
      }
    },
    {
      "type": "node",
      "id": 9573433533,
      "lat": 12.9887062,
      "lon": 77.5808767,
      "tags": {
        "amenity": "waste_basket"
      }
    },
    {
      "type": "node",
      "id": 9573433541,
      "lat": 12.988699,
      "lon": 77.5808117,
      "tags": {
        "amenity": "fast_food",
        "name": "C K P Canteen"
      }
    },
    {
      "type": "node",
      "id": 9573433542,
      "lat": 12.9888545,
      "lon": 77.5808975,
      "tags": {
        "amenity": "toilets"
      }
    },
    {
      "type": "node",
      "id": 9573433543,
      "lat": 12.9935995,
      "lon": 77.5844286,
      "tags": {
        "access": "yes",
        "amenity": "toilets"
      }
    },
    {
      "type": "node",
      "id": 9723907915,
      "lat": 12.9776802,
      "lon": 77.5909869,
      "tags": {
        "amenity": "bicycle_repair_station",
        "description": "Unmanned and self service bicycle repair station. Has spanners, screw drivers and cycle pump."
      }
    },
    {
      "type": "node",
      "id": 9779286670,
      "lat": 12.9926102,
      "lon": 77.591676,
      "tags": {
        "amenity": "fast_food",
        "check_date": "2024-02-24",
        "name": "Kinara Tiffany",
        "name:en": "Kinara Tiffins"
      }
    },
    {
      "type": "node",
      "id": 9779286685,
      "lat": 12.9927344,
      "lon": 77.5908954,
      "tags": {
        "amenity": "fast_food",
        "name": "RR's Blue Mount"
      }
    },
    {
      "type": "node",
      "id": 9779286686,
      "lat": 12.9927174,
      "lon": 77.5907506,
      "tags": {
        "amenity": "cafe",
        "name": "Pure and Natural"
      }
    },
    {
      "type": "node",
      "id": 9779286691,
      "lat": 12.9927618,
      "lon": 77.5892942,
      "tags": {
        "amenity": "cafe",
        "name": "Desserted"
      }
    },
    {
      "type": "node",
      "id": 9779661191,
      "lat": 12.9928781,
      "lon": 77.5877257,
      "tags": {
        "access": "permissive",
        "amenity": "motorcycle_parking",
        "parking": "underground"
      }
    },
    {
      "type": "node",
      "id": 9779677431,
      "lat": 12.9934802,
      "lon": 77.5878812,
      "tags": {
        "access": "permissive",
        "amenity": "parking_entrance",
        "parking": "underground"
      }
    },
    {
      "type": "node",
      "id": 9779677433,
      "lat": 12.9933949,
      "lon": 77.587827,
      "tags": {
        "amenity": "fast_food",
        "name": "Carmel Culinary Court"
      }
    },
    {
      "type": "node",
      "id": 9779677437,
      "lat": 12.9928258,
      "lon": 77.5878243,
      "tags": {
        "amenity": "theatre",
        "name": "Amphitheatre"
      }
    },
    {
      "type": "node",
      "id": 9779677464,
      "lat": 12.9932192,
      "lon": 77.5882796,
      "tags": {
        "amenity": "theatre",
        "name": "Diamond Jubilee Auditorium"
      }
    },
    {
      "type": "node",
      "id": 9779677515,
      "lat": 12.9937399,
      "lon": 77.5884878,
      "tags": {
        "shop": "copyshop"
      }
    },
    {
      "type": "node",
      "id": 9779677525,
      "lat": 12.9939353,
      "lon": 77.588114,
      "tags": {
        "amenity": "fast_food",
        "name": "Green Canteen"
      }
    },
    {
      "type": "node",
      "id": 9779742231,
      "lat": 12.9848191,
      "lon": 77.5913119,
      "tags": {
        "amenity": "drinking_water"
      }
    },
    {
      "type": "node",
      "id": 9779742232,
      "lat": 12.9848048,
      "lon": 77.5913528,
      "tags": {
        "amenity": "waste_basket"
      }
    },
    {
      "type": "node",
      "id": 9779742246,
      "lat": 12.9844964,
      "lon": 77.5915003,
      "tags": {
        "amenity": "bench",
        "backrest": "yes"
      }
    },
    {
      "type": "node",
      "id": 9779742247,
      "lat": 12.9843846,
      "lon": 77.5915331,
      "tags": {
        "amenity": "bench",
        "backrest": "yes"
      }
    },
    {
      "type": "node",
      "id": 9779742248,
      "lat": 12.984318,
      "lon": 77.5916096,
      "tags": {
        "amenity": "bench",
        "backrest": "yes"
      }
    },
    {
      "type": "node",
      "id": 9779742249,
      "lat": 12.9843082,
      "lon": 77.5917222,
      "tags": {
        "amenity": "bench",
        "backrest": "yes"
      }
    },
    {
      "type": "node",
      "id": 9779742250,
      "lat": 12.9843382,
      "lon": 77.5917873,
      "tags": {
        "amenity": "bench",
        "backrest": "yes"
      }
    },
    {
      "type": "node",
      "id": 9779742251,
      "lat": 12.9843859,
      "lon": 77.5918362,
      "tags": {
        "amenity": "bench",
        "backrest": "yes"
      }
    },
    {
      "type": "node",
      "id": 9779742252,
      "lat": 12.9844683,
      "lon": 77.5918496,
      "tags": {
        "amenity": "bench",
        "backrest": "yes"
      }
    },
    {
      "type": "node",
      "id": 9779742253,
      "lat": 12.9845356,
      "lon": 77.5918416,
      "tags": {
        "amenity": "bench",
        "backrest": "yes"
      }
    },
    {
      "type": "node",
      "id": 9779742254,
      "lat": 12.9845918,
      "lon": 77.5917826,
      "tags": {
        "amenity": "bench",
        "backrest": "yes"
      }
    },
    {
      "type": "node",
      "id": 9779742255,
      "lat": 12.9846381,
      "lon": 77.5915512,
      "tags": {
        "amenity": "waste_basket"
      }
    },
    {
      "type": "node",
      "id": 9779742256,
      "lat": 12.9846048,
      "lon": 77.5917008,
      "tags": {
        "amenity": "bench",
        "backrest": "yes"
      }
    },
    {
      "type": "node",
      "id": 9870744984,
      "lat": 12.9777739,
      "lon": 77.5849965,
      "tags": {
        "shop": "convenience"
      }
    },
    {
      "type": "node",
      "id": 9910013000,
      "lat": 12.986765,
      "lon": 77.5797482,
      "tags": {
        "name": "Glamour Unisex Beauty Salon",
        "shop": "hairdresser"
      }
    },
    {
      "type": "node",
      "id": 9910013013,
      "lat": 12.9834202,
      "lon": 77.5916613,
      "tags": {
        "amenity": "bench",
        "backrest": "yes",
        "material": "wood",
        "seats": "2"
      }
    },
    {
      "type": "node",
      "id": 9996923802,
      "lat": 12.9893668,
      "lon": 77.5929058,
      "tags": {
        "brand": "Jaguar",
        "brand:wikidata": "Q21170490",
        "name": "Jaguar",
        "shop": "car"
      }
    },
    {
      "type": "node",
      "id": 10073419802,
      "lat": 12.9851903,
      "lon": 77.5806709,
      "tags": {
        "addr:floor": "G",
        "air_conditioning": "yes",
        "alt_name": "Nerlu Cafe",
        "amenity": "cafe",
        "check_date": "2025-08-24",
        "cuisine": "coffee_shop",
        "internet_access": "wlan",
        "internet_access:fee": "no",
        "internet_access:ssid": "Nerlu",
        "level": "0",
        "name": "ner.lu",
        "outdoor_seating": "yes",
        "start_date": "2022-07-01"
      }
    },
    {
      "type": "node",
      "id": 10197599022,
      "lat": 12.9909297,
      "lon": 77.5884895,
      "tags": {
        "amenity": "motorcycle_parking",
        "capacity": "15",
        "covered": "no",
        "parking": "surface"
      }
    },
    {
      "type": "node",
      "id": 10197599049,
      "lat": 12.9932649,
      "lon": 77.5856557,
      "tags": {
        "access": "permissive",
        "amenity": "parking",
        "parking": "surface"
      }
    },
    {
      "type": "node",
      "id": 10228304184,
      "lat": 12.9873323,
      "lon": 77.5801221,
      "tags": {
        "addr:state": "KA",
        "addr:street": "Kumara Krupa Road",
        "amenity": "restaurant",
        "name": "The Noodle Theory"
      }
    },
    {
      "type": "node",
      "id": 10228304185,
      "lat": 12.987145,
      "lon": 77.579938,
      "tags": {
        "name": "Shubh Jewellers",
        "shop": "jewelry"
      }
    },
    {
      "type": "node",
      "id": 10228304186,
      "lat": 12.9886571,
      "lon": 77.5812034,
      "tags": {
        "name": "Cayana",
        "shop": "boutique"
      }
    },
    {
      "type": "node",
      "id": 10228304187,
      "lat": 12.98669,
      "lon": 77.5796975,
      "tags": {
        "amenity": "pharmacy",
        "name": "Panchavati Chemists and Druggists"
      }
    },
    {
      "type": "node",
      "id": 10228304188,
      "lat": 12.9873085,
      "lon": 77.5800797,
      "tags": {
        "name": "Celebration",
        "shop": "mobile_phone"
      }
    },
    {
      "type": "node",
      "id": 10228304189,
      "lat": 12.9870121,
      "lon": 77.5802165,
      "tags": {
        "amenity": "fast_food",
        "brand": "Domino's",
        "brand:wikidata": "Q839466",
        "cuisine": "pizza",
        "name": "Domino's",
        "name:kn": "ಡಾಮಿನೋಸ್",
        "takeaway": "yes"
      }
    },
    {
      "type": "node",
      "id": 10228570993,
      "lat": 12.9876205,
      "lon": 77.5780205,
      "tags": {
        "name": "Aarcee",
        "shop": "clothes"
      }
    },
    {
      "type": "node",
      "id": 10228570994,
      "lat": 12.9876571,
      "lon": 77.57848,
      "tags": {
        "brand": "Suzuki",
        "brand:wikidata": "Q181642",
        "name": "Saptagiri Suzuki",
        "shop": "motorcycle"
      }
    },
    {
      "type": "node",
      "id": 10228570999,
      "lat": 12.9861382,
      "lon": 77.5800704,
      "tags": {
        "name": "Excelsior",
        "shop": "travel_agency"
      }
    },
    {
      "type": "node",
      "id": 10228571000,
      "lat": 12.9877704,
      "lon": 77.5781496,
      "tags": {
        "name": "Ahaa!",
        "shop": "furniture"
      }
    },
    {
      "type": "node",
      "id": 10228571001,
      "lat": 12.9871351,
      "lon": 77.578442,
      "tags": {
        "name": "Chalukya",
        "shop": "supermarket"
      }
    },
    {
      "type": "node",
      "id": 10242924683,
      "lat": 12.988047,
      "lon": 77.5797237,
      "tags": {
        "amenity": "recycling",
        "recycling_type": "centre"
      }
    },
    {
      "type": "node",
      "id": 10286214674,
      "lat": 12.9824656,
      "lon": 77.5926831,
      "tags": {
        "amenity": "bench",
        "backrest": "yes",
        "colour": "green",
        "material": "wood",
        "seats": "2"
      }
    },
    {
      "type": "node",
      "id": 10286214675,
      "lat": 12.9824433,
      "lon": 77.5927509,
      "tags": {
        "amenity": "bench",
        "backrest": "yes",
        "colour": "green",
        "material": "wood",
        "seats": "2"
      }
    },
    {
      "type": "node",
      "id": 10286214676,
      "lat": 12.982425,
      "lon": 77.5928166,
      "tags": {
        "amenity": "bench",
        "backrest": "yes",
        "colour": "green",
        "material": "wood",
        "seats": "2"
      }
    },
    {
      "type": "node",
      "id": 10286214677,
      "lat": 12.9824015,
      "lon": 77.5928944,
      "tags": {
        "amenity": "bench",
        "backrest": "yes",
        "colour": "green",
        "material": "wood",
        "seats": "2"
      }
    },
    {
      "type": "node",
      "id": 10286214678,
      "lat": 12.9839077,
      "lon": 77.5900874,
      "tags": {
        "amenity": "waste_basket"
      }
    },
    {
      "type": "node",
      "id": 10291118231,
      "lat": 12.9827478,
      "lon": 77.5940108,
      "tags": {
        "addr:city": "Bengaluru",
        "addr:country": "IN",
        "addr:housenumber": "5",
        "addr:postcode": "560001",
        "addr:street": "Raj Bhavan",
        "addr:suburb": "Vasanth Nagar",
        "addr:unit": "Prestige Khoday",
        "amenity": "coworking_space",
        "brand": "The Executive Centre",
        "email": "bangalore@executivecentre.com",
        "fee": "yes",
        "level": "10;11",
        "name": "The Executive Centre",
        "office": "coworking",
        "operator": "The Executive Centre",
        "phone": "+91 80 4635 7777",
        "website": "https://www.executivecentre.com/en-in/office-space/bangalore-prestige-khoday-tower/"
      }
    },
    {
      "type": "node",
      "id": 10291118232,
      "lat": 12.985994,
      "lon": 77.5874287,
      "tags": {
        "addr:city": "Bengaluru",
        "addr:country": "IN",
        "addr:housenumber": "46",
        "addr:postcode": "560001",
        "addr:street": "Palace Road",
        "addr:suburb": "High Grounds",
        "addr:unit": "Prestige Trade Tower",
        "amenity": "coworking_space",
        "brand": "The Executive Centre",
        "email": "bangalore@executivecentre.com",
        "fee": "yes",
        "level": "11",
        "name": "The Executive Centre",
        "office": "coworking",
        "operator": "The Executive Centre",
        "phone": "+91 80 6120 7000",
        "website": "https://www.executivecentre.com/en-in/office-space/bangalore-prestige-trade-tower/"
      }
    },
    {
      "type": "node",
      "id": 10291118234,
      "lat": 12.9870786,
      "lon": 77.5909732,
      "tags": {
        "addr:city": "Bengaluru",
        "addr:country": "IN",
        "addr:housename": "Safina Towers",
        "addr:housenumber": "3",
        "addr:postcode": "560052",
        "addr:street": "Ali Asker Road",
        "addr:suburb": "Vasanth Nagar",
        "addr:unit": "Safina Towers South Tower",
        "amenity": "coworking_space",
        "brand": "The Executive Centre",
        "email": "bangalore@executivecentre.com",
        "fee": "yes",
        "level": "3;4;5;6",
        "name": "The Executive Centre",
        "office": "coworking",
        "operator": "The Executive Centre",
        "phone": "+91 80 6120 7100",
        "website": "https://www.executivecentre.com/en-in/office-space/safina-towers/"
      }
    },
    {
      "type": "node",
      "id": 10579312537,
      "lat": 12.9777636,
      "lon": 77.5888047,
      "tags": {
        "amenity": "fire_station",
        "name": "Bengaluru Secretariat Fire Station"
      }
    },
    {
      "type": "node",
      "id": 10591415447,
      "lat": 12.9859225,
      "lon": 77.5877778,
      "tags": {
        "addr:city": "Bengaluru",
        "addr:country": "IN",
        "addr:hamlet": "High Grounds",
        "addr:housename": "Prestige Trade Tower",
        "addr:postcode": "560001",
        "addr:street": "Palace Road",
        "addr:suburb": "Sampangi Rama Nagar",
        "addr:unit": "The Courtyard by Sublime",
        "amenity": "restaurant",
        "cuisine": "regional",
        "name": "Maayaa"
      }
    },
    {
      "type": "node",
      "id": 10729736373,
      "lat": 12.9895876,
      "lon": 77.5932786,
      "tags": {
        "brand": "BYD",
        "name": "VST BYD",
        "shop": "car"
      }
    },
    {
      "type": "node",
      "id": 10978724223,
      "lat": 12.9853611,
      "lon": 77.5882869,
      "tags": {
        "amenity": "parking_entrance"
      }
    },
    {
      "type": "node",
      "id": 11061435985,
      "lat": 12.9847784,
      "lon": 77.5808621,
      "tags": {
        "amenity": "bar",
        "name": "The Burrow"
      }
    },
    {
      "type": "node",
      "id": 11063128444,
      "lat": 12.9886447,
      "lon": 77.5940005,
      "tags": {
        "amenity": "cafe",
        "brand": "Starbucks",
        "brand:wikidata": "Q37158",
        "cuisine": "coffee_shop",
        "name": "Starbucks",
        "official_name": "Starbucks Coffee",
        "takeaway": "yes"
      }
    },
    {
      "type": "node",
      "id": 11063128445,
      "lat": 12.9885799,
      "lon": 77.594038,
      "tags": {
        "amenity": "cafe",
        "brand": "Chaayos",
        "brand:wikidata": "Q117235235",
        "cuisine": "tea",
        "name": "Chaayos",
        "takeaway": "yes"
      }
    },
    {
      "type": "node",
      "id": 11207651252,
      "lat": 12.9845202,
      "lon": 77.5902902,
      "tags": {
        "name": "Ticket Booth",
        "shop": "ticket"
      }
    },
    {
      "type": "node",
      "id": 11207651305,
      "lat": 12.984538,
      "lon": 77.5898492,
      "tags": {
        "amenity": "drinking_water"
      }
    },
    {
      "type": "node",
      "id": 11214889025,
      "lat": 12.9857351,
      "lon": 77.5877616,
      "tags": {
        "addr:city": "Bengaluru",
        "addr:country": "IN",
        "addr:hamlet": "High Grounds",
        "addr:housename": "Prestige Trade Tower",
        "addr:postcode": "560001",
        "addr:street": "Palace Road",
        "addr:suburb": "Sampangi Rama Nagar",
        "addr:unit": "The Courtyard by Sublime",
        "amenity": "cafe",
        "name": "Boba Tree"
      }
    },
    {
      "type": "node",
      "id": 11214889026,
      "lat": 12.9857843,
      "lon": 77.5879335,
      "tags": {
        "addr:city": "Bengaluru",
        "addr:country": "IN",
        "addr:hamlet": "High Grounds",
        "addr:housename": "Prestige Trade Tower",
        "addr:postcode": "560001",
        "addr:street": "Palace Road",
        "addr:suburb": "Sampangi Rama Nagar",
        "addr:unit": "The Courtyard by Sublime",
        "name": "Sweet Factory",
        "shop": "confectionery"
      }
    },
    {
      "type": "node",
      "id": 11214889027,
      "lat": 12.9856786,
      "lon": 77.587802,
      "tags": {
        "addr:city": "Bengaluru",
        "addr:country": "IN",
        "addr:hamlet": "High Grounds",
        "addr:housename": "Prestige Trade Tower",
        "addr:postcode": "560001",
        "addr:street": "Palace Road",
        "addr:suburb": "Sampangi Rama Nagar",
        "addr:unit": "The Courtyard by Sublime",
        "amenity": "restaurant",
        "cuisine": "asian",
        "name": "Misu"
      }
    },
    {
      "type": "node",
      "id": 11214889028,
      "lat": 12.984269,
      "lon": 77.5865757,
      "tags": {
        "amenity": "bank",
        "atm": "yes",
        "brand": "Bank of Baroda",
        "brand:wikidata": "Q2003797",
        "name": "Bank of Baroda",
        "operator": "Bank of Baroda"
      }
    },
    {
      "type": "node",
      "id": 11214903950,
      "lat": 12.9879489,
      "lon": 77.5780544,
      "tags": {
        "amenity": "place_of_worship",
        "religion": "hindu"
      }
    },
    {
      "type": "node",
      "id": 11420703840,
      "lat": 12.9834936,
      "lon": 77.590649,
      "tags": {
        "amenity": "place_of_worship",
        "check_date": "2023-12-15",
        "religion": "hindu"
      }
    },
    {
      "type": "node",
      "id": 11458986887,
      "lat": 12.9866764,
      "lon": 77.5890386,
      "tags": {
        "amenity": "waste_basket"
      }
    },
    {
      "type": "node",
      "id": 11472482870,
      "lat": 12.9927608,
      "lon": 77.5906166,
      "tags": {
        "amenity": "cafe",
        "name": "Boba Cafe - A true bubble tea"
      }
    },
    {
      "type": "node",
      "id": 11473057369,
      "lat": 12.9930468,
      "lon": 77.5900341,
      "tags": {
        "amenity": "cafe",
        "name": "hunkal coffee"
      }
    },
    {
      "type": "node",
      "id": 11475453356,
      "lat": 12.9865466,
      "lon": 77.5950151,
      "tags": {
        "addr:city": "Bengaluru",
        "addr:country": "IN",
        "addr:housenumber": "18",
        "addr:postcode": "560052",
        "addr:street": "Ali Asker Road",
        "amenity": "restaurant",
        "check_date": "2024-08-31",
        "contact:instagram": "tudum.blr",
        "delivery": "yes",
        "name": "Tudum",
        "takeaway": "yes"
      }
    },
    {
      "type": "node",
      "id": 11475453357,
      "lat": 12.9866459,
      "lon": 77.5950529,
      "tags": {
        "addr:city": "Bangalore",
        "amenity": "restaurant",
        "brand": "Cafe Noir",
        "brand:wikidata": "Q124374751",
        "cuisine": "french;burger",
        "delivery": "yes",
        "indoor_seating": "yes",
        "name": "Cafe Noir",
        "name:kn": "ಕಫೆ ನಾರ್ಯ್",
        "takeaway": "yes"
      }
    },
    {
      "type": "node",
      "id": 11478107301,
      "lat": 12.98774,
      "lon": 77.5781892,
      "tags": {
        "check_date": "2024-01-02",
        "name": "Light Zone",
        "shop": "lighting"
      }
    },
    {
      "type": "node",
      "id": 11478107302,
      "lat": 12.9877185,
      "lon": 77.5782277,
      "tags": {
        "check_date": "2024-01-02",
        "name": "Chirag Jewelers",
        "shop": "jewelry"
      }
    },
    {
      "type": "node",
      "id": 11478259470,
      "lat": 12.9858618,
      "lon": 77.5877734,
      "tags": {
        "addr:city": "Bengaluru",
        "addr:country": "IN",
        "addr:hamlet": "High Grounds",
        "addr:housename": "Prestige Trade Tower",
        "addr:postcode": "560001",
        "addr:street": "Palace Road",
        "addr:suburb": "Sampangi Rama Nagar",
        "addr:unit": "The Courtyard by Sublime",
        "amenity": "restaurant",
        "check_date": "2024-01-02",
        "cuisine": "punjabi",
        "name": "Tandoori Taal"
      }
    },
    {
      "type": "node",
      "id": 11539173257,
      "lat": 12.9859547,
      "lon": 77.5878321,
      "tags": {
        "addr:city": "Bengaluru",
        "addr:country": "IN",
        "addr:hamlet": "High Grounds",
        "addr:housename": "Prestige Trade Tower",
        "addr:postcode": "560001",
        "addr:street": "Palace Road",
        "addr:suburb": "Sampangi Rama Nagar",
        "addr:unit": "The Courtyard by Sublime",
        "amenity": "fast_food",
        "contact:instagram": "beyondburginc",
        "cuisine": "burger",
        "delivery": "yes",
        "diet:halal": "yes",
        "name": "BeyondBurg Inc",
        "phone": "+91 8075303678",
        "takeaway": "yes",
        "website": "https://beyondburginc.com/"
      }
    },
    {
      "type": "node",
      "id": 11554479152,
      "lat": 12.9833973,
      "lon": 77.5915283,
      "tags": {
        "amenity": "bicycle_parking",
        "bicycle_parking": "stands",
        "capacity": "4",
        "covered": "no"
      }
    },
    {
      "type": "node",
      "id": 11565045295,
      "lat": 12.9905027,
      "lon": 77.5868698,
      "tags": {
        "access": "private",
        "amenity": "parking_entrance",
        "parking": "underground"
      }
    },
    {
      "type": "node",
      "id": 11576562501,
      "lat": 12.9873351,
      "lon": 77.5933427,
      "tags": {
        "access": "private",
        "amenity": "parking_entrance",
        "parking": "underground"
      }
    },
    {
      "type": "node",
      "id": 11576562503,
      "lat": 12.9873104,
      "lon": 77.5933754,
      "tags": {
        "access": "private",
        "amenity": "parking_entrance",
        "parking": "underground"
      }
    },
    {
      "type": "node",
      "id": 11658501189,
      "lat": 12.9925955,
      "lon": 77.5916124,
      "tags": {
        "amenity": "fast_food",
        "check_date": "2024-02-24",
        "name": "Step Right Up"
      }
    },
    {
      "type": "node",
      "id": 11658509111,
      "lat": 12.9874213,
      "lon": 77.5948654,
      "tags": {
        "amenity": "college",
        "check_date": "2024-02-24",
        "name": "IDeA College"
      }
    },
    {
      "type": "node",
      "id": 11658509114,
      "lat": 12.9896423,
      "lon": 77.5932252,
      "tags": {
        "amenity": "bank",
        "brand": "Kotak Mahindra Bank",
        "brand:wikidata": "Q2040404",
        "check_date": "2024-02-24",
        "name": "Kotak Mahindra Bank",
        "name:kn": "ಕೋಟಕ್ ಮಹಿಂದ್ರ ಬ್ಯಾಂಕ್"
      }
    },
    {
      "type": "node",
      "id": 11658509115,
      "lat": 12.9896136,
      "lon": 77.5932516,
      "tags": {
        "amenity": "bank",
        "check_date": "2024-02-24",
        "name": "Unity Small Finance Bank"
      }
    },
    {
      "type": "node",
      "id": 11658509116,
      "lat": 12.9906437,
      "lon": 77.5931902,
      "tags": {
        "amenity": "fast_food",
        "check_date": "2024-02-24",
        "name": "Swathi Grand Veg"
      }
    },
    {
      "type": "node",
      "id": 11658782435,
      "lat": 12.9921935,
      "lon": 77.5916091,
      "tags": {
        "amenity": "driving_school",
        "name": "Thirumal motor driving school"
      }
    },
    {
      "type": "node",
      "id": 11658802851,
      "lat": 12.9928201,
      "lon": 77.5902016,
      "tags": {
        "amenity": "restaurant",
        "name": "The food corner"
      }
    },
    {
      "type": "node",
      "id": 11658878413,
      "lat": 12.9920753,
      "lon": 77.5918161,
      "tags": {
        "amenity": "post_box",
        "operator": "India Post",
        "operator:wikidata": "Q3519720"
      }
    },
    {
      "type": "node",
      "id": 11658927822,
      "lat": 12.9927206,
      "lon": 77.5912456,
      "tags": {
        "name": "Cool Corner",
        "shop": "beverages"
      }
    },
    {
      "type": "node",
      "id": 11659025204,
      "lat": 12.9922532,
      "lon": 77.5913119,
      "tags": {
        "amenity": "dentist",
        "name": "Thejus Dental Clinic"
      }
    },
    {
      "type": "node",
      "id": 11659640044,
      "lat": 12.9867732,
      "lon": 77.5908287,
      "tags": {
        "access": "yes",
        "amenity": "bicycle_parking",
        "bicycle_parking": "wall_loops",
        "covered": "no",
        "fee": "no"
      }
    },
    {
      "type": "node",
      "id": 11665305123,
      "lat": 12.9833321,
      "lon": 77.587783,
      "tags": {
        "amenity": "fast_food",
        "check_date": "2024-02-26",
        "cuisine": "juice",
        "name": "Sreeraj Lassi Bar",
        "name:kn": "ಶ್ರೀರಾಜ್ ಲಸ್ಸಿ ಬಾರ್"
      }
    },
    {
      "type": "node",
      "id": 11676514098,
      "lat": 12.9897366,
      "lon": 77.5930452,
      "tags": {
        "amenity": "fast_food",
        "name": "Chandrika Hotel"
      }
    },
    {
      "type": "node",
      "id": 11676514099,
      "lat": 12.9883273,
      "lon": 77.593685,
      "tags": {
        "amenity": "bank",
        "brand": "ICICI Bank",
        "brand:wikidata": "Q1653258",
        "name": "ICICI Bank",
        "short_name": "ICICI"
      }
    },
    {
      "type": "node",
      "id": 11676514104,
      "lat": 12.9887657,
      "lon": 77.5918664,
      "tags": {
        "amenity": "bank",
        "brand": "RBL Bank",
        "brand:wikidata": "Q13120398",
        "name": "RBL Bank"
      }
    },
    {
      "type": "node",
      "id": 11676514105,
      "lat": 12.9884534,
      "lon": 77.5924256,
      "tags": {
        "amenity": "bank",
        "brand": "Central Bank of India",
        "brand:wikidata": "Q2007090",
        "name": "Central Bank of India"
      }
    },
    {
      "type": "node",
      "id": 11676514111,
      "lat": 12.9879659,
      "lon": 77.5909142,
      "tags": {
        "amenity": "college",
        "name": "St. Anne's PU College"
      }
    },
    {
      "type": "node",
      "id": 11676514112,
      "lat": 12.9881515,
      "lon": 77.5905722,
      "tags": {
        "amenity": "school",
        "name": "St. Anne Public School"
      }
    },
    {
      "type": "node",
      "id": 11676514122,
      "lat": 12.988588,
      "lon": 77.590296,
      "tags": {
        "amenity": "place_of_worship",
        "building": "chapel",
        "name": "St Anne's Generalate",
        "religion": "christian"
      }
    },
    {
      "type": "node",
      "id": 11676514141,
      "lat": 12.9867401,
      "lon": 77.5914963,
      "tags": {
        "amenity": "kindergarten",
        "name": "Kara4Kids Play School"
      }
    },
    {
      "type": "node",
      "id": 11676514156,
      "lat": 12.989027,
      "lon": 77.5937131,
      "tags": {
        "name": "Just Bake",
        "shop": "bakery"
      }
    },
    {
      "type": "node",
      "id": 11676514157,
      "lat": 12.989078,
      "lon": 77.5937815,
      "tags": {
        "amenity": "post_office",
        "brand": "Blue Dart Express",
        "brand:short": "Blue Dart",
        "brand:wikidata": "Q54621493",
        "name": "Blue Dart",
        "operator": "Blue Dart Express",
        "operator:short": "Blue Dart",
        "operator:wikidata": "Q54621493"
      }
    },
    {
      "type": "node",
      "id": 11676514158,
      "lat": 12.9891525,
      "lon": 77.5937198,
      "tags": {
        "amenity": "cafe",
        "name": "Tea Time"
      }
    },
    {
      "type": "node",
      "id": 11683098374,
      "lat": 12.9782362,
      "lon": 77.5808398,
      "tags": {
        "amenity": "bank",
        "brand": "Union Bank of India",
        "brand:wikidata": "Q2004078",
        "check_date": "2024-03-02",
        "name": "Union Bank of India"
      }
    },
    {
      "type": "node",
      "id": 11686664869,
      "lat": 12.9929771,
      "lon": 77.5905392,
      "tags": {
        "amenity": "fast_food",
        "check_date": "2024-02-24",
        "cuisine": "juice",
        "name": "Ganesh Juice"
      }
    },
    {
      "type": "node",
      "id": 11686664969,
      "lat": 12.9929279,
      "lon": 77.5905184,
      "tags": {
        "amenity": "waste_basket"
      }
    },
    {
      "type": "node",
      "id": 11686665169,
      "lat": 12.9926981,
      "lon": 77.5907507,
      "tags": {
        "check_date": "2024-02-24",
        "leisure": "fitness_centre",
        "name": "Onset Fitness"
      }
    },
    {
      "type": "node",
      "id": 11693115445,
      "lat": 12.9780714,
      "lon": 77.588914,
      "tags": {
        "access": "private",
        "amenity": "parking_entrance",
        "parking": "underground"
      }
    },
    {
      "type": "node",
      "id": 11693119185,
      "lat": 12.9778716,
      "lon": 77.5891162,
      "tags": {
        "access": "private",
        "amenity": "parking_entrance",
        "parking": "underground"
      }
    },
    {
      "type": "node",
      "id": 11696866861,
      "lat": 12.980325,
      "lon": 77.5832927,
      "tags": {
        "amenity": "college",
        "name": "Maharani's Arts, Commerce and Management College",
        "start_date": "1975"
      }
    },
    {
      "type": "node",
      "id": 11696866862,
      "lat": 12.9775492,
      "lon": 77.583451,
      "tags": {
        "amenity": "college",
        "name": "VHD Home Science College",
        "official_name": "Smt V.H.D Central Institute of Home Science College",
        "start_date": "1964"
      }
    },
    {
      "type": "node",
      "id": 11696866863,
      "lat": 12.9795827,
      "lon": 77.5839847,
      "tags": {
        "amenity": "college",
        "name": "Maharani's Science College for Women",
        "start_date": "1938"
      }
    },
    {
      "type": "node",
      "id": 11769490824,
      "lat": 12.9842865,
      "lon": 77.5884856,
      "tags": {
        "amenity": "bench",
        "backrest": "yes",
        "colour": "green",
        "material": "concrete",
        "seats": "4"
      }
    },
    {
      "type": "node",
      "id": 11769490841,
      "lat": 12.9811045,
      "lon": 77.5888137,
      "tags": {
        "amenity": "bench",
        "backrest": "yes",
        "material": "concrete",
        "seats": "6"
      }
    },
    {
      "type": "node",
      "id": 11769497884,
      "lat": 12.9788023,
      "lon": 77.5873983,
      "tags": {
        "amenity": "bench",
        "backrest": "yes",
        "material": "concrete",
        "seats": "2"
      }
    },
    {
      "type": "node",
      "id": 11769497885,
      "lat": 12.9787945,
      "lon": 77.5873978,
      "tags": {
        "amenity": "bench",
        "backrest": "yes",
        "material": "concrete",
        "seats": "2"
      }
    },
    {
      "type": "node",
      "id": 11769497886,
      "lat": 12.9787936,
      "lon": 77.5874071,
      "tags": {
        "amenity": "bench",
        "backrest": "yes",
        "material": "concrete",
        "seats": "2"
      }
    },
    {
      "type": "node",
      "id": 11853107226,
      "lat": 12.9802472,
      "lon": 77.5926722,
      "tags": {
        "access": "yes",
        "amenity": "bicycle_parking",
        "bicycle_parking": "wall_loops",
        "capacity": "7",
        "covered": "no",
        "fee": "no",
        "operator": "DULT",
        "operator:type": "public"
      }
    },
    {
      "type": "node",
      "id": 11951350412,
      "lat": 12.984684,
      "lon": 77.5824702,
      "tags": {
        "amenity": "bench"
      }
    },
    {
      "type": "node",
      "id": 11951350413,
      "lat": 12.9846445,
      "lon": 77.5825397,
      "tags": {
        "amenity": "bench"
      }
    },
    {
      "type": "node",
      "id": 12000326825,
      "lat": 12.9819467,
      "lon": 77.5943191,
      "tags": {
        "amenity": "waste_basket"
      }
    },
    {
      "type": "node",
      "id": 12000326826,
      "lat": 12.9832736,
      "lon": 77.5913894,
      "tags": {
        "amenity": "waste_basket"
      }
    },
    {
      "type": "node",
      "id": 12000326827,
      "lat": 12.9836084,
      "lon": 77.5906932,
      "tags": {
        "amenity": "waste_basket"
      }
    },
    {
      "type": "node",
      "id": 12000326829,
      "lat": 12.984181,
      "lon": 77.5826369,
      "tags": {
        "amenity": "waste_basket"
      }
    },
    {
      "type": "node",
      "id": 12000326830,
      "lat": 12.9846977,
      "lon": 77.5817917,
      "tags": {
        "amenity": "place_of_worship",
        "check_date": "2024-06-22",
        "religion": "hindu"
      }
    },
    {
      "type": "node",
      "id": 12000326832,
      "lat": 12.987324,
      "lon": 77.5783227,
      "tags": {
        "check_date": "2024-06-22",
        "name": "Ravi Handicrafts",
        "shop": "craft"
      }
    },
    {
      "type": "node",
      "id": 12002046035,
      "lat": 12.977855,
      "lon": 77.5812757,
      "tags": {
        "amenity": "charging_station",
        "fee": "yes",
        "motorcar": "yes",
        "motorcycle": "yes"
      }
    },
    {
      "type": "node",
      "id": 12022437803,
      "lat": 12.9857937,
      "lon": 77.5877686,
      "tags": {
        "addr:city": "Bengaluru",
        "addr:country": "IN",
        "addr:hamlet": "High Grounds",
        "addr:housename": "Prestige Trade Tower",
        "addr:postcode": "560001",
        "addr:street": "Palace Road",
        "addr:suburb": "Sampangi Rama Nagar",
        "addr:unit": "The Courtyard by Sublime",
        "amenity": "cafe",
        "name": "Sublime House of Tea"
      }
    },
    {
      "type": "node",
      "id": 12022437804,
      "lat": 12.9857221,
      "lon": 77.5879276,
      "tags": {
        "addr:city": "Bengaluru",
        "addr:country": "IN",
        "addr:hamlet": "High Grounds",
        "addr:housename": "Prestige Trade Tower",
        "addr:postcode": "560001",
        "addr:street": "Palace Road",
        "addr:suburb": "Sampangi Rama Nagar",
        "addr:unit": "The Courtyard by Sublime",
        "amenity": "cafe",
        "name": "Zed The Baker"
      }
    },
    {
      "type": "node",
      "id": 12022437805,
      "lat": 12.9859481,
      "lon": 77.5879172,
      "tags": {
        "addr:city": "Bengaluru",
        "addr:country": "IN",
        "addr:hamlet": "High Grounds",
        "addr:housename": "Prestige Trade Tower",
        "addr:postcode": "560001",
        "addr:street": "Palace Road",
        "addr:suburb": "Sampangi Rama Nagar",
        "addr:unit": "The Courtyard by Sublime",
        "amenity": "cafe",
        "brand": "Starbucks",
        "brand:wikidata": "Q37158",
        "cuisine": "coffee_shop",
        "name": "Starbucks",
        "official_name": "Starbucks Coffee",
        "takeaway": "yes"
      }
    },
    {
      "type": "node",
      "id": 12039702363,
      "lat": 12.9924495,
      "lon": 77.5881636,
      "tags": {
        "access": "permissive",
        "amenity": "parking_entrance",
        "parking": "underground"
      }
    },
    {
      "type": "node",
      "id": 12039702364,
      "lat": 12.9915191,
      "lon": 77.5881355,
      "tags": {
        "access": "permissive",
        "amenity": "parking_entrance",
        "parking": "underground"
      }
    },
    {
      "type": "node",
      "id": 12074809946,
      "lat": 12.9874916,
      "lon": 77.5935508,
      "tags": {
        "addr:city": "Bengaluru",
        "addr:country": "IN",
        "addr:housename": "37 Cunningham",
        "addr:housenumber": "37",
        "addr:postcode": "560001",
        "addr:street": "Cunningham Road",
        "amenity": "coworking_space",
        "brand": "WeWork",
        "brand:wikidata": "Q19995004",
        "brand:wikipedia": "en:WeWork",
        "fee": "yes",
        "name": "WeWork 37 Cunningham",
        "office": "coworking",
        "operator": "WeWork India"
      }
    },
    {
      "type": "node",
      "id": 12118846712,
      "lat": 12.9844944,
      "lon": 77.5847934,
      "tags": {
        "amenity": "post_box"
      }
    },
    {
      "type": "node",
      "id": 12133368720,
      "lat": 12.9795623,
      "lon": 77.5854743,
      "tags": {
        "amenity": "post_box",
        "operator": "India Post"
      }
    },
    {
      "type": "node",
      "id": 12134082436,
      "lat": 12.9790145,
      "lon": 77.5852812,
      "tags": {
        "amenity": "college",
        "name": "Government Institute of Printing Technology",
        "website": "https://gpt.karnataka.gov.in/"
      }
    },
    {
      "type": "node",
      "id": 12137668900,
      "lat": 12.9784135,
      "lon": 77.5844751,
      "tags": {
        "amenity": "bench",
        "backrest": "no",
        "material": "stone",
        "seats": "4"
      }
    },
    {
      "type": "node",
      "id": 12137671601,
      "lat": 12.9783729,
      "lon": 77.5844504,
      "tags": {
        "amenity": "bench",
        "backrest": "no",
        "material": "stone",
        "seats": "4"
      }
    },
    {
      "type": "node",
      "id": 12137671602,
      "lat": 12.9783283,
      "lon": 77.5844252,
      "tags": {
        "amenity": "bench",
        "backrest": "no",
        "material": "stone",
        "seats": "4"
      }
    },
    {
      "type": "node",
      "id": 12137671603,
      "lat": 12.9781933,
      "lon": 77.5847139,
      "tags": {
        "amenity": "bench",
        "backrest": "yes",
        "seats": "2"
      }
    },
    {
      "type": "node",
      "id": 12137671604,
      "lat": 12.9781413,
      "lon": 77.584684,
      "tags": {
        "amenity": "bench",
        "backrest": "yes",
        "seats": "2"
      }
    },
    {
      "type": "node",
      "id": 12137671605,
      "lat": 12.9782314,
      "lon": 77.5843414,
      "tags": {
        "amenity": "bench",
        "backrest": "no",
        "material": "stone",
        "seats": "4"
      }
    },
    {
      "type": "node",
      "id": 12137671606,
      "lat": 12.9782289,
      "lon": 77.5842961,
      "tags": {
        "amenity": "bench",
        "backrest": "no",
        "material": "stone",
        "seats": "4"
      }
    },
    {
      "type": "node",
      "id": 12137671607,
      "lat": 12.9782259,
      "lon": 77.5842469,
      "tags": {
        "amenity": "bench",
        "backrest": "no",
        "material": "stone",
        "seats": "4"
      }
    },
    {
      "type": "node",
      "id": 12137776014,
      "lat": 12.9857445,
      "lon": 77.5877231,
      "tags": {
        "access": "yes",
        "amenity": "toilets",
        "fee": "no",
        "female": "yes",
        "male": "yes",
        "wheelchair": "yes"
      }
    },
    {
      "type": "node",
      "id": 12138994433,
      "lat": 12.9859722,
      "lon": 77.5885452,
      "tags": {
        "amenity": "waste_basket"
      }
    },
    {
      "type": "node",
      "id": 12138994434,
      "lat": 12.9859752,
      "lon": 77.5885464,
      "tags": {
        "amenity": "waste_basket"
      }
    },
    {
      "type": "node",
      "id": 12138994435,
      "lat": 12.98573,
      "lon": 77.5880362,
      "tags": {
        "name": "The Baklava Company",
        "shop": "pastry"
      }
    },
    {
      "type": "node",
      "id": 12138994441,
      "lat": 12.9848716,
      "lon": 77.5881058,
      "tags": {
        "amenity": "waste_basket"
      }
    },
    {
      "type": "node",
      "id": 12138994442,
      "lat": 12.9848686,
      "lon": 77.5881046,
      "tags": {
        "amenity": "waste_basket"
      }
    },
    {
      "type": "node",
      "id": 12138994447,
      "lat": 12.9831549,
      "lon": 77.5877358,
      "tags": {
        "amenity": "place_of_worship",
        "name": "Dargah Hazrath Syedanna Yaqeen Shah",
        "religion": "muslim"
      }
    },
    {
      "type": "node",
      "id": 12138994480,
      "lat": 12.9827661,
      "lon": 77.5870331,
      "tags": {
        "amenity": "place_of_worship",
        "religion": "hindu"
      }
    },
    {
      "type": "node",
      "id": 12139160376,
      "lat": 12.9904054,
      "lon": 77.58851,
      "tags": {
        "amenity": "waste_basket"
      }
    },
    {
      "type": "node",
      "id": 12139194003,
      "lat": 12.9866839,
      "lon": 77.5890377,
      "tags": {
        "amenity": "waste_basket"
      }
    },
    {
      "type": "node",
      "id": 12139261535,
      "lat": 12.9870237,
      "lon": 77.5951213,
      "tags": {
        "name": "Kumudhini Silks",
        "shop": "clothes"
      }
    },
    {
      "type": "node",
      "id": 12139261536,
      "lat": 12.9870695,
      "lon": 77.5950824,
      "tags": {
        "shop": "copyshop"
      }
    },
    {
      "type": "node",
      "id": 12139261538,
      "lat": 12.9873315,
      "lon": 77.5950448,
      "tags": {
        "amenity": "arts_centre",
        "name": "The Popsicle Studio"
      }
    },
    {
      "type": "node",
      "id": 12139261539,
      "lat": 12.9869349,
      "lon": 77.5948329,
      "tags": {
        "name": "the organic world",
        "shop": "supermarket"
      }
    },
    {
      "type": "node",
      "id": 12139261553,
      "lat": 12.9881763,
      "lon": 77.5939035,
      "tags": {
        "amenity": "bank",
        "brand": "Bank of Baroda",
        "brand:wikidata": "Q2003797",
        "name": "Bank of Baroda"
      }
    },
    {
      "type": "node",
      "id": 12139261554,
      "lat": 12.9880816,
      "lon": 77.5938244,
      "tags": {
        "amenity": "fast_food",
        "name": "Urs Prashanth Hotel"
      }
    },
    {
      "type": "node",
      "id": 12139261557,
      "lat": 12.9882064,
      "lon": 77.5937828,
      "tags": {
        "amenity": "cafe",
        "name": "Dunkin'"
      }
    },
    {
      "type": "node",
      "id": 12139261558,
      "lat": 12.9883655,
      "lon": 77.59376,
      "tags": {
        "beauty": "spa",
        "name": "Naturals Lounge",
        "shop": "beauty"
      }
    },
    {
      "type": "node",
      "id": 12139261559,
      "lat": 12.9882688,
      "lon": 77.5937731,
      "tags": {
        "amenity": "fast_food",
        "cuisine": "burger",
        "name": "Biggies Burgers"
      }
    },
    {
      "type": "node",
      "id": 12147533852,
      "lat": 12.9910219,
      "lon": 77.5864182,
      "tags": {
        "amenity": "post_box",
        "operator": "India Post"
      }
    },
    {
      "type": "node",
      "id": 12260570016,
      "lat": 12.9864317,
      "lon": 77.5952943,
      "tags": {
        "amenity": "restaurant",
        "cuisine": "mediterranean",
        "level": "0",
        "name": "Maffei Kitchen",
        "toilets": "yes",
        "website": "https://www.maffei.in/"
      }
    },
    {
      "type": "node",
      "id": 12269300829,
      "lat": 12.9882613,
      "lon": 77.580231,
      "tags": {
        "access": "customers",
        "amenity": "toilets"
      }
    },
    {
      "type": "node",
      "id": 12369618199,
      "lat": 12.9873412,
      "lon": 77.5934346,
      "tags": {
        "addr:city": "Bengaluru",
        "addr:street": "Cunningham Road",
        "addr:suburb": "Vasanth Nagar",
        "amenity": "cafe",
        "check_date": "2024-12-25",
        "contact:instagram": "maverickandfarmer",
        "cuisine": "coffee_shop",
        "delivery": "yes",
        "internet_access": "yes",
        "name": "Maverick and Farmer Coffee",
        "outdoor_seating": "yes",
        "takeaway": "yes",
        "toilets": "yes",
        "website": "https://www.maverickandfarmer.com/"
      }
    },
    {
      "type": "node",
      "id": 12409252953,
      "lat": 12.9864387,
      "lon": 77.594938,
      "tags": {
        "amenity": "cafe",
        "check_date": "2024-12-10",
        "name": "Ovenly Bliss"
      }
    },
    {
      "type": "node",
      "id": 12414204462,
      "lat": 12.9868225,
      "lon": 77.5852253,
      "tags": {
        "amenity": "place_of_worship",
        "name": "Muneshwara Temple",
        "religion": "hindu"
      }
    },
    {
      "type": "node",
      "id": 12422943857,
      "lat": 12.9919751,
      "lon": 77.5818658,
      "tags": {
        "amenity": "nightclub",
        "name": "Kitty Ko"
      }
    },
    {
      "type": "node",
      "id": 12422943858,
      "lat": 12.9923293,
      "lon": 77.5818202,
      "tags": {
        "amenity": "bar",
        "name": "Sutra"
      }
    },
    {
      "type": "node",
      "id": 12422943859,
      "lat": 12.9920548,
      "lon": 77.5816472,
      "tags": {
        "name": "The Pastry Shop",
        "shop": "bakery"
      }
    },
    {
      "type": "node",
      "id": 12422943862,
      "lat": 12.9923685,
      "lon": 77.5820643,
      "tags": {
        "amenity": "restaurant",
        "name": "24/7"
      }
    },
    {
      "type": "node",
      "id": 12422953303,
      "lat": 12.9922169,
      "lon": 77.5819811,
      "tags": {
        "amenity": "restaurant",
        "cuisine": "asian",
        "name": "OKO"
      }
    },
    {
      "type": "node",
      "id": 12422953304,
      "lat": 12.9925122,
      "lon": 77.5821367,
      "tags": {
        "amenity": "restaurant",
        "cuisine": "indian",
        "name": "Baluchi"
      }
    },
    {
      "type": "node",
      "id": 12425915304,
      "lat": 12.9937367,
      "lon": 77.5851059,
      "tags": {
        "amenity": "fountain"
      }
    },
    {
      "type": "node",
      "id": 12425915428,
      "lat": 12.9921372,
      "lon": 77.5819932,
      "tags": {
        "access": "customers",
        "amenity": "toilets",
        "female": "no",
        "male": "no"
      }
    },
    {
      "type": "node",
      "id": 12429035733,
      "lat": 12.9836885,
      "lon": 77.5772591,
      "tags": {
        "branch": "Milk Parlour",
        "brand": "Nandini",
        "brand:wikidata": "Q124374212",
        "name": "Nandini",
        "shop": "dairy"
      }
    },
    {
      "type": "node",
      "id": 12438024630,
      "lat": 12.9855114,
      "lon": 77.5788172,
      "tags": {
        "amenity": "bank",
        "brand": "Canara Bank",
        "brand:en": "Canara Bank",
        "brand:hi": "केनरा बैंक",
        "brand:kn": "ಕೆನರಾ ಬ್ಯಾಂಕ್",
        "brand:pa": "ਕੇਨਰਾ ਬੈਂਕ",
        "brand:pnb": "کینرا بینک",
        "brand:ur": "کینرا بینک",
        "brand:wikidata": "Q2003777",
        "name": "Canara Bank",
        "name:en": "Canara Bank",
        "name:hi": "केनरा बैंक",
        "name:kn": "ಕೆನರಾ ಬ್ಯಾಂಕ್",
        "name:pa": "ਕੇਨਰਾ ਬੈਂਕ",
        "name:pnb": "کینرا بینک",
        "name:ur": "کینرا بینک"
      }
    },
    {
      "type": "node",
      "id": 12441528412,
      "lat": 12.9873315,
      "lon": 77.5800872,
      "tags": {
        "check_date": "2024-12-22",
        "name": "Cake Basket",
        "shop": "bakery"
      }
    },
    {
      "type": "node",
      "id": 12441556289,
      "lat": 12.9875015,
      "lon": 77.5800593,
      "tags": {
        "amenity": "bank",
        "brand": "IDFC First Bank",
        "brand:wikidata": "Q22031467",
        "check_date": "2024-12-22",
        "name": "IDFC First Bank"
      }
    },
    {
      "type": "node",
      "id": 12441556290,
      "lat": 12.9874735,
      "lon": 77.5801145,
      "tags": {
        "amenity": "atm",
        "brand": "IDFC First Bank",
        "brand:wikidata": "Q22031467",
        "check_date": "2024-12-22",
        "operator": "IDFC First Bank",
        "operator:wikidata": "Q22031467"
      }
    },
    {
      "type": "node",
      "id": 12441822767,
      "lat": 12.9845106,
      "lon": 77.5783868,
      "tags": {
        "brand": "Xiaomi",
        "brand:wikidata": "Q1636958",
        "check_date": "2024-12-22",
        "name": "Xiaomi",
        "shop": "mobile_phone"
      }
    },
    {
      "type": "node",
      "id": 12538083621,
      "lat": 12.9776263,
      "lon": 77.5878847,
      "tags": {
        "amenity": "fast_food",
        "name": "Canteen"
      }
    },
    {
      "type": "node",
      "id": 12538083622,
      "lat": 12.9781058,
      "lon": 77.5876583,
      "tags": {
        "amenity": "bench",
        "backrest": "yes",
        "seats": "2"
      }
    },
    {
      "type": "node",
      "id": 12538083623,
      "lat": 12.9781054,
      "lon": 77.5876382,
      "tags": {
        "amenity": "bench",
        "backrest": "yes",
        "seats": "2"
      }
    },
    {
      "type": "node",
      "id": 12538083624,
      "lat": 12.9780957,
      "lon": 77.5875356,
      "tags": {
        "amenity": "bench",
        "backrest": "yes",
        "seats": "2"
      }
    },
    {
      "type": "node",
      "id": 12538083625,
      "lat": 12.9780953,
      "lon": 77.5875155,
      "tags": {
        "amenity": "bench",
        "backrest": "yes",
        "seats": "2"
      }
    },
    {
      "type": "node",
      "id": 12538083626,
      "lat": 12.9780846,
      "lon": 77.5874143,
      "tags": {
        "amenity": "bench",
        "backrest": "yes",
        "seats": "2"
      }
    },
    {
      "type": "node",
      "id": 12538083627,
      "lat": 12.9780842,
      "lon": 77.5873942,
      "tags": {
        "amenity": "bench",
        "backrest": "yes",
        "seats": "2"
      }
    },
    {
      "type": "node",
      "id": 12538083628,
      "lat": 12.9781437,
      "lon": 77.58726,
      "tags": {
        "amenity": "bench",
        "backrest": "yes",
        "seats": "2"
      }
    },
    {
      "type": "node",
      "id": 12538083629,
      "lat": 12.978159,
      "lon": 77.5872474,
      "tags": {
        "amenity": "bench",
        "backrest": "yes",
        "seats": "2"
      }
    },
    {
      "type": "node",
      "id": 12538083630,
      "lat": 12.9782055,
      "lon": 77.5871842,
      "tags": {
        "amenity": "bench",
        "backrest": "yes",
        "seats": "2"
      }
    },
    {
      "type": "node",
      "id": 12538083631,
      "lat": 12.9782207,
      "lon": 77.5871716,
      "tags": {
        "amenity": "bench",
        "backrest": "yes",
        "seats": "2"
      }
    },
    {
      "type": "node",
      "id": 12538083632,
      "lat": 12.9782761,
      "lon": 77.587084,
      "tags": {
        "amenity": "bench",
        "backrest": "yes",
        "seats": "2"
      }
    },
    {
      "type": "node",
      "id": 12538083633,
      "lat": 12.9782913,
      "lon": 77.5870713,
      "tags": {
        "amenity": "bench",
        "backrest": "yes",
        "seats": "2"
      }
    },
    {
      "type": "node",
      "id": 12538083634,
      "lat": 12.9783618,
      "lon": 77.5870781,
      "tags": {
        "amenity": "bench",
        "backrest": "yes",
        "seats": "2"
      }
    },
    {
      "type": "node",
      "id": 12538083635,
      "lat": 12.9783781,
      "lon": 77.5870893,
      "tags": {
        "amenity": "bench",
        "backrest": "yes",
        "seats": "2"
      }
    },
    {
      "type": "node",
      "id": 12538083636,
      "lat": 12.9784395,
      "lon": 77.5871368,
      "tags": {
        "amenity": "bench",
        "backrest": "yes",
        "seats": "2"
      }
    },
    {
      "type": "node",
      "id": 12538083637,
      "lat": 12.9784558,
      "lon": 77.5871479,
      "tags": {
        "amenity": "bench",
        "backrest": "yes",
        "seats": "2"
      }
    },
    {
      "type": "node",
      "id": 12538083638,
      "lat": 12.9785307,
      "lon": 77.5872042,
      "tags": {
        "amenity": "bench",
        "backrest": "yes",
        "seats": "2"
      }
    },
    {
      "type": "node",
      "id": 12538083639,
      "lat": 12.978547,
      "lon": 77.5872153,
      "tags": {
        "amenity": "bench",
        "backrest": "yes",
        "seats": "2"
      }
    },
    {
      "type": "node",
      "id": 12538083640,
      "lat": 12.9786352,
      "lon": 77.5872779,
      "tags": {
        "amenity": "bench",
        "backrest": "yes",
        "seats": "2"
      }
    },
    {
      "type": "node",
      "id": 12538083641,
      "lat": 12.9786515,
      "lon": 77.5872891,
      "tags": {
        "amenity": "bench",
        "backrest": "yes",
        "seats": "2"
      }
    },
    {
      "type": "node",
      "id": 12538083642,
      "lat": 12.9787159,
      "lon": 77.5873369,
      "tags": {
        "amenity": "bench",
        "backrest": "yes",
        "seats": "2"
      }
    },
    {
      "type": "node",
      "id": 12538083643,
      "lat": 12.9787322,
      "lon": 77.5873481,
      "tags": {
        "amenity": "bench",
        "backrest": "yes",
        "seats": "2"
      }
    },
    {
      "type": "node",
      "id": 12538083644,
      "lat": 12.9786669,
      "lon": 77.5874414,
      "tags": {
        "amenity": "bench",
        "backrest": "yes",
        "seats": "2"
      }
    },
    {
      "type": "node",
      "id": 12538083645,
      "lat": 12.9786846,
      "lon": 77.5874327,
      "tags": {
        "amenity": "bench",
        "backrest": "yes",
        "seats": "2"
      }
    },
    {
      "type": "node",
      "id": 12538083646,
      "lat": 12.9785803,
      "lon": 77.5874857,
      "tags": {
        "amenity": "bench",
        "backrest": "yes",
        "seats": "2"
      }
    },
    {
      "type": "node",
      "id": 12538083647,
      "lat": 12.978598,
      "lon": 77.587477,
      "tags": {
        "amenity": "bench",
        "backrest": "yes",
        "seats": "2"
      }
    },
    {
      "type": "node",
      "id": 12538083648,
      "lat": 12.9784758,
      "lon": 77.587542,
      "tags": {
        "amenity": "bench",
        "backrest": "yes",
        "seats": "2"
      }
    },
    {
      "type": "node",
      "id": 12538083649,
      "lat": 12.9784934,
      "lon": 77.5875333,
      "tags": {
        "amenity": "bench",
        "backrest": "yes",
        "seats": "2"
      }
    },
    {
      "type": "node",
      "id": 12538083650,
      "lat": 12.9783951,
      "lon": 77.5875863,
      "tags": {
        "amenity": "bench",
        "backrest": "yes",
        "seats": "2"
      }
    },
    {
      "type": "node",
      "id": 12538083651,
      "lat": 12.9784127,
      "lon": 77.5875776,
      "tags": {
        "amenity": "bench",
        "backrest": "yes",
        "seats": "2"
      }
    },
    {
      "type": "node",
      "id": 12538083652,
      "lat": 12.9783141,
      "lon": 77.5876305,
      "tags": {
        "amenity": "bench",
        "backrest": "yes",
        "seats": "2"
      }
    },
    {
      "type": "node",
      "id": 12538083653,
      "lat": 12.9783317,
      "lon": 77.5876218,
      "tags": {
        "amenity": "bench",
        "backrest": "yes",
        "seats": "2"
      }
    },
    {
      "type": "node",
      "id": 12538083654,
      "lat": 12.9782428,
      "lon": 77.5876661,
      "tags": {
        "amenity": "bench",
        "backrest": "yes",
        "seats": "2"
      }
    },
    {
      "type": "node",
      "id": 12538083655,
      "lat": 12.9782605,
      "lon": 77.5876573,
      "tags": {
        "amenity": "bench",
        "backrest": "yes",
        "seats": "2"
      }
    },
    {
      "type": "node",
      "id": 12538083656,
      "lat": 12.9781863,
      "lon": 77.5876929,
      "tags": {
        "amenity": "bench",
        "backrest": "yes",
        "seats": "2"
      }
    },
    {
      "type": "node",
      "id": 12538083657,
      "lat": 12.9781687,
      "lon": 77.5877016,
      "tags": {
        "amenity": "bench",
        "backrest": "yes",
        "seats": "2"
      }
    },
    {
      "type": "node",
      "id": 12538083705,
      "lat": 12.9801054,
      "lon": 77.5928025,
      "tags": {
        "amenity": "waste_basket"
      }
    },
    {
      "type": "node",
      "id": 12538083731,
      "lat": 12.9818579,
      "lon": 77.5923157,
      "tags": {
        "amenity": "fountain"
      }
    },
    {
      "type": "node",
      "id": 12538083732,
      "lat": 12.9814266,
      "lon": 77.5920723,
      "tags": {
        "amenity": "fountain"
      }
    },
    {
      "type": "node",
      "id": 12686350444,
      "lat": 12.9844685,
      "lon": 77.5871851,
      "tags": {
        "amenity": "post_box",
        "operator": "India Post"
      }
    },
    {
      "type": "node",
      "id": 12686350457,
      "lat": 12.9836392,
      "lon": 77.5855122,
      "tags": {
        "amenity": "atm",
        "brand": "Union Bank of India",
        "brand:wikidata": "Q2004078",
        "check_date": "2025-03-21",
        "operator": "Union Bank of India",
        "operator:wikidata": "Q2004078"
      }
    },
    {
      "type": "node",
      "id": 12688097200,
      "lat": 12.9834189,
      "lon": 77.5937353,
      "tags": {
        "name": "Kambali Bhavana",
        "name:kn": "ಕಂಬಳಿ ಭವನ",
        "shop": "clothes"
      }
    },
    {
      "type": "node",
      "id": 12809397080,
      "lat": 12.9885226,
      "lon": 77.5940846,
      "tags": {
        "amenity": "restaurant",
        "cuisine": "pizza",
        "name": "Serious Slice",
        "toilets": "yes"
      }
    },
    {
      "type": "node",
      "id": 12856900608,
      "lat": 12.978809,
      "lon": 77.5919831,
      "tags": {
        "access": "permissive",
        "addr:floor": "-1",
        "amenity": "toilets",
        "female": "yes",
        "fixme": "Accurate location within station",
        "level": "-1",
        "male": "yes",
        "operator": "BMRCL",
        "toilets:handwashing": "yes",
        "toilets:position": "urinal"
      }
    },
    {
      "type": "node",
      "id": 13013588705,
      "lat": 12.9864023,
      "lon": 77.5953117,
      "tags": {
        "amenity": "restaurant",
        "cuisine": "indian",
        "level": "1",
        "name": "Svarasa"
      }
    },
    {
      "type": "node",
      "id": 13074467481,
      "lat": 12.9854032,
      "lon": 77.5952791,
      "tags": {
        "amenity": "kindergarten"
      }
    },
    {
      "type": "node",
      "id": 13086275903,
      "lat": 12.9865219,
      "lon": 77.5952104,
      "tags": {
        "amenity": "restaurant",
        "name": "Thirtha"
      }
    },
    {
      "type": "node",
      "id": 13086275912,
      "lat": 12.985053,
      "lon": 77.5791058,
      "tags": {
        "amenity": "cafe",
        "contact:instagram": "blancthecoffeeplace_",
        "cuisine": "coffee_shop",
        "name": "Blanc The Coffee Place"
      }
    },
    {
      "type": "node",
      "id": 13288585570,
      "lat": 12.9850109,
      "lon": 77.5847599,
      "tags": {
        "amenity": "restaurant",
        "name": "Loya"
      }
    },
    {
      "type": "way",
      "id": 22895320,
      "center": {
        "lat": 12.974182,
        "lon": 77.5934146
      },
      "tags": {
        "dog": "leashed",
        "historic:name": "Meade's Park",
        "leisure": "park",
        "name": "Cubbon Park",
        "name:etymology:wikidata": "Q6767214",
        "name:hi": "कब्बन पार्क",
        "name:kn": "ಕಬ್ಬನ್ ಉದ್ಯಾನ",
        "name:ml": "കബ്ബൺ പാർക്ക്",
        "name:te": "కబ్బన్ పార్క్",
        "official_name": "Sri Chamarajendra Park",
        "official_name:kn": "ಶ್ರೀ ಚಾಮರಾಜೇಂದ್ರ ಉದ್ಯಾನ",
        "pets": "yes",
        "start_date": "1864",
        "website": "https://cubbonpark.in/",
        "wikidata": "Q3633776",
        "wikimedia_commons": "Category:Cubbon Park",
        "wikipedia": "en:Cubbon Park"
      }
    },
    {
      "type": "way",
      "id": 36884560,
      "center": {
        "lat": 12.9774067,
        "lon": 77.5819036
      },
      "tags": {
        "leisure": "park",
        "name": "Freedom Park",
        "wikidata": "Q5500576",
        "wikimedia_commons": "Category:Freedom Park, Bengaluru",
        "wikipedia": "en:Freedom Park, Bangalore"
      }
    },
    {
      "type": "way",
      "id": 36982901,
      "center": {
        "lat": 12.9898083,
        "lon": 77.5851677
      },
      "tags": {
        "barrier": "fence",
        "golf:course": "18_hole",
        "leisure": "golf_course",
        "name": "Bangalore Golf Course",
        "name:kn": "ಬೆಂಗಳೂರು ಗೋಲ್ಫ್ ಮೈದಾನ",
        "short_name": "BGC",
        "start_date": "1876",
        "website": "http://bgc1876.com/"
      }
    },
    {
      "type": "way",
      "id": 37869985,
      "center": {
        "lat": 12.9823794,
        "lon": 77.5809442
      },
      "tags": {
        "alt_name": "Mysore Race Club",
        "leisure": "sports_centre",
        "name": "Bangalore Race Course",
        "official_name": "Bangalore Turf Club",
        "sport": "horse_racing"
      }
    },
    {
      "type": "way",
      "id": 38542549,
      "center": {
        "lat": 12.9781351,
        "lon": 77.586146
      },
      "tags": {
        "amenity": "college",
        "landuse": "education",
        "name": "Sri Jayachamarajendra Government Polytechnic",
        "name:etymology:wikidata": "Q1391321",
        "start_date": "1943"
      }
    },
    {
      "type": "way",
      "id": 38870603,
      "center": {
        "lat": 12.9865923,
        "lon": 77.586909
      },
      "tags": {
        "addr:city": "Bengaluru",
        "addr:country": "IN",
        "addr:housenumber": "70",
        "addr:postcode": "560001",
        "addr:street": "Palace Road",
        "alt_name": "Sophia Girls High School",
        "amenity": "school",
        "landuse": "education",
        "name": "Sophia High School",
        "name:kn": "ಸೋಫಿಯ ಪ್ರೌಡಶಾಲೆ",
        "old_name": "Convent of the Sacred Heart",
        "school:gender": "female",
        "start_date": "1949"
      }
    },
    {
      "type": "way",
      "id": 38871248,
      "center": {
        "lat": 12.9845695,
        "lon": 77.5901037
      },
      "tags": {
        "amenity": "planetarium",
        "landuse": "commercial",
        "name": "Jawaharlal Nehru Planetarium",
        "name:etymology:wikidata": "Q1047",
        "short_name": "JNP",
        "tourism": "attraction",
        "website": "https://www.taralaya.org/"
      }
    },
    {
      "type": "way",
      "id": 38871254,
      "center": {
        "lat": 12.98014,
        "lon": 77.5892343
      },
      "tags": {
        "leisure": "garden"
      }
    },
    {
      "type": "way",
      "id": 38871256,
      "center": {
        "lat": 12.9813298,
        "lon": 77.5916888
      },
      "tags": {
        "leisure": "garden",
        "name": "Raj Bhavan Gardens",
        "name:kn": "ರಾಜ ಭಾವನ ಉಧ್ಯಾನ"
      }
    },
    {
      "type": "way",
      "id": 38871258,
      "center": {
        "lat": 12.9827565,
        "lon": 77.5889767
      },
      "tags": {
        "leisure": "park"
      }
    },
    {
      "type": "way",
      "id": 38872968,
      "center": {
        "lat": 12.9784331,
        "lon": 77.5873824
      },
      "tags": {
        "leisure": "park",
        "name": "MS Building Park"
      }
    },
    {
      "type": "way",
      "id": 45443161,
      "center": {
        "lat": 12.9876863,
        "lon": 77.5790668
      },
      "tags": {
        "leisure": "park"
      }
    },
    {
      "type": "way",
      "id": 45443657,
      "center": {
        "lat": 12.9891598,
        "lon": 77.5807461
      },
      "tags": {
        "alt_name": "Chitra Kala Parishat",
        "amenity": "college",
        "name": "Karnataka Chitrakala Parishath",
        "name:kn": "ಚಿತ್ರಕಲಾ ಪರಿಷತ್",
        "website": "http://karnatakachitrakalaparishath.com/"
      }
    },
    {
      "type": "way",
      "id": 52242928,
      "center": {
        "lat": 12.9858897,
        "lon": 77.5890352
      },
      "tags": {
        "amenity": "public_building",
        "building": "yes"
      }
    },
    {
      "type": "way",
      "id": 121883116,
      "center": {
        "lat": 12.9890869,
        "lon": 77.58839
      },
      "tags": {
        "access": "customers",
        "amenity": "parking",
        "fee": "no",
        "parking": "surface",
        "surface": "paving_stones"
      }
    },
    {
      "type": "way",
      "id": 121883178,
      "center": {
        "lat": 12.9846547,
        "lon": 77.5899474
      },
      "tags": {
        "leisure": "playground",
        "name": "Science Park"
      }
    },
    {
      "type": "way",
      "id": 121883179,
      "center": {
        "lat": 12.9850136,
        "lon": 77.5900883
      },
      "tags": {
        "amenity": "parking"
      }
    },
    {
      "type": "way",
      "id": 124760551,
      "center": {
        "lat": 12.9833345,
        "lon": 77.5945358
      },
      "tags": {
        "addr:city": "Bangalore",
        "addr:district": "Bengaluru Urban",
        "addr:full": "# 146, Infantry Road, Prestige Opal Building, Opp Police Commissioners Office",
        "addr:postcode": "560001",
        "addr:state": "Karnataka",
        "addr:street": "Infantry Road",
        "amenity": "hospital",
        "name": "Sparsh Hospital For Advanced Surgeries, Bengaluru Urban",
        "name:kn": "ಸ್ಪರ್ಶ್ ಆಸ್ಪತ್ರೆ",
        "source": "OpenGovernmentData",
        "website": "https://www.sparshhospital.com/",
        "wheelchair": "yes"
      }
    },
    {
      "type": "way",
      "id": 150797673,
      "center": {
        "lat": 12.9822669,
        "lon": 77.5807312
      },
      "tags": {
        "area": "no",
        "leisure": "track"
      }
    },
    {
      "type": "way",
      "id": 182826337,
      "center": {
        "lat": 12.988373,
        "lon": 77.5905885
      },
      "tags": {
        "amenity": "college",
        "name": "St. Anne's First Grade College for Women"
      }
    },
    {
      "type": "way",
      "id": 182826338,
      "center": {
        "lat": 12.9887991,
        "lon": 77.5908396
      },
      "tags": {
        "amenity": "school",
        "name": "St. Mary's High School",
        "name:kn": "ಸೇಂಟ್ ಮೇರಿ ಪ್ರೌಡಶಾಲೆ"
      }
    },
    {
      "type": "way",
      "id": 188340338,
      "center": {
        "lat": 12.9935054,
        "lon": 77.5851109
      },
      "tags": {
        "leisure": "garden"
      }
    },
    {
      "type": "way",
      "id": 188340340,
      "center": {
        "lat": 12.9931588,
        "lon": 77.5852067
      },
      "tags": {
        "leisure": "garden"
      }
    },
    {
      "type": "way",
      "id": 192032071,
      "center": {
        "lat": 12.991783,
        "lon": 77.5817632
      },
      "tags": {
        "access": "customers",
        "leisure": "swimming_pool",
        "sport": "swimming"
      }
    },
    {
      "type": "way",
      "id": 192032072,
      "center": {
        "lat": 12.9940804,
        "lon": 77.5854758
      },
      "tags": {
        "access": "customers",
        "leisure": "swimming_pool",
        "sport": "swimming"
      }
    },
    {
      "type": "way",
      "id": 202289066,
      "center": {
        "lat": 12.984553,
        "lon": 77.5832329
      },
      "tags": {
        "access": "customers",
        "amenity": "parking",
        "name": "Bangalore Turf Club Parking",
        "parking": "surface"
      }
    },
    {
      "type": "way",
      "id": 208686727,
      "center": {
        "lat": 12.9780472,
        "lon": 77.5925583
      },
      "tags": {
        "addr:city": "Bengaluru",
        "addr:postcode": "560001",
        "addr:street": "Dr B R Ambedkar Veedhi",
        "amenity": "courthouse",
        "designation": "High Court of Karnataka",
        "landuse": "commercial",
        "name": "High Court of Karnataka",
        "name:kn": "ಕರ್ನಾಟಕ ಉಚ್ಚ ನ್ಯಾಯಾಲಯ",
        "operator": "Karnataka Judiciary"
      }
    },
    {
      "type": "way",
      "id": 208827393,
      "center": {
        "lat": 12.9835106,
        "lon": 77.58689
      },
      "tags": {
        "addr:street": "Race Course Road",
        "amenity": "college",
        "landuse": "education",
        "name": "Govt R C College",
        "official_name": "Government Ramnarayan Chellaram College of Commerce & Management"
      }
    },
    {
      "type": "way",
      "id": 208827410,
      "center": {
        "lat": 12.9824307,
        "lon": 77.5864574
      },
      "tags": {
        "addr:city": "Bengaluru",
        "addr:country": "IN",
        "addr:housenumber": "3",
        "addr:postcode": "560001",
        "addr:street": "Palace Road",
        "addr:suburb": "High Grounds",
        "amenity": "public_building",
        "landuse": "commercial",
        "name": "High Court of Karnataka Administrative Block"
      }
    },
    {
      "type": "way",
      "id": 208827412,
      "center": {
        "lat": 12.9814206,
        "lon": 77.5855355
      },
      "tags": {
        "amenity": "police",
        "name": "CID Office",
        "old_name": "Carlton House"
      }
    },
    {
      "type": "way",
      "id": 251490227,
      "center": {
        "lat": 12.9797974,
        "lon": 77.5937609
      },
      "tags": {
        "amenity": "parking",
        "fee": "no",
        "name": "High Court Public Parking",
        "parking": "surface",
        "supervised": "no"
      }
    },
    {
      "type": "way",
      "id": 273780381,
      "center": {
        "lat": 12.9851335,
        "lon": 77.5914853
      },
      "tags": {
        "leisure": "park",
        "name": "Indira Gandhi Musical Fountain Park",
        "name:etymology:wikidata": "Q1149",
        "start_date": "1995"
      }
    },
    {
      "type": "way",
      "id": 273780385,
      "center": {
        "lat": 12.9851812,
        "lon": 77.591969
      },
      "tags": {
        "amenity": "fountain",
        "landuse": "basin"
      }
    },
    {
      "type": "way",
      "id": 273786646,
      "center": {
        "lat": 12.9858079,
        "lon": 77.5908514
      },
      "tags": {
        "historic": "memorial",
        "leisure": "park",
        "name": "National Military Memorial",
        "tourism": "attraction"
      }
    },
    {
      "type": "way",
      "id": 291266074,
      "center": {
        "lat": 12.9880279,
        "lon": 77.5803274
      },
      "tags": {
        "amenity": "community_centre",
        "landuse": "commercial",
        "name": "Gandhi Bhavan",
        "name:etymology:wikidata": "Q1001",
        "name:kn": "ಗಾಂಧಿ ಭವನ",
        "office": "ngo"
      }
    },
    {
      "type": "way",
      "id": 313828426,
      "center": {
        "lat": 12.9866534,
        "lon": 77.5788086
      },
      "tags": {
        "leisure": "park",
        "name": "Madhav Rao Park",
        "name:etymology:wikidata": "Q6951710",
        "name:kn": "ಮಾಧವ ರಾವ್ ಉದ್ಯಾನವನ"
      }
    },
    {
      "type": "way",
      "id": 325436710,
      "center": {
        "lat": 12.9884932,
        "lon": 77.594549
      },
      "tags": {
        "addr:city": "Bengaluru",
        "addr:district": "Bengaluru Urban",
        "addr:full": "14, Cunningham Road",
        "addr:postcode": "560052",
        "addr:state": "Karnataka",
        "addr:street": "Cunningham Road",
        "amenity": "hospital",
        "emergency": "yes",
        "healthcare": "hospital",
        "name": "Fortis Hospitals Limited, Bengaluru Urban",
        "name:kn": "ಫೋರ್ಟಿಸ್ ಆಸ್ಪತ್ರೆ",
        "operator": "Fortis",
        "operator:type": "private",
        "source": "OpenGovernmentData",
        "website": "https://www.fortishealthcare.com/"
      }
    },
    {
      "type": "way",
      "id": 335172719,
      "center": {
        "lat": 12.9908973,
        "lon": 77.5788013
      },
      "tags": {
        "amenity": "school",
        "name": "Gandhi Nagar High School",
        "name:kn": "ಗಾಂಧಿನಗರ ಪೌಡಶಾಲೆ"
      }
    },
    {
      "type": "way",
      "id": 338941356,
      "center": {
        "lat": 12.9809547,
        "lon": 77.5913907
      },
      "tags": {
        "access": "private",
        "amenity": "parking",
        "parking": "surface"
      }
    },
    {
      "type": "way",
      "id": 338941357,
      "center": {
        "lat": 12.9799332,
        "lon": 77.5885707
      },
      "tags": {
        "access": "private",
        "amenity": "parking",
        "parking": "surface"
      }
    },
    {
      "type": "way",
      "id": 346526279,
      "center": {
        "lat": 12.9943024,
        "lon": 77.5843483
      },
      "tags": {
        "building": "yes",
        "name": "RainTree",
        "shop": "mall"
      }
    },
    {
      "type": "way",
      "id": 346526405,
      "center": {
        "lat": 12.9933774,
        "lon": 77.5873684
      },
      "tags": {
        "amenity": "place_of_worship",
        "building": "chapel",
        "denomination": "catholic",
        "name": "Mount Carmel Chapel",
        "religion": "christian"
      }
    },
    {
      "type": "way",
      "id": 346806171,
      "center": {
        "lat": 12.9929755,
        "lon": 77.5813803
      },
      "tags": {
        "amenity": "events_venue",
        "building": "yes",
        "name": "Kalinga"
      }
    },
    {
      "type": "way",
      "id": 348098104,
      "center": {
        "lat": 12.9784686,
        "lon": 77.5807085
      },
      "tags": {
        "addr:city": "Beṅgaḷūru",
        "addr:neighborhood": "Gāndhinagara",
        "addr:postcode": "560009",
        "alt_name:en": "Maha Bodhi Society;Loka Shanti Buddhist Vihara;Loka Shanti Buddhist Monastery",
        "alt_name:es": "Sociedad Mahābodhi",
        "alt_name:fr": "Société Mahābodhi",
        "alt_name:hi": "महाबोधी सॉसाययटी",
        "alt_name:it": "Società Mahābodhi",
        "alt_name:kn": "ಮಹಾಬೋಧಿ ಲೋಕ ಶಾಂತಿ ಬುದ್ಧ ವಿಹಾರ",
        "amenity": "monastery",
        "denomination": "theravada",
        "landuse": "religious",
        "name": "Lōka Śānti Vihāra",
        "name:cbk-zam": "Monasterio Lokasanti",
        "name:ceb": "Monasteryong Lokësënti",
        "name:da": "Lokasanti Kloster",
        "name:de": "Kloster Lokasanti",
        "name:en": "Loka Shanti Buddha Vihara",
        "name:eo": "Monaĥejo Lokasanti",
        "name:es": "Monasterio Lokasanti",
        "name:fr": "Monastère Lokasanti",
        "name:hi": "लोक शान्ती विहार",
        "name:hi-Latn": "Lok Śāntī Vihār",
        "name:hil": "Monasteryo Lokësënti",
        "name:id": "Wihara Lokasanti",
        "name:it": "Monastero Lokasanti",
        "name:kn": "ಲೋಕ ಶಾಂತಿ ವಿಹಾರ",
        "name:krj": "Monasteryo Lokësënti",
        "name:la": "Monastērium Lokasanti",
        "name:ms": "Biara Lokasanti",
        "name:nb": "Lokasanti kloster",
        "name:nn": "Lokasanti kloster",
        "name:pag": "Monasteryon Lokësënti",
        "name:pam": "Monasteriung Lokasanti",
        "name:pi": "𑀮𑁄𑀓𑀲𑀦𑁆𑀢𑀺𑀯𑀺𑀳𑀸𑀭",
        "name:pi-Latn": "Lokasantivihāra",
        "name:pt": "Mosteiro Lokasanti",
        "name:sa": "लोकशान्तिविहार",
        "name:si": "ලොකසන‍්තිවිහාර",
        "name:tl": "Monasteryong Lokësënti",
        "name:ur": "لوک شانتی وہار",
        "name:ur-Latn": "Lok Śāntī Vihār",
        "name:vec": "Monastièr Lokasanti",
        "operator:wikidata": "Q122974374",
        "religion": "buddhist",
        "service_times": "Su Mo Tu We Th Fr Sa 09:00-19:00",
        "short_name:en": "MBS",
        "wikidata": "Q122974263"
      }
    },
    {
      "type": "way",
      "id": 351384825,
      "center": {
        "lat": 12.9801752,
        "lon": 77.5845128
      },
      "tags": {
        "amenity": "theatre",
        "building": "yes",
        "building:part": "yes",
        "height": "10",
        "name": "Kondajji Basappa Auditorium"
      }
    },
    {
      "type": "way",
      "id": 352191252,
      "center": {
        "lat": 12.9854416,
        "lon": 77.5821636
      },
      "tags": {
        "addr:city": "Bangalore",
        "addr:postcode": "560001",
        "addr:street": "Race Course Road (Devaraj Urs Road)",
        "amenity": "college",
        "name": "Karnataka Judicial Academy",
        "name:kn": "ಕರ್ನಾಟಕ ನ್ಯಾಯಾಂಗ ಅಕಾಡೆಮಿ",
        "phone": "+918022382894/96",
        "smoking": "no",
        "website": "https://kjablr.kar.nic.in/node/1/index.html",
        "wheelchair": "yes"
      }
    },
    {
      "type": "way",
      "id": 362696495,
      "center": {
        "lat": 12.9863731,
        "lon": 77.5928588
      },
      "tags": {
        "leisure": "garden"
      }
    },
    {
      "type": "way",
      "id": 362696496,
      "center": {
        "lat": 12.9865463,
        "lon": 77.5926026
      },
      "tags": {
        "leisure": "garden"
      }
    },
    {
      "type": "way",
      "id": 363474186,
      "center": {
        "lat": 12.9793538,
        "lon": 77.5902828
      },
      "tags": {
        "leisure": "garden"
      }
    },
    {
      "type": "way",
      "id": 363474188,
      "center": {
        "lat": 12.9800822,
        "lon": 77.5909896
      },
      "tags": {
        "leisure": "garden"
      }
    },
    {
      "type": "way",
      "id": 363477537,
      "center": {
        "lat": 12.9849559,
        "lon": 77.585188
      },
      "tags": {
        "access": "customers",
        "leisure": "swimming_pool"
      }
    },
    {
      "type": "way",
      "id": 371602983,
      "center": {
        "lat": 12.9882084,
        "lon": 77.5921572
      },
      "tags": {
        "addr:district": "Bengaluru Urban",
        "addr:full": "No.71/1, Millers Road, Opp. St. Anne's College, Bengaluru",
        "addr:postcode": "560052",
        "addr:state": "Karnataka",
        "amenity": "hospital",
        "healthcare": "hospital",
        "name": "Manipal Hospital",
        "name:kn": "ಮಣಿಪಾಲ ಆಸ್ಪತ್ರೆ",
        "old_name": "Vikram Hospital",
        "old_name:kn": "ವಿಕ್ರಮ್ ಆಸ್ಪತ್ರೆ",
        "source": "OpenGovernmentData",
        "website": "https://www.vikramhospital.com/"
      }
    },
    {
      "type": "way",
      "id": 372061852,
      "center": {
        "lat": 12.9815242,
        "lon": 77.5937988
      },
      "tags": {
        "access": "private",
        "leisure": "pitch",
        "sport": "tennis"
      }
    },
    {
      "type": "way",
      "id": 372061854,
      "center": {
        "lat": 12.9814317,
        "lon": 77.592087
      },
      "tags": {
        "leisure": "garden"
      }
    },
    {
      "type": "way",
      "id": 372061855,
      "center": {
        "lat": 12.9818545,
        "lon": 77.5923121
      },
      "tags": {
        "leisure": "garden"
      }
    },
    {
      "type": "way",
      "id": 395148195,
      "center": {
        "lat": 12.984448,
        "lon": 77.5916885
      },
      "tags": {
        "access": "customers",
        "leisure": "playground"
      }
    },
    {
      "type": "way",
      "id": 395148196,
      "center": {
        "lat": 12.9850994,
        "lon": 77.5909142
      },
      "tags": {
        "amenity": "parking"
      }
    },
    {
      "type": "way",
      "id": 403473901,
      "center": {
        "lat": 12.9870893,
        "lon": 77.5850959
      },
      "tags": {
        "leisure": "pitch"
      }
    },
    {
      "type": "way",
      "id": 403473907,
      "center": {
        "lat": 12.9867516,
        "lon": 77.5856698
      },
      "tags": {
        "leisure": "pitch"
      }
    },
    {
      "type": "way",
      "id": 403473911,
      "center": {
        "lat": 12.9887832,
        "lon": 77.5884095
      },
      "tags": {
        "amenity": "place_of_worship",
        "name": "Bhagawan Sree Maruthi Temple",
        "name:en": "Bhagawan Sree Maruthi Temple",
        "opening_hours": "Mo-Su 06:30-12:00, 17:30-20:30",
        "religion": "hindu"
      }
    },
    {
      "type": "way",
      "id": 403476602,
      "center": {
        "lat": 12.9896882,
        "lon": 77.5884338
      },
      "tags": {
        "leisure": "garden"
      }
    },
    {
      "type": "way",
      "id": 437536497,
      "center": {
        "lat": 12.9918836,
        "lon": 77.5867661
      },
      "tags": {
        "landuse": "recreation_ground",
        "leisure": "common"
      }
    },
    {
      "type": "way",
      "id": 437538186,
      "center": {
        "lat": 12.9919586,
        "lon": 77.5811238
      },
      "tags": {
        "access": "customers",
        "leisure": "pitch",
        "sport": "tennis"
      }
    },
    {
      "type": "way",
      "id": 437538187,
      "center": {
        "lat": 12.9905743,
        "lon": 77.5833603
      },
      "tags": {
        "access": "private",
        "amenity": "parking",
        "parking": "surface"
      }
    },
    {
      "type": "way",
      "id": 437658830,
      "center": {
        "lat": 12.9822446,
        "lon": 77.5776681
      },
      "tags": {
        "leisure": "track"
      }
    },
    {
      "type": "way",
      "id": 437658831,
      "center": {
        "lat": 12.9829894,
        "lon": 77.5813372
      },
      "tags": {
        "leisure": "track"
      }
    },
    {
      "type": "way",
      "id": 437658832,
      "center": {
        "lat": 12.9822094,
        "lon": 77.5840196
      },
      "tags": {
        "leisure": "pitch"
      }
    },
    {
      "type": "way",
      "id": 437658833,
      "center": {
        "lat": 12.983654,
        "lon": 77.583646
      },
      "tags": {
        "leisure": "pitch"
      }
    },
    {
      "type": "way",
      "id": 437658834,
      "center": {
        "lat": 12.9831333,
        "lon": 77.5794967
      },
      "tags": {
        "leisure": "track"
      }
    },
    {
      "type": "way",
      "id": 512626192,
      "center": {
        "lat": 12.989883,
        "lon": 77.5942601
      },
      "tags": {
        "addr:district": "Bengaluru Urban",
        "addr:full": "Cunnigham Road, 2nd Cross No:3",
        "addr:postcode": "560001",
        "addr:state": "Karnataka",
        "amenity": "hospital",
        "name": "Al-Ameen Hospital",
        "name:kn": "ಆಲ್-ಆಮೀನ್ ಆಸ್ಪತ್ರೆ",
        "source": "OpenGovernmentData"
      }
    },
    {
      "type": "way",
      "id": 670210356,
      "center": {
        "lat": 12.9786163,
        "lon": 77.5866665
      },
      "tags": {
        "amenity": "college",
        "name": "Institute of Hotel Management"
      }
    },
    {
      "type": "way",
      "id": 775169696,
      "center": {
        "lat": 12.9900595,
        "lon": 77.5927243
      },
      "tags": {
        "amenity": "police",
        "landuse": "commercial",
        "name": "High Grounds Police Station",
        "name:kn": "ಹೈಗ್ರೌಂಡ್ಸ್ ಪೊಲೀಸ್ ಠಾಣೆ",
        "note": "Used to be near Golf Course, on Palace Road earlier"
      }
    },
    {
      "type": "way",
      "id": 775169697,
      "center": {
        "lat": 12.9845932,
        "lon": 77.5843957
      },
      "tags": {
        "leisure": "garden"
      }
    },
    {
      "type": "way",
      "id": 775169698,
      "center": {
        "lat": 12.9846121,
        "lon": 77.5881533
      },
      "tags": {
        "area:highway": "traffic_island",
        "garden:type": "landscaping",
        "leisure": "garden"
      }
    },
    {
      "type": "way",
      "id": 775169699,
      "center": {
        "lat": 12.9855698,
        "lon": 77.588275
      },
      "tags": {
        "garden:type": "landscaping",
        "leisure": "garden"
      }
    },
    {
      "type": "way",
      "id": 779282869,
      "center": {
        "lat": 12.9840682,
        "lon": 77.578333
      },
      "tags": {
        "leisure": "park"
      }
    },
    {
      "type": "way",
      "id": 782014093,
      "center": {
        "lat": 12.9863222,
        "lon": 77.5935294
      },
      "tags": {
        "leisure": "park"
      }
    },
    {
      "type": "way",
      "id": 782014096,
      "center": {
        "lat": 12.9864394,
        "lon": 77.5926261
      },
      "tags": {
        "addr:street": "Ali Asker Road",
        "amenity": "monastery",
        "denomination": "catholic",
        "landuse": "religious",
        "monastery:type": "convent",
        "name": "Cloistered Carmelite Convent",
        "religion": "christian"
      }
    },
    {
      "type": "way",
      "id": 782014099,
      "center": {
        "lat": 12.9840887,
        "lon": 77.5947229
      },
      "tags": {
        "amenity": "police",
        "name": "Cyber Crime Police Station"
      }
    },
    {
      "type": "way",
      "id": 782014100,
      "center": {
        "lat": 12.9844786,
        "lon": 77.5946399
      },
      "tags": {
        "amenity": "police",
        "name": "Commisioner of Police"
      }
    },
    {
      "type": "way",
      "id": 782014105,
      "center": {
        "lat": 12.9902123,
        "lon": 77.5800977
      },
      "tags": {
        "leisure": "garden"
      }
    },
    {
      "type": "way",
      "id": 782014109,
      "center": {
        "lat": 12.9903468,
        "lon": 77.5818819
      },
      "tags": {
        "leisure": "garden"
      }
    },
    {
      "type": "way",
      "id": 986979031,
      "center": {
        "lat": 12.9940269,
        "lon": 77.584796
      },
      "tags": {
        "amenity": "parking"
      }
    },
    {
      "type": "way",
      "id": 997923996,
      "center": {
        "lat": 12.9863583,
        "lon": 77.5792111
      },
      "tags": {
        "addr:district": "Bengaluru Urban",
        "addr:full": "6/6 Kumarakrupa Road OppositeShivananda Circle , High Grounds",
        "addr:postcode": "560001",
        "addr:state": "Karnataka",
        "amenity": "hospital",
        "name": "Dr. P.R. Desai Hospital Pvt Ltd",
        "source": "OpenGovernmentData"
      }
    },
    {
      "type": "way",
      "id": 1064890952,
      "center": {
        "lat": 12.9931109,
        "lon": 77.5886356
      },
      "tags": {
        "leisure": "garden"
      }
    },
    {
      "type": "way",
      "id": 1064890955,
      "center": {
        "lat": 12.9926063,
        "lon": 77.5884482
      },
      "tags": {
        "leisure": "garden",
        "name": "Vatika"
      }
    },
    {
      "type": "way",
      "id": 1064890960,
      "center": {
        "lat": 12.9940556,
        "lon": 77.5871824
      },
      "tags": {
        "access": "private",
        "leisure": "playground"
      }
    },
    {
      "type": "way",
      "id": 1064890964,
      "center": {
        "lat": 12.993608,
        "lon": 77.5884909
      },
      "tags": {
        "leisure": "garden"
      }
    },
    {
      "type": "way",
      "id": 1064890966,
      "center": {
        "lat": 12.9929644,
        "lon": 77.5885118
      },
      "tags": {
        "leisure": "pitch",
        "lit": "no",
        "sport": "basketball",
        "surface": "tartan"
      }
    },
    {
      "type": "way",
      "id": 1064890967,
      "center": {
        "lat": 12.993654,
        "lon": 77.5882429
      },
      "tags": {
        "access": "permissive",
        "amenity": "parking",
        "fee": "no",
        "parking": "surface"
      }
    },
    {
      "type": "way",
      "id": 1064890976,
      "center": {
        "lat": 12.99345,
        "lon": 77.5871464
      },
      "tags": {
        "amenity": "monastery",
        "community:gender": "female",
        "denomination": "catholic",
        "landuse": "religious",
        "monastery:type": "convent",
        "name": "Mount Carmel Convent",
        "religion": "christian"
      }
    },
    {
      "type": "way",
      "id": 1064890977,
      "center": {
        "lat": 12.9940686,
        "lon": 77.5871753
      },
      "tags": {
        "amenity": "school",
        "name": "Mount Carmel Central School"
      }
    },
    {
      "type": "way",
      "id": 1064892106,
      "center": {
        "lat": 12.9937289,
        "lon": 77.5888268
      },
      "tags": {
        "leisure": "garden"
      }
    },
    {
      "type": "way",
      "id": 1064898147,
      "center": {
        "lat": 12.9844247,
        "lon": 77.591659
      },
      "tags": {
        "amenity": "shelter",
        "shelter_type": "gazebo"
      }
    },
    {
      "type": "way",
      "id": 1076398554,
      "center": {
        "lat": 12.9805943,
        "lon": 77.5799311
      },
      "tags": {
        "amenity": "fire_station",
        "name": "High Grounds Fire Station",
        "name:kn": "ಹೈಗ್ರೌಂಡ್ಸ್ ಅಗ್ನಿಶಾಮಕ ಠಾಣೆ"
      }
    },
    {
      "type": "way",
      "id": 1081215245,
      "center": {
        "lat": 12.9802646,
        "lon": 77.5815071
      },
      "tags": {
        "alt_name": "Karnataka State Prisons Department",
        "amenity": "police",
        "landuse": "commercial",
        "name": "Department of Prisons & Correctional Services",
        "office": "government"
      }
    },
    {
      "type": "way",
      "id": 1081848010,
      "center": {
        "lat": 12.9827382,
        "lon": 77.5872615
      },
      "tags": {
        "addr:city": "Bengaluru",
        "addr:postcode": "560001",
        "addr:street": "Palace Road",
        "amenity": "place_of_worship",
        "building": "yes",
        "religion": "hindu"
      }
    },
    {
      "type": "way",
      "id": 1091543251,
      "center": {
        "lat": 12.9895821,
        "lon": 77.5920271
      },
      "tags": {
        "amenity": "police",
        "heritage": "2",
        "heritage:operator": "nmma",
        "heritage:website": "https://nmma.nic.in/nmma/exploreBuiltState.do?state=29",
        "name": "Superintendent of Police",
        "ref:nmma": "KR05010889"
      }
    },
    {
      "type": "way",
      "id": 1124828965,
      "center": {
        "lat": 12.9835259,
        "lon": 77.5899784
      },
      "tags": {
        "leisure": "garden"
      }
    },
    {
      "type": "way",
      "id": 1124828967,
      "center": {
        "lat": 12.9847727,
        "lon": 77.5829241
      },
      "tags": {
        "amenity": "police",
        "name": "High Grounds Traffic Police Station"
      }
    },
    {
      "type": "way",
      "id": 1124838493,
      "center": {
        "lat": 12.9873579,
        "lon": 77.5805107
      },
      "tags": {
        "amenity": "school",
        "name": "Bharat Seva Dal",
        "name:kn": "ಭಾರತ ಸೇವಾದಳ",
        "wheelchair": "no"
      }
    },
    {
      "type": "way",
      "id": 1209738949,
      "center": {
        "lat": 12.9843061,
        "lon": 77.5907086
      },
      "tags": {
        "building": "yes",
        "name": "Curious",
        "operator": "Dynam Creativity",
        "shop": "books"
      }
    },
    {
      "type": "way",
      "id": 1209738951,
      "center": {
        "lat": 12.9841887,
        "lon": 77.5905097
      },
      "tags": {
        "leisure": "playground",
        "name": "Science Park"
      }
    },
    {
      "type": "way",
      "id": 1209738954,
      "center": {
        "lat": 12.984445,
        "lon": 77.5897752
      },
      "tags": {
        "amenity": "shelter",
        "building": "yes",
        "lit": "no",
        "shelter_type": "gazebo"
      }
    },
    {
      "type": "way",
      "id": 1209738962,
      "center": {
        "lat": 12.9842183,
        "lon": 77.5906791
      },
      "tags": {
        "amenity": "motorcycle_parking"
      }
    },
    {
      "type": "way",
      "id": 1217527846,
      "center": {
        "lat": 12.978944,
        "lon": 77.5914949
      },
      "tags": {
        "leisure": "garden"
      }
    },
    {
      "type": "way",
      "id": 1238875652,
      "center": {
        "lat": 12.9778985,
        "lon": 77.581233
      },
      "tags": {
        "access": "yes",
        "amenity": "parking",
        "building": "parking",
        "building:levels": "1",
        "building:levels:underground": "3",
        "capacity": "1350",
        "capacity:disabled": "yes",
        "capacity:parent": "yes",
        "capacity:women": "yes",
        "fee": "yes",
        "internet_access": "yes",
        "lit": "yes",
        "name": "Freedom Park MLCP",
        "official_name": "Right Parking",
        "operator": "Right Parking",
        "operator:type": "private",
        "parking": "multi-storey",
        "smoothness": "excellent",
        "start_date": "2024-06-21",
        "supervised": "yes",
        "surveillance": "yes",
        "wheelchair": "yes"
      }
    },
    {
      "type": "way",
      "id": 1238875653,
      "center": {
        "lat": 12.9787357,
        "lon": 77.5809515
      },
      "tags": {
        "addr:city": "Beṅgaḷūru",
        "addr:postcode": "560009",
        "addr:street": "6th Cross",
        "alt_name:en": "Mahābodhi Research Centre;Mahā Bodhī Research Center",
        "amenity": "research_institute",
        "building": "yes",
        "contact:facebook": "mahabodhiresearchcentre",
        "contact:youtube": "@mahabodhiresearchcentreblr",
        "internet_access": "wlan",
        "internet_access:fee": "customers",
        "layer": "-1",
        "name": "MBRC",
        "name:en": "Mahābodhi Research Center",
        "name:es": "Centro de Investigación Mahābodhi",
        "name:pt": "Centro de Investigação Mahābodhi",
        "operator:type": "religious",
        "operator:wikidata": "Q122974374",
        "short_name": "MBRC"
      }
    },
    {
      "type": "way",
      "id": 1238875655,
      "center": {
        "lat": 12.9785522,
        "lon": 77.5807433
      },
      "tags": {
        "addr:city": "Beṅgaḷūru",
        "amenity": "place_of_worship",
        "building": "yes",
        "denomination": "theravada",
        "name": "Dhammasālā",
        "name:en": "Dhamma Hall",
        "name:es": "Sala del Dhamma",
        "name:hi": "धम्म साला",
        "name:hi-Latn": "Dhamm Sālā",
        "name:pi": "𑀥𑀫𑁆𑀫𑀲𑀸𑀮𑀸",
        "name:ur": "دھمّ سالا",
        "operator:wikidata": "Q122974263",
        "religion": "buddhist"
      }
    },
    {
      "type": "way",
      "id": 1254315988,
      "center": {
        "lat": 12.9823155,
        "lon": 77.5941812
      },
      "tags": {
        "addr:street": "Raj Bhavan Road",
        "amenity": "fuel",
        "brand": "Hindustan Petroleum",
        "brand:wikidata": "Q1619375",
        "compressed_air": "yes",
        "name": "Bharati Petrol / Gas Station",
        "name:kn": "ಭಾರತ್ ಗ್ಯಾಸ್ ಸ್ಟೇಶನ್",
        "official_name": "Hindustan Petroleum",
        "operator": "HP",
        "self_service": "no"
      }
    },
    {
      "type": "way",
      "id": 1254353736,
      "center": {
        "lat": 12.9904731,
        "lon": 77.5935832
      },
      "tags": {
        "amenity": "fuel",
        "brand": "Shell",
        "brand:wikidata": "Q110716465",
        "compressed_air": "yes",
        "name": "Shell",
        "name:kn": "ಶೆಲ್",
        "operator": "Shell"
      }
    },
    {
      "type": "way",
      "id": 1255157300,
      "center": {
        "lat": 12.9910191,
        "lon": 77.5911805
      },
      "tags": {
        "access": "private",
        "leisure": "swimming_pool",
        "location": "outdoor"
      }
    },
    {
      "type": "way",
      "id": 1255987799,
      "center": {
        "lat": 12.9847219,
        "lon": 77.594089
      },
      "tags": {
        "access": "private",
        "leisure": "pitch",
        "sport": "tennis"
      }
    },
    {
      "type": "way",
      "id": 1255992451,
      "center": {
        "lat": 12.99024,
        "lon": 77.5924513
      },
      "tags": {
        "amenity": "place_of_worship",
        "landuse": "religious",
        "name": "Sri Sampangi Ramaswamy Temple",
        "religion": "hindu"
      }
    },
    {
      "type": "way",
      "id": 1256004256,
      "center": {
        "lat": 12.986744,
        "lon": 77.5910584
      },
      "tags": {
        "access": "yes",
        "amenity": "parking",
        "operator": "BBMP",
        "parking": "surface"
      }
    },
    {
      "type": "way",
      "id": 1256004257,
      "center": {
        "lat": 12.9868497,
        "lon": 77.5906621
      },
      "tags": {
        "access": "yes",
        "amenity": "parking",
        "fee": "yes",
        "operator": "BBMP",
        "parking": "surface"
      }
    },
    {
      "type": "way",
      "id": 1256004261,
      "center": {
        "lat": 12.9890586,
        "lon": 77.5947287
      },
      "tags": {
        "amenity": "school",
        "name": "RJ Public School"
      }
    },
    {
      "type": "way",
      "id": 1257696616,
      "center": {
        "lat": 12.9768206,
        "lon": 77.5834819
      },
      "tags": {
        "amenity": "place_of_worship",
        "building": "yes",
        "name": "Shri Oni Anjaneya Swami Temple",
        "name:kn": "ಶ್ರೀ ಓಣಿ ಆಂಜನೇಯ ಸ್ವಾಮಿ ದೇವಸ್ಥಾನ",
        "religion": "hindu"
      }
    },
    {
      "type": "way",
      "id": 1257700353,
      "center": {
        "lat": 12.9784402,
        "lon": 77.5876363
      },
      "tags": {
        "access": "permissive",
        "amenity": "parking",
        "fee": "yes",
        "orientation": "diagonal",
        "parking": "street_side",
        "surface": "asphalt"
      }
    },
    {
      "type": "way",
      "id": 1257700354,
      "center": {
        "lat": 12.9791462,
        "lon": 77.588341
      },
      "tags": {
        "access": "permissive",
        "amenity": "parking",
        "parking": "surface"
      }
    },
    {
      "type": "way",
      "id": 1258159460,
      "center": {
        "lat": 12.9769337,
        "lon": 77.5870753
      },
      "tags": {
        "amenity": "college",
        "heritage": "2",
        "heritage:operator": "nmma",
        "heritage:website": "https://nmma.nic.in/nmma/exploreBuiltState.do?state=29",
        "landuse": "education",
        "name": "Government SKSJ Technology Institute",
        "official_name": "Government Sri Krsihna Rajendra Silver Jubilee Technological Institute",
        "ref:nmma": "KR20010768",
        "start_date": "1938",
        "website": "https://gec.karnataka.gov.in/sksjti/public/en"
      }
    },
    {
      "type": "way",
      "id": 1272659399,
      "center": {
        "lat": 12.9863438,
        "lon": 77.5913465
      },
      "tags": {
        "access": "yes",
        "amenity": "toilets",
        "building": "yes",
        "check_date": "2023-12-27",
        "fee": "no",
        "source": "survey",
        "toilets:handwashing": "yes"
      }
    },
    {
      "type": "way",
      "id": 1276833549,
      "center": {
        "lat": 12.9814746,
        "lon": 77.5945941
      },
      "tags": {
        "amenity": "shelter",
        "bench": "yes",
        "building": "yes"
      }
    },
    {
      "type": "way",
      "id": 1276833556,
      "center": {
        "lat": 12.9787787,
        "lon": 77.5917429
      },
      "tags": {
        "barrier": "fence",
        "leisure": "garden"
      }
    },
    {
      "type": "way",
      "id": 1276833564,
      "center": {
        "lat": 12.9777509,
        "lon": 77.5901625
      },
      "tags": {
        "barrier": "fence",
        "landuse": "grass",
        "leisure": "garden"
      }
    },
    {
      "type": "way",
      "id": 1286336448,
      "center": {
        "lat": 12.9851432,
        "lon": 77.587593
      },
      "tags": {
        "access": "permissive",
        "amenity": "parking",
        "parking": "surface"
      }
    },
    {
      "type": "way",
      "id": 1286336449,
      "center": {
        "lat": 12.9852406,
        "lon": 77.5874133
      },
      "tags": {
        "access": "permissive",
        "amenity": "parking",
        "parking": "surface"
      }
    },
    {
      "type": "way",
      "id": 1286336450,
      "center": {
        "lat": 12.9862256,
        "lon": 77.5865829
      },
      "tags": {
        "access": "private",
        "leisure": "swimming_pool"
      }
    },
    {
      "type": "way",
      "id": 1286336460,
      "center": {
        "lat": 12.9859649,
        "lon": 77.5872179
      },
      "tags": {
        "access": "permissive",
        "amenity": "parking",
        "parking": "surface"
      }
    },
    {
      "type": "way",
      "id": 1286336461,
      "center": {
        "lat": 12.9855191,
        "lon": 77.5878601
      },
      "tags": {
        "access": "permissive",
        "amenity": "parking",
        "parking": "street_side"
      }
    },
    {
      "type": "way",
      "id": 1293978355,
      "center": {
        "lat": 12.9790661,
        "lon": 77.5821806
      },
      "tags": {
        "access": "permissive",
        "amenity": "parking",
        "parking": "surface"
      }
    },
    {
      "type": "way",
      "id": 1293979654,
      "center": {
        "lat": 12.979646,
        "lon": 77.5813946
      },
      "tags": {
        "leisure": "pitch",
        "sport": "tennis"
      }
    },
    {
      "type": "way",
      "id": 1293979656,
      "center": {
        "lat": 12.9792647,
        "lon": 77.5798969
      },
      "tags": {
        "access": "permissive",
        "amenity": "parking",
        "parking": "surface"
      }
    },
    {
      "type": "way",
      "id": 1296036847,
      "center": {
        "lat": 12.9783897,
        "lon": 77.5920792
      },
      "tags": {
        "leisure": "garden"
      }
    },
    {
      "type": "way",
      "id": 1296036849,
      "center": {
        "lat": 12.9772731,
        "lon": 77.5895655
      },
      "tags": {
        "access": "private",
        "amenity": "parking",
        "parking": "surface"
      }
    },
    {
      "type": "way",
      "id": 1296036850,
      "center": {
        "lat": 12.9778431,
        "lon": 77.590155
      },
      "tags": {
        "access": "private",
        "amenity": "parking",
        "parking": "surface"
      }
    },
    {
      "type": "way",
      "id": 1296036851,
      "center": {
        "lat": 12.9787461,
        "lon": 77.5910202
      },
      "tags": {
        "access": "private",
        "amenity": "parking",
        "parking": "surface"
      }
    },
    {
      "type": "way",
      "id": 1296036852,
      "center": {
        "lat": 12.9795893,
        "lon": 77.591838
      },
      "tags": {
        "access": "private",
        "amenity": "parking",
        "parking": "surface"
      }
    },
    {
      "type": "way",
      "id": 1296036853,
      "center": {
        "lat": 12.9807492,
        "lon": 77.5905708
      },
      "tags": {
        "access": "private",
        "amenity": "parking",
        "parking": "surface"
      }
    },
    {
      "type": "way",
      "id": 1296036855,
      "center": {
        "lat": 12.9827106,
        "lon": 77.589983
      },
      "tags": {
        "leisure": "garden"
      }
    },
    {
      "type": "way",
      "id": 1296036856,
      "center": {
        "lat": 12.9827782,
        "lon": 77.5896154
      },
      "tags": {
        "leisure": "garden"
      }
    },
    {
      "type": "way",
      "id": 1296036857,
      "center": {
        "lat": 12.9834013,
        "lon": 77.5892693
      },
      "tags": {
        "access": "private",
        "amenity": "parking",
        "parking": "surface"
      }
    },
    {
      "type": "way",
      "id": 1296036859,
      "center": {
        "lat": 12.9828453,
        "lon": 77.5899785
      },
      "tags": {
        "access": "private",
        "amenity": "parking",
        "parking": "surface"
      }
    },
    {
      "type": "way",
      "id": 1296036860,
      "center": {
        "lat": 12.982974,
        "lon": 77.5893518
      },
      "tags": {
        "access": "private",
        "amenity": "parking",
        "parking": "surface"
      }
    },
    {
      "type": "way",
      "id": 1296036861,
      "center": {
        "lat": 12.9831185,
        "lon": 77.5894544
      },
      "tags": {
        "access": "private",
        "amenity": "parking",
        "parking": "surface"
      }
    },
    {
      "type": "way",
      "id": 1297146106,
      "center": {
        "lat": 12.9905792,
        "lon": 77.586795
      },
      "tags": {
        "access": "permissive",
        "amenity": "parking",
        "parking": "surface"
      }
    },
    {
      "type": "way",
      "id": 1297146109,
      "center": {
        "lat": 12.9902984,
        "lon": 77.5868815
      },
      "tags": {
        "access": "permissive",
        "amenity": "parking",
        "parking": "surface"
      }
    },
    {
      "type": "way",
      "id": 1297146110,
      "center": {
        "lat": 12.990488,
        "lon": 77.586411
      },
      "tags": {
        "access": "permissive",
        "amenity": "parking",
        "parking": "surface"
      }
    },
    {
      "type": "way",
      "id": 1297630661,
      "center": {
        "lat": 12.9858819,
        "lon": 77.5883501
      },
      "tags": {
        "garden:type": "landscaping",
        "leisure": "garden"
      }
    },
    {
      "type": "way",
      "id": 1299765928,
      "center": {
        "lat": 12.9927882,
        "lon": 77.5858214
      },
      "tags": {
        "access": "private",
        "leisure": "swimming_pool"
      }
    },
    {
      "type": "way",
      "id": 1304255927,
      "center": {
        "lat": 12.9846061,
        "lon": 77.5906943
      },
      "tags": {
        "access": "permissive",
        "amenity": "parking",
        "operator": "BBMP",
        "orientation": "parallel",
        "parking": "street_side"
      }
    },
    {
      "type": "way",
      "id": 1310872547,
      "center": {
        "lat": 12.9823883,
        "lon": 77.5871066
      },
      "tags": {
        "garden:type": "landscaping",
        "leisure": "garden"
      }
    },
    {
      "type": "way",
      "id": 1311425951,
      "center": {
        "lat": 12.9895701,
        "lon": 77.5926152
      },
      "tags": {
        "amenity": "place_of_worship",
        "landuse": "religious",
        "religion": "hindu"
      }
    },
    {
      "type": "way",
      "id": 1311425953,
      "center": {
        "lat": 12.9907794,
        "lon": 77.5909427
      },
      "tags": {
        "access": "private",
        "leisure": "playground"
      }
    },
    {
      "type": "way",
      "id": 1311433873,
      "center": {
        "lat": 12.9878179,
        "lon": 77.5943376
      },
      "tags": {
        "access": "yes",
        "amenity": "motorcycle_parking",
        "fee": "yes",
        "operator": "BBMP",
        "parking": "street_side"
      }
    },
    {
      "type": "way",
      "id": 1312442495,
      "center": {
        "lat": 12.9879774,
        "lon": 77.5913386
      },
      "tags": {
        "access": "yes",
        "amenity": "parking",
        "fee": "yes",
        "orientation": "parallel",
        "parking": "street_side",
        "surface": "paving_stones"
      }
    },
    {
      "type": "way",
      "id": 1330345128,
      "center": {
        "lat": 12.9858821,
        "lon": 77.5948106
      },
      "tags": {
        "access": "private",
        "leisure": "swimming_pool"
      }
    },
    {
      "type": "way",
      "id": 1342699279,
      "center": {
        "lat": 12.9919346,
        "lon": 77.582268
      },
      "tags": {
        "access": "customers",
        "amenity": "parking",
        "parking": "street_side"
      }
    },
    {
      "type": "way",
      "id": 1342699280,
      "center": {
        "lat": 12.9922548,
        "lon": 77.5825197
      },
      "tags": {
        "access": "customers",
        "amenity": "parking",
        "parking": "street_side"
      }
    },
    {
      "type": "way",
      "id": 1342699282,
      "center": {
        "lat": 12.9924904,
        "lon": 77.5828096
      },
      "tags": {
        "access": "customers",
        "amenity": "parking",
        "parking": "street_side"
      }
    },
    {
      "type": "way",
      "id": 1342699292,
      "center": {
        "lat": 12.9923618,
        "lon": 77.5825112
      },
      "tags": {
        "leisure": "garden"
      }
    },
    {
      "type": "way",
      "id": 1342699293,
      "center": {
        "lat": 12.992018,
        "lon": 77.5824186
      },
      "tags": {
        "leisure": "garden"
      }
    },
    {
      "type": "way",
      "id": 1342976490,
      "center": {
        "lat": 12.9879779,
        "lon": 77.5810303
      },
      "tags": {
        "amenity": "school",
        "name": "Sindhi High School",
        "website": "http://sindhihighschool.org/",
        "wheelchair": "no"
      }
    },
    {
      "type": "way",
      "id": 1342998608,
      "center": {
        "lat": 12.9920403,
        "lon": 77.5814166
      },
      "tags": {
        "amenity": "shelter",
        "building": "roof",
        "shelter_type": "gazebo"
      }
    },
    {
      "type": "way",
      "id": 1342998611,
      "center": {
        "lat": 12.9929941,
        "lon": 77.5820388
      },
      "tags": {
        "access": "customers",
        "amenity": "parking",
        "parking": "street_side"
      }
    },
    {
      "type": "way",
      "id": 1349538580,
      "center": {
        "lat": 12.9903264,
        "lon": 77.5931209
      },
      "tags": {
        "access": "yes",
        "amenity": "motorcycle_parking",
        "fee": "yes"
      }
    },
    {
      "type": "way",
      "id": 1352263715,
      "center": {
        "lat": 12.9812535,
        "lon": 77.592951
      },
      "tags": {
        "leisure": "garden"
      }
    },
    {
      "type": "way",
      "id": 1354824983,
      "center": {
        "lat": 12.9803921,
        "lon": 77.5886813
      },
      "tags": {
        "leisure": "garden"
      }
    },
    {
      "type": "way",
      "id": 1354824993,
      "center": {
        "lat": 12.9773862,
        "lon": 77.5888814
      },
      "tags": {
        "access": "private",
        "amenity": "parking",
        "parking": "surface"
      }
    },
    {
      "type": "way",
      "id": 1414191566,
      "center": {
        "lat": 12.9812666,
        "lon": 77.5783712
      },
      "tags": {
        "amenity": "place_of_worship",
        "building": "yes",
        "name": "Munishwara Swamy Sanidhi",
        "religion": "hindu"
      }
    },
    {
      "type": "way",
      "id": 1416225262,
      "center": {
        "lat": 12.9877167,
        "lon": 77.5939267
      },
      "tags": {
        "access": "permissive",
        "amenity": "parking",
        "parking": "surface"
      }
    }
  ]
}