{
  "area_name": "Ferns Habitat",
  "osm_id": 2909040800,
  "osm_type": "node",
  "place_type": "neighbourhood",
  "amenity_count": 225,
  "amenities": [
    {
      "type": "node",
      "id": 937026991,
      "lat": 12.9774296,
      "lon": 77.6955308,
      "tags": {
        "addr:district": "Bengaluru Urban",
        "addr:postcode": "560037",
        "addr:state": "Karnataka",
        "amenity": "clinic",
        "check_date": "2022-07-23",
        "name": "SBF Health, Bengaluru Urban",
        "source": "OpenGovernmentData"
      }
    },
    {
      "type": "node",
      "id": 1024506179,
      "lat": 12.9773708,
      "lon": 77.6954828,
      "tags": {
        "addr:city": "Doddanekundi, Marathahalli",
        "addr:housename": "Sri Kote Ashirwad Towers",
        "addr:housenumber": "27/7",
        "addr:postcode": "560037",
        "addr:street": "Outer Ring Road",
        "air_conditioning": "yes",
        "amenity": "restaurant",
        "diet:vegetarian": "yes",
        "indoor_seating": "yes",
        "name": "ArmaDQ",
        "outdoor_seating": "no",
        "payment:credit_cards": "yes",
        "payment:debit_cards": "yes"
      }
    },
    {
      "type": "node",
      "id": 1024506184,
      "lat": 12.9805079,
      "lon": 77.6937246,
      "tags": {
        "addr:city": "Doddanekundi, Marathahalli",
        "addr:housenumber": "38/3",
        "addr:postcode": "560037",
        "addr:street": "Outer Ring Road",
        "air_conditioning": "yes",
        "amenity": "restaurant",
        "indoor_seating": "yes",
        "name": "BLR37 Bar & Kitchen",
        "outdoor_seating": "no"
      }
    },
    {
      "type": "node",
      "id": 1166727536,
      "lat": 12.979486,
      "lon": 77.6951134,
      "tags": {
        "addr:floor": "0",
        "addr:street": "ORR Doddanakundi",
        "air_conditioning": "no",
        "amenity": "restaurant",
        "bar": "no",
        "check_date": "2024-09-20",
        "check_date:opening_hours": "2024-09-20",
        "diet:halal": "no",
        "diet:vegetarian": "only",
        "highchair": "no",
        "indoor_seating": "yes",
        "internet_access": "no",
        "microbrewery": "no",
        "name": "Sri Vishnu Palace",
        "opening_hours": "Mo-Su 07:00-23:00",
        "outdoor_seating": "no",
        "payment:cash": "yes",
        "payment:credit_cards": "yes",
        "payment:debit_cards": "yes",
        "payment:upi": "yes",
        "reservation": "no",
        "smoking": "no",
        "source": "survey",
        "takeaway": "yes",
        "wheelchair": "no"
      }
    },
    {
      "type": "node",
      "id": 1166727538,
      "lat": 12.9790704,
      "lon": 77.693907,
      "tags": {
        "amenity": "atm",
        "name": "Axis bank ATM private to Ferns Icon"
      }
    },
    {
      "type": "node",
      "id": 1166727541,
      "lat": 12.979298,
      "lon": 77.6951854,
      "tags": {
        "addr:floor": "1",
        "amenity": "restaurant",
        "bar": "no",
        "check_date": "2025-02-12",
        "cuisine": "indian",
        "diet:vegetarian": "yes",
        "highchair": "no",
        "indoor_seating": "yes",
        "internet_access": "no",
        "name": "Plate 99 Restaurant",
        "opening_hours": "Mo-Su 11:00-24:00",
        "outdoor_seating": "no",
        "payment:cards": "no",
        "payment:cash": "yes",
        "payment:credit_cards": "no",
        "payment:debit_cards": "no",
        "phone": "+91 85508 35554",
        "smoking": "no",
        "source": "survey",
        "toilets": "yes",
        "toilets:wheelchair": "no",
        "wheelchair": "no"
      }
    },
    {
      "type": "node",
      "id": 1166727551,
      "lat": 12.9788613,
      "lon": 77.6946259,
      "tags": {
        "addr:street": "ORR  opposite bhagini",
        "amenity": "bar",
        "indoor_seating": "yes",
        "name": "Sarovar Portico",
        "outdoor_seating": "no"
      }
    },
    {
      "type": "node",
      "id": 1166727555,
      "lat": 12.9789845,
      "lon": 77.6953187,
      "tags": {
        "check_date": "2024-11-09",
        "check_date:opening_hours": "2024-11-09",
        "indoor_seating": "no",
        "internet_access": "no",
        "name": "Preethi Condiments",
        "opening_hours:signed": "no",
        "outdoor_seating": "no",
        "payment:cash": "yes",
        "payment:credit_cards": "no",
        "payment:debit_cards": "no",
        "payment:upi": "yes",
        "shop": "bakery",
        "takeaway": "only",
        "wheelchair": "limited"
      }
    },
    {
      "type": "node",
      "id": 1338100076,
      "lat": 12.9717515,
      "lon": 77.6935258,
      "tags": {
        "amenity": "place_of_worship",
        "check_date": "2024-04-01",
        "name": "Temple (Ram Temple)",
        "name:kn": "ದೇವಸ್ಥಾನ",
        "religion": "hindu"
      }
    },
    {
      "type": "node",
      "id": 1719552441,
      "lat": 12.9785542,
      "lon": 77.6967137,
      "tags": {
        "brand": "Bosch",
        "check_date": "2024-09-20",
        "name": "Mudra Bosch Car Service",
        "opening_hours": "Mo-Sa 09:00-19:00",
        "shop": "car_repair",
        "wheelchair": "limited"
      }
    },
    {
      "type": "node",
      "id": 2281106615,
      "lat": 12.9787433,
      "lon": 77.6955214,
      "tags": {
        "air_conditioning": "no",
        "amenity": "restaurant",
        "bar": "no",
        "check_date": "2024-09-02",
        "check_date:diet:halal": "2022-08-21",
        "diet:halal": "yes",
        "diet:vegetarian": "yes",
        "highchair": "no",
        "indoor_seating": "yes",
        "internet_access": "no",
        "name": "Kabab Magic",
        "opening_hours": "Mo-Su 12:30-23:30",
        "outdoor_seating": "no",
        "payment:cash": "yes",
        "payment:credit_cards": "yes",
        "payment:debit_cards": "yes",
        "payment:upi": "yes",
        "smoking": "no",
        "takeaway": "yes",
        "wheelchair": "no"
      }
    },
    {
      "type": "node",
      "id": 2281106627,
      "lat": 12.9773921,
      "lon": 77.6956418,
      "tags": {
        "amenity": "bank",
        "atm": "yes",
        "brand": "State Bank of India",
        "brand:wikidata": "Q1340361",
        "name": "State Bank of India",
        "name:kn": "ಎಸ್ ಬಿ ಐ",
        "short_name": "SBI"
      }
    },
    {
      "type": "node",
      "id": 3205896049,
      "lat": 12.9788781,
      "lon": 77.6944035,
      "tags": {
        "amenity": "bicycle_parking",
        "bicycle_parking": "informal",
        "capacity": "100",
        "covered": "no",
        "name": "Two Wheeler Parking"
      }
    },
    {
      "type": "node",
      "id": 4133663292,
      "lat": 12.9792116,
      "lon": 77.6952364,
      "tags": {
        "addr:housename": "Ashirwad Towers",
        "addr:street": "Outer Ring Road",
        "amenity": "bank",
        "brand": "IDBI Bank",
        "brand:wikidata": "Q3633485",
        "brand:wikipedia": "en:IDBI Bank",
        "check_date": "2024-09-19",
        "drive_through": "no",
        "name": "IDBI Bank",
        "name:en": "IDBI Bank",
        "name:kn": "ಐಡಿಬಿಐ ಬ್ಯಾಂಕ್",
        "old_name": "Industrial Development Bank of India",
        "opening_hours": "Mo-Sa 10:00-16:00; Su,Sa[2,4] off",
        "operator": "IDBI",
        "phone": "+91 80 2853 0813",
        "short_name": "IDBI",
        "source": "survey",
        "website": "https://www.idbi.com",
        "wheelchair": "no"
      }
    },
    {
      "type": "node",
      "id": 4325367592,
      "lat": 12.9789013,
      "lon": 77.6955987,
      "tags": {
        "air_conditioning": "no",
        "amenity": "restaurant",
        "diet:vegetarian": "yes",
        "indoor_seating": "yes",
        "name": "Bijoor Biryani House",
        "outdoor_seating": "no",
        "payment:credit_cards": "no",
        "payment:debit_cards": "no",
        "smoking": "no",
        "wheelchair": "limited"
      }
    },
    {
      "type": "node",
      "id": 4350028789,
      "lat": 12.9820149,
      "lon": 77.6927858,
      "tags": {
        "addr:floor": "1",
        "addr:housenumber": "62/2",
        "addr:street": "Outer Ring Road",
        "air_conditioning": "yes",
        "amenity": "restaurant",
        "bar": "no",
        "check_date": "2025-09-03",
        "contact:facebook": "punjabbistroblr",
        "cuisine": "indian",
        "diet:non-vegetarian": "yes",
        "diet:vegetarian": "yes",
        "highchair": "no",
        "indoor_seating": "yes",
        "level": "1",
        "name": "Punjab Bistro",
        "opening_hours": "Mo-Su 12:00-23:30",
        "operator": "TSS Hospitality Services",
        "outdoor_seating": "no",
        "payment:credit_cards": "yes",
        "payment:debit_cards": "yes",
        "phone": "+91 72049 11183; +91 80 4546 1987",
        "ref:vatin": "29AATFT4757G1ZE",
        "reservation": "yes",
        "smoking": "no",
        "source": "survey",
        "takeaway": "yes",
        "toilets": "yes",
        "toilets:wheelchair": "no",
        "wheelchair": "no"
      }
    },
    {
      "type": "node",
      "id": 4365896504,
      "lat": 12.971484,
      "lon": 77.6943016,
      "tags": {
        "amenity": "post_office",
        "brand": "Professional Couriers",
        "check_date": "2023-09-03",
        "internet_access": "no",
        "name": "Professional Couriers",
        "source": "survey"
      }
    },
    {
      "type": "node",
      "id": 4443774568,
      "lat": 12.9786306,
      "lon": 77.694542,
      "tags": {
        "addr:city": "Bangalore",
        "addr:floor": "4",
        "addr:housenumber": "39/5",
        "addr:postcode": "560037",
        "addr:street": "RBD Sarovar Portico, Doddanekundi, Outer Ring Road, Marathahalli",
        "air_conditioning": "yes",
        "amenity": "restaurant",
        "bar": "yes",
        "check_date": "2025-02-02",
        "check_date:opening_hours": "2025-02-02",
        "delivery": "yes",
        "diet:vegetarian": "yes",
        "highchair": "no",
        "indoor_seating": "yes",
        "level": "4",
        "microbrewery": "no",
        "name": "Brunchilly",
        "opening_hours": "07:00-23:00",
        "outdoor_seating": "no",
        "payment:credit_cards": "yes",
        "payment:debit_cards": "yes",
        "phone": "+91 80 49652104",
        "reservation": "yes",
        "smoking": "no",
        "source": "survey",
        "takeaway": "yes",
        "toilets": "yes",
        "wheelchair": "no"
      }
    },
    {
      "type": "node",
      "id": 4447099294,
      "lat": 12.9820804,
      "lon": 77.6926306,
      "tags": {
        "addr:city": "Bangalore",
        "addr:postcode": "560037",
        "addr:street": "Opposite EMC2, Outer Ring Road, Doddanekundi, Mahadevpura",
        "air_conditioning": "no",
        "amenity": "restaurant",
        "bar": "yes",
        "check_date": "2025-02-03",
        "diet:non-vegetarian": "yes",
        "diet:vegetarian": "yes",
        "highchair": "no",
        "indoor_seating": "yes",
        "internet_access": "no",
        "level": "4",
        "name": "Gilly's resto-bar",
        "outdoor_seating": "yes",
        "payment:credit_cards": "yes",
        "payment:debit_cards": "yes",
        "payment:mastercard": "yes",
        "payment:upi": "yes",
        "payment:visa": "yes",
        "smoking": "separated",
        "source": "survey",
        "wheelchair": "no"
      }
    },
    {
      "type": "node",
      "id": 4487965894,
      "lat": 12.9842093,
      "lon": 77.6891629,
      "tags": {
        "addr:city": "Bangalore",
        "addr:housenumber": "Shop No.5&6/310",
        "addr:postcode": "560048",
        "addr:street": "Outer Ring Road,Complex,, 6, Service Rd, Puttappa layout, Mahadevapura,",
        "name": "Sports Line",
        "opening_hours": "10:00-21:00",
        "phone": "085535 22268",
        "shop": "sports",
        "website": "https://www.sportslineindia.com/"
      }
    },
    {
      "type": "node",
      "id": 4489944387,
      "lat": 12.9792461,
      "lon": 77.6952137,
      "tags": {
        "addr:city": "Bangalore",
        "addr:housename": "Ashirwad Towers",
        "addr:postcode": "560037",
        "addr:street": "Outer Ring Road",
        "branch": "Doddanekundi",
        "check_date": "2025-03-05",
        "email": "stylewavesunisexsalon@gmail.com",
        "name": "Style Waves Unisex Salon & Beauty Studio",
        "opening_hours": "Mo-Su 10:00-21:00",
        "phone": "+91 80 25405240",
        "shop": "beauty",
        "website": "http://stylewavessalon.com/"
      }
    },
    {
      "type": "node",
      "id": 4635868597,
      "lat": 12.9868385,
      "lon": 77.6887546,
      "tags": {
        "name": "Annadata Farms Market",
        "shop": "supermarket"
      }
    },
    {
      "type": "node",
      "id": 5503164674,
      "lat": 12.9702401,
      "lon": 77.6939474,
      "tags": {
        "amenity": "restaurant",
        "cuisine": "biriyani;chicken",
        "indoor_seating": "yes",
        "name": "Ambur Biriyani",
        "name:kn": "ಅಂಬುರ್ ಬಿರಿಯಾನಿ",
        "opening_hours": "10:00-22:00",
        "outdoor_seating": "no"
      }
    },
    {
      "type": "node",
      "id": 5503164675,
      "lat": 12.9702107,
      "lon": 77.6939409,
      "tags": {
        "name": "Shri Venkateshwara Tent House",
        "opening_hours": "Mo-Su 09:30-23:00",
        "shop": "Tent_House"
      }
    },
    {
      "type": "node",
      "id": 5503369887,
      "lat": 12.9702783,
      "lon": 77.6939453,
      "tags": {
        "addr:street": "1st Main, Doddanekundi",
        "name": "Chandan Electricals & Hardware",
        "opening_hours": "Mo-Su 10:00-21:00",
        "phone": "9845448540",
        "shop": "hardware"
      }
    },
    {
      "type": "node",
      "id": 5503464385,
      "lat": 12.971547,
      "lon": 77.6943036,
      "tags": {
        "check_date": "2023-09-03",
        "indoor_seating": "no",
        "name": "Anil Bakery & Sweets",
        "outdoor_seating": "no",
        "shop": "bakery",
        "takeaway": "only"
      }
    },
    {
      "type": "node",
      "id": 5578956423,
      "lat": 12.9757683,
      "lon": 77.6930887,
      "tags": {
        "addr:postcode": "560037",
        "addr:street": "20 Cross",
        "amenity": "restaurant",
        "cuisine": "fish;chicken;diner;indian;curry",
        "name": "Green Leaf Kerela Hotel",
        "operator": "Shaji"
      }
    },
    {
      "type": "node",
      "id": 6201924576,
      "lat": 12.9712219,
      "lon": 77.6943085,
      "tags": {
        "air_conditioning": "no",
        "amenity": "restaurant",
        "diet:vegan": "yes",
        "diet:vegetarian": "yes",
        "indoor_seating": "yes",
        "name": "Marusa Food Family Restaurant",
        "opening_hours": "Mo-Sa 07:00-22:00",
        "outdoor_seating": "no",
        "smoking": "no"
      }
    },
    {
      "type": "node",
      "id": 6201946860,
      "lat": 12.9775377,
      "lon": 77.6921216,
      "tags": {
        "name": "SSK White Collar",
        "shop": "laundry"
      }
    },
    {
      "type": "node",
      "id": 6202591009,
      "lat": 12.9708386,
      "lon": 77.6941903,
      "tags": {
        "air_conditioning": "no",
        "amenity": "fast_food",
        "brand": "Five Star Chicken",
        "check_date": "2022-09-14",
        "cuisine": "chicken",
        "delivery": "yes",
        "diet:vegetarian": "yes",
        "indoor_seating": "yes",
        "name": "Five Star Chicken",
        "outdoor_seating": "no",
        "smoking": "no",
        "takeaway": "yes"
      }
    },
    {
      "type": "node",
      "id": 6202625760,
      "lat": 12.9710643,
      "lon": 77.6942355,
      "tags": {
        "amenity": "clinic",
        "healthcare": "clinic",
        "name": "Sri Radha Krishna Clinic",
        "opening_hours": "Mo-Su 09:30-17:00"
      }
    },
    {
      "type": "node",
      "id": 6219201657,
      "lat": 12.981657,
      "lon": 77.6967035,
      "tags": {
        "amenity": "fast_food",
        "brand": "Domino's",
        "brand:ks": "ڈومینوز",
        "brand:pa": "ਡੋਮੀਨੋਜ਼",
        "brand:ur": "ڈومینوز",
        "brand:wikidata": "Q839466",
        "brand:wikipedia": "en:Domino's Pizza",
        "check_date": "2022-09-14",
        "cuisine": "pizza",
        "drive_through": "no",
        "indoor_seating": "yes",
        "name": "Domino's",
        "name:ks": "ڈومینوز",
        "name:pa": "ਡੋਮੀਨੋਜ਼",
        "name:ur": "ڈومینوز",
        "opening_hours": "10:00-23:00",
        "outdoor_seating": "no",
        "payment:cash": "yes",
        "payment:credit_cards": "yes",
        "payment:debit_cards": "yes",
        "payment:sodexo": "yes",
        "payment:upi": "yes",
        "smoking": "no",
        "takeaway": "yes"
      }
    },
    {
      "type": "node",
      "id": 6219202473,
      "lat": 12.9816022,
      "lon": 77.6970228,
      "tags": {
        "amenity": "restaurant",
        "name": "Biryani Paradise"
      }
    },
    {
      "type": "node",
      "id": 6771722377,
      "lat": 12.9748177,
      "lon": 77.6831756,
      "tags": {
        "shop": "laundry"
      }
    },
    {
      "type": "node",
      "id": 6805721261,
      "lat": 12.9816457,
      "lon": 77.6968724,
      "tags": {
        "amenity": "restaurant",
        "brand": "California Burrito",
        "brand:wikidata": "Q124374596",
        "check_date": "2022-09-14",
        "cuisine": "mexican",
        "drive_through": "no",
        "indoor_seating": "yes",
        "name": "California Burrito",
        "opening_hours": "11:00-23:00",
        "outdoor_seating": "no",
        "payment:cash": "yes",
        "payment:credit_cards": "yes",
        "payment:debit_cards": "yes",
        "payment:upi": "yes",
        "smoking": "no",
        "takeaway": "yes"
      }
    },
    {
      "type": "node",
      "id": 7164764134,
      "lat": 12.9809503,
      "lon": 77.6935452,
      "tags": {
        "amenity": "restaurant",
        "indoor_seating": "yes",
        "name": "NH 47 Kerala Kitchen",
        "outdoor_seating": "no"
      }
    },
    {
      "type": "node",
      "id": 7178923561,
      "lat": 12.9793475,
      "lon": 77.69571,
      "tags": {
        "addr:floor": "0",
        "air_conditioning": "no",
        "amenity": "restaurant",
        "check_date": "2023-02-08",
        "highchair": "no",
        "indoor_seating": "yes",
        "name": "Basaveshwara Khanavali",
        "name:kn": "ಬಸವೇಶ್ವರ ಖಾನಾವಳಿ",
        "opening_hours": "Mo-Su 10:00-22:00",
        "outdoor_seating": "no",
        "smoking": "no",
        "source": "survey",
        "takeaway": "yes",
        "wheelchair": "no"
      }
    },
    {
      "type": "node",
      "id": 7178923562,
      "lat": 12.9793397,
      "lon": 77.6956825,
      "tags": {
        "addr:floor": "1",
        "air_conditioning": "yes",
        "amenity": "restaurant",
        "check_date": "2023-02-08",
        "diet:non-vegetarian": "yes",
        "diet:vegetarian": "yes",
        "indoor_seating": "yes",
        "name": "Sri Dwaraka Foods Andhra Biriyani",
        "opening_hours": "12:00-15:30,19:30-22:30",
        "outdoor_seating": "no",
        "payment:cash": "yes",
        "payment:credit_cards": "yes",
        "payment:debit_cards": "yes",
        "payment:upi": "yes",
        "smoking": "no",
        "wheelchair": "no"
      }
    },
    {
      "type": "node",
      "id": 7178923563,
      "lat": 12.9793214,
      "lon": 77.6957985,
      "tags": {
        "addr:floor": "-1",
        "air_conditioning": "no",
        "amenity": "restaurant",
        "check_date": "2023-02-08",
        "diet:non-vegetarian": "yes",
        "diet:vegetarian": "yes",
        "highchair": "no",
        "indoor_seating": "yes",
        "internet_access": "no",
        "name": "Sri Balaji Andhra Delux Mess",
        "outdoor_seating": "no",
        "smoking": "no",
        "source": "survey",
        "takeaway": "yes",
        "wheelchair": "no"
      }
    },
    {
      "type": "node",
      "id": 7178923564,
      "lat": 12.9792783,
      "lon": 77.6951985,
      "tags": {
        "air_conditioning": "no",
        "amenity": "fast_food",
        "check_date": "2025-02-02",
        "check_date:opening_hours": "2025-02-02",
        "cuisine": "dessert;ice_cream",
        "diet:vegetarian": "yes",
        "drive_through": "no",
        "indoor_seating": "yes",
        "internet_access": "no",
        "name": "Lassi Magic",
        "opening_hours": "Mo-Su 11:00-23:00",
        "payment:cash": "yes",
        "payment:credit_cards": "yes",
        "payment:debit_cards": "yes",
        "payment:upi": "yes",
        "smoking": "no",
        "source": "survey",
        "takeaway": "only",
        "website": "https://www.lassimagic.com/",
        "wheelchair": "no"
      }
    },
    {
      "type": "node",
      "id": 7178923565,
      "lat": 12.979456,
      "lon": 77.6952193,
      "tags": {
        "addr:floor": "1",
        "air_conditioning": "yes",
        "amenity": "restaurant",
        "bar": "yes",
        "check_date": "2024-09-20",
        "check_date:opening_hours": "2024-09-20",
        "diet:vegetarian": "yes",
        "email": "info@sdpgroup.in",
        "highchair": "yes",
        "indoor_seating": "yes",
        "name": "ISIRI Resto Bar",
        "opening_hours": "11:30-23:30",
        "operator": "SDP Group",
        "outdoor_seating": "no",
        "payment:cash": "yes",
        "payment:credit_cards": "yes",
        "payment:debit_cards": "yes",
        "payment:upi": "yes",
        "phone": "+91 88845 77123; +91 85500 00988",
        "reservation": "yes",
        "smoking": "isolated",
        "takeaway": "yes",
        "website": "http://www.isirirestobar.in/",
        "wheelchair": "no"
      }
    },
    {
      "type": "node",
      "id": 7180744030,
      "lat": 12.9859422,
      "lon": 77.6943962,
      "tags": {
        "amenity": "fast_food",
        "brand": "Domino's",
        "brand:ks": "ڈومینوز",
        "brand:pa": "ਡੋਮੀਨੋਜ਼",
        "brand:ur": "ڈومینوز",
        "brand:wikidata": "Q839466",
        "brand:wikipedia": "en:Domino's Pizza",
        "cuisine": "pizza",
        "name": "Domino's",
        "name:kn": "ಡಾಮಿನೋಸ್",
        "name:ks": "ڈومینوز",
        "name:pa": "ਡੋਮੀਨੋਜ਼",
        "name:ur": "ڈومینوز",
        "takeaway": "yes"
      }
    },
    {
      "type": "node",
      "id": 7180744031,
      "lat": 12.9859631,
      "lon": 77.6943305,
      "tags": {
        "amenity": "fast_food",
        "brand": "Subway",
        "brand:pa": "ਸਬਵੇਅ",
        "brand:ur": "سب وے",
        "brand:wikidata": "Q244457",
        "brand:wikipedia": "en:Subway (restaurant)",
        "cuisine": "sandwich",
        "name": "Subway",
        "name:pa": "ਸਬਵੇਅ",
        "name:ur": "سب وے",
        "takeaway": "yes"
      }
    },
    {
      "type": "node",
      "id": 7180744036,
      "lat": 12.9859657,
      "lon": 77.69436,
      "tags": {
        "amenity": "restaurant",
        "brand": "California Burrito",
        "brand:wikidata": "Q124374596",
        "cuisine": "mexican",
        "name": "California Burrito"
      }
    },
    {
      "type": "node",
      "id": 7572131814,
      "lat": 12.9807257,
      "lon": 77.6823734,
      "tags": {
        "addr:district": "Bengaluru Urban",
        "addr:full": "Nagappareddy Layout, Kaggadasapura, Bengaluru",
        "addr:postcode": "560093",
        "addr:state": "Karnataka",
        "amenity": "hospital",
        "name": "Little Flower Hospital",
        "source": "Local Knowledge"
      }
    },
    {
      "type": "node",
      "id": 9291015214,
      "lat": 12.9820309,
      "lon": 77.6927316,
      "tags": {
        "air_conditioning": "yes",
        "amenity": "restaurant",
        "check_date": "2025-06-13",
        "check_date:smoking": "2023-02-27",
        "cuisine": "indian;rajasthani",
        "diet:non-vegetarian": "yes",
        "diet:vegetarian": "yes",
        "indoor_seating": "yes",
        "level": "2",
        "name": "Chulha Chauki da Dhabha",
        "outdoor_seating": "no",
        "payment:credit_cards": "yes",
        "payment:debit_cards": "yes",
        "smoking": "no",
        "wheelchair": "no"
      }
    },
    {
      "type": "node",
      "id": 9291015215,
      "lat": 12.9820909,
      "lon": 77.6927764,
      "tags": {
        "brand": "cult.fit",
        "brand:wikidata": "Q121289250",
        "check_date": "2025-06-14",
        "cuisine": "international;indian",
        "diet:non-vegetarian": "yes",
        "diet:vegetarian": "yes",
        "leisure": "fitness_centre",
        "level": "3",
        "name": "cult.fit",
        "wheelchair": "no"
      }
    },
    {
      "type": "node",
      "id": 9332469957,
      "lat": 12.9733976,
      "lon": 77.6936603,
      "tags": {
        "amenity": "pharmacy",
        "brand": "MedPlus",
        "brand:wikidata": "Q65684234",
        "check_date": "2024-10-10",
        "dispensing": "yes",
        "drive_through": "no",
        "healthcare": "pharmacy",
        "name": "MedPlus",
        "name:en": "MedPlus",
        "payment:cash": "yes",
        "payment:credit_cards": "yes",
        "payment:debit_cards": "yes",
        "payment:upi": "yes",
        "source": "local knowledge",
        "wheelchair": "no"
      }
    },
    {
      "type": "node",
      "id": 9381352832,
      "lat": 12.9715277,
      "lon": 77.6943109,
      "tags": {
        "check_date": "2023-09-03",
        "level": "1",
        "name": "VS Tailoring & Boutique",
        "shop": "tailor"
      }
    },
    {
      "type": "node",
      "id": 9381352833,
      "lat": 12.9715076,
      "lon": 77.6943046,
      "tags": {
        "amenity": "internet_cafe",
        "name": "Balaji Super Xerox"
      }
    },
    {
      "type": "node",
      "id": 9381352846,
      "lat": 12.9712747,
      "lon": 77.6919326,
      "tags": {
        "name": "Deli day Mart",
        "shop": "supermarket",
        "wheelchair": "no"
      }
    },
    {
      "type": "node",
      "id": 9841349418,
      "lat": 12.9748408,
      "lon": 77.6972081,
      "tags": {
        "amenity": "restaurant",
        "check_date": "2025-03-10",
        "indoor_seating": "yes",
        "name": "Sri Udupi Park",
        "outdoor_seating": "no"
      }
    },
    {
      "type": "node",
      "id": 9893685125,
      "lat": 12.9785463,
      "lon": 77.6968116,
      "tags": {
        "addr:floor": "0",
        "check_date": "2024-07-17",
        "check_date:opening_hours": "2023-03-18",
        "internet_access": "no",
        "name": "Farm Fresh Supermarket",
        "opening_hours": "08:00-22:00",
        "organic": "yes",
        "payment:cash": "yes",
        "payment:credit_cards": "yes",
        "payment:debit_cards": "yes",
        "payment:upi": "yes",
        "shop": "supermarket",
        "wheelchair": "limited"
      }
    },
    {
      "type": "node",
      "id": 9893685126,
      "lat": 12.9782556,
      "lon": 77.6983672,
      "tags": {
        "air_conditioning": "no",
        "check_date": "2024-07-17",
        "internet_access": "no",
        "name": "Aleena Fruits and Vegetables Shop",
        "opening_hours": "09:00-14:00,16:00-22:00",
        "payment:credit_cards": "yes",
        "payment:debit_cards": "yes",
        "payment:mastercard": "yes",
        "payment:visa": "yes",
        "phone": "+918095381885",
        "second_hand": "no",
        "shop": "greengrocer",
        "source": "survey",
        "toilets": "no",
        "wheelchair": "limited"
      }
    },
    {
      "type": "node",
      "id": 9893685128,
      "lat": 12.9788547,
      "lon": 77.6961718,
      "tags": {
        "addr:street": "Ferns City Road",
        "air_conditioning": "no",
        "amenity": "fast_food",
        "check_date": "2024-10-20",
        "check_date:opening_hours": "2024-10-20",
        "diet:halal": "no",
        "diet:vegetarian": "yes",
        "drive_through": "no",
        "indoor_seating": "no",
        "name": "Naivedhya Tiffin's",
        "opening_hours:signed": "no",
        "outdoor_seating": "no",
        "payment:credit_cards": "no",
        "payment:debit_cards": "no",
        "phone": "+919538800200",
        "takeaway": "only",
        "wheelchair": "no"
      }
    },
    {
      "type": "node",
      "id": 9893685129,
      "lat": 12.9787033,
      "lon": 77.6964058,
      "tags": {
        "addr:street": "Ferns City Road",
        "air_conditioning": "no",
        "amenity": "restaurant",
        "indoor_seating": "yes",
        "name": "Namma Bengaluru Cafe",
        "outdoor_seating": "no"
      }
    },
    {
      "type": "node",
      "id": 9893685227,
      "lat": 12.9789715,
      "lon": 77.6957688,
      "tags": {
        "air_conditioning": "no",
        "amenity": "restaurant",
        "bar": "no",
        "check_date": "2024-07-17",
        "diet:halal": "yes",
        "diet:non-vegetarian": "yes",
        "diet:vegetarian": "yes",
        "indoor_seating": "yes",
        "name": "Abhiruchi Andhra Mess",
        "opening_hours": "Mo-Su 07:00-16:00,18:00-22:30",
        "outdoor_seating": "no",
        "payment:credit_cards": "yes",
        "payment:debit_cards": "yes",
        "smoking": "no",
        "takeaway": "yes",
        "wheelchair": "limited"
      }
    },
    {
      "type": "node",
      "id": 9893685228,
      "lat": 12.978938,
      "lon": 77.6958815,
      "tags": {
        "air_conditioning": "no",
        "amenity": "fast_food",
        "check_date": "2024-09-20",
        "check_date:opening_hours": "2024-09-20",
        "diet:vegetarian": "yes",
        "drive_through": "no",
        "indoor_seating": "yes",
        "internet_access": "no",
        "name": "Bangarpet Chats",
        "opening_hours": "Mo-Su 15:00-22:00",
        "outdoor_seating": "no",
        "payment:credit_cards": "no",
        "payment:debit_cards": "no",
        "phone": "+919964743789",
        "smoking": "no",
        "takeaway": "yes",
        "wheelchair": "limited"
      }
    },
    {
      "type": "node",
      "id": 9893685229,
      "lat": 12.9786817,
      "lon": 77.6964611,
      "tags": {
        "addr:housenumber": "41",
        "addr:street": "Ferns City Road",
        "check_date": "2024-07-17",
        "diet:halal": "yes",
        "internet_access": "no",
        "name": "Vikky’s Fresh",
        "opening_hours": "Tu-Su 08:30-19:30",
        "payment:cash": "yes",
        "payment:credit_cards": "yes",
        "payment:debit_cards": "yes",
        "payment:upi": "yes",
        "phone": "+91 99860 58417; +91 85999 88881",
        "shop": "butcher",
        "source": "survey",
        "website": "https://www.vikkysfresh.com",
        "wheelchair": "limited"
      }
    },
    {
      "type": "node",
      "id": 9893686518,
      "lat": 12.9790338,
      "lon": 77.6952923,
      "tags": {
        "addr:floor": "0",
        "air_conditioning": "no",
        "amenity": "fast_food",
        "check_date": "2024-07-17",
        "delivery": "yes",
        "diet:halal": "yes",
        "diet:vegetarian": "yes",
        "drive_through": "no",
        "highchair": "no",
        "indoor_seating": "yes",
        "internet_access": "no",
        "name": "The Shawarma Man",
        "opening_hours": "12:30-23:00",
        "outdoor_seating": "no",
        "payment:credit_cards": "no",
        "payment:debit_cards": "no",
        "phone": "+91 93530 83350",
        "smoking": "no",
        "source": "survey",
        "takeaway": "yes",
        "wheelchair": "limited"
      }
    },
    {
      "type": "node",
      "id": 9978419618,
      "lat": 12.9754863,
      "lon": 77.6967198,
      "tags": {
        "amenity": "pharmacy",
        "check_date": "2024-10-20",
        "healthcare": "pharmacy",
        "name": "A-Z Pharma",
        "wheelchair": "no"
      }
    },
    {
      "type": "node",
      "id": 10019847618,
      "lat": 12.9780136,
      "lon": 77.6987125,
      "tags": {
        "addr:street": "Ferns City Road",
        "air_conditioning": "yes",
        "check_date": "2024-10-20",
        "check_date:opening_hours": "2024-10-20",
        "internet_access": "no",
        "name": "Srinidhi Mart",
        "opening_hours": "Mo-Su 07:00-22:45",
        "organic": "yes",
        "payment:cash": "yes",
        "payment:credit_cards": "yes",
        "payment:debit_cards": "yes",
        "payment:upi": "yes",
        "phone": "+919513095454",
        "second_hand": "no",
        "shop": "convenience",
        "toilets": "no",
        "wheelchair": "yes"
      }
    },
    {
      "type": "node",
      "id": 10110415036,
      "lat": 12.9787081,
      "lon": 77.6963803,
      "tags": {
        "air_conditioning": "no",
        "check_date": "2024-12-23",
        "internet_access": "no",
        "male": "yes",
        "name": "Royal Mens Salon",
        "opening_hours": "Mo-Su 10:00-20:00",
        "payment:cash": "yes",
        "payment:credit_cards": "no",
        "payment:debit_cards": "no",
        "payment:upi": "yes",
        "shop": "hairdresser",
        "source": "survey",
        "wheelchair": "limited"
      }
    },
    {
      "type": "node",
      "id": 10542364542,
      "lat": 12.9756648,
      "lon": 77.697396,
      "tags": {
        "air_conditioning": "yes",
        "amenity": "fast_food",
        "brand": "McDonald's",
        "brand:wikidata": "Q38076",
        "check_date": "2024-04-03",
        "cuisine": "burger",
        "delivery": "yes",
        "diet:vegetarian": "yes",
        "drive_through": "no",
        "highchair": "yes",
        "indoor_seating": "yes",
        "name": "McDonald's",
        "opening_hours": "Mo-Su 11:00-23:00",
        "outdoor_seating": "no",
        "payment:mastercard": "yes",
        "payment:upi": "yes",
        "payment:visa": "yes",
        "phone": "+91 90476 13998",
        "smoking": "no",
        "source": "survey",
        "takeaway": "yes",
        "wheelchair": "limited"
      }
    },
    {
      "type": "node",
      "id": 10617518508,
      "lat": 12.9794409,
      "lon": 77.6952936,
      "tags": {
        "addr:floor": "5",
        "amenity": "pub",
        "check_date": "2023-08-15",
        "cuisine": "pizza;burger",
        "diet:non-vegetarian": "yes",
        "diet:vegetarian": "yes",
        "indoor_seating": "yes",
        "level": "5",
        "name": "Skyline Rooftop Bar & Kitchen",
        "outdoor_seating": "yes",
        "payment:cash": "yes",
        "payment:credit_cards": "yes",
        "payment:debit_cards": "yes",
        "payment:upi": "yes",
        "phone": "+91 85508 88988",
        "smoking": "isolated",
        "wheelchair": "no"
      }
    },
    {
      "type": "node",
      "id": 10617518509,
      "lat": 12.9791689,
      "lon": 77.6952525,
      "tags": {
        "air_conditioning": "yes",
        "amenity": "fast_food",
        "brand": "Domino's",
        "brand:wikidata": "Q839466",
        "check_date": "2025-08-13",
        "cuisine": "pizza",
        "delivery": "yes",
        "diet:halal": "yes",
        "diet:non-vegetarian": "yes",
        "diet:vegetarian": "yes",
        "drive_through": "no",
        "highchair": "yes",
        "indoor_seating": "yes",
        "internet_access": "no",
        "name": "Domino's",
        "outdoor_seating": "no",
        "payment:credit_cards": "yes",
        "payment:debit_cards": "yes",
        "smoking": "no",
        "source": "survey",
        "takeaway": "yes",
        "wheelchair": "no"
      }
    },
    {
      "type": "node",
      "id": 10617518510,
      "lat": 12.9789354,
      "lon": 77.6954036,
      "tags": {
        "addr:floor": "-1",
        "amenity": "pharmacy",
        "check_date": "2025-08-13",
        "dispensing": "no",
        "drive_through": "no",
        "healthcare": "pharmacy",
        "name": "Ganesh Medicals",
        "payment:cash": "yes",
        "payment:credit_cards": "yes",
        "payment:debit_cards": "yes",
        "payment:upi": "yes",
        "phone": "+91 95134 74684; +91 97420 83570",
        "source": "survey",
        "wheelchair": "no"
      }
    },
    {
      "type": "node",
      "id": 10738611866,
      "lat": 12.9814845,
      "lon": 77.6963328,
      "tags": {
        "amenity": "cafe",
        "brand": "Chaayos",
        "brand:wikidata": "Q117235235",
        "check_date": "2023-03-16",
        "cuisine": "tea",
        "name": "Chaayos",
        "takeaway": "yes"
      }
    },
    {
      "type": "node",
      "id": 10892622555,
      "lat": 12.9874353,
      "lon": 77.6894176,
      "tags": {
        "addr:city": "Bangalore",
        "addr:postcode": "560048",
        "level": "2",
        "name": "Lakme Salon",
        "operator": "Q6479731",
        "payment:cash": "yes",
        "payment:credit_cards": "yes",
        "payment:debit_cards": "yes",
        "payment:upi": "yes",
        "shop": "hairdresser"
      }
    },
    {
      "type": "node",
      "id": 10892672970,
      "lat": 12.9874393,
      "lon": 77.6893768,
      "tags": {
        "amenity": "clinic",
        "healthcare": "clinic",
        "name": "Apollo Clinic"
      }
    },
    {
      "type": "node",
      "id": 10992680247,
      "lat": 12.9714847,
      "lon": 77.6941294,
      "tags": {
        "check_date": "2023-09-03",
        "indoor_seating": "no",
        "name": "Anil Bakery & Sweets",
        "outdoor_seating": "no",
        "shop": "bakery",
        "takeaway": "only"
      }
    },
    {
      "type": "node",
      "id": 10992684349,
      "lat": 12.9712879,
      "lon": 77.6941564,
      "tags": {
        "amenity": "pharmacy",
        "check_date": "2023-09-03",
        "drive_through": "no",
        "name": "Shri Veer Teja Medical And General Store",
        "phone": "+91 73535 12470; +91 97720 07279",
        "source": "survey"
      }
    },
    {
      "type": "node",
      "id": 11014674468,
      "lat": 12.9857353,
      "lon": 77.6941481,
      "tags": {
        "amenity": "fast_food",
        "check_date": "2023-06-30",
        "cuisine": "pizza",
        "name": "Onesta",
        "source": "survey"
      }
    },
    {
      "type": "node",
      "id": 11014674469,
      "lat": 12.9856643,
      "lon": 77.692824,
      "tags": {
        "access": "yes",
        "fitness_station": "fitness_station",
        "leisure": "fitness_station",
        "sport": "fitness"
      }
    },
    {
      "type": "node",
      "id": 11014674470,
      "lat": 12.9858369,
      "lon": 77.6939845,
      "tags": {
        "amenity": "cafe",
        "bar": "no",
        "brand": "Chaayos",
        "brand:wikidata": "Q117235235",
        "check_date": "2023-06-30",
        "cuisine": "tea",
        "name": "Chaayos",
        "payment:mastercard": "yes",
        "payment:visa": "yes",
        "source": "survey",
        "takeaway": "yes",
        "toilets": "no"
      }
    },
    {
      "type": "node",
      "id": 11091793283,
      "lat": 12.9756215,
      "lon": 77.6974475,
      "tags": {
        "brand": "cult.fit",
        "brand:wikidata": "Q121289250",
        "check_date": "2025-08-16",
        "leisure": "fitness_centre",
        "level": "1",
        "name": "cult.fit",
        "opening_hours": "Mo-Su 06:00-22:00",
        "source": "survey",
        "wheelchair": "no"
      }
    },
    {
      "type": "node",
      "id": 11093820777,
      "lat": 12.9852347,
      "lon": 77.693492,
      "tags": {
        "amenity": "bench",
        "backrest": "yes",
        "material": "stone"
      }
    },
    {
      "type": "node",
      "id": 11093820791,
      "lat": 12.9852176,
      "lon": 77.6935246,
      "tags": {
        "amenity": "bench",
        "backrest": "yes",
        "material": "stone"
      }
    },
    {
      "type": "node",
      "id": 11093820792,
      "lat": 12.9864201,
      "lon": 77.691899,
      "tags": {
        "amenity": "bench",
        "backrest": "yes",
        "material": "stone"
      }
    },
    {
      "type": "node",
      "id": 11093820793,
      "lat": 12.9853149,
      "lon": 77.6933671,
      "tags": {
        "amenity": "bench",
        "backrest": "yes",
        "material": "stone"
      }
    },
    {
      "type": "node",
      "id": 11093820794,
      "lat": 12.9853365,
      "lon": 77.6933241,
      "tags": {
        "amenity": "bench",
        "backrest": "yes",
        "material": "stone"
      }
    },
    {
      "type": "node",
      "id": 11093820795,
      "lat": 12.9852551,
      "lon": 77.6934565,
      "tags": {
        "amenity": "bench",
        "backrest": "yes",
        "material": "stone"
      }
    },
    {
      "type": "node",
      "id": 11093820796,
      "lat": 12.9854461,
      "lon": 77.693154,
      "tags": {
        "amenity": "bench",
        "backrest": "yes",
        "material": "stone"
      }
    },
    {
      "type": "node",
      "id": 11093820797,
      "lat": 12.985543,
      "lon": 77.6930621,
      "tags": {
        "amenity": "bench",
        "backrest": "yes",
        "material": "stone"
      }
    },
    {
      "type": "node",
      "id": 11093820798,
      "lat": 12.9853665,
      "lon": 77.6932769,
      "tags": {
        "amenity": "bench",
        "backrest": "yes",
        "material": "stone"
      }
    },
    {
      "type": "node",
      "id": 11093820799,
      "lat": 12.9854106,
      "lon": 77.6932022,
      "tags": {
        "amenity": "bench",
        "backrest": "yes",
        "material": "stone"
      }
    },
    {
      "type": "node",
      "id": 11093820800,
      "lat": 12.9856178,
      "lon": 77.6930085,
      "tags": {
        "amenity": "bench",
        "backrest": "yes",
        "material": "stone"
      }
    },
    {
      "type": "node",
      "id": 11093820801,
      "lat": 12.9856871,
      "lon": 77.6929471,
      "tags": {
        "amenity": "bench",
        "backrest": "yes",
        "material": "stone"
      }
    },
    {
      "type": "node",
      "id": 11093820802,
      "lat": 12.9858388,
      "lon": 77.6928537,
      "tags": {
        "amenity": "bench",
        "backrest": "yes",
        "material": "stone"
      }
    },
    {
      "type": "node",
      "id": 11093820803,
      "lat": 12.9859281,
      "lon": 77.692779,
      "tags": {
        "amenity": "bench",
        "backrest": "yes",
        "material": "stone"
      }
    },
    {
      "type": "node",
      "id": 11093820804,
      "lat": 12.9859698,
      "lon": 77.6927518,
      "tags": {
        "amenity": "bench",
        "backrest": "yes",
        "material": "stone"
      }
    },
    {
      "type": "node",
      "id": 11093835305,
      "lat": 12.9860205,
      "lon": 77.6927066,
      "tags": {
        "amenity": "bench",
        "backrest": "yes",
        "material": "stone"
      }
    },
    {
      "type": "node",
      "id": 11093835306,
      "lat": 12.9863868,
      "lon": 77.691995,
      "tags": {
        "amenity": "bench",
        "backrest": "yes",
        "material": "stone"
      }
    },
    {
      "type": "node",
      "id": 11093835307,
      "lat": 12.9861428,
      "lon": 77.6924964,
      "tags": {
        "amenity": "bench",
        "backrest": "yes",
        "material": "stone"
      }
    },
    {
      "type": "node",
      "id": 11093835308,
      "lat": 12.9862352,
      "lon": 77.6922771,
      "tags": {
        "amenity": "bench",
        "backrest": "yes",
        "material": "stone"
      }
    },
    {
      "type": "node",
      "id": 11093835309,
      "lat": 12.9862889,
      "lon": 77.6921884,
      "tags": {
        "amenity": "bench",
        "backrest": "yes",
        "material": "stone"
      }
    },
    {
      "type": "node",
      "id": 11093835310,
      "lat": 12.9863308,
      "lon": 77.6921071,
      "tags": {
        "amenity": "bench",
        "backrest": "yes",
        "material": "stone"
      }
    },
    {
      "type": "node",
      "id": 11093835311,
      "lat": 12.9865123,
      "lon": 77.6916416,
      "tags": {
        "amenity": "bench",
        "backrest": "yes",
        "material": "stone"
      }
    },
    {
      "type": "node",
      "id": 11093835312,
      "lat": 12.986535,
      "lon": 77.691592,
      "tags": {
        "amenity": "bench",
        "backrest": "yes",
        "material": "stone"
      }
    },
    {
      "type": "node",
      "id": 11093835313,
      "lat": 12.9865571,
      "lon": 77.6915187,
      "tags": {
        "amenity": "bench",
        "backrest": "yes",
        "material": "stone"
      }
    },
    {
      "type": "node",
      "id": 11093835314,
      "lat": 12.9865794,
      "lon": 77.6910869,
      "tags": {
        "amenity": "bench",
        "backrest": "yes",
        "material": "stone"
      }
    },
    {
      "type": "node",
      "id": 11093835315,
      "lat": 12.9865402,
      "lon": 77.6908461,
      "tags": {
        "amenity": "bench",
        "backrest": "yes",
        "material": "stone"
      }
    },
    {
      "type": "node",
      "id": 11093835316,
      "lat": 12.9869155,
      "lon": 77.6906238,
      "tags": {
        "amenity": "bench",
        "backrest": "yes",
        "material": "stone"
      }
    },
    {
      "type": "node",
      "id": 11093835317,
      "lat": 12.9867857,
      "lon": 77.6905629,
      "tags": {
        "amenity": "bench",
        "backrest": "yes",
        "material": "stone"
      }
    },
    {
      "type": "node",
      "id": 11093835318,
      "lat": 12.9865752,
      "lon": 77.6912728,
      "tags": {
        "amenity": "bench",
        "backrest": "yes",
        "material": "stone"
      }
    },
    {
      "type": "node",
      "id": 11093835319,
      "lat": 12.9864656,
      "lon": 77.6917735,
      "tags": {
        "amenity": "bench",
        "backrest": "yes",
        "material": "stone"
      }
    },
    {
      "type": "node",
      "id": 11093835320,
      "lat": 12.986107,
      "lon": 77.6925669,
      "tags": {
        "amenity": "bench",
        "backrest": "yes",
        "material": "stone"
      }
    },
    {
      "type": "node",
      "id": 11116490519,
      "lat": 12.9744148,
      "lon": 77.6973898,
      "tags": {
        "air_conditioning": "yes",
        "amenity": "restaurant",
        "check_date": "2023-08-15",
        "cuisine": "mediterranean",
        "email": "bm.bng1@flechazo.in",
        "indoor_seating": "yes",
        "level": "2",
        "name": "Flechazo",
        "outdoor_seating": "no",
        "payment:mastercard": "yes",
        "payment:visa": "yes",
        "phone": "+91 89512 64441",
        "website": "https://www.flechazo.in"
      }
    },
    {
      "type": "node",
      "id": 11116490520,
      "lat": 12.9775032,
      "lon": 77.6967106,
      "tags": {
        "amenity": "car_wash",
        "check_date": "2023-08-15",
        "name": "Car Armour",
        "opening_hours": "08:30-21:30",
        "phone": "+91 89714 26809; +91 96638 48547",
        "self_service": "no"
      }
    },
    {
      "type": "node",
      "id": 11116490521,
      "lat": 12.9774464,
      "lon": 77.6965554,
      "tags": {
        "air_conditioning": "no",
        "amenity": "restaurant",
        "check_date": "2023-08-15",
        "indoor_seating": "yes",
        "name": "Gowdru Rajanna Hotel",
        "outdoor_seating": "no"
      }
    },
    {
      "type": "node",
      "id": 11116490524,
      "lat": 12.9792304,
      "lon": 77.6952189,
      "tags": {
        "addr:floor": "0",
        "amenity": "atm",
        "brand": "IDBI Bank",
        "brand:wikidata": "Q3633485",
        "cash_in": "no",
        "check_date": "2025-09-03",
        "covered": "yes",
        "drive_through": "no",
        "indoor": "no",
        "lit": "yes",
        "opening_hours": "24/7",
        "operator": "IDBI Bank",
        "operator:wikidata": "Q3633485",
        "short_name": "IDBI",
        "source": "survey",
        "wheelchair": "no"
      }
    },
    {
      "type": "node",
      "id": 11164759627,
      "lat": 12.9717447,
      "lon": 77.6941287,
      "tags": {
        "amenity": "place_of_worship",
        "check_date": "2023-09-03",
        "name": "Sri Vinayaka Sri Basavanna devalaya Sri Subramanyam",
        "religion": "hindu"
      }
    },
    {
      "type": "node",
      "id": 11164759628,
      "lat": 12.9714531,
      "lon": 77.6942959,
      "tags": {
        "addr:housenumber": "8",
        "addr:street": "Doddanekkundi Main Road",
        "addr:unit": "Munireddy Building",
        "air_conditioning": "no",
        "check_date": "2023-09-03",
        "email": "nanireddy9019@gmail.com",
        "internet_access": "no",
        "level": "1",
        "name": "Sri Balaji Photostudio & Video",
        "payment:cards": "no",
        "payment:cash": "yes",
        "payment:credit_cards": "no",
        "payment:debit_cards": "no",
        "phone": "+91 90190 60999; +91 99015 15358",
        "shop": "photo",
        "source": "survey",
        "stroller": "no",
        "toilets": "no",
        "wheelchair": "no"
      }
    },
    {
      "type": "node",
      "id": 11342658514,
      "lat": 12.9786336,
      "lon": 77.6965846,
      "tags": {
        "addr:housenumber": "41",
        "addr:street": "Ferns City Road",
        "air_conditioning": "no",
        "check_date": "2024-11-09",
        "check_date:opening_hours": "2024-11-09",
        "internet_access": "no",
        "name": "A1 Dry Cleaners",
        "opening_hours:signed": "no",
        "payment:credit_cards": "no",
        "payment:debit_cards": "no",
        "phone": "+91 72046 99906",
        "shop": "dry_cleaning",
        "source": "survey",
        "wheelchair": "yes"
      }
    },
    {
      "type": "node",
      "id": 11472780668,
      "lat": 12.9736587,
      "lon": 77.6935433,
      "tags": {
        "amenity": "post_office",
        "brand": "Desk to Desk Courier & Cargo",
        "brand:short": "DTDC",
        "brand:wikidata": "Q55608802",
        "check_date": "2023-12-27",
        "operator": "Desk to Desk Courier & Cargo",
        "operator:short": "DTDC",
        "operator:wikidata": "Q55608802",
        "payment:cards": "no",
        "payment:cash": "yes",
        "payment:credit_cards": "no",
        "payment:debit_cards": "no",
        "source": "survey"
      }
    },
    {
      "type": "node",
      "id": 11507591777,
      "lat": 12.9827775,
      "lon": 77.6944674,
      "tags": {
        "access": "private",
        "amenity": "parking_entrance",
        "parking": "underground"
      }
    },
    {
      "type": "node",
      "id": 11509027861,
      "lat": 12.9750751,
      "lon": 77.6987885,
      "tags": {
        "access": "private",
        "amenity": "parking_entrance",
        "parking": "underground"
      }
    },
    {
      "type": "node",
      "id": 11509027862,
      "lat": 12.9750273,
      "lon": 77.6987639,
      "tags": {
        "access": "private",
        "amenity": "parking_entrance",
        "parking": "underground"
      }
    },
    {
      "type": "node",
      "id": 11999555405,
      "lat": 12.9829965,
      "lon": 77.692858,
      "tags": {
        "access": "yes",
        "amenity": "bicycle_parking",
        "bicycle_parking": "stands",
        "capacity": "4",
        "covered": "no",
        "fee": "no",
        "operator:type": "public"
      }
    },
    {
      "type": "node",
      "id": 12046469616,
      "lat": 12.9775379,
      "lon": 77.6968009,
      "tags": {
        "addr:housenumber": "24/4",
        "addr:street": "Ferns City Road",
        "air_conditioning": "no",
        "amenity": "restaurant",
        "bar": "no",
        "check_date": "2024-07-10",
        "diet:vegetarian": "yes",
        "highchair": "no",
        "indoor_seating": "yes",
        "name": "The Secret Garden",
        "outdoor_seating": "yes",
        "payment:cash": "yes",
        "payment:credit_cards": "yes",
        "payment:debit_cards": "yes",
        "source": "survey",
        "takeaway": "yes",
        "toilets": "yes",
        "wheelchair": "limited"
      }
    },
    {
      "type": "node",
      "id": 12176946582,
      "lat": 12.9754341,
      "lon": 77.696718,
      "tags": {
        "addr:floor": "1",
        "amenity": "clinic",
        "level": "1",
        "name": "Partha Dental Clinic"
      }
    },
    {
      "type": "node",
      "id": 12181461728,
      "lat": 12.9808974,
      "lon": 77.6967931,
      "tags": {
        "addr:city": "Bengaluru",
        "addr:country": "IN",
        "addr:hamlet": "Doddanekundi",
        "addr:postcode": "560048",
        "addr:suburb": "Mahadevapura",
        "amenity": "pub",
        "dog": "leashed",
        "email": "toitblr@toit.in",
        "int_name": "Toit ORR East",
        "microbrewery": "yes",
        "name": "Toit ORR East",
        "operator": "Toit.",
        "payment:cash": "yes",
        "payment:mastercard": "yes",
        "payment:visa": "yes",
        "pets": "yes",
        "smoking": "isolated",
        "website": "https://toit.in/",
        "wheelchair": "limited"
      }
    },
    {
      "type": "node",
      "id": 12254670079,
      "lat": 12.9791025,
      "lon": 77.6948663,
      "tags": {
        "amenity": "toilets",
        "fee": "yes",
        "wheelchair": "no"
      }
    },
    {
      "type": "node",
      "id": 12318692112,
      "lat": 12.9721343,
      "lon": 77.6950757,
      "tags": {
        "brand": "Ration Shop",
        "brand:wikidata": "Q60901",
        "check_date": "2024-10-27",
        "name": "Ration Shop",
        "name:en": "Ration shop",
        "operator": "Public Distribution System",
        "operator:type": "public",
        "operator:wikidata": "Q60901",
        "shop": "convenience"
      }
    },
    {
      "type": "node",
      "id": 13157950901,
      "lat": 12.9794855,
      "lon": 77.6950527,
      "tags": {
        "addr:floor": "0",
        "air_conditioning": "yes",
        "check_date": "2024-08-03",
        "name": "Cake Dilim",
        "opening_hours": "Mo-Su 10:00-22:00",
        "payment:cash": "yes",
        "payment:credit_cards": "no",
        "payment:debit_cards": "no",
        "payment:mastercard": "yes",
        "payment:upi": "yes",
        "payment:visa": "yes",
        "phone": "+919731455165",
        "shop": "pastry",
        "website": "http://www.cakedilim.com/",
        "wheelchair": "no"
      }
    },
    {
      "type": "node",
      "id": 13173192553,
      "lat": 12.9801139,
      "lon": 77.6927188,
      "tags": {
        "access": "private",
        "amenity": "parking_entrance",
        "parking": "underground"
      }
    },
    {
      "type": "node",
      "id": 13173192556,
      "lat": 12.9807909,
      "lon": 77.6925344,
      "tags": {
        "access": "private",
        "amenity": "parking_entrance",
        "parking": "underground"
      }
    },
    {
      "type": "node",
      "id": 13173192597,
      "lat": 12.9793945,
      "lon": 77.6911853,
      "tags": {
        "access": "private",
        "amenity": "parking_entrance",
        "parking": "underground"
      }
    },
    {
      "type": "node",
      "id": 13173192602,
      "lat": 12.9799564,
      "lon": 77.6923124,
      "tags": {
        "access": "private",
        "amenity": "parking_entrance",
        "parking": "underground"
      }
    },
    {
      "type": "way",
      "id": 159845124,
      "center": {
        "lat": 12.983472,
        "lon": 77.6997518
      },
      "tags": {
        "amenity": "animal_shelter",
        "name": "Goshala - Veterinary Center for Cattle",
        "name:kn": "ಗೋಶಾಲ"
      }
    },
    {
      "type": "way",
      "id": 218907543,
      "center": {
        "lat": 12.9778029,
        "lon": 77.6934487
      },
      "tags": {
        "building": "yes",
        "name": "Sejal Motors",
        "shop": "car_repair"
      }
    },
    {
      "type": "way",
      "id": 346495746,
      "center": {
        "lat": 12.9712692,
        "lon": 77.6893643
      },
      "tags": {
        "addr:postcode": "560037",
        "building": "yes",
        "shop": "bakery"
      }
    },
    {
      "type": "way",
      "id": 346722362,
      "center": {
        "lat": 12.9718004,
        "lon": 77.6937713
      },
      "tags": {
        "addr:district": "Bangalore",
        "addr:full": "Vibhutipura Extension, Doddanekundi",
        "addr:postcode": "560037",
        "addr:state": "Karnataka",
        "addr:subdistrict": "Bangalore East",
        "amenity": "hospital",
        "building": "yes",
        "building:levels": "1",
        "check_date": "2024-04-01",
        "healthcare": "hospital",
        "name": "Government Primary Health Centre",
        "name:kn": "ಸರ್ಕಾರಿ ಪ್ರಾಥಮಿಕ ಆರೋಗ್ಯ ಕೇಂದ್ರ",
        "source": "OpenGovernmentData"
      }
    },
    {
      "type": "way",
      "id": 346722725,
      "center": {
        "lat": 12.9719191,
        "lon": 77.6935653
      },
      "tags": {
        "addr:postcode": "560037",
        "amenity": "place_of_worship",
        "building": "temple",
        "name": "Shri Kodandarama Swamy Temple",
        "name:kn": "ಶ್ರೀ ಕೋದಂಡರಾಮ ಸ್ವಾಮಿ ದೇವಸ್ಥಾನ",
        "religion": "hindu",
        "wheelchair": "no"
      }
    },
    {
      "type": "way",
      "id": 347017336,
      "center": {
        "lat": 12.9740919,
        "lon": 77.6840408
      },
      "tags": {
        "amenity": "school",
        "landuse": "education",
        "name": "Shri Shri Ravishankar Vidya Mandir"
      }
    },
    {
      "type": "way",
      "id": 347206941,
      "center": {
        "lat": 12.9765722,
        "lon": 77.6931115
      },
      "tags": {
        "amenity": "college",
        "name": "Bangalore Management Academy"
      }
    },
    {
      "type": "way",
      "id": 350158337,
      "center": {
        "lat": 12.9776301,
        "lon": 77.69794
      },
      "tags": {
        "access": "private",
        "leisure": "swimming_pool",
        "survey:date": "2022-06-19"
      }
    },
    {
      "type": "way",
      "id": 350158338,
      "center": {
        "lat": 12.9796639,
        "lon": 77.6992269
      },
      "tags": {
        "access": "private",
        "leisure": "swimming_pool"
      }
    },
    {
      "type": "way",
      "id": 350158339,
      "center": {
        "lat": 12.9792874,
        "lon": 77.6892526
      },
      "tags": {
        "access": "private",
        "leisure": "swimming_pool"
      }
    },
    {
      "type": "way",
      "id": 350158340,
      "center": {
        "lat": 12.9781798,
        "lon": 77.6925114
      },
      "tags": {
        "access": "private",
        "leisure": "swimming_pool",
        "survey:date": "2022-06-13"
      }
    },
    {
      "type": "way",
      "id": 350158341,
      "center": {
        "lat": 12.9776769,
        "lon": 77.6978052
      },
      "tags": {
        "access": "private",
        "leisure": "swimming_pool",
        "survey:date": "2022-06-19"
      }
    },
    {
      "type": "way",
      "id": 350158342,
      "center": {
        "lat": 12.9794162,
        "lon": 77.691649
      },
      "tags": {
        "leisure": "swimming_pool"
      }
    },
    {
      "type": "way",
      "id": 350158343,
      "center": {
        "lat": 12.9784984,
        "lon": 77.6985097
      },
      "tags": {
        "access": "private",
        "leisure": "swimming_pool",
        "survey:date": "2022-06-13",
        "swimming_pool": "outdoor"
      }
    },
    {
      "type": "way",
      "id": 350158346,
      "center": {
        "lat": 12.9795674,
        "lon": 77.6992815
      },
      "tags": {
        "access": "private",
        "leisure": "swimming_pool"
      }
    },
    {
      "type": "way",
      "id": 362927674,
      "center": {
        "lat": 12.9760106,
        "lon": 77.6840346
      },
      "tags": {
        "leisure": "park",
        "name": "Virla Children's Park"
      }
    },
    {
      "type": "way",
      "id": 472634019,
      "center": {
        "lat": 12.9814792,
        "lon": 77.6967005
      },
      "tags": {
        "amenity": "cafe",
        "building": "yes",
        "name": "Cafeteria"
      }
    },
    {
      "type": "way",
      "id": 632111019,
      "center": {
        "lat": 12.9753078,
        "lon": 77.697834
      },
      "tags": {
        "amenity": "hospital",
        "check_date": "2025-08-16",
        "emergency": "yes",
        "healthcare": "hospital",
        "name": "Rainbow Children's Hospital",
        "operator:type": "private",
        "payment:mastercard": "yes",
        "payment:visa": "yes",
        "wheelchair": "yes"
      }
    },
    {
      "type": "way",
      "id": 639390620,
      "center": {
        "lat": 12.9870887,
        "lon": 77.690427
      },
      "tags": {
        "amenity": "fuel",
        "brand": "Indian Oil",
        "brand:wikidata": "Q1289348",
        "brand:wikipedia": "en:Indian Oil Corporation",
        "compressed_air": "yes",
        "fuel:diesel": "yes",
        "fuel:petrol": "yes",
        "name": "Sai Krishna Service Station",
        "survey:date": "2022-06-13"
      }
    },
    {
      "type": "way",
      "id": 732010491,
      "center": {
        "lat": 12.9841278,
        "lon": 77.6951797
      },
      "tags": {
        "access": "permissive",
        "amenity": "parking",
        "parking": "surface"
      }
    },
    {
      "type": "way",
      "id": 765250686,
      "center": {
        "lat": 12.9744782,
        "lon": 77.6922675
      },
      "tags": {
        "leisure": "sports_centre",
        "name": "Lake View Sports Arena"
      }
    },
    {
      "type": "way",
      "id": 765250687,
      "center": {
        "lat": 12.9747285,
        "lon": 77.6924446
      },
      "tags": {
        "leisure": "pitch",
        "lit": "yes",
        "name": "Lake View Sports Arena Soccer Field",
        "sport": "soccer",
        "surface": "artificial_turf"
      }
    },
    {
      "type": "way",
      "id": 765250688,
      "center": {
        "lat": 12.9741963,
        "lon": 77.6922527
      },
      "tags": {
        "leisure": "pitch",
        "lit": "yes",
        "name": "Lake View Sports Arena Tennis Court",
        "sport": "tennis",
        "surface": "ground"
      }
    },
    {
      "type": "way",
      "id": 765250689,
      "center": {
        "lat": 12.9744741,
        "lon": 77.6923104
      },
      "tags": {
        "leisure": "pitch",
        "lit": "yes",
        "name": "Lake View Sports Arena Badminton Court",
        "sport": "badminton"
      }
    },
    {
      "type": "way",
      "id": 765250690,
      "center": {
        "lat": 12.9747242,
        "lon": 77.6919844
      },
      "tags": {
        "amenity": "toilets",
        "building": "commercial"
      }
    },
    {
      "type": "way",
      "id": 765250691,
      "center": {
        "lat": 12.9743576,
        "lon": 77.6919269
      },
      "tags": {
        "access": "customers",
        "amenity": "parking",
        "capacity:disabled": "0",
        "fee": "no",
        "operator": "Lake View Sports Arena",
        "operator:type": "business",
        "parking": "surface",
        "surface": "unpaved"
      }
    },
    {
      "type": "way",
      "id": 769233910,
      "center": {
        "lat": 12.986003,
        "lon": 77.6942075
      },
      "tags": {
        "amenity": "food_court",
        "building": "yes",
        "name": "Bagmane Onyx"
      }
    },
    {
      "type": "way",
      "id": 769233911,
      "center": {
        "lat": 12.9856618,
        "lon": 77.6943721
      },
      "tags": {
        "building": "yes",
        "shop": "pastry"
      }
    },
    {
      "type": "way",
      "id": 810223895,
      "center": {
        "lat": 12.9717218,
        "lon": 77.6965573
      },
      "tags": {
        "branch": "Service Center",
        "brand": "KTM",
        "brand:wikidata": "Q215657",
        "brand:wikipedia": "en:KTM",
        "building": "yes",
        "name": "KTM",
        "operator": "Khivraj Motors",
        "shop": "motorcycle_repair"
      }
    },
    {
      "type": "way",
      "id": 810223896,
      "center": {
        "lat": 12.9717235,
        "lon": 77.6966498
      },
      "tags": {
        "building": "yes",
        "name": "Bajaj Service Center",
        "operator": "Khivraj Motors",
        "shop": "motorcycle_repair",
        "wikidata": "Q10910065",
        "wikipedia": "en:Bajaj Auto"
      }
    },
    {
      "type": "way",
      "id": 1007105414,
      "center": {
        "lat": 12.971842,
        "lon": 77.6967963
      },
      "tags": {
        "building": "yes",
        "clothes": "wedding;women",
        "name": "House of Shylee",
        "shop": "clothes"
      }
    },
    {
      "type": "way",
      "id": 1065104449,
      "center": {
        "lat": 12.9862612,
        "lon": 77.6954352
      },
      "tags": {
        "leisure": "sports_centre"
      }
    },
    {
      "type": "way",
      "id": 1065104457,
      "center": {
        "lat": 12.9841773,
        "lon": 77.6941386
      },
      "tags": {
        "amenity": "kindergarten",
        "building": "yes",
        "name": "KLAY Preschool and Day Care Bagmane WTC",
        "operator": "KLAY"
      }
    },
    {
      "type": "way",
      "id": 1065104458,
      "center": {
        "lat": 12.9836113,
        "lon": 77.693066
      },
      "tags": {
        "access": "permissive",
        "amenity": "parking",
        "operator": "Bagmane Group",
        "parking": "surface"
      }
    },
    {
      "type": "way",
      "id": 1065104464,
      "center": {
        "lat": 12.9856369,
        "lon": 77.6921476
      },
      "tags": {
        "leisure": "garden"
      }
    },
    {
      "type": "way",
      "id": 1065147870,
      "center": {
        "lat": 12.980451,
        "lon": 77.6966173
      },
      "tags": {
        "leisure": "park"
      }
    },
    {
      "type": "way",
      "id": 1065147876,
      "center": {
        "lat": 12.9810253,
        "lon": 77.6963863
      },
      "tags": {
        "access": "private",
        "leisure": "swimming_pool",
        "location": "outdoor"
      }
    },
    {
      "type": "way",
      "id": 1065147883,
      "center": {
        "lat": 12.9809686,
        "lon": 77.6977913
      },
      "tags": {
        "garden:type": "landscaping",
        "leisure": "garden"
      }
    },
    {
      "type": "way",
      "id": 1070002219,
      "center": {
        "lat": 12.9752275,
        "lon": 77.6969472
      },
      "tags": {
        "amenity": "fuel",
        "brand": "Hindustan Petroleum",
        "brand:wikidata": "Q1619375",
        "compressed_air": "yes",
        "fuel:diesel": "yes",
        "name": "HP",
        "name:kn": "ಹಿಂದುಸ್ತಾನ್ ಪೆಟ್ರೋಲಿಯಂ",
        "official_name": "Hindustan Petroleum",
        "operator": "Hindustan Petroleum"
      }
    },
    {
      "type": "way",
      "id": 1094660578,
      "center": {
        "lat": 12.9776308,
        "lon": 77.6973131
      },
      "tags": {
        "access": "private",
        "leisure": "swimming_pool"
      }
    },
    {
      "type": "way",
      "id": 1172346606,
      "center": {
        "lat": 12.9872766,
        "lon": 77.6895525
      },
      "tags": {
        "addr:city": "Bengaluru",
        "addr:housenumber": "4,3",
        "addr:postcode": "560016",
        "addr:street": "Outer Ring Rd, Venkateshwara Layout, Mahadevapura",
        "alt_name": "Honda service center",
        "branch": "BigWing",
        "brand": "Honda",
        "brand:wikidata": "Q9584",
        "building": "yes",
        "motorcycle:electrical": "yes",
        "motorcycle:repair": "yes",
        "motorcycle:sales": "yes",
        "motorcycle:tyres": "yes",
        "name": "Honda BigWing",
        "name:kn": "ಹೊಂಡ",
        "operator": "VFM Honda",
        "service:vehicle:oil_change": "yes",
        "shop": "motorcycle_repair"
      }
    },
    {
      "type": "way",
      "id": 1193332364,
      "center": {
        "lat": 12.9784405,
        "lon": 77.6984444
      },
      "tags": {
        "access": "private",
        "leisure": "swimming_pool",
        "survey:date": "2022-06-13",
        "swimming_pool": "outdoor"
      }
    },
    {
      "type": "way",
      "id": 1193332365,
      "center": {
        "lat": 12.9784974,
        "lon": 77.6957085
      },
      "tags": {
        "amenity": "place_of_worship",
        "check_date": "2024-09-29",
        "name": "Shri Maramma Devi Temple",
        "name:kn": "ಮಾರಮ್ಮ ದೇವಿ",
        "religion": "hindu",
        "wheelchair": "yes"
      }
    },
    {
      "type": "way",
      "id": 1193332408,
      "center": {
        "lat": 12.9717286,
        "lon": 77.6890328
      },
      "tags": {
        "leisure": "swimming_pool"
      }
    },
    {
      "type": "way",
      "id": 1193332434,
      "center": {
        "lat": 12.9773237,
        "lon": 77.6967541
      },
      "tags": {
        "amenity": "restaurant",
        "indoor_seating": "yes",
        "name": "Le Jardin",
        "outdoor_seating": "yes"
      }
    },
    {
      "type": "way",
      "id": 1220059062,
      "center": {
        "lat": 12.9824636,
        "lon": 77.6923726
      },
      "tags": {
        "leisure": "park"
      }
    },
    {
      "type": "way",
      "id": 1225130420,
      "center": {
        "lat": 12.9736427,
        "lon": 77.6859585
      },
      "tags": {
        "access": "private",
        "leisure": "swimming_pool"
      }
    },
    {
      "type": "way",
      "id": 1225132353,
      "center": {
        "lat": 12.9794972,
        "lon": 77.6829234
      },
      "tags": {
        "amenity": "crematorium",
        "landuse": "cemetery"
      }
    },
    {
      "type": "way",
      "id": 1238901223,
      "center": {
        "lat": 12.9764179,
        "lon": 77.6989005
      },
      "tags": {
        "access": "private",
        "leisure": "pitch",
        "sport": "tennis"
      }
    },
    {
      "type": "way",
      "id": 1238901224,
      "center": {
        "lat": 12.9765106,
        "lon": 77.698815
      },
      "tags": {
        "access": "private",
        "amenity": "parking",
        "parking": "street_side"
      }
    },
    {
      "type": "way",
      "id": 1238901225,
      "center": {
        "lat": 12.9773128,
        "lon": 77.6979211
      },
      "tags": {
        "access": "private",
        "leisure": "pitch",
        "sport": "tennis"
      }
    },
    {
      "type": "way",
      "id": 1238901232,
      "center": {
        "lat": 12.9755181,
        "lon": 77.6987846
      },
      "tags": {
        "access": "private",
        "amenity": "parking",
        "parking": "street_side"
      }
    },
    {
      "type": "way",
      "id": 1238901236,
      "center": {
        "lat": 12.9742403,
        "lon": 77.6976295
      },
      "tags": {
        "amenity": "parking",
        "parking": "surface"
      }
    },
    {
      "type": "way",
      "id": 1267711095,
      "center": {
        "lat": 12.9871976,
        "lon": 77.6868809
      },
      "tags": {
        "amenity": "parking",
        "parking": "surface"
      }
    },
    {
      "type": "way",
      "id": 1268945173,
      "center": {
        "lat": 12.9857913,
        "lon": 77.6911312
      },
      "tags": {
        "access": "permissive",
        "amenity": "parking",
        "operator": "Bagmane Group",
        "parking": "surface"
      }
    },
    {
      "type": "way",
      "id": 1268945174,
      "center": {
        "lat": 12.9842972,
        "lon": 77.6920928
      },
      "tags": {
        "access": "permissive",
        "amenity": "parking",
        "operator": "Bagmane Group",
        "parking": "surface"
      }
    },
    {
      "type": "way",
      "id": 1268945188,
      "center": {
        "lat": 12.9847611,
        "lon": 77.6968167
      },
      "tags": {
        "leisure": "park"
      }
    },
    {
      "type": "way",
      "id": 1268945193,
      "center": {
        "lat": 12.9859023,
        "lon": 77.6937977
      },
      "tags": {
        "amenity": "theatre",
        "theatre:type": "amphi"
      }
    },
    {
      "type": "way",
      "id": 1296042957,
      "center": {
        "lat": 12.9850166,
        "lon": 77.6962353
      },
      "tags": {
        "access": "permissive",
        "amenity": "parking",
        "parking": "surface"
      }
    },
    {
      "type": "way",
      "id": 1296042958,
      "center": {
        "lat": 12.9847484,
        "lon": 77.6967613
      },
      "tags": {
        "alt_name": "Kewal Aradhna Sthal, Goushala",
        "amenity": "place_of_worship",
        "building": "yes",
        "name": "Bangalore Gaurakshana Shala",
        "religion": "jain"
      }
    },
    {
      "type": "way",
      "id": 1299038391,
      "center": {
        "lat": 12.9812208,
        "lon": 77.6859362
      },
      "tags": {
        "amenity": "school",
        "name": "Geetanjali Vidyalaya",
        "name:kn": "ಗೀತಾಂಜಲಿ ವಿದ್ಯಾಲಯ"
      }
    },
    {
      "type": "way",
      "id": 1299038400,
      "center": {
        "lat": 12.9760856,
        "lon": 77.6948479
      },
      "tags": {
        "check_date": "2023-08-15",
        "fee": "yes",
        "leisure": "sports_centre",
        "name": "DJ Sports Arena",
        "operator:type": "private",
        "source": "survey"
      }
    },
    {
      "type": "way",
      "id": 1303738151,
      "center": {
        "lat": 12.9813649,
        "lon": 77.6929909
      },
      "tags": {
        "access": "private",
        "leisure": "pitch",
        "sport": "soccer"
      }
    },
    {
      "type": "way",
      "id": 1304298505,
      "center": {
        "lat": 12.9817921,
        "lon": 77.6910024
      },
      "tags": {
        "access": "permissive",
        "amenity": "parking",
        "parking": "surface"
      }
    },
    {
      "type": "way",
      "id": 1304298506,
      "center": {
        "lat": 12.9819648,
        "lon": 77.6918557
      },
      "tags": {
        "access": "permissive",
        "amenity": "parking",
        "parking": "surface"
      }
    },
    {
      "type": "way",
      "id": 1304298507,
      "center": {
        "lat": 12.9839714,
        "lon": 77.6915087
      },
      "tags": {
        "access": "permissive",
        "amenity": "parking",
        "parking": "surface"
      }
    },
    {
      "type": "way",
      "id": 1305864569,
      "center": {
        "lat": 12.9706921,
        "lon": 77.6927459
      },
      "tags": {
        "leisure": "pitch",
        "sport": "volleyball"
      }
    },
    {
      "type": "way",
      "id": 1309999990,
      "center": {
        "lat": 12.9794466,
        "lon": 77.69214
      },
      "tags": {
        "leisure": "park"
      }
    },
    {
      "type": "way",
      "id": 1309999991,
      "center": {
        "lat": 12.9794717,
        "lon": 77.6908786
      },
      "tags": {
        "access": "private",
        "amenity": "parking",
        "parking": "street_side"
      }
    },
    {
      "type": "way",
      "id": 1309999992,
      "center": {
        "lat": 12.9793042,
        "lon": 77.6924561
      },
      "tags": {
        "access": "private",
        "amenity": "parking",
        "parking": "street_side"
      }
    },
    {
      "type": "way",
      "id": 1316075254,
      "center": {
        "lat": 12.9817423,
        "lon": 77.698791
      },
      "tags": {
        "access": "private",
        "amenity": "parking",
        "parking": "street_side"
      }
    },
    {
      "type": "way",
      "id": 1328129625,
      "center": {
        "lat": 12.9806537,
        "lon": 77.6993502
      },
      "tags": {
        "garden:type": "landscaping",
        "leisure": "garden"
      }
    },
    {
      "type": "way",
      "id": 1328129627,
      "center": {
        "lat": 12.9799555,
        "lon": 77.698443
      },
      "tags": {
        "garden:type": "landscaping",
        "leisure": "garden"
      }
    },
    {
      "type": "way",
      "id": 1328129628,
      "center": {
        "lat": 12.9809488,
        "lon": 77.6966483
      },
      "tags": {
        "garden:type": "landscaping",
        "leisure": "garden"
      }
    },
    {
      "type": "way",
      "id": 1328129629,
      "center": {
        "lat": 12.9815834,
        "lon": 77.6954201
      },
      "tags": {
        "access": "permissive",
        "amenity": "parking",
        "parking": "surface"
      }
    },
    {
      "type": "way",
      "id": 1433298935,
      "center": {
        "lat": 12.9778875,
        "lon": 77.6913969
      },
      "tags": {
        "access": "private",
        "leisure": "swimming_pool"
      }
    },
    {
      "type": "way",
      "id": 1433298943,
      "center": {
        "lat": 12.9779931,
        "lon": 77.6920184
      },
      "tags": {
        "access": "private",
        "leisure": "pitch",
        "sport": "basketball"
      }
    },
    {
      "type": "way",
      "id": 1433298944,
      "center": {
        "lat": 12.9783689,
        "lon": 77.6920382
      },
      "tags": {
        "access": "private",
        "leisure": "pitch",
        "sport": "cricket_nets"
      }
    },
    {
      "type": "way",
      "id": 1433298945,
      "center": {
        "lat": 12.9780527,
        "lon": 77.691957
      },
      "tags": {
        "amenity": "school",
        "check_date": "2025-03-08",
        "email": "support.vi15134@vgos.org",
        "landuse": "education",
        "name": "VIBGYOR Roots and Rise School",
        "phone": "+91 80 4934 2000; +91 96866 91166",
        "source": "survey",
        "website": "https://www.vibgyorrise.com/school/doddanekkundi-cbse"
      }
    },
    {
      "type": "way",
      "id": 1433298946,
      "center": {
        "lat": 12.9781975,
        "lon": 77.6933733
      },
      "tags": {
        "access": "private",
        "leisure": "swimming_pool"
      }
    },
    {
      "type": "way",
      "id": 1433298947,
      "center": {
        "lat": 12.9791476,
        "lon": 77.6930148
      },
      "tags": {
        "access": "private",
        "leisure": "pitch",
        "sport": "basketball"
      }
    },
    {
      "type": "way",
      "id": 1433298948,
      "center": {
        "lat": 12.9810047,
        "lon": 77.6920648
      },
      "tags": {
        "access": "private",
        "leisure": "pitch",
        "sport": "cricket_nets"
      }
    },
    {
      "type": "way",
      "id": 1433298949,
      "center": {
        "lat": 12.9813361,
        "lon": 77.6918789
      },
      "tags": {
        "access": "private",
        "leisure": "playground"
      }
    },
    {
      "type": "way",
      "id": 1433298950,
      "center": {
        "lat": 12.9814913,
        "lon": 77.6919196
      },
      "tags": {
        "access": "private",
        "leisure": "swimming_pool",
        "location": "outdoor"
      }
    },
    {
      "type": "way",
      "id": 1433298951,
      "center": {
        "lat": 12.9811867,
        "lon": 77.6918415
      },
      "tags": {
        "access": "private",
        "leisure": "pitch",
        "sport": "tennis"
      }
    },
    {
      "type": "way",
      "id": 1433298958,
      "center": {
        "lat": 12.9793824,
        "lon": 77.6930191
      },
      "tags": {
        "access": "private",
        "amenity": "parking"
      }
    },
    {
      "type": "way",
      "id": 1433298959,
      "center": {
        "lat": 12.9799907,
        "lon": 77.6910786
      },
      "tags": {
        "access": "private",
        "hoops": "1",
        "leisure": "pitch",
        "sport": "basketball"
      }
    },
    {
      "type": "way",
      "id": 1433298960,
      "center": {
        "lat": 12.9799361,
        "lon": 77.6909462
      },
      "tags": {
        "access": "private",
        "leisure": "pitch",
        "sport": "tennis"
      }
    },
    {
      "type": "way",
      "id": 1443878742,
      "center": {
        "lat": 12.9738858,
        "lon": 77.6855381
      },
      "tags": {
        "access": "private",
        "leisure": "pitch",
        "sport": "basketball"
      }
    },
    {
      "type": "way",
      "id": 1443878743,
      "center": {
        "lat": 12.97347,
        "lon": 77.6861977
      },
      "tags": {
        "leisure": "playground"
      }
    },
    {
      "type": "way",
      "id": 1443878744,
      "center": {
        "lat": 12.9734058,
        "lon": 77.6863724
      },
      "tags": {
        "access": "private",
        "leisure": "pitch",
        "sport": "basketball"
      }
    },
    {
      "type": "way",
      "id": 1444447489,
      "center": {
        "lat": 12.9778841,
        "lon": 77.6849608
      },
      "tags": {
        "leisure": "playground"
      }
    },
    {
      "type": "way",
      "id": 1444469674,
      "center": {
        "lat": 12.9851394,
        "lon": 77.6868513
      },
      "tags": {
        "access": "private",
        "leisure": "swimming_pool"
      }
    },
    {
      "type": "way",
      "id": 1444469677,
      "center": {
        "lat": 12.9844257,
        "lon": 77.6890188
      },
      "tags": {
        "access": "private",
        "leisure": "swimming_pool"
      }
    },
    {
      "type": "way",
      "id": 1444469684,
      "center": {
        "lat": 12.9787378,
        "lon": 77.6895431
      },
      "tags": {
        "leisure": "pitch",
        "sport": "tennis"
      }
    },
    {
      "type": "way",
      "id": 1444469712,
      "center": {
        "lat": 12.9814897,
        "lon": 77.6859865
      },
      "tags": {
        "leisure": "pitch",
        "sport": "basketball"
      }
    }
  ]
}