{
  "area_name": "Ferrar Nagar",
  "osm_id": 12456008471,
  "osm_type": "node",
  "place_type": "neighbourhood",
  "amenity_count": 30,
  "amenities": [
    {
      "type": "node",
      "id": 5707092821,
      "lat": 13.1180936,
      "lon": 77.5725944,
      "tags": {
        "amenity": "community_centre",
        "name": "Royal Kempegowda Convention Center"
      }
    },
    {
      "type": "node",
      "id": 8090222308,
      "lat": 13.1146977,
      "lon": 77.566997,
      "tags": {
        "name": "Oven",
        "shop": "bakery"
      }
    },
    {
      "type": "node",
      "id": 8090222309,
      "lat": 13.1144958,
      "lon": 77.5678568,
      "tags": {
        "shop": "bakery"
      }
    },
    {
      "type": "node",
      "id": 12512224849,
      "lat": 13.1091324,
      "lon": 77.5597832,
      "tags": {
        "amenity": "pub",
        "name": "Nysa Sky Bar"
      }
    },
    {
      "type": "node",
      "id": 12749773445,
      "lat": 13.1142754,
      "lon": 77.5689594,
      "tags": {
        "check_date": "2025-04-12",
        "internet_access": "no",
        "name": "Suguna Super Market",
        "payment:upi": "yes",
        "shop": "supermarket",
        "wheelchair": "no"
      }
    },
    {
      "type": "way",
      "id": 515233982,
      "center": {
        "lat": 13.1102691,
        "lon": 77.5610752
      },
      "tags": {
        "access": "yes",
        "bicycle": "no",
        "highway": "path",
        "leisure": "track",
        "lit": "yes",
        "motor_vehicle": "no",
        "name": "Ananthapura / Attur Lake Trial",
        "sport": "running",
        "surface": "paving_stones"
      }
    },
    {
      "type": "way",
      "id": 515233983,
      "center": {
        "lat": 13.111466,
        "lon": 77.5630935
      },
      "tags": {
        "access": "yes",
        "bicycle": "no",
        "highway": "path",
        "leisure": "track",
        "lit": "yes",
        "motor_vehicle": "no",
        "name": "Attur lake trail",
        "sport": "running",
        "surface": "paving_stones"
      }
    },
    {
      "type": "way",
      "id": 867941832,
      "center": {
        "lat": 13.1147164,
        "lon": 77.5665231
      },
      "tags": {
        "access": "private",
        "leisure": "swimming_pool"
      }
    },
    {
      "type": "way",
      "id": 963357011,
      "center": {
        "lat": 13.127423,
        "lon": 77.5581059
      },
      "tags": {
        "amenity": "college",
        "landuse": "education",
        "name": "ICAR - Indian Veterinary Research Institute, Yelahanka"
      }
    },
    {
      "type": "way",
      "id": 963357016,
      "center": {
        "lat": 13.1230152,
        "lon": 77.5656143
      },
      "tags": {
        "leisure": "playground"
      }
    },
    {
      "type": "way",
      "id": 963357017,
      "center": {
        "lat": 13.1227285,
        "lon": 77.5650757
      },
      "tags": {
        "amenity": "school",
        "name": "Nagarjuna Vidytaniketan",
        "name:kn": "ನಾಗಾರ್ಜುನ ವಿದ್ಯಾನಿಕೇತನ"
      }
    },
    {
      "type": "way",
      "id": 1178383669,
      "center": {
        "lat": 13.1260353,
        "lon": 77.5643094
      },
      "tags": {
        "amenity": "community_centre",
        "name": "Le Roma Gardenia"
      }
    },
    {
      "type": "way",
      "id": 1182880583,
      "center": {
        "lat": 13.1180457,
        "lon": 77.5693124
      },
      "tags": {
        "leisure": "park"
      }
    },
    {
      "type": "way",
      "id": 1182962321,
      "center": {
        "lat": 13.1136225,
        "lon": 77.5609391
      },
      "tags": {
        "leisure": "park"
      }
    },
    {
      "type": "way",
      "id": 1182962322,
      "center": {
        "lat": 13.113255,
        "lon": 77.562276
      },
      "tags": {
        "craft": "gardener",
        "leisure": "garden",
        "name": "Attur Nursery"
      }
    },
    {
      "type": "way",
      "id": 1182962327,
      "center": {
        "lat": 13.1102596,
        "lon": 77.5608713
      },
      "tags": {
        "access": "yes",
        "bicycle": "no",
        "highway": "path",
        "leisure": "track",
        "lit": "yes",
        "motor_vehicle": "no",
        "name": "Ananthapura / Attur Lake Trial",
        "sport": "running",
        "surface": "paving_stones"
      }
    },
    {
      "type": "way",
      "id": 1234220598,
      "center": {
        "lat": 13.1124673,
        "lon": 77.5598196
      },
      "tags": {
        "access": "yes",
        "bicycle": "no",
        "highway": "path",
        "leisure": "track",
        "lit": "yes",
        "motor_vehicle": "no",
        "name": "Attur Lake trail",
        "sport": "running",
        "surface": "paving_stones"
      }
    },
    {
      "type": "way",
      "id": 1234220599,
      "center": {
        "lat": 13.11336,
        "lon": 77.559945
      },
      "tags": {
        "bridge": "yes",
        "highway": "path",
        "layer": "1",
        "leisure": "track",
        "lit": "yes",
        "name": "Attur / Ananthapura Lake Trial",
        "sport": "running",
        "surface": "paving_stones"
      }
    },
    {
      "type": "way",
      "id": 1287042045,
      "center": {
        "lat": 13.1245916,
        "lon": 77.5651355
      },
      "tags": {
        "access": "private",
        "leisure": "pitch",
        "sport": "basketball"
      }
    },
    {
      "type": "way",
      "id": 1287042046,
      "center": {
        "lat": 13.1243565,
        "lon": 77.565061
      },
      "tags": {
        "access": "private",
        "leisure": "pitch",
        "sport": "tennis"
      }
    },
    {
      "type": "way",
      "id": 1287042047,
      "center": {
        "lat": 13.1246777,
        "lon": 77.5665718
      },
      "tags": {
        "access": "private",
        "leisure": "swimming_pool",
        "lit": "yes",
        "location": "surface",
        "swimming_pool": "swimming"
      }
    },
    {
      "type": "way",
      "id": 1301678942,
      "center": {
        "lat": 13.1086341,
        "lon": 77.5660374
      },
      "tags": {
        "amenity": "place_of_worship",
        "landuse": "religious",
        "name": "Sri Kashi Vishwanath Swamy Temple",
        "religion": "hindu"
      }
    },
    {
      "type": "way",
      "id": 1308090822,
      "center": {
        "lat": 13.114113,
        "lon": 77.5550948
      },
      "tags": {
        "leisure": "park"
      }
    },
    {
      "type": "way",
      "id": 1332745005,
      "center": {
        "lat": 13.1088061,
        "lon": 77.560382
      },
      "tags": {
        "access": "private",
        "leisure": "swimming_pool"
      }
    },
    {
      "type": "way",
      "id": 1365359458,
      "center": {
        "lat": 13.1085453,
        "lon": 77.5690507
      },
      "tags": {
        "leisure": "pitch",
        "name": "Bhandari Cricket Academy",
        "sport": "cricket"
      }
    },
    {
      "type": "way",
      "id": 1365364522,
      "center": {
        "lat": 13.116599,
        "lon": 77.5642066
      },
      "tags": {
        "amenity": "events_venue",
        "landuse": "commercial",
        "name": "Le Terra Gardens"
      }
    },
    {
      "type": "way",
      "id": 1365364523,
      "center": {
        "lat": 13.1172919,
        "lon": 77.5616723
      },
      "tags": {
        "amenity": "place_of_worship",
        "building": "yes",
        "religion": "hindu"
      }
    },
    {
      "type": "way",
      "id": 1365364524,
      "center": {
        "lat": 13.1161867,
        "lon": 77.5619876
      },
      "tags": {
        "amenity": "college",
        "name": "Nagarjuna Degree College"
      }
    },
    {
      "type": "way",
      "id": 1365454970,
      "center": {
        "lat": 13.1117947,
        "lon": 77.5713025
      },
      "tags": {
        "access": "private",
        "leisure": "swimming_pool"
      }
    },
    {
      "type": "way",
      "id": 1428234037,
      "center": {
        "lat": 13.1149517,
        "lon": 77.573367
      },
      "tags": {
        "description": "Retail Space where Goods of daily use is sold to Public",
        "landuse": "retail",
        "name": "KPN Fresh",
        "shop": "supermarket"
      }
    }
  ]
}