{
  "area_name": "Gandhi Circle",
  "osm_id": 13286934138,
  "osm_type": "node",
  "place_type": "neighbourhood",
  "amenity_count": 308,
  "amenities": [
    {
      "type": "node",
      "id": 1770459096,
      "lat": 12.9425809,
      "lon": 77.749144,
      "tags": {
        "amenity": "place_of_worship",
        "name": "Dharmaraya Swamy Temple",
        "name:kn": "ಧರ್ಮರಾಯ ಸ್ವಾಮಿ ದೇವಸ್ಥಾನ",
        "religion": "hindu",
        "wheelchair": "yes"
      }
    },
    {
      "type": "node",
      "id": 4445659844,
      "lat": 12.9361938,
      "lon": 77.7442057,
      "tags": {
        "addr:city": "Bangalore",
        "addr:housenumber": "35",
        "addr:postcode": "560087",
        "addr:street": "Devasthanagalu, Varthur, Bengaluru",
        "amenity": "restaurant",
        "cuisine": "regional",
        "delivery": "yes",
        "name": "Damadhish Fine Dine - Family Restaurant",
        "opening_hours": "11:30-15:00, 18:00-22:00",
        "phone": "099863 83800",
        "smoking": "no",
        "takeaway": "yes"
      }
    },
    {
      "type": "node",
      "id": 9874033643,
      "lat": 12.9381336,
      "lon": 77.7466906,
      "tags": {
        "addr:housenumber": "204/2",
        "addr:street": "Varthur Main Road",
        "amenity": "atm",
        "brand": "Axis Bank",
        "brand:wikidata": "Q2003549",
        "check_date": "2025-07-26",
        "indoor": "yes",
        "name": "Axis Bank",
        "opening_hours": "24/7",
        "operator": "Axis Bank",
        "operator:wikidata": "Q2003549"
      }
    },
    {
      "type": "node",
      "id": 9874033644,
      "lat": 12.9365088,
      "lon": 77.7445294,
      "tags": {
        "name": "Rohini Furnishings",
        "shop": "furniture"
      }
    },
    {
      "type": "node",
      "id": 9874033645,
      "lat": 12.936494,
      "lon": 77.7445098,
      "tags": {
        "amenity": "pharmacy",
        "check_date": "2025-06-28",
        "dispensing": "yes",
        "healthcare": "pharmacy",
        "name": "Sri Ramdev Medicals"
      }
    },
    {
      "type": "node",
      "id": 9874033646,
      "lat": 12.935061,
      "lon": 77.7433453,
      "tags": {
        "check_date": "2025-06-28",
        "name": "Royal Oak",
        "shop": "furniture"
      }
    },
    {
      "type": "node",
      "id": 9874033647,
      "lat": 12.9349932,
      "lon": 77.7438705,
      "tags": {
        "brand": "Vishal Mega Mart",
        "brand:wikidata": "Q126895037",
        "check_date": "2025-06-28",
        "name": "Vishal Mega Mart",
        "shop": "supermarket"
      }
    },
    {
      "type": "node",
      "id": 9874033652,
      "lat": 12.9337751,
      "lon": 77.7433234,
      "tags": {
        "amenity": "hospital",
        "check_date": "2025-06-28",
        "healthcare": "hospital",
        "name": "Sahasra Hospital",
        "name:kn": "ಸಹಸ್ರ ಆಸ್ಪತ್ರೆ"
      }
    },
    {
      "type": "node",
      "id": 11835753212,
      "lat": 12.9315412,
      "lon": 77.7460974,
      "tags": {
        "access": "private",
        "amenity": "parking_entrance",
        "parking": "underground"
      }
    },
    {
      "type": "node",
      "id": 11835753221,
      "lat": 12.932298,
      "lon": 77.7459513,
      "tags": {
        "access": "private",
        "amenity": "parking_entrance",
        "parking": "underground"
      }
    },
    {
      "type": "node",
      "id": 11835753366,
      "lat": 12.9342822,
      "lon": 77.7443781,
      "tags": {
        "access": "private",
        "amenity": "parking_entrance",
        "parking": "underground"
      }
    },
    {
      "type": "node",
      "id": 11835753368,
      "lat": 12.9342534,
      "lon": 77.7447724,
      "tags": {
        "access": "private",
        "amenity": "parking_entrance",
        "parking": "underground"
      }
    },
    {
      "type": "node",
      "id": 12196873317,
      "lat": 12.9422877,
      "lon": 77.7472788,
      "tags": {
        "addr:housenumber": "1/1A",
        "addr:street": "Varthur Main Road",
        "amenity": "bank",
        "branch": "Varthur",
        "brand": "Canara Bank",
        "brand:en": "Canara Bank",
        "brand:hi": "केनरा बैंक",
        "brand:kn": "ಕೆನರಾ ಬ್ಯಾಂಕ್",
        "brand:pa": "ਕੇਨਰਾ ਬੈਂਕ",
        "brand:pnb": "کینرا بینک",
        "brand:ur": "کینرا بینک",
        "brand:wikidata": "Q2003777",
        "check_date": "2025-08-26",
        "description": "a bank outlet",
        "name": "Canara Bank",
        "name:en": "Canara Bank",
        "name:hi": "केनरा बैंक",
        "name:kn": "ಕೆನರಾ ಬ್ಯಾಂಕ್",
        "name:pa": "ਕੇਨਰਾ ਬੈਂਕ",
        "name:pnb": "کینرا بینک",
        "name:ur": "کینرا بینک",
        "website": "https://canarabank.com/",
        "wheelchair": "yes"
      }
    },
    {
      "type": "node",
      "id": 12201427691,
      "lat": 12.9414234,
      "lon": 77.7473103,
      "tags": {
        "amenity": "bank",
        "brand": "Bank of Baroda",
        "brand:wikidata": "Q2003797",
        "check_date": "2025-08-06",
        "name": "Bank of Baroda",
        "website": "https://bankofbaroda.in",
        "wheelchair": "limited"
      }
    },
    {
      "type": "node",
      "id": 12201433513,
      "lat": 12.9421478,
      "lon": 77.7472823,
      "tags": {
        "amenity": "pharmacy",
        "brand": "Apollo Pharmacy",
        "brand:wikidata": "Q62562612",
        "check_date": "2025-08-03",
        "healthcare": "pharmacy",
        "name": "Apollo Pharmacy",
        "wheelchair": "yes"
      }
    },
    {
      "type": "node",
      "id": 12201771878,
      "lat": 12.9421213,
      "lon": 77.747222,
      "tags": {
        "addr:street": "Varthur Main Road",
        "amenity": "fast_food",
        "building": "kiosk",
        "building:levels": "1",
        "building:material": "metal",
        "check_date": "2025-08-03",
        "diet:halal": "yes",
        "indoor_seating": "no",
        "name": "Kolkata Hot Roll",
        "outdoor_seating": "no",
        "roof:levels": "0",
        "roof:shape": "flat",
        "takeaway": "only",
        "wheelchair": "yes"
      }
    },
    {
      "type": "node",
      "id": 12209333851,
      "lat": 12.9445559,
      "lon": 77.7469147,
      "tags": {
        "check_date": "2025-08-14",
        "name": "Steelbird Helmets",
        "shop": "helmet"
      }
    },
    {
      "type": "node",
      "id": 12210727262,
      "lat": 12.9340454,
      "lon": 77.7413305,
      "tags": {
        "amenity": "parking_entrance"
      }
    },
    {
      "type": "node",
      "id": 12211528724,
      "lat": 12.938364,
      "lon": 77.7468699,
      "tags": {
        "check_date": "2025-07-26",
        "indoor_seating": "no",
        "name": "Honey Land",
        "outdoor_seating": "no",
        "shop": "bakery",
        "takeaway": "only"
      }
    },
    {
      "type": "node",
      "id": 12211528725,
      "lat": 12.937814,
      "lon": 77.7469328,
      "tags": {
        "addr:housenumber": "2",
        "addr:street": "Halasahalli Road",
        "amenity": "pharmacy",
        "check_date": "2025-09-07",
        "healthcare": "pharmacy",
        "name": "Varthur Pharma"
      }
    },
    {
      "type": "node",
      "id": 12211540401,
      "lat": 12.9437412,
      "lon": 77.7472692,
      "tags": {
        "check_date": "2025-08-09",
        "name": "LVS Furniture and sofa",
        "shop": "furniture"
      }
    },
    {
      "type": "node",
      "id": 12211579364,
      "lat": 12.9430815,
      "lon": 77.7472952,
      "tags": {
        "amenity": "bank",
        "brand": "State Bank of India",
        "brand:wikidata": "Q1340361",
        "check_date": "2025-08-09",
        "name": "State Bank of India",
        "short_name": "SBI"
      }
    },
    {
      "type": "node",
      "id": 12211579365,
      "lat": 12.9429968,
      "lon": 77.7472601,
      "tags": {
        "amenity": "atm",
        "brand": "State Bank of India",
        "brand:wikidata": "Q1340361",
        "check_date": "2025-08-09",
        "operator": "State Bank of India",
        "operator:wikidata": "Q1340361",
        "short_name": "SBI"
      }
    },
    {
      "type": "node",
      "id": 12218533471,
      "lat": 12.9372296,
      "lon": 77.7485973,
      "tags": {
        "check_date": "2025-11-16",
        "check_date:opening_hours": "2025-11-16",
        "indoor_seating": "no",
        "level": "0",
        "name": "Parijatha Hot & Cool",
        "opening_hours:signed": "no",
        "outdoor_seating": "no",
        "shop": "bakery",
        "takeaway": "only"
      }
    },
    {
      "type": "node",
      "id": 12218565426,
      "lat": 12.9376589,
      "lon": 77.7478535,
      "tags": {
        "addr:housenumber": "93/1",
        "addr:street": "Halasahalli Road",
        "amenity": "pharmacy",
        "check_date": "2025-06-28",
        "healthcare": "pharmacy",
        "level": "0",
        "name": "Kaveri Pharma"
      }
    },
    {
      "type": "node",
      "id": 12224096344,
      "lat": 12.9444781,
      "lon": 77.7473722,
      "tags": {
        "check_date": "2025-07-27",
        "contact:phone": "+91 99167 51786; +91 98806 76139; +91 86607 55633",
        "level": "0",
        "name": "Himalaya Timber Traders",
        "shop": "trade",
        "trade": "wood"
      }
    },
    {
      "type": "node",
      "id": 12224096346,
      "lat": 12.9438429,
      "lon": 77.7472518,
      "tags": {
        "check_date": "2025-12-02",
        "name": "Jai Ambey Auto Spare",
        "shop": "motorcycle_parts",
        "wheelchair": "no"
      }
    },
    {
      "type": "node",
      "id": 12224096347,
      "lat": 12.9424022,
      "lon": 77.7472249,
      "tags": {
        "addr:housenumber": "111",
        "addr:street": "Varthur Main Road",
        "check_date": "2025-08-26",
        "name": "ZM Traders",
        "name:signed": "no",
        "shop": "clothes;shoes"
      }
    },
    {
      "type": "node",
      "id": 12224096349,
      "lat": 12.9419137,
      "lon": 77.7471774,
      "tags": {
        "check_date": "2025-06-27",
        "name": "Popular Store",
        "shop": "kiosk"
      }
    },
    {
      "type": "node",
      "id": 12224096350,
      "lat": 12.9414886,
      "lon": 77.7472978,
      "tags": {
        "addr:floor": "G",
        "check_date": "2025-09-28",
        "contact:phone": "+91 99002 77827",
        "level": "0",
        "name": "Mahalakshmi Flower Stall",
        "payment:cards": "no",
        "payment:cash": "yes",
        "payment:credit_cards": "no",
        "payment:debit_cards": "no",
        "shop": "florist"
      }
    },
    {
      "type": "node",
      "id": 12224096351,
      "lat": 12.9401342,
      "lon": 77.7475049,
      "tags": {
        "check_date": "2025-07-10",
        "name": "Sri Lakshmi Venkateshwara Pooja Store",
        "religion": "hindu",
        "shop": "religion"
      }
    },
    {
      "type": "node",
      "id": 12224096353,
      "lat": 12.9398037,
      "lon": 77.7475912,
      "tags": {
        "addr:housenumber": "204",
        "amenity": "atm",
        "check_date": "2025-07-05",
        "name": "Micro ATM"
      }
    },
    {
      "type": "node",
      "id": 12224096354,
      "lat": 12.9383181,
      "lon": 77.7472979,
      "tags": {
        "check_date": "2025-06-27",
        "name": "Hindustan Bedding & Furnitures",
        "shop": "bed"
      }
    },
    {
      "type": "node",
      "id": 12224096355,
      "lat": 12.9378755,
      "lon": 77.7472166,
      "tags": {
        "alt_name": "Champaka Dharma",
        "check_date": "2025-07-01",
        "contact:phone": "+91 94485 21632; +91 95977 61459",
        "name": "Om Shakti Pravision Store",
        "shop": "convenience"
      }
    },
    {
      "type": "node",
      "id": 12224096356,
      "lat": 12.93786,
      "lon": 77.7472805,
      "tags": {
        "amenity": "fast_food",
        "check_date": "2025-06-28",
        "cuisine": "juice",
        "indoor_seating": "no",
        "name": "Kavi Super Cooldrinks",
        "outdoor_seating": "no",
        "takeaway": "only"
      }
    },
    {
      "type": "node",
      "id": 12224096363,
      "lat": 12.9482673,
      "lon": 77.7463384,
      "tags": {
        "check_date": "2025-07-26",
        "name": "Well Furnishing",
        "shop": "furniture"
      }
    },
    {
      "type": "node",
      "id": 12224096364,
      "lat": 12.9480564,
      "lon": 77.7463814,
      "tags": {
        "check_date": "2025-07-12",
        "name": "Ambika Marbles & Granites",
        "shop": "trade",
        "trade": "marble"
      }
    },
    {
      "type": "node",
      "id": 12224096365,
      "lat": 12.9479348,
      "lon": 77.7465118,
      "tags": {
        "check_date": "2025-07-12",
        "name": "Vinayaka Granites",
        "shop": "trade",
        "trade": "marble",
        "wheelchair": "limited"
      }
    },
    {
      "type": "node",
      "id": 12224096366,
      "lat": 12.9440666,
      "lon": 77.74727,
      "tags": {
        "check_date": "2025-07-20",
        "level": "0",
        "name": "Sri Rathueshwar Store",
        "shop": "yes"
      }
    },
    {
      "type": "node",
      "id": 12224096368,
      "lat": 12.9395976,
      "lon": 77.7478233,
      "tags": {
        "amenity": "clinic",
        "check_date": "2025-06-28",
        "healthcare": "clinic",
        "name": "Shifa Piles Hospital"
      }
    },
    {
      "type": "node",
      "id": 12224096369,
      "lat": 12.9395868,
      "lon": 77.7475557,
      "tags": {
        "amenity": "restaurant",
        "check_date": "2025-08-06",
        "cuisine": "biriyani;kebab",
        "name": "Fardeen Biriyani And Kabab Center"
      }
    },
    {
      "type": "node",
      "id": 12224096370,
      "lat": 12.9376469,
      "lon": 77.7479108,
      "tags": {
        "addr:floor": "0",
        "amenity": "clinic",
        "check_date": "2025-08-09",
        "contact:phone": "+91 96320 85108; +91 99863 04138",
        "healthcare": "clinic",
        "name": "JJ Poly Clinic & Diagnostic Center"
      }
    },
    {
      "type": "node",
      "id": 12241217279,
      "lat": 12.9441284,
      "lon": 77.746914,
      "tags": {
        "check_date": "2025-08-06",
        "name": "MK Car Accessories",
        "shop": "car_parts"
      }
    },
    {
      "type": "node",
      "id": 12241217280,
      "lat": 12.9421804,
      "lon": 77.747312,
      "tags": {
        "amenity": "clinic",
        "check_date": "2025-08-03",
        "healthcare": "clinic",
        "name": "Aria Multispeciality Clinic"
      }
    },
    {
      "type": "node",
      "id": 12241250256,
      "lat": 12.9445873,
      "lon": 77.7469127,
      "tags": {
        "check_date": "2025-08-06",
        "name": "Venkateshwara Enterprises",
        "shop": "car_parts"
      }
    },
    {
      "type": "node",
      "id": 12241354244,
      "lat": 12.9366044,
      "lon": 77.7505067,
      "tags": {
        "access": "private",
        "addr:floor": "P",
        "amenity": "bench",
        "armrest": "yes",
        "backrest": "yes",
        "direction": "102",
        "level": "0",
        "lit": "yes",
        "material": "metal",
        "seats": "3"
      }
    },
    {
      "type": "node",
      "id": 12241354245,
      "lat": 12.9366042,
      "lon": 77.750497,
      "tags": {
        "access": "private",
        "addr:floor": "P",
        "amenity": "bench",
        "armrest": "no",
        "backrest": "no",
        "direction": "103",
        "level": "0",
        "lit": "yes",
        "material": "marble"
      }
    },
    {
      "type": "node",
      "id": 12241368335,
      "lat": 12.9362459,
      "lon": 77.7513161,
      "tags": {
        "amenity": "waste_basket",
        "material": "plastic"
      }
    },
    {
      "type": "node",
      "id": 12241368336,
      "lat": 12.9376668,
      "lon": 77.7511592,
      "tags": {
        "amenity": "waste_basket",
        "material": "plastic"
      }
    },
    {
      "type": "node",
      "id": 12248405463,
      "lat": 12.9383829,
      "lon": 77.7442823,
      "tags": {
        "addr:floor": "0",
        "amenity": "restaurant",
        "check_date": "2025-08-06",
        "cuisine": "indian;udupi;north_indian;south_indian;coffee_shop;juice;ice_cream",
        "diet:vegetarian": "only",
        "indoor_seating": "yes",
        "internet_access": "no",
        "name": "Udupi Pakaruchi",
        "outdoor_seating": "yes",
        "payment:cash": "yes",
        "payment:upi": "yes",
        "wheelchair": "no"
      }
    },
    {
      "type": "node",
      "id": 12252267330,
      "lat": 12.9403042,
      "lon": 77.7474864,
      "tags": {
        "check_date": "2025-08-26",
        "name": "VRS Enterprises",
        "shop": "party"
      }
    },
    {
      "type": "node",
      "id": 12293919192,
      "lat": 12.9378834,
      "lon": 77.7471877,
      "tags": {
        "check_date": "2025-07-01",
        "contact:phone": "+91 99167 92473",
        "name": "Sri Maruthi Battery Works",
        "shop": "car_parts"
      }
    },
    {
      "type": "node",
      "id": 12293919193,
      "lat": 12.9378668,
      "lon": 77.7472512,
      "tags": {
        "check_date": "2025-07-01",
        "name": "Classic Glass And Aluminium",
        "shop": "mirror"
      }
    },
    {
      "type": "node",
      "id": 12323547448,
      "lat": 12.9421508,
      "lon": 77.7473719,
      "tags": {
        "addr:housenumber": "1/1A",
        "addr:street": "Varthur Main Road",
        "check_date": "2025-08-26",
        "contact:phone": "+91 86604 40114;+91 88679 77575",
        "name": "Imperia Luxury Spa",
        "shop": "massage"
      }
    },
    {
      "type": "node",
      "id": 12323560868,
      "lat": 12.9422977,
      "lon": 77.7472161,
      "tags": {
        "addr:street": "Varthur Main Road",
        "amenity": "fast_food",
        "building": "kiosk",
        "building:levels": "1",
        "building:material": "metal",
        "check_date": "2025-07-27",
        "check_date:opening_hours": "2025-07-27",
        "indoor_seating": "no",
        "name": "The Batala House",
        "opening_hours:signed": "no",
        "outdoor_seating": "no",
        "payment:credit_cards": "no",
        "payment:debit_cards": "no",
        "roof:levels": "0",
        "roof:shape": "flat",
        "takeaway": "only"
      }
    },
    {
      "type": "node",
      "id": 12432736251,
      "lat": 12.9324485,
      "lon": 77.7456181,
      "tags": {
        "addr:city": "Bengaluru",
        "addr:country": "IN",
        "addr:street": "SH35",
        "addr:suburb": "Varthur",
        "air_conditioning": "yes",
        "amenity": "restaurant",
        "check_date": "2025-08-17",
        "check_date:diet:vegetarian": "2025-08-17",
        "contact:instagram": "sinonnas",
        "cuisine": "pizza",
        "delivery": "yes",
        "diet:vegetarian": "yes",
        "indoor_seating": "yes",
        "level": "0",
        "name": "Si Nonna's",
        "outdoor_seating": "no",
        "payment:credit_cards": "yes",
        "payment:debit_cards": "yes",
        "reservation": "yes",
        "takeaway": "yes",
        "toilets": "yes",
        "website": "https://sinonnas.com/",
        "wheelchair": "yes"
      }
    },
    {
      "type": "node",
      "id": 12494389528,
      "lat": 12.9386959,
      "lon": 77.7475284,
      "tags": {
        "amenity": "marketplace",
        "check_date": "2025-01-30",
        "internet_access": "no",
        "name:signed": "no",
        "opening_hours": "Su 08:00-18:00",
        "payment:cards": "no",
        "payment:cash": "yes",
        "payment:credit_cards": "no",
        "payment:debit_cards": "no",
        "wheelchair": "no"
      }
    },
    {
      "type": "node",
      "id": 12497646028,
      "lat": 12.9374162,
      "lon": 77.7488257,
      "tags": {
        "addr:floor": "G",
        "check_date": "2025-11-16",
        "check_date:opening_hours": "2025-11-16",
        "contact:phone": "+91 90081 53139; +91 91108 79914",
        "internet_access": "no",
        "level": "0",
        "name": "Sri Panchakumari Fruits and Vegitables",
        "opening_hours:signed": "no",
        "shop": "greengrocer",
        "wheelchair": "no"
      }
    },
    {
      "type": "node",
      "id": 12526234363,
      "lat": 12.9323072,
      "lon": 77.7425415,
      "tags": {
        "brand": "Toni & Guy",
        "brand:wikidata": "Q324784",
        "name": "Toni & Guy",
        "shop": "hairdresser"
      }
    },
    {
      "type": "node",
      "id": 12542246861,
      "lat": 12.9378706,
      "lon": 77.7468198,
      "tags": {
        "addr:floor": "0",
        "check_date": "2025-08-06",
        "check_date:opening_hours": "2025-07-27",
        "cuisine": "indian",
        "description": "Jalebi stall",
        "food:jalebi": "yes",
        "internet_access": "no",
        "name:signed": "no",
        "opening_hours:signed": "no",
        "payment:cash": "yes",
        "payment:credit_cards": "no",
        "payment:debit_cards": "no",
        "payment:upi": "yes",
        "shop": "snacks",
        "street_vendor": "yes",
        "vending": "food"
      }
    },
    {
      "type": "node",
      "id": 12564732126,
      "lat": 12.9361822,
      "lon": 77.7506213,
      "tags": {
        "check_date": "2025-08-06",
        "name": "Subhash General Store & Paan Shop",
        "shop": "kiosk"
      }
    },
    {
      "type": "node",
      "id": 12570033453,
      "lat": 12.939978,
      "lon": 77.7467408,
      "tags": {
        "amenity": "hospital",
        "check_date": "2025-07-11",
        "healthcare": "hospital",
        "name": "Suraksha Hospitsls",
        "opening_hours": "24/7"
      }
    },
    {
      "type": "node",
      "id": 12570258675,
      "lat": 12.9401001,
      "lon": 77.7467858,
      "tags": {
        "check_date": "2025-07-11",
        "leisure": "fitness_centre",
        "name": "Viva Fit"
      }
    },
    {
      "type": "node",
      "id": 12572821852,
      "lat": 12.9424364,
      "lon": 77.7475507,
      "tags": {
        "amenity": "cafe",
        "check_date": "2025-07-06",
        "name": "Brindavan Grand"
      }
    },
    {
      "type": "node",
      "id": 12572821853,
      "lat": 12.9426024,
      "lon": 77.7475375,
      "tags": {
        "check_date": "2025-06-11",
        "service:bicycle:repair": "yes",
        "shop": "bicycle"
      }
    },
    {
      "type": "node",
      "id": 12572821854,
      "lat": 12.9426007,
      "lon": 77.7474396,
      "tags": {
        "check_date": "2025-02-09",
        "shop": "shoes"
      }
    },
    {
      "type": "node",
      "id": 12572821855,
      "lat": 12.9423878,
      "lon": 77.7474336,
      "tags": {
        "check_date": "2025-02-09",
        "shop": "greengrocer"
      }
    },
    {
      "type": "node",
      "id": 12572821856,
      "lat": 12.9426007,
      "lon": 77.7473439,
      "tags": {
        "check_date": "2025-02-09",
        "name": "SRS Mobile Center",
        "shop": "mobile_phone"
      }
    },
    {
      "type": "node",
      "id": 12572821857,
      "lat": 12.9425679,
      "lon": 77.7472154,
      "tags": {
        "amenity": "pharmacy",
        "check_date": "2025-08-23",
        "healthcare": "pharmacy",
        "name": "Akshay Medicals"
      }
    },
    {
      "type": "node",
      "id": 12572821858,
      "lat": 12.942465,
      "lon": 77.7472193,
      "tags": {
        "check_date": "2025-09-28",
        "description": "Sugarcane juice seller",
        "juice": "sugarcane",
        "name": "Karnataka Khabbina Haalu",
        "shop": "juice",
        "street_vendor": "yes"
      }
    },
    {
      "type": "node",
      "id": 12572848002,
      "lat": 12.9365756,
      "lon": 77.7503839,
      "tags": {
        "check_date": "2025-08-06",
        "name": "Ghousia General Stores",
        "shop": "kiosk"
      }
    },
    {
      "type": "node",
      "id": 12578571817,
      "lat": 12.9373566,
      "lon": 77.7513927,
      "tags": {
        "amenity": "fountain",
        "drinking_water": "no",
        "fountain": "decorative",
        "lit": "no"
      }
    },
    {
      "type": "node",
      "id": 12578591686,
      "lat": 12.9373157,
      "lon": 77.7506323,
      "tags": {
        "amenity": "waste_basket",
        "material": "plastic"
      }
    },
    {
      "type": "node",
      "id": 12587031192,
      "lat": 12.9432574,
      "lon": 77.7471733,
      "tags": {
        "check_date": "2025-08-09",
        "name": "ACC Cement",
        "shop": "trade"
      }
    },
    {
      "type": "node",
      "id": 12587031193,
      "lat": 12.9427196,
      "lon": 77.7471966,
      "tags": {
        "addr:housenumber": "723/1",
        "addr:street": "Varthur Main Road",
        "check_date": "2025-09-28",
        "contact:phone": "+91 93619 93395; +91 90082 68558",
        "name": "Metro Cotton Bazzar",
        "not:brand:wikidata": "Q16938284",
        "shop": "clothes"
      }
    },
    {
      "type": "node",
      "id": 12587031194,
      "lat": 12.9425718,
      "lon": 77.747182,
      "tags": {
        "check_date": "2025-08-23",
        "name": "Iyengar Bakery & Sweets",
        "shop": "bakery"
      }
    },
    {
      "type": "node",
      "id": 12587031195,
      "lat": 12.9428206,
      "lon": 77.7488745,
      "tags": {
        "check_date": "2025-02-14",
        "shop": "clothes"
      }
    },
    {
      "type": "node",
      "id": 12587031196,
      "lat": 12.9420887,
      "lon": 77.7494458,
      "tags": {
        "amenity": "driving_school",
        "check_date": "2025-02-14",
        "education": "driving_school",
        "name": "Srinidhi Driving School"
      }
    },
    {
      "type": "node",
      "id": 12587031197,
      "lat": 12.9389887,
      "lon": 77.7512479,
      "tags": {
        "check_date": "2025-02-14",
        "hairdresser": "barber",
        "male": "yes",
        "name": "Classic Men Hair",
        "shop": "hairdresser"
      }
    },
    {
      "type": "node",
      "id": 12588048610,
      "lat": 12.9429573,
      "lon": 77.7496871,
      "tags": {
        "amenity": "place_of_worship",
        "check_date": "2025-02-14",
        "religion": "hindu"
      }
    },
    {
      "type": "node",
      "id": 12588048611,
      "lat": 12.9435827,
      "lon": 77.7515382,
      "tags": {
        "amenity": "fast_food",
        "brand": "Domino's",
        "brand:wikidata": "Q839466",
        "check_date": "2025-08-28",
        "cuisine": "pizza",
        "name": "Domino's",
        "takeaway": "yes"
      }
    },
    {
      "type": "node",
      "id": 12588048612,
      "lat": 12.9455014,
      "lon": 77.7524932,
      "tags": {
        "amenity": "pharmacy",
        "check_date": "2025-02-14",
        "healthcare": "pharmacy",
        "name": "SLV Mecical"
      }
    },
    {
      "type": "node",
      "id": 12588048613,
      "lat": 12.9458019,
      "lon": 77.7533353,
      "tags": {
        "check_date": "2025-02-14",
        "name": "SL Bike Service Point",
        "shop": "motorcycle_repair"
      }
    },
    {
      "type": "node",
      "id": 12603061174,
      "lat": 12.9373132,
      "lon": 77.7485155,
      "tags": {
        "check_date": "2025-08-09",
        "level": "0",
        "name": "King's Mobile",
        "shop": "mobile_phone;telecommunication"
      }
    },
    {
      "type": "node",
      "id": 12617717665,
      "lat": 12.9377088,
      "lon": 77.7472448,
      "tags": {
        "check_date": "2025-07-01",
        "contact:phone": "+91 84497 99282; +91 70600 24104",
        "hairdresser": "barber",
        "name": "Green MF",
        "shop": "hairdresser"
      }
    },
    {
      "type": "node",
      "id": 12617717666,
      "lat": 12.9377071,
      "lon": 77.7472724,
      "tags": {
        "check_date": "2025-07-01",
        "shop": "vacant"
      }
    },
    {
      "type": "node",
      "id": 12617717667,
      "lat": 12.9378527,
      "lon": 77.7473753,
      "tags": {
        "amenity": "restaurant",
        "check_date": "2025-07-27",
        "check_date:diet:vegan": "2025-07-27",
        "cuisine": "indian",
        "diet:vegan": "yes",
        "diet:vegetarian": "only",
        "indoor_seating": "yes",
        "name": "Sri Basaveshwara Khanavali",
        "outdoor_seating": "no"
      }
    },
    {
      "type": "node",
      "id": 12617717669,
      "lat": 12.9378186,
      "lon": 77.7474808,
      "tags": {
        "check_date": "2025-06-28",
        "name": "Bullet Service Center",
        "shop": "motorcycle_repair"
      }
    },
    {
      "type": "node",
      "id": 12617717670,
      "lat": 12.937627,
      "lon": 77.7474721,
      "tags": {
        "addr:housenumber": "112",
        "addr:street": "Halasahalli Road",
        "check_date": "2025-07-01",
        "contact:phone": "080 28538699; +91 87624 37799; +91 97402 45423",
        "name": "Shrusti Bharatgas",
        "opening_hours": "Mo-Fr 09:00-13:30,14:30-20:00",
        "shop": "gas"
      }
    },
    {
      "type": "node",
      "id": 12617717671,
      "lat": 12.9376127,
      "lon": 77.747508,
      "tags": {
        "addr:housenumber": "112",
        "addr:street": "Halasahalli Road",
        "check_date": "2025-06-29",
        "name": "Lucky Enterprises",
        "shop": "yes"
      }
    },
    {
      "type": "node",
      "id": 12617717672,
      "lat": 12.9375795,
      "lon": 77.7476063,
      "tags": {
        "check_date": "2025-06-29",
        "indoor_seating": "no",
        "name": "L.V. Iyengar Bakery",
        "outdoor_seating": "no",
        "shop": "bakery",
        "takeaway": "only"
      }
    },
    {
      "type": "node",
      "id": 12617717673,
      "lat": 12.9375675,
      "lon": 77.7476451,
      "tags": {
        "addr:floor": "0",
        "check_date": "2025-08-09",
        "contact:phone": "+91 74839 05553",
        "name": "PSR Bedding Center",
        "shop": "bed"
      }
    },
    {
      "type": "node",
      "id": 12617717674,
      "lat": 12.9376516,
      "lon": 77.7478889,
      "tags": {
        "addr:floor": ";0",
        "check_date": "2025-09-28",
        "contact:phone": "+91 82178 30775",
        "level": "0",
        "name": "Mobile Zone",
        "shop": "mobile_phone"
      }
    },
    {
      "type": "node",
      "id": 12617717675,
      "lat": 12.9376403,
      "lon": 77.7479438,
      "tags": {
        "check_date": "2025-08-09",
        "contact:phone": "+91 88929 00824",
        "name": "Venki Digital studio XEROX",
        "shop": "copyshop"
      }
    },
    {
      "type": "node",
      "id": 12617717677,
      "lat": 12.9373162,
      "lon": 77.748436,
      "tags": {
        "amenity": "restaurant",
        "check_date": "2025-08-09",
        "indoor_seating": "yes",
        "level": "0",
        "name": "MMA Kababs & Rolls",
        "outdoor_seating": "no"
      }
    },
    {
      "type": "node",
      "id": 12617717678,
      "lat": 12.9371629,
      "lon": 77.7488335,
      "tags": {
        "check_date": "2025-11-16",
        "check_date:opening_hours": "2025-11-16",
        "diet:vegan": "only",
        "diet:vegetarian": "only",
        "indoor_seating": "no",
        "name": "Sri Sai Ram Hot Chips",
        "opening_hours:signed": "no",
        "outdoor_seating": "no",
        "shop": "snack",
        "snack": "chips",
        "takeaway": "only"
      }
    },
    {
      "type": "node",
      "id": 12617717679,
      "lat": 12.9371535,
      "lon": 77.7488702,
      "tags": {
        "check_date": "2025-11-16",
        "check_date:opening_hours": "2025-11-16",
        "hairdresser": "barber",
        "name": "Royal Men's Saloon",
        "opening_hours:signed": "no",
        "shop": "hairdresser"
      }
    },
    {
      "type": "node",
      "id": 12617717681,
      "lat": 12.937097,
      "lon": 77.7490583,
      "tags": {
        "amenity": "fast_food",
        "check_date": "2025-08-13",
        "cuisine": "juice",
        "indoor_seating": "yes",
        "name": "adda",
        "outdoor_seating": "no"
      }
    },
    {
      "type": "node",
      "id": 12617717682,
      "lat": 12.9371252,
      "lon": 77.7489656,
      "tags": {
        "check_date": "2025-08-06",
        "name": "Namma Mewa",
        "shop": "nuts"
      }
    },
    {
      "type": "node",
      "id": 12617717687,
      "lat": 12.9372502,
      "lon": 77.7491892,
      "tags": {
        "check_date": "2025-06-28",
        "name": "Madeena Garage And Water Service",
        "shop": "motorcycle_repair"
      }
    },
    {
      "type": "node",
      "id": 12617717688,
      "lat": 12.9372368,
      "lon": 77.749215,
      "tags": {
        "check_date": "2025-06-28",
        "indoor_seating": "no",
        "outdoor_seating": "no",
        "shop": "bakery",
        "takeaway": "only"
      }
    },
    {
      "type": "node",
      "id": 12617717689,
      "lat": 12.9372244,
      "lon": 77.7492425,
      "tags": {
        "alt_name": "Sri Sereenivasa Mobiles",
        "check_date": "2025-06-28",
        "name": "Srinivas Mobile Service Center",
        "shop": "mobile_phone;copyshop"
      }
    },
    {
      "type": "node",
      "id": 12617717690,
      "lat": 12.9371953,
      "lon": 77.7493039,
      "tags": {
        "check_date": "2025-08-06",
        "name": "UPPS Foot Wears",
        "shop": "shoes"
      }
    },
    {
      "type": "node",
      "id": 12617717692,
      "lat": 12.9371526,
      "lon": 77.7494616,
      "tags": {
        "check_date": "2025-11-24",
        "contact:phone": "+91 97318 61968",
        "female": "yes",
        "name": "Meghashree Beauty Salon",
        "shop": "hairdresser"
      }
    },
    {
      "type": "node",
      "id": 12617717694,
      "lat": 12.9371045,
      "lon": 77.7495603,
      "tags": {
        "addr:housenumber": "136",
        "addr:street": "Halasahalli Road",
        "amenity": "clinic",
        "check_date": "2025-08-06",
        "healthcare": "clinic",
        "level": "0",
        "name": "SR Clinic"
      }
    },
    {
      "type": "node",
      "id": 12617717695,
      "lat": 12.9371,
      "lon": 77.7495865,
      "tags": {
        "addr:housenumber": "136/19",
        "addr:street": "Halasahalli Road",
        "amenity": "pharmacy",
        "check_date": "2025-07-01",
        "healthcare": "pharmacy",
        "level": "0",
        "name": "SR Pharma"
      }
    },
    {
      "type": "node",
      "id": 12617717696,
      "lat": 12.9370943,
      "lon": 77.7496179,
      "tags": {
        "addr:housenumber": "136",
        "addr:street": "Halasahalli Road",
        "check_date": "2025-08-06",
        "level": "0",
        "name": "Bisleri",
        "shop": "water"
      }
    },
    {
      "type": "node",
      "id": 12617717697,
      "lat": 12.9370886,
      "lon": 77.7496443,
      "tags": {
        "addr:housenumber": "136",
        "addr:street": "Halasahalli Road",
        "check_date": "2025-08-06",
        "shop": "kiosk"
      }
    },
    {
      "type": "node",
      "id": 12617717699,
      "lat": 12.9370108,
      "lon": 77.7497353,
      "tags": {
        "amenity": "restaurant",
        "changing_table": "no",
        "check_date": "2025-08-17",
        "cuisine": "indian;chaat",
        "description": "A ghost kitchen",
        "name": "Samosa Party",
        "takeaway": "only",
        "website": "https://www.samosaparty.in"
      }
    },
    {
      "type": "node",
      "id": 12617717700,
      "lat": 12.9369459,
      "lon": 77.7498259,
      "tags": {
        "check_date": "2025-08-06",
        "craft": "caterer",
        "name": "Prashasthi Bhat Stationary Store",
        "shop": "stationery"
      }
    },
    {
      "type": "node",
      "id": 12617748991,
      "lat": 12.9369386,
      "lon": 77.7504357,
      "tags": {
        "addr:housenumber": "308",
        "addr:street": "Halasahalli Road",
        "amenity": "social_facility",
        "check_date": "2025-08-26",
        "name": "Shivacharana Old Age Home",
        "social_facility": "assisted_living",
        "social_facility:for": "senior"
      }
    },
    {
      "type": "node",
      "id": 12617763501,
      "lat": 12.9369384,
      "lon": 77.7498822,
      "tags": {
        "addr:floor": "0",
        "amenity": "atm",
        "brand": "Canara Bank",
        "brand:en": "Canara Bank",
        "brand:hi": "केनरा बैंक",
        "brand:kn": "ಕೆನರಾ ಬ್ಯಾಂಕ್",
        "brand:pa": "ਕੇਨਰਾ ਬੈਂਕ",
        "brand:pnb": "کینرا بینک",
        "brand:ur": "کینرا بینک",
        "brand:wikidata": "Q2003777",
        "check_date": "2025-07-15",
        "name:en": "Canara Bank",
        "name:hi": "केनरा बैंक",
        "name:kn": "ಕೆನರಾ ಬ್ಯಾಂಕ್",
        "name:pa": "ਕੇਨਰਾ ਬੈਂਕ",
        "name:pnb": "کینرا بینک",
        "name:ur": "کینرا بینک",
        "operator": "Canara Bank",
        "operator:wikidata": "Q2003777"
      }
    },
    {
      "type": "node",
      "id": 12617763502,
      "lat": 12.9367979,
      "lon": 77.750068,
      "tags": {
        "check_date": "2025-08-06",
        "name": "Sri Manjunatha Provision Store",
        "shop": "convenience"
      }
    },
    {
      "type": "node",
      "id": 12617769436,
      "lat": 12.9367499,
      "lon": 77.7501342,
      "tags": {
        "check_date": "2025-08-06",
        "name": "Sri Chowdeshwari Milk Parlour",
        "shop": "dairy"
      }
    },
    {
      "type": "node",
      "id": 12617769437,
      "lat": 12.9366674,
      "lon": 77.7502097,
      "tags": {
        "check_date": "2025-08-06",
        "name": "SLV Fruits And Vegetables",
        "shop": "greengrocer"
      }
    },
    {
      "type": "node",
      "id": 12617769438,
      "lat": 12.9370149,
      "lon": 77.749708,
      "tags": {
        "check_date": "2025-07-01",
        "name": "SLV Fab Designers",
        "shop": "tailor"
      }
    },
    {
      "type": "node",
      "id": 12617769439,
      "lat": 12.9365891,
      "lon": 77.7503139,
      "tags": {
        "check_date": "2025-08-06",
        "shop": "vacant"
      }
    },
    {
      "type": "node",
      "id": 12618150974,
      "lat": 12.9371139,
      "lon": 77.749003,
      "tags": {
        "check_date": "2025-09-07",
        "name": "Fancy Gift Center",
        "shop": "gift"
      }
    },
    {
      "type": "node",
      "id": 12618414861,
      "lat": 12.9378201,
      "lon": 77.7469152,
      "tags": {
        "check_date": "2025-09-07",
        "shop": "motorcycle_repair"
      }
    },
    {
      "type": "node",
      "id": 12620153411,
      "lat": 12.9433908,
      "lon": 77.7475266,
      "tags": {
        "amenity": "hospital",
        "check_date": "2025-06-01",
        "healthcare": "hospital",
        "name": "Aria",
        "phone": "+91 90907 86110"
      }
    },
    {
      "type": "node",
      "id": 12623536021,
      "lat": 12.932065,
      "lon": 77.7457059,
      "tags": {
        "air_conditioning": "yes",
        "amenity": "cafe",
        "brand": "Third Wave Coffee Roasters",
        "brand:wikidata": "Q7785004",
        "check_date": "2025-08-17",
        "check_date:diet:vegetarian": "2025-08-17",
        "cuisine": "coffee_shop",
        "delivery": "yes",
        "diet:vegetarian": "yes",
        "indoor_seating": "yes",
        "level": "0",
        "name": "Third Wave Coffee Roasters",
        "outdoor_seating": "no",
        "takeaway": "yes",
        "wheelchair": "yes"
      }
    },
    {
      "type": "node",
      "id": 12640131165,
      "lat": 12.9377424,
      "lon": 77.7472045,
      "tags": {
        "air_conditioning": "no",
        "amenity": "restaurant",
        "check_date": "2025-07-27",
        "check_date:diet:vegetarian": "2025-07-27",
        "check_date:smoking": "2025-07-27",
        "contact:phone": "+91 81054 84344",
        "diet:vegetarian": "yes",
        "indoor_seating": "yes",
        "name": "Andhra Mess",
        "outdoor_seating": "no",
        "smoking": "no"
      }
    },
    {
      "type": "node",
      "id": 12651753829,
      "lat": 12.9371421,
      "lon": 77.7489027,
      "tags": {
        "check_date": "2025-11-16",
        "check_date:opening_hours": "2025-11-16",
        "name": "Farm Fresh",
        "opening_hours:signed": "no",
        "shop": "greengrocer"
      }
    },
    {
      "type": "node",
      "id": 12651753830,
      "lat": 12.9369823,
      "lon": 77.749317,
      "tags": {
        "check_date": "2025-11-24",
        "contact:phone": "+91 92411 31870",
        "name": "Adarsh Enterprises",
        "shop": "yes"
      }
    },
    {
      "type": "node",
      "id": 12651753832,
      "lat": 12.9369119,
      "lon": 77.7494821,
      "tags": {
        "check_date": "2025-06-28",
        "name": "Needles & Threads Fashion Boutique",
        "shop": "tailor"
      }
    },
    {
      "type": "node",
      "id": 12651753834,
      "lat": 12.9368548,
      "lon": 77.74961,
      "tags": {
        "check_date": "2025-06-28",
        "name": "Sharavanabhava Electricals And Stationary",
        "shop": "electrical"
      }
    },
    {
      "type": "node",
      "id": 12651753835,
      "lat": 12.9368483,
      "lon": 77.7496436,
      "tags": {
        "check_date": "2025-06-28",
        "name": "Tirumala Enterprises",
        "shop": "trade"
      }
    },
    {
      "type": "node",
      "id": 12651753838,
      "lat": 12.9366038,
      "lon": 77.7499717,
      "tags": {
        "check_date": "2025-07-19",
        "name": "Mamta Rice Traders",
        "shop": "trade",
        "trade": "catering_supplies"
      }
    },
    {
      "type": "node",
      "id": 12651753839,
      "lat": 12.9365409,
      "lon": 77.7500797,
      "tags": {
        "addr:housenumber": "80/1;98/1",
        "addr:street": "Halasahalli Road",
        "check_date": "2025-07-12",
        "level": "0",
        "name": "Shree Vinayaka Glass And Plywoods",
        "shop": "trade",
        "trade": "timber"
      }
    },
    {
      "type": "node",
      "id": 12651832972,
      "lat": 12.9482121,
      "lon": 77.7463571,
      "tags": {
        "check_date": "2025-07-26",
        "name": "A.H Auto Empire",
        "shop": "car_repair"
      }
    },
    {
      "type": "node",
      "id": 12651832973,
      "lat": 12.9378104,
      "lon": 77.7469462,
      "tags": {
        "check_date": "2025-07-01",
        "contact:phone": "+91 96111 91140; +91 96118 99601",
        "name": "Dharani Enterprises",
        "shop": "copyshop"
      }
    },
    {
      "type": "node",
      "id": 12651854712,
      "lat": 12.937671,
      "lon": 77.7477915,
      "tags": {
        "addr:floor": "0",
        "check_date": "2025-09-28",
        "contact:phone": "+91 97317 71159",
        "craft": "photographer",
        "name": "GK Digital Studio",
        "shop": "copyshop"
      }
    },
    {
      "type": "node",
      "id": 12651854713,
      "lat": 12.937715,
      "lon": 77.7477108,
      "tags": {
        "amenity": "dentist",
        "check_date": "2025-06-28",
        "healthcare": "dentist",
        "name": "Smile Miless",
        "phone": "+91 9019906870",
        "wheelchair": "no"
      }
    },
    {
      "type": "node",
      "id": 12656838937,
      "lat": 12.9377509,
      "lon": 77.7475664,
      "tags": {
        "check_date": "2025-07-12",
        "name": "Pradhan Mantri Kisan Samridhi Kendra",
        "shop": "agrarian"
      }
    },
    {
      "type": "node",
      "id": 12662937812,
      "lat": 12.9377372,
      "lon": 77.7471855,
      "tags": {
        "check_date": "2025-06-29",
        "indoor_seating": "no",
        "outdoor_seating": "no",
        "shop": "bakery",
        "takeaway": "only"
      }
    },
    {
      "type": "node",
      "id": 12664963521,
      "lat": 12.9377397,
      "lon": 77.747608,
      "tags": {
        "check_date": "2025-08-22",
        "name": "Karthik Traders",
        "shop": "trade"
      }
    },
    {
      "type": "node",
      "id": 12664963522,
      "lat": 12.9376998,
      "lon": 77.7478309,
      "tags": {
        "addr:floor": "1",
        "amenity": "restaurant",
        "check_date": "2025-08-22",
        "cuisine": "chinese;north_indian;tandoor",
        "diet:vegetarian": "only",
        "name": "Aditi's Flavor Hub",
        "takeaway": "only"
      }
    },
    {
      "type": "node",
      "id": 12664963523,
      "lat": 12.9376651,
      "lon": 77.7478208,
      "tags": {
        "check_date": "2025-06-28",
        "name": "Sahara Computer Technology Education institute",
        "office": "educational_institute",
        "shop": "computer"
      }
    },
    {
      "type": "node",
      "id": 12695909601,
      "lat": 12.9367701,
      "lon": 77.7497751,
      "tags": {
        "check_date": "2025-08-06",
        "name": "Bhavani Electricals",
        "shop": "electrical"
      }
    },
    {
      "type": "node",
      "id": 12695909602,
      "lat": 12.9367089,
      "lon": 77.7498142,
      "tags": {
        "check_date": "2025-08-06",
        "name": "Sri Nidhi Power Systems",
        "shop": "energy"
      }
    },
    {
      "type": "node",
      "id": 12695909603,
      "lat": 12.9366907,
      "lon": 77.74986,
      "tags": {
        "check_date": "2025-08-06",
        "name": "Sri Nidhi Aquariums",
        "shop": "pet"
      }
    },
    {
      "type": "node",
      "id": 12695940094,
      "lat": 12.9398701,
      "lon": 77.7475827,
      "tags": {
        "check_date": "2025-07-05",
        "service:bicycle:repair": "yes",
        "service:bicycle:retail": "no",
        "shop": "bicycle",
        "toilets": "no"
      }
    },
    {
      "type": "node",
      "id": 12701680887,
      "lat": 12.9332187,
      "lon": 77.7484096,
      "tags": {
        "check_date": "2025-03-26",
        "name": "KV Mart",
        "shop": "general"
      }
    },
    {
      "type": "node",
      "id": 12701698728,
      "lat": 12.9394684,
      "lon": 77.7473501,
      "tags": {
        "check_date": "2025-07-04",
        "name": "MKS General Store",
        "shop": "general"
      }
    },
    {
      "type": "node",
      "id": 12701698729,
      "lat": 12.9395296,
      "lon": 77.7473424,
      "tags": {
        "check_date": "2025-07-04",
        "name": "Pramod Bankers",
        "shop": "pawnbroker"
      }
    },
    {
      "type": "node",
      "id": 12701698730,
      "lat": 12.9427801,
      "lon": 77.7471815,
      "tags": {
        "check_date": "2025-08-09",
        "name": "New Cotton Zone",
        "shop": "clothes"
      }
    },
    {
      "type": "node",
      "id": 12730569320,
      "lat": 12.9396434,
      "lon": 77.7473372,
      "tags": {
        "amenity": "fast_food",
        "check_date": "2025-07-04",
        "cuisine": "juice",
        "name": "Sri Prasanna Kailash Juice Shop"
      }
    },
    {
      "type": "node",
      "id": 12730591138,
      "lat": 12.9399713,
      "lon": 77.7469397,
      "tags": {
        "check_date": "2025-08-06",
        "name": "Tanushree Flower Shop",
        "shop": "florist"
      }
    },
    {
      "type": "node",
      "id": 12730591139,
      "lat": 12.9399813,
      "lon": 77.7470119,
      "tags": {
        "check_date": "2025-07-11",
        "name": "Krithi Gift Center",
        "shop": "gift"
      }
    },
    {
      "type": "node",
      "id": 12730591141,
      "lat": 12.9401178,
      "lon": 77.7468332,
      "tags": {
        "amenity": "fast_food",
        "check_date": "2025-07-11",
        "cuisine": "juice",
        "name": "Fresh Crush"
      }
    },
    {
      "type": "node",
      "id": 12730591142,
      "lat": 12.9399835,
      "lon": 77.7469772,
      "tags": {
        "amenity": "clinic",
        "check_date": "2025-08-06",
        "healthcare": "clinic",
        "name": "Siddanth Health Care"
      }
    },
    {
      "type": "node",
      "id": 12731411405,
      "lat": 12.9441749,
      "lon": 77.7471712,
      "tags": {
        "check_date": "2025-07-20",
        "contact:phone": "+91 97390 77220; +91 74835 75212",
        "name": "Kaveri Garage",
        "shop": "motorcycle_repair"
      }
    },
    {
      "type": "node",
      "id": 12731411406,
      "lat": 12.9429248,
      "lon": 77.7472345,
      "tags": {
        "check_date": "2025-09-28",
        "contact:phone": "+91 96455 86858",
        "name": "Hi-Tech Furniture & interior",
        "shop": "furniture"
      }
    },
    {
      "type": "node",
      "id": 12731437335,
      "lat": 12.9417099,
      "lon": 77.7472966,
      "tags": {
        "check_date": "2025-08-06",
        "name": "SLV Condiments",
        "shop": "confectionery"
      }
    },
    {
      "type": "node",
      "id": 12732311822,
      "lat": 12.9374546,
      "lon": 77.7485297,
      "tags": {
        "check_date": "2025-07-27",
        "check_date:diet:halal": "2025-07-27",
        "diet:halal": "yes",
        "name": "Barkath Chicken Mutton & Fish Mart",
        "shop": "butcher"
      }
    },
    {
      "type": "node",
      "id": 12740911903,
      "lat": 12.9373365,
      "lon": 77.7514601,
      "tags": {
        "addr:floor": "P",
        "amenity": "bench",
        "armrest": "yes",
        "backrest": "yes",
        "colour": "red",
        "direction": "324",
        "level": "0",
        "material": "concrete",
        "seats": "3",
        "survey:date": "2025-09-18"
      }
    },
    {
      "type": "node",
      "id": 12740911907,
      "lat": 12.9374343,
      "lon": 77.7513917,
      "tags": {
        "addr:floor": "P",
        "amenity": "bench",
        "armrest": "yes",
        "backrest": "yes",
        "colour": "grey",
        "level": "0",
        "material": "metal",
        "seats": "3"
      }
    },
    {
      "type": "node",
      "id": 12801564508,
      "lat": 12.9359352,
      "lon": 77.7509508,
      "tags": {
        "check_date": "2025-09-14",
        "name": "Bhavana Tent House",
        "rental": "tent",
        "shop": "marquee_hire"
      }
    },
    {
      "type": "node",
      "id": 12805843703,
      "lat": 12.9380357,
      "lon": 77.7464481,
      "tags": {
        "amenity": "cafe",
        "check_date": "2025-07-26",
        "name": "RR Dum Biriyani"
      }
    },
    {
      "type": "node",
      "id": 12870727586,
      "lat": 12.9379994,
      "lon": 77.7464163,
      "tags": {
        "check_date": "2025-08-06",
        "name": "Mataji Home Appliances",
        "shop": "appliance"
      }
    },
    {
      "type": "node",
      "id": 12870727587,
      "lat": 12.9381163,
      "lon": 77.7466734,
      "tags": {
        "addr:housenumber": "204/2",
        "addr:street": "Varthur Main Road",
        "check_date": "2025-07-26",
        "name": "ASK Birthday Party Shop",
        "shop": "party"
      }
    },
    {
      "type": "node",
      "id": 12870727588,
      "lat": 12.9383901,
      "lon": 77.7469296,
      "tags": {
        "amenity": "fast_food",
        "check_date": "2025-08-06",
        "diet:halal": "yes",
        "name": "Madeena Fast Food"
      }
    },
    {
      "type": "node",
      "id": 12870727589,
      "lat": 12.9377446,
      "lon": 77.7461827,
      "tags": {
        "check_date": "2025-08-06",
        "name": "Maya Automobiles",
        "shop": "car_parts"
      }
    },
    {
      "type": "node",
      "id": 12870727590,
      "lat": 12.93777,
      "lon": 77.7462086,
      "tags": {
        "check_date": "2025-08-06",
        "name": "Mataji Automobiles",
        "shop": "car_parts"
      }
    },
    {
      "type": "node",
      "id": 12870727592,
      "lat": 12.9379201,
      "lon": 77.746349,
      "tags": {
        "check_date": "2025-08-06",
        "name": "Sri Raghavendra Prasanna Stationery Store",
        "shop": "stationery"
      }
    },
    {
      "type": "node",
      "id": 12870727593,
      "lat": 12.9379429,
      "lon": 77.7463567,
      "tags": {
        "check_date": "2025-08-06",
        "name": "mini store",
        "shop": "mobile_phone"
      }
    },
    {
      "type": "node",
      "id": 12870727594,
      "lat": 12.9379679,
      "lon": 77.7464082,
      "tags": {
        "check_date": "2025-08-06",
        "name": "Krishna Enterprises",
        "shop": "mobile_phone"
      }
    },
    {
      "type": "node",
      "id": 12872219774,
      "lat": 12.9412113,
      "lon": 77.7469761,
      "tags": {
        "amenity": "school",
        "check_date": "2025-07-04",
        "name": "Mount Blue High School"
      }
    },
    {
      "type": "node",
      "id": 12874815143,
      "lat": 12.9464212,
      "lon": 77.7469838,
      "tags": {
        "addr:street": "Varthur Lake Road",
        "building": "kiosk",
        "building:levels": "1",
        "check_date": "2025-08-26",
        "name": "Puncture Shop",
        "roof:levels": "0",
        "roof:shape": "flat",
        "service:vehicle:tyres": "yes",
        "shop": "car_repair"
      }
    },
    {
      "type": "node",
      "id": 12874872233,
      "lat": 12.943522,
      "lon": 77.7472008,
      "tags": {
        "check_date": "2025-09-14",
        "indoor_seating": "no",
        "name": "Sri Ganesh Bakery And Condiments",
        "outdoor_seating": "no",
        "payment:credit_cards": "no",
        "payment:debit_cards": "no",
        "shop": "bakery",
        "takeaway": "only"
      }
    },
    {
      "type": "node",
      "id": 12874872234,
      "lat": 12.9427522,
      "lon": 77.7471688,
      "tags": {
        "check_date": "2025-09-28",
        "internet_access": "no",
        "name": "Babaji Pan Shop",
        "payment:cards": "no",
        "payment:cash": "yes",
        "payment:credit_cards": "no",
        "payment:debit_cards": "no",
        "shop": "kiosk",
        "wheelchair": "no"
      }
    },
    {
      "type": "node",
      "id": 12878916504,
      "lat": 12.942594,
      "lon": 77.7471823,
      "tags": {
        "addr:floor": "G",
        "check_date": "2025-09-28",
        "contact:phone": "+91 90669 98800; +91 63600 16552; +91 90193 37102",
        "level": "0",
        "name": "Purnavi Jewellery Works",
        "shop": "jewelry"
      }
    },
    {
      "type": "node",
      "id": 12878916505,
      "lat": 12.9401924,
      "lon": 77.7476735,
      "tags": {
        "check_date": "2025-08-09",
        "name": "Tattoo Studio",
        "shop": "tattoo"
      }
    },
    {
      "type": "node",
      "id": 12878916506,
      "lat": 12.939797,
      "lon": 77.7471995,
      "tags": {
        "check_date": "2025-07-04",
        "name": "Srinivasa Wine Center",
        "shop": "wine"
      }
    },
    {
      "type": "node",
      "id": 12879028441,
      "lat": 12.9388501,
      "lon": 77.7472104,
      "tags": {
        "amenity": "hospital",
        "check_date": "2025-06-01",
        "healthcare": "hospital",
        "name": "Sree Venkateshwara Hospital"
      }
    },
    {
      "type": "node",
      "id": 12882912273,
      "lat": 12.9439846,
      "lon": 77.7468939,
      "tags": {
        "check_date": "2025-08-06",
        "name": "Sri S Traders",
        "shop": "trade",
        "trade": "agricultural_supplies"
      }
    },
    {
      "type": "node",
      "id": 12888199746,
      "lat": 12.9416565,
      "lon": 77.7472925,
      "tags": {
        "check_date": "2025-08-06",
        "name": "Madina SS",
        "shop": "butcher"
      }
    },
    {
      "type": "node",
      "id": 12889160198,
      "lat": 12.9377907,
      "lon": 77.7469777,
      "tags": {
        "addr:street": "Halasahalli Road",
        "amenity": "clinic",
        "check_date": "2025-09-07",
        "healthcare": "clinic",
        "name": "Manjunath Clinic"
      }
    },
    {
      "type": "node",
      "id": 12915012979,
      "lat": 12.9444737,
      "lon": 77.7468967,
      "tags": {
        "check_date": "2025-08-17",
        "name": "Bismillah Motor Works",
        "shop": "motorcycle_repair"
      }
    },
    {
      "type": "node",
      "id": 12918775871,
      "lat": 12.9390846,
      "lon": 77.7406502,
      "tags": {
        "amenity": "fast_food",
        "check_date": "2025-07-01",
        "fast_food": "biriyani",
        "name": "RR Dum Biriyani"
      }
    },
    {
      "type": "node",
      "id": 12942413818,
      "lat": 12.9348468,
      "lon": 77.7433697,
      "tags": {
        "amenity": "pharmacy",
        "brand": "Apollo Pharmacy",
        "brand:wikidata": "Q62562612",
        "check_date": "2025-06-28",
        "healthcare": "pharmacy",
        "name": "Apollo Pharmacy"
      }
    },
    {
      "type": "node",
      "id": 12942413819,
      "lat": 12.9364648,
      "lon": 77.7451464,
      "tags": {
        "brand": "Airtel",
        "brand:wikidata": "Q854867",
        "check_date": "2025-06-21",
        "name": "Airtel",
        "shop": "mobile_phone"
      }
    },
    {
      "type": "node",
      "id": 12956020019,
      "lat": 12.9422585,
      "lon": 77.7473207,
      "tags": {
        "addr:housenumber": "1/1A",
        "addr:street": "Varthur Main Road",
        "amenity": "clinic",
        "check_date": "2025-08-26",
        "contact:phone": "+91 82177 77281",
        "healthcare": "clinic",
        "name": "Aitone Diagnostics & Clinics"
      }
    },
    {
      "type": "node",
      "id": 12956020020,
      "lat": 12.9420054,
      "lon": 77.7472277,
      "tags": {
        "check_date": "2025-07-29",
        "check_date:diet:halal": "2025-07-29",
        "diet:halal": "yes",
        "name": "Bismillah Chicken & Mutton Center",
        "shop": "butcher"
      }
    },
    {
      "type": "node",
      "id": 12956020021,
      "lat": 12.9359775,
      "lon": 77.7513669,
      "tags": {
        "addr:street": "Halasahalli Road",
        "check_date": "2025-08-26",
        "name": "Sri Lakshmi Venkateshwara Granites",
        "shop": "trade",
        "trade": "marble"
      }
    },
    {
      "type": "node",
      "id": 12956020022,
      "lat": 12.9363701,
      "lon": 77.7503972,
      "tags": {
        "addr:floor": "0",
        "addr:street": "Halasahalli Road",
        "check_date": "2025-07-19",
        "contact:phone": "+91 88614 33125; +91 97399 56563",
        "name": "NCM Mineral Water Supply",
        "shop": "water"
      }
    },
    {
      "type": "node",
      "id": 12956022849,
      "lat": 12.9383995,
      "lon": 77.7472466,
      "tags": {
        "amenity": "fixme",
        "check_date": "2025-08-06",
        "contact:phone": "+91 87220 00093",
        "fixme": "type",
        "fixme:type": "borewell_service",
        "name": "Sri Renukka Yellama Borewells"
      }
    },
    {
      "type": "node",
      "id": 12956352514,
      "lat": 12.9420932,
      "lon": 77.7441185,
      "tags": {
        "amenity": "place_of_worship",
        "fixme": "needs survey, not visible from imagery",
        "name": "Eidgah",
        "name:kn": "ಇದ್ಗಾ",
        "religion": "muslim"
      }
    },
    {
      "type": "node",
      "id": 12959508036,
      "lat": 12.9434326,
      "lon": 77.7472142,
      "tags": {
        "addr:housename": "Asmath Arcade",
        "addr:street": "Varthur Main Road",
        "amenity": "events_venue",
        "check_date": "2025-09-14",
        "contact:phone": "+91 63647 11635",
        "name": "The Loire Party Hall"
      }
    },
    {
      "type": "node",
      "id": 12959508037,
      "lat": 12.9428271,
      "lon": 77.7471759,
      "tags": {
        "amenity": "fast_food",
        "check_date": "2025-08-30",
        "cuisine": "juice;coffee_shop;bubble_tea;burger;pasta;ice_cream;momo;roll;sandwich",
        "diet:vegetarian": "only",
        "drive_through": "no",
        "indoor_seating": "yes",
        "name": "Lassi Corner",
        "outdoor_seating": "no"
      }
    },
    {
      "type": "node",
      "id": 12959508038,
      "lat": 12.9420744,
      "lon": 77.7472195,
      "tags": {
        "amenity": "restaurant",
        "check_date": "2025-08-06",
        "diet:halal": "yes",
        "indoor_seating": "yes",
        "name": "Ambur Hot Dum Biriyani",
        "outdoor_seating": "no"
      }
    },
    {
      "type": "node",
      "id": 12959508039,
      "lat": 12.9411318,
      "lon": 77.7473343,
      "tags": {
        "check_date": "2025-08-30",
        "shop": "bag"
      }
    },
    {
      "type": "node",
      "id": 12959508040,
      "lat": 12.9410085,
      "lon": 77.7472717,
      "tags": {
        "check_date": "2025-07-10",
        "name": "AJ Enterprises",
        "shop": "houseware"
      }
    },
    {
      "type": "node",
      "id": 12959571109,
      "lat": 12.9369036,
      "lon": 77.7495017,
      "tags": {
        "check_date": "2025-06-28",
        "name": "Blossom Salon",
        "shop": "hairdresser"
      }
    },
    {
      "type": "node",
      "id": 12959571111,
      "lat": 12.9374169,
      "lon": 77.7487916,
      "tags": {
        "check_date": "2025-11-16",
        "check_date:opening_hours": "2025-11-16",
        "contact:phone": "+91 98457 84578",
        "name": "MD Tyres & Batteries",
        "opening_hours:signed": "no",
        "shop": "tyres",
        "toilets": "no"
      }
    },
    {
      "type": "node",
      "id": 12959571112,
      "lat": 12.9371702,
      "lon": 77.7487965,
      "tags": {
        "amenity": "restaurant",
        "check_date": "2025-11-16",
        "check_date:diet:vegetarian": "2025-11-16",
        "check_date:opening_hours": "2025-11-16",
        "diet:vegetarian": "yes",
        "indoor_seating": "yes",
        "name": "Sri Ashok Hotel",
        "opening_hours:signed": "no",
        "outdoor_seating": "no"
      }
    },
    {
      "type": "node",
      "id": 12959588089,
      "lat": 12.936225,
      "lon": 77.7447978,
      "tags": {
        "amenity": "fast_food",
        "brand": "Subway",
        "brand:wikidata": "Q244457",
        "check_date": "2025-06-28",
        "cuisine": "sandwich",
        "name": "Subway",
        "takeaway": "yes"
      }
    },
    {
      "type": "node",
      "id": 12959588090,
      "lat": 12.9337488,
      "lon": 77.7433175,
      "tags": {
        "brand": "Lenskart",
        "brand:wikidata": "Q17068753",
        "check_date": "2025-06-28",
        "name": "Lenskart",
        "shop": "optician"
      }
    },
    {
      "type": "node",
      "id": 12959588091,
      "lat": 12.9331814,
      "lon": 77.7426642,
      "tags": {
        "check_date": "2025-06-28",
        "name": "Mayura Bakery & Sweets",
        "shop": "bakery"
      }
    },
    {
      "type": "node",
      "id": 12961126668,
      "lat": 12.9412828,
      "lon": 77.7469481,
      "tags": {
        "check_date": "2025-08-30",
        "name": "Royal Footwear",
        "shop": "shoes"
      }
    },
    {
      "type": "node",
      "id": 12961126669,
      "lat": 12.9409714,
      "lon": 77.747266,
      "tags": {
        "check_date": "2025-06-29",
        "shop": "mobile_phone"
      }
    },
    {
      "type": "node",
      "id": 12965735692,
      "lat": 12.9374494,
      "lon": 77.7486032,
      "tags": {
        "check_date": "2025-08-09",
        "shop": "vacant"
      }
    },
    {
      "type": "node",
      "id": 12965798999,
      "lat": 12.9379006,
      "lon": 77.747112,
      "tags": {
        "amenity": "taxi",
        "capacity": "1",
        "taxi_vehicle": "auto_rickshaw"
      }
    },
    {
      "type": "node",
      "id": 12965800327,
      "lat": 12.9408326,
      "lon": 77.7472861,
      "tags": {
        "check_date": "2025-08-30",
        "name": "Prakash Cloth Center",
        "shop": "clothes"
      }
    },
    {
      "type": "node",
      "id": 12965816401,
      "lat": 12.9375274,
      "lon": 77.747716,
      "tags": {
        "addr:housenumber": "93/1",
        "addr:street": "Halasahalli Road",
        "check_date": "2025-08-09",
        "contact:phone": "+91 91412 84941; +91 99013 44042",
        "level": "0",
        "name": "HKGN Motor Works",
        "shop": "motorcycle_repair"
      }
    },
    {
      "type": "node",
      "id": 12965829407,
      "lat": 12.9365769,
      "lon": 77.7503617,
      "tags": {
        "check_date": "2025-08-06",
        "name": "Sagar Gowda's Chicken Center",
        "shop": "butcher"
      }
    },
    {
      "type": "node",
      "id": 12965829409,
      "lat": 12.9363517,
      "lon": 77.7504623,
      "tags": {
        "check_date": "2025-09-09",
        "name": "Sri Nanjundeshwara Provision Store",
        "shop": "convenience"
      }
    },
    {
      "type": "node",
      "id": 12976464072,
      "lat": 12.9396843,
      "lon": 77.7473374,
      "tags": {
        "amenity": "restaurant",
        "check_date": "2025-07-04",
        "name": "SLV Hotel A1 Hot Dum-Biriyani"
      }
    },
    {
      "type": "node",
      "id": 12976464073,
      "lat": 12.9397189,
      "lon": 77.7471944,
      "tags": {
        "check_date": "2025-07-04",
        "hairdresser": "barber",
        "name": "Shri Navya Hair Style",
        "shop": "hairdresser"
      }
    },
    {
      "type": "node",
      "id": 12976491013,
      "lat": 12.9384407,
      "lon": 77.7474854,
      "tags": {
        "check_date": "2025-07-04",
        "name": "Nawaz Mutton Center",
        "shop": "butcher"
      }
    },
    {
      "type": "node",
      "id": 12979669352,
      "lat": 12.9398454,
      "lon": 77.7475791,
      "tags": {
        "check_date": "2025-07-05",
        "shop": "shoes"
      }
    },
    {
      "type": "node",
      "id": 12979669353,
      "lat": 12.9397265,
      "lon": 77.7476331,
      "tags": {
        "check_date": "2025-07-05",
        "name": "Taj Mutton & Chicken",
        "shop": "butcher"
      }
    },
    {
      "type": "node",
      "id": 12982255490,
      "lat": 12.9421168,
      "lon": 77.7471967,
      "tags": {
        "amenity": "charging_station",
        "capacity": "1",
        "check_date": "2025-08-06",
        "man_made": "charge_point",
        "operator": "êpump"
      }
    },
    {
      "type": "node",
      "id": 12993782815,
      "lat": 12.9429859,
      "lon": 77.747218,
      "tags": {
        "check_date": "2025-07-31",
        "diet:vegetarian": "only",
        "name": "Health Hub",
        "shop": "nutrition_supplements"
      }
    },
    {
      "type": "node",
      "id": 12993786857,
      "lat": 12.9401556,
      "lon": 77.7468434,
      "tags": {
        "amenity": "fast_food",
        "check_date": "2025-07-11",
        "fast_food": "chaat",
        "name": "Bhangarpet Chats"
      }
    },
    {
      "type": "node",
      "id": 12996596791,
      "lat": 12.9423044,
      "lon": 77.7473348,
      "tags": {
        "check_date": "2025-07-13",
        "name": "No Broker Interiors",
        "shop": "interior_decoration"
      }
    },
    {
      "type": "node",
      "id": 12996959154,
      "lat": 12.9322974,
      "lon": 77.7456583,
      "tags": {
        "air_conditioning": "yes",
        "amenity": "cafe",
        "brand": "Chaayos",
        "brand:wikidata": "Q117235235",
        "check_date": "2025-08-17",
        "check_date:diet:vegetarian": "2025-08-17",
        "cuisine": "tea",
        "diet:vegetarian": "yes",
        "indoor_seating": "yes",
        "level": "0",
        "name": "Chaayos",
        "outdoor_seating": "yes",
        "takeaway": "yes",
        "wheelchair": "yes"
      }
    },
    {
      "type": "node",
      "id": 12996959155,
      "lat": 12.9317761,
      "lon": 77.745757,
      "tags": {
        "check_date": "2025-07-13",
        "level": "1",
        "name": "Bazaaro",
        "shop": "supermarket"
      }
    },
    {
      "type": "node",
      "id": 12997705595,
      "lat": 12.9327496,
      "lon": 77.7459285,
      "tags": {
        "access": "private",
        "amenity": "parking_entrance",
        "parking": "underground"
      }
    },
    {
      "type": "node",
      "id": 12997705726,
      "lat": 12.9343698,
      "lon": 77.7435842,
      "tags": {
        "amenity": "clock",
        "display": "analog",
        "indoor": "no"
      }
    },
    {
      "type": "node",
      "id": 12997705738,
      "lat": 12.9331039,
      "lon": 77.743025,
      "tags": {
        "amenity": "dentist",
        "name": "Clove Dental"
      }
    },
    {
      "type": "node",
      "id": 12997705739,
      "lat": 12.9329921,
      "lon": 77.7430062,
      "tags": {
        "brand": "Jockey",
        "brand:wikidata": "Q534235",
        "name": "Jockey",
        "shop": "clothes"
      }
    },
    {
      "type": "node",
      "id": 12997705740,
      "lat": 12.933081,
      "lon": 77.7426334,
      "tags": {
        "name": "Aarya Vision Care",
        "shop": "optician"
      }
    },
    {
      "type": "node",
      "id": 12997705741,
      "lat": 12.9331294,
      "lon": 77.7426468,
      "tags": {
        "name": "Hair Story",
        "shop": "hairdresser"
      }
    },
    {
      "type": "node",
      "id": 12997705743,
      "lat": 12.9325797,
      "lon": 77.7422572,
      "tags": {
        "amenity": "dentist",
        "name": "Ujwala Dental Care"
      }
    },
    {
      "type": "node",
      "id": 12997705744,
      "lat": 12.9324216,
      "lon": 77.7422411,
      "tags": {
        "shop": "butcher"
      }
    },
    {
      "type": "node",
      "id": 12997705745,
      "lat": 12.9322412,
      "lon": 77.7425214,
      "tags": {
        "name": "Laddoos",
        "shop": "confectionery"
      }
    },
    {
      "type": "node",
      "id": 12997705746,
      "lat": 12.9321961,
      "lon": 77.7425013,
      "tags": {
        "name": "Sufyan Dates and Nuts",
        "shop": "convenience"
      }
    },
    {
      "type": "node",
      "id": 13001111888,
      "lat": 12.9369364,
      "lon": 77.7498514,
      "tags": {
        "amenity": "atm",
        "brand": "State Bank of India",
        "brand:wikidata": "Q1340361",
        "check_date": "2025-07-15",
        "level": "0",
        "operator": "State Bank of India",
        "operator:wikidata": "Q1340361",
        "short_name": "SBI"
      }
    },
    {
      "type": "node",
      "id": 13003738346,
      "lat": 12.937957,
      "lon": 77.7475857,
      "tags": {
        "amenity": "prep_school",
        "check_date": "2025-07-16",
        "contact:phone": "+91 98457 75964; +91 63600 30214",
        "name": "Parimal's Tutorials"
      }
    },
    {
      "type": "node",
      "id": 13011777230,
      "lat": 12.9430425,
      "lon": 77.7472515,
      "tags": {
        "check_date": "2025-07-20",
        "level": "0",
        "name": "The Detailing Mafia",
        "service:vehicle:body_repair": "yes",
        "service:vehicle:painting": "yes",
        "shop": "car"
      }
    },
    {
      "type": "node",
      "id": 13013411236,
      "lat": 12.9402511,
      "lon": 77.7475086,
      "tags": {
        "amenity": "restaurant",
        "check_date": "2025-08-23",
        "name": "SLV Hotel"
      }
    },
    {
      "type": "node",
      "id": 13019951660,
      "lat": 12.9368551,
      "lon": 77.7488957,
      "tags": {
        "check_date": "2025-07-24",
        "name": "Family Mart",
        "shop": "supermarket"
      }
    },
    {
      "type": "node",
      "id": 13020372001,
      "lat": 12.9368381,
      "lon": 77.7488997,
      "tags": {
        "check_date": "2025-07-24",
        "laundry_service": "yes",
        "name": "Sri Krishna Roll Polish & Machine Washing",
        "self_service": "no",
        "shop": "laundry"
      }
    },
    {
      "type": "node",
      "id": 13027727343,
      "lat": 12.939425,
      "lon": 77.7473505,
      "tags": {
        "amenity": "clinic",
        "check_date": "2025-07-27",
        "healthcare": "clinic",
        "name": "Health Point",
        "opening_hours": "Mo-Fr 10:00-13:00,17:00-21:00"
      }
    },
    {
      "type": "node",
      "id": 13051962439,
      "lat": 12.9418282,
      "lon": 77.7472874,
      "tags": {
        "amenity": "fast_food",
        "check_date": "2025-08-10",
        "cuisine": "chaat",
        "name": "Hyderabad Irani Hub"
      }
    },
    {
      "type": "node",
      "id": 13051978514,
      "lat": 12.9367566,
      "lon": 77.7500901,
      "tags": {
        "agrarian": "tools",
        "check_date": "2025-08-06",
        "shop": "agrarian"
      }
    },
    {
      "type": "node",
      "id": 13052807087,
      "lat": 12.9384683,
      "lon": 77.7432438,
      "tags": {
        "check_date": "2025-08-06",
        "name": "Xerox Colour & Printout",
        "shop": "copyshop"
      }
    },
    {
      "type": "node",
      "id": 13052807088,
      "lat": 12.9385755,
      "lon": 77.7441441,
      "tags": {
        "check_date": "2025-08-06",
        "name": "SBR Tents",
        "shop": "marquee_hire"
      }
    },
    {
      "type": "node",
      "id": 13052807090,
      "lat": 12.9384338,
      "lon": 77.7432358,
      "tags": {
        "amenity": "dentist",
        "check_date": "2025-08-06",
        "healthcare": "dentist",
        "name": "Teeth Care Dental Clinic"
      }
    },
    {
      "type": "node",
      "id": 13061815538,
      "lat": 12.9417673,
      "lon": 77.7472939,
      "tags": {
        "addr:floor": "G",
        "amenity": "fast_food",
        "check_date": "2025-10-14",
        "cuisine": "chicken;kebab",
        "diet:carnivore": "yes",
        "diet:halal": "yes",
        "diet:non-vegetarian": "yes",
        "drive_through": "no",
        "level": "0",
        "name": "Varthur Kebab Center"
      }
    },
    {
      "type": "node",
      "id": 13075823336,
      "lat": 12.9446183,
      "lon": 77.7469154,
      "tags": {
        "check_date": "2025-08-17",
        "name": "New Diamond Seat Covers",
        "shop": "motorcycle"
      }
    },
    {
      "type": "node",
      "id": 13076281602,
      "lat": 12.9399896,
      "lon": 77.7470661,
      "tags": {
        "check_date": "2025-08-17",
        "name": "Bimal Textiles",
        "shop": "clothes"
      }
    },
    {
      "type": "node",
      "id": 13103611807,
      "lat": 12.9433201,
      "lon": 77.7516316,
      "tags": {
        "check_date": "2025-08-28",
        "name": "Ganesh Jewellers",
        "shop": "jewelry"
      }
    },
    {
      "type": "node",
      "id": 13103611808,
      "lat": 12.9431829,
      "lon": 77.7503242,
      "tags": {
        "check_date": "2025-08-28",
        "shop": "clothes"
      }
    },
    {
      "type": "node",
      "id": 13124781542,
      "lat": 12.9385162,
      "lon": 77.742893,
      "tags": {
        "brand": "More",
        "brand:wikidata": "Q6910891",
        "check_date": "2025-09-07",
        "name": "More",
        "shop": "supermarket"
      }
    },
    {
      "type": "node",
      "id": 13124781543,
      "lat": 12.9383808,
      "lon": 77.7436994,
      "tags": {
        "check_date": "2025-09-07",
        "name": "SS Hardware",
        "shop": "hardware"
      }
    },
    {
      "type": "node",
      "id": 13131294758,
      "lat": 12.9430638,
      "lon": 77.7501687,
      "tags": {
        "check_date": "2025-09-09",
        "shop": "garden_centre"
      }
    },
    {
      "type": "node",
      "id": 13131294759,
      "lat": 12.9428196,
      "lon": 77.7501283,
      "tags": {
        "check_date": "2025-09-09",
        "name": "Tulsi Footwear",
        "shop": "shoes"
      }
    },
    {
      "type": "node",
      "id": 13131294760,
      "lat": 12.9428341,
      "lon": 77.7501521,
      "tags": {
        "check_date": "2025-09-09",
        "name": "Laxmi Telecom",
        "shop": "mobile_phone"
      }
    },
    {
      "type": "node",
      "id": 13142495121,
      "lat": 12.9377661,
      "lon": 77.7476729,
      "tags": {
        "check_date": "2025-09-14",
        "name": "Neo Groups",
        "shop": "interior_decoration"
      }
    },
    {
      "type": "node",
      "id": 13176724497,
      "lat": 12.9426505,
      "lon": 77.7471784,
      "tags": {
        "addr:floor": "G",
        "check_date": "2025-09-28",
        "contact:phone": "+91 63630 26894; +91 63600 51989",
        "level": "0",
        "name": "SLV Enterprises",
        "shop": "hardware"
      }
    },
    {
      "type": "node",
      "id": 13176724499,
      "lat": 12.9422581,
      "lon": 77.7473698,
      "tags": {
        "amenity": "doctors",
        "check_date": "2025-09-28",
        "contact:phone": "+91 81256 18594",
        "healthcare": "doctor",
        "healthcare:speciality": "plastic_surgery",
        "level": "3",
        "name": "Glamhue Aesthetics"
      }
    },
    {
      "type": "node",
      "id": 13176724500,
      "lat": 12.9412358,
      "lon": 77.747013,
      "tags": {
        "amenity": "cafe",
        "check_date": "2025-09-28",
        "cuisine": "tea"
      }
    },
    {
      "type": "node",
      "id": 13190169579,
      "lat": 12.9427508,
      "lon": 77.7554171,
      "tags": {
        "addr:city": "Bangalore",
        "addr:postcode": "560087",
        "addr:street": "Muthkur Road",
        "amenity": "place_of_worship",
        "check_date": "2025-01-23",
        "description": "Madarsa",
        "name": "Darul Uloom Sabeelul Ansar",
        "religion": "muslim"
      }
    },
    {
      "type": "node",
      "id": 13328155304,
      "lat": 12.9371285,
      "lon": 77.7495038,
      "tags": {
        "check_date": "2025-11-25",
        "name": "Kukke Sri Bakery",
        "shop": "bakery"
      }
    },
    {
      "type": "way",
      "id": 130630294,
      "center": {
        "lat": 12.9427216,
        "lon": 77.7465926
      },
      "tags": {
        "amenity": "school",
        "check_date": "2024-12-10",
        "education": "school",
        "name": "Varthur Government High School",
        "name:etymology:wikidata": "Q7916202",
        "name:kn": "ವರ್ತೂರು ಸರ್ಕಾರಿ ಪ್ರೌಢ ಶಾಲೆ"
      }
    },
    {
      "type": "way",
      "id": 130630621,
      "center": {
        "lat": 12.9327253,
        "lon": 77.7417234
      },
      "tags": {
        "amenity": "school",
        "name": "KK English High School"
      }
    },
    {
      "type": "way",
      "id": 158239960,
      "center": {
        "lat": 12.9352698,
        "lon": 77.7459526
      },
      "tags": {
        "amenity": "school",
        "education": "school",
        "name": "Lady Vailankanni School",
        "website": "https://www.vailankanni.org/"
      }
    },
    {
      "type": "way",
      "id": 251666166,
      "center": {
        "lat": 12.9451039,
        "lon": 77.7533333
      },
      "tags": {
        "amenity": "school",
        "name": "Government School Sorahunase",
        "name:kn": "ಸರ್ಕಾರಿ ಶಾಲೆ ಸೋರಹುಣಸೆ"
      }
    },
    {
      "type": "way",
      "id": 258088248,
      "center": {
        "lat": 12.9414833,
        "lon": 77.7467109
      },
      "tags": {
        "amenity": "place_of_worship",
        "building": "mosque",
        "building:colour": "white",
        "building:material": "plaster",
        "check_date": "2025-07-05",
        "name": "Jamia Masjid",
        "name:kn": "ಜಾಮಿಯಾ ಮಸೀದಿ",
        "religion": "muslim"
      }
    },
    {
      "type": "way",
      "id": 344940455,
      "center": {
        "lat": 12.9330797,
        "lon": 77.7413545
      },
      "tags": {
        "leisure": "pitch"
      }
    },
    {
      "type": "way",
      "id": 345155313,
      "center": {
        "lat": 12.9384048,
        "lon": 77.7473396
      },
      "tags": {
        "amenity": "place_of_worship",
        "building": "temple",
        "building:colour": "cyan",
        "building:material": "plaster",
        "check_date": "2025-09-14",
        "name": "Sri Renuka Yellamma Devi Seva Trust",
        "name:kn": "ಶ್ರೀ ರೇಣುಕ್ಕಾ ಯಲ್ಲಮ್ಮ ದೇವಿ‌ ಸೇವ ಟರ್ಸ್ಟ",
        "religion": "hindu",
        "roof:colour": "gold",
        "roof:shape": "onion"
      }
    },
    {
      "type": "way",
      "id": 513199847,
      "center": {
        "lat": 12.9392329,
        "lon": 77.747735
      },
      "tags": {
        "amenity": "school",
        "check_date": "2025-09-14",
        "education": "school",
        "name": "Government School",
        "name:kn": "ಸರ್ಕಾರಿ ಶಾಲೆ"
      }
    },
    {
      "type": "way",
      "id": 1072290649,
      "center": {
        "lat": 12.9385028,
        "lon": 77.7418541
      },
      "tags": {
        "amenity": "fuel",
        "brand": "Nayara",
        "brand:wikidata": "Q5399377",
        "check_date": "2025-06-13",
        "name": "Nayara"
      }
    },
    {
      "type": "way",
      "id": 1128134227,
      "center": {
        "lat": 12.9346534,
        "lon": 77.7420922
      },
      "tags": {
        "amenity": "events_venue",
        "landuse": "commercial",
        "name": "Shakunthalamma Narayanappa Convention Hall"
      }
    },
    {
      "type": "way",
      "id": 1188244853,
      "center": {
        "lat": 12.9450985,
        "lon": 77.7538922
      },
      "tags": {
        "access": "private",
        "leisure": "pitch",
        "sport": "tennis"
      }
    },
    {
      "type": "way",
      "id": 1188244871,
      "center": {
        "lat": 12.9438258,
        "lon": 77.7476643
      },
      "tags": {
        "access": "private",
        "leisure": "swimming_pool",
        "location": "outdoor",
        "swimming_pool": "outdoor"
      }
    },
    {
      "type": "way",
      "id": 1274603989,
      "center": {
        "lat": 12.9357193,
        "lon": 77.7446216
      },
      "tags": {
        "air_conditioning": "yes",
        "amenity": "cinema",
        "check_date": "2025-10-05",
        "name": "Sri Vinayaka Cinema",
        "name:kn": "ಶ್ರಿ ವಿನಾಯಕ ಸಿನಿಮ",
        "screen": "1",
        "toilets": "yes"
      }
    },
    {
      "type": "way",
      "id": 1274761769,
      "center": {
        "lat": 12.9319294,
        "lon": 77.7464143
      },
      "tags": {
        "access": "private",
        "leisure": "park",
        "name": "East Garden"
      }
    },
    {
      "type": "way",
      "id": 1274775816,
      "center": {
        "lat": 12.9322029,
        "lon": 77.7460579
      },
      "tags": {
        "leisure": "park"
      }
    },
    {
      "type": "way",
      "id": 1274775817,
      "center": {
        "lat": 12.9316915,
        "lon": 77.7460827
      },
      "tags": {
        "leisure": "park"
      }
    },
    {
      "type": "way",
      "id": 1318586971,
      "center": {
        "lat": 12.9392689,
        "lon": 77.7477418
      },
      "tags": {
        "leisure": "schoolyard",
        "surface": "dirt"
      }
    },
    {
      "type": "way",
      "id": 1319799995,
      "center": {
        "lat": 12.9340939,
        "lon": 77.7402666
      },
      "tags": {
        "access": "private",
        "leisure": "park"
      }
    },
    {
      "type": "way",
      "id": 1319799996,
      "center": {
        "lat": 12.934159,
        "lon": 77.7412393
      },
      "tags": {
        "access": "private",
        "leisure": "pitch",
        "sport": "tennis"
      }
    },
    {
      "type": "way",
      "id": 1323088695,
      "center": {
        "lat": 12.9373081,
        "lon": 77.7513982
      },
      "tags": {
        "access": "private",
        "leisure": "playground",
        "lit": "yes",
        "surface": "sand"
      }
    },
    {
      "type": "way",
      "id": 1323088712,
      "center": {
        "lat": 12.9369736,
        "lon": 77.7510485
      },
      "tags": {
        "leisure": "pitch",
        "lit": "yes",
        "sport": "soccer",
        "surface": "artificial_turf"
      }
    },
    {
      "type": "way",
      "id": 1324379093,
      "center": {
        "lat": 12.9468921,
        "lon": 77.7469481
      },
      "tags": {
        "amenity": "fuel",
        "changing_table": "no",
        "check_date": "2025-08-13",
        "compressed_air": "yes",
        "landuse": "retail",
        "name": "Gail Gas",
        "wheelchair": "yes"
      }
    },
    {
      "type": "way",
      "id": 1334532409,
      "center": {
        "lat": 12.9422627,
        "lon": 77.7525888
      },
      "tags": {
        "leisure": "swimming_pool"
      }
    },
    {
      "type": "way",
      "id": 1350683669,
      "center": {
        "lat": 12.9381816,
        "lon": 77.7497822
      },
      "tags": {
        "amenity": "parking"
      }
    },
    {
      "type": "way",
      "id": 1351773860,
      "center": {
        "lat": 12.9422201,
        "lon": 77.7466706
      },
      "tags": {
        "access": "private",
        "leisure": "pitch",
        "sport": "multi",
        "surface": "sand"
      }
    },
    {
      "type": "way",
      "id": 1353889333,
      "center": {
        "lat": 12.9417307,
        "lon": 77.7548303
      },
      "tags": {
        "access": "customers",
        "building": "yes",
        "building:levels": "2",
        "check_date": "2025-08-01",
        "fee": "yes",
        "internet_access": "wlan",
        "leisure": "sports_hall",
        "name": "Krantiveer Gymnastics Academy",
        "sport": "gymnastics"
      }
    },
    {
      "type": "way",
      "id": 1359003855,
      "center": {
        "lat": 12.9373858,
        "lon": 77.7514405
      },
      "tags": {
        "access": "private",
        "leisure": "swimming_pool",
        "location": "outdoor"
      }
    },
    {
      "type": "way",
      "id": 1359003856,
      "center": {
        "lat": 12.9373568,
        "lon": 77.7513928
      },
      "tags": {
        "access": "private",
        "leisure": "swimming_pool",
        "location": "outdoor"
      }
    },
    {
      "type": "way",
      "id": 1359003857,
      "center": {
        "lat": 12.9370013,
        "lon": 77.7508698
      },
      "tags": {
        "leisure": "pitch",
        "lit": "yes",
        "sport": "badminton",
        "surface": "concrete"
      }
    },
    {
      "type": "way",
      "id": 1359003858,
      "center": {
        "lat": 12.9368798,
        "lon": 77.7509388
      },
      "tags": {
        "access": "private",
        "building": "yes",
        "building:colour": "white",
        "building:levels": "1",
        "building:material": "plaster",
        "check_date": "2025-09-03",
        "leisure": "fitness_centre",
        "roof:shape": "flat",
        "sport": "fitness"
      }
    },
    {
      "type": "way",
      "id": 1359003872,
      "center": {
        "lat": 12.9368743,
        "lon": 77.7508375
      },
      "tags": {
        "leisure": "pitch",
        "lit": "yes",
        "sport": "cricket",
        "surface": "concrete"
      }
    },
    {
      "type": "way",
      "id": 1359003876,
      "center": {
        "lat": 12.9371925,
        "lon": 77.7508744
      },
      "tags": {
        "access": "private",
        "leisure": "playground",
        "surface": "sand"
      }
    },
    {
      "type": "way",
      "id": 1359890590,
      "center": {
        "lat": 12.9446314,
        "lon": 77.7540756
      },
      "tags": {
        "leisure": "swimming_pool"
      }
    },
    {
      "type": "way",
      "id": 1362529286,
      "center": {
        "lat": 12.9442312,
        "lon": 77.7459196
      },
      "tags": {
        "amenity": "parking"
      }
    },
    {
      "type": "way",
      "id": 1364494570,
      "center": {
        "lat": 12.9395175,
        "lon": 77.744674
      },
      "tags": {
        "amenity": "parking"
      }
    },
    {
      "type": "way",
      "id": 1369533182,
      "center": {
        "lat": 12.9465864,
        "lon": 77.7470136
      },
      "tags": {
        "amenity": "fuel",
        "brand": "Hindustan Petroleum",
        "brand:wikidata": "Q1619375",
        "changing_table": "no",
        "check_date": "2025-09-14",
        "compressed_air": "yes",
        "landuse": "retail",
        "name": "Naanjandri Fuel Park",
        "official_name": "Hindustan Petroleum"
      }
    },
    {
      "type": "way",
      "id": 1394158714,
      "center": {
        "lat": 12.9381471,
        "lon": 77.7470698
      },
      "tags": {
        "amenity": "school",
        "check_date": "2025-07-01",
        "education": "school",
        "name": "Government Urdu High School"
      }
    },
    {
      "type": "way",
      "id": 1410000965,
      "center": {
        "lat": 12.9486335,
        "lon": 77.7461703
      },
      "tags": {
        "addr:housenumber": "339/5",
        "check_date": "2025-08-13",
        "landuse": "commercial",
        "name": "Sri Salsar Marble",
        "shop": "trade",
        "trade": "marble"
      }
    },
    {
      "type": "way",
      "id": 1410000970,
      "center": {
        "lat": 12.9490308,
        "lon": 77.7459157
      },
      "tags": {
        "building": "roof",
        "building:levels": "1",
        "check_date": "2025-07-26",
        "shop": "garden_centre"
      }
    },
    {
      "type": "way",
      "id": 1410000971,
      "center": {
        "lat": 12.9489074,
        "lon": 77.7459445
      },
      "tags": {
        "building": "roof",
        "building:levels": "1",
        "check_date": "2025-07-26",
        "name": "Paras Kumar Terracotta Handwork",
        "roof:levels": "0",
        "shop": "pottery"
      }
    },
    {
      "type": "way",
      "id": 1414467002,
      "center": {
        "lat": 12.9318534,
        "lon": 77.7454917
      },
      "tags": {
        "amenity": "theatre",
        "name": "Amphitheater",
        "theatre:type": "amphi"
      }
    },
    {
      "type": "way",
      "id": 1414467003,
      "center": {
        "lat": 12.9319554,
        "lon": 77.7454649
      },
      "tags": {
        "access": "private",
        "leisure": "park"
      }
    },
    {
      "type": "way",
      "id": 1414467029,
      "center": {
        "lat": 12.9346632,
        "lon": 77.7434119
      },
      "tags": {
        "amenity": "marketplace",
        "landuse": "retail"
      }
    },
    {
      "type": "way",
      "id": 1414467030,
      "center": {
        "lat": 12.9333164,
        "lon": 77.7428434
      },
      "tags": {
        "amenity": "marketplace",
        "landuse": "retail"
      }
    },
    {
      "type": "way",
      "id": 1417450912,
      "center": {
        "lat": 12.9373588,
        "lon": 77.7507223
      },
      "tags": {
        "amenity": "place_of_worship",
        "building": "temple",
        "building:levels": "1",
        "check_date": "2025-07-20",
        "religion": "hindu",
        "roof:shape": "flat"
      }
    },
    {
      "type": "way",
      "id": 1421090921,
      "center": {
        "lat": 12.9316373,
        "lon": 77.7437049
      },
      "tags": {
        "access": "private",
        "leisure": "swimming_pool"
      }
    },
    {
      "type": "way",
      "id": 1450036308,
      "center": {
        "lat": 12.9380254,
        "lon": 77.7469329
      },
      "tags": {
        "addr:street": "Varthur Main Road",
        "amenity": "police",
        "check_date": "2024-12-17",
        "name": "Varthur Police Station",
        "name:kn": "ವರ್ತೂರು ಆರಕ್ಷಕ ಠಾಣೆ",
        "wheelchair": "yes"
      }
    },
    {
      "type": "way",
      "id": 1450036309,
      "center": {
        "lat": 12.9381695,
        "lon": 77.7470371
      },
      "tags": {
        "area": "yes",
        "leisure": "schoolyard",
        "surface": "dirt"
      }
    },
    {
      "type": "way",
      "id": 1450036310,
      "center": {
        "lat": 12.9399242,
        "lon": 77.7475691
      },
      "tags": {
        "amenity": "fast_food",
        "building": "kiosk",
        "building:levels": "1",
        "check_date": "2025-11-07",
        "cuisine": "juice",
        "name": "Sri Sai Prasanna Kailash Juice Shop",
        "roof:levels": "0",
        "roof:shape": "flat"
      }
    },
    {
      "type": "way",
      "id": 1450329939,
      "center": {
        "lat": 12.9374432,
        "lon": 77.749224
      },
      "tags": {
        "leisure": "playground"
      }
    },
    {
      "type": "way",
      "id": 1451961258,
      "center": {
        "lat": 12.9376496,
        "lon": 77.7464575
      },
      "tags": {
        "brand": "Nandini",
        "brand:wikidata": "Q124374212",
        "building": "retail",
        "check_date": "2025-07-29",
        "name": "Nandini",
        "shop": "dairy"
      }
    },
    {
      "type": "way",
      "id": 1452342259,
      "center": {
        "lat": 12.9356713,
        "lon": 77.7442112
      },
      "tags": {
        "building": "yes",
        "check_date": "2025-10-05",
        "operator": "Sri Vinayaka Cinema",
        "shop": "ticket"
      }
    }
  ]
}