{
  "area_name": "Ganigarpet",
  "osm_id": 4209390935,
  "osm_type": "node",
  "place_type": "neighbourhood",
  "amenity_count": 571,
  "amenities": [
    {
      "type": "node",
      "id": 452413205,
      "lat": 12.9700819,
      "lon": 77.5890809,
      "tags": {
        "amenity": "place_of_worship",
        "name": "Temple Ruins",
        "religion": "hindu"
      }
    },
    {
      "type": "node",
      "id": 452414173,
      "lat": 12.9685163,
      "lon": 77.5887312,
      "tags": {
        "amenity": "drinking_water"
      }
    },
    {
      "type": "node",
      "id": 456214138,
      "lat": 12.9730205,
      "lon": 77.5804826,
      "tags": {
        "amenity": "bank",
        "atm": "yes",
        "brand": "State Bank of India",
        "brand:wikidata": "Q1340361",
        "brand:wikipedia": "en:State Bank of India",
        "name": "State Bank of India",
        "name:kn": "ಎಸ್ ಬಿ ಐ",
        "short_name": "SBI"
      }
    },
    {
      "type": "node",
      "id": 456214157,
      "lat": 12.9738444,
      "lon": 77.578582,
      "tags": {
        "addr:street": "Kempe Gowda Road",
        "amenity": "bank",
        "atm": "yes",
        "brand": "Bank of India",
        "brand:wikidata": "Q2004439",
        "brand:wikipedia": "en:Bank of India",
        "name": "Bank of India",
        "name:en": "Bank of India",
        "short_name": "BoI",
        "website": "http://www.bankofindia.co.in"
      }
    },
    {
      "type": "node",
      "id": 456214158,
      "lat": 12.973729,
      "lon": 77.578957,
      "tags": {
        "addr:street": "Kempe Gowda Road",
        "amenity": "bank",
        "atm": "yes",
        "brand": "Indian Bank",
        "brand:wikidata": "Q2003789",
        "brand:wikipedia": "en:Indian Bank",
        "name": "Indian Bank",
        "name:en": "Indian Bank",
        "name:kn": "ಇಂಡಿಯನ್ ಬ್ಯಾಂಕ್",
        "website": "https://www.indianbank.in/"
      }
    },
    {
      "type": "node",
      "id": 456214161,
      "lat": 12.9735992,
      "lon": 77.5803131,
      "tags": {
        "name": "Kids Kemp",
        "shop": "clothes"
      }
    },
    {
      "type": "node",
      "id": 663317713,
      "lat": 12.9681567,
      "lon": 77.5876645,
      "tags": {
        "amenity": "bank",
        "brand": "Canara Bank",
        "brand:en": "Canara Bank",
        "brand:hi": "केनरा बैंक",
        "brand:kn": "ಕೆನರಾ ಬ್ಯಾಂಕ್",
        "brand:pa": "ਕੇਨਰਾ ਬੈਂਕ",
        "brand:pnb": "کینرا بینک",
        "brand:ur": "کینرا بینک",
        "brand:wikidata": "Q2003777",
        "brand:wikipedia": "en:Canara Bank",
        "brand:wikipedia:pa": "ਕੇਨਰਾ ਬੈਂਕ",
        "check_date": "2024-03-02",
        "name": "Canara Bank",
        "name:en": "Canara Bank",
        "name:hi": "केनरा बैंक",
        "name:kn": "ಕೆನರಾ ಬ್ಯಾಂಕ್",
        "name:pa": "ਕੇਨਰਾ ਬੈਂਕ",
        "name:pnb": "کینرا بینک",
        "name:ur": "کینرا بینک",
        "website": "https://www.canarabank.com/"
      }
    },
    {
      "type": "node",
      "id": 663317714,
      "lat": 12.9681499,
      "lon": 77.5880527,
      "tags": {
        "amenity": "bank",
        "brand": "State Bank of India",
        "brand:wikidata": "Q1340361",
        "brand:wikipedia": "en:State Bank of India",
        "name": "State Bank of India",
        "name:kn": "ಎಸ್ ಬಿ ಐ",
        "short_name": "SBI",
        "website": "https://www.sbi.co.in"
      }
    },
    {
      "type": "node",
      "id": 663317752,
      "lat": 12.9695368,
      "lon": 77.5877623,
      "tags": {
        "amenity": "police",
        "name": "Police Headquarters"
      }
    },
    {
      "type": "node",
      "id": 663317758,
      "lat": 12.9704007,
      "lon": 77.5874248,
      "tags": {
        "addr:city": "Bengaluru",
        "addr:postcode": "560001",
        "addr:street": "Nrupathunga Road",
        "amenity": "restaurant",
        "cuisine": "regional",
        "name": "Nisarga",
        "name:kn": "ನಿಸರ್ಗ"
      }
    },
    {
      "type": "node",
      "id": 663484885,
      "lat": 12.9711546,
      "lon": 77.5869902,
      "tags": {
        "amenity": "taxi",
        "disused": "yes",
        "name": "Auto Stand",
        "name:kn": "ಆಟೋ ನಿಲ್ದಾಣ"
      }
    },
    {
      "type": "node",
      "id": 663599408,
      "lat": 12.9686616,
      "lon": 77.5875127,
      "tags": {
        "amenity": "atm",
        "brand": "Karnataka Bank",
        "brand:wikidata": "Q2042632",
        "name": "Karnataka Bank",
        "name:kn": "ಕರ್ನಾಟಕ ಬ್ಯಾಂಕ್",
        "operator": "Karnataka Bank",
        "operator:wikidata": "Q2042632"
      }
    },
    {
      "type": "node",
      "id": 663599410,
      "lat": 12.9723026,
      "lon": 77.5863596,
      "tags": {
        "amenity": "bank",
        "brand": "Corporation Bank",
        "brand:wikidata": "Q2003387",
        "brand:wikipedia": "en:Corporation Bank",
        "name": "Corporation Bank",
        "name:en": "Corporation Bank",
        "name:kn": "ಕಾರ್ಪರೇಷನ್ ಬ್ಯಾಂಕ್",
        "website": "https://corpbank.com/"
      }
    },
    {
      "type": "node",
      "id": 663599423,
      "lat": 12.9725456,
      "lon": 77.5862547,
      "tags": {
        "addr:street": "Nrupathunga Road",
        "amenity": "theatre",
        "name": "Daly Memorial Hall"
      }
    },
    {
      "type": "node",
      "id": 663941454,
      "lat": 12.9703944,
      "lon": 77.5871859,
      "tags": {
        "amenity": "telephone"
      }
    },
    {
      "type": "node",
      "id": 665062645,
      "lat": 12.9679032,
      "lon": 77.5893757,
      "tags": {
        "name": "Used Car Sales",
        "operator": "Indian Oil",
        "shop": "car"
      }
    },
    {
      "type": "node",
      "id": 665871266,
      "lat": 12.9641674,
      "lon": 77.5819272,
      "tags": {
        "name": "Karnakata Hardware Store",
        "shop": "hardware"
      }
    },
    {
      "type": "node",
      "id": 665871268,
      "lat": 12.9671651,
      "lon": 77.580199,
      "tags": {
        "amenity": "restaurant",
        "cuisine": "indian",
        "diet:vegetarian": "yes",
        "name": "Chatpat",
        "name:kn": "ಚಟ್ಪಟ್"
      }
    },
    {
      "type": "node",
      "id": 665871269,
      "lat": 12.9697027,
      "lon": 77.5796625,
      "tags": {
        "amenity": "cafe",
        "name": "Cane Crush"
      }
    },
    {
      "type": "node",
      "id": 665871271,
      "lat": 12.9732382,
      "lon": 77.5778493,
      "tags": {
        "amenity": "toilets",
        "check_date": "2023-02-27",
        "fee": "yes",
        "level": "0"
      }
    },
    {
      "type": "node",
      "id": 665871273,
      "lat": 12.9703805,
      "lon": 77.5800395,
      "tags": {
        "amenity": "restaurant",
        "cuisine": "indian",
        "name": "Hotel Madhuvan",
        "name:kn": "ಮಧುವನ"
      }
    },
    {
      "type": "node",
      "id": 665871274,
      "lat": 12.9722509,
      "lon": 77.5802138,
      "tags": {
        "amenity": "toilets",
        "fee": "yes"
      }
    },
    {
      "type": "node",
      "id": 665871277,
      "lat": 12.9733292,
      "lon": 77.5824593,
      "tags": {
        "amenity": "atm",
        "brand": "State Bank of India",
        "brand:wikidata": "Q1340361",
        "name": "State Bank of India",
        "operator": "State Bank of India",
        "operator:wikidata": "Q1340361",
        "short_name": "SBI"
      }
    },
    {
      "type": "node",
      "id": 677286826,
      "lat": 12.9736525,
      "lon": 77.5801953,
      "tags": {
        "addr:street": "Kempe Gowda Road",
        "amenity": "cafe",
        "name": "Coffee Day",
        "name:kn": "ಕಫೆ ಕಾಫಿ ಡೇ"
      }
    },
    {
      "type": "node",
      "id": 683352692,
      "lat": 12.9651082,
      "lon": 77.5750394,
      "tags": {
        "amenity": "toilets"
      }
    },
    {
      "type": "node",
      "id": 1389204316,
      "lat": 12.9655848,
      "lon": 77.584288,
      "tags": {
        "amenity": "parking",
        "name": "Two-Wheeler Parking"
      }
    },
    {
      "type": "node",
      "id": 1389206600,
      "lat": 12.965161,
      "lon": 77.584016,
      "tags": {
        "addr:city": "Bangalore",
        "addr:street": "S P Road",
        "name": "Arihant Computers",
        "shop": "computer"
      }
    },
    {
      "type": "node",
      "id": 1389210293,
      "lat": 12.9655798,
      "lon": 77.5845651,
      "tags": {
        "addr:street": "Dharmaraya Temple Road",
        "amenity": "atm",
        "brand": "ICICI Bank",
        "brand:wikidata": "Q1653258",
        "check_date": "2023-06-11",
        "network": "ICICI Bank",
        "operator": "ICICI Bank",
        "operator:wikidata": "Q1653258",
        "short_name": "ICICI",
        "source": "survey"
      }
    },
    {
      "type": "node",
      "id": 1457578295,
      "lat": 12.9733973,
      "lon": 77.5781068,
      "tags": {
        "access": "yes",
        "amenity": "parking",
        "capacity": "350",
        "fee": "yes",
        "level": "2,3,4",
        "name": "Maharaja Complex Multi Storey Parking",
        "operator": "BBMP",
        "parking": "multi-storey"
      }
    },
    {
      "type": "node",
      "id": 1577582017,
      "lat": 12.964223,
      "lon": 77.5866456,
      "tags": {
        "amenity": "restaurant",
        "diet:vegetarian": "only",
        "name": "Kamat",
        "name:kn": "ಕಾಮತ್"
      }
    },
    {
      "type": "node",
      "id": 1589557488,
      "lat": 12.9647793,
      "lon": 77.5836994,
      "tags": {
        "name": "Om Electronics",
        "shop": "electronics"
      }
    },
    {
      "type": "node",
      "id": 1617398481,
      "lat": 12.9596642,
      "lon": 77.5829322,
      "tags": {
        "amenity": "fuel",
        "brand": "BP"
      }
    },
    {
      "type": "node",
      "id": 1650296747,
      "lat": 12.9634626,
      "lon": 77.5910392,
      "tags": {
        "name": "Stanley Automotive Leather Seating",
        "shop": "car_parts"
      }
    },
    {
      "type": "node",
      "id": 1652785557,
      "lat": 12.9655419,
      "lon": 77.5898511,
      "tags": {
        "amenity": "restaurant",
        "name": "V T Paradise",
        "name:kn": "ವಿ ಟಿ ಪ್ಯಾರಡೈಸ್"
      }
    },
    {
      "type": "node",
      "id": 1652785558,
      "lat": 12.962625,
      "lon": 77.5899443,
      "tags": {
        "amenity": "place_of_worship",
        "name": "Mahabaleshwar Temple",
        "name:kn": "ಮಹಾಬಲೇಶ್ವರ",
        "religion": "hindu"
      }
    },
    {
      "type": "node",
      "id": 1739362309,
      "lat": 12.9656908,
      "lon": 77.5860177,
      "tags": {
        "amenity": "toilets"
      }
    },
    {
      "type": "node",
      "id": 1739362359,
      "lat": 12.9658764,
      "lon": 77.5860284,
      "tags": {
        "amenity": "restaurant",
        "diet:vegetarian": "only",
        "name": "Pai Vihar",
        "name:kn": "ಪೈ ವಿಹಾರ್"
      }
    },
    {
      "type": "node",
      "id": 1739366972,
      "lat": 12.9646442,
      "lon": 77.5841683,
      "tags": {
        "amenity": "toilets"
      }
    },
    {
      "type": "node",
      "id": 1739366982,
      "lat": 12.9661927,
      "lon": 77.5893034,
      "tags": {
        "amenity": "toilets"
      }
    },
    {
      "type": "node",
      "id": 1824167359,
      "lat": 12.9738948,
      "lon": 77.5785146,
      "tags": {
        "name": "Univer Cell",
        "note": "Mobile shop",
        "shop": "electronics",
        "wheelchair": "no"
      }
    },
    {
      "type": "node",
      "id": 1843603947,
      "lat": 12.9648252,
      "lon": 77.5764372,
      "tags": {
        "amenity": "post_office",
        "designation": "560002",
        "name": "KR Market Sub Post Office",
        "operator": "Indias Postal Service"
      }
    },
    {
      "type": "node",
      "id": 1843611471,
      "lat": 12.9649402,
      "lon": 77.5761878,
      "tags": {
        "addr:street": "Sultan Road",
        "alt_name": "City Market Police Station",
        "amenity": "police",
        "name": "Krishna Rajendra Market Police Station"
      }
    },
    {
      "type": "node",
      "id": 2014227810,
      "lat": 12.9699846,
      "lon": 77.5797207,
      "tags": {
        "amenity": "fast_food",
        "name": "Banaras Sweets"
      }
    },
    {
      "type": "node",
      "id": 2014232345,
      "lat": 12.9700251,
      "lon": 77.5799594,
      "tags": {
        "amenity": "bank",
        "atm": "yes",
        "branch": "Vysya Bank",
        "brand": "ING",
        "brand:wikidata": "Q645708",
        "name": "ING",
        "wheelchair": "no"
      }
    },
    {
      "type": "node",
      "id": 2014238900,
      "lat": 12.9732008,
      "lon": 77.5789268,
      "tags": {
        "amenity": "bank",
        "atm": "yes",
        "brand": "ICICI Bank",
        "brand:wikidata": "Q1653258",
        "name": "ICICI Bank",
        "name:en": "ICICI Bank",
        "name:kn": "ಐಸಿಐಸಿಐ ಬ್ಯಾಂಕು",
        "short_name": "ICICI",
        "website": "https://www.icicibank.com",
        "wheelchair": "no"
      }
    },
    {
      "type": "node",
      "id": 2120454693,
      "lat": 12.9683042,
      "lon": 77.5846472,
      "tags": {
        "addr:housename": "bnr mansion",
        "addr:street": "jnguva street",
        "amenity": "bar",
        "name": "Bnr Bar"
      }
    },
    {
      "type": "node",
      "id": 2120456105,
      "lat": 12.9679017,
      "lon": 77.5851515,
      "tags": {
        "amenity": "atm",
        "brand": "State Bank of India",
        "brand:wikidata": "Q1340361",
        "name": "State Bank of India",
        "operator": "State Bank of India",
        "operator:wikidata": "Q1340361",
        "short_name": "SBI"
      }
    },
    {
      "type": "node",
      "id": 2211123464,
      "lat": 12.9665602,
      "lon": 77.5892256,
      "tags": {
        "shop": "bakery"
      }
    },
    {
      "type": "node",
      "id": 2577080947,
      "lat": 12.967569,
      "lon": 77.5896565,
      "tags": {
        "addr:city": "Bengaluru",
        "addr:postcode": "560027",
        "addr:street": "Rajaram Mohan Roy Road",
        "amenity": "fast_food",
        "delivery": "no",
        "diet:vegetarian": "only",
        "drive_through": "no",
        "name": "Sri Vari Veg",
        "name:kn": "ಶ್ರೀವಾರಿ",
        "operator": "Adiga's",
        "outdoor_seating": "no",
        "smoking": "no",
        "takeaway": "yes"
      }
    },
    {
      "type": "node",
      "id": 2577082175,
      "lat": 12.9679532,
      "lon": 77.5879077,
      "tags": {
        "shop": "greengrocer"
      }
    },
    {
      "type": "node",
      "id": 2577218151,
      "lat": 12.9669946,
      "lon": 77.591066,
      "tags": {
        "amenity": "school",
        "name": "Government School",
        "name:kn": "ಸರ್ಕಾರಿ ಶಾಲೆ"
      }
    },
    {
      "type": "node",
      "id": 2577218743,
      "lat": 12.966493,
      "lon": 77.5905481,
      "tags": {
        "amenity": "place_of_worship",
        "name": "Anjaneya Temple",
        "name:kn": "ಆಂಜನೇಯ ದೇವಸ್ಥಾನ",
        "religion": "hindu"
      }
    },
    {
      "type": "node",
      "id": 2668196901,
      "lat": 12.9675896,
      "lon": 77.5899521,
      "tags": {
        "amenity": "toilets"
      }
    },
    {
      "type": "node",
      "id": 2760165209,
      "lat": 12.9667567,
      "lon": 77.5892239,
      "tags": {
        "amenity": "fast_food",
        "diet:vegetarian": "only",
        "name": "ವೀರಶೈವರ - ಉಪಹಾರ ಮಂದಿರ",
        "name:en": "Veerasaivara - Breakfast hall"
      }
    },
    {
      "type": "node",
      "id": 2872071072,
      "lat": 12.968017,
      "lon": 77.592013,
      "tags": {
        "amenity": "atm",
        "brand": "State Bank of India",
        "brand:wikidata": "Q1340361",
        "name": "State Bank of India",
        "name:kn": "ಭಾರತೀಯ ಸ್ಟೇಟ್ ಬ್ಯಾಂಕ್",
        "operator": "State Bank of India",
        "operator:wikidata": "Q1340361",
        "short_name": "SBI"
      }
    },
    {
      "type": "node",
      "id": 2872076318,
      "lat": 12.9680121,
      "lon": 77.5921023,
      "tags": {
        "amenity": "post_office",
        "name": "Sampangi Rama Nagar Post Office",
        "name:kn": "ಸಂಪಂಗಿರಾಮ ನಗರ ಆಂಚೆ ಕಛೇರಿ",
        "operator": "India Post",
        "operator:wikidata": "Q3519720"
      }
    },
    {
      "type": "node",
      "id": 2945482647,
      "lat": 12.9656807,
      "lon": 77.5897827,
      "tags": {
        "addr:city": "Bangalore",
        "addr:postcode": "560027",
        "addr:street": "Devanga Hostel Road",
        "amenity": "place_of_worship",
        "religion": "hindu",
        "toilets:wheelchair": "no",
        "wheelchair": "limited"
      }
    },
    {
      "type": "node",
      "id": 2945483873,
      "lat": 12.9653566,
      "lon": 77.5897586,
      "tags": {
        "shop": "bakery"
      }
    },
    {
      "type": "node",
      "id": 3010263824,
      "lat": 12.9606096,
      "lon": 77.5835432,
      "tags": {
        "amenity": "bank",
        "brand": "State Bank of India",
        "brand:wikidata": "Q1340361",
        "brand:wikipedia": "en:State Bank of India",
        "name": "State Bank of India",
        "name:kn": "ಭಾರತೀಯ ಸ್ಟೇಟ್ ಬ್ಯಾಂಕ್",
        "short_name": "SBI",
        "source": "voice, GPS",
        "website": "https://www.sbi.co.in"
      }
    },
    {
      "type": "node",
      "id": 3010263825,
      "lat": 12.9579091,
      "lon": 77.5823797,
      "tags": {
        "amenity": "bank",
        "atm": "no",
        "brand": "State Bank of India",
        "brand:wikidata": "Q1340361",
        "brand:wikipedia": "en:State Bank of India",
        "name": "State Bank of India",
        "name:kn": "ಭಾರತೀಯ ಸ್ಟೇಟ್ ಬ್ಯಾಂಕ್",
        "operator": "State Bank of India",
        "short_name": "SBI",
        "source": "voice, GPS"
      }
    },
    {
      "type": "node",
      "id": 3010283558,
      "lat": 12.9651176,
      "lon": 77.5897462,
      "tags": {
        "amenity": "atm",
        "brand": "ICICI Bank",
        "brand:wikidata": "Q1653258",
        "name": "ICICI Bank",
        "operator": "ICICI Bank",
        "operator:wikidata": "Q1653258",
        "short_name": "ICICI",
        "source": "voice, GPS"
      }
    },
    {
      "type": "node",
      "id": 3019535004,
      "lat": 12.9659456,
      "lon": 77.5924964,
      "tags": {
        "addr:city": "Bangalore",
        "addr:postcode": "560027",
        "addr:street": "Chidananda Maharashi Ashram Road",
        "amenity": "cafe",
        "cuisine": "coffee_shop",
        "internet_access": "no",
        "name": "Chamundeshwari Coffee",
        "name:kn": "ಚಾಮುಂಡೇಶ್ವರಿ ಕಾಫಿ",
        "opening_hours": "05:00-19:30",
        "smoking": "no"
      }
    },
    {
      "type": "node",
      "id": 3019539240,
      "lat": 12.9658588,
      "lon": 77.5924927,
      "tags": {
        "addr:city": "Bangalore",
        "addr:postcode": "560027",
        "addr:street": "Chidananda Maharashi Ashram Road",
        "name": "Chamundeshwari",
        "name:kn": "ಚಾಮುಂಡೇಶ್ವರಿ",
        "shop": "clothes"
      }
    },
    {
      "type": "node",
      "id": 3019539252,
      "lat": 12.9664142,
      "lon": 77.5925401,
      "tags": {
        "addr:city": "Bangalore",
        "addr:postcode": "560027",
        "addr:street": "Chidananda Maharashi Ashram Road",
        "amenity": "pharmacy",
        "brand": "Apollo Pharmacy",
        "brand:wikidata": "Q62562612",
        "healthcare": "pharmacy",
        "name": "Apollo Pharmacy",
        "name:kn": "ಅಪೋಲೋ ಫಾರ್ಮಸಿ"
      }
    },
    {
      "type": "node",
      "id": 3019539371,
      "lat": 12.9662566,
      "lon": 77.5925313,
      "tags": {
        "addr:city": "Bangalore",
        "addr:postcode": "560027",
        "addr:street": "Chidananda Maharashi Ashram Road",
        "name": "Local Mutton Shop",
        "shop": "butcher"
      }
    },
    {
      "type": "node",
      "id": 3237630469,
      "lat": 12.9669535,
      "lon": 77.5869415,
      "tags": {
        "amenity": "atm",
        "name": "Bharatiya Mahila Bank",
        "name:kn": "ಭಾರತೀಯ ಮಹಿಳಾ ಬ್ಯಾಂಕ್"
      }
    },
    {
      "type": "node",
      "id": 3237634150,
      "lat": 12.9673021,
      "lon": 77.5871125,
      "tags": {
        "amenity": "atm",
        "brand": "Punjab National Bank",
        "brand:wikidata": "Q2743499",
        "name": "Punjab National Bank",
        "name:kn": "ಪಂಜಾಬ ರಾಷ್ಟ್ರೀಯ ಬ್ಯಾಂಕ್",
        "operator": "Punjab National Bank",
        "operator:wikidata": "Q2743499"
      }
    },
    {
      "type": "node",
      "id": 3237635590,
      "lat": 12.9672272,
      "lon": 77.5871401,
      "tags": {
        "amenity": "bank",
        "brand": "Punjab National Bank",
        "brand:wikidata": "Q2743499",
        "name": "Punjab National Bank",
        "name:en": "Punjab National Bank",
        "name:kn": "ಪಂಜಾಬ ರಾಷ್ಟ್ರೀಯ ಬ್ಯಾಂಕ್",
        "short_name": "PNB",
        "website": "https://www.pnbindia.in"
      }
    },
    {
      "type": "node",
      "id": 3237664290,
      "lat": 12.9657388,
      "lon": 77.5884001,
      "tags": {
        "amenity": "parking"
      }
    },
    {
      "type": "node",
      "id": 3237664467,
      "lat": 12.9654427,
      "lon": 77.5875548,
      "tags": {
        "amenity": "parking"
      }
    },
    {
      "type": "node",
      "id": 3237664468,
      "lat": 12.9658185,
      "lon": 77.5879442,
      "tags": {
        "amenity": "parking"
      }
    },
    {
      "type": "node",
      "id": 3237664469,
      "lat": 12.9651767,
      "lon": 77.5884754,
      "tags": {
        "amenity": "parking"
      }
    },
    {
      "type": "node",
      "id": 3237664470,
      "lat": 12.9667476,
      "lon": 77.5881407,
      "tags": {
        "amenity": "parking"
      }
    },
    {
      "type": "node",
      "id": 3237687378,
      "lat": 12.965693,
      "lon": 77.5872423,
      "tags": {
        "amenity": "parking"
      }
    },
    {
      "type": "node",
      "id": 3241164396,
      "lat": 12.9659324,
      "lon": 77.5883414,
      "tags": {
        "amenity": "parking"
      }
    },
    {
      "type": "node",
      "id": 3391134547,
      "lat": 12.9626153,
      "lon": 77.5762859,
      "tags": {
        "amenity": "place_of_worship",
        "name": "Koti Sri Anjaneya Temple",
        "religion": "hindu"
      }
    },
    {
      "type": "node",
      "id": 3391135051,
      "lat": 12.962822,
      "lon": 77.5764714,
      "tags": {
        "amenity": "restaurant",
        "diet:vegetarian": "only",
        "name": "Hotel Annakuteera vegetarian"
      }
    },
    {
      "type": "node",
      "id": 3395243169,
      "lat": 12.962368,
      "lon": 77.575774,
      "tags": {
        "amenity": "place_of_worship",
        "name": "Koti Dhanvanthri Ganesha Temple",
        "religion": "hindu"
      }
    },
    {
      "type": "node",
      "id": 3400223541,
      "lat": 12.968031,
      "lon": 77.5878222,
      "tags": {
        "amenity": "hospital",
        "name": "Dr. Rajkumar Blood Bank"
      }
    },
    {
      "type": "node",
      "id": 3406380502,
      "lat": 12.967159,
      "lon": 77.5891728,
      "tags": {
        "amenity": "bank",
        "atm": "yes",
        "brand": "Punjab National Bank",
        "brand:wikidata": "Q2743499",
        "ele": "1",
        "name": "Punjab National Bank",
        "name:en": "Punjab National Bank",
        "name:kn": "ಪಂಜಾಬ ರಾಷ್ಟ್ರೀಯ ಬ್ಯಾಂಕ್",
        "operator": "Punjab National Bank",
        "short_name": "PNB",
        "website": "https://www.pnbindia.in"
      }
    },
    {
      "type": "node",
      "id": 3406380503,
      "lat": 12.9672714,
      "lon": 77.5892653,
      "tags": {
        "operator": "Roopakala Silks & Sarees",
        "shop": "clothes"
      }
    },
    {
      "type": "node",
      "id": 3406380504,
      "lat": 12.9672322,
      "lon": 77.5891929,
      "tags": {
        "name": "Karnataka Arts & Crafts Emporium",
        "shop": "gift"
      }
    },
    {
      "type": "node",
      "id": 3546180331,
      "lat": 12.9644469,
      "lon": 77.5882194,
      "tags": {
        "amenity": "toilets"
      }
    },
    {
      "type": "node",
      "id": 3546180333,
      "lat": 12.9629426,
      "lon": 77.5875693,
      "tags": {
        "addr:street": "3rd Cross Road",
        "amenity": "cafe"
      }
    },
    {
      "type": "node",
      "id": 3603007803,
      "lat": 12.9632721,
      "lon": 77.5856887,
      "tags": {
        "amenity": "parking"
      }
    },
    {
      "type": "node",
      "id": 3652359334,
      "lat": 12.9701247,
      "lon": 77.5866611,
      "tags": {
        "amenity": "restaurant",
        "name": "St. Martha's Canteen"
      }
    },
    {
      "type": "node",
      "id": 3654118467,
      "lat": 12.9680068,
      "lon": 77.5918733,
      "tags": {
        "amenity": "fast_food",
        "name": "Shiva Bakery and Juice"
      }
    },
    {
      "type": "node",
      "id": 3773028984,
      "lat": 12.9609168,
      "lon": 77.5879444,
      "tags": {
        "addr:city": "Bengaluru",
        "addr:street": "Lalbagh Road",
        "name": "Jayalakshmi Bakery",
        "shop": "bakery"
      }
    },
    {
      "type": "node",
      "id": 3800281856,
      "lat": 12.9735894,
      "lon": 77.5783998,
      "tags": {
        "amenity": "restaurant",
        "name": "Shanti Sagar",
        "name:en": "New Shanthi Sagar",
        "name:kn": "ಶಾಂತಿ ಸಾಗರ್"
      }
    },
    {
      "type": "node",
      "id": 3826353777,
      "lat": 12.9650562,
      "lon": 77.5897367,
      "tags": {
        "amenity": "atm",
        "brand": "Canara Bank",
        "brand:en": "Canara Bank",
        "brand:hi": "केनरा बैंक",
        "brand:kn": "ಕೆನರಾ ಬ್ಯಾಂಕ್",
        "brand:pa": "ਕੇਨਰਾ ਬੈਂਕ",
        "brand:pnb": "کینرا بینک",
        "brand:ur": "کینرا بینک",
        "brand:wikidata": "Q2003777",
        "brand:wikipedia": "en:Canara Bank",
        "brand:wikipedia:pa": "ਕੇਨਰਾ ਬੈਂਕ",
        "check_date": "2024-03-02",
        "drive_through": "no",
        "name": "Canara Bank",
        "name:en": "Canara Bank",
        "name:hi": "केनरा बैंक",
        "name:kn": "ಕೆನರಾ ಬ್ಯಾಂಕ್",
        "name:pa": "ਕੇਨਰਾ ਬੈਂਕ",
        "name:pnb": "کینرا بینک",
        "name:ur": "کینرا بینک",
        "operator": "Canara Bank",
        "operator:wikidata": "Q2003777"
      }
    },
    {
      "type": "node",
      "id": 3826353778,
      "lat": 12.9666245,
      "lon": 77.5919645,
      "tags": {
        "amenity": "atm",
        "brand": "Karnataka Bank",
        "brand:wikidata": "Q2042632",
        "drive_through": "no",
        "name": "Karnataka Bank",
        "name:kn": "ಕರ್ನಾಟಕ ಬ್ಯಾಂಕ್",
        "operator": "Karnataka Bank",
        "operator:wikidata": "Q2042632"
      }
    },
    {
      "type": "node",
      "id": 3943325827,
      "lat": 12.9738713,
      "lon": 77.5866851,
      "tags": {
        "amenity": "shelter",
        "bench": "yes",
        "covered": "yes",
        "shelter": "yes",
        "shelter_type": "public_transport"
      }
    },
    {
      "type": "node",
      "id": 4130960494,
      "lat": 12.9613262,
      "lon": 77.5820185,
      "tags": {
        "amenity": "place_of_worship",
        "name:kn": "ಮಸೀದಿ",
        "religion": "muslim"
      }
    },
    {
      "type": "node",
      "id": 4130960994,
      "lat": 12.9624777,
      "lon": 77.5786534,
      "tags": {
        "amenity": "place_of_worship",
        "building": "mosque",
        "name:kn": "ಮಸೀದಿ",
        "religion": "muslim"
      }
    },
    {
      "type": "node",
      "id": 4130960995,
      "lat": 12.9615699,
      "lon": 77.5804526,
      "tags": {
        "amenity": "school",
        "name": "Government School",
        "name:kn": "ಸರ್ಕಾರಿ ಶಾಲೆ"
      }
    },
    {
      "type": "node",
      "id": 4209374021,
      "lat": 12.9663581,
      "lon": 77.5845939,
      "tags": {
        "amenity": "place_of_worship",
        "religion": "hindu"
      }
    },
    {
      "type": "node",
      "id": 4209374023,
      "lat": 12.9668651,
      "lon": 77.5849748,
      "tags": {
        "amenity": "place_of_worship",
        "religion": "hindu"
      }
    },
    {
      "type": "node",
      "id": 4209379372,
      "lat": 12.9660921,
      "lon": 77.5845202,
      "tags": {
        "amenity": "place_of_worship",
        "natural": "tree"
      }
    },
    {
      "type": "node",
      "id": 4209454289,
      "lat": 12.9679842,
      "lon": 77.578539,
      "tags": {
        "name": "Karu Pakula Jewellers",
        "shop": "jewelry"
      }
    },
    {
      "type": "node",
      "id": 4209454290,
      "lat": 12.9681084,
      "lon": 77.5786114,
      "tags": {
        "addr:city": "Bangalore",
        "addr:housenumber": "1",
        "addr:place": "Avenue Road Circle",
        "addr:postcode": "560 002",
        "level": "0",
        "name": "Shoba Jewellers",
        "shop": "jewelry"
      }
    },
    {
      "type": "node",
      "id": 4209454291,
      "lat": 12.967911,
      "lon": 77.5786751,
      "tags": {
        "level": "0",
        "name": "Sri Kalki Jewellers",
        "shop": "jewelry"
      }
    },
    {
      "type": "node",
      "id": 4209454292,
      "lat": 12.9680476,
      "lon": 77.5787462,
      "tags": {
        "name": "Vajra Mahal",
        "shop": "jewelry"
      }
    },
    {
      "type": "node",
      "id": 4209484254,
      "lat": 12.9680202,
      "lon": 77.5787717,
      "tags": {
        "amenity": "atm",
        "brand": "State Bank of India",
        "brand:wikidata": "Q1340361",
        "name": "State Bank of India",
        "name:kn": "ಭಾರತೀಯ ಸ್ಟೇಟ್ ಬ್ಯಾಂಕ್",
        "operator": "State Bank of India",
        "operator:wikidata": "Q1340361",
        "short_name": "SBI"
      }
    },
    {
      "type": "node",
      "id": 4209499020,
      "lat": 12.9680176,
      "lon": 77.5787039,
      "tags": {
        "amenity": "police",
        "name": "Avenue Road Police Chowky"
      }
    },
    {
      "type": "node",
      "id": 4308190209,
      "lat": 12.965498,
      "lon": 77.5839472,
      "tags": {
        "amenity": "events_venue",
        "name": "Shree Prasanna gangadhareshwara samudaya bhavana"
      }
    },
    {
      "type": "node",
      "id": 4308219737,
      "lat": 12.9740596,
      "lon": 77.5793767,
      "tags": {
        "name": "Navakarnataka",
        "shop": "books"
      }
    },
    {
      "type": "node",
      "id": 4308219751,
      "lat": 12.9740049,
      "lon": 77.5794628,
      "tags": {
        "amenity": "bank",
        "atm": "yes",
        "brand": "CSB Bank",
        "brand:wikidata": "Q5053244",
        "check_date": "2023-02-11",
        "name": "CSB Bank",
        "official_name": "Catholic Syrian Bank",
        "operator": "CSB"
      }
    },
    {
      "type": "node",
      "id": 4308220071,
      "lat": 12.9740685,
      "lon": 77.5792924,
      "tags": {
        "amenity": "bank",
        "atm": "yes",
        "brand": "Bank of Baroda",
        "brand:wikidata": "Q2003797",
        "name": "Bank of Baroda",
        "name:kn": "ವಿಜಯ ಬ್ಯಾಂಕು"
      }
    },
    {
      "type": "node",
      "id": 4337898954,
      "lat": 12.9735721,
      "lon": 77.5803838,
      "tags": {
        "addr:street": "Kempegowda road",
        "amenity": "post_office",
        "name": "Kempegowda Road",
        "name:kn": "ಕೆಂಪೆಗೌಡ ರಸ್ತೆ",
        "operator": "India Post",
        "operator:wikidata": "Q3519720"
      }
    },
    {
      "type": "node",
      "id": 4368918389,
      "lat": 12.9729745,
      "lon": 77.5808399,
      "tags": {
        "amenity": "bank",
        "brand": "Corporation Bank",
        "brand:wikidata": "Q2003387",
        "name": "Corporation Bank",
        "name:kn": "ಕಾರ್ಪರೇಷನ್ ಬ್ಯಾಂಕ್"
      }
    },
    {
      "type": "node",
      "id": 4411606494,
      "lat": 12.9674392,
      "lon": 77.5823999,
      "tags": {
        "shop": "jewelry"
      }
    },
    {
      "type": "node",
      "id": 4413510290,
      "lat": 12.969833,
      "lon": 77.5775083,
      "tags": {
        "addr:city": "Bangalore",
        "addr:housenumber": "45/6",
        "addr:postcode": "500006",
        "addr:street": "6th Cross Road",
        "amenity": "cafe",
        "cuisine": "coffee_shop",
        "internet_access": "yes",
        "name": "CCD",
        "opening_hours": "09:00-06:00",
        "smoking": "no"
      }
    },
    {
      "type": "node",
      "id": 4414944194,
      "lat": 12.9650385,
      "lon": 77.5838344,
      "tags": {
        "name": "Nextgen Technologies",
        "name:en": "NEXTGEN TECHNOLOGIES",
        "shop": "computer"
      }
    },
    {
      "type": "node",
      "id": 4446346449,
      "lat": 12.9705436,
      "lon": 77.5834769,
      "tags": {
        "addr:city": "Bangalore",
        "addr:housenumber": "5",
        "addr:postcode": "560001",
        "addr:street": "Nrupathunga Rd, RBI Colony, Sampangi Rama Nagar",
        "amenity": "hospital",
        "name": "St. Martha's Heart Centre",
        "phone": "+9195380 43453",
        "website": "locations.narayanahealth.org"
      }
    },
    {
      "type": "node",
      "id": 4474511491,
      "lat": 12.971335,
      "lon": 77.5845467,
      "tags": {
        "amenity": "atm",
        "brand": "State Bank of India",
        "brand:wikidata": "Q1340361",
        "name": "State Bank of India",
        "name:kn": "ಎಸ್ ಬಿ ಐ",
        "opening_hours": "24/7",
        "operator": "State Bank of India",
        "operator:wikidata": "Q1340361",
        "short_name": "SBI"
      }
    },
    {
      "type": "node",
      "id": 4487969466,
      "lat": 12.9714473,
      "lon": 77.5757997,
      "tags": {
        "addr:city": "Bengaluru,",
        "addr:postcode": "560053",
        "addr:street": "Laxman Rao, 63, BVK Iyengar Rd, Basettypet, Huriopet, Chickpet,",
        "name": "Meenaxi Chemicals",
        "phone": "080 2225 9599",
        "shop": "yes"
      }
    },
    {
      "type": "node",
      "id": 4487996362,
      "lat": 12.9703096,
      "lon": 77.5761097,
      "tags": {
        "addr:city": "Bengaluru,",
        "addr:housenumber": "62",
        "addr:postcode": "560053",
        "addr:street": "A. M. Lane",
        "name": "Shree Sudarshan Light And Appliances",
        "phone": "(91)-9986419127",
        "shop": "electronics",
        "website": "www.smartgrahak.com"
      }
    },
    {
      "type": "node",
      "id": 4488592383,
      "lat": 12.9719137,
      "lon": 77.5772021,
      "tags": {
        "addr:city": "Bangalore",
        "addr:housenumber": "1/2",
        "addr:postcode": "560053",
        "addr:street": "Dasappa Building, Dasappa Lane, Chikpet, Anchepet, Chickpet",
        "name": "Murthy Glass & Plywood Pvt Ltd",
        "phone": "+91 98448 11824",
        "shop": "yes",
        "website": "https://www.in.saint-gobain-glass.com/"
      }
    },
    {
      "type": "node",
      "id": 4489039609,
      "lat": 12.9690423,
      "lon": 77.575894,
      "tags": {
        "addr:city": "Bangalore",
        "addr:housenumber": "5/2",
        "addr:postcode": "560053",
        "addr:street": "A.M. Lane, B.V.K. Street, Chik Pet, Huriopet, Chickpet, Bengaluru",
        "name": "R R Enterprieses",
        "phone": "08022250035",
        "shop": "yes"
      }
    },
    {
      "type": "node",
      "id": 4489411314,
      "lat": 12.9674105,
      "lon": 77.576402,
      "tags": {
        "addr:city": "Bangalore",
        "addr:housenumber": "307",
        "addr:postcode": "560053",
        "addr:street": "Prince Building, Old Tharagupete Rd, Old Tharagupet",
        "name": "Prince Sports India",
        "opening_hours": "09:00-21:00",
        "phone": "08041132118",
        "shop": "sports"
      }
    },
    {
      "type": "node",
      "id": 4489413117,
      "lat": 12.9694073,
      "lon": 77.5750298,
      "tags": {
        "addr:city": "Bangalore",
        "addr:housenumber": "5/7",
        "addr:postcode": "560053",
        "addr:street": "P S Lane Santhusapet, Chikpete,",
        "name": "Metro Sports",
        "opening_hours": "09:30-20:30",
        "phone": "08022285080",
        "shop": "sports"
      }
    },
    {
      "type": "node",
      "id": 4489828265,
      "lat": 12.9584561,
      "lon": 77.5857024,
      "tags": {
        "addr:city": "Bangalore",
        "addr:housenumber": "# 16",
        "addr:postcode": "560027",
        "addr:street": "Fathima Elegance, 2nd cross, SGN layout, Lalbagh Main Road, Bangalore-27, 2nd Cross Rd, Bhadrappa Layout, SGN Layout, Doddamavalli, Sudhama Nagar",
        "leisure": "sports_centre",
        "name": "Alliance Fitness & Wellness",
        "opening_hours": "06:00-22:00",
        "phone": "9742882266",
        "sport": "gymnastics",
        "website": "alliancefitness.net"
      }
    },
    {
      "type": "node",
      "id": 4562950692,
      "lat": 12.9646857,
      "lon": 77.5825373,
      "tags": {
        "addr:housenumber": "134-138, K K",
        "addr:postcode": "560002",
        "addr:street": "Sadar Patrappa Road",
        "email": "jagadish@amarradio.com",
        "name": "Amar Radio Corporation",
        "name:en": "Amar Radio Corporation",
        "opening_hours": "Mo-Sa 10:00-18:30",
        "phone": "08046480000",
        "shop": "electronics",
        "website": "https://www.amarradio.com/"
      }
    },
    {
      "type": "node",
      "id": 4563000590,
      "lat": 12.964736,
      "lon": 77.5817243,
      "tags": {
        "addr:housenumber": "59/2",
        "addr:postcode": "560002",
        "addr:street": "Sadar Patrappa Road",
        "email": "sabbasaco51@gmail.com",
        "name": "S Abbas & Co",
        "name:en": "S Abbas & Co",
        "opening_hours": "Mo-Sa 10:00-19:00",
        "phone": "08022225569",
        "shop": "electronics"
      }
    },
    {
      "type": "node",
      "id": 4563018489,
      "lat": 12.9650146,
      "lon": 77.5816415,
      "tags": {
        "addr:housenumber": "21",
        "addr:postcode": "560002",
        "addr:street": "E V Lane, S P Road Cross,",
        "name": "New Diamond Electro Control",
        "name:en": "New Diamond Electro Control",
        "opening_hours": "Mo-Sa 10:00-19:00",
        "phone": "9880667862",
        "shop": "electronics"
      }
    },
    {
      "type": "node",
      "id": 4563035990,
      "lat": 12.9650947,
      "lon": 77.5816049,
      "tags": {
        "addr:housenumber": "9/4",
        "addr:postcode": "560002",
        "addr:street": "E V Lane, S P Road Cross",
        "name": "Jai Hind Agencies",
        "name:en": "Jai Hind Agencies",
        "opening_hours": "Mo-Sa 10:00-19:00",
        "phone": "9663167076",
        "shop": "electronics"
      }
    },
    {
      "type": "node",
      "id": 4563051090,
      "lat": 12.964871,
      "lon": 77.5811502,
      "tags": {
        "addr:housenumber": "56/2B",
        "addr:postcode": "560002",
        "addr:street": "G R Lane, S p road Cross",
        "email": "ampowertools56@gmail.com",
        "name": "A M Power Tools",
        "name:en": "A M Power Tools",
        "phone": "9164212461",
        "shop": "electronics"
      }
    },
    {
      "type": "node",
      "id": 4563052091,
      "lat": 12.9647292,
      "lon": 77.582038,
      "tags": {
        "addr:housenumber": "66/4",
        "addr:postcode": "560002",
        "addr:street": "Sadar Patrappa Road",
        "email": "lakshmieleblr@yahoo.in",
        "name": "Sri Lakshmi electronics",
        "name:en": "Sri Lakshmi electronics",
        "phone": "9341084842",
        "shop": "electronics"
      }
    },
    {
      "type": "node",
      "id": 4563100690,
      "lat": 12.9646329,
      "lon": 77.5819878,
      "tags": {
        "addr:housenumber": "139/7",
        "addr:postcode": "560002",
        "addr:street": "Sadar Patrappa Road",
        "email": "vishalelectronicsblr@gmail.com",
        "name": "Vishal electronics",
        "name:en": "Vishal electronics",
        "opening_hours": "Mo-Sa 10:00-19:00",
        "operator": "Prakash Chawla",
        "phone": "9886717462",
        "shop": "electronics"
      }
    },
    {
      "type": "node",
      "id": 4563140390,
      "lat": 12.9640976,
      "lon": 77.5828518,
      "tags": {
        "addr:housenumber": "82/1",
        "addr:postcode": "560002",
        "addr:street": "S J P Road",
        "email": "burhanipolymer@gmail.com",
        "name": "Burhani Rubber & Polymer",
        "name:en": "Burhani Rubber & Polymer",
        "opening_hours": "Mo-Sa 10:00-19:00",
        "phone": "08041145417",
        "shop": "electronics"
      }
    },
    {
      "type": "node",
      "id": 4563188589,
      "lat": 12.963389,
      "lon": 77.5800026,
      "tags": {
        "addr:housenumber": "104/1",
        "addr:postcode": "560002",
        "addr:street": "Narasimharaja Road",
        "email": "power@powertools.net.in",
        "name": "Power Tools & Tackles",
        "name:en": "Power Tools & Tackles",
        "opening_hours": "Mo-Sa 10:00-19:00",
        "operator": "Husamuddin",
        "phone": "9945009793",
        "shop": "electronics"
      }
    },
    {
      "type": "node",
      "id": 4563372290,
      "lat": 12.9648421,
      "lon": 77.5784145,
      "tags": {
        "addr:housenumber": "14",
        "addr:postcode": "560002",
        "addr:street": "MRR Lane",
        "email": "hntc.maaz@gmail.com",
        "name": "M M Trading Company",
        "name:en": "M M Trading Company",
        "opening_hours": "Mo-Sa 10:00-19:00",
        "phone": "9845004864",
        "shop": "hardware"
      }
    },
    {
      "type": "node",
      "id": 4564567189,
      "lat": 12.9643898,
      "lon": 77.5797751,
      "tags": {
        "addr:housenumber": "33",
        "addr:postcode": "560002",
        "addr:street": "Silver Jubilee Park Road",
        "email": "rtc5253@gmail.com",
        "name": "Reliance tools centre",
        "name:en": "Reliance tools centre",
        "phone": "9342633632",
        "shop": "hardware"
      }
    },
    {
      "type": "node",
      "id": 4564919889,
      "lat": 12.964766,
      "lon": 77.582137,
      "tags": {
        "addr:housenumber": "68",
        "addr:postcode": "560002",
        "addr:street": "Sadar Patrappa Road",
        "name": "Bhandari electronics",
        "name:en": "Bhandari electronics",
        "phone": "32511101",
        "shop": "electronics"
      }
    },
    {
      "type": "node",
      "id": 4580594298,
      "lat": 12.9729017,
      "lon": 77.5772949,
      "tags": {
        "name": "Idea",
        "name:en": "Idea",
        "name:kn": "ಐಡಿಯಾ",
        "shop": "mobile_phone"
      }
    },
    {
      "type": "node",
      "id": 4655054151,
      "lat": 12.9733363,
      "lon": 77.5799372,
      "tags": {
        "addr:city": "Bangalore",
        "addr:housenumber": "2",
        "addr:postcode": "560009",
        "addr:street": "Kempegowda Road",
        "amenity": "bank",
        "atm": "yes",
        "brand": "Allahabad Bank",
        "brand:wikidata": "Q2018840",
        "brand:wikipedia": "en:Allahabad Bank",
        "fax": "080-22253402",
        "name": "Allahabad Bank",
        "name:en": "Allahabad Bank",
        "name:kn": "ಅಲ್ಲಹಾಬಾದ್ ಬ್ಯಾಂಕ್",
        "phone": "080-22262064",
        "phone_1": "080-22261599",
        "website": "https://www.allahabadbank.in"
      }
    },
    {
      "type": "node",
      "id": 4849094833,
      "lat": 12.9647047,
      "lon": 77.5864795,
      "tags": {
        "name": "Lenovo",
        "name:en": "Lenovo",
        "shop": "computer"
      }
    },
    {
      "type": "node",
      "id": 4849094834,
      "lat": 12.9652861,
      "lon": 77.5864103,
      "tags": {
        "amenity": "atm"
      }
    },
    {
      "type": "node",
      "id": 4849108028,
      "lat": 12.9599553,
      "lon": 77.5832139,
      "tags": {
        "name": "Ceat",
        "name:en": "Ceat",
        "shop": "tyres"
      }
    },
    {
      "type": "node",
      "id": 4849108029,
      "lat": 12.9648678,
      "lon": 77.5866235,
      "tags": {
        "name": "Shakti silk rose",
        "name:en": "Shakti silk rose",
        "shop": "clothes"
      }
    },
    {
      "type": "node",
      "id": 4993784521,
      "lat": 12.9616605,
      "lon": 77.5891542,
      "tags": {
        "amenity": "community_centre",
        "name": "Huq Building",
        "name:en": "Huq Building"
      }
    },
    {
      "type": "node",
      "id": 5225695421,
      "lat": 12.969167,
      "lon": 77.576508,
      "tags": {
        "addr:street": "Mamulpet Road",
        "clothes": "women;men;wedding;suits;fashion;children;underwear;traditional",
        "name": "Kuberan silks",
        "shop": "clothes"
      }
    },
    {
      "type": "node",
      "id": 5225695521,
      "lat": 12.9693187,
      "lon": 77.5767288,
      "tags": {
        "name": "Pradeep fashion",
        "shop": "clothes"
      }
    },
    {
      "type": "node",
      "id": 5225695621,
      "lat": 12.9694614,
      "lon": 77.5764,
      "tags": {
        "addr:street": "Mamulpet Road",
        "name": "Pradeep Fabrics",
        "shop": "clothes"
      }
    },
    {
      "type": "node",
      "id": 5229454406,
      "lat": 12.9679578,
      "lon": 77.5917059,
      "tags": {
        "name": "Sri Nandi Silk House",
        "shop": "clothes"
      }
    },
    {
      "type": "node",
      "id": 5358373774,
      "lat": 12.9615738,
      "lon": 77.5766408,
      "tags": {
        "amenity": "place_of_worship",
        "name": "Jalakanteshwara Temple",
        "religion": "hindu"
      }
    },
    {
      "type": "node",
      "id": 5462868116,
      "lat": 12.9722318,
      "lon": 77.5787988,
      "tags": {
        "addr:housenumber": "34/35",
        "addr:street": "Kilari Road",
        "amenity": "cafe",
        "name": "South Canara Coffeehouse"
      }
    },
    {
      "type": "node",
      "id": 5786021053,
      "lat": 12.9646134,
      "lon": 77.5824437,
      "tags": {
        "addr:housenumber": "68/1",
        "addr:postcode": "560002",
        "addr:street": "Sadar Patrappa Road",
        "name": "Navdeep Electronics",
        "opening_hours": "Mo-Sa 10:00-20:30; Su 10:00-15:00",
        "operator": "Navin Jain",
        "phone": "08041225559",
        "shop": "electronics"
      }
    },
    {
      "type": "node",
      "id": 5983446046,
      "lat": 12.9675785,
      "lon": 77.5871644,
      "tags": {
        "amenity": "fast_food",
        "cuisine": "regional",
        "delivery": "no",
        "name": "Indira Canteen",
        "operator": "BBMP",
        "takeaway": "no"
      }
    },
    {
      "type": "node",
      "id": 5983455178,
      "lat": 12.9631282,
      "lon": 77.5891892,
      "tags": {
        "amenity": "bank",
        "check_date": "2024-03-02",
        "name": "J&K Bank"
      }
    },
    {
      "type": "node",
      "id": 5983455179,
      "lat": 12.9588104,
      "lon": 77.5868782,
      "tags": {
        "amenity": "fuel",
        "check_date": "2023-04-05",
        "name": "Gogas",
        "source": "survey"
      }
    },
    {
      "type": "node",
      "id": 6248981887,
      "lat": 12.9611012,
      "lon": 77.5887564,
      "tags": {
        "amenity": "restaurant",
        "cuisine": "tea;chicken;noodles;coffee_shop;curry;indian;local",
        "diet:vegetarian": "yes",
        "name": "Vyshali Food Corner"
      }
    },
    {
      "type": "node",
      "id": 6418981387,
      "lat": 12.9681033,
      "lon": 77.5749359,
      "tags": {
        "name": "Casual shirt",
        "shop": "clothes"
      }
    },
    {
      "type": "node",
      "id": 6418984279,
      "lat": 12.9683783,
      "lon": 77.5748789,
      "tags": {
        "addr:housenumber": "44",
        "addr:postcode": "560053",
        "addr:street": "AS Char Street",
        "name": "Mahadev Electronics",
        "shop": "electronics"
      }
    },
    {
      "type": "node",
      "id": 6418984600,
      "lat": 12.9708074,
      "lon": 77.5761672,
      "tags": {
        "amenity": "place_of_worship",
        "name": "Shree Kodahda Ramanjaneya Swamy Temple",
        "religion": "hindu",
        "wheelchair": "no"
      }
    },
    {
      "type": "node",
      "id": 6418984603,
      "lat": 12.9689075,
      "lon": 77.5771309,
      "tags": {
        "amenity": "community_centre",
        "name": "G R Veerabhadrappa's Veerashaiva Choultry, Sanskrit and Veda Pathashala"
      }
    },
    {
      "type": "node",
      "id": 6418984604,
      "lat": 12.9701196,
      "lon": 77.576326,
      "tags": {
        "addr:housenumber": "69",
        "addr:street": "A M Lane",
        "name": "Panna Sri Cables",
        "shop": "electronics"
      }
    },
    {
      "type": "node",
      "id": 6418985026,
      "lat": 12.9705176,
      "lon": 77.5760191,
      "tags": {
        "addr:housenumber": "29",
        "addr:street": "B.V.K. Iyengar Road",
        "name": "Mutha department stores",
        "shop": "department_store"
      }
    },
    {
      "type": "node",
      "id": 6418985027,
      "lat": 12.9705111,
      "lon": 77.5760421,
      "tags": {
        "addr:postcode": "560053",
        "addr:street": "B.V.K. Iyengar Road",
        "name": "Kancheepuram & designers sarees",
        "shop": "clothes"
      }
    },
    {
      "type": "node",
      "id": 6418987487,
      "lat": 12.9700843,
      "lon": 77.5763899,
      "tags": {
        "addr:housenumber": "72",
        "addr:street": "A M Lane",
        "name": "Amar electricals",
        "office": "company",
        "shop": "electronics"
      }
    },
    {
      "type": "node",
      "id": 6418987488,
      "lat": 12.9687354,
      "lon": 77.5774013,
      "tags": {
        "name": "Hingade Arcade",
        "shop": "clothes"
      }
    },
    {
      "type": "node",
      "id": 6418987489,
      "lat": 12.9715705,
      "lon": 77.5772659,
      "tags": {
        "amenity": "fast_food",
        "name": "Jodhpur Sweets"
      }
    },
    {
      "type": "node",
      "id": 6418988790,
      "lat": 12.9691224,
      "lon": 77.5768357,
      "tags": {
        "name": "Chickpet Plaza",
        "shop": "clothes"
      }
    },
    {
      "type": "node",
      "id": 6418988791,
      "lat": 12.970133,
      "lon": 77.5763065,
      "tags": {
        "addr:housenumber": "68",
        "addr:street": "A M Lane",
        "name": "Arihant cable corporation",
        "shop": "electronics"
      }
    },
    {
      "type": "node",
      "id": 6419006085,
      "lat": 12.9702453,
      "lon": 77.5760979,
      "tags": {
        "name": "Sri Ram Electricals",
        "phone": "08041221753",
        "shop": "electronics"
      }
    },
    {
      "type": "node",
      "id": 6419006086,
      "lat": 12.9702313,
      "lon": 77.5761119,
      "tags": {
        "addr:housenumber": "63/1",
        "addr:street": "A M Lane",
        "name": "Sri Anand Electricals",
        "phone": "+919986174238",
        "shop": "electronics"
      }
    },
    {
      "type": "node",
      "id": 6419006088,
      "lat": 12.9703132,
      "lon": 77.5758789,
      "tags": {
        "name": "Aarti electricals and lightning",
        "shop": "electronics"
      }
    },
    {
      "type": "node",
      "id": 6419006185,
      "lat": 12.9701942,
      "lon": 77.5761895,
      "tags": {
        "addr:street": "A M Lane",
        "name": "Sri Venkateshwara Lighting",
        "shop": "electronics"
      }
    },
    {
      "type": "node",
      "id": 6419007388,
      "lat": 12.9702033,
      "lon": 77.57617,
      "tags": {
        "addr:housenumber": "63",
        "addr:postcode": "560053",
        "addr:street": "A. M. Lane",
        "name": "Prakash Spare Parts",
        "shop": "hardware"
      }
    },
    {
      "type": "node",
      "id": 6419007389,
      "lat": 12.9698059,
      "lon": 77.5758039,
      "tags": {
        "name": "Sri Varadevi Society Silks",
        "shop": "clothes"
      }
    },
    {
      "type": "node",
      "id": 6419007390,
      "lat": 12.9693452,
      "lon": 77.5764784,
      "tags": {
        "name": "Srinivasa Stores",
        "shop": "clothes"
      }
    },
    {
      "type": "node",
      "id": 6419008285,
      "lat": 12.9702871,
      "lon": 77.5759404,
      "tags": {
        "addr:postcode": "560053",
        "addr:street": "AS Char Street",
        "name": "Nandini Milk Parlour",
        "name:kn": "ನಂದಿನಿ ಹಾಲಿನ ಅಂಗಡಿ",
        "shop": "convenience"
      }
    },
    {
      "type": "node",
      "id": 6419008685,
      "lat": 12.9703241,
      "lon": 77.5760364,
      "tags": {
        "amenity": "fast_food",
        "name": "Kachori house"
      }
    },
    {
      "type": "node",
      "id": 6419008686,
      "lat": 12.9692952,
      "lon": 77.5766217,
      "tags": {
        "name": "Maithili silks",
        "shop": "clothes"
      }
    },
    {
      "type": "node",
      "id": 6419008687,
      "lat": 12.9690365,
      "lon": 77.5768479,
      "tags": {
        "name": "Rukmini building",
        "shop": "department_store"
      }
    },
    {
      "type": "node",
      "id": 6419008688,
      "lat": 12.9701199,
      "lon": 77.5762439,
      "tags": {
        "addr:housenumber": "29",
        "addr:postcode": "560053",
        "addr:street": "AM Lane",
        "name": "Majisa Electricals",
        "shop": "electronics"
      }
    },
    {
      "type": "node",
      "id": 6419008689,
      "lat": 12.9700781,
      "lon": 77.576315,
      "tags": {
        "addr:housenumber": "28",
        "addr:postcode": "560053",
        "addr:street": "AM Lane",
        "name": "Bhati Electricals",
        "shop": "electronics"
      }
    },
    {
      "type": "node",
      "id": 6419008690,
      "lat": 12.9693234,
      "lon": 77.577456,
      "tags": {
        "name": "Mamta dupattas",
        "shop": "clothes"
      }
    },
    {
      "type": "node",
      "id": 6419008691,
      "lat": 12.9693079,
      "lon": 77.5774761,
      "tags": {
        "name": "Gold style",
        "shop": "clothes"
      }
    },
    {
      "type": "node",
      "id": 6419008693,
      "lat": 12.9685544,
      "lon": 77.5775827,
      "tags": {
        "name": "Sharma complex",
        "shop": "clothes"
      }
    },
    {
      "type": "node",
      "id": 6419011487,
      "lat": 12.9701759,
      "lon": 77.5762274,
      "tags": {
        "addr:street": "A M Lane",
        "name": "Mahendar Electricals",
        "shop": "electronics"
      }
    },
    {
      "type": "node",
      "id": 6419011488,
      "lat": 12.9701636,
      "lon": 77.5762462,
      "tags": {
        "name": "Mehtab Electricals",
        "shop": "electronics"
      }
    },
    {
      "type": "node",
      "id": 6419011489,
      "lat": 12.9696916,
      "lon": 77.5757534,
      "tags": {
        "check_date": "2025-08-23",
        "name": "Kanchi apex society",
        "shop": "clothes"
      }
    },
    {
      "type": "node",
      "id": 6419011490,
      "lat": 12.9693654,
      "lon": 77.5762498,
      "tags": {
        "check_date": "2025-08-23",
        "name": "Sudarshan store",
        "shop": "clothes"
      }
    },
    {
      "type": "node",
      "id": 6419011491,
      "lat": 12.9689875,
      "lon": 77.5769619,
      "tags": {
        "name": "Kalamandir",
        "name:kn": "ಕಲಾಮಂದಿರ",
        "shop": "clothes"
      }
    },
    {
      "type": "node",
      "id": 6419011492,
      "lat": 12.9701437,
      "lon": 77.5762001,
      "tags": {
        "addr:housenumber": "35/1",
        "addr:postcode": "560053",
        "addr:street": "AM Lane",
        "name": "MP Electricals",
        "shop": "electronics"
      }
    },
    {
      "type": "node",
      "id": 6419011493,
      "lat": 12.9701077,
      "lon": 77.5762618,
      "tags": {
        "addr:postcode": "560053",
        "addr:street": "AM Lane",
        "name": "Sri Guru Electrical & Co.",
        "shop": "electronics"
      }
    },
    {
      "type": "node",
      "id": 6419015585,
      "lat": 12.9698359,
      "lon": 77.5768143,
      "tags": {
        "name": "Mahavir Electric",
        "shop": "electronics"
      }
    },
    {
      "type": "node",
      "id": 6419015586,
      "lat": 12.970146,
      "lon": 77.5761829,
      "tags": {
        "addr:housenumber": "33",
        "addr:postcode": "560053",
        "addr:street": "AM Lane",
        "name": "Rajdhani Electricals",
        "shop": "electronics"
      }
    },
    {
      "type": "node",
      "id": 6419015588,
      "lat": 12.9688175,
      "lon": 77.5780186,
      "tags": {
        "addr:housenumber": "787",
        "addr:postcode": "560063",
        "addr:street": "AM Lane",
        "name": "Mohak Tex",
        "shop": "clothes"
      }
    },
    {
      "type": "node",
      "id": 6419015589,
      "lat": 12.9696203,
      "lon": 77.576967,
      "tags": {
        "name": "Usha Electricals Stores",
        "shop": "electronics"
      }
    },
    {
      "type": "node",
      "id": 6419015590,
      "lat": 12.969671,
      "lon": 77.5769673,
      "tags": {
        "name": "Highco",
        "shop": "electronics"
      }
    },
    {
      "type": "node",
      "id": 6419015591,
      "lat": 12.9700456,
      "lon": 77.576386,
      "tags": {
        "addr:housenumber": "106",
        "addr:postcode": "560053",
        "addr:street": "AM Lane",
        "name": "Paramount Electrical Co.",
        "shop": "electronics"
      }
    },
    {
      "type": "node",
      "id": 6419015592,
      "lat": 12.9698897,
      "lon": 77.5766241,
      "tags": {
        "name": "Power Associates",
        "shop": "electronics"
      }
    },
    {
      "type": "node",
      "id": 6419015593,
      "lat": 12.9698706,
      "lon": 77.5766562,
      "tags": {
        "addr:housenumber": "21/1",
        "addr:postcode": "560053",
        "addr:street": "AM Lane",
        "name": "Pratibha Electricals",
        "shop": "electronics"
      }
    },
    {
      "type": "node",
      "id": 6419015786,
      "lat": 12.9701447,
      "lon": 77.5762811,
      "tags": {
        "name": "Ganesh Electricals",
        "shop": "electronics"
      }
    },
    {
      "type": "node",
      "id": 6419015787,
      "lat": 12.9701654,
      "lon": 77.5762888,
      "tags": {
        "name": "Sri Omkar electricals",
        "shop": "electronics"
      }
    },
    {
      "type": "node",
      "id": 6419015788,
      "lat": 12.9696095,
      "lon": 77.5759104,
      "tags": {
        "amenity": "place_of_worship",
        "name": "Sri Kanteshwara Swamy Temple",
        "religion": "hindu"
      }
    },
    {
      "type": "node",
      "id": 6419015789,
      "lat": 12.970139,
      "lon": 77.5762187,
      "tags": {
        "addr:postcode": "560053",
        "addr:street": "AM Lane",
        "name": "Vinayaka Enterprises",
        "shop": "hardware"
      }
    },
    {
      "type": "node",
      "id": 6419015790,
      "lat": 12.9700592,
      "lon": 77.5763455,
      "tags": {
        "addr:housenumber": "27",
        "addr:postcode": "560053",
        "addr:street": "AM Lane",
        "name": "Mataji Electricals",
        "shop": "electronics"
      }
    },
    {
      "type": "node",
      "id": 6419015793,
      "lat": 12.9685675,
      "lon": 77.577541,
      "tags": {
        "name": "Byrappa & Sons",
        "shop": "clothes"
      }
    },
    {
      "type": "node",
      "id": 6419015794,
      "lat": 12.9685057,
      "lon": 77.5776567,
      "tags": {
        "name": "Anand Bhavan",
        "name:kn": "ಆನಂದ್ ಭಾವನ್",
        "shop": "clothes"
      }
    },
    {
      "type": "node",
      "id": 6419015795,
      "lat": 12.968738,
      "lon": 77.578544,
      "tags": {
        "addr:housenumber": "64",
        "addr:postcode": "560063",
        "addr:street": "AM Lane",
        "name": "Sha Misrimal Mohanlal & Co",
        "phone": "8792982712",
        "shop": "clothes"
      }
    },
    {
      "type": "node",
      "id": 6419015796,
      "lat": 12.9684235,
      "lon": 77.577773,
      "tags": {
        "name": "Byrappa & Sons",
        "shop": "clothes"
      }
    },
    {
      "type": "node",
      "id": 6419016885,
      "lat": 12.969013,
      "lon": 77.5778985,
      "tags": {
        "addr:housenumber": "#3/4",
        "addr:postcode": "560053",
        "addr:street": "AM Lane",
        "name": "Mahalakshmi Fashions",
        "phone": "9964231828",
        "shop": "clothes"
      }
    },
    {
      "type": "node",
      "id": 6419016886,
      "lat": 12.9688722,
      "lon": 77.57795,
      "tags": {
        "addr:housenumber": "790/1",
        "addr:postcode": "560053",
        "addr:street": "AM Lane",
        "name": "Shri Vardhaman Silk Centre and",
        "phone": "08022264095",
        "shop": "clothes"
      }
    },
    {
      "type": "node",
      "id": 6419024185,
      "lat": 12.9701116,
      "lon": 77.5763435,
      "tags": {
        "addr:housenumber": "71",
        "addr:street": "A M Lane",
        "name": "Cauvery Powers",
        "shop": "electronics"
      }
    },
    {
      "type": "node",
      "id": 6419024186,
      "lat": 12.9701042,
      "lon": 77.5763561,
      "tags": {
        "addr:housenumber": "71",
        "addr:street": "A M Lane",
        "name": "Cauvery Electricals",
        "phone": "+918022261999",
        "shop": "electronics"
      }
    },
    {
      "type": "node",
      "id": 6419024187,
      "lat": 12.9685732,
      "lon": 77.5776696,
      "tags": {
        "name": "Devatha Market",
        "shop": "clothes"
      }
    },
    {
      "type": "node",
      "id": 6419024188,
      "lat": 12.9684705,
      "lon": 77.5778334,
      "tags": {
        "name": "Bombay Fancy Store",
        "shop": "clothes"
      }
    },
    {
      "type": "node",
      "id": 6419024189,
      "lat": 12.9717448,
      "lon": 77.5770331,
      "tags": {
        "amenity": "fast_food",
        "name": "Karnataka Chat"
      }
    },
    {
      "type": "node",
      "id": 6419024192,
      "lat": 12.9700768,
      "lon": 77.5764056,
      "tags": {
        "addr:housenumber": "71",
        "addr:street": "A M Lane",
        "name": "K R Electricals",
        "shop": "electronics"
      }
    },
    {
      "type": "node",
      "id": 6419024193,
      "lat": 12.9700606,
      "lon": 77.576438,
      "tags": {
        "addr:housenumber": "73",
        "addr:street": "A M Lane",
        "name": "Guru electricals",
        "shop": "electronics"
      }
    },
    {
      "type": "node",
      "id": 6419024194,
      "lat": 12.9700323,
      "lon": 77.5764757,
      "tags": {
        "name": "Sri Bajrang Electricals",
        "shop": "electronics"
      }
    },
    {
      "type": "node",
      "id": 6419025585,
      "lat": 12.9684941,
      "lon": 77.5779612,
      "tags": {
        "name": "Mohan Building",
        "shop": "clothes"
      }
    },
    {
      "type": "node",
      "id": 6419027085,
      "lat": 12.9685695,
      "lon": 77.5784008,
      "tags": {
        "addr:housenumber": "B-24",
        "addr:postcode": "560053",
        "addr:street": "AM Lane",
        "name": "Woollen Ware House",
        "shop": "clothes"
      }
    },
    {
      "type": "node",
      "id": 6419027086,
      "lat": 12.9693695,
      "lon": 77.5767616,
      "tags": {
        "name": "Sundar electricals",
        "shop": "electronics"
      }
    },
    {
      "type": "node",
      "id": 6419027087,
      "lat": 12.9696813,
      "lon": 77.577009,
      "tags": {
        "addr:street": "A M line-A",
        "amenity": "fast_food",
        "name": "हनुमान चाट्स",
        "name:en": "Hanuman chats"
      }
    },
    {
      "type": "node",
      "id": 6419027088,
      "lat": 12.9682287,
      "lon": 77.5780937,
      "tags": {
        "name": "Pvr silks",
        "shop": "clothes"
      }
    },
    {
      "type": "node",
      "id": 6419027090,
      "lat": 12.9700486,
      "lon": 77.5763732,
      "tags": {
        "addr:housenumber": "106/1",
        "addr:postcode": "560053",
        "addr:street": "AM Lane",
        "name": "Wire Sales Corporation",
        "shop": "electronics"
      }
    },
    {
      "type": "node",
      "id": 6419027091,
      "lat": 12.9700413,
      "lon": 77.5764018,
      "tags": {
        "addr:housenumber": "26/3",
        "addr:postcode": "560053",
        "addr:street": "AM Lane",
        "name": "Hari Om Electricals and Hardware",
        "shop": "electronics"
      }
    },
    {
      "type": "node",
      "id": 6419027092,
      "lat": 12.9699441,
      "lon": 77.5765263,
      "tags": {
        "addr:housenumber": "24",
        "addr:postcode": "560053",
        "addr:street": "AM Lane",
        "name": "Mukesh Enterprises",
        "shop": "electronics"
      }
    },
    {
      "type": "node",
      "id": 6419027093,
      "lat": 12.9698302,
      "lon": 77.5767116,
      "tags": {
        "addr:housenumber": "20",
        "addr:postcode": "560053",
        "addr:street": "AM Lane",
        "name": "Gowder Complex",
        "shop": "electronics"
      }
    },
    {
      "type": "node",
      "id": 6419027094,
      "lat": 12.9698397,
      "lon": 77.5767067,
      "tags": {
        "addr:housenumber": "20",
        "addr:postcode": "560053",
        "addr:street": "AM Lane",
        "name": "MM Switchgear",
        "shop": "electronics"
      }
    },
    {
      "type": "node",
      "id": 6419027095,
      "lat": 12.9695714,
      "lon": 77.5770767,
      "tags": {
        "addr:postcode": "560053",
        "addr:street": "AM Lane",
        "name": "Vasath Textiles",
        "shop": "clothes"
      }
    },
    {
      "type": "node",
      "id": 6419027096,
      "lat": 12.9682756,
      "lon": 77.578859,
      "tags": {
        "name": "Rajashree market",
        "shop": "clothes"
      }
    },
    {
      "type": "node",
      "id": 6419027186,
      "lat": 12.9696489,
      "lon": 77.5769901,
      "tags": {
        "name": "Light house",
        "shop": "electronics"
      }
    },
    {
      "type": "node",
      "id": 6419027188,
      "lat": 12.9694413,
      "lon": 77.5772825,
      "tags": {
        "addr:housenumber": "10/3",
        "addr:street": "A M Lane",
        "name": "Delbees",
        "shop": "clothes"
      }
    },
    {
      "type": "node",
      "id": 6419027190,
      "lat": 12.9694822,
      "lon": 77.5773149,
      "tags": {
        "addr:street": "A M lane",
        "name": "Dhanalakshmi market",
        "shop": "clothes"
      }
    },
    {
      "type": "node",
      "id": 6419027192,
      "lat": 12.9682222,
      "lon": 77.5783267,
      "tags": {
        "name": "Jewellers association building",
        "shop": "clothes"
      }
    },
    {
      "type": "node",
      "id": 6419027194,
      "lat": 12.9695947,
      "lon": 77.5769459,
      "tags": {
        "name": "Padam electricals",
        "shop": "electronics"
      }
    },
    {
      "type": "node",
      "id": 6419027195,
      "lat": 12.9693581,
      "lon": 77.5775277,
      "tags": {
        "addr:street": "A M Lane",
        "name": "S. Kapurchand and sons",
        "shop": "electronics"
      }
    },
    {
      "type": "node",
      "id": 6419027196,
      "lat": 12.9695826,
      "lon": 77.5771793,
      "tags": {
        "addr:housenumber": "80",
        "addr:postcode": "560053",
        "addr:street": "AM Lane",
        "name": "Manikant & Co.",
        "shop": "clothes"
      }
    },
    {
      "type": "node",
      "id": 6419027197,
      "lat": 12.9692566,
      "lon": 77.5775515,
      "tags": {
        "addr:postcode": "560053",
        "addr:street": "AM Lane",
        "name": "Chamundeshwari Textiles",
        "shop": "clothes"
      }
    },
    {
      "type": "node",
      "id": 6419027198,
      "lat": 12.9686865,
      "lon": 77.5790878,
      "tags": {
        "name": "Pathi market",
        "shop": "clothes"
      }
    },
    {
      "type": "node",
      "id": 6419027199,
      "lat": 12.9689457,
      "lon": 77.5780128,
      "tags": {
        "addr:street": "A M Lane",
        "name": "Mahalaxmi fashions",
        "shop": "clothes"
      }
    },
    {
      "type": "node",
      "id": 6419027200,
      "lat": 12.9689238,
      "lon": 77.5792294,
      "tags": {
        "name": "Raghavendra market",
        "shop": "clothes"
      }
    },
    {
      "type": "node",
      "id": 6419027486,
      "lat": 12.9700534,
      "lon": 77.5764466,
      "tags": {
        "addr:housenumber": "73",
        "addr:street": "A M Lane",
        "name": "Vijay Electrical enterprises",
        "shop": "electronics"
      }
    },
    {
      "type": "node",
      "id": 6419027487,
      "lat": 12.9700441,
      "lon": 77.5764584,
      "tags": {
        "addr:housenumber": "74",
        "addr:street": "A M Lane",
        "name": "Prakash Electrical Enterprises",
        "shop": "electronics"
      }
    },
    {
      "type": "node",
      "id": 6419028085,
      "lat": 12.9700673,
      "lon": 77.5764205,
      "tags": {
        "addr:housenumber": "72",
        "addr:street": "A M Lane",
        "name": "Balaji Agencies",
        "shop": "electronics"
      }
    },
    {
      "type": "node",
      "id": 6419028086,
      "lat": 12.9700228,
      "lon": 77.5764918,
      "tags": {
        "addr:housenumber": "35",
        "addr:street": "A M Lane",
        "name": "Mishra electricals",
        "shop": "electronics"
      }
    },
    {
      "type": "node",
      "id": 6419044985,
      "lat": 12.9681904,
      "lon": 77.578846,
      "tags": {
        "name": "Sakalajee market",
        "shop": "clothes"
      }
    },
    {
      "type": "node",
      "id": 6419044988,
      "lat": 12.9692985,
      "lon": 77.5793482,
      "tags": {
        "addr:street": "Avenue Road",
        "amenity": "bank",
        "brand": "Karur Vysya Bank",
        "brand:wikidata": "Q6373724",
        "name": "Karur Vysya Bank",
        "name:kn": "ಕರೂರು ವೈಶ್ಯ ಬ್ಯಾಂಕ್"
      }
    },
    {
      "type": "node",
      "id": 6419044989,
      "lat": 12.9686127,
      "lon": 77.5790381,
      "tags": {
        "addr:postcode": "560053",
        "addr:street": "Avenue Road",
        "amenity": "place_of_worship",
        "name": "Balaji Temple",
        "name:kn": "ಬಾಲಾಜಿ ದೇವಸ್ಥಾನ",
        "religion": "hindu",
        "wheelchair": "no"
      }
    },
    {
      "type": "node",
      "id": 6419044990,
      "lat": 12.9688815,
      "lon": 77.5791931,
      "tags": {
        "amenity": "atm",
        "brand": "ICICI Bank",
        "brand:wikidata": "Q1653258",
        "name": "ICICI Bank",
        "operator": "ICICI Bank",
        "operator:wikidata": "Q1653258",
        "short_name": "ICICI",
        "survey:date": "2022-07-17"
      }
    },
    {
      "type": "node",
      "id": 6419048785,
      "lat": 12.9695167,
      "lon": 77.5772706,
      "tags": {
        "addr:housenumber": "25/79",
        "addr:postcode": "560053",
        "addr:street": "AM Lane",
        "name": "Poonam Trading Co",
        "shop": "clothes"
      }
    },
    {
      "type": "node",
      "id": 6419048786,
      "lat": 12.9692799,
      "lon": 77.5775206,
      "tags": {
        "addr:postcode": "560053",
        "addr:street": "AM Lane",
        "name": "SK Complex",
        "shop": "clothes"
      }
    },
    {
      "type": "node",
      "id": 6419048789,
      "lat": 12.9683266,
      "lon": 77.5782068,
      "tags": {
        "name": "Rajatha Complex",
        "shop": "clothes"
      }
    },
    {
      "type": "node",
      "id": 6419048790,
      "lat": 12.9685731,
      "lon": 77.5789075,
      "tags": {
        "name": "Arya Vysya Mandali Chambers",
        "shop": "clothes"
      }
    },
    {
      "type": "node",
      "id": 6419049986,
      "lat": 12.9709487,
      "lon": 77.578094,
      "tags": {
        "alt_name": "Haldiram",
        "amenity": "fast_food",
        "brand": "Haldiram's",
        "brand:wikidata": "Q17054442",
        "cuisine": "indian",
        "name": "Haldiram's",
        "shop": "confectionery",
        "takeaway": "yes"
      }
    },
    {
      "type": "node",
      "id": 6419049987,
      "lat": 12.9707166,
      "lon": 77.5784032,
      "tags": {
        "name": "Manak Mewa",
        "shop": "bakery"
      }
    },
    {
      "type": "node",
      "id": 6419052586,
      "lat": 12.9692487,
      "lon": 77.5794495,
      "tags": {
        "amenity": "atm",
        "brand": "IDFC First Bank",
        "brand:wikidata": "Q22031467",
        "check_date": "2022-07-17",
        "name": "IDFC First Bank",
        "operator": "IDFC First Bank",
        "operator:wikidata": "Q22031467",
        "survey:date": "2022-07-17"
      }
    },
    {
      "type": "node",
      "id": 6419052587,
      "lat": 12.9694658,
      "lon": 77.5794819,
      "tags": {
        "addr:housenumber": "553",
        "addr:postcode": "560053",
        "addr:street": "Avenue Road",
        "alt_name": "Parvathy Someshwara Temple",
        "amenity": "place_of_worship",
        "name": "Sri Parvati Someshwara Swamy Temple",
        "religion": "hindu"
      }
    },
    {
      "type": "node",
      "id": 6419052588,
      "lat": 12.9699453,
      "lon": 77.5798033,
      "tags": {
        "addr:street": "Avenue Road",
        "amenity": "place_of_worship",
        "name": "Sri Guru Shanaischara Swamy Temple",
        "religion": "hindu"
      }
    },
    {
      "type": "node",
      "id": 6419052685,
      "lat": 12.9692728,
      "lon": 77.579469,
      "tags": {
        "amenity": "atm",
        "brand": "Canara Bank",
        "brand:en": "Canara Bank",
        "brand:hi": "केनरा बैंक",
        "brand:kn": "ಕೆನರಾ ಬ್ಯಾಂಕ್",
        "brand:pa": "ਕੇਨਰਾ ਬੈਂਕ",
        "brand:pnb": "کینرا بینک",
        "brand:ur": "کینرا بینک",
        "brand:wikidata": "Q2003777",
        "name": "Canara Bank",
        "name:en": "Canara Bank",
        "name:hi": "केनरा बैंक",
        "name:kn": "ಕೆನರಾ ಬ್ಯಾಂಕ್",
        "name:pa": "ਕੇਨਰਾ ਬੈਂਕ",
        "name:pnb": "کینرا بینک",
        "name:ur": "کینرا بینک",
        "operator": "Canara Bank",
        "operator:wikidata": "Q2003777"
      }
    },
    {
      "type": "node",
      "id": 6419052686,
      "lat": 12.9692389,
      "lon": 77.5795139,
      "tags": {
        "amenity": "bank",
        "brand": "Canara Bank",
        "brand:en": "Canara Bank",
        "brand:hi": "केनरा बैंक",
        "brand:kn": "ಕೆನರಾ ಬ್ಯಾಂಕ್",
        "brand:pa": "ਕੇਨਰਾ ਬੈਂਕ",
        "brand:pnb": "کینرا بینک",
        "brand:ur": "کینرا بینک",
        "brand:wikidata": "Q2003777",
        "brand:wikipedia": "en:Canara Bank",
        "brand:wikipedia:pa": "ਕੇਨਰਾ ਬੈਂਕ",
        "name": "Canara Bank",
        "name:en": "Canara Bank",
        "name:hi": "केनरा बैंक",
        "name:kn": "ಕೆನರಾ ಬ್ಯಾಂಕ್",
        "name:pa": "ਕੇਨਰਾ ਬੈਂਕ",
        "name:pnb": "کینرا بینک",
        "name:ur": "کینرا بینک"
      }
    },
    {
      "type": "node",
      "id": 6419052689,
      "lat": 12.9692885,
      "lon": 77.5794993,
      "tags": {
        "name": "Avenue plaza",
        "shop": "clothes"
      }
    },
    {
      "type": "node",
      "id": 6419055685,
      "lat": 12.9693722,
      "lon": 77.5793304,
      "tags": {
        "amenity": "community_centre",
        "name": "Chintalapalli Venkatamuni Setty's Free Boarding Hostel and Choultry"
      }
    },
    {
      "type": "node",
      "id": 6419055686,
      "lat": 12.9697564,
      "lon": 77.5797471,
      "tags": {
        "addr:street": "Avenue Road",
        "amenity": "bank",
        "brand": "Indian Bank",
        "brand:wikidata": "Q2003789",
        "name": "Indian Bank",
        "name:kn": "ಇಂಡಿಯನ್ ಬ್ಯಾಂಕ್"
      }
    },
    {
      "type": "node",
      "id": 6419055687,
      "lat": 12.9692492,
      "lon": 77.5793602,
      "tags": {
        "addr:housenumber": "544",
        "addr:postcode": "560053",
        "addr:street": "Avenue Road",
        "amenity": "fast_food",
        "name": "Aradhana Gowri Condiments & Chats"
      }
    },
    {
      "type": "node",
      "id": 6419057785,
      "lat": 12.9696955,
      "lon": 77.5797222,
      "tags": {
        "name": "Jayanthi building",
        "name:kn": "ಜಯಂತಿ",
        "shop": "clothes"
      }
    },
    {
      "type": "node",
      "id": 6419057885,
      "lat": 12.9710049,
      "lon": 77.5780144,
      "tags": {
        "name": "Bikaji",
        "shop": "confectionery"
      }
    },
    {
      "type": "node",
      "id": 6419058085,
      "lat": 12.9686361,
      "lon": 77.5779851,
      "tags": {
        "addr:street": "A M Lane",
        "name": "Thandava mudiliar and sons",
        "shop": "clothes"
      }
    },
    {
      "type": "node",
      "id": 6419070686,
      "lat": 12.9678926,
      "lon": 77.5787208,
      "tags": {
        "name": "Neelkamal sweets",
        "shop": "confectionery"
      }
    },
    {
      "type": "node",
      "id": 6487182237,
      "lat": 12.9674891,
      "lon": 77.589447,
      "tags": {
        "name": "Mysore Silk Udyog",
        "shop": "clothes"
      }
    },
    {
      "type": "node",
      "id": 6681215515,
      "lat": 12.9742181,
      "lon": 77.5793459,
      "tags": {
        "amenity": "bank",
        "atm": "yes",
        "brand": "Syndicate Bank",
        "brand:wikidata": "Q2004088",
        "layer": "2",
        "name": "Syndicate Bank",
        "name:kn": "ಸಿಂಡಿಕೇಟ್ ಬ್ಯಾಂಕ್"
      }
    },
    {
      "type": "node",
      "id": 6681215516,
      "lat": 12.9734339,
      "lon": 77.5806454,
      "tags": {
        "amenity": "bank",
        "atm": "yes",
        "brand": "United Bank of India",
        "brand:wikidata": "Q2003237",
        "name": "United Bank of India"
      }
    },
    {
      "type": "node",
      "id": 6882713300,
      "lat": 12.9706777,
      "lon": 77.5859401,
      "tags": {
        "addr:city": "Bengaluru",
        "addr:district": "BENGALURU URBAN",
        "addr:full": "Nrupatunga Road",
        "addr:postcode": "560001",
        "addr:state": "Karnataka",
        "amenity": "blood_bank",
        "contact:mobile": "9686452704",
        "contact:phone": "8040128243",
        "name": "Saint Martha' Hospital Blood Bank",
        "opening_hours": "24/7",
        "operator:type": "private",
        "source": "OpenGovernmentData"
      }
    },
    {
      "type": "node",
      "id": 6882713301,
      "lat": 12.9675046,
      "lon": 77.5897226,
      "tags": {
        "addr:city": "Bangalore",
        "addr:district": "BENGALURU URBAN",
        "addr:full": "No. 20, 3rd Floor, SGRR Complex, 1st Cross, Raja Ram Mohan Roy Road, S. R. Nagar",
        "addr:postcode": "560027",
        "addr:state": "Karnataka",
        "amenity": "blood_bank",
        "contact:mobile": "9343773931",
        "contact:phone": "8022224044",
        "email": "vivekanandabloodbank@gmail.com",
        "name": "Swamy Vivekananda Voluntary Blood Bank",
        "opening_hours": "24/7",
        "operator:type": "private",
        "source": "OpenGovernmentData"
      }
    },
    {
      "type": "node",
      "id": 6886594853,
      "lat": 12.9643654,
      "lon": 77.5897381,
      "tags": {
        "addr:city": "Bengaluru",
        "addr:district": "BENGALURU URBAN",
        "addr:full": "No. 8, P. Kalinga Rao Road, Sampangiram Nagar",
        "addr:postcode": "560002",
        "addr:state": "Karnataka",
        "amenity": "blood_bank",
        "contact:mobile": "9008255888",
        "contact:phone": "8040206121",
        "name": "Bangalore Institute of Oncology Blood Bank",
        "opening_hours": "24/7",
        "operator:type": "private",
        "source": "OpenGovernmentData"
      }
    },
    {
      "type": "node",
      "id": 6938775840,
      "lat": 12.9711822,
      "lon": 77.5781228,
      "tags": {
        "addr:district": "Bengaluru Urban",
        "addr:full": "7Th Cross, Rangaswamy Temple Street",
        "addr:postcode": "560053",
        "addr:state": "Karnataka",
        "amenity": "hospital",
        "name": "Amar Hospital",
        "name:kn": "ಅಮರ್ ಆಸ್ಪತ್ರೆ",
        "source": "OpenGovernmentData"
      }
    },
    {
      "type": "node",
      "id": 6944096791,
      "lat": 12.9717138,
      "lon": 77.5770294,
      "tags": {
        "addr:district": "Bengaluru Urban",
        "addr:full": "202/3 Mahesh Towers R T Street",
        "addr:postcode": "560053",
        "addr:state": "Karnataka",
        "amenity": "clinic",
        "name": "Mahesh Clinic",
        "source": "OpenGovernmentData"
      }
    },
    {
      "type": "node",
      "id": 6944138105,
      "lat": 12.9670215,
      "lon": 77.5892667,
      "tags": {
        "addr:district": "Bengaluru Urban",
        "addr:full": "10, Vokkaligara Bhavana, Hudson Circle",
        "addr:postcode": "560027",
        "addr:state": "Karnataka",
        "amenity": "hospital",
        "name": "Bangalore Kidney Stones Hospital",
        "source": "OpenGovernmentData"
      }
    },
    {
      "type": "node",
      "id": 6944400815,
      "lat": 12.9670615,
      "lon": 77.5903161,
      "tags": {
        "addr:district": "Bengaluru Urban",
        "addr:full": "No.2 , 8Th A Main,S.R.Nagar,Near Corporation Offices",
        "addr:postcode": "560027",
        "addr:state": "Karnataka",
        "amenity": "hospital",
        "name": "Bhavatprabhu Hospitals Pvt Limited",
        "source": "OpenGovernmentData"
      }
    },
    {
      "type": "node",
      "id": 6945020140,
      "lat": 12.9685305,
      "lon": 77.5843965,
      "tags": {
        "addr:district": "Bengaluru Urban",
        "addr:full": "No 37, Next To Ganesha Temple Near Cubbonpet Market Near Cubbonpet Market",
        "addr:postcode": "560002",
        "addr:state": "Karnataka",
        "amenity": "hospital",
        "name": "Punarjyoti Eye Hospital, Bengaluru Urban",
        "source": "OpenGovernmentData"
      }
    },
    {
      "type": "node",
      "id": 7043568487,
      "lat": 12.9635112,
      "lon": 77.5848109,
      "tags": {
        "name": "Ganapathy and Company",
        "shop": "convenience"
      }
    },
    {
      "type": "node",
      "id": 7043981586,
      "lat": 12.9666912,
      "lon": 77.5891872,
      "tags": {
        "name": "Fouzi Digital Photo Studio",
        "shop": "photo"
      }
    },
    {
      "type": "node",
      "id": 7043991885,
      "lat": 12.9652756,
      "lon": 77.5897462,
      "tags": {
        "name": "R.K. Trader's Helmets and Accessories",
        "shop": "motorcycle"
      }
    },
    {
      "type": "node",
      "id": 7056166958,
      "lat": 12.9645263,
      "lon": 77.5826626,
      "tags": {
        "addr:city": "Bengaluru",
        "addr:postcode": "560002",
        "addr:street": "P. P. Lane",
        "name": "Computer Mega Mart",
        "shop": "computer"
      }
    },
    {
      "type": "node",
      "id": 7162186811,
      "lat": 12.9741713,
      "lon": 77.5880263,
      "tags": {
        "addr:city": "Bangalore",
        "addr:postcode": "560001",
        "addr:street": "PWD Offices Premises",
        "amenity": "restaurant",
        "cuisine": "regional;indian",
        "name": "Annapurneshwari Canteen",
        "opening_hours": "Mo-Sa 10:00-18:00"
      }
    },
    {
      "type": "node",
      "id": 7292436106,
      "lat": 12.970764,
      "lon": 77.5870451,
      "tags": {
        "amenity": "waste_basket"
      }
    },
    {
      "type": "node",
      "id": 7292436108,
      "lat": 12.9713364,
      "lon": 77.5867555,
      "tags": {
        "amenity": "atm",
        "brand": "South Indian Bank",
        "brand:wikidata": "Q2044973",
        "name": "South Indian Bank",
        "operator": "South Indian Bank",
        "operator:wikidata": "Q2044973"
      }
    },
    {
      "type": "node",
      "id": 7292436129,
      "lat": 12.9720421,
      "lon": 77.5832324,
      "tags": {
        "amenity": "bank",
        "atm": "yes",
        "brand": "Axis Bank",
        "brand:wikidata": "Q2003549",
        "name": "Axis Bank",
        "name:kn": "ಆಕ್ಸಿಸ್ ಬ್ಯಾಂಕ್",
        "operator": "Axis Bank"
      }
    },
    {
      "type": "node",
      "id": 7292436130,
      "lat": 12.9721584,
      "lon": 77.5830647,
      "tags": {
        "amenity": "bank",
        "atm": "yes",
        "brand": "Canara Bank",
        "brand:en": "Canara Bank",
        "brand:hi": "केनरा बैंक",
        "brand:kn": "ಕೆನರಾ ಬ್ಯಾಂಕ್",
        "brand:pa": "ਕੇਨਰਾ ਬੈਂਕ",
        "brand:pnb": "کینرا بینک",
        "brand:ur": "کینرا بینک",
        "brand:wikidata": "Q2003777",
        "brand:wikipedia": "en:Canara Bank",
        "brand:wikipedia:pa": "ਕੇਨਰਾ ਬੈਂਕ",
        "name": "Canara Bank",
        "name:en": "Canara Bank",
        "name:hi": "केनरा बैंक",
        "name:kn": "ಕೆನರಾ ಬ್ಯಾಂಕ್",
        "name:pa": "ਕੇਨਰਾ ਬੈਂਕ",
        "name:pnb": "کینرا بینک",
        "name:ur": "کینرا بینک"
      }
    },
    {
      "type": "node",
      "id": 7292436131,
      "lat": 12.9722943,
      "lon": 77.5829172,
      "tags": {
        "amenity": "bank",
        "atm": "yes",
        "brand": "State Bank of India",
        "brand:wikidata": "Q1340361",
        "name": "State Bank of India",
        "operator": "State Bank of India",
        "short_name": "SBI"
      }
    },
    {
      "type": "node",
      "id": 7292436134,
      "lat": 12.9735123,
      "lon": 77.5804885,
      "tags": {
        "name": "Priyadarshini Handlooms",
        "shop": "clothes"
      }
    },
    {
      "type": "node",
      "id": 7292436135,
      "lat": 12.9732666,
      "lon": 77.5800808,
      "tags": {
        "amenity": "bank",
        "atm": "yes",
        "brand": "Kotak Mahindra Bank",
        "brand:wikidata": "Q2040404",
        "name": "Kotak Mahindra Bank",
        "name:kn": "ಕೋಟಕ್ ಮಹಿಂದ್ರ ಬ್ಯಾಂಕ್",
        "operator": "Kotak Mahindra Bank"
      }
    },
    {
      "type": "node",
      "id": 7292436136,
      "lat": 12.9734013,
      "lon": 77.5797763,
      "tags": {
        "brand": "Bata",
        "brand:wikidata": "Q688082",
        "name": "Bata",
        "shop": "shoes",
        "wheelchair": "no"
      }
    },
    {
      "type": "node",
      "id": 7292436137,
      "lat": 12.9740416,
      "lon": 77.5783776,
      "tags": {
        "name": "Maharaja Times",
        "shop": "watches",
        "wheelchair": "no"
      }
    },
    {
      "type": "node",
      "id": 7292436138,
      "lat": 12.9740926,
      "lon": 77.5782381,
      "tags": {
        "amenity": "bank",
        "atm": "yes",
        "brand": "South Indian Bank",
        "brand:wikidata": "Q2044973",
        "name": "South Indian Bank",
        "wheelchair": "no"
      }
    },
    {
      "type": "node",
      "id": 7576958028,
      "lat": 12.9633185,
      "lon": 77.5790145,
      "tags": {
        "addr:district": "Bengaluru Urban",
        "addr:full": "Near Jamia Masjid, NR Road, Bengaluru",
        "addr:postcode": "560002",
        "addr:state": "Karnataka",
        "amenity": "hospital",
        "name": "Unani Hospital",
        "source": "Local Knowledge"
      }
    },
    {
      "type": "node",
      "id": 7576958029,
      "lat": 12.970483,
      "lon": 77.5789065,
      "tags": {
        "addr:district": "Bengaluru Urban",
        "addr:full": "Anchepet, Chickpet, Bengaluru",
        "addr:postcode": "560053",
        "addr:state": "Karnataka",
        "amenity": "clinic",
        "name": "Priya Clinic",
        "source": "Local Knowledge"
      }
    },
    {
      "type": "node",
      "id": 7576958054,
      "lat": 12.9712575,
      "lon": 77.5777304,
      "tags": {
        "addr:district": "Bengaluru Urban",
        "addr:full": "Rangaswamy Temple Road, Mamulpet, Bengaluru",
        "addr:postcode": "560053",
        "addr:state": "Karnataka",
        "amenity": "clinic",
        "name": "Sham Singh Clinic",
        "source": "Local Knowledge"
      }
    },
    {
      "type": "node",
      "id": 7576958084,
      "lat": 12.9654649,
      "lon": 77.5894756,
      "tags": {
        "addr:district": "Bengaluru Urban",
        "addr:full": "Sampangi Rama Nagar, Bengaluru",
        "addr:postcode": "560002",
        "addr:state": "Karnataka",
        "amenity": "hospital",
        "name": "Furtde Hospital",
        "source": "Local Knowledge"
      }
    },
    {
      "type": "node",
      "id": 7576958110,
      "lat": 12.966674,
      "lon": 77.591952,
      "tags": {
        "addr:district": "Bengaluru Urban",
        "addr:full": "Ashwath Nagar, Sampangi Rama Nagara",
        "addr:postcode": "560027",
        "addr:state": "Karnataka",
        "amenity": "clinic",
        "name": "Malika Clinic",
        "source": "Local Knowledge"
      }
    },
    {
      "type": "node",
      "id": 7576958114,
      "lat": 12.9690341,
      "lon": 77.57708,
      "tags": {
        "addr:district": "Bengaluru Urban",
        "addr:full": "Cubbon Pet Main Road, Cubbonpet, Bengaluru",
        "addr:postcode": "560002",
        "addr:state": "Karnataka",
        "amenity": "clinic",
        "healthcare": "clinic",
        "name": "Shyam Clinic",
        "source": "Local Knowledge"
      }
    },
    {
      "type": "node",
      "id": 7576958116,
      "lat": 12.9658901,
      "lon": 77.589928,
      "tags": {
        "addr:district": "Bengaluru Urban",
        "addr:full": "Ashwath Nagar, Sampangi Rama Nagara, Bengaluru",
        "addr:postcode": "560002",
        "addr:state": "Karnataka",
        "amenity": "hospital",
        "name": "Punarjyoti Eye Hospital",
        "source": "Local Knowledge"
      }
    },
    {
      "type": "node",
      "id": 8196809485,
      "lat": 12.9686611,
      "lon": 77.5856195,
      "tags": {
        "addr:full": "8-cross cubbon pet, opposite st marthas hospital, corporation circle, Cubbonpete, Nagarathpete, Bengaluru, Karnataka",
        "addr:state": "Karnataka",
        "amenity": "college",
        "name": "Global Institute of Medical Science"
      }
    },
    {
      "type": "node",
      "id": 8463203311,
      "lat": 12.9644404,
      "lon": 77.5817458,
      "tags": {
        "description": "A large shop selling screw drivers, wire cutters, wire strippers, nippers, crimping tools, etc.",
        "name": "Goodwill enterprises",
        "shop": "hardware"
      }
    },
    {
      "type": "node",
      "id": 9136261820,
      "lat": 12.966676,
      "lon": 77.5918771,
      "tags": {
        "name": "Shree Nanjundeshwara",
        "shop": "jewelry"
      }
    },
    {
      "type": "node",
      "id": 9140200243,
      "lat": 12.9689448,
      "lon": 77.5842382,
      "tags": {
        "amenity": "cafe",
        "name": "Coffee"
      }
    },
    {
      "type": "node",
      "id": 9140200244,
      "lat": 12.9683717,
      "lon": 77.5844461,
      "tags": {
        "amenity": "fast_food",
        "cuisine": "regional",
        "name": "Chikkanna Tiffin Room",
        "takeaway": "yes"
      }
    },
    {
      "type": "node",
      "id": 9142142895,
      "lat": 12.9723179,
      "lon": 77.5899392,
      "tags": {
        "amenity": "waste_basket"
      }
    },
    {
      "type": "node",
      "id": 9142142898,
      "lat": 12.9682273,
      "lon": 77.5885244,
      "tags": {
        "access": "permissive",
        "amenity": "toilets",
        "name": "Public Toilets",
        "name:kn": "ಸಾರ್ವಜನಿಕ ಶೌಚಾಲಯ",
        "toilets:disposal": "flush",
        "unisex": "yes"
      }
    },
    {
      "type": "node",
      "id": 9249667850,
      "lat": 12.9650835,
      "lon": 77.5806688,
      "tags": {
        "name": "Burhani Industrial suppliers",
        "shop": "hardware"
      }
    },
    {
      "type": "node",
      "id": 9289356417,
      "lat": 12.9580517,
      "lon": 77.5824765,
      "tags": {
        "amenity": "restaurant",
        "name": "Udupi Sagar Veg Restaurant"
      }
    },
    {
      "type": "node",
      "id": 9296328830,
      "lat": 12.9678659,
      "lon": 77.5883742,
      "tags": {
        "amenity": "waste_basket"
      }
    },
    {
      "type": "node",
      "id": 9296328867,
      "lat": 12.9747199,
      "lon": 77.584898,
      "tags": {
        "amenity": "waste_basket"
      }
    },
    {
      "type": "node",
      "id": 9538783115,
      "lat": 12.9650649,
      "lon": 77.5806493,
      "tags": {
        "description": "masks, ropes, gloves, etc.",
        "name": "Burhani industrial solutions",
        "shop": "hardware"
      }
    },
    {
      "type": "node",
      "id": 9538903561,
      "lat": 12.9646068,
      "lon": 77.5839621,
      "tags": {
        "name": "Tab core computers",
        "shop": "computer"
      }
    },
    {
      "type": "node",
      "id": 9538946728,
      "lat": 12.967755,
      "lon": 77.5744105,
      "tags": {
        "level": "0",
        "name": "India metal",
        "shop": "houseware"
      }
    },
    {
      "type": "node",
      "id": 9688194964,
      "lat": 12.9684874,
      "lon": 77.587477,
      "tags": {
        "name": "Nandini Milk Parlour",
        "shop": "dairy"
      }
    },
    {
      "type": "node",
      "id": 9777549169,
      "lat": 12.9719232,
      "lon": 77.5866602,
      "tags": {
        "amenity": "fast_food",
        "name": "Snacks Stall"
      }
    },
    {
      "type": "node",
      "id": 9777549177,
      "lat": 12.9724806,
      "lon": 77.5861314,
      "tags": {
        "access": "yes",
        "amenity": "toilets",
        "fee": "no",
        "female": "yes"
      }
    },
    {
      "type": "node",
      "id": 9777549178,
      "lat": 12.9724388,
      "lon": 77.5861369,
      "tags": {
        "access": "yes",
        "amenity": "toilets",
        "fee": "no",
        "male": "yes"
      }
    },
    {
      "type": "node",
      "id": 9777549183,
      "lat": 12.9726552,
      "lon": 77.5862976,
      "tags": {
        "access": "permissive",
        "amenity": "parking",
        "capacity": "20",
        "parking": "surface"
      }
    },
    {
      "type": "node",
      "id": 9841611231,
      "lat": 12.9642862,
      "lon": 77.5834718,
      "tags": {
        "name": "Kaveri computers",
        "shop": "computer"
      }
    },
    {
      "type": "node",
      "id": 9870744991,
      "lat": 12.9678554,
      "lon": 77.5904535,
      "tags": {
        "amenity": "waste_basket"
      }
    },
    {
      "type": "node",
      "id": 9870744999,
      "lat": 12.966631,
      "lon": 77.5922814,
      "tags": {
        "shop": "greengrocer"
      }
    },
    {
      "type": "node",
      "id": 9870745000,
      "lat": 12.9666199,
      "lon": 77.5925126,
      "tags": {
        "shop": "greengrocer"
      }
    },
    {
      "type": "node",
      "id": 9893685130,
      "lat": 12.9688981,
      "lon": 77.5750367,
      "tags": {
        "amenity": "place_of_worship",
        "name": "Baneshwar Temple",
        "religion": "hindu",
        "survey:date": "2022-07-17"
      }
    },
    {
      "type": "node",
      "id": 9893686519,
      "lat": 12.9686449,
      "lon": 77.5749197,
      "tags": {
        "amenity": "atm",
        "brand": "HDFC Bank",
        "brand:wikidata": "Q631047",
        "cash_in": "no",
        "check_date": "2025-08-23",
        "name": "HDFC Bank",
        "operator": "HDFC Bank",
        "operator:wikidata": "Q631047",
        "short_name": "HDFC",
        "survey:date": "2022-07-17"
      }
    },
    {
      "type": "node",
      "id": 9893688819,
      "lat": 12.9685944,
      "lon": 77.5748705,
      "tags": {
        "alt_name": "Ek Minar Masjid",
        "amenity": "place_of_worship",
        "building": "mosque",
        "name": "Masjid Sir Khazi Saheb",
        "religion": "muslim",
        "survey:date": "2022-07-17"
      }
    },
    {
      "type": "node",
      "id": 10015441345,
      "lat": 12.964595,
      "lon": 77.5822737,
      "tags": {
        "name": "Swastik Telecom",
        "shop": "mobile_phone"
      }
    },
    {
      "type": "node",
      "id": 10272932189,
      "lat": 12.9680933,
      "lon": 77.5889327,
      "tags": {
        "amenity": "bench"
      }
    },
    {
      "type": "node",
      "id": 10272932190,
      "lat": 12.9680744,
      "lon": 77.5888436,
      "tags": {
        "amenity": "bench"
      }
    },
    {
      "type": "node",
      "id": 10272932191,
      "lat": 12.9681293,
      "lon": 77.5888831,
      "tags": {
        "amenity": "bench"
      }
    },
    {
      "type": "node",
      "id": 10272932192,
      "lat": 12.968075,
      "lon": 77.588971,
      "tags": {
        "amenity": "fast_food",
        "name": "Coconut Water"
      }
    },
    {
      "type": "node",
      "id": 10272932197,
      "lat": 12.9682378,
      "lon": 77.5886229,
      "tags": {
        "amenity": "bicycle_rental",
        "contact:twitter": "nammacycle",
        "contact:youtube": "nammacycle",
        "name": "Namma Nimma Cycle Foundation",
        "website": "https://www.nncf.life/"
      }
    },
    {
      "type": "node",
      "id": 10279677013,
      "lat": 12.9679568,
      "lon": 77.5915472,
      "tags": {
        "amenity": "fast_food",
        "cuisine": "chicken",
        "name": "Kentacy Chicken Corner"
      }
    },
    {
      "type": "node",
      "id": 10697561504,
      "lat": 12.9633163,
      "lon": 77.5889106,
      "tags": {
        "amenity": "bank",
        "brand": "State Bank of India",
        "brand:wikidata": "Q1340361",
        "name": "State Bank of India",
        "short_name": "SBI"
      }
    },
    {
      "type": "node",
      "id": 10792887305,
      "lat": 12.9585496,
      "lon": 77.5867635,
      "tags": {
        "access": "private",
        "amenity": "parking",
        "covered": "no",
        "fee": "yes",
        "parking": "surface",
        "payment:cash": "yes",
        "source": "survey",
        "supervised": "yes",
        "surface": "ground"
      }
    },
    {
      "type": "node",
      "id": 10796728054,
      "lat": 12.9681314,
      "lon": 77.5754183,
      "tags": {
        "addr:street": "old tharagupet",
        "name": "Lal building",
        "shop": "clothes"
      }
    },
    {
      "type": "node",
      "id": 10833870879,
      "lat": 12.9675882,
      "lon": 77.5900894,
      "tags": {
        "amenity": "community_centre",
        "name": "BBMP Employees Co-Operative Society"
      }
    },
    {
      "type": "node",
      "id": 10853089401,
      "lat": 12.9634257,
      "lon": 77.5842141,
      "tags": {
        "amenity": "bank",
        "atm": "yes",
        "brand": "Union Bank",
        "name": "Union Bank",
        "operator": "Union Bank"
      }
    },
    {
      "type": "node",
      "id": 10969398448,
      "lat": 12.965565,
      "lon": 77.5844677,
      "tags": {
        "amenity": "atm",
        "cash_in": "no",
        "check_date": "2023-06-11",
        "network": "DCB Bank",
        "operator": "DCB Bank",
        "source": "survey"
      }
    },
    {
      "type": "node",
      "id": 11262546940,
      "lat": 12.9648908,
      "lon": 77.58184,
      "tags": {
        "name": "NSK Electronics",
        "shop": "electronics"
      }
    },
    {
      "type": "node",
      "id": 11304774634,
      "lat": 12.9675418,
      "lon": 77.5746507,
      "tags": {
        "amenity": "waste_basket",
        "waste": "trash"
      }
    },
    {
      "type": "node",
      "id": 11304774635,
      "lat": 12.9696253,
      "lon": 77.5756956,
      "tags": {
        "clothes": "women;traditional",
        "level": "1;2;3",
        "name": "Srinidhi Silk",
        "shop": "clothes",
        "wheelchair": "no"
      }
    },
    {
      "type": "node",
      "id": 11304774637,
      "lat": 12.9690028,
      "lon": 77.5766738,
      "tags": {
        "clothes": "traditional",
        "name": "Sudarshan Silks",
        "shop": "clothes"
      }
    },
    {
      "type": "node",
      "id": 11304774638,
      "lat": 12.9684963,
      "lon": 77.5748136,
      "tags": {
        "addr:city": "Bangalore",
        "addr:housenumber": "196,197",
        "addr:postcode": "560053",
        "addr:street": "AS Char Street",
        "level": "0",
        "name": "Addiction Fashion Hub",
        "shop": "clothes",
        "wheelchair": "no"
      }
    },
    {
      "type": "node",
      "id": 11304774639,
      "lat": 12.9675719,
      "lon": 77.5746436,
      "tags": {
        "amenity": "fast_food",
        "cuisine": "juice",
        "level": "0",
        "name": "The Cane Joint"
      }
    },
    {
      "type": "node",
      "id": 11304774640,
      "lat": 12.9697214,
      "lon": 77.5757325,
      "tags": {
        "amenity": "fast_food",
        "cuisine": "juice",
        "level": "0",
        "name": "Bhavani Juice Center"
      }
    },
    {
      "type": "node",
      "id": 11304774641,
      "lat": 12.9689646,
      "lon": 77.5773285,
      "tags": {
        "clothes": "traditional;men",
        "level": "0",
        "name": "Kurta Ghar",
        "shop": "clothes"
      }
    },
    {
      "type": "node",
      "id": 11304774642,
      "lat": 12.9677077,
      "lon": 77.5743785,
      "tags": {
        "addr:housenumber": "175/1",
        "addr:street": "AS Char Street",
        "level": "0",
        "name": "Nisar Metals",
        "shop": "houseware"
      }
    },
    {
      "type": "node",
      "id": 11304774643,
      "lat": 12.9690078,
      "lon": 77.5750942,
      "tags": {
        "amenity": "restaurant",
        "level": "0;1",
        "name": "Hotel Raghavendra Prasanna",
        "wheelchair": "limited"
      }
    },
    {
      "type": "node",
      "id": 11331558610,
      "lat": 12.9589981,
      "lon": 77.5825067,
      "tags": {
        "amenity": "bank",
        "brand": "Union Bank of India",
        "brand:wikidata": "Q2004078",
        "name": "Union Bank of India"
      }
    },
    {
      "type": "node",
      "id": 11355711181,
      "lat": 12.963518,
      "lon": 77.5846258,
      "tags": {
        "check_date": "2023-11-16",
        "name": "Presidency Cycle",
        "shop": "bicycle"
      }
    },
    {
      "type": "node",
      "id": 11355730140,
      "lat": 12.9596838,
      "lon": 77.5829494,
      "tags": {
        "amenity": "bank",
        "brand": "Yes Bank",
        "brand:wikidata": "Q2040394",
        "check_date": "2023-11-16",
        "name": "Yes Bank"
      }
    },
    {
      "type": "node",
      "id": 11355730141,
      "lat": 12.9607154,
      "lon": 77.5835644,
      "tags": {
        "amenity": "bank",
        "brand": "State Bank of India",
        "brand:wikidata": "Q1340361",
        "check_date": "2023-11-16",
        "name": "State Bank of India",
        "name:kn": "ಎಸ್ ಬಿ ಐ",
        "short_name": "SBI"
      }
    },
    {
      "type": "node",
      "id": 11355730142,
      "lat": 12.9630918,
      "lon": 77.5847915,
      "tags": {
        "amenity": "post_box",
        "operator": "India Post",
        "operator:wikidata": "Q3519720"
      }
    },
    {
      "type": "node",
      "id": 11405432932,
      "lat": 12.968126,
      "lon": 77.5888469,
      "tags": {
        "access": "yes",
        "amenity": "bicycle_parking",
        "bicycle_parking": "stands",
        "capacity": "10",
        "covered": "no",
        "fee": "no"
      }
    },
    {
      "type": "node",
      "id": 11408768738,
      "lat": 12.9736666,
      "lon": 77.5830855,
      "tags": {
        "amenity": "charging_station",
        "charging_station:battery_swapping": "yes"
      }
    },
    {
      "type": "node",
      "id": 11408768739,
      "lat": 12.9736032,
      "lon": 77.5830124,
      "tags": {
        "name": "Continental Coffee",
        "shop": "kiosk"
      }
    },
    {
      "type": "node",
      "id": 11408768740,
      "lat": 12.9735836,
      "lon": 77.5829541,
      "tags": {
        "name": "The Cane Joint",
        "shop": "kiosk"
      }
    },
    {
      "type": "node",
      "id": 11416992093,
      "lat": 12.9596245,
      "lon": 77.5832707,
      "tags": {
        "amenity": "bank",
        "brand": "HDFC Bank",
        "brand:wikidata": "Q631047",
        "check_date": "2023-12-14",
        "name": "HDFC Bank",
        "name:kn": "ಎಚ್ ಡಿ ಎಫ್ ಸಿ",
        "short_name": "HDFC"
      }
    },
    {
      "type": "node",
      "id": 11417001861,
      "lat": 12.9637807,
      "lon": 77.582047,
      "tags": {
        "access": "yes",
        "amenity": "toilets",
        "check_date": "2023-12-14",
        "fee": "yes",
        "operator": "BBMP"
      }
    },
    {
      "type": "node",
      "id": 11420343300,
      "lat": 12.9720865,
      "lon": 77.5822514,
      "tags": {
        "amenity": "parking_entrance",
        "fee": "yes",
        "lit": "yes",
        "parking": "underground",
        "supervised": "yes"
      }
    },
    {
      "type": "node",
      "id": 11496819756,
      "lat": 12.9644222,
      "lon": 77.5822003,
      "tags": {
        "addr:city": "Bangalore",
        "addr:district": "Bangalore Urban",
        "addr:postcode": "560002",
        "name": "The IT Gear",
        "shop": "computer",
        "website": "https://theitgear.com/"
      }
    },
    {
      "type": "node",
      "id": 11499969618,
      "lat": 12.9618933,
      "lon": 77.5756771,
      "tags": {
        "amenity": "waste_basket",
        "waste": "dry"
      }
    },
    {
      "type": "node",
      "id": 11499969619,
      "lat": 12.9618878,
      "lon": 77.5756825,
      "tags": {
        "amenity": "waste_basket",
        "waste": "wet"
      }
    },
    {
      "type": "node",
      "id": 11687235829,
      "lat": 12.9648401,
      "lon": 77.5897122,
      "tags": {
        "check_date": "2024-03-03",
        "name": "Chikpet Saree Udyog",
        "shop": "clothes"
      }
    },
    {
      "type": "node",
      "id": 11693091281,
      "lat": 12.9736287,
      "lon": 77.5861788,
      "tags": {
        "addr:city": "Bengaluru",
        "addr:country": "IN",
        "addr:full": "Nrupathunga Road Sampangi Rama Nagar, Ambedkar Veedhi, Bengaluru, Karnataka",
        "addr:postcode": "560001",
        "addr:state": "Karnataka",
        "addr:street": "Nrupathunga Road",
        "addr:suburb": "Sampangiram Nagar",
        "amenity": "college",
        "name": "Government Science College",
        "operator:type": "public",
        "start_date": "1921",
        "website": "http://www.gscblr.kar.nic.in/",
        "wikidata": "Q48726301",
        "wikipedia": "en:Government Science College, Bangalore"
      }
    },
    {
      "type": "node",
      "id": 11693091282,
      "lat": 12.9738939,
      "lon": 77.5850362,
      "tags": {
        "addr:city": "Bengaluru",
        "addr:country": "IN",
        "addr:full": "Nrupathunga Road Sampangi Rama Nagar, Ambedkar Veedhi, Bengaluru, Karnataka",
        "addr:postcode": "560001",
        "addr:state": "Karnataka",
        "addr:street": "Nrupathunga Road",
        "addr:suburb": "Sampangiram Nagar",
        "amenity": "college",
        "name": "Government Arts College",
        "name:kn": "ಸರ್ಕಾರಿ ಕಲಾ ಕಾಲೇಜು",
        "operator:type": "public",
        "start_date": "1886",
        "website": "https://gfgc.kar.nic.in/gac/",
        "wikidata": "Q43371323",
        "wikipedia": "en:Government Arts College, Ambedkar Veedhi"
      }
    },
    {
      "type": "node",
      "id": 11696866839,
      "lat": 12.975095,
      "lon": 77.5842717,
      "tags": {
        "amenity": "college",
        "name": "Central College",
        "name:kn": "ಕೇಂದ್ರೀಯ ಕಾಲೇಜು",
        "old_name": "Central High School",
        "start_date": "1858",
        "wikidata": "Q5060603",
        "wikipedia": "en:Central College, Bangalore"
      }
    },
    {
      "type": "node",
      "id": 11739418619,
      "lat": 12.973696,
      "lon": 77.5867018,
      "tags": {
        "amenity": "shelter",
        "bench": "yes",
        "covered": "yes",
        "shelter": "yes",
        "shelter_type": "public_transport"
      }
    },
    {
      "type": "node",
      "id": 11739418620,
      "lat": 12.9738005,
      "lon": 77.5867058,
      "tags": {
        "amenity": "shelter",
        "bench": "yes",
        "covered": "yes",
        "shelter": "yes",
        "shelter_type": "public_transport"
      }
    },
    {
      "type": "node",
      "id": 11906960322,
      "lat": 12.9687592,
      "lon": 77.5751191,
      "tags": {
        "addr:housenumber": "33",
        "addr:street": "AS Char Street",
        "name": "C. G. Imex Corporation",
        "shop": "clothes"
      }
    },
    {
      "type": "node",
      "id": 12133368719,
      "lat": 12.96458,
      "lon": 77.5860918,
      "tags": {
        "amenity": "post_box",
        "operator": "India Post",
        "operator:wikidata": "Q3519720"
      }
    },
    {
      "type": "node",
      "id": 12135035072,
      "lat": 12.9647659,
      "lon": 77.5865284,
      "tags": {
        "level": "0",
        "name": "Sri Rajalakshmi Gold Palace",
        "shop": "jewelry"
      }
    },
    {
      "type": "node",
      "id": 12135035073,
      "lat": 12.9647406,
      "lon": 77.5865522,
      "tags": {
        "level": "1",
        "name": "Gemini International",
        "shop": "travel_agency"
      }
    },
    {
      "type": "node",
      "id": 12135138829,
      "lat": 12.9634762,
      "lon": 77.585227,
      "tags": {
        "amenity": "bench",
        "material": "stone"
      }
    },
    {
      "type": "node",
      "id": 12135983648,
      "lat": 12.9635197,
      "lon": 77.5852417,
      "tags": {
        "amenity": "bench",
        "backrest": "no",
        "material": "stone",
        "seats": "3"
      }
    },
    {
      "type": "node",
      "id": 12135983649,
      "lat": 12.9635649,
      "lon": 77.5852581,
      "tags": {
        "amenity": "bench",
        "backrest": "no",
        "material": "stone",
        "seats": "3"
      }
    },
    {
      "type": "node",
      "id": 12135983650,
      "lat": 12.9633215,
      "lon": 77.5852136,
      "tags": {
        "amenity": "bench",
        "backrest": "no",
        "material": "stone",
        "seats": "3"
      }
    },
    {
      "type": "node",
      "id": 12135983651,
      "lat": 12.9633058,
      "lon": 77.5851945,
      "tags": {
        "amenity": "bench",
        "backrest": "no",
        "material": "stone",
        "seats": "3"
      }
    },
    {
      "type": "node",
      "id": 12135983652,
      "lat": 12.9632909,
      "lon": 77.5851773,
      "tags": {
        "amenity": "bench",
        "backrest": "no",
        "material": "stone",
        "seats": "3"
      }
    },
    {
      "type": "node",
      "id": 12135983653,
      "lat": 12.9632716,
      "lon": 77.585162,
      "tags": {
        "amenity": "bench",
        "backrest": "no",
        "material": "stone",
        "seats": "3"
      }
    },
    {
      "type": "node",
      "id": 12135983654,
      "lat": 12.9632384,
      "lon": 77.5851459,
      "tags": {
        "amenity": "bench",
        "backrest": "no",
        "material": "stone",
        "seats": "3"
      }
    },
    {
      "type": "node",
      "id": 12135983655,
      "lat": 12.9632647,
      "lon": 77.5846291,
      "tags": {
        "amenity": "place_of_worship",
        "religion": "hindu"
      }
    },
    {
      "type": "node",
      "id": 12135983669,
      "lat": 12.9622079,
      "lon": 77.5842821,
      "tags": {
        "amenity": "theatre",
        "name": "ADA Ranga Mandira"
      }
    },
    {
      "type": "node",
      "id": 12135983674,
      "lat": 12.9613041,
      "lon": 77.5837721,
      "tags": {
        "amenity": "bank",
        "brand": "Dhanlaxmi Bank",
        "brand:wikidata": "Q2040440",
        "name": "Dhanlaxmi Bank",
        "name:kn": "ಧನಲಕ್ಷ್ಮಿ ಬ್ಯಾಂಕ್"
      }
    },
    {
      "type": "node",
      "id": 12135983693,
      "lat": 12.9626393,
      "lon": 77.5857113,
      "tags": {
        "amenity": "fast_food",
        "name": "Ravindra Kalakshetra Canteen"
      }
    },
    {
      "type": "node",
      "id": 12135993230,
      "lat": 12.9617443,
      "lon": 77.5848647,
      "tags": {
        "amenity": "theatre",
        "name": "Nayana Auditorium"
      }
    },
    {
      "type": "node",
      "id": 12137671668,
      "lat": 12.9747615,
      "lon": 77.5816294,
      "tags": {
        "alt_name": "Government Law College",
        "amenity": "college",
        "heritage": "2",
        "heritage:operator": "nmma",
        "heritage:website": "https://nmma.nic.in/nmma/exploreBuiltState.do?state=29",
        "name": "University Law College",
        "name:kn": "ಸರ್ಕಾರಿ ಕಲಾ ಕಾಲೇಜು, ಅಂಬೇಡ್ಕರ್‌ ವೀಧಿ",
        "ref:nmma": "KR20010948",
        "website": "https://ulcbangalore.com/",
        "wikidata": "Q7894802",
        "wikipedia": "en:University Law College, Bangalore University"
      }
    },
    {
      "type": "node",
      "id": 12137671670,
      "lat": 12.9731431,
      "lon": 77.581687,
      "tags": {
        "access": "yes",
        "amenity": "toilets",
        "fee": "yes",
        "operator": "BBMP"
      }
    },
    {
      "type": "node",
      "id": 12137671674,
      "lat": 12.9717968,
      "lon": 77.583093,
      "tags": {
        "amenity": "waste_basket"
      }
    },
    {
      "type": "node",
      "id": 12137671675,
      "lat": 12.9717837,
      "lon": 77.5831083,
      "tags": {
        "amenity": "waste_basket"
      }
    },
    {
      "type": "node",
      "id": 12137671676,
      "lat": 12.9685409,
      "lon": 77.5871418,
      "tags": {
        "amenity": "bench",
        "backrest": "yes",
        "material": "stone",
        "seats": "2"
      }
    },
    {
      "type": "node",
      "id": 12137671677,
      "lat": 12.9682729,
      "lon": 77.5871886,
      "tags": {
        "amenity": "bench",
        "backrest": "yes",
        "material": "stone",
        "seats": "2"
      }
    },
    {
      "type": "node",
      "id": 12137671678,
      "lat": 12.9682934,
      "lon": 77.5870492,
      "tags": {
        "amenity": "bench",
        "backrest": "yes",
        "material": "stone",
        "seats": "2"
      }
    },
    {
      "type": "node",
      "id": 12137671679,
      "lat": 12.9682496,
      "lon": 77.5870912,
      "tags": {
        "amenity": "bench",
        "backrest": "yes",
        "material": "stone",
        "seats": "2"
      }
    },
    {
      "type": "node",
      "id": 12137671680,
      "lat": 12.9683138,
      "lon": 77.5871084,
      "tags": {
        "amenity": "fountain"
      }
    },
    {
      "type": "node",
      "id": 12137671756,
      "lat": 12.9659692,
      "lon": 77.5869947,
      "tags": {
        "amenity": "bench",
        "backrest": "no",
        "seats": "2"
      }
    },
    {
      "type": "node",
      "id": 12137671757,
      "lat": 12.9659343,
      "lon": 77.586999,
      "tags": {
        "amenity": "bench",
        "backrest": "no",
        "seats": "2"
      }
    },
    {
      "type": "node",
      "id": 12137671758,
      "lat": 12.9658789,
      "lon": 77.5869494,
      "tags": {
        "amenity": "bench",
        "backrest": "no",
        "seats": "2"
      }
    },
    {
      "type": "node",
      "id": 12137671759,
      "lat": 12.9660018,
      "lon": 77.5869083,
      "tags": {
        "amenity": "bench",
        "backrest": "no",
        "seats": "2"
      }
    },
    {
      "type": "node",
      "id": 12137671760,
      "lat": 12.965952,
      "lon": 77.5868682,
      "tags": {
        "amenity": "bench",
        "backrest": "no",
        "seats": "2"
      }
    },
    {
      "type": "node",
      "id": 12137671762,
      "lat": 12.9659631,
      "lon": 77.586509,
      "tags": {
        "amenity": "waste_basket"
      }
    },
    {
      "type": "node",
      "id": 12137671763,
      "lat": 12.9659629,
      "lon": 77.586517,
      "tags": {
        "amenity": "waste_basket"
      }
    },
    {
      "type": "node",
      "id": 12137671824,
      "lat": 12.9650338,
      "lon": 77.5868102,
      "tags": {
        "amenity": "fountain"
      }
    },
    {
      "type": "node",
      "id": 12522402151,
      "lat": 12.966074,
      "lon": 77.5776938,
      "tags": {
        "amenity": "fixme",
        "check_date": "2025-01-21",
        "fixme": "type",
        "fixme:type": "Start",
        "name": "starting point"
      }
    },
    {
      "type": "node",
      "id": 12522402152,
      "lat": 12.9657486,
      "lon": 77.5778662,
      "tags": {
        "check_date": "2025-01-21",
        "name": "pet accessories, chains, cages, locks, wires, hooks, screwdrivers",
        "shop": "hardware"
      }
    },
    {
      "type": "node",
      "id": 12522402153,
      "lat": 12.9656669,
      "lon": 77.5780466,
      "tags": {
        "check_date": "2025-01-21",
        "description": "doorknobs, jet sprays, curtain holders, handles, convex mirrors",
        "name": "A Mohammad Ibrahim and Co",
        "shop": "hardware"
      }
    },
    {
      "type": "node",
      "id": 12522402154,
      "lat": 12.9655928,
      "lon": 77.5781766,
      "tags": {
        "check_date": "2025-01-21",
        "description": "construction and agriculture hardware: tools to lay out cement, big buckets, bags of cement, wooden sticks, shovels, ploughs, hammers",
        "name": "V Con Trade Inc",
        "shop": "hardware"
      }
    },
    {
      "type": "node",
      "id": 12522402155,
      "lat": 12.9655617,
      "lon": 77.578271,
      "tags": {
        "check_date": "2025-01-21",
        "description": "pipes, drilling of holes inside the pipes, wires",
        "name": "Power Point",
        "shop": "hardware"
      }
    },
    {
      "type": "node",
      "id": 12522402156,
      "lat": 12.965571,
      "lon": 77.5784321,
      "tags": {
        "check_date": "2025-01-21",
        "description": "valves, regulators, gauge, press, push fittings",
        "name": "Trade Wings",
        "shop": "hardware"
      }
    },
    {
      "type": "node",
      "id": 12522402157,
      "lat": 12.9654225,
      "lon": 77.5785573,
      "tags": {
        "check_date": "2025-01-21",
        "description": "bath ware",
        "name": "JK Enterprises and Pipes",
        "shop": "hardware"
      }
    },
    {
      "type": "node",
      "id": 12522402158,
      "lat": 12.9653849,
      "lon": 77.57865,
      "tags": {
        "check_date": "2025-01-21",
        "description": "plumbing lines, construction- opened in 1979",
        "name": "Deen Hardware",
        "shop": "hardware"
      }
    },
    {
      "type": "node",
      "id": 12522402159,
      "lat": 12.9654268,
      "lon": 77.5787874,
      "tags": {
        "check_date": "2025-01-21",
        "description": "nuts and bolts",
        "name": "Kaveri Corner",
        "shop": "hardware"
      }
    },
    {
      "type": "node",
      "id": 12522402160,
      "lat": 12.965357,
      "lon": 77.5788856,
      "tags": {
        "check_date": "2025-01-21",
        "name": "Howrah Tube Centre",
        "shop": "hardware"
      }
    },
    {
      "type": "node",
      "id": 12522402161,
      "lat": 12.9648108,
      "lon": 77.5807041,
      "tags": {
        "check_date": "2025-01-21",
        "description": "drilling borewell pipes",
        "name": "SKS Enterprises",
        "shop": "hardware"
      }
    },
    {
      "type": "node",
      "id": 12522402162,
      "lat": 12.9647348,
      "lon": 77.5817073,
      "tags": {
        "amenity": "fixme",
        "check_date": "2025-01-21",
        "fixme": "type",
        "fixme:type": "Start",
        "name": "INTERSECTION"
      }
    },
    {
      "type": "node",
      "id": 12522402163,
      "lat": 12.9646234,
      "lon": 77.5824537,
      "tags": {
        "check_date": "2025-01-21",
        "description": "sells first hand electronics at lower than MRP, to both resellers and individual buys",
        "name": "Sagar Computer World",
        "shop": "computer"
      }
    },
    {
      "type": "node",
      "id": 12538080968,
      "lat": 12.9669795,
      "lon": 77.5868791,
      "tags": {
        "addr:city": "Bengaluru",
        "addr:postcode": "560002",
        "addr:street": "Cubbon Pet Main Road, Halsurpete, Nagartapete",
        "amenity": "bank",
        "brand": "State Bank of India",
        "brand:wikidata": "Q1340361",
        "name": "State Bank of India",
        "short_name": "SBI"
      }
    },
    {
      "type": "node",
      "id": 12606911679,
      "lat": 12.965757,
      "lon": 77.5904035,
      "tags": {
        "amenity": "fast_food",
        "check_date": "2025-02-21",
        "name": "Mandarthi Durga Parameshwari"
      }
    },
    {
      "type": "node",
      "id": 12698412006,
      "lat": 12.964859,
      "lon": 77.5837001,
      "tags": {
        "addr:city": "Bengaluru",
        "addr:country": "IN",
        "addr:district": "Bengaluru Urban",
        "addr:housenumber": "1st Floor, Ashok Tower, 88/1",
        "addr:postcode": "560002",
        "addr:street": "Sadar Patrappa Rd",
        "air_conditioning": "yes",
        "alt_name": "ibuypc",
        "brand": "iBUYPC",
        "contact:facebook": "https://www.facebook.com/ibuypc",
        "currency:INR": "yes",
        "description": "iBUYPC designs and delivers custom-built PCs and branded components for gamers, creators, and businesses. The company offers systems for individual users (B2C) and scalable configurations with bulk procurement for businesses (B2B).",
        "email": "support@ibuypc.in",
        "image": "https://ibuypc.in/cdn/shop/files/iBUYPC-brand-logo.png?v=1741330759",
        "internet_access": "wlan",
        "internet_access:fee": "no",
        "internet_access:ssid": "iBUYPC 5G",
        "level": "1",
        "mobile": "+919694699991",
        "name": "iBUYPC",
        "official_name": "IBUYPC",
        "opening_hours": "Mo-Sa 10:30-20:30",
        "operator": "Rudra Prosad Sen",
        "payment:american_express": "yes",
        "payment:apple_pay": "yes",
        "payment:bank_transfer": "yes",
        "payment:cash": "yes",
        "payment:contactless": "yes",
        "payment:credit_cards": "yes",
        "payment:debit_cards": "yes",
        "payment:diners_club": "yes",
        "payment:discover_card": "yes",
        "payment:google_pay": "yes",
        "payment:imps": "yes",
        "payment:jcb": "yes",
        "payment:mastercard": "yes",
        "payment:mastercard_contactless": "yes",
        "payment:neft": "yes",
        "payment:net_banking": "yes",
        "payment:paytm": "yes",
        "payment:phonepe": "yes",
        "payment:upi": "yes",
        "payment:upi_qr": "yes",
        "payment:visa": "yes",
        "payment:visa_debit": "yes",
        "phone": "+919694699991",
        "ref:vatin": "29CCMPR7908C1Z5",
        "shop": "computer",
        "start_date": "2025-01-10",
        "website": "https://ibuypc.in/"
      }
    },
    {
      "type": "node",
      "id": 12856900607,
      "lat": 12.9743239,
      "lon": 77.5841188,
      "tags": {
        "access": "permissive",
        "addr:floor": "-1",
        "amenity": "toilets",
        "female": "yes",
        "fixme": "Accurate location within station",
        "level": "-1",
        "male": "yes",
        "operator": "BMRCL",
        "toilets:handwashing": "yes",
        "toilets:position": "urinal"
      }
    },
    {
      "type": "node",
      "id": 12942443654,
      "lat": 12.9736523,
      "lon": 77.5791633,
      "tags": {
        "addr:floor": "G",
        "addr:housenumber": "9, 12",
        "addr:street": "Kempe Gowda Road",
        "brand": "Ramraj Cotton",
        "brand:wikidata": "Q119161281",
        "check_date": "2025-06-21",
        "level": "0",
        "name": "Ramraj Cotton",
        "name:en": "Ramraj Cotton",
        "shop": "clothes"
      }
    },
    {
      "type": "node",
      "id": 12968607916,
      "lat": 12.9723719,
      "lon": 77.578395,
      "tags": {
        "addr:city": "Chickpet, Bengaluru",
        "addr:district": "Bengaluru Urban",
        "addr:housenumber": "Shop no 42",
        "addr:postcode": "560053",
        "addr:street": "kilari road",
        "name": "Mahaveer Glass Creators- Interior Glass Creators",
        "opening_hours": "Mo-Sa 10:00-19:00",
        "operator": "Mahaveer Chand",
        "phone": "+91 98459 43997",
        "shop": "glass"
      }
    },
    {
      "type": "node",
      "id": 13072369444,
      "lat": 12.965328,
      "lon": 77.5773423,
      "tags": {
        "amenity": "place_of_worship",
        "check_date": "2025-08-15",
        "name": "Dargah Hazrath Syed Mahamood Sha Khadri R-A",
        "religion": "muslim"
      }
    },
    {
      "type": "node",
      "id": 13081636281,
      "lat": 12.9691873,
      "lon": 77.5799446,
      "tags": {
        "addr:city": "Bangalore",
        "addr:district": "karnataka",
        "addr:housenumber": "68",
        "addr:postcode": "560002",
        "addr:street": "Chowdeshwari Temple Street",
        "name": "MB Jewels - Emerald Dealer EJI",
        "opening_hours": "Mo-Sa 11:00-19:30",
        "phone": "08041510855",
        "shop": "wholesale",
        "wholesale": "jewellery_store"
      }
    },
    {
      "type": "node",
      "id": 13092341032,
      "lat": 12.9675,
      "lon": 77.5747947,
      "tags": {
        "addr:floor": "C",
        "amenity": "childcare",
        "check_date": "2025-08-23",
        "level": "-1",
        "name": "Feeding Room",
        "name:en": "Feeding Room",
        "wheelchair": "yes"
      }
    },
    {
      "type": "node",
      "id": 13327801914,
      "lat": 12.964823,
      "lon": 77.5840248,
      "tags": {
        "addr:city": "Bengaluru",
        "addr:district": "Bengaluru Urban",
        "addr:housenumber": "No.91, 2nd floor, Shop No, 222-223, Balaji Complex",
        "addr:postcode": "560002",
        "addr:street": "SP Road",
        "alt_name": "pcbuildz",
        "brand": "PCBuildz",
        "contact:facebook": "https://facebook.com/PCBuildz/",
        "currency:INR": "yes",
        "description": "PCBuildz is a custom PC builder in Bangalore that designs and delivers systems and components for gamers, creators, and businesses. It offers custom systems for individual users (B2C) and scalable configurations with bulk procurement for businesses (B2B).",
        "email": "support@pcbuildz.in",
        "image": "https://cdn.shopify.com/s/files/1/0653/4060/4505/files/PCBuildz-Icon.png?v=1752500113",
        "internet_access": "wlan",
        "name": "PCBuildz (Nextgen IT Solutions) - Bangalore's Best Custom PC Shop for Gaming, Editing, 3D Animation & AI Workstation PC Build",
        "opening_hours": "Mo-Sa 10:30-20:00",
        "operator": "Govind Kumar Teja Ram",
        "payment:american_express": "yes",
        "payment:apple_pay": "yes",
        "payment:cash": "yes",
        "payment:contactless": "yes",
        "payment:credit_cards": "yes",
        "payment:debit_cards": "yes",
        "payment:diners_club": "yes",
        "payment:discover_card": "yes",
        "payment:google_pay": "yes",
        "payment:jcb": "yes",
        "payment:maestro": "yes",
        "payment:mastercard": "yes",
        "payment:mastercard_contactless": "yes",
        "payment:unionpay": "yes",
        "payment:upi": "yes",
        "payment:upi_qr": "yes",
        "payment:visa": "yes",
        "phone": "+91-9510-9510-19",
        "shop": "computer",
        "website": "https://pcbuildz.in/"
      }
    },
    {
      "type": "way",
      "id": 22895320,
      "center": {
        "lat": 12.974182,
        "lon": 77.5934146
      },
      "tags": {
        "dog": "leashed",
        "historic:name": "Meade's Park",
        "leisure": "park",
        "name": "Cubbon Park",
        "name:etymology:wikidata": "Q6767214",
        "name:hi": "कब्बन पार्क",
        "name:kn": "ಕಬ್ಬನ್ ಉದ್ಯಾನ",
        "name:ml": "കബ്ബൺ പാർക്ക്",
        "name:te": "కబ్బన్ పార్క్",
        "official_name": "Sri Chamarajendra Park",
        "official_name:kn": "ಶ್ರೀ ಚಾಮರಾಜೇಂದ್ರ ಉದ್ಯಾನ",
        "pets": "yes",
        "start_date": "1864",
        "website": "https://cubbonpark.in/",
        "wikidata": "Q3633776",
        "wikimedia_commons": "Category:Cubbon Park",
        "wikipedia": "en:Cubbon Park"
      }
    },
    {
      "type": "way",
      "id": 23029712,
      "center": {
        "lat": 12.9694496,
        "lon": 77.5927
      },
      "tags": {
        "addr:street": "Rajaram Mohan Roy Road",
        "alt_name": "Kantirava Stadium",
        "leisure": "stadium",
        "name": "Sree Kanteerava Stadium",
        "name:etymology:wikidata": "Q15954240",
        "name:hi": "श्री कंटीरवा स्टेडियम",
        "name:kn": "ಕಂಟೀರವ ಕ್ರೀಡಾಂಗಣ",
        "name:ml": "ശ്രീ കണ്ഠീരവ സ്റ്റേഡിയം",
        "wikidata": "Q7585638",
        "wikimedia_commons": "Category:Sree Kanteerava Stadium",
        "wikipedia": "en:Sree Kanteerava Stadium"
      }
    },
    {
      "type": "way",
      "id": 23494412,
      "center": {
        "lat": 12.9638755,
        "lon": 77.5805412
      },
      "tags": {
        "leisure": "park",
        "name": "Silver Jubilee Park"
      }
    },
    {
      "type": "way",
      "id": 23494413,
      "center": {
        "lat": 12.965718,
        "lon": 77.5762706
      },
      "tags": {
        "alt_name": "K R Market",
        "amenity": "marketplace",
        "building": "retail",
        "building:levels": "3",
        "full_name": "Sri Krishnarajendra Market",
        "name": "City Market"
      }
    },
    {
      "type": "way",
      "id": 36885141,
      "center": {
        "lat": 12.9640735,
        "lon": 77.577792
      },
      "tags": {
        "amenity": "bus_station",
        "bus": "yes",
        "name": "KR Market Bus Terminus",
        "name:kn": "ಕೃಷ್ಣರಾಜೇಂದ್ರ ಮಾರುಕಟ್ಟೆ",
        "public_transport": "station",
        "wheelchair": "limited"
      }
    },
    {
      "type": "way",
      "id": 36897682,
      "center": {
        "lat": 12.9636973,
        "lon": 77.582866
      },
      "tags": {
        "alt_name": "Sri Krishnarajendra Silver Subilee Park",
        "leisure": "park",
        "name": "Silver Jubilee Park"
      }
    },
    {
      "type": "way",
      "id": 37339217,
      "center": {
        "lat": 12.9603969,
        "lon": 77.5771506
      },
      "tags": {
        "amenity": "bus_station",
        "bus": "yes",
        "name": "Kalasipalya Bus Stand",
        "name:kn": "ಕಲಾಸಿಪಾಳ್ಯ ಬಸ್ ನಿಲ್ದಾಣ",
        "public_transport": "station"
      }
    },
    {
      "type": "way",
      "id": 38542913,
      "center": {
        "lat": 12.9708175,
        "lon": 77.5857431
      },
      "tags": {
        "addr:district": "Bengaluru Urban",
        "addr:full": "Office No-05, Nrupathunga Road",
        "addr:postcode": "560001",
        "addr:state": "Karnataka",
        "amenity": "hospital",
        "email": "info.sm@nhhospitals.org",
        "emergency": "yes",
        "healthcare": "hospital",
        "name": "St Marthas Hospital",
        "name:kn": "ಸೆಂಟ್ ಮಾರ್ಥ ಆಸ್ಪತ್ರೆ",
        "operator:type": "private",
        "source": "OpenGovernmentData",
        "website": "https://www.narayanahealth.org/"
      }
    },
    {
      "type": "way",
      "id": 38542914,
      "center": {
        "lat": 12.973065,
        "lon": 77.585197
      },
      "tags": {
        "addr:city": "Bengaluru",
        "addr:country": "IN",
        "addr:full": "Nrupathunga Road Sampangi Rama Nagar, Ambedkar Veedhi, Bengaluru, Karnataka",
        "addr:postcode": "560001",
        "addr:state": "Karnataka",
        "addr:street": "Nrupathunga Road",
        "addr:suburb": "Sampangiram Nagar",
        "amenity": "university",
        "landuse": "education",
        "name": "Nrupathunga University",
        "name:kn": "ನೃಪತುಂಗ ವಿಸ್ವವಿದ್ಯಲಾಯ",
        "old_name": "Government Arts and Science College",
        "start_date": "2020",
        "website": "https://nublr.karnataka.gov.in"
      }
    },
    {
      "type": "way",
      "id": 38542916,
      "center": {
        "lat": 12.9743137,
        "lon": 77.5891402
      },
      "tags": {
        "leisure": "sports_centre",
        "name": "Century Club"
      }
    },
    {
      "type": "way",
      "id": 38757928,
      "center": {
        "lat": 12.9688295,
        "lon": 77.5912704
      },
      "tags": {
        "alt_name": "Sri Kanteerava Indoor Stadium",
        "building": "yes",
        "building:part": "yes",
        "height": "30",
        "leisure": "stadium",
        "name": "Sree Kanteerava Indoor Stadium",
        "name:etymology:wikidata": "Q15954240",
        "roof:colour": "#e5e5e5",
        "roof:shape": "dome",
        "wikidata": "Q6365381",
        "wikipedia": "en:Kanteerava Indoor Stadium"
      }
    },
    {
      "type": "way",
      "id": 38758706,
      "center": {
        "lat": 12.9641582,
        "lon": 77.5873338
      },
      "tags": {
        "alt_name": "United Mission High School",
        "amenity": "college",
        "name": "United Mission PUC and Degree College"
      }
    },
    {
      "type": "way",
      "id": 38758707,
      "center": {
        "lat": 12.9646803,
        "lon": 77.588875
      },
      "tags": {
        "addr:city": "Bangalore",
        "addr:postcode": "560002",
        "addr:street": "Sampangi Rama Nagar",
        "amenity": "school",
        "name": "Mitralaya Girls College",
        "name:bn": "মিত্রালয়া মহিলা কলেজ"
      }
    },
    {
      "type": "way",
      "id": 52033442,
      "center": {
        "lat": 12.9686844,
        "lon": 77.5882643
      },
      "tags": {
        "amenity": "courthouse",
        "building": "yes",
        "name": "District Magistrate Courts",
        "name:kn": "ಜಿಲ್ಲಾ ನ್ಯಾಯಲಯ"
      }
    },
    {
      "type": "way",
      "id": 52033446,
      "center": {
        "lat": 12.9674282,
        "lon": 77.5879044
      },
      "tags": {
        "addr:city": "Bengaluru",
        "addr:housenumber": "51/1",
        "addr:postcode": "560002",
        "addr:street": "Corporation Cir, Cubbonpete, Nagarathpete",
        "amenity": "place_of_worship",
        "building": "yes",
        "name": "C.S.I Hudson Memorial Church",
        "religion": "christian"
      }
    },
    {
      "type": "way",
      "id": 52033450,
      "center": {
        "lat": 12.9707231,
        "lon": 77.5879282
      },
      "tags": {
        "brand": "YMCA",
        "brand:wikidata": "Q157169",
        "leisure": "sports_centre",
        "name": "YMCA"
      }
    },
    {
      "type": "way",
      "id": 52063723,
      "center": {
        "lat": 12.9746822,
        "lon": 77.5860683
      },
      "tags": {
        "amenity": "college",
        "landuse": "education",
        "name": "University Visvesvaraya College of Engineering",
        "name:etymology:wikidata": "Q741700",
        "name:kn": "ವಿಶ್ವೇಶ್ವರಯ್ಯ ಇಂಜಿನೀಯರಿಂಗ್ ಕಾಲೇಜು",
        "old_name": "Government College of Engineering",
        "short_name": "UVCE",
        "website": "https://uvce.ac.in/",
        "wikidata": "Q7894978",
        "wikimedia_commons": "Category:University Visvesvaraya College of Engineering",
        "wikipedia": "en:University Visvesvaraya College of Engineering"
      }
    },
    {
      "type": "way",
      "id": 52244609,
      "center": {
        "lat": 12.9692305,
        "lon": 77.5854109
      },
      "tags": {
        "leisure": "park",
        "name": "Banappa Park",
        "name:kn": "ಬನಪ್ಪ ಉದ್ಯಾನ"
      }
    },
    {
      "type": "way",
      "id": 52244630,
      "center": {
        "lat": 12.9684468,
        "lon": 77.5901197
      },
      "tags": {
        "amenity": "place_of_worship",
        "religion": "hindu"
      }
    },
    {
      "type": "way",
      "id": 52245874,
      "center": {
        "lat": 12.9742464,
        "lon": 77.5830767
      },
      "tags": {
        "leisure": "park"
      }
    },
    {
      "type": "way",
      "id": 52245886,
      "center": {
        "lat": 12.9756965,
        "lon": 77.5837361
      },
      "tags": {
        "amenity": "theatre",
        "building": "yes",
        "name": "Jnana Jyothi Auditorium"
      }
    },
    {
      "type": "way",
      "id": 131443354,
      "center": {
        "lat": 12.9626697,
        "lon": 77.586985
      },
      "tags": {
        "addr:city": "Bangalore",
        "addr:housenumber": "19",
        "addr:postcode": "560027",
        "addr:street": "3rd Cross Road",
        "amenity": "college",
        "name": "Bishop Cotton's Women's Christian College",
        "phone": "+91 080 22121898"
      }
    },
    {
      "type": "way",
      "id": 131487436,
      "center": {
        "lat": 12.9640121,
        "lon": 77.57855
      },
      "tags": {
        "amenity": "place_of_worship",
        "building": "yes",
        "denomination": "sunni",
        "name": "Jamia Masjid",
        "name:kn": "ಜಾಮ ಮಸೀದಿ",
        "religion": "muslim",
        "wheelchair": "no"
      }
    },
    {
      "type": "way",
      "id": 138991405,
      "center": {
        "lat": 12.9612179,
        "lon": 77.5904079
      },
      "tags": {
        "addr:city": "Bengaluru",
        "addr:postcode": "560027",
        "addr:street": "Mission Road (Kalinga Rao Road)",
        "amenity": "college",
        "name": "Government Pharmacy College",
        "wikidata": "Q5589028",
        "wikipedia": "en:Government Pharmacy College, Bangalore"
      }
    },
    {
      "type": "way",
      "id": 143368253,
      "center": {
        "lat": 12.9643631,
        "lon": 77.5853424
      },
      "tags": {
        "addr:city": "Bangalore",
        "addr:postcode": "560002",
        "addr:street": "Silver Jubilee Park Road",
        "amenity": "bank",
        "atm": "yes",
        "brand": "Canara Bank",
        "brand:en": "Canara Bank",
        "brand:hi": "केनरा बैंक",
        "brand:kn": "ಕೆನರಾ ಬ್ಯಾಂಕ್",
        "brand:pa": "ਕੇਨਰਾ ਬੈਂਕ",
        "brand:pnb": "کینرا بینک",
        "brand:ur": "کینرا بینک",
        "brand:wikidata": "Q2003777",
        "brand:wikipedia": "en:Canara Bank",
        "brand:wikipedia:pa": "ਕੇਨਰਾ ਬੈਂਕ",
        "building": "yes",
        "building:levels": "6",
        "name": "Canara Bank",
        "name:en": "Canara Bank",
        "name:hi": "केनरा बैंक",
        "name:kn": "ಕೆನರಾ ಬ್ಯಾಂಕ್",
        "name:pa": "ਕੇਨਰਾ ਬੈਂਕ",
        "name:pnb": "کینرا بینک",
        "name:ur": "کینرا بینک",
        "website": "https://www.canarabank.com/"
      }
    },
    {
      "type": "way",
      "id": 148016869,
      "center": {
        "lat": 12.9622512,
        "lon": 77.5851078
      },
      "tags": {
        "addr:street": "Jayachamaraja Wodeyar Road",
        "amenity": "theatre",
        "building": "public",
        "name": "Ravindra Kalakshetra",
        "name:etymology:wikidata": "Q7241",
        "name:kn": "ರವೀಂದ್ರ ಕಲಾಕ್ಷೇತ್ರ"
      }
    },
    {
      "type": "way",
      "id": 148016872,
      "center": {
        "lat": 12.963771,
        "lon": 77.5857941
      },
      "tags": {
        "amenity": "conference_centre",
        "building": "yes",
        "building:architecture": "neoclassicism",
        "building:levels": "2",
        "building:material": "stone",
        "height": "10",
        "heritage": "2",
        "heritage:operator": "nmma",
        "heritage:website": "https://nmma.nic.in/nmma/exploreBuiltState.do?state=29",
        "name": "Sir Puttanna Chetty Town Hall",
        "name:etymology:wikidata": "Q6323746",
        "name:kn": "ಪುಟ್ಟಣ್ಣ ಚೆಟ್ಟಿ ನಗರಸಭೆ",
        "ref:nmma": "KR20010330",
        "start_date": "1935-09-11",
        "wikidata": "Q4855080"
      }
    },
    {
      "type": "way",
      "id": 150350471,
      "center": {
        "lat": 12.9639468,
        "lon": 77.5746917
      },
      "tags": {
        "leisure": "park"
      }
    },
    {
      "type": "way",
      "id": 152193863,
      "center": {
        "lat": 12.9639243,
        "lon": 77.5912829
      },
      "tags": {
        "building": "yes",
        "name": "Advaith Hyundai Service",
        "name:kn": "ಅದ್ವೈತ ಹ್ಯುಂಡೈ",
        "shop": "car_repair"
      }
    },
    {
      "type": "way",
      "id": 152193875,
      "center": {
        "lat": 12.9626143,
        "lon": 77.5896924
      },
      "tags": {
        "leisure": "garden"
      }
    },
    {
      "type": "way",
      "id": 161984944,
      "center": {
        "lat": 12.9654636,
        "lon": 77.5833357
      },
      "tags": {
        "amenity": "place_of_worship",
        "name": "Dharmaraya Swamy Temple",
        "name:kn": "ಧರ್ಮರಾಯ ಸ್ವಾಮಿ ದೇವಸ್ಥಾನ",
        "religion": "hindu",
        "wikidata": "Q2065042",
        "wikimedia_commons": "Category:Dharmaraya Swamy Temple",
        "wikipedia": "en:Dharmaraya Swamy Temple"
      }
    },
    {
      "type": "way",
      "id": 161984945,
      "center": {
        "lat": 12.9643477,
        "lon": 77.5845256
      },
      "tags": {
        "addr:district": "Bengaluru Urban",
        "addr:full": "Near Town Hall, Sjp Road , South",
        "addr:postcode": "560002",
        "addr:state": "Karnataka",
        "amenity": "hospital",
        "emergency": "yes",
        "healthcare": "hospital",
        "name": "Dasappa Maternity Hospital",
        "name:kn": "ದಾಸಪ್ಪ ತಿರುಮಲಮ್ಮ ಆಸ್ಪತ್ರೆ",
        "source": "OpenGovernmentData"
      }
    },
    {
      "type": "way",
      "id": 208697525,
      "center": {
        "lat": 12.967291,
        "lon": 77.5878867
      },
      "tags": {
        "amenity": "place_of_worship",
        "heritage": "2",
        "heritage:operator": "nmma",
        "heritage:website": "https://nmma.nic.in/nmma/exploreBuiltState.do?state=29",
        "name": "Hudson Memorial Church",
        "ref:nmma": "KR20010293",
        "religion": "christian"
      }
    },
    {
      "type": "way",
      "id": 208697526,
      "center": {
        "lat": 12.9626389,
        "lon": 77.5899774
      },
      "tags": {
        "amenity": "place_of_worship",
        "name": "Mahabaleshwara Temple",
        "name:kn": "ಮಹಾಬಲೇಶ್ವರ ದೇವಸ್ಥಾನ",
        "religion": "hindu"
      }
    },
    {
      "type": "way",
      "id": 208827398,
      "center": {
        "lat": 12.9665425,
        "lon": 77.5870156
      },
      "tags": {
        "addr:city": "Bangalore",
        "addr:postcode": "560002",
        "addr:street": "Cubbon Park Road, Opposite-BBMP Office, Cubbonpet,",
        "amenity": "police",
        "landuse": "commercial",
        "name": "Halasuru Gate Traffic Police Station",
        "phone": "080 2294 2660",
        "website": "NA"
      }
    },
    {
      "type": "way",
      "id": 225712324,
      "center": {
        "lat": 12.963161,
        "lon": 77.5899217
      },
      "tags": {
        "amenity": "public_building",
        "building": "yes",
        "name": "Food Corporation of India",
        "name:kn": "ಭಾರತ ಆಹಾರ ನಿಗಮ"
      }
    },
    {
      "type": "way",
      "id": 261182304,
      "center": {
        "lat": 12.9675694,
        "lon": 77.5898031
      },
      "tags": {
        "amenity": "place_of_worship",
        "name": "Kannika Parameshwari Temple",
        "name:kn": "ಕನ್ನಿಕಾ ಪರಮೇಶ್ವರಿ ದೇವಸ್ಥಾನ",
        "religion": "hindu"
      }
    },
    {
      "type": "way",
      "id": 261188182,
      "center": {
        "lat": 12.9674005,
        "lon": 77.5898882
      },
      "tags": {
        "addr:city": "Bengaluru",
        "addr:district": "Bengaluru Urban",
        "addr:postcode": "560027",
        "addr:street": "Sri Vasavi Temple, C/o, Raja Ram Mohan Roy Rd, near Corporation Circle, Ashwath Nagar, S. R. Nagar",
        "amenity": "conference_centre",
        "building": "yes",
        "name": "Vysyalagnam Charitable Trust"
      }
    },
    {
      "type": "way",
      "id": 271986273,
      "center": {
        "lat": 12.9696326,
        "lon": 77.5920585
      },
      "tags": {
        "leisure": "pitch",
        "name": "Volleyball Pitch",
        "name:kn": "ವಾಲಿಬಾಲ್ ಅಂಗಣ",
        "sport": "volleyball"
      }
    },
    {
      "type": "way",
      "id": 271986484,
      "center": {
        "lat": 12.9688391,
        "lon": 77.5922803
      },
      "tags": {
        "leisure": "pitch",
        "name": "Basket Ball Courts",
        "name:kn": "ಬಾಸ್ಕೆಟ್ ಬಾಲ್ ಅಂಕಣ",
        "sport": "basketball"
      }
    },
    {
      "type": "way",
      "id": 272533335,
      "center": {
        "lat": 12.9663167,
        "lon": 77.5906945
      },
      "tags": {
        "amenity": "place_of_worship",
        "name": "Panchalingeshwara Temple",
        "name:kn": "ಪಂಚಲಿಂಗೇಶ್ವರ ದೇವಸ್ಥಾನ",
        "religion": "hindu"
      }
    },
    {
      "type": "way",
      "id": 317489528,
      "center": {
        "lat": 12.9657504,
        "lon": 77.5888387
      },
      "tags": {
        "amenity": "theatre",
        "building": "yes",
        "building:material": "glass",
        "name": "BBMP Glass House",
        "official_name": "Dr. Rajkumar Memorial Hall",
        "start_date": "2008-09-09"
      }
    },
    {
      "type": "way",
      "id": 317490362,
      "center": {
        "lat": 12.9661914,
        "lon": 77.5880205
      },
      "tags": {
        "amenity": "place_of_worship",
        "building": "yes",
        "religion": "hindu"
      }
    },
    {
      "type": "way",
      "id": 317494478,
      "center": {
        "lat": 12.9666924,
        "lon": 77.5886314
      },
      "tags": {
        "leisure": "garden"
      }
    },
    {
      "type": "way",
      "id": 317802893,
      "center": {
        "lat": 12.9657231,
        "lon": 77.5877507
      },
      "tags": {
        "leisure": "garden"
      }
    },
    {
      "type": "way",
      "id": 327032476,
      "center": {
        "lat": 12.9623462,
        "lon": 77.575312
      },
      "tags": {
        "amenity": "college",
        "name": "Government College of Nursing"
      }
    },
    {
      "type": "way",
      "id": 327032478,
      "center": {
        "lat": 12.9637904,
        "lon": 77.5759033
      },
      "tags": {
        "addr:street": "Bala Gangadhara Swamy Flyover",
        "alt_name": "GDCRI",
        "amenity": "college",
        "name": "Government Dental College and Research Institute",
        "name:kn": "ದಂತ ವೈದ್ಯಕೀಯ ವಿದ್ಯಾಲಯ ಮತ್ತು ಸಂಶೋಧನಾ ಸಂಸ್ಥೆ"
      }
    },
    {
      "type": "way",
      "id": 328765451,
      "center": {
        "lat": 12.9640502,
        "lon": 77.5781641
      },
      "tags": {
        "amenity": "marketplace"
      }
    },
    {
      "type": "way",
      "id": 328774402,
      "center": {
        "lat": 12.9670667,
        "lon": 77.585611
      },
      "tags": {
        "amenity": "place_of_worship",
        "building": "yes",
        "religion": "muslim"
      }
    },
    {
      "type": "way",
      "id": 338701267,
      "center": {
        "lat": 12.9738354,
        "lon": 77.5893214
      },
      "tags": {
        "leisure": "pitch",
        "sport": "tennis",
        "surface": "ground"
      }
    },
    {
      "type": "way",
      "id": 345892554,
      "center": {
        "lat": 12.9622681,
        "lon": 77.5888874
      },
      "tags": {
        "amenity": "place_of_worship",
        "building": "yes",
        "name": "CSI St. Peters Telugu Church",
        "religion": "christian"
      }
    },
    {
      "type": "way",
      "id": 345924045,
      "center": {
        "lat": 12.9595629,
        "lon": 77.5877705
      },
      "tags": {
        "addr:city": "Bengaluru",
        "addr:housenumber": "37",
        "addr:postcode": "560027",
        "addr:street": "Lalbagh Road",
        "amenity": "arts_centre",
        "building": "yes",
        "name": "Shoonya - Centre for Art and Somatic Practices",
        "website": "http://shoonyaspace.com/"
      }
    },
    {
      "type": "way",
      "id": 346454054,
      "center": {
        "lat": 12.9674027,
        "lon": 77.5837589
      },
      "tags": {
        "amenity": "place_of_worship",
        "building": "temple",
        "name": "Chikka Anamma Temple",
        "name:kn": "ಚಿಕ್ಕ ಅನ್ನಮ್ಮ",
        "religion": "hindu"
      }
    },
    {
      "type": "way",
      "id": 346508060,
      "center": {
        "lat": 12.9661906,
        "lon": 77.5851087
      },
      "tags": {
        "amenity": "school",
        "name": "Lourdes High School"
      }
    },
    {
      "type": "way",
      "id": 347077218,
      "center": {
        "lat": 12.9643472,
        "lon": 77.5773741
      },
      "tags": {
        "amenity": "toilets",
        "building": "yes",
        "fee": "yes",
        "female": "yes",
        "male": "yes"
      }
    },
    {
      "type": "way",
      "id": 347077620,
      "center": {
        "lat": 12.9645771,
        "lon": 77.5771645
      },
      "tags": {
        "addr:city": "Bengaluru",
        "addr:housenumber": "397",
        "addr:postcode": "560002",
        "addr:street": "Avenue Rd, City Market, Old Tharagupet, Dodpete, Nagarathpete",
        "amenity": "place_of_worship",
        "building": "yes",
        "check_date": "2025-08-15",
        "denomination": "sufi",
        "name": "Dargha Hazrath Mir Bahadur Sha Al Maroof Syed Pacha Shaheed",
        "religion": "muslim"
      }
    },
    {
      "type": "way",
      "id": 347078486,
      "center": {
        "lat": 12.9649849,
        "lon": 77.5781544
      },
      "tags": {
        "building": "yes",
        "name": "R.K. Bathija & Co",
        "shop": "hardware"
      }
    },
    {
      "type": "way",
      "id": 347144975,
      "center": {
        "lat": 12.973605,
        "lon": 77.5775709
      },
      "tags": {
        "amenity": "cinema",
        "building": "yes",
        "name": "Abhinaya Theater",
        "name:kn": "ಅಭಿನಯ ಚಿತ್ರಮಂದಿರ"
      }
    },
    {
      "type": "way",
      "id": 347145204,
      "center": {
        "lat": 12.9744591,
        "lon": 77.5787142
      },
      "tags": {
        "building": "commercial",
        "building:levels": "5",
        "name": "Pothys",
        "shop": "clothes"
      }
    },
    {
      "type": "way",
      "id": 347425037,
      "center": {
        "lat": 12.9609483,
        "lon": 77.5831297
      },
      "tags": {
        "amenity": "police",
        "building": "yes",
        "name": "S.J. Park Police"
      }
    },
    {
      "type": "way",
      "id": 347436881,
      "center": {
        "lat": 12.961751,
        "lon": 77.5809915
      },
      "tags": {
        "amenity": "place_of_worship",
        "building": "mosque",
        "name:kn": "ಮಸೀದಿ",
        "religion": "muslim"
      }
    },
    {
      "type": "way",
      "id": 350790256,
      "center": {
        "lat": 12.9723736,
        "lon": 77.5762017
      },
      "tags": {
        "amenity": "place_of_worship",
        "building": "yes",
        "religion": "hindu"
      }
    },
    {
      "type": "way",
      "id": 351342259,
      "center": {
        "lat": 12.9711404,
        "lon": 77.5801439
      },
      "tags": {
        "addr:street": "Avenue Road",
        "amenity": "place_of_worship",
        "building": "church",
        "denomination": "church_of_south_india",
        "name": "Rice Memorial Church",
        "religion": "christian",
        "wikidata": "Q24935415",
        "wikimedia_commons": "Category:Rice Memorial Church, Bangalore",
        "wikipedia": "en:Rice Memorial Church, Bangalore"
      }
    },
    {
      "type": "way",
      "id": 351342304,
      "center": {
        "lat": 12.9646079,
        "lon": 77.5821566
      },
      "tags": {
        "building": "yes",
        "name": "Electroface Connectors",
        "shop": "electronics"
      }
    },
    {
      "type": "way",
      "id": 352714475,
      "center": {
        "lat": 12.9724941,
        "lon": 77.5859928
      },
      "tags": {
        "amenity": "library",
        "building": "yes",
        "name": "Mythic Society Library"
      }
    },
    {
      "type": "way",
      "id": 363142561,
      "center": {
        "lat": 12.958053,
        "lon": 77.5805763
      },
      "tags": {
        "leisure": "park",
        "name": "Journalist Colony Garden"
      }
    },
    {
      "type": "way",
      "id": 370418970,
      "center": {
        "lat": 12.968868,
        "lon": 77.5920039
      },
      "tags": {
        "amenity": "parking"
      }
    },
    {
      "type": "way",
      "id": 370418975,
      "center": {
        "lat": 12.9700671,
        "lon": 77.5920245
      },
      "tags": {
        "addr:city": "Bangalore",
        "addr:postcode": "560001",
        "addr:street": "Kasturba Road",
        "amenity": "restaurant",
        "building": "yes",
        "building:levels": "1",
        "building:levels:underground": "1",
        "contact:mobile": "+91 94815 28812",
        "contact:phone": "+91 80 2224 8812",
        "cuisine": "north_indian;chinese",
        "diet:vegetarian": "only",
        "level": "0;1",
        "name": "Konark Kanteerava",
        "opening_hours": "06:30-22:30",
        "roof:shape": "gabled",
        "smoking": "no",
        "toilets": "yes"
      }
    },
    {
      "type": "way",
      "id": 391160940,
      "center": {
        "lat": 12.9680889,
        "lon": 77.5897548
      },
      "tags": {
        "amenity": "place_of_worship",
        "building": "temple",
        "name": "Hasi Karaga Mantapa",
        "note": "Bangalore Karaga Festival takes place near here",
        "religion": "hindu"
      }
    },
    {
      "type": "way",
      "id": 403473904,
      "center": {
        "lat": 12.971057,
        "lon": 77.5871975
      },
      "tags": {
        "leisure": "pitch"
      }
    },
    {
      "type": "way",
      "id": 403473915,
      "center": {
        "lat": 12.9687301,
        "lon": 77.5892588
      },
      "tags": {
        "amenity": "place_of_worship",
        "name": "Sri Dakshinamurthy Temple",
        "name:en": "Sri Dakshinamurthy Temple",
        "name:kn": "ದಕ್ಷಿಣಮೂರ್ತಿ ದೇವಸ್ಥಾನ",
        "religion": "hindu"
      }
    },
    {
      "type": "way",
      "id": 405141209,
      "center": {
        "lat": 12.9739802,
        "lon": 77.5797494
      },
      "tags": {
        "addr:street": "Kempe Gowda Road",
        "amenity": "cinema",
        "landuse": "commercial",
        "name": "Bhoomika Theatre",
        "name:kn": "ಭೂಮಿಕಾ"
      }
    },
    {
      "type": "way",
      "id": 408248117,
      "center": {
        "lat": 12.9646129,
        "lon": 77.5920177
      },
      "tags": {
        "amenity": "parking",
        "parking": "surface"
      }
    },
    {
      "type": "way",
      "id": 410858825,
      "center": {
        "lat": 12.970304,
        "lon": 77.5792557
      },
      "tags": {
        "amenity": "place_of_worship",
        "building": "temple",
        "name": "Sri Ranganathaswamy Temple",
        "name:kn": "ರಂಗನಾಥಸ್ವಾಮಿ ದೇವಸ್ಥಾನ",
        "religion": "hindu",
        "wheelchair": "no"
      }
    },
    {
      "type": "way",
      "id": 410858826,
      "center": {
        "lat": 12.9666992,
        "lon": 77.5741828
      },
      "tags": {
        "amenity": "place_of_worship",
        "building": "temple",
        "religion": "hindu"
      }
    },
    {
      "type": "way",
      "id": 421114577,
      "center": {
        "lat": 12.9659442,
        "lon": 77.5869345
      },
      "tags": {
        "amenity": "fountain"
      }
    },
    {
      "type": "way",
      "id": 421114578,
      "center": {
        "lat": 12.9664344,
        "lon": 77.5873876
      },
      "tags": {
        "amenity": "fountain",
        "fountain": "decorative"
      }
    },
    {
      "type": "way",
      "id": 421114579,
      "center": {
        "lat": 12.9641474,
        "lon": 77.5875533
      },
      "tags": {
        "landuse": "recreation_ground",
        "leisure": "pitch"
      }
    },
    {
      "type": "way",
      "id": 421114580,
      "center": {
        "lat": 12.9661896,
        "lon": 77.5871683
      },
      "tags": {
        "leisure": "park"
      }
    },
    {
      "type": "way",
      "id": 421114581,
      "center": {
        "lat": 12.966918,
        "lon": 77.5854944
      },
      "tags": {
        "amenity": "place_of_worship",
        "name": "Hazrat Hamid Shah Dargah",
        "name:kn": "ಹಜ್ರತ್ ಹಮೀದ್ ಶಾ ದರ್ಗ",
        "religion": "muslim"
      }
    },
    {
      "type": "way",
      "id": 421114582,
      "center": {
        "lat": 12.9662043,
        "lon": 77.585701
      },
      "tags": {
        "amenity": "college",
        "name": "Abbas Khan College",
        "name:kn": "ಅಬ್ಬಾಸ್ ಖಾನ್ ಕಾಲೇಜು"
      }
    },
    {
      "type": "way",
      "id": 421116824,
      "center": {
        "lat": 12.9660973,
        "lon": 77.5845209
      },
      "tags": {
        "amenity": "place_of_worship"
      }
    },
    {
      "type": "way",
      "id": 421131119,
      "center": {
        "lat": 12.9702719,
        "lon": 77.5794685
      },
      "tags": {
        "amenity": "marketplace",
        "name": "Ballapurpet Market",
        "name:kn": "ಬಳ್ಳಾಪುರಪೇಟೆ"
      }
    },
    {
      "type": "way",
      "id": 421132587,
      "center": {
        "lat": 12.9674719,
        "lon": 77.5793311
      },
      "tags": {
        "amenity": "place_of_worship",
        "name": "Chamundeshwari Temple",
        "name:kn": "ಚಾಮುಂಡೇಶ್ವರಿ ದೇವಸ್ಥಾನ",
        "religion": "hindu"
      }
    },
    {
      "type": "way",
      "id": 421132591,
      "center": {
        "lat": 12.9674494,
        "lon": 77.5793201
      },
      "tags": {
        "amenity": "place_of_worship",
        "building": "temple",
        "religion": "hindu"
      }
    },
    {
      "type": "way",
      "id": 421133332,
      "center": {
        "lat": 12.9730905,
        "lon": 77.5814136
      },
      "tags": {
        "amenity": "place_of_worship",
        "check_date": "2024-07-28",
        "landuse": "religious",
        "name": "Sri Shanidevara Temple",
        "religion": "hindu"
      }
    },
    {
      "type": "way",
      "id": 421133334,
      "center": {
        "lat": 12.9727433,
        "lon": 77.5812321
      },
      "tags": {
        "amenity": "place_of_worship",
        "check_date": "2024-07-28",
        "landuse": "religious",
        "name": "Sri Anjaneyswamy Temple",
        "name:kn": "ಆಂಜನೇಯ ದೇವಸ್ಥಾನ",
        "religion": "hindu"
      }
    },
    {
      "type": "way",
      "id": 421133336,
      "center": {
        "lat": 12.9730976,
        "lon": 77.5813783
      },
      "tags": {
        "amenity": "place_of_worship",
        "building": "temple",
        "check_date": "2024-07-28",
        "religion": "hindu"
      }
    },
    {
      "type": "way",
      "id": 421133338,
      "center": {
        "lat": 12.9727972,
        "lon": 77.5811882
      },
      "tags": {
        "amenity": "place_of_worship",
        "building": "temple",
        "check_date": "2024-07-28",
        "religion": "hindu"
      }
    },
    {
      "type": "way",
      "id": 509638758,
      "center": {
        "lat": 12.9637737,
        "lon": 77.5896833
      },
      "tags": {
        "addr:city": "Bengaluru",
        "addr:country": "IN",
        "addr:district": "Bengaluru Urban",
        "addr:full": "No 8, HCG Towers, P. Kalinga Rao Road, Sampangi Ram Nagar, Bengaluru",
        "addr:hamlet": "Sampangi Ram Nagar",
        "addr:housenumber": "8",
        "addr:postcode": "560027",
        "addr:state": "Karnataka",
        "addr:street": "P. Kalinga Rao Road",
        "amenity": "hospital",
        "fax": "+918022485962",
        "name": "HCG Cancer Hospital",
        "name:bn": "এইচসিজি ক্যান্সার হাসপাতাল",
        "name:en": "HealthCare Global Enterprises Ltd",
        "operator:type": "private",
        "phone": "+918040206000",
        "source": "OpenGovernmentData",
        "website": "https://www.hcgoncology.com/"
      }
    },
    {
      "type": "way",
      "id": 512515890,
      "center": {
        "lat": 12.9649534,
        "lon": 77.5745313
      },
      "tags": {
        "amenity": "marketplace",
        "landuse": "retail",
        "name": "Fish and Meat Market"
      }
    },
    {
      "type": "way",
      "id": 781001557,
      "center": {
        "lat": 12.9720613,
        "lon": 77.5865248
      },
      "tags": {
        "amenity": "fuel",
        "brand": "Indian Oil",
        "brand:wikidata": "Q1289348",
        "name": "Indian Oil",
        "name:kn": "ಇಂಡಿಯನ್ ಆಯಿಲ್",
        "operator": "Indian Oil"
      }
    },
    {
      "type": "way",
      "id": 781182600,
      "center": {
        "lat": 12.9650465,
        "lon": 77.5893848
      },
      "tags": {
        "amenity": "place_of_worship",
        "religion": "hindu"
      }
    },
    {
      "type": "way",
      "id": 796463146,
      "center": {
        "lat": 12.9680211,
        "lon": 77.5903027
      },
      "tags": {
        "leisure": "park",
        "name": "Sampangi Tank Park"
      }
    },
    {
      "type": "way",
      "id": 1007646159,
      "center": {
        "lat": 12.974393,
        "lon": 77.5842083
      },
      "tags": {
        "amenity": "parking",
        "capacity": "10"
      }
    },
    {
      "type": "way",
      "id": 1007646167,
      "center": {
        "lat": 12.9725139,
        "lon": 77.5861298
      },
      "tags": {
        "amenity": "arts_centre",
        "landuse": "commercial",
        "name": "Mythic Society",
        "opening_hours": "Tu-Su 10:00-16:00"
      }
    },
    {
      "type": "way",
      "id": 1047676498,
      "center": {
        "lat": 12.96843,
        "lon": 77.5870212
      },
      "tags": {
        "barrier": "fence",
        "leisure": "park",
        "name": "Police Memorial Park"
      }
    },
    {
      "type": "way",
      "id": 1076398555,
      "center": {
        "lat": 12.9695587,
        "lon": 77.587855
      },
      "tags": {
        "amenity": "police",
        "fixme": "Accurate boundaries",
        "name": "Police Headquarters"
      }
    },
    {
      "type": "way",
      "id": 1076398557,
      "center": {
        "lat": 12.9666076,
        "lon": 77.5925094
      },
      "tags": {
        "addr:city": "Bangalore",
        "addr:postcode": "560027",
        "addr:street": "6th Cross Road",
        "amenity": "marketplace",
        "name": "Sampangi Rama Nagar Vegetables Market"
      }
    },
    {
      "type": "way",
      "id": 1082449594,
      "center": {
        "lat": 12.9620358,
        "lon": 77.5888834
      },
      "tags": {
        "amenity": "place_of_worship",
        "religion": "christian"
      }
    },
    {
      "type": "way",
      "id": 1082449597,
      "center": {
        "lat": 12.963063,
        "lon": 77.5852852
      },
      "tags": {
        "leisure": "park",
        "name": "Canara Bank Park"
      }
    },
    {
      "type": "way",
      "id": 1091791759,
      "center": {
        "lat": 12.967886,
        "lon": 77.5922672
      },
      "tags": {
        "amenity": "place_of_worship",
        "building": "yes",
        "religion": "hindu"
      }
    },
    {
      "type": "way",
      "id": 1164848587,
      "center": {
        "lat": 12.9674904,
        "lon": 77.5870792
      },
      "tags": {
        "amenity": "parking"
      }
    },
    {
      "type": "way",
      "id": 1186431410,
      "center": {
        "lat": 12.9603662,
        "lon": 77.5871967
      },
      "tags": {
        "amenity": "college",
        "name": "Jain Centre for Management Studies"
      }
    },
    {
      "type": "way",
      "id": 1186431416,
      "center": {
        "lat": 12.9622763,
        "lon": 77.5885958
      },
      "tags": {
        "leisure": "park"
      }
    },
    {
      "type": "way",
      "id": 1186431418,
      "center": {
        "lat": 12.9609075,
        "lon": 77.5872111
      },
      "tags": {
        "amenity": "cinema",
        "name": "Swagath Poornima"
      }
    },
    {
      "type": "way",
      "id": 1186431423,
      "center": {
        "lat": 12.9609027,
        "lon": 77.5853359
      },
      "tags": {
        "amenity": "college",
        "name": "Jain University",
        "name:kn": "ಜೈನ ವಿಶ್ವವಿದ್ಯಾಲಯ"
      }
    },
    {
      "type": "way",
      "id": 1186431425,
      "center": {
        "lat": 12.961114,
        "lon": 77.5845032
      },
      "tags": {
        "amenity": "place_of_worship",
        "denomination": "catholic",
        "name": "St. Theresa's Church",
        "name:kn": "ಸೈಂಟ್ ತೆರೇಸ ಚರ್ಚ್",
        "religion": "christian"
      }
    },
    {
      "type": "way",
      "id": 1205832108,
      "center": {
        "lat": 12.9623553,
        "lon": 77.5768185
      },
      "tags": {
        "amenity": "school"
      }
    },
    {
      "type": "way",
      "id": 1205832122,
      "center": {
        "lat": 12.9598224,
        "lon": 77.5771411
      },
      "tags": {
        "access": "yes",
        "amenity": "parking",
        "building": "yes",
        "fee": "yes",
        "layer": "1",
        "parking": "multi-storey"
      }
    },
    {
      "type": "way",
      "id": 1208844932,
      "center": {
        "lat": 12.9620817,
        "lon": 77.5757885
      },
      "tags": {
        "amenity": "toilets",
        "building": "yes",
        "female": "yes",
        "male": "yes",
        "wheelchair": "no"
      }
    },
    {
      "type": "way",
      "id": 1216159268,
      "center": {
        "lat": 12.9616914,
        "lon": 77.575924
      },
      "tags": {
        "alt_name": "Vani Vilas Institute",
        "amenity": "school",
        "heritage": "2",
        "heritage:operator": "nmma",
        "heritage:website": "https://nmma.nic.in/nmma/exploreBuiltState.do?state=29",
        "name": "Vani Villas College",
        "name:kn": "ವಾಣಿ ವಿಲಾಸ ಕಾಲೇಜು",
        "ref:nmma": "KR20010953",
        "start_date": "1868"
      }
    },
    {
      "type": "way",
      "id": 1220567439,
      "center": {
        "lat": 12.9663126,
        "lon": 77.574662
      },
      "tags": {
        "access": "customers",
        "amenity": "parking",
        "operator": "BMRCL",
        "parking": "surface"
      }
    },
    {
      "type": "way",
      "id": 1220567448,
      "center": {
        "lat": 12.9657768,
        "lon": 77.5754276
      },
      "tags": {
        "amenity": "marketplace",
        "landuse": "retail"
      }
    },
    {
      "type": "way",
      "id": 1220567449,
      "center": {
        "lat": 12.9673131,
        "lon": 77.5746937
      },
      "tags": {
        "access": "customers",
        "amenity": "parking",
        "operator": "BMRCL",
        "parking": "surface"
      }
    },
    {
      "type": "way",
      "id": 1231129298,
      "center": {
        "lat": 12.9629605,
        "lon": 77.5747755
      },
      "tags": {
        "access": "customers",
        "amenity": "parking",
        "parking": "surface"
      }
    },
    {
      "type": "way",
      "id": 1231379305,
      "center": {
        "lat": 12.9702116,
        "lon": 77.5841592
      },
      "tags": {
        "amenity": "place_of_worship",
        "building": "yes",
        "religion": "hindu"
      }
    },
    {
      "type": "way",
      "id": 1231379306,
      "center": {
        "lat": 12.9705535,
        "lon": 77.5839364
      },
      "tags": {
        "hoops": "2",
        "leisure": "pitch",
        "sport": "basketball",
        "surface": "concrete"
      }
    },
    {
      "type": "way",
      "id": 1231379314,
      "center": {
        "lat": 12.9710887,
        "lon": 77.5832686
      },
      "tags": {
        "amenity": "school"
      }
    },
    {
      "type": "way",
      "id": 1257318362,
      "center": {
        "lat": 12.9719301,
        "lon": 77.5875642
      },
      "tags": {
        "access": "private",
        "amenity": "parking",
        "parking": "surface"
      }
    },
    {
      "type": "way",
      "id": 1257696667,
      "center": {
        "lat": 12.9698126,
        "lon": 77.5862994
      },
      "tags": {
        "amenity": "parking",
        "parking": "surface"
      }
    },
    {
      "type": "way",
      "id": 1267610352,
      "center": {
        "lat": 12.9600528,
        "lon": 77.586529
      },
      "tags": {
        "amenity": "events_venue",
        "name": "Sri Godwad Bhavana"
      }
    },
    {
      "type": "way",
      "id": 1301985514,
      "center": {
        "lat": 12.9623494,
        "lon": 77.5775186
      },
      "tags": {
        "access": "permissive",
        "amenity": "parking",
        "parking": "street_side"
      }
    },
    {
      "type": "way",
      "id": 1302418861,
      "center": {
        "lat": 12.9653345,
        "lon": 77.5857148
      },
      "tags": {
        "access": "permissive",
        "amenity": "parking",
        "parking": "surface"
      }
    },
    {
      "type": "way",
      "id": 1302418874,
      "center": {
        "lat": 12.9666047,
        "lon": 77.585933
      },
      "tags": {
        "access": "permissive",
        "amenity": "parking",
        "parking": "surface"
      }
    },
    {
      "type": "way",
      "id": 1309994351,
      "center": {
        "lat": 12.9599111,
        "lon": 77.5835708
      },
      "tags": {
        "amenity": "fuel",
        "brand": "Shell",
        "name": "Shell",
        "name:kn": "ಶೆಲ್",
        "operator": "Shell"
      }
    },
    {
      "type": "way",
      "id": 1310872540,
      "center": {
        "lat": 12.9733044,
        "lon": 77.5814842
      },
      "tags": {
        "amenity": "fuel",
        "brand": "Indian Oil",
        "brand:wikidata": "Q1289348",
        "brand:wikipedia": "en:Indian Oil Corporation",
        "compressed_air": "yes",
        "name": "Indian Oil",
        "name:kn": "ಇಂಡಿಯನ್ ಆಯಿಲ್"
      }
    },
    {
      "type": "way",
      "id": 1310874391,
      "center": {
        "lat": 12.9752587,
        "lon": 77.5823095
      },
      "tags": {
        "access": "yes",
        "amenity": "toilets",
        "building": "yes",
        "fee": "yes",
        "female": "yes",
        "male": "yes"
      }
    },
    {
      "type": "way",
      "id": 1311064537,
      "center": {
        "lat": 12.9620085,
        "lon": 77.5854566
      },
      "tags": {
        "amenity": "theatre",
        "name": "Samsa Bayalu Ranga Mandira",
        "theatre:type": "audi"
      }
    },
    {
      "type": "way",
      "id": 1311064544,
      "center": {
        "lat": 12.9615128,
        "lon": 77.5856889
      },
      "tags": {
        "amenity": "fuel"
      }
    },
    {
      "type": "way",
      "id": 1311064545,
      "center": {
        "lat": 12.9617765,
        "lon": 77.5844335
      },
      "tags": {
        "leisure": "park"
      }
    },
    {
      "type": "way",
      "id": 1311064546,
      "center": {
        "lat": 12.9616031,
        "lon": 77.5847155
      },
      "tags": {
        "access": "customers",
        "amenity": "parking",
        "parking": "surface"
      }
    },
    {
      "type": "way",
      "id": 1311064547,
      "center": {
        "lat": 12.9623591,
        "lon": 77.584866
      },
      "tags": {
        "access": "customers",
        "amenity": "parking",
        "parking": "surface"
      }
    },
    {
      "type": "way",
      "id": 1311064558,
      "center": {
        "lat": 12.9606538,
        "lon": 77.5840403
      },
      "tags": {
        "addr:district": "Bengaluru Urban",
        "addr:full": "Chandrika Tower, JC Road, Bengaluru",
        "addr:postcode": "560002",
        "addr:state": "Karnataka",
        "addr:street": "Jayachamaraja Wodeyar Road",
        "amenity": "hospital",
        "healthcare": "hospital",
        "name": "Trustwell Hospitals",
        "source": "Local Knowledge",
        "website": "https://trustwellhospitals.com/"
      }
    },
    {
      "type": "way",
      "id": 1311064569,
      "center": {
        "lat": 12.9588488,
        "lon": 77.5825323
      },
      "tags": {
        "amenity": "fuel",
        "brand": "Bharat Petroleum",
        "brand:wikidata": "Q854826",
        "name": "Bharat Petroleum",
        "name:kn": "ಭಾರತ್ ಪೆಟ್ರೋಲಿಯಂ",
        "operator": "Bharat Petroleum",
        "source": "voice, GPS"
      }
    },
    {
      "type": "way",
      "id": 1311251836,
      "center": {
        "lat": 12.9654882,
        "lon": 77.587199
      },
      "tags": {
        "leisure": "park"
      }
    },
    {
      "type": "way",
      "id": 1311251844,
      "center": {
        "lat": 12.9647904,
        "lon": 77.5856322
      },
      "tags": {
        "access": "private",
        "amenity": "parking",
        "parking": "street_side"
      }
    },
    {
      "type": "way",
      "id": 1311251850,
      "center": {
        "lat": 12.9677712,
        "lon": 77.5889316
      },
      "tags": {
        "amenity": "fountain"
      }
    },
    {
      "type": "way",
      "id": 1311251851,
      "center": {
        "lat": 12.9651459,
        "lon": 77.5870284
      },
      "tags": {
        "access": "permissive",
        "amenity": "parking",
        "parking": "street_side"
      }
    },
    {
      "type": "way",
      "id": 1311251852,
      "center": {
        "lat": 12.9634265,
        "lon": 77.5868185
      },
      "tags": {
        "access": "permissive",
        "amenity": "parking",
        "parking": "street_side"
      }
    },
    {
      "type": "way",
      "id": 1311251853,
      "center": {
        "lat": 12.9641667,
        "lon": 77.5862478
      },
      "tags": {
        "access": "permissive",
        "amenity": "parking",
        "parking": "street_side"
      }
    },
    {
      "type": "way",
      "id": 1311251854,
      "center": {
        "lat": 12.9650787,
        "lon": 77.5866015
      },
      "tags": {
        "access": "permissive",
        "amenity": "parking",
        "parking": "street_side"
      }
    },
    {
      "type": "way",
      "id": 1311251855,
      "center": {
        "lat": 12.964725,
        "lon": 77.586279
      },
      "tags": {
        "access": "permissive",
        "amenity": "parking",
        "parking": "street_side"
      }
    },
    {
      "type": "way",
      "id": 1311664851,
      "center": {
        "lat": 12.967883,
        "lon": 77.5873014
      },
      "tags": {
        "amenity": "fountain",
        "drinking_water": "no",
        "fountain": "decorative"
      }
    },
    {
      "type": "way",
      "id": 1315455670,
      "center": {
        "lat": 12.9697344,
        "lon": 77.5880922
      },
      "tags": {
        "leisure": "garden"
      }
    },
    {
      "type": "way",
      "id": 1368422467,
      "center": {
        "lat": 12.9707692,
        "lon": 77.5911969
      },
      "tags": {
        "leisure": "garden"
      }
    },
    {
      "type": "way",
      "id": 1418860511,
      "center": {
        "lat": 12.9621435,
        "lon": 77.5901163
      },
      "tags": {
        "addr:city": "Bengaluru",
        "addr:postcode": "560027",
        "addr:street": "Mission Road (Kalinga Rao Road)",
        "amenity": "college",
        "name": "Government Pharmacy College",
        "wikidata": "Q5589028",
        "wikipedia": "en:Government Pharmacy College, Bangalore"
      }
    }
  ]
}