{
  "area_name": "Garudachar Palya",
  "osm_id": 19883420,
  "osm_type": "relation",
  "place_type": "administrative",
  "amenity_count": 73,
  "amenities": [
    {
      "type": "node",
      "id": 1104408041,
      "lat": 12.9930001,
      "lon": 77.7027197,
      "tags": {
        "addr:city": "Bangalore",
        "addr:street": "Whitefield Road",
        "amenity": "fast_food",
        "brand": "Domino's",
        "brand:ks": "ڈومینوز",
        "brand:pa": "ਡੋਮੀਨੋਜ਼",
        "brand:ur": "ڈومینوز",
        "brand:wikidata": "Q839466",
        "brand:wikipedia": "en:Domino's Pizza",
        "cuisine": "pizza",
        "name": "Domino's",
        "name:kn": "ಡಾಮಿನೋಸ್",
        "name:ks": "ڈومینوز",
        "name:pa": "ਡੋਮੀਨੋਜ਼",
        "name:ur": "ڈومینوز",
        "takeaway": "yes"
      }
    },
    {
      "type": "node",
      "id": 1166275817,
      "lat": 12.9897305,
      "lon": 77.7023418,
      "tags": {
        "shop": "convenience"
      }
    },
    {
      "type": "node",
      "id": 1350237055,
      "lat": 12.9949844,
      "lon": 77.6960255,
      "tags": {
        "addr:city": "Mahadevapura, Bangalore",
        "addr:street": "Whitefield Road",
        "amenity": "bank",
        "atm": "yes",
        "brand": "Corporation Bank",
        "brand:wikidata": "Q2003387",
        "brand:wikipedia": "en:Corporation Bank",
        "name": "Corporation Bank",
        "name:en": "Corporation Bank",
        "name:kn": "ಕಾರ್ಪರೇಷನ್ ಬ್ಯಾಂಕ್",
        "website": "https://corpbank.com/"
      }
    },
    {
      "type": "node",
      "id": 1717889465,
      "lat": 12.9917754,
      "lon": 77.6901171,
      "tags": {
        "amenity": "place_of_worship",
        "name": "Maheshwari Temple",
        "name:kn": "ಮಹೇಶ್ವರಿ ದೇವಸ್ಥಾನ",
        "religion": "hindu"
      }
    },
    {
      "type": "node",
      "id": 1717909484,
      "lat": 12.9960796,
      "lon": 77.6933786,
      "tags": {
        "addr:street": "Whitefield Road",
        "amenity": "clinic",
        "name": "Dr.Chandar Clinic"
      }
    },
    {
      "type": "node",
      "id": 1719526890,
      "lat": 12.9926782,
      "lon": 77.6910662,
      "tags": {
        "name": "Hindiwala Provision Store",
        "shop": "convenience"
      }
    },
    {
      "type": "node",
      "id": 1719526893,
      "lat": 12.9926025,
      "lon": 77.6913531,
      "tags": {
        "name": "Anjeneya Provision Store",
        "shop": "convenience"
      }
    },
    {
      "type": "node",
      "id": 1719527370,
      "lat": 12.9939459,
      "lon": 77.6932252,
      "tags": {
        "name": "Reni Provision Store",
        "shop": "convenience"
      }
    },
    {
      "type": "node",
      "id": 1733720842,
      "lat": 12.9926358,
      "lon": 77.7027672,
      "tags": {
        "amenity": "cafe",
        "brand": "Costa",
        "brand:wikidata": "Q608845",
        "cuisine": "coffee_shop",
        "name": "Costa",
        "takeaway": "yes"
      }
    },
    {
      "type": "node",
      "id": 1733720846,
      "lat": 12.9922906,
      "lon": 77.7027028,
      "tags": {
        "amenity": "fast_food",
        "name": "Kismiss"
      }
    },
    {
      "type": "node",
      "id": 1839606932,
      "lat": 12.9927632,
      "lon": 77.7027663,
      "tags": {
        "amenity": "bank",
        "atm": "yes",
        "brand": "State Bank of India",
        "brand:wikidata": "Q1340361",
        "brand:wikipedia": "en:State Bank of India",
        "name": "State Bank of India",
        "name:kn": "ಭಾರತೀಯ ಸ್ಟೇಟ್ ಬ್ಯಾಂಕ್",
        "short_name": "SBI"
      }
    },
    {
      "type": "node",
      "id": 2282215762,
      "lat": 12.9916549,
      "lon": 77.6907785,
      "tags": {
        "amenity": "atm",
        "brand": "ICICI Bank",
        "brand:wikidata": "Q1653258",
        "operator": "ICICI Bank",
        "operator:wikidata": "Q1653258",
        "short_name": "ICICI"
      }
    },
    {
      "type": "node",
      "id": 3426278198,
      "lat": 12.9925169,
      "lon": 77.7031605,
      "tags": {
        "amenity": "atm",
        "brand": "Citibank",
        "brand:wikidata": "Q857063",
        "name": "Citibank ATM",
        "operator": "Citibank",
        "operator:wikidata": "Q857063",
        "short_name": "Citi"
      }
    },
    {
      "type": "node",
      "id": 4172475591,
      "lat": 12.9970034,
      "lon": 77.6911331,
      "tags": {
        "addr:street": "Mahadevapura Main Road",
        "amenity": "pharmacy",
        "name": "Max Pharma"
      }
    },
    {
      "type": "node",
      "id": 4187143292,
      "lat": 12.9969671,
      "lon": 77.691283,
      "tags": {
        "addr:street": "Whitefield Road",
        "name": "Sports Line",
        "shop": "sports"
      }
    },
    {
      "type": "node",
      "id": 4445573505,
      "lat": 12.9950766,
      "lon": 77.6967056,
      "tags": {
        "addr:city": "Bangalore",
        "addr:housenumber": "# 90A",
        "addr:postcode": "560048",
        "addr:street": "Whitefield Road, R.H.B. colony, Mahadevapura",
        "amenity": "pharmacy",
        "name": "Mass pharma",
        "phone": "+9197408 10151"
      }
    },
    {
      "type": "node",
      "id": 4445639834,
      "lat": 12.9929014,
      "lon": 77.7027759,
      "tags": {
        "addr:city": "Bangalore",
        "addr:housenumber": "113",
        "addr:postcode": "560048",
        "addr:street": "Whitefield Road,Garudachar Palya, Mahadevapura",
        "amenity": "pharmacy",
        "healthcare": "pharmacy",
        "name": "NationWide Primary Healthcare Services",
        "phone": "080 4205 5422"
      }
    },
    {
      "type": "node",
      "id": 4569766791,
      "lat": 12.9968569,
      "lon": 77.6913541,
      "tags": {
        "name": "Airtel Express",
        "name:en": "Airtel Express",
        "shop": "mobile_phone"
      }
    },
    {
      "type": "node",
      "id": 5123954725,
      "lat": 12.990654,
      "lon": 77.7004421,
      "tags": {
        "amenity": "place_of_worship",
        "religion": "hindu"
      }
    },
    {
      "type": "node",
      "id": 5123966868,
      "lat": 12.9899373,
      "lon": 77.7000773,
      "tags": {
        "amenity": "place_of_worship",
        "religion": "hindu"
      }
    },
    {
      "type": "node",
      "id": 7572131843,
      "lat": 12.9936892,
      "lon": 77.7016795,
      "tags": {
        "addr:district": "Bengaluru Urban",
        "addr:full": "Garudachar Palya, Mahadevapura, Bengaluru",
        "addr:postcode": "560048",
        "addr:state": "Karnataka",
        "amenity": "clinic",
        "name": "Chirayu Health care centre",
        "source": "Local Knowledge"
      }
    },
    {
      "type": "node",
      "id": 7572131874,
      "lat": 12.992777,
      "lon": 77.694674,
      "tags": {
        "addr:district": "Bengaluru Urban",
        "addr:full": "Lakshmi Sagar Layout, RHB Colony, Mahadevapura, Bengaluru, Karnatak",
        "addr:postcode": "560048",
        "addr:state": "Karnataka",
        "amenity": "clinic",
        "name": "Lyfas Digital Health Clinic",
        "source": "Local Knowledge"
      }
    },
    {
      "type": "node",
      "id": 7572131937,
      "lat": 12.9924407,
      "lon": 77.7027556,
      "tags": {
        "addr:district": "Bengaluru Urban",
        "addr:full": "Whitefield Main Road, Garudachar Palya, Mahadevapura, Bengaluru",
        "addr:postcode": "560048",
        "addr:state": "Karnataka",
        "amenity": "clinic",
        "healthcare": "clinic",
        "name": "Tata Health Clinic",
        "source": "Local Knowledge"
      }
    },
    {
      "type": "node",
      "id": 9937603696,
      "lat": 12.9938978,
      "lon": 77.7006253,
      "tags": {
        "name": "Ratnadeep Supermarket",
        "shop": "supermarket"
      }
    },
    {
      "type": "node",
      "id": 9937603697,
      "lat": 12.9938628,
      "lon": 77.7007212,
      "tags": {
        "leisure": "fitness_centre",
        "name": "LMNT Gym"
      }
    },
    {
      "type": "node",
      "id": 9937603698,
      "lat": 12.9937994,
      "lon": 77.7012007,
      "tags": {
        "amenity": "restaurant",
        "name": "Sindhoora Gardenia"
      }
    },
    {
      "type": "node",
      "id": 10038497135,
      "lat": 12.9938858,
      "lon": 77.7008002,
      "tags": {
        "access": "customers",
        "amenity": "parking_entrance",
        "parking": "underground"
      }
    },
    {
      "type": "node",
      "id": 10792878638,
      "lat": 12.994845,
      "lon": 77.6961343,
      "tags": {
        "amenity": "place_of_worship",
        "check_date": "2023-04-05",
        "religion": "hindu",
        "source": "survey"
      }
    },
    {
      "type": "node",
      "id": 10792878639,
      "lat": 12.9950889,
      "lon": 77.6961786,
      "tags": {
        "addr:floor": "1",
        "check_date": "2023-04-05",
        "email": "watchesandclocks16@gmail.com",
        "level": "1",
        "name": "Watches & Clocks",
        "phone": "+91 72044 22772; +91 95384 78546",
        "shop": "watches",
        "source": "survey",
        "wheelchair": "no"
      }
    },
    {
      "type": "node",
      "id": 10792878640,
      "lat": 12.9946616,
      "lon": 77.6961287,
      "tags": {
        "amenity": "clinic",
        "check_date": "2023-04-05",
        "healthcare": "clinic",
        "name": "Harsha Poly Clinic & Maternity Home",
        "phone": "+91 93428 63309",
        "source": "survey"
      }
    },
    {
      "type": "node",
      "id": 11034490397,
      "lat": 12.9892999,
      "lon": 77.6993829,
      "tags": {
        "amenity": "place_of_worship",
        "check_date": "2023-07-08",
        "religion": "hindu"
      }
    },
    {
      "type": "node",
      "id": 11443954668,
      "lat": 12.9938121,
      "lon": 77.7008641,
      "tags": {
        "level": "0",
        "name": "Ashley",
        "shop": "furniture"
      }
    },
    {
      "type": "node",
      "id": 11444019769,
      "lat": 12.9937268,
      "lon": 77.7008262,
      "tags": {
        "air_conditioning": "yes",
        "amenity": "restaurant",
        "cuisine": "barbecue;indian",
        "diet:vegetarian": "yes",
        "level": "3",
        "name": "Sattvam",
        "name:kn": "ಸತ್ವಂ",
        "opening_hours": "Mo-Su 12:00-15:30,19:00-23:00",
        "phone": "+91 63641 50001",
        "website": "https://www.sattvam.com"
      }
    },
    {
      "type": "node",
      "id": 11999510490,
      "lat": 12.9877921,
      "lon": 77.6972078,
      "tags": {
        "access": "yes",
        "amenity": "bicycle_parking",
        "bicycle_parking": "stands",
        "capacity": "6",
        "covered": "no",
        "fee": "no",
        "operator:type": "public"
      }
    },
    {
      "type": "node",
      "id": 12174714926,
      "lat": 12.9949316,
      "lon": 77.6970521,
      "tags": {
        "amenity": "restaurant",
        "contact:website": "https://chefpillai.com",
        "name": "North Rasoi"
      }
    },
    {
      "type": "node",
      "id": 12174714927,
      "lat": 12.9949545,
      "lon": 77.6972062,
      "tags": {
        "addr:city": "Bengaluru",
        "addr:postcode": "560048",
        "addr:street": "Whitefield Road",
        "amenity": "restaurant",
        "name": "Restaurant Chef Pillai",
        "phone": "+91 8943150000",
        "website": "https://chefpillai.com/"
      }
    },
    {
      "type": "node",
      "id": 12199055890,
      "lat": 12.9917327,
      "lon": 77.6932471,
      "tags": {
        "amenity": "parking_entrance"
      }
    },
    {
      "type": "node",
      "id": 12199055891,
      "lat": 12.9917515,
      "lon": 77.6931774,
      "tags": {
        "amenity": "parking_entrance"
      }
    },
    {
      "type": "node",
      "id": 12294001114,
      "lat": 12.9940111,
      "lon": 77.6993264,
      "tags": {
        "amenity": "fast_food",
        "contact:instagram": "goodflippin",
        "cuisine": "burger",
        "delivery": "yes",
        "name": "Good Flippin' Burgers",
        "takeaway": "yes",
        "website": "https://goodflippin.com/"
      }
    },
    {
      "type": "node",
      "id": 12460927624,
      "lat": 12.9951,
      "lon": 77.6963703,
      "tags": {
        "air_conditioning": "yes",
        "brand": "Xiaomi",
        "brand:wikidata": "Q1636958",
        "check_date": "2024-12-29",
        "level": "2",
        "mobile_phone:repair": "yes",
        "name": "Xiaomi Service Centre",
        "opening_hours": "Mo-Sa 10:30-19:00; Su,PH off",
        "shop": "mobile_phone",
        "source": "survey",
        "toilets": "yes",
        "wheelchair": "no"
      }
    },
    {
      "type": "node",
      "id": 12528658846,
      "lat": 12.9967906,
      "lon": 77.6907514,
      "tags": {
        "name": "Ather",
        "operator": "Ather",
        "shop": "motorcycle"
      }
    },
    {
      "type": "node",
      "id": 12528658847,
      "lat": 12.996933,
      "lon": 77.6907742,
      "tags": {
        "brand": "Audi",
        "brand:wikidata": "Q23317",
        "name": "Audi",
        "shop": "car"
      }
    },
    {
      "type": "node",
      "id": 12821163601,
      "lat": 12.9949243,
      "lon": 77.6977168,
      "tags": {
        "name": "Liquor Boutique",
        "shop": "alcohol"
      }
    },
    {
      "type": "node",
      "id": 13013588709,
      "lat": 12.9918797,
      "lon": 77.7026349,
      "tags": {
        "amenity": "cafe",
        "name": "The Junk Free Cafe"
      }
    },
    {
      "type": "node",
      "id": 13043342400,
      "lat": 12.9917014,
      "lon": 77.7032095,
      "tags": {
        "access": "private",
        "amenity": "parking_entrance",
        "parking": "multi-storey"
      }
    },
    {
      "type": "way",
      "id": 159845124,
      "center": {
        "lat": 12.983472,
        "lon": 77.6997518
      },
      "tags": {
        "amenity": "animal_shelter",
        "name": "Goshala - Veterinary Center for Cattle",
        "name:kn": "ಗೋಶಾಲ"
      }
    },
    {
      "type": "way",
      "id": 159860397,
      "center": {
        "lat": 12.992135,
        "lon": 77.6922128
      },
      "tags": {
        "leisure": "recreation_ground",
        "name": "Recreation Ground"
      }
    },
    {
      "type": "way",
      "id": 159864349,
      "center": {
        "lat": 12.9900759,
        "lon": 77.6958954
      },
      "tags": {
        "addr:city": "Bengaluru",
        "addr:postcode": "560048",
        "addr:street": "Maheshwaramma Temple Main Road, Mahadevapura",
        "building": "retail",
        "leisure": "indoor_play",
        "name": "Altis Indoor Badminton"
      }
    },
    {
      "type": "way",
      "id": 190157402,
      "center": {
        "lat": 12.9950206,
        "lon": 77.6933462
      },
      "tags": {
        "building": "yes",
        "name": "Bimal Maruti Service",
        "name:kn": "ಬಿಮಲ್ ಮಾರುತಿ",
        "shop": "car_repair"
      }
    },
    {
      "type": "way",
      "id": 190157403,
      "center": {
        "lat": 12.9951363,
        "lon": 77.6933571
      },
      "tags": {
        "addr:housenumber": "60/2",
        "addr:postcode": "560048",
        "addr:street": "Whitefield Road",
        "name": "Bimal Maruti Show Room",
        "name:kn": "ಬಿಮಲ್ ಮಾರುತಿ",
        "shop": "car",
        "website": "https://www.bimalmaruti.com/"
      }
    },
    {
      "type": "way",
      "id": 219618426,
      "center": {
        "lat": 12.9947359,
        "lon": 77.6953981
      },
      "tags": {
        "amenity": "school"
      }
    },
    {
      "type": "way",
      "id": 346542888,
      "center": {
        "lat": 12.9929117,
        "lon": 77.7003779
      },
      "tags": {
        "addr:street": "Whitefield Road",
        "branch": "Cash & Carry",
        "brand": "METRO",
        "brand:wikidata": "Q13610282",
        "building": "yes",
        "name": "METRO",
        "shop": "wholesale"
      }
    },
    {
      "type": "way",
      "id": 627710065,
      "center": {
        "lat": 12.9893231,
        "lon": 77.701715
      },
      "tags": {
        "leisure": "pitch",
        "sport": "tennis"
      }
    },
    {
      "type": "way",
      "id": 627710066,
      "center": {
        "lat": 12.9893032,
        "lon": 77.7020413
      },
      "tags": {
        "leisure": "pitch",
        "sport": "basketball"
      }
    },
    {
      "type": "way",
      "id": 627710067,
      "center": {
        "lat": 12.989161,
        "lon": 77.7023199
      },
      "tags": {
        "leisure": "swimming_pool"
      }
    },
    {
      "type": "way",
      "id": 627710069,
      "center": {
        "lat": 12.9917726,
        "lon": 77.70341
      },
      "tags": {
        "access": "private",
        "leisure": "swimming_pool"
      }
    },
    {
      "type": "way",
      "id": 690851285,
      "center": {
        "lat": 12.9901991,
        "lon": 77.7036905
      },
      "tags": {
        "leisure": "pitch",
        "sport": "skateboard"
      }
    },
    {
      "type": "way",
      "id": 1084458386,
      "center": {
        "lat": 12.9934772,
        "lon": 77.7006036
      },
      "tags": {
        "amenity": "parking",
        "parking": "surface"
      }
    },
    {
      "type": "way",
      "id": 1124687778,
      "center": {
        "lat": 12.9926532,
        "lon": 77.698959
      },
      "tags": {
        "leisure": "swimming_pool"
      }
    },
    {
      "type": "way",
      "id": 1153445014,
      "center": {
        "lat": 12.9895718,
        "lon": 77.7036926
      },
      "tags": {
        "leisure": "pitch",
        "sport": "beachvolleyball",
        "surface": "sand"
      }
    },
    {
      "type": "way",
      "id": 1153445015,
      "center": {
        "lat": 12.9895108,
        "lon": 77.7038627
      },
      "tags": {
        "leisure": "pitch",
        "sport": "soccer"
      }
    },
    {
      "type": "way",
      "id": 1223113900,
      "center": {
        "lat": 12.9939621,
        "lon": 77.7008045
      },
      "tags": {
        "amenity": "parking",
        "parking": "surface"
      }
    },
    {
      "type": "way",
      "id": 1235735090,
      "center": {
        "lat": 12.9873811,
        "lon": 77.6954784
      },
      "tags": {
        "access": "private",
        "leisure": "pitch",
        "sport": "tennis"
      }
    },
    {
      "type": "way",
      "id": 1267711028,
      "center": {
        "lat": 12.9909696,
        "lon": 77.6955105
      },
      "tags": {
        "leisure": "park"
      }
    },
    {
      "type": "way",
      "id": 1267711039,
      "center": {
        "lat": 12.9907063,
        "lon": 77.6938896
      },
      "tags": {
        "amenity": "school",
        "name": "MTB School"
      }
    },
    {
      "type": "way",
      "id": 1268945188,
      "center": {
        "lat": 12.9847611,
        "lon": 77.6968167
      },
      "tags": {
        "leisure": "park"
      }
    },
    {
      "type": "way",
      "id": 1278772124,
      "center": {
        "lat": 12.9868126,
        "lon": 77.6981663
      },
      "tags": {
        "alt_name": "Yeklgata Lake Park",
        "leisure": "park",
        "name": "Goshala Lake Park"
      }
    },
    {
      "type": "way",
      "id": 1296042957,
      "center": {
        "lat": 12.9850166,
        "lon": 77.6962353
      },
      "tags": {
        "access": "permissive",
        "amenity": "parking",
        "parking": "surface"
      }
    },
    {
      "type": "way",
      "id": 1296042958,
      "center": {
        "lat": 12.9847484,
        "lon": 77.6967613
      },
      "tags": {
        "alt_name": "Kewal Aradhna Sthal, Goushala",
        "amenity": "place_of_worship",
        "building": "yes",
        "name": "Bangalore Gaurakshana Shala",
        "religion": "jain"
      }
    },
    {
      "type": "way",
      "id": 1328129623,
      "center": {
        "lat": 12.987677,
        "lon": 77.6988429
      },
      "tags": {
        "leisure": "sports_centre"
      }
    },
    {
      "type": "way",
      "id": 1419422741,
      "center": {
        "lat": 12.9934484,
        "lon": 77.7018857
      },
      "tags": {
        "amenity": "cinema",
        "landuse": "commercial",
        "name": "V Cinemas - Vijayalakshmi Theater",
        "name:kn": "ವಿಜಯಲಕ್ಷ್ಮಿ ಚಿತ್ರಮಂದಿರ"
      }
    },
    {
      "type": "way",
      "id": 1419422744,
      "center": {
        "lat": 12.9925246,
        "lon": 77.702535
      },
      "tags": {
        "access": "permissive",
        "amenity": "parking",
        "parking": "street_side"
      }
    },
    {
      "type": "way",
      "id": 1419422745,
      "center": {
        "lat": 12.9915441,
        "lon": 77.7033937
      },
      "tags": {
        "access": "permissive",
        "amenity": "parking",
        "parking": "street_side"
      }
    }
  ]
}