{
  "area_name": "Garvebavi Palya",
  "osm_id": 19883437,
  "osm_type": "relation",
  "place_type": "administrative",
  "amenity_count": 49,
  "amenities": [
    {
      "type": "node",
      "id": 1311760453,
      "lat": 12.9001507,
      "lon": 77.630134,
      "tags": {
        "addr:city": "Bommanahalli, Bangalore",
        "addr:postcode": "560 068",
        "addr:street": "Hosur Road",
        "amenity": "college",
        "fax": "+91-80-30219629",
        "name": "The Oxford Dental College & Hospital",
        "phone": "+91-80-30219626"
      }
    },
    {
      "type": "node",
      "id": 1470412730,
      "lat": 12.8969624,
      "lon": 77.6345783,
      "tags": {
        "addr:housenumber": "Hosur road",
        "name": "RNS Maruti Motors",
        "shop": "car"
      }
    },
    {
      "type": "node",
      "id": 1470726054,
      "lat": 12.8944566,
      "lon": 77.636249,
      "tags": {
        "amenity": "place_of_worship",
        "check_date": "2024-09-19",
        "religion": "hindu",
        "source": "survey",
        "wheelchair": "no"
      }
    },
    {
      "type": "node",
      "id": 1474105335,
      "lat": 12.8956734,
      "lon": 77.6354903,
      "tags": {
        "brand": "Bajaj",
        "brand:wikidata": "Q10910065",
        "name": "Bajaj",
        "name:kn": "ಬಜಾಜ್",
        "shop": "motorcycle"
      }
    },
    {
      "type": "node",
      "id": 1474105939,
      "lat": 12.889924,
      "lon": 77.638912,
      "tags": {
        "amenity": "atm",
        "brand": "IDBI Bank",
        "brand:wikidata": "Q3633485",
        "name": "IDBI Bank",
        "name:kn": "ಐಡಿಬಿಐ",
        "operator": "IDBI Bank",
        "operator:wikidata": "Q3633485",
        "short_name": "IDBI"
      }
    },
    {
      "type": "node",
      "id": 2389667841,
      "lat": 12.9035518,
      "lon": 77.6274068,
      "tags": {
        "amenity": "pharmacy",
        "dispensing": "yes",
        "name": "Jain Medicals"
      }
    },
    {
      "type": "node",
      "id": 2447291687,
      "lat": 12.8977876,
      "lon": 77.631998,
      "tags": {
        "covered": "no",
        "leisure": "swimming_pool",
        "sport": "swimming"
      }
    },
    {
      "type": "node",
      "id": 2466690616,
      "lat": 12.8965036,
      "lon": 77.634968,
      "tags": {
        "amenity": "fuel",
        "brand": "GOGAS AUTO LPG",
        "check_date": "2024-09-19",
        "name": "Gogas Auto Lpg",
        "operator": "GOGAS AUTO LPG"
      }
    },
    {
      "type": "node",
      "id": 2720498307,
      "lat": 12.9003488,
      "lon": 77.6271298,
      "tags": {
        "amenity": "school",
        "name": "Sri Ram Driving School"
      }
    },
    {
      "type": "node",
      "id": 2720498311,
      "lat": 12.9002599,
      "lon": 77.6271003,
      "tags": {
        "amenity": "hospital",
        "emergency": "no",
        "name": "Kottakkal Arya Vaidya Sala"
      }
    },
    {
      "type": "node",
      "id": 3214264917,
      "lat": 12.9020523,
      "lon": 77.631261,
      "tags": {
        "alt_name": "TOCE",
        "amenity": "college",
        "name": "The Oxford College of Engineering",
        "wikidata": "Q7755787",
        "wikipedia": "en:The Oxford College of Engineering"
      }
    },
    {
      "type": "node",
      "id": 4489848125,
      "lat": 12.8985629,
      "lon": 77.6267808,
      "tags": {
        "addr:city": "Bangalore",
        "addr:housenumber": "3/3",
        "addr:postcode": "560068",
        "addr:street": "Begur Road",
        "addr:suburb": "Bommanahalli",
        "brand": "Reliance Fresh",
        "brand:wikidata": "Q7311014",
        "name": "Reliance Fresh",
        "name:kn": "ರಿಲಾಯನ್ಸ್ ಫ್ರೆಶ್",
        "phone": "+91 80 22965279",
        "shop": "supermarket"
      }
    },
    {
      "type": "node",
      "id": 6496853668,
      "lat": 12.8946113,
      "lon": 77.633992,
      "tags": {
        "addr:place": "Garvebhavi Palya",
        "amenity": "school",
        "isced:level": "3",
        "name": "Bright Future LPS Garvebhavi Palya,",
        "name:kn": "ಬ್ರೈಟ್ ಫ್ಯೂಚರ್ ಕಿರಿಯ ಪ್ರಾಥಮಿಕ ಶಾಲೆ ಗರ್ವೆಭವಿ ಪಾಳ್ಯ",
        "operator": "Private Un-Aided",
        "school": "Higher Secondary"
      }
    },
    {
      "type": "node",
      "id": 6510130946,
      "lat": 12.891396,
      "lon": 77.6340809,
      "tags": {
        "addr:place": "Garvebhavi Palya",
        "amenity": "school",
        "isced:level": "3",
        "name": "Mathas Education Society",
        "name:kn": "ಮಾತಾಸ್ ಎಜುಕೇಶನ್ ಸೊಸೈಟಿ ಗಾರ್ವೇಬಾವಿ ಪಾಳ್ಯ",
        "operator": "Private Un-Aided",
        "school": "Higher Secondary"
      }
    },
    {
      "type": "node",
      "id": 6528157314,
      "lat": 12.8911632,
      "lon": 77.6359252,
      "tags": {
        "addr:place": "Garvebhavi Palya",
        "amenity": "school",
        "isced:level": "3",
        "name": "Rajrajeshwari HS, Garvebhavi Palya",
        "name:kn": "ರಾಜರಾಜೇಶ್ವರಿ ಪ್ರೌಢಶಾಲೆ ಗಾರ್ವೇಬಾವಿ ಪಾಳ್ಯ",
        "operator": "Private Un-Aided",
        "school": "Higher Secondary"
      }
    },
    {
      "type": "node",
      "id": 6528174729,
      "lat": 12.8959096,
      "lon": 77.6352778,
      "tags": {
        "addr:place": "Garvebhavi Palya",
        "amenity": "school",
        "isced:level": "3",
        "name": "Ves HS, Garvebhavi Palya",
        "name:kn": "ವಿ.ಇ.ಎಸ್. ಪ್ರೌಢಶಾಲೆ ಗಾರ್ವೇಬಾವಿ ಪಾಳ್ಯ",
        "operator": "Private Un-Aided",
        "school": "Higher Secondary"
      }
    },
    {
      "type": "node",
      "id": 6528190736,
      "lat": 12.8866375,
      "lon": 77.6344577,
      "tags": {
        "addr:place": "Garvebhavi Palya",
        "amenity": "school",
        "isced:level": "2",
        "name": "Sahyadri EHPS, Garvebhavi Palya",
        "name:kn": "ನವೋದಯ ವಿದ್ಯಾಲಯ,ಗಾರ್ವೇಬಾವಿ ಪಾಳ್ಯ",
        "operator": "Private Un-Aided",
        "school": "Higher Primary"
      }
    },
    {
      "type": "node",
      "id": 6528196662,
      "lat": 12.8934705,
      "lon": 77.6307067,
      "tags": {
        "addr:place": "Hongasandra",
        "amenity": "school",
        "isced:level": "3",
        "name": "Mother Theresa HS, Hongasandra 1",
        "name:kn": "ಮದರ್ ತೆರೇಸಾ ಪ್ರೌಢಶಾಲೆ, ಹೊಂಗಸಂದ್ರ",
        "operator": "Private Un-Aided",
        "school": "Higher Secondary"
      }
    },
    {
      "type": "node",
      "id": 6939522367,
      "lat": 12.8957636,
      "lon": 77.6330289,
      "tags": {
        "addr:district": "Bengaluru Urban",
        "addr:full": "No.4, Achaiah Chetty Layout, Mekri Circle",
        "addr:postcode": "560080",
        "addr:state": "Karnataka",
        "amenity": "hospital",
        "name": "Ganesh Nursing Home, Bengaluru Urban",
        "source": "OpenGovernmentData"
      }
    },
    {
      "type": "node",
      "id": 6947247040,
      "lat": 12.8980516,
      "lon": 77.6339279,
      "tags": {
        "addr:district": "Bengaluru Rural",
        "addr:full": "Sri Murthy Complex, No.43, Garvey Bhav Palya Hongasandra Village Begur, Hosur Main Road Bommanahalli, Hobli",
        "addr:postcode": "560068",
        "addr:state": "Karnataka",
        "amenity": "hospital",
        "name": "Vasan Eye Care Hospital",
        "source": "OpenGovernmentData"
      }
    },
    {
      "type": "node",
      "id": 11782289126,
      "lat": 12.8933895,
      "lon": 77.6368614,
      "tags": {
        "amenity": "hospital",
        "check_date": "2024-04-03",
        "healthcare": "hospital",
        "name": "Sai Sparsh Hospital",
        "source": "survey"
      }
    },
    {
      "type": "node",
      "id": 12169926378,
      "lat": 12.9020188,
      "lon": 77.6280837,
      "tags": {
        "access": "private",
        "amenity": "parking_entrance",
        "parking": "underground"
      }
    },
    {
      "type": "node",
      "id": 12169926381,
      "lat": 12.9020676,
      "lon": 77.6280706,
      "tags": {
        "access": "private",
        "amenity": "parking_entrance",
        "parking": "underground"
      }
    },
    {
      "type": "node",
      "id": 12509140575,
      "lat": 12.8984795,
      "lon": 77.63373,
      "tags": {
        "name": "Brand Factory",
        "shop": "clothes"
      }
    },
    {
      "type": "node",
      "id": 12706360455,
      "lat": 12.8978489,
      "lon": 77.6340857,
      "tags": {
        "brand": "cult.fit",
        "brand:wikidata": "Q121289250",
        "check_date": "2025-03-28",
        "leisure": "fitness_centre",
        "name": "cult.fit"
      }
    },
    {
      "type": "node",
      "id": 12706360457,
      "lat": 12.8925686,
      "lon": 77.637438,
      "tags": {
        "amenity": "place_of_worship",
        "check_date": "2025-03-28",
        "religion": "hindu"
      }
    },
    {
      "type": "node",
      "id": 12969068326,
      "lat": 12.901794,
      "lon": 77.6302877,
      "tags": {
        "access": "private",
        "amenity": "parking_entrance",
        "parking": "underground"
      }
    },
    {
      "type": "node",
      "id": 12969068367,
      "lat": 12.9014633,
      "lon": 77.631547,
      "tags": {
        "access": "private",
        "amenity": "parking_entrance",
        "parking": "underground"
      }
    },
    {
      "type": "node",
      "id": 13061536102,
      "lat": 12.8949095,
      "lon": 77.633215,
      "tags": {
        "addr:postcode": "560068",
        "addr:street": "3rd cross",
        "name": "Pragya provision store",
        "opening_hours": "24/7",
        "shop": "grocery"
      }
    },
    {
      "type": "node",
      "id": 13070296263,
      "lat": 12.9016463,
      "lon": 77.6319694,
      "tags": {
        "access": "yes",
        "amenity": "motorcycle_parking",
        "capacity": "155",
        "fee": "yes",
        "name": "Hongasandra Metro Parking",
        "operator": "BMRCL",
        "parking": "surface"
      }
    },
    {
      "type": "node",
      "id": 13070296264,
      "lat": 12.8899069,
      "lon": 77.6391631,
      "tags": {
        "access": "yes",
        "amenity": "motorcycle_parking",
        "capacity": "85",
        "fee": "yes",
        "name": "Kudlu Gate Metro Parking",
        "operator": "BMRCL",
        "parking": "surface"
      }
    },
    {
      "type": "node",
      "id": 13277972120,
      "lat": 12.8874274,
      "lon": 77.6382519,
      "tags": {
        "addr:full": "No:919, Bharani Industrial Estate, Kudlu Gate, Chik Begur Road, Off Hosur Road, Bangalore-560068",
        "addr:housenumber": "919",
        "brand": "Škoda",
        "brand:wikidata": "Q29637",
        "name": "Škoda",
        "note": "the source (note) said tafe access",
        "phone": "080-40813900;+919384697317",
        "shop": "car_repair"
      }
    },
    {
      "type": "way",
      "id": 230421683,
      "center": {
        "lat": 12.9029398,
        "lon": 77.6303587
      },
      "tags": {
        "addr:street": "Hosur Road",
        "amenity": "bank",
        "atm": "yes",
        "brand": "ICICI Bank",
        "brand:wikidata": "Q1653258",
        "name": "ICICI Bank",
        "name:en": "ICICI Bank",
        "name:kn": "ಐಸಿಐಸಿಐ ಬ್ಯಾಂಕು",
        "short_name": "ICICI",
        "website": "https://www.icicibank.com"
      }
    },
    {
      "type": "way",
      "id": 236746012,
      "center": {
        "lat": 12.9029006,
        "lon": 77.6277282
      },
      "tags": {
        "amenity": "place_of_worship",
        "religion": "hindu"
      }
    },
    {
      "type": "way",
      "id": 349648491,
      "center": {
        "lat": 12.90101,
        "lon": 77.6309346
      },
      "tags": {
        "amenity": "college",
        "name": "Oxford College"
      }
    },
    {
      "type": "way",
      "id": 678062490,
      "center": {
        "lat": 12.8978289,
        "lon": 77.6320545
      },
      "tags": {
        "leisure": "park",
        "name": "Raja Rajeshwari Apartment Common Area",
        "opening_hours": "24/7"
      }
    },
    {
      "type": "way",
      "id": 678066777,
      "center": {
        "lat": 12.8980981,
        "lon": 77.6338265
      },
      "tags": {
        "amenity": "hospital",
        "healthcare": "hospital"
      }
    },
    {
      "type": "way",
      "id": 1240080104,
      "center": {
        "lat": 12.8902144,
        "lon": 77.6372764
      },
      "tags": {
        "leisure": "park"
      }
    },
    {
      "type": "way",
      "id": 1271883918,
      "center": {
        "lat": 12.8897535,
        "lon": 77.6364946
      },
      "tags": {
        "leisure": "pitch",
        "sport": "basketball"
      }
    },
    {
      "type": "way",
      "id": 1271883919,
      "center": {
        "lat": 12.8896944,
        "lon": 77.6370171
      },
      "tags": {
        "leisure": "playground"
      }
    },
    {
      "type": "way",
      "id": 1271883920,
      "center": {
        "lat": 12.8898333,
        "lon": 77.6362567
      },
      "tags": {
        "leisure": "pitch",
        "sport": "tennis"
      }
    },
    {
      "type": "way",
      "id": 1271883921,
      "center": {
        "lat": 12.900977,
        "lon": 77.6289967
      },
      "tags": {
        "leisure": "playground"
      }
    },
    {
      "type": "way",
      "id": 1271883922,
      "center": {
        "lat": 12.9010749,
        "lon": 77.6285027
      },
      "tags": {
        "access": "private",
        "leisure": "swimming_pool"
      }
    },
    {
      "type": "way",
      "id": 1313718784,
      "center": {
        "lat": 12.901938,
        "lon": 77.6290914
      },
      "tags": {
        "amenity": "theatre",
        "name": "amphitheatre",
        "theatre:type": "amphi"
      }
    },
    {
      "type": "way",
      "id": 1411398439,
      "center": {
        "lat": 12.9010914,
        "lon": 77.629929
      },
      "tags": {
        "access": "private",
        "leisure": "pitch",
        "sport": "tennis"
      }
    },
    {
      "type": "way",
      "id": 1411413005,
      "center": {
        "lat": 12.898837,
        "lon": 77.6334802
      },
      "tags": {
        "amenity": "fuel"
      }
    },
    {
      "type": "way",
      "id": 1421355112,
      "center": {
        "lat": 12.8926669,
        "lon": 77.6371197
      },
      "tags": {
        "amenity": "place_of_worship",
        "building": "yes",
        "religion": "hindu"
      }
    },
    {
      "type": "way",
      "id": 1424372722,
      "center": {
        "lat": 12.903684,
        "lon": 77.6303209
      },
      "tags": {
        "addr:city": "Bommanahalli",
        "addr:district": "Bengaluru",
        "addr:housenumber": "424",
        "addr:postcode": "560068",
        "addr:street": "Hosur Road",
        "amenity": "college",
        "internet_access": "yes",
        "internet_access:fee": "customers",
        "name": "ICAT Design & Media College",
        "website": "https://www.icat.ac.in/"
      }
    },
    {
      "type": "way",
      "id": 1434895411,
      "center": {
        "lat": 12.8903259,
        "lon": 77.6368923
      },
      "tags": {
        "access": "private",
        "leisure": "swimming_pool"
      }
    }
  ]
}