{
  "area_name": "Gayathri Nagara",
  "osm_id": 19883447,
  "osm_type": "relation",
  "place_type": "administrative",
  "amenity_count": 33,
  "amenities": [
    {
      "type": "node",
      "id": 2026076836,
      "lat": 12.9993857,
      "lon": 77.5606403,
      "tags": {
        "addr:district": "Bengaluru Urban",
        "addr:full": "No 3367,5Th Cross, Gayathri Nagar",
        "addr:postcode": "560021",
        "addr:state": "Karnataka",
        "amenity": "hospital",
        "emergency": "yes",
        "name": "Nayak Hospital, Gayathri Nagar",
        "source": "OpenGovernmentData"
      }
    },
    {
      "type": "node",
      "id": 4443504959,
      "lat": 12.9988814,
      "lon": 77.5552883,
      "tags": {
        "addr:city": "bangalore",
        "addr:housenumber": "2941/5",
        "addr:postcode": "560010",
        "addr:street": "Mahakavi Kuvempu Road, 2nd Stage, Rajajinagar, Near Varalaxmi Nursing Home, D-Block, Gayatrinagar, Rajaji Nagar",
        "amenity": "pharmacy",
        "name": "Health Shopee by Manjushree Medicals",
        "phone": "+91 98861 14333"
      }
    },
    {
      "type": "node",
      "id": 4489149510,
      "lat": 12.9982313,
      "lon": 77.5586322,
      "tags": {
        "addr:city": "bangalore",
        "addr:housenumber": "2904",
        "addr:postcode": "560021",
        "addr:street": "Mahakavi Kuvempu Rd, Bhadrappa Layout, Mariappanapalya, Rajaji Nagar",
        "name": "Bismilla Cycle Mart",
        "opening_hours": "10:00-21:30",
        "phone": "+9196862 54320",
        "shop": "sports"
      }
    },
    {
      "type": "node",
      "id": 4490265653,
      "lat": 12.998558,
      "lon": 77.5543175,
      "tags": {
        "addr:city": "bangalore",
        "addr:housenumber": "No 13,",
        "addr:postcode": "560010",
        "addr:street": "Mahakavi Kuvempu Road,D Block,2nd Stage, Rajajinagar",
        "name": "Lakme Salon",
        "name:kn": "ಲಾಕ್ಮೆ",
        "opening_hours": "10:00-20:00",
        "phone": "91 80 33051011",
        "shop": "beauty"
      }
    },
    {
      "type": "node",
      "id": 4586321864,
      "lat": 12.9984348,
      "lon": 77.5530658,
      "tags": {
        "addr:city": "Bangalore",
        "addr:housenumber": "2961",
        "addr:postcode": "560010",
        "addr:street": "Mahakavi Kuvempu Road",
        "amenity": "restaurant",
        "cuisine": "regional",
        "delivery": "yes",
        "name": "Nisarga Family Resturant",
        "opening_hours": "7:00-20:30",
        "phone": "080 23130006"
      }
    },
    {
      "type": "node",
      "id": 4623723102,
      "lat": 12.9988689,
      "lon": 77.5556335,
      "tags": {
        "shop": "mobile_phone"
      }
    },
    {
      "type": "node",
      "id": 5175027878,
      "lat": 12.998422,
      "lon": 77.5532934,
      "tags": {
        "name": "Sangeetha",
        "shop": "electronics"
      }
    },
    {
      "type": "node",
      "id": 5227399590,
      "lat": 12.9983443,
      "lon": 77.5530904,
      "tags": {
        "amenity": "fast_food",
        "name": "Gopal's Pure Veg and Sweets"
      }
    },
    {
      "type": "node",
      "id": 5227399595,
      "lat": 12.9987696,
      "lon": 77.5561682,
      "tags": {
        "name": "Shiva Vision Care",
        "shop": "optician"
      }
    },
    {
      "type": "node",
      "id": 5402307933,
      "lat": 12.9986872,
      "lon": 77.5531093,
      "tags": {
        "amenity": "place_of_worship",
        "religion": "hindu"
      }
    },
    {
      "type": "node",
      "id": 7292235619,
      "lat": 12.9993792,
      "lon": 77.5555868,
      "tags": {
        "amenity": "place_of_worship",
        "religion": "hindu"
      }
    },
    {
      "type": "node",
      "id": 8187962416,
      "lat": 12.9985128,
      "lon": 77.5531829,
      "tags": {
        "addr:full": "1761 Navarang Circle, Rajajinagar, 2nd Stage, Rajajinagar, Bengaluru, Karnataka",
        "addr:state": "Karnataka",
        "amenity": "bank",
        "brand": "Union Bank of India",
        "brand:wikidata": "Q2004078",
        "brand:wikipedia": "en:Union Bank of India",
        "name": "Union Bank of India"
      }
    },
    {
      "type": "node",
      "id": 8187986352,
      "lat": 13.0016601,
      "lon": 77.5584934,
      "tags": {
        "addr:full": "4008/A, 4008/A, E block, 2nd Stage, Rajajinagar, Bengaluru, Karnataka",
        "addr:state": "Karnataka",
        "amenity": "clinic",
        "name": "Dr. Satyananda Clinic"
      }
    },
    {
      "type": "node",
      "id": 8255015074,
      "lat": 12.9999594,
      "lon": 77.5602699,
      "tags": {
        "amenity": "atm",
        "brand": "State Bank of India",
        "brand:wikidata": "Q1340361",
        "name": "State Bank of India",
        "name:kn": "ಎಸ್ ಬಿ ಐ",
        "operator": "State Bank of India",
        "operator:wikidata": "Q1340361",
        "short_name": "SBI"
      }
    },
    {
      "type": "node",
      "id": 9214185086,
      "lat": 12.9984527,
      "lon": 77.5576884,
      "tags": {
        "amenity": "fast_food",
        "brand": "Indira Canteen",
        "brand:wikidata": "Q36164828",
        "cuisine": "south_indian",
        "name": "Indira Canteen",
        "operator": "BBMP",
        "takeaway": "yes"
      }
    },
    {
      "type": "node",
      "id": 9214185087,
      "lat": 12.9988121,
      "lon": 77.5560348,
      "tags": {
        "name": "Amma Pastries Karnataka",
        "shop": "pastry"
      }
    },
    {
      "type": "node",
      "id": 9214185088,
      "lat": 12.9986788,
      "lon": 77.5545019,
      "tags": {
        "shop": "mobile_phone"
      }
    },
    {
      "type": "node",
      "id": 9909999098,
      "lat": 12.9974759,
      "lon": 77.5602881,
      "tags": {
        "name": "Jyothi Kaju Bhavan",
        "shop": "pastry"
      }
    },
    {
      "type": "node",
      "id": 10183518534,
      "lat": 12.9976491,
      "lon": 77.5598998,
      "tags": {
        "amenity": "atm",
        "brand": "Canara Bank",
        "brand:en": "Canara Bank",
        "brand:hi": "केनरा बैंक",
        "brand:kn": "ಕೆನರಾ ಬ್ಯಾಂಕ್",
        "brand:pa": "ਕੇਨਰਾ ਬੈਂਕ",
        "brand:pnb": "کینرا بینک",
        "brand:ur": "کینرا بینک",
        "brand:wikidata": "Q2003777",
        "name:en": "Canara Bank",
        "name:hi": "केनरा बैंक",
        "name:kn": "ಕೆನರಾ ಬ್ಯಾಂಕ್",
        "name:pa": "ਕੇਨਰਾ ਬੈਂਕ",
        "name:pnb": "کینرا بینک",
        "name:ur": "کینرا بینک",
        "operator": "Canara Bank",
        "operator:wikidata": "Q2003777"
      }
    },
    {
      "type": "node",
      "id": 10183518535,
      "lat": 12.9979,
      "lon": 77.5592387,
      "tags": {
        "shop": "furniture"
      }
    },
    {
      "type": "node",
      "id": 10183518536,
      "lat": 12.9983652,
      "lon": 77.5580183,
      "tags": {
        "shop": "bicycle"
      }
    },
    {
      "type": "node",
      "id": 10303872103,
      "lat": 13.0003797,
      "lon": 77.552997,
      "tags": {
        "amenity": "bank",
        "atm": "yes",
        "check_date": "2023-01-02",
        "name": "DCB Bank",
        "name:kn": "ಡಿಸಿಬಿ ಬ್ಯಾಂಕ್",
        "source": "survey"
      }
    },
    {
      "type": "node",
      "id": 10303872104,
      "lat": 13.0008101,
      "lon": 77.5530886,
      "tags": {
        "amenity": "atm",
        "brand": "ICICI Bank",
        "brand:wikidata": "Q1653258",
        "check_date": "2023-01-02",
        "name": "ICICI Bank",
        "name:kn": "ಐಸಿಐಸಿಐ ಬ್ಯಾಂಕು",
        "operator": "ICICI Bank",
        "operator:wikidata": "Q1653258",
        "short_name": "ICICI",
        "source": "survey",
        "wheelchair": "no"
      }
    },
    {
      "type": "node",
      "id": 10303872107,
      "lat": 13.0011678,
      "lon": 77.5532246,
      "tags": {
        "amenity": "restaurant",
        "check_date": "2023-01-02",
        "diet:non-vegetarian": "yes",
        "name": "Savipriya Hindu Military Hotel",
        "source": "survey",
        "wheelchair": "no"
      }
    },
    {
      "type": "node",
      "id": 10303872108,
      "lat": 13.0013824,
      "lon": 77.5532496,
      "tags": {
        "amenity": "pub",
        "check_date": "2023-01-02",
        "name": "Sapthagiri Bar & Restaurant",
        "source": "survey"
      }
    },
    {
      "type": "node",
      "id": 10934276549,
      "lat": 12.9985298,
      "lon": 77.5575603,
      "tags": {
        "amenity": "clinic",
        "name": "Namma Clinic"
      }
    },
    {
      "type": "node",
      "id": 11982389397,
      "lat": 12.9988382,
      "lon": 77.5550964,
      "tags": {
        "amenity": "hospital",
        "check_date": "2024-06-15",
        "healthcare": "hospital",
        "name": "New Varalakshmi Hospital"
      }
    },
    {
      "type": "node",
      "id": 11982389398,
      "lat": 12.9987672,
      "lon": 77.556238,
      "tags": {
        "check_date": "2024-06-15",
        "name": "Specscart",
        "shop": "optician"
      }
    },
    {
      "type": "node",
      "id": 12103825765,
      "lat": 12.9984584,
      "lon": 77.5534988,
      "tags": {
        "check_date": "2024-08-11",
        "name": "Navarang Opticals",
        "shop": "optician"
      }
    },
    {
      "type": "node",
      "id": 12777774171,
      "lat": 12.9983704,
      "lon": 77.5574537,
      "tags": {
        "access": "customers",
        "amenity": "toilets",
        "female": "yes",
        "layer": "1",
        "level": "1",
        "male": "yes",
        "wheelchair": "limited"
      }
    },
    {
      "type": "way",
      "id": 997924004,
      "center": {
        "lat": 12.998356,
        "lon": 77.5584602
      },
      "tags": {
        "alt_name": "Sri Hombegowda PU College",
        "amenity": "college",
        "name": "Mariyappa First Grade College"
      }
    },
    {
      "type": "way",
      "id": 1106630232,
      "center": {
        "lat": 12.9988218,
        "lon": 77.5616587
      },
      "tags": {
        "amenity": "college",
        "name": "Vivekananda College of Law",
        "name:kn": "ವಿವೇಕನಂದ ಕಾನೂನು ಕಾಲೇಜು"
      }
    },
    {
      "type": "way",
      "id": 1195571025,
      "center": {
        "lat": 12.9974456,
        "lon": 77.5604967
      },
      "tags": {
        "amenity": "fuel",
        "brand": "Indian Oil",
        "brand:wikidata": "Q1289348",
        "name": "Indian Oil",
        "name:kn": "ಇಂಡಿಯನ್ ಆಯಿಲ್",
        "operator": "Indian Oil"
      }
    }
  ]
}