{
  "area_name": "Gopalpura",
  "osm_id": 19883275,
  "osm_type": "relation",
  "place_type": "administrative",
  "amenity_count": 99,
  "amenities": [
    {
      "type": "node",
      "id": 663604670,
      "lat": 12.9848514,
      "lon": 77.570647,
      "tags": {
        "amenity": "place_of_worship",
        "name:kn": "ಇಗರ್ಜಿ",
        "religion": "christian",
        "ups_other": "Church"
      }
    },
    {
      "type": "node",
      "id": 663604671,
      "lat": 12.984978,
      "lon": 77.5707314,
      "tags": {
        "amenity": "community_centre",
        "name": "S.C/S.T Welfare assocition"
      }
    },
    {
      "type": "node",
      "id": 663604674,
      "lat": 12.9848155,
      "lon": 77.5707656,
      "tags": {
        "amenity": "place_of_worship",
        "name": "Chamundeshwari Temple",
        "name:kn": "ಚಾಮುಂಡೇಶ್ವರಿ ದೇವಸ್ಥಾನ",
        "religion": "hindu",
        "ups_other": "temple"
      }
    },
    {
      "type": "node",
      "id": 2261284949,
      "lat": 12.9825204,
      "lon": 77.5705174,
      "tags": {
        "amenity": "place_of_worship",
        "name": "Gethsemane Church",
        "name:kn": "ಗೆತ್ಸೆಮನೆ ಚರ್ಚ್",
        "religion": "christian",
        "wheelchair": "no"
      }
    },
    {
      "type": "node",
      "id": 4446599790,
      "lat": 12.9853462,
      "lon": 77.5708101,
      "tags": {
        "addr:city": "bangalore",
        "addr:housenumber": "30",
        "addr:postcode": "560020",
        "addr:street": "1st Main Road, Jai Bheema Nagar, Seshadripuram",
        "amenity": "pharmacy",
        "name": "Brindhavan pharma",
        "phone": "+91 98456 79745"
      }
    },
    {
      "type": "node",
      "id": 5168560647,
      "lat": 12.9828069,
      "lon": 77.5683807,
      "tags": {
        "name": "Adithya Furnitures and Mattresses",
        "shop": "furniture"
      }
    },
    {
      "type": "node",
      "id": 6681215508,
      "lat": 12.9846479,
      "lon": 77.5717284,
      "tags": {
        "amenity": "clinic",
        "name": "Udaya Clinic"
      }
    },
    {
      "type": "node",
      "id": 6947003707,
      "lat": 12.9741253,
      "lon": 77.561823,
      "tags": {
        "addr:district": "Bengaluru Urban",
        "addr:full": "2nd Cross, Magadi Road",
        "addr:postcode": "560023",
        "addr:state": "Karnataka",
        "amenity": "hospital",
        "name": "Magadi Road Maternity Home",
        "source": "OpenGovernmentData"
      }
    },
    {
      "type": "node",
      "id": 7142722761,
      "lat": 12.9736025,
      "lon": 77.5662526,
      "tags": {
        "amenity": "atm",
        "brand": "ICICI Bank",
        "brand:wikidata": "Q1653258",
        "name": "ICICI Bank",
        "operator": "ICICI Bank",
        "operator:wikidata": "Q1653258",
        "short_name": "ICICI"
      }
    },
    {
      "type": "node",
      "id": 7142977657,
      "lat": 12.9772434,
      "lon": 77.5629482,
      "tags": {
        "amenity": "place_of_worship",
        "religion": "hindu"
      }
    },
    {
      "type": "node",
      "id": 7159812509,
      "lat": 12.9730249,
      "lon": 77.5641833,
      "tags": {
        "leisure": "fitness_centre"
      }
    },
    {
      "type": "node",
      "id": 7159812567,
      "lat": 12.9723244,
      "lon": 77.5649303,
      "tags": {
        "amenity": "fast_food",
        "name": "Cafeteria"
      }
    },
    {
      "type": "node",
      "id": 7176651804,
      "lat": 12.9771415,
      "lon": 77.5574429,
      "tags": {
        "access": "private",
        "amenity": "parking"
      }
    },
    {
      "type": "node",
      "id": 8187930005,
      "lat": 12.975994,
      "lon": 77.558578,
      "tags": {
        "addr:full": "Near, 4, Magadi Main Rd, Bhuvaneshwari Nagar, Lakshminarayanapuram, Binnipete, Bengaluru, Karnataka",
        "addr:state": "Karnataka",
        "amenity": "atm",
        "brand": "Axis Bank",
        "brand:wikidata": "Q2003549",
        "name": "Axis Bank",
        "name:kn": "ಆಕ್ಸಿಸ್ ಬ್ಯಾಂಕ್ ಎಟಿಎಂ",
        "operator": "Axis Bank",
        "operator:wikidata": "Q2003549"
      }
    },
    {
      "type": "node",
      "id": 8188058456,
      "lat": 12.974256,
      "lon": 77.5598391,
      "tags": {
        "addr:full": "50, Magadi Road, Mariyappanapalya, Binnipete, Mariyappanapalya, Binnipete, Bengaluru, Karnataka",
        "addr:state": "Karnataka",
        "amenity": "restaurant",
        "name": "Atithi Family Restaurant"
      }
    },
    {
      "type": "node",
      "id": 9632587538,
      "lat": 12.982855,
      "lon": 77.5682066,
      "tags": {
        "amenity": "community_centre",
        "name": "RRR Kalyana Mantapa"
      }
    },
    {
      "type": "node",
      "id": 9632587559,
      "lat": 12.9815782,
      "lon": 77.5634363,
      "tags": {
        "leisure": "amusement_arcade",
        "name": "Funtura"
      }
    },
    {
      "type": "node",
      "id": 10044533384,
      "lat": 12.9813306,
      "lon": 77.5638993,
      "tags": {
        "access": "customers",
        "amenity": "parking_entrance",
        "fee": "yes",
        "parking": "underground"
      }
    },
    {
      "type": "node",
      "id": 10286250881,
      "lat": 12.9813757,
      "lon": 77.5632861,
      "tags": {
        "amenity": "restaurant",
        "name": "Barbeque Nation",
        "name:kn": "ಬರ್ಬಕ್ಯು ನೇಶನ್"
      }
    },
    {
      "type": "node",
      "id": 10286250882,
      "lat": 12.9809386,
      "lon": 77.5633482,
      "tags": {
        "brand": "Westside",
        "level": "1",
        "name": "Westside",
        "shop": "clothes"
      }
    },
    {
      "type": "node",
      "id": 10286250883,
      "lat": 12.981177,
      "lon": 77.563085,
      "tags": {
        "amenity": "cafe",
        "brand": "Starbucks",
        "brand:wikidata": "Q37158",
        "cuisine": "coffee_shop",
        "name": "Starbucks",
        "official_name": "Starbucks Coffee",
        "operator": "Starbucks",
        "takeaway": "yes"
      }
    },
    {
      "type": "node",
      "id": 10286250884,
      "lat": 12.9811856,
      "lon": 77.5631152,
      "tags": {
        "brand": "Pantaloons",
        "brand:wikidata": "Q7131643",
        "level": "1",
        "name": "Pantaloons",
        "shop": "clothes"
      }
    },
    {
      "type": "node",
      "id": 10570929389,
      "lat": 12.9816867,
      "lon": 77.5632835,
      "tags": {
        "amenity": "cinema",
        "brand": "Cinépolis",
        "brand:wikidata": "Q5686673",
        "name": "Cinepolis",
        "screen": "11"
      }
    },
    {
      "type": "node",
      "id": 10763481596,
      "lat": 12.980886,
      "lon": 77.5636738,
      "tags": {
        "air_conditioning": "no",
        "amenity": "pub",
        "indoor_seating": "yes",
        "name": "Plan B",
        "outdoor_seating": "no",
        "smoking": "yes"
      }
    },
    {
      "type": "node",
      "id": 10875208176,
      "lat": 12.9812257,
      "lon": 77.5633806,
      "tags": {
        "brand": "Lulu Hypermarket",
        "brand:wikidata": "Q6702930",
        "changing_table": "no",
        "check_date": "2023-10-23",
        "name": "Lulu Hypermarket",
        "name:kn": "ಲುಲು ಹೈಪರ್ಮಾರ್ಕೆಟ್",
        "name:ml": "ലുലു ഹൈപ്പർമാർക്കറ്റ്",
        "opening_hours": "Mo-Su 10:00-23:00",
        "payment:cash": "yes",
        "payment:credit_cards": "yes",
        "shop": "supermarket",
        "toilets": "yes",
        "toilets:wheelchair": "limited",
        "wheelchair": "limited"
      }
    },
    {
      "type": "node",
      "id": 10924790344,
      "lat": 12.981358,
      "lon": 77.5634763,
      "tags": {
        "addr:city": "Bengaluru",
        "addr:country": "IN",
        "addr:housename": "LuLu Global Mall",
        "addr:postcode": "560023",
        "brand": "Bath & Body Works",
        "brand:wikidata": "Q810773",
        "fixme": "Accurate location inside mall",
        "name": "Bath & Body Works",
        "shop": "cosmetics",
        "website": "https://www.bathandbodyworks.in/"
      }
    },
    {
      "type": "node",
      "id": 11061437779,
      "lat": 12.9814502,
      "lon": 77.5636337,
      "tags": {
        "air_conditioning": "yes",
        "amenity": "pub",
        "indoor_seating": "yes",
        "name": "ToyBoy",
        "outdoor_seating": "no",
        "smoking": "yes",
        "wheelchair": "limited"
      }
    },
    {
      "type": "node",
      "id": 11061437780,
      "lat": 12.9811665,
      "lon": 77.563655,
      "tags": {
        "air_conditioning": "yes",
        "amenity": "pub",
        "indoor_seating": "yes",
        "name": "Badmaash",
        "outdoor_seating": "no",
        "smoking": "no",
        "wheelchair": "limited"
      }
    },
    {
      "type": "node",
      "id": 11061437782,
      "lat": 12.9817102,
      "lon": 77.5636162,
      "tags": {
        "amenity": "restaurant",
        "brand": "Chili's",
        "brand:wikidata": "Q1072948",
        "cuisine": "tex-mex",
        "diet:vegan": "yes",
        "diet:vegetarian": "yes",
        "indoor_seating": "yes",
        "name": "Chili's",
        "official_name": "Chili's Grill & Bar",
        "outdoor_seating": "no"
      }
    },
    {
      "type": "node",
      "id": 11285259370,
      "lat": 12.9816938,
      "lon": 77.5636239,
      "tags": {
        "check_date": "2023-10-23",
        "name": "Reliance Trends",
        "shop": "clothes"
      }
    },
    {
      "type": "node",
      "id": 11285259371,
      "lat": 12.9816085,
      "lon": 77.5636135,
      "tags": {
        "air_conditioning": "yes",
        "amenity": "ice_cream",
        "brand": "Cold Stone Creamery",
        "brand:wikidata": "Q1094923",
        "check_date": "2023-10-23",
        "cuisine": "ice_cream",
        "diet:vegan": "yes",
        "indoor_seating": "yes",
        "name": "Cold Stone Creamery",
        "outdoor_seating": "no",
        "smoking": "no",
        "wheelchair": "yes"
      }
    },
    {
      "type": "node",
      "id": 11285259372,
      "lat": 12.9806797,
      "lon": 77.5635843,
      "tags": {
        "air_conditioning": "yes",
        "amenity": "cafe",
        "brand": "Costa",
        "brand:wikidata": "Q608845",
        "check_date": "2023-10-23",
        "cuisine": "coffee_shop",
        "diet:vegan": "yes",
        "diet:vegetarian": "yes",
        "indoor_seating": "yes",
        "name": "Costa",
        "outdoor_seating": "no",
        "smoking": "no",
        "takeaway": "yes",
        "wheelchair": "limited"
      }
    },
    {
      "type": "node",
      "id": 11285259376,
      "lat": 12.9816046,
      "lon": 77.5637263,
      "tags": {
        "check_date": "2023-10-23",
        "indoor_seating": "yes",
        "name": "Cookie Man",
        "outdoor_seating": "no",
        "shop": "bakery",
        "smoking": "no",
        "wheelchair": "limited"
      }
    },
    {
      "type": "node",
      "id": 11285259377,
      "lat": 12.9815351,
      "lon": 77.5637281,
      "tags": {
        "check_date": "2023-10-23",
        "name": "Arabian Souk",
        "shop": "jewelry",
        "wheelchair": "limited"
      }
    },
    {
      "type": "node",
      "id": 11285259378,
      "lat": 12.9814612,
      "lon": 77.5637297,
      "tags": {
        "check_date": "2023-10-23",
        "name": "Titan World",
        "shop": "watches",
        "wheelchair": "limited"
      }
    },
    {
      "type": "node",
      "id": 11285259379,
      "lat": 12.9814012,
      "lon": 77.5637326,
      "tags": {
        "check_date": "2023-10-23",
        "name": "Titan Eye+",
        "shop": "optician",
        "wheelchair": "limited"
      }
    },
    {
      "type": "node",
      "id": 11285259380,
      "lat": 12.9813348,
      "lon": 77.5637324,
      "tags": {
        "check_date": "2023-10-23",
        "name": "Mia by Tanishq",
        "shop": "jewelry",
        "wheelchair": "limited"
      }
    },
    {
      "type": "node",
      "id": 11285259381,
      "lat": 12.9812823,
      "lon": 77.5637362,
      "tags": {
        "air_conditioning": "yes",
        "amenity": "cafe",
        "brand": "Chai Point",
        "brand:wikidata": "Q28173415",
        "check_date": "2023-10-23",
        "cuisine": "coffee_shop",
        "diet:vegan": "yes",
        "diet:vegetarian": "yes",
        "indoor_seating": "yes",
        "name": "Chai Point",
        "outdoor_seating": "no",
        "smoking": "no",
        "takeaway": "yes",
        "wheelchair": "limited"
      }
    },
    {
      "type": "node",
      "id": 11285259384,
      "lat": 12.9818723,
      "lon": 77.5637939,
      "tags": {
        "amenity": "cafe",
        "check_date": "2023-10-23",
        "name": "Qmin"
      }
    },
    {
      "type": "node",
      "id": 11285259385,
      "lat": 12.9811132,
      "lon": 77.5637769,
      "tags": {
        "amenity": "toilets",
        "check_date": "2023-10-23"
      }
    },
    {
      "type": "node",
      "id": 11285259386,
      "lat": 12.9810543,
      "lon": 77.5637333,
      "tags": {
        "check_date": "2023-10-23",
        "name": "Alma Casino",
        "shop": "jewelry"
      }
    },
    {
      "type": "node",
      "id": 11285259387,
      "lat": 12.9810048,
      "lon": 77.5637338,
      "tags": {
        "check_date": "2023-10-23",
        "name": "Swa Diamonds",
        "shop": "jewelry"
      }
    },
    {
      "type": "node",
      "id": 11285259388,
      "lat": 12.980941,
      "lon": 77.5637369,
      "tags": {
        "check_date": "2023-10-23",
        "name": "Lens Magic",
        "shop": "optician"
      }
    },
    {
      "type": "node",
      "id": 11285259389,
      "lat": 12.9808798,
      "lon": 77.5636522,
      "tags": {
        "amenity": "waste_basket"
      }
    },
    {
      "type": "node",
      "id": 11293554462,
      "lat": 12.9811091,
      "lon": 77.563085,
      "tags": {
        "amenity": "fast_food",
        "brand": "Subway",
        "brand:wikidata": "Q244457",
        "cuisine": "sandwich",
        "level": "3",
        "name": "Subway",
        "takeaway": "yes"
      }
    },
    {
      "type": "node",
      "id": 11293554463,
      "lat": 12.9810019,
      "lon": 77.5630863,
      "tags": {
        "amenity": "restaurant",
        "brand": "Pizza Hut",
        "brand:wikidata": "Q191615",
        "cuisine": "pizza",
        "level": "3",
        "name": "Pizza Hut"
      }
    },
    {
      "type": "node",
      "id": 11293554464,
      "lat": 12.9808974,
      "lon": 77.5630943,
      "tags": {
        "amenity": "fast_food",
        "level": "3",
        "name": "Naga's"
      }
    },
    {
      "type": "node",
      "id": 11293554465,
      "lat": 12.9807915,
      "lon": 77.5631037,
      "tags": {
        "amenity": "fast_food",
        "brand": "McDonald's",
        "brand:wikidata": "Q38076",
        "cuisine": "burger",
        "level": "3",
        "name": "McDonald's",
        "takeaway": "yes"
      }
    },
    {
      "type": "node",
      "id": 11293554466,
      "lat": 12.980683,
      "lon": 77.5631681,
      "tags": {
        "alt_name": "Kentucky Fried Chicken",
        "alt_name:en": "Kentucky Fried Chicken",
        "alt_name:hi": "केंटुकी फ्राइड चिकन",
        "alt_name:pa": "ਕੈਂਟੁਕੀ ਫ੍ਰਾਈਡ ਚਿਕਨ",
        "alt_name:pnb": "کینٹکی فرائیڈ چکن",
        "alt_name:ur": "کینٹکی فرائیڈ چکن",
        "amenity": "fast_food",
        "brand": "KFC",
        "brand:en": "KFC",
        "brand:hi": "केएफसी",
        "brand:pa": "ਕੇਐਫਸੀ",
        "brand:pnb": "کے ایف سی",
        "brand:ur": "کے ایف سی",
        "brand:wikidata": "Q524757",
        "cuisine": "chicken",
        "level": "3",
        "name": "KFC",
        "name:en": "KFC",
        "name:hi": "केएफसी",
        "name:pa": "ਕੇਐਫਸੀ",
        "name:pnb": "کے ایف سی",
        "name:ur": "کے ایف سی",
        "takeaway": "yes"
      }
    },
    {
      "type": "node",
      "id": 11293554467,
      "lat": 12.9806791,
      "lon": 77.5632673,
      "tags": {
        "amenity": "fast_food",
        "brand": "Domino's",
        "brand:wikidata": "Q839466",
        "cuisine": "pizza",
        "level": "3",
        "name": "Domino's",
        "takeaway": "yes"
      }
    },
    {
      "type": "node",
      "id": 11293554468,
      "lat": 12.9806804,
      "lon": 77.5633706,
      "tags": {
        "amenity": "fast_food",
        "brand": "Taco Bell",
        "brand:wikidata": "Q752941",
        "cuisine": "tex-mex",
        "level": "3",
        "name": "Taco Bell",
        "name:kn": "ಟಾಕೊ ಬೆಲ್",
        "takeaway": "yes"
      }
    },
    {
      "type": "node",
      "id": 11293599069,
      "lat": 12.9817167,
      "lon": 77.5637005,
      "tags": {
        "air_conditioning": "no",
        "amenity": "restaurant",
        "brand": "Punjab Grill",
        "brand:wikidata": "Q124374761",
        "cuisine": "north_indian",
        "delivery": "yes",
        "diet:vegan": "yes",
        "diet:vegetarian": "yes",
        "indoor_seating": "yes",
        "level": "3",
        "name": "Punjab Grill",
        "outdoor_seating": "no",
        "takeaway": "yes"
      }
    },
    {
      "type": "node",
      "id": 11293599070,
      "lat": 12.9811313,
      "lon": 77.5637347,
      "tags": {
        "air_conditioning": "yes",
        "amenity": "fast_food",
        "brand": "Popeyes",
        "brand:wikidata": "Q1330910",
        "brand:wikipedia": "en:Popeyes",
        "cuisine": "chicken",
        "delivery": "yes",
        "diet:vegan": "yes",
        "diet:vegetarian": "yes",
        "indoor_seating": "yes",
        "level": "3",
        "name": "Popeyes",
        "official_name": "Popeyes Louisiana Kitchen",
        "outdoor_seating": "no",
        "smoking": "no",
        "takeaway": "yes",
        "website": "https://www.popeyes.in/",
        "wikipedia": "en:Popeyes Louisiana Kitchen"
      }
    },
    {
      "type": "node",
      "id": 11293599093,
      "lat": 12.9813286,
      "lon": 77.5639473,
      "tags": {
        "access": "customers",
        "amenity": "parking_entrance",
        "fee": "yes",
        "parking": "underground"
      }
    },
    {
      "type": "node",
      "id": 11293610821,
      "lat": 12.9813391,
      "lon": 77.5631426,
      "tags": {
        "level": "1",
        "name": "LuLu Fashion Store",
        "shop": "clothes"
      }
    },
    {
      "type": "node",
      "id": 11293610849,
      "lat": 12.9807236,
      "lon": 77.5635959,
      "tags": {
        "level": "1",
        "name": "Nykaa",
        "shop": "beauty",
        "wheelchair": "limited"
      }
    },
    {
      "type": "node",
      "id": 11293610851,
      "lat": 12.9809777,
      "lon": 77.5637025,
      "tags": {
        "amenity": "waste_basket"
      }
    },
    {
      "type": "node",
      "id": 11293610858,
      "lat": 12.981735,
      "lon": 77.5636918,
      "tags": {
        "amenity": "waste_basket"
      }
    },
    {
      "type": "node",
      "id": 11341163858,
      "lat": 12.9788842,
      "lon": 77.5630729,
      "tags": {
        "access": "permissive",
        "amenity": "parking",
        "parking": "surface"
      }
    },
    {
      "type": "node",
      "id": 11341163859,
      "lat": 12.9789201,
      "lon": 77.5635611,
      "tags": {
        "access": "permissive",
        "amenity": "parking",
        "parking": "surface"
      }
    },
    {
      "type": "node",
      "id": 11341218829,
      "lat": 12.9762285,
      "lon": 77.5644702,
      "tags": {
        "amenity": "waste_basket"
      }
    },
    {
      "type": "node",
      "id": 11341218837,
      "lat": 12.9760261,
      "lon": 77.5646252,
      "tags": {
        "amenity": "waste_basket"
      }
    },
    {
      "type": "node",
      "id": 12082134090,
      "lat": 12.9810583,
      "lon": 77.5630873,
      "tags": {
        "name": "Beardo",
        "shop": "cosmetics"
      }
    },
    {
      "type": "node",
      "id": 12082134091,
      "lat": 12.9806822,
      "lon": 77.5634649,
      "tags": {
        "name": "Frockwala",
        "shop": "clothes"
      }
    },
    {
      "type": "node",
      "id": 12082134092,
      "lat": 12.9809974,
      "lon": 77.5634144,
      "tags": {
        "amenity": "ice_cream",
        "level": "3",
        "name": "Amul"
      }
    },
    {
      "type": "node",
      "id": 12082134093,
      "lat": 12.9809025,
      "lon": 77.5634072,
      "tags": {
        "amenity": "fast_food",
        "level": "3",
        "name": "Samosa Singh"
      }
    },
    {
      "type": "node",
      "id": 12082134094,
      "lat": 12.9807947,
      "lon": 77.5634108,
      "tags": {
        "amenity": "fast_food",
        "cuisine": "pizza",
        "level": "3",
        "name": "Gopizza"
      }
    },
    {
      "type": "node",
      "id": 12118829822,
      "lat": 12.9742859,
      "lon": 77.566349,
      "tags": {
        "addr:street": "Tank Bund Road",
        "amenity": "bank",
        "brand": "Axis Bank",
        "brand:wikidata": "Q2003549",
        "name": "Axis Bank"
      }
    },
    {
      "type": "node",
      "id": 12856900606,
      "lat": 12.9758922,
      "lon": 77.5660729,
      "tags": {
        "access": "permissive",
        "addr:floor": "-1",
        "amenity": "toilets",
        "female": "yes",
        "fixme": "Accurate location within station",
        "level": "-1",
        "male": "yes",
        "operator": "BMRCL",
        "toilets:handwashing": "yes",
        "toilets:position": "urinal"
      }
    },
    {
      "type": "node",
      "id": 13288507138,
      "lat": 12.981396,
      "lon": 77.5630786,
      "tags": {
        "amenity": "pub",
        "name": "The Beer Social"
      }
    },
    {
      "type": "way",
      "id": 53859295,
      "center": {
        "lat": 12.9798353,
        "lon": 77.5651105
      },
      "tags": {
        "amenity": "hospital",
        "name": "Railways Hospital",
        "name:kn": "ರೈಲ್ವೇ ಆಸ್ಪತ್ರೆ"
      }
    },
    {
      "type": "way",
      "id": 53859310,
      "center": {
        "lat": 12.9810875,
        "lon": 77.5676523
      },
      "tags": {
        "amenity": "school",
        "brand": "Kendriya Vidyalaya",
        "brand:wikidata": "Q1156653",
        "name": "Kendriya Vidyalaya",
        "name:kn": "ಕೇಂದ್ರಿಯ ವಿದ್ಯಾಲಯ",
        "operator:type": "government_non_profit"
      }
    },
    {
      "type": "way",
      "id": 53859313,
      "center": {
        "lat": 12.9764135,
        "lon": 77.5636204
      },
      "tags": {
        "amenity": "college",
        "name": "Bapuji College",
        "name:kn": "ಬಾಪುಜಿ ಕಾಲೇಜು"
      }
    },
    {
      "type": "way",
      "id": 53859326,
      "center": {
        "lat": 12.9768069,
        "lon": 77.5661655
      },
      "tags": {
        "amenity": "place_of_worship",
        "religion": "christian"
      }
    },
    {
      "type": "way",
      "id": 166612472,
      "center": {
        "lat": 12.976003,
        "lon": 77.5550008
      },
      "tags": {
        "access": "yes",
        "amenity": "parking",
        "fee": "yes",
        "operator": "BMRCL",
        "parking": "surface"
      }
    },
    {
      "type": "way",
      "id": 166612475,
      "center": {
        "lat": 12.9746944,
        "lon": 77.5621754
      },
      "tags": {
        "amenity": "school"
      }
    },
    {
      "type": "way",
      "id": 182819734,
      "center": {
        "lat": 12.9720375,
        "lon": 77.5661415
      },
      "tags": {
        "addr:housename": "Binnyston Garden",
        "addr:housenumber": "2",
        "addr:street": "Magadi Road",
        "landuse": "commercial",
        "name": "Cauvery Ford",
        "name:kn": "ಕಾವೇರಿ ಫೊರ್ಡ್",
        "shop": "car",
        "website": "https://www.cauveryford.com/"
      }
    },
    {
      "type": "way",
      "id": 182821650,
      "center": {
        "lat": 12.9760796,
        "lon": 77.5628215
      },
      "tags": {
        "name": "Shri Venkateshwara Silks",
        "shop": "clothes"
      }
    },
    {
      "type": "way",
      "id": 337987686,
      "center": {
        "lat": 12.9744546,
        "lon": 77.5640222
      },
      "tags": {
        "amenity": "hospital",
        "healthcare": "hospital",
        "name": "Leprosy Hospital"
      }
    },
    {
      "type": "way",
      "id": 346528436,
      "center": {
        "lat": 12.9737092,
        "lon": 77.5666154
      },
      "tags": {
        "amenity": "place_of_worship",
        "building": "yes",
        "name": "Angalaparameshwari Temple",
        "name:kn": "ಅಂಗಾಲಪರಮೇಶ್ವರಿ ದೇವಸ್ಥಾನ",
        "religion": "hindu"
      }
    },
    {
      "type": "way",
      "id": 440327193,
      "center": {
        "lat": 12.9723247,
        "lon": 77.5646027
      },
      "tags": {
        "leisure": "swimming_pool"
      }
    },
    {
      "type": "way",
      "id": 764600966,
      "center": {
        "lat": 12.977679,
        "lon": 77.5635352
      },
      "tags": {
        "access": "private",
        "leisure": "swimming_pool"
      }
    },
    {
      "type": "way",
      "id": 766601985,
      "center": {
        "lat": 12.9729922,
        "lon": 77.5662151
      },
      "tags": {
        "access": "permissive",
        "amenity": "parking",
        "name": "Visitor's Parking",
        "parking": "surface"
      }
    },
    {
      "type": "way",
      "id": 766601987,
      "center": {
        "lat": 12.973234,
        "lon": 77.564355
      },
      "tags": {
        "leisure": "pitch",
        "name": "Badminton Court",
        "sport": "badminton"
      }
    },
    {
      "type": "way",
      "id": 766601988,
      "center": {
        "lat": 12.9732617,
        "lon": 77.5644791
      },
      "tags": {
        "leisure": "pitch",
        "name": "Tennis Court",
        "name:kn": "ಟೆನ್ನಿಸ್ ಅಂಗಣ",
        "sport": "tennis"
      }
    },
    {
      "type": "way",
      "id": 766601989,
      "center": {
        "lat": 12.9726916,
        "lon": 77.5635007
      },
      "tags": {
        "leisure": "pitch",
        "name": "Skate Park",
        "sport": "skateboard"
      }
    },
    {
      "type": "way",
      "id": 766601992,
      "center": {
        "lat": 12.9730494,
        "lon": 77.5631812
      },
      "tags": {
        "leisure": "pitch",
        "name": "Basketball Court",
        "name:kn": "ಬಾಸ್ಕೆಟ್ ಬಾಲ್ ಅಂಕಣ",
        "sport": "basketball"
      }
    },
    {
      "type": "way",
      "id": 766604290,
      "center": {
        "lat": 12.9781752,
        "lon": 77.5627983
      },
      "tags": {
        "leisure": "pitch",
        "name": "Tennis Court",
        "name:kn": "ಟೆನ್ನಿಸ್ ಅಂಗಣ",
        "sport": "tennis"
      }
    },
    {
      "type": "way",
      "id": 768703827,
      "center": {
        "lat": 12.9767771,
        "lon": 77.5570604
      },
      "tags": {
        "leisure": "garden"
      }
    },
    {
      "type": "way",
      "id": 768703830,
      "center": {
        "lat": 12.976935,
        "lon": 77.5569343
      },
      "tags": {
        "access": "private",
        "leisure": "swimming_pool"
      }
    },
    {
      "type": "way",
      "id": 796367857,
      "center": {
        "lat": 12.9767096,
        "lon": 77.5649081
      },
      "tags": {
        "amenity": "place_of_worship",
        "religion": "hindu"
      }
    },
    {
      "type": "way",
      "id": 991965856,
      "center": {
        "lat": 12.9780504,
        "lon": 77.5631151
      },
      "tags": {
        "leisure": "park"
      }
    },
    {
      "type": "way",
      "id": 1187741521,
      "center": {
        "lat": 12.9818579,
        "lon": 77.562324
      },
      "tags": {
        "access": "customers",
        "amenity": "motorcycle_parking",
        "parking": "surface"
      }
    },
    {
      "type": "way",
      "id": 1218825664,
      "center": {
        "lat": 12.9820859,
        "lon": 77.5632761
      },
      "tags": {
        "leisure": "park"
      }
    },
    {
      "type": "way",
      "id": 1222725575,
      "center": {
        "lat": 12.9794752,
        "lon": 77.5628191
      },
      "tags": {
        "leisure": "playground"
      }
    },
    {
      "type": "way",
      "id": 1222725576,
      "center": {
        "lat": 12.9793284,
        "lon": 77.5628305
      },
      "tags": {
        "access": "permissive",
        "leisure": "swimming_pool"
      }
    },
    {
      "type": "way",
      "id": 1222725580,
      "center": {
        "lat": 12.9776149,
        "lon": 77.5644233
      },
      "tags": {
        "leisure": "park"
      }
    },
    {
      "type": "way",
      "id": 1352475178,
      "center": {
        "lat": 12.9759236,
        "lon": 77.5573789
      },
      "tags": {
        "amenity": "fuel"
      }
    },
    {
      "type": "way",
      "id": 1352475182,
      "center": {
        "lat": 12.9761165,
        "lon": 77.5565538
      },
      "tags": {
        "access": "yes",
        "amenity": "parking",
        "fee": "yes",
        "operator": "BMRCL",
        "parking": "surface"
      }
    }
  ]
}