{
  "area_name": "Govindapura",
  "osm_id": 6441441982,
  "osm_type": "node",
  "place_type": "neighbourhood",
  "amenity_count": 102,
  "amenities": [
    {
      "type": "node",
      "id": 1160646223,
      "lat": 13.0376828,
      "lon": 77.6128514,
      "tags": {
        "landuse": "industrial",
        "name": "Mahiti Infotech",
        "name:kn": "ಮಾಹಿತಿ ಇನ್ಫೊಟೆಕ್",
        "shop": "computer"
      }
    },
    {
      "type": "node",
      "id": 1370777376,
      "lat": 13.0317411,
      "lon": 77.611461,
      "tags": {
        "amenity": "atm",
        "fee": "SBM ATM"
      }
    },
    {
      "type": "node",
      "id": 1370777380,
      "lat": 13.0318378,
      "lon": 77.6124561,
      "tags": {
        "amenity": "bench",
        "designation": "BDA Park"
      }
    },
    {
      "type": "node",
      "id": 3207060489,
      "lat": 13.0413885,
      "lon": 77.6223832,
      "tags": {
        "amenity": "restaurant",
        "cuisine": "Hyderabadi_Biryani",
        "name": "Biryani House"
      }
    },
    {
      "type": "node",
      "id": 3207060835,
      "lat": 13.036587,
      "lon": 77.6281147,
      "tags": {
        "shop": "car"
      }
    },
    {
      "type": "node",
      "id": 3328011093,
      "lat": 13.04098,
      "lon": 77.6243953,
      "tags": {
        "addr:city": "Bengaluru",
        "addr:postcode": "560045",
        "addr:street": "Thanisandra Main Road",
        "amenity": "restaurant",
        "brand": "Adyar Ananda Bhavan",
        "brand:wikidata": "Q15178238",
        "cuisine": "regional",
        "name": "Adyar Ananda Bhavan",
        "name:kn": "ಆದ್ಯಾರ್ ಆನಂದ ಭವನ",
        "phone": "918025448999",
        "shop": "confectionery",
        "website": "https://aabsweets.com"
      }
    },
    {
      "type": "node",
      "id": 4504293889,
      "lat": 13.0400011,
      "lon": 77.6256898,
      "tags": {
        "name": "HKGN Stores",
        "name:en": "HKGN Stores",
        "shop": "convenience"
      }
    },
    {
      "type": "node",
      "id": 4973098285,
      "lat": 13.0408726,
      "lon": 77.620387,
      "tags": {
        "amenity": "fast_food",
        "brand": "Domino's",
        "brand:ks": "ڈومینوز",
        "brand:pa": "ਡੋਮੀਨੋਜ਼",
        "brand:ur": "ڈومینوز",
        "brand:wikidata": "Q839466",
        "brand:wikipedia": "en:Domino's Pizza",
        "check_date": "2025-06-14",
        "cuisine": "pizza",
        "name": "Domino's",
        "name:ks": "ڈومینوز",
        "name:pa": "ਡੋਮੀਨੋਜ਼",
        "name:ur": "ڈومینوز",
        "takeaway": "yes"
      }
    },
    {
      "type": "node",
      "id": 4973098286,
      "lat": 13.0408987,
      "lon": 77.6207343,
      "tags": {
        "amenity": "fast_food",
        "name": "Meghana Biryani"
      }
    },
    {
      "type": "node",
      "id": 4973098288,
      "lat": 13.041096,
      "lon": 77.623894,
      "tags": {
        "name": "Idea",
        "name:kn": "ಐಡಿಯಾ",
        "shop": "mobile_phone"
      }
    },
    {
      "type": "node",
      "id": 4973098289,
      "lat": 13.0410176,
      "lon": 77.624008,
      "tags": {
        "name": "Diamond Beauty Parlour",
        "shop": "beauty"
      }
    },
    {
      "type": "node",
      "id": 4973098291,
      "lat": 13.0412607,
      "lon": 77.6245538,
      "tags": {
        "name": "Chef Baker's",
        "shop": "bakery"
      }
    },
    {
      "type": "node",
      "id": 5286949431,
      "lat": 13.0413718,
      "lon": 77.6218064,
      "tags": {
        "amenity": "fuel",
        "brand": "Indian Oil",
        "brand:wikidata": "Q1289348",
        "brand:wikipedia": "en:Indian Oil Corporation",
        "name": "Indian Oil",
        "name:kn": "ಇಂಡಿಯನ್ ಆಯಿಲ್"
      }
    },
    {
      "type": "node",
      "id": 5286949432,
      "lat": 13.0409375,
      "lon": 77.6223743,
      "tags": {
        "amenity": "atm",
        "brand": "State Bank of India",
        "brand:wikidata": "Q1340361",
        "name": "State Bank of India",
        "operator": "State Bank of India",
        "operator:wikidata": "Q1340361",
        "short_name": "SBI"
      }
    },
    {
      "type": "node",
      "id": 5286949433,
      "lat": 13.0400332,
      "lon": 77.6241619,
      "tags": {
        "amenity": "toilets"
      }
    },
    {
      "type": "node",
      "id": 5295004584,
      "lat": 13.0412616,
      "lon": 77.6149928,
      "tags": {
        "amenity": "place_of_worship",
        "religion": "hindu"
      }
    },
    {
      "type": "node",
      "id": 5966255481,
      "lat": 13.0408554,
      "lon": 77.6244043,
      "tags": {
        "name": "Heena Furnitures",
        "shop": "furniture"
      }
    },
    {
      "type": "node",
      "id": 5966255482,
      "lat": 13.0411194,
      "lon": 77.624478,
      "tags": {
        "amenity": "restaurant",
        "name": "Zaica Dine & Wine"
      }
    },
    {
      "type": "node",
      "id": 5966255483,
      "lat": 13.041054,
      "lon": 77.624476,
      "tags": {
        "amenity": "community_centre",
        "name": "Sapthagiri Party Hall"
      }
    },
    {
      "type": "node",
      "id": 5966255484,
      "lat": 13.0412239,
      "lon": 77.6245156,
      "tags": {
        "amenity": "restaurant",
        "cuisine": "regional",
        "name": "Baithaa"
      }
    },
    {
      "type": "node",
      "id": 6938005237,
      "lat": 13.0370143,
      "lon": 77.6238732,
      "tags": {
        "addr:district": "Bengaluru Urban",
        "addr:full": "#978, 18Th Cross,14Th Main, 5Th Block, 1st Stage,H.B.R.Layout",
        "addr:postcode": "560043",
        "addr:state": "Karnataka",
        "amenity": "hospital",
        "name": "Sri Sai Hospital, Bengaluru Urban",
        "source": "OpenGovernmentData"
      }
    },
    {
      "type": "node",
      "id": 6938695174,
      "lat": 13.0398217,
      "lon": 77.6230843,
      "tags": {
        "addr:district": "Bengaluru Urban",
        "addr:full": "Nagarwara",
        "addr:postcode": "560045",
        "addr:state": "Karnataka",
        "amenity": "hospital",
        "name": "J M J Hospital, Bengaluru Urban",
        "source": "OpenGovernmentData"
      }
    },
    {
      "type": "node",
      "id": 6948432486,
      "lat": 13.0342147,
      "lon": 77.6287343,
      "tags": {
        "addr:street": "Outer Ring Road",
        "check_date": "2025-06-14",
        "name": "Prestige",
        "shop": "houseware"
      }
    },
    {
      "type": "node",
      "id": 6948470987,
      "lat": 13.0355929,
      "lon": 77.6285283,
      "tags": {
        "addr:street": "Outer Ring Road",
        "amenity": "cafe",
        "brand": "Cafe Coffee Day",
        "brand:wikidata": "Q5017235",
        "check_date": "2024-03-04",
        "cuisine": "coffee_shop",
        "name": "Cafe Coffee Day",
        "name:kn": "ಕಫೆ ಕಾಫಿ ಡೇ",
        "payment:cash": "yes",
        "payment:credit_cards": "yes",
        "payment:debit_cards": "yes",
        "source": "survey",
        "takeaway": "yes",
        "wheelchair": "no"
      }
    },
    {
      "type": "node",
      "id": 6948659616,
      "lat": 13.0269276,
      "lon": 77.6227882,
      "tags": {
        "addr:district": "Bengaluru Urban",
        "addr:full": "Lmc 1210 &1211 ,1st Main, 1st Stage, 3Road Block Hbr Layout",
        "addr:postcode": "560001",
        "addr:state": "Karnataka",
        "amenity": "hospital",
        "name": "Avian Medicare and Research Centre",
        "source": "OpenGovernmentData",
        "wheelchair": "yes"
      }
    },
    {
      "type": "node",
      "id": 6950412317,
      "lat": 13.029607,
      "lon": 77.6275328,
      "tags": {
        "addr:district": "Bengaluru Urban",
        "addr:full": "#797, 10Th Main, 1st Stage, 3Road Block, Hbr Layout, Kalyan Nagar Post, Near Hbr Layout-Bda",
        "addr:postcode": "560043",
        "addr:state": "Karnataka",
        "amenity": "clinic",
        "name": "Sakaria Healthcare Pvt. Ltd.",
        "source": "OpenGovernmentData",
        "wheelchair": "yes"
      }
    },
    {
      "type": "node",
      "id": 6961249685,
      "lat": 13.0406981,
      "lon": 77.6242926,
      "tags": {
        "amenity": "bureau_de_change",
        "name": "Currency Exchange"
      }
    },
    {
      "type": "node",
      "id": 7216398518,
      "lat": 13.0406271,
      "lon": 77.6236064,
      "tags": {
        "amenity": "fast_food",
        "cuisine": "burger",
        "name": "Burwinger"
      }
    },
    {
      "type": "node",
      "id": 7216399003,
      "lat": 13.0337466,
      "lon": 77.6288822,
      "tags": {
        "amenity": "bank",
        "atm": "yes",
        "brand": "Axis Bank",
        "brand:wikidata": "Q2003549",
        "check_date": "2025-06-14",
        "name": "Axis Bank",
        "name:kn": "ಆಕ್ಸಿಸ್ ಬ್ಯಾಂಕ್",
        "operator": "Axis Bank",
        "wheelchair": "no"
      }
    },
    {
      "type": "node",
      "id": 7216699835,
      "lat": 13.0412578,
      "lon": 77.6168941,
      "tags": {
        "addr:city": "Bengaluru",
        "addr:country": "IN",
        "addr:street": "Outer Ring Road",
        "addr:suburb": "Nagavara",
        "amenity": "coworking_space",
        "fee": "yes",
        "name": "Workshaala",
        "office": "coworking",
        "website": "https://workshaala.com"
      }
    },
    {
      "type": "node",
      "id": 7216699930,
      "lat": 13.0414329,
      "lon": 77.620731,
      "tags": {
        "amenity": "fast_food",
        "cuisine": "juice",
        "name": "Lassi Shop"
      }
    },
    {
      "type": "node",
      "id": 7232653689,
      "lat": 13.0409247,
      "lon": 77.6225422,
      "tags": {
        "amenity": "fast_food",
        "name": "La Zizone"
      }
    },
    {
      "type": "node",
      "id": 7256985308,
      "lat": 13.0407965,
      "lon": 77.616876,
      "tags": {
        "amenity": "atm",
        "brand": "State Bank of India",
        "brand:wikidata": "Q1340361",
        "operator": "State Bank of India",
        "operator:wikidata": "Q1340361",
        "short_name": "SBI"
      }
    },
    {
      "type": "node",
      "id": 7256985313,
      "lat": 13.040834,
      "lon": 77.6197195,
      "tags": {
        "amenity": "restaurant",
        "name": "Ancient Hyderabad"
      }
    },
    {
      "type": "node",
      "id": 7256985314,
      "lat": 13.0413703,
      "lon": 77.6219407,
      "tags": {
        "amenity": "restaurant",
        "name": "Food Castle"
      }
    },
    {
      "type": "node",
      "id": 7256985323,
      "lat": 13.0361167,
      "lon": 77.6283119,
      "tags": {
        "name": "Urban Habits",
        "shop": "furniture"
      }
    },
    {
      "type": "node",
      "id": 7577248182,
      "lat": 13.037942,
      "lon": 77.62326,
      "tags": {
        "addr:district": "Bengaluru Urban",
        "addr:full": "Bengaluru",
        "addr:postcode": "560045",
        "addr:state": "Karnataka",
        "amenity": "clinic",
        "name": "Chethana Eye Clinic",
        "source": "Local Knowledge"
      }
    },
    {
      "type": "node",
      "id": 7577248211,
      "lat": 13.040826,
      "lon": 77.6189605,
      "tags": {
        "addr:district": "Bengaluru Urban",
        "addr:full": "Nagawara, Bengaluru",
        "addr:postcode": "560045",
        "addr:state": "Karnataka",
        "amenity": "clinic",
        "fixme": "Find actual location",
        "name": "KMC Multispeciality Clinic",
        "source": "Local Knowledge"
      }
    },
    {
      "type": "node",
      "id": 7577248274,
      "lat": 13.0316687,
      "lon": 77.6230459,
      "tags": {
        "addr:district": "Bengaluru Urban",
        "addr:full": "HBR Layout, Bengaluru",
        "addr:postcode": "560043",
        "addr:state": "Karnataka",
        "amenity": "clinic",
        "name": "Jawad ENT Clinic",
        "source": "Local Knowledge"
      }
    },
    {
      "type": "node",
      "id": 7577248277,
      "lat": 13.029101,
      "lon": 77.620568,
      "tags": {
        "addr:district": "Bengaluru Urban",
        "addr:full": "Kadugondanahalli, Bengaluru",
        "addr:postcode": "560045",
        "addr:state": "Karnataka",
        "amenity": "hospital",
        "name": "Pranam Dental Hospital",
        "source": "Local Knowledge"
      }
    },
    {
      "type": "node",
      "id": 8359629929,
      "lat": 13.0354947,
      "lon": 77.6285885,
      "tags": {
        "name": "Furniture Point",
        "shop": "furniture"
      }
    },
    {
      "type": "node",
      "id": 9527967749,
      "lat": 13.0415766,
      "lon": 77.6204588,
      "tags": {
        "amenity": "charging_station"
      }
    },
    {
      "type": "node",
      "id": 9527967763,
      "lat": 13.0414029,
      "lon": 77.6227494,
      "tags": {
        "amenity": "restaurant",
        "name": "Orange Leaf"
      }
    },
    {
      "type": "node",
      "id": 9527967779,
      "lat": 13.0370182,
      "lon": 77.6278442,
      "tags": {
        "amenity": "clinic",
        "name": "Navashakthi Nethralaya"
      }
    },
    {
      "type": "node",
      "id": 9527967810,
      "lat": 13.0311713,
      "lon": 77.6272997,
      "tags": {
        "name": "Coffee Mechanics",
        "shop": "coffee",
        "wheelchair": "yes"
      }
    },
    {
      "type": "node",
      "id": 9590333379,
      "lat": 13.0414094,
      "lon": 77.6215772,
      "tags": {
        "amenity": "restaurant",
        "cuisine": "indian",
        "name": "Biriyani Zone"
      }
    },
    {
      "type": "node",
      "id": 9811266167,
      "lat": 13.0426637,
      "lon": 77.6195428,
      "tags": {
        "addr:city": "Bengaluru",
        "addr:country": "IN",
        "addr:postcode": "560045",
        "addr:street": "Outer Ring Road",
        "addr:suburb": "Nagavara",
        "amenity": "coworking_space",
        "branch": "Manyata",
        "brand": "WeWork",
        "brand:wikidata": "Q19995004",
        "fee": "yes",
        "name": "WeWork Manyata",
        "office": "coworking",
        "opening_hours": "24/7",
        "operator": "WeWork",
        "website": "https://wework.co.in/bangalore/hebbal/manyata-tech-park/"
      }
    },
    {
      "type": "node",
      "id": 10032026861,
      "lat": 13.040585,
      "lon": 77.6196662,
      "tags": {
        "amenity": "restaurant",
        "contact:instagram": "thewoodpegger",
        "name": "The Woodpegger"
      }
    },
    {
      "type": "node",
      "id": 11229746065,
      "lat": 13.0415009,
      "lon": 77.6196219,
      "tags": {
        "amenity": "cafe",
        "brand": "Third Wave Coffee Roasters",
        "brand:wikidata": "Q7785004",
        "cuisine": "coffee_shop",
        "delivery": "yes",
        "name": "Third Wave Coffee Roasters",
        "takeaway": "yes"
      }
    },
    {
      "type": "node",
      "id": 11229746066,
      "lat": 13.0415139,
      "lon": 77.6194583,
      "tags": {
        "amenity": "restaurant",
        "cuisine": "italian",
        "name": "Toscano"
      }
    },
    {
      "type": "node",
      "id": 11475302430,
      "lat": 13.0417334,
      "lon": 77.6196407,
      "tags": {
        "amenity": "pub",
        "contact:instagram": "biergartenbangalore",
        "cuisine": "pizza;regional;sandwich;burger",
        "delivery": "no",
        "name": "Biergarten Brewery & Kitchen",
        "smoking": "isolated",
        "takeaway": "yes"
      }
    },
    {
      "type": "node",
      "id": 11696226868,
      "lat": 13.0419372,
      "lon": 77.6196541,
      "tags": {
        "amenity": "restaurant",
        "name": "Nagavara Social"
      }
    },
    {
      "type": "node",
      "id": 11811087970,
      "lat": 13.0418236,
      "lon": 77.6194368,
      "tags": {
        "amenity": "restaurant",
        "name": "Daily Sushi"
      }
    },
    {
      "type": "node",
      "id": 11811087971,
      "lat": 13.0418536,
      "lon": 77.6196474,
      "tags": {
        "amenity": "restaurant",
        "name": "Bombay Curry House"
      }
    },
    {
      "type": "node",
      "id": 12020449758,
      "lat": 13.0416067,
      "lon": 77.6196259,
      "tags": {
        "air_conditioning": "yes",
        "amenity": "restaurant",
        "cuisine": "mexican",
        "indoor_seating": "yes",
        "name": "Sanchez",
        "opening_hours": "12:00-00:00",
        "outdoor_seating": "no",
        "phone": "+91 96060 71430"
      }
    },
    {
      "type": "node",
      "id": 12027541895,
      "lat": 13.0404766,
      "lon": 77.6191056,
      "tags": {
        "brand": "Zudio",
        "brand:wikidata": "Q123375926",
        "name": "Zudio",
        "shop": "clothes"
      }
    },
    {
      "type": "node",
      "id": 12027541896,
      "lat": 13.0387741,
      "lon": 77.6144426,
      "tags": {
        "amenity": "fast_food",
        "brand": "Indira Canteen",
        "brand:wikidata": "Q36164828",
        "cuisine": "south_indian",
        "name": "Indira Canteen",
        "operator": "BBMP",
        "takeaway": "yes"
      }
    },
    {
      "type": "node",
      "id": 12208504074,
      "lat": 13.040747,
      "lon": 77.6199961,
      "tags": {
        "amenity": "pub",
        "name": "AEIOU"
      }
    },
    {
      "type": "node",
      "id": 12260570015,
      "lat": 13.0420326,
      "lon": 77.6194409,
      "tags": {
        "amenity": "restaurant",
        "cuisine": "regional",
        "name": "Bombay Brasserie"
      }
    },
    {
      "type": "node",
      "id": 12265540383,
      "lat": 13.0381967,
      "lon": 77.6235456,
      "tags": {
        "check_date": "2024-10-19",
        "name": "Sri Iyyengar Bakery",
        "shop": "bakery"
      }
    },
    {
      "type": "node",
      "id": 12265540823,
      "lat": 13.0392401,
      "lon": 77.6237335,
      "tags": {
        "check_date": "2024-10-19",
        "name": "Green Mobille Enterprises",
        "shop": "mobile_phone"
      }
    },
    {
      "type": "node",
      "id": 12265540824,
      "lat": 13.0392724,
      "lon": 77.6239011,
      "tags": {
        "check_date": "2024-10-19",
        "name": "A1 Power Tools And Hardware",
        "shop": "hardware"
      }
    },
    {
      "type": "node",
      "id": 12265540825,
      "lat": 13.0393774,
      "lon": 77.6240079,
      "tags": {
        "check_date": "2024-10-19",
        "name": "Delux Hardware And Paints",
        "shop": "hardware"
      }
    },
    {
      "type": "node",
      "id": 12265548261,
      "lat": 13.0263586,
      "lon": 77.620118,
      "tags": {
        "name": "KH Traders",
        "shop": "hardware"
      }
    },
    {
      "type": "node",
      "id": 12265548493,
      "lat": 13.0358602,
      "lon": 77.6229561,
      "tags": {
        "amenity": "fuel",
        "name": "Bharat Petroleum"
      }
    },
    {
      "type": "node",
      "id": 12265558564,
      "lat": 13.0313563,
      "lon": 77.6209401,
      "tags": {
        "amenity": "school",
        "fixme": "location",
        "name": "St. Frazer High School"
      }
    },
    {
      "type": "node",
      "id": 12265573536,
      "lat": 13.0322329,
      "lon": 77.6216892,
      "tags": {
        "name": "Nova Gold Covering",
        "shop": "jewelry"
      }
    },
    {
      "type": "node",
      "id": 12265573693,
      "lat": 13.0282177,
      "lon": 77.6207124,
      "tags": {
        "amenity": "fuel",
        "name": "Gas Plus"
      }
    },
    {
      "type": "node",
      "id": 12265584625,
      "lat": 13.0348006,
      "lon": 77.6230232,
      "tags": {
        "name": "Uni Gas",
        "shop": "fuel"
      }
    },
    {
      "type": "node",
      "id": 12450977225,
      "lat": 13.0413862,
      "lon": 77.6216592,
      "tags": {
        "amenity": "fast_food",
        "check_date": "2024-12-25",
        "name": "The Taste of Bengal"
      }
    },
    {
      "type": "node",
      "id": 12450977226,
      "lat": 13.0413867,
      "lon": 77.6217785,
      "tags": {
        "amenity": "fast_food",
        "check_date": "2024-12-25",
        "name": "Kakatiya Foods"
      }
    },
    {
      "type": "node",
      "id": 12450977227,
      "lat": 13.0413968,
      "lon": 77.6223288,
      "tags": {
        "check_date": "2024-12-25",
        "name": "The Liquor Store",
        "shop": "alcohol"
      }
    },
    {
      "type": "node",
      "id": 12450999452,
      "lat": 13.0378554,
      "lon": 77.6266436,
      "tags": {
        "amenity": "dentist",
        "check_date": "2024-12-25",
        "healthcare": "dentist",
        "name": "Plaza Dental Care"
      }
    },
    {
      "type": "node",
      "id": 12461000329,
      "lat": 13.0416197,
      "lon": 77.6194652,
      "tags": {
        "amenity": "cafe",
        "brand": "Theobroma",
        "brand:wikidata": "Q124374469",
        "delivery": "yes",
        "name": "Theobroma",
        "shop": "pastry",
        "takeaway": "yes"
      }
    },
    {
      "type": "node",
      "id": 12461000330,
      "lat": 13.0420275,
      "lon": 77.6196581,
      "tags": {
        "addr:city": "Bangalore",
        "addr:country": "IN",
        "addr:place": "Manyata Tech Park",
        "addr:suburb": "Nagavara",
        "amenity": "restaurant",
        "contact:facebook": "nasiandmee",
        "contact:instagram": "nasiandmee",
        "cuisine": "asian",
        "delivery": "yes",
        "name": "Nasi and Mee",
        "official_name": "Nasi and Mee Asian Canteen",
        "outdoor_seating": "yes",
        "takeaway": "yes",
        "website": "https://www.nasiandmee.co.in/"
      }
    },
    {
      "type": "node",
      "id": 12570933738,
      "lat": 13.040249,
      "lon": 77.6241636,
      "tags": {
        "access": "yes",
        "amenity": "toilets",
        "fee": "yes"
      }
    },
    {
      "type": "node",
      "id": 12622264508,
      "lat": 13.0400691,
      "lon": 77.624792,
      "tags": {
        "addr:city": "Bengaluru",
        "addr:district": "Bengaluru Urban",
        "addr:full": "Image diagnostics,#1073,2nd floor, Nagawara signal, 5th Block, 1st Stage, HBR Layout, Bengaluru, Karnataka 560045",
        "addr:postcode": "560045",
        "addr:street": "Nagawara Main Road",
        "amenity": "dentist",
        "healthcare": "dentist",
        "healthcare:speciality": "orthodontics;general;per;periodontist;implantologist",
        "name": "EVA Esthetic & Implant Dental Centre",
        "opening_hours": "24/7",
        "operator": "Dr John James",
        "website": "https://evaestheticandimplantdental.com/"
      }
    },
    {
      "type": "node",
      "id": 12918743589,
      "lat": 13.0349489,
      "lon": 77.6289414,
      "tags": {
        "check_date": "2025-06-15",
        "name": "Nilambur Furniture",
        "shop": "furniture"
      }
    },
    {
      "type": "way",
      "id": 37692459,
      "center": {
        "lat": 13.0352768,
        "lon": 77.6264044
      },
      "tags": {
        "boundary": "protected_area",
        "leisure": "nature_reserve",
        "name": "Hennur Biodiversity Park",
        "name:kn": "ಹೆಣ್ಣೂರು ಕೆರೆ ಜೀವ ವೈವಿಧ್ಯ ವನ",
        "natural": "wood"
      }
    },
    {
      "type": "way",
      "id": 175876882,
      "center": {
        "lat": 13.0241073,
        "lon": 77.6148515
      },
      "tags": {
        "addr:postcode": "560045",
        "alt_name": "Ambedkar Medical College",
        "amenity": "college",
        "landuse": "education",
        "name": "Dr. Ambedkar Medical College",
        "name:etymology:wikidata": "Q231690",
        "name:kn": "ಅಂಬೇಡ್ಕರ್ ವೈದ್ಯಕೀಯ ಕಾಲೇಜು"
      }
    },
    {
      "type": "way",
      "id": 183863413,
      "center": {
        "lat": 13.0304973,
        "lon": 77.6223395
      },
      "tags": {
        "addr:street": "Nagawara Main Road",
        "amenity": "college",
        "name": "Darul Uloom Sabeelur Rashad Arabic College"
      }
    },
    {
      "type": "way",
      "id": 184943581,
      "center": {
        "lat": 13.0362002,
        "lon": 77.619781
      },
      "tags": {
        "amenity": "college",
        "landuse": "education",
        "name": "HKBK College of Engineering",
        "name:kn": "ಎಚ್ ಕೆ ಬಿ ಕೆ ಇಂಜಿನಿಯರಿಂಗ್ ಕಾಲೇಜು",
        "wheelchair": "yes"
      }
    },
    {
      "type": "way",
      "id": 188030764,
      "center": {
        "lat": 13.032747,
        "lon": 77.6293274
      },
      "tags": {
        "leisure": "park",
        "name": "BDA Park"
      }
    },
    {
      "type": "way",
      "id": 346726965,
      "center": {
        "lat": 13.0350694,
        "lon": 77.6198957
      },
      "tags": {
        "amenity": "restaurant",
        "building": "yes",
        "name": "HKBK Hostel Mess"
      }
    },
    {
      "type": "way",
      "id": 772906283,
      "center": {
        "lat": 13.03797,
        "lon": 77.6253276
      },
      "tags": {
        "access": "yes",
        "leisure": "playground",
        "name": "Dr. B R Ambedkar Play Ground"
      }
    },
    {
      "type": "way",
      "id": 772934838,
      "center": {
        "lat": 13.0420137,
        "lon": 77.6166973
      },
      "tags": {
        "access": "customers",
        "amenity": "parking",
        "parking": "surface"
      }
    },
    {
      "type": "way",
      "id": 772934839,
      "center": {
        "lat": 13.0391538,
        "lon": 77.6183077
      },
      "tags": {
        "amenity": "school",
        "check_date": "2025-06-14",
        "name": "The Indian Public School"
      }
    },
    {
      "type": "way",
      "id": 772934851,
      "center": {
        "lat": 13.0414443,
        "lon": 77.6205262
      },
      "tags": {
        "alt_name": "Jay Hanuman Service Station",
        "amenity": "fuel",
        "brand": "Indian Oil",
        "brand:wikidata": "Q1289348",
        "building": "roof",
        "layer": "1",
        "name": "Indian Oil",
        "name:kn": "ಇಂಡಿಯನ್ ಆಯಿಲ್",
        "operator": "Indian Oil"
      }
    },
    {
      "type": "way",
      "id": 775442577,
      "center": {
        "lat": 13.0385501,
        "lon": 77.6132302
      },
      "tags": {
        "amenity": "school"
      }
    },
    {
      "type": "way",
      "id": 777618530,
      "center": {
        "lat": 13.0350964,
        "lon": 77.6279689
      },
      "tags": {
        "access": "yes",
        "leisure": "playground"
      }
    },
    {
      "type": "way",
      "id": 1034261995,
      "center": {
        "lat": 13.0425565,
        "lon": 77.620035
      },
      "tags": {
        "amenity": "events_venue",
        "building": "yes",
        "name": "Manyata Convention Centre"
      }
    },
    {
      "type": "way",
      "id": 1034261996,
      "center": {
        "lat": 13.0318789,
        "lon": 77.6126193
      },
      "tags": {
        "leisure": "park"
      }
    },
    {
      "type": "way",
      "id": 1186887011,
      "center": {
        "lat": 13.0422377,
        "lon": 77.6169516
      },
      "tags": {
        "amenity": "events_venue",
        "landuse": "commercial",
        "name": "Manpho Convention Centre"
      }
    },
    {
      "type": "way",
      "id": 1262435451,
      "center": {
        "lat": 13.0357385,
        "lon": 77.620272
      },
      "tags": {
        "access": "students",
        "leisure": "pitch",
        "lit": "yes",
        "name": "HKBK basketball court",
        "sport": "basketball"
      }
    },
    {
      "type": "way",
      "id": 1262435886,
      "center": {
        "lat": 13.0375699,
        "lon": 77.6196888
      },
      "tags": {
        "amenity": "parking",
        "operator": "HKBK",
        "operator:type": "university",
        "parking": "surface",
        "surface": "paved"
      }
    },
    {
      "type": "way",
      "id": 1262436364,
      "center": {
        "lat": 13.03761,
        "lon": 77.6193144
      },
      "tags": {
        "leisure": "pitch",
        "lit": "yes",
        "name": "HKBK Football ground",
        "sport": "soccer",
        "surface": "ground"
      }
    },
    {
      "type": "way",
      "id": 1262437141,
      "center": {
        "lat": 13.0352341,
        "lon": 77.6200897
      },
      "tags": {
        "amenity": "restaurant",
        "building": "yes",
        "name": "HKBK Mess"
      }
    },
    {
      "type": "way",
      "id": 1262437142,
      "center": {
        "lat": 13.0369675,
        "lon": 77.6197695
      },
      "tags": {
        "amenity": "restaurant",
        "building": "yes",
        "name": "HKBK canteen"
      }
    },
    {
      "type": "way",
      "id": 1284773488,
      "center": {
        "lat": 13.0405542,
        "lon": 77.6185896
      },
      "tags": {
        "amenity": "fuel",
        "fuel:cng": "yes",
        "name": "GAIL Gas Station"
      }
    },
    {
      "type": "way",
      "id": 1298275285,
      "center": {
        "lat": 13.0404094,
        "lon": 77.6159369
      },
      "tags": {
        "access": "private",
        "amenity": "parking",
        "parking": "surface"
      }
    },
    {
      "type": "way",
      "id": 1298275345,
      "center": {
        "lat": 13.0427642,
        "lon": 77.6200805
      },
      "tags": {
        "access": "private",
        "leisure": "swimming_pool"
      }
    },
    {
      "type": "way",
      "id": 1343677903,
      "center": {
        "lat": 13.0425437,
        "lon": 77.6162011
      },
      "tags": {
        "addr:city": "Bengaluru",
        "addr:street": "Outer Ring Road",
        "addr:suburb": "Nagavara",
        "amenity": "pub",
        "capacity": "1500",
        "contact:instagram": "icbindiancraftbrewery",
        "landuse": "commercial",
        "microbrewery": "yes",
        "name": "ICB Indian Craft Brewery",
        "website": "https://icb.beer/"
      }
    }
  ]
}