{
  "area_name": "Gowtham Colony",
  "osm_id": 10667163085,
  "osm_type": "node",
  "place_type": "neighbourhood",
  "amenity_count": 550,
  "amenities": [
    {
      "type": "node",
      "id": 309690273,
      "lat": 12.9604812,
      "lon": 77.6385098,
      "tags": {
        "amenity": "atm",
        "brand": "IDBI Bank",
        "brand:wikidata": "Q3633485",
        "name": "IDBI Bank",
        "operator": "IDBI Bank",
        "operator:wikidata": "Q3633485",
        "short_name": "IDBI"
      }
    },
    {
      "type": "node",
      "id": 312503506,
      "lat": 12.9606568,
      "lon": 77.6385011,
      "tags": {
        "amenity": "restaurant",
        "food": "veg",
        "name": "Shanti Sagar",
        "name:kn": "ಶಾಂತಿ ಸಾಗರ"
      }
    },
    {
      "type": "node",
      "id": 312504711,
      "lat": 12.9588137,
      "lon": 77.6382484,
      "tags": {
        "name": "Family Mall",
        "opening_hours": "Mo-Su,PH 08:00-22:00",
        "shop": "supermarket"
      }
    },
    {
      "type": "node",
      "id": 312504777,
      "lat": 12.9591813,
      "lon": 77.6382984,
      "tags": {
        "addr:city": "Bangalore",
        "addr:postcode": "560071",
        "addr:street": "7th Cross Road",
        "name": "Spencers Express",
        "organic": "yes",
        "shop": "supermarket",
        "website": "https://www.spencers.in/"
      }
    },
    {
      "type": "node",
      "id": 312504798,
      "lat": 12.9595527,
      "lon": 77.638381,
      "tags": {
        "brand": "More",
        "brand:wikidata": "Q6910891",
        "name": "More",
        "name:kn": "ಮೋರ್",
        "opening_hours": "Mo-Su,PH 09:00-21:00",
        "shop": "supermarket"
      }
    },
    {
      "type": "node",
      "id": 312504927,
      "lat": 12.9593353,
      "lon": 77.6385869,
      "tags": {
        "amenity": "fast_food",
        "food": "veg",
        "name": "Srinidhi Sagar",
        "name:kn": "ಶ್ರೀನಿಧಿ ಸಾಗರ"
      }
    },
    {
      "type": "node",
      "id": 312506295,
      "lat": 12.9621752,
      "lon": 77.6373877,
      "tags": {
        "shop": "supermarket"
      }
    },
    {
      "type": "node",
      "id": 312507443,
      "lat": 12.9601717,
      "lon": 77.6387672,
      "tags": {
        "amenity": "pharmacy",
        "created_by": "Potlatch 0.10f"
      }
    },
    {
      "type": "node",
      "id": 312507653,
      "lat": 12.9603255,
      "lon": 77.638371,
      "tags": {
        "amenity": "pharmacy"
      }
    },
    {
      "type": "node",
      "id": 312508904,
      "lat": 12.9619513,
      "lon": 77.6419064,
      "tags": {
        "addr:street": "100 Feet Road",
        "amenity": "restaurant",
        "name": "Nandhini",
        "name:kn": "ನಂದಿನಿ",
        "wheelchair": "no"
      }
    },
    {
      "type": "node",
      "id": 312509585,
      "lat": 12.9601353,
      "lon": 77.6431187,
      "tags": {
        "addr:street": "HAL Airport Road",
        "amenity": "atm",
        "brand": "Axis Bank",
        "brand:wikidata": "Q2003549",
        "name": "Axis Bank",
        "opening_hours": "24/7",
        "operator": "Axis Bank",
        "operator:wikidata": "Q2003549"
      }
    },
    {
      "type": "node",
      "id": 312595359,
      "lat": 12.9559416,
      "lon": 77.6412371,
      "tags": {
        "amenity": "restaurant",
        "brand": "Pizza Hut",
        "brand:wikidata": "Q191615",
        "cuisine": "pizza",
        "name": "Pizza Hut",
        "name:kn": "ಪಿಜಾ ಹಟ್"
      }
    },
    {
      "type": "node",
      "id": 312595492,
      "lat": 12.9558995,
      "lon": 77.6411692,
      "tags": {
        "amenity": "restaurant",
        "name": "Nandhana",
        "name:kn": "ನಂದನ"
      }
    },
    {
      "type": "node",
      "id": 312599850,
      "lat": 12.9608935,
      "lon": 77.6359498,
      "tags": {
        "amenity": "post_office",
        "name": "Domlur Post office",
        "name:kn": "ದೊಮಲೂರು ಅಂಚೆ ಕಚೇರಿ",
        "postal_code": "560071"
      }
    },
    {
      "type": "node",
      "id": 312832762,
      "lat": 12.9621887,
      "lon": 77.6363771,
      "tags": {
        "created_by": "Potlatch 0.10f",
        "shop": "bicycle"
      }
    },
    {
      "type": "node",
      "id": 315524768,
      "lat": 12.9602773,
      "lon": 77.6373781,
      "tags": {
        "amenity": "bank",
        "atm": "yes",
        "name": "Vijaya Bank",
        "name:kn": "ವಿಜಯ ಬ್ಯಾಂಕು"
      }
    },
    {
      "type": "node",
      "id": 316111336,
      "lat": 12.9606833,
      "lon": 77.6381838,
      "tags": {
        "amenity": "bank",
        "atm": "yes",
        "brand": "Union Bank of India",
        "brand:wikidata": "Q2004078",
        "brand:wikipedia": "en:Union Bank of India",
        "name": "Union Bank of India",
        "name:en": "Union Bank of India",
        "name:kn": "ಯೂನಿಯನ್ ಬ್ಯಾಂಕ್",
        "short_name": "UBI",
        "website": "https://www.unionbankofindia.co.in/"
      }
    },
    {
      "type": "node",
      "id": 316993744,
      "lat": 12.9600367,
      "lon": 77.6452495,
      "tags": {
        "addr:street": "HAL Airport Road",
        "amenity": "atm",
        "brand": "Kotak Mahindra Bank",
        "brand:wikidata": "Q2040404",
        "check_date": "2022-07-30",
        "name": "Kotak Mahindra Bank",
        "operator": "Kotak Mahindra Bank",
        "operator:wikidata": "Q2040404"
      }
    },
    {
      "type": "node",
      "id": 316993745,
      "lat": 12.9600398,
      "lon": 77.6452145,
      "tags": {
        "addr:street": "HAL Airport Road",
        "amenity": "atm",
        "brand": "Citibank",
        "brand:wikidata": "Q857063",
        "name": "Citibank",
        "opening_hours": "24/7",
        "operator": "Citibank",
        "operator:wikidata": "Q857063",
        "short_name": "Citi"
      }
    },
    {
      "type": "node",
      "id": 316993808,
      "lat": 12.9600641,
      "lon": 77.6454368,
      "tags": {
        "amenity": "parking",
        "created_by": "Potlatch 0.10f",
        "parking": "street_side"
      }
    },
    {
      "type": "node",
      "id": 316995046,
      "lat": 12.9600171,
      "lon": 77.6454021,
      "tags": {
        "addr:street": "HAL Airport Road",
        "amenity": "pharmacy",
        "name": "Ashwin Pharma"
      }
    },
    {
      "type": "node",
      "id": 316996413,
      "lat": 12.9605409,
      "lon": 77.6372314,
      "tags": {
        "amenity": "pharmacy",
        "brand": "MedPlus",
        "brand:wikidata": "Q65684234",
        "healthcare": "pharmacy",
        "name": "MedPlus",
        "name:kn": "ಮೆಡ್ ಪ್ಲಸ್"
      }
    },
    {
      "type": "node",
      "id": 316996472,
      "lat": 12.9600511,
      "lon": 77.6371358,
      "tags": {
        "amenity": "pharmacy",
        "created_by": "Potlatch 0.10f"
      }
    },
    {
      "type": "node",
      "id": 316996475,
      "lat": 12.9586589,
      "lon": 77.6375328,
      "tags": {
        "amenity": "pharmacy",
        "created_by": "Potlatch 0.10f"
      }
    },
    {
      "type": "node",
      "id": 316996550,
      "lat": 12.9581727,
      "lon": 77.6402029,
      "tags": {
        "amenity": "pharmacy"
      }
    },
    {
      "type": "node",
      "id": 316999234,
      "lat": 12.9651393,
      "lon": 77.6383211,
      "tags": {
        "addr:street": "Paramahansa Yogananda Road",
        "amenity": "restaurant",
        "name": "Simply Native"
      }
    },
    {
      "type": "node",
      "id": 316999364,
      "lat": 12.9637134,
      "lon": 77.6403936,
      "tags": {
        "addr:street": "Indiranagar Double Road",
        "amenity": "fast_food",
        "brand": "Subway",
        "brand:pa": "ਸਬਵੇਅ",
        "brand:ur": "سب وے",
        "brand:wikidata": "Q244457",
        "brand:wikipedia": "en:Subway (restaurant)",
        "cuisine": "sandwich",
        "name": "Subway",
        "name:kn": "ಸಬ್‌ವೇ",
        "name:pa": "ਸਬਵੇਅ",
        "name:ur": "سب وے",
        "takeaway": "yes"
      }
    },
    {
      "type": "node",
      "id": 577386395,
      "lat": 12.9603346,
      "lon": 77.6382904,
      "tags": {
        "amenity": "restaurant",
        "food": "nveg",
        "name": "MintLeaf",
        "name:kn": "ಮಿಂಟ್ ಲೀಫ್"
      }
    },
    {
      "type": "node",
      "id": 710095029,
      "lat": 12.9643756,
      "lon": 77.6371873,
      "tags": {
        "addr:street": "4th Main Road",
        "amenity": "bar",
        "name": "Domlur Club"
      }
    },
    {
      "type": "node",
      "id": 736014185,
      "lat": 12.9622135,
      "lon": 77.6414116,
      "tags": {
        "addr:street": "100 Feet Road( S K Karim Khan Road)",
        "amenity": "restaurant",
        "name": "Barbeque Nation",
        "name:kn": "ಬರ್ಬಕ್ಯೂ ನೇಶನ್",
        "wheelchair": "limited"
      }
    },
    {
      "type": "node",
      "id": 739931005,
      "lat": 12.958125,
      "lon": 77.64049,
      "tags": {
        "shop": "butcher"
      }
    },
    {
      "type": "node",
      "id": 767436684,
      "lat": 12.9602685,
      "lon": 77.6401315,
      "tags": {
        "amenity": "community_centre",
        "name": "Central Govt Community Hall"
      }
    },
    {
      "type": "node",
      "id": 844434365,
      "lat": 12.960424,
      "lon": 77.646233,
      "tags": {
        "addr:street": "Kodihalli Main Road",
        "amenity": "pharmacy"
      }
    },
    {
      "type": "node",
      "id": 844434369,
      "lat": 12.9622433,
      "lon": 77.6470269,
      "tags": {
        "addr:street": "Kodihalli Main Road",
        "amenity": "pharmacy"
      }
    },
    {
      "type": "node",
      "id": 1091414246,
      "lat": 12.9594188,
      "lon": 77.6486258,
      "tags": {
        "amenity": "restaurant",
        "name": "Matthan",
        "name:kn": "ಮತ್ತನ್"
      }
    },
    {
      "type": "node",
      "id": 1328613153,
      "lat": 12.9623163,
      "lon": 77.6418447,
      "tags": {
        "shop": "gift"
      }
    },
    {
      "type": "node",
      "id": 1328613155,
      "lat": 12.9621543,
      "lon": 77.6418716,
      "tags": {
        "amenity": "restaurant",
        "name": "Mainland China",
        "name:kn": "ಮೇನ್‌ಲ್ಯಾಂಡ್ ಚೈನಾ",
        "wheelchair": "limited"
      }
    },
    {
      "type": "node",
      "id": 1420058894,
      "lat": 12.9643071,
      "lon": 77.6437722,
      "tags": {
        "amenity": "restaurant",
        "name": "Sethji's",
        "name:kn": "ಸೇತ್‌ಜೀಸ್"
      }
    },
    {
      "type": "node",
      "id": 1420058964,
      "lat": 12.9640379,
      "lon": 77.6406718,
      "tags": {
        "amenity": "bar",
        "name": "Roadtrip",
        "wheelchair": "yes"
      }
    },
    {
      "type": "node",
      "id": 1420066677,
      "lat": 12.964528,
      "lon": 77.6396738,
      "tags": {
        "shop": "bakery"
      }
    },
    {
      "type": "node",
      "id": 1420105723,
      "lat": 12.9638721,
      "lon": 77.6400982,
      "tags": {
        "amenity": "bank",
        "atm": "yes",
        "check_date": "2023-10-08",
        "name": "Maha Bank"
      }
    },
    {
      "type": "node",
      "id": 1472937714,
      "lat": 12.9603151,
      "lon": 77.6458853,
      "tags": {
        "amenity": "restaurant",
        "cuisine": "indian",
        "name": "Raham's Families International (Richies) Restaurant",
        "name:kn": "ರಿಚೀಸ್",
        "wheelchair": "no"
      }
    },
    {
      "type": "node",
      "id": 1473330316,
      "lat": 12.9519422,
      "lon": 77.6397478,
      "tags": {
        "amenity": "restaurant",
        "brand": "Barbeque Nation",
        "brand:wikidata": "Q4859568",
        "cuisine": "barbecue",
        "name": "Barbeque Nation",
        "name:kn": "ಬರ್ಬಕ್ಯು ನೇಶನ್"
      }
    },
    {
      "type": "node",
      "id": 1473330341,
      "lat": 12.9526958,
      "lon": 77.640104,
      "tags": {
        "amenity": "restaurant",
        "cuisine": "international",
        "name": "Tandoori Hipple",
        "name:kn": "ತಂದೂರಿ ಹಿಪ್ಪಲ್"
      }
    },
    {
      "type": "node",
      "id": 1473330359,
      "lat": 12.9525546,
      "lon": 77.6400289,
      "tags": {
        "amenity": "restaurant",
        "cuisine": "international",
        "name": "LoveShack",
        "name:kn": "ಲವ್‌ಶಕ್"
      }
    },
    {
      "type": "node",
      "id": 1598949024,
      "lat": 12.952399,
      "lon": 77.6400371,
      "tags": {
        "amenity": "restaurant",
        "diet:vegetarian": "only",
        "name": "Mast Kalandar",
        "name:kn": "ಮಸ್ತ್ ಕಲಂದರ್"
      }
    },
    {
      "type": "node",
      "id": 1654513480,
      "lat": 12.9607214,
      "lon": 77.6458388,
      "tags": {
        "addr:street": "Manipal Motors Road",
        "amenity": "fast_food",
        "cuisine": "indian",
        "name": "Madurai Style Idli Vada Dosa",
        "name:kn": "ಮಧುರೈ ಶೈಲಿಯ ಇಡ್ಲಿ ವಡಾ ದೋಸೆ",
        "wheelchair": "no"
      }
    },
    {
      "type": "node",
      "id": 1655553583,
      "lat": 12.9657761,
      "lon": 77.6365089,
      "tags": {
        "name": "Anveshanam",
        "shop": "travel_agency"
      }
    },
    {
      "type": "node",
      "id": 1655556504,
      "lat": 12.9653458,
      "lon": 77.6380532,
      "tags": {
        "amenity": "nursing_home",
        "name": "Enhanced Healthcare"
      }
    },
    {
      "type": "node",
      "id": 1655556505,
      "lat": 12.965378,
      "lon": 77.6379902,
      "tags": {
        "leisure": "fitness_centre",
        "name": "Fitness One",
        "name:hi": "फिटनेस वन",
        "name:kn": "ಫಿಟ್ ನೆಸ್ ಒನ್"
      }
    },
    {
      "type": "node",
      "id": 1655556669,
      "lat": 12.9649785,
      "lon": 77.6385321,
      "tags": {
        "addr:street": "Paramahansa Yogananda Road",
        "amenity": "restaurant",
        "cuisine": "indian",
        "name": "Nandhini",
        "name:kn": "ನಂದಿನಿ"
      }
    },
    {
      "type": "node",
      "id": 1659137304,
      "lat": 12.9582464,
      "lon": 77.6412466,
      "tags": {
        "amenity": "pharmacy",
        "brand": "Apollo Pharmacy",
        "brand:wikidata": "Q62562612",
        "dispensing": "no",
        "healthcare": "pharmacy",
        "name": "Apollo Pharmacy",
        "name:kn": "ಅಪೋಲೋ ಫಾರ್ಮಸಿ",
        "opening_hours": "Mo-Fr 08:30-20:00"
      }
    },
    {
      "type": "node",
      "id": 1659137306,
      "lat": 12.9581147,
      "lon": 77.6411293,
      "tags": {
        "name": "White Collar",
        "opening_hours": "Mo-Fr 08:30-20:00",
        "shop": "laundry"
      }
    },
    {
      "type": "node",
      "id": 1763379673,
      "lat": 12.9632938,
      "lon": 77.6460906,
      "tags": {
        "name": "Manipal Motors",
        "shop": "car_repair"
      }
    },
    {
      "type": "node",
      "id": 1780091262,
      "lat": 12.9632602,
      "lon": 77.6383855,
      "tags": {
        "addr:housenumber": "1",
        "addr:street": "2nd Cross Road",
        "amenity": "place_of_worship",
        "name": "Amma Bagavan Manava Seva Samiti",
        "religion": "hindu"
      }
    },
    {
      "type": "node",
      "id": 1902297692,
      "lat": 12.9569217,
      "lon": 77.6416898,
      "tags": {
        "amenity": "bank",
        "atm": "yes",
        "brand": "HDFC Bank",
        "brand:wikidata": "Q631047",
        "brand:wikipedia": "en:HDFC Bank",
        "name": "HDFC Bank",
        "name:kn": "ಎಚ್ ಡಿ ಎಫ್ ಸಿ",
        "short_name": "HDFC",
        "source": "survey",
        "website": "https://www.hdfcbank.com"
      }
    },
    {
      "type": "node",
      "id": 2127083897,
      "lat": 12.9605462,
      "lon": 77.6483282,
      "tags": {
        "leisure": "sports_centre",
        "name": "Ameoba Bowling Alley",
        "sport": "9pin"
      }
    },
    {
      "type": "node",
      "id": 2901507966,
      "lat": 12.9619603,
      "lon": 77.6420069,
      "tags": {
        "amenity": "pub",
        "smoking": "outside"
      }
    },
    {
      "type": "node",
      "id": 3016052469,
      "lat": 12.9520131,
      "lon": 77.6398096,
      "tags": {
        "amenity": "bank",
        "atm": "no",
        "brand": "Punjab National Bank",
        "brand:wikidata": "Q2743499",
        "name": "Punjab National Bank",
        "name:en": "Punjab National Bank",
        "name:kn": "ಪಂಜಾಬ ರಾಷ್ಟ್ರೀಯ ಬ್ಯಾಂಕ್",
        "operator": "Punjab National Bank",
        "short_name": "PNB",
        "source": "survey",
        "website": "https://www.pnbindia.in"
      }
    },
    {
      "type": "node",
      "id": 3016090363,
      "lat": 12.956002,
      "lon": 77.6416096,
      "tags": {
        "amenity": "restaurant",
        "cuisine": "indian;regional",
        "name": "Paramount",
        "name:kn": "ಚೊಕಿ ದಾನಿ"
      }
    },
    {
      "type": "node",
      "id": 3199710591,
      "lat": 12.9625424,
      "lon": 77.637545,
      "tags": {
        "brand": "HOPCOMS",
        "brand:wikidata": "Q22908959",
        "name": "HOPCOMS",
        "name:kn": "ಹಾಪ್ ಕಾಮ್ಸ್",
        "shop": "greengrocer"
      }
    },
    {
      "type": "node",
      "id": 3199710592,
      "lat": 12.9625573,
      "lon": 77.6376424,
      "tags": {
        "brand": "Nandini",
        "name": "Nandini",
        "name:kn": "ನಂದಿನಿ",
        "shop": "dairy"
      }
    },
    {
      "type": "node",
      "id": 3304100396,
      "lat": 12.9607933,
      "lon": 77.64587,
      "tags": {
        "amenity": "restaurant",
        "name": "Srinidhi Sagar",
        "name:kn": "ಶ್ರೀನಿಧಿ ಸಾಗರ"
      }
    },
    {
      "type": "node",
      "id": 3305353529,
      "lat": 12.9636358,
      "lon": 77.6438548,
      "tags": {
        "addr:street": "2nd Cross",
        "name": "Top in Town Departmental Store",
        "name:kn": "ಟಾಪ್ ಇನ್ ಟೌನ್ ಕಿರಾಣಿ ಆಂಗಡಿ",
        "shop": "department_store"
      }
    },
    {
      "type": "node",
      "id": 3305353530,
      "lat": 12.9637926,
      "lon": 77.6439017,
      "tags": {
        "addr:street": "2nd Cross",
        "name": "Top in Town Vegetable Shop",
        "name:kn": "ಟಾಪ್ ಇನ್ ಟೌನ್ ತರಕಾರಿ ಆಂಗಡಿ",
        "shop": "greengrocer"
      }
    },
    {
      "type": "node",
      "id": 3305353531,
      "lat": 12.9648434,
      "lon": 77.6439312,
      "tags": {
        "name": "Bharath Gas Office",
        "shop": "gas"
      }
    },
    {
      "type": "node",
      "id": 3305353532,
      "lat": 12.9650864,
      "lon": 77.6441914,
      "tags": {
        "amenity": "atm",
        "brand": "Corporation Bank",
        "brand:wikidata": "Q2003387",
        "name": "Corporation Bank",
        "name:kn": "ಕಾರ್ಪರೇಷನ್ ಬ್ಯಾಂಕ್",
        "operator": "Corporation Bank",
        "operator:wikidata": "Q2003387"
      }
    },
    {
      "type": "node",
      "id": 3305353533,
      "lat": 12.9650322,
      "lon": 77.644204,
      "tags": {
        "shop": "medical_supply"
      }
    },
    {
      "type": "node",
      "id": 3305353534,
      "lat": 12.9652093,
      "lon": 77.6442295,
      "tags": {
        "shop": "department_store"
      }
    },
    {
      "type": "node",
      "id": 3305353535,
      "lat": 12.9651936,
      "lon": 77.6442973,
      "tags": {
        "shop": "bakery"
      }
    },
    {
      "type": "node",
      "id": 3355272069,
      "lat": 12.96257,
      "lon": 77.6432823,
      "tags": {
        "addr:city": "Bengaluru",
        "addr:postcode": "570008",
        "addr:street": "17th B Main",
        "amenity": "restaurant",
        "capacity": "10",
        "delivery": "yes",
        "name": "Big Mummy",
        "takeaway": "yes"
      }
    },
    {
      "type": "node",
      "id": 3355272070,
      "lat": 12.9627703,
      "lon": 77.6424953,
      "tags": {
        "addr:city": "Bengaluru",
        "addr:postcode": "570008",
        "addr:street": "17th B Main",
        "amenity": "restaurant",
        "capacity": "10",
        "cuisine": "hyderabadi",
        "name": "Nandu Biryani Corner",
        "takeaway": "yes"
      }
    },
    {
      "type": "node",
      "id": 3355277904,
      "lat": 12.9625363,
      "lon": 77.6432991,
      "tags": {
        "addr:city": "Bengaluru",
        "addr:postcode": "570008",
        "addr:street": "18th Main",
        "name": "Bangalore Horticulture",
        "shop": "greengrocer"
      }
    },
    {
      "type": "node",
      "id": 3362040054,
      "lat": 12.9633105,
      "lon": 77.6422202,
      "tags": {
        "addr:housenumber": "13",
        "addr:street": "17th Main",
        "amenity": "clinic",
        "name": "Homeocare International",
        "operator": "Private"
      }
    },
    {
      "type": "node",
      "id": 3379967922,
      "lat": 12.9607436,
      "lon": 77.6389824,
      "tags": {
        "name": "Bike Puncture repair shop",
        "opening_hours": "09:00-22:00",
        "operator": "Thoushif",
        "phone": "+91 8197310004",
        "shop": "bicycle"
      }
    },
    {
      "type": "node",
      "id": 3396324855,
      "lat": 12.9625591,
      "lon": 77.6430964,
      "tags": {
        "addr:street": "18th Main Road",
        "amenity": "pharmacy",
        "brand": "MedPlus",
        "brand:wikidata": "Q65684234",
        "healthcare": "pharmacy",
        "name": "MedPlus",
        "name:kn": "ಮೆಡ್ ಪ್ಲಸ್",
        "website": "https://medplus.com/"
      }
    },
    {
      "type": "node",
      "id": 3396334741,
      "lat": 12.9625376,
      "lon": 77.6432147,
      "tags": {
        "amenity": "bank",
        "atm": "yes",
        "brand": "Tamilnad Mercantile Bank Limited",
        "brand:wikidata": "Q2044991",
        "name": "Tamilnad Mercantile Bank Limited",
        "opening_hours": "24/7"
      }
    },
    {
      "type": "node",
      "id": 3401252353,
      "lat": 12.9614096,
      "lon": 77.6435604,
      "tags": {
        "amenity": "animal_shelter",
        "name": "The voice of stray dogs"
      }
    },
    {
      "type": "node",
      "id": 3401269524,
      "lat": 12.956519,
      "lon": 77.6425504,
      "tags": {
        "amenity": "veterinary",
        "name": "Cessna Lifeline Veterinary care clinic"
      }
    },
    {
      "type": "node",
      "id": 3453556764,
      "lat": 12.95904,
      "lon": 77.6382864,
      "tags": {
        "amenity": "restaurant",
        "name": "Annapurna",
        "name:kn": "ಅನ್ನಪೂರ್ಣ"
      }
    },
    {
      "type": "node",
      "id": 3453556766,
      "lat": 12.9581787,
      "lon": 77.6382254,
      "tags": {
        "amenity": "car_rental",
        "name": "Adithya Travels"
      }
    },
    {
      "type": "node",
      "id": 3453556767,
      "lat": 12.9604494,
      "lon": 77.636423,
      "tags": {
        "name": "Ceekay",
        "shop": "supermarket"
      }
    },
    {
      "type": "node",
      "id": 3453556768,
      "lat": 12.9598751,
      "lon": 77.6384088,
      "tags": {
        "amenity": "bank",
        "brand": "Corporation Bank",
        "brand:wikidata": "Q2003387",
        "brand:wikipedia": "en:Corporation Bank",
        "name": "Corporation Bank",
        "name:en": "Corporation Bank",
        "name:kn": "ಕಾರ್ಪರೇಷನ್ ಬ್ಯಾಂಕ್",
        "website": "https://corpbank.com/"
      }
    },
    {
      "type": "node",
      "id": 3453556770,
      "lat": 12.9589102,
      "lon": 77.6382683,
      "tags": {
        "amenity": "driving_school",
        "name": "Manasa Mandhara"
      }
    },
    {
      "type": "node",
      "id": 3453556771,
      "lat": 12.9593929,
      "lon": 77.6383584,
      "tags": {
        "amenity": "atm",
        "brand": "Axis Bank",
        "brand:wikidata": "Q2003549",
        "name": "Axis Bank ATM",
        "name:kn": "ಆಕ್ಸಿಸ್ ಬ್ಯಾಂಕ್",
        "operator": "Axis Bank",
        "operator:wikidata": "Q2003549"
      }
    },
    {
      "type": "node",
      "id": 3453556772,
      "lat": 12.9594282,
      "lon": 77.6383636,
      "tags": {
        "amenity": "bank",
        "brand": "ICICI Bank",
        "brand:wikidata": "Q1653258",
        "name": "ICICI Bank",
        "name:kn": "ಐಸಿಐಸಿಐ ಬ್ಯಾಂಕ್",
        "short_name": "ICICI"
      }
    },
    {
      "type": "node",
      "id": 3453556773,
      "lat": 12.9564333,
      "lon": 77.6379839,
      "tags": {
        "name": "Top In Town",
        "shop": "supermarket"
      }
    },
    {
      "type": "node",
      "id": 3453556774,
      "lat": 12.9603801,
      "lon": 77.6367912,
      "tags": {
        "name": "Sri Kanaka",
        "shop": "convenience"
      }
    },
    {
      "type": "node",
      "id": 3453556775,
      "lat": 12.9603147,
      "lon": 77.6371987,
      "tags": {
        "amenity": "restaurant",
        "name": "Kerela Pavilion"
      }
    },
    {
      "type": "node",
      "id": 3453556776,
      "lat": 12.9587021,
      "lon": 77.6384108,
      "tags": {
        "amenity": "pharmacy",
        "name": "Ram Medicals"
      }
    },
    {
      "type": "node",
      "id": 3453556777,
      "lat": 12.9593777,
      "lon": 77.638355,
      "tags": {
        "amenity": "atm",
        "brand": "ICICI Bank",
        "brand:wikidata": "Q1653258",
        "name": "ICICI Bank",
        "name:kn": "ಐಸಿಐಸಿಐ ಬ್ಯಾಂಕ್",
        "operator": "ICICI Bank",
        "operator:wikidata": "Q1653258",
        "short_name": "ICICI"
      }
    },
    {
      "type": "node",
      "id": 3453556779,
      "lat": 12.9602091,
      "lon": 77.6382314,
      "tags": {
        "name": "Glamour",
        "shop": "beauty"
      }
    },
    {
      "type": "node",
      "id": 3453556780,
      "lat": 12.9582908,
      "lon": 77.6382738,
      "tags": {
        "amenity": "pharmacy",
        "name": "Sri Balaji Medicals"
      }
    },
    {
      "type": "node",
      "id": 3453556781,
      "lat": 12.9593491,
      "lon": 77.6383498,
      "tags": {
        "amenity": "bank",
        "brand": "HDFC Bank",
        "brand:wikidata": "Q631047",
        "name": "HDFC Bank",
        "name:kn": "ಎಚ್ ಡಿ ಎಫ್ ಸಿ",
        "short_name": "HDFC"
      }
    },
    {
      "type": "node",
      "id": 3453556782,
      "lat": 12.9561948,
      "lon": 77.6376138,
      "tags": {
        "amenity": "school",
        "name": "Bangalore Montessori High School"
      }
    },
    {
      "type": "node",
      "id": 3453556783,
      "lat": 12.9604518,
      "lon": 77.6369417,
      "tags": {
        "amenity": "clinic",
        "name": "Dr Thomas"
      }
    },
    {
      "type": "node",
      "id": 3453556785,
      "lat": 12.9602449,
      "lon": 77.6378691,
      "tags": {
        "amenity": "dentist",
        "name": "Kanaka"
      }
    },
    {
      "type": "node",
      "id": 3453556787,
      "lat": 12.9600655,
      "lon": 77.6385214,
      "tags": {
        "name": "Mahindra showroom",
        "name:kn": "ಮಹಿಂದ್ರ",
        "shop": "motorcycle"
      }
    },
    {
      "type": "node",
      "id": 3453556788,
      "lat": 12.9582691,
      "lon": 77.6383457,
      "tags": {
        "name": "First Avenue",
        "shop": "beauty"
      }
    },
    {
      "type": "node",
      "id": 3453556789,
      "lat": 12.9592176,
      "lon": 77.6385092,
      "tags": {
        "amenity": "restaurant",
        "name": "Under The Tree"
      }
    },
    {
      "type": "node",
      "id": 3453556790,
      "lat": 12.9552332,
      "lon": 77.6374003,
      "tags": {
        "amenity": "school",
        "name": "K.R.L.S. Patel Rama Reddy English High School"
      }
    },
    {
      "type": "node",
      "id": 3453556791,
      "lat": 12.9599473,
      "lon": 77.6384148,
      "tags": {
        "amenity": "dentist",
        "name": "Aadhi"
      }
    },
    {
      "type": "node",
      "id": 3453558193,
      "lat": 12.9591069,
      "lon": 77.6383016,
      "tags": {
        "amenity": "restaurant",
        "name": "Tamarind House"
      }
    },
    {
      "type": "node",
      "id": 3453558194,
      "lat": 12.9596492,
      "lon": 77.6383775,
      "tags": {
        "amenity": "atm",
        "brand": "Axis Bank",
        "brand:wikidata": "Q2003549",
        "name": "Axis Bank",
        "name:kn": "ಅಕ್ಸಿಸ್ ಬ್ಯಾಂಕ್",
        "operator": "Axis Bank",
        "operator:wikidata": "Q2003549"
      }
    },
    {
      "type": "node",
      "id": 3453558195,
      "lat": 12.9577479,
      "lon": 77.6382507,
      "tags": {
        "amenity": "bank",
        "brand": "Canara Bank",
        "brand:en": "Canara Bank",
        "brand:hi": "केनरा बैंक",
        "brand:kn": "ಕೆನರಾ ಬ್ಯಾಂಕ್",
        "brand:pa": "ਕੇਨਰਾ ਬੈਂਕ",
        "brand:pnb": "کینرا بینک",
        "brand:ur": "کینرا بینک",
        "brand:wikidata": "Q2003777",
        "brand:wikipedia": "en:Canara Bank",
        "brand:wikipedia:pa": "ਕੇਨਰਾ ਬੈਂਕ",
        "name": "Canara Bank",
        "name:en": "Canara Bank",
        "name:hi": "केनरा बैंक",
        "name:kn": "ಕೆನರಾ ಬ್ಯಾಂಕ್",
        "name:pa": "ਕੇਨਰਾ ਬੈਂਕ",
        "name:pnb": "کینرا بینک",
        "name:ur": "کینرا بینک",
        "website": "https://www.canarabank.com/"
      }
    },
    {
      "type": "node",
      "id": 3476877519,
      "lat": 12.9617214,
      "lon": 77.6366258,
      "tags": {
        "amenity": "bank",
        "brand": "State Bank of India",
        "brand:wikidata": "Q1340361",
        "brand:wikipedia": "en:State Bank of India",
        "name": "State Bank of India",
        "name:kn": "ಭಾರತೀಯ ಸ್ಟೇಟ್ ಬ್ಯಾಂಕ್",
        "short_name": "SBI"
      }
    },
    {
      "type": "node",
      "id": 3476887094,
      "lat": 12.9614661,
      "lon": 77.6364411,
      "tags": {
        "check_date": "2025-08-23",
        "name": "LJ Iyenger Bakery",
        "shop": "bakery"
      }
    },
    {
      "type": "node",
      "id": 3490212705,
      "lat": 12.9606881,
      "lon": 77.6380422,
      "tags": {
        "check_date": "2023-11-12",
        "name": "Vinayak Yamaha",
        "shop": "motorcycle",
        "source": "survey"
      }
    },
    {
      "type": "node",
      "id": 3497321172,
      "lat": 12.9548048,
      "lon": 77.641826,
      "tags": {
        "name": "Ganesh Juice Center",
        "shop": "beverages",
        "wheelchair": "no"
      }
    },
    {
      "type": "node",
      "id": 3497321173,
      "lat": 12.9548274,
      "lon": 77.6415855,
      "tags": {
        "amenity": "restaurant",
        "cuisine": "indian;regional",
        "description": "Veg food from North India",
        "name": "Mast Kalandar",
        "name:kn": "ಮಸ್ತ್ ಕಲಂದರ್",
        "opening_hours": "08:30-12:30,15:30-22:00",
        "smoking": "no"
      }
    },
    {
      "type": "node",
      "id": 3497347363,
      "lat": 12.9553777,
      "lon": 77.6418351,
      "tags": {
        "amenity": "kindergarten",
        "name": "Klay prep school and daycare"
      }
    },
    {
      "type": "node",
      "id": 3497347364,
      "lat": 12.9559864,
      "lon": 77.6419553,
      "tags": {
        "brand": "TVS",
        "brand:wikidata": "Q3300084",
        "motorcycle:parts": "yes",
        "motorcycle:rental": "yes",
        "motorcycle:repair": "yes",
        "motorcycle:safety_inspection": "yes",
        "motorcycle:sales": "yes;used",
        "name": "Tristar TVS Spares and Service",
        "name:kn": "ಟ್ರೈಸ್ಟಾರ್ ಟಿವಿಎಸ್",
        "opening_hours": "08:30-12:30,15:30-20:00",
        "second_hand": "yes",
        "shop": "motorcycle"
      }
    },
    {
      "type": "node",
      "id": 3497378218,
      "lat": 12.9582235,
      "lon": 77.6415281,
      "tags": {
        "amenity": "restaurant",
        "cuisine": "regional",
        "internet_access": "no",
        "internet_access:fee": "no",
        "name": "Ambur Biriyani",
        "name:kn": "ಅಂಬುರ್ ಬಿರಿಯಾನಿ"
      }
    },
    {
      "type": "node",
      "id": 3497378219,
      "lat": 12.95771,
      "lon": 77.6416441,
      "tags": {
        "amenity": "restaurant",
        "description": "Resturant and Bar",
        "name": "Chef Inn Regency",
        "name:kn": "ಚೆಫ್ ಇನ್ ರೆಜೆನ್ಸಿ"
      }
    },
    {
      "type": "node",
      "id": 3497378220,
      "lat": 12.9567381,
      "lon": 77.6416565,
      "tags": {
        "brand": "Jeep",
        "brand:wikidata": "Q30113",
        "name": "Jeep Showroom",
        "shop": "car"
      }
    },
    {
      "type": "node",
      "id": 3497378221,
      "lat": 12.9579315,
      "lon": 77.6415049,
      "tags": {
        "amenity": "fast_food",
        "cuisine": "indian;regional",
        "internet_access": "no",
        "internet_access:fee": "no",
        "name": "Kolkatta Kati Roll",
        "name:kn": "ಕೊಲ್ಕತ್ತ ಕಟಿ ರೋಲ್",
        "smoking": "yes"
      }
    },
    {
      "type": "node",
      "id": 3497378222,
      "lat": 12.9580508,
      "lon": 77.641507,
      "tags": {
        "amenity": "cafe",
        "internet_access": "no",
        "internet_access:fee": "no",
        "name": "Shabari Tea Stall",
        "name:kn": "ಶಬರಿ ಟೀ ಸ್ಟಾಲ್",
        "smoking": "yes"
      }
    },
    {
      "type": "node",
      "id": 3497378223,
      "lat": 12.9574216,
      "lon": 77.6416652,
      "tags": {
        "brand": "Tata Motors",
        "name": "Tata Motors Showroom",
        "name:kn": "ಟಾಟಾ ಮೋಟರ್ಸ್",
        "shop": "car"
      }
    },
    {
      "type": "node",
      "id": 3504968228,
      "lat": 12.9606563,
      "lon": 77.6383304,
      "tags": {
        "name": "Lakshmi Silk Palace",
        "shop": "clothes"
      }
    },
    {
      "type": "node",
      "id": 3504968229,
      "lat": 12.9606532,
      "lon": 77.6383744,
      "tags": {
        "name": "Lakshmi Golds Palace",
        "shop": "jewelry"
      }
    },
    {
      "type": "node",
      "id": 3506436513,
      "lat": 12.9648261,
      "lon": 77.6382967,
      "tags": {
        "addr:street": "2nd A Cross",
        "amenity": "kindergarten",
        "name": "Maple Bear"
      }
    },
    {
      "type": "node",
      "id": 3542140648,
      "lat": 12.9637285,
      "lon": 77.6432716,
      "tags": {
        "leisure": "playground",
        "opening_hours": "06:00-09:30,17:30-20:00",
        "wheelchair": "yes"
      }
    },
    {
      "type": "node",
      "id": 3660570661,
      "lat": 12.9638052,
      "lon": 77.6423007,
      "tags": {
        "addr:street": "1st Cross",
        "brand": "HOPCOMS",
        "brand:wikidata": "Q22908959",
        "name": "HOPCOMS",
        "name:kn": "ಹಾಪ್ ಕಾಮ್ಸ್",
        "shop": "greengrocer"
      }
    },
    {
      "type": "node",
      "id": 3660570662,
      "lat": 12.9637778,
      "lon": 77.6423423,
      "tags": {
        "amenity": "bench"
      }
    },
    {
      "type": "node",
      "id": 3660570663,
      "lat": 12.9638699,
      "lon": 77.6423376,
      "tags": {
        "amenity": "bench"
      }
    },
    {
      "type": "node",
      "id": 3660570664,
      "lat": 12.9639156,
      "lon": 77.6423423,
      "tags": {
        "amenity": "bench"
      }
    },
    {
      "type": "node",
      "id": 3660570665,
      "lat": 12.9639137,
      "lon": 77.6426138,
      "tags": {
        "amenity": "bench"
      }
    },
    {
      "type": "node",
      "id": 3660586040,
      "lat": 12.9639111,
      "lon": 77.642752,
      "tags": {
        "amenity": "bench"
      }
    },
    {
      "type": "node",
      "id": 3660586041,
      "lat": 12.9639098,
      "lon": 77.6427862,
      "tags": {
        "amenity": "bench"
      }
    },
    {
      "type": "node",
      "id": 3660586042,
      "lat": 12.9638993,
      "lon": 77.6428231,
      "tags": {
        "amenity": "bench"
      }
    },
    {
      "type": "node",
      "id": 3660591734,
      "lat": 12.9638451,
      "lon": 77.6432167,
      "tags": {
        "amenity": "bench"
      }
    },
    {
      "type": "node",
      "id": 3660591735,
      "lat": 12.9638379,
      "lon": 77.6432616,
      "tags": {
        "amenity": "bench"
      }
    },
    {
      "type": "node",
      "id": 3660591736,
      "lat": 12.9638353,
      "lon": 77.6433173,
      "tags": {
        "amenity": "bench"
      }
    },
    {
      "type": "node",
      "id": 3660594851,
      "lat": 12.9638359,
      "lon": 77.6424596,
      "tags": {
        "leisure": "fitness_station"
      }
    },
    {
      "type": "node",
      "id": 3725710392,
      "lat": 12.964384,
      "lon": 77.6417958,
      "tags": {
        "name": "Celeste Karishma Home and Bath boutique",
        "shop": "interior_decoration"
      }
    },
    {
      "type": "node",
      "id": 3725710393,
      "lat": 12.9643581,
      "lon": 77.6417794,
      "tags": {
        "addr:street": "100 Feet Road(S K Karim Khan Road)",
        "brand": "Celio",
        "brand:wikidata": "Q2672003",
        "name": "Celio",
        "shop": "clothes",
        "wheelchair": "limited"
      }
    },
    {
      "type": "node",
      "id": 3725710394,
      "lat": 12.9647407,
      "lon": 77.641787,
      "tags": {
        "amenity": "atm",
        "brand": "Citibank",
        "brand:wikidata": "Q857063",
        "name": "Citibank",
        "name:kn": "ಸಿಟಿಬ್ಯಾಂಕ್",
        "opening_hours": "24/7",
        "operator": "Citibank",
        "operator:wikidata": "Q857063",
        "short_name": "Citi"
      }
    },
    {
      "type": "node",
      "id": 3725710396,
      "lat": 12.964004,
      "lon": 77.6418156,
      "tags": {
        "addr:street": "100 Feet Road(S K Karim Khan Road)",
        "name": "Docomo store",
        "shop": "yes"
      }
    },
    {
      "type": "node",
      "id": 3725710398,
      "lat": 12.9646378,
      "lon": 77.6417391,
      "tags": {
        "amenity": "fast_food",
        "brand": "Five Star Chicken",
        "cuisine": "chicken",
        "delivery": "yes",
        "name": "Five Star Chicken",
        "takeaway": "yes"
      }
    },
    {
      "type": "node",
      "id": 3725710399,
      "lat": 12.9640635,
      "lon": 77.6418154,
      "tags": {
        "name": "Flight shop",
        "shop": "travel_agency"
      }
    },
    {
      "type": "node",
      "id": 3725710400,
      "lat": 12.962951,
      "lon": 77.6418711,
      "tags": {
        "amenity": "hospital",
        "name": "Gift IVF center"
      }
    },
    {
      "type": "node",
      "id": 3725710401,
      "lat": 12.9620032,
      "lon": 77.6419066,
      "tags": {
        "addr:street": "100 Feet Road",
        "amenity": "pub",
        "name": "H3O"
      }
    },
    {
      "type": "node",
      "id": 3725710402,
      "lat": 12.9644935,
      "lon": 77.6418016,
      "tags": {
        "addr:street": "100 Feet Road(S K Karim Khan Road)",
        "shop": "clothes"
      }
    },
    {
      "type": "node",
      "id": 3725710403,
      "lat": 12.9629933,
      "lon": 77.6418677,
      "tags": {
        "name": "Kushal Decors",
        "shop": "interior_decoration"
      }
    },
    {
      "type": "node",
      "id": 3725719374,
      "lat": 12.9654532,
      "lon": 77.6417318,
      "tags": {
        "addr:street": "100 Feet Road(S K Karim Khan Road)",
        "amenity": "pharmacy",
        "healthcare": "pharmacy",
        "name": "Apollo Clinic",
        "roof:shape": "flat"
      }
    },
    {
      "type": "node",
      "id": 3725719375,
      "lat": 12.9654233,
      "lon": 77.6418908,
      "tags": {
        "addr:street": "100 Feet Road(S K Karim Khan Road)",
        "leisure": "fitness_centre",
        "name": "Bend Body Studio",
        "name:en": "One Up fitness"
      }
    },
    {
      "type": "node",
      "id": 3725719378,
      "lat": 12.9659243,
      "lon": 77.6416907,
      "tags": {
        "addr:street": "100 Feet Road(S K Karim Khan Road)",
        "name": "Neeru's",
        "shop": "clothes"
      }
    },
    {
      "type": "node",
      "id": 3725719379,
      "lat": 12.9657866,
      "lon": 77.6417312,
      "tags": {
        "addr:city": "Bangalore",
        "addr:housenumber": "2014",
        "addr:postcode": "560008",
        "addr:street": "100 Feet Road(S K Karim Khan Road)",
        "brand": "Nike",
        "brand:wikidata": "Q483915",
        "brand:wikipedia": "en:Nike, Inc.",
        "check_date": "2023-10-08",
        "name": "Nike",
        "name:kn": "ನೈಕ್",
        "opening_hours": "10:00-21:30",
        "phone": "080 4096 3602",
        "shop": "clothes"
      }
    },
    {
      "type": "node",
      "id": 3725719381,
      "lat": 12.9653878,
      "lon": 77.6417316,
      "tags": {
        "brand": "Payless ShoeSource",
        "brand:wikidata": "Q7156755",
        "brand:wikipedia": "en:Payless ShoeSource",
        "check_date": "2023-10-08",
        "name": "Payless ShoeSource",
        "shop": "shoes"
      }
    },
    {
      "type": "node",
      "id": 3725719382,
      "lat": 12.9662002,
      "lon": 77.6416839,
      "tags": {
        "addr:street": "100 Feet Road(S K Karim Khan Road)",
        "brand": "Reebok",
        "brand:wikidata": "Q466183",
        "check_date": "2024-09-18",
        "name": "Reebok",
        "name:kn": "ರೀಬಾಕ್",
        "payment:cash": "yes",
        "payment:credit_cards": "yes",
        "payment:debit_cards": "yes",
        "shop": "clothes"
      }
    },
    {
      "type": "node",
      "id": 3725719383,
      "lat": 12.9654204,
      "lon": 77.641732,
      "tags": {
        "addr:street": "100 Feet Road(S K Karim Khan Road)",
        "brand": "Vision Express",
        "brand:wikidata": "Q7936150",
        "name": "Vision Express",
        "shop": "optician"
      }
    },
    {
      "type": "node",
      "id": 3725752592,
      "lat": 12.9637055,
      "lon": 77.6418794,
      "tags": {
        "name": "House of Johnson",
        "shop": "yes"
      }
    },
    {
      "type": "node",
      "id": 3725752594,
      "lat": 12.963873,
      "lon": 77.6418506,
      "tags": {
        "addr:street": "100 Feet Road(S K Karim Khan Road)",
        "amenity": "restaurant",
        "name": "Rajdhani",
        "name:kn": "ರಾಜಧಾನಿ"
      }
    },
    {
      "type": "node",
      "id": 3725752595,
      "lat": 12.963753,
      "lon": 77.6419024,
      "tags": {
        "addr:street": "100 Feet Road(S K Karim Khan Road)",
        "amenity": "restaurant",
        "name": "The Rock"
      }
    },
    {
      "type": "node",
      "id": 3725752596,
      "lat": 12.9638338,
      "lon": 77.6418506,
      "tags": {
        "brand": "5àsec",
        "brand:wikidata": "Q2817899",
        "name": "5àsec",
        "shop": "dry_cleaning"
      }
    },
    {
      "type": "node",
      "id": 3727147612,
      "lat": 12.9651581,
      "lon": 77.6412777,
      "tags": {
        "amenity": "pub",
        "name": "Aquila Bar"
      }
    },
    {
      "type": "node",
      "id": 3727147613,
      "lat": 12.9641752,
      "lon": 77.6413104,
      "tags": {
        "amenity": "restaurant",
        "name": "Barbeque Factory"
      }
    },
    {
      "type": "node",
      "id": 3727147615,
      "lat": 12.96597,
      "lon": 77.6412101,
      "tags": {
        "amenity": "pub",
        "name": "21st Amendment"
      }
    },
    {
      "type": "node",
      "id": 3727147616,
      "lat": 12.9626968,
      "lon": 77.6414051,
      "tags": {
        "addr:street": "100 Feet Road( S K Karim Khan Road)",
        "name": "Creative Jewels",
        "shop": "jewelry"
      }
    },
    {
      "type": "node",
      "id": 3727147620,
      "lat": 12.9643459,
      "lon": 77.6413254,
      "tags": {
        "branch": "com",
        "brand": "Lenskart",
        "brand:wikidata": "Q17068753",
        "name": "Lenskart",
        "shop": "optician",
        "wheelchair": "limited"
      }
    },
    {
      "type": "node",
      "id": 3727147622,
      "lat": 12.9651732,
      "lon": 77.6412777,
      "tags": {
        "check_date": "2023-10-08",
        "name": "Maharaja's Furniture",
        "shop": "furniture"
      }
    },
    {
      "type": "node",
      "id": 3727147623,
      "lat": 12.9659502,
      "lon": 77.6412101,
      "tags": {
        "amenity": "cafe",
        "name": "News Cafe"
      }
    },
    {
      "type": "node",
      "id": 3727147624,
      "lat": 12.9658097,
      "lon": 77.6412537,
      "tags": {
        "name": "Park Avenue",
        "shop": "clothes"
      }
    },
    {
      "type": "node",
      "id": 3727148125,
      "lat": 12.9641898,
      "lon": 77.6413104,
      "tags": {
        "name": "Pepperfry",
        "shop": "furniture"
      }
    },
    {
      "type": "node",
      "id": 3727148126,
      "lat": 12.9659936,
      "lon": 77.6412082,
      "tags": {
        "brand": "Peter England",
        "brand:wikidata": "Q19573665",
        "clothes": "men",
        "name": "Peter England",
        "shop": "clothes"
      }
    },
    {
      "type": "node",
      "id": 3727148130,
      "lat": 12.9649955,
      "lon": 77.6412989,
      "tags": {
        "check_date": "2023-10-08",
        "name": "Sai Scavaloni",
        "payment:credit_cards": "yes",
        "payment:debit_cards": "yes",
        "shop": "furniture"
      }
    },
    {
      "type": "node",
      "id": 3727148131,
      "lat": 12.9656588,
      "lon": 77.6412508,
      "tags": {
        "addr:city": "Bangalore",
        "amenity": "restaurant",
        "cuisine": "italian;burger",
        "name": "Smoke House Deli",
        "name:kn": "ಸ್ಮೋಕ್ ಹೌಸ್ ಡೇಲಿ",
        "takeaway": "yes"
      }
    },
    {
      "type": "node",
      "id": 3727148132,
      "lat": 12.9632071,
      "lon": 77.6413756,
      "tags": {
        "addr:street": "100 Feet Road( S K Karim Khan Road)",
        "name": "Stanley",
        "shop": "interior_decoration"
      }
    },
    {
      "type": "node",
      "id": 3727148133,
      "lat": 12.9661256,
      "lon": 77.6412459,
      "tags": {
        "brand": "United Colors of Benetton",
        "brand:wikidata": "Q817139",
        "name": "United Colors of Benetton",
        "shop": "clothes",
        "short_name": "Benetton"
      }
    },
    {
      "type": "node",
      "id": 3727148135,
      "lat": 12.9653221,
      "lon": 77.6412575,
      "tags": {
        "check_date": "2023-10-08",
        "name": "Veneta Cucine",
        "shop": "kitchen"
      }
    },
    {
      "type": "node",
      "id": 3737698474,
      "lat": 12.9610608,
      "lon": 77.6367276,
      "tags": {
        "amenity": "toilets",
        "check_date": "2022-07-03",
        "fee": "yes",
        "name": "Sulabh Toilet Complex",
        "operator": "Sulabh International",
        "operator:wikidata": "Q3064151"
      }
    },
    {
      "type": "node",
      "id": 3761239273,
      "lat": 12.9597633,
      "lon": 77.6470458,
      "tags": {
        "addr:street": "Old Airport Road",
        "amenity": "restaurant",
        "indoor_seating": "yes",
        "level": "0",
        "name": "Zaitoon",
        "outdoor_seating": "no"
      }
    },
    {
      "type": "node",
      "id": 3761373128,
      "lat": 12.9600073,
      "lon": 77.6454571,
      "tags": {
        "amenity": "fast_food",
        "level": "0",
        "name": "Mac Fast Food"
      }
    },
    {
      "type": "node",
      "id": 3761373131,
      "lat": 12.9600501,
      "lon": 77.6451721,
      "tags": {
        "amenity": "fast_food",
        "level": "0",
        "name": "Anand"
      }
    },
    {
      "type": "node",
      "id": 3761373132,
      "lat": 12.9600581,
      "lon": 77.6451404,
      "tags": {
        "addr:street": "Old Airport Road",
        "amenity": "restaurant",
        "level": "0",
        "name": "Cheeni Kum"
      }
    },
    {
      "type": "node",
      "id": 3761373133,
      "lat": 12.9600613,
      "lon": 77.6451094,
      "tags": {
        "level": "0",
        "name": "Siri's Corner",
        "shop": "dairy"
      }
    },
    {
      "type": "node",
      "id": 3761382502,
      "lat": 12.9600708,
      "lon": 77.6450117,
      "tags": {
        "addr:street": "Old Airport Road",
        "level": "0",
        "name": "Faber-Franke",
        "shop": "hardware"
      }
    },
    {
      "type": "node",
      "id": 3761384035,
      "lat": 12.9600729,
      "lon": 77.644947,
      "tags": {
        "level": "0",
        "name": "Just Bake",
        "shop": "bakery"
      }
    },
    {
      "type": "node",
      "id": 3761384036,
      "lat": 12.9600853,
      "lon": 77.6449886,
      "tags": {
        "level": "-1",
        "name": "Fenesta Windows",
        "shop": "hardware"
      }
    },
    {
      "type": "node",
      "id": 3761385392,
      "lat": 12.9600493,
      "lon": 77.6449336,
      "tags": {
        "addr:street": "Old Airport Road",
        "amenity": "restaurant",
        "level": "1",
        "name": "Mast Kalandar",
        "name:kn": "ಮಸ್ತ್ ಕಲಂದರ್"
      }
    },
    {
      "type": "node",
      "id": 3761385393,
      "lat": 12.9600755,
      "lon": 77.6448826,
      "tags": {
        "amenity": "cafe",
        "brand": "Chai Point",
        "brand:wikidata": "Q28173415",
        "cuisine": "coffee_shop",
        "indoor_seating": "yes",
        "level": "0",
        "name": "Chai Point",
        "outdoor_seating": "no",
        "takeaway": "yes"
      }
    },
    {
      "type": "node",
      "id": 3761386469,
      "lat": 12.9600702,
      "lon": 77.6448451,
      "tags": {
        "addr:street": "Old Airport Road",
        "level": "0",
        "name": "Reliance Mobile Store",
        "shop": "mobile_phone"
      }
    },
    {
      "type": "node",
      "id": 3761392714,
      "lat": 12.9600127,
      "lon": 77.6451616,
      "tags": {
        "amenity": "bank",
        "level": "1",
        "name": "ICICI Direct",
        "note": "Note: Actually this is a stockbroker, but I cannot find the proper tag. Please help me tag this!"
      }
    },
    {
      "type": "node",
      "id": 3761395482,
      "lat": 12.9600676,
      "lon": 77.6447244,
      "tags": {
        "amenity": "bank",
        "atm": "yes",
        "brand:wikidata": "Q3595747",
        "brand:wikipedia": "en:Dena Bank",
        "level": "0",
        "name": "Dena Bank",
        "name:en": "Dena Bank",
        "name:kn": "ದೇನ ಬ್ಯಾಂಕ್",
        "website": "http://www.denabank.com"
      }
    },
    {
      "type": "node",
      "id": 3761402765,
      "lat": 12.9600964,
      "lon": 77.6445634,
      "tags": {
        "level": "0",
        "name": "Excide Batteries",
        "note": "Help me tag this: This is a battery sale-cum-recharging shop. But I could not find a proper tag for it.",
        "shop": "car_parts"
      }
    },
    {
      "type": "node",
      "id": 3761406785,
      "lat": 12.9601577,
      "lon": 77.6443247,
      "tags": {
        "addr:street": "Old Airport Road",
        "amenity": "restaurant",
        "level": "0",
        "name": "Desi Bytes"
      }
    },
    {
      "type": "node",
      "id": 3761418961,
      "lat": 12.9600667,
      "lon": 77.6450929,
      "tags": {
        "amenity": "atm",
        "brand": "HDFC Bank",
        "brand:wikidata": "Q631047",
        "level": "-1",
        "name": "HDFC Bank",
        "name:kn": "ಎಚ್. ಡಿ. ಎಫ್. ಸಿ. ಬ್ಯಾಂಕ್",
        "operator": "HDFC Bank",
        "operator:wikidata": "Q631047",
        "short_name": "HDFC"
      }
    },
    {
      "type": "node",
      "id": 3780939335,
      "lat": 12.961357,
      "lon": 77.6459596,
      "tags": {
        "name": "Karthik's delicious Parlour",
        "shop": "dairy"
      }
    },
    {
      "type": "node",
      "id": 3780939336,
      "lat": 12.9613296,
      "lon": 77.6459542,
      "tags": {
        "clothes": "children",
        "name": "Tiny Bees",
        "shop": "clothes"
      }
    },
    {
      "type": "node",
      "id": 3780945462,
      "lat": 12.9620198,
      "lon": 77.6459775,
      "tags": {
        "amenity": "car_rental",
        "level": "0",
        "name": "India Cabs"
      }
    },
    {
      "type": "node",
      "id": 3780945463,
      "lat": 12.9619969,
      "lon": 77.6459729,
      "tags": {
        "level": "0",
        "name": "TyreTec",
        "shop": "tyres"
      }
    },
    {
      "type": "node",
      "id": 3781001372,
      "lat": 12.960637,
      "lon": 77.6458408,
      "tags": {
        "name": "India Motors",
        "shop": "car"
      }
    },
    {
      "type": "node",
      "id": 3783556814,
      "lat": 12.9594395,
      "lon": 77.6436156,
      "tags": {
        "amenity": "restaurant",
        "delivery": "no",
        "level": "-1",
        "name": "Clubhouse"
      }
    },
    {
      "type": "node",
      "id": 3803144668,
      "lat": 12.9596851,
      "lon": 77.6469989,
      "tags": {
        "amenity": "Party Hall",
        "name": "Khayal Banquet Hall"
      }
    },
    {
      "type": "node",
      "id": 3803151155,
      "lat": 12.9608213,
      "lon": 77.6368514,
      "tags": {
        "name": "Anugraha",
        "shop": "travel_agency"
      }
    },
    {
      "type": "node",
      "id": 3804505582,
      "lat": 12.9608001,
      "lon": 77.6372345,
      "tags": {
        "amenity": "bank",
        "brand": "HDFC Bank",
        "brand:wikidata": "Q631047",
        "level": "0",
        "name": "HDFC Bank",
        "short_name": "HDFC",
        "wheelchair": "no"
      }
    },
    {
      "type": "node",
      "id": 3819183887,
      "lat": 12.961305,
      "lon": 77.6371429,
      "tags": {
        "amenity": "atm",
        "brand": "Canara Bank",
        "brand:en": "Canara Bank",
        "brand:hi": "केनरा बैंक",
        "brand:kn": "ಕೆನರಾ ಬ್ಯಾಂಕ್",
        "brand:pa": "ਕੇਨਰਾ ਬੈਂਕ",
        "brand:pnb": "کینرا بینک",
        "brand:ur": "کینرا بینک",
        "brand:wikidata": "Q2003777",
        "brand:wikipedia": "en:Canara Bank",
        "brand:wikipedia:pa": "ਕੇਨਰਾ ਬੈਂਕ",
        "level": "0",
        "name": "Canara Bank",
        "name:en": "Canara Bank",
        "name:hi": "केनरा बैंक",
        "name:kn": "ಕೆನರಾ ಬ್ಯಾಂಕ್",
        "name:pa": "ਕੇਨਰਾ ਬੈਂਕ",
        "name:pnb": "کینرا بینک",
        "name:ur": "کینرا بینک",
        "operator": "Canara Bank",
        "operator:wikidata": "Q2003777"
      }
    },
    {
      "type": "node",
      "id": 3841313796,
      "lat": 12.962015,
      "lon": 77.6375462,
      "tags": {
        "addr:housenumber": "B800",
        "amenity": "restaurant",
        "capacity": "25",
        "cuisine": "kerala",
        "delivery": "yes",
        "level": "0",
        "name": "Spice n' Ginger",
        "takeaway": "yes"
      }
    },
    {
      "type": "node",
      "id": 3842746873,
      "lat": 12.963907,
      "lon": 77.6386951,
      "tags": {
        "addr:housenumber": "151",
        "addr:street": "2nd Cross Road",
        "alt_name": "Sante Spa Cuisine",
        "amenity": "restaurant",
        "contact:instagram": "santebangalore",
        "cuisine": "indian;international;italian;pasta;pizza;thai",
        "diet:vegan": "yes",
        "diet:vegetarian": "yes",
        "name": "Santé Spa Cuisine",
        "opening_hours": "Mo-Su 11:00-23:00",
        "shop": "pastry",
        "takeaway": "yes",
        "toilets": "yes",
        "wheelchair": "limited"
      }
    },
    {
      "type": "node",
      "id": 4005167691,
      "lat": 12.9611115,
      "lon": 77.6457339,
      "tags": {
        "amenity": "bicycle_parking",
        "natural": "tree",
        "operator": "Yulu Cycle Stand"
      }
    },
    {
      "type": "node",
      "id": 4005181106,
      "lat": 12.9622425,
      "lon": 77.6448007,
      "tags": {
        "amenity": "restaurant",
        "name": "Little Orissa"
      }
    },
    {
      "type": "node",
      "id": 4005718301,
      "lat": 12.9622101,
      "lon": 77.6444944,
      "tags": {
        "amenity": "recycling",
        "recycling:paper": "yes",
        "recycling:plastic_bottles": "yes",
        "recycling:small_appliances": "yes",
        "recycling_type": "centre"
      }
    },
    {
      "type": "node",
      "id": 4030173905,
      "lat": 12.9614706,
      "lon": 77.6443101,
      "tags": {
        "access": "permissive",
        "amenity": "bicycle_parking",
        "bicycle_parking": "stands",
        "capacity": "4",
        "lit": "yes",
        "name": "Hasgeek Cycle Stands",
        "operator": "Hasgeek",
        "supervised": "no"
      }
    },
    {
      "type": "node",
      "id": 4155280389,
      "lat": 12.9624957,
      "lon": 77.6432784,
      "tags": {
        "addr:street": "18th Main Road",
        "brand": "HOPCOMS",
        "brand:wikidata": "Q22908959",
        "name": "HOPCOMS",
        "name:kn": "ಹಾಪ್ ಕಾಮ್ಸ್",
        "opening_hours": "Mo-Su 10:00-21:00",
        "shop": "greengrocer"
      }
    },
    {
      "type": "node",
      "id": 4163604717,
      "lat": 12.9637461,
      "lon": 77.6423898,
      "tags": {
        "amenity": "bench"
      }
    },
    {
      "type": "node",
      "id": 4163653089,
      "lat": 12.9637946,
      "lon": 77.6423264,
      "tags": {
        "amenity": "bench"
      }
    },
    {
      "type": "node",
      "id": 4256250292,
      "lat": 12.9645114,
      "lon": 77.638624,
      "tags": {
        "addr:housenumber": "172",
        "addr:street": "2nd cross domlur 2nd stage",
        "amenity": "restaurant",
        "description": "Cafe",
        "name": "Casa Fresco by Tea Brew"
      }
    },
    {
      "type": "node",
      "id": 4310563609,
      "lat": 12.9598531,
      "lon": 77.6429762,
      "tags": {
        "amenity": "bank",
        "atm": "yes",
        "brand": "Corporation Bank",
        "brand:wikidata": "Q2003387",
        "brand:wikipedia": "en:Corporation Bank",
        "name": "Corporation Bank",
        "name:en": "Corporation Bank",
        "name:kn": "ಕಾರ್ಪರೇಷನ್ ಬ್ಯಾಂಕ್",
        "website": "https://corpbank.com/"
      }
    },
    {
      "type": "node",
      "id": 4322754690,
      "lat": 12.9605285,
      "lon": 77.640123,
      "tags": {
        "addr:district": "Bengaluru Urban",
        "addr:full": "CGHS Dispensary No.8, Domlur, CPWD Quarters, Domlur",
        "addr:postcode": "560038",
        "addr:state": "Karnataka",
        "amenity": "clinic",
        "health_facility:type": "dispensary",
        "healthcare": "centre",
        "name": "CGHS Dispensary",
        "operator:type": "government",
        "source": "OpenGovernmentData",
        "website": "http://nb.bsf.gov.in/CGHS%20DIspenseries.pdf"
      }
    },
    {
      "type": "node",
      "id": 4445603184,
      "lat": 12.9627947,
      "lon": 77.6419191,
      "tags": {
        "addr:city": "Bengaluru",
        "addr:housenumber": "124",
        "addr:postcode": "570008",
        "addr:street": "HAL II Stage, 18th Main Road, Indira Nagar, Kodihalli,",
        "amenity": "pharmacy",
        "drive_through": "no",
        "name": "Deseeya Ayurvedic Pharmacy",
        "phone": "080 2520 1188",
        "website": "deseeya.com"
      }
    },
    {
      "type": "node",
      "id": 4446247021,
      "lat": 12.964155,
      "lon": 77.6387585,
      "tags": {
        "addr:city": "Bangalore",
        "addr:housenumber": "166",
        "addr:postcode": "560071",
        "addr:street": "2nd Cross, 2nd Stage, 2nd Cross Rd, Stage 2, Domlur",
        "amenity": "dentist",
        "name": "Dental Clinic",
        "phone": "080 2535 6707",
        "website": "https://vibhadental.com/"
      }
    },
    {
      "type": "node",
      "id": 4446329807,
      "lat": 12.9552696,
      "lon": 77.6428508,
      "tags": {
        "addr:city": "Bengaluru",
        "addr:district": "Bengaluru Urban",
        "addr:full": "230, Amarjyothi Layout, Off.Intermediate Ring Road, Domlur Extension",
        "addr:housenumber": "230",
        "addr:postcode": "560071",
        "addr:state": "Karnataka",
        "addr:street": "Amarjyothi Layout, Off Intermediate Ring Road, Near Dell India/Millennium Motors, Domlur Extension, Amarjyoti Layout, Domlur, Karnataka",
        "amenity": "hospital",
        "email": "info@ayurvaid.com",
        "name": "Ayurvaid Hospital",
        "operator:type": "private",
        "phone": "080 4092 5555",
        "source": "OpenGovernmentData",
        "website": "https://ayurvaid.com/"
      }
    },
    {
      "type": "node",
      "id": 4488116585,
      "lat": 12.9613649,
      "lon": 77.6370338,
      "tags": {
        "addr:city": "Bangalore",
        "addr:housenumber": "17",
        "addr:postcode": "560071",
        "addr:street": "HAL Airport Road",
        "name": "Sports line",
        "phone": "080-25353237",
        "shop": "sports"
      }
    },
    {
      "type": "node",
      "id": 4488197771,
      "lat": 12.961351,
      "lon": 77.6348885,
      "tags": {
        "addr:city": "Bangalore",
        "addr:housenumber": "10",
        "addr:postcode": "560071",
        "addr:street": "HAL Airport Road",
        "name": "Sri Chamudeshwari Sports Link And Fitness",
        "phone": "080-41203073",
        "shop": "sports"
      }
    },
    {
      "type": "node",
      "id": 4488481387,
      "lat": 12.9660726,
      "lon": 77.6374507,
      "tags": {
        "addr:city": "bangalore",
        "addr:postcode": "560071",
        "addr:street": "Sai Baba Temple Road, Kundanahalli Gate, Kundalahalli,",
        "name": "Namdharis Fresh",
        "opening_hours": "07:00-21:00",
        "phone": "(91)-9164286757",
        "shop": "supermarket",
        "website": "nambhdarifresh.com"
      }
    },
    {
      "type": "node",
      "id": 4489280310,
      "lat": 12.9647321,
      "lon": 77.6419068,
      "tags": {
        "addr:city": "Bangalore",
        "addr:housenumber": "# 2008",
        "addr:postcode": "560008",
        "addr:street": ",Near Vodafone, 100 Feet Rd, Bhadrappa Layout, HAL 2nd Stage, Indiranagar",
        "branch": "Exclusive Store",
        "brand": "Adidas",
        "brand:wikidata": "Q3895",
        "name": "Adidas",
        "name:kn": "ಅಡಿಡಾಸ್",
        "opening_hours": "10:00-21:30",
        "phone": "08049542553",
        "shop": "sports",
        "website": "https://www.adidas.co.in/"
      }
    },
    {
      "type": "node",
      "id": 4489287876,
      "lat": 12.9586276,
      "lon": 77.6452883,
      "tags": {
        "addr:city": "bangalore",
        "addr:housenumber": "# 617",
        "addr:postcode": "560008",
        "addr:street": "Karnataka Golf Association Road, HAL Old Airport Rd, Kodihalli",
        "name": "Evergreen Golf Shop",
        "opening_hours": "10:00-20:00",
        "phone": "08025200250",
        "shop": "sports",
        "website": "https://www.evergreengolfindia.com/"
      }
    },
    {
      "type": "node",
      "id": 4489320856,
      "lat": 12.9613688,
      "lon": 77.6374635,
      "tags": {
        "addr:city": "Bangalore",
        "addr:housenumber": "10",
        "addr:postcode": "560071",
        "addr:street": "Prestige Tradent , Old Airport Road , Domlur",
        "name": "Sri Chamudeshwari Sports Link And Fitness",
        "opening_hours": "10:00-22:00",
        "phone": "+919164261481",
        "shop": "sports"
      }
    },
    {
      "type": "node",
      "id": 4489795945,
      "lat": 12.965423,
      "lon": 77.6419072,
      "tags": {
        "addr:city": "Bangalore",
        "addr:housenumber": "No. 2012",
        "addr:postcode": "560038",
        "addr:street": "Shreyas Plaza, 100 Feet Road, Indira Nagar, Bhadrappa Layout, HAL 2nd Stage, Indiranagar,",
        "leisure": "sports_centre",
        "name": "Ben Body Studio",
        "opening_hours": "05:00-23:00",
        "phone": "8025213660",
        "sport": "gymnastics",
        "website": "helios-wellness.com"
      }
    },
    {
      "type": "node",
      "id": 4489802566,
      "lat": 12.9615276,
      "lon": 77.6364413,
      "tags": {
        "addr:city": "Bangalore",
        "addr:housenumber": "1",
        "addr:postcode": "560071",
        "addr:street": "GR Complex, Old Airport Road, Domulur, Bhadrappa Layout, BDA Colony, Domlur Village, Domlur, Bengaluru,",
        "leisure": "sports_centre",
        "name": "Steve's Gym",
        "opening_hours": "5:30-22:00",
        "phone": "9845185315",
        "sport": "gymnasium",
        "website": "https://stevesgym.com/"
      }
    },
    {
      "type": "node",
      "id": 4490222589,
      "lat": 12.9526709,
      "lon": 77.6401906,
      "tags": {
        "addr:city": "Bangalore",
        "addr:housenumber": "541 - 543, 3rd Floor",
        "addr:postcode": "560071",
        "addr:street": ",Inner Ring Road, Amarjyoti Layout, Domlur, Krishna Reddy Layout, Amarjyoti Layout, Bengaluru",
        "leisure": "sports_centre",
        "name": "Fitness Fight Club",
        "opening_hours": "05:30-22:00",
        "phone": "8040990028",
        "sport": "gymnasium",
        "website": "fitnessfightclub.com"
      }
    },
    {
      "type": "node",
      "id": 4558200790,
      "lat": 12.9576836,
      "lon": 77.6376182,
      "tags": {
        "amenity": "place_of_worship",
        "name": "Choe Khor Sum Ling Centre",
        "name:en": "Choe Khor Sum Ling Centre",
        "phone": "+91 80 4148 6497",
        "religion": "buddhist",
        "website": "https://cksl.in/"
      }
    },
    {
      "type": "node",
      "id": 4558661992,
      "lat": 12.9596296,
      "lon": 77.6462357,
      "tags": {
        "amenity": "bank",
        "brand": "State Bank of India",
        "brand:wikidata": "Q1340361",
        "brand:wikipedia": "en:State Bank of India",
        "name": "State Bank of India",
        "name:kn": "ಭಾರತೀಯ ಸ್ಟೇಟ್ ಬ್ಯಾಂಕ್",
        "short_name": "SBI",
        "website": "https://www.sbi.co.in"
      }
    },
    {
      "type": "node",
      "id": 4558683789,
      "lat": 12.9596889,
      "lon": 77.6461552,
      "tags": {
        "amenity": "atm",
        "operator": "SBH"
      }
    },
    {
      "type": "node",
      "id": 4558992341,
      "lat": 12.9587913,
      "lon": 77.6466804,
      "tags": {
        "amenity": "place_of_worship",
        "religion": "hindu"
      }
    },
    {
      "type": "node",
      "id": 4559461283,
      "lat": 12.9637741,
      "lon": 77.6377518,
      "tags": {
        "amenity": "theatre",
        "name": "TERI Auditorium"
      }
    },
    {
      "type": "node",
      "id": 4564764389,
      "lat": 12.9590429,
      "lon": 77.6384822,
      "tags": {
        "addr:postcode": "560071",
        "addr:street": "7th Cross",
        "name": "Solar panels and Equipment",
        "name:en": "Solar panels and Equipment",
        "phone": "8032961333",
        "shop": "electronics"
      }
    },
    {
      "type": "node",
      "id": 4621845493,
      "lat": 12.958119,
      "lon": 77.6442446,
      "tags": {
        "amenity": "restaurant",
        "cuisine": "indian;burger",
        "name": "Java",
        "name:en": "Java",
        "name:kn": "ಜಾವ"
      }
    },
    {
      "type": "node",
      "id": 4661786900,
      "lat": 12.9640021,
      "lon": 77.6418891,
      "tags": {
        "addr:street": "100 Feet Road(S K Karim Khan Road)",
        "name": "Xiami MI Service Centre",
        "name:en": "Xiami MI Service Centre",
        "opening_hours": "Mo-Sa 10:00-18:30",
        "shop": "mobile_phone"
      }
    },
    {
      "type": "node",
      "id": 4695641136,
      "lat": 12.9643153,
      "lon": 77.6397704,
      "tags": {
        "leisure": "dance",
        "name": "Swingers"
      }
    },
    {
      "type": "node",
      "id": 5104461623,
      "lat": 12.9625369,
      "lon": 77.6422561,
      "tags": {
        "amenity": "pharmacy",
        "name": "Homeoplus pharmecy",
        "name:en": "Homeoplus pharmecy"
      }
    },
    {
      "type": "node",
      "id": 5237312322,
      "lat": 12.9628718,
      "lon": 77.6364846,
      "tags": {
        "name:ko": "수산시장",
        "shop": "supermarket"
      }
    },
    {
      "type": "node",
      "id": 5251991249,
      "lat": 12.9623669,
      "lon": 77.6378519,
      "tags": {
        "amenity": "fast_food",
        "brand": "Indira Canteen",
        "brand:wikidata": "Q36164828",
        "cuisine": "south_indian",
        "name": "Indira Canteen",
        "operator": "BBMP",
        "takeaway": "yes"
      }
    },
    {
      "type": "node",
      "id": 5468995521,
      "lat": 12.9571332,
      "lon": 77.6361666,
      "tags": {
        "amenity": "drinking_water"
      }
    },
    {
      "type": "node",
      "id": 5468995921,
      "lat": 12.9575843,
      "lon": 77.6358809,
      "tags": {
        "amenity": "place_of_worship",
        "name": "Sri Subramanyam Swamy Temple",
        "name:kn": "ದೇವಸ್ಥಾನ",
        "religion": "hindu"
      }
    },
    {
      "type": "node",
      "id": 5468999121,
      "lat": 12.9579713,
      "lon": 77.6357771,
      "tags": {
        "amenity": "place_of_worship",
        "name": "Temple",
        "religion": "hindu"
      }
    },
    {
      "type": "node",
      "id": 5469008922,
      "lat": 12.9604789,
      "lon": 77.6350036,
      "tags": {
        "amenity": "veterinary",
        "name": "Government Veterinary Hospital",
        "name:kn": "ಸರ್ಕಾರಿ ಪಶುವೈದ್ಯ ಆಸ್ಪತ್ರೆ"
      }
    },
    {
      "type": "node",
      "id": 5469022921,
      "lat": 12.9611724,
      "lon": 77.6346628,
      "tags": {
        "amenity": "clinic",
        "name": "Ward 113 PHC",
        "name:en": "Ward 112",
        "name:kn": "ಪ್ರಾಥಮಿಕ ಆರೋಗ್ಯ ಕೇಂದ್ರ"
      }
    },
    {
      "type": "node",
      "id": 5555282740,
      "lat": 12.9589144,
      "lon": 77.6470245,
      "tags": {
        "addr:city": "Bangalore",
        "addr:housenumber": "B-36, Oxford Towers",
        "addr:postcode": "560008",
        "addr:street": "Kodihalli",
        "name": "Carista",
        "opening_hours": "Mo-Su 10:00-18:00",
        "payment:credit_cards": "yes",
        "payment:debit_cards": "yes",
        "phone": "+919019123124",
        "service:vehicle:car_repair": "yes",
        "service:vehicle:oil_change": "yes",
        "shop": "car_repair",
        "website": "https://carista.in"
      }
    },
    {
      "type": "node",
      "id": 6438148285,
      "lat": 12.9562148,
      "lon": 77.6373162,
      "tags": {
        "addr:place": "Dommalur",
        "amenity": "school",
        "isced:level": "3",
        "name": "Vidyanikethan Ehp Dommalur",
        "name:kn": "ವಿದ್ಯಾನಿಕೆಥನ್ ಇ.ಎಚ್.ಪಿ ದೊಮ್ಮಲೂರು",
        "operator": "Private Un-Aided",
        "school": "Higher Secondary"
      }
    },
    {
      "type": "node",
      "id": 6442682034,
      "lat": 12.9554582,
      "lon": 77.6374537,
      "tags": {
        "addr:place": "Dommalur",
        "amenity": "school",
        "isced:level": "2",
        "name": "Bangalore Montessori Eng School",
        "name:kn": "ಬೆಂಗಳೂರು ಮಾಂಟೆಸ್ಸರಿ ಆಂಗ್ಲ ಶಾಲೆ ,ದೊಮ್ಮಲೂರು",
        "operator": "Private Un-Aided",
        "school": "Higher Primary"
      }
    },
    {
      "type": "node",
      "id": 6444382794,
      "lat": 12.9608902,
      "lon": 77.6361692,
      "tags": {
        "addr:place": "Dommalur",
        "amenity": "school",
        "isced:level": "3",
        "name": "Little Angels HS, Dommalur",
        "name:kn": "ಲಿಟಲ್ ಏಂಜಲ್ ಪ್ರೌಢಶಾಲೆ,ದೊಮ್ಮಲೂರು",
        "operator": "Private Un-Aided",
        "school": "Higher Secondary"
      }
    },
    {
      "type": "node",
      "id": 6469091066,
      "lat": 12.9594084,
      "lon": 77.6402102,
      "tags": {
        "addr:place": "Dommalur",
        "amenity": "school",
        "isced:level": "3",
        "name": "GHS Dommalur",
        "name:kn": "ಸರ್ಕಾರಿ ಪ್ರೌಢಶಾಲೆ ದೊಮ್ಮಲೂರು",
        "operator": "Department of Education",
        "school": "Higher Secondary"
      }
    },
    {
      "type": "node",
      "id": 6496934091,
      "lat": 12.9570338,
      "lon": 77.6412876,
      "tags": {
        "amenity": "bicycle_rental",
        "brand": "Yulu",
        "brand:wikidata": "Q104871276",
        "name": "Yulu",
        "network": "Yulu",
        "network:wikidata": "Q104871276",
        "operator": "Yulu"
      }
    },
    {
      "type": "node",
      "id": 7178597283,
      "lat": 12.9631787,
      "lon": 77.6396687,
      "tags": {
        "addr:city": "Bengaluru",
        "addr:country": "IN",
        "addr:hamlet": "HAL 2nd Stage",
        "email": "krumbkraft@gmail.com",
        "name": "Krumb Kraft",
        "shop": "bakery",
        "website": "https://krumbkraft.in/"
      }
    },
    {
      "type": "node",
      "id": 7572526717,
      "lat": 12.9555948,
      "lon": 77.6418006,
      "tags": {
        "addr:district": "Bengaluru Urban",
        "addr:full": "Amarjyoti Layout, Domlur, Bengaluru",
        "addr:postcode": "560071",
        "addr:state": "Karnataka",
        "amenity": "hospital",
        "name": "Shree Sai Speciality Hospital",
        "source": "Local Knowledge"
      }
    },
    {
      "type": "node",
      "id": 7572526719,
      "lat": 12.9649324,
      "lon": 77.6442492,
      "tags": {
        "addr:district": "Bengaluru Urban",
        "addr:full": "Indiranagar, Bengaluru",
        "addr:postcode": "560008",
        "addr:state": "Karnataka",
        "amenity": "clinic",
        "name": "Orthopaedic & Skin Clinic",
        "source": "Local Knowledge"
      }
    },
    {
      "type": "node",
      "id": 7572526772,
      "lat": 12.957199,
      "lon": 77.642917,
      "tags": {
        "addr:district": "Bengaluru Urban",
        "addr:full": "Amarjyoti Layout, Domlur, Bengaluru",
        "addr:postcode": "560071",
        "addr:state": "Karnataka",
        "amenity": "dentist",
        "healthcare": "dentist",
        "name": "Golden Blossom Dental Care",
        "source": "Local Knowledge"
      }
    },
    {
      "type": "node",
      "id": 7572526782,
      "lat": 12.963951,
      "lon": 77.64308,
      "tags": {
        "addr:district": "Bengaluru Urban",
        "addr:full": "Kodihalli, Bengaluru",
        "addr:postcode": "560008",
        "addr:state": "Karnataka",
        "amenity": "hospital",
        "name": "Lohitha Hospital",
        "source": "Local Knowledge"
      }
    },
    {
      "type": "node",
      "id": 7572526801,
      "lat": 12.9544981,
      "lon": 77.6401572,
      "tags": {
        "addr:district": "Bengaluru Urban",
        "addr:full": "Amarjyoti Layout, Domlur, Bengaluru",
        "addr:postcode": "560071",
        "addr:state": "Karnataka",
        "amenity": "hospital",
        "name": "Swasthya Hospitals",
        "source": "Local Knowledge"
      }
    },
    {
      "type": "node",
      "id": 7572526806,
      "lat": 12.962918,
      "lon": 77.6428502,
      "tags": {
        "addr:district": "Bengaluru Urban",
        "addr:full": "Indiranagar, Bengaluru",
        "addr:postcode": "560008",
        "addr:state": "Karnataka",
        "amenity": "dentist",
        "name": "Star Dental Clinic",
        "source": "Local Knowledge"
      }
    },
    {
      "type": "node",
      "id": 8277238199,
      "lat": 12.9579281,
      "lon": 77.6485471,
      "tags": {
        "addr:city": "Bengaluru",
        "addr:postcode": "560022",
        "addr:street": "People Tree Hospitals, Metro Stop, 2, Tumkur Rd, Next to, Goraguntepalya, Yeswanthpur",
        "amenity": "clinic",
        "healthcare": "clinic",
        "healthcare:speciality": "Arthroscopy_and_Orthopedics",
        "name": "Dr. Srikanth KP",
        "website": "https://www.orthodrsrikanthkp.in/"
      }
    },
    {
      "type": "node",
      "id": 8837020453,
      "lat": 12.9611601,
      "lon": 77.6357205,
      "tags": {
        "name": "Haiku Honda",
        "shop": "motorcycle"
      }
    },
    {
      "type": "node",
      "id": 8837020457,
      "lat": 12.952795,
      "lon": 77.6402944,
      "tags": {
        "brand": "Hyundai",
        "brand:wikidata": "Q55931",
        "name": "Hyundai Service",
        "shop": "car_repair"
      }
    },
    {
      "type": "node",
      "id": 9257555904,
      "lat": 12.95618,
      "lon": 77.6368819,
      "tags": {
        "name": "The Registry of Sarees",
        "shop": "clothes",
        "tourism": "museum",
        "website": "https://theregistryofsarees.com/"
      }
    },
    {
      "type": "node",
      "id": 9545465495,
      "lat": 12.9637891,
      "lon": 77.6403908,
      "tags": {
        "addr:floor": "G",
        "amenity": "cafe",
        "check_date": "2024-11-09",
        "contact:facebook": "plume.delicacies",
        "contact:instagram": "plume.delicacies",
        "delivery": "yes",
        "level": "0",
        "name": "Café Plume",
        "outdoor_seating": "yes",
        "takeaway": "yes"
      }
    },
    {
      "type": "node",
      "id": 9689539840,
      "lat": 12.9653338,
      "lon": 77.6417575,
      "tags": {
        "amenity": "restaurant",
        "name": "Mahesh Lunch Home"
      }
    },
    {
      "type": "node",
      "id": 9689539841,
      "lat": 12.9648581,
      "lon": 77.6418132,
      "tags": {
        "amenity": "pub",
        "name": "Tipsy Bull"
      }
    },
    {
      "type": "node",
      "id": 9811266168,
      "lat": 12.9512932,
      "lon": 77.6409414,
      "tags": {
        "addr:city": "Bengaluru",
        "addr:country": "IN",
        "addr:hamlet": "Embassy Golf Links",
        "addr:postcode": "560071",
        "addr:street": "Intermediate Ring Road",
        "addr:suburb": "Domlur I Stage",
        "amenity": "coworking_space",
        "branch": "Sunriver",
        "brand": "WeWork",
        "brand:wikidata": "Q19995004",
        "fee": "yes",
        "name": "WeWork",
        "office": "coworking",
        "opening_hours": "24/7",
        "operator": "WeWork",
        "website": "https://www.wework.com/buildings/embassy-sunriver--bengaluru--Karnataka"
      }
    },
    {
      "type": "node",
      "id": 9930197125,
      "lat": 12.9636557,
      "lon": 77.6418494,
      "tags": {
        "brand": "cult.fit",
        "brand:wikidata": "Q121289250",
        "leisure": "fitness_centre",
        "name": "cult.fit"
      }
    },
    {
      "type": "node",
      "id": 10012574394,
      "lat": 12.965607,
      "lon": 77.6418266,
      "tags": {
        "brand": "Birkenstock",
        "brand:wikidata": "Q648458",
        "name": "Birkenstock",
        "shop": "shoes"
      }
    },
    {
      "type": "node",
      "id": 10012574396,
      "lat": 12.9638903,
      "lon": 77.6413397,
      "tags": {
        "brand": "Westside",
        "name": "Westside",
        "shop": "clothes"
      }
    },
    {
      "type": "node",
      "id": 10219947375,
      "lat": 12.9607094,
      "lon": 77.6460665,
      "tags": {
        "name": "Shivam Computer & Stationers",
        "shop": "stationery"
      }
    },
    {
      "type": "node",
      "id": 10219950709,
      "lat": 12.9607807,
      "lon": 77.6462384,
      "tags": {
        "name": "Pastry Land",
        "shop": "bakery"
      }
    },
    {
      "type": "node",
      "id": 10219952453,
      "lat": 12.9609532,
      "lon": 77.6461864,
      "tags": {
        "name": "Super Choice Bake & Sweets",
        "shop": "bakery"
      }
    },
    {
      "type": "node",
      "id": 10219952454,
      "lat": 12.9608679,
      "lon": 77.6461779,
      "tags": {
        "name": "All India Medical Tourism",
        "shop": "travel_agency"
      }
    },
    {
      "type": "node",
      "id": 10219952455,
      "lat": 12.9608684,
      "lon": 77.6462679,
      "tags": {
        "name": "Balaji Travels",
        "shop": "travel_agency"
      }
    },
    {
      "type": "node",
      "id": 10280775107,
      "lat": 12.9538209,
      "lon": 77.6396728,
      "tags": {
        "amenity": "pub",
        "microbrewery": "yes",
        "name": "Murphy’s Brewhouse"
      }
    },
    {
      "type": "node",
      "id": 10280801512,
      "lat": 12.9552691,
      "lon": 77.6416053,
      "tags": {
        "amenity": "pub",
        "contact:instagram": "fcafebyftv.east.blr",
        "indoor_seating": "yes",
        "microbrewery": "yes",
        "name": "F Cafe by FashionTV",
        "outdoor_seating": "no"
      }
    },
    {
      "type": "node",
      "id": 10291118235,
      "lat": 12.9545568,
      "lon": 77.6422383,
      "tags": {
        "addr:city": "Bengaluru",
        "addr:country": "IN",
        "addr:housenumber": "139/26",
        "addr:postcode": "560071",
        "addr:street": "Intermediate Ring Road",
        "addr:suburb": "Domlur",
        "addr:unit": "Kaman Amaryllis",
        "amenity": "coworking_space",
        "brand": "The Executive Centre",
        "email": "bangalore@executivecentre.com",
        "fee": "yes",
        "name": "The Executive Centre",
        "office": "coworking",
        "operator": "The Executive Centre",
        "phone": "+91 80 6893 6666",
        "website": "https://www.executivecentre.com/en-in/office-space/kaman-amaryllis"
      }
    },
    {
      "type": "node",
      "id": 10651879010,
      "lat": 12.9553102,
      "lon": 77.6486592,
      "tags": {
        "amenity": "cafe",
        "name": "Madouk Cafe"
      }
    },
    {
      "type": "node",
      "id": 10667163086,
      "lat": 12.9573744,
      "lon": 77.6359739,
      "tags": {
        "amenity": "place_of_worship",
        "religion": "hindu"
      }
    },
    {
      "type": "node",
      "id": 10727955504,
      "lat": 12.9642935,
      "lon": 77.6399182,
      "tags": {
        "amenity": "fast_food",
        "cuisine": "regional",
        "delivery": "yes",
        "name": "IDC",
        "takeaway": "yes"
      }
    },
    {
      "type": "node",
      "id": 10727992299,
      "lat": 12.9605511,
      "lon": 77.6356971,
      "tags": {
        "amenity": "music_school",
        "name": "8th Note School of Music"
      }
    },
    {
      "type": "node",
      "id": 10728055707,
      "lat": 12.9641916,
      "lon": 77.6395453,
      "tags": {
        "contact:facebook": "ThePurpleTurtles",
        "contact:instagram": "thepurpleturtles",
        "contact:pinterest": "PurpleTurtles11",
        "contact:twitter": "purpleturtlesin",
        "name": "The Purple Turtles",
        "shop": "lighting",
        "website": "https://thepurpleturtles.com/"
      }
    },
    {
      "type": "node",
      "id": 10913665921,
      "lat": 12.96343,
      "lon": 77.6410807,
      "tags": {
        "alt_name": "Nerlu Cafe",
        "amenity": "cafe",
        "name": "ner.lu",
        "start_date": "2023-05-20"
      }
    },
    {
      "type": "node",
      "id": 11131430545,
      "lat": 12.96331,
      "lon": 77.6418665,
      "tags": {
        "amenity": "bank",
        "brand": "ICICI Bank",
        "brand:wikidata": "Q1653258",
        "name": "ICICI Bank",
        "short_name": "ICICI"
      }
    },
    {
      "type": "node",
      "id": 11131430546,
      "lat": 12.9640276,
      "lon": 77.6407047,
      "tags": {
        "name": "Dhondup Hair Salon",
        "shop": "hairdresser"
      }
    },
    {
      "type": "node",
      "id": 11131430547,
      "lat": 12.9652164,
      "lon": 77.6381928,
      "tags": {
        "amenity": "studio",
        "name": "Asianet News",
        "studio": "television"
      }
    },
    {
      "type": "node",
      "id": 11247604728,
      "lat": 12.9659838,
      "lon": 77.6413096,
      "tags": {
        "brand": "Adidas",
        "brand:wikidata": "Q3895",
        "name": "Adidas",
        "name:kn": "ಅಡಿಡಾಸ್",
        "shop": "sports"
      }
    },
    {
      "type": "node",
      "id": 11342659858,
      "lat": 12.9606771,
      "lon": 77.6382231,
      "tags": {
        "amenity": "atm",
        "brand": "Union Bank of India",
        "brand:wikidata": "Q2004078",
        "check_date": "2023-11-12",
        "drive_through": "no",
        "operator": "Union Bank of India",
        "operator:wikidata": "Q2004078",
        "source": "survey"
      }
    },
    {
      "type": "node",
      "id": 11342659859,
      "lat": 12.9608059,
      "lon": 77.6372084,
      "tags": {
        "amenity": "atm",
        "brand": "HDFC Bank",
        "brand:wikidata": "Q631047",
        "cash_in": "no",
        "check_date": "2023-11-12",
        "drive_through": "no",
        "indoor": "yes",
        "operator": "HDFC Bank",
        "operator:wikidata": "Q631047",
        "short_name": "HDFC",
        "source": "survey",
        "wheelchair": "no"
      }
    },
    {
      "type": "node",
      "id": 11407673604,
      "lat": 12.9600104,
      "lon": 77.6454019,
      "tags": {
        "amenity": "dentist",
        "healthcare": "dentist",
        "name": "Meenakshi's Dental Clinic",
        "phone": "+91-80-41133122"
      }
    },
    {
      "type": "node",
      "id": 11416184412,
      "lat": 12.9650441,
      "lon": 77.6383823,
      "tags": {
        "addr:housenumber": "210",
        "addr:street": "1st Main Road",
        "amenity": "bar",
        "check_date": "2023-12-14",
        "contact:instagram": "https://www.instagram.com/soka_blr",
        "name": "Soka",
        "phone": "+91 93530 45053"
      }
    },
    {
      "type": "node",
      "id": 11463065115,
      "lat": 12.9614804,
      "lon": 77.6363697,
      "tags": {
        "amenity": "pharmacy",
        "check_date": "2025-08-23",
        "healthcare": "pharmacy",
        "name": "Prashanth Medicals"
      }
    },
    {
      "type": "node",
      "id": 11463203511,
      "lat": 12.965194,
      "lon": 77.6417769,
      "tags": {
        "amenity": "pub",
        "name": "Jamming Goat 3.0"
      }
    },
    {
      "type": "node",
      "id": 11493783925,
      "lat": 12.961585,
      "lon": 77.6364805,
      "tags": {
        "check_date": "2024-01-06",
        "level": "0",
        "name": "Sri Balaji Quality Prints",
        "shop": "copyshop"
      }
    },
    {
      "type": "node",
      "id": 11493849890,
      "lat": 12.9612402,
      "lon": 77.6380064,
      "tags": {
        "amenity": "fast_food",
        "check_date": "2024-01-06",
        "level": "0",
        "name": "Babaji Bites"
      }
    },
    {
      "type": "node",
      "id": 11527287657,
      "lat": 12.9504123,
      "lon": 77.6445772,
      "tags": {
        "access": "private",
        "amenity": "parking",
        "parking": "surface"
      }
    },
    {
      "type": "node",
      "id": 11527324109,
      "lat": 12.9532158,
      "lon": 77.6428834,
      "tags": {
        "addr:city": "Bengaluru",
        "addr:country": "IN",
        "addr:hamlet": "Embassy Golf Links",
        "addr:postcode": "560071",
        "addr:street": "Intermediate Ring Road",
        "addr:suburb": "Domlur I Stage",
        "amenity": "coworking_space",
        "brand": "WeWork",
        "brand:wikidata": "Q19995004",
        "fee": "yes",
        "name": "WeWork",
        "office": "coworking",
        "opening_hours": "24/7",
        "operator": "WeWork",
        "website": "https://www.wework.com/buildings/embassy-golflinks--bengaluru--Karnataka"
      }
    },
    {
      "type": "node",
      "id": 11527324132,
      "lat": 12.950313,
      "lon": 77.6438101,
      "tags": {
        "access": "private",
        "amenity": "parking",
        "parking": "surface"
      }
    },
    {
      "type": "node",
      "id": 11527324133,
      "lat": 12.9490713,
      "lon": 77.6429263,
      "tags": {
        "access": "private",
        "amenity": "parking",
        "parking": "surface"
      }
    },
    {
      "type": "node",
      "id": 11527324134,
      "lat": 12.9506711,
      "lon": 77.6410125,
      "tags": {
        "access": "private",
        "amenity": "parking",
        "parking": "surface"
      }
    },
    {
      "type": "node",
      "id": 11527324135,
      "lat": 12.9534315,
      "lon": 77.6430523,
      "tags": {
        "access": "private",
        "amenity": "parking",
        "parking": "surface"
      }
    },
    {
      "type": "node",
      "id": 11527324140,
      "lat": 12.9533504,
      "lon": 77.6439348,
      "tags": {
        "access": "private",
        "amenity": "parking",
        "parking": "surface"
      }
    },
    {
      "type": "node",
      "id": 11527886862,
      "lat": 12.9558467,
      "lon": 77.6477073,
      "tags": {
        "amenity": "bbq"
      }
    },
    {
      "type": "node",
      "id": 11527886926,
      "lat": 12.9545894,
      "lon": 77.6482565,
      "tags": {
        "access": "private",
        "amenity": "parking_entrance",
        "parking": "underground"
      }
    },
    {
      "type": "node",
      "id": 11527886929,
      "lat": 12.9544372,
      "lon": 77.6481935,
      "tags": {
        "access": "private",
        "amenity": "parking_entrance",
        "parking": "underground"
      }
    },
    {
      "type": "node",
      "id": 11534808272,
      "lat": 12.9603913,
      "lon": 77.6479068,
      "tags": {
        "amenity": "restaurant",
        "check_date": "2024-01-21",
        "contact:instagram": "https://www.instagram.com/kokorestaurants",
        "cuisine": "asian",
        "name": "KOKO",
        "phone": "+91 98441 94747",
        "website": "https://www.kokorestaurants.com/"
      }
    },
    {
      "type": "node",
      "id": 11556469411,
      "lat": 12.9659703,
      "lon": 77.6370127,
      "tags": {
        "amenity": "bench",
        "backrest": "yes",
        "material": "stone",
        "seats": "3"
      }
    },
    {
      "type": "node",
      "id": 11556469412,
      "lat": 12.9658931,
      "lon": 77.6370702,
      "tags": {
        "amenity": "bench",
        "backrest": "yes",
        "material": "stone",
        "seats": "3"
      }
    },
    {
      "type": "node",
      "id": 11556469413,
      "lat": 12.9657737,
      "lon": 77.6371603,
      "tags": {
        "amenity": "bench",
        "backrest": "yes",
        "material": "stone",
        "seats": "3"
      }
    },
    {
      "type": "node",
      "id": 11556469414,
      "lat": 12.9656575,
      "lon": 77.6372715,
      "tags": {
        "amenity": "bench",
        "backrest": "yes",
        "material": "stone",
        "seats": "3"
      }
    },
    {
      "type": "node",
      "id": 11556469415,
      "lat": 12.9656017,
      "lon": 77.6373219,
      "tags": {
        "amenity": "bench",
        "backrest": "yes",
        "material": "stone",
        "seats": "3"
      }
    },
    {
      "type": "node",
      "id": 11556469416,
      "lat": 12.9655427,
      "lon": 77.6373724,
      "tags": {
        "amenity": "bench",
        "backrest": "yes",
        "material": "stone",
        "seats": "3"
      }
    },
    {
      "type": "node",
      "id": 11556469417,
      "lat": 12.9655155,
      "lon": 77.6373962,
      "tags": {
        "amenity": "waste_basket"
      }
    },
    {
      "type": "node",
      "id": 11556469418,
      "lat": 12.9653198,
      "lon": 77.6373513,
      "tags": {
        "amenity": "waste_basket"
      }
    },
    {
      "type": "node",
      "id": 11556469419,
      "lat": 12.9651973,
      "lon": 77.6372195,
      "tags": {
        "amenity": "waste_basket"
      }
    },
    {
      "type": "node",
      "id": 11556469420,
      "lat": 12.9652689,
      "lon": 77.6371535,
      "tags": {
        "amenity": "bench",
        "backrest": "yes",
        "material": "stone",
        "seats": "3"
      }
    },
    {
      "type": "node",
      "id": 11556469421,
      "lat": 12.965334,
      "lon": 77.6370879,
      "tags": {
        "amenity": "bench",
        "backrest": "yes",
        "material": "stone",
        "seats": "3"
      }
    },
    {
      "type": "node",
      "id": 11556469422,
      "lat": 12.9653955,
      "lon": 77.637033,
      "tags": {
        "amenity": "bench",
        "backrest": "yes",
        "material": "stone",
        "seats": "3"
      }
    },
    {
      "type": "node",
      "id": 11556469423,
      "lat": 12.965452,
      "lon": 77.636979,
      "tags": {
        "amenity": "bench",
        "backrest": "yes",
        "material": "stone",
        "seats": "3"
      }
    },
    {
      "type": "node",
      "id": 11556469424,
      "lat": 12.9655204,
      "lon": 77.636917,
      "tags": {
        "amenity": "bench",
        "backrest": "yes",
        "material": "stone",
        "seats": "3"
      }
    },
    {
      "type": "node",
      "id": 11556469425,
      "lat": 12.9656147,
      "lon": 77.6368474,
      "tags": {
        "amenity": "bench",
        "backrest": "yes",
        "material": "stone",
        "seats": "3"
      }
    },
    {
      "type": "node",
      "id": 11556469426,
      "lat": 12.9656855,
      "lon": 77.6367857,
      "tags": {
        "amenity": "bench",
        "backrest": "yes",
        "material": "stone",
        "seats": "3"
      }
    },
    {
      "type": "node",
      "id": 11556469427,
      "lat": 12.9657966,
      "lon": 77.6366986,
      "tags": {
        "amenity": "bench",
        "backrest": "yes",
        "material": "stone",
        "seats": "3"
      }
    },
    {
      "type": "node",
      "id": 11556469428,
      "lat": 12.965834,
      "lon": 77.6366602,
      "tags": {
        "amenity": "bench",
        "backrest": "yes",
        "material": "stone",
        "seats": "3"
      }
    },
    {
      "type": "node",
      "id": 11556469429,
      "lat": 12.9658982,
      "lon": 77.6366866,
      "tags": {
        "amenity": "bench",
        "backrest": "yes",
        "material": "stone",
        "seats": "3"
      }
    },
    {
      "type": "node",
      "id": 11556469430,
      "lat": 12.9659416,
      "lon": 77.6367442,
      "tags": {
        "amenity": "bench",
        "backrest": "yes",
        "material": "stone",
        "seats": "3"
      }
    },
    {
      "type": "node",
      "id": 11564661244,
      "lat": 12.963427,
      "lon": 77.6411439,
      "tags": {
        "brand": "Beruru",
        "name": "Beruru",
        "shop": "garden_centre"
      }
    },
    {
      "type": "node",
      "id": 11564661253,
      "lat": 12.9646059,
      "lon": 77.6386616,
      "tags": {
        "name": "CeeKay Supermarket",
        "shop": "supermarket"
      }
    },
    {
      "type": "node",
      "id": 11564661254,
      "lat": 12.9639981,
      "lon": 77.638396,
      "tags": {
        "name": "Brush amd Blush Salon",
        "shop": "beauty"
      }
    },
    {
      "type": "node",
      "id": 11564684569,
      "lat": 12.9657986,
      "lon": 77.6370304,
      "tags": {
        "amenity": "bench",
        "backrest": "yes",
        "material": "stone",
        "seats": "3"
      }
    },
    {
      "type": "node",
      "id": 11564684570,
      "lat": 12.9657945,
      "lon": 77.6370361,
      "tags": {
        "amenity": "bench",
        "backrest": "yes",
        "material": "stone",
        "seats": "3"
      }
    },
    {
      "type": "node",
      "id": 11564684571,
      "lat": 12.9657932,
      "lon": 77.6370482,
      "tags": {
        "amenity": "bench",
        "backrest": "yes",
        "material": "stone",
        "seats": "3"
      }
    },
    {
      "type": "node",
      "id": 11564684572,
      "lat": 12.9658022,
      "lon": 77.6370475,
      "tags": {
        "amenity": "bench",
        "backrest": "yes",
        "material": "stone",
        "seats": "3"
      }
    },
    {
      "type": "node",
      "id": 11564684573,
      "lat": 12.9658066,
      "lon": 77.6370418,
      "tags": {
        "amenity": "bench",
        "backrest": "yes",
        "material": "stone",
        "seats": "3"
      }
    },
    {
      "type": "node",
      "id": 11581390633,
      "lat": 12.9553287,
      "lon": 77.648507,
      "tags": {
        "amenity": "bench",
        "backrest": "yes",
        "material": "stone",
        "seats": "2"
      }
    },
    {
      "type": "node",
      "id": 11581390634,
      "lat": 12.9558937,
      "lon": 77.648458,
      "tags": {
        "amenity": "bench",
        "backrest": "yes",
        "material": "stone",
        "seats": "2"
      }
    },
    {
      "type": "node",
      "id": 11581390635,
      "lat": 12.9546124,
      "lon": 77.6484713,
      "tags": {
        "amenity": "bench",
        "backrest": "yes",
        "material": "stone",
        "seats": "2"
      }
    },
    {
      "type": "node",
      "id": 11684157871,
      "lat": 12.9615359,
      "lon": 77.6364148,
      "tags": {
        "amenity": "atm",
        "brand": "Axis Bank",
        "brand:wikidata": "Q2003549",
        "check_date": "2024-03-02",
        "operator": "Axis Bank",
        "operator:wikidata": "Q2003549"
      }
    },
    {
      "type": "node",
      "id": 11684157872,
      "lat": 12.9615985,
      "lon": 77.635642,
      "tags": {
        "brand": "Suzuki",
        "brand:wikidata": "Q181642",
        "check_date": "2025-08-23",
        "name": "Suzuki",
        "shop": "motorcycle"
      }
    },
    {
      "type": "node",
      "id": 12047098808,
      "lat": 12.9536798,
      "lon": 77.6419151,
      "tags": {
        "access": "private",
        "amenity": "parking_entrance",
        "parking": "underground"
      }
    },
    {
      "type": "node",
      "id": 12080146464,
      "lat": 12.9609648,
      "lon": 77.6478475,
      "tags": {
        "access": "private",
        "amenity": "parking_entrance",
        "parking": "underground"
      }
    },
    {
      "type": "node",
      "id": 12080146484,
      "lat": 12.9602525,
      "lon": 77.6471427,
      "tags": {
        "access": "private",
        "amenity": "parking_entrance",
        "parking": "underground"
      }
    },
    {
      "type": "node",
      "id": 12145301178,
      "lat": 12.9576909,
      "lon": 77.6415798,
      "tags": {
        "amenity": "restaurant",
        "name": "CR Tavern Bar & Kitchen"
      }
    },
    {
      "type": "node",
      "id": 12487640712,
      "lat": 12.9650368,
      "lon": 77.641796,
      "tags": {
        "addr:city": "Bengaluru",
        "addr:postcode": "560008",
        "addr:street": "100 Feet Rd, HAL 2nd Stage, Indiranagar",
        "name": "The Raymond",
        "shop": "clothes"
      }
    },
    {
      "type": "node",
      "id": 12507390919,
      "lat": 12.9618509,
      "lon": 77.6389224,
      "tags": {
        "amenity": "drinking_water"
      }
    },
    {
      "type": "node",
      "id": 12507390921,
      "lat": 12.961628,
      "lon": 77.6386927,
      "tags": {
        "access": "yes",
        "amenity": "toilets",
        "female": "yes"
      }
    },
    {
      "type": "node",
      "id": 12507390922,
      "lat": 12.9616829,
      "lon": 77.6387497,
      "tags": {
        "access": "yes",
        "amenity": "toilets",
        "male": "yes"
      }
    },
    {
      "type": "node",
      "id": 12507390923,
      "lat": 12.961826,
      "lon": 77.6388929,
      "tags": {
        "access": "yes",
        "amenity": "toilets",
        "female": "yes"
      }
    },
    {
      "type": "node",
      "id": 12507390924,
      "lat": 12.9618809,
      "lon": 77.6389499,
      "tags": {
        "access": "yes",
        "amenity": "toilets",
        "male": "yes"
      }
    },
    {
      "type": "node",
      "id": 12560755497,
      "lat": 12.9600064,
      "lon": 77.6457581,
      "tags": {
        "addr:city": "Bengaluru, Karnataka",
        "addr:district": "Bangalore",
        "addr:postcode": "560008",
        "addr:street": "HAL Old Airport Road",
        "amenity": "fuel",
        "brand": "Indian Oil",
        "brand:wikidata": "Q1289348",
        "compressed_air": "yes",
        "name": "Indian Oil"
      }
    },
    {
      "type": "node",
      "id": 12611770958,
      "lat": 12.9636433,
      "lon": 77.6412982,
      "tags": {
        "addr:city": "Bengaluru",
        "addr:hamlet": "HAL 2nd Stage",
        "addr:housenumber": "4000",
        "addr:postcode": "560038",
        "addr:street": "100 Feet Road",
        "addr:suburb": "Indiranagar",
        "amenity": "fast_food",
        "contact:instagram": "thealienkind",
        "name": "Alienkind"
      }
    },
    {
      "type": "node",
      "id": 12862846450,
      "lat": 12.9653164,
      "lon": 77.638073,
      "tags": {
        "amenity": "fast_food",
        "cuisine": "burger",
        "delivery": "only",
        "name": "Nashville Fried Chicken",
        "takeaway": "only"
      }
    },
    {
      "type": "node",
      "id": 12866892913,
      "lat": 12.956793,
      "lon": 77.6478146,
      "tags": {
        "amenity": "kindergarten",
        "name": "The Green Pocket"
      }
    },
    {
      "type": "node",
      "id": 12866892914,
      "lat": 12.9567864,
      "lon": 77.6477462,
      "tags": {
        "name": "Pet Steppin'",
        "shop": "pet_grooming"
      }
    },
    {
      "type": "node",
      "id": 12866892915,
      "lat": 12.9568413,
      "lon": 77.647765,
      "tags": {
        "name": "White Mantra Spa and Salon",
        "shop": "beauty"
      }
    },
    {
      "type": "node",
      "id": 12999130467,
      "lat": 12.965292,
      "lon": 77.6380121,
      "tags": {
        "amenity": "restaurant",
        "name": "Louis Burger"
      }
    },
    {
      "type": "node",
      "id": 12999130468,
      "lat": 12.965177,
      "lon": 77.6381694,
      "tags": {
        "amenity": "studio",
        "name": "Indigo 91.9FM"
      }
    },
    {
      "type": "node",
      "id": 12999130482,
      "lat": 12.9648993,
      "lon": 77.6392134,
      "tags": {
        "addr:city": "Bengaluru",
        "addr:hamlet": "HAL 2nd Stage",
        "addr:housenumber": "3578",
        "addr:postcode": "560008",
        "addr:street": "4th Cross Road",
        "addr:suburb": "Indiranagar",
        "amenity": "cafe",
        "delivery": "yes",
        "name": "Brott",
        "takeaway": "yes",
        "website": "https://brottcafe.com"
      }
    },
    {
      "type": "node",
      "id": 13061550159,
      "lat": 12.9611856,
      "lon": 77.6388419,
      "tags": {
        "amenity": "bench",
        "backrest": "yes",
        "material": "stone",
        "seats": "3"
      }
    },
    {
      "type": "node",
      "id": 13061550160,
      "lat": 12.961232,
      "lon": 77.6388037,
      "tags": {
        "amenity": "bench",
        "backrest": "yes",
        "material": "stone",
        "seats": "3"
      }
    },
    {
      "type": "node",
      "id": 13092288296,
      "lat": 12.9615904,
      "lon": 77.635809,
      "tags": {
        "check_date": "2025-08-23",
        "name": "C K Departmental Store",
        "shop": "supermarket"
      }
    },
    {
      "type": "node",
      "id": 13092288298,
      "lat": 12.9612967,
      "lon": 77.6372407,
      "tags": {
        "check_date": "2025-08-23",
        "name": "Castle Rock",
        "shop": "alcohol"
      }
    },
    {
      "type": "node",
      "id": 13092288299,
      "lat": 12.9612564,
      "lon": 77.6374819,
      "tags": {
        "check_date": "2025-08-23",
        "name": "Madhu Iyengar's Bakery",
        "shop": "bakery"
      }
    },
    {
      "type": "node",
      "id": 13092288300,
      "lat": 12.9613347,
      "lon": 77.6382044,
      "tags": {
        "amenity": "bench",
        "armrest": "no",
        "backrest": "yes",
        "material": "concrete",
        "seats": "3"
      }
    },
    {
      "type": "node",
      "id": 13256172751,
      "lat": 12.9608524,
      "lon": 77.6437363,
      "tags": {
        "amenity": "restaurant",
        "cuisine": "pizza",
        "name": "Rosmarino"
      }
    },
    {
      "type": "node",
      "id": 13288585396,
      "lat": 12.9564341,
      "lon": 77.636748,
      "tags": {
        "amenity": "fast_food",
        "delivery": "only",
        "name": "Knots & Crosses",
        "takeaway": "only"
      }
    },
    {
      "type": "node",
      "id": 13288585556,
      "lat": 12.9613387,
      "lon": 77.6456585,
      "tags": {
        "amenity": "cafe",
        "cuisine": "coffee_shop",
        "name": "Still Coffee"
      }
    },
    {
      "type": "node",
      "id": 13288585573,
      "lat": 12.9662859,
      "lon": 77.6416965,
      "tags": {
        "amenity": "cafe",
        "name": "Acai Theory"
      }
    },
    {
      "type": "node",
      "id": 13315911038,
      "lat": 12.9604562,
      "lon": 77.644626,
      "tags": {
        "addr:floor": "G",
        "amenity": "bar",
        "check_date": "2025-11-19",
        "level": "0",
        "name": "G. D. Bar And Restaurant",
        "name:en": "G. D. Bar And Restaurant"
      }
    },
    {
      "type": "node",
      "id": 13342571682,
      "lat": 12.956223,
      "lon": 77.6366045,
      "tags": {
        "air_conditioning": "no",
        "amenity": "restaurant",
        "bar": "no",
        "check_date": "2025-11-30",
        "cuisine": "regional",
        "description": "The restaurant is on the first floor. They also run a catring business on the second floor. It gets quite dark outside on the street owing to limited street lighting but the resturant is genuine. They serve Mangalorean food.",
        "internet_access": "no",
        "name": "ATIL - Domlur",
        "wheelchair": "no"
      }
    },
    {
      "type": "node",
      "id": 13347217753,
      "lat": 12.9611686,
      "lon": 77.6366559,
      "tags": {
        "amenity": "bench"
      }
    },
    {
      "type": "way",
      "id": 28444336,
      "center": {
        "lat": 12.9595519,
        "lon": 77.6402283
      },
      "tags": {
        "leisure": "pitch",
        "sport": "soccer"
      }
    },
    {
      "type": "way",
      "id": 28452979,
      "center": {
        "lat": 12.9517345,
        "lon": 77.6473911
      },
      "tags": {
        "alt_name": "KGA Golf Course",
        "golf:course": "18_hole",
        "leisure": "golf_course",
        "name": "Karnataka Golf Association Golf Course",
        "short_name": "KGA",
        "start_date": "1986-12-28",
        "website": "https://kga.in"
      }
    },
    {
      "type": "way",
      "id": 31231510,
      "center": {
        "lat": 12.9594873,
        "lon": 77.6402324
      },
      "tags": {
        "amenity": "school",
        "name": "Government PU College,Domlur",
        "name:kn": "ಸರ್ಕಾರಿ ಪದವಿಪೂರ್ವ ಕಾಲೇಜು"
      }
    },
    {
      "type": "way",
      "id": 31231545,
      "center": {
        "lat": 12.9618006,
        "lon": 77.6387125
      },
      "tags": {
        "amenity": "bus_station",
        "bus": "yes",
        "name": "Domlur Bus Station",
        "name:kn": "ದೊಮ್ಮಲೂರು ಬಸ್ ನಿಲ್ದಾಣ",
        "official_name": "Dr. BR Ambedkar Bus Terminal",
        "public_transport": "station"
      }
    },
    {
      "type": "way",
      "id": 55981268,
      "center": {
        "lat": 12.9636642,
        "lon": 77.6393577
      },
      "tags": {
        "leisure": "park",
        "name": "BBMP Park",
        "name:kn": "ಬೃ. ಬೆ. ಮ. ಪಾ. ಉದ್ಯಾನವನ",
        "operator": "ಬೃಹತ್ ಬೆಂಗಳೂರು ಮಹಾನಗರ ಪಾಲಿಕೆ",
        "operator:en": "Bruhat Bengaluru Mahanagara Palike",
        "operator:ka": "ಬೃಹತ್ ಬೆಂಗಳೂರು ಮಹಾನಗರ ಪಾಲಿಕೆ",
        "operator:short": "BBMP",
        "operator:type": "government",
        "operator:wikidata": "Q4978693"
      }
    },
    {
      "type": "way",
      "id": 56734546,
      "center": {
        "lat": 12.9636618,
        "lon": 77.6379214
      },
      "tags": {
        "amenity": "college",
        "name": "The Energy Resource Institute",
        "short_name": "TERI",
        "website": "https://www.teriin.org/"
      }
    },
    {
      "type": "way",
      "id": 56734547,
      "center": {
        "lat": 12.9656296,
        "lon": 77.63705
      },
      "tags": {
        "leisure": "park",
        "name": "BBMP Park",
        "name:kn": "ಬೃ. ಬೆ. ಮ. ಪಾ. ಉದ್ಯಾನವನ",
        "operator": "ಬೃಹತ್ ಬೆಂಗಳೂರು ಮಹಾನಗರ ಪಾಲಿಕೆ",
        "operator:en": "Bruhat Bengaluru Mahanagara Palike",
        "operator:ka": "ಬೃಹತ್ ಬೆಂಗಳೂರು ಮಹಾನಗರ ಪಾಲಿಕೆ",
        "operator:short": "BBMP",
        "operator:type": "government",
        "operator:wikidata": "Q4978693"
      }
    },
    {
      "type": "way",
      "id": 105318901,
      "center": {
        "lat": 12.9629172,
        "lon": 77.6373121
      },
      "tags": {
        "alt_name": "BBMP Park",
        "alt_name:kn": "ಬೃ. ಬೆ. ಮ. ಪಾ. ಉದ್ಯಾನವನ",
        "leisure": "park",
        "name": "Shankarnag Park",
        "operator": "ಬೃಹತ್ ಬೆಂಗಳೂರು ಮಹಾನಗರ ಪಾಲಿಕೆ",
        "operator:en": "Bruhat Bengaluru Mahanagara Palike",
        "operator:ka": "ಬೃಹತ್ ಬೆಂಗಳೂರು ಮಹಾನಗರ ಪಾಲಿಕೆ",
        "operator:short": "BBMP",
        "operator:type": "government",
        "operator:wikidata": "Q4978693"
      }
    },
    {
      "type": "way",
      "id": 106369984,
      "center": {
        "lat": 12.9638087,
        "lon": 77.6358375
      },
      "tags": {
        "leisure": "park"
      }
    },
    {
      "type": "way",
      "id": 128510775,
      "center": {
        "lat": 12.9619633,
        "lon": 77.6381971
      },
      "tags": {
        "amenity": "place_of_worship",
        "landuse": "religious",
        "name": "Shri Shaneshwara Swamy Temple",
        "religion": "hindu"
      }
    },
    {
      "type": "way",
      "id": 128515256,
      "center": {
        "lat": 12.9632107,
        "lon": 77.6384512
      },
      "tags": {
        "amenity": "place_of_worship",
        "name": "Dhyan Mandir",
        "name:kn": "ಧ್ಯಾನ ಮಂದಿರ"
      }
    },
    {
      "type": "way",
      "id": 133061662,
      "center": {
        "lat": 12.9581916,
        "lon": 77.6481504
      },
      "tags": {
        "access": "private",
        "amenity": "parking",
        "name": "Parking for Doctors and Staff",
        "parking": "surface"
      }
    },
    {
      "type": "way",
      "id": 133061664,
      "center": {
        "lat": 12.9587074,
        "lon": 77.6490296
      },
      "tags": {
        "addr:district": "Bengaluru Urban",
        "addr:full": "No. 98, Rusthom Bhag, Airport Road",
        "addr:postcode": "560017",
        "addr:state": "Karnataka",
        "amenity": "hospital",
        "building": "hospital",
        "emergency": "yes",
        "healthcare": "hospital",
        "name": "Manipal Hospital, Bengaluru Urban",
        "name:kn": "ಮಣಿಪಾಲ ಆಸ್ಪತ್ರೆ ಬೆಂಗಳೂರು",
        "source": "OpenGovernmentData",
        "wheelchair": "yes"
      }
    },
    {
      "type": "way",
      "id": 133061665,
      "center": {
        "lat": 12.9578573,
        "lon": 77.6477536
      },
      "tags": {
        "access": "customers",
        "amenity": "parking",
        "name": "Visitors' Parking",
        "name:kn": "ವಿಮಾನ ನಿಲ್ದಾಣ",
        "parking": "surface"
      }
    },
    {
      "type": "way",
      "id": 133726479,
      "center": {
        "lat": 12.9544772,
        "lon": 77.6417328
      },
      "tags": {
        "alt_name": "Millenium Hero",
        "name": "Hero Honda show room, Domlur",
        "shop": "motorcycle"
      }
    },
    {
      "type": "way",
      "id": 135262255,
      "center": {
        "lat": 12.9585777,
        "lon": 77.6481409
      },
      "tags": {
        "amenity": "hospital",
        "healthcare": "hospital",
        "name": "Manipal Hospital",
        "name:kn": "ಮಣಿಪಾಲ ಆಸ್ಪತ್ರೆ",
        "start_date": "1991",
        "wheelchair": "yes"
      }
    },
    {
      "type": "way",
      "id": 135956751,
      "center": {
        "lat": 12.9639941,
        "lon": 77.6404897
      },
      "tags": {
        "leisure": "park"
      }
    },
    {
      "type": "way",
      "id": 154378358,
      "center": {
        "lat": 12.9566823,
        "lon": 77.6443475
      },
      "tags": {
        "access": "permissive",
        "amenity": "parking",
        "parking": "surface"
      }
    },
    {
      "type": "way",
      "id": 154378359,
      "center": {
        "lat": 12.9565931,
        "lon": 77.6449306
      },
      "tags": {
        "access": "private",
        "leisure": "swimming_pool"
      }
    },
    {
      "type": "way",
      "id": 166560363,
      "center": {
        "lat": 12.9619711,
        "lon": 77.636354
      },
      "tags": {
        "amenity": "place_of_worship",
        "name": "Kothandarameshwarar Temple",
        "name:kn": "ಕೋದಂಡರಾಮೇಶ್ವರ ದೇವಸ್ಥಾನ",
        "religion": "hindu"
      }
    },
    {
      "type": "way",
      "id": 166560378,
      "center": {
        "lat": 12.9612233,
        "lon": 77.6403753
      },
      "tags": {
        "alt_name": "Dry Waste Collection Center",
        "amenity": "recycling",
        "building": "yes",
        "name": "BBMP Dry Waste Collection Center",
        "name:kn": "ಒಣ ತ್ಯಾಜ್ಯ ನಿರ್ವಹಣೆಗೆ ಸ್ಥಳ",
        "official_name": "Domlur Kartavya DWCC",
        "operator": "BBMP",
        "recycling_type": "centre",
        "short_name": "DWCC"
      }
    },
    {
      "type": "way",
      "id": 166560423,
      "center": {
        "lat": 12.9618699,
        "lon": 77.6386526
      },
      "tags": {
        "amenity": "parking",
        "building": "transportation",
        "fee": "yes",
        "layer": "1",
        "parking": "multi-storey"
      }
    },
    {
      "type": "way",
      "id": 166560438,
      "center": {
        "lat": 12.9644769,
        "lon": 77.6370815
      },
      "tags": {
        "addr:city": "Bengaluru",
        "addr:housenumber": "3",
        "addr:postcode": "560071",
        "addr:street": "4th Main Road, Domlur 2nd Stage",
        "amenity": "community_centre",
        "leisure": "sports_centre",
        "name": "Domlur Club"
      }
    },
    {
      "type": "way",
      "id": 166560442,
      "center": {
        "lat": 12.9622785,
        "lon": 77.6398708
      },
      "tags": {
        "leisure": "park"
      }
    },
    {
      "type": "way",
      "id": 166560446,
      "center": {
        "lat": 12.9655717,
        "lon": 77.6360749
      },
      "tags": {
        "leisure": "park",
        "name": "L.A.Perumal Childrens Park"
      }
    },
    {
      "type": "way",
      "id": 169717849,
      "center": {
        "lat": 12.9657146,
        "lon": 77.6380721
      },
      "tags": {
        "amenity": "place_of_worship",
        "check_date": "2023-10-08",
        "name": "Temple",
        "name:kn": "ದೇವಸ್ಥಾನ",
        "religion": "hindu"
      }
    },
    {
      "type": "way",
      "id": 169717868,
      "center": {
        "lat": 12.9663077,
        "lon": 77.6375826
      },
      "tags": {
        "leisure": "park",
        "name": "Paramahansa Yogananda Circle",
        "name:kn": "ಪರಮಹಂಸ ಯೋಗಾನಂದ ವೃತ್ತ"
      }
    },
    {
      "type": "way",
      "id": 169717869,
      "center": {
        "lat": 12.9650449,
        "lon": 77.6388936
      },
      "tags": {
        "leisure": "park"
      }
    },
    {
      "type": "way",
      "id": 217529759,
      "center": {
        "lat": 12.9621358,
        "lon": 77.6370712
      },
      "tags": {
        "amenity": "place_of_worship",
        "religion": "hindu"
      }
    },
    {
      "type": "way",
      "id": 217529761,
      "center": {
        "lat": 12.9624117,
        "lon": 77.6350605
      },
      "tags": {
        "amenity": "place_of_worship",
        "name": "Chokkanathaswamy temple",
        "name:kn": "ಶ್ರೀ ಚೊಕ್ಕನಾಥಸ್ವಾಮಿ ದೇವಸ್ಥಾನ",
        "religion": "hindu",
        "wikipedia": "en:Domlur Chokkanathaswamy temple"
      }
    },
    {
      "type": "way",
      "id": 217565212,
      "center": {
        "lat": 12.9611902,
        "lon": 77.6413946
      },
      "tags": {
        "leisure": "park",
        "name": "Kanakadasa Park",
        "name:kn": "ಕನಕದಾಸ ಉದ್ಯಾನವನ"
      }
    },
    {
      "type": "way",
      "id": 217565864,
      "center": {
        "lat": 12.9610957,
        "lon": 77.6364444
      },
      "tags": {
        "leisure": "playground"
      }
    },
    {
      "type": "way",
      "id": 217565866,
      "center": {
        "lat": 12.9609678,
        "lon": 77.6376394
      },
      "tags": {
        "leisure": "park"
      }
    },
    {
      "type": "way",
      "id": 217565867,
      "center": {
        "lat": 12.9613957,
        "lon": 77.6393137
      },
      "tags": {
        "leisure": "park",
        "name": "Domlur SAARC Park",
        "name:kn": "ದೊಮಲೂರು ಸಾರ್ಕ್ ಉದ್ಯಾನವನ",
        "operator": "ಬೃಹತ್ ಬೆಂಗಳೂರು ಮಹಾನಗರ ಪಾಲಿಕೆ",
        "operator:en": "Bruhat Bengaluru Mahanagara Palike",
        "operator:ka": "ಬೃಹತ್ ಬೆಂಗಳೂರು ಮಹಾನಗರ ಪಾಲಿಕೆ",
        "operator:short": "BBMP",
        "operator:type": "government",
        "operator:wikidata": "Q4978693"
      }
    },
    {
      "type": "way",
      "id": 296602327,
      "center": {
        "lat": 12.9609722,
        "lon": 77.6419534
      },
      "tags": {
        "amenity": "recycling",
        "building": "yes",
        "name": "BBMP Dry Waste Segregation Center",
        "recycling_type": "centre"
      }
    },
    {
      "type": "way",
      "id": 313832231,
      "center": {
        "lat": 12.9635407,
        "lon": 77.636438
      },
      "tags": {
        "amenity": "place_of_worship",
        "religion": "hindu"
      }
    },
    {
      "type": "way",
      "id": 313927907,
      "center": {
        "lat": 12.964068,
        "lon": 77.6375813
      },
      "tags": {
        "addr:street": "4th Main Road",
        "leisure": "swimming_pool",
        "lit": "yes",
        "name": "Domlur Club Swimming Pool",
        "sport": "swimming"
      }
    },
    {
      "type": "way",
      "id": 313927909,
      "center": {
        "lat": 12.964886,
        "lon": 77.6367311
      },
      "tags": {
        "leisure": "pitch"
      }
    },
    {
      "type": "way",
      "id": 323104302,
      "center": {
        "lat": 12.9599425,
        "lon": 77.64573
      },
      "tags": {
        "addr:street": "HAL Airport Road",
        "amenity": "fuel",
        "brand": "Indian Oil",
        "brand:wikidata": "Q1289348",
        "brand:wikipedia": "en:Indian Oil Corporation",
        "compressed_air": "yes",
        "name": "Indian Oil",
        "name:kn": "ಇಂಡಿಯನ್ ಆಯಿಲ್"
      }
    },
    {
      "type": "way",
      "id": 323120612,
      "center": {
        "lat": 12.9574386,
        "lon": 77.6485324
      },
      "tags": {
        "amenity": "school",
        "email": "secretary.deafaidsociety@gmail.com",
        "landuse": "education",
        "name": "Sheila Kothavala Institute for the Deaf",
        "phone": "+91 080 2526 2274",
        "short_name": "SKID",
        "start_date": "1966",
        "website": "https://deafaidsociety.in/"
      }
    },
    {
      "type": "way",
      "id": 324651009,
      "center": {
        "lat": 12.9544229,
        "lon": 77.6429218
      },
      "tags": {
        "leisure": "park"
      }
    },
    {
      "type": "way",
      "id": 328435494,
      "center": {
        "lat": 12.9532993,
        "lon": 77.6399399
      },
      "tags": {
        "leisure": "park"
      }
    },
    {
      "type": "way",
      "id": 340081776,
      "center": {
        "lat": 12.9615833,
        "lon": 77.6439264
      },
      "tags": {
        "amenity": "place_of_worship",
        "building": "yes",
        "religion": "hindu"
      }
    },
    {
      "type": "way",
      "id": 343609194,
      "center": {
        "lat": 12.9646605,
        "lon": 77.6418412
      },
      "tags": {
        "building": "yes",
        "building:levels": "2",
        "name": "Vodafone store",
        "shop": "mobile_phone"
      }
    },
    {
      "type": "way",
      "id": 345847399,
      "center": {
        "lat": 12.9489114,
        "lon": 77.6429244
      },
      "tags": {
        "amenity": "place_of_worship",
        "building": "church",
        "denomination": "orthodox",
        "name": "St. George Knanaya Syrian Church",
        "religion": "christian"
      }
    },
    {
      "type": "way",
      "id": 346520715,
      "center": {
        "lat": 12.959544,
        "lon": 77.6435143
      },
      "tags": {
        "building": "yes",
        "leisure": "sports_centre",
        "level": "0,_-1,_-2",
        "name": "Clubhouse",
        "sport": "tennis"
      }
    },
    {
      "type": "way",
      "id": 346528648,
      "center": {
        "lat": 12.9587303,
        "lon": 77.6442261
      },
      "tags": {
        "access": "private",
        "leisure": "park"
      }
    },
    {
      "type": "way",
      "id": 346531132,
      "center": {
        "lat": 12.9588336,
        "lon": 77.642376
      },
      "tags": {
        "access": "private",
        "leisure": "swimming_pool"
      }
    },
    {
      "type": "way",
      "id": 346531134,
      "center": {
        "lat": 12.957499,
        "lon": 77.6437764
      },
      "tags": {
        "layer": "1",
        "leisure": "swimming_pool"
      }
    },
    {
      "type": "way",
      "id": 346533688,
      "center": {
        "lat": 12.9577804,
        "lon": 77.6442655
      },
      "tags": {
        "access": "customers",
        "amenity": "parking",
        "parking": "surface"
      }
    },
    {
      "type": "way",
      "id": 346745629,
      "center": {
        "lat": 12.9602378,
        "lon": 77.6468937
      },
      "tags": {
        "air_conditioning": "yes",
        "amenity": "pub",
        "building": "yes",
        "indoor_seating": "yes",
        "microbrewery": "yes",
        "name": "Big Pitcher",
        "outdoor_seating": "no",
        "wheelchair": "limited"
      }
    },
    {
      "type": "way",
      "id": 347092428,
      "center": {
        "lat": 12.9548321,
        "lon": 77.6386172
      },
      "tags": {
        "addr:city": "Bengaluru",
        "addr:postcode": "560071",
        "amenity": "place_of_worship",
        "building": "yes",
        "name": "Surya Narayana Swamy Temple",
        "name:kn": "ಸೂರ್ಯ ನಾರಯಣ ಸ್ವಾಮಿ ದೇವಸ್ಥಾನ",
        "religion": "hindu"
      }
    },
    {
      "type": "way",
      "id": 347990397,
      "center": {
        "lat": 12.9637364,
        "lon": 77.6429921
      },
      "tags": {
        "barrier": "fence",
        "leisure": "park",
        "name": "Dr. Vishnuvardhan Park",
        "name:kn": "ಡಾ. ವಿಷ್ಣುವರ್ಧನ ಉದ್ಯಾನವನ",
        "opening_hours": "06:00-10:00,16:00-19:00"
      }
    },
    {
      "type": "way",
      "id": 348546051,
      "center": {
        "lat": 12.96273,
        "lon": 77.6418983
      },
      "tags": {
        "building": "yes",
        "name": "Floating wall furnishings",
        "shop": "interior_decoration"
      }
    },
    {
      "type": "way",
      "id": 348546066,
      "center": {
        "lat": 12.9628469,
        "lon": 77.6418909
      },
      "tags": {
        "addr:city": "Bengaluru",
        "addr:housenumber": "Shop No 5, Ground Floor, 106",
        "addr:postcode": "560038",
        "addr:street": "Main Road, opposite Barbeque Nation, Indiranagar",
        "building": "yes",
        "name": "Faber Platinum Studio",
        "shop": "appliance"
      }
    },
    {
      "type": "way",
      "id": 350015269,
      "center": {
        "lat": 12.9644534,
        "lon": 77.6440857
      },
      "tags": {
        "amenity": "place_of_worship",
        "building": "yes"
      }
    },
    {
      "type": "way",
      "id": 362931827,
      "center": {
        "lat": 12.9607435,
        "lon": 77.6487378
      },
      "tags": {
        "leisure": "park"
      }
    },
    {
      "type": "way",
      "id": 372545827,
      "center": {
        "lat": 12.9591543,
        "lon": 77.6464476
      },
      "tags": {
        "amenity": "hospital",
        "name": "BBMP Primary Health Center",
        "name:kn": "ಪ್ರಾಥಮಿಕ ಆರೋಗ್ಯ ಕೇಂದ್ರ"
      }
    },
    {
      "type": "way",
      "id": 372545828,
      "center": {
        "lat": 12.9594784,
        "lon": 77.646444
      },
      "tags": {
        "amenity": "place_of_worship",
        "building": "yes",
        "name": "Ganesha Temple",
        "name:kn": "ಗಣೇಶ ದೇವಸ್ಥಾನ",
        "religion": "hindu",
        "wheelchair": "no"
      }
    },
    {
      "type": "way",
      "id": 374694446,
      "center": {
        "lat": 12.9644861,
        "lon": 77.6446189
      },
      "tags": {
        "amenity": "college",
        "name": "PU Cauvery College"
      }
    },
    {
      "type": "way",
      "id": 374694453,
      "center": {
        "lat": 12.9644545,
        "lon": 77.6440915
      },
      "tags": {
        "amenity": "place_of_worship",
        "name": "Balamuri Ganapathy Temple",
        "name:kn": "ಬಲಮುರಿ ಗಣಪತಿ ದೇವಸ್ತಾನ",
        "religion": "hindu"
      }
    },
    {
      "type": "way",
      "id": 374973873,
      "center": {
        "lat": 12.9587677,
        "lon": 77.6439053
      },
      "tags": {
        "access": "private",
        "leisure": "swimming_pool"
      }
    },
    {
      "type": "way",
      "id": 374973874,
      "center": {
        "lat": 12.95876,
        "lon": 77.6445515
      },
      "tags": {
        "access": "private",
        "leisure": "pitch",
        "lit": "yes",
        "sport": "basketball",
        "surface": "grass"
      }
    },
    {
      "type": "way",
      "id": 397737944,
      "center": {
        "lat": 12.9633497,
        "lon": 77.6451765
      },
      "tags": {
        "amenity": "school",
        "name": "Bangalore Public School",
        "name:kn": "ಬೆಂಗಳೂರು ಸಾರ್ವಜನಿಕ ಶಾಲೆ"
      }
    },
    {
      "type": "way",
      "id": 397788973,
      "center": {
        "lat": 12.9633767,
        "lon": 77.6454442
      },
      "tags": {
        "leisure": "common",
        "name": "BDA Land"
      }
    },
    {
      "type": "way",
      "id": 398907238,
      "center": {
        "lat": 12.950821,
        "lon": 77.6433873
      },
      "tags": {
        "amenity": "place_of_worship",
        "building": "temple",
        "name": "Ganapathy Temple",
        "name:kn": "ಗಣಪತಿ ದೇವಸ್ಥಾನ",
        "religion": "hindu",
        "wheelchair": "yes"
      }
    },
    {
      "type": "way",
      "id": 411039957,
      "center": {
        "lat": 12.9597739,
        "lon": 77.6465069
      },
      "tags": {
        "amenity": "recycling",
        "recycling_type": "centre"
      }
    },
    {
      "type": "way",
      "id": 431602275,
      "center": {
        "lat": 12.9521084,
        "lon": 77.64336
      },
      "tags": {
        "addr:housename": "Embasy Golf Links",
        "amenity": "food_court",
        "building": "retail",
        "name": "Riviera Food Court",
        "name:kn": "ರಿವೇರ ಫುಡ್ ಕೋರ್ಟ್"
      }
    },
    {
      "type": "way",
      "id": 454700254,
      "center": {
        "lat": 12.9638104,
        "lon": 77.6465275
      },
      "tags": {
        "amenity": "place_of_worship",
        "landuse": "religious",
        "religion": "hindu"
      }
    },
    {
      "type": "way",
      "id": 460225760,
      "center": {
        "lat": 12.9588971,
        "lon": 77.6461063
      },
      "tags": {
        "leisure": "common",
        "natural": "scrub"
      }
    },
    {
      "type": "way",
      "id": 460225764,
      "center": {
        "lat": 12.9585638,
        "lon": 77.6463925
      },
      "tags": {
        "amenity": "place_of_worship",
        "building": "yes",
        "name": "Abhaya Anjaneya Swamy Temple",
        "name:en": "Abhaya Anjaneya Swamy Temple",
        "name:kn": "ಅಭಯ ಅಂಜನೇಯ ದೇವಸ್ಥಾನ",
        "religion": "hindu"
      }
    },
    {
      "type": "way",
      "id": 568518772,
      "center": {
        "lat": 12.954191,
        "lon": 77.6387603
      },
      "tags": {
        "leisure": "garden"
      }
    },
    {
      "type": "way",
      "id": 568518774,
      "center": {
        "lat": 12.9542967,
        "lon": 77.6396129
      },
      "tags": {
        "access": "private",
        "leisure": "swimming_pool"
      }
    },
    {
      "type": "way",
      "id": 568518783,
      "center": {
        "lat": 12.956039,
        "lon": 77.6381819
      },
      "tags": {
        "leisure": "swimming_pool"
      }
    },
    {
      "type": "way",
      "id": 685235289,
      "center": {
        "lat": 12.961514,
        "lon": 77.643682
      },
      "tags": {
        "building": "yes",
        "shop": "florist"
      }
    },
    {
      "type": "way",
      "id": 1119921713,
      "center": {
        "lat": 12.9610014,
        "lon": 77.6401262
      },
      "tags": {
        "amenity": "recycling",
        "name": "Wet Waste Transfer Station",
        "operator": "BBMP",
        "recycling_type": "centre"
      }
    },
    {
      "type": "way",
      "id": 1146457069,
      "center": {
        "lat": 12.9581599,
        "lon": 77.6383415
      },
      "tags": {
        "amenity": "place_of_worship",
        "building": "yes",
        "name": "Shiva Temple",
        "name:kn": "ಶಿವ ದೇವಸ್ಥಾನ",
        "religion": "hindu"
      }
    },
    {
      "type": "way",
      "id": 1157119901,
      "center": {
        "lat": 12.949632,
        "lon": 77.6346704
      },
      "tags": {
        "leisure": "park"
      }
    },
    {
      "type": "way",
      "id": 1157119902,
      "center": {
        "lat": 12.94967,
        "lon": 77.6359284
      },
      "tags": {
        "alt_name": "Agram Riding & Polo Academy",
        "contact:instagram": "arpaclub",
        "contact:twitter": "arpaacademy",
        "leisure": "horse_riding",
        "name": "ARPA Club",
        "operator": "ASC"
      }
    },
    {
      "type": "way",
      "id": 1240674108,
      "center": {
        "lat": 12.9502456,
        "lon": 77.6434815
      },
      "tags": {
        "leisure": "garden"
      }
    },
    {
      "type": "way",
      "id": 1240674149,
      "center": {
        "lat": 12.949436,
        "lon": 77.6439267
      },
      "tags": {
        "amenity": "theatre",
        "name": "Amphitheatre",
        "theatre:type": "amphi"
      }
    },
    {
      "type": "way",
      "id": 1240674150,
      "center": {
        "lat": 12.9491371,
        "lon": 77.6436683
      },
      "tags": {
        "amenity": "food_court",
        "building": "retail",
        "name": "Pyramid Food Court"
      }
    },
    {
      "type": "way",
      "id": 1240674152,
      "center": {
        "lat": 12.9506159,
        "lon": 77.6408593
      },
      "tags": {
        "leisure": "garden"
      }
    },
    {
      "type": "way",
      "id": 1240674153,
      "center": {
        "lat": 12.9521386,
        "lon": 77.6443212
      },
      "tags": {
        "leisure": "park"
      }
    },
    {
      "type": "way",
      "id": 1240674156,
      "center": {
        "lat": 12.9524362,
        "lon": 77.6433736
      },
      "tags": {
        "leisure": "garden"
      }
    },
    {
      "type": "way",
      "id": 1240674157,
      "center": {
        "lat": 12.952131,
        "lon": 77.6411769
      },
      "tags": {
        "access": "private",
        "amenity": "parking",
        "parking": "surface"
      }
    },
    {
      "type": "way",
      "id": 1240674158,
      "center": {
        "lat": 12.9515326,
        "lon": 77.6419591
      },
      "tags": {
        "access": "private",
        "amenity": "parking",
        "parking": "surface"
      }
    },
    {
      "type": "way",
      "id": 1240674161,
      "center": {
        "lat": 12.9516114,
        "lon": 77.6441377
      },
      "tags": {
        "access": "private",
        "amenity": "parking",
        "parking": "surface"
      }
    },
    {
      "type": "way",
      "id": 1240738070,
      "center": {
        "lat": 12.9550407,
        "lon": 77.6469052
      },
      "tags": {
        "leisure": "park"
      }
    },
    {
      "type": "way",
      "id": 1240738079,
      "center": {
        "lat": 12.9546103,
        "lon": 77.6475375
      },
      "tags": {
        "amenity": "bench"
      }
    },
    {
      "type": "way",
      "id": 1240738080,
      "center": {
        "lat": 12.9552608,
        "lon": 77.6472361
      },
      "tags": {
        "amenity": "bench"
      }
    },
    {
      "type": "way",
      "id": 1240738081,
      "center": {
        "lat": 12.9555753,
        "lon": 77.6465387
      },
      "tags": {
        "amenity": "bench"
      }
    },
    {
      "type": "way",
      "id": 1240738085,
      "center": {
        "lat": 12.9547292,
        "lon": 77.6484295
      },
      "tags": {
        "access": "private",
        "leisure": "swimming_pool"
      }
    },
    {
      "type": "way",
      "id": 1240738086,
      "center": {
        "lat": 12.9548821,
        "lon": 77.6484636
      },
      "tags": {
        "access": "private",
        "leisure": "swimming_pool"
      }
    },
    {
      "type": "way",
      "id": 1240738087,
      "center": {
        "lat": 12.9549306,
        "lon": 77.6484597
      },
      "tags": {
        "access": "private",
        "leisure": "swimming_pool"
      }
    },
    {
      "type": "way",
      "id": 1240738088,
      "center": {
        "lat": 12.9551389,
        "lon": 77.6484469
      },
      "tags": {
        "access": "private",
        "leisure": "swimming_pool"
      }
    },
    {
      "type": "way",
      "id": 1240738089,
      "center": {
        "lat": 12.9551874,
        "lon": 77.648443
      },
      "tags": {
        "access": "private",
        "leisure": "swimming_pool"
      }
    },
    {
      "type": "way",
      "id": 1240738090,
      "center": {
        "lat": 12.9553827,
        "lon": 77.6484321
      },
      "tags": {
        "access": "private",
        "leisure": "swimming_pool"
      }
    },
    {
      "type": "way",
      "id": 1240738091,
      "center": {
        "lat": 12.9554312,
        "lon": 77.6484282
      },
      "tags": {
        "access": "private",
        "leisure": "swimming_pool"
      }
    },
    {
      "type": "way",
      "id": 1240738092,
      "center": {
        "lat": 12.9556212,
        "lon": 77.6484133
      },
      "tags": {
        "access": "private",
        "leisure": "swimming_pool"
      }
    },
    {
      "type": "way",
      "id": 1240738093,
      "center": {
        "lat": 12.9556697,
        "lon": 77.6484095
      },
      "tags": {
        "access": "private",
        "leisure": "swimming_pool"
      }
    },
    {
      "type": "way",
      "id": 1240738094,
      "center": {
        "lat": 12.9558571,
        "lon": 77.6483939
      },
      "tags": {
        "access": "private",
        "leisure": "swimming_pool"
      }
    },
    {
      "type": "way",
      "id": 1240738095,
      "center": {
        "lat": 12.9559056,
        "lon": 77.64839
      },
      "tags": {
        "access": "private",
        "leisure": "swimming_pool"
      }
    },
    {
      "type": "way",
      "id": 1240738096,
      "center": {
        "lat": 12.95584,
        "lon": 77.6481502
      },
      "tags": {
        "access": "private",
        "leisure": "swimming_pool"
      }
    },
    {
      "type": "way",
      "id": 1240738097,
      "center": {
        "lat": 12.9556707,
        "lon": 77.6478068
      },
      "tags": {
        "access": "private",
        "leisure": "swimming_pool"
      }
    },
    {
      "type": "way",
      "id": 1240738098,
      "center": {
        "lat": 12.9557156,
        "lon": 77.6477876
      },
      "tags": {
        "access": "private",
        "leisure": "swimming_pool"
      }
    },
    {
      "type": "way",
      "id": 1240738099,
      "center": {
        "lat": 12.9554518,
        "lon": 77.6478986
      },
      "tags": {
        "access": "private",
        "leisure": "swimming_pool"
      }
    },
    {
      "type": "way",
      "id": 1240738100,
      "center": {
        "lat": 12.9554967,
        "lon": 77.6478795
      },
      "tags": {
        "access": "private",
        "leisure": "swimming_pool"
      }
    },
    {
      "type": "way",
      "id": 1240738101,
      "center": {
        "lat": 12.9552257,
        "lon": 77.6479911
      },
      "tags": {
        "access": "private",
        "leisure": "swimming_pool"
      }
    },
    {
      "type": "way",
      "id": 1240738102,
      "center": {
        "lat": 12.9552706,
        "lon": 77.647972
      },
      "tags": {
        "access": "private",
        "leisure": "swimming_pool"
      }
    },
    {
      "type": "way",
      "id": 1240738103,
      "center": {
        "lat": 12.9550028,
        "lon": 77.6480884
      },
      "tags": {
        "access": "private",
        "leisure": "swimming_pool"
      }
    },
    {
      "type": "way",
      "id": 1240738104,
      "center": {
        "lat": 12.9550478,
        "lon": 77.6480692
      },
      "tags": {
        "access": "private",
        "leisure": "swimming_pool"
      }
    },
    {
      "type": "way",
      "id": 1240738105,
      "center": {
        "lat": 12.9546088,
        "lon": 77.6481118
      },
      "tags": {
        "access": "private",
        "leisure": "swimming_pool"
      }
    },
    {
      "type": "way",
      "id": 1240738106,
      "center": {
        "lat": 12.9546537,
        "lon": 77.6480927
      },
      "tags": {
        "access": "private",
        "leisure": "swimming_pool"
      }
    },
    {
      "type": "way",
      "id": 1240738107,
      "center": {
        "lat": 12.9548427,
        "lon": 77.648018
      },
      "tags": {
        "access": "private",
        "leisure": "swimming_pool"
      }
    },
    {
      "type": "way",
      "id": 1240738108,
      "center": {
        "lat": 12.9548877,
        "lon": 77.6479988
      },
      "tags": {
        "access": "private",
        "leisure": "swimming_pool"
      }
    },
    {
      "type": "way",
      "id": 1240738109,
      "center": {
        "lat": 12.9550701,
        "lon": 77.6479248
      },
      "tags": {
        "access": "private",
        "leisure": "swimming_pool"
      }
    },
    {
      "type": "way",
      "id": 1240738110,
      "center": {
        "lat": 12.9551151,
        "lon": 77.6479056
      },
      "tags": {
        "access": "private",
        "leisure": "swimming_pool"
      }
    },
    {
      "type": "way",
      "id": 1240738111,
      "center": {
        "lat": 12.9552892,
        "lon": 77.647836
      },
      "tags": {
        "access": "private",
        "leisure": "swimming_pool"
      }
    },
    {
      "type": "way",
      "id": 1240738112,
      "center": {
        "lat": 12.9553338,
        "lon": 77.6478159
      },
      "tags": {
        "access": "private",
        "leisure": "swimming_pool"
      }
    },
    {
      "type": "way",
      "id": 1240738113,
      "center": {
        "lat": 12.9556821,
        "lon": 77.6476738
      },
      "tags": {
        "access": "private",
        "leisure": "swimming_pool"
      }
    },
    {
      "type": "way",
      "id": 1240738114,
      "center": {
        "lat": 12.9555199,
        "lon": 77.647743
      },
      "tags": {
        "access": "private",
        "leisure": "swimming_pool"
      }
    },
    {
      "type": "way",
      "id": 1240738115,
      "center": {
        "lat": 12.9555644,
        "lon": 77.647723
      },
      "tags": {
        "access": "private",
        "leisure": "swimming_pool"
      }
    },
    {
      "type": "way",
      "id": 1240738116,
      "center": {
        "lat": 12.9559319,
        "lon": 77.6474718
      },
      "tags": {
        "access": "private",
        "leisure": "swimming_pool"
      }
    },
    {
      "type": "way",
      "id": 1240738117,
      "center": {
        "lat": 12.9559805,
        "lon": 77.647472
      },
      "tags": {
        "access": "private",
        "leisure": "swimming_pool"
      }
    },
    {
      "type": "way",
      "id": 1240738118,
      "center": {
        "lat": 12.9561749,
        "lon": 77.647477
      },
      "tags": {
        "access": "private",
        "leisure": "swimming_pool"
      }
    },
    {
      "type": "way",
      "id": 1240738119,
      "center": {
        "lat": 12.9562235,
        "lon": 77.6474769
      },
      "tags": {
        "access": "private",
        "leisure": "swimming_pool"
      }
    },
    {
      "type": "way",
      "id": 1240738120,
      "center": {
        "lat": 12.9560807,
        "lon": 77.6471672
      },
      "tags": {
        "access": "private",
        "leisure": "swimming_pool"
      }
    },
    {
      "type": "way",
      "id": 1240738121,
      "center": {
        "lat": 12.9560167,
        "lon": 77.6469697
      },
      "tags": {
        "access": "private",
        "leisure": "swimming_pool"
      }
    },
    {
      "type": "way",
      "id": 1240738122,
      "center": {
        "lat": 12.9560002,
        "lon": 77.6469228
      },
      "tags": {
        "access": "private",
        "leisure": "swimming_pool"
      }
    },
    {
      "type": "way",
      "id": 1240738123,
      "center": {
        "lat": 12.9559324,
        "lon": 77.6467126
      },
      "tags": {
        "access": "private",
        "leisure": "swimming_pool"
      }
    },
    {
      "type": "way",
      "id": 1240738124,
      "center": {
        "lat": 12.9559159,
        "lon": 77.6466656
      },
      "tags": {
        "access": "private",
        "leisure": "swimming_pool"
      }
    },
    {
      "type": "way",
      "id": 1240738125,
      "center": {
        "lat": 12.9556101,
        "lon": 77.6466544
      },
      "tags": {
        "leisure": "garden"
      }
    },
    {
      "type": "way",
      "id": 1240738126,
      "center": {
        "lat": 12.9556069,
        "lon": 77.6467793
      },
      "tags": {
        "access": "private",
        "leisure": "swimming_pool"
      }
    },
    {
      "type": "way",
      "id": 1240738127,
      "center": {
        "lat": 12.9555853,
        "lon": 77.6468349
      },
      "tags": {
        "access": "private",
        "leisure": "swimming_pool"
      }
    },
    {
      "type": "way",
      "id": 1240738128,
      "center": {
        "lat": 12.9555154,
        "lon": 77.6470455
      },
      "tags": {
        "access": "private",
        "leisure": "swimming_pool"
      }
    },
    {
      "type": "way",
      "id": 1240738129,
      "center": {
        "lat": 12.9554945,
        "lon": 77.6471031
      },
      "tags": {
        "access": "private",
        "leisure": "swimming_pool"
      }
    },
    {
      "type": "way",
      "id": 1240738130,
      "center": {
        "lat": 12.9554292,
        "lon": 77.647311
      },
      "tags": {
        "access": "private",
        "leisure": "swimming_pool"
      }
    },
    {
      "type": "way",
      "id": 1240738131,
      "center": {
        "lat": 12.9553566,
        "lon": 77.6474398
      },
      "tags": {
        "access": "private",
        "leisure": "swimming_pool"
      }
    },
    {
      "type": "way",
      "id": 1240738132,
      "center": {
        "lat": 12.9553043,
        "lon": 77.6474612
      },
      "tags": {
        "access": "private",
        "leisure": "swimming_pool"
      }
    },
    {
      "type": "way",
      "id": 1240738133,
      "center": {
        "lat": 12.955107,
        "lon": 77.647549
      },
      "tags": {
        "access": "private",
        "leisure": "swimming_pool"
      }
    },
    {
      "type": "way",
      "id": 1240738134,
      "center": {
        "lat": 12.9550534,
        "lon": 77.6475685
      },
      "tags": {
        "access": "private",
        "leisure": "swimming_pool"
      }
    },
    {
      "type": "way",
      "id": 1240738135,
      "center": {
        "lat": 12.9548482,
        "lon": 77.6476463
      },
      "tags": {
        "access": "private",
        "leisure": "swimming_pool"
      }
    },
    {
      "type": "way",
      "id": 1240738136,
      "center": {
        "lat": 12.9547953,
        "lon": 77.6476644
      },
      "tags": {
        "access": "private",
        "leisure": "swimming_pool"
      }
    },
    {
      "type": "way",
      "id": 1240738137,
      "center": {
        "lat": 12.9546005,
        "lon": 77.6477627
      },
      "tags": {
        "access": "private",
        "leisure": "swimming_pool"
      }
    },
    {
      "type": "way",
      "id": 1240738138,
      "center": {
        "lat": 12.9545463,
        "lon": 77.6477819
      },
      "tags": {
        "access": "private",
        "leisure": "swimming_pool"
      }
    },
    {
      "type": "way",
      "id": 1240738153,
      "center": {
        "lat": 12.9544768,
        "lon": 77.6476955
      },
      "tags": {
        "leisure": "garden"
      }
    },
    {
      "type": "way",
      "id": 1240738154,
      "center": {
        "lat": 12.9545866,
        "lon": 77.6476533
      },
      "tags": {
        "leisure": "garden"
      }
    },
    {
      "type": "way",
      "id": 1240738155,
      "center": {
        "lat": 12.9547235,
        "lon": 77.6475879
      },
      "tags": {
        "leisure": "garden"
      }
    },
    {
      "type": "way",
      "id": 1240738156,
      "center": {
        "lat": 12.9548423,
        "lon": 77.6475336
      },
      "tags": {
        "leisure": "garden"
      }
    },
    {
      "type": "way",
      "id": 1240738157,
      "center": {
        "lat": 12.9549744,
        "lon": 77.64748
      },
      "tags": {
        "leisure": "garden"
      }
    },
    {
      "type": "way",
      "id": 1240738158,
      "center": {
        "lat": 12.9551026,
        "lon": 77.6474258
      },
      "tags": {
        "leisure": "garden"
      }
    },
    {
      "type": "way",
      "id": 1240738159,
      "center": {
        "lat": 12.9552289,
        "lon": 77.6473839
      },
      "tags": {
        "leisure": "garden"
      }
    },
    {
      "type": "way",
      "id": 1240738160,
      "center": {
        "lat": 12.95535,
        "lon": 77.6473588
      },
      "tags": {
        "leisure": "garden"
      }
    },
    {
      "type": "way",
      "id": 1240738161,
      "center": {
        "lat": 12.9553786,
        "lon": 77.6472407
      },
      "tags": {
        "leisure": "garden"
      }
    },
    {
      "type": "way",
      "id": 1240738162,
      "center": {
        "lat": 12.9554091,
        "lon": 77.6471136
      },
      "tags": {
        "leisure": "garden"
      }
    },
    {
      "type": "way",
      "id": 1240738163,
      "center": {
        "lat": 12.9554541,
        "lon": 77.6469811
      },
      "tags": {
        "leisure": "garden"
      }
    },
    {
      "type": "way",
      "id": 1240738164,
      "center": {
        "lat": 12.9554993,
        "lon": 77.6468475
      },
      "tags": {
        "leisure": "garden"
      }
    },
    {
      "type": "way",
      "id": 1240738166,
      "center": {
        "lat": 12.955867,
        "lon": 77.6477046
      },
      "tags": {
        "amenity": "bench"
      }
    },
    {
      "type": "way",
      "id": 1240738167,
      "center": {
        "lat": 12.9554104,
        "lon": 77.6481692
      },
      "tags": {
        "leisure": "playground"
      }
    },
    {
      "type": "way",
      "id": 1240738169,
      "center": {
        "lat": 12.9553674,
        "lon": 77.6481492
      },
      "tags": {
        "leisure": "garden"
      }
    },
    {
      "type": "way",
      "id": 1240738171,
      "center": {
        "lat": 12.9557935,
        "lon": 77.647136
      },
      "tags": {
        "amenity": "bench"
      }
    },
    {
      "type": "way",
      "id": 1240738172,
      "center": {
        "lat": 12.9556922,
        "lon": 77.6473361
      },
      "tags": {
        "amenity": "bench"
      }
    },
    {
      "type": "way",
      "id": 1240738183,
      "center": {
        "lat": 12.9558489,
        "lon": 77.6471416
      },
      "tags": {
        "leisure": "garden"
      }
    },
    {
      "type": "way",
      "id": 1240738184,
      "center": {
        "lat": 12.9556478,
        "lon": 77.6473691
      },
      "tags": {
        "leisure": "garden"
      }
    },
    {
      "type": "way",
      "id": 1240738185,
      "center": {
        "lat": 12.9557458,
        "lon": 77.6470988
      },
      "tags": {
        "leisure": "playground"
      }
    },
    {
      "type": "way",
      "id": 1244111887,
      "center": {
        "lat": 12.9657978,
        "lon": 77.6370407
      },
      "tags": {
        "amenity": "shelter",
        "shelter_type": "gazebo"
      }
    },
    {
      "type": "way",
      "id": 1244111889,
      "center": {
        "lat": 12.9659229,
        "lon": 77.6369375
      },
      "tags": {
        "leisure": "fitness_station",
        "sport": "fitness"
      }
    },
    {
      "type": "way",
      "id": 1263618604,
      "center": {
        "lat": 12.9595538,
        "lon": 77.6466386
      },
      "tags": {
        "amenity": "parking",
        "parking": "surface"
      }
    },
    {
      "type": "way",
      "id": 1268354189,
      "center": {
        "lat": 12.958808,
        "lon": 77.64127
      },
      "tags": {
        "leisure": "park"
      }
    },
    {
      "type": "way",
      "id": 1268354208,
      "center": {
        "lat": 12.9565359,
        "lon": 77.6420975
      },
      "tags": {
        "amenity": "parking",
        "parking": "surface"
      }
    },
    {
      "type": "way",
      "id": 1268355366,
      "center": {
        "lat": 12.9604414,
        "lon": 77.6417185
      },
      "tags": {
        "amenity": "toilets",
        "building": "yes",
        "fee": "yes",
        "female": "yes",
        "male": "yes"
      }
    },
    {
      "type": "way",
      "id": 1302988903,
      "center": {
        "lat": 12.9519885,
        "lon": 77.6395726
      },
      "tags": {
        "amenity": "parking"
      }
    },
    {
      "type": "way",
      "id": 1304449374,
      "center": {
        "lat": 12.9584949,
        "lon": 77.6469696
      },
      "tags": {
        "access": "customers",
        "amenity": "parking",
        "name": "Visitors' Parking",
        "name:kn": "ವಿಮಾನ ನಿಲ್ದಾಣ",
        "parking": "surface"
      }
    },
    {
      "type": "way",
      "id": 1304449377,
      "center": {
        "lat": 12.9598015,
        "lon": 77.6472637
      },
      "tags": {
        "access": "private",
        "amenity": "parking",
        "parking": "surface"
      }
    },
    {
      "type": "way",
      "id": 1304449414,
      "center": {
        "lat": 12.9607285,
        "lon": 77.6474104
      },
      "tags": {
        "access": "private",
        "leisure": "swimming_pool"
      }
    },
    {
      "type": "way",
      "id": 1305606064,
      "center": {
        "lat": 12.9531548,
        "lon": 77.6403548
      },
      "tags": {
        "amenity": "fuel",
        "compressed_air": "yes"
      }
    },
    {
      "type": "way",
      "id": 1305606069,
      "center": {
        "lat": 12.95456,
        "lon": 77.6353142
      },
      "tags": {
        "access": "private",
        "leisure": "pitch",
        "sport": "basketball"
      }
    },
    {
      "type": "way",
      "id": 1305717080,
      "center": {
        "lat": 12.9513325,
        "lon": 77.6344197
      },
      "tags": {
        "access": "private",
        "amenity": "parking",
        "parking": "surface"
      }
    },
    {
      "type": "way",
      "id": 1307054909,
      "center": {
        "lat": 12.9620521,
        "lon": 77.6344555
      },
      "tags": {
        "addr:place": "Dommaluru",
        "amenity": "school",
        "isced:level": "2",
        "name": "Government Moedl Primary School, Domlut",
        "name:kn": "ಸರ್ಕಾರಿ ಮಾದರಿ ಪ್ರಾ.ಶಾಲೆ ದೊಮ್ಮಲೂರು",
        "official_name": "Karnataka Public School",
        "operator": "Department of Education",
        "school": "primary"
      }
    },
    {
      "type": "way",
      "id": 1342953354,
      "center": {
        "lat": 12.9650128,
        "lon": 77.6432703
      },
      "tags": {
        "amenity": "school",
        "name": "Little Flower English high School"
      }
    },
    {
      "type": "way",
      "id": 1351867040,
      "center": {
        "lat": 12.962186,
        "lon": 77.6379763
      },
      "tags": {
        "leisure": "common",
        "natural": "scrub"
      }
    },
    {
      "type": "way",
      "id": 1382509208,
      "center": {
        "lat": 12.9588143,
        "lon": 77.6322586
      },
      "tags": {
        "leisure": "pitch",
        "sport": "tennis"
      }
    },
    {
      "type": "way",
      "id": 1416028274,
      "center": {
        "lat": 12.9609894,
        "lon": 77.6349469
      },
      "tags": {
        "amenity": "school",
        "name": "Government School"
      }
    },
    {
      "type": "way",
      "id": 1416028304,
      "center": {
        "lat": 12.9614142,
        "lon": 77.6345753
      },
      "tags": {
        "amenity": "fuel",
        "brand": "Indian Oil",
        "brand:wikidata": "Q1289348",
        "brand:wikipedia": "en:Indian Oil Corporation",
        "compressed_air": "yes",
        "name": "Indian Oil",
        "operator": "Indian Oil"
      }
    },
    {
      "type": "way",
      "id": 1443848430,
      "center": {
        "lat": 12.9553874,
        "lon": 77.6379943
      },
      "tags": {
        "leisure": "garden"
      }
    }
  ]
}