{
  "area_name": "Green Domain Layout",
  "osm_id": 1370044733,
  "osm_type": "node",
  "place_type": "neighbourhood",
  "amenity_count": 503,
  "amenities": [
    {
      "type": "node",
      "id": 514178762,
      "lat": 12.9661723,
      "lon": 77.7154277,
      "tags": {
        "addr:city": "Kundalahalli, Bangalore",
        "addr:postcode": "560037",
        "addr:street": "B Block, AECS Layout",
        "amenity": "doctors",
        "email": "narmada@littleangelsclinic.com",
        "name": "Little Angel Clinic for children",
        "phone": "+91 99020 00934",
        "website": "http://www.littleangelsclinic.com/"
      }
    },
    {
      "type": "node",
      "id": 984085030,
      "lat": 12.9670037,
      "lon": 77.7169213,
      "tags": {
        "addr:street": "ITPL Main Road",
        "brand": "Tata",
        "brand:wikidata": "Q188514",
        "name": "TATA Motors",
        "service": "dealer;repair;parts;tyres",
        "shop": "car"
      }
    },
    {
      "type": "node",
      "id": 984085523,
      "lat": 12.9644314,
      "lon": 77.7161868,
      "tags": {
        "addr:city": "Kundalahalli, Whitefield",
        "addr:street": "60 Feet Road, AECS Layout",
        "amenity": "fast_food",
        "cuisine": "indian",
        "internet_access": "no",
        "name": "Calcutta Victoria Chat House"
      }
    },
    {
      "type": "node",
      "id": 984957934,
      "lat": 12.9659645,
      "lon": 77.7140916,
      "tags": {
        "amenity": "atm",
        "brand": "Bank of India",
        "brand:wikidata": "Q2004439",
        "name": "Bank of India",
        "operator": "Bank of India",
        "operator:wikidata": "Q2004439"
      }
    },
    {
      "type": "node",
      "id": 1001586416,
      "lat": 12.9643853,
      "lon": 77.7135826,
      "tags": {
        "address": "AECS Layout Main Rd, Sri Nivasa Reddy Layout, AECS Layout, Marathahalli, Bengaluru, Karnataka 560037",
        "name": "Ragam Supermarket",
        "opening_hours": "Mo-Su 08:30-22:30",
        "phone": "08028475211",
        "shop": "supermarket"
      }
    },
    {
      "type": "node",
      "id": 1085578881,
      "lat": 12.9646963,
      "lon": 77.7139685,
      "tags": {
        "amenity": "place_of_worship",
        "name": "Vara Siddhi Vinayaka Temple",
        "religion": "hindu"
      }
    },
    {
      "type": "node",
      "id": 1085578886,
      "lat": 12.9643051,
      "lon": 77.7147136,
      "tags": {
        "addr:full": "593, A E C S Layout, Kundalahalli, Banglore - 560066",
        "branch": "For You",
        "brand": "More",
        "brand:wikidata": "Q6910891",
        "name": "More",
        "phone": "(91)-80-41229818",
        "shop": "supermarket"
      }
    },
    {
      "type": "node",
      "id": 1091213717,
      "lat": 12.9670593,
      "lon": 77.7167619,
      "tags": {
        "addr:city": "Bangalore",
        "addr:full": "No 736 Brookfields DT, Kundalahalli Main Rd, Bengaluru, Karnataka 560066",
        "addr:street": "ITPL Main Road",
        "air_conditioning": "yes",
        "amenity": "fast_food",
        "brand": "McDonald's",
        "brand:pa": "ਮੈਕਡੋਨਲਡ’ਜ਼",
        "brand:ur": "مکڈونلڈز",
        "brand:wikidata": "Q38076",
        "brand:wikipedia": "en:McDonald's",
        "brand:wikipedia:pa": "ਮੈਕਡੋਨਲਡ’ਜ਼",
        "brand:wikipedia:ur": "مکڈونلڈز",
        "cuisine": "burger",
        "delivery": "yes",
        "diet:vegetarian": "yes",
        "drive_through": "no",
        "indoor_seating": "yes",
        "name": "McDonald's",
        "name:kn": "ಮ್ಯಾಕ್‌ಡೊನಾಲ್ಡ್ಸ್",
        "name:pa": "ਮੈਕਡੋਨਲਡ’ਜ਼",
        "name:ur": "مکڈونلڈز",
        "opening_hours": "Mo-Su 07:00-23:00",
        "outdoor_seating": "no",
        "phone": "07306057478",
        "smoking": "no",
        "takeaway": "yes",
        "website": "https://mcdelivery.co.in/",
        "wheelchair": "yes"
      }
    },
    {
      "type": "node",
      "id": 1091213725,
      "lat": 12.9673994,
      "lon": 77.7146901,
      "tags": {
        "addr:city": "Bangalore",
        "addr:housenumber": "125",
        "addr:postcode": "560066",
        "addr:street": "Brookfield Main Road",
        "amenity": "restaurant",
        "cuisine": "indian;asian",
        "name": "Hotel Zaica",
        "name:kn": "ಜ್ಯಾಕ",
        "phone": "+91-80-41162485"
      }
    },
    {
      "type": "node",
      "id": 1093355151,
      "lat": 12.9716416,
      "lon": 77.7176798,
      "tags": {
        "addr:city": "Bangalore",
        "addr:housenumber": "23",
        "addr:postcode": "560066",
        "addr:street": "EPIP Zone, Whitefield",
        "amenity": "restaurant",
        "email": "info@themarkboulevard.com",
        "fax": "+91-80-41985556",
        "name": "The Mark Boulevard",
        "name:kn": "ದಿ ಮಾರ್ಕ್ ಬೊಲೆವರ್ಡ್",
        "phone": "+91-80-41985555",
        "website": "http://www.themarkboulevard.com/"
      }
    },
    {
      "type": "node",
      "id": 1116412154,
      "lat": 12.9660842,
      "lon": 77.7183767,
      "tags": {
        "addr:street": "ITPL Main Road",
        "amenity": "atm",
        "brand": "State Bank of India",
        "brand:wikidata": "Q1340361",
        "check_date": "2022-06-09",
        "name": "State Bank of India",
        "operator": "State Bank of India",
        "operator:wikidata": "Q1340361",
        "short_name": "SBI"
      }
    },
    {
      "type": "node",
      "id": 1116412170,
      "lat": 12.9655581,
      "lon": 77.7187512,
      "tags": {
        "amenity": "atm",
        "brand": "ICICI Bank",
        "brand:wikidata": "Q1653258",
        "name": "ICICI Bank",
        "operator": "ICICI Bank",
        "operator:wikidata": "Q1653258",
        "short_name": "ICICI"
      }
    },
    {
      "type": "node",
      "id": 1160603218,
      "lat": 12.9783158,
      "lon": 77.7123264,
      "tags": {
        "amenity": "cafe",
        "brand": "Cafe Coffee Day",
        "brand:wikidata": "Q5017235",
        "cuisine": "coffee_shop",
        "name": "Cafe Coffee Day",
        "name:kn": "ಕಫೆ ಕಾಫಿ ಡೇ",
        "takeaway": "yes"
      }
    },
    {
      "type": "node",
      "id": 1163058385,
      "lat": 12.9771241,
      "lon": 77.7184791,
      "tags": {
        "amenity": "cafe",
        "name": "Qmin"
      }
    },
    {
      "type": "node",
      "id": 1339602947,
      "lat": 12.966045,
      "lon": 77.718387,
      "tags": {
        "addr:postcode": "560037",
        "amenity": "post_office"
      }
    },
    {
      "type": "node",
      "id": 1365660966,
      "lat": 12.965518,
      "lon": 77.7187392,
      "tags": {
        "amenity": "atm",
        "brand": "Indian Overseas Bank",
        "brand:wikidata": "Q2003611",
        "name": "Indian Overseas Bank",
        "name:kn": "ಐ ಓ ಬಿ",
        "operator": "Indian Overseas Bank",
        "operator:wikidata": "Q2003611"
      }
    },
    {
      "type": "node",
      "id": 1365797756,
      "lat": 12.9668213,
      "lon": 77.7168891,
      "tags": {
        "addr:district": "Bengaluru Urban",
        "addr:full": "521, 522, Vijayalakshmi Square Itpl Main Road Kundallahall Near Cosmos Mall",
        "addr:postcode": "560037",
        "addr:state": "Karnataka",
        "amenity": "hospital",
        "emergency": "yes",
        "healthcare": "hospital",
        "name": "Brookefield Hospital(A Unit Of Sanjeevani Hospital)",
        "source": "OpenGovernmentData",
        "wheelchair": "yes"
      }
    },
    {
      "type": "node",
      "id": 1366802622,
      "lat": 12.9658455,
      "lon": 77.7184852,
      "tags": {
        "amenity": "pharmacy",
        "name": "Laksmi Medical"
      }
    },
    {
      "type": "node",
      "id": 1366802631,
      "lat": 12.9663904,
      "lon": 77.718256,
      "tags": {
        "amenity": "pharmacy",
        "name": "Satya Sai Medicals"
      }
    },
    {
      "type": "node",
      "id": 1366802646,
      "lat": 12.9656357,
      "lon": 77.7184777,
      "tags": {
        "service": "repair",
        "shop": "motorcycle"
      }
    },
    {
      "type": "node",
      "id": 1366802650,
      "lat": 12.9674469,
      "lon": 77.7166937,
      "tags": {
        "amenity": "pharmacy",
        "name": "Pavan Medical"
      }
    },
    {
      "type": "node",
      "id": 1370301737,
      "lat": 12.9641783,
      "lon": 77.7141945,
      "tags": {
        "amenity": "atm",
        "brand": "State Bank of India",
        "brand:wikidata": "Q1340361",
        "check_date": "2024-07-13",
        "level": "0",
        "name": "State Bank of India",
        "operator": "State Bank of India",
        "operator:wikidata": "Q1340361",
        "short_name": "SBI"
      }
    },
    {
      "type": "node",
      "id": 1370301764,
      "lat": 12.9660205,
      "lon": 77.7141106,
      "tags": {
        "amenity": "pharmacy",
        "name": "Ryan Medical"
      }
    },
    {
      "type": "node",
      "id": 1370328503,
      "lat": 12.9645823,
      "lon": 77.7161206,
      "tags": {
        "amenity": "restaurant",
        "cuisine": "chinese",
        "name": "Jade",
        "name:kn": "ಜೇಡ್"
      }
    },
    {
      "type": "node",
      "id": 1370328507,
      "lat": 12.9644938,
      "lon": 77.716214,
      "tags": {
        "amenity": "restaurant",
        "diet:vegetarian": "only",
        "name": "Northeren Wave",
        "name:kn": "ನಾರ್ಥರ್ನ್ ವೇವ್"
      }
    },
    {
      "type": "node",
      "id": 1370328510,
      "lat": 12.9645788,
      "lon": 77.7162279,
      "tags": {
        "amenity": "restaurant",
        "cuisine": "fish",
        "name": "Kayal",
        "name:kn": "ಕಯಾಲ್"
      }
    },
    {
      "type": "node",
      "id": 1371859171,
      "lat": 12.9647649,
      "lon": 77.7173064,
      "tags": {
        "name": "N Stores",
        "shop": "supermarket"
      }
    },
    {
      "type": "node",
      "id": 1371859172,
      "lat": 12.9652711,
      "lon": 77.7135279,
      "tags": {
        "amenity": "bank",
        "atm": "yes",
        "branch": "Kundalahalli Branch",
        "brand": "State Bank of India",
        "brand:wikidata": "Q1340361",
        "brand:wikipedia": "en:State Bank of India",
        "name": "State Bank of India",
        "short_name": "SBI"
      }
    },
    {
      "type": "node",
      "id": 1371859178,
      "lat": 12.9648939,
      "lon": 77.7180556,
      "tags": {
        "amenity": "clinic",
        "name": "Vita Life clinic"
      }
    },
    {
      "type": "node",
      "id": 1371859199,
      "lat": 12.9647599,
      "lon": 77.7172515,
      "tags": {
        "amenity": "cafe",
        "name": "Kaapi Kadai"
      }
    },
    {
      "type": "node",
      "id": 1373903942,
      "lat": 12.9711033,
      "lon": 77.7119389,
      "tags": {
        "amenity": "pharmacy",
        "brand": "MedPlus",
        "brand:wikidata": "Q65684234",
        "check_date": "2023-02-08",
        "drive_through": "no",
        "healthcare": "pharmacy",
        "internet_access": "no",
        "name": "MedPlus",
        "payment:mastercard": "yes",
        "payment:upi": "yes",
        "payment:visa": "yes",
        "source": "survey",
        "wheelchair": "no"
      }
    },
    {
      "type": "node",
      "id": 1585678331,
      "lat": 12.9795374,
      "lon": 77.7207285,
      "tags": {
        "amenity": "parking"
      }
    },
    {
      "type": "node",
      "id": 2607686402,
      "lat": 12.9647792,
      "lon": 77.7177517,
      "tags": {
        "amenity": "restaurant",
        "cuisine": "chicken",
        "name": "Moriz"
      }
    },
    {
      "type": "node",
      "id": 3226844854,
      "lat": 12.9657689,
      "lon": 77.718506,
      "tags": {
        "name": "Mom & Me",
        "shop": "baby_goods",
        "source": "survey"
      }
    },
    {
      "type": "node",
      "id": 3270010723,
      "lat": 12.9768424,
      "lon": 77.7103746,
      "tags": {
        "addr:city": "Mahadevapura, Bangalore",
        "addr:postcode": "560048",
        "amenity": "hospital",
        "check_date": "2025-10-30",
        "email": "info@rxdx.in",
        "healthcare": "hospital",
        "healthcare:speciality": "physiotherapy",
        "name": "Telerad Rx Dx Health Care Whitefield",
        "operator": "RxDx",
        "operator:type": "private",
        "phone": "+91-80-49261111;+91-80-40187588",
        "website": "https://rxdx.in/"
      }
    },
    {
      "type": "node",
      "id": 3698416139,
      "lat": 12.9645529,
      "lon": 77.717708,
      "tags": {
        "amenity": "restaurant",
        "name": "Salem Kitchen"
      }
    },
    {
      "type": "node",
      "id": 3698417092,
      "lat": 12.9647848,
      "lon": 77.7174502,
      "tags": {
        "amenity": "restaurant",
        "cuisine": "Sweets,_Chats,_Restaurant",
        "name": "Kesar"
      }
    },
    {
      "type": "node",
      "id": 4142109989,
      "lat": 12.9661558,
      "lon": 77.7137122,
      "tags": {
        "fixme": "not an embassy, but what?",
        "name": "Bluemeric Technologies",
        "opening_hours": "Mo-Fr 10:00-19:00",
        "shop": "yes",
        "website": "www.bluemeric.com"
      }
    },
    {
      "type": "node",
      "id": 4215309991,
      "lat": 12.966188,
      "lon": 77.7139019,
      "tags": {
        "amenity": "bank",
        "brand": "Canara Bank",
        "brand:en": "Canara Bank",
        "brand:hi": "केनरा बैंक",
        "brand:kn": "ಕೆನರಾ ಬ್ಯಾಂಕ್",
        "brand:pa": "ਕੇਨਰਾ ਬੈਂਕ",
        "brand:pnb": "کینرا بینک",
        "brand:ur": "کینرا بینک",
        "brand:wikidata": "Q2003777",
        "brand:wikipedia": "en:Canara Bank",
        "brand:wikipedia:pa": "ਕੇਨਰਾ ਬੈਂਕ",
        "check_date": "2024-07-13",
        "name": "Canara Bank",
        "name:en": "Canara Bank",
        "name:hi": "केनरा बैंक",
        "name:kn": "ಕೆನರಾ ಬ್ಯಾಂಕ್",
        "name:pa": "ਕੇਨਰਾ ਬੈਂਕ",
        "name:pnb": "کینرا بینک",
        "name:ur": "کینرا بینک",
        "website": "https://www.canarabank.com/"
      }
    },
    {
      "type": "node",
      "id": 4446225748,
      "lat": 12.9670599,
      "lon": 77.7131214,
      "tags": {
        "addr:city": "Bengaluru",
        "addr:postcode": "560037",
        "addr:street": "Munnekollal Main Rd, Munekollal, Karnataka",
        "amenity": "pharmacy",
        "name": "Ram speciality clinic",
        "phone": "+919738968438"
      }
    },
    {
      "type": "node",
      "id": 4488050031,
      "lat": 12.9703806,
      "lon": 77.712242,
      "tags": {
        "addr:city": "Bangalore",
        "addr:postcode": "560037",
        "addr:street": "I T P L Main Road",
        "name": "Maruthi Novelty",
        "shop": "general",
        "wheelchair": "no"
      }
    },
    {
      "type": "node",
      "id": 4489729463,
      "lat": 12.9655863,
      "lon": 77.718492,
      "tags": {
        "addr:city": "Bangalore",
        "addr:housenumber": "2nd Floor",
        "addr:postcode": "560037",
        "addr:street": "Sai Kamala Trinity, Opp. Cosmos Mall, Brookefield, Kundalahalli, Brookefield, Bengaluru, Karnataka",
        "leisure": "sports_centre",
        "name": "R2 Fitness Revolution",
        "phone": "8042160252",
        "sport": "gymnasium",
        "website": "r2fitnessrevolution.com"
      }
    },
    {
      "type": "node",
      "id": 4490471071,
      "lat": 12.9642955,
      "lon": 77.7129952,
      "tags": {
        "addr:city": "Banglore",
        "addr:housenumber": "no:36",
        "addr:postcode": "560063",
        "addr:street": "Arvind Avenue",
        "leisure": "sports_centre",
        "name": "F6 FITNESS PLANET",
        "opening_hours": "6:00-22:00",
        "phone": "8041141166",
        "website": "www.f6fitnessplanet.com"
      }
    },
    {
      "type": "node",
      "id": 4566758492,
      "lat": 12.9656933,
      "lon": 77.7185016,
      "tags": {
        "name": "Airtel Shop",
        "name:en": "Airtel Shop",
        "name:kn": "ಏರ್ಟೆಲ್",
        "shop": "mobile_phone"
      }
    },
    {
      "type": "node",
      "id": 4635146996,
      "lat": 12.9672993,
      "lon": 77.7143446,
      "tags": {
        "address": "#304, B Block, AECS Layout, Marathahalli, Bengaluru, Karnataka 560037",
        "baby_feeding": "no",
        "changing_table": "no",
        "changing_table:count": "0",
        "name": "Sansar departmental store",
        "opening_hours": "08:00-10:00",
        "payment:american_express": "yes",
        "payment:cash": "yes",
        "payment:coins": "yes",
        "payment:contactless": "yes",
        "payment:credit_cards": "yes",
        "payment:debit_cards": "yes",
        "payment:google_pay": "yes",
        "payment:mastercard": "yes",
        "payment:notes": "yes",
        "payment:qr_code": "yes",
        "payment:samsung_pay": "yes",
        "payment:visa": "yes",
        "phone": "+91 91485 54141",
        "shop": "department_store",
        "toilets": "no",
        "wheelchair": "limited"
      }
    },
    {
      "type": "node",
      "id": 4861743445,
      "lat": 12.9676761,
      "lon": 77.7167208,
      "tags": {
        "addr:city": "Bangalore",
        "addr:housenumber": "1, 1st Floor, Akhitaan",
        "addr:street": "Kundanahalli Cross Road, Brookfield",
        "beauty": "hair",
        "cuisine": "north_indian;rajasthani",
        "diet:vegetarian": "yes",
        "name": "YLG Salon",
        "opening_hours": "Mo-Su 11:00-20:00",
        "operator": "You Look Good",
        "outdoor_seating": "no",
        "shop": "beauty",
        "smoking": "no",
        "takeaway": "yes",
        "website": "https://www.ylgindia.com/"
      }
    },
    {
      "type": "node",
      "id": 4937041616,
      "lat": 12.9642102,
      "lon": 77.7143268,
      "tags": {
        "addr:city": "B Block, AECS Layout",
        "addr:postcode": "560037",
        "level": "0",
        "name": "Patanjali Mega Store",
        "opening_hours": "Mo-Su 09:00-21:00",
        "operator": "Patanjali",
        "payment:cash": "yes",
        "payment:credit_cards": "yes",
        "payment:debit_cards": "yes",
        "phone": "+9178996 72623",
        "shop": "supermarket",
        "website": "https://patanjaliayurved.org",
        "wheelchair": "no",
        "wikidata": "Q19856023",
        "wikipedia": "en:Patanjali Ayurved"
      }
    },
    {
      "type": "node",
      "id": 4937042727,
      "lat": 12.9643552,
      "lon": 77.7133859,
      "tags": {
        "amenity": "bank",
        "atm": "yes",
        "branch": "AECS Layout",
        "brand": "Axis Bank",
        "brand:wikidata": "Q2003549",
        "check_date": "2024-07-13",
        "name": "Axis Bank - AECS Layout Branch",
        "operator": "Axis Bank",
        "wheelchair": "no"
      }
    },
    {
      "type": "node",
      "id": 4937042728,
      "lat": 12.9643641,
      "lon": 77.7134437,
      "tags": {
        "branch": "com",
        "brand": "Lenskart",
        "brand:wikidata": "Q17068753",
        "name": "Lenskart",
        "shop": "optician"
      }
    },
    {
      "type": "node",
      "id": 4937042729,
      "lat": 12.9640596,
      "lon": 77.7133817,
      "tags": {
        "name": "Smart Baby",
        "shop": "baby_goods"
      }
    },
    {
      "type": "node",
      "id": 5242423052,
      "lat": 12.9675073,
      "lon": 77.7165207,
      "tags": {
        "name": "Star Bike Point",
        "shop": "car_repair",
        "wheelchair": "no"
      }
    },
    {
      "type": "node",
      "id": 5536102141,
      "lat": 12.9705626,
      "lon": 77.7125878,
      "tags": {
        "check_date": "2025-10-30",
        "name": "The Liquor Library",
        "shop": "alcohol"
      }
    },
    {
      "type": "node",
      "id": 5536102143,
      "lat": 12.9701245,
      "lon": 77.7127182,
      "tags": {
        "shop": "car_repair"
      }
    },
    {
      "type": "node",
      "id": 5536102144,
      "lat": 12.9708488,
      "lon": 77.7120993,
      "tags": {
        "amenity": "pharmacy",
        "check_date": "2025-11-22",
        "dispensing": "no",
        "drive_through": "no",
        "healthcare": "pharmacy",
        "name": "Ramdev Medical",
        "wheelchair": "no"
      }
    },
    {
      "type": "node",
      "id": 5571222371,
      "lat": 12.9702565,
      "lon": 77.7122947,
      "tags": {
        "addr:floor": "G",
        "check_date": "2024-12-23",
        "internet_access": "wlan",
        "internet_access:fee": "customers",
        "level": "0",
        "name": "Hetvi Print Stationery",
        "payment:cash": "yes",
        "payment:credit_cards": "no",
        "payment:debit_cards": "yes",
        "shop": "stationery",
        "wheelchair": "limited"
      }
    },
    {
      "type": "node",
      "id": 5571222373,
      "lat": 12.9701931,
      "lon": 77.7123561,
      "tags": {
        "name": "Chaitanya Medicals",
        "shop": "medical_supply",
        "wheelchair": "no"
      }
    },
    {
      "type": "node",
      "id": 5571222374,
      "lat": 12.9701722,
      "lon": 77.7123588,
      "tags": {
        "check_date": "2024-12-23",
        "male": "yes",
        "name": "ANP Mens Parlour",
        "shop": "hairdresser",
        "wheelchair": "no"
      }
    },
    {
      "type": "node",
      "id": 5571222375,
      "lat": 12.9704006,
      "lon": 77.712237,
      "tags": {
        "female": "yes",
        "male": "yes",
        "name": "Creative Style Unisex Salon",
        "shop": "hairdresser",
        "wheelchair": "no"
      }
    },
    {
      "type": "node",
      "id": 5571222376,
      "lat": 12.9703332,
      "lon": 77.7122523,
      "tags": {
        "name": "Mathaji Electricals",
        "shop": "electronics",
        "wheelchair": "no"
      }
    },
    {
      "type": "node",
      "id": 5571222381,
      "lat": 12.9703537,
      "lon": 77.7127228,
      "tags": {
        "amenity": "smoking_area"
      }
    },
    {
      "type": "node",
      "id": 5611680989,
      "lat": 12.9805421,
      "lon": 77.7120973,
      "tags": {
        "alt_name": "Oregano Whitefield",
        "amenity": "restaurant",
        "cuisine": "international",
        "name": "Oregano"
      }
    },
    {
      "type": "node",
      "id": 6034177868,
      "lat": 12.9660184,
      "lon": 77.7119979,
      "tags": {
        "amenity": "library",
        "internet_access": "wlan",
        "name": "CMRIT Library",
        "opening_hours": "Mo-Fr 08:00-19:30"
      }
    },
    {
      "type": "node",
      "id": 6034177869,
      "lat": 12.9660713,
      "lon": 77.7122695,
      "tags": {
        "amenity": "theatre",
        "name": "Dhwani Auditorium"
      }
    },
    {
      "type": "node",
      "id": 6034197732,
      "lat": 12.9666784,
      "lon": 77.7114169,
      "tags": {
        "amenity": "toilets"
      }
    },
    {
      "type": "node",
      "id": 6034197733,
      "lat": 12.9667676,
      "lon": 77.7116241,
      "tags": {
        "leisure": "fitness_centre"
      }
    },
    {
      "type": "node",
      "id": 6088214800,
      "lat": 12.9674384,
      "lon": 77.7147179,
      "tags": {
        "amenity": "pub",
        "name": "Plan B"
      }
    },
    {
      "type": "node",
      "id": 6088214813,
      "lat": 12.9673469,
      "lon": 77.7144604,
      "tags": {
        "shop": "stationery"
      }
    },
    {
      "type": "node",
      "id": 6114925694,
      "lat": 12.967303,
      "lon": 77.7162547,
      "tags": {
        "name": "Chai Resto",
        "shop": "tea"
      }
    },
    {
      "type": "node",
      "id": 6114925935,
      "lat": 12.9642256,
      "lon": 77.7128475,
      "tags": {
        "amenity": "cafe",
        "brand": "Chai Point",
        "brand:wikidata": "Q28173415",
        "check_date": "2024-07-13",
        "cuisine": "coffee_shop",
        "name": "Chai Point",
        "shop": "tea",
        "takeaway": "yes"
      }
    },
    {
      "type": "node",
      "id": 6235809888,
      "lat": 12.9785438,
      "lon": 77.7111721,
      "tags": {
        "amenity": "restaurant",
        "name": "New Udupi Garden",
        "opening_hours": "Mo-Sa 06:00-22:00"
      }
    },
    {
      "type": "node",
      "id": 6944290474,
      "lat": 12.9651587,
      "lon": 77.7150508,
      "tags": {
        "addr:district": "Bengaluru Urban",
        "addr:full": "#477, I Main 'B' Block, Aecs Layout,,Kundalahalli",
        "addr:postcode": "560037",
        "addr:state": "Karnataka",
        "amenity": "hospital",
        "check_date": "2025-08-05",
        "name": "Aayug Multi Speciality Hospital",
        "operator:type": "private",
        "source": "OpenGovernmentData",
        "website": "http://dpal.kar.nic.in/Kanunu%20padakosha%20PDF%20Files/Recognised%20Hospitals.pdf"
      }
    },
    {
      "type": "node",
      "id": 7510181612,
      "lat": 12.9644211,
      "lon": 77.7158807,
      "tags": {
        "address": "#601, Krishvi Prospero, 1st Main Rd, AECS Layout - C Block, Brookefield, Bengaluru, Karnataka 560037",
        "amenity": "restaurant",
        "delivery": "yes",
        "drive_through": "no",
        "internet_access": "no",
        "level": "3",
        "name": "Chulha Chauki Da Dhaba",
        "outdoor_seating": "yes",
        "phone": "08040925270",
        "reservation": "yes",
        "smoking": "no",
        "takeaway": "yes",
        "website": "https://chulhachaukidadhaba.com/"
      }
    },
    {
      "type": "node",
      "id": 7511152439,
      "lat": 12.9658605,
      "lon": 77.7120227,
      "tags": {
        "amenity": "toilets"
      }
    },
    {
      "type": "node",
      "id": 7511152440,
      "lat": 12.9663806,
      "lon": 77.7110665,
      "tags": {
        "amenity": "toilets"
      }
    },
    {
      "type": "node",
      "id": 7511152441,
      "lat": 12.9658788,
      "lon": 77.7112555,
      "tags": {
        "amenity": "toilets"
      }
    },
    {
      "type": "node",
      "id": 7518127508,
      "lat": 12.9658359,
      "lon": 77.7112826,
      "tags": {
        "amenity": "drinking_water"
      }
    },
    {
      "type": "node",
      "id": 7518141837,
      "lat": 12.9666425,
      "lon": 77.7114362,
      "tags": {
        "amenity": "cafe"
      }
    },
    {
      "type": "node",
      "id": 7518141838,
      "lat": 12.9663686,
      "lon": 77.7110717,
      "tags": {
        "amenity": "drinking_water"
      }
    },
    {
      "type": "node",
      "id": 7518337053,
      "lat": 12.9667228,
      "lon": 77.7116352,
      "tags": {
        "leisure": "fitness_centre"
      }
    },
    {
      "type": "node",
      "id": 8841166970,
      "lat": 12.9708058,
      "lon": 77.7120837,
      "tags": {
        "amenity": "post_office",
        "brand": "Desk to Desk Courier & Cargo",
        "brand:short": "DTDC",
        "brand:wikidata": "Q55608802",
        "check_date": "2025-11-22",
        "name": "DTDC Courier",
        "operator": "Desk to Desk Courier & Cargo",
        "operator:short": "DTDC",
        "operator:wikidata": "Q55608802",
        "wheelchair": "no"
      }
    },
    {
      "type": "node",
      "id": 9271778721,
      "lat": 12.9643876,
      "lon": 77.7169472,
      "tags": {
        "amenity": "cafe",
        "name": "Breads & Banter"
      }
    },
    {
      "type": "node",
      "id": 9874713061,
      "lat": 12.9709124,
      "lon": 77.7119406,
      "tags": {
        "air_conditioning": "no",
        "amenity": "restaurant",
        "check_date": "2023-02-08",
        "cuisine": "biryani",
        "diet:vegetarian": "yes",
        "indoor_seating": "yes",
        "name": "SKM Ambur Hot Dum Biryani",
        "outdoor_seating": "no",
        "payment:credit_cards": "no",
        "payment:debit_cards": "no",
        "smoking": "no",
        "source": "survey",
        "wheelchair": "no"
      }
    },
    {
      "type": "node",
      "id": 9945573640,
      "lat": 12.9706531,
      "lon": 77.7121508,
      "tags": {
        "addr:floor": "G",
        "check_date": "2024-12-23",
        "indoor_seating": "no",
        "internet_access": "no",
        "level": "0",
        "name": "Satya Sai Bakery",
        "outdoor_seating": "no",
        "shop": "bakery",
        "takeaway": "only",
        "wheelchair": "no"
      }
    },
    {
      "type": "node",
      "id": 9953100005,
      "lat": 12.9720668,
      "lon": 77.7093105,
      "tags": {
        "amenity": "parking_entrance",
        "parking": "underground"
      }
    },
    {
      "type": "node",
      "id": 9964457679,
      "lat": 12.9672774,
      "lon": 77.7163372,
      "tags": {
        "amenity": "ice_cream",
        "name": "Ibaco"
      }
    },
    {
      "type": "node",
      "id": 9964457680,
      "lat": 12.9672705,
      "lon": 77.7163733,
      "tags": {
        "amenity": "fast_food",
        "cuisine": "sweets",
        "diet:vegetarian": "yes",
        "name": "G. Pulla Reddy Sweets"
      }
    },
    {
      "type": "node",
      "id": 9980237115,
      "lat": 12.9716395,
      "lon": 77.7078552,
      "tags": {
        "amenity": "parking_entrance",
        "parking": "underground"
      }
    },
    {
      "type": "node",
      "id": 9980275626,
      "lat": 12.9707731,
      "lon": 77.7084807,
      "tags": {
        "amenity": "parking_entrance",
        "parking": "underground"
      }
    },
    {
      "type": "node",
      "id": 9980275627,
      "lat": 12.9710322,
      "lon": 77.7086229,
      "tags": {
        "amenity": "parking_entrance",
        "parking": "underground"
      }
    },
    {
      "type": "node",
      "id": 9981800902,
      "lat": 12.9673794,
      "lon": 77.7157719,
      "tags": {
        "amenity": "cafe",
        "cuisine": "coffee_shop",
        "name": "New Chai Gully"
      }
    },
    {
      "type": "node",
      "id": 9981800903,
      "lat": 12.9673384,
      "lon": 77.7160776,
      "tags": {
        "amenity": "fast_food",
        "cuisine": "chinese",
        "name": "Wok Face"
      }
    },
    {
      "type": "node",
      "id": 10034052340,
      "lat": 12.9716954,
      "lon": 77.711696,
      "tags": {
        "amenity": "fast_food",
        "check_date": "2025-09-04",
        "name": "Laddoos",
        "wheelchair": "no"
      }
    },
    {
      "type": "node",
      "id": 10049459241,
      "lat": 12.9708452,
      "lon": 77.7078269,
      "tags": {
        "amenity": "fountain"
      }
    },
    {
      "type": "node",
      "id": 10049459248,
      "lat": 12.9715377,
      "lon": 77.7081105,
      "tags": {
        "amenity": "parking_entrance",
        "parking": "underground"
      }
    },
    {
      "type": "node",
      "id": 10049494520,
      "lat": 12.9716124,
      "lon": 77.7117564,
      "tags": {
        "name": "Midas Daily",
        "shop": "supermarket"
      }
    },
    {
      "type": "node",
      "id": 10084788449,
      "lat": 12.9649312,
      "lon": 77.718116,
      "tags": {
        "amenity": "restaurant",
        "indoor_seating": "yes",
        "name": "R. R. Kitchen",
        "outdoor_seating": "no"
      }
    },
    {
      "type": "node",
      "id": 10084788450,
      "lat": 12.9672638,
      "lon": 77.7164215,
      "tags": {
        "name": "Kidzon",
        "shop": "toys"
      }
    },
    {
      "type": "node",
      "id": 10084788451,
      "lat": 12.9673104,
      "lon": 77.7161536,
      "tags": {
        "name": "Just Bake",
        "name:kn": "ಜಸ್ಟ್ ಬೇಕ್",
        "shop": "bakery"
      }
    },
    {
      "type": "node",
      "id": 10084788452,
      "lat": 12.9671382,
      "lon": 77.714196,
      "tags": {
        "name": "Cakewala",
        "opening_hours": "10:00-22:30",
        "phone": "089706 50627",
        "shop": "bakery",
        "website": "https://www.justbake.in/"
      }
    },
    {
      "type": "node",
      "id": 10084788453,
      "lat": 12.9672941,
      "lon": 77.7142023,
      "tags": {
        "amenity": "restaurant",
        "check_date": "2024-07-13",
        "name": "Thalassery Restaurant"
      }
    },
    {
      "type": "node",
      "id": 10093104864,
      "lat": 12.9702593,
      "lon": 77.7075337,
      "tags": {
        "amenity": "parking_entrance",
        "parking": "underground"
      }
    },
    {
      "type": "node",
      "id": 10109541423,
      "lat": 12.9642685,
      "lon": 77.713017,
      "tags": {
        "clothes": "women",
        "name": "Reliance Trends Women",
        "shop": "clothes"
      }
    },
    {
      "type": "node",
      "id": 10109541440,
      "lat": 12.9643886,
      "lon": 77.7153227,
      "tags": {
        "addr:floor": "G",
        "brand": "Jockey",
        "check_date": "2024-12-28",
        "clothes": "underwear",
        "internet_access": "no",
        "level": "0",
        "name": "Jockey",
        "payment:cash": "yes",
        "payment:contactless": "yes",
        "payment:credit_cards": "yes",
        "payment:debit_cards": "yes",
        "shop": "clothes",
        "wheelchair": "no"
      }
    },
    {
      "type": "node",
      "id": 10111815206,
      "lat": 12.9647359,
      "lon": 77.7175667,
      "tags": {
        "name": "Dry Fruit House",
        "shop": "greengrocer"
      }
    },
    {
      "type": "node",
      "id": 10111815207,
      "lat": 12.9649995,
      "lon": 77.7172428,
      "tags": {
        "addr:floor": "G;1",
        "amenity": "restaurant",
        "check_date": "2025-09-02",
        "diet:vegetarian": "yes",
        "level": "0;1",
        "name": "Orbis",
        "wheelchair": "no"
      }
    },
    {
      "type": "node",
      "id": 10111815209,
      "lat": 12.9644983,
      "lon": 77.7158795,
      "tags": {
        "level": "1",
        "name": "Spin Unisex Salon",
        "shop": "hairdresser",
        "unisex": "yes"
      }
    },
    {
      "type": "node",
      "id": 10111818817,
      "lat": 12.9658726,
      "lon": 77.7141167,
      "tags": {
        "amenity": "cafe",
        "name": "Just Parathas"
      }
    },
    {
      "type": "node",
      "id": 10111818818,
      "lat": 12.9663769,
      "lon": 77.7141151,
      "tags": {
        "amenity": "fast_food",
        "cuisine": "burger",
        "name": "Biggies Burgers"
      }
    },
    {
      "type": "node",
      "id": 10111818819,
      "lat": 12.9671432,
      "lon": 77.716589,
      "tags": {
        "address": "Shop No, 123/1, 188, ITPL Main Rd, next to McDonalds, Kundalahalli, Brookefield, Bengaluru, Karnataka 560037",
        "indoor_seating": "yes",
        "name": "Chef Bakers Brookfield",
        "opening_hours": "Mo-Su 09:00-22:30",
        "outdoor_seating": "no",
        "phone": "08880404444",
        "shop": "bakery",
        "website": "https://www.chefbakers.com/"
      }
    },
    {
      "type": "node",
      "id": 10182063806,
      "lat": 12.9698433,
      "lon": 77.7174706,
      "tags": {
        "access": "private",
        "amenity": "parking_entrance",
        "parking": "underground"
      }
    },
    {
      "type": "node",
      "id": 10220804290,
      "lat": 12.965899,
      "lon": 77.7179157,
      "tags": {
        "air_conditioning": "yes",
        "amenity": "restaurant",
        "bar": "yes",
        "level": "4",
        "name": "Boho Rooftop restaurant and bar",
        "opening_hours": "Mo-Su 12:30-00:00",
        "phone": "09606420003"
      }
    },
    {
      "type": "node",
      "id": 10257576978,
      "lat": 12.9642303,
      "lon": 77.7125694,
      "tags": {
        "addr:full": "No. 295 Ground Floor, AECS Layout Main Rd, Kundalahalli, Bengaluru, Karnataka 560037",
        "amenity": "fast_food",
        "brand": "Domino's",
        "brand:ks": "ڈومینوز",
        "brand:pa": "ਡੋਮੀਨੋਜ਼",
        "brand:ur": "ڈومینوز",
        "brand:wikidata": "Q839466",
        "brand:wikipedia": "en:Domino's Pizza",
        "cuisine": "pizza",
        "delivery": "yes",
        "description": "Delivery/carryout chain offering a wide range of pizzas & a variety of other dishes & sides.",
        "drive_through": "no",
        "internet_access": "no",
        "name": "Domino's",
        "name:ks": "ڈومینوز",
        "name:pa": "ਡੋਮੀਨੋਜ਼",
        "name:ur": "ڈومینوز",
        "opening_hours": "Mo-Su 10:00-23:00",
        "outdoor_seating": "no",
        "phone": "18602100000",
        "reservation": "no",
        "smoking": "no",
        "takeaway": "yes"
      }
    },
    {
      "type": "node",
      "id": 10257576979,
      "lat": 12.9641842,
      "lon": 77.7124284,
      "tags": {
        "amenity": "bank",
        "brand": "Indian Bank",
        "brand:wikidata": "Q2003789",
        "brand:wikipedia": "en:Indian Bank",
        "name": "Indian Bank",
        "name:kn": "ಇಂಡಿಯನ್ ಬ್ಯಾಂಕ್"
      }
    },
    {
      "type": "node",
      "id": 10289469489,
      "lat": 12.9649467,
      "lon": 77.717057,
      "tags": {
        "brand": "Kanti Sweets",
        "name": "Kanti Sweets",
        "shop": "confectionery"
      }
    },
    {
      "type": "node",
      "id": 10291118239,
      "lat": 12.9732157,
      "lon": 77.7101827,
      "tags": {
        "addr:city": "Bengaluru",
        "addr:country": "IN",
        "addr:housename": "Prestige Technostar",
        "addr:postcode": "560048",
        "addr:street": "ITPL Main Road",
        "addr:suburb": "Doddanekundi",
        "addr:unit": "B3",
        "amenity": "coworking_space",
        "brand": "The Executive Centre",
        "email": "bangalore@executivecentre.com",
        "fee": "yes",
        "level": "8",
        "name": "The Executive Centre",
        "office": "coworking",
        "operator": "The Executive Centre",
        "phone": "+91 80 6862 8888",
        "website": "https://www.executivecentre.com/en-in/office-space/prestige-technostar"
      }
    },
    {
      "type": "node",
      "id": 10540162255,
      "lat": 12.9661567,
      "lon": 77.7184138,
      "tags": {
        "amenity": "ice_cream",
        "brand": "Baskin-Robbins",
        "brand:wikidata": "Q584601",
        "cuisine": "ice_cream",
        "name": "Baskin-Robbins"
      }
    },
    {
      "type": "node",
      "id": 10617518511,
      "lat": 12.971049,
      "lon": 77.7119519,
      "tags": {
        "check_date": "2023-02-08",
        "internet_access": "no",
        "name": "Print Point",
        "payment:credit_cards": "no",
        "payment:debit_cards": "no",
        "shop": "copyshop",
        "source": "survey",
        "wheelchair": "no"
      }
    },
    {
      "type": "node",
      "id": 10676221190,
      "lat": 12.9704711,
      "lon": 77.7069485,
      "tags": {
        "name": "Reddy Stores",
        "shop": "convenience"
      }
    },
    {
      "type": "node",
      "id": 10676221191,
      "lat": 12.9704418,
      "lon": 77.7069478,
      "tags": {
        "amenity": "fast_food",
        "cuisine": "juice",
        "name": "Sri Ganesh Fruit Juice Center"
      }
    },
    {
      "type": "node",
      "id": 10678548051,
      "lat": 12.9657179,
      "lon": 77.7186051,
      "tags": {
        "addr:city": "Bangalore",
        "addr:housenumber": "111, Sai Kamala Trinity",
        "addr:postcode": "560037",
        "addr:street": "ITPL Main Road",
        "amenity": "restaurant",
        "cuisine": "indian;chinese",
        "diet:non-vegetarian": "yes",
        "diet:vegetarian": "yes",
        "name": "Aaha Bhojanam",
        "phone": "+91 81255 92559",
        "website": "http://aahabhojanam.com/"
      }
    },
    {
      "type": "node",
      "id": 10678572931,
      "lat": 12.9760449,
      "lon": 77.717983,
      "tags": {
        "amenity": "restaurant",
        "name": "Sashay Taproom Kitchen",
        "opening_hours": "Mo-Su 12:00-24:00",
        "outdoor_seating": "yes"
      }
    },
    {
      "type": "node",
      "id": 10760842139,
      "lat": 12.9641632,
      "lon": 77.7143291,
      "tags": {
        "amenity": "fast_food",
        "check_date": "2024-07-13",
        "level": "0",
        "name": "Belgian Waffles"
      }
    },
    {
      "type": "node",
      "id": 10760842140,
      "lat": 12.9641246,
      "lon": 77.7140716,
      "tags": {
        "amenity": "restaurant",
        "check_date": "2025-08-05",
        "name": "Varalakshmi Tiffins"
      }
    },
    {
      "type": "node",
      "id": 10760842153,
      "lat": 12.9653713,
      "lon": 77.7142497,
      "tags": {
        "amenity": "fast_food",
        "check_date": "2025-07-15",
        "name": "The Taste Of Rajasthan",
        "wheelchair": "no"
      }
    },
    {
      "type": "node",
      "id": 10967301612,
      "lat": 12.9652018,
      "lon": 77.7181153,
      "tags": {
        "amenity": "restaurant",
        "name": "Mayura Grand"
      }
    },
    {
      "type": "node",
      "id": 10967301613,
      "lat": 12.9651352,
      "lon": 77.7181073,
      "tags": {
        "amenity": "restaurant",
        "name": "Akshatha Nati Style"
      }
    },
    {
      "type": "node",
      "id": 11107550464,
      "lat": 12.9652669,
      "lon": 77.7136731,
      "tags": {
        "amenity": "fast_food",
        "name": "The Fry Shack"
      }
    },
    {
      "type": "node",
      "id": 11107550465,
      "lat": 12.9650844,
      "lon": 77.7134968,
      "tags": {
        "female": "yes",
        "male": "yes",
        "name": "Dream Big",
        "shop": "hairdresser"
      }
    },
    {
      "type": "node",
      "id": 11107556718,
      "lat": 12.9658996,
      "lon": 77.7186933,
      "tags": {
        "amenity": "post_office",
        "name": "Kundalahalli Post Office",
        "opening_hours": "Mo-Su 09:00-17:00",
        "operator": "India Post",
        "operator:wikidata": "Q3519720",
        "wheelchair": "limited"
      }
    },
    {
      "type": "node",
      "id": 11178809200,
      "lat": 12.9648251,
      "lon": 77.7139806,
      "tags": {
        "amenity": "place_of_worship",
        "name": "Kundalahalli Ayyapa Temple",
        "religion": "hindu"
      }
    },
    {
      "type": "node",
      "id": 11193554733,
      "lat": 12.9669884,
      "lon": 77.7142033,
      "tags": {
        "amenity": "restaurant",
        "name": "Idly Guru"
      }
    },
    {
      "type": "node",
      "id": 11193554735,
      "lat": 12.9672256,
      "lon": 77.714208,
      "tags": {
        "check_date": "2024-07-13",
        "name": "Sri Ganesh Stationery",
        "shop": "copyshop"
      }
    },
    {
      "type": "node",
      "id": 11274969773,
      "lat": 12.9736914,
      "lon": 77.70845,
      "tags": {
        "amenity": "school",
        "name": "The Alternative Learning Community",
        "short_name": "TALC",
        "website": "https://www.thealternativelearningcommunity.com"
      }
    },
    {
      "type": "node",
      "id": 11297540605,
      "lat": 12.9772701,
      "lon": 77.7216639,
      "tags": {
        "amenity": "bench",
        "backrest": "yes",
        "colour": "green",
        "material": "concrete",
        "seats": "2"
      }
    },
    {
      "type": "node",
      "id": 11297540606,
      "lat": 12.9772124,
      "lon": 77.72167,
      "tags": {
        "amenity": "bench",
        "backrest": "yes",
        "colour": "yellow",
        "material": "concrete",
        "seats": "2"
      }
    },
    {
      "type": "node",
      "id": 11298101291,
      "lat": 12.9777623,
      "lon": 77.715248,
      "tags": {
        "access": "yes",
        "amenity": "motorcycle_parking",
        "fee": "yes"
      }
    },
    {
      "type": "node",
      "id": 11304374667,
      "lat": 12.966886,
      "lon": 77.7151363,
      "tags": {
        "amenity": "parking_entrance",
        "parking": "underground"
      }
    },
    {
      "type": "node",
      "id": 11309756297,
      "lat": 12.9717655,
      "lon": 77.7072893,
      "tags": {
        "amenity": "fast_food",
        "check_date": "2023-11-03",
        "indoor_seating": "no",
        "name": "Kolkata Famous Rolls",
        "outdoor_seating": "no",
        "takeaway": "only"
      }
    },
    {
      "type": "node",
      "id": 11309756298,
      "lat": 12.9717812,
      "lon": 77.7072495,
      "tags": {
        "check_date": "2023-11-03",
        "name": "Chai Venue",
        "shop": "tea"
      }
    },
    {
      "type": "node",
      "id": 11313855162,
      "lat": 12.9670358,
      "lon": 77.7177562,
      "tags": {
        "amenity": "parking_entrance",
        "parking": "underground"
      }
    },
    {
      "type": "node",
      "id": 11329638655,
      "lat": 12.9741378,
      "lon": 77.7128003,
      "tags": {
        "amenity": "parking_entrance",
        "parking": "underground"
      }
    },
    {
      "type": "node",
      "id": 11329665797,
      "lat": 12.9734514,
      "lon": 77.7121758,
      "tags": {
        "amenity": "parking_entrance",
        "parking": "underground"
      }
    },
    {
      "type": "node",
      "id": 11343348771,
      "lat": 12.9795657,
      "lon": 77.7163088,
      "tags": {
        "amenity": "parking_entrance",
        "parking": "underground"
      }
    },
    {
      "type": "node",
      "id": 11371672503,
      "lat": 12.9808748,
      "lon": 77.7114066,
      "tags": {
        "access": "private",
        "amenity": "parking_entrance",
        "parking": "underground"
      }
    },
    {
      "type": "node",
      "id": 11387140627,
      "lat": 12.9644348,
      "lon": 77.7158331,
      "tags": {
        "amenity": "clinic",
        "check_date": "2023-12-01",
        "healthcare": "clinic",
        "healthcare:speciality": "fertility",
        "level": "2",
        "name": "Nova IVF"
      }
    },
    {
      "type": "node",
      "id": 11387140628,
      "lat": 12.964495,
      "lon": 77.7158293,
      "tags": {
        "check_date": "2023-12-01",
        "name": "Eye Land",
        "shop": "optician"
      }
    },
    {
      "type": "node",
      "id": 11387140629,
      "lat": 12.9647722,
      "lon": 77.7156487,
      "tags": {
        "amenity": "cafe",
        "check_date": "2023-12-01",
        "name": "Cafe Siri"
      }
    },
    {
      "type": "node",
      "id": 11387897018,
      "lat": 12.9647206,
      "lon": 77.7156754,
      "tags": {
        "amenity": "parking_entrance",
        "parking": "underground"
      }
    },
    {
      "type": "node",
      "id": 11387897023,
      "lat": 12.9645417,
      "lon": 77.7158374,
      "tags": {
        "access": "customers",
        "amenity": "parking_entrance",
        "parking": "underground"
      }
    },
    {
      "type": "node",
      "id": 11407557712,
      "lat": 12.968111,
      "lon": 77.7168879,
      "tags": {
        "access": "private",
        "amenity": "parking_entrance",
        "parking": "underground"
      }
    },
    {
      "type": "node",
      "id": 11407557714,
      "lat": 12.968341,
      "lon": 77.7166119,
      "tags": {
        "access": "private",
        "amenity": "parking_entrance",
        "parking": "underground"
      }
    },
    {
      "type": "node",
      "id": 11446204194,
      "lat": 12.9809967,
      "lon": 77.712311,
      "tags": {
        "amenity": "bench",
        "material": "concrete"
      }
    },
    {
      "type": "node",
      "id": 11446273541,
      "lat": 12.9812202,
      "lon": 77.7159186,
      "tags": {
        "access": "private",
        "amenity": "parking_entrance",
        "parking": "underground"
      }
    },
    {
      "type": "node",
      "id": 11446273547,
      "lat": 12.9805726,
      "lon": 77.7160131,
      "tags": {
        "access": "private",
        "amenity": "parking_entrance",
        "parking": "underground"
      }
    },
    {
      "type": "node",
      "id": 11446289374,
      "lat": 12.9800674,
      "lon": 77.7147672,
      "tags": {
        "access": "private",
        "amenity": "parking_entrance",
        "parking": "underground"
      }
    },
    {
      "type": "node",
      "id": 11446289378,
      "lat": 12.9806491,
      "lon": 77.7148953,
      "tags": {
        "access": "private",
        "amenity": "parking_entrance",
        "parking": "underground"
      }
    },
    {
      "type": "node",
      "id": 11446289381,
      "lat": 12.9806922,
      "lon": 77.7175152,
      "tags": {
        "access": "private",
        "amenity": "parking_entrance",
        "parking": "underground"
      }
    },
    {
      "type": "node",
      "id": 11472845559,
      "lat": 12.9704092,
      "lon": 77.7126394,
      "tags": {
        "air_conditioning": "no",
        "amenity": "restaurant",
        "diet:vegetarian": "only",
        "indoor_seating": "yes",
        "name": "Hotel Mayura Sagar",
        "outdoor_seating": "yes",
        "smoking": "no",
        "wheelchair": "no"
      }
    },
    {
      "type": "node",
      "id": 11488303731,
      "lat": 12.9716152,
      "lon": 77.7097137,
      "tags": {
        "amenity": "food_court",
        "level": "-1"
      }
    },
    {
      "type": "node",
      "id": 11488303737,
      "lat": 12.9708364,
      "lon": 77.708717,
      "tags": {
        "amenity": "smoking_area",
        "bench": "no",
        "bin": "yes",
        "shelter": "yes"
      }
    },
    {
      "type": "node",
      "id": 11519266309,
      "lat": 12.9713878,
      "lon": 77.7108089,
      "tags": {
        "access": "private",
        "amenity": "parking_entrance",
        "parking": "underground"
      }
    },
    {
      "type": "node",
      "id": 11519266332,
      "lat": 12.9715798,
      "lon": 77.7080737,
      "tags": {
        "amenity": "smoking_area",
        "bench": "yes",
        "bin": "yes",
        "shelter": "yes"
      }
    },
    {
      "type": "node",
      "id": 11519266333,
      "lat": 12.9720503,
      "lon": 77.7085578,
      "tags": {
        "amenity": "fast_food",
        "brand": "Domino's",
        "brand:wikidata": "Q839466",
        "cuisine": "pizza",
        "name": "Domino's",
        "name:kn": "ಡಾಮಿನೋಸ್",
        "note": "Not accessible to general public, only those with SEZ cards can visit it.",
        "takeaway": "yes"
      }
    },
    {
      "type": "node",
      "id": 11519266342,
      "lat": 12.9707518,
      "lon": 77.7077384,
      "tags": {
        "amenity": "cafe",
        "description": "Only accessible to people with SEZ access.",
        "name": "Chai Gully",
        "outdoor_seating": "yes"
      }
    },
    {
      "type": "node",
      "id": 11519274306,
      "lat": 12.9726903,
      "lon": 77.7105745,
      "tags": {
        "access": "private",
        "amenity": "parking_entrance",
        "parking": "underground"
      }
    },
    {
      "type": "node",
      "id": 11519274307,
      "lat": 12.9728827,
      "lon": 77.7102137,
      "tags": {
        "access": "private",
        "amenity": "parking_entrance",
        "parking": "underground"
      }
    },
    {
      "type": "node",
      "id": 11633925997,
      "lat": 12.9731838,
      "lon": 77.7112797,
      "tags": {
        "access": "yes",
        "amenity": "bicycle_parking",
        "bicycle_parking": "stands",
        "capacity": "2",
        "covered": "no",
        "fee": "no",
        "operator": "DULT",
        "operator:type": "public"
      }
    },
    {
      "type": "node",
      "id": 11640614878,
      "lat": 12.9712429,
      "lon": 77.7186818,
      "tags": {
        "amenity": "parking_entrance",
        "parking": "underground"
      }
    },
    {
      "type": "node",
      "id": 11640614888,
      "lat": 12.9723252,
      "lon": 77.7188634,
      "tags": {
        "amenity": "parking_entrance",
        "parking": "underground"
      }
    },
    {
      "type": "node",
      "id": 11659647100,
      "lat": 12.976918,
      "lon": 77.7101701,
      "tags": {
        "access": "yes",
        "amenity": "bicycle_parking",
        "bicycle_parking": "stands",
        "capacity": "4",
        "colour": "yellow",
        "covered": "no",
        "fee": "no",
        "operator": "DULT",
        "operator:type": "government"
      }
    },
    {
      "type": "node",
      "id": 11786373293,
      "lat": 12.9663429,
      "lon": 77.7141399,
      "tags": {
        "addr:floor": "1",
        "beauty": "tanning",
        "check_date": "2024-04-04",
        "level": "1",
        "name": "56 Bangalore",
        "shop": "beauty"
      }
    },
    {
      "type": "node",
      "id": 11786373294,
      "lat": 12.9664148,
      "lon": 77.7141709,
      "tags": {
        "amenity": "restaurant",
        "check_date": "2024-04-04",
        "cuisine": "indian",
        "diet:vegetarian": "yes",
        "internet_access": "no",
        "level": "4",
        "name": "The Spice Studio",
        "payment:cash": "yes",
        "payment:credit_cards": "yes",
        "payment:debit_cards": "yes",
        "wheelchair": "limited"
      }
    },
    {
      "type": "node",
      "id": 11787368385,
      "lat": 12.9663764,
      "lon": 77.7141798,
      "tags": {
        "leisure": "fitness_centre",
        "name": "Fitness Emporium"
      }
    },
    {
      "type": "node",
      "id": 11799139352,
      "lat": 12.973613,
      "lon": 77.7154411,
      "tags": {
        "amenity": "restaurant",
        "name": "Maa Vindhu Bhojanam"
      }
    },
    {
      "type": "node",
      "id": 11799139355,
      "lat": 12.9736162,
      "lon": 77.7150663,
      "tags": {
        "amenity": "cafe",
        "name": "Cafe 19"
      }
    },
    {
      "type": "node",
      "id": 11799207833,
      "lat": 12.9727779,
      "lon": 77.714847,
      "tags": {
        "name": "Real Value Mart",
        "shop": "supermarket"
      }
    },
    {
      "type": "node",
      "id": 11799207842,
      "lat": 12.9737103,
      "lon": 77.7148651,
      "tags": {
        "amenity": "fast_food",
        "cuisine": "juice",
        "name": "Ice Burg"
      }
    },
    {
      "type": "node",
      "id": 11799207889,
      "lat": 12.9742756,
      "lon": 77.714731,
      "tags": {
        "access": "private",
        "amenity": "parking_entrance",
        "parking": "underground"
      }
    },
    {
      "type": "node",
      "id": 11799207910,
      "lat": 12.9742684,
      "lon": 77.7141087,
      "tags": {
        "access": "private",
        "amenity": "parking_entrance",
        "parking": "underground"
      }
    },
    {
      "type": "node",
      "id": 11799207955,
      "lat": 12.9779455,
      "lon": 77.7118175,
      "tags": {
        "amenity": "parking",
        "parking": "underground"
      }
    },
    {
      "type": "node",
      "id": 11799207964,
      "lat": 12.9779261,
      "lon": 77.7119633,
      "tags": {
        "amenity": "parking",
        "parking": "underground"
      }
    },
    {
      "type": "node",
      "id": 11826815328,
      "lat": 12.9759714,
      "lon": 77.7177511,
      "tags": {
        "access": "customers",
        "amenity": "parking_entrance",
        "parking": "underground"
      }
    },
    {
      "type": "node",
      "id": 11827253932,
      "lat": 12.9707987,
      "lon": 77.7188276,
      "tags": {
        "access": "private",
        "amenity": "parking_entrance",
        "parking": "underground"
      }
    },
    {
      "type": "node",
      "id": 11827253938,
      "lat": 12.9705889,
      "lon": 77.7182064,
      "tags": {
        "access": "private",
        "amenity": "parking_entrance",
        "parking": "underground"
      }
    },
    {
      "type": "node",
      "id": 11829570232,
      "lat": 12.9723641,
      "lon": 77.7178684,
      "tags": {
        "amenity": "bar",
        "name": "Slounge"
      }
    },
    {
      "type": "node",
      "id": 11832523169,
      "lat": 12.9653469,
      "lon": 77.7197166,
      "tags": {
        "amenity": "cafe",
        "name": "Chaklivan"
      }
    },
    {
      "type": "node",
      "id": 11832523170,
      "lat": 12.965358,
      "lon": 77.7197655,
      "tags": {
        "name": "Look Matters",
        "shop": "hairdresser"
      }
    },
    {
      "type": "node",
      "id": 11832523171,
      "lat": 12.965339,
      "lon": 77.7196603,
      "tags": {
        "amenity": "fast_food",
        "name": "Bangarpet Chats"
      }
    },
    {
      "type": "node",
      "id": 11832523188,
      "lat": 12.9653044,
      "lon": 77.7192995,
      "tags": {
        "amenity": "restaurant",
        "check_date": "2025-11-29",
        "name": "Zamorins"
      }
    },
    {
      "type": "node",
      "id": 11832523205,
      "lat": 12.9656096,
      "lon": 77.7187449,
      "tags": {
        "amenity": "fast_food",
        "cuisine": "juice",
        "name": "Sri Ganesha Fruit Juice Centre"
      }
    },
    {
      "type": "node",
      "id": 11832523206,
      "lat": 12.9656324,
      "lon": 77.7187382,
      "tags": {
        "name": "Spin Cycles",
        "shop": "laundry"
      }
    },
    {
      "type": "node",
      "id": 11832523209,
      "lat": 12.9657432,
      "lon": 77.7186983,
      "tags": {
        "amenity": "parking_entrance",
        "parking": "underground"
      }
    },
    {
      "type": "node",
      "id": 11832523230,
      "lat": 12.9670099,
      "lon": 77.7187114,
      "tags": {
        "amenity": "fast_food",
        "cuisine": "juice",
        "name": "Lassi & Juice World",
        "wheelchair": "limited"
      }
    },
    {
      "type": "node",
      "id": 11832523231,
      "lat": 12.966974,
      "lon": 77.7187067,
      "tags": {
        "name": "Posh",
        "shop": "clothes",
        "wheelchair": "limited"
      }
    },
    {
      "type": "node",
      "id": 11832523234,
      "lat": 12.967123,
      "lon": 77.7187148,
      "tags": {
        "amenity": "fast_food",
        "name": "SK Food Center"
      }
    },
    {
      "type": "node",
      "id": 11832523235,
      "lat": 12.9671654,
      "lon": 77.7187181,
      "tags": {
        "female": "yes",
        "name": "Nirvee's",
        "shop": "hairdresser",
        "wheelchair": "no"
      }
    },
    {
      "type": "node",
      "id": 11832523246,
      "lat": 12.9674595,
      "lon": 77.7187315,
      "tags": {
        "name": "Crown's",
        "shop": "hairdresser",
        "unisex": "yes",
        "wheelchair": "limited"
      }
    },
    {
      "type": "node",
      "id": 11832523264,
      "lat": 12.9677633,
      "lon": 77.7183822,
      "tags": {
        "name": "Star Cyber",
        "shop": "copyshop"
      }
    },
    {
      "type": "node",
      "id": 11832523309,
      "lat": 12.9676679,
      "lon": 77.716677,
      "tags": {
        "amenity": "fast_food",
        "brand": "Beijing Bites",
        "brand:wikidata": "Q124374289",
        "cuisine": "chinese",
        "delivery": "yes",
        "name": "Beijing Bites",
        "takeaway": "yes",
        "wheelchair": "no"
      }
    },
    {
      "type": "node",
      "id": 11832800797,
      "lat": 12.9673216,
      "lon": 77.7188207,
      "tags": {
        "shop": "tailor"
      }
    },
    {
      "type": "node",
      "id": 11832800813,
      "lat": 12.9672537,
      "lon": 77.7188261,
      "tags": {
        "name": "S L Fruits & Vegetables",
        "shop": "greengrocer"
      }
    },
    {
      "type": "node",
      "id": 11832800815,
      "lat": 12.9677542,
      "lon": 77.7186444,
      "tags": {
        "amenity": "fast_food",
        "cuisine": "juice",
        "name": "The Juice"
      }
    },
    {
      "type": "node",
      "id": 11832800839,
      "lat": 12.9678875,
      "lon": 77.7186913,
      "tags": {
        "name": "Tech Park",
        "shop": "mobile_phone"
      }
    },
    {
      "type": "node",
      "id": 11832800842,
      "lat": 12.9679091,
      "lon": 77.7184848,
      "tags": {
        "name": "Tip Top Foods",
        "shop": "greengrocer",
        "wheelchair": "no"
      }
    },
    {
      "type": "node",
      "id": 11871599802,
      "lat": 12.9708631,
      "lon": 77.7070089,
      "tags": {
        "air_conditioning": "yes",
        "amenity": "restaurant",
        "indoor_seating": "yes",
        "level": "0,1",
        "name": "Sri Udupi Swaad",
        "outdoor_seating": "no"
      }
    },
    {
      "type": "node",
      "id": 11891881942,
      "lat": 12.968751,
      "lon": 77.7072133,
      "tags": {
        "amenity": "smoking_area",
        "bench": "yes",
        "bin": "yes",
        "shelter": "no"
      }
    },
    {
      "type": "node",
      "id": 11892954154,
      "lat": 12.9651655,
      "lon": 77.7140129,
      "tags": {
        "amenity": "restaurant",
        "check_date": "2024-05-10",
        "name": "Holige Mane"
      }
    },
    {
      "type": "node",
      "id": 11892954155,
      "lat": 12.9651343,
      "lon": 77.7138623,
      "tags": {
        "check_date": "2025-08-05",
        "name": "Wash n Dry",
        "shop": "laundry"
      }
    },
    {
      "type": "node",
      "id": 11892954156,
      "lat": 12.965134,
      "lon": 77.7139161,
      "tags": {
        "check_date": "2024-05-10",
        "name": "Nispaditha",
        "shop": "jewelry"
      }
    },
    {
      "type": "node",
      "id": 11895221933,
      "lat": 12.965314,
      "lon": 77.7139915,
      "tags": {
        "name": "New Mangalore Stores",
        "shop": "convenience"
      }
    },
    {
      "type": "node",
      "id": 11898999666,
      "lat": 12.9776378,
      "lon": 77.7159786,
      "tags": {
        "access": "yes",
        "amenity": "motorcycle_parking",
        "bicycle": "yes",
        "covered": "yes",
        "fee": "yes"
      }
    },
    {
      "type": "node",
      "id": 11898999667,
      "lat": 12.9776501,
      "lon": 77.7160446,
      "tags": {
        "access": "yes",
        "amenity": "bicycle_parking",
        "bicycle_parking": "shed",
        "charge": "1 INR",
        "covered": "yes",
        "fee": "yes",
        "note": "Not really a shed, bicycles are permitted to park next to bikes in the cavity in the building, if they pay a fee"
      }
    },
    {
      "type": "node",
      "id": 11917144398,
      "lat": 12.9695415,
      "lon": 77.7165124,
      "tags": {
        "amenity": "parking_entrance",
        "parking": "underground"
      }
    },
    {
      "type": "node",
      "id": 12000719528,
      "lat": 12.9775829,
      "lon": 77.7155956,
      "tags": {
        "access": "customers",
        "amenity": "ticket_validator",
        "barrier": "gate",
        "level": "1",
        "network": "Namma Metro",
        "operator": "BMRCL",
        "wheelchair": "yes"
      }
    },
    {
      "type": "node",
      "id": 12005310851,
      "lat": 12.9688088,
      "lon": 77.7174884,
      "tags": {
        "amenity": "parking_entrance",
        "parking": "underground"
      }
    },
    {
      "type": "node",
      "id": 12050443663,
      "lat": 12.9655638,
      "lon": 77.714197,
      "tags": {
        "amenity": "fast_food",
        "check_date": "2024-07-13",
        "cuisine": "juice",
        "name": "Sri Ganjana Fruit Juice Centre"
      }
    },
    {
      "type": "node",
      "id": 12050443665,
      "lat": 12.9656222,
      "lon": 77.7142125,
      "tags": {
        "check_date": "2024-07-13",
        "name": "Exotic Men's Salon",
        "shop": "hairdresser"
      }
    },
    {
      "type": "node",
      "id": 12050443666,
      "lat": 12.965574,
      "lon": 77.7142257,
      "tags": {
        "check_date": "2024-07-13",
        "leisure": "sports_centre",
        "name": "Cue Hunter Snooker Lounge"
      }
    },
    {
      "type": "node",
      "id": 12050443667,
      "lat": 12.9655969,
      "lon": 77.713901,
      "tags": {
        "check_date": "2024-07-13",
        "name": "Glamon Unisex Salon & Spa",
        "shop": "hairdresser"
      }
    },
    {
      "type": "node",
      "id": 12050443668,
      "lat": 12.9656615,
      "lon": 77.7138986,
      "tags": {
        "amenity": "fast_food",
        "check_date": "2024-07-13",
        "name": "Nataraj Chole Bhature"
      }
    },
    {
      "type": "node",
      "id": 12050447425,
      "lat": 12.9655482,
      "lon": 77.7181949,
      "tags": {
        "amenity": "dentist",
        "check_date": "2024-07-13",
        "healthcare": "dentist"
      }
    },
    {
      "type": "node",
      "id": 12050447426,
      "lat": 12.9656122,
      "lon": 77.7182,
      "tags": {
        "check_date": "2024-07-13",
        "shop": "mobile_phone"
      }
    },
    {
      "type": "node",
      "id": 12050447428,
      "lat": 12.9654486,
      "lon": 77.7181879,
      "tags": {
        "check_date": "2024-07-13",
        "shop": "butcher"
      }
    },
    {
      "type": "node",
      "id": 12050450471,
      "lat": 12.9746893,
      "lon": 77.7111259,
      "tags": {
        "amenity": "place_of_worship",
        "check_date": "2025-10-30",
        "religion": "hindu"
      }
    },
    {
      "type": "node",
      "id": 12050464279,
      "lat": 12.9643149,
      "lon": 77.7177551,
      "tags": {
        "amenity": "fast_food",
        "check_date": "2024-07-13",
        "name": "Thindi Mane",
        "wheelchair": "no"
      }
    },
    {
      "type": "node",
      "id": 12050467989,
      "lat": 12.9642084,
      "lon": 77.7144732,
      "tags": {
        "check_date": "2024-07-13",
        "level": "0",
        "name": "Midas Touch",
        "shop": "bakery"
      }
    },
    {
      "type": "node",
      "id": 12050485693,
      "lat": 12.9640203,
      "lon": 77.7133773,
      "tags": {
        "addr:floor": "1",
        "check_date": "2024-07-13",
        "leisure": "fitness_centre",
        "name": "N. S. Fitness Studio"
      }
    },
    {
      "type": "node",
      "id": 12050485694,
      "lat": 12.9640163,
      "lon": 77.7133817,
      "tags": {
        "addr:floor": "3",
        "check_date": "2024-07-13",
        "name": "Smile Unisex Salon and Spa",
        "shop": "hairdresser"
      }
    },
    {
      "type": "node",
      "id": 12050486519,
      "lat": 12.9641677,
      "lon": 77.7143381,
      "tags": {
        "amenity": "music_school",
        "check_date": "2024-07-13",
        "level": "1",
        "name": "Hum & Strum Music School"
      }
    },
    {
      "type": "node",
      "id": 12050487262,
      "lat": 12.9644198,
      "lon": 77.7155567,
      "tags": {
        "amenity": "cafe",
        "check_date": "2024-07-13",
        "cuisine": "coffee_shop",
        "name": "Sendhoor Coffee"
      }
    },
    {
      "type": "node",
      "id": 12050487421,
      "lat": 12.9641488,
      "lon": 77.7139047,
      "tags": {
        "amenity": "bank",
        "atm": "yes",
        "brand": "Kotak Mahindra Bank",
        "brand:wikidata": "Q2040404",
        "check_date": "2024-07-13",
        "name": "Kotak Mahindra Bank",
        "wheelchair": "no"
      }
    },
    {
      "type": "node",
      "id": 12050487425,
      "lat": 12.964638,
      "lon": 77.7148162,
      "tags": {
        "check_date": "2024-07-13",
        "name": "Health & Glow",
        "shop": "cosmetics"
      }
    },
    {
      "type": "node",
      "id": 12050487429,
      "lat": 12.964995,
      "lon": 77.7170926,
      "tags": {
        "amenity": "pharmacy",
        "brand": "MedPlus",
        "brand:wikidata": "Q65684234",
        "check_date": "2024-07-13",
        "healthcare": "pharmacy",
        "name": "MedPlus",
        "shop": "chemist",
        "wheelchair": "no"
      }
    },
    {
      "type": "node",
      "id": 12050489469,
      "lat": 12.9657777,
      "lon": 77.7138722,
      "tags": {
        "amenity": "fast_food",
        "check_date": "2024-07-13",
        "name": "NBN Military Hotel"
      }
    },
    {
      "type": "node",
      "id": 12050489470,
      "lat": 12.9657233,
      "lon": 77.7138797,
      "tags": {
        "check_date": "2024-07-13",
        "name": "Hi-Tech Mobile",
        "shop": "mobile_phone"
      }
    },
    {
      "type": "node",
      "id": 12050489471,
      "lat": 12.9659345,
      "lon": 77.7141453,
      "tags": {
        "brand": "Sri Krishna Sweets",
        "brand:wikidata": "Q7585868",
        "check_date": "2024-07-13",
        "name": "Sri Krishna Sweets",
        "shop": "confectionery"
      }
    },
    {
      "type": "node",
      "id": 12050489472,
      "lat": 12.9658943,
      "lon": 77.7141496,
      "tags": {
        "check_date": "2024-07-13",
        "name": "Sahukar Chai",
        "shop": "kiosk"
      }
    },
    {
      "type": "node",
      "id": 12050489473,
      "lat": 12.9658922,
      "lon": 77.7138464,
      "tags": {
        "amenity": "clinic",
        "check_date": "2024-07-13",
        "healthcare": "clinic",
        "name": "Manipal Clinics"
      }
    },
    {
      "type": "node",
      "id": 12050489474,
      "lat": 12.9659365,
      "lon": 77.7138374,
      "tags": {
        "check_date": "2024-07-13",
        "leisure": "fitness_centre",
        "name": "Gym X"
      }
    },
    {
      "type": "node",
      "id": 12050489475,
      "lat": 12.9660424,
      "lon": 77.7138251,
      "tags": {
        "amenity": "kindergarten",
        "check_date": "2024-07-13",
        "name": "Eurokids"
      }
    },
    {
      "type": "node",
      "id": 12050489476,
      "lat": 12.9661735,
      "lon": 77.7141322,
      "tags": {
        "amenity": "fast_food",
        "check_date": "2024-07-13",
        "name": "MG Donne Biryani"
      }
    },
    {
      "type": "node",
      "id": 12050489477,
      "lat": 12.9660022,
      "lon": 77.7141408,
      "tags": {
        "check_date": "2024-07-13",
        "name": "Annapoorna Andhra Spices",
        "shop": "spices"
      }
    },
    {
      "type": "node",
      "id": 12050489478,
      "lat": 12.96643,
      "lon": 77.7141213,
      "tags": {
        "amenity": "bank",
        "brand": "IDFC First Bank",
        "brand:wikidata": "Q22031467",
        "check_date": "2024-07-13",
        "name": "IDFC First Bank"
      }
    },
    {
      "type": "node",
      "id": 12050489479,
      "lat": 12.9662064,
      "lon": 77.7141261,
      "tags": {
        "check_date": "2024-07-13",
        "name": "Bangarpet Chats",
        "shop": "kiosk"
      }
    },
    {
      "type": "node",
      "id": 12050489480,
      "lat": 12.9662292,
      "lon": 77.7141268,
      "tags": {
        "check_date": "2024-07-13",
        "name": "Sri Amman Old Papers",
        "shop": "craft"
      }
    },
    {
      "type": "node",
      "id": 12050490174,
      "lat": 12.9641384,
      "lon": 77.7139099,
      "tags": {
        "amenity": "atm",
        "check_date": "2024-07-13",
        "level": "0",
        "operator": "Kotak Bank"
      }
    },
    {
      "type": "node",
      "id": 12050490176,
      "lat": 12.9641605,
      "lon": 77.7142226,
      "tags": {
        "amenity": "clinic",
        "check_date": "2024-07-13",
        "healthcare": "clinic",
        "healthcare:speciality": "fertility",
        "level": "1",
        "name": "Sattva Fertility"
      }
    },
    {
      "type": "node",
      "id": 12050490626,
      "lat": 12.9666218,
      "lon": 77.7141612,
      "tags": {
        "amenity": "kindergarten",
        "check_date": "2024-07-13",
        "name": "Aris Tot Lers"
      }
    },
    {
      "type": "node",
      "id": 12050490627,
      "lat": 12.9668508,
      "lon": 77.7141826,
      "tags": {
        "amenity": "kindergarten",
        "check_date": "2024-07-13",
        "name": "Little Millenium"
      }
    },
    {
      "type": "node",
      "id": 12050490628,
      "lat": 12.9669723,
      "lon": 77.7142387,
      "tags": {
        "amenity": "pharmacy",
        "check_date": "2024-07-13",
        "healthcare": "pharmacy",
        "name": "Sri Sreenivasa Medicals"
      }
    },
    {
      "type": "node",
      "id": 12050490630,
      "lat": 12.9674969,
      "lon": 77.7142461,
      "tags": {
        "check_date": "2024-07-13",
        "name": "Silsila",
        "shop": "mobile_phone"
      }
    },
    {
      "type": "node",
      "id": 12050490631,
      "lat": 12.9674896,
      "lon": 77.7142837,
      "tags": {
        "amenity": "fast_food",
        "check_date": "2024-07-13",
        "name": "The Swastik Cafe"
      }
    },
    {
      "type": "node",
      "id": 12050490632,
      "lat": 12.967488,
      "lon": 77.7143126,
      "tags": {
        "amenity": "fast_food",
        "check_date": "2024-07-13",
        "name": "Shawarma House"
      }
    },
    {
      "type": "node",
      "id": 12050490633,
      "lat": 12.9674862,
      "lon": 77.7143414,
      "tags": {
        "amenity": "cafe",
        "check_date": "2024-07-13",
        "name": "Irani Chai"
      }
    },
    {
      "type": "node",
      "id": 12050490634,
      "lat": 12.9674859,
      "lon": 77.7143632,
      "tags": {
        "amenity": "fast_food",
        "check_date": "2024-07-13",
        "name": "Mr Rolls"
      }
    },
    {
      "type": "node",
      "id": 12050490635,
      "lat": 12.9674812,
      "lon": 77.7143858,
      "tags": {
        "amenity": "fast_food",
        "check_date": "2024-07-13",
        "name": "Amma's Italian Pizza"
      }
    },
    {
      "type": "node",
      "id": 12050490636,
      "lat": 12.9674007,
      "lon": 77.7146094,
      "tags": {
        "amenity": "cafe",
        "check_date": "2024-07-13",
        "name": "Zafrani Chai"
      }
    },
    {
      "type": "node",
      "id": 12050490637,
      "lat": 12.9674209,
      "lon": 77.71461,
      "tags": {
        "amenity": "ice_cream",
        "check_date": "2024-07-13",
        "name": "More Ice"
      }
    },
    {
      "type": "node",
      "id": 12050490638,
      "lat": 12.9674175,
      "lon": 77.7144781,
      "tags": {
        "check_date": "2024-07-13",
        "name": "Vijay Food Point",
        "shop": "kiosk"
      }
    },
    {
      "type": "node",
      "id": 12050490639,
      "lat": 12.9663328,
      "lon": 77.7145257,
      "tags": {
        "check_date": "2024-07-13",
        "name": "INOX Salon & Spa",
        "shop": "hairdresser"
      }
    },
    {
      "type": "node",
      "id": 12050490640,
      "lat": 12.966311,
      "lon": 77.7145728,
      "tags": {
        "amenity": "fast_food",
        "check_date": "2024-07-13",
        "name": "The Palleti's Spice Villa"
      }
    },
    {
      "type": "node",
      "id": 12050490641,
      "lat": 12.9662669,
      "lon": 77.714526,
      "tags": {
        "amenity": "fast_food",
        "check_date": "2024-07-13",
        "name": "Mr. Shawarma & Miss Grills"
      }
    },
    {
      "type": "node",
      "id": 12050490642,
      "lat": 12.966213,
      "lon": 77.7145165,
      "tags": {
        "amenity": "cafe",
        "check_date": "2024-07-13",
        "name": "Ira Cafe"
      }
    },
    {
      "type": "node",
      "id": 12050490646,
      "lat": 12.9659119,
      "lon": 77.7145175,
      "tags": {
        "amenity": "fast_food",
        "check_date": "2024-07-13",
        "cuisine": "juice",
        "name": "Lassi & Juice World"
      }
    },
    {
      "type": "node",
      "id": 12050490647,
      "lat": 12.9658456,
      "lon": 77.7145279,
      "tags": {
        "check_date": "2024-07-13",
        "name": "Cell Care",
        "shop": "mobile_phone"
      }
    },
    {
      "type": "node",
      "id": 12050490648,
      "lat": 12.9658149,
      "lon": 77.7145317,
      "tags": {
        "amenity": "cafe",
        "check_date": "2024-07-13",
        "name": "Teaday"
      }
    },
    {
      "type": "node",
      "id": 12050490649,
      "lat": 12.9652713,
      "lon": 77.7144646,
      "tags": {
        "amenity": "kindergarten",
        "check_date": "2024-07-13",
        "name": "Beginner World"
      }
    },
    {
      "type": "node",
      "id": 12050495978,
      "lat": 12.9649866,
      "lon": 77.7150339,
      "tags": {
        "amenity": "kindergarten",
        "check_date": "2024-07-13",
        "name": "range"
      }
    },
    {
      "type": "node",
      "id": 12050495979,
      "lat": 12.9650087,
      "lon": 77.7153125,
      "tags": {
        "amenity": "kindergarten",
        "check_date": "2024-07-13",
        "name": "Bachpan"
      }
    },
    {
      "type": "node",
      "id": 12147224863,
      "lat": 12.9663526,
      "lon": 77.7177981,
      "tags": {
        "amenity": "cinema",
        "brand": "INOX Leisure",
        "brand:short": "INOX",
        "brand:wikidata": "Q5972349",
        "check_date": "2024-08-30",
        "name": "INOX Leisure",
        "short_name": "INOX"
      }
    },
    {
      "type": "node",
      "id": 12161386683,
      "lat": 12.9706387,
      "lon": 77.7060326,
      "tags": {
        "access": "private",
        "amenity": "parking_entrance",
        "parking": "underground"
      }
    },
    {
      "type": "node",
      "id": 12164756040,
      "lat": 12.973695,
      "lon": 77.7062235,
      "tags": {
        "access": "private",
        "amenity": "parking_entrance",
        "parking": "underground"
      }
    },
    {
      "type": "node",
      "id": 12187611682,
      "lat": 12.9809553,
      "lon": 77.7116675,
      "tags": {
        "access": "private",
        "amenity": "parking_entrance",
        "parking": "underground"
      }
    },
    {
      "type": "node",
      "id": 12187611685,
      "lat": 12.9809918,
      "lon": 77.7116952,
      "tags": {
        "access": "private",
        "amenity": "parking_entrance",
        "parking": "underground"
      }
    },
    {
      "type": "node",
      "id": 12199128515,
      "lat": 12.9692627,
      "lon": 77.7122767,
      "tags": {
        "amenity": "pharmacy",
        "check_date": "2024-09-25",
        "healthcare": "pharmacy",
        "name": "Ganesh Medicals"
      }
    },
    {
      "type": "node",
      "id": 12201045813,
      "lat": 12.965168,
      "lon": 77.7181262,
      "tags": {
        "amenity": "fast_food",
        "name": "Kalki Cafe"
      }
    },
    {
      "type": "node",
      "id": 12201193315,
      "lat": 12.9745034,
      "lon": 77.7212365,
      "tags": {
        "amenity": "parking_entrance",
        "parking": "underground"
      }
    },
    {
      "type": "node",
      "id": 12201193322,
      "lat": 12.9745526,
      "lon": 77.7210273,
      "tags": {
        "amenity": "parking_entrance",
        "parking": "underground"
      }
    },
    {
      "type": "node",
      "id": 12211278636,
      "lat": 12.9723405,
      "lon": 77.7074025,
      "tags": {
        "leisure": "fitness_centre"
      }
    },
    {
      "type": "node",
      "id": 12218005444,
      "lat": 12.9655722,
      "lon": 77.7185195,
      "tags": {
        "name": "Sangamam bakery",
        "shop": "bakery"
      }
    },
    {
      "type": "node",
      "id": 12284791767,
      "lat": 12.9776677,
      "lon": 77.7072956,
      "tags": {
        "addr:city": "Bengaluru",
        "addr:district": "Bengaluru",
        "addr:housenumber": "22/A",
        "addr:postcode": "560048",
        "addr:street": "22/A, Doddanakundi Industrial Area 2, Phase 1, Doddanekkundi",
        "air_conditioning": "yes",
        "amenity": "restaurant",
        "bar": "yes",
        "capacity": "1000",
        "changing_table": "yes",
        "check_date": "2025-11-22",
        "contact:instagram": "https://www.instagram.com/theyardblr",
        "cuisine": "indian;asian;continental;bar_food;grill;fusion",
        "delivery": "yes",
        "description": "The Yard, Whitefield is the best bar and restaurant in Whitefield, Bengaluru. With top-rated food, service, and atmosphere, we’re known for our open-air ambiance, live events, karaoke nights, and gaming zone.",
        "diet:chicken": "yes",
        "diet:fish": "yes",
        "diet:gluten_free": "yes",
        "diet:halal": "yes",
        "diet:healthy": "yes",
        "diet:kosher": "yes",
        "diet:lacto_vegetarian": "yes",
        "diet:lactose_free": "yes",
        "diet:local": "yes",
        "diet:mediterranean": "yes",
        "diet:non-vegetarian": "yes",
        "diet:organic": "yes",
        "diet:pescetarian": "yes",
        "diet:seafood": "yes",
        "diet:sugar_free": "yes",
        "diet:vegan": "yes",
        "diet:vegetarian": "yes",
        "email": "theyardblr@gmail.com",
        "highchair": "yes",
        "internet_access": "wlan",
        "internet_access:fee": "no",
        "level": "9",
        "loc_name": "best bar and restaurant in Whitefield",
        "name": "The Yard, Whitefield",
        "official_name": "best bar and restaurant in Whitefield",
        "official_name:en": "best 5-star restaurants in Bengaluru",
        "opening_hours": "Mo-Sun 12.00-1.00",
        "organic": "only",
        "outdoor_seating": "yes",
        "payment:account_cards": "yes",
        "payment:alipay": "yes",
        "payment:american_express": "yes",
        "payment:app": "yes",
        "payment:apple_pay": "yes",
        "payment:bancomat": "yes",
        "payment:blik": "yes",
        "payment:cards": "yes",
        "payment:cash": "yes",
        "payment:cheque": "yes",
        "payment:clipper": "yes",
        "payment:coins": "yes",
        "payment:contactless": "yes",
        "payment:credit_cards": "yes",
        "payment:cryptocurrencies": "yes",
        "payment:debit_cards": "yes",
        "payment:diners_club": "yes",
        "payment:discover_card": "yes",
        "payment:dkv": "yes",
        "payment:electronic_purses": "yes",
        "payment:ep_easycard": "yes",
        "payment:ep_geldkarte": "yes",
        "payment:ep_ipass": "yes",
        "payment:girocard": "yes",
        "payment:google_pay": "yes",
        "payment:jcb": "yes",
        "payment:lightning": "yes",
        "payment:maestro": "yes",
        "payment:mastercard": "yes",
        "payment:mastercard_contactless": "yes",
        "payment:notes": "yes",
        "payment:onchain": "yes",
        "payment:paypal": "yes",
        "payment:prepaid_ticket": "yes",
        "payment:telephone_cards": "yes",
        "payment:unionpay": "yes",
        "payment:uta": "yes",
        "payment:v_pay": "yes",
        "payment:visa": "yes",
        "payment:visa_debit": "yes",
        "payment:visa_electron": "yes",
        "payment:wechat": "yes",
        "phone": "+919980123543",
        "reservation": "yes",
        "short_name": "The Yard",
        "smoking": "no",
        "sport": "billiards;table_soccer;darts;pool",
        "stars": "5",
        "takeaway": "yes",
        "toilets": "yes",
        "toilets:wheelchair": "yes",
        "website": "https://the-yard.in",
        "website:menu": "https://drive.google.com/drive/folders/1iwnYYAgSwNDCTb2ubnBj1-Gy8IZbGNZj",
        "wheelchair": "yes"
      }
    },
    {
      "type": "node",
      "id": 12303923001,
      "lat": 12.9673405,
      "lon": 77.7161058,
      "tags": {
        "addr:postcode": "560037",
        "leisure": "fitness_centre",
        "name": "Result Fitness"
      }
    },
    {
      "type": "node",
      "id": 12443448765,
      "lat": 12.9697834,
      "lon": 77.7125025,
      "tags": {
        "addr:housenumber": "139",
        "addr:street": "4th Cross Road",
        "check_date": "2024-12-22",
        "internet_access": "no",
        "name": "Clip'n'Copy",
        "shop": "stationery",
        "wheelchair": "limited"
      }
    },
    {
      "type": "node",
      "id": 12458893892,
      "lat": 12.9644592,
      "lon": 77.7153356,
      "tags": {
        "addr:door": "1240 to 1339",
        "addr:floor": "G",
        "addr:housenumber": "597",
        "addr:postcode": "560037",
        "addr:street": "ITPL Main Road",
        "check_date": "2024-12-28",
        "level": "0",
        "name": "Manak Mewa",
        "name:en": "Manak Mewa",
        "operator": "Manak Mewa",
        "payment:cash": "yes",
        "payment:credit_cards": "yes",
        "payment:debit_cards": "yes",
        "phone": "08041753666; +91 93648 99268",
        "shop": "health_food",
        "source": "local knowledge",
        "website": "https://manakmewa.com",
        "wheelchair": "no"
      }
    },
    {
      "type": "node",
      "id": 12462600848,
      "lat": 12.9674098,
      "lon": 77.7147635,
      "tags": {
        "amenity": "fast_food",
        "name": "Samosa Party",
        "wheelchair": "no"
      }
    },
    {
      "type": "node",
      "id": 12500582183,
      "lat": 12.9714686,
      "lon": 77.706628,
      "tags": {
        "amenity": "ice_cream",
        "brand": "Baskin-Robbins",
        "brand:wikidata": "Q584601",
        "cuisine": "ice_cream",
        "name": "Baskin-Robbins"
      }
    },
    {
      "type": "node",
      "id": 12535654690,
      "lat": 12.9643677,
      "lon": 77.7150123,
      "tags": {
        "addr:city": "Bengaluru",
        "addr:district": "Bengaluru Urban",
        "addr:housenumber": "595",
        "addr:postcode": "560037",
        "addr:street": "60 Feet Road, AECS Layout, Brookfield, Marathahalli",
        "amenity": "restaurant",
        "name": "Rajwadi"
      }
    },
    {
      "type": "node",
      "id": 12732336490,
      "lat": 12.9665388,
      "lon": 77.7141281,
      "tags": {
        "amenity": "fast_food",
        "name": "Xero Degrees"
      }
    },
    {
      "type": "node",
      "id": 12732336491,
      "lat": 12.9665184,
      "lon": 77.7141852,
      "tags": {
        "amenity": "restaurant",
        "name": "Sichuan"
      }
    },
    {
      "type": "node",
      "id": 12786437993,
      "lat": 12.9646043,
      "lon": 77.714005,
      "tags": {
        "amenity": "place_of_worship",
        "name": "Shri Ishtasiddi Subramanya Swamy Temple",
        "religion": "hindu"
      }
    },
    {
      "type": "node",
      "id": 12930139204,
      "lat": 12.96468,
      "lon": 77.711295,
      "tags": {
        "amenity": "bench"
      }
    },
    {
      "type": "node",
      "id": 12981491763,
      "lat": 12.9787167,
      "lon": 77.7112515,
      "tags": {
        "amenity": "restaurant",
        "check_date": "2025-07-06",
        "name": "Sinchana Food Court"
      }
    },
    {
      "type": "node",
      "id": 12981491764,
      "lat": 12.9790577,
      "lon": 77.7114144,
      "tags": {
        "check_date": "2025-07-06",
        "name": "G. K. B Indian Bikes",
        "shop": "motorcycle_repair"
      }
    },
    {
      "type": "node",
      "id": 12981491765,
      "lat": 12.9793525,
      "lon": 77.7118747,
      "tags": {
        "amenity": "kindergarten",
        "check_date": "2025-07-06",
        "name": "Footprints"
      }
    },
    {
      "type": "node",
      "id": 12981491768,
      "lat": 12.9792441,
      "lon": 77.7125699,
      "tags": {
        "amenity": "cafe",
        "check_date": "2025-07-06",
        "name": "The Chef"
      }
    },
    {
      "type": "node",
      "id": 12981491769,
      "lat": 12.9791045,
      "lon": 77.7125282,
      "tags": {
        "amenity": "fast_food",
        "check_date": "2025-07-06",
        "cuisine": "juice",
        "name": "Chai Venue"
      }
    },
    {
      "type": "node",
      "id": 12981491770,
      "lat": 12.9793229,
      "lon": 77.7122318,
      "tags": {
        "check_date": "2025-07-06",
        "name": "Vivek Tailors",
        "shop": "tailor"
      }
    },
    {
      "type": "node",
      "id": 13013584292,
      "lat": 12.9673961,
      "lon": 77.7148172,
      "tags": {
        "amenity": "restaurant",
        "name": "Jolly Johnny's Bar"
      }
    },
    {
      "type": "node",
      "id": 13037172167,
      "lat": 12.9713945,
      "lon": 77.7063241,
      "tags": {
        "amenity": "cafe",
        "check_date": "2025-07-30",
        "name": "Teaday"
      }
    },
    {
      "type": "node",
      "id": 13049392111,
      "lat": 12.9665135,
      "lon": 77.7156812,
      "tags": {
        "amenity": "bench",
        "armrest": "yes",
        "backrest": "yes",
        "material": "concrete",
        "seats": "3"
      }
    },
    {
      "type": "node",
      "id": 13049392114,
      "lat": 12.966451,
      "lon": 77.7156428,
      "tags": {
        "amenity": "bench",
        "armrest": "yes",
        "backrest": "yes",
        "material": "concrete",
        "seats": "3"
      }
    },
    {
      "type": "node",
      "id": 13049392115,
      "lat": 12.9665323,
      "lon": 77.7156519,
      "tags": {
        "amenity": "bench",
        "armrest": "yes",
        "backrest": "yes",
        "material": "concrete",
        "seats": "3"
      }
    },
    {
      "type": "node",
      "id": 13049395284,
      "lat": 12.9651695,
      "lon": 77.7132267,
      "tags": {
        "amenity": "school",
        "check_date": "2025-08-05",
        "name": "Global/Art"
      }
    },
    {
      "type": "node",
      "id": 13049395285,
      "lat": 12.9652449,
      "lon": 77.7134399,
      "tags": {
        "amenity": "school",
        "check_date": "2025-08-05",
        "mobile": "+91 74112 74433",
        "name": "School Of Athens"
      }
    },
    {
      "type": "node",
      "id": 13049395286,
      "lat": 12.9651246,
      "lon": 77.7138239,
      "tags": {
        "amenity": "fast_food",
        "check_date": "2025-08-05",
        "drive_through": "no",
        "name": "Chain Biskut",
        "takeaway": "only"
      }
    },
    {
      "type": "node",
      "id": 13049404107,
      "lat": 12.9651296,
      "lon": 77.7140206,
      "tags": {
        "check_date": "2025-08-05",
        "name": "Fone Craft",
        "shop": "mobile_phone"
      }
    },
    {
      "type": "node",
      "id": 13049405747,
      "lat": 12.9669964,
      "lon": 77.7158509,
      "tags": {
        "addr:housenumber": "359",
        "addr:street": "5th Main Road",
        "amenity": "school",
        "check_date": "2025-08-05",
        "mobile": "+91 99013 65885",
        "name": "Meraki School Of Art",
        "operator:type": "private"
      }
    },
    {
      "type": "node",
      "id": 13049405749,
      "lat": 12.9650438,
      "lon": 77.7145181,
      "tags": {
        "check_date": "2025-08-05",
        "name": "Eden Garden",
        "shop": "hairdresser"
      }
    },
    {
      "type": "node",
      "id": 13049405751,
      "lat": 12.9648073,
      "lon": 77.7143417,
      "tags": {
        "check_date": "2025-08-05",
        "leisure": "fitness_centre",
        "name": "Prajapathi Brahmakumaris Ishwariya Vishwa Vidyalaya",
        "sport": "yoga"
      }
    },
    {
      "type": "node",
      "id": 13049405752,
      "lat": 12.9641397,
      "lon": 77.714189,
      "tags": {
        "amenity": "dancing_school",
        "check_date": "2025-08-05",
        "name": "Elements Dance Company"
      }
    },
    {
      "type": "node",
      "id": 13049405753,
      "lat": 12.9641368,
      "lon": 77.7143922,
      "tags": {
        "amenity": "fast_food",
        "check_date": "2025-08-05",
        "name": "Bhatti N Beyond"
      }
    },
    {
      "type": "node",
      "id": 13049405754,
      "lat": 12.964156,
      "lon": 77.7144742,
      "tags": {
        "amenity": "dancing_school",
        "check_date": "2025-08-05",
        "name": "Rudra Academy Of Performing Arts",
        "phone": "+91 98807 13048"
      }
    },
    {
      "type": "node",
      "id": 13049444668,
      "lat": 12.9641723,
      "lon": 77.7124942,
      "tags": {
        "amenity": "cafe",
        "brand": "Chai Point",
        "brand:wikidata": "Q28173415",
        "check_date": "2025-08-05",
        "cuisine": "coffee_shop",
        "name": "Chai Point",
        "takeaway": "yes"
      }
    },
    {
      "type": "node",
      "id": 13088970071,
      "lat": 12.9692205,
      "lon": 77.7169679,
      "tags": {
        "addr:city": "Bengaluru",
        "addr:district": "Whitefield",
        "addr:postcode": "560037",
        "addr:street": "ITPL Main Rd, EPIP Zone Brookefield",
        "amenity": "restaurant",
        "cuisine": "global",
        "diet:local": "yes",
        "diet:meat": "yes",
        "diet:vegan": "yes",
        "diet:vegetarian": "yes",
        "email": "blkru_dining@hilton.com",
        "internet_access": "yes",
        "internet_access:fee": "no",
        "name": "1882 Restaurant",
        "opening_hours": "06:30 - 23:00",
        "phone": "+91 63664 35034",
        "website": "https://www.hilton.com/en/hotels/blrkudi-doubletree-bengaluru-whitefield/dining/",
        "wheelchair": "yes"
      }
    },
    {
      "type": "node",
      "id": 13114959387,
      "lat": 12.964643,
      "lon": 77.7173111,
      "tags": {
        "addr:floor": "G",
        "air_conditioning": "yes",
        "amenity": "restaurant",
        "bar": "no",
        "check_date": "2025-09-02",
        "cuisine": "indian",
        "diet:halal": "yes",
        "diet:vegetarian": "yes",
        "level": "0",
        "name": "Aligarh House",
        "outdoor_seating": "no",
        "reservation": "no",
        "smoking": "no",
        "wheelchair": "no"
      }
    },
    {
      "type": "node",
      "id": 13119024306,
      "lat": 12.9716903,
      "lon": 77.7117419,
      "tags": {
        "addr:floor": "1",
        "amenity": "restaurant",
        "check_date": "2025-09-04",
        "cuisine": "regional",
        "level": "1",
        "name": "Andhra Biryanis",
        "wheelchair": "no"
      }
    },
    {
      "type": "node",
      "id": 13152141906,
      "lat": 12.9796467,
      "lon": 77.7107513,
      "tags": {
        "access": "private",
        "amenity": "parking_entrance",
        "parking": "underground"
      }
    },
    {
      "type": "node",
      "id": 13164448981,
      "lat": 12.9722898,
      "lon": 77.7136702,
      "tags": {
        "access": "private",
        "amenity": "parking_entrance",
        "parking": "underground"
      }
    },
    {
      "type": "node",
      "id": 13164464004,
      "lat": 12.9717017,
      "lon": 77.7142777,
      "tags": {
        "access": "private",
        "amenity": "parking_entrance",
        "parking": "underground"
      }
    },
    {
      "type": "node",
      "id": 13165790155,
      "lat": 12.971256,
      "lon": 77.7153077,
      "tags": {
        "access": "private",
        "amenity": "parking_entrance",
        "parking": "underground"
      }
    },
    {
      "type": "node",
      "id": 13165790162,
      "lat": 12.9700615,
      "lon": 77.7146264,
      "tags": {
        "access": "private",
        "amenity": "parking_entrance",
        "parking": "underground"
      }
    },
    {
      "type": "node",
      "id": 13165790166,
      "lat": 12.9712769,
      "lon": 77.7146224,
      "tags": {
        "access": "private",
        "amenity": "parking_entrance",
        "parking": "underground"
      }
    },
    {
      "type": "node",
      "id": 13165790203,
      "lat": 12.9708581,
      "lon": 77.7150522,
      "tags": {
        "access": "private",
        "amenity": "parking_entrance",
        "parking": "underground"
      }
    },
    {
      "type": "node",
      "id": 13165790206,
      "lat": 12.9701693,
      "lon": 77.7153761,
      "tags": {
        "access": "private",
        "amenity": "parking_entrance",
        "parking": "underground"
      }
    },
    {
      "type": "node",
      "id": 13165790502,
      "lat": 12.9696322,
      "lon": 77.7186155,
      "tags": {
        "access": "private",
        "amenity": "parking_entrance",
        "parking": "underground"
      }
    },
    {
      "type": "node",
      "id": 13310052105,
      "lat": 12.9784844,
      "lon": 77.7108237,
      "tags": {
        "access": "customers",
        "leisure": "pitch",
        "name": "Swysh",
        "sport": "pickleball"
      }
    },
    {
      "type": "node",
      "id": 13316084769,
      "lat": 12.9700537,
      "lon": 77.7069027,
      "tags": {
        "addr:floor": "G",
        "air_conditioning": "no",
        "amenity": "cafe",
        "check_date": "2025-11-20",
        "cuisine": "coffee_shop",
        "internet_access": "no",
        "level": "0",
        "name": "Coffee Nivas",
        "outdoor_seating": "no",
        "payment:cards": "no",
        "payment:cash": "yes",
        "payment:credit_cards": "no",
        "payment:debit_cards": "no",
        "wheelchair": "no"
      }
    },
    {
      "type": "node",
      "id": 13319110552,
      "lat": 12.9713657,
      "lon": 77.7061327,
      "tags": {
        "check_date": "2025-11-20",
        "name": "Bangalore Horticulture",
        "shop": "greengrocer"
      }
    },
    {
      "type": "node",
      "id": 13319110553,
      "lat": 12.9714555,
      "lon": 77.7065292,
      "tags": {
        "amenity": "pharmacy",
        "check_date": "2025-11-20",
        "healthcare": "pharmacy",
        "name": "P N Medicals"
      }
    },
    {
      "type": "node",
      "id": 13319110554,
      "lat": 12.9712977,
      "lon": 77.7062723,
      "tags": {
        "check_date": "2025-11-20",
        "name": "H2O",
        "shop": "hairdresser"
      }
    },
    {
      "type": "node",
      "id": 13319110555,
      "lat": 12.9713128,
      "lon": 77.7061831,
      "tags": {
        "access": "customers",
        "covered": "yes",
        "fee": "yes",
        "indoor": "yes",
        "leisure": "pitch",
        "level": "4",
        "lit": "yes",
        "name": "Sporthood Badminton Centre Doddanekundi",
        "sport": "badminton"
      }
    },
    {
      "type": "node",
      "id": 13319132767,
      "lat": 12.9714822,
      "lon": 77.7064388,
      "tags": {
        "check_date": "2025-11-20",
        "name": "Grace",
        "shop": "bakery"
      }
    },
    {
      "type": "node",
      "id": 13319132768,
      "lat": 12.9713995,
      "lon": 77.7068864,
      "tags": {
        "amenity": "cafe",
        "check_date": "2025-11-20",
        "cuisine": "bubble_tea",
        "name": "Hyderabad Special Irani Chai"
      }
    },
    {
      "type": "node",
      "id": 13319132769,
      "lat": 12.9714229,
      "lon": 77.7069059,
      "tags": {
        "addr:floor": "G",
        "amenity": "fast_food",
        "check_date": "2025-11-20",
        "level": "0",
        "name": "Ahaa Cafe"
      }
    },
    {
      "type": "node",
      "id": 13319132770,
      "lat": 12.9714822,
      "lon": 77.7064388,
      "tags": {
        "check_date": "2025-11-20",
        "name": "Grace",
        "shop": "bakery"
      }
    },
    {
      "type": "node",
      "id": 13319132771,
      "lat": 12.9713995,
      "lon": 77.7068864,
      "tags": {
        "amenity": "cafe",
        "check_date": "2025-11-20",
        "cuisine": "bubble_tea",
        "name": "Hyderabad Special Irani Chai"
      }
    },
    {
      "type": "node",
      "id": 13319132772,
      "lat": 12.9714229,
      "lon": 77.7069059,
      "tags": {
        "addr:floor": "G",
        "amenity": "fast_food",
        "check_date": "2025-11-20",
        "level": "0",
        "name": "Ahaa Cafe"
      }
    },
    {
      "type": "way",
      "id": 41748510,
      "center": {
        "lat": 12.9661345,
        "lon": 77.7178871
      },
      "tags": {
        "addr:city": "Bengaluru",
        "addr:postcode": "560037",
        "addr:street": "Kundalahalli Main Road",
        "building": "construction",
        "construction": "office",
        "email": "info.cosmos@pantaloon.com",
        "name": "Brookfield Mall",
        "shop": "mall",
        "website": "https://www.brookefieldmall.com/",
        "wheelchair": "yes"
      }
    },
    {
      "type": "way",
      "id": 45268415,
      "center": {
        "lat": 12.9789949,
        "lon": 77.7190255
      },
      "tags": {
        "addr:plot": "121",
        "amenity": "exhibition_hall",
        "barrier": "wall",
        "check_date": "2025-11-23",
        "email": "md@ktpo.org",
        "name": "Karnataka Trade Promotion Organisation - KTPO"
      }
    },
    {
      "type": "way",
      "id": 122146922,
      "center": {
        "lat": 12.9660946,
        "lon": 77.718615
      },
      "tags": {
        "name": "Bosch Car Service",
        "name:kn": "ಬೋಷ್",
        "service": "repair",
        "shop": "car"
      }
    },
    {
      "type": "way",
      "id": 122668450,
      "center": {
        "lat": 12.9775672,
        "lon": 77.7131084
      },
      "tags": {
        "addr:city": "Bangalore",
        "addr:country": "IN",
        "addr:housenumber": "136,137",
        "addr:postcode": "560066",
        "addr:street": "EPIP Area, Road No. 1, Opp SAP Labs",
        "amenity": "restaurant",
        "building": "yes",
        "phone": "+91 80 6622 6969",
        "tourism": "hotel"
      }
    },
    {
      "type": "way",
      "id": 122668481,
      "center": {
        "lat": 12.9794494,
        "lon": 77.7199175
      },
      "tags": {
        "amenity": "events_venue",
        "building": "commercial",
        "building:levels": "2",
        "name": "KTPO Exhibhition and Convention Center"
      }
    },
    {
      "type": "way",
      "id": 122686452,
      "center": {
        "lat": 12.9666182,
        "lon": 77.7159876
      },
      "tags": {
        "barrier": "fence",
        "leisure": "park",
        "name": "AECS Layout Park",
        "opening_hours": "Mo-Su 06:00-22:00"
      }
    },
    {
      "type": "way",
      "id": 122691466,
      "center": {
        "lat": 12.9665657,
        "lon": 77.7123549
      },
      "tags": {
        "addr:full": "132 AECS Layout ITPL Main Road, Kundalahalli Bangalore 560037",
        "amenity": "college",
        "barrier": "wall",
        "email": "info@cmrit.ac.in",
        "name": "CMR Institute of Technology",
        "phone": "+91 80 28524466",
        "website": "https://www.cmrit.ac.in/",
        "wikidata": "Q5012995",
        "wikipedia": "en:CMR Institute of Technology"
      }
    },
    {
      "type": "way",
      "id": 123613264,
      "center": {
        "lat": 12.9788071,
        "lon": 77.7099307
      },
      "tags": {
        "addr:full": "5A, Graphite India Road, Mahadevapura, Bangalore - 560048",
        "brand": "Hyundai",
        "brand:wikidata": "Q55931",
        "email": "amplws_13@rediffmail.com",
        "name": "Advaith Hyundai Service",
        "name:kn": "ಅದ್ವೈತ ಹ್ಯುಂಡೈ",
        "operator": "Advaith",
        "phone": "+91-80-22976182",
        "shop": "car"
      }
    },
    {
      "type": "way",
      "id": 180969766,
      "center": {
        "lat": 12.9727176,
        "lon": 77.7238839
      },
      "tags": {
        "access": "private",
        "amenity": "parking",
        "parking": "surface"
      }
    },
    {
      "type": "way",
      "id": 181282751,
      "center": {
        "lat": 12.9745011,
        "lon": 77.7222073
      },
      "tags": {
        "amenity": "parking"
      }
    },
    {
      "type": "way",
      "id": 181464980,
      "center": {
        "lat": 12.9791704,
        "lon": 77.7204728
      },
      "tags": {
        "leisure": "garden"
      }
    },
    {
      "type": "way",
      "id": 181695452,
      "center": {
        "lat": 12.9793732,
        "lon": 77.7148716
      },
      "tags": {
        "amenity": "cafe",
        "building": "yes",
        "name": "Open Canopy"
      }
    },
    {
      "type": "way",
      "id": 181695454,
      "center": {
        "lat": 12.9721529,
        "lon": 77.7171183
      },
      "tags": {
        "amenity": "shelter",
        "building": "yes"
      }
    },
    {
      "type": "way",
      "id": 181695464,
      "center": {
        "lat": 12.9718685,
        "lon": 77.7168139
      },
      "tags": {
        "amenity": "shelter",
        "building": "yes"
      }
    },
    {
      "type": "way",
      "id": 181695465,
      "center": {
        "lat": 12.9792452,
        "lon": 77.7149548
      },
      "tags": {
        "amenity": "cafe",
        "building": "yes",
        "name": "Open Canopy"
      }
    },
    {
      "type": "way",
      "id": 181695473,
      "center": {
        "lat": 12.9721931,
        "lon": 77.7170043
      },
      "tags": {
        "amenity": "shelter",
        "building": "yes"
      }
    },
    {
      "type": "way",
      "id": 181695477,
      "center": {
        "lat": 12.9719814,
        "lon": 77.7168551
      },
      "tags": {
        "amenity": "shelter",
        "building": "yes"
      }
    },
    {
      "type": "way",
      "id": 181695481,
      "center": {
        "lat": 12.9718296,
        "lon": 77.7169308
      },
      "tags": {
        "amenity": "shelter",
        "building": "yes"
      }
    },
    {
      "type": "way",
      "id": 181695485,
      "center": {
        "lat": 12.9722213,
        "lon": 77.7169005
      },
      "tags": {
        "amenity": "shelter",
        "building": "yes"
      }
    },
    {
      "type": "way",
      "id": 181695493,
      "center": {
        "lat": 12.979266,
        "lon": 77.7148475
      },
      "tags": {
        "amenity": "cafe",
        "building": "yes",
        "name": "Open Canopy"
      }
    },
    {
      "type": "way",
      "id": 181695498,
      "center": {
        "lat": 12.9719352,
        "lon": 77.7170671
      },
      "tags": {
        "amenity": "shelter",
        "building": "yes"
      }
    },
    {
      "type": "way",
      "id": 181695499,
      "center": {
        "lat": 12.9804032,
        "lon": 77.7167348
      },
      "tags": {
        "access": "private",
        "amenity": "parking",
        "parking": "street_side"
      }
    },
    {
      "type": "way",
      "id": 181695506,
      "center": {
        "lat": 12.9720368,
        "lon": 77.7171264
      },
      "tags": {
        "amenity": "shelter",
        "building": "yes"
      }
    },
    {
      "type": "way",
      "id": 181695507,
      "center": {
        "lat": 12.9718246,
        "lon": 77.7170749
      },
      "tags": {
        "amenity": "shelter",
        "building": "yes"
      }
    },
    {
      "type": "way",
      "id": 183042756,
      "center": {
        "lat": 12.9773097,
        "lon": 77.715083
      },
      "tags": {
        "access": "private",
        "leisure": "swimming_pool"
      }
    },
    {
      "type": "way",
      "id": 188895448,
      "center": {
        "lat": 12.9682224,
        "lon": 77.7172199
      },
      "tags": {
        "brand": "Maruti Suzuki",
        "brand:wikidata": "Q963718",
        "building": "yes",
        "email": "customersupport@kalyanimotors.com",
        "name": "Kalyani Motors",
        "phone": "+91 9590990011",
        "second_hand": "no",
        "service:vehicle:body_repair": "yes",
        "service:vehicle:car_repair": "yes",
        "service:vehicle:diagnostics": "yes",
        "service:vehicle:oil_change": "yes",
        "shop": "car",
        "website": "https://www.kalyanimotors.com/"
      }
    },
    {
      "type": "way",
      "id": 323234499,
      "center": {
        "lat": 12.9750501,
        "lon": 77.7133947
      },
      "tags": {
        "email": "hello@powerplayindia.com",
        "leisure": "sports_centre",
        "name": "PowerPlay One",
        "phone": "+91 9980451000",
        "sport": "cricket;table_tennis",
        "website": "https://www.powerplayindia.com"
      }
    },
    {
      "type": "way",
      "id": 347244127,
      "center": {
        "lat": 12.9685921,
        "lon": 77.7160446
      },
      "tags": {
        "access": "private",
        "leisure": "swimming_pool",
        "location": "outdoor",
        "swimming_pool": "wading"
      }
    },
    {
      "type": "way",
      "id": 351330032,
      "center": {
        "lat": 12.964703,
        "lon": 77.715104
      },
      "tags": {
        "address": "AECS Layout Main Rd, B Block, AECS Layout, Marathahalli, Bengaluru, Karnataka 560037",
        "amenity": "restaurant",
        "building": "yes",
        "building:levels": "4",
        "delivery": "yes",
        "drive_through": "no",
        "name": "Mughal Paradise Restaurant",
        "opening_hours": "Mo-Su 08:00-23:00",
        "phone": "08040930283"
      }
    },
    {
      "type": "way",
      "id": 354248620,
      "center": {
        "lat": 12.9647631,
        "lon": 77.7153696
      },
      "tags": {
        "addr:city": "Bengaluru",
        "addr:postcode": "560037",
        "addr:street": "60 Feet Road",
        "address": "No. 544, AECS Layout, opposite Brooke Fields, Kundalahalli, Bengaluru, Karnataka 560037",
        "building": "yes",
        "building:levels": "4",
        "check_date": "2024-07-13",
        "name": "MK Retail",
        "opening_hours": "Mo-Su 09:00-21:00",
        "organic": "yes",
        "payment:credit_cards": "yes",
        "payment:debit_cards": "yes",
        "phone": "08041254660",
        "shop": "supermarket",
        "website": "https://www.mkretail.com/"
      }
    },
    {
      "type": "way",
      "id": 398996840,
      "center": {
        "lat": 12.9813439,
        "lon": 77.7138944
      },
      "tags": {
        "leisure": "pitch",
        "sport": "futsal"
      }
    },
    {
      "type": "way",
      "id": 398996849,
      "center": {
        "lat": 12.9813933,
        "lon": 77.7142831
      },
      "tags": {
        "email": "hello@powerplayindia.com",
        "leisure": "sports_centre",
        "name": "PowerPlay Two",
        "phone": "+91 9980451000",
        "sport": "futsal;badminton;cricket",
        "website": "https://www.powerplayindia.com"
      }
    },
    {
      "type": "way",
      "id": 398996850,
      "center": {
        "lat": 12.9811636,
        "lon": 77.7138657
      },
      "tags": {
        "leisure": "pitch",
        "sport": "futsal"
      }
    },
    {
      "type": "way",
      "id": 414834999,
      "center": {
        "lat": 12.9663964,
        "lon": 77.7117076
      },
      "tags": {
        "Ground": "Cricket Ground",
        "leisure": "pitch",
        "name": "play ground"
      }
    },
    {
      "type": "way",
      "id": 414837820,
      "center": {
        "lat": 12.9741304,
        "lon": 77.7152631
      },
      "tags": {
        "leisure": "park"
      }
    },
    {
      "type": "way",
      "id": 414840786,
      "center": {
        "lat": 12.9665571,
        "lon": 77.718417
      },
      "tags": {
        "leisure": "common"
      }
    },
    {
      "type": "way",
      "id": 414840787,
      "center": {
        "lat": 12.9671662,
        "lon": 77.7175405
      },
      "tags": {
        "brand": "Maruti Suzuki",
        "brand:wikidata": "Q963718",
        "building": "yes",
        "name": "Maruti True Value",
        "phone": "+91 9590990011",
        "second_hand": "only",
        "shop": "car",
        "wheelchair": "limited"
      }
    },
    {
      "type": "way",
      "id": 414840788,
      "center": {
        "lat": 12.9684947,
        "lon": 77.7177013
      },
      "tags": {
        "leisure": "common",
        "natural": "scrub"
      }
    },
    {
      "type": "way",
      "id": 414844501,
      "center": {
        "lat": 12.9734595,
        "lon": 77.7222459
      },
      "tags": {
        "leisure": "garden"
      }
    },
    {
      "type": "way",
      "id": 469415969,
      "center": {
        "lat": 12.9724511,
        "lon": 77.7165444
      },
      "tags": {
        "leisure": "park",
        "name": "Igate Park",
        "natural": "wood"
      }
    },
    {
      "type": "way",
      "id": 494680607,
      "center": {
        "lat": 12.977753,
        "lon": 77.7111914
      },
      "tags": {
        "check_date": "2025-11-23",
        "landuse": "retail",
        "name": "Nandi Toyota",
        "name:kn": "ನಂದಿ ಟೊಯೋಟ",
        "shop": "car"
      }
    },
    {
      "type": "way",
      "id": 503382150,
      "center": {
        "lat": 12.9647957,
        "lon": 77.7155072
      },
      "tags": {
        "amenity": "cafe",
        "building": "yes",
        "building:levels": "1",
        "check_date": "2024-07-13",
        "name": "Breads & Banter",
        "wheelchair": "yes"
      }
    },
    {
      "type": "way",
      "id": 540651838,
      "center": {
        "lat": 12.9707819,
        "lon": 77.7126186
      },
      "tags": {
        "addr:city": "Bengaluru",
        "addr:housenumber": "1",
        "addr:postcode": "560037",
        "addr:street": "Kundalahalli Main Road",
        "air_conditioning": "no",
        "amenity": "fast_food",
        "bar": "no",
        "brand": "The Rameshwaram Cafe",
        "brand:wikidata": "Q124374630",
        "building": "yes",
        "check_date": "2025-10-30",
        "cuisine": "south_indian",
        "diet:vegetarian": "only",
        "indoor_seating": "yes",
        "internet_access": "no",
        "level": "0",
        "microbrewery": "no",
        "name": "The Rameshwaram Cafe",
        "outdoor_seating": "no",
        "payment:credit_cards": "yes",
        "payment:debit_cards": "yes",
        "reservation": "no",
        "smoking": "no",
        "source": "local knowledge",
        "takeaway": "yes",
        "toilets": "yes",
        "toilets:wheelchair": "no",
        "website": "https://therameshwaramcafe.org/",
        "wheelchair": "no"
      }
    },
    {
      "type": "way",
      "id": 577482796,
      "center": {
        "lat": 12.9706225,
        "lon": 77.715035
      },
      "tags": {
        "access": "yes",
        "leisure": "swimming_pool"
      }
    },
    {
      "type": "way",
      "id": 577482799,
      "center": {
        "lat": 12.9705778,
        "lon": 77.7149256
      },
      "tags": {
        "leisure": "pitch",
        "sport": "volleyball"
      }
    },
    {
      "type": "way",
      "id": 577482801,
      "center": {
        "lat": 12.9706728,
        "lon": 77.7147289
      },
      "tags": {
        "leisure": "park"
      }
    },
    {
      "type": "way",
      "id": 577482805,
      "center": {
        "lat": 12.9708745,
        "lon": 77.7154778
      },
      "tags": {
        "leisure": "park"
      }
    },
    {
      "type": "way",
      "id": 577482807,
      "center": {
        "lat": 12.9705436,
        "lon": 77.71549
      },
      "tags": {
        "leisure": "park"
      }
    },
    {
      "type": "way",
      "id": 577482811,
      "center": {
        "lat": 12.9700315,
        "lon": 77.7149457
      },
      "tags": {
        "amenity": "parking"
      }
    },
    {
      "type": "way",
      "id": 577482814,
      "center": {
        "lat": 12.9699332,
        "lon": 77.714721
      },
      "tags": {
        "amenity": "parking"
      }
    },
    {
      "type": "way",
      "id": 577482816,
      "center": {
        "lat": 12.969904,
        "lon": 77.7151607
      },
      "tags": {
        "amenity": "recycling",
        "recycling_type": "centre"
      }
    },
    {
      "type": "way",
      "id": 578149231,
      "center": {
        "lat": 12.9692751,
        "lon": 77.7233856
      },
      "tags": {
        "access": "private",
        "amenity": "parking",
        "name": "DTP Shuttle Parking"
      }
    },
    {
      "type": "way",
      "id": 578459285,
      "center": {
        "lat": 12.9720338,
        "lon": 77.7116273
      },
      "tags": {
        "addr:city": "Bengaluru",
        "addr:postcode": "560037",
        "addr:street": "ITPL Main Road,Kundalahalli Colony, Brookefield",
        "amenity": "place_of_worship",
        "building": "yes",
        "description": "ಹನುಮಾನ್ ಮಂದಿರ",
        "name": "Shree Prasanna Anjaneyaswamy Temple",
        "religion": "hindu"
      }
    },
    {
      "type": "way",
      "id": 582562270,
      "center": {
        "lat": 12.9662303,
        "lon": 77.7071598
      },
      "tags": {
        "leisure": "park"
      }
    },
    {
      "type": "way",
      "id": 582562275,
      "center": {
        "lat": 12.9755365,
        "lon": 77.7065665
      },
      "tags": {
        "access": "private",
        "leisure": "park"
      }
    },
    {
      "type": "way",
      "id": 640540672,
      "center": {
        "lat": 12.9668743,
        "lon": 77.7118049
      },
      "tags": {
        "leisure": "pitch",
        "name": "Volleyball Court",
        "name:kn": "ವಾಲಿಬಾಲ್",
        "sport": "volleyball"
      }
    },
    {
      "type": "way",
      "id": 640540674,
      "center": {
        "lat": 12.9669088,
        "lon": 77.7114335
      },
      "tags": {
        "leisure": "pitch",
        "name": "Basketball court 1",
        "sport": "basketball"
      }
    },
    {
      "type": "way",
      "id": 640540675,
      "center": {
        "lat": 12.9669336,
        "lon": 77.7115048
      },
      "tags": {
        "leisure": "pitch",
        "name": "Basketball court 2",
        "sport": "basketball"
      }
    },
    {
      "type": "way",
      "id": 640540676,
      "center": {
        "lat": 12.9669492,
        "lon": 77.7115907
      },
      "tags": {
        "leisure": "outdoor_seating",
        "name": "basketball sitting area"
      }
    },
    {
      "type": "way",
      "id": 640540677,
      "center": {
        "lat": 12.9668751,
        "lon": 77.7113409
      },
      "tags": {
        "leisure": "outdoor_seating",
        "name": "outdoor seating"
      }
    },
    {
      "type": "way",
      "id": 647669134,
      "center": {
        "lat": 12.9718834,
        "lon": 77.7117298
      },
      "tags": {
        "amenity": "parking",
        "fee": "no",
        "informal": "yes"
      }
    },
    {
      "type": "way",
      "id": 647669144,
      "center": {
        "lat": 12.968185,
        "lon": 77.7144214
      },
      "tags": {
        "leisure": "garden"
      }
    },
    {
      "type": "way",
      "id": 647669145,
      "center": {
        "lat": 12.9682192,
        "lon": 77.7141592
      },
      "tags": {
        "leisure": "garden"
      }
    },
    {
      "type": "way",
      "id": 647669146,
      "center": {
        "lat": 12.9681625,
        "lon": 77.7146673
      },
      "tags": {
        "leisure": "garden"
      }
    },
    {
      "type": "way",
      "id": 647669149,
      "center": {
        "lat": 12.9690623,
        "lon": 77.7144479
      },
      "tags": {
        "leisure": "garden"
      }
    },
    {
      "type": "way",
      "id": 648492117,
      "center": {
        "lat": 12.9674342,
        "lon": 77.7143302
      },
      "tags": {
        "amenity": "parking"
      }
    },
    {
      "type": "way",
      "id": 648492119,
      "center": {
        "lat": 12.9674696,
        "lon": 77.7144766
      },
      "tags": {
        "building": "yes",
        "shop": "florist"
      }
    },
    {
      "type": "way",
      "id": 802961138,
      "center": {
        "lat": 12.9670994,
        "lon": 77.7124498
      },
      "tags": {
        "amenity": "motorcycle_parking",
        "name": "Student Parking"
      }
    },
    {
      "type": "way",
      "id": 802961953,
      "center": {
        "lat": 12.9666662,
        "lon": 77.7121997
      },
      "tags": {
        "amenity": "parking",
        "name": "Faculty Parking"
      }
    },
    {
      "type": "way",
      "id": 802976296,
      "center": {
        "lat": 12.9671377,
        "lon": 77.7129313
      },
      "tags": {
        "amenity": "parking",
        "name": "Car Parking"
      }
    },
    {
      "type": "way",
      "id": 802983280,
      "center": {
        "lat": 12.9672223,
        "lon": 77.7124474
      },
      "tags": {
        "amenity": "parking",
        "name": "Car Parking"
      }
    },
    {
      "type": "way",
      "id": 805098053,
      "center": {
        "lat": 12.966834,
        "lon": 77.7112364
      },
      "tags": {
        "leisure": "outdoor_seating",
        "name": "outdoor seating"
      }
    },
    {
      "type": "way",
      "id": 805155174,
      "center": {
        "lat": 12.9670263,
        "lon": 77.711743
      },
      "tags": {
        "leisure": "outdoor_seating",
        "name": "outdoor seating"
      }
    },
    {
      "type": "way",
      "id": 805155362,
      "center": {
        "lat": 12.9669942,
        "lon": 77.7109522
      },
      "tags": {
        "amenity": "waste_disposal"
      }
    },
    {
      "type": "way",
      "id": 992731942,
      "center": {
        "lat": 12.9737038,
        "lon": 77.7099428
      },
      "tags": {
        "access": "permissive",
        "amenity": "parking",
        "building": "parking",
        "building:levels": "6",
        "name": "MLCP",
        "operator": "Prestige Technostar",
        "parking": "multi-storey"
      }
    },
    {
      "type": "way",
      "id": 1065289736,
      "center": {
        "lat": 12.9718522,
        "lon": 77.7086894
      },
      "tags": {
        "leisure": "park"
      }
    },
    {
      "type": "way",
      "id": 1065289739,
      "center": {
        "lat": 12.9733363,
        "lon": 77.7107065
      },
      "tags": {
        "leisure": "park"
      }
    },
    {
      "type": "way",
      "id": 1073368066,
      "center": {
        "lat": 12.9666822,
        "lon": 77.7175592
      },
      "tags": {
        "addr:street": "ITPL Main Road",
        "amenity": "fuel",
        "brand": "Hindustan Petroleum",
        "brand:wikidata": "Q1619375",
        "check_date": "2025-10-30",
        "compressed_air": "yes",
        "fuel:diesel": "yes",
        "fuel:octane_91": "yes",
        "name": "Mats Fuel Park",
        "official_name": "Hindustan Petroleum",
        "operator": "HP"
      }
    },
    {
      "type": "way",
      "id": 1073952495,
      "center": {
        "lat": 12.9714565,
        "lon": 77.7160258
      },
      "tags": {
        "leisure": "common",
        "natural": "scrub"
      }
    },
    {
      "type": "way",
      "id": 1079074878,
      "center": {
        "lat": 12.9733623,
        "lon": 77.7239118
      },
      "tags": {
        "leisure": "sports_centre"
      }
    },
    {
      "type": "way",
      "id": 1079074879,
      "center": {
        "lat": 12.9729687,
        "lon": 77.7233681
      },
      "tags": {
        "leisure": "pitch",
        "sport": "basketball"
      }
    },
    {
      "type": "way",
      "id": 1082139631,
      "center": {
        "lat": 12.9667949,
        "lon": 77.7172659
      },
      "tags": {
        "amenity": "hospital",
        "building": "yes",
        "healthcare": "hospital",
        "name": "Apollo Cradle",
        "wheelchair": "yes"
      }
    },
    {
      "type": "way",
      "id": 1083400633,
      "center": {
        "lat": 12.9722396,
        "lon": 77.7142034
      },
      "tags": {
        "leisure": "swimming_pool"
      }
    },
    {
      "type": "way",
      "id": 1083507311,
      "center": {
        "lat": 12.9672401,
        "lon": 77.7138461
      },
      "tags": {
        "leisure": "swimming_pool"
      }
    },
    {
      "type": "way",
      "id": 1084192094,
      "center": {
        "lat": 12.9730525,
        "lon": 77.7079393
      },
      "tags": {
        "addr:city": "Bengaluru",
        "addr:postcode": "560048",
        "addr:street": "Doddanakundi Industrial Area 2, Phase 1, Doddanekkundi",
        "amenity": "place_of_worship",
        "building": "yes",
        "name": "Shri Yedugaramma Devi Temple",
        "religion": "hindu"
      }
    },
    {
      "type": "way",
      "id": 1085398675,
      "center": {
        "lat": 12.9706045,
        "lon": 77.712272
      },
      "tags": {
        "access": "yes",
        "amenity": "toilets",
        "building": "yes",
        "check_date": "2024-12-23",
        "fee": "yes",
        "layer": "1",
        "wheelchair": "no"
      }
    },
    {
      "type": "way",
      "id": 1085398676,
      "center": {
        "lat": 12.9700684,
        "lon": 77.7115692
      },
      "tags": {
        "amenity": "place_of_worship",
        "building": "yes",
        "name": "Mariamma Temple",
        "name:kn": "ಮಾರಿಯಮ್ಮ ದೇವಸ್ಥಾನ",
        "religion": "hindu"
      }
    },
    {
      "type": "way",
      "id": 1089516705,
      "center": {
        "lat": 12.9712421,
        "lon": 77.7075502
      },
      "tags": {
        "leisure": "garden"
      }
    },
    {
      "type": "way",
      "id": 1089516706,
      "center": {
        "lat": 12.9705398,
        "lon": 77.7073683
      },
      "tags": {
        "leisure": "garden"
      }
    },
    {
      "type": "way",
      "id": 1097534263,
      "center": {
        "lat": 12.9708483,
        "lon": 77.7075051
      },
      "tags": {
        "leisure": "garden"
      }
    },
    {
      "type": "way",
      "id": 1102153947,
      "center": {
        "lat": 12.9645664,
        "lon": 77.7144081
      },
      "tags": {
        "amenity": "restaurant",
        "building": "retail",
        "building:levels": "1",
        "check_date": "2025-08-05",
        "name": "Asha Tiffins",
        "opening_hours": "00:00-00:30,07:00-15:30,16:00-24:00",
        "roof:levels": "0"
      }
    },
    {
      "type": "way",
      "id": 1104753180,
      "center": {
        "lat": 12.9783415,
        "lon": 77.7112436
      },
      "tags": {
        "addr:full": "2nd Road, EPIP Industrial Area, Whitefield, Bangalore",
        "amenity": "fuel",
        "brand": "Indian Oil",
        "brand:wikidata": "Q1289348",
        "check_date": "2025-11-07",
        "compressed_air": "yes",
        "name": "Indian Oil",
        "name:kn": "ಇಂಡಿಯನ್ ಆಯಿಲ್",
        "operator": "Indian Oil"
      }
    },
    {
      "type": "way",
      "id": 1135846623,
      "center": {
        "lat": 12.9668672,
        "lon": 77.7152452
      },
      "tags": {
        "leisure": "swimming_pool"
      }
    },
    {
      "type": "way",
      "id": 1135846652,
      "center": {
        "lat": 12.9718185,
        "lon": 77.7141719
      },
      "tags": {
        "leisure": "swimming_pool"
      }
    },
    {
      "type": "way",
      "id": 1135846653,
      "center": {
        "lat": 12.9719699,
        "lon": 77.7151731
      },
      "tags": {
        "leisure": "swimming_pool"
      }
    },
    {
      "type": "way",
      "id": 1150511285,
      "center": {
        "lat": 12.9725414,
        "lon": 77.7078105
      },
      "tags": {
        "access": "customers",
        "amenity": "charging_station",
        "brand": "Shell",
        "capacity": "4",
        "fee": "no",
        "operator": "Shell",
        "operator:wikidata": "Q110716465"
      }
    },
    {
      "type": "way",
      "id": 1150511286,
      "center": {
        "lat": 12.9732724,
        "lon": 77.7088218
      },
      "tags": {
        "name": "Advaith Hyundai",
        "name:kn": "ಅದ್ವೈತ ಹ್ಯುಂಡೈ",
        "shop": "car"
      }
    },
    {
      "type": "way",
      "id": 1150511287,
      "center": {
        "lat": 12.9643439,
        "lon": 77.7131371
      },
      "tags": {
        "amenity": "school",
        "check_date": "2024-07-13",
        "name": "TALC - The Alternative Learning Community",
        "website": "https://www.talcworld.com/"
      }
    },
    {
      "type": "way",
      "id": 1151912873,
      "center": {
        "lat": 12.9805799,
        "lon": 77.7169775
      },
      "tags": {
        "access": "private",
        "amenity": "parking",
        "building": "parking",
        "building:levels": "12",
        "parking": "multi-storey"
      }
    },
    {
      "type": "way",
      "id": 1152486232,
      "center": {
        "lat": 12.9782611,
        "lon": 77.7159242
      },
      "tags": {
        "leisure": "pitch",
        "sport": "tennis"
      }
    },
    {
      "type": "way",
      "id": 1157149221,
      "center": {
        "lat": 12.9646073,
        "lon": 77.7145977
      },
      "tags": {
        "access": "customers",
        "amenity": "parking",
        "operator": "Asha Tiffins Parking",
        "operator:type": "business",
        "parking": "surface",
        "surface": "asphalt"
      }
    },
    {
      "type": "way",
      "id": 1181138335,
      "center": {
        "lat": 12.9712874,
        "lon": 77.7142406
      },
      "tags": {
        "access": "private",
        "leisure": "swimming_pool",
        "location": "outdoor",
        "swimming_pool": "outdoor"
      }
    },
    {
      "type": "way",
      "id": 1190294308,
      "center": {
        "lat": 12.981718,
        "lon": 77.7156705
      },
      "tags": {
        "access": "private",
        "leisure": "pitch",
        "sport": "soccer"
      }
    },
    {
      "type": "way",
      "id": 1197055951,
      "center": {
        "lat": 12.9676037,
        "lon": 77.7188639
      },
      "tags": {
        "amenity": "place_of_worship",
        "building": "yes",
        "religion": "hindu"
      }
    },
    {
      "type": "way",
      "id": 1203990539,
      "center": {
        "lat": 12.9709011,
        "lon": 77.7074965
      },
      "tags": {
        "leisure": "garden"
      }
    },
    {
      "type": "way",
      "id": 1214864410,
      "center": {
        "lat": 12.9650502,
        "lon": 77.7136465
      },
      "tags": {
        "amenity": "toilets",
        "building": "yes",
        "check_date": "2023-12-19",
        "fee": "yes"
      }
    },
    {
      "type": "way",
      "id": 1214864411,
      "center": {
        "lat": 12.9645339,
        "lon": 77.7120294
      },
      "tags": {
        "amenity": "training",
        "building": "yes",
        "training": "art"
      }
    },
    {
      "type": "way",
      "id": 1216840020,
      "center": {
        "lat": 12.9777962,
        "lon": 77.7072893
      },
      "tags": {
        "leisure": "sports_centre",
        "name": "The Yard Arena"
      }
    },
    {
      "type": "way",
      "id": 1216840023,
      "center": {
        "lat": 12.9736304,
        "lon": 77.7093964
      },
      "tags": {
        "access": "private",
        "leisure": "pitch",
        "sport": "futsal"
      }
    },
    {
      "type": "way",
      "id": 1216840039,
      "center": {
        "lat": 12.9778391,
        "lon": 77.7071932
      },
      "tags": {
        "leisure": "pitch",
        "sport": "futsal"
      }
    },
    {
      "type": "way",
      "id": 1216840045,
      "center": {
        "lat": 12.9741674,
        "lon": 77.7084603
      },
      "tags": {
        "amenity": "parking",
        "parking": "surface"
      }
    },
    {
      "type": "way",
      "id": 1216840046,
      "center": {
        "lat": 12.9735199,
        "lon": 77.7094525
      },
      "tags": {
        "access": "private",
        "leisure": "pitch",
        "sport": "tennis"
      }
    },
    {
      "type": "way",
      "id": 1219313044,
      "center": {
        "lat": 12.9704581,
        "lon": 77.7210531
      },
      "tags": {
        "amenity": "shelter",
        "bench": "yes",
        "building": "roof",
        "shelter_type": "gazebo",
        "wheelchair": "no"
      }
    },
    {
      "type": "way",
      "id": 1219313047,
      "center": {
        "lat": 12.9704134,
        "lon": 77.7210712
      },
      "tags": {
        "leisure": "garden"
      }
    },
    {
      "type": "way",
      "id": 1219313059,
      "center": {
        "lat": 12.9662698,
        "lon": 77.7202949
      },
      "tags": {
        "amenity": "parking",
        "parking": "surface"
      }
    },
    {
      "type": "way",
      "id": 1222938389,
      "center": {
        "lat": 12.9792619,
        "lon": 77.7160208
      },
      "tags": {
        "access": "private",
        "leisure": "pitch",
        "sport": "basketball"
      }
    },
    {
      "type": "way",
      "id": 1225162207,
      "center": {
        "lat": 12.9806621,
        "lon": 77.7106158
      },
      "tags": {
        "access": "private",
        "amenity": "parking",
        "parking": "street_side"
      }
    },
    {
      "type": "way",
      "id": 1233514056,
      "center": {
        "lat": 12.9811241,
        "lon": 77.7142288
      },
      "tags": {
        "access": "customers",
        "amenity": "parking",
        "parking": "surface"
      }
    },
    {
      "type": "way",
      "id": 1233514058,
      "center": {
        "lat": 12.9805932,
        "lon": 77.713661
      },
      "tags": {
        "leisure": "pitch",
        "sport": "cricket_nets"
      }
    },
    {
      "type": "way",
      "id": 1233518880,
      "center": {
        "lat": 12.980172,
        "lon": 77.7133958
      },
      "tags": {
        "amenity": "kindergarten",
        "max_age": "6",
        "min_age": "2",
        "name": "Kinfolk",
        "phone": "+91 72042 34333",
        "website": "https://kinfolkedu.com/"
      }
    },
    {
      "type": "way",
      "id": 1233518883,
      "center": {
        "lat": 12.9783664,
        "lon": 77.7119258
      },
      "tags": {
        "access": "private",
        "amenity": "parking",
        "name": "RMZ NXT Visitor's Parking"
      }
    },
    {
      "type": "way",
      "id": 1233518894,
      "center": {
        "lat": 12.9800139,
        "lon": 77.7140093
      },
      "tags": {
        "access": "private",
        "amenity": "parking",
        "parking": "surface"
      }
    },
    {
      "type": "way",
      "id": 1233523922,
      "center": {
        "lat": 12.9809709,
        "lon": 77.7151477
      },
      "tags": {
        "access": "private",
        "amenity": "parking",
        "parking": "street_side"
      }
    },
    {
      "type": "way",
      "id": 1233523928,
      "center": {
        "lat": 12.9806883,
        "lon": 77.7165816
      },
      "tags": {
        "access": "private",
        "amenity": "parking",
        "parking": "street_side"
      }
    },
    {
      "type": "way",
      "id": 1233523929,
      "center": {
        "lat": 12.9809379,
        "lon": 77.7166657
      },
      "tags": {
        "access": "private",
        "amenity": "parking",
        "parking": "street_side"
      }
    },
    {
      "type": "way",
      "id": 1233523930,
      "center": {
        "lat": 12.9813127,
        "lon": 77.7160855
      },
      "tags": {
        "access": "private",
        "amenity": "parking"
      }
    },
    {
      "type": "way",
      "id": 1237037089,
      "center": {
        "lat": 12.9696805,
        "lon": 77.7088349
      },
      "tags": {
        "access": "private",
        "leisure": "pitch",
        "sport": "basketball;soccer;volleyball",
        "surface": "artificial_turf"
      }
    },
    {
      "type": "way",
      "id": 1237037092,
      "center": {
        "lat": 12.9715796,
        "lon": 77.7080695
      },
      "tags": {
        "amenity": "shelter",
        "bench": "yes",
        "building": "yes",
        "shelter_type": "picnic_shelter"
      }
    },
    {
      "type": "way",
      "id": 1237157996,
      "center": {
        "lat": 12.970999,
        "lon": 77.7075253
      },
      "tags": {
        "leisure": "garden"
      }
    },
    {
      "type": "way",
      "id": 1239913133,
      "center": {
        "lat": 12.9712318,
        "lon": 77.7108815
      },
      "tags": {
        "leisure": "garden"
      }
    },
    {
      "type": "way",
      "id": 1239913135,
      "center": {
        "lat": 12.9713556,
        "lon": 77.7109479
      },
      "tags": {
        "leisure": "garden"
      }
    },
    {
      "type": "way",
      "id": 1241956511,
      "center": {
        "lat": 12.9708477,
        "lon": 77.7087308
      },
      "tags": {
        "leisure": "bleachers"
      }
    },
    {
      "type": "way",
      "id": 1241956512,
      "center": {
        "lat": 12.9711723,
        "lon": 77.7095527
      },
      "tags": {
        "leisure": "bleachers"
      }
    },
    {
      "type": "way",
      "id": 1252308162,
      "center": {
        "lat": 12.9708552,
        "lon": 77.7176006
      },
      "tags": {
        "access": "private",
        "leisure": "park"
      }
    },
    {
      "type": "way",
      "id": 1269085018,
      "center": {
        "lat": 12.9649108,
        "lon": 77.7197557
      },
      "tags": {
        "leisure": "park"
      }
    },
    {
      "type": "way",
      "id": 1270575630,
      "center": {
        "lat": 12.9771746,
        "lon": 77.7100683
      },
      "tags": {
        "amenity": "parking",
        "parking": "street_side"
      }
    },
    {
      "type": "way",
      "id": 1272139275,
      "center": {
        "lat": 12.9762552,
        "lon": 77.7173035
      },
      "tags": {
        "access": "customers",
        "amenity": "parking",
        "parking": "surface"
      }
    },
    {
      "type": "way",
      "id": 1273580576,
      "center": {
        "lat": 12.9742361,
        "lon": 77.7189171
      },
      "tags": {
        "access": "private",
        "amenity": "parking",
        "capacity": "4",
        "parking": "street_side"
      }
    },
    {
      "type": "way",
      "id": 1273580577,
      "center": {
        "lat": 12.9742464,
        "lon": 77.718655
      },
      "tags": {
        "access": "private",
        "amenity": "parking",
        "capacity": "4",
        "parking": "street_side"
      }
    },
    {
      "type": "way",
      "id": 1273628118,
      "center": {
        "lat": 12.9730588,
        "lon": 77.7182317
      },
      "tags": {
        "access": "private",
        "amenity": "parking",
        "orientation": "perpendicular",
        "parking": "street_side"
      }
    },
    {
      "type": "way",
      "id": 1273628130,
      "center": {
        "lat": 12.9725033,
        "lon": 77.7171282
      },
      "tags": {
        "leisure": "swimming_pool"
      }
    },
    {
      "type": "way",
      "id": 1273980557,
      "center": {
        "lat": 12.9721382,
        "lon": 77.7173531
      },
      "tags": {
        "access": "private",
        "amenity": "parking",
        "parking": "carports"
      }
    },
    {
      "type": "way",
      "id": 1273980558,
      "center": {
        "lat": 12.9720448,
        "lon": 77.7169418
      },
      "tags": {
        "leisure": "bleachers"
      }
    },
    {
      "type": "way",
      "id": 1273980560,
      "center": {
        "lat": 12.9725463,
        "lon": 77.717866
      },
      "tags": {
        "leisure": "garden"
      }
    },
    {
      "type": "way",
      "id": 1274352566,
      "center": {
        "lat": 12.9655537,
        "lon": 77.7186835
      },
      "tags": {
        "access": "customers",
        "amenity": "parking",
        "parking": "surface"
      }
    },
    {
      "type": "way",
      "id": 1294964815,
      "center": {
        "lat": 12.9775445,
        "lon": 77.7156192
      },
      "tags": {
        "access": "customers",
        "amenity": "toilets",
        "indoor": "room",
        "level": "1",
        "room": "toilet",
        "wheelchair": "yes"
      }
    },
    {
      "type": "way",
      "id": 1298786541,
      "center": {
        "lat": 12.9665708,
        "lon": 77.7157636
      },
      "tags": {
        "leisure": "playground"
      }
    },
    {
      "type": "way",
      "id": 1318934521,
      "center": {
        "lat": 12.9646703,
        "lon": 77.7149498
      },
      "tags": {
        "access": "customers",
        "amenity": "parking",
        "fee": "yes",
        "operator": "Cafe Siri",
        "operator:type": "private",
        "parking": "surface"
      }
    },
    {
      "type": "way",
      "id": 1319410577,
      "center": {
        "lat": 12.9748039,
        "lon": 77.7056783
      },
      "tags": {
        "brand": "Mercedes-Benz",
        "brand:wikidata": "Q36008",
        "name": "Sundaram Motors",
        "second_hand": "no",
        "shop": "car"
      }
    },
    {
      "type": "way",
      "id": 1343936609,
      "center": {
        "lat": 12.9685936,
        "lon": 77.7118346
      },
      "tags": {
        "access": "private",
        "leisure": "swimming_pool",
        "location": "outdoor",
        "swimming_pool": "personal"
      }
    },
    {
      "type": "way",
      "id": 1382948058,
      "center": {
        "lat": 12.979474,
        "lon": 77.7101648
      },
      "tags": {
        "access": "customers",
        "leisure": "swimming_pool",
        "location": "roof"
      }
    },
    {
      "type": "way",
      "id": 1430787675,
      "center": {
        "lat": 12.9798538,
        "lon": 77.7113833
      },
      "tags": {
        "access": "private",
        "leisure": "playground"
      }
    },
    {
      "type": "way",
      "id": 1430787676,
      "center": {
        "lat": 12.980388,
        "lon": 77.7116802
      },
      "tags": {
        "hoops": "1",
        "leisure": "pitch",
        "sport": "basketball"
      }
    },
    {
      "type": "way",
      "id": 1430787677,
      "center": {
        "lat": 12.9805187,
        "lon": 77.7116444
      },
      "tags": {
        "access": "private",
        "leisure": "playground"
      }
    },
    {
      "type": "way",
      "id": 1430787678,
      "center": {
        "lat": 12.9806666,
        "lon": 77.711652
      },
      "tags": {
        "access": "private",
        "amenity": "parking",
        "parking": "surface"
      }
    },
    {
      "type": "way",
      "id": 1432192572,
      "center": {
        "lat": 12.9736283,
        "lon": 77.714659
      },
      "tags": {
        "access": "private",
        "leisure": "pitch",
        "sport": "basketball"
      }
    },
    {
      "type": "way",
      "id": 1432192573,
      "center": {
        "lat": 12.9736979,
        "lon": 77.7145312
      },
      "tags": {
        "access": "private",
        "leisure": "playground"
      }
    },
    {
      "type": "way",
      "id": 1432192574,
      "center": {
        "lat": 12.9718563,
        "lon": 77.7132199
      },
      "tags": {
        "access": "private",
        "leisure": "pitch",
        "sport": "chess"
      }
    },
    {
      "type": "way",
      "id": 1432192575,
      "center": {
        "lat": 12.9716149,
        "lon": 77.7135217
      },
      "tags": {
        "access": "private",
        "leisure": "playground"
      }
    },
    {
      "type": "way",
      "id": 1432192577,
      "center": {
        "lat": 12.9716745,
        "lon": 77.7147636
      },
      "tags": {
        "leisure": "bleachers"
      }
    },
    {
      "type": "way",
      "id": 1432192578,
      "center": {
        "lat": 12.9719582,
        "lon": 77.7144834
      },
      "tags": {
        "access": "private",
        "leisure": "playground"
      }
    },
    {
      "type": "way",
      "id": 1432192579,
      "center": {
        "lat": 12.9721532,
        "lon": 77.7144846
      },
      "tags": {
        "access": "private",
        "leisure": "pitch"
      }
    },
    {
      "type": "way",
      "id": 1432192581,
      "center": {
        "lat": 12.9726124,
        "lon": 77.7068577
      },
      "tags": {
        "access": "private",
        "leisure": "swimming_pool"
      }
    },
    {
      "type": "way",
      "id": 1432192582,
      "center": {
        "lat": 12.97216,
        "lon": 77.7068838
      },
      "tags": {
        "access": "private",
        "leisure": "swimming_pool"
      }
    },
    {
      "type": "way",
      "id": 1432357757,
      "center": {
        "lat": 12.967036,
        "lon": 77.717977
      },
      "tags": {
        "amenity": "hospital",
        "building": "hospital",
        "name": "Mahanandi"
      }
    },
    {
      "type": "way",
      "id": 1432357805,
      "center": {
        "lat": 12.9694672,
        "lon": 77.7159467
      },
      "tags": {
        "access": "private",
        "leisure": "playground"
      }
    }
  ]
}