{
  "area_name": "Green Glen Layout",
  "osm_id": 3740872036,
  "osm_type": "node",
  "place_type": "neighbourhood",
  "amenity_count": 393,
  "amenities": [
    {
      "type": "node",
      "id": 267212843,
      "lat": 12.9185253,
      "lon": 77.6704998,
      "tags": {
        "amenity": "bank",
        "atm": "yes",
        "brand": "HDFC Bank",
        "brand:wikidata": "Q631047",
        "brand:wikipedia": "en:HDFC Bank",
        "drive_through": "no",
        "level": "0",
        "name": "HDFC Bank",
        "name:kn": "ಎಚ್ ಡಿ ಎಫ್ ಸಿ",
        "short_name": "HDFC",
        "website": "https://www.hdfcbank.com"
      }
    },
    {
      "type": "node",
      "id": 307401529,
      "lat": 12.9263714,
      "lon": 77.6765455,
      "tags": {
        "addr:city": "Belandur, Bangalore",
        "addr:full": "74/1, Bellandur, Ring Road, Varthur",
        "addr:housenumber": "74/1",
        "addr:postcode": "560037",
        "addr:state": "Karnataka",
        "addr:street": "Outer Ring Road",
        "amenity": "hospital",
        "email": "whitefield@theapolloclinic.com",
        "healthcare": "hospital",
        "name": "Apollo Hospital",
        "name:kn": "ಅಪೊಲೋ ಆಸ್ಪತ್ರೆ",
        "phone": "+91-80-40222555",
        "website": "http://www.apolloclinicbangalore.com/",
        "wheelchair": "yes"
      }
    },
    {
      "type": "node",
      "id": 590701867,
      "lat": 12.9231948,
      "lon": 77.6677477,
      "tags": {
        "amenity": "car_wash",
        "name": "Car Wash"
      }
    },
    {
      "type": "node",
      "id": 590753375,
      "lat": 12.9250029,
      "lon": 77.664274,
      "tags": {
        "shop": "supermarket"
      }
    },
    {
      "type": "node",
      "id": 590753378,
      "lat": 12.9248306,
      "lon": 77.6642849,
      "tags": {
        "amenity": "pharmacy",
        "name": "Sri Manjunath Medical & General stores"
      }
    },
    {
      "type": "node",
      "id": 590753382,
      "lat": 12.9262764,
      "lon": 77.6698353,
      "tags": {
        "amenity": "restaurant",
        "name": "Wah Paratha"
      }
    },
    {
      "type": "node",
      "id": 650398934,
      "lat": 12.9186665,
      "lon": 77.6708407,
      "tags": {
        "name": "Families Hypermarket",
        "shop": "supermarket"
      }
    },
    {
      "type": "node",
      "id": 929965952,
      "lat": 12.924585,
      "lon": 77.6743627,
      "tags": {
        "addr:street": "Outer Ring Road",
        "air_conditioning": "yes",
        "amenity": "cafe",
        "brand": "Cafe Coffee Day",
        "brand:wikidata": "Q5017235",
        "brand:wikipedia": "en:Café Coffee Day",
        "check_date": "2025-08-18",
        "check_date:diet:vegetarian": "2025-08-18",
        "cuisine": "coffee_shop",
        "diet:vegetarian": "yes",
        "indoor_seating": "yes",
        "name": "Cafe Coffee Day",
        "name:kn": "ಕಫೆ ಕಾಫಿ ಡೇ",
        "outdoor_seating": "no",
        "takeaway": "yes"
      }
    },
    {
      "type": "node",
      "id": 1067307517,
      "lat": 12.9192711,
      "lon": 77.6684296,
      "tags": {
        "addr:street": "Sarjapur Road",
        "amenity": "pharmacy",
        "healthcare": "pharmacy"
      }
    },
    {
      "type": "node",
      "id": 1338091641,
      "lat": 12.9241258,
      "lon": 77.671756,
      "tags": {
        "amenity": "bank",
        "atm": "yes",
        "brand": "ICICI Bank",
        "brand:wikidata": "Q1653258",
        "drive_through": "no",
        "name": "ICICI Bank",
        "name:en": "ICICI Bank",
        "name:kn": "ಐಸಿಐಸಿಐ ಬ್ಯಾಂಕು",
        "short_name": "ICICI",
        "website": "https://www.icicibank.com"
      }
    },
    {
      "type": "node",
      "id": 1384675402,
      "lat": 12.925884,
      "lon": 77.6753891,
      "tags": {
        "amenity": "atm",
        "brand": "Axis Bank",
        "brand:wikidata": "Q2003549",
        "cash_in": "no",
        "check_date": "2024-01-28",
        "level": "0",
        "name": "Axis Bank",
        "name:kn": "ಆಕ್ಸಿಸ್ ಬ್ಯಾಂಕ್",
        "operator": "Axis Bank",
        "operator:wikidata": "Q2003549"
      }
    },
    {
      "type": "node",
      "id": 1462947571,
      "lat": 12.9260569,
      "lon": 77.6753253,
      "tags": {
        "addr:housename": "SoulSpace Spirit",
        "addr:postcode": "560103",
        "addr:street": "Sarjapur Outer Ring Road, Bellandur, Bangalore",
        "level": "0",
        "name": "Smart Bazaar",
        "shop": "supermarket"
      }
    },
    {
      "type": "node",
      "id": 1462953962,
      "lat": 12.9260094,
      "lon": 77.6752616,
      "tags": {
        "addr:floor": "G",
        "addr:housename": "Soulspace Spirit",
        "addr:postcode": "560103",
        "addr:street": "Bellandur, Bangalore",
        "check_date": "2024-01-28",
        "designation": "Madhuloka",
        "level": "0",
        "name": "Madhuloka",
        "name:kn": "ಮಧುಲೋಕ",
        "payment:cash": "yes",
        "payment:credit_cards": "yes",
        "payment:debit_cards": "yes",
        "shop": "alcohol",
        "source": "survey"
      }
    },
    {
      "type": "node",
      "id": 1462959212,
      "lat": 12.9260621,
      "lon": 77.6760012,
      "tags": {
        "addr:postcode": "560103",
        "addr:street": "Bellandur, Bangalore",
        "amenity": "restaurant",
        "cuisine": "indian",
        "name": "Ring View Restaurant",
        "name:kn": "ರಿಂಗ್ ವೀವ್ ರೆಸ್ಟೋರೆಂಟ್"
      }
    },
    {
      "type": "node",
      "id": 1669907390,
      "lat": 12.9215251,
      "lon": 77.6759665,
      "tags": {
        "amenity": "place_of_worship",
        "name": "Ganesha Temple",
        "name:kn": "ಗಣೇಶ ದೇವಸ್ಥಾನ",
        "religion": "hindu",
        "wheelchair": "no"
      }
    },
    {
      "type": "node",
      "id": 1669908084,
      "lat": 12.9218121,
      "lon": 77.6761569,
      "tags": {
        "name": "Sinan Provision Store",
        "shop": "convenience"
      }
    },
    {
      "type": "node",
      "id": 1669909077,
      "lat": 12.9223745,
      "lon": 77.6756791,
      "tags": {
        "name": "Raj Motors",
        "shop": "car_repair"
      }
    },
    {
      "type": "node",
      "id": 1691795019,
      "lat": 12.9254591,
      "lon": 77.6698872,
      "tags": {
        "name": "Fresco",
        "shop": "supermarket",
        "toilets:wheelchair": "yes"
      }
    },
    {
      "type": "node",
      "id": 1691795363,
      "lat": 12.9265658,
      "lon": 77.6698488,
      "tags": {
        "amenity": "bank",
        "atm": "yes",
        "brand": "State Bank of India",
        "brand:wikidata": "Q1340361",
        "brand:wikipedia": "en:State Bank of India",
        "name": "State Bank of India",
        "name:kn": "ಎಸ್ ಬಿ ಐ",
        "short_name": "SBI",
        "source": "Survey"
      }
    },
    {
      "type": "node",
      "id": 1691795914,
      "lat": 12.9269631,
      "lon": 77.6698515,
      "tags": {
        "brand": "Reliance Fresh",
        "brand:wikidata": "Q7311014",
        "name": "Reliance Fresh",
        "shop": "supermarket"
      }
    },
    {
      "type": "node",
      "id": 1691796797,
      "lat": 12.9271147,
      "lon": 77.669881,
      "tags": {
        "amenity": "bank",
        "atm": "yes",
        "brand": "HDFC Bank",
        "brand:wikidata": "Q631047",
        "brand:wikipedia": "en:HDFC Bank",
        "name": "HDFC Bank",
        "name:kn": "ಎಚ್ ಡಿ ಎಫ್ ಸಿ",
        "short_name": "HDFC",
        "source": "Survey",
        "website": "https://www.hdfcbank.com"
      }
    },
    {
      "type": "node",
      "id": 1691797532,
      "lat": 12.926903,
      "lon": 77.6699239,
      "tags": {
        "amenity": "fast_food",
        "branch": "(PHD)",
        "brand": "Pizza Hut",
        "brand:wikidata": "Q191615",
        "cuisine": "pizza",
        "delivery": "yes",
        "name": "Pizza Hut Delivery",
        "source": "Survey",
        "takeaway": "only"
      }
    },
    {
      "type": "node",
      "id": 1691967445,
      "lat": 12.9283121,
      "lon": 77.6719892,
      "tags": {
        "name": "K. M. Bakery",
        "shop": "bakery",
        "source": "survey"
      }
    },
    {
      "type": "node",
      "id": 1691969733,
      "lat": 12.9224463,
      "lon": 77.6682635,
      "tags": {
        "designation": "Liquor boutique",
        "level": "1",
        "name": "Madhuloka",
        "name:kn": "ಮಧುಲೋಕ",
        "payment:credit_cards": "yes",
        "payment:debit_cards": "yes",
        "shop": "alcohol",
        "source": "survey",
        "wheelchair": "no"
      }
    },
    {
      "type": "node",
      "id": 1691975653,
      "lat": 12.9273683,
      "lon": 77.6710665,
      "tags": {
        "name": "Happy Land Supermarket",
        "shop": "convenience",
        "source": "survey"
      }
    },
    {
      "type": "node",
      "id": 1691980582,
      "lat": 12.9259462,
      "lon": 77.6752588,
      "tags": {
        "addr:floor": "G",
        "air_conditioning": "yes",
        "alt_name": "Kentucky Fried Chicken",
        "alt_name:en": "Kentucky Fried Chicken",
        "alt_name:hi": "केंटुकी फ्राइड चिकन",
        "alt_name:pa": "ਕੈਂਟੁਕੀ ਫ੍ਰਾਈਡ ਚਿਕਨ",
        "alt_name:pnb": "کینٹکی فرائیڈ چکن",
        "alt_name:ur": "کینٹکی فرائیڈ چکن",
        "amenity": "fast_food",
        "brand": "KFC",
        "brand:en": "KFC",
        "brand:hi": "केएफसी",
        "brand:pa": "ਕੇਐਫਸੀ",
        "brand:pnb": "کے ایف سی",
        "brand:ur": "کے ایف سی",
        "brand:wikidata": "Q524757",
        "brand:wikipedia": "en:KFC",
        "brand:wikipedia:pa": "ਕੇਐਫਸੀ",
        "brand:wikipedia:ur": "کینٹکی فرائیڈ چکن",
        "check_date": "2024-01-28",
        "cuisine": "chicken",
        "diet:vegetarian": "yes",
        "drive_through": "no",
        "indoor_seating": "yes",
        "level": "0",
        "name": "KFC",
        "name:en": "KFC",
        "name:hi": "केएफसी",
        "name:pa": "ਕੇਐਫਸੀ",
        "name:pnb": "کے ایف سی",
        "name:ur": "کے ایف سی",
        "outdoor_seating": "no",
        "payment:cash": "yes",
        "payment:credit_cards": "yes",
        "payment:debit_cards": "yes",
        "smoking": "no",
        "source": "survey",
        "takeaway": "yes",
        "wheelchair": "no"
      }
    },
    {
      "type": "node",
      "id": 1691980583,
      "lat": 12.925988,
      "lon": 77.6754492,
      "tags": {
        "addr:floor": "G",
        "air_conditioning": "yes",
        "amenity": "restaurant",
        "brand": "Pizza Hut",
        "brand:wikidata": "Q191615",
        "check_date": "2024-01-28",
        "cuisine": "pizza",
        "diet:vegetarian": "yes",
        "indoor_seating": "yes",
        "level": "0",
        "name": "Pizza Hut",
        "name:kn": "ಪಿಟ್ಸ ಹಟ್",
        "outdoor_seating": "no",
        "payment:cash": "yes",
        "payment:credit_cards": "yes",
        "payment:debit_cards": "yes",
        "smoking": "no",
        "source": "survey"
      }
    },
    {
      "type": "node",
      "id": 1691980738,
      "lat": 12.9263148,
      "lon": 77.6753554,
      "tags": {
        "addr:floor": "4",
        "air_conditioning": "yes",
        "amenity": "cinema",
        "brand": "PVR Cinemas",
        "brand:short": "PVR",
        "brand:wikidata": "Q3359908",
        "check_date": "2024-01-28",
        "internet_access": "no",
        "level": "4",
        "name": "PVR Cinemas",
        "payment:cash": "yes",
        "payment:credit_cards": "yes",
        "payment:debit_cards": "yes",
        "short_name": "PVR",
        "source": "survey",
        "wheelchair": "limited"
      }
    },
    {
      "type": "node",
      "id": 1693117431,
      "lat": 12.922285,
      "lon": 77.6774154,
      "tags": {
        "name": "Exide Battery Inverter shop",
        "shop": "convenience"
      }
    },
    {
      "type": "node",
      "id": 1693119941,
      "lat": 12.926419,
      "lon": 77.669893,
      "tags": {
        "amenity": "bank",
        "atm": "yes",
        "brand": "Andhra Bank",
        "brand:wikidata": "Q2003476",
        "brand:wikipedia": "en:Andhra Bank",
        "name": "Andhra Bank",
        "name:en": "Andhra Bank",
        "name:kn": "ಆಂಧ್ರ ಬ್ಯಾಂಕ್",
        "website": "https://www.andhrabank.in"
      }
    },
    {
      "type": "node",
      "id": 1693120843,
      "lat": 12.9267954,
      "lon": 77.6699091,
      "tags": {
        "amenity": "hospital",
        "designation": "Hospital",
        "emergency": "yes",
        "healthcare": "hospital",
        "level": "2",
        "name": "Sunny Medicals Hospital Clinic",
        "source": "Survey",
        "wheelchair": "limited",
        "wheelchair:description": "Steps at entrace to building, lift to hospital"
      }
    },
    {
      "type": "node",
      "id": 1693121790,
      "lat": 12.9270725,
      "lon": 77.6690293,
      "tags": {
        "amenity": "kindergarten",
        "name": "Little Elly"
      }
    },
    {
      "type": "node",
      "id": 1729033459,
      "lat": 12.9272813,
      "lon": 77.6693957,
      "tags": {
        "amenity": "pharmacy",
        "brand": "Apollo Pharmacy",
        "brand:wikidata": "Q62562612",
        "dispensing": "no",
        "drive_through": "no",
        "healthcare": "pharmacy",
        "name": "Apollo Pharmacy",
        "name:kn": "ಅಪೋಲೋ ಫಾರ್ಮಸಿ"
      }
    },
    {
      "type": "node",
      "id": 2085451771,
      "lat": 12.9253052,
      "lon": 77.6698803,
      "tags": {
        "amenity": "restaurant",
        "cuisine": "indian",
        "name": "Posh Palates"
      }
    },
    {
      "type": "node",
      "id": 2483733243,
      "lat": 12.9264134,
      "lon": 77.6704799,
      "tags": {
        "name": "Green Apple",
        "shop": "chemist"
      }
    },
    {
      "type": "node",
      "id": 2483751137,
      "lat": 12.9265333,
      "lon": 77.6763884,
      "tags": {
        "amenity": "place_of_worship",
        "name": "Kodandarama Temple",
        "name:kn": "ಕೋದಂಡರಾಮ ದೇವಸ್ಥಾನ",
        "religion": "hindu"
      }
    },
    {
      "type": "node",
      "id": 2509415561,
      "lat": 12.9195943,
      "lon": 77.6670277,
      "tags": {
        "amenity": "pharmacy",
        "brand": "Apollo Pharmacy",
        "brand:wikidata": "Q62562612",
        "dispensing": "yes",
        "healthcare": "pharmacy",
        "name": "Apollo Pharmacy",
        "name:kn": "ಅಪೊಲೋ ಫಾರ್ಮಸಿ"
      }
    },
    {
      "type": "node",
      "id": 2623077569,
      "lat": 12.9228223,
      "lon": 77.6730622,
      "tags": {
        "name": "G-Mart now VILLAGE",
        "opening_hours": "Mo-Th,Sa 08:00-21:30",
        "shop": "supermarket"
      }
    },
    {
      "type": "node",
      "id": 2623332318,
      "lat": 12.9231571,
      "lon": 77.6728066,
      "tags": {
        "amenity": "hospital",
        "healthcare": "hospital",
        "name": "Narayana Hrudayalaya Dental Clinic",
        "name:kn": "ನಾರಾಯಣ ಹೃದಯಾಲಯ ದಂತ ಆಸ್ಪತ್ರೆ"
      }
    },
    {
      "type": "node",
      "id": 3022109714,
      "lat": 12.9232047,
      "lon": 77.6711807,
      "tags": {
        "amenity": "restaurant",
        "indoor_seating": "yes",
        "name": "Chowman",
        "outdoor_seating": "no"
      }
    },
    {
      "type": "node",
      "id": 3170077781,
      "lat": 12.9224971,
      "lon": 77.668466,
      "tags": {
        "air_conditioning": "yes",
        "amenity": "cafe",
        "brand": "Chai Point",
        "brand:wikidata": "Q28173415",
        "check_date": "2025-05-31",
        "cuisine": "coffee_shop",
        "diet:vegetarian": "yes",
        "indoor_seating": "yes",
        "level": "0",
        "name": "Chai Point",
        "outdoor_seating": "no",
        "payment:cash": "yes",
        "payment:mastercard": "yes",
        "payment:visa": "yes",
        "smoking": "no",
        "takeaway": "yes"
      }
    },
    {
      "type": "node",
      "id": 3170077787,
      "lat": 12.9224521,
      "lon": 77.6683425,
      "tags": {
        "amenity": "bank",
        "atm": "yes",
        "branch": "Bellandur",
        "brand": "Axis Bank",
        "brand:wikidata": "Q2003549",
        "brand:wikipedia": "en:Axis Bank",
        "check_date": "2025-01-31",
        "level": "0",
        "name": "Axis Bank",
        "operator": "Axis Bank",
        "operator:wikidata": "Q2003549",
        "operator:wikipedia": "en:Axis Bank"
      }
    },
    {
      "type": "node",
      "id": 3170080378,
      "lat": 12.9245494,
      "lon": 77.6743341,
      "tags": {
        "air_conditioning": "yes",
        "amenity": "restaurant",
        "diet:vegetarian": "only",
        "indoor_seating": "yes",
        "name": "Gopal Jee",
        "outdoor_seating": "no"
      }
    },
    {
      "type": "node",
      "id": 3170084418,
      "lat": 12.9233585,
      "lon": 77.6696763,
      "tags": {
        "brand": "Naturals",
        "brand:wikidata": "Q125728261",
        "name": "Naturals",
        "shop": "beauty"
      }
    },
    {
      "type": "node",
      "id": 3170084419,
      "lat": 12.9231513,
      "lon": 77.6697399,
      "tags": {
        "brand": "cult.fit",
        "brand:wikidata": "Q121289250",
        "leisure": "fitness_centre",
        "name": "cult.fit",
        "sport": "fitness;yoga",
        "website": "https://www.cure.fit/"
      }
    },
    {
      "type": "node",
      "id": 3170496478,
      "lat": 12.9305558,
      "lon": 77.6685719,
      "tags": {
        "amenity": "place_of_worship",
        "religion": "hindu"
      }
    },
    {
      "type": "node",
      "id": 3192677605,
      "lat": 12.9225149,
      "lon": 77.6683106,
      "tags": {
        "check_date": "2025-04-06",
        "name": "Lakme Salon",
        "operator": "Lakme",
        "shop": "beauty"
      }
    },
    {
      "type": "node",
      "id": 3192677613,
      "lat": 12.9224984,
      "lon": 77.6684069,
      "tags": {
        "leisure": "sports_centre",
        "level": "1",
        "name": "Fitness Republic"
      }
    },
    {
      "type": "node",
      "id": 3192692777,
      "lat": 12.9225541,
      "lon": 77.6685693,
      "tags": {
        "name": "Tilia",
        "phone": "+91809590160160",
        "shop": "florist",
        "website": "https://www.tilia.in/"
      }
    },
    {
      "type": "node",
      "id": 3236410030,
      "lat": 12.9259521,
      "lon": 77.6754449,
      "tags": {
        "addr:floor": "G",
        "air_conditioning": "yes",
        "amenity": "fast_food",
        "brand": "McDonald's",
        "brand:pa": "ਮੈਕਡੋਨਲਡ’ਜ਼",
        "brand:ur": "مکڈونلڈز",
        "brand:wikidata": "Q38076",
        "brand:wikipedia": "en:McDonald's",
        "brand:wikipedia:pa": "ਮੈਕਡੋਨਲਡ’ਜ਼",
        "brand:wikipedia:ur": "مکڈونلڈز",
        "check_date": "2024-01-28",
        "cuisine": "burger",
        "diet:vegetarian": "yes",
        "indoor_seating": "yes",
        "level": "0",
        "name": "McDonald's",
        "name:kn": "ಮ್ಯಾಕ್‌ಡೊನಾಲ್ಡ್ಸ್",
        "name:pa": "ਮੈਕਡੋਨਲਡ’ਜ਼",
        "name:ur": "مکڈونلڈز",
        "outdoor_seating": "no",
        "payment:cash": "yes",
        "payment:credit_cards": "yes",
        "payment:debit_cards": "yes",
        "smoking": "no",
        "source": "survey",
        "takeaway": "yes"
      }
    },
    {
      "type": "node",
      "id": 3236418370,
      "lat": 12.929978,
      "lon": 77.6755039,
      "tags": {
        "amenity": "post_office",
        "name": "Bellanduru Post Office",
        "name:kn": "ಬೆಳ್ಳಂದೂರು ಅಂಚೆ ಕಛೇರಿ"
      }
    },
    {
      "type": "node",
      "id": 3245631491,
      "lat": 12.9246885,
      "lon": 77.6729929,
      "tags": {
        "amenity": "bank",
        "atm": "yes",
        "brand": "State Bank of India",
        "brand:wikidata": "Q1340361",
        "brand:wikipedia": "en:State Bank of India",
        "name": "State Bank of India",
        "name:kn": "ಭಾರತೀಯ ಸ್ಟೇಟ್ ಬ್ಯಾಂಕ್",
        "short_name": "SBI",
        "website": "https://www.sbi.co.in"
      }
    },
    {
      "type": "node",
      "id": 3245631492,
      "lat": 12.9245757,
      "lon": 77.6729089,
      "tags": {
        "amenity": "cafe",
        "name": "Happy Endings"
      }
    },
    {
      "type": "node",
      "id": 3245631791,
      "lat": 12.9241101,
      "lon": 77.671697,
      "tags": {
        "amenity": "restaurant",
        "check_date": "2025-04-06",
        "cuisine": "regional",
        "name": "Punjabi Times"
      }
    },
    {
      "type": "node",
      "id": 3245633759,
      "lat": 12.924063,
      "lon": 77.6716755,
      "tags": {
        "name": "Evok",
        "shop": "department_store"
      }
    },
    {
      "type": "node",
      "id": 3251598601,
      "lat": 12.9245431,
      "lon": 77.6728693,
      "tags": {
        "amenity": "restaurant",
        "name": "Ruh"
      }
    },
    {
      "type": "node",
      "id": 3347894592,
      "lat": 12.9299967,
      "lon": 77.6765388,
      "tags": {
        "amenity": "atm",
        "brand": "Karnataka Bank",
        "brand:wikidata": "Q2042632",
        "name": "Karnataka Bank Ltd",
        "name:kn": "ಕರ್ನಾಟಕ ಬ್ಯಾಂಕ್",
        "operator": "Karnataka Bank",
        "operator:wikidata": "Q2042632"
      }
    },
    {
      "type": "node",
      "id": 3369494573,
      "lat": 12.9225179,
      "lon": 77.6697123,
      "tags": {
        "name": "Super Battery Center",
        "note": "Sales and service for car batteries",
        "shop": "car_parts"
      }
    },
    {
      "type": "node",
      "id": 3369498734,
      "lat": 12.9224937,
      "lon": 77.6696672,
      "tags": {
        "name": "Super Tyre Center",
        "note": "Repairs punctures and sells new tyres",
        "shop": "tyres",
        "wheelchair": "yes"
      }
    },
    {
      "type": "node",
      "id": 3463462865,
      "lat": 12.9253521,
      "lon": 77.6746772,
      "tags": {
        "brand": "Vodafone",
        "brand:wikidata": "Q122141",
        "brand:wikipedia": "en:Vodafone",
        "name": "Vodafone",
        "shop": "mobile_phone"
      }
    },
    {
      "type": "node",
      "id": 3463462866,
      "lat": 12.9253364,
      "lon": 77.674637,
      "tags": {
        "amenity": "clinic",
        "name": "Nile Hair and Skin Care"
      }
    },
    {
      "type": "node",
      "id": 3463462867,
      "lat": 12.9254409,
      "lon": 77.6746531,
      "tags": {
        "name": "Sunrise Enterprises",
        "shop": "shoes"
      }
    },
    {
      "type": "node",
      "id": 3463468415,
      "lat": 12.9254043,
      "lon": 77.674814,
      "tags": {
        "amenity": "pub",
        "name": "Brewberrys"
      }
    },
    {
      "type": "node",
      "id": 3477797059,
      "lat": 12.9247848,
      "lon": 77.6747717,
      "tags": {
        "amenity": "clinic",
        "healthcare": "clinic",
        "name": "Dr. Ravi Lab And Research Center"
      }
    },
    {
      "type": "node",
      "id": 3477797061,
      "lat": 12.9247119,
      "lon": 77.6745255,
      "tags": {
        "name": "Oh Wow",
        "shop": "beauty"
      }
    },
    {
      "type": "node",
      "id": 3477797062,
      "lat": 12.9244234,
      "lon": 77.6739836,
      "tags": {
        "name": "Philips Light Lounge",
        "shop": "electronics"
      }
    },
    {
      "type": "node",
      "id": 3477797063,
      "lat": 12.9244222,
      "lon": 77.6739309,
      "tags": {
        "amenity": "atm",
        "name": "Lakshmi Vilas Bank",
        "name:kn": "ಲಕ್ಷ್ಮಿ ವಿಲಾಸ ಬಾಂಕ್"
      }
    },
    {
      "type": "node",
      "id": 3477797064,
      "lat": 12.9242311,
      "lon": 77.6739044,
      "tags": {
        "amenity": "atm",
        "brand": "Bank of Baroda",
        "brand:wikidata": "Q2003797",
        "brand:wikipedia": "en:Bank of Baroda",
        "name": "Bank of Baroda",
        "name:kn": "ವಿಜಯ ಬ್ಯಾಂಕು",
        "operator": "Bank of Baroda",
        "operator:wikidata": "Q2003797",
        "operator:wikipedia": "en:Bank of Baroda"
      }
    },
    {
      "type": "node",
      "id": 3477797065,
      "lat": 12.9243384,
      "lon": 77.6737717,
      "tags": {
        "name": "Rosh Roy's",
        "shop": "beauty"
      }
    },
    {
      "type": "node",
      "id": 3477797066,
      "lat": 12.9242307,
      "lon": 77.6719912,
      "tags": {
        "highway": "street_lamp",
        "name": "Idea Device;Street Lamp",
        "shop": "mobile_phone",
        "working": "no"
      }
    },
    {
      "type": "node",
      "id": 3477797252,
      "lat": 12.9247146,
      "lon": 77.6744798,
      "tags": {
        "name": "Aishwarya Interiors",
        "shop": "interior_decoration"
      }
    },
    {
      "type": "node",
      "id": 3477797398,
      "lat": 12.9247509,
      "lon": 77.6746027,
      "tags": {
        "amenity": "post_office",
        "name": "Maruti Couriers",
        "user_defined_other": "courier"
      }
    },
    {
      "type": "node",
      "id": 3477797685,
      "lat": 12.92478,
      "lon": 77.6746246,
      "tags": {
        "amenity": "restaurant",
        "name": "Classic Biriyani Center"
      }
    },
    {
      "type": "node",
      "id": 3477797686,
      "lat": 12.9246075,
      "lon": 77.674214,
      "tags": {
        "brand": "TVS",
        "brand:wikidata": "Q3300084",
        "name": "TVS service center",
        "shop": "motorcycle"
      }
    },
    {
      "type": "node",
      "id": 3477797687,
      "lat": 12.9244534,
      "lon": 77.6739997,
      "tags": {
        "brand": "TVS",
        "brand:wikidata": "Q3300084",
        "name": "TVS Indian Motors Agencies",
        "shop": "motorcycle"
      }
    },
    {
      "type": "node",
      "id": 3477797688,
      "lat": 12.9241818,
      "lon": 77.6737518,
      "tags": {
        "addr:district": "Bengaluru Urban",
        "addr:full": "446/21 Above Vijaya Bank, Opposite To Amba Bajaja Showroom",
        "addr:postcode": "560103",
        "addr:state": "Karnataka",
        "amenity": "hospital",
        "healthcare": "hospital",
        "name": "Nelivigi Eye Hospital",
        "operator:type": "private",
        "source": "OpenGovernmentData",
        "website": "https://www.nelivigieyehospital.com/"
      }
    },
    {
      "type": "node",
      "id": 3477797689,
      "lat": 12.9243181,
      "lon": 77.6736859,
      "tags": {
        "amenity": "dentist",
        "healthcare": "dentist",
        "name": "Smile Elements Dental"
      }
    },
    {
      "type": "node",
      "id": 3477797690,
      "lat": 12.9243332,
      "lon": 77.6737469,
      "tags": {
        "name": "Amba Bajaj",
        "name:kn": "ಅಂಬ ಬಜಾಜ್",
        "shop": "motorcycle"
      }
    },
    {
      "type": "node",
      "id": 3477797824,
      "lat": 12.924451,
      "lon": 77.6739678,
      "tags": {
        "amenity": "atm",
        "brand": "Axis Bank",
        "brand:wikidata": "Q2003549",
        "brand:wikipedia": "en:Axis Bank",
        "name": "Axis Bank",
        "name:kn": "ಅಕ್ಸಿಸ್ ಬ್ಯಾಂಕ್",
        "operator": "Axis Bank",
        "operator:wikidata": "Q2003549",
        "operator:wikipedia": "en:Axis Bank"
      }
    },
    {
      "type": "node",
      "id": 3477797825,
      "lat": 12.924346,
      "lon": 77.6738789,
      "tags": {
        "amenity": "bank",
        "brand": "Bank of Baroda",
        "brand:wikidata": "Q2003797",
        "brand:wikipedia": "en:Bank of Baroda",
        "check_date": "2025-04-09",
        "name": "Bank of Baroda",
        "name:kn": "ವಿಜಯ ಬ್ಯಾಂಕು"
      }
    },
    {
      "type": "node",
      "id": 3477797826,
      "lat": 12.9243319,
      "lon": 77.673712,
      "tags": {
        "amenity": "restaurant",
        "indoor_seating": "yes",
        "name": "Mani'S Dum",
        "outdoor_seating": "no"
      }
    },
    {
      "type": "node",
      "id": 3477878357,
      "lat": 12.9242503,
      "lon": 77.6720932,
      "tags": {
        "check_date": "2022-11-08",
        "name": "Ravindu Toyota",
        "shop": "car"
      }
    },
    {
      "type": "node",
      "id": 3540944743,
      "lat": 12.9255448,
      "lon": 77.6762576,
      "tags": {
        "amenity": "restaurant",
        "cuisine": "regional",
        "name": "Mast Kalandar",
        "name:kn": "ಮಸ್ತ್ ಕಲಂದರ್"
      }
    },
    {
      "type": "node",
      "id": 3760054035,
      "lat": 12.9184735,
      "lon": 77.670746,
      "tags": {
        "name": "Little Sparrows",
        "shop": "baby_goods"
      }
    },
    {
      "type": "node",
      "id": 3760054036,
      "lat": 12.9184623,
      "lon": 77.6708087,
      "tags": {
        "level": "1",
        "name": "Band Box",
        "shop": "dry_cleaning"
      }
    },
    {
      "type": "node",
      "id": 3760064976,
      "lat": 12.9184997,
      "lon": 77.670797,
      "tags": {
        "shop": "hardware"
      }
    },
    {
      "type": "node",
      "id": 3760065158,
      "lat": 12.9185551,
      "lon": 77.6704667,
      "tags": {
        "addr:city": "Bengaluru",
        "amenity": "restaurant",
        "cuisine": "chinese",
        "delivery": "yes",
        "level": "1",
        "name": "Beijing Bites",
        "name:kn": "ಬೀಜಿಂಗ್ ಬೈಟ್ಸ್",
        "opening_hours": "Mo-Su 12:00-15:45,19:00-23:00",
        "outdoor_seating": "yes",
        "phone": "080 40932488",
        "smoking": "no",
        "takeaway": "no",
        "website": "https://beijingbites.com"
      }
    },
    {
      "type": "node",
      "id": 3760065159,
      "lat": 12.9185368,
      "lon": 77.6705297,
      "tags": {
        "level": "1",
        "name": "Naturals",
        "shop": "beauty"
      }
    },
    {
      "type": "node",
      "id": 3760066224,
      "lat": 12.9187904,
      "lon": 77.6698156,
      "tags": {
        "amenity": "dentist",
        "healthcare": "dentist",
        "level": "2",
        "name": "Ittina Welness"
      }
    },
    {
      "type": "node",
      "id": 3760067974,
      "lat": 12.9185394,
      "lon": 77.6705565,
      "tags": {
        "amenity": "clinic",
        "healthcare": "clinic",
        "level": "2,3",
        "name": "Nurture IVF",
        "note": "Specialty Women's Clinic and Fertility Center"
      }
    },
    {
      "type": "node",
      "id": 3760075526,
      "lat": 12.9187446,
      "lon": 77.6700335,
      "tags": {
        "level": "3",
        "name": "Uber Unisex salon & Med spa",
        "shop": "beauty"
      }
    },
    {
      "type": "node",
      "id": 3760079228,
      "lat": 12.9187877,
      "lon": 77.6697673,
      "tags": {
        "level": "3",
        "name": "Cloud 9 unisex salon",
        "shop": "beauty"
      }
    },
    {
      "type": "node",
      "id": 4298701461,
      "lat": 12.9264128,
      "lon": 77.6767516,
      "tags": {
        "addr:city": "bengaluru",
        "addr:housenumber": "74/1",
        "addr:postcode": "560103",
        "addr:street": "1st floor,linga reddy building,outer ring road,n r banglora",
        "amenity": "post_office",
        "brand": "Desk to Desk Courier & Cargo",
        "brand:short": "DTDC",
        "brand:wikidata": "Q55608802",
        "name": "DTDC",
        "opening_hours": "09:00-17:00",
        "operator": "Desk to Desk Courier & Cargo",
        "operator:short": "DTDC",
        "operator:wikidata": "Q55608802",
        "phone": "+919036398672",
        "website": "https://www.dtdc.com/"
      }
    },
    {
      "type": "node",
      "id": 4307479815,
      "lat": 12.9186967,
      "lon": 77.6686885,
      "tags": {
        "amenity": "taxi",
        "auto_rickshaw": "yes",
        "motorcar": "no",
        "name": "Auto StandOvernite Express"
      }
    },
    {
      "type": "node",
      "id": 4350026190,
      "lat": 12.9264609,
      "lon": 77.678263,
      "tags": {
        "amenity": "bank",
        "brand": "State Bank of India",
        "brand:wikidata": "Q1340361",
        "brand:wikipedia": "en:State Bank of India",
        "name": "State Bank of India",
        "name:kn": "ಭಾರತೀಯ ಸ್ಟೇಟ್ ಬ್ಯಾಂಕ್",
        "short_name": "SBI",
        "website": "https://www.sbi.co.in"
      }
    },
    {
      "type": "node",
      "id": 4441692008,
      "lat": 12.9185476,
      "lon": 77.6708429,
      "tags": {
        "addr:city": "Bangalore",
        "addr:housenumber": "2nd Floor",
        "addr:postcode": "560035",
        "addr:street": "Chandra Mension, Bellandur, Sarjapur Main Road",
        "amenity": "clinic",
        "healthcare": "clinic",
        "name": "Sri Sai Dental & Medical Care",
        "phone": "+91-8041467774"
      }
    },
    {
      "type": "node",
      "id": 4441696317,
      "lat": 12.9188314,
      "lon": 77.6697997,
      "tags": {
        "addr:city": "Bangalore",
        "addr:housenumber": "No. 18/2A",
        "addr:postcode": "560102",
        "addr:street": "Ambalipura, Sarjapur Main Road",
        "amenity": "clinic",
        "healthcare": "clinic",
        "name": "Ittina Wellness Centre",
        "phone": "+91-80 4110 1898",
        "website": "https://www.ittinawellness.com/"
      }
    },
    {
      "type": "node",
      "id": 4441727139,
      "lat": 12.926508,
      "lon": 77.6698733,
      "tags": {
        "addr:city": "Bangalore",
        "addr:housenumber": "211",
        "addr:postcode": "560103",
        "addr:street": "Palm Ave, Green Glen Layout",
        "amenity": "clinic",
        "name": "Shaivi Homeopathic Clinic",
        "phone": "+91-97408 33100"
      }
    },
    {
      "type": "node",
      "id": 4441796157,
      "lat": 12.919686,
      "lon": 77.6670282,
      "tags": {
        "addr:city": "Bengaluru",
        "addr:housenumber": "No. 5, 1st Floor,",
        "addr:postcode": "560103",
        "addr:street": "Bellandur Gate, Sarjapura Road",
        "amenity": "dentist",
        "healthcare": "dentist",
        "name": "32Smiles Multispecialty Dental clinic",
        "phone": "+91-93434 33222",
        "website": "https://www.32smilesdentalclinics.com/"
      }
    },
    {
      "type": "node",
      "id": 4441825260,
      "lat": 12.9192616,
      "lon": 77.668534,
      "tags": {
        "addr:city": "Bangalore",
        "addr:housenumber": "955",
        "addr:postcode": "560102",
        "addr:street": "Ambalipura, Sarjapura Road",
        "amenity": "dentist",
        "healthcare": "dentist",
        "name": "Aditi Dental Care",
        "phone": "+91-96119 80263",
        "website": "http://www.aditidentalcare.com/"
      }
    },
    {
      "type": "node",
      "id": 4442597478,
      "lat": 12.9220379,
      "lon": 77.6720713,
      "tags": {
        "addr:city": "Bangalore",
        "addr:housenumber": "17/1",
        "addr:postcode": "560102",
        "addr:street": "ARB Complex, Ambalipura, Bellandur Gate, Bellandur Main Road Off Sarjapur Main Road",
        "amenity": "clinic",
        "name": "SK Eye and Skin Clinic",
        "phone": "+91-80 4121 4683",
        "website": "www.skeyeskin.com"
      }
    },
    {
      "type": "node",
      "id": 4445064651,
      "lat": 12.9220013,
      "lon": 77.6647833,
      "tags": {
        "addr:city": "Bengaluru",
        "addr:postcode": "560103",
        "addr:street": "Next to Sobha Garnet Road, Drapes View, Sarjapur Main Rd, Iblur Village, Bellandur",
        "name": "Manarch",
        "shop": "clothes"
      }
    },
    {
      "type": "node",
      "id": 4445069668,
      "lat": 12.9228426,
      "lon": 77.6640706,
      "tags": {
        "addr:city": "Bengaluru",
        "addr:postcode": "560102",
        "addr:street": "Sarjapur Main Rd, Iblur Village, Bellandur",
        "name": "Manjunath Store",
        "opening_hours": "09:00-18:00",
        "shop": "doityourself"
      }
    },
    {
      "type": "node",
      "id": 4445167354,
      "lat": 12.9179831,
      "lon": 77.6691258,
      "tags": {
        "addr:city": "Bangalore",
        "addr:postcode": "560034",
        "addr:street": "Sarjapur Main Rd, Bellandur",
        "amenity": "hospital",
        "healthcare": "hospital",
        "name": "Dr Rachna - Homeopathy",
        "phone": "+9195909 10963"
      }
    },
    {
      "type": "node",
      "id": 4445317622,
      "lat": 12.9232041,
      "lon": 77.663273,
      "tags": {
        "addr:city": "Bengaluru",
        "addr:postcode": "560102",
        "addr:street": "Sarjapur Main Rd, Iblur Village, Bellandur",
        "name": "Jugal Provision Store",
        "opening_hours": "07:00-22:00",
        "shop": "doityourself"
      }
    },
    {
      "type": "node",
      "id": 4445331469,
      "lat": 12.9215278,
      "lon": 77.6629091,
      "tags": {
        "addr:city": "Bengaluru",
        "addr:housenumber": "#40/2",
        "addr:postcode": "560034",
        "addr:street": "sarjapura main road, ibbalur",
        "name": "Quba Furniture And Interiors",
        "opening_hours": "10:00-22:00",
        "phone": "+91 99654 82211",
        "shop": "furniture"
      }
    },
    {
      "type": "node",
      "id": 4445391644,
      "lat": 12.9219607,
      "lon": 77.6627414,
      "tags": {
        "addr:city": "Bengaluru",
        "addr:postcode": "560103",
        "addr:street": "Agra, Service Rd, Iblur Village, Bellandur",
        "name": "Thoyyab Noorani Chicken And Mutton Shop",
        "phone": "+91 95909 47944",
        "shop": "butcher"
      }
    },
    {
      "type": "node",
      "id": 4445395246,
      "lat": 12.9220583,
      "lon": 77.6627522,
      "tags": {
        "addr:city": "Bengaluru",
        "addr:postcode": "560103",
        "addr:street": "Agra, Service Rd, Iblur Village, Bellandur",
        "name": "Soubagya Bakery",
        "shop": "bakery"
      }
    },
    {
      "type": "node",
      "id": 4445398750,
      "lat": 12.9221364,
      "lon": 77.6627275,
      "tags": {
        "addr:city": "Bengaluru",
        "addr:postcode": "560103",
        "addr:street": "Agra, Service Rd, Iblur Village, Bellandur",
        "name": "Aishwarya Departmental Store",
        "shop": "department_store"
      }
    },
    {
      "type": "node",
      "id": 4445406178,
      "lat": 12.9225373,
      "lon": 77.6626166,
      "tags": {
        "addr:city": "Bengaluru",
        "addr:postcode": "560103",
        "addr:street": "Iblur Village, Bellandur",
        "amenity": "place_of_worship",
        "name": "Good shepherd Assembly Church",
        "phone": "+91 98809 65989",
        "religion": "christian"
      }
    },
    {
      "type": "node",
      "id": 4445416932,
      "lat": 12.9223869,
      "lon": 77.6628083,
      "tags": {
        "addr:city": "Bengaluru",
        "addr:postcode": "560103",
        "addr:street": "Agara, Service Rd, Iblur Village, Bellandur",
        "name": "K.M.Mobile And Footwear",
        "opening_hours": "09:00-22:00",
        "shop": "mobile_phone"
      }
    },
    {
      "type": "node",
      "id": 4446988537,
      "lat": 12.9220988,
      "lon": 77.6636844,
      "tags": {
        "addr:city": "Bengaluru",
        "addr:housenumber": "39/8",
        "addr:postcode": "560102",
        "addr:street": "Near Sai Vidya Mandir, Srajapur Ring Road, Agara Post, Sarjapur Main Rd, Iblur",
        "name": "Shree Vinayaka Clearing Agency",
        "phone": "080 6534 7516",
        "shop": "dry_cleaning"
      }
    },
    {
      "type": "node",
      "id": 4446990610,
      "lat": 12.9217659,
      "lon": 77.663626,
      "tags": {
        "addr:city": "Bengaluru",
        "addr:postcode": "560102",
        "addr:street": "5th Main, Agara Post, Sarjapur Main Rd, Ibbaluru, Iblur Village, Bellandur",
        "name": "Sri Venkateswara Provisions Store",
        "phone": "+91 98805 83577",
        "shop": "department_store"
      }
    },
    {
      "type": "node",
      "id": 4447005712,
      "lat": 12.9215945,
      "lon": 77.6635241,
      "tags": {
        "addr:housenumber": "39/4",
        "addr:street": "Opp. Durga Residency, 5th Main Road,Ibblur village",
        "name": "Spring Onion Fashion India Private Limited",
        "phone": "080 2572 7041",
        "shop": "bag",
        "website": "www.springonionfashion.co"
      }
    },
    {
      "type": "node",
      "id": 4447006477,
      "lat": 12.9215701,
      "lon": 77.6633011,
      "tags": {
        "addr:city": "Bengaluru",
        "addr:housenumber": "3",
        "addr:postcode": "560102",
        "addr:street": "Agara Post, Sarjapur Main Rd, Iblur Village, Bellandur",
        "amenity": "school",
        "name": "High School",
        "operator": "Government Higher Primary School"
      }
    },
    {
      "type": "node",
      "id": 4447007624,
      "lat": 12.9212259,
      "lon": 77.66369,
      "tags": {
        "addr:city": "Bengaluru",
        "addr:housenumber": "39/14",
        "addr:postcode": "560103",
        "addr:street": "Sarjapur Main Rd, Iblur Village, Bellandur",
        "brand": "KTM",
        "brand:wikidata": "Q215657",
        "name": "UM Motorcycles",
        "opening_hours": "10:00-17:30",
        "phone": "+91 95919 31321",
        "shop": "motorcycle"
      }
    },
    {
      "type": "node",
      "id": 4447010309,
      "lat": 12.9218925,
      "lon": 77.6628632,
      "tags": {
        "addr:city": "Bengaluru",
        "addr:postcode": "560102",
        "addr:street": "Sarjapur Main Rd, Iblur Village, Bellandur,",
        "name": "Lavanya Flour Mill",
        "opening_hours": "07:00-19:00",
        "phone": "+91 90087 22225",
        "shop": "yes"
      }
    },
    {
      "type": "node",
      "id": 4447020518,
      "lat": 12.927496,
      "lon": 77.676602,
      "tags": {
        "addr:city": "bengaluru",
        "addr:housenumber": "1",
        "addr:postcode": "560037",
        "addr:street": "Kariyammana Agrahara Rd, Kadubeesanahalli, Marathahalli",
        "name": "Ayyappa Bakery",
        "name:kn": "ಅಯ್ಯಪ್ಪ ಬೇಕರಿ",
        "shop": "bakery"
      }
    },
    {
      "type": "node",
      "id": 4447404414,
      "lat": 12.9307806,
      "lon": 77.6734643,
      "tags": {
        "addr:city": "bengaluru",
        "addr:housenumber": "no 102/1",
        "addr:postcode": "530103",
        "addr:street": "behind new vengopala swamy temple opposite sonesta woods,bellandur",
        "leisure": "sports_centre",
        "name": "Play mania",
        "opening_hours": "06:00-00:00",
        "phone": "+919448790559",
        "sport": "multi",
        "website": "https://playo.co/"
      }
    },
    {
      "type": "node",
      "id": 4448806479,
      "lat": 12.9216216,
      "lon": 77.6638046,
      "tags": {
        "addr:city": "Bengaluru",
        "addr:housenumber": "39/13",
        "addr:postcode": "560034",
        "addr:street": "5th Main Road",
        "amenity": "restaurant",
        "cuisine": "regional",
        "delivery": "yes",
        "name": "Ira Residency",
        "opening_hours": "Mo-Su 07:00-23:00",
        "phone": "080 2572 7656",
        "smoking": "no",
        "takeaway": "yes"
      }
    },
    {
      "type": "node",
      "id": 4487192697,
      "lat": 12.9184459,
      "lon": 77.67082,
      "tags": {
        "addr:city": "Bangalore",
        "addr:housenumber": "Shop No.#64, #351",
        "addr:postcode": "560035",
        "addr:street": "Sarjapur Road",
        "name": "Sports Planet",
        "phone": "099004 54672",
        "shop": "sports"
      }
    },
    {
      "type": "node",
      "id": 4488020513,
      "lat": 12.9188287,
      "lon": 77.6703171,
      "tags": {
        "addr:city": "Bangalore",
        "addr:housenumber": "No.629,18/2 A",
        "addr:postcode": "560034",
        "addr:street": "Sarjapur Road",
        "name": "Uber Med Spa And Style Lounge",
        "opening_hours": "10:00-20:30",
        "phone": "+919900941003",
        "shop": "massage",
        "website": "www.uber.co.in"
      }
    },
    {
      "type": "node",
      "id": 4488023193,
      "lat": 12.9189071,
      "lon": 77.6699805,
      "tags": {
        "addr:city": "Bangalore",
        "addr:housenumber": "No.629",
        "addr:postcode": "560034",
        "addr:street": "Sarjapur Road",
        "name": "Cloud Nine Beauty Salon",
        "opening_hours": "08:00-21:00",
        "phone": "+919901111264",
        "shop": "beauty"
      }
    },
    {
      "type": "node",
      "id": 4488475265,
      "lat": 12.9275099,
      "lon": 77.6696368,
      "tags": {
        "addr:city": "Bangalore",
        "addr:housenumber": "164",
        "addr:postcode": "560103",
        "addr:street": "Green Glen Layout",
        "name": "Velvete Lounge Unisex Salon & Spa",
        "opening_hours": "10:00-21:00",
        "phone": "080 4148 3355",
        "shop": "beauty",
        "website": "velvetelounge.com"
      }
    },
    {
      "type": "node",
      "id": 4488531294,
      "lat": 12.9273563,
      "lon": 77.669025,
      "tags": {
        "addr:city": "Bangalore",
        "addr:housenumber": "Green Glen Layout, Opposite Sobha Jasmine",
        "addr:postcode": "560103",
        "addr:street": "Bellandur, Green Glen Layout",
        "leisure": "sports_centre",
        "name": "Snapfitness",
        "opening_hours": "5:30-22:00",
        "phone": "919164564007",
        "sport": "gymnastics",
        "website": "www.snapfitnessindia.com"
      }
    },
    {
      "type": "node",
      "id": 4489728550,
      "lat": 12.9225142,
      "lon": 77.6683721,
      "tags": {
        "addr:city": "Bangalore",
        "addr:postcode": "560034",
        "addr:street": "Outer Ring Road",
        "name": "Jawed Habib Hair And Beauty Parlour",
        "opening_hours": "10:00-20:00",
        "phone": "080-33724205",
        "shop": "beauty"
      }
    },
    {
      "type": "node",
      "id": 4489910335,
      "lat": 12.9228336,
      "lon": 77.6731286,
      "tags": {
        "addr:city": "Bangalore",
        "addr:housenumber": "Kothandaraman Complex",
        "addr:postcode": "560103",
        "addr:street": "Bellandur Main Road, Bellandur,",
        "name": "Style in 7 Wella",
        "opening_hours": "09:00-21:00",
        "phone": "9148100961",
        "shop": "beauty"
      }
    },
    {
      "type": "node",
      "id": 4701647531,
      "lat": 12.9249754,
      "lon": 77.6738018,
      "tags": {
        "check_date": "2022-11-08",
        "name": "Classic Furniture",
        "shop": "furniture"
      }
    },
    {
      "type": "node",
      "id": 4701649265,
      "lat": 12.9244799,
      "lon": 77.6741752,
      "tags": {
        "amenity": "bank",
        "brand": "State Bank of India",
        "brand:wikidata": "Q1340361",
        "brand:wikipedia": "en:State Bank of India",
        "name": "State Bank of India",
        "name:kn": "ಭಾರತೀಯ ಸ್ಟೇಟ್ ಬ್ಯಾಂಕ್",
        "short_name": "SBI",
        "website": "https://www.sbi.co.in"
      }
    },
    {
      "type": "node",
      "id": 5409621836,
      "lat": 12.9258549,
      "lon": 77.6757002,
      "tags": {
        "amenity": "restaurant",
        "level": "0,1",
        "name": "Thalassery restaurant",
        "name:kn": "ತಲಸ್ಸೆರಿ"
      }
    },
    {
      "type": "node",
      "id": 5409624225,
      "lat": 12.9233912,
      "lon": 77.6700871,
      "tags": {
        "amenity": "atm",
        "brand": "Andhra Bank",
        "brand:wikidata": "Q2003476",
        "operator": "Andhra Bank",
        "operator:wikidata": "Q2003476"
      }
    },
    {
      "type": "node",
      "id": 5409624227,
      "lat": 12.9251897,
      "lon": 77.6743698,
      "tags": {
        "amenity": "restaurant",
        "brand": "Empire",
        "cuisine": "indian",
        "delivery": "yes",
        "name": "Empire",
        "takeaway": "yes"
      }
    },
    {
      "type": "node",
      "id": 5643902787,
      "lat": 12.9242949,
      "lon": 77.6743216,
      "tags": {
        "addr:city": "Bengaluru",
        "amenity": "cafe",
        "name": "Cafe Thulp"
      }
    },
    {
      "type": "node",
      "id": 5643902788,
      "lat": 12.9244491,
      "lon": 77.6741821,
      "tags": {
        "addr:city": "Bengaluru",
        "amenity": "bank",
        "atm": "no",
        "brand": "Syndicate Bank",
        "brand:wikidata": "Q2004088",
        "brand:wikipedia": "en:Syndicate Bank",
        "drive_through": "no",
        "name": "Syndicate Bank",
        "name:kn": "ಸಿಂಡಿಕೇಟ್ ಬ್ಯಾಂಕ್"
      }
    },
    {
      "type": "node",
      "id": 5643902789,
      "lat": 12.9244335,
      "lon": 77.674335,
      "tags": {
        "addr:city": "Bengaluru",
        "name": "Indian Repair Shop",
        "shop": "car_repair"
      }
    },
    {
      "type": "node",
      "id": 5643902790,
      "lat": 12.9244772,
      "lon": 77.6741037,
      "tags": {
        "addr:city": "Bengaluru",
        "brand": "Kanti Sweets",
        "name": "Kanti Sweets",
        "payment:cards": "yes",
        "payment:cash": "yes",
        "shop": "confectionery",
        "wheelchair": "yes"
      }
    },
    {
      "type": "node",
      "id": 5778535535,
      "lat": 12.9200913,
      "lon": 77.6670747,
      "tags": {
        "name": "Louise Philip",
        "opening_hours": "Mo-Su 10:30-21:00",
        "phone": "080 88933969",
        "shop": "clothes",
        "website": "https://fabindia.com"
      }
    },
    {
      "type": "node",
      "id": 5778554420,
      "lat": 12.9192299,
      "lon": 77.6686508,
      "tags": {
        "amenity": "post_office",
        "brand": "Desk to Desk Courier & Cargo",
        "brand:short": "DTDC",
        "brand:wikidata": "Q55608802",
        "level": "-1",
        "name": "DTDC",
        "opening_hours": "Mo-Fr 09:00-20:00",
        "operator": "Desk to Desk Courier & Cargo",
        "operator:short": "DTDC",
        "operator:wikidata": "Q55608802",
        "website": "https://dtdc.com"
      }
    },
    {
      "type": "node",
      "id": 5803999911,
      "lat": 12.918758,
      "lon": 77.6699518,
      "tags": {
        "amenity": "bank",
        "atm": "yes",
        "brand": "State Bank of India",
        "brand:wikidata": "Q1340361",
        "brand:wikipedia": "en:State Bank of India",
        "drive_through": "no",
        "name": "State Bank of India",
        "name:kn": "ಭಾರತೀಯ ಸ್ಟೇಟ್ ಬ್ಯಾಂಕ್",
        "opening_hours": "Mo-Sa 10:00-16:00",
        "short_name": "SBI"
      }
    },
    {
      "type": "node",
      "id": 5807148430,
      "lat": 12.9187238,
      "lon": 77.6701231,
      "tags": {
        "brand": "Simpli Namdhari's",
        "diet:vegetarian": "only",
        "name": "Simpli Namdhari's",
        "organic": "only",
        "shop": "supermarket",
        "website": "https://www.simplinamdharis.com/"
      }
    },
    {
      "type": "node",
      "id": 5807148431,
      "lat": 12.9187002,
      "lon": 77.6701646,
      "tags": {
        "amenity": "cafe",
        "brand": "Cafe Coffee Day",
        "brand:wikidata": "Q5017235",
        "brand:wikipedia": "en:Café Coffee Day",
        "cuisine": "coffee_shop",
        "name": "Cafe Coffee Day",
        "name:kn": "ಕಫೆ ಕಾಫಿ ಡೇ",
        "takeaway": "yes"
      }
    },
    {
      "type": "node",
      "id": 5961355534,
      "lat": 12.9180423,
      "lon": 77.6715538,
      "tags": {
        "name": "Aiswarya Bakery and Sweets",
        "shop": "bakery"
      }
    },
    {
      "type": "node",
      "id": 5963686436,
      "lat": 12.92371,
      "lon": 77.6760295,
      "tags": {
        "name": "Sri Venkateshwara Bakery",
        "shop": "bakery"
      }
    },
    {
      "type": "node",
      "id": 6076100927,
      "lat": 12.921855,
      "lon": 77.6719953,
      "tags": {
        "amenity": "cafe",
        "name:en": "Udupi Saviruchi"
      }
    },
    {
      "type": "node",
      "id": 6076101984,
      "lat": 12.921609,
      "lon": 77.6719359,
      "tags": {
        "amenity": "bank"
      }
    },
    {
      "type": "node",
      "id": 6094890249,
      "lat": 12.9266553,
      "lon": 77.6696446,
      "tags": {
        "addr:city": "Bangalore",
        "addr:postcode": "560103",
        "addr:street": "Green Glen Layout",
        "amenity": "bank",
        "atm": "yes",
        "brand": "UCO Bank",
        "brand:wikidata": "Q2005310",
        "drive_through": "no",
        "name": "UCO Bank",
        "opening_hours": "Mo-Su 09:30-15:30",
        "website": "https://www.ucobank.com"
      }
    },
    {
      "type": "node",
      "id": 6094890250,
      "lat": 12.9280908,
      "lon": 77.6722201,
      "tags": {
        "addr:city": "Bangalore",
        "addr:postcode": "560103",
        "addr:street": "Green Glen Layout",
        "amenity": "place_of_worship",
        "name": "Sai Baba Temple",
        "name:kn": "ಸಾಯಿಬಾಬಾ ದೇವಸ್ಥಾನ",
        "religion": "hindu"
      }
    },
    {
      "type": "node",
      "id": 6094890251,
      "lat": 12.9274741,
      "lon": 77.6719868,
      "tags": {
        "leisure": "park",
        "name": "Children's Park"
      }
    },
    {
      "type": "node",
      "id": 6204931244,
      "lat": 12.9186447,
      "lon": 77.6707111,
      "tags": {
        "amenity": "restaurant",
        "name": "Moritz"
      }
    },
    {
      "type": "node",
      "id": 6349331870,
      "lat": 12.921317,
      "lon": 77.6634399,
      "tags": {
        "amenity": "school",
        "isced:level": "2",
        "name": "GHPS Ibaloor",
        "name:kn": "ಸರ್ಕಾರಿ ಹಿರಿಯ ಪ್ರಾಥಮಿಕ ಶಾಲೆ ಇಬಲೂರು",
        "operator": "Department of Education",
        "operator:type": "government",
        "school": "primary"
      }
    },
    {
      "type": "node",
      "id": 6569023745,
      "lat": 12.9258697,
      "lon": 77.6723166,
      "tags": {
        "addr:city": "Bengaluru",
        "addr:country": "IN",
        "addr:housenumber": "78/9",
        "addr:postcode": "560103",
        "addr:street": "Outer Ring Road",
        "amenity": "coworking_space",
        "brand": "WeWork",
        "brand:wikidata": "Q19995004",
        "fee": "yes",
        "name": "WeWork",
        "office": "coworking",
        "operator": "WeWork",
        "website": "https://www.wework.com/buildings/vaishnavi-signature--bengaluru--Karnataka"
      }
    },
    {
      "type": "node",
      "id": 6749299604,
      "lat": 12.9281691,
      "lon": 77.671773,
      "tags": {
        "name": "DS Supermarket",
        "shop": "supermarket"
      }
    },
    {
      "type": "node",
      "id": 6761308488,
      "lat": 12.9255829,
      "lon": 77.6762661,
      "tags": {
        "addr:postcode": "560103",
        "addr:street": "Bellandur Main Road",
        "amenity": "restaurant",
        "cuisine": "indian",
        "indoor_seating": "yes",
        "name": "Udupi Athithiya",
        "outdoor_seating": "yes"
      }
    },
    {
      "type": "node",
      "id": 7074451473,
      "lat": 12.9201051,
      "lon": 77.6668315,
      "tags": {
        "addr:city": "Bengaluru",
        "addr:housenumber": "Shop No. 4/3/1",
        "addr:postcode": "560102",
        "addr:street": "Opp Trinity Acres and Woods, Sarjapur Main Rd, Bellandur",
        "name": "Cycle World",
        "opening_hours": "Mo-Su 10:00-21:00",
        "operator": "Cycle World",
        "payment:cash": "yes",
        "payment:mastercard": "yes",
        "payment:visa_debit": "yes",
        "shop": "bicycle"
      }
    },
    {
      "type": "node",
      "id": 9797990036,
      "lat": 12.9247865,
      "lon": 77.6747506,
      "tags": {
        "name": "Cera Ceramics",
        "shop": "hardware"
      }
    },
    {
      "type": "node",
      "id": 9828595270,
      "lat": 12.9233117,
      "lon": 77.6697031,
      "tags": {
        "amenity": "restaurant",
        "cuisine": "arab",
        "name": "Zaatar"
      }
    },
    {
      "type": "node",
      "id": 9830902373,
      "lat": 12.919159,
      "lon": 77.6688467,
      "tags": {
        "air_conditioning": "yes",
        "brand": "Reliance Digital",
        "brand:wikidata": "Q7311012",
        "check_date": "2025-02-12",
        "name": "Reliance Digital",
        "payment:cash": "yes",
        "payment:mastercard": "yes",
        "payment:visa": "yes",
        "second_hand": "no",
        "shop": "electronics",
        "source": "survey"
      }
    },
    {
      "type": "node",
      "id": 9830902374,
      "lat": 12.9192999,
      "lon": 77.6689075,
      "tags": {
        "brand": "Big Bazaar",
        "brand:wikidata": "Q3631008",
        "brand:wikipedia": "en:Big Bazaar",
        "name": "Big Bazaar",
        "name:kn": "ಬಿಗ್ ಬಜಾರ್",
        "opening_hours": "Mo-Su 10:00-20:00",
        "payment:cash": "yes",
        "payment:credit_cards": "yes",
        "payment:visa": "yes",
        "phone": "07795976949",
        "shop": "supermarket",
        "website": "https://bigbazaar.in"
      }
    },
    {
      "type": "node",
      "id": 9830902380,
      "lat": 12.920196,
      "lon": 77.6670676,
      "tags": {
        "amenity": "restaurant",
        "cuisine": "italian",
        "name": "Little Italy"
      }
    },
    {
      "type": "node",
      "id": 9983403595,
      "lat": 12.9244488,
      "lon": 77.6740858,
      "tags": {
        "name": "Track & Trail",
        "shop": "bicycle"
      }
    },
    {
      "type": "node",
      "id": 10130328215,
      "lat": 12.9221927,
      "lon": 77.6651955,
      "tags": {
        "name": "Country Grocer",
        "shop": "supermarket"
      }
    },
    {
      "type": "node",
      "id": 10130333822,
      "lat": 12.9225987,
      "lon": 77.6652891,
      "tags": {
        "name": "Star",
        "shop": "motorcycle_repair"
      }
    },
    {
      "type": "node",
      "id": 10137293053,
      "lat": 12.9263862,
      "lon": 77.6766068,
      "tags": {
        "amenity": "hospital",
        "healthcare": "hospital",
        "name": "Apollo Pharmacy"
      }
    },
    {
      "type": "node",
      "id": 10142465410,
      "lat": 12.922875,
      "lon": 77.6741592,
      "tags": {
        "shop": "medical_supply"
      }
    },
    {
      "type": "node",
      "id": 10142465412,
      "lat": 12.922875,
      "lon": 77.6742457,
      "tags": {
        "shop": "yes"
      }
    },
    {
      "type": "node",
      "id": 10174066606,
      "lat": 12.9239689,
      "lon": 77.6714984,
      "tags": {
        "air_conditioning": "yes",
        "amenity": "cafe",
        "brand": "Starbucks",
        "brand:wikidata": "Q37158",
        "check_date": "2025-02-12",
        "cuisine": "coffee_shop",
        "diet:vegetarian": "yes",
        "indoor_seating": "yes",
        "name": "Starbucks",
        "official_name": "Starbucks Coffee",
        "outdoor_seating": "no",
        "payment:cash": "yes",
        "payment:mastercard": "yes",
        "payment:visa": "yes",
        "smoking": "no",
        "source": "survey",
        "takeaway": "yes"
      }
    },
    {
      "type": "node",
      "id": 10248469637,
      "lat": 12.9228551,
      "lon": 77.6757303,
      "tags": {
        "addr:housenumber": "Ground Floor",
        "addr:street": "Bellanduru Main Road",
        "male": "yes",
        "name": "Beardo",
        "opening_hours": "Mo-Su 09:00-21:00",
        "payment:cash": "yes",
        "payment:paytm": "yes",
        "shop": "hairdresser"
      }
    },
    {
      "type": "node",
      "id": 10248469638,
      "lat": 12.9229439,
      "lon": 77.6757363,
      "tags": {
        "amenity": "marketplace"
      }
    },
    {
      "type": "node",
      "id": 10994468205,
      "lat": 12.9244737,
      "lon": 77.6672543,
      "tags": {
        "access": "private",
        "amenity": "parking_entrance",
        "parking": "underground"
      }
    },
    {
      "type": "node",
      "id": 11003344430,
      "lat": 12.9244765,
      "lon": 77.6668659,
      "tags": {
        "amenity": "restaurant",
        "name": "Petromax Lights"
      }
    },
    {
      "type": "node",
      "id": 11034023532,
      "lat": 12.9213881,
      "lon": 77.6686263,
      "tags": {
        "amenity": "parking_entrance",
        "parking": "underground"
      }
    },
    {
      "type": "node",
      "id": 11034023534,
      "lat": 12.9217946,
      "lon": 77.6698299,
      "tags": {
        "amenity": "parking_entrance",
        "parking": "underground"
      }
    },
    {
      "type": "node",
      "id": 11232914996,
      "lat": 12.9255168,
      "lon": 77.674516,
      "tags": {
        "amenity": "parking_entrance",
        "parking": "underground"
      }
    },
    {
      "type": "node",
      "id": 11232915010,
      "lat": 12.9260148,
      "lon": 77.6748607,
      "tags": {
        "amenity": "parking_entrance",
        "parking": "underground"
      }
    },
    {
      "type": "node",
      "id": 11234065000,
      "lat": 12.9269834,
      "lon": 77.6688042,
      "tags": {
        "amenity": "parking_entrance",
        "parking": "underground"
      }
    },
    {
      "type": "node",
      "id": 11234065006,
      "lat": 12.9267455,
      "lon": 77.6687425,
      "tags": {
        "amenity": "parking_entrance",
        "parking": "underground"
      }
    },
    {
      "type": "node",
      "id": 11234065362,
      "lat": 12.9240907,
      "lon": 77.6654555,
      "tags": {
        "amenity": "post_box",
        "operator": "India Post",
        "operator:wikidata": "Q3519720",
        "post_box:type": "lamp"
      }
    },
    {
      "type": "node",
      "id": 11234174826,
      "lat": 12.9258445,
      "lon": 77.66963,
      "tags": {
        "amenity": "cafe",
        "cuisine": "coffee_shop",
        "name": "Coffee Brewery"
      }
    },
    {
      "type": "node",
      "id": 11263815425,
      "lat": 12.9248383,
      "lon": 77.6674733,
      "tags": {
        "access": "private",
        "amenity": "parking_entrance",
        "parking": "underground"
      }
    },
    {
      "type": "node",
      "id": 11298200328,
      "lat": 12.9284859,
      "lon": 77.6718284,
      "tags": {
        "amenity": "ice_cream",
        "name": "Anapurna Ice Creams"
      }
    },
    {
      "type": "node",
      "id": 11375080982,
      "lat": 12.919713,
      "lon": 77.6651993,
      "tags": {
        "access": "customers",
        "amenity": "parking_entrance",
        "parking": "underground"
      }
    },
    {
      "type": "node",
      "id": 11453105181,
      "lat": 12.9223751,
      "lon": 77.6682289,
      "tags": {
        "access": "customers",
        "amenity": "parking_entrance",
        "parking": "underground"
      }
    },
    {
      "type": "node",
      "id": 11524106713,
      "lat": 12.9239678,
      "lon": 77.6673392,
      "tags": {
        "access": "private",
        "amenity": "parking_entrance",
        "parking": "underground"
      }
    },
    {
      "type": "node",
      "id": 11524106718,
      "lat": 12.9231359,
      "lon": 77.6672743,
      "tags": {
        "amenity": "fast_food",
        "diet:vegetarian": "yes",
        "name": "Hot Chips"
      }
    },
    {
      "type": "node",
      "id": 11524214918,
      "lat": 12.9214606,
      "lon": 77.6707259,
      "tags": {
        "access": "private",
        "amenity": "parking_entrance",
        "parking": "underground"
      }
    },
    {
      "type": "node",
      "id": 11524214924,
      "lat": 12.9214989,
      "lon": 77.6703679,
      "tags": {
        "access": "private",
        "amenity": "parking_entrance",
        "parking": "underground"
      }
    },
    {
      "type": "node",
      "id": 11640105917,
      "lat": 12.9191136,
      "lon": 77.670829,
      "tags": {
        "amenity": "fast_food",
        "brand": "Subway",
        "brand:wikidata": "Q244457",
        "check_date": "2024-02-19",
        "cuisine": "sandwich",
        "diet:vegetarian": "yes",
        "drive_through": "no",
        "name": "Subway",
        "payment:cash": "yes",
        "payment:credit_cards": "yes",
        "payment:debit_cards": "yes",
        "takeaway": "yes",
        "wheelchair": "no"
      }
    },
    {
      "type": "node",
      "id": 11640105918,
      "lat": 12.9190676,
      "lon": 77.6709484,
      "tags": {
        "check_date": "2024-02-19",
        "name": "Wash Inn",
        "shop": "laundry"
      }
    },
    {
      "type": "node",
      "id": 11640105920,
      "lat": 12.9190532,
      "lon": 77.6709872,
      "tags": {
        "amenity": "restaurant",
        "check_date": "2024-02-19",
        "name": "Gongura Grand"
      }
    },
    {
      "type": "node",
      "id": 11640105921,
      "lat": 12.9190369,
      "lon": 77.6710233,
      "tags": {
        "check_date": "2024-02-19",
        "name": "The Eye Needs",
        "shop": "optician"
      }
    },
    {
      "type": "node",
      "id": 11640138816,
      "lat": 12.9199984,
      "lon": 77.6672173,
      "tags": {
        "check_date": "2024-02-19",
        "name": "Aishwarya Hypercity",
        "shop": "department_store"
      }
    },
    {
      "type": "node",
      "id": 11640900879,
      "lat": 12.918589,
      "lon": 77.6705844,
      "tags": {
        "level": "-1",
        "shop": "stationery"
      }
    },
    {
      "type": "node",
      "id": 11640900886,
      "lat": 12.9190996,
      "lon": 77.6711806,
      "tags": {
        "access": "private",
        "amenity": "parking_entrance",
        "parking": "underground"
      }
    },
    {
      "type": "node",
      "id": 11640900889,
      "lat": 12.9194969,
      "lon": 77.6713344,
      "tags": {
        "access": "private",
        "amenity": "parking_entrance",
        "parking": "underground"
      }
    },
    {
      "type": "node",
      "id": 11640900901,
      "lat": 12.9198758,
      "lon": 77.6721007,
      "tags": {
        "access": "private",
        "amenity": "parking_entrance",
        "parking": "underground"
      }
    },
    {
      "type": "node",
      "id": 11752296520,
      "lat": 12.9188259,
      "lon": 77.6701594,
      "tags": {
        "amenity": "restaurant",
        "check_date": "2024-03-22",
        "level": "1",
        "name": "Absolute Barbecues"
      }
    },
    {
      "type": "node",
      "id": 11835382817,
      "lat": 12.9217918,
      "lon": 77.6653251,
      "tags": {
        "amenity": "restaurant",
        "check_date": "2025-07-05",
        "name": "The Modak"
      }
    },
    {
      "type": "node",
      "id": 11836711067,
      "lat": 12.9252358,
      "lon": 77.6744389,
      "tags": {
        "name": "Aaroh Thai Spa",
        "shop": "massage"
      }
    },
    {
      "type": "node",
      "id": 11836719419,
      "lat": 12.92458,
      "lon": 77.6731134,
      "tags": {
        "amenity": "fast_food",
        "brand": "Subway",
        "brand:wikidata": "Q244457",
        "check_date": "2025-05-31",
        "cuisine": "sandwich",
        "name": "Subway",
        "payment:cash": "yes",
        "payment:mastercard": "yes",
        "payment:visa": "yes",
        "source": "survey",
        "takeaway": "yes",
        "wheelchair": "no"
      }
    },
    {
      "type": "node",
      "id": 11836739201,
      "lat": 12.9245134,
      "lon": 77.672771,
      "tags": {
        "amenity": "restaurant",
        "check_date": "2025-02-12",
        "name": "Nagarjuna",
        "name:kn": "ನಾಗಾರ್ಜುನ",
        "payment:cash": "yes",
        "payment:mastercard": "yes",
        "payment:visa": "yes",
        "source": "survey"
      }
    },
    {
      "type": "node",
      "id": 11868813793,
      "lat": 12.9256138,
      "lon": 77.6763208,
      "tags": {
        "leisure": "fitness_centre",
        "name": "Gold Star fitness"
      }
    },
    {
      "type": "node",
      "id": 11897230614,
      "lat": 12.9268295,
      "lon": 77.6698538,
      "tags": {
        "brand": "Lenskart",
        "brand:wikidata": "Q17068753",
        "name": "Lenskart",
        "shop": "optician"
      }
    },
    {
      "type": "node",
      "id": 11897230619,
      "lat": 12.9259251,
      "lon": 77.6698885,
      "tags": {
        "amenity": "pharmacy",
        "healthcare": "pharmacy"
      }
    },
    {
      "type": "node",
      "id": 11897230622,
      "lat": 12.925163,
      "lon": 77.6692056,
      "tags": {
        "amenity": "parking_entrance",
        "parking": "underground"
      }
    },
    {
      "type": "node",
      "id": 11897868734,
      "lat": 12.9265205,
      "lon": 77.6696737,
      "tags": {
        "check_date": "2024-05-11",
        "name": "Brothers Chemist",
        "shop": "chemist"
      }
    },
    {
      "type": "node",
      "id": 11903122243,
      "lat": 12.9236999,
      "lon": 77.6725003,
      "tags": {
        "name": "The Eye Foundation",
        "shop": "optician"
      }
    },
    {
      "type": "node",
      "id": 11903122244,
      "lat": 12.9231919,
      "lon": 77.6712011,
      "tags": {
        "amenity": "restaurant",
        "indoor_seating": "yes",
        "name": "Susswadu",
        "outdoor_seating": "no"
      }
    },
    {
      "type": "node",
      "id": 11903124383,
      "lat": 12.9242898,
      "lon": 77.6737254,
      "tags": {
        "air_conditioning": "yes",
        "amenity": "restaurant",
        "indoor_seating": "yes",
        "name": "Mani's Dum Biriyani",
        "outdoor_seating": "no"
      }
    },
    {
      "type": "node",
      "id": 11918002747,
      "lat": 12.9246269,
      "lon": 77.667107,
      "tags": {
        "amenity": "parking_entrance",
        "parking": "underground"
      }
    },
    {
      "type": "node",
      "id": 11962404393,
      "lat": 12.9191947,
      "lon": 77.6686389,
      "tags": {
        "amenity": "restaurant",
        "email": "customercare@shariefbhai.com",
        "name": "Sharief Bhai's",
        "phone": "+91 8095752222",
        "website": "https://www.shariefbhai.com/"
      }
    },
    {
      "type": "node",
      "id": 11962404394,
      "lat": 12.9187149,
      "lon": 77.6700787,
      "tags": {
        "amenity": "fast_food",
        "cuisine": "pizza",
        "name": "Nomad Pizza",
        "website": "https://nomadpizza.in/"
      }
    },
    {
      "type": "node",
      "id": 11962404401,
      "lat": 12.9198541,
      "lon": 77.6674956,
      "tags": {
        "amenity": "post_office",
        "brand": "Blue Dart Express",
        "brand:short": "Blue Dart",
        "brand:wikidata": "Q54621493",
        "operator": "Blue Dart Express",
        "operator:short": "Blue Dart",
        "operator:wikidata": "Q54621493"
      }
    },
    {
      "type": "node",
      "id": 11962404402,
      "lat": 12.9197456,
      "lon": 77.6674573,
      "tags": {
        "name": "Aquafine",
        "shop": "pet"
      }
    },
    {
      "type": "node",
      "id": 11962404403,
      "lat": 12.9197456,
      "lon": 77.6674893,
      "tags": {
        "amenity": "pharmacy",
        "healthcare": "pharmacy",
        "name": "Sundha Medicals"
      }
    },
    {
      "type": "node",
      "id": 11962404413,
      "lat": 12.9199338,
      "lon": 77.6673764,
      "tags": {
        "amenity": "parking_entrance",
        "parking": "underground"
      }
    },
    {
      "type": "node",
      "id": 12106298501,
      "lat": 12.9259496,
      "lon": 77.6778517,
      "tags": {
        "amenity": "restaurant",
        "cuisine": "indian",
        "name": "Upahar Kerala Mess"
      }
    },
    {
      "type": "node",
      "id": 12459144694,
      "lat": 12.9273127,
      "lon": 77.6689872,
      "tags": {
        "amenity": "fast_food",
        "brand": "Domino's",
        "brand:wikidata": "Q839466",
        "cuisine": "pizza",
        "name": "Domino's",
        "takeaway": "yes"
      }
    },
    {
      "type": "node",
      "id": 12459144695,
      "lat": 12.9271437,
      "lon": 77.6691386,
      "tags": {
        "amenity": "fast_food",
        "cuisine": "burger;wings;chicken",
        "delivery": "yes",
        "name": "Big Guys: Wings & More",
        "takeaway": "yes"
      }
    },
    {
      "type": "node",
      "id": 12459144700,
      "lat": 12.9273196,
      "lon": 77.6696411,
      "tags": {
        "check_date": "2025-07-05",
        "name": "KPN Fresh Supermarket",
        "shop": "supermarket"
      }
    },
    {
      "type": "node",
      "id": 12459183605,
      "lat": 12.9259303,
      "lon": 77.6699517,
      "tags": {
        "amenity": "post_office",
        "brand": "Desk to Desk Courier & Cargo",
        "brand:short": "DTDC",
        "brand:wikidata": "Q55608802",
        "operator": "Desk to Desk Courier & Cargo",
        "operator:short": "DTDC",
        "operator:wikidata": "Q55608802"
      }
    },
    {
      "type": "node",
      "id": 12459183643,
      "lat": 12.9281325,
      "lon": 77.6692427,
      "tags": {
        "name": "Green Land Supermarket",
        "shop": "supermarket"
      }
    },
    {
      "type": "node",
      "id": 12580943044,
      "lat": 12.9215982,
      "lon": 77.6679952,
      "tags": {
        "brand": "Yamaha",
        "brand:wikidata": "Q158888",
        "check_date": "2025-02-12",
        "name": "Yamaha",
        "shop": "motorcycle",
        "source": "survey",
        "wheelchair": "yes"
      }
    },
    {
      "type": "node",
      "id": 12652122169,
      "lat": 12.9250335,
      "lon": 77.6666247,
      "tags": {
        "amenity": "childcare",
        "name": "May Flower Montessori School"
      }
    },
    {
      "type": "node",
      "id": 12671184029,
      "lat": 12.9261578,
      "lon": 77.6761827,
      "tags": {
        "brand": "Xiaomi",
        "brand:wikidata": "Q1636958",
        "name": "Xiaomi",
        "shop": "mobile_phone"
      }
    },
    {
      "type": "node",
      "id": 12696023085,
      "lat": 12.9229568,
      "lon": 77.6706952,
      "tags": {
        "amenity": "post_box",
        "operator": "India Post",
        "operator:wikidata": "Q3519720"
      }
    },
    {
      "type": "node",
      "id": 12696023087,
      "lat": 12.925256,
      "lon": 77.6698302,
      "tags": {
        "amenity": "veterinary",
        "name": "Bangalore Pet Hospital"
      }
    },
    {
      "type": "node",
      "id": 12696023088,
      "lat": 12.9259207,
      "lon": 77.6698329,
      "tags": {
        "amenity": "fast_food",
        "cuisine": "juice",
        "name": "Sri Basaveshwara Sugar Cane"
      }
    },
    {
      "type": "node",
      "id": 12696023089,
      "lat": 12.9263167,
      "lon": 77.6698375,
      "tags": {
        "name": "Chef Bakers",
        "shop": "bakery"
      }
    },
    {
      "type": "node",
      "id": 12696023090,
      "lat": 12.9267278,
      "lon": 77.6696699,
      "tags": {
        "amenity": "ice_cream",
        "brand": "Polar Bear",
        "brand:wikidata": "Q124374249",
        "delivery": "yes",
        "name": "Polar Bear",
        "takeaway": "yes"
      }
    },
    {
      "type": "node",
      "id": 12696023091,
      "lat": 12.9269827,
      "lon": 77.6699187,
      "tags": {
        "leisure": "fitness_centre",
        "name": "Apple Fitness",
        "sport": "fitness"
      }
    },
    {
      "type": "node",
      "id": 12696023092,
      "lat": 12.9268337,
      "lon": 77.6696645,
      "tags": {
        "beauty": "nails",
        "name": "Nailashes",
        "shop": "beauty"
      }
    },
    {
      "type": "node",
      "id": 12696023093,
      "lat": 12.92735,
      "lon": 77.669401,
      "tags": {
        "beauty": "nails",
        "name": "Nail Nexus",
        "shop": "beauty"
      }
    },
    {
      "type": "node",
      "id": 12696023094,
      "lat": 12.9272971,
      "lon": 77.6692401,
      "tags": {
        "amenity": "restaurant",
        "name": "Sri Krishna Bhog"
      }
    },
    {
      "type": "node",
      "id": 12696023095,
      "lat": 12.9273552,
      "lon": 77.6692361,
      "tags": {
        "amenity": "fast_food",
        "cuisine": "pizza",
        "name": "Olio",
        "outdoor_seating": "no"
      }
    },
    {
      "type": "node",
      "id": 12696023096,
      "lat": 12.927435,
      "lon": 77.6692361,
      "tags": {
        "amenity": "restaurant",
        "name": "Shahi Paneer"
      }
    },
    {
      "type": "node",
      "id": 12872594926,
      "lat": 12.9268509,
      "lon": 77.6789349,
      "tags": {
        "amenity": "restaurant",
        "indoor_seating": "yes",
        "name": "New Ambur Hot Biriyani",
        "outdoor_seating": "no"
      }
    },
    {
      "type": "node",
      "id": 12979176590,
      "lat": 12.9218214,
      "lon": 77.6653489,
      "tags": {
        "addr:floor": "-1",
        "amenity": "pharmacy",
        "check_date": "2025-09-28",
        "healthcare": "pharmacy",
        "name": "Ramdev Medicals",
        "phone": "+91 77608 22426",
        "wheelchair": "no"
      }
    },
    {
      "type": "node",
      "id": 12979176591,
      "lat": 12.9219531,
      "lon": 77.665313,
      "tags": {
        "addr:floor": "G",
        "air_conditioning": "no",
        "amenity": "cafe",
        "bar": "no",
        "check_date": "2025-09-28",
        "cuisine": "indian",
        "internet_access": "no",
        "level": "0",
        "name": "Cafe Amudham",
        "opening_hours": "00:00-01:00,06:30-24:00",
        "outdoor_seating": "yes",
        "payment:cash": "yes",
        "wheelchair": "no"
      }
    },
    {
      "type": "node",
      "id": 12979176592,
      "lat": 12.9222235,
      "lon": 77.665221,
      "tags": {
        "amenity": "fast_food",
        "check_date": "2025-07-05",
        "cuisine": "pizza",
        "name": "Pizza Galleria"
      }
    },
    {
      "type": "node",
      "id": 12979176593,
      "lat": 12.9221549,
      "lon": 77.6652196,
      "tags": {
        "check_date": "2025-07-05",
        "leisure": "fitness_centre",
        "name": "Fitness Republic"
      }
    },
    {
      "type": "node",
      "id": 12979176594,
      "lat": 12.9223314,
      "lon": 77.6652505,
      "tags": {
        "check_date": "2025-07-05",
        "name": "A. M. Enterprises",
        "shop": "greengrocer"
      }
    },
    {
      "type": "node",
      "id": 12979256446,
      "lat": 12.9273816,
      "lon": 77.6691973,
      "tags": {
        "check_date": "2025-07-05",
        "name": "Royal K P Dry Cleaners",
        "shop": "dry_cleaning"
      }
    },
    {
      "type": "node",
      "id": 12979256448,
      "lat": 12.927443,
      "lon": 77.6694042,
      "tags": {
        "check_date": "2025-07-05",
        "name": "Maher Botique",
        "shop": "tailor"
      }
    },
    {
      "type": "node",
      "id": 12979256449,
      "lat": 12.9274662,
      "lon": 77.6693926,
      "tags": {
        "amenity": "kindergarten",
        "check_date": "2025-07-05",
        "name": "Little Elly"
      }
    },
    {
      "type": "node",
      "id": 12979340852,
      "lat": 12.9273175,
      "lon": 77.6690879,
      "tags": {
        "amenity": "cafe",
        "check_date": "2025-07-05",
        "name": "Happy Endings"
      }
    },
    {
      "type": "node",
      "id": 12979349715,
      "lat": 12.9274757,
      "lon": 77.6717511,
      "tags": {
        "amenity": "restaurant",
        "check_date": "2025-07-05",
        "name": "A2B"
      }
    },
    {
      "type": "node",
      "id": 12979349716,
      "lat": 12.9274267,
      "lon": 77.6713421,
      "tags": {
        "amenity": "pharmacy",
        "brand": "MedPlus",
        "brand:wikidata": "Q65684234",
        "check_date": "2025-07-05",
        "healthcare": "pharmacy",
        "name": "MedPlus"
      }
    },
    {
      "type": "node",
      "id": 12979349717,
      "lat": 12.9273521,
      "lon": 77.6708574,
      "tags": {
        "check_date": "2025-07-05",
        "name": "Dr. Fabric",
        "shop": "dry_cleaning"
      }
    },
    {
      "type": "node",
      "id": 12979349718,
      "lat": 12.9273544,
      "lon": 77.6705606,
      "tags": {
        "amenity": "cafe",
        "brand": "Chaayos",
        "brand:wikidata": "Q117235235",
        "check_date": "2025-07-05",
        "cuisine": "tea",
        "name": "Chaayos",
        "takeaway": "yes"
      }
    },
    {
      "type": "node",
      "id": 12979349719,
      "lat": 12.9271366,
      "lon": 77.6700573,
      "tags": {
        "check_date": "2025-07-05",
        "clothes": "underwear",
        "name": "Preferred Store",
        "shop": "clothes"
      }
    },
    {
      "type": "node",
      "id": 12979349720,
      "lat": 12.9270937,
      "lon": 77.669922,
      "tags": {
        "check_date": "2025-07-05",
        "leisure": "sports_hall",
        "name": "Cult.fit"
      }
    },
    {
      "type": "node",
      "id": 12988084300,
      "lat": 12.9274003,
      "lon": 77.6706737,
      "tags": {
        "name": "Ratnadeep",
        "shop": "supermarket"
      }
    },
    {
      "type": "node",
      "id": 13063788973,
      "lat": 12.923879,
      "lon": 77.6728478,
      "tags": {
        "amenity": "bank",
        "brand": "Yes Bank",
        "brand:wikidata": "Q2040394",
        "name": "Yes Bank"
      }
    },
    {
      "type": "node",
      "id": 13063799871,
      "lat": 12.9252983,
      "lon": 77.6745172,
      "tags": {
        "amenity": "restaurant",
        "name": "Aroma Restaurant"
      }
    },
    {
      "type": "node",
      "id": 13063807386,
      "lat": 12.9238621,
      "lon": 77.6727962,
      "tags": {
        "amenity": "bank",
        "brand": "HDFC Bank",
        "brand:wikidata": "Q631047",
        "name": "HDFC Bank",
        "short_name": "HDFC"
      }
    },
    {
      "type": "node",
      "id": 13063807566,
      "lat": 12.9259316,
      "lon": 77.675759,
      "tags": {
        "leisure": "fitness_centre",
        "name": "Iconic Fitness"
      }
    },
    {
      "type": "node",
      "id": 13063810713,
      "lat": 12.9259883,
      "lon": 77.6759119,
      "tags": {
        "amenity": "restaurant",
        "name": "Malabar Kitchen"
      }
    },
    {
      "type": "node",
      "id": 13063818151,
      "lat": 12.9260364,
      "lon": 77.6761654,
      "tags": {
        "name": "GMR Juice Shop",
        "shop": "beverages"
      }
    },
    {
      "type": "node",
      "id": 13063821198,
      "lat": 12.9212531,
      "lon": 77.6635382,
      "tags": {
        "brand": "Honda",
        "brand:wikidata": "Q9584",
        "name": "Ananda Honda",
        "shop": "motorcycle"
      }
    },
    {
      "type": "node",
      "id": 13063821561,
      "lat": 12.9245384,
      "lon": 77.6729075,
      "tags": {
        "name": "Let's Relax Thai Spa",
        "shop": "massage"
      }
    },
    {
      "type": "node",
      "id": 13063827104,
      "lat": 12.9241579,
      "lon": 77.6733615,
      "tags": {
        "name": "Ather",
        "shop": "motorcycle"
      }
    },
    {
      "type": "node",
      "id": 13063829460,
      "lat": 12.9212255,
      "lon": 77.6637104,
      "tags": {
        "brand": "Bajaj",
        "brand:wikidata": "Q10910065",
        "name": "Amba Bajaj",
        "shop": "motorcycle"
      }
    },
    {
      "type": "node",
      "id": 13063830115,
      "lat": 12.9210217,
      "lon": 77.6652526,
      "tags": {
        "amenity": "fast_food",
        "name": "Kolkata Daily Food Restaurant"
      }
    },
    {
      "type": "node",
      "id": 13063830116,
      "lat": 12.9242936,
      "lon": 77.6737685,
      "tags": {
        "air_conditioning": "yes",
        "amenity": "restaurant",
        "diet:vegetarian": "yes",
        "indoor_seating": "yes",
        "name": "Leon's",
        "outdoor_seating": "no",
        "wheelchair": "no"
      }
    },
    {
      "type": "node",
      "id": 13063831056,
      "lat": 12.925896,
      "lon": 77.6757537,
      "tags": {
        "amenity": "fast_food",
        "brand": "Burger King",
        "brand:wikidata": "Q177054",
        "cuisine": "burger",
        "name": "Burger King",
        "takeaway": "yes"
      }
    },
    {
      "type": "node",
      "id": 13124675034,
      "lat": 12.9210987,
      "lon": 77.6747058,
      "tags": {
        "access": "private",
        "amenity": "parking_entrance",
        "parking": "underground"
      }
    },
    {
      "type": "node",
      "id": 13124675058,
      "lat": 12.9199497,
      "lon": 77.6745542,
      "tags": {
        "access": "private",
        "amenity": "parking_entrance",
        "parking": "underground"
      }
    },
    {
      "type": "node",
      "id": 13124692614,
      "lat": 12.921449,
      "lon": 77.6725499,
      "tags": {
        "access": "private",
        "amenity": "parking_entrance",
        "parking": "underground"
      }
    },
    {
      "type": "node",
      "id": 13140490786,
      "lat": 12.9261952,
      "lon": 77.6658377,
      "tags": {
        "access": "private",
        "amenity": "parking_entrance",
        "parking": "underground"
      }
    },
    {
      "type": "node",
      "id": 13176223439,
      "lat": 12.922041,
      "lon": 77.6652891,
      "tags": {
        "check_date": "2025-09-28",
        "name": "Prakriti Dry Fruits",
        "shop": "nuts"
      }
    },
    {
      "type": "node",
      "id": 13176223440,
      "lat": 12.9219944,
      "lon": 77.6652012,
      "tags": {
        "addr:floor": "1",
        "air_conditioning": "yes",
        "check_date": "2025-09-28",
        "level": "1",
        "name": "Style Waves",
        "shop": "hairdresser",
        "wheelchair": "no"
      }
    },
    {
      "type": "node",
      "id": 13208841735,
      "lat": 12.9195863,
      "lon": 77.6683241,
      "tags": {
        "amenity": "fast_food",
        "brand": "Papa John's",
        "brand:wikidata": "Q2759586",
        "cuisine": "pizza",
        "name": "Papa John's",
        "takeaway": "yes"
      }
    },
    {
      "type": "node",
      "id": 13333548798,
      "lat": 12.9191977,
      "lon": 77.6655755,
      "tags": {
        "access": "private",
        "amenity": "parking_entrance"
      }
    },
    {
      "type": "way",
      "id": 24328482,
      "center": {
        "lat": 12.923496,
        "lon": 77.6650698
      },
      "tags": {
        "access": "private",
        "leisure": "playground",
        "name": "Kids play area"
      }
    },
    {
      "type": "way",
      "id": 236826864,
      "center": {
        "lat": 12.9201762,
        "lon": 77.6666494
      },
      "tags": {
        "building": "yes",
        "name": "Drops Spirits",
        "shop": "alcohol"
      }
    },
    {
      "type": "way",
      "id": 308854494,
      "center": {
        "lat": 12.9267243,
        "lon": 77.676147
      },
      "tags": {
        "addr:city": "bengaluru",
        "addr:district": "Bangalore Urban",
        "addr:housenumber": "89/5",
        "addr:postcode": "560103",
        "addr:street": "Bellandur Main Rd, near BBMP Office, Bellandur",
        "amenity": "bank",
        "atm": "yes",
        "brand": "Karnataka Bank",
        "brand:wikidata": "Q2042632",
        "building": "yes",
        "building:levels": "1",
        "name": "Karnataka Bank",
        "name:kn": "ಬೃ ಬೆಂ ಮ ಪಾ"
      }
    },
    {
      "type": "way",
      "id": 310345243,
      "center": {
        "lat": 12.9242375,
        "lon": 77.6717151
      },
      "tags": {
        "amenity": "bank",
        "brand": "ICICI Bank",
        "brand:wikidata": "Q1653258",
        "building": "yes",
        "name": "ICICI Bank",
        "short_name": "ICICI"
      }
    },
    {
      "type": "way",
      "id": 311364310,
      "center": {
        "lat": 12.9253514,
        "lon": 77.6759422
      },
      "tags": {
        "addr:city": "Bengaluru",
        "addr:postcode": "560103",
        "addr:street": "Marathahalli - Sarjapur Outer Ring Rd, opposite to Central Mall, Bellandur",
        "amenity": "restaurant",
        "building": "retail",
        "building:levels": "1",
        "name": "Bhagini Bellandur restaurant",
        "name:kn": "ಭಾಗಿನಿ",
        "opening_hours": "Fr,Sa 11:00-01:00, Su-Th 11:00-24:00",
        "roof:levels": "0"
      }
    },
    {
      "type": "way",
      "id": 343611384,
      "center": {
        "lat": 12.9258833,
        "lon": 77.6768999
      },
      "tags": {
        "amenity": "restaurant",
        "building": "apartments",
        "name": "Magic Spice"
      }
    },
    {
      "type": "way",
      "id": 343682705,
      "center": {
        "lat": 12.9299666,
        "lon": 77.675508
      },
      "tags": {
        "amenity": "post_office",
        "building": "yes",
        "name": "Bellanduru Post Office"
      }
    },
    {
      "type": "way",
      "id": 343845554,
      "center": {
        "lat": 12.9309413,
        "lon": 77.6754525
      },
      "tags": {
        "amenity": "place_of_worship",
        "building": "yes",
        "name": "Sri Venkateswara Swamy Temple",
        "name:kn": "ವೆಂಕಟೇಶ್ವರ ಸ್ವಾಮಿ ದೇವಸ್ಥಾನ",
        "religion": "hindu"
      }
    },
    {
      "type": "way",
      "id": 348106825,
      "center": {
        "lat": 12.9238544,
        "lon": 77.6646945
      },
      "tags": {
        "addr:city": "Bengaluru",
        "addr:postcode": "560102",
        "amenity": "place_of_worship",
        "building": "temple",
        "name": "Iblur Sri Doddamma Temple",
        "name:kn": "ಇಬ್ಬಲೂರು ದೊಡ್ಡಮ್ಮ ದೇವಸ್ಥಾನ",
        "religion": "hindu"
      }
    },
    {
      "type": "way",
      "id": 348107025,
      "center": {
        "lat": 12.9265444,
        "lon": 77.6734553
      },
      "tags": {
        "leisure": "pitch",
        "sport": "basketball"
      }
    },
    {
      "type": "way",
      "id": 348107150,
      "center": {
        "lat": 12.9301342,
        "lon": 77.6686162
      },
      "tags": {
        "amenity": "place_of_worship",
        "building": "yes",
        "name": "Sri Doddamma Devi Temple",
        "religion": "hindu"
      }
    },
    {
      "type": "way",
      "id": 348141083,
      "center": {
        "lat": 12.9259603,
        "lon": 77.6689027
      },
      "tags": {
        "leisure": "pitch"
      }
    },
    {
      "type": "way",
      "id": 348168442,
      "center": {
        "lat": 12.9261764,
        "lon": 77.6779165
      },
      "tags": {
        "amenity": "restaurant",
        "building": "yes",
        "name": "Donne Biryani House"
      }
    },
    {
      "type": "way",
      "id": 348866394,
      "center": {
        "lat": 12.9304645,
        "lon": 77.6760403
      },
      "tags": {
        "building": "yes",
        "name": "Prince Gas Agency",
        "shop": "gas"
      }
    },
    {
      "type": "way",
      "id": 349090432,
      "center": {
        "lat": 12.9309247,
        "lon": 77.6750387
      },
      "tags": {
        "amenity": "place_of_worship",
        "building": "yes",
        "name": "Sri Kaveramma Temple",
        "religion": "hindu"
      }
    },
    {
      "type": "way",
      "id": 349500286,
      "center": {
        "lat": 12.9305282,
        "lon": 77.6755909
      },
      "tags": {
        "amenity": "place_of_worship",
        "building": "yes",
        "name": "Sri Renukayellammadevi and Muthyalamma Temple",
        "religion": "hindu"
      }
    },
    {
      "type": "way",
      "id": 352215671,
      "center": {
        "lat": 12.9304752,
        "lon": 77.6758119
      },
      "tags": {
        "amenity": "place_of_worship",
        "building": "yes",
        "name": "Sri Maligamba devasthana",
        "name:kn": "ಶ್ರೀ ಮಾಳಿಗಾಂಬಾ ದೇವಸ್ಥಾನ",
        "religion": "hindu"
      }
    },
    {
      "type": "way",
      "id": 352231874,
      "center": {
        "lat": 12.9307475,
        "lon": 77.6755868
      },
      "tags": {
        "amenity": "place_of_worship",
        "building": "yes",
        "name": "Sri Sankashtahara Bhakta Balamuri Ganapathi Temple",
        "religion": "hindu"
      }
    },
    {
      "type": "way",
      "id": 367605327,
      "center": {
        "lat": 12.9248615,
        "lon": 77.6679243
      },
      "tags": {
        "access": "private",
        "leisure": "swimming_pool"
      }
    },
    {
      "type": "way",
      "id": 370381633,
      "center": {
        "lat": 12.9240535,
        "lon": 77.669038
      },
      "tags": {
        "access": "private",
        "leisure": "swimming_pool"
      }
    },
    {
      "type": "way",
      "id": 370381634,
      "center": {
        "lat": 12.9225081,
        "lon": 77.6715509
      },
      "tags": {
        "access": "private",
        "leisure": "swimming_pool"
      }
    },
    {
      "type": "way",
      "id": 370381635,
      "center": {
        "lat": 12.9265134,
        "lon": 77.6683489
      },
      "tags": {
        "access": "private",
        "leisure": "swimming_pool"
      }
    },
    {
      "type": "way",
      "id": 370381636,
      "center": {
        "lat": 12.9253749,
        "lon": 77.6665124
      },
      "tags": {
        "access": "private",
        "leisure": "swimming_pool"
      }
    },
    {
      "type": "way",
      "id": 370381637,
      "center": {
        "lat": 12.92508,
        "lon": 77.6693943
      },
      "tags": {
        "access": "private",
        "leisure": "swimming_pool"
      }
    },
    {
      "type": "way",
      "id": 370381638,
      "center": {
        "lat": 12.9234086,
        "lon": 77.6700233
      },
      "tags": {
        "amenity": "fuel",
        "brand": "Indian Oil",
        "brand:wikidata": "Q1289348",
        "brand:wikipedia": "en:Indian Oil Corporation",
        "check_date": "2025-04-06",
        "compressed_air": "yes",
        "fuel:diesel": "yes",
        "fuel:petrol": "yes",
        "name": "Devaraj Enterprises",
        "name:kn": "ಇಂಡಿಯನ್ ಆಯಿಲ್",
        "operator": "Indian Oil",
        "self_service": "no",
        "source": "survey"
      }
    },
    {
      "type": "way",
      "id": 377324145,
      "center": {
        "lat": 12.9265734,
        "lon": 77.6784282
      },
      "tags": {
        "amenity": "restaurant",
        "building": "yes",
        "cuisine": "South_Indian",
        "indoor_seating": "yes",
        "name": "the Rasaganga",
        "name:kn": "ರಸಗಂಗಾ",
        "outdoor_seating": "yes"
      }
    },
    {
      "type": "way",
      "id": 450550411,
      "center": {
        "lat": 12.9262226,
        "lon": 77.6753824
      },
      "tags": {
        "addr:city": "Bengaluru",
        "addr:postcode": "560103",
        "addr:street": "Bellandur Main Road",
        "air_conditioning": "yes",
        "check_date": "2024-01-28",
        "landuse": "retail",
        "name": "Reliance Centro",
        "opening_hours": "Mo-Su 11:00-22:00",
        "payment:cash": "yes",
        "payment:credit_cards": "yes",
        "payment:debit_cards": "yes",
        "shop": "mall",
        "source": "survey",
        "toilets": "yes"
      }
    },
    {
      "type": "way",
      "id": 609388076,
      "center": {
        "lat": 12.9180328,
        "lon": 77.6717277
      },
      "tags": {
        "amenity": "parking",
        "capacity": "20",
        "fee": "no",
        "parking": "surface",
        "supervised": "no",
        "surface": "unpaved"
      }
    },
    {
      "type": "way",
      "id": 609993391,
      "center": {
        "lat": 12.9205841,
        "lon": 77.6739708
      },
      "tags": {
        "access": "private",
        "leisure": "swimming_pool"
      }
    },
    {
      "type": "way",
      "id": 610122216,
      "center": {
        "lat": 12.9182947,
        "lon": 77.6674991
      },
      "tags": {
        "leisure": "swimming_pool"
      }
    },
    {
      "type": "way",
      "id": 610124886,
      "center": {
        "lat": 12.9200519,
        "lon": 77.6669466
      },
      "tags": {
        "building": "yes",
        "name": "New Mathaji",
        "opening_hours": "Mo-Su 08:30-20:30",
        "shop": "hardware",
        "website": "https://newmathajiharware.in"
      }
    },
    {
      "type": "way",
      "id": 610126419,
      "center": {
        "lat": 12.9200108,
        "lon": 77.667039
      },
      "tags": {
        "amenity": "parking",
        "parking": "surface",
        "surface": "asphalt"
      }
    },
    {
      "type": "way",
      "id": 610128869,
      "center": {
        "lat": 12.9195467,
        "lon": 77.6685465
      },
      "tags": {
        "addr:city": "Bengaluru",
        "addr:housenumber": "9/47",
        "addr:postcode": "560035",
        "addr:street": "1st Floor, Bellandur Gate, Sarjapur Road",
        "amenity": "clinic",
        "building": "yes",
        "healthcare": "clinic",
        "name": "Homeocure Clinic",
        "opening_hours": "+91-8867286512"
      }
    },
    {
      "type": "way",
      "id": 610133415,
      "center": {
        "lat": 12.9194649,
        "lon": 77.6682811
      },
      "tags": {
        "access": "customers",
        "amenity": "parking",
        "parking": "surface",
        "surface": "asphalt"
      }
    },
    {
      "type": "way",
      "id": 610389734,
      "center": {
        "lat": 12.9190149,
        "lon": 77.6679644
      },
      "tags": {
        "addr:city": "Bengaluru",
        "addr:housenumber": "37",
        "addr:postcode": "560103",
        "addr:street": "Sarjapur Road, PWD quarters, 1st sector, Bellandur",
        "amenity": "police",
        "check_date": "2025-02-12",
        "name": "Bellanduru Police Station",
        "name:kn": "ಬೆಳ್ಳಂದೂರು ಪೊಲೀಸ್ ಠಾಣೆ",
        "phone": "+91 80 2574 7771",
        "source": "survey"
      }
    },
    {
      "type": "way",
      "id": 610389738,
      "center": {
        "lat": 12.9189481,
        "lon": 77.6679713
      },
      "tags": {
        "access": "customers",
        "amenity": "parking",
        "parking": "surface"
      }
    },
    {
      "type": "way",
      "id": 610396847,
      "center": {
        "lat": 12.9190202,
        "lon": 77.6654726
      },
      "tags": {
        "leisure": "garden"
      }
    },
    {
      "type": "way",
      "id": 610462191,
      "center": {
        "lat": 12.9179316,
        "lon": 77.668644
      },
      "tags": {
        "access": "customers",
        "hoops": "4",
        "leisure": "pitch",
        "lit": "yes",
        "sport": "basketball",
        "surface": "concrete"
      }
    },
    {
      "type": "way",
      "id": 610471331,
      "center": {
        "lat": 12.9182511,
        "lon": 77.6712959
      },
      "tags": {
        "amenity": "restaurant",
        "building": "yes",
        "cuisine": "kabaab",
        "name": "Kebaab Waala"
      }
    },
    {
      "type": "way",
      "id": 610471332,
      "center": {
        "lat": 12.9182373,
        "lon": 77.6715138
      },
      "tags": {
        "building": "yes",
        "name": "Aishwarya Departmental Store",
        "shop": "department_store"
      }
    },
    {
      "type": "way",
      "id": 610471333,
      "center": {
        "lat": 12.9180925,
        "lon": 77.6714353
      },
      "tags": {
        "access": "customers",
        "amenity": "parking",
        "fee": "no",
        "parking": "surface",
        "surface": "compacted"
      }
    },
    {
      "type": "way",
      "id": 610471335,
      "center": {
        "lat": 12.9179135,
        "lon": 77.6722553
      },
      "tags": {
        "amenity": "hospital",
        "healthcare": "hospital",
        "healthcare:speciality": "gynaecology",
        "name": "Motherhood"
      }
    },
    {
      "type": "way",
      "id": 611385979,
      "center": {
        "lat": 12.9199685,
        "lon": 77.6652549
      },
      "tags": {
        "amenity": "hospital",
        "check_date": "2025-02-12",
        "emergency": "yes",
        "healthcare": "hospital",
        "name": "Manipal Hospitals",
        "name:kn": "ಮಣಿಪಾಲ ಆಸ್ಪತ್ರೆ",
        "payment:cash": "yes",
        "payment:mastercard": "yes",
        "payment:visa": "yes",
        "source": "survey",
        "wheelchair": "yes"
      }
    },
    {
      "type": "way",
      "id": 613470756,
      "center": {
        "lat": 12.920124,
        "lon": 77.6668419
      },
      "tags": {
        "building": "yes",
        "name": "Cycle World",
        "shop": "bicycle"
      }
    },
    {
      "type": "way",
      "id": 631466626,
      "center": {
        "lat": 12.9231995,
        "lon": 77.6714025
      },
      "tags": {
        "amenity": "fuel",
        "brand": "Shell",
        "brand:wikidata": "Q110716465",
        "brand:wikipedia": "en:Royal Dutch Shell",
        "compressed_air": "yes",
        "fuel:diesel": "yes",
        "fuel:petrol": "yes",
        "name": "Shell Petrol Bunk",
        "name:kn": "ಶೆಲ್",
        "opening_hours": "24/7"
      }
    },
    {
      "type": "way",
      "id": 691955486,
      "center": {
        "lat": 12.9234506,
        "lon": 77.6718939
      },
      "tags": {
        "amenity": "fuel",
        "brand": "Indian Oil",
        "brand:wikidata": "Q1289348",
        "check_date": "2025-04-09",
        "compressed_air": "no",
        "name": "Propel Indianoil"
      }
    },
    {
      "type": "way",
      "id": 694056975,
      "center": {
        "lat": 12.9264524,
        "lon": 77.6688343
      },
      "tags": {
        "addr:city": "Bangalore",
        "addr:housenumber": "Sobha Jasmine",
        "addr:postcode": "560103",
        "addr:street": "Cherry Lane",
        "leisure": "park",
        "name": "Sobha Jasmine Park",
        "opening_hours": "24/7"
      }
    },
    {
      "type": "way",
      "id": 729512556,
      "center": {
        "lat": 12.926575,
        "lon": 77.6716971
      },
      "tags": {
        "addr:city": "Bangalore",
        "addr:postcode": "560103",
        "addr:street": "GreenGlen Layout",
        "leisure": "park",
        "name": "Joggers Park"
      }
    },
    {
      "type": "way",
      "id": 1066396960,
      "center": {
        "lat": 12.9266411,
        "lon": 77.6727163
      },
      "tags": {
        "leisure": "swimming_pool"
      }
    },
    {
      "type": "way",
      "id": 1066436541,
      "center": {
        "lat": 12.931041,
        "lon": 77.6782424
      },
      "tags": {
        "addr:city": "Bangalore",
        "addr:postcode": "560103",
        "amenity": "place_of_worship",
        "building": "yes",
        "name": "Masjid E Bilal",
        "name:kn": "ಮಸ್ಜಿದ್ ಇ ಬಿಲಾಲ",
        "religion": "muslim"
      }
    },
    {
      "type": "way",
      "id": 1071044455,
      "center": {
        "lat": 12.9244197,
        "lon": 77.6724971
      },
      "tags": {
        "amenity": "hospital",
        "check_date": "2025-02-12",
        "healthcare": "hospital",
        "healthcare:speciality": "maternity",
        "name": "Cloudnine",
        "payment:cash": "yes",
        "payment:mastercard": "yes",
        "payment:visa": "yes",
        "source": "survey"
      }
    },
    {
      "type": "way",
      "id": 1071242258,
      "center": {
        "lat": 12.9231359,
        "lon": 77.6693091
      },
      "tags": {
        "access": "private",
        "leisure": "swimming_pool",
        "location": "outdoor",
        "swimming_pool": "outdoor"
      }
    },
    {
      "type": "way",
      "id": 1071242274,
      "center": {
        "lat": 12.9266151,
        "lon": 77.6735425
      },
      "tags": {
        "amenity": "school",
        "name": "Narayana e-Techno School - Bellandur"
      }
    },
    {
      "type": "way",
      "id": 1184666646,
      "center": {
        "lat": 12.9234063,
        "lon": 77.6662177
      },
      "tags": {
        "access": "private",
        "leisure": "swimming_pool",
        "location": "outdoor"
      }
    },
    {
      "type": "way",
      "id": 1187587059,
      "center": {
        "lat": 12.9209718,
        "lon": 77.6705332
      },
      "tags": {
        "access": "private",
        "leisure": "swimming_pool"
      }
    },
    {
      "type": "way",
      "id": 1188254615,
      "center": {
        "lat": 12.9212685,
        "lon": 77.6684356
      },
      "tags": {
        "leisure": "pitch",
        "sport": "basketball"
      }
    },
    {
      "type": "way",
      "id": 1188254701,
      "center": {
        "lat": 12.9204176,
        "lon": 77.6667487
      },
      "tags": {
        "amenity": "parking"
      }
    },
    {
      "type": "way",
      "id": 1188254703,
      "center": {
        "lat": 12.9205764,
        "lon": 77.6678097
      },
      "tags": {
        "amenity": "school",
        "name": "Royale Concorde International School"
      }
    },
    {
      "type": "way",
      "id": 1188254704,
      "center": {
        "lat": 12.9173804,
        "lon": 77.6705181
      },
      "tags": {
        "addr:housenumber": "#13",
        "addr:postcode": "560102",
        "addr:street": "Sarjapura Road",
        "amenity": "school",
        "email": "communications.oiss@orchids.edu.in",
        "name": "Orchids International School",
        "name:en": "Orchids The International School",
        "opening_hours": "Mo-Su 09:00-18:30",
        "operator": "Orchids International School",
        "operator:type": "private",
        "phone": "9513731352",
        "website": "https://www.orchidsinternationalschool.com/bangalore-branches/sarjapur/"
      }
    },
    {
      "type": "way",
      "id": 1188323433,
      "center": {
        "lat": 12.9274068,
        "lon": 77.6658518
      },
      "tags": {
        "access": "private",
        "leisure": "sports_centre"
      }
    },
    {
      "type": "way",
      "id": 1212432026,
      "center": {
        "lat": 12.92365,
        "lon": 77.6681322
      },
      "tags": {
        "access": "private",
        "leisure": "pitch",
        "sport": "tennis"
      }
    },
    {
      "type": "way",
      "id": 1212554501,
      "center": {
        "lat": 12.9261802,
        "lon": 77.6656318
      },
      "tags": {
        "leisure": "park"
      }
    },
    {
      "type": "way",
      "id": 1212566070,
      "center": {
        "lat": 12.9257736,
        "lon": 77.666888
      },
      "tags": {
        "leisure": "pitch",
        "sport": "tennis"
      }
    },
    {
      "type": "way",
      "id": 1212566071,
      "center": {
        "lat": 12.925764,
        "lon": 77.667281
      },
      "tags": {
        "hoops": "2",
        "leisure": "pitch",
        "sport": "basketball"
      }
    },
    {
      "type": "way",
      "id": 1212574664,
      "center": {
        "lat": 12.9259924,
        "lon": 77.6695792
      },
      "tags": {
        "amenity": "restaurant",
        "building": "restaurant",
        "building:levels": "1",
        "cuisine": "regional;south_indian",
        "diet:vegetarian": "yes",
        "name": "Udupi Kitchen",
        "outdoor_seating": "yes"
      }
    },
    {
      "type": "way",
      "id": 1212920599,
      "center": {
        "lat": 12.9249691,
        "lon": 77.6720437
      },
      "tags": {
        "access": "private",
        "hoops": "2",
        "leisure": "pitch",
        "sport": "basketball"
      }
    },
    {
      "type": "way",
      "id": 1219342642,
      "center": {
        "lat": 12.9286511,
        "lon": 77.6708158
      },
      "tags": {
        "access": "customers",
        "leisure": "pitch",
        "sport": "soccer"
      }
    },
    {
      "type": "way",
      "id": 1221235221,
      "center": {
        "lat": 12.9309008,
        "lon": 77.6759351
      },
      "tags": {
        "amenity": "parking",
        "parking": "surface"
      }
    },
    {
      "type": "way",
      "id": 1221235230,
      "center": {
        "lat": 12.9259923,
        "lon": 77.6696917
      },
      "tags": {
        "access": "customers",
        "amenity": "motorcycle_parking",
        "covered": "no"
      }
    },
    {
      "type": "way",
      "id": 1223681697,
      "center": {
        "lat": 12.9291449,
        "lon": 77.6724942
      },
      "tags": {
        "access": "private",
        "leisure": "swimming_pool",
        "location": "outdoor",
        "swimming_pool": "outdoor"
      }
    },
    {
      "type": "way",
      "id": 1223681698,
      "center": {
        "lat": 12.9291231,
        "lon": 77.6720183
      },
      "tags": {
        "access": "private",
        "leisure": "pitch",
        "lit": "yes",
        "sport": "tennis"
      }
    },
    {
      "type": "way",
      "id": 1226683652,
      "center": {
        "lat": 12.9215076,
        "lon": 77.6682276
      },
      "tags": {
        "hoops": "2",
        "leisure": "pitch",
        "sport": "basketball"
      }
    },
    {
      "type": "way",
      "id": 1231984757,
      "center": {
        "lat": 12.9263638,
        "lon": 77.6627859
      },
      "tags": {
        "leisure": "sports_centre",
        "name": "Machaxi"
      }
    },
    {
      "type": "way",
      "id": 1231984761,
      "center": {
        "lat": 12.9252109,
        "lon": 77.6641345
      },
      "tags": {
        "access": "private",
        "leisure": "pitch",
        "sport": "tennis"
      }
    },
    {
      "type": "way",
      "id": 1231984762,
      "center": {
        "lat": 12.9252501,
        "lon": 77.664272
      },
      "tags": {
        "access": "private",
        "leisure": "pitch",
        "sport": "tennis"
      }
    },
    {
      "type": "way",
      "id": 1231984763,
      "center": {
        "lat": 12.92725,
        "lon": 77.6633077
      },
      "tags": {
        "access": "private",
        "leisure": "swimming_pool"
      }
    },
    {
      "type": "way",
      "id": 1231984764,
      "center": {
        "lat": 12.9263596,
        "lon": 77.6629178
      },
      "tags": {
        "building": "sports_hall",
        "leisure": "sports_hall",
        "name": "Machaxi AJ Sports",
        "sport": "badminton"
      }
    },
    {
      "type": "way",
      "id": 1231984767,
      "center": {
        "lat": 12.9274287,
        "lon": 77.6658662
      },
      "tags": {
        "access": "private",
        "leisure": "pitch",
        "sport": "tennis"
      }
    },
    {
      "type": "way",
      "id": 1232075256,
      "center": {
        "lat": 12.9272742,
        "lon": 77.6619632
      },
      "tags": {
        "access": "private",
        "leisure": "playground"
      }
    },
    {
      "type": "way",
      "id": 1232075259,
      "center": {
        "lat": 12.9277958,
        "lon": 77.6611532
      },
      "tags": {
        "access": "private",
        "leisure": "park"
      }
    },
    {
      "type": "way",
      "id": 1232075263,
      "center": {
        "lat": 12.9281095,
        "lon": 77.6620625
      },
      "tags": {
        "access": "private",
        "leisure": "pitch"
      }
    },
    {
      "type": "way",
      "id": 1234091086,
      "center": {
        "lat": 12.922429,
        "lon": 77.668402
      },
      "tags": {
        "access": "customers",
        "amenity": "parking",
        "parking": "surface"
      }
    },
    {
      "type": "way",
      "id": 1239916014,
      "center": {
        "lat": 12.9263927,
        "lon": 77.6784174
      },
      "tags": {
        "access": "customers",
        "amenity": "parking",
        "parking": "surface"
      }
    },
    {
      "type": "way",
      "id": 1240365184,
      "center": {
        "lat": 12.9238293,
        "lon": 77.6657172
      },
      "tags": {
        "amenity": "parking",
        "parking": "street_side"
      }
    },
    {
      "type": "way",
      "id": 1240374869,
      "center": {
        "lat": 12.9212451,
        "lon": 77.6709618
      },
      "tags": {
        "access": "private",
        "amenity": "parking",
        "fee": "no",
        "parking": "street_side"
      }
    },
    {
      "type": "way",
      "id": 1259323930,
      "center": {
        "lat": 12.9308523,
        "lon": 77.6737149
      },
      "tags": {
        "leisure": "pitch",
        "name": "Play Mania Sports Lounge Turf",
        "sport": "cricket"
      }
    },
    {
      "type": "way",
      "id": 1259323931,
      "center": {
        "lat": 12.9305764,
        "lon": 77.6737449
      },
      "tags": {
        "leisure": "pitch",
        "name": "Play Mania Sports Lounge",
        "sport": "badminton"
      }
    },
    {
      "type": "way",
      "id": 1274663076,
      "center": {
        "lat": 12.925276,
        "lon": 77.6658075
      },
      "tags": {
        "access": "private",
        "amenity": "parking",
        "parking": "street_side"
      }
    },
    {
      "type": "way",
      "id": 1290198687,
      "center": {
        "lat": 12.9209474,
        "lon": 77.6672845
      },
      "tags": {
        "building": "yes",
        "building:levels": "3",
        "leisure": "fitness_centre",
        "name": "Iskcon - Sarjapur Road",
        "sport": "yoga"
      }
    },
    {
      "type": "way",
      "id": 1290198690,
      "center": {
        "lat": 12.9202359,
        "lon": 77.6674739
      },
      "tags": {
        "addr:city": "Bengaluru",
        "addr:housenumber": "3/4",
        "addr:postcode": "560103",
        "addr:street": "Sarjapura Road",
        "amenity": "hospital",
        "email": "queries@rainbowhospitals.in",
        "emergency": "yes",
        "healthcare": "hospital",
        "healthcare:speciality": "gynaecology;child_psychiatry;paediatrics;otolaryngology;fertility;neonatology;vascular_surgery;physiatry",
        "name": "Rainbow Childrens Hospital",
        "phone": "+91 08062261218",
        "website": "https://www.rainbowhospitals.in/"
      }
    },
    {
      "type": "way",
      "id": 1290198692,
      "center": {
        "lat": 12.9198945,
        "lon": 77.6672042
      },
      "tags": {
        "access": "customers",
        "amenity": "parking",
        "parking": "surface"
      }
    },
    {
      "type": "way",
      "id": 1296416079,
      "center": {
        "lat": 12.918331,
        "lon": 77.6799254
      },
      "tags": {
        "leisure": "park",
        "name": "Saul Kere Park"
      }
    },
    {
      "type": "way",
      "id": 1315009535,
      "center": {
        "lat": 12.9301934,
        "lon": 77.6720303
      },
      "tags": {
        "leisure": "garden"
      }
    },
    {
      "type": "way",
      "id": 1315009536,
      "center": {
        "lat": 12.9306168,
        "lon": 77.6718479
      },
      "tags": {
        "access": "private",
        "leisure": "swimming_pool"
      }
    },
    {
      "type": "way",
      "id": 1315009537,
      "center": {
        "lat": 12.9305792,
        "lon": 77.6719766
      },
      "tags": {
        "access": "private",
        "leisure": "swimming_pool"
      }
    },
    {
      "type": "way",
      "id": 1315009540,
      "center": {
        "lat": 12.9300643,
        "lon": 77.6717733
      },
      "tags": {
        "access": "private",
        "amenity": "parking",
        "parking": "surface"
      }
    },
    {
      "type": "way",
      "id": 1346908275,
      "center": {
        "lat": 12.9259165,
        "lon": 77.6690737
      },
      "tags": {
        "amenity": "restaurant",
        "building": "house",
        "name": "The Spiceberry"
      }
    },
    {
      "type": "way",
      "id": 1346908276,
      "center": {
        "lat": 12.9252866,
        "lon": 77.6690672
      },
      "tags": {
        "amenity": "parking",
        "fee": "yes",
        "parking": "lane",
        "surface": "asphalt"
      }
    },
    {
      "type": "way",
      "id": 1349143576,
      "center": {
        "lat": 12.9268214,
        "lon": 77.6693511
      },
      "tags": {
        "access": "customers",
        "amenity": "parking",
        "name": "Spice Berry Parking",
        "parking": "surface"
      }
    },
    {
      "type": "way",
      "id": 1365936049,
      "center": {
        "lat": 12.9303059,
        "lon": 77.6737548
      },
      "tags": {
        "leisure": "pitch",
        "name": "Mark Figure Skating Club",
        "sport": "skateboard"
      }
    },
    {
      "type": "way",
      "id": 1365958249,
      "center": {
        "lat": 12.9298173,
        "lon": 77.6726085
      },
      "tags": {
        "building": "yes",
        "shop": "yes"
      }
    },
    {
      "type": "way",
      "id": 1366231247,
      "center": {
        "lat": 12.922592,
        "lon": 77.6625066
      },
      "tags": {
        "amenity": "place_of_worship",
        "building": "yes",
        "name": "Canaan house of worship",
        "religion": "christian"
      }
    },
    {
      "type": "way",
      "id": 1366473223,
      "center": {
        "lat": 12.9225851,
        "lon": 77.6629435
      },
      "tags": {
        "addr:city": "Bellandur",
        "addr:district": "Bengaluru",
        "addr:postcode": "560103",
        "addr:street": "3rd Main Road",
        "amenity": "place_of_worship",
        "building": "yes",
        "name": "Shri Shaneshwara Swami Devasthana",
        "name:kn": "ಶ್ರೀ ಶನೇಶ್ವರ ಸ್ವಾಮಿ ದೇವಸ್ಥಾನ",
        "religion": "hindu"
      }
    },
    {
      "type": "way",
      "id": 1366492794,
      "center": {
        "lat": 12.9276872,
        "lon": 77.6703328
      },
      "tags": {
        "amenity": "conference_centre",
        "building": "yes",
        "name": "G K Convention Hall"
      }
    },
    {
      "type": "way",
      "id": 1366492795,
      "center": {
        "lat": 12.9279355,
        "lon": 77.6707825
      },
      "tags": {
        "amenity": "place_of_worship",
        "building": "yes",
        "name": "Om Shakthi Temple",
        "religion": "hindu"
      }
    },
    {
      "type": "way",
      "id": 1370798179,
      "center": {
        "lat": 12.9238522,
        "lon": 77.6732734
      },
      "tags": {
        "amenity": "restaurant",
        "building": "yes",
        "name": "Xochi"
      }
    },
    {
      "type": "way",
      "id": 1370870222,
      "center": {
        "lat": 12.9223643,
        "lon": 77.6656258
      },
      "tags": {
        "amenity": "toilets",
        "building": "yes",
        "female": "yes",
        "male": "yes"
      }
    },
    {
      "type": "way",
      "id": 1372032146,
      "center": {
        "lat": 12.9250871,
        "lon": 77.6757742
      },
      "tags": {
        "brand": "Maruti Suzuki",
        "brand:wikidata": "Q963718",
        "building": "yes",
        "name": "Maruti Suzuki ARENA (Pratham Motors Bellandur)",
        "shop": "car"
      }
    },
    {
      "type": "way",
      "id": 1373240208,
      "center": {
        "lat": 12.9272684,
        "lon": 77.6660484
      },
      "tags": {
        "building": "yes",
        "leisure": "fitness_centre"
      }
    },
    {
      "type": "way",
      "id": 1373240210,
      "center": {
        "lat": 12.9294553,
        "lon": 77.6744199
      },
      "tags": {
        "access": "private",
        "leisure": "swimming_pool",
        "location": "outdoor",
        "swimming_pool": "wading"
      }
    },
    {
      "type": "way",
      "id": 1410378161,
      "center": {
        "lat": 12.9252335,
        "lon": 77.6662219
      },
      "tags": {
        "access": "private",
        "amenity": "parking",
        "parking": "street_side"
      }
    },
    {
      "type": "way",
      "id": 1427663393,
      "center": {
        "lat": 12.9199021,
        "lon": 77.6739489
      },
      "tags": {
        "access": "private",
        "leisure": "pitch",
        "sport": "volleyball"
      }
    },
    {
      "type": "way",
      "id": 1427663397,
      "center": {
        "lat": 12.9206176,
        "lon": 77.6746285
      },
      "tags": {
        "access": "private",
        "amenity": "parking",
        "parking": "carports"
      }
    },
    {
      "type": "way",
      "id": 1427663400,
      "center": {
        "lat": 12.9230747,
        "lon": 77.6750451
      },
      "tags": {
        "access": "private",
        "leisure": "swimming_pool"
      }
    },
    {
      "type": "way",
      "id": 1427663401,
      "center": {
        "lat": 12.9239503,
        "lon": 77.6756497
      },
      "tags": {
        "access": "private",
        "leisure": "swimming_pool"
      }
    },
    {
      "type": "way",
      "id": 1427663420,
      "center": {
        "lat": 12.9225957,
        "lon": 77.673017
      },
      "tags": {
        "access": "private",
        "leisure": "swimming_pool"
      }
    },
    {
      "type": "way",
      "id": 1427663441,
      "center": {
        "lat": 12.9228047,
        "lon": 77.6722661
      },
      "tags": {
        "access": "private",
        "leisure": "pitch",
        "sport": "tennis"
      }
    },
    {
      "type": "way",
      "id": 1427663442,
      "center": {
        "lat": 12.922857,
        "lon": 77.6720914
      },
      "tags": {
        "access": "private",
        "leisure": "playground"
      }
    },
    {
      "type": "way",
      "id": 1429458951,
      "center": {
        "lat": 12.9237912,
        "lon": 77.6663518
      },
      "tags": {
        "access": "private",
        "leisure": "pitch",
        "sport": "cricket_nets"
      }
    },
    {
      "type": "way",
      "id": 1429458952,
      "center": {
        "lat": 12.923398,
        "lon": 77.66634
      },
      "tags": {
        "access": "private",
        "leisure": "pitch",
        "sport": "tennis"
      }
    }
  ]
}