{
  "area_name": "Gurudarshan Layout",
  "osm_id": 12770513049,
  "osm_type": "node",
  "place_type": "neighbourhood",
  "amenity_count": 323,
  "amenities": [
    {
      "type": "node",
      "id": 1463622765,
      "lat": 13.0797232,
      "lon": 77.5622908,
      "tags": {
        "amenity": "place_of_worship",
        "name": "Durga Devi Temple",
        "name:kn": "ದುರ್ಗದೇವಿ ದೇವಸ್ಥಾನ",
        "religion": "hindu"
      }
    },
    {
      "type": "node",
      "id": 1463624305,
      "lat": 13.0803293,
      "lon": 77.5591419,
      "tags": {
        "brand": "Reliance Fresh",
        "brand:wikidata": "Q7311014",
        "name": "Reliance Fresh",
        "name:kn": "ರಿಲಾಯನ್ಸ್ ಫ್ರೆಶ್",
        "shop": "supermarket"
      }
    },
    {
      "type": "node",
      "id": 1463640923,
      "lat": 13.0797112,
      "lon": 77.5591265,
      "tags": {
        "addr:city": "Bangalore",
        "addr:postcode": "560097",
        "addr:street": "Vidyaranyapura Road",
        "alt_name": "A2B",
        "amenity": "restaurant",
        "brand": "Adyar Ananda Bhavan",
        "brand:wikidata": "Q15178238",
        "cuisine": "regional",
        "diet:vegetarian": "only",
        "name": "Adyar Ananda Bhavan",
        "name:kn": "ಆದ್ಯಾರ್ ಆನಂದ ಭವನ",
        "operator": "Adyar Ananda Bhavan",
        "phone": "+91 99029 90811",
        "smoking": "no",
        "website": "https://aabsweets.com"
      }
    },
    {
      "type": "node",
      "id": 1463641277,
      "lat": 13.0790883,
      "lon": 77.5588656,
      "tags": {
        "name": "Food World",
        "shop": "supermarket"
      }
    },
    {
      "type": "node",
      "id": 1463642683,
      "lat": 13.0775498,
      "lon": 77.5587667,
      "tags": {
        "amenity": "restaurant",
        "name": "Sri Krishna Upahar",
        "name:kn": "ಶ್ರೀ ಕೃಷ್ಣ ಉಪಹಾರ"
      }
    },
    {
      "type": "node",
      "id": 1463643684,
      "lat": 13.0767862,
      "lon": 77.558223,
      "tags": {
        "amenity": "bank",
        "atm": "yes",
        "brand:wikidata": "Q1340361",
        "brand:wikipedia": "en:State Bank of India",
        "name": "State Bank of India",
        "name:kn": "ಭಾರತೀಯ ಸ್ಟೇಟ್ ಬ್ಯಾಂಕ್",
        "short_name": "SBI",
        "website": "https://www.sbi.co.in"
      }
    },
    {
      "type": "node",
      "id": 1463643963,
      "lat": 13.0769096,
      "lon": 77.558535,
      "tags": {
        "name": "Mythri Bazaar",
        "shop": "convenience"
      }
    },
    {
      "type": "node",
      "id": 1463644516,
      "lat": 13.0757912,
      "lon": 77.5577739,
      "tags": {
        "amenity": "post_office",
        "name": "Vidyaranyapura",
        "name:kn": "ವಿದ್ಯಾರಣ್ಯಪುರ"
      }
    },
    {
      "type": "node",
      "id": 1463645024,
      "lat": 13.0757025,
      "lon": 77.558427,
      "tags": {
        "amenity": "bank",
        "atm": "yes",
        "brand": "Syndicate Bank",
        "brand:wikidata": "Q2004088",
        "name": "Syndicate Bank",
        "name:en": "Syndicate Bank",
        "name:kn": "ಸಿಂಡಿಕೇಟ್ ಬ್ಯಾಂಕ್",
        "website": "https://www.syndicatebank.in",
        "wikimedia_commons": "Category:Syndicate Bank"
      }
    },
    {
      "type": "node",
      "id": 1463645518,
      "lat": 13.0753105,
      "lon": 77.5579778,
      "tags": {
        "amenity": "cafe",
        "name": "Cafe Coffee Day",
        "name:kn": "ಕಫೆ ಕಾಫಿ ಡೇ"
      }
    },
    {
      "type": "node",
      "id": 1463656830,
      "lat": 13.0686568,
      "lon": 77.5582571,
      "tags": {
        "addr:district": "Bengaluru Urban",
        "addr:full": "# 50/2, Vidyaranyapura, Nanjappa Main Road",
        "addr:postcode": "560097",
        "addr:state": "Karnataka",
        "amenity": "hospital",
        "check_date": "2025-08-09",
        "name": "Ketham's Hospital Pvt. Ltd",
        "source": "OpenGovernmentData"
      }
    },
    {
      "type": "node",
      "id": 2335438253,
      "lat": 13.0712887,
      "lon": 77.5560963,
      "tags": {
        "amenity": "bank",
        "atm": "yes",
        "brand": "ICICI Bank",
        "brand:wikidata": "Q1653258",
        "name": "ICICI Bank",
        "name:en": "ICICI Bank",
        "name:kn": "ಐಸಿಐಸಿಐ ಬ್ಯಾಂಕು",
        "short_name": "ICICI",
        "website": "https://www.icicibank.com"
      }
    },
    {
      "type": "node",
      "id": 2335438254,
      "lat": 13.0722173,
      "lon": 77.5561443,
      "tags": {
        "amenity": "bar",
        "check_date": "2025-04-22",
        "name": "Shiva Bar and Restaurant"
      }
    },
    {
      "type": "node",
      "id": 2335438255,
      "lat": 13.0721802,
      "lon": 77.5565373,
      "tags": {
        "amenity": "bank",
        "atm": "yes",
        "brand": "Canara Bank",
        "brand:pa": "ਕੇਨਰਾ ਬੈਂਕ",
        "brand:ur": "کینرا بینک",
        "brand:wikidata": "Q2003777",
        "brand:wikipedia": "en:Canara Bank",
        "brand:wikipedia:pa": "ਕੇਨਰਾ ਬੈਂਕ",
        "name": "Canara Bank",
        "name:kn": "ಕೆನರಾ ಬ್ಯಾಂಕ್",
        "name:pa": "ਕੇਨਰਾ ਬੈਂਕ",
        "name:ur": "کینرا بینک",
        "website": "https://www.canarabank.com/"
      }
    },
    {
      "type": "node",
      "id": 2335438256,
      "lat": 13.0724465,
      "lon": 77.556674,
      "tags": {
        "amenity": "restaurant",
        "check_date": "2025-04-22",
        "diet:vegetarian": "yes",
        "name": "Pakashala"
      }
    },
    {
      "type": "node",
      "id": 2335452268,
      "lat": 13.0763182,
      "lon": 77.5569872,
      "tags": {
        "amenity": "school",
        "name": "Little Lilly's chool"
      }
    },
    {
      "type": "node",
      "id": 2337745745,
      "lat": 13.0740912,
      "lon": 77.5667843,
      "tags": {
        "amenity": "childcare",
        "brand": "Anganwadi",
        "brand:en": "Anganwadi",
        "brand:hi": "आँगनवाडी",
        "brand:pa": "ਆਂਗਣਵਾੜੀ",
        "brand:pnb": "آنگن واڑی",
        "brand:ur": "آنگن واڑی",
        "brand:wikidata": "Q16251231",
        "name": "Anganwadi",
        "name:en": "Anganwadi",
        "name:hi": "आँगनवाडी",
        "name:kn": "ಅಂಗನವಾಡಿ",
        "name:pa": "ਆਂਗਣਵਾੜੀ",
        "name:pnb": "آنگن واڑی",
        "name:ur": "آنگن واڑی"
      }
    },
    {
      "type": "node",
      "id": 2337745748,
      "lat": 13.0725169,
      "lon": 77.5564198,
      "tags": {
        "amenity": "atm",
        "brand": "IndusInd Bank",
        "brand:wikidata": "Q2040323",
        "name": "Indus Ind Bank ATM",
        "name:kn": "ಐಯ್ಯಂಗಾರ್ ಬೇಕರಿ",
        "operator": "IndusInd Bank",
        "operator:wikidata": "Q2040323"
      }
    },
    {
      "type": "node",
      "id": 2338286219,
      "lat": 13.0689767,
      "lon": 77.5581507,
      "tags": {
        "amenity": "bar",
        "check_date": "2025-08-09",
        "name": "Sindhu Bar and Restaurant",
        "opening_hours": "08:00-23:00",
        "smoking": "yes"
      }
    },
    {
      "type": "node",
      "id": 2338286220,
      "lat": 13.0677029,
      "lon": 77.559964,
      "tags": {
        "addr:district": "Bengaluru Urban",
        "addr:full": "Nanjappa Road, Vidyaranna Pura Main Road",
        "addr:postcode": "560097",
        "addr:state": "Karnataka",
        "amenity": "social_facility",
        "check_date": "2025-06-15",
        "name": "Kruthika Nursing Home",
        "name:kn": "ಕೃತಿಕಾ",
        "social_facility": "nursing_home",
        "social_facility:for": "senior",
        "source": "OpenGovernmentData",
        "wheelchair": "limited"
      }
    },
    {
      "type": "node",
      "id": 2338329542,
      "lat": 13.0681465,
      "lon": 77.5601663,
      "tags": {
        "amenity": "place_of_worship",
        "name": "Sri Shanishwara Temple",
        "name:kn": "ಶ್ರೀ ಶನೀಶ್ವರ ದೇವಸ್ಥಾನ",
        "religion": "hindu",
        "toilets:wheelchair": "no",
        "wheelchair": "no"
      }
    },
    {
      "type": "node",
      "id": 2340693295,
      "lat": 13.0717094,
      "lon": 77.5678536,
      "tags": {
        "amenity": "bar",
        "name": "Nethravathi Bar and Restaurant"
      }
    },
    {
      "type": "node",
      "id": 2340693296,
      "lat": 13.0725801,
      "lon": 77.5672904,
      "tags": {
        "amenity": "bar",
        "name": "Sri Manjunatha Wines"
      }
    },
    {
      "type": "node",
      "id": 2340693298,
      "lat": 13.0727682,
      "lon": 77.5663519,
      "tags": {
        "amenity": "atm",
        "brand": "ICICI Bank",
        "brand:wikidata": "Q1653258",
        "name": "ICICI Bank",
        "name:kn": "ಐಸಿಐಸಿಐ ಬ್ಯಾಂಕು",
        "operator": "ICICI Bank",
        "operator:wikidata": "Q1653258",
        "short_name": "ICICI"
      }
    },
    {
      "type": "node",
      "id": 2340693299,
      "lat": 13.0698267,
      "lon": 77.5638554,
      "tags": {
        "amenity": "bank",
        "atm": "no",
        "brand": "Canara Bank",
        "brand:en": "Canara Bank",
        "brand:hi": "केनरा बैंक",
        "brand:kn": "ಕೆನರಾ ಬ್ಯಾಂಕ್",
        "brand:pa": "ਕੇਨਰਾ ਬੈਂਕ",
        "brand:pnb": "کینرا بینک",
        "brand:ur": "کینرا بینک",
        "brand:wikidata": "Q2003777",
        "brand:wikipedia": "en:Canara Bank",
        "brand:wikipedia:pa": "ਕੇਨਰਾ ਬੈਂਕ",
        "name": "Canara Bank",
        "name:en": "Canara Bank",
        "name:hi": "केनरा बैंक",
        "name:kn": "ಕೆನರಾ ಬ್ಯಾಂಕ್",
        "name:pa": "ਕੇਨਰਾ ਬੈਂਕ",
        "name:pnb": "کینرا بینک",
        "name:ur": "کینرا بینک",
        "website": "https://www.canarabank.com/",
        "wheelchair": "no"
      }
    },
    {
      "type": "node",
      "id": 2340693301,
      "lat": 13.0692445,
      "lon": 77.562181,
      "tags": {
        "amenity": "atm",
        "name": "SBI",
        "name:kn": "ಭಾರತೀಯ ಸ್ಟೇಟ್ ಬ್ಯಾಂಕ್",
        "wheelchair": "no"
      }
    },
    {
      "type": "node",
      "id": 2340693302,
      "lat": 13.0692521,
      "lon": 77.5622181,
      "tags": {
        "amenity": "atm",
        "name": "ICICI",
        "name:kn": "ಐಸಿಐಸಿಐ",
        "wheelchair": "no"
      }
    },
    {
      "type": "node",
      "id": 2340693303,
      "lat": 13.0692615,
      "lon": 77.5622483,
      "tags": {
        "amenity": "atm",
        "brand": "Canara Bank",
        "brand:pa": "ਕੇਨਰਾ ਬੈਂਕ",
        "brand:ur": "کینرا بینک",
        "brand:wikidata": "Q2003777",
        "brand:wikipedia": "en:Canara Bank",
        "brand:wikipedia:pa": "ਕੇਨਰਾ ਬੈਂਕ",
        "name": "Canara Bank",
        "name:kn": "ಕೆನರಾ ಬ್ಯಾಂಕ್",
        "name:pa": "ਕੇਨਰਾ ਬੈਂਕ",
        "name:ur": "کینرا بینک",
        "wheelchair": "no"
      }
    },
    {
      "type": "node",
      "id": 2340693305,
      "lat": 13.0682388,
      "lon": 77.560175,
      "tags": {
        "addr:postcode": "560097",
        "amenity": "fast_food",
        "name": "Durgashri Upahar",
        "toilets:wheelchair": "no",
        "wheelchair": "no"
      }
    },
    {
      "type": "node",
      "id": 2340693306,
      "lat": 13.0701469,
      "lon": 77.5555323,
      "tags": {
        "amenity": "bank",
        "atm": "yes",
        "brand": "Bank of India",
        "brand:wikidata": "Q2004439",
        "brand:wikipedia": "en:Bank of India",
        "name": "Bank of India",
        "name:en": "Bank of India",
        "short_name": "BoI",
        "website": "http://www.bankofindia.co.in"
      }
    },
    {
      "type": "node",
      "id": 2342910389,
      "lat": 13.0753507,
      "lon": 77.5580493,
      "tags": {
        "amenity": "fast_food",
        "brand": "Beijing Bites",
        "brand:wikidata": "Q124374289",
        "cuisine": "chinese",
        "delivery": "yes",
        "name": "Beijing Bites",
        "name:kn": "ಬೀಜಿಂಗ್ ಬೈಟ್ಸ್",
        "takeaway": "yes"
      }
    },
    {
      "type": "node",
      "id": 2343099977,
      "lat": 13.0774744,
      "lon": 77.5587548,
      "tags": {
        "addr:district": "Bengaluru Urban",
        "addr:full": "17, Nti Layout, Vidyaranyapura",
        "addr:postcode": "560097",
        "addr:state": "Karnataka",
        "amenity": "hospital",
        "healthcare": "hospital",
        "name": "Soukya Hospital",
        "source": "OpenGovernmentData"
      }
    },
    {
      "type": "node",
      "id": 2343099978,
      "lat": 13.0770166,
      "lon": 77.5585772,
      "tags": {
        "amenity": "bank",
        "atm": "yes",
        "brand": "HDFC Bank",
        "brand:wikidata": "Q631047",
        "brand:wikipedia": "en:HDFC Bank",
        "name": "HDFC Bank",
        "name:kn": "ಎಚ್ ಡಿ ಎಫ್ ಸಿ",
        "short_name": "HDFC",
        "website": "https://www.hdfcbank.com"
      }
    },
    {
      "type": "node",
      "id": 2343101606,
      "lat": 13.0703574,
      "lon": 77.5556092,
      "tags": {
        "brand": "Just Bake",
        "brand:wikidata": "Q124374121",
        "delivery": "yes",
        "name": "Just Bake",
        "name:kn": "ಜಸ್ಟ್ ಬೇಕ್",
        "shop": "pastry",
        "takeaway": "yes"
      }
    },
    {
      "type": "node",
      "id": 2348864035,
      "lat": 13.0671242,
      "lon": 77.5600979,
      "tags": {
        "check_date": "2024-01-07",
        "name": "Metro Spirit",
        "shop": "alcohol",
        "toilets:wheelchair": "no",
        "wheelchair": "no"
      }
    },
    {
      "type": "node",
      "id": 2349466963,
      "lat": 13.0754182,
      "lon": 77.5577982,
      "tags": {
        "amenity": "atm",
        "name": "ING Bank"
      }
    },
    {
      "type": "node",
      "id": 2351851714,
      "lat": 13.0795306,
      "lon": 77.5590352,
      "tags": {
        "amenity": "bank",
        "atm": "yes",
        "brand": "Karnataka Bank",
        "brand:wikidata": "Q2042632",
        "name": "Karnataka Bank",
        "name:kn": "ಕರ್ನಾಟಕ ಬ್ಯಾಂಕ್"
      }
    },
    {
      "type": "node",
      "id": 2351851719,
      "lat": 13.0782069,
      "lon": 77.558981,
      "tags": {
        "amenity": "atm",
        "name": "DCB Bank"
      }
    },
    {
      "type": "node",
      "id": 2351851722,
      "lat": 13.0785089,
      "lon": 77.5590898,
      "tags": {
        "amenity": "bank",
        "atm": "yes",
        "brand:wikidata": "Q2003611",
        "brand:wikipedia": "en:Indian Overseas Bank",
        "name": "Indian Overseas Bank",
        "name:en": "Indian Overseas Bank",
        "short_name": "IOB",
        "website": "https://www.iob.in"
      }
    },
    {
      "type": "node",
      "id": 2351851726,
      "lat": 13.0789222,
      "lon": 77.5592094,
      "tags": {
        "amenity": "library",
        "name": "Just Books CLC"
      }
    },
    {
      "type": "node",
      "id": 2351851729,
      "lat": 13.0788692,
      "lon": 77.5591795,
      "tags": {
        "amenity": "fast_food",
        "brand": "Domino's",
        "brand:ks": "ڈومینوز",
        "brand:pa": "ਡੋਮੀਨੋਜ਼",
        "brand:ur": "ڈومینوز",
        "brand:wikidata": "Q839466",
        "brand:wikipedia": "en:Domino's Pizza",
        "cuisine": "pizza",
        "name": "Domino's",
        "name:kn": "ಡಾಮಿನೋಸ್",
        "name:ks": "ڈومینوز",
        "name:pa": "ਡੋਮੀਨੋਜ਼",
        "name:ur": "ڈومینوز"
      }
    },
    {
      "type": "node",
      "id": 2353259146,
      "lat": 13.0802741,
      "lon": 77.5594981,
      "tags": {
        "amenity": "library",
        "name": "City Central Library",
        "name:kn": "ಕೇಂದ್ರಿಯ ಗ್ರಂಥಾಲಯ"
      }
    },
    {
      "type": "node",
      "id": 3400223532,
      "lat": 13.0682897,
      "lon": 77.5601829,
      "tags": {
        "check_date": "2024-01-07",
        "name": "SJS Iyengar Bakery and Sweets",
        "shop": "bakery",
        "wheelchair": "no"
      }
    },
    {
      "type": "node",
      "id": 3400223739,
      "lat": 13.0682911,
      "lon": 77.5601527,
      "tags": {
        "name": "J K Mart",
        "shop": "furniture",
        "wheelchair": "no"
      }
    },
    {
      "type": "node",
      "id": 4279875619,
      "lat": 13.0683712,
      "lon": 77.5598029,
      "tags": {
        "addr:postcode": "560097",
        "amenity": "place_of_worship",
        "name": "Ganesha Temple",
        "name:kn": "ಗಣೇಶ ದೇವಸ್ಥಾನ",
        "religion": "hindu"
      }
    },
    {
      "type": "node",
      "id": 4279894865,
      "lat": 13.0691498,
      "lon": 77.5618249,
      "tags": {
        "addr:postcode": "560097",
        "name": "Nandini Bakery",
        "shop": "bakery"
      }
    },
    {
      "type": "node",
      "id": 4279894866,
      "lat": 13.0691864,
      "lon": 77.5617103,
      "tags": {
        "addr:postcode": "560097",
        "name": "Hema motors",
        "shop": "car_repair"
      }
    },
    {
      "type": "node",
      "id": 4469903721,
      "lat": 13.0788541,
      "lon": 77.5591782,
      "tags": {
        "addr:city": "Bangalore",
        "addr:postcode": "560097",
        "addr:street": "Vidyaranyapura Road",
        "amenity": "cafe",
        "cuisine": "pastry",
        "internet_access": "no",
        "name": "Amma's Pastry"
      }
    },
    {
      "type": "node",
      "id": 4489712082,
      "lat": 13.0713707,
      "lon": 77.5561124,
      "tags": {
        "addr:city": "bangalore",
        "addr:housenumber": "969",
        "addr:postcode": "560097",
        "addr:street": "kempaiah complex, 4th mian bel lyout, Vidyaranyapura",
        "leisure": "sports_centre",
        "name": "Cosmos Fitness 365",
        "opening_hours": "05:00-10:00",
        "phone": "(91)-80-33531618",
        "sport": "gymnastics"
      }
    },
    {
      "type": "node",
      "id": 5669343547,
      "lat": 13.0715699,
      "lon": 77.5652901,
      "tags": {
        "amenity": "place_of_worship",
        "name": "Temple",
        "name:kn": "ದೇವಸ್ಥಾನ",
        "religion": "hindu"
      }
    },
    {
      "type": "node",
      "id": 5669343548,
      "lat": 13.0717558,
      "lon": 77.5652705,
      "tags": {
        "amenity": "place_of_worship",
        "name": "Shiva Temple",
        "name:kn": "ಶಿವ ದೇವಸ್ಥಾನ",
        "religion": "hindu"
      }
    },
    {
      "type": "node",
      "id": 7577248179,
      "lat": 13.072736,
      "lon": 77.556482,
      "tags": {
        "addr:district": "Bengaluru Urban",
        "addr:full": "BEL Layout, Vidyaranyapura, Bengaluru",
        "addr:postcode": "560097",
        "addr:state": "Karnataka",
        "amenity": "clinic",
        "name": "Shekar Super Speciality Eye Centre",
        "source": "Local Knowledge"
      }
    },
    {
      "type": "node",
      "id": 7577248187,
      "lat": 13.0754731,
      "lon": 77.5581028,
      "tags": {
        "addr:district": "Bengaluru Urban",
        "addr:full": "Vidyaranyapura, Bengaluru",
        "addr:postcode": "560097",
        "addr:state": "Karnataka",
        "amenity": "clinic",
        "name": "Anugraha Children's Clinic",
        "source": "Local Knowledge"
      }
    },
    {
      "type": "node",
      "id": 7577248201,
      "lat": 13.0769985,
      "lon": 77.5581801,
      "tags": {
        "addr:district": "Bengaluru Urban",
        "addr:full": "Vidyaranyapura, Bengaluru",
        "addr:postcode": "560097",
        "addr:state": "Karnataka",
        "amenity": "clinic",
        "name": "Bangalore Healthcare Centre",
        "source": "Local Knowledge"
      }
    },
    {
      "type": "node",
      "id": 7577248208,
      "lat": 13.0691724,
      "lon": 77.5594992,
      "tags": {
        "addr:district": "Bengaluru Urban",
        "addr:full": "Doddabommasandra, Vidyaranyapura, Bengaluru",
        "addr:postcode": "560097",
        "addr:state": "Karnataka",
        "amenity": "clinic",
        "name": "Vijaya Health Centre",
        "source": "Local Knowledge"
      }
    },
    {
      "type": "node",
      "id": 7577248217,
      "lat": 13.0780746,
      "lon": 77.5626239,
      "tags": {
        "addr:district": "Bengaluru Urban",
        "addr:full": "Durgaparameshwari Layout, Vidyaranyapura, Bengaluru",
        "addr:postcode": "560097",
        "addr:state": "Karnataka",
        "amenity": "clinic",
        "healthcare": "clinic",
        "name": "Yashaswini ENT Clinic",
        "source": "Local Knowledge"
      }
    },
    {
      "type": "node",
      "id": 7577248223,
      "lat": 13.0732835,
      "lon": 77.5540883,
      "tags": {
        "addr:district": "Bengaluru Urban",
        "addr:full": "BEL Layout , Vidyaranyapura, Bengaluru",
        "addr:postcode": "560097",
        "addr:state": "Karnataka",
        "amenity": "clinic",
        "name": "Dr. Josephs Holistic Health Care Clinic",
        "source": "Local Knowledge"
      }
    },
    {
      "type": "node",
      "id": 7577248226,
      "lat": 13.0722197,
      "lon": 77.5547945,
      "tags": {
        "addr:district": "Bengaluru Urban",
        "addr:full": "BEL Layout, Jalahalli East, Bengaluru",
        "addr:postcode": "560097",
        "addr:state": "Karnataka",
        "amenity": "clinic",
        "name": "Radhika clinic",
        "source": "Local Knowledge"
      }
    },
    {
      "type": "node",
      "id": 7577248229,
      "lat": 13.0779282,
      "lon": 77.559589,
      "tags": {
        "addr:district": "Bengaluru Urban",
        "addr:full": "Vidyaranyapura, Bengaluru",
        "addr:postcode": "560097",
        "addr:state": "Karnataka",
        "amenity": "clinic",
        "healthcare": "clinic",
        "name": "Ortho Care Clinic",
        "source": "Local Knowledge"
      }
    },
    {
      "type": "node",
      "id": 7577248230,
      "lat": 13.0689228,
      "lon": 77.5572213,
      "tags": {
        "addr:district": "Bengaluru Urban",
        "addr:full": "Vidyaranyapura, Bengaluru",
        "addr:postcode": "560097",
        "addr:state": "Karnataka",
        "amenity": "clinic",
        "name": "Revive Skin and Hair Clinic",
        "source": "Local Knowledge"
      }
    },
    {
      "type": "node",
      "id": 7577248237,
      "lat": 13.0799891,
      "lon": 77.5595232,
      "tags": {
        "addr:district": "Bengaluru Urban",
        "addr:full": "Vidyaranyapura, Bengaluru",
        "addr:postcode": "560097",
        "addr:state": "Karnataka",
        "amenity": "dentist",
        "name": "SDM Dental clinic",
        "source": "Local Knowledge"
      }
    },
    {
      "type": "node",
      "id": 7577248240,
      "lat": 13.0674,
      "lon": 77.556943,
      "tags": {
        "addr:district": "Bengaluru Urban",
        "addr:full": "Nanjappa Layout, Chamundeswari Layout, Bengaluru",
        "addr:postcode": "560097",
        "addr:state": "Karnataka",
        "amenity": "clinic",
        "name": "Jaeshta Children's Clinic",
        "source": "Local Knowledge"
      }
    },
    {
      "type": "node",
      "id": 7577248242,
      "lat": 13.0705041,
      "lon": 77.555381,
      "tags": {
        "addr:district": "Bengaluru Urban",
        "addr:full": "BEL Layout, Vidyaranyapura, Bengaluru",
        "addr:postcode": "560097",
        "addr:state": "Karnataka",
        "amenity": "clinic",
        "healthcare": "clinic",
        "name": "Spandana Clinic",
        "source": "Local Knowledge"
      }
    },
    {
      "type": "node",
      "id": 7577248247,
      "lat": 13.0702809,
      "lon": 77.555649,
      "tags": {
        "addr:district": "Bengaluru Urban",
        "addr:full": "Vidyaranyapura, Bengaluru",
        "addr:postcode": "560097",
        "addr:state": "Karnataka",
        "amenity": "dentist",
        "name": "Clove Dental",
        "source": "Local Knowledge"
      }
    },
    {
      "type": "node",
      "id": 7577248249,
      "lat": 13.07827,
      "lon": 77.5605008,
      "tags": {
        "addr:district": "Bengaluru Urban",
        "addr:full": "HMT Layout, Vidyaranyapura, Bengaluru",
        "addr:postcode": "560097",
        "addr:state": "Karnataka",
        "amenity": "clinic",
        "healthcare": "clinic",
        "name": "Mangala Gowri Clinic",
        "source": "Local Knowledge"
      }
    },
    {
      "type": "node",
      "id": 7577248270,
      "lat": 13.0752791,
      "lon": 77.5595187,
      "tags": {
        "addr:district": "Bengaluru Urban",
        "addr:full": "Vidyaranyapura, Bengaluru",
        "addr:postcode": "560097",
        "addr:state": "Karnataka",
        "amenity": "clinic",
        "healthcare": "clinic",
        "name": "Swarnarani Clinic",
        "source": "Local Knowledge"
      }
    },
    {
      "type": "node",
      "id": 7577248271,
      "lat": 13.0708071,
      "lon": 77.5558747,
      "tags": {
        "addr:district": "Bengaluru Urban",
        "addr:full": "V.K. Arcade, Vidyaranyapura Road, Bengaluru",
        "addr:postcode": "560097",
        "addr:state": "Karnataka",
        "amenity": "dentist",
        "check_date": "2025-04-23",
        "name": "Olive Dental",
        "source": "Local Knowledge"
      }
    },
    {
      "type": "node",
      "id": 7577248273,
      "lat": 13.075606,
      "lon": 77.55955,
      "tags": {
        "addr:district": "Bengaluru Urban",
        "addr:full": "BEL Layout, Vidyaranyapura, Bengaluru",
        "addr:postcode": "560097",
        "addr:state": "Karnataka",
        "amenity": "clinic",
        "healthcare": "clinic",
        "name": "Kanive Clinic",
        "source": "Local Knowledge"
      }
    },
    {
      "type": "node",
      "id": 7577248276,
      "lat": 13.0755182,
      "lon": 77.5585689,
      "tags": {
        "addr:district": "Bengaluru Urban",
        "addr:full": "BEL Layout, Vidyaranyapura, Bengaluru",
        "addr:postcode": "560097",
        "addr:state": "Karnataka",
        "amenity": "clinic",
        "healthcare": "clinic",
        "name": "Sree Rajeshwari Homeo Clinic",
        "source": "Local Knowledge"
      }
    },
    {
      "type": "node",
      "id": 7577248283,
      "lat": 13.0712257,
      "lon": 77.5560637,
      "tags": {
        "addr:district": "Bengaluru Urban",
        "addr:full": "Chamundeswari Layout, Vidyaranyapura, Bengaluru",
        "addr:postcode": "560097",
        "addr:state": "Karnataka",
        "amenity": "clinic",
        "name": "Kempaiah Clinic",
        "source": "Local Knowledge"
      }
    },
    {
      "type": "node",
      "id": 7966164336,
      "lat": 13.0716307,
      "lon": 77.5675471,
      "tags": {
        "addr:street": "Kodigehalli Road",
        "amenity": "driving_school",
        "level": "0",
        "name": "Mathru Shree Driving School",
        "operator": "Mamtha M.",
        "wheelchair": "yes"
      }
    },
    {
      "type": "node",
      "id": 8188038463,
      "lat": 13.0770012,
      "lon": 77.5581038,
      "tags": {
        "addr:full": "OPP HDFC BANK,VIDYARANYAPURA Main Road, Opposite HDFC Bank, Vidyaranyapura Main Road Near NTI Ground, NTI Layout, Vidyaranyapura, Bengaluru, Karnataka",
        "addr:state": "Karnataka",
        "amenity": "hospital",
        "name": "Bangalore Healthcare Center Pranav Ayurveda Hospital"
      }
    },
    {
      "type": "node",
      "id": 11215176140,
      "lat": 13.0632212,
      "lon": 77.5592227,
      "tags": {
        "addr:housenumber": "1254/46",
        "addr:postcode": "560097",
        "addr:street": "Doddabomasandra",
        "brand": "Reliance Digital",
        "brand:wikidata": "Q7311012",
        "name": "Reliance Digital",
        "phone": "+918692007108",
        "shop": "electronics"
      }
    },
    {
      "type": "node",
      "id": 11445466244,
      "lat": 13.0713606,
      "lon": 77.5557797,
      "tags": {
        "check_date": "2023-12-23",
        "name": "Mascot Dry Cleaners",
        "shop": "dry_cleaning"
      }
    },
    {
      "type": "node",
      "id": 11445466245,
      "lat": 13.0726452,
      "lon": 77.5564497,
      "tags": {
        "check_date": "2023-12-23",
        "name": "Pantaloons",
        "shop": "clothes"
      }
    },
    {
      "type": "node",
      "id": 11445466246,
      "lat": 13.0752074,
      "lon": 77.5576357,
      "tags": {
        "brand": "Vishal Mega Mart",
        "brand:wikidata": "Q124374377",
        "check_date": "2025-08-09",
        "name": "Vishal Mega Mart",
        "shop": "supermarket"
      }
    },
    {
      "type": "node",
      "id": 11445466250,
      "lat": 13.0770798,
      "lon": 77.558288,
      "tags": {
        "amenity": "fast_food",
        "check_date": "2023-12-23",
        "name": "Annapoorna Refreshments and Sweets"
      }
    },
    {
      "type": "node",
      "id": 11445466251,
      "lat": 13.078783,
      "lon": 77.5588275,
      "tags": {
        "check_date": "2023-12-23",
        "name": "Dharuvesh Honda",
        "shop": "motorcycle"
      }
    },
    {
      "type": "node",
      "id": 11496080741,
      "lat": 13.0638197,
      "lon": 77.5591181,
      "tags": {
        "amenity": "fast_food",
        "check_date": "2024-01-07",
        "indoor_seating": "yes",
        "name": "Udupi Vaibhava",
        "outdoor_seating": "no"
      }
    },
    {
      "type": "node",
      "id": 11496080743,
      "lat": 13.065917,
      "lon": 77.5599037,
      "tags": {
        "check_date": "2024-01-07",
        "shop": "furniture"
      }
    },
    {
      "type": "node",
      "id": 11496080744,
      "lat": 13.068884,
      "lon": 77.557403,
      "tags": {
        "amenity": "fast_food",
        "check_date": "2024-01-07",
        "name": "Bannur Muttom Biryani Point"
      }
    },
    {
      "type": "node",
      "id": 11496080745,
      "lat": 13.0691052,
      "lon": 77.556616,
      "tags": {
        "amenity": "fast_food",
        "check_date": "2024-01-07",
        "name": "Sri Durga Veg"
      }
    },
    {
      "type": "node",
      "id": 11496080746,
      "lat": 13.069397,
      "lon": 77.5559973,
      "tags": {
        "amenity": "bank",
        "brand": "Yes Bank",
        "brand:wikidata": "Q2040394",
        "check_date": "2024-01-07",
        "name": "Yes Bank",
        "name:kn": "ಯಸ್ ಬ್ಯಾಂಕ್"
      }
    },
    {
      "type": "node",
      "id": 11496080747,
      "lat": 13.0703184,
      "lon": 77.5553198,
      "tags": {
        "brand": "Honda",
        "brand:wikidata": "Q9584",
        "check_date": "2024-01-07",
        "name": "Honda",
        "name:kn": "ಹೊಂಡ",
        "shop": "motorcycle"
      }
    },
    {
      "type": "node",
      "id": 11496080748,
      "lat": 13.0718355,
      "lon": 77.5560569,
      "tags": {
        "check_date": "2024-01-07",
        "name": "G2 Salon",
        "shop": "hairdresser"
      }
    },
    {
      "type": "node",
      "id": 11655480377,
      "lat": 13.0758637,
      "lon": 77.5594245,
      "tags": {
        "access": "private",
        "amenity": "parking",
        "layer": "-1",
        "parking": "underground"
      }
    },
    {
      "type": "node",
      "id": 11655480380,
      "lat": 13.0760544,
      "lon": 77.558943,
      "tags": {
        "access": "private",
        "amenity": "parking",
        "layer": "-1",
        "parking": "underground"
      }
    },
    {
      "type": "node",
      "id": 11655480381,
      "lat": 13.0770119,
      "lon": 77.5603692,
      "tags": {
        "access": "private",
        "amenity": "parking",
        "layer": "-1",
        "parking": "underground"
      }
    },
    {
      "type": "node",
      "id": 11751057343,
      "lat": 13.0710799,
      "lon": 77.5568622,
      "tags": {
        "amenity": "shelter",
        "shelter_type": "gazebo"
      }
    },
    {
      "type": "node",
      "id": 11932321166,
      "lat": 13.0775559,
      "lon": 77.5584635,
      "tags": {
        "check_date": "2024-05-25",
        "name": "Reliance Trends",
        "shop": "clothes"
      }
    },
    {
      "type": "node",
      "id": 11932321167,
      "lat": 13.077362,
      "lon": 77.5584342,
      "tags": {
        "check_date": "2024-05-25",
        "name": "Fast Fashion",
        "shop": "clothes"
      }
    },
    {
      "type": "node",
      "id": 11932321168,
      "lat": 13.0788455,
      "lon": 77.5588573,
      "tags": {
        "amenity": "fast_food",
        "check_date": "2024-05-25",
        "name": "Majaa Thindi"
      }
    },
    {
      "type": "node",
      "id": 11932321843,
      "lat": 13.0645468,
      "lon": 77.5593929,
      "tags": {
        "amenity": "fast_food",
        "check_date": "2024-05-25",
        "name": "Indira Canteen"
      }
    },
    {
      "type": "node",
      "id": 11932321844,
      "lat": 13.0682712,
      "lon": 77.5599398,
      "tags": {
        "check_date": "2024-05-25",
        "name": "Reliance Digital",
        "shop": "electronics"
      }
    },
    {
      "type": "node",
      "id": 11932321845,
      "lat": 13.0692664,
      "lon": 77.5561334,
      "tags": {
        "alt_name": "Kentucky Fried Chicken",
        "alt_name:en": "Kentucky Fried Chicken",
        "alt_name:hi": "केंटुकी फ्राइड चिकन",
        "alt_name:pa": "ਕੈਂਟੁਕੀ ਫ੍ਰਾਈਡ ਚਿਕਨ",
        "alt_name:pnb": "کینٹکی فرائیڈ چکن",
        "alt_name:ur": "کینٹکی فرائیڈ چکن",
        "amenity": "fast_food",
        "brand": "KFC",
        "brand:en": "KFC",
        "brand:hi": "केएफसी",
        "brand:pa": "ਕੇਐਫਸੀ",
        "brand:pnb": "کے ایف سی",
        "brand:ur": "کے ایف سی",
        "brand:wikidata": "Q524757",
        "check_date": "2024-05-25",
        "cuisine": "chicken",
        "indoor_seating": "yes",
        "name": "KFC",
        "name:en": "KFC",
        "name:hi": "केएफसी",
        "name:pa": "ਕੇਐਫਸੀ",
        "name:pnb": "کے ایف سی",
        "name:ur": "کے ایف سی",
        "outdoor_seating": "no",
        "takeaway": "yes"
      }
    },
    {
      "type": "node",
      "id": 11932321846,
      "lat": 13.0694936,
      "lon": 77.5557911,
      "tags": {
        "check_date": "2024-05-25",
        "shop": "greengrocer"
      }
    },
    {
      "type": "node",
      "id": 11932321847,
      "lat": 13.0695199,
      "lon": 77.5557104,
      "tags": {
        "check_date": "2024-05-25",
        "name": "Nandini",
        "name:kn": "ನಂದಿನಿ",
        "shop": "dairy"
      }
    },
    {
      "type": "node",
      "id": 11932360069,
      "lat": 13.0793863,
      "lon": 77.5589985,
      "tags": {
        "amenity": "ice_cream",
        "check_date": "2024-05-25",
        "name": "ibaco"
      }
    },
    {
      "type": "node",
      "id": 11932360070,
      "lat": 13.0794214,
      "lon": 77.5590078,
      "tags": {
        "amenity": "bank",
        "brand": "IDFC First Bank",
        "brand:wikidata": "Q22031467",
        "check_date": "2024-05-25",
        "name": "IDFC First Bank"
      }
    },
    {
      "type": "node",
      "id": 11932360071,
      "lat": 13.0802878,
      "lon": 77.5592291,
      "tags": {
        "check_date": "2024-05-25",
        "name": "iPlanet",
        "shop": "electronics"
      }
    },
    {
      "type": "node",
      "id": 11932360072,
      "lat": 13.0803434,
      "lon": 77.5592571,
      "tags": {
        "check_date": "2024-05-25",
        "name": "Soch",
        "shop": "clothes"
      }
    },
    {
      "type": "node",
      "id": 12032711265,
      "lat": 13.080117,
      "lon": 77.5595202,
      "tags": {
        "name": "Pai Electronics",
        "shop": "appliance"
      }
    },
    {
      "type": "node",
      "id": 12457999544,
      "lat": 13.0690768,
      "lon": 77.5549978,
      "tags": {
        "check_date": "2025-04-19",
        "hairdresser": "barber",
        "internet_access": "no",
        "level": "0",
        "name": "Royal Shine",
        "payment:cards": "no",
        "payment:cash": "yes",
        "payment:credit_cards": "no",
        "payment:debit_cards": "no",
        "shop": "hairdresser",
        "wheelchair": "no"
      }
    },
    {
      "type": "node",
      "id": 12754452418,
      "lat": 13.0659664,
      "lon": 77.5565053,
      "tags": {
        "check_date": "2025-04-15",
        "name": "Mother Diary",
        "shop": "dairy"
      }
    },
    {
      "type": "node",
      "id": 12756595033,
      "lat": 13.0674923,
      "lon": 77.5541709,
      "tags": {
        "check_date": "2025-04-20",
        "female": "yes",
        "level": "0",
        "name": "Tejaswini Beauty Parlor",
        "shop": "hairdresser"
      }
    },
    {
      "type": "node",
      "id": 12757331350,
      "lat": 13.0697041,
      "lon": 77.5552289,
      "tags": {
        "check_date": "2025-04-19",
        "level": "0",
        "shop": "greengrocer"
      }
    },
    {
      "type": "node",
      "id": 12757331351,
      "lat": 13.0696526,
      "lon": 77.5553534,
      "tags": {
        "amenity": "cafe",
        "check_date": "2025-04-19",
        "level": "0",
        "name": "kl. 58 Cafe"
      }
    },
    {
      "type": "node",
      "id": 12757331352,
      "lat": 13.0699171,
      "lon": 77.5554327,
      "tags": {
        "alt_name": "New Life Opto Sight",
        "check_date": "2025-04-15",
        "name": "Life Opto Care",
        "shop": "optician"
      }
    },
    {
      "type": "node",
      "id": 12757331353,
      "lat": 13.0698844,
      "lon": 77.5554771,
      "tags": {
        "check_date": "2025-04-15",
        "name": "Sagar Collection",
        "shop": "clothes"
      }
    },
    {
      "type": "node",
      "id": 12757331354,
      "lat": 13.069843,
      "lon": 77.5555215,
      "tags": {
        "brand": "Bata",
        "brand:wikidata": "Q688082",
        "check_date": "2025-04-15",
        "name": "Bata",
        "shop": "shoes"
      }
    },
    {
      "type": "node",
      "id": 12757331355,
      "lat": 13.070003,
      "lon": 77.5551752,
      "tags": {
        "check_date": "2025-08-09",
        "name": "Tattoo",
        "shop": "tattoo"
      }
    },
    {
      "type": "node",
      "id": 12757331356,
      "lat": 13.0699145,
      "lon": 77.5551314,
      "tags": {
        "amenity": "place_of_worship",
        "check_date": "2025-04-15",
        "religion": "hindu"
      }
    },
    {
      "type": "node",
      "id": 12758200511,
      "lat": 13.06747,
      "lon": 77.5542168,
      "tags": {
        "check_date": "2025-04-23",
        "level": "0",
        "name": "Yogi Laundry Iron",
        "name:kn": "ಯೋಗಿ ಲಾಂಡ್ರಿ ಐರನ್",
        "shop": "ironing"
      }
    },
    {
      "type": "node",
      "id": 12758214221,
      "lat": 13.0683108,
      "lon": 77.5600867,
      "tags": {
        "amenity": "fast_food",
        "check_date": "2025-04-15",
        "name": "Shobana Chats"
      }
    },
    {
      "type": "node",
      "id": 12758227210,
      "lat": 13.0691148,
      "lon": 77.5549059,
      "tags": {
        "check_date": "2025-04-19",
        "level": "0",
        "name": "RR Iyengars Cake Palace",
        "name:kn": "ಆರ್ ಆರ್ ಐಯ್ಯಂಗಾರ್ಸ್ ಕೇಕ್ ಪಾಲೆಸ್",
        "shop": "bakery"
      }
    },
    {
      "type": "node",
      "id": 12758721770,
      "lat": 13.0672922,
      "lon": 77.5547528,
      "tags": {
        "check_date": "2025-04-19",
        "name": "Sri Surya Cable & internet Services",
        "shop": "telecommunication"
      }
    },
    {
      "type": "node",
      "id": 12758722551,
      "lat": 13.0687676,
      "lon": 77.5547451,
      "tags": {
        "addr:floor": "1",
        "addr:housenumber": "10",
        "addr:street": "Ramachandrapura Main Road",
        "alt_name": "Bloom Beauty Skin Care",
        "check_date": "2025-04-23",
        "description": "Skin and hair care",
        "level": "1",
        "name": "Bloom Skin And Hair Care",
        "shop": "hairdresser"
      }
    },
    {
      "type": "node",
      "id": 12758722552,
      "lat": 13.0686865,
      "lon": 77.5547595,
      "tags": {
        "addr:floor": "2",
        "addr:housenumber": "10",
        "addr:street": "Ramachandrapura Main Road",
        "check_date": "2025-04-23",
        "level": "2",
        "name": "AS Pest Control Services",
        "phone": "+91 96115 18026; +91 96115 07026",
        "shop": "pest_control"
      }
    },
    {
      "type": "node",
      "id": 12758722555,
      "lat": 13.0688957,
      "lon": 77.5550153,
      "tags": {
        "check_date": "2025-04-16",
        "shop": "garden_centre"
      }
    },
    {
      "type": "node",
      "id": 12758722556,
      "lat": 13.0689086,
      "lon": 77.5549983,
      "tags": {
        "check_date": "2025-04-16",
        "shop": "pottery"
      }
    },
    {
      "type": "node",
      "id": 12758812316,
      "lat": 13.0676808,
      "lon": 77.5540231,
      "tags": {
        "addr:housenumber": "13/2",
        "addr:street": "Ramachandrapura Main Road",
        "amenity": "dentist",
        "check_date": "2025-04-20",
        "healthcare": "dentist",
        "healthcare:speciality": "dental_oral_maxillo_facial_surgery",
        "level": "0",
        "name": "Biswas Dental Surgery",
        "phone": "+91 95454 51029"
      }
    },
    {
      "type": "node",
      "id": 12758812317,
      "lat": 13.0677035,
      "lon": 77.5540336,
      "tags": {
        "check_date": "2025-04-20",
        "level": "0",
        "name": "Shiva Fashions",
        "shop": "clothes"
      }
    },
    {
      "type": "node",
      "id": 12758812318,
      "lat": 13.0677235,
      "lon": 77.5540386,
      "tags": {
        "check_date": "2025-04-20",
        "level": "0",
        "name": "Appollo Electricals",
        "shop": "electrical"
      }
    },
    {
      "type": "node",
      "id": 12758812319,
      "lat": 13.0678271,
      "lon": 77.5540961,
      "tags": {
        "amenity": "place_of_worship",
        "check_date": "2025-04-16",
        "religion": "christian"
      }
    },
    {
      "type": "node",
      "id": 12758812321,
      "lat": 13.0678615,
      "lon": 77.5541182,
      "tags": {
        "amenity": "pharmacy",
        "check_date": "2025-04-16",
        "healthcare": "pharmacy",
        "name": "Sri Sanjeev Pharma"
      }
    },
    {
      "type": "node",
      "id": 12758812324,
      "lat": 13.0680994,
      "lon": 77.5542103,
      "tags": {
        "addr:housenumber": "24/2",
        "addr:street": "Ramachandrapura Main Road",
        "amenity": "doctors",
        "check_date": "2025-04-20",
        "healthcare": "doctor",
        "level": "0",
        "name": "Krishna Clinic"
      }
    },
    {
      "type": "node",
      "id": 12758812325,
      "lat": 13.0683185,
      "lon": 77.5543299,
      "tags": {
        "check_date": "2025-04-16",
        "name": "Sree VN Enterprises",
        "shop": "water_filter"
      }
    },
    {
      "type": "node",
      "id": 12758812326,
      "lat": 13.0683507,
      "lon": 77.5543466,
      "tags": {
        "check_date": "2025-04-19",
        "shop": "copyshop"
      }
    },
    {
      "type": "node",
      "id": 12758812327,
      "lat": 13.0683882,
      "lon": 77.5543601,
      "tags": {
        "check_date": "2025-04-16",
        "name": "Maruthi IT Solutions",
        "shop": "computer"
      }
    },
    {
      "type": "node",
      "id": 12758835321,
      "lat": 13.0660415,
      "lon": 77.555761,
      "tags": {
        "check_date": "2025-04-16",
        "female": "yes",
        "male": "yes",
        "name": "Krishna's Unisex Salon",
        "shop": "hairdresser"
      }
    },
    {
      "type": "node",
      "id": 12758835322,
      "lat": 13.0660596,
      "lon": 77.5557146,
      "tags": {
        "check_date": "2025-04-16",
        "name": "Shree Lakshmi Jewellers & Works",
        "shop": "jewelry"
      }
    },
    {
      "type": "node",
      "id": 12758835323,
      "lat": 13.0660865,
      "lon": 77.5554562,
      "tags": {
        "check_date": "2025-04-16",
        "name": "Tejaswini Beauty Parlour",
        "shop": "hairdresser"
      }
    },
    {
      "type": "node",
      "id": 12759264204,
      "lat": 13.0673091,
      "lon": 77.5564629,
      "tags": {
        "amenity": "place_of_worship",
        "check_date": "2025-04-16",
        "religion": "hindu"
      }
    },
    {
      "type": "node",
      "id": 12759264205,
      "lat": 13.0692197,
      "lon": 77.5562578,
      "tags": {
        "check_date": "2025-04-16",
        "name": "Tha Loyal Bazaar",
        "shop": "greengrocer"
      }
    },
    {
      "type": "node",
      "id": 12759264206,
      "lat": 13.06925,
      "lon": 77.5562415,
      "tags": {
        "check_date": "2025-04-16",
        "name": "Eshwar Enterprises",
        "shop": "bed"
      }
    },
    {
      "type": "node",
      "id": 12759264207,
      "lat": 13.0692518,
      "lon": 77.5562178,
      "tags": {
        "check_date": "2025-04-16",
        "name": "Meera Prem",
        "shop": "clothes"
      }
    },
    {
      "type": "node",
      "id": 12759264208,
      "lat": 13.0692537,
      "lon": 77.5562051,
      "tags": {
        "amenity": "post_office",
        "brand": "Desk to Desk Courier & Cargo",
        "brand:short": "DTDC",
        "brand:wikidata": "Q55608802",
        "check_date": "2025-04-16",
        "operator": "Desk to Desk Courier & Cargo",
        "operator:short": "DTDC",
        "operator:wikidata": "Q55608802"
      }
    },
    {
      "type": "node",
      "id": 12759264209,
      "lat": 13.0692173,
      "lon": 77.5561774,
      "tags": {
        "amenity": "clinic",
        "check_date": "2025-04-16",
        "healthcare": "clinic",
        "name": "Metier"
      }
    },
    {
      "type": "node",
      "id": 12759264210,
      "lat": 13.0692587,
      "lon": 77.556181,
      "tags": {
        "check_date": "2025-04-16",
        "name": "Highlighter Stationer",
        "shop": "stationery"
      }
    },
    {
      "type": "node",
      "id": 12759732188,
      "lat": 13.0695633,
      "lon": 77.5561449,
      "tags": {
        "amenity": "fast_food",
        "brand": "Subway",
        "brand:wikidata": "Q244457",
        "check_date": "2025-04-16",
        "cuisine": "sandwich",
        "diet:vegetarian": "yes",
        "drive_through": "no",
        "level": "0",
        "name": "Subway",
        "takeaway": "yes"
      }
    },
    {
      "type": "node",
      "id": 12759732189,
      "lat": 13.0695298,
      "lon": 77.5561337,
      "tags": {
        "check_date": "2025-04-16",
        "level": "-1",
        "name": "Party Blasters",
        "shop": "party"
      }
    },
    {
      "type": "node",
      "id": 12759732191,
      "lat": 13.0696181,
      "lon": 77.5559925,
      "tags": {
        "check_date": "2025-04-16",
        "shop": "garden_centre"
      }
    },
    {
      "type": "node",
      "id": 12759732192,
      "lat": 13.069575,
      "lon": 77.5560445,
      "tags": {
        "check_date": "2025-04-16",
        "name": "Any Beauty Parlour",
        "shop": "beauty"
      }
    },
    {
      "type": "node",
      "id": 12759732193,
      "lat": 13.0695592,
      "lon": 77.5560754,
      "tags": {
        "amenity": "cafe",
        "check_date": "2025-04-16",
        "name": "Iyengar's Tatte Idli Vada"
      }
    },
    {
      "type": "node",
      "id": 12759740653,
      "lat": 13.0673937,
      "lon": 77.5540835,
      "tags": {
        "check_date": "2025-04-20",
        "description": "Sells plywood",
        "level": "0",
        "name": "Srinidhi Glass & Plywood",
        "shop": "trade"
      }
    },
    {
      "type": "node",
      "id": 12760135032,
      "lat": 13.0757131,
      "lon": 77.5581831,
      "tags": {
        "check_date": "2025-04-24",
        "name": "Specs Maart",
        "shop": "optician"
      }
    },
    {
      "type": "node",
      "id": 12760135033,
      "lat": 13.0743981,
      "lon": 77.5627906,
      "tags": {
        "check_date": "2025-04-16",
        "hairdresser": "barber",
        "shop": "hairdresser"
      }
    },
    {
      "type": "node",
      "id": 12760164010,
      "lat": 13.0676124,
      "lon": 77.5541468,
      "tags": {
        "addr:housenumber": "233/32/2",
        "addr:street": "Ramachandrapura Main Road",
        "check_date": "2025-04-20",
        "name": "Brand Lab",
        "operator": "clothing.co",
        "shop": "clothes"
      }
    },
    {
      "type": "node",
      "id": 12760304680,
      "lat": 13.0668502,
      "lon": 77.5538593,
      "tags": {
        "amenity": "pharmacy",
        "brand": "Apollo Pharmacy",
        "brand:wikidata": "Q62562612",
        "check_date": "2025-04-20",
        "healthcare": "pharmacy",
        "level": "0",
        "name": "Apollo Pharmacy"
      }
    },
    {
      "type": "node",
      "id": 12761895572,
      "lat": 13.0690158,
      "lon": 77.5555451,
      "tags": {
        "check_date": "2025-04-17",
        "name": "Manyasri Impex",
        "shop": "carpet"
      }
    },
    {
      "type": "node",
      "id": 12761908816,
      "lat": 13.066598,
      "lon": 77.5541848,
      "tags": {
        "addr:housenumber": "46",
        "addr:street": "2nd Main Road",
        "check_date": "2025-08-08",
        "level": "0",
        "name": "ARM Enterprises",
        "shop": "vacant"
      }
    },
    {
      "type": "node",
      "id": 12761908817,
      "lat": 13.0668152,
      "lon": 77.5539754,
      "tags": {
        "addr:housenumber": "57",
        "addr:street": "10th Cross Road",
        "check_date": "2025-06-15",
        "name": "Nithya Fresh",
        "shop": "greengrocer"
      }
    },
    {
      "type": "node",
      "id": 12761908818,
      "lat": 13.0667046,
      "lon": 77.553881,
      "tags": {
        "check_date": "2025-04-17",
        "name": "Priya Beauty Parlour",
        "shop": "beauty"
      }
    },
    {
      "type": "node",
      "id": 12761908819,
      "lat": 13.0669373,
      "lon": 77.5538626,
      "tags": {
        "check_date": "2025-04-20",
        "level": "0",
        "name": "Roopali Garments",
        "shop": "clothes"
      }
    },
    {
      "type": "node",
      "id": 12761908820,
      "lat": 13.0669969,
      "lon": 77.5538884,
      "tags": {
        "check_date": "2025-04-20",
        "level": "0",
        "name": "PK Telecom",
        "shop": "telecommunication"
      }
    },
    {
      "type": "node",
      "id": 12761908821,
      "lat": 13.0670135,
      "lon": 77.5539012,
      "tags": {
        "check_date": "2025-04-20",
        "level": "0",
        "name": "PK Telecom",
        "shop": "mobile_phone"
      }
    },
    {
      "type": "node",
      "id": 12761908822,
      "lat": 13.0670424,
      "lon": 77.5539093,
      "tags": {
        "check_date": "2025-04-20",
        "level": "0",
        "name": "Royal Enterprises",
        "shop": "water_filter"
      }
    },
    {
      "type": "node",
      "id": 12761908823,
      "lat": 13.0670884,
      "lon": 77.5539186,
      "tags": {
        "amenity": "pharmacy",
        "check_date": "2025-04-20",
        "healthcare": "pharmacy",
        "level": "0",
        "name": "GoodLife Medicines"
      }
    },
    {
      "type": "node",
      "id": 12761908824,
      "lat": 13.0671246,
      "lon": 77.5539257,
      "tags": {
        "check_date": "2025-04-20",
        "hairdresser": "barber",
        "level": "0",
        "shop": "hairdresser"
      }
    },
    {
      "type": "node",
      "id": 12761908826,
      "lat": 13.067194,
      "lon": 77.5539632,
      "tags": {
        "amenity": "fast_food",
        "check_date": "2025-04-20",
        "level": "0",
        "name": "Sri Sai Hot Chips"
      }
    },
    {
      "type": "node",
      "id": 12761908827,
      "lat": 13.0672186,
      "lon": 77.553979,
      "tags": {
        "amenity": "atm",
        "check_date": "2025-04-20",
        "level": "0",
        "operator": "Karnataka Bank"
      }
    },
    {
      "type": "node",
      "id": 12761908828,
      "lat": 13.0673226,
      "lon": 77.5540412,
      "tags": {
        "check_date": "2025-04-20",
        "level": "0",
        "name": "Rice Traders",
        "shop": "rice"
      }
    },
    {
      "type": "node",
      "id": 12761908829,
      "lat": 13.0673557,
      "lon": 77.5540501,
      "tags": {
        "check_date": "2025-04-20",
        "level": "0",
        "name": "Sri Rajeshwari Fancy & Gift Center",
        "shop": "gift"
      }
    },
    {
      "type": "node",
      "id": 12761908830,
      "lat": 13.0673288,
      "lon": 77.5538666,
      "tags": {
        "check_date": "2025-06-15",
        "name": "Shabari Tent House",
        "rental": "marquee",
        "shop": "rental"
      }
    },
    {
      "type": "node",
      "id": 12766655518,
      "lat": 13.0681448,
      "lon": 77.5544251,
      "tags": {
        "check_date": "2025-04-19",
        "name": "Radhika Fashion",
        "shop": "clothes"
      }
    },
    {
      "type": "node",
      "id": 12766655519,
      "lat": 13.0681864,
      "lon": 77.5544422,
      "tags": {
        "check_date": "2025-04-19",
        "name": "Dhruthi Fashion Boutique",
        "shop": "clothes"
      }
    },
    {
      "type": "node",
      "id": 12766655520,
      "lat": 13.0682422,
      "lon": 77.5544543,
      "tags": {
        "check_date": "2025-04-19",
        "name": "Sri Bhiraveshwara Stationey & General Stores",
        "shop": "stationery"
      }
    },
    {
      "type": "node",
      "id": 12766655521,
      "lat": 13.0682653,
      "lon": 77.5544631,
      "tags": {
        "check_date": "2025-04-19",
        "name": "FN Motors",
        "shop": "motorcycle_repair"
      }
    },
    {
      "type": "node",
      "id": 12766655522,
      "lat": 13.0682937,
      "lon": 77.5544678,
      "tags": {
        "check_date": "2025-04-19",
        "name": "Sri Viniyaka Battery Center",
        "shop": "car_parts"
      }
    },
    {
      "type": "node",
      "id": 12766655523,
      "lat": 13.0683485,
      "lon": 77.5544945,
      "tags": {
        "amenity": "cafe",
        "check_date": "2025-04-19",
        "name": "Hotel Kiran"
      }
    },
    {
      "type": "node",
      "id": 12766655524,
      "lat": 13.0683644,
      "lon": 77.5544956,
      "tags": {
        "check_date": "2025-04-19",
        "name": "HH Boutique",
        "shop": "clothes"
      }
    },
    {
      "type": "node",
      "id": 12766655525,
      "lat": 13.0683883,
      "lon": 77.5545057,
      "tags": {
        "check_date": "2025-04-19",
        "shop": "motorcycle_repair"
      }
    },
    {
      "type": "node",
      "id": 12766655526,
      "lat": 13.0684435,
      "lon": 77.5545673,
      "tags": {
        "check_date": "2025-04-19",
        "name": "Rajeshwari Traders",
        "shop": "trade"
      }
    },
    {
      "type": "node",
      "id": 12766655527,
      "lat": 13.0685551,
      "lon": 77.5546256,
      "tags": {
        "check_date": "2025-04-19",
        "craft": "signmaker",
        "name": "Print Magic",
        "shop": "copyshop"
      }
    },
    {
      "type": "node",
      "id": 12766655528,
      "lat": 13.0686281,
      "lon": 77.5546705,
      "tags": {
        "check_date": "2025-04-19",
        "name": "JK Mart",
        "shop": "furniture"
      }
    },
    {
      "type": "node",
      "id": 12766683171,
      "lat": 13.0688458,
      "lon": 77.5547506,
      "tags": {
        "check_date": "2025-04-23",
        "level": "0",
        "name": "Mahalakshmi Traders Steel & Cement",
        "shop": "trade"
      }
    },
    {
      "type": "node",
      "id": 12766683172,
      "lat": 13.0691717,
      "lon": 77.5549354,
      "tags": {
        "check_date": "2025-04-19",
        "level": "0",
        "name": "Monika Hardware",
        "name:kn": "ಮೋನಿಕಾ ಹಾರ್ಡ್ವೇರ್",
        "shop": "hardware"
      }
    },
    {
      "type": "node",
      "id": 12766683173,
      "lat": 13.0691394,
      "lon": 77.5549819,
      "tags": {
        "check_date": "2025-04-19",
        "level": "1",
        "name": "Velabh Technologies PVT LTD",
        "shop": "yes"
      }
    },
    {
      "type": "node",
      "id": 12766683174,
      "lat": 13.0692411,
      "lon": 77.5549661,
      "tags": {
        "check_date": "2025-04-19",
        "level": "0",
        "name": "Ganesh Fancy & Gift Center",
        "shop": "gift"
      }
    },
    {
      "type": "node",
      "id": 12766683175,
      "lat": 13.0692153,
      "lon": 77.555005,
      "tags": {
        "amenity": "fixme",
        "check_date": "2025-04-19",
        "fixme": "type",
        "fixme:type": "lab",
        "level": "1",
        "name": "Global Analytical Laboratory Water & Food Testing"
      }
    },
    {
      "type": "node",
      "id": 12766683176,
      "lat": 13.0692693,
      "lon": 77.5549903,
      "tags": {
        "check_date": "2025-04-19",
        "level": "0",
        "name": "Hanuman Home Appliances",
        "name:kn": "ಹನುಮಾನ್ ಹೊಮ್ ಆಪ್ಪಲೈಯ್ನಸೆಸ್",
        "shop": "appliance"
      }
    },
    {
      "type": "node",
      "id": 12766683177,
      "lat": 13.0693258,
      "lon": 77.5550084,
      "tags": {
        "check_date": "2025-04-19",
        "level": "0",
        "name": "Sri Manjunatha Arts",
        "shop": "craft"
      }
    },
    {
      "type": "node",
      "id": 12766683178,
      "lat": 13.0693666,
      "lon": 77.5550299,
      "tags": {
        "check_date": "2025-04-19",
        "level": "0",
        "name": "Karnataka Fish & Chicken Center",
        "shop": "butcher"
      }
    },
    {
      "type": "node",
      "id": 12766683179,
      "lat": 13.0694674,
      "lon": 77.5550707,
      "tags": {
        "amenity": "fast_food",
        "check_date": "2025-04-19",
        "cuisine": "juice",
        "level": "0",
        "name": "KA 44 Juice Center"
      }
    },
    {
      "type": "node",
      "id": 12766683180,
      "lat": 13.0694394,
      "lon": 77.555058,
      "tags": {
        "check_date": "2025-04-19",
        "level": "0",
        "shop": "pet"
      }
    },
    {
      "type": "node",
      "id": 12766683181,
      "lat": 13.0694938,
      "lon": 77.5550399,
      "tags": {
        "amenity": "fast_food",
        "check_date": "2025-04-19",
        "level": "0",
        "name": "KA 44 Chats Center"
      }
    },
    {
      "type": "node",
      "id": 12766683182,
      "lat": 13.0694917,
      "lon": 77.5550848,
      "tags": {
        "amenity": "cafe",
        "check_date": "2025-04-19",
        "level": "0",
        "name": "Delights"
      }
    },
    {
      "type": "node",
      "id": 12766683183,
      "lat": 13.0695139,
      "lon": 77.5550918,
      "tags": {
        "amenity": "fixme",
        "check_date": "2025-04-19",
        "fixme": "type",
        "fixme:type": "condiments",
        "level": "0",
        "name": "Bhrama Lingeshwara Condiments",
        "name:kn": "ಭ್ರಂಹ ಲಿಂಗೇಶ್ವರ ಕೊನ್ಡಿಮಿನ್ಟಸ್"
      }
    },
    {
      "type": "node",
      "id": 12766683184,
      "lat": 13.0696606,
      "lon": 77.5551499,
      "tags": {
        "amenity": "fast_food",
        "check_date": "2025-04-19",
        "level": "0",
        "name": "Kolkata Hot Rolls"
      }
    },
    {
      "type": "node",
      "id": 12770171414,
      "lat": 13.0675995,
      "lon": 77.5539474,
      "tags": {
        "amenity": "pharmacy",
        "check_date": "2025-04-20",
        "healthcare": "pharmacy",
        "name": "Ayurveda Pharmacy"
      }
    },
    {
      "type": "node",
      "id": 12770171415,
      "lat": 13.0677134,
      "lon": 77.5540383,
      "tags": {
        "addr:housenumber": "13/2",
        "addr:street": "Ramachandrapura Main Road",
        "check_date": "2025-06-15",
        "level": "0",
        "name": "Shiva Bore Wells",
        "phone": "+91 93437 27480; +91 99865 23159",
        "shop": "trade",
        "trade": "industrial_equipment"
      }
    },
    {
      "type": "node",
      "id": 12770222169,
      "lat": 13.0675402,
      "lon": 77.5541164,
      "tags": {
        "addr:housenumber": "233/32/2",
        "addr:street": "Ramachandrapura Main Road",
        "check_date": "2025-04-20",
        "level": "0",
        "name": "SR Mart",
        "phone": "+91 72597 02795; +91 96063 13353",
        "shop": "greengrocer"
      }
    },
    {
      "type": "node",
      "id": 12771456850,
      "lat": 13.0686685,
      "lon": 77.5546738,
      "tags": {
        "amenity": "bank",
        "name": "Vidyaranyapura Credit Co-Operative Society Limited (R)"
      }
    },
    {
      "type": "node",
      "id": 12776185934,
      "lat": 13.0719995,
      "lon": 77.5561432,
      "tags": {
        "check_date": "2025-04-22",
        "name": "Thomas Scott",
        "shop": "clothes"
      }
    },
    {
      "type": "node",
      "id": 12776185935,
      "lat": 13.0720195,
      "lon": 77.5560831,
      "tags": {
        "check_date": "2025-04-22",
        "name": "Tarang Tattoo & Telecom",
        "shop": "tattoo"
      }
    },
    {
      "type": "node",
      "id": 12776185936,
      "lat": 13.0719161,
      "lon": 77.5564029,
      "tags": {
        "amenity": "cafe",
        "check_date": "2025-04-22",
        "name": "Sri Bhramalingeshwara Tiffin Center"
      }
    },
    {
      "type": "node",
      "id": 12776435639,
      "lat": 13.0719935,
      "lon": 77.5561904,
      "tags": {
        "amenity": "fast_food",
        "check_date": "2025-04-28",
        "cuisine": "chaat",
        "name": "SLV Chats",
        "street_vendor": "yes"
      }
    },
    {
      "type": "node",
      "id": 12776435640,
      "lat": 13.0718029,
      "lon": 77.556033,
      "tags": {
        "brand": "Fastrack",
        "brand:wikidata": "Q28164179",
        "check_date": "2025-04-22",
        "name": "Fastrack",
        "shop": "watches"
      }
    },
    {
      "type": "node",
      "id": 12776435641,
      "lat": 13.0718794,
      "lon": 77.5560732,
      "tags": {
        "check_date": "2025-04-22",
        "name": "Titan",
        "shop": "watches",
        "wikidata": "Q3536932"
      }
    },
    {
      "type": "node",
      "id": 12776869899,
      "lat": 13.0704843,
      "lon": 77.5556614,
      "tags": {
        "brand": "Lenskart",
        "brand:wikidata": "Q17068753",
        "check_date": "2025-04-23",
        "name": "Lenskart",
        "shop": "optician"
      }
    },
    {
      "type": "node",
      "id": 12776869900,
      "lat": 13.0704394,
      "lon": 77.5556463,
      "tags": {
        "brand": "Peter England",
        "brand:wikidata": "Q19573665",
        "check_date": "2025-04-23",
        "clothes": "men",
        "name": "Peter England",
        "shop": "clothes"
      }
    },
    {
      "type": "node",
      "id": 12776887224,
      "lat": 13.0707172,
      "lon": 77.5557899,
      "tags": {
        "brand": "Kanti Sweets",
        "brand:wikidata": "Q124374180",
        "check_date": "2025-04-23",
        "name": "Kanti Sweets",
        "shop": "confectionery"
      }
    },
    {
      "type": "node",
      "id": 12776887225,
      "lat": 13.0706738,
      "lon": 77.555777,
      "tags": {
        "amenity": "atm",
        "brand": "Axis Bank",
        "brand:wikidata": "Q2003549",
        "check_date": "2025-04-23",
        "operator": "Axis Bank",
        "operator:wikidata": "Q2003549"
      }
    },
    {
      "type": "node",
      "id": 12778287150,
      "lat": 13.0674212,
      "lon": 77.5539115,
      "tags": {
        "addr:housenumber": "7/2",
        "addr:street": "Ramachandrapura Main Road",
        "check_date": "2025-06-15",
        "name": "RV Sports & Service",
        "shop": "sports"
      }
    },
    {
      "type": "node",
      "id": 12778651746,
      "lat": 13.0660061,
      "lon": 77.5565136,
      "tags": {
        "check_date": "2025-04-23",
        "name": "SK Dry Cleaners",
        "shop": "dry_cleaning"
      }
    },
    {
      "type": "node",
      "id": 12778651747,
      "lat": 13.0660551,
      "lon": 77.5565317,
      "tags": {
        "check_date": "2025-04-23",
        "hairdresser": "barber",
        "name": "Decent Hair Style",
        "shop": "hairdresser"
      }
    },
    {
      "type": "node",
      "id": 12778938419,
      "lat": 13.0686995,
      "lon": 77.5547263,
      "tags": {
        "addr:floor": "1",
        "addr:housenumber": "10",
        "addr:street": "Ramachandrapura Main Road",
        "check_date": "2025-04-23",
        "level": "1",
        "name": "Sanctuary Castle Solutions",
        "shop": "yes"
      }
    },
    {
      "type": "node",
      "id": 12778938420,
      "lat": 13.0687118,
      "lon": 77.5547017,
      "tags": {
        "addr:floor": "0",
        "addr:housenumber": "10",
        "addr:street": "Ramachandrapura Main Road",
        "check_date": "2025-04-30",
        "level": "0",
        "name": "Seven Heaven",
        "shop": "pastry"
      }
    },
    {
      "type": "node",
      "id": 12778938421,
      "lat": 13.0687529,
      "lon": 77.5547173,
      "tags": {
        "addr:floor": "0",
        "addr:housenumber": "10",
        "addr:street": "Ramachandrapura Main Road",
        "check_date": "2025-04-23",
        "level": "0",
        "name": "Rashee Enterprises",
        "shop": "yes"
      }
    },
    {
      "type": "node",
      "id": 12778938422,
      "lat": 13.0687706,
      "lon": 77.5547261,
      "tags": {
        "addr:floor": "0",
        "addr:housenumber": "10",
        "addr:street": "Ramachandrapura Main Road",
        "check_date": "2025-04-23",
        "level": "0",
        "name": "Mini Store",
        "shop": "telecommunication"
      }
    },
    {
      "type": "node",
      "id": 12783814649,
      "lat": 13.069106,
      "lon": 77.5578502,
      "tags": {
        "amenity": "ice_cream",
        "check_date": "2025-08-09",
        "name": "Apsara"
      }
    },
    {
      "type": "node",
      "id": 12783814650,
      "lat": 13.0690527,
      "lon": 77.5578298,
      "tags": {
        "amenity": "fast_food",
        "check_date": "2025-08-09",
        "cuisine": "chaat",
        "name": "Bangarpet Chats"
      }
    },
    {
      "type": "node",
      "id": 12783823548,
      "lat": 13.0704343,
      "lon": 77.5553668,
      "tags": {
        "amenity": "fast_food",
        "check_date": "2025-04-24",
        "cuisine": "chicken",
        "name": "Uncle Chicken"
      }
    },
    {
      "type": "node",
      "id": 12790987432,
      "lat": 13.0734872,
      "lon": 77.5595071,
      "tags": {
        "amenity": "bench",
        "armrest": "yes",
        "backrest": "yes",
        "note": "scary one",
        "seats": "3"
      }
    },
    {
      "type": "node",
      "id": 12791013872,
      "lat": 13.0728327,
      "lon": 77.5575832,
      "tags": {
        "amenity": "bench",
        "armrest": "yes",
        "backrest": "yes",
        "seats": "3"
      }
    },
    {
      "type": "node",
      "id": 12791013874,
      "lat": 13.0736508,
      "lon": 77.55891,
      "tags": {
        "amenity": "bench",
        "armrest": "yes",
        "backrest": "yes",
        "seats": "3"
      }
    },
    {
      "type": "node",
      "id": 12791025774,
      "lat": 13.0726536,
      "lon": 77.5596293,
      "tags": {
        "amenity": "bench",
        "armrest": "yes",
        "backrest": "yes",
        "description": "scary one",
        "seats": "3"
      }
    },
    {
      "type": "node",
      "id": 12794021959,
      "lat": 13.0721671,
      "lon": 77.5575732,
      "tags": {
        "amenity": "bench",
        "backrest": "yes",
        "material": "stone"
      }
    },
    {
      "type": "node",
      "id": 12794021960,
      "lat": 13.0721638,
      "lon": 77.5575828,
      "tags": {
        "amenity": "bench",
        "backrest": "yes",
        "material": "stone"
      }
    },
    {
      "type": "node",
      "id": 12794021961,
      "lat": 13.0721713,
      "lon": 77.5575903,
      "tags": {
        "amenity": "bench",
        "backrest": "yes",
        "material": "stone"
      }
    },
    {
      "type": "node",
      "id": 12794021962,
      "lat": 13.0721805,
      "lon": 77.5575839,
      "tags": {
        "amenity": "bench",
        "backrest": "yes",
        "material": "stone"
      }
    },
    {
      "type": "node",
      "id": 12794021963,
      "lat": 13.0721757,
      "lon": 77.5575732,
      "tags": {
        "amenity": "bench",
        "backrest": "yes",
        "material": "stone"
      }
    },
    {
      "type": "node",
      "id": 12794021964,
      "lat": 13.0721736,
      "lon": 77.5575812,
      "tags": {
        "amenity": "shelter",
        "shelter_type": "gazebo"
      }
    },
    {
      "type": "node",
      "id": 12794021965,
      "lat": 13.0737226,
      "lon": 77.5571586,
      "tags": {
        "amenity": "bench",
        "backrest": "yes",
        "material": "stone"
      }
    },
    {
      "type": "node",
      "id": 12794021966,
      "lat": 13.0740871,
      "lon": 77.5574456,
      "tags": {
        "amenity": "bench",
        "backrest": "yes",
        "material": "stone"
      }
    },
    {
      "type": "node",
      "id": 12794021988,
      "lat": 13.0714006,
      "lon": 77.5566684,
      "tags": {
        "amenity": "shelter",
        "shelter_type": "gazebo"
      }
    },
    {
      "type": "node",
      "id": 12794026309,
      "lat": 13.0662848,
      "lon": 77.5605845,
      "tags": {
        "amenity": "shelter",
        "shelter_type": "gazebo"
      }
    },
    {
      "type": "node",
      "id": 12794026310,
      "lat": 13.0684998,
      "lon": 77.5605489,
      "tags": {
        "amenity": "bench",
        "backrest": "yes",
        "material": "stone"
      }
    },
    {
      "type": "node",
      "id": 12794026312,
      "lat": 13.0685994,
      "lon": 77.5636901,
      "tags": {
        "amenity": "shelter",
        "shelter_type": "gazebo"
      }
    },
    {
      "type": "node",
      "id": 12794026313,
      "lat": 13.0685837,
      "lon": 77.5636818,
      "tags": {
        "amenity": "bench",
        "backrest": "yes",
        "material": "stone"
      }
    },
    {
      "type": "node",
      "id": 12794026314,
      "lat": 13.0685945,
      "lon": 77.5636764,
      "tags": {
        "amenity": "bench",
        "backrest": "yes",
        "material": "stone"
      }
    },
    {
      "type": "node",
      "id": 12794026315,
      "lat": 13.0686066,
      "lon": 77.563671,
      "tags": {
        "amenity": "bench",
        "backrest": "yes",
        "material": "stone"
      }
    },
    {
      "type": "node",
      "id": 12794026323,
      "lat": 13.0678512,
      "lon": 77.5639674,
      "tags": {
        "amenity": "bench",
        "backrest": "yes",
        "material": "stone"
      }
    },
    {
      "type": "node",
      "id": 12794026324,
      "lat": 13.0678381,
      "lon": 77.5639755,
      "tags": {
        "amenity": "bench",
        "backrest": "yes",
        "material": "stone"
      }
    },
    {
      "type": "node",
      "id": 12794026325,
      "lat": 13.0658152,
      "lon": 77.5649182,
      "tags": {
        "amenity": "bench",
        "backrest": "yes",
        "material": "stone"
      }
    },
    {
      "type": "node",
      "id": 12794026326,
      "lat": 13.0657995,
      "lon": 77.5649337,
      "tags": {
        "amenity": "bench",
        "backrest": "yes",
        "material": "stone"
      }
    },
    {
      "type": "node",
      "id": 12794026327,
      "lat": 13.065484,
      "lon": 77.5652857,
      "tags": {
        "amenity": "bench",
        "backrest": "yes",
        "material": "stone"
      }
    },
    {
      "type": "node",
      "id": 12794026396,
      "lat": 13.0632598,
      "lon": 77.5605344,
      "tags": {
        "amenity": "bench",
        "backrest": "yes",
        "material": "stone"
      }
    },
    {
      "type": "node",
      "id": 12794026397,
      "lat": 13.0632732,
      "lon": 77.5605364,
      "tags": {
        "amenity": "bench",
        "backrest": "yes",
        "material": "stone"
      }
    },
    {
      "type": "node",
      "id": 12794026398,
      "lat": 13.0632749,
      "lon": 77.5605245,
      "tags": {
        "amenity": "bench",
        "backrest": "yes",
        "material": "stone"
      }
    },
    {
      "type": "node",
      "id": 12794026399,
      "lat": 13.0632613,
      "lon": 77.5605224,
      "tags": {
        "amenity": "bench",
        "backrest": "yes",
        "material": "stone"
      }
    },
    {
      "type": "node",
      "id": 12794026400,
      "lat": 13.0632965,
      "lon": 77.5604356,
      "tags": {
        "amenity": "bench",
        "backrest": "yes",
        "material": "stone"
      }
    },
    {
      "type": "node",
      "id": 12794240459,
      "lat": 13.0660442,
      "lon": 77.5562072,
      "tags": {
        "check_date": "2025-04-28",
        "name": "Harshini Bakery",
        "shop": "bakery"
      }
    },
    {
      "type": "node",
      "id": 12794240460,
      "lat": 13.0660297,
      "lon": 77.5562715,
      "tags": {
        "check_date": "2025-04-28",
        "name": "Sri Annapoorna Jewellery Works",
        "shop": "jewelry"
      }
    },
    {
      "type": "node",
      "id": 12794240461,
      "lat": 13.0660866,
      "lon": 77.5560734,
      "tags": {
        "check_date": "2025-04-28",
        "name": "Yuga Fresh",
        "shop": "greengrocer"
      }
    },
    {
      "type": "node",
      "id": 12794240462,
      "lat": 13.066162,
      "lon": 77.5565834,
      "tags": {
        "check_date": "2025-04-28",
        "name": "Sheets Fancy | Clothing & Stationary Store",
        "shop": "clothes"
      }
    },
    {
      "type": "node",
      "id": 12794240463,
      "lat": 13.0667499,
      "lon": 77.5566842,
      "tags": {
        "check_date": "2025-04-28",
        "name": "SRI Renuka RCM Store",
        "shop": "general"
      }
    },
    {
      "type": "node",
      "id": 12794240464,
      "lat": 13.0667477,
      "lon": 77.5568382,
      "tags": {
        "check_date": "2025-04-28",
        "name": "Sri Subramanyeshwara Provision Stores",
        "shop": "general"
      }
    },
    {
      "type": "node",
      "id": 12794240465,
      "lat": 13.0668993,
      "lon": 77.5569352,
      "tags": {
        "check_date": "2025-04-28",
        "name": "Jai Maruthi Store",
        "shop": "general"
      }
    },
    {
      "type": "node",
      "id": 12794240466,
      "lat": 13.0669404,
      "lon": 77.5569476,
      "tags": {
        "amenity": "recycling",
        "building": "retail",
        "check_date": "2025-05-13",
        "name": "Om Shakti Old Paper Mart",
        "operator:type": "private",
        "recycling:newspaper": "yes",
        "recycling:paper": "yes",
        "recycling:paper_packaging": "yes",
        "recycling_type": "centre"
      }
    },
    {
      "type": "node",
      "id": 12794240467,
      "lat": 13.068292,
      "lon": 77.5581735,
      "tags": {
        "check_date": "2025-04-28",
        "name": "Sree Sai Ladies Tailors",
        "shop": "tailor"
      }
    },
    {
      "type": "node",
      "id": 12794240468,
      "lat": 13.0682583,
      "lon": 77.5583312,
      "tags": {
        "check_date": "2025-04-28",
        "leisure": "fitness_centre",
        "name": "Sree Guru Gym"
      }
    },
    {
      "type": "node",
      "id": 12794240469,
      "lat": 13.0680071,
      "lon": 77.5593625,
      "tags": {
        "check_date": "2025-04-28",
        "hairdresser": "barber",
        "name": "Thirumal Men's Parlour",
        "shop": "hairdresser"
      }
    },
    {
      "type": "node",
      "id": 12794240470,
      "lat": 13.0679935,
      "lon": 77.5593985,
      "tags": {
        "check_date": "2025-04-28",
        "name": "Magnolia Boutique",
        "shop": "tailor"
      }
    },
    {
      "type": "node",
      "id": 12794240471,
      "lat": 13.0677661,
      "lon": 77.5593717,
      "tags": {
        "check_date": "2025-05-13",
        "name": "Euro Gurjan Ply",
        "shop": "trade",
        "trade": "timber"
      }
    },
    {
      "type": "node",
      "id": 12794240472,
      "lat": 13.0677339,
      "lon": 77.5595617,
      "tags": {
        "check_date": "2025-06-15",
        "name": "Anand Trading Company",
        "shop": "trade"
      }
    },
    {
      "type": "node",
      "id": 12794240473,
      "lat": 13.0679399,
      "lon": 77.5597026,
      "tags": {
        "brand": "Maruti Suzuki",
        "brand:wikidata": "Q963718",
        "check_date": "2025-04-28",
        "name": "Maruti Suzuki",
        "shop": "car_repair"
      }
    },
    {
      "type": "node",
      "id": 12795228955,
      "lat": 13.066734,
      "lon": 77.5537943,
      "tags": {
        "amenity": "dancing_school;music_school"
      }
    },
    {
      "type": "node",
      "id": 12797457864,
      "lat": 13.0662747,
      "lon": 77.5554311,
      "tags": {
        "check_date": "2025-04-29",
        "name": "New Brand Box Dry Cleaners",
        "shop": "dry_cleaning"
      }
    },
    {
      "type": "node",
      "id": 12797457865,
      "lat": 13.0662621,
      "lon": 77.5554579,
      "tags": {
        "check_date": "2025-04-29",
        "name": "Divyashree Collections & Matching Center",
        "shop": "fabric"
      }
    },
    {
      "type": "node",
      "id": 12797457866,
      "lat": 13.0662499,
      "lon": 77.5554953,
      "tags": {
        "check_date": "2025-04-29",
        "name": "Vidhya Ladies Tailor",
        "shop": "tailor"
      }
    },
    {
      "type": "node",
      "id": 12806368855,
      "lat": 13.0690837,
      "lon": 77.5584112,
      "tags": {
        "addr:floor": "1",
        "brand": "Zudio",
        "brand:wikidata": "Q123375926",
        "check_date": "2025-08-09",
        "level": "1",
        "name": "Zudio",
        "shop": "clothes"
      }
    },
    {
      "type": "node",
      "id": 12833669115,
      "lat": 13.0676724,
      "lon": 77.5598943,
      "tags": {
        "amenity": "doctors",
        "check_date": "2025-05-13",
        "healthcare": "doctor",
        "healthcare:speciality": "ophthalmology",
        "name": "Kruthika Eye Hospital"
      }
    },
    {
      "type": "node",
      "id": 13058538933,
      "lat": 13.0650426,
      "lon": 77.5595943,
      "tags": {
        "check_date": "2025-08-08",
        "name": "Sangeetha",
        "shop": "electronics"
      }
    },
    {
      "type": "node",
      "id": 13059211023,
      "lat": 13.0686056,
      "lon": 77.5585609,
      "tags": {
        "amenity": "atm",
        "brand": "Bank of Baroda",
        "brand:wikidata": "Q2003797",
        "check_date": "2025-08-09",
        "operator": "Bank of Baroda",
        "operator:wikidata": "Q2003797"
      }
    },
    {
      "type": "node",
      "id": 13059211025,
      "lat": 13.0687248,
      "lon": 77.5581411,
      "tags": {
        "check_date": "2025-08-09",
        "name": "Style Union",
        "shop": "clothes"
      }
    },
    {
      "type": "node",
      "id": 13059211027,
      "lat": 13.0691434,
      "lon": 77.5584237,
      "tags": {
        "check_date": "2025-08-09",
        "name": "Tata Star",
        "shop": "convenience"
      }
    },
    {
      "type": "node",
      "id": 13059317105,
      "lat": 13.0701182,
      "lon": 77.5552235,
      "tags": {
        "amenity": "photo_booth",
        "check_date": "2025-08-09",
        "name": "Photo Jumction"
      }
    },
    {
      "type": "node",
      "id": 13339931420,
      "lat": 13.0678307,
      "lon": 77.5660633,
      "tags": {
        "amenity": "bench"
      }
    },
    {
      "type": "node",
      "id": 13339931422,
      "lat": 13.0669456,
      "lon": 77.5660039,
      "tags": {
        "shop": "yes"
      }
    },
    {
      "type": "node",
      "id": 13339931423,
      "lat": 13.0669961,
      "lon": 77.5658778,
      "tags": {
        "shop": "yes"
      }
    },
    {
      "type": "way",
      "id": 52025453,
      "center": {
        "lat": 13.0731055,
        "lon": 77.5530927
      },
      "tags": {
        "amenity": "school",
        "dress_code": "uniform",
        "language:en": "yes",
        "name": "MES KK Public School",
        "name:kn": "ಎಮ್ಇಎಸ್ ಕೇಕೇ ಪಬ್ಲಿಕ್ ಶಾಲೆ",
        "school:gender": "mixed"
      }
    },
    {
      "type": "way",
      "id": 133000703,
      "center": {
        "lat": 13.0683542,
        "lon": 77.5593401
      },
      "tags": {
        "amenity": "public_building",
        "building": "yes",
        "check_date": "2024-01-07",
        "name": "Dwaraka Convention Hall",
        "name:kn": "ದ್ವಾರಕಾ ಕನ್ವೆನ್ಶನ್ ಹಾಲ್"
      }
    },
    {
      "type": "way",
      "id": 224733814,
      "center": {
        "lat": 13.0712418,
        "lon": 77.5567277
      },
      "tags": {
        "leisure": "park",
        "name": "Vidyaranyapura II Block Park"
      }
    },
    {
      "type": "way",
      "id": 224733815,
      "center": {
        "lat": 13.0725874,
        "lon": 77.5555335
      },
      "tags": {
        "landuse": "recreation_ground",
        "leisure": "playground",
        "name": "Vidyaranyapura III Block Recreation Ground"
      }
    },
    {
      "type": "way",
      "id": 225194406,
      "center": {
        "lat": 13.0802475,
        "lon": 77.5565485
      },
      "tags": {
        "leisure": "park"
      }
    },
    {
      "type": "way",
      "id": 225519655,
      "center": {
        "lat": 13.0760072,
        "lon": 77.558426
      },
      "tags": {
        "description": "Playground Containing Flagpole",
        "leisure": "playground",
        "name": "BBMP Playground"
      }
    },
    {
      "type": "way",
      "id": 469890908,
      "center": {
        "lat": 13.0759988,
        "lon": 77.5560553
      },
      "tags": {
        "amenity": "place_of_worship",
        "landuse": "religious",
        "name": "Sri Vidya Ganapati Temple",
        "name:kn": "ವಿದ್ಯ ಗಣಪತಿ ದೇವಸ್ಥಾನ",
        "religion": "hindu"
      }
    },
    {
      "type": "way",
      "id": 469892595,
      "center": {
        "lat": 13.0753062,
        "lon": 77.5556869
      },
      "tags": {
        "check_date": "2025-04-24",
        "landuse": "recreation_ground",
        "leisure": "sports_centre",
        "name": "Vidyaranyapura BBMP Sports Complex"
      }
    },
    {
      "type": "way",
      "id": 594550596,
      "center": {
        "lat": 13.0739388,
        "lon": 77.5700771
      },
      "tags": {
        "leisure": "park"
      }
    },
    {
      "type": "way",
      "id": 594563629,
      "center": {
        "lat": 13.078531,
        "lon": 77.5555057
      },
      "tags": {
        "leisure": "park",
        "name": "NTI Park"
      }
    },
    {
      "type": "way",
      "id": 594563630,
      "center": {
        "lat": 13.0716771,
        "lon": 77.5516646
      },
      "tags": {
        "leisure": "park"
      }
    },
    {
      "type": "way",
      "id": 594566318,
      "center": {
        "lat": 13.0781781,
        "lon": 77.559992
      },
      "tags": {
        "leisure": "park"
      }
    },
    {
      "type": "way",
      "id": 594566322,
      "center": {
        "lat": 13.0778903,
        "lon": 77.5599071
      },
      "tags": {
        "amenity": "place_of_worship",
        "building": "yes",
        "name": "Veeranjaneyaswamy temple",
        "name:kn": "ವೀರಾಂಜನೇಯ ಸ್ವಾಮಿ ದೇವಸ್ಥಾನ",
        "religion": "hindu"
      }
    },
    {
      "type": "way",
      "id": 594573862,
      "center": {
        "lat": 13.0737146,
        "lon": 77.5667558
      },
      "tags": {
        "amenity": "place_of_worship",
        "building": "yes",
        "name": "Snake Idol temple",
        "religion": "hindu"
      }
    },
    {
      "type": "way",
      "id": 675649183,
      "center": {
        "lat": 13.069829,
        "lon": 77.5590965
      },
      "tags": {
        "amenity": "school",
        "name": "Narayana PU College"
      }
    },
    {
      "type": "way",
      "id": 675649186,
      "center": {
        "lat": 13.0745418,
        "lon": 77.5661145
      },
      "tags": {
        "amenity": "school",
        "name": "Government Higher Primary School",
        "name:kn": "ಸರ್ಕಾರಿ ಹಿರಿಯ ಪ್ರಾಥಮಿಕ ಶಾಲೆ"
      }
    },
    {
      "type": "way",
      "id": 675649194,
      "center": {
        "lat": 13.065299,
        "lon": 77.5602248
      },
      "tags": {
        "leisure": "park"
      }
    },
    {
      "type": "way",
      "id": 675649201,
      "center": {
        "lat": 13.0671937,
        "lon": 77.5690303
      },
      "tags": {
        "leisure": "pitch",
        "sport": "tennis"
      }
    },
    {
      "type": "way",
      "id": 675649202,
      "center": {
        "lat": 13.0671814,
        "lon": 77.5687231
      },
      "tags": {
        "leisure": "pitch",
        "sport": "tennis"
      }
    },
    {
      "type": "way",
      "id": 675649204,
      "center": {
        "lat": 13.067187,
        "lon": 77.5688664
      },
      "tags": {
        "leisure": "pitch",
        "sport": "tennis"
      }
    },
    {
      "type": "way",
      "id": 1181417694,
      "center": {
        "lat": 13.0645486,
        "lon": 77.5599777
      },
      "tags": {
        "leisure": "playground"
      }
    },
    {
      "type": "way",
      "id": 1232959666,
      "center": {
        "lat": 13.06765,
        "lon": 77.5685424
      },
      "tags": {
        "leisure": "sports_centre",
        "name": "Nike Bhupathi Tennis Village",
        "sport": "tennis",
        "wheelchair": "limited"
      }
    },
    {
      "type": "way",
      "id": 1232959694,
      "center": {
        "lat": 13.0766519,
        "lon": 77.5593588
      },
      "tags": {
        "access": "private",
        "leisure": "swimming_pool"
      }
    },
    {
      "type": "way",
      "id": 1232959725,
      "center": {
        "lat": 13.0752659,
        "lon": 77.5556347
      },
      "tags": {
        "access": "permissive",
        "leisure": "pitch",
        "sport": "tennis"
      }
    },
    {
      "type": "way",
      "id": 1232959726,
      "center": {
        "lat": 13.0749507,
        "lon": 77.555464
      },
      "tags": {
        "access": "permissive",
        "leisure": "pitch",
        "sport": "basketball"
      }
    },
    {
      "type": "way",
      "id": 1232959727,
      "center": {
        "lat": 13.0749639,
        "lon": 77.5558036
      },
      "tags": {
        "access": "permissive",
        "leisure": "swimming_pool"
      }
    },
    {
      "type": "way",
      "id": 1232959772,
      "center": {
        "lat": 13.0804436,
        "lon": 77.5608721
      },
      "tags": {
        "amenity": "school"
      }
    },
    {
      "type": "way",
      "id": 1232959796,
      "center": {
        "lat": 13.0742623,
        "lon": 77.5641811
      },
      "tags": {
        "amenity": "school"
      }
    },
    {
      "type": "way",
      "id": 1253845473,
      "center": {
        "lat": 13.0770636,
        "lon": 77.5595094
      },
      "tags": {
        "leisure": "park"
      }
    },
    {
      "type": "way",
      "id": 1253845481,
      "center": {
        "lat": 13.0776069,
        "lon": 77.559411
      },
      "tags": {
        "access": "private",
        "leisure": "pitch",
        "sport": "basketball"
      }
    },
    {
      "type": "way",
      "id": 1265424326,
      "center": {
        "lat": 13.0755876,
        "lon": 77.5539816
      },
      "tags": {
        "leisure": "pitch",
        "sport": "volleyball",
        "surface": "sand"
      }
    },
    {
      "type": "way",
      "id": 1265424327,
      "center": {
        "lat": 13.0753844,
        "lon": 77.5542908
      },
      "tags": {
        "amenity": "place_of_worship",
        "check_date": "2025-04-24",
        "name": "Sri Raghavendra Swami Matha",
        "name:kn": "ಶ್ರೀ ರಾಘವೇಂದ್ರ ಸ್ವಾಮಿ ಮಠ",
        "religion": "hindu"
      }
    },
    {
      "type": "way",
      "id": 1265439019,
      "center": {
        "lat": 13.0736929,
        "lon": 77.5592718
      },
      "tags": {
        "amenity": "place_of_worship",
        "check_date": "2025-04-27",
        "landuse": "religious",
        "religion": "hindu"
      }
    },
    {
      "type": "way",
      "id": 1265570509,
      "center": {
        "lat": 13.0696995,
        "lon": 77.5588506
      },
      "tags": {
        "access": "permissive",
        "leisure": "pitch",
        "sport": "basketball"
      }
    },
    {
      "type": "way",
      "id": 1266072938,
      "center": {
        "lat": 13.0761798,
        "lon": 77.5620087
      },
      "tags": {
        "amenity": "school"
      }
    },
    {
      "type": "way",
      "id": 1304390639,
      "center": {
        "lat": 13.0720381,
        "lon": 77.566712
      },
      "tags": {
        "amenity": "place_of_worship",
        "landuse": "religious",
        "name": "Sri Veerabhadreshwara Temple",
        "name:kn": "ವೀರಭದ್ರೇಶ್ವರ ದೇವಸ್ಥಾನ",
        "religion": "hindu"
      }
    },
    {
      "type": "way",
      "id": 1304390819,
      "center": {
        "lat": 13.0695146,
        "lon": 77.5627369
      },
      "tags": {
        "amenity": "fuel",
        "brand": "Bharath Petroleum",
        "name": "Bharat Petroleum",
        "name:kn": "ಭಾರತ್ ಪೆಟ್ರೋಲಿಯಂ",
        "wheelchair": "limited"
      }
    },
    {
      "type": "way",
      "id": 1307652926,
      "center": {
        "lat": 13.0749932,
        "lon": 77.5673288
      },
      "tags": {
        "addr:district": "Bangalore",
        "addr:full": "Vidyaranyapura Post, Thindlu",
        "addr:postcode": "560097",
        "addr:state": "Karnataka",
        "addr:subdistrict": "Bangalore North",
        "amenity": "clinic",
        "description": "Primary Health Centre",
        "healthcare": "centre",
        "name": "Tindlu Primary Health Centre",
        "name:kn": "ಆರೋಗ್ಯ ಪ್ರಾಥಮಿಕ ಕೇಂದ್ರ",
        "source": "OpenGovernmentData"
      }
    },
    {
      "type": "way",
      "id": 1307698420,
      "center": {
        "lat": 13.0677362,
        "lon": 77.5545247
      },
      "tags": {
        "amenity": "school",
        "check_date": "2025-04-23",
        "dress_code": "uniform",
        "name": "Sri Chitanya Pre University College",
        "name:kn": "ಶ್ರಿ ಚೈತನ್ಯ",
        "religion": "no",
        "school:gender": "mixed",
        "website": "https://srichaitanyaschool.net/"
      }
    },
    {
      "type": "way",
      "id": 1307698454,
      "center": {
        "lat": 13.0696177,
        "lon": 77.5552682
      },
      "tags": {
        "building": "retail",
        "check_date": "2025-08-09",
        "name": "All Seasons Supermart",
        "name:kn": "ಆಲ್ ಸೀಸನ್ಸ್ ಸೂಪರ್ಮಾರ್ಟ್",
        "shop": "supermarket"
      }
    },
    {
      "type": "way",
      "id": 1310773905,
      "center": {
        "lat": 13.0637977,
        "lon": 77.5594052
      },
      "tags": {
        "amenity": "fuel",
        "brand": "Indian Oil",
        "brand:wikidata": "Q1289348",
        "name": "Indian Oil"
      }
    },
    {
      "type": "way",
      "id": 1310774030,
      "center": {
        "lat": 13.0668888,
        "lon": 77.5567041
      },
      "tags": {
        "amenity": "place_of_worship",
        "building": "yes",
        "check_date": "2025-04-28",
        "name": "Sri Renukka Yellama Devi Temple",
        "name:kn": "ಶ್ರೀ ರೇಣ್ಣುಕ್ಕಾ ಯೆಲ್ಲಮ್ಮಾ ದೇವಿ ದೇವಸ್ಥಾನಾ",
        "religion": "hindu"
      }
    },
    {
      "type": "way",
      "id": 1346876982,
      "center": {
        "lat": 13.0730575,
        "lon": 77.553018
      },
      "tags": {
        "leisure": "pitch"
      }
    },
    {
      "type": "way",
      "id": 1346885375,
      "center": {
        "lat": 13.0762221,
        "lon": 77.5587515
      },
      "tags": {
        "access": "private",
        "leisure": "pitch",
        "sport": "basketball"
      }
    },
    {
      "type": "way",
      "id": 1377946742,
      "center": {
        "lat": 13.0693758,
        "lon": 77.5552218
      },
      "tags": {
        "access": "customers",
        "amenity": "parking",
        "fee": "no",
        "operator": "All Seasons Supermart",
        "parking": "surface"
      }
    },
    {
      "type": "way",
      "id": 1381888157,
      "center": {
        "lat": 13.0745208,
        "lon": 77.5568706
      },
      "tags": {
        "access": "private",
        "leisure": "swimming_pool"
      }
    },
    {
      "type": "way",
      "id": 1383284326,
      "center": {
        "lat": 13.0787531,
        "lon": 77.557502
      },
      "tags": {
        "leisure": "pitch",
        "sport": "basketball"
      }
    },
    {
      "type": "way",
      "id": 1383284329,
      "center": {
        "lat": 13.0750695,
        "lon": 77.5552039
      },
      "tags": {
        "leisure": "pitch"
      }
    },
    {
      "type": "way",
      "id": 1383284341,
      "center": {
        "lat": 13.0693933,
        "lon": 77.5623976
      },
      "tags": {
        "amenity": "fuel",
        "name": "Essay Petroleum",
        "wheelchair": "limited"
      }
    },
    {
      "type": "way",
      "id": 1383284353,
      "center": {
        "lat": 13.0715781,
        "lon": 77.5592051
      },
      "tags": {
        "amenity": "place_of_worship",
        "building": "yes",
        "religion": "hindu"
      }
    },
    {
      "type": "way",
      "id": 1383284354,
      "center": {
        "lat": 13.0731165,
        "lon": 77.5600615
      },
      "tags": {
        "leisure": "playground"
      }
    },
    {
      "type": "way",
      "id": 1395453047,
      "center": {
        "lat": 13.0688696,
        "lon": 77.5558648
      },
      "tags": {
        "access": "private",
        "garden:type": "residential",
        "leisure": "garden"
      }
    }
  ]
}