{
  "area_name": "Hagaduru",
  "osm_id": 1634130640,
  "osm_type": "node",
  "place_type": "neighbourhood",
  "amenity_count": 174,
  "amenities": [
    {
      "type": "node",
      "id": 989770965,
      "lat": 12.9652978,
      "lon": 77.7486636,
      "tags": {
        "check_date": "2025-05-24",
        "name": "Looking Good Furniture",
        "shop": "furniture"
      }
    },
    {
      "type": "node",
      "id": 989770985,
      "lat": 12.969159,
      "lon": 77.749515,
      "tags": {
        "addr:postcode": "560066",
        "amenity": "place_of_worship",
        "check_date": "2025-05-24",
        "is_in": "Whitefield, Bangalore, Karnataka, India",
        "name": "Jamma Masjid",
        "name:kn": "ಜಾಮ ಮಸೀದಿ",
        "religion": "muslim"
      }
    },
    {
      "type": "node",
      "id": 1368933540,
      "lat": 12.9698963,
      "lon": 77.7501646,
      "tags": {
        "addr:postcode": "560066",
        "addr:street": "Whitefield Main Road",
        "check_date": "2025-07-08",
        "indoor_seating": "no",
        "name": "Mayura Bakery & Sweets",
        "outdoor_seating": "no",
        "shop": "bakery",
        "takeaway": "only"
      }
    },
    {
      "type": "node",
      "id": 1368933552,
      "lat": 12.9701704,
      "lon": 77.7498263,
      "tags": {
        "addr:postcode": "560066",
        "addr:street": "Whitefield Main Road",
        "check_date": "2025-08-19",
        "name": "Brother's Bakery",
        "shop": "bakery"
      }
    },
    {
      "type": "node",
      "id": 1434028772,
      "lat": 12.9688745,
      "lon": 77.7496287,
      "tags": {
        "addr:city": "Bangalore",
        "addr:housenumber": "284",
        "addr:postcode": "560066",
        "addr:street": "Whitefield Main Road",
        "amenity": "pharmacy",
        "check_date": "2025-05-24",
        "dispensing": "yes",
        "healthcare": "pharmacy",
        "is_in": "Whitefield, Bangalore, Karnataka, India",
        "name": "Pushpa Medicals"
      }
    },
    {
      "type": "node",
      "id": 1437206304,
      "lat": 12.9639,
      "lon": 77.7485355,
      "tags": {
        "addr:street": "Whitefield Main Road",
        "amenity": "cafe",
        "brand": "Cafe Coffee Day",
        "brand:wikidata": "Q5017235",
        "cuisine": "coffee_shop",
        "name": "Cafe Coffee Day",
        "name:kn": "ಕಫೆ ಕಾಫಿ ಡೇ",
        "takeaway": "yes",
        "wheelchair": "no"
      }
    },
    {
      "type": "node",
      "id": 1438263194,
      "lat": 12.9683229,
      "lon": 77.749461,
      "tags": {
        "addr:postcode": "560066",
        "addr:street": "Whitefield Main Road",
        "amenity": "bank",
        "atm": "yes",
        "brand": "Bank of Baroda",
        "brand:wikidata": "Q2003797",
        "check_date": "2025-05-24",
        "is_in": "Whitefield, Bangalore, Karnataka, India",
        "level": "1",
        "name": "Bank of Baroda",
        "name:kn": "ಬ್ಯಾಂಕ್ ಆಫ್ ಬರೋಡಾ"
      }
    },
    {
      "type": "node",
      "id": 1439027921,
      "lat": 12.9700266,
      "lon": 77.7497775,
      "tags": {
        "amenity": "restaurant",
        "check_date": "2025-05-24",
        "cuisine": "indian",
        "name": "Mayuri Bar And Restaurant",
        "name:kn": "ಮಯೂರಿ"
      }
    },
    {
      "type": "node",
      "id": 1439027922,
      "lat": 12.9698924,
      "lon": 77.7497282,
      "tags": {
        "addr:street": "Whitefield Main Road",
        "amenity": "bank",
        "atm": "yes",
        "brand": "City Union Bank",
        "brand:en": "City Union Bank",
        "brand:fa": "سیتی یونیون بنک",
        "brand:hi": "सिटी यूनियन बैंक",
        "brand:mr": "सिटी युनियन बँक",
        "brand:ta": "சிட்டி யூனியன் வங்கி",
        "brand:ur": "سٹی یونین بینک",
        "brand:website": "https://www.cityunionbank.com",
        "brand:wikidata": "Q2040264",
        "check_date": "2025-05-24",
        "name": "City Union Bank",
        "name:en": "City Union Bank",
        "name:fa": "سیتی یونیون بنک",
        "name:hi": "सिटी यूनियन बैंक",
        "name:mr": "सिटी युनियन बँक",
        "name:ta": "சிட்டி யூனியன் வங்கி",
        "name:ur": "سٹی یونین بینک",
        "short_name": "CUB",
        "short_name:pa": "ਸੀ ਯੂ ਬੀ",
        "short_name:ur": "سی یو بی"
      }
    },
    {
      "type": "node",
      "id": 1439027927,
      "lat": 12.9692871,
      "lon": 77.7496864,
      "tags": {
        "addr:street": "Whitefield Main Road",
        "amenity": "restaurant",
        "check_date": "2025-08-19",
        "diet:vegetarian": "only",
        "indoor_seating": "no",
        "name": "Shri Lakshmi Vaibhava",
        "name:kn": "ಶ್ರೀಲಕ್ಷ್ಮೀ ವೈಭವ",
        "outdoor_seating": "no",
        "takeaway": "only"
      }
    },
    {
      "type": "node",
      "id": 1466430490,
      "lat": 12.963978,
      "lon": 77.7487116,
      "tags": {
        "amenity": "restaurant",
        "cuisine": "regional",
        "name": "Kolkata's",
        "name:kn": "ಕೊಲ್ಕತ್ತಾಸ್"
      }
    },
    {
      "type": "node",
      "id": 1470833610,
      "lat": 12.9698357,
      "lon": 77.7497385,
      "tags": {
        "addr:postcode": "560066",
        "amenity": "pharmacy",
        "brand": "Apollo Pharmacy",
        "brand:wikidata": "Q62562612",
        "check_date": "2025-08-19",
        "dispensing": "yes",
        "healthcare": "pharmacy",
        "is_in": "Whitefield, Bangalore, Karnataka, India",
        "name": "Apollo Pharmacy",
        "name:kn": "ಅಪೊಲೋ ಫಾರ್ಮಸಿ"
      }
    },
    {
      "type": "node",
      "id": 1472791640,
      "lat": 12.9703247,
      "lon": 77.749882,
      "tags": {
        "amenity": "taxi",
        "name": "Rickshaw Stand",
        "name:kn": "ಆಟೋ ನಿಲ್ದಾಣ"
      }
    },
    {
      "type": "node",
      "id": 1511238390,
      "lat": 12.9724603,
      "lon": 77.7506679,
      "tags": {
        "addr:street": "Whitefield Main Road",
        "amenity": "kindergarten",
        "brand": "Maple Bear",
        "brand:wikidata": "Q10324823",
        "check_date": "2025-08-19",
        "name": "Maple Bear Canadian Pre-School",
        "operator:type": "private"
      }
    },
    {
      "type": "node",
      "id": 1579616024,
      "lat": 12.9699483,
      "lon": 77.7497487,
      "tags": {
        "check_date": "2025-05-24",
        "name": "Chef Baker's",
        "shop": "bakery"
      }
    },
    {
      "type": "node",
      "id": 1579616035,
      "lat": 12.9683188,
      "lon": 77.7494966,
      "tags": {
        "addr:postcode": "560066",
        "amenity": "pharmacy",
        "check_date": "2025-05-24",
        "dispensing": "yes",
        "healthcare": "pharmacy",
        "is_in": "Whitefield, Bangalore, Karnataka, India",
        "name": "National Pharma"
      }
    },
    {
      "type": "node",
      "id": 1579616037,
      "lat": 12.9696091,
      "lon": 77.7500882,
      "tags": {
        "addr:postcode": "560066",
        "check_date": "2025-07-08",
        "is_in": "Whitefield, Bangalore, Karnataka, India",
        "level": "0",
        "name": "Mayura Bakery and Sweets",
        "shop": "bakery"
      }
    },
    {
      "type": "node",
      "id": 1585471058,
      "lat": 12.9697265,
      "lon": 77.7503942,
      "tags": {
        "addr:postcode": "560066",
        "is_in": "Whitefield, Bangalore, Karnataka, India",
        "name": "S V Sushma Hair Dressers",
        "shop": "hairdresser"
      }
    },
    {
      "type": "node",
      "id": 1585697211,
      "lat": 12.9657011,
      "lon": 77.75037,
      "tags": {
        "amenity": "place_of_worship",
        "name": "Veeranjaneya Devasthana",
        "name:kn": "ವೀರಾಂಜನೇಯ",
        "religion": "hindu"
      }
    },
    {
      "type": "node",
      "id": 1585793366,
      "lat": 12.9649166,
      "lon": 77.748862,
      "tags": {
        "amenity": "parking",
        "name": "Visitor's Car Park"
      }
    },
    {
      "type": "node",
      "id": 1585793501,
      "lat": 12.96465,
      "lon": 77.7488204,
      "tags": {
        "amenity": "parking",
        "name": "Visitor's Car Park"
      }
    },
    {
      "type": "node",
      "id": 1590229359,
      "lat": 12.9697192,
      "lon": 77.7502278,
      "tags": {
        "addr:postcode": "560066",
        "addr:street": "Immadihalli Road",
        "is_in": "Whitefield, Bangalore, Karnataka, India",
        "name": "Whitefield Fish and Chicken Centre",
        "shop": "butcher"
      }
    },
    {
      "type": "node",
      "id": 1769130814,
      "lat": 12.9678471,
      "lon": 77.7543636,
      "tags": {
        "amenity": "school",
        "name": "Kuvempu Smaraka Vidya Kendra School",
        "name:kn": "ಕುವೆಂಪು ಸ್ಮಾರಕ ವಿದ್ಯ ಕೇಂದ್ರ"
      }
    },
    {
      "type": "node",
      "id": 1769131738,
      "lat": 12.969431,
      "lon": 77.7530547,
      "tags": {
        "amenity": "bank",
        "brand": "Syndicate Bank",
        "brand:wikidata": "Q2004088",
        "name": "Syndicate Bank",
        "name:en": "Syndicate Bank",
        "name:kn": "ಸಿಂಡಿಕೇಟ್ ಬ್ಯಾಂಕ್",
        "website": "https://www.syndicatebank.in",
        "wikimedia_commons": "Category:Syndicate Bank"
      }
    },
    {
      "type": "node",
      "id": 1916984937,
      "lat": 12.9696677,
      "lon": 77.7507305,
      "tags": {
        "addr:housename": "ZP Complex",
        "addr:housenumber": "first floor",
        "addr:postcode": "560066",
        "addr:street": "Immidahalli road",
        "alt_name": "Homeopathic clinic",
        "amenity": "clinic",
        "designation": "homoeopathic clinic",
        "dispensing": "yes",
        "emergency": "no",
        "healthcare": "clinic",
        "int_name": "Homoeopathic clinic",
        "name": "Cure N Care Homoeopathic clinic",
        "old_name": "Homoeopathic clinic",
        "operator": "Dr. Saina",
        "phone": "9742543753"
      }
    },
    {
      "type": "node",
      "id": 2231314566,
      "lat": 12.9699081,
      "lon": 77.7497687,
      "tags": {
        "check_date": "2025-08-19",
        "name": "Sangeetha Mobiles",
        "name:kn": "ಸಂಗೀತ",
        "shop": "mobile_phone"
      }
    },
    {
      "type": "node",
      "id": 2623251183,
      "lat": 12.9700711,
      "lon": 77.7497969,
      "tags": {
        "alt_name": "5 star Chcken",
        "amenity": "fast_food",
        "brand": "Five Star Chicken",
        "brand:wikidata": "Q127784422",
        "check_date": "2025-08-19",
        "cuisine": "chicken",
        "delivery": "yes",
        "name": "Five Star Chicken",
        "takeaway": "yes"
      }
    },
    {
      "type": "node",
      "id": 2623324531,
      "lat": 12.9681898,
      "lon": 77.7494739,
      "tags": {
        "amenity": "dentist",
        "healthcare": "dentist",
        "name": "Apoorva Dental Clinic"
      }
    },
    {
      "type": "node",
      "id": 2623613743,
      "lat": 12.9680875,
      "lon": 77.7487636,
      "tags": {
        "addr:housenumber": "7",
        "addr:postcode": "560066",
        "addr:street": "Borewell Road",
        "amenity": "kindergarten",
        "name": "Vivero International Preschool"
      }
    },
    {
      "type": "node",
      "id": 2631448303,
      "lat": 12.9696972,
      "lon": 77.7489967,
      "tags": {
        "name": "Best Little Hair House",
        "shop": "hairdresser"
      }
    },
    {
      "type": "node",
      "id": 2653690146,
      "lat": 12.9667754,
      "lon": 77.7512305,
      "tags": {
        "amenity": "restaurant",
        "name": "Blend - Royal Orchid Suites"
      }
    },
    {
      "type": "node",
      "id": 2696072363,
      "lat": 12.9626309,
      "lon": 77.7507675,
      "tags": {
        "addr:city": "Bangalore",
        "addr:postcode": "560066",
        "addr:street": "Whitefield Main Road",
        "alt_name": "The Biere Club",
        "amenity": "pub",
        "microbrewery": "yes",
        "name": "The Biere Street",
        "phone": "+91 9845887454",
        "website": "http://www.thebiereclub.com/"
      }
    },
    {
      "type": "node",
      "id": 2758421762,
      "lat": 12.9706021,
      "lon": 77.7513517,
      "tags": {
        "amenity": "place_of_worship",
        "name": "Calvary Church",
        "religion": "christian"
      }
    },
    {
      "type": "node",
      "id": 3324730874,
      "lat": 12.9680288,
      "lon": 77.7488554,
      "tags": {
        "amenity": "kindergarten",
        "name": "Little Millenium"
      }
    },
    {
      "type": "node",
      "id": 3510695836,
      "lat": 12.9629006,
      "lon": 77.7505684,
      "tags": {
        "amenity": "atm"
      }
    },
    {
      "type": "node",
      "id": 3652343938,
      "lat": 12.9687014,
      "lon": 77.7495959,
      "tags": {
        "brand": "Bata",
        "brand:wikidata": "Q688082",
        "check_date": "2025-08-19",
        "level": "0",
        "name": "Bata",
        "name:kn": "ಬಾಟಾ",
        "shop": "shoes"
      }
    },
    {
      "type": "node",
      "id": 4040044236,
      "lat": 12.9686649,
      "lon": 77.7552578,
      "tags": {
        "amenity": "place_of_worship",
        "denomination": "hindu",
        "name": "Rama temple",
        "name:kn": "ರಾಮ ದೇವಸ್ಥಾನ",
        "religion": "hindu"
      }
    },
    {
      "type": "node",
      "id": 4040044237,
      "lat": 12.9688824,
      "lon": 77.7547837,
      "tags": {
        "amenity": "bar",
        "name": "manju wines"
      }
    },
    {
      "type": "node",
      "id": 4173621974,
      "lat": 12.9700883,
      "lon": 77.7502482,
      "tags": {
        "amenity": "restaurant",
        "check_date": "2025-07-08",
        "cuisine": "chinese",
        "name": "Bangalore Mandarin"
      }
    },
    {
      "type": "node",
      "id": 4173621975,
      "lat": 12.9681333,
      "lon": 77.7493721,
      "tags": {
        "addr:housenumber": "273",
        "addr:street": "Whitefield Main Road",
        "amenity": "ice_cream",
        "check_date": "2025-08-09",
        "delivery": "no",
        "diet:jain": "yes",
        "diet:vegan": "yes",
        "diet:vegetarian": "yes",
        "drive_through": "no",
        "name": "Lakeview Milk Bar",
        "opening_hours": "10:30-13:00",
        "outdoor_seating": "yes",
        "payment:cash": "yes",
        "payment:credit_cards": "yes",
        "payment:debit_cards": "yes",
        "phone": "+91 80 2520 0443",
        "takeaway": "yes",
        "website": "https://lakeviewmilkbar.in",
        "wheelchair": "limited"
      }
    },
    {
      "type": "node",
      "id": 4253229493,
      "lat": 12.9694336,
      "lon": 77.7657145,
      "tags": {
        "addr:street": "Immadihalli Road",
        "amenity": "restaurant",
        "name": "Sree Srinivasa Bhavan",
        "name:en": "Nandi Upachar"
      }
    },
    {
      "type": "node",
      "id": 4445697807,
      "lat": 12.9640704,
      "lon": 77.7495412,
      "tags": {
        "addr:city": "bangalore",
        "addr:housenumber": "188",
        "addr:postcode": "560037",
        "addr:street": "Sita Lakshmi ITPL Rd, AECS Layout - A Block, AECS Layout, Brookefield",
        "amenity": "school",
        "name": "Chrysalis Kids",
        "phone": "+9189515 11406",
        "website": "https://chrysaliskids.com/"
      }
    },
    {
      "type": "node",
      "id": 4489795667,
      "lat": 12.9721912,
      "lon": 77.7506113,
      "tags": {
        "addr:city": "Bangalore",
        "addr:floor": "1",
        "addr:housename": "Regent Prime",
        "addr:housenumber": "48",
        "addr:postcode": "560066",
        "addr:street": "Whitefield Main Road",
        "brand": "Gold's Gym",
        "brand:wikidata": "Q1536234",
        "check_date": "2025-07-05",
        "leisure": "fitness_centre",
        "level": "1",
        "name": "Gold's Gym",
        "opening_hours": "05:30-21:00",
        "phone": "9900238050",
        "sport": "gymnasium",
        "website": "goldsgymindia.com"
      }
    },
    {
      "type": "node",
      "id": 4640317260,
      "lat": 12.9690294,
      "lon": 77.7500256,
      "tags": {
        "addr:housename": "SJN Complex",
        "addr:street": "Whitefield Main Road",
        "amenity": "clinic",
        "check_date": "2025-07-12",
        "contact:phone": "08040904683; 08028456494",
        "contact:website": "https://www.saidentalcarecenter.com",
        "healthcare": "dentist",
        "level": "1",
        "name": "Sai Dental Clinic"
      }
    },
    {
      "type": "node",
      "id": 5281840015,
      "lat": 12.9698576,
      "lon": 77.7527285,
      "tags": {
        "amenity": "fast_food",
        "brand": "Indira Canteen",
        "brand:wikidata": "Q36164828",
        "cuisine": "south_indian",
        "name": "Indira Canteen",
        "operator": "BBMP",
        "takeaway": "yes"
      }
    },
    {
      "type": "node",
      "id": 5281842524,
      "lat": 12.9669112,
      "lon": 77.7609314,
      "tags": {
        "amenity": "bank",
        "atm": "yes",
        "brand": "Axis Bank",
        "brand:wikidata": "Q2003549",
        "name": "Axis Bank",
        "name:kn": "ಆಕ್ಸಿಸ್ ಬ್ಯಾಂಕ್"
      }
    },
    {
      "type": "node",
      "id": 5356991435,
      "lat": 12.9629499,
      "lon": 77.7507243,
      "tags": {
        "amenity": "restaurant",
        "cuisine": "asian",
        "name": "Chin Chin"
      }
    },
    {
      "type": "node",
      "id": 5772000761,
      "lat": 12.9685226,
      "lon": 77.7494774,
      "tags": {
        "amenity": "clinic",
        "healthcare": "clinic",
        "healthcare:speciality": "ophthalmology",
        "name": "Vasan Eye Care"
      }
    },
    {
      "type": "node",
      "id": 5772000762,
      "lat": 12.9684831,
      "lon": 77.7493378,
      "tags": {
        "addr:city": "Bangalore",
        "addr:postcode": "560066",
        "addr:street": "Whitefield Main Road",
        "brand": "cult.fit",
        "brand:wikidata": "Q121289250",
        "leisure": "fitness_centre",
        "name": "cult.fit",
        "website": "curefit.com"
      }
    },
    {
      "type": "node",
      "id": 5772000763,
      "lat": 12.9684845,
      "lon": 77.7495279,
      "tags": {
        "amenity": "fast_food",
        "brand": "Domino's",
        "brand:ks": "ڈومینوز",
        "brand:pa": "ਡੋਮੀਨੋਜ਼",
        "brand:ur": "ڈومینوز",
        "brand:wikidata": "Q839466",
        "brand:wikipedia": "en:Domino's Pizza",
        "check_date": "2025-05-24",
        "cuisine": "pizza",
        "name": "Domino's",
        "name:ks": "ڈومینوز",
        "name:pa": "ਡੋਮੀਨੋਜ਼",
        "name:ur": "ڈومینوز",
        "takeaway": "yes"
      }
    },
    {
      "type": "node",
      "id": 6620856880,
      "lat": 12.9687069,
      "lon": 77.7495436,
      "tags": {
        "check_date": "2025-05-24",
        "leisure": "fitness_centre",
        "level": "1",
        "name": "Signature Fitness"
      }
    },
    {
      "type": "node",
      "id": 7130014151,
      "lat": 12.9681061,
      "lon": 77.7499744,
      "tags": {
        "check_date": "2025-07-12",
        "level": "0",
        "name": "Anand Sweets",
        "shop": "confectionery",
        "wheelchair": "yes"
      }
    },
    {
      "type": "node",
      "id": 7944214478,
      "lat": 12.9606587,
      "lon": 77.7542332,
      "tags": {
        "amenity": "place_of_worship",
        "name": "Sri Kalikamba Temple",
        "religion": "hindu"
      }
    },
    {
      "type": "node",
      "id": 8169318994,
      "lat": 12.96801,
      "lon": 77.7499807,
      "tags": {
        "check_date": "2025-07-12",
        "level": "0",
        "name": "Top Shelf",
        "shop": "alcohol"
      }
    },
    {
      "type": "node",
      "id": 9002707352,
      "lat": 12.970631,
      "lon": 77.7497565,
      "tags": {
        "addr:city": "Bangalore",
        "addr:postcode": "560066",
        "addr:street": "Whitefield Main Road",
        "amenity": "bank",
        "atm": "yes",
        "branch": "Whitefield Branch",
        "brand": "HDFC Bank",
        "brand:wikidata": "Q631047",
        "brand:wikipedia": "en:HDFC Bank",
        "check_date": "2025-06-14",
        "name": "HDFC Bank",
        "operator": "HDFC",
        "short_name": "HDFC"
      }
    },
    {
      "type": "node",
      "id": 9874044750,
      "lat": 12.9658292,
      "lon": 77.7492513,
      "tags": {
        "check_date": "2025-07-01",
        "name": "Smoor",
        "shop": "chocolate",
        "wheelchair": "no"
      }
    },
    {
      "type": "node",
      "id": 10239370048,
      "lat": 12.9707922,
      "lon": 77.7497881,
      "tags": {
        "branch": "Whitefield",
        "brand": "Tanishq",
        "brand:en": "Tanishq",
        "brand:wikidata": "Q13117711",
        "check_date": "2025-08-19",
        "name": "Tanishq",
        "name:en": "Tanishq",
        "operator": "Tata",
        "shop": "jewelry"
      }
    },
    {
      "type": "node",
      "id": 10239370067,
      "lat": 12.9695918,
      "lon": 77.7496321,
      "tags": {
        "brand": "mutli",
        "name": "BRAP Zone",
        "shop": "motorcycle"
      }
    },
    {
      "type": "node",
      "id": 10239370068,
      "lat": 12.9695031,
      "lon": 77.7495358,
      "tags": {
        "amenity": "ice_cream",
        "name": "Giani Ice cream"
      }
    },
    {
      "type": "node",
      "id": 10239370069,
      "lat": 12.9694092,
      "lon": 77.7496769,
      "tags": {
        "shop": "laundry"
      }
    },
    {
      "type": "node",
      "id": 10239370070,
      "lat": 12.9687063,
      "lon": 77.7499548,
      "tags": {
        "check_date": "2025-07-12",
        "level": "0",
        "name": "Jai Ambey Automobiles",
        "shop": "motorcycle_repair"
      }
    },
    {
      "type": "node",
      "id": 11474831417,
      "lat": 12.9690352,
      "lon": 77.7496646,
      "tags": {
        "amenity": "restaurant",
        "check_date": "2025-05-24",
        "cuisine": "indian",
        "name": "Emperor"
      }
    },
    {
      "type": "node",
      "id": 11649830569,
      "lat": 12.9677665,
      "lon": 77.7571704,
      "tags": {
        "name": "Sportfit",
        "shop": "sports"
      }
    },
    {
      "type": "node",
      "id": 11898639334,
      "lat": 12.9678822,
      "lon": 77.7499422,
      "tags": {
        "check_date": "2025-07-12",
        "level": "0",
        "name": "Malabar Jewelers",
        "shop": "jewelry"
      }
    },
    {
      "type": "node",
      "id": 12500298573,
      "lat": 12.9678752,
      "lon": 77.7500478,
      "tags": {
        "amenity": "hospital",
        "branch": "Whitefield",
        "check_date": "2025-07-12",
        "healthcare": "hospital",
        "name": "Dr. Agarwal's Eye Hospital",
        "operator": "Dr. Agarwal's Eye Hospital",
        "operator:type": "private",
        "operator:wikidata": "Q17052044"
      }
    },
    {
      "type": "node",
      "id": 12860399902,
      "lat": 12.9685348,
      "lon": 77.7495183,
      "tags": {
        "amenity": "clinic",
        "check_date": "2025-05-24",
        "healthcare": "clinic",
        "name": "Srinivasa Clinic"
      }
    },
    {
      "type": "node",
      "id": 12860399904,
      "lat": 12.9675839,
      "lon": 77.7493604,
      "tags": {
        "check_date": "2025-05-24",
        "name": "Bismallah Chicken Center",
        "shop": "butcher"
      }
    },
    {
      "type": "node",
      "id": 12860399906,
      "lat": 12.9681888,
      "lon": 77.7494485,
      "tags": {
        "check_date": "2025-05-24",
        "name": "Sree Gokulam",
        "shop": "yes"
      }
    },
    {
      "type": "node",
      "id": 12860399909,
      "lat": 12.9693295,
      "lon": 77.7496344,
      "tags": {
        "amenity": "photo_booth",
        "check_date": "2025-08-19",
        "name": "Vivek Studio And Video Coverage"
      }
    },
    {
      "type": "node",
      "id": 12860399914,
      "lat": 12.9691098,
      "lon": 77.7496337,
      "tags": {
        "check_date": "2025-05-24",
        "name": "National Traders",
        "shop": "trade",
        "trade": "cement"
      }
    },
    {
      "type": "node",
      "id": 12860399915,
      "lat": 12.9691349,
      "lon": 77.7496363,
      "tags": {
        "check_date": "2025-05-24",
        "name": "Top Brother Tailors",
        "shop": "tailor"
      }
    },
    {
      "type": "node",
      "id": 12860399917,
      "lat": 12.9691843,
      "lon": 77.7496375,
      "tags": {
        "check_date": "2025-05-24",
        "name": "Smart Club",
        "shop": "mobile_phone"
      }
    },
    {
      "type": "node",
      "id": 12860399918,
      "lat": 12.9692553,
      "lon": 77.7496784,
      "tags": {
        "check_date": "2025-05-24",
        "name": "Flore Tributes",
        "shop": "florist"
      }
    },
    {
      "type": "node",
      "id": 12860399919,
      "lat": 12.9656146,
      "lon": 77.7486723,
      "tags": {
        "check_date": "2025-05-24",
        "name": "Victoria Spirits",
        "shop": "alcohol"
      }
    },
    {
      "type": "node",
      "id": 12860399920,
      "lat": 12.969364,
      "lon": 77.7496911,
      "tags": {
        "check_date": "2025-08-19",
        "name": "Fone Case",
        "shop": "mobile_phone"
      }
    },
    {
      "type": "node",
      "id": 12860399921,
      "lat": 12.9700878,
      "lon": 77.7498151,
      "tags": {
        "check_date": "2025-05-24",
        "shop": "mobile_phone"
      }
    },
    {
      "type": "node",
      "id": 12860399922,
      "lat": 12.9701285,
      "lon": 77.7498284,
      "tags": {
        "check_date": "2025-08-19",
        "name": "Sree Sai Opticals",
        "shop": "optician"
      }
    },
    {
      "type": "node",
      "id": 12860399923,
      "lat": 12.9701662,
      "lon": 77.7498036,
      "tags": {
        "amenity": "photo_booth",
        "check_date": "2025-08-19",
        "name": "Sai Ram Studio"
      }
    },
    {
      "type": "node",
      "id": 12860399924,
      "lat": 12.9702961,
      "lon": 77.7497154,
      "tags": {
        "check_date": "2025-05-24",
        "name": "Ajay Flower Shop",
        "shop": "florist"
      }
    },
    {
      "type": "node",
      "id": 12860399926,
      "lat": 12.9682275,
      "lon": 77.7494832,
      "tags": {
        "check_date": "2025-05-24",
        "name": "Sai Glass And Plywood",
        "shop": "trade",
        "trade": "timber"
      }
    },
    {
      "type": "node",
      "id": 12860399928,
      "lat": 12.9682577,
      "lon": 77.749489,
      "tags": {
        "amenity": "cafe",
        "check_date": "2025-05-24",
        "level": "0",
        "name": "Desi Cuisine"
      }
    },
    {
      "type": "node",
      "id": 12860399929,
      "lat": 12.9683746,
      "lon": 77.7494848,
      "tags": {
        "amenity": "cafe",
        "check_date": "2025-05-24",
        "name": "Lemon Krust"
      }
    },
    {
      "type": "node",
      "id": 12860399930,
      "lat": 12.9684904,
      "lon": 77.7494957,
      "tags": {
        "amenity": "doctors",
        "check_date": "2025-05-24",
        "healthcare": "doctor",
        "healthcare:speciality": "dermatology",
        "name": "D White Feather"
      }
    },
    {
      "type": "node",
      "id": 12860399931,
      "lat": 12.9685405,
      "lon": 77.7494702,
      "tags": {
        "amenity": "dentist",
        "check_date": "2025-05-24",
        "healthcare": "dentist",
        "level": "1",
        "name": "Smile Zone"
      }
    },
    {
      "type": "node",
      "id": 12860399932,
      "lat": 12.9687357,
      "lon": 77.7495754,
      "tags": {
        "check_date": "2025-05-24",
        "name": "Ajanta Tiles",
        "shop": "tiles"
      }
    },
    {
      "type": "node",
      "id": 12860399933,
      "lat": 12.9689367,
      "lon": 77.7496425,
      "tags": {
        "amenity": "social_facility",
        "check_date": "2025-05-24",
        "name": "Pushpa Nursing Home",
        "social_facility": "nursing_home",
        "social_facility:for": "senior"
      }
    },
    {
      "type": "node",
      "id": 12860980654,
      "lat": 12.9648136,
      "lon": 77.7485341,
      "tags": {
        "amenity": "shelter"
      }
    },
    {
      "type": "node",
      "id": 12860980661,
      "lat": 12.9636168,
      "lon": 77.7484588,
      "tags": {
        "check_date": "2025-05-24;2025-06-10",
        "male": "yes",
        "name": "Liviu;Raju Men's Salon",
        "shop": "clothes;hairdresser"
      }
    },
    {
      "type": "node",
      "id": 12901470581,
      "lat": 12.9700147,
      "lon": 77.7502291,
      "tags": {
        "brand": "Lenskart",
        "brand:wikidata": "Q17068753",
        "check_date": "2025-07-08",
        "name": "Lenskart",
        "shop": "optician"
      }
    },
    {
      "type": "node",
      "id": 12901470582,
      "lat": 12.9643385,
      "lon": 77.7487181,
      "tags": {
        "check_date": "2025-06-10",
        "name": "Titan Eye",
        "shop": "optician"
      }
    },
    {
      "type": "node",
      "id": 12946368099,
      "lat": 12.9712265,
      "lon": 77.7503977,
      "tags": {
        "amenity": "veterinary",
        "check_date": "2025-06-24",
        "name": "V Care Pet Polyclinic"
      }
    },
    {
      "type": "node",
      "id": 12946368100,
      "lat": 12.9708177,
      "lon": 77.7502742,
      "tags": {
        "check_date": "2025-07-08",
        "name": "JIO",
        "shop": "telecommunication"
      }
    },
    {
      "type": "node",
      "id": 12948883251,
      "lat": 12.9707706,
      "lon": 77.7502756,
      "tags": {
        "check_date": "2025-07-08",
        "name": "Specs Makers",
        "shop": "optician"
      }
    },
    {
      "type": "node",
      "id": 12955917170,
      "lat": 12.9656707,
      "lon": 77.7491354,
      "tags": {
        "amenity": "restaurant",
        "check_date": "2025-06-27",
        "diet:vegetarian": "yes",
        "name": "Udupi Vibhava"
      }
    },
    {
      "type": "node",
      "id": 12965791635,
      "lat": 12.9700554,
      "lon": 77.7502358,
      "tags": {
        "check_date": "2025-07-08",
        "name": "Mayur Bangle Store",
        "shop": "cosmetics"
      }
    },
    {
      "type": "node",
      "id": 12965791636,
      "lat": 12.9693331,
      "lon": 77.7500374,
      "tags": {
        "check_date": "2025-07-08",
        "name": "Catch Air Travels",
        "shop": "travel_agency"
      }
    },
    {
      "type": "node",
      "id": 12972973409,
      "lat": 12.9641837,
      "lon": 77.7486991,
      "tags": {
        "amenity": "bank",
        "brand": "Kotak Mahindra Bank",
        "brand:wikidata": "Q2040404",
        "check_date": "2025-07-03",
        "name": "Kotak Mahindra Bank"
      }
    },
    {
      "type": "node",
      "id": 12979358718,
      "lat": 12.9694292,
      "lon": 77.7497015,
      "tags": {
        "check_date": "2025-07-05",
        "name": "Virav's",
        "shop": "jewelry"
      }
    },
    {
      "type": "node",
      "id": 12979358719,
      "lat": 12.9676765,
      "lon": 77.749386,
      "tags": {
        "check_date": "2025-07-05",
        "shop": "motorcycle_repair"
      }
    },
    {
      "type": "node",
      "id": 12987428702,
      "lat": 12.9712096,
      "lon": 77.7503378,
      "tags": {
        "check_date": "2025-07-08",
        "level": "0",
        "name": "New Priyanka Stationery",
        "shop": "stationery"
      }
    },
    {
      "type": "node",
      "id": 12987428703,
      "lat": 12.9711899,
      "lon": 77.7503329,
      "tags": {
        "amenity": "fast_food",
        "check_date": "2025-07-08",
        "indoor_seating": "yes",
        "level": "0",
        "name": "Lassi Corner",
        "outdoor_seating": "no"
      }
    },
    {
      "type": "node",
      "id": 12987428704,
      "lat": 12.9711627,
      "lon": 77.7503271,
      "tags": {
        "check_date": "2025-07-08",
        "level": "1",
        "name": "Alpha Enterprises",
        "shop": "power_tools"
      }
    },
    {
      "type": "node",
      "id": 12987428705,
      "lat": 12.9710885,
      "lon": 77.7503176,
      "tags": {
        "amenity": "fast_food",
        "check_date": "2025-07-08",
        "cuisine": "chaat",
        "name": "Bhangarpet Snacks Point"
      }
    },
    {
      "type": "node",
      "id": 12987428706,
      "lat": 12.9710791,
      "lon": 77.7503465,
      "tags": {
        "check_date": "2025-07-08",
        "name": "Mahavir Trades",
        "shop": "trade"
      }
    },
    {
      "type": "node",
      "id": 12987428707,
      "lat": 12.9710748,
      "lon": 77.7503726,
      "tags": {
        "amenity": "fast_food",
        "check_date": "2025-07-08",
        "cuisine": "juice"
      }
    },
    {
      "type": "node",
      "id": 12987428708,
      "lat": 12.9710649,
      "lon": 77.7504113,
      "tags": {
        "amenity": "pharmacy",
        "brand": "MedPlus",
        "brand:wikidata": "Q65684234",
        "check_date": "2025-07-08",
        "healthcare": "pharmacy",
        "name": "MedPlus"
      }
    },
    {
      "type": "node",
      "id": 12987428709,
      "lat": 12.9701393,
      "lon": 77.7502477,
      "tags": {
        "amenity": "clinic",
        "check_date": "2025-07-08",
        "contact:phone": "+91 92421 09671",
        "healthcare": "clinic",
        "level": "0",
        "name": "MS Clinic, Diagnostic & Scan Center"
      }
    },
    {
      "type": "node",
      "id": 12987428710,
      "lat": 12.9701354,
      "lon": 77.7502963,
      "tags": {
        "check_date": "2025-07-08",
        "level": "1",
        "name": "Franke Faber",
        "shop": "electronics"
      }
    },
    {
      "type": "node",
      "id": 12987428711,
      "lat": 12.9700845,
      "lon": 77.7502886,
      "tags": {
        "check_date": "2025-07-08",
        "contact:phone": "+91 70197 51429",
        "level": "1",
        "name": "Sumiz Makeup Studio & Academy",
        "shop": "beauty"
      }
    },
    {
      "type": "node",
      "id": 12987464375,
      "lat": 12.9700304,
      "lon": 77.7502059,
      "tags": {
        "amenity": "bureau_de_change",
        "check_date": "2025-07-08",
        "level": "-1",
        "name": "oakforex"
      }
    },
    {
      "type": "node",
      "id": 12987464376,
      "lat": 12.9700314,
      "lon": 77.7502722,
      "tags": {
        "check_date": "2025-07-08",
        "contact:phone": "+91 96118 85577; +91 96118 87755",
        "level": "1",
        "name": "Envy Aesthetics",
        "shop": "beauty"
      }
    },
    {
      "type": "node",
      "id": 12987464377,
      "lat": 12.9700045,
      "lon": 77.7501998,
      "tags": {
        "check_date": "2025-07-08",
        "level": "-1",
        "name": "Aubree",
        "shop": "yes"
      }
    },
    {
      "type": "node",
      "id": 12987464378,
      "lat": 12.9699661,
      "lon": 77.7501765,
      "tags": {
        "check_date": "2025-07-08",
        "name": "Kheer Kadamb",
        "shop": "sweet"
      }
    },
    {
      "type": "node",
      "id": 12987464379,
      "lat": 12.9699334,
      "lon": 77.7501684,
      "tags": {
        "check_date": "2025-07-08",
        "name": "Krishna Electricals And Hardware",
        "shop": "hardware"
      }
    },
    {
      "type": "node",
      "id": 12987464380,
      "lat": 12.9697484,
      "lon": 77.750104,
      "tags": {
        "amenity": "fast_food",
        "check_date": "2025-07-08",
        "cuisine": "chaat",
        "fixme": "incomplete name",
        "level": "0",
        "name": "Mothi Dauran"
      }
    },
    {
      "type": "node",
      "id": 12987464382,
      "lat": 12.9696933,
      "lon": 77.7500947,
      "tags": {
        "check_date": "2025-07-08",
        "name": "Shivam Enterprises",
        "shop": "mobile_phone"
      }
    },
    {
      "type": "node",
      "id": 12987464383,
      "lat": 12.9695346,
      "lon": 77.7500672,
      "tags": {
        "check_date": "2025-07-08",
        "level": "0",
        "name": "Sana Enterprises",
        "shop": "stationery"
      }
    },
    {
      "type": "node",
      "id": 12987464384,
      "lat": 12.9694757,
      "lon": 77.7500622,
      "tags": {
        "check_date": "2025-07-08",
        "clothes": "children",
        "level": "0",
        "name": "Smart Kids",
        "shop": "clothes"
      }
    },
    {
      "type": "node",
      "id": 12987464385,
      "lat": 12.9694351,
      "lon": 77.7500502,
      "tags": {
        "check_date": "2025-07-08",
        "name": "Mob Care",
        "shop": "mobile_phone"
      }
    },
    {
      "type": "node",
      "id": 12987464386,
      "lat": 12.9693994,
      "lon": 77.7500408,
      "tags": {
        "check_date": "2025-07-08",
        "name": "KNK Fashions",
        "shop": "clothes"
      }
    },
    {
      "type": "node",
      "id": 12987464387,
      "lat": 12.9693624,
      "lon": 77.7500391,
      "tags": {
        "check_date": "2025-07-08",
        "name": "Popular Footwear",
        "shop": "shoes"
      }
    },
    {
      "type": "node",
      "id": 12987464388,
      "lat": 12.9692821,
      "lon": 77.7500384,
      "tags": {
        "check_date": "2025-07-08",
        "shop": "clothes"
      }
    },
    {
      "type": "node",
      "id": 12987464389,
      "lat": 12.9692162,
      "lon": 77.7501638,
      "tags": {
        "amenity": "restaurant",
        "check_date": "2025-07-08",
        "cuisine": "kerala;indian;regional;south_indian",
        "name": "Kerala Home Kitchen"
      }
    },
    {
      "type": "node",
      "id": 12987464390,
      "lat": 12.9691861,
      "lon": 77.7500145,
      "tags": {
        "addr:housename": "SJN Complex",
        "addr:street": "Whitefield Main Road",
        "check_date": "2025-07-08;2025-07-12",
        "level": "0",
        "name": "Jamela Tent House",
        "shop": "marquee"
      }
    },
    {
      "type": "node",
      "id": 12995167686,
      "lat": 12.9676006,
      "lon": 77.749742,
      "tags": {
        "amenity": "atm",
        "brand": "Indian Bank",
        "brand:wikidata": "Q2003789",
        "check_date": "2025-07-12",
        "level": "0",
        "operator": "Indian Bank",
        "operator:wikidata": "Q2003789"
      }
    },
    {
      "type": "node",
      "id": 12995167687,
      "lat": 12.9675932,
      "lon": 77.7497826,
      "tags": {
        "amenity": "dentist",
        "check_date": "2025-07-12",
        "healthcare": "dentist",
        "name": "Dr. Rakesh's Dental"
      }
    },
    {
      "type": "node",
      "id": 12995167688,
      "lat": 12.9671526,
      "lon": 77.7498204,
      "tags": {
        "amenity": "events_venue",
        "check_date": "2025-07-12",
        "name": "Hops Haus"
      }
    },
    {
      "type": "node",
      "id": 12995167689,
      "lat": 12.9669341,
      "lon": 77.7497355,
      "tags": {
        "amenity": "kindergarten",
        "check_date": "2025-07-12",
        "name": "Inventure Preschool"
      }
    },
    {
      "type": "node",
      "id": 12995177281,
      "lat": 12.969143,
      "lon": 77.7500091,
      "tags": {
        "addr:housename": "SJN Complex",
        "addr:street": "Whitefield Main Road",
        "check_date": "2025-07-12",
        "level": "0",
        "name": "Pooja Jewels",
        "shop": "jewelry"
      }
    },
    {
      "type": "node",
      "id": 12995177282,
      "lat": 12.9690992,
      "lon": 77.7499949,
      "tags": {
        "addr:housename": "SJN Complex",
        "addr:street": "Whitefield Main Road",
        "check_date": "2025-07-12",
        "level": "0",
        "name": "Mahadev Electricals & Hardware",
        "shop": "hardware"
      }
    },
    {
      "type": "node",
      "id": 12995177283,
      "lat": 12.9690688,
      "lon": 77.7499869,
      "tags": {
        "addr:housename": "SJN Complex",
        "addr:street": "Whitefield Main Road",
        "check_date": "2025-07-12",
        "level": "0",
        "name": "Sai Ram Hot Chips",
        "shop": "snack",
        "snack": "chips"
      }
    },
    {
      "type": "node",
      "id": 12995177284,
      "lat": 12.9690415,
      "lon": 77.7499878,
      "tags": {
        "addr:housename": "SJN Complex",
        "addr:street": "Whitefield Main Road",
        "check_date": "2025-07-12",
        "level": "0",
        "name": "Hello Fresh",
        "shop": "butcher"
      }
    },
    {
      "type": "node",
      "id": 12995177285,
      "lat": 12.9690089,
      "lon": 77.7499794,
      "tags": {
        "addr:housename": "SJN Complex",
        "addr:street": "Whitefield Main Road",
        "check_date": "2025-07-12",
        "level": "0",
        "name": "C8 Men's Wear",
        "name:kn": "ಸಿ8 ಮೆನ್ಸ್ ವೇರ್",
        "shop": "clothes"
      }
    },
    {
      "type": "node",
      "id": 12995177286,
      "lat": 12.968911,
      "lon": 77.7499295,
      "tags": {
        "brand": "Nandini",
        "brand:wikidata": "Q124374212",
        "check_date": "2025-07-12",
        "name": "Nandini",
        "shop": "dairy"
      }
    },
    {
      "type": "node",
      "id": 12995177287,
      "lat": 12.9686696,
      "lon": 77.7499445,
      "tags": {
        "check_date": "2025-07-12",
        "clothes": "helmets",
        "level": "0",
        "name": "Jai Ambey Automobiles",
        "shop": "clothes"
      }
    },
    {
      "type": "node",
      "id": 12995177288,
      "lat": 12.9685591,
      "lon": 77.7500055,
      "tags": {
        "check_date": "2025-07-12",
        "level": "1",
        "name": "Prestige Xclusive",
        "shop": "houseware"
      }
    },
    {
      "type": "node",
      "id": 12995177289,
      "lat": 12.968608,
      "lon": 77.7499376,
      "tags": {
        "check_date": "2025-07-12",
        "clothes": "casual",
        "level": "0",
        "name": "X Zone",
        "shop": "clothes"
      }
    },
    {
      "type": "node",
      "id": 12995177290,
      "lat": 12.9685475,
      "lon": 77.7499318,
      "tags": {
        "check_date": "2025-07-12",
        "level": "0",
        "name": "Kids Zone",
        "shop": "clothes"
      }
    },
    {
      "type": "node",
      "id": 12995177291,
      "lat": 12.9686273,
      "lon": 77.7499967,
      "tags": {
        "check_date": "2025-07-12",
        "name": "Ultrafresh",
        "shop": "furniture"
      }
    },
    {
      "type": "node",
      "id": 12995177292,
      "lat": 12.9682653,
      "lon": 77.749887,
      "tags": {
        "amenity": "fast_food",
        "check_date": "2025-07-12",
        "cuisine": "momos",
        "fast_food": "momos",
        "name": "Darjeeling Dotma Fast Food"
      }
    },
    {
      "type": "node",
      "id": 12995177294,
      "lat": 12.9680975,
      "lon": 77.7500011,
      "tags": {
        "check_date": "2025-07-12",
        "level": "1",
        "name": "Wooden Street",
        "shop": "furniture"
      }
    },
    {
      "type": "node",
      "id": 12995177295,
      "lat": 12.968095,
      "lon": 77.7500291,
      "tags": {
        "alt_name": "Skin Care Wellness",
        "check_date": "2025-07-12",
        "name": "Ghogi Spa",
        "shop": "massage"
      }
    },
    {
      "type": "node",
      "id": 12995177296,
      "lat": 12.9680004,
      "lon": 77.7500178,
      "tags": {
        "amenity": "pub",
        "check_date": "2025-07-12",
        "level": "1",
        "name": "4friends"
      }
    },
    {
      "type": "node",
      "id": 12995187521,
      "lat": 12.9690647,
      "lon": 77.7500197,
      "tags": {
        "amenity": "pharmacy",
        "check_date": "2025-07-12",
        "healthcare": "pharmacy",
        "name": "Homoeo Pharma"
      }
    },
    {
      "type": "node",
      "id": 12995187522,
      "lat": 12.9691124,
      "lon": 77.7500322,
      "tags": {
        "check_date": "2025-07-12",
        "name": "Apple Service Center",
        "repair": "mobile_phone",
        "shop": "repair"
      }
    },
    {
      "type": "node",
      "id": 12995187523,
      "lat": 12.9690912,
      "lon": 77.7500283,
      "tags": {
        "check_date": "2025-07-12",
        "name": "Sri Sai Chil",
        "shop": "vacant"
      }
    },
    {
      "type": "node",
      "id": 12995187524,
      "lat": 12.9691735,
      "lon": 77.7500467,
      "tags": {
        "check_date": "2025-07-12",
        "shop": "telecommunication"
      }
    },
    {
      "type": "node",
      "id": 12995187525,
      "lat": 12.9691444,
      "lon": 77.7500385,
      "tags": {
        "check_date": "2025-07-12",
        "name": "Attica",
        "shop": "yes"
      }
    },
    {
      "type": "way",
      "id": 129843834,
      "center": {
        "lat": 12.9711024,
        "lon": 77.7496555
      },
      "tags": {
        "amenity": "place_of_worship",
        "landuse": "religious",
        "religion": "christian"
      }
    },
    {
      "type": "way",
      "id": 130510276,
      "center": {
        "lat": 12.9708172,
        "lon": 77.7503318
      },
      "tags": {
        "addr:postcode": "560066",
        "addr:street": "Whitefield Main Road",
        "brand": "Reliance Fresh",
        "brand:wikidata": "Q7311014",
        "building": "retail",
        "building:levels": "1",
        "check_date": "2025-07-08",
        "name": "Reliance Fresh",
        "name:kn": "ರಿಲಾಯನ್ಸ್ ಫ್ರೆಶ್",
        "roof:levels": "0",
        "roof:shape": "flat",
        "shop": "supermarket",
        "wheelchair": "limited"
      }
    },
    {
      "type": "way",
      "id": 141454553,
      "center": {
        "lat": 12.9701362,
        "lon": 77.7504747
      },
      "tags": {
        "amenity": "doctors",
        "building": "yes",
        "building:levels": "1",
        "check_date": "2025-07-08",
        "healthcare": "doctor",
        "int_name": "Sisters of St. Joseph of Terbes O'grady Health and Welfare Centre",
        "name": "Dr. O'grady Health And Welfare Center"
      }
    },
    {
      "type": "way",
      "id": 141454554,
      "center": {
        "lat": 12.9705845,
        "lon": 77.7504976
      },
      "tags": {
        "amenity": "school",
        "building": "school",
        "building:colour": "lightyellow",
        "building:material": "plaster",
        "roof:shape": "flat"
      }
    },
    {
      "type": "way",
      "id": 141454555,
      "center": {
        "lat": 12.9704809,
        "lon": 77.7504531
      },
      "tags": {
        "amenity": "school",
        "check_date": "2025-07-08",
        "name": "Sisa Indo-Swiss Academy"
      }
    },
    {
      "type": "way",
      "id": 145128192,
      "center": {
        "lat": 12.9715992,
        "lon": 77.7496968
      },
      "tags": {
        "leisure": "social_club"
      }
    },
    {
      "type": "way",
      "id": 145130459,
      "center": {
        "lat": 12.964412,
        "lon": 77.7498733
      },
      "tags": {
        "leisure": "swimming_pool"
      }
    },
    {
      "type": "way",
      "id": 240027932,
      "center": {
        "lat": 12.9695604,
        "lon": 77.7485072
      },
      "tags": {
        "addr:city": "Bangalore",
        "addr:postcode": "560066",
        "addr:street": "Outer Circle",
        "amenity": "kindergarten",
        "name": "Seven Senses School Whitefield"
      }
    },
    {
      "type": "way",
      "id": 251666165,
      "center": {
        "lat": 12.9640388,
        "lon": 77.758752
      },
      "tags": {
        "amenity": "school",
        "name": "Government School",
        "name:kn": "ಸರ್ಕಾರಿ ಶಾಲೆ"
      }
    },
    {
      "type": "way",
      "id": 344322136,
      "center": {
        "lat": 12.9603704,
        "lon": 77.7499322
      },
      "tags": {
        "leisure": "pitch",
        "sport": "tennis"
      }
    },
    {
      "type": "way",
      "id": 477485293,
      "center": {
        "lat": 12.9711533,
        "lon": 77.749805
      },
      "tags": {
        "amenity": "place_of_worship",
        "building": "church",
        "building:levels": "1",
        "check_date": "2025-07-05",
        "denomination": "anglican",
        "historic": "yes",
        "name": "CSI KCD Memorial Church",
        "religion": "christian",
        "roof:levels": "0",
        "roof:shape": "gabled",
        "start_date": "1886"
      }
    },
    {
      "type": "way",
      "id": 542869095,
      "center": {
        "lat": 12.9688183,
        "lon": 77.7503934
      },
      "tags": {
        "building": "yes",
        "name": "Loyal Meat Shop",
        "shop": "seafood"
      }
    },
    {
      "type": "way",
      "id": 598024881,
      "center": {
        "lat": 12.9697563,
        "lon": 77.7496024
      },
      "tags": {
        "addr:street": "Whitefield Main Road",
        "branch": "Whitefield",
        "building": "commercial",
        "building:levels": "4",
        "building:material": "concrete",
        "building:material:concrete": "panels",
        "name": "Dress Circle",
        "parking": "yes",
        "roof:levels": "1",
        "roof:shape": "skillion",
        "shop": "clothes"
      }
    },
    {
      "type": "way",
      "id": 674106057,
      "center": {
        "lat": 12.9659316,
        "lon": 77.7493736
      },
      "tags": {
        "addr:street": "Whitefield Main Road",
        "amenity": "hospital",
        "building": "yes",
        "building:levels": "3",
        "check_date": "2025-07-12",
        "emergency": "yes",
        "healthcare": "hospital",
        "healthcare:speciality": "neurology;dermatology;cardiology;pulmonology;plastic_surgery;physiatry;urology;fertility;internal;paediatrics;otolaryngology",
        "name": "Svastha Hospital",
        "roof:levels": "0",
        "roof:shape": "flat",
        "wheelchair": "yes"
      }
    },
    {
      "type": "way",
      "id": 704936390,
      "center": {
        "lat": 12.9688345,
        "lon": 77.7501087
      },
      "tags": {
        "addr:street": "Whitefield Main Road",
        "building": "yes",
        "building:levels": "2",
        "building:material": "concrete",
        "building:material:concrete": "panels",
        "check_date": "2025-07-12",
        "name": "Loyal City Hypermarket",
        "roof:levels": "1",
        "roof:shape": "flat",
        "shop": "supermarket",
        "wheelchair": "limited"
      }
    },
    {
      "type": "way",
      "id": 704936395,
      "center": {
        "lat": 12.9689357,
        "lon": 77.7494971
      },
      "tags": {
        "addr:city": "Bangalore",
        "addr:housenumber": "284",
        "addr:postcode": "560066",
        "addr:street": "Whitefield Main road",
        "amenity": "hospital",
        "healthcare": "hospital",
        "name": "Pushpa Nursing Home",
        "phone": "+917676548532",
        "website": "https://www.pushpanursinghome.com/"
      }
    },
    {
      "type": "way",
      "id": 1061067882,
      "center": {
        "lat": 12.9689451,
        "lon": 77.7493947
      },
      "tags": {
        "access": "private",
        "amenity": "parking",
        "parking": "surface"
      }
    },
    {
      "type": "way",
      "id": 1088209024,
      "center": {
        "lat": 12.9622675,
        "lon": 77.7496675
      },
      "tags": {
        "amenity": "school",
        "check_date": "2025-08-01",
        "name": "Carmel Teresa School"
      }
    },
    {
      "type": "way",
      "id": 1119502324,
      "center": {
        "lat": 12.9695078,
        "lon": 77.7496433
      },
      "tags": {
        "building": "no",
        "check_date": "2025-07-05",
        "name": "JK Mall",
        "shop": "mall"
      }
    },
    {
      "type": "way",
      "id": 1286778504,
      "center": {
        "lat": 12.9629156,
        "lon": 77.7529861
      },
      "tags": {
        "leisure": "swimming_pool"
      }
    },
    {
      "type": "way",
      "id": 1286778505,
      "center": {
        "lat": 12.9657106,
        "lon": 77.7496589
      },
      "tags": {
        "access": "private",
        "amenity": "parking",
        "parking": "surface"
      }
    },
    {
      "type": "way",
      "id": 1338326416,
      "center": {
        "lat": 12.9740856,
        "lon": 77.7575595
      },
      "tags": {
        "access": "private",
        "leisure": "swimming_pool"
      }
    },
    {
      "type": "way",
      "id": 1360924190,
      "center": {
        "lat": 12.9697783,
        "lon": 77.7533991
      },
      "tags": {
        "amenity": "school",
        "name": "Government School",
        "name:kn": "ಸರ್ಕಾರಿ ಶಾಲೆ"
      }
    },
    {
      "type": "way",
      "id": 1360924191,
      "center": {
        "lat": 12.9677737,
        "lon": 77.7544453
      },
      "tags": {
        "amenity": "school"
      }
    },
    {
      "type": "way",
      "id": 1360924193,
      "center": {
        "lat": 12.9656541,
        "lon": 77.7600324
      },
      "tags": {
        "amenity": "school"
      }
    },
    {
      "type": "way",
      "id": 1360924198,
      "center": {
        "lat": 12.9660623,
        "lon": 77.7635034
      },
      "tags": {
        "amenity": "conference_centre",
        "building": "yes"
      }
    }
  ]
}