{
  "area_name": "Halanayakanahalli",
  "osm_id": 12432287595,
  "osm_type": "node",
  "place_type": "neighbourhood",
  "amenity_count": 107,
  "amenities": [
    {
      "type": "node",
      "id": 4440954583,
      "lat": 12.9067775,
      "lon": 77.6837164,
      "tags": {
        "addr:city": "Bangalore",
        "addr:postcode": "560035",
        "addr:street": "Rainbow Residency,  Junnasandra",
        "amenity": "clinic",
        "name": "Sai Clinic",
        "phone": "+91-80 6608 5255"
      }
    },
    {
      "type": "node",
      "id": 5304948821,
      "lat": 12.9036067,
      "lon": 77.6960679,
      "tags": {
        "amenity": "marketplace"
      }
    },
    {
      "type": "node",
      "id": 5767349677,
      "lat": 12.9044427,
      "lon": 77.6958632,
      "tags": {
        "name": "Chriz Cafe",
        "shop": "yes"
      }
    },
    {
      "type": "node",
      "id": 5770656896,
      "lat": 12.9094885,
      "lon": 77.6869501,
      "tags": {
        "addr:city": "Bengaluru",
        "addr:postcode": "560035",
        "addr:street": "Sarjapur Road",
        "amenity": "bank",
        "atm": "yes",
        "brand": "Canara Bank",
        "brand:en": "Canara Bank",
        "brand:hi": "केनरा बैंक",
        "brand:kn": "ಕೆನರಾ ಬ್ಯಾಂಕ್",
        "brand:pa": "ਕੇਨਰਾ ਬੈਂਕ",
        "brand:pnb": "کینرا بینک",
        "brand:ur": "کینرا بینک",
        "brand:wikidata": "Q2003777",
        "brand:wikipedia": "en:Canara Bank",
        "brand:wikipedia:pa": "ਕੇਨਰਾ ਬੈਂਕ",
        "drive_through": "no",
        "name": "Canara Bank",
        "name:en": "Canara Bank",
        "name:hi": "केनरा बैंक",
        "name:kn": "ಕೆನರಾ ಬ್ಯಾಂಕ್",
        "name:pa": "ਕੇਨਰਾ ਬੈਂਕ",
        "name:pnb": "کینرا بینک",
        "name:ur": "کینرا بینک",
        "opening_hours": "Mo-Su 10:00-14:00",
        "phone": "1800 425 0018",
        "website": "https://canarabank.in"
      }
    },
    {
      "type": "node",
      "id": 5777147351,
      "lat": 12.9057347,
      "lon": 77.6841136,
      "tags": {
        "amenity": "place_of_worship",
        "fixme": "Locate the actual structure",
        "name": "Pelekamma Temple",
        "name:kn": "ಪಿಳೇಕಮ್ಮ",
        "religion": "hindu"
      }
    },
    {
      "type": "node",
      "id": 5780776745,
      "lat": 12.9064689,
      "lon": 77.6822952,
      "tags": {
        "amenity": "bench",
        "backrest": "yes"
      }
    },
    {
      "type": "node",
      "id": 5780776746,
      "lat": 12.9065787,
      "lon": 77.6822926,
      "tags": {
        "amenity": "bench",
        "backrest": "yes"
      }
    },
    {
      "type": "node",
      "id": 5841544304,
      "lat": 12.9084093,
      "lon": 77.6836074,
      "tags": {
        "name": "Aiswarya Fresh",
        "shop": "convenience"
      }
    },
    {
      "type": "node",
      "id": 5841544305,
      "lat": 12.908506,
      "lon": 77.6836249,
      "tags": {
        "amenity": "pharmacy",
        "dispensing": "yes",
        "drive_through": "no",
        "healthcare": "pharmacy",
        "name": "Brothers Chemists"
      }
    },
    {
      "type": "node",
      "id": 5983526474,
      "lat": 12.9084069,
      "lon": 77.6837867,
      "tags": {
        "amenity": "cafe",
        "name": "Cafe 916"
      }
    },
    {
      "type": "node",
      "id": 6137587909,
      "lat": 12.9084373,
      "lon": 77.6837921,
      "tags": {
        "name": "Picket-43",
        "shop": "clothes"
      }
    },
    {
      "type": "node",
      "id": 6137599746,
      "lat": 12.9083823,
      "lon": 77.6837777,
      "tags": {
        "addr:street": "Junnasandra",
        "name": "Bangalore Horticulture",
        "shop": "greengrocer"
      }
    },
    {
      "type": "node",
      "id": 6137600493,
      "lat": 12.9083475,
      "lon": 77.6837713,
      "tags": {
        "name": "Green and Co Bakery",
        "shop": "bakery"
      }
    },
    {
      "type": "node",
      "id": 6342461468,
      "lat": 12.9088158,
      "lon": 77.684108,
      "tags": {
        "amenity": "parking_entrance"
      }
    },
    {
      "type": "node",
      "id": 6460998295,
      "lat": 12.9087815,
      "lon": 77.6837614,
      "tags": {
        "amenity": "bicycle_rental",
        "brand": "Yulu",
        "brand:wikidata": "Q104871276",
        "network": "Yulu",
        "network:wikidata": "Q104871276",
        "operator": "Yulu"
      }
    },
    {
      "type": "node",
      "id": 6997799215,
      "lat": 12.9045096,
      "lon": 77.6910917,
      "tags": {
        "addr:city": "Bengaluru",
        "addr:housenumber": "entrance",
        "addr:postcode": "560035",
        "addr:street": "radha reddy layout",
        "amenity": "place_of_worship",
        "denomination": "orthodox",
        "name": "Ganesha Temple",
        "religion": "hindu"
      }
    },
    {
      "type": "node",
      "id": 6997799223,
      "lat": 12.9044086,
      "lon": 77.6913729,
      "tags": {
        "name": "Green Mart",
        "shop": "supermarket"
      }
    },
    {
      "type": "node",
      "id": 6997799224,
      "lat": 12.9044356,
      "lon": 77.6915187,
      "tags": {
        "amenity": "fast_food",
        "name": "Quick Bites"
      }
    },
    {
      "type": "node",
      "id": 6997799225,
      "lat": 12.904438,
      "lon": 77.6914559,
      "tags": {
        "amenity": "fast_food",
        "name": "Melting Cakes"
      }
    },
    {
      "type": "node",
      "id": 7085480609,
      "lat": 12.9092185,
      "lon": 77.687404,
      "tags": {
        "addr:floor": "3",
        "air_conditioning": "yes",
        "amenity": "restaurant",
        "bar": "no",
        "check_date": "2023-07-20",
        "diet:halal": "yes",
        "diet:vegetarian": "yes",
        "indoor_seating": "yes",
        "internet_access": "no",
        "level": "3",
        "name": "Barbeque Nation",
        "name:kn": "ಬರ್ಬಕ್ಯು ನೇಶನ್",
        "outdoor_seating": "no",
        "payment:mastercard": "yes",
        "payment:visa": "yes",
        "reservation": "yes",
        "smoking": "no",
        "source": "survey",
        "toilets": "yes"
      }
    },
    {
      "type": "node",
      "id": 9828595272,
      "lat": 12.9094409,
      "lon": 77.6871213,
      "tags": {
        "amenity": "cafe",
        "name": "Third Wave Coffee",
        "opening_hours": "Mo-Su 08:00-23:00"
      }
    },
    {
      "type": "node",
      "id": 10174066547,
      "lat": 12.908745,
      "lon": 77.6839192,
      "tags": {
        "name": "New Classic Men's Salon",
        "shop": "hairdresser"
      }
    },
    {
      "type": "node",
      "id": 10185026932,
      "lat": 12.909114,
      "lon": 77.6876839,
      "tags": {
        "amenity": "food_court",
        "name": "Kitchens@"
      }
    },
    {
      "type": "node",
      "id": 10185026947,
      "lat": 12.9096907,
      "lon": 77.688066,
      "tags": {
        "name": "Titan Eye+",
        "shop": "optician",
        "wheelchair": "no"
      }
    },
    {
      "type": "node",
      "id": 10185026948,
      "lat": 12.9096812,
      "lon": 77.688137,
      "tags": {
        "name": "Mia by Tanishq",
        "shop": "jewelry"
      }
    },
    {
      "type": "node",
      "id": 10196255912,
      "lat": 12.9093521,
      "lon": 77.6868717,
      "tags": {
        "name": "Aishwarya Stores",
        "shop": "department_store"
      }
    },
    {
      "type": "node",
      "id": 10213547228,
      "lat": 12.9094562,
      "lon": 77.6871514,
      "tags": {
        "amenity": "parking_entrance"
      }
    },
    {
      "type": "node",
      "id": 11331531159,
      "lat": 12.9091988,
      "lon": 77.6874954,
      "tags": {
        "name": "Fashion factory",
        "shop": "clothes"
      }
    },
    {
      "type": "node",
      "id": 12168564053,
      "lat": 12.9088598,
      "lon": 77.6886812,
      "tags": {
        "addr:city": "Rainbow Drive, Doddakannelli",
        "addr:district": "Bengaluru",
        "addr:housenumber": "138/52",
        "addr:postcode": "560035",
        "addr:street": "Sarjapur Main Rd",
        "amenity": "pub",
        "diet:non-vegetarian": "yes",
        "diet:vegetarian": "yes",
        "email": "connect@frothytales.com",
        "microbrewery": "yes",
        "mobile": "09036690900",
        "name": "The Bier Library",
        "opening_hours": "Mo-Su 12:00-1:00",
        "website": "https://www.thebierlibrary.in/",
        "website:menu": "https://www.thebierlibrary.in/copy-of-koramanagala-menu"
      }
    },
    {
      "type": "node",
      "id": 12862846464,
      "lat": 12.9091794,
      "lon": 77.6877574,
      "tags": {
        "amenity": "fast_food",
        "cuisine": "burger",
        "delivery": "yes",
        "name": "Easy Bites by Empire",
        "takeaway": "yes"
      }
    },
    {
      "type": "node",
      "id": 13134721567,
      "lat": 12.906353,
      "lon": 77.6934919,
      "tags": {
        "access": "private",
        "amenity": "parking_entrance",
        "parking": "underground"
      }
    },
    {
      "type": "node",
      "id": 13134721568,
      "lat": 12.9057837,
      "lon": 77.6936569,
      "tags": {
        "access": "private",
        "amenity": "parking_entrance",
        "parking": "underground"
      }
    },
    {
      "type": "way",
      "id": 130279645,
      "center": {
        "lat": 12.9068445,
        "lon": 77.6827691
      },
      "tags": {
        "access": "private",
        "leisure": "swimming_pool",
        "operator": "Rainbow Residency"
      }
    },
    {
      "type": "way",
      "id": 170583173,
      "center": {
        "lat": 12.8997614,
        "lon": 77.6845015
      },
      "tags": {
        "amenity": "clubhouse",
        "leisure": "sports_centre",
        "name": "Green Villa Club"
      }
    },
    {
      "type": "way",
      "id": 469397582,
      "center": {
        "lat": 12.9078506,
        "lon": 77.6877872
      },
      "tags": {
        "leisure": "park",
        "name": "Rainbow Drive Park"
      }
    },
    {
      "type": "way",
      "id": 469397583,
      "center": {
        "lat": 12.9075741,
        "lon": 77.687967
      },
      "tags": {
        "leisure": "playground",
        "name": "Rainbow Drive Playground"
      }
    },
    {
      "type": "way",
      "id": 541939220,
      "center": {
        "lat": 12.9098789,
        "lon": 77.6878514
      },
      "tags": {
        "addr:city": "Bangalore",
        "addr:housenumber": "12, Doddakannelli Varthur Hobli, 83, Off Sarjapur Road, Kaikondrahalli",
        "addr:postcode": "560035",
        "addr:street": "Sarjapur Road",
        "amenity": "fuel",
        "brand": "Hindustan Petroleum",
        "brand:wikidata": "Q1619375",
        "compressed_air": "yes",
        "name": "HP Petrol Pump",
        "name:kn": "ಹಿಂದುಸ್ತಾನ್ ಪೆಟ್ರೋಲಿಯಂ",
        "official_name": "Hindustan Petroleum",
        "operator": "R P Enterprises"
      }
    },
    {
      "type": "way",
      "id": 603164689,
      "center": {
        "lat": 12.906379,
        "lon": 77.6825783
      },
      "tags": {
        "amenity": "community_centre",
        "name": "Rainbow Residency Club House"
      }
    },
    {
      "type": "way",
      "id": 603174682,
      "center": {
        "lat": 12.9060272,
        "lon": 77.6824744
      },
      "tags": {
        "access": "private",
        "leisure": "playground",
        "max_age": "12",
        "min_age": "3",
        "name": "Rainbow Residency Playground",
        "playground:theme": "playground",
        "surface": "dirt"
      }
    },
    {
      "type": "way",
      "id": 609233865,
      "center": {
        "lat": 12.9074506,
        "lon": 77.687685
      },
      "tags": {
        "access": "private",
        "leisure": "swimming_pool"
      }
    },
    {
      "type": "way",
      "id": 609257700,
      "center": {
        "lat": 12.9060974,
        "lon": 77.6823059
      },
      "tags": {
        "access": "private",
        "leisure": "pitch",
        "lit": "yes",
        "sport": "tennis"
      }
    },
    {
      "type": "way",
      "id": 609934582,
      "center": {
        "lat": 12.9068664,
        "lon": 77.6823931
      },
      "tags": {
        "hoops": "2",
        "leisure": "pitch",
        "lit": "no",
        "sport": "basketball",
        "surface": "ground"
      }
    },
    {
      "type": "way",
      "id": 609934583,
      "center": {
        "lat": 12.9064664,
        "lon": 77.6827251
      },
      "tags": {
        "access": "private",
        "leisure": "garden"
      }
    },
    {
      "type": "way",
      "id": 609934588,
      "center": {
        "lat": 12.908597,
        "lon": 77.6834454
      },
      "tags": {
        "amenity": "bicycle_parking",
        "bicycle_parking": "rack",
        "capacity": "10",
        "covered": "no"
      }
    },
    {
      "type": "way",
      "id": 609974385,
      "center": {
        "lat": 12.9022327,
        "lon": 77.6862629
      },
      "tags": {
        "amenity": "parking",
        "parking": "surface",
        "surface": "asphalt"
      }
    },
    {
      "type": "way",
      "id": 609986141,
      "center": {
        "lat": 12.9021856,
        "lon": 77.6869161
      },
      "tags": {
        "leisure": "pitch",
        "name": "Nimritha J Arun Kumar",
        "sport": "cricket"
      }
    },
    {
      "type": "way",
      "id": 609986144,
      "center": {
        "lat": 12.9017996,
        "lon": 77.6875934
      },
      "tags": {
        "amenity": "place_of_worship",
        "building": "yes",
        "denomination": "Shivism",
        "name": "Sri Karyasidhdhi Vinayaka Temple and Balasubramanya swamy temple",
        "name:kn": "ಶ್ರೀ ಕಾರ್ಯಸಿದ್ಧಿ ವಿನಾಯಕ ದೇವಸ್ಥಾನ ಮತ್ತು ಬಾಲಸುಬ್ರಹ್ಮಣ್ಯ ಸ್ವಾಮಿ ದೇವಸ್ಥಾನ",
        "religion": "hindu"
      }
    },
    {
      "type": "way",
      "id": 609989203,
      "center": {
        "lat": 12.906647,
        "lon": 77.6904788
      },
      "tags": {
        "building": "yes",
        "name": "SLV Provisional Store",
        "shop": "convenience"
      }
    },
    {
      "type": "way",
      "id": 609989212,
      "center": {
        "lat": 12.9034659,
        "lon": 77.6922948
      },
      "tags": {
        "leisure": "sports_centre",
        "name": "Sol Sports Academy",
        "sport": "tennis"
      }
    },
    {
      "type": "way",
      "id": 611487121,
      "center": {
        "lat": 12.9074685,
        "lon": 77.6823366
      },
      "tags": {
        "access": "no",
        "leisure": "garden"
      }
    },
    {
      "type": "way",
      "id": 611487126,
      "center": {
        "lat": 12.9080902,
        "lon": 77.6825302
      },
      "tags": {
        "leisure": "garden"
      }
    },
    {
      "type": "way",
      "id": 617989514,
      "center": {
        "lat": 12.9084545,
        "lon": 77.6836799
      },
      "tags": {
        "access": "customers",
        "amenity": "parking",
        "fee": "no",
        "parking": "surface",
        "supervised": "no",
        "surface": "paving_stones"
      }
    },
    {
      "type": "way",
      "id": 617989515,
      "center": {
        "lat": 12.9084665,
        "lon": 77.6835746
      },
      "tags": {
        "access": "customers",
        "amenity": "parking",
        "layer": "-1",
        "level": "-1",
        "parking": "underground",
        "surface": "cement"
      }
    },
    {
      "type": "way",
      "id": 635317791,
      "center": {
        "lat": 12.9083259,
        "lon": 77.6924324
      },
      "tags": {
        "amenity": "fuel",
        "brand": "Indian Oil",
        "brand:wikidata": "Q1289348",
        "fuel:diesel": "yes",
        "fuel:petrol": "yes",
        "name": "Sree Kodandarama Petrol / Gas Station",
        "operator": "Indial Oil"
      }
    },
    {
      "type": "way",
      "id": 655045231,
      "center": {
        "lat": 12.9086483,
        "lon": 77.683903
      },
      "tags": {
        "amenity": "place_of_worship",
        "building": "yes",
        "religion": "hindu"
      }
    },
    {
      "type": "way",
      "id": 655045232,
      "center": {
        "lat": 12.8999691,
        "lon": 77.6896649
      },
      "tags": {
        "amenity": "place_of_worship",
        "building": "yes",
        "name": "Sri Shirdi Sai Baba Temple",
        "name:kn": "ಶಿರ್ಡಿ ಸಾಯಿಬಾಬಾ ದೇವಸ್ಥಾನ",
        "religion": "hindu"
      }
    },
    {
      "type": "way",
      "id": 655045233,
      "center": {
        "lat": 12.8975944,
        "lon": 77.6898054
      },
      "tags": {
        "leisure": "pitch",
        "name": "J. Arun Kumar Academy",
        "sport": "cricket_nets"
      }
    },
    {
      "type": "way",
      "id": 655045234,
      "center": {
        "lat": 12.8988691,
        "lon": 77.6941841
      },
      "tags": {
        "amenity": "school",
        "name": "Lake View PU College"
      }
    },
    {
      "type": "way",
      "id": 655045236,
      "center": {
        "lat": 12.8985784,
        "lon": 77.6941559
      },
      "tags": {
        "leisure": "pitch",
        "sport": "soccer"
      }
    },
    {
      "type": "way",
      "id": 655045237,
      "center": {
        "lat": 12.8998155,
        "lon": 77.6950738
      },
      "tags": {
        "addr:city": "Bengaluru",
        "addr:postcode": "560035",
        "addr:street": "Doddakannelli-Chikkanayakana Halli Rd, Chikkakannalli",
        "amenity": "place_of_worship",
        "building": "yes",
        "name": "Sri Someshwara Swamy Temple",
        "religion": "hindu"
      }
    },
    {
      "type": "way",
      "id": 655045245,
      "center": {
        "lat": 12.8964133,
        "lon": 77.6950639
      },
      "tags": {
        "addr:district": "Bengaluru Urban",
        "addr:full": "14/2,Chikkanayakanahalli Village, Off Sarjapur Road",
        "addr:postcode": "560035",
        "addr:state": "Karnataka",
        "amenity": "hospital",
        "healthcare": "hospital",
        "healthcare:speciality": "ayurveda",
        "name": "Punarjani Ayurvedic Multispeciality Hospital",
        "source": "OpenGovernmentData"
      }
    },
    {
      "type": "way",
      "id": 688813390,
      "center": {
        "lat": 12.8995447,
        "lon": 77.6880495
      },
      "tags": {
        "amenity": "place_of_worship",
        "building": "yes",
        "name": "Kodanda Rama Temple",
        "name:kn": "ಕೋದಂಡ ರಾಮ ದೇವಾಲಯ",
        "religion": "hindu"
      }
    },
    {
      "type": "way",
      "id": 688813393,
      "center": {
        "lat": 12.898759,
        "lon": 77.686632
      },
      "tags": {
        "leisure": "pitch",
        "sport": "cricket"
      }
    },
    {
      "type": "way",
      "id": 691887314,
      "center": {
        "lat": 12.9092876,
        "lon": 77.6877863
      },
      "tags": {
        "amenity": "parking",
        "capacity": "5",
        "fee": "no",
        "parking": "surface",
        "surface": "paving_stones"
      }
    },
    {
      "type": "way",
      "id": 792032968,
      "center": {
        "lat": 12.9046679,
        "lon": 77.684431
      },
      "tags": {
        "alt_name": "Sri Ayyappa Swamy Temple",
        "amenity": "place_of_worship",
        "building": "yes",
        "name": "Ayyappa Temple Junnasandra",
        "name:kn": "ಅಯ್ಯಪ್ಪ ದೇವಸ್ಥಾನ ಜುನ್ನಸಂದ್ರ",
        "religion": "hindu"
      }
    },
    {
      "type": "way",
      "id": 907621380,
      "center": {
        "lat": 12.8977399,
        "lon": 77.6847952
      },
      "tags": {
        "amenity": "school",
        "name": "Glentree Academy"
      }
    },
    {
      "type": "way",
      "id": 907621385,
      "center": {
        "lat": 12.8972738,
        "lon": 77.6833476
      },
      "tags": {
        "amenity": "school",
        "name": "Government School"
      }
    },
    {
      "type": "way",
      "id": 917838862,
      "center": {
        "lat": 12.9081114,
        "lon": 77.6927367
      },
      "tags": {
        "access": "customers",
        "amenity": "parking",
        "parking": "surface"
      }
    },
    {
      "type": "way",
      "id": 918523254,
      "center": {
        "lat": 12.9092781,
        "lon": 77.6871883
      },
      "tags": {
        "brand": "Westside",
        "brand:wikidata": "Q123376384",
        "building": "retail",
        "name": "Westside",
        "shop": "clothes"
      }
    },
    {
      "type": "way",
      "id": 918523255,
      "center": {
        "lat": 12.9094718,
        "lon": 77.6872671
      },
      "tags": {
        "access": "customers",
        "amenity": "parking",
        "fee": "no",
        "parking": "surface",
        "surface": "paving_stones"
      }
    },
    {
      "type": "way",
      "id": 1066604767,
      "center": {
        "lat": 12.9029556,
        "lon": 77.6964037
      },
      "tags": {
        "leisure": "swimming_pool"
      }
    },
    {
      "type": "way",
      "id": 1113238530,
      "center": {
        "lat": 12.9094149,
        "lon": 77.6875155
      },
      "tags": {
        "access": "customers",
        "amenity": "parking",
        "fee": "no",
        "parking": "surface",
        "surface": "paving_stones"
      }
    },
    {
      "type": "way",
      "id": 1116730314,
      "center": {
        "lat": 12.9092724,
        "lon": 77.6872017
      },
      "tags": {
        "access": "customers",
        "amenity": "parking",
        "layer": "-1",
        "parking": "underground"
      }
    },
    {
      "type": "way",
      "id": 1192698538,
      "center": {
        "lat": 12.9003859,
        "lon": 77.6943541
      },
      "tags": {
        "amenity": "school",
        "name": "NPS East, Sarjapur"
      }
    },
    {
      "type": "way",
      "id": 1256466794,
      "center": {
        "lat": 12.899699,
        "lon": 77.678446
      },
      "tags": {
        "leisure": "pitch",
        "name": "Tennis Gurukul",
        "sport": "tennis"
      }
    },
    {
      "type": "way",
      "id": 1256466795,
      "center": {
        "lat": 12.9000363,
        "lon": 77.67849
      },
      "tags": {
        "leisure": "pitch",
        "name": "Tennis Gurukul",
        "sport": "tennis"
      }
    },
    {
      "type": "way",
      "id": 1343497140,
      "center": {
        "lat": 12.8937714,
        "lon": 77.6935304
      },
      "tags": {
        "access": "private",
        "leisure": "swimming_pool"
      }
    },
    {
      "type": "way",
      "id": 1347716540,
      "center": {
        "lat": 12.9085938,
        "lon": 77.6922381
      },
      "tags": {
        "addr:city": "Bengaluru",
        "addr:housenumber": "120",
        "addr:postcode": "560035",
        "addr:street": "Sarjapur Main Road,Carmelaram, Rajeevgandi Layout, Doddakannelli",
        "building": "yes",
        "name": "Pratham Motors-NEXA",
        "shop": "car"
      }
    },
    {
      "type": "way",
      "id": 1363520053,
      "center": {
        "lat": 12.9095904,
        "lon": 77.6881255
      },
      "tags": {
        "access": "customers",
        "amenity": "parking",
        "parking": "surface"
      }
    },
    {
      "type": "way",
      "id": 1364175577,
      "center": {
        "lat": 12.8922036,
        "lon": 77.6890401
      },
      "tags": {
        "leisure": "park"
      }
    },
    {
      "type": "way",
      "id": 1364175578,
      "center": {
        "lat": 12.8931011,
        "lon": 77.6891863
      },
      "tags": {
        "leisure": "pitch",
        "sport": "tennis"
      }
    },
    {
      "type": "way",
      "id": 1364208382,
      "center": {
        "lat": 12.8948642,
        "lon": 77.6862856
      },
      "tags": {
        "leisure": "park"
      }
    },
    {
      "type": "way",
      "id": 1364208383,
      "center": {
        "lat": 12.8947078,
        "lon": 77.6865573
      },
      "tags": {
        "leisure": "pitch",
        "sport": "tennis"
      }
    },
    {
      "type": "way",
      "id": 1420116975,
      "center": {
        "lat": 12.8935753,
        "lon": 77.6831825
      },
      "tags": {
        "access": "private",
        "leisure": "swimming_pool"
      }
    },
    {
      "type": "way",
      "id": 1420117299,
      "center": {
        "lat": 12.8941467,
        "lon": 77.6877011
      },
      "tags": {
        "leisure": "pitch",
        "sport": "tennis"
      }
    },
    {
      "type": "way",
      "id": 1428438473,
      "center": {
        "lat": 12.9032402,
        "lon": 77.6962149
      },
      "tags": {
        "access": "private",
        "leisure": "playground"
      }
    },
    {
      "type": "way",
      "id": 1428438491,
      "center": {
        "lat": 12.9028208,
        "lon": 77.6964864
      },
      "tags": {
        "access": "private",
        "leisure": "pitch",
        "sport": "tennis"
      }
    },
    {
      "type": "way",
      "id": 1428438493,
      "center": {
        "lat": 12.901868,
        "lon": 77.6962449
      },
      "tags": {
        "access": "private",
        "leisure": "swimming_pool"
      }
    },
    {
      "type": "way",
      "id": 1428811902,
      "center": {
        "lat": 12.9072425,
        "lon": 77.6890107
      },
      "tags": {
        "access": "private",
        "leisure": "swimming_pool"
      }
    },
    {
      "type": "way",
      "id": 1428811903,
      "center": {
        "lat": 12.9073133,
        "lon": 77.6885763
      },
      "tags": {
        "access": "private",
        "leisure": "pitch",
        "sport": "tennis"
      }
    },
    {
      "type": "way",
      "id": 1428811904,
      "center": {
        "lat": 12.9074258,
        "lon": 77.6885253
      },
      "tags": {
        "access": "private",
        "leisure": "pitch",
        "sport": "basketball"
      }
    },
    {
      "type": "way",
      "id": 1428811905,
      "center": {
        "lat": 12.9079428,
        "lon": 77.6881852
      },
      "tags": {
        "access": "private",
        "leisure": "pitch",
        "sport": "basketball"
      }
    },
    {
      "type": "way",
      "id": 1428811906,
      "center": {
        "lat": 12.9076095,
        "lon": 77.6882881
      },
      "tags": {
        "access": "private",
        "leisure": "pitch",
        "sport": "tennis"
      }
    },
    {
      "type": "way",
      "id": 1428811907,
      "center": {
        "lat": 12.9073645,
        "lon": 77.6891773
      },
      "tags": {
        "access": "private",
        "leisure": "playground"
      }
    },
    {
      "type": "way",
      "id": 1428811909,
      "center": {
        "lat": 12.9076699,
        "lon": 77.6903166
      },
      "tags": {
        "access": "private",
        "leisure": "swimming_pool"
      }
    },
    {
      "type": "way",
      "id": 1428811948,
      "center": {
        "lat": 12.9051162,
        "lon": 77.6906965
      },
      "tags": {
        "access": "private",
        "leisure": "swimming_pool"
      }
    },
    {
      "type": "way",
      "id": 1428811952,
      "center": {
        "lat": 12.9050355,
        "lon": 77.6912121
      },
      "tags": {
        "access": "private",
        "leisure": "pitch",
        "sport": "tennis"
      }
    },
    {
      "type": "way",
      "id": 1428811953,
      "center": {
        "lat": 12.9050073,
        "lon": 77.691099
      },
      "tags": {
        "access": "private",
        "leisure": "playground"
      }
    },
    {
      "type": "way",
      "id": 1428811957,
      "center": {
        "lat": 12.9041746,
        "lon": 77.6929607
      },
      "tags": {
        "access": "private",
        "leisure": "playground"
      }
    },
    {
      "type": "way",
      "id": 1428812044,
      "center": {
        "lat": 12.9053752,
        "lon": 77.6917105
      },
      "tags": {
        "access": "private",
        "leisure": "swimming_pool"
      }
    },
    {
      "type": "way",
      "id": 1428812052,
      "center": {
        "lat": 12.9047774,
        "lon": 77.6932103
      },
      "tags": {
        "leisure": "pitch",
        "sport": "tennis"
      }
    },
    {
      "type": "way",
      "id": 1428812112,
      "center": {
        "lat": 12.906553,
        "lon": 77.6938006
      },
      "tags": {
        "access": "private",
        "leisure": "pitch",
        "sport": "basketball"
      }
    },
    {
      "type": "way",
      "id": 1428812113,
      "center": {
        "lat": 12.9067616,
        "lon": 77.6937546
      },
      "tags": {
        "access": "private",
        "leisure": "park"
      }
    },
    {
      "type": "way",
      "id": 1428812114,
      "center": {
        "lat": 12.9066736,
        "lon": 77.693803
      },
      "tags": {
        "access": "private",
        "leisure": "playground"
      }
    },
    {
      "type": "way",
      "id": 1428812117,
      "center": {
        "lat": 12.9053774,
        "lon": 77.6925257
      },
      "tags": {
        "access": "private",
        "leisure": "playground"
      }
    },
    {
      "type": "way",
      "id": 1428978959,
      "center": {
        "lat": 12.9027376,
        "lon": 77.6863022
      },
      "tags": {
        "access": "customers",
        "leisure": "pitch",
        "sport": "soccer"
      }
    },
    {
      "type": "way",
      "id": 1429153342,
      "center": {
        "lat": 12.8978384,
        "lon": 77.685015
      },
      "tags": {
        "access": "private",
        "leisure": "pitch",
        "sport": "basketball"
      }
    }
  ]
}