{
  "area_name": "Halasuru",
  "osm_id": 1453825863,
  "osm_type": "node",
  "place_type": "suburb",
  "amenity_count": 421,
  "amenities": [
    {
      "type": "node",
      "id": 1462124094,
      "lat": 12.972972,
      "lon": 77.6213025,
      "tags": {
        "amenity": "fast_food",
        "brand": "McDonald's",
        "brand:pa": "ਮੈਕਡੋਨਲਡ’ਜ਼",
        "brand:ur": "مکڈونلڈز",
        "brand:wikidata": "Q38076",
        "brand:wikipedia": "en:McDonald's",
        "brand:wikipedia:pa": "ਮੈਕਡੋਨਲਡ’ਜ਼",
        "brand:wikipedia:ur": "مکڈونلڈز",
        "cuisine": "burger",
        "name": "McDonald's",
        "name:kn": "ಮ್ಯಾಕ್‌ಡೊನಾಲ್ಡ್ಸ್",
        "name:pa": "ਮੈਕਡੋਨਲਡ’ਜ਼",
        "name:ur": "مکڈونلڈز",
        "takeaway": "yes"
      }
    },
    {
      "type": "node",
      "id": 1462127117,
      "lat": 12.9805233,
      "lon": 77.6288041,
      "tags": {
        "name": "Kolimi Motors",
        "shop": "car_repair"
      }
    },
    {
      "type": "node",
      "id": 1543967418,
      "lat": 12.9720594,
      "lon": 77.6278089,
      "tags": {
        "addr:housename": "Bhavin Garments",
        "addr:housenumber": "12",
        "addr:postcode": "560008",
        "designation": "Manufacturer of Merchandise, Uniforms, Memorabilia, Books",
        "name": "Bhavin Garments",
        "shop": "clothes",
        "source": "Bhavin",
        "website": "www.studentsupplies.in , www.bhavingarments.com"
      }
    },
    {
      "type": "node",
      "id": 1543969345,
      "lat": 12.9719967,
      "lon": 77.6278036,
      "tags": {
        "addr:housename": "Ankur Nursery School",
        "addr:housenumber": "123, C/o Ankur Nursery School,",
        "addr:postcode": "560008",
        "addr:street": "Udani Layout, Cambridge Road",
        "amenity": "school",
        "designation": "Pre-School and Playhome",
        "name": "Ankur Nursery School",
        "source": "Bhavin"
      }
    },
    {
      "type": "node",
      "id": 1707859852,
      "lat": 12.9732119,
      "lon": 77.6217398,
      "tags": {
        "amenity": "restaurant",
        "brand": "TGI Fridays",
        "brand:wikidata": "Q1524184",
        "cuisine": "american",
        "name": "TGI Fridays",
        "name:kn": "ಟಜಿಐ ಫ್ರೈಡೇಸ್"
      }
    },
    {
      "type": "node",
      "id": 1852668995,
      "lat": 12.9755514,
      "lon": 77.6173581,
      "tags": {
        "shop": "florist"
      }
    },
    {
      "type": "node",
      "id": 1852670707,
      "lat": 12.9758023,
      "lon": 77.6165936,
      "tags": {
        "amenity": "cafe",
        "cuisine": "french",
        "name": "French Loaf"
      }
    },
    {
      "type": "node",
      "id": 1852671127,
      "lat": 12.9758154,
      "lon": 77.616548,
      "tags": {
        "amenity": "restaurant",
        "cuisine": "thai",
        "name": "Benjerong"
      }
    },
    {
      "type": "node",
      "id": 1852671675,
      "lat": 12.9758363,
      "lon": 77.6165158,
      "tags": {
        "amenity": "restaurant",
        "cuisine": "regional",
        "name": "Ente Kerelam",
        "name:kn": "ಎಂಟೆ ಕೇರಳಮ್"
      }
    },
    {
      "type": "node",
      "id": 1941464651,
      "lat": 12.9724588,
      "lon": 77.6260331,
      "tags": {
        "brand": "Nilgiri's",
        "brand:wikidata": "Q17079567",
        "check_date": "2023-10-12",
        "name": "Nilgiri's",
        "shop": "supermarket"
      }
    },
    {
      "type": "node",
      "id": 1941465446,
      "lat": 12.9725555,
      "lon": 77.6266554,
      "tags": {
        "amenity": "restaurant",
        "name": "Ruchi Restaurant"
      }
    },
    {
      "type": "node",
      "id": 2475413783,
      "lat": 12.9811555,
      "lon": 77.6305632,
      "tags": {
        "addr:city": "Muniswamappa Layout",
        "addr:district": "Bengaluru Urban",
        "addr:full": "Muneswamappa Layout Ulsoor",
        "addr:housenumber": "18/1",
        "addr:postcode": "560008",
        "addr:state": "Karnataka",
        "addr:street": "Swamy Vivekananda Road (Old Madras Road)",
        "amenity": "nursing_home",
        "name": "Sakthi Nursing Home"
      }
    },
    {
      "type": "node",
      "id": 2999559155,
      "lat": 12.9722421,
      "lon": 77.6184419,
      "tags": {
        "addr:city": "Bangalore",
        "addr:country": "IN",
        "addr:hamlet": "Craig Park Layout",
        "addr:housename": "Ramanashree Arcade",
        "addr:housenumber": "18",
        "addr:postcode": "560025",
        "addr:street": "MG Road",
        "addr:suburb": "Ashok Nagar",
        "amenity": "restaurant",
        "contact:instagram": "daysie.allday",
        "contact:whatsapp": "+91 89040 85004",
        "level": "0",
        "name": "Daysie",
        "outdoor_seating": "yes",
        "phone": "+91 080 47250 000",
        "website": "https://daysie.in/"
      }
    },
    {
      "type": "node",
      "id": 2999562190,
      "lat": 12.9723821,
      "lon": 77.6185949,
      "tags": {
        "addr:street": "Mahatma Gandhi Road",
        "name": "Big Kids Kemp",
        "shop": "clothes"
      }
    },
    {
      "type": "node",
      "id": 2999562191,
      "lat": 12.9723534,
      "lon": 77.6186861,
      "tags": {
        "addr:street": "Mahatma Gandhi Road",
        "amenity": "bank",
        "name": "EXIM (Export-Import Bank of India)"
      }
    },
    {
      "type": "node",
      "id": 3170021930,
      "lat": 12.9734434,
      "lon": 77.6216713,
      "tags": {
        "name": "Big Bazaar",
        "name:kn": "ಬಿಗ್ ಬಜಾರ್",
        "shop": "supermarket"
      }
    },
    {
      "type": "node",
      "id": 3170025557,
      "lat": 12.9750047,
      "lon": 77.6200027,
      "tags": {
        "amenity": "restaurant",
        "cuisine": "regional",
        "level": "2",
        "name": "Carnival De Goa",
        "name:kn": "ಕಾರ್ನಿವಾಲ್ ಡಿ ಗೋವಾ",
        "smoking": "outside"
      }
    },
    {
      "type": "node",
      "id": 3170038846,
      "lat": 12.9693531,
      "lon": 77.6248085,
      "tags": {
        "name": "Sabu collection",
        "shop": "clothes"
      }
    },
    {
      "type": "node",
      "id": 3170057096,
      "lat": 12.972455,
      "lon": 77.6202099,
      "tags": {
        "brand": "Suzuki",
        "brand:wikidata": "Q181642",
        "name": "Suzuki",
        "name:kn": "ಸುಜುಕಿ",
        "shop": "motorcycle"
      }
    },
    {
      "type": "node",
      "id": 3170057127,
      "lat": 12.9733087,
      "lon": 77.6214181,
      "tags": {
        "amenity": "atm"
      }
    },
    {
      "type": "node",
      "id": 3170060062,
      "lat": 12.9734362,
      "lon": 77.6215884,
      "tags": {
        "amenity": "atm"
      }
    },
    {
      "type": "node",
      "id": 3292614897,
      "lat": 12.9730022,
      "lon": 77.6173053,
      "tags": {
        "amenity": "fast_food",
        "brand": "Domino's",
        "brand:ks": "ڈومینوز",
        "brand:pa": "ਡੋਮੀਨੋਜ਼",
        "brand:ur": "ڈومینوز",
        "brand:wikidata": "Q839466",
        "brand:wikipedia": "en:Domino's Pizza",
        "cuisine": "pizza",
        "indoor_seating": "yes",
        "name": "Domino's",
        "name:ks": "ڈومینوز",
        "name:pa": "ਡੋਮੀਨੋਜ਼",
        "name:ur": "ڈومینوز",
        "outdoor_seating": "no",
        "takeaway": "yes"
      }
    },
    {
      "type": "node",
      "id": 3292614939,
      "lat": 12.9734322,
      "lon": 77.6204609,
      "tags": {
        "amenity": "ice_cream",
        "brand": "Häagen-Dazs",
        "brand:wikidata": "Q1143333",
        "cuisine": "ice_cream",
        "name": "Häagen-Dazs"
      }
    },
    {
      "type": "node",
      "id": 3488721663,
      "lat": 12.972765,
      "lon": 77.6190259,
      "tags": {
        "amenity": "atm",
        "brand": "Bank of Baroda",
        "brand:wikidata": "Q2003797",
        "check_date": "2022-07-03",
        "name": "Bank of Baroda",
        "name:kn": "ವಿಜಯ ಬ್ಯಾಂಕು",
        "operator": "Bank of Baroda",
        "operator:wikidata": "Q2003797"
      }
    },
    {
      "type": "node",
      "id": 3556046903,
      "lat": 12.9780369,
      "lon": 77.633104,
      "tags": {
        "addr:street": "Chinmaya Mission Hospital Road",
        "amenity": "fast_food",
        "name": "Kolkata Famous Chats"
      }
    },
    {
      "type": "node",
      "id": 3556046904,
      "lat": 12.9780309,
      "lon": 77.6331524,
      "tags": {
        "name": "Neha Fancy",
        "shop": "clothes"
      }
    },
    {
      "type": "node",
      "id": 3556046905,
      "lat": 12.9780448,
      "lon": 77.6332441,
      "tags": {
        "amenity": "pharmacy",
        "healthcare": "pharmacy",
        "name": "Swathi Medical Store"
      }
    },
    {
      "type": "node",
      "id": 3556052605,
      "lat": 12.978354,
      "lon": 77.6330514,
      "tags": {
        "addr:housenumber": "4",
        "addr:street": "17th F Cross",
        "amenity": "car_sharing",
        "operator": "SRS Travels"
      }
    },
    {
      "type": "node",
      "id": 3556052606,
      "lat": 12.9784407,
      "lon": 77.633075,
      "tags": {
        "addr:housenumber": "5",
        "addr:street": "17th F Cross",
        "name": "Bhuvavaneswari Traders",
        "shop": "kiosk"
      }
    },
    {
      "type": "node",
      "id": 3556052607,
      "lat": 12.9784851,
      "lon": 77.633077,
      "tags": {
        "addr:housenumber": "6",
        "addr:street": "17th F Cross",
        "amenity": "dentist",
        "healthcare": "dentist",
        "name": "Remuka Deltal Clinic"
      }
    },
    {
      "type": "node",
      "id": 3556052608,
      "lat": 12.9783956,
      "lon": 77.6330601,
      "tags": {
        "addr:housenumber": "4",
        "addr:street": "17th F Cross",
        "name": "Idea",
        "shop": "mobile_phone"
      }
    },
    {
      "type": "node",
      "id": 3556052609,
      "lat": 12.9785259,
      "lon": 77.63308,
      "tags": {
        "addr:housenumber": "7",
        "addr:street": "17th F Cross",
        "name": "Vodafume",
        "shop": "gift"
      }
    },
    {
      "type": "node",
      "id": 3556052614,
      "lat": 12.978308,
      "lon": 77.6330436,
      "tags": {
        "addr:housenumber": "3",
        "addr:street": "17th F Cross",
        "name": "Unibic Cookies",
        "shop": "confectionery"
      }
    },
    {
      "type": "node",
      "id": 3556072045,
      "lat": 12.978044,
      "lon": 77.6333101,
      "tags": {
        "addr:housenumber": "670",
        "addr:postcode": "560038",
        "addr:street": "Chinmaya Mission Hospital Road",
        "name": "Fuzzy Wuzzy Pet Store",
        "opening_hours": "Mo-Su 10:00-21:30",
        "phone": "+919986801449",
        "shop": "pet",
        "website": "https://fuzzywuzzy.in/"
      }
    },
    {
      "type": "node",
      "id": 3556098556,
      "lat": 12.9780309,
      "lon": 77.6337864,
      "tags": {
        "name": "Shabari Electricity Company",
        "shop": "electronics"
      }
    },
    {
      "type": "node",
      "id": 3556103331,
      "lat": 12.9782881,
      "lon": 77.6335861,
      "tags": {
        "addr:street": "Chinmaya Mission Hospital Road",
        "name": "BTC Bozzar",
        "shop": "furniture"
      }
    },
    {
      "type": "node",
      "id": 3556103332,
      "lat": 12.9782871,
      "lon": 77.6335425,
      "tags": {
        "addr:street": "Chinmaya Mission Hospital Road",
        "name": "Shoes City",
        "shop": "shoes"
      }
    },
    {
      "type": "node",
      "id": 3556343976,
      "lat": 12.9787341,
      "lon": 77.6331219,
      "tags": {
        "name": "Now Fashion Lounge",
        "shop": "clothes"
      }
    },
    {
      "type": "node",
      "id": 3556374643,
      "lat": 12.9790112,
      "lon": 77.6332114,
      "tags": {
        "name": "Arman Motors",
        "service": "parts",
        "shop": "car"
      }
    },
    {
      "type": "node",
      "id": 3556374644,
      "lat": 12.9791369,
      "lon": 77.633216,
      "tags": {
        "name": "DJ Seafoods",
        "shop": "seafood"
      }
    },
    {
      "type": "node",
      "id": 3556374645,
      "lat": 12.9788082,
      "lon": 77.6331514,
      "tags": {
        "butcher": "poultry",
        "name": "Eggies",
        "shop": "butcher"
      }
    },
    {
      "type": "node",
      "id": 3562609093,
      "lat": 12.9752333,
      "lon": 77.6258831,
      "tags": {
        "amenity": "place_of_worship",
        "religion": "hindu"
      }
    },
    {
      "type": "node",
      "id": 3643239013,
      "lat": 12.9761885,
      "lon": 77.6260897,
      "tags": {
        "amenity": "fast_food",
        "name": "Bhai Ji's",
        "name:kn": "ಭಾಯ್‌ ಜೀಸ್"
      }
    },
    {
      "type": "node",
      "id": 3670482730,
      "lat": 12.9780899,
      "lon": 77.6334227,
      "tags": {
        "shop": "tea"
      }
    },
    {
      "type": "node",
      "id": 3730961535,
      "lat": 12.9739292,
      "lon": 77.6232945,
      "tags": {
        "amenity": "cafe",
        "name": "Kumbakonam Traditional Coffee",
        "name:kn": "ಕುಂಬಕೊಣಂ ಸಂಪ್ರದಾಯಕ ಕಾಫೀ"
      }
    },
    {
      "type": "node",
      "id": 3760133043,
      "lat": 12.9729167,
      "lon": 77.6172137,
      "tags": {
        "amenity": "atm",
        "brand": "Yes Bank",
        "brand:wikidata": "Q2040394",
        "layer": "1",
        "level": "1",
        "name": "Yes Bank",
        "operator": "Yes Bank",
        "operator:wikidata": "Q2040394"
      }
    },
    {
      "type": "node",
      "id": 3761230359,
      "lat": 12.9749935,
      "lon": 77.6199471,
      "tags": {
        "addr:street": "Bhaskaran Road",
        "amenity": "restaurant",
        "cuisine": "mexican",
        "level": "0",
        "name": "The Grill House",
        "name:kn": "ದ ಗ್ರಿಲ್ ಹೌಸ್"
      }
    },
    {
      "type": "node",
      "id": 3785881931,
      "lat": 12.9733286,
      "lon": 77.6167758,
      "tags": {
        "amenity": "bank",
        "atm": "yes",
        "brand": "Axis Bank",
        "brand:wikidata": "Q2003549",
        "brand:wikipedia": "en:Axis Bank",
        "level": "0",
        "name": "Axis Bank",
        "name:en": "Axis Bank",
        "name:kn": "ಅಕ್ಸಿಸ್ ಬ್ಯಾಂಕ್",
        "website": "https://www.axisbank.com"
      }
    },
    {
      "type": "node",
      "id": 3785884274,
      "lat": 12.9733953,
      "lon": 77.6169631,
      "tags": {
        "amenity": "bank",
        "brand": "Corporation Bank",
        "brand:wikidata": "Q2003387",
        "brand:wikipedia": "en:Corporation Bank",
        "level": "3",
        "name": "Corporation Bank",
        "name:en": "Corporation Bank",
        "name:kn": "ಕಾರ್ಪರೇಷನ್ ಬ್ಯಾಂಕ್",
        "website": "https://corpbank.com/"
      }
    },
    {
      "type": "node",
      "id": 3785903457,
      "lat": 12.9734064,
      "lon": 77.616709,
      "tags": {
        "name": "Orbitz India Services Pvt Ltd.",
        "shop": "travel_agency"
      }
    },
    {
      "type": "node",
      "id": 3797611901,
      "lat": 12.9717014,
      "lon": 77.6181421,
      "tags": {
        "access": "permissive",
        "amenity": "parking",
        "fee": "no",
        "name": "Car Parking",
        "parking": "lane",
        "supervised": "no"
      }
    },
    {
      "type": "node",
      "id": 3797611957,
      "lat": 12.9721967,
      "lon": 77.6182668,
      "tags": {
        "amenity": "motorcycle_parking"
      }
    },
    {
      "type": "node",
      "id": 3805426547,
      "lat": 12.9721557,
      "lon": 77.6184858,
      "tags": {
        "amenity": "post_office",
        "name": "Professional Couriers",
        "operator": "Professional Couriers"
      }
    },
    {
      "type": "node",
      "id": 3805440421,
      "lat": 12.9717578,
      "lon": 77.6179225,
      "tags": {
        "amenity": "arts_centre",
        "level": "-1",
        "name": "Indian Cartoon Gallery"
      }
    },
    {
      "type": "node",
      "id": 3805440422,
      "lat": 12.9717578,
      "lon": 77.6179755,
      "tags": {
        "amenity": "bureau_de_change",
        "name": "Forxchange"
      }
    },
    {
      "type": "node",
      "id": 3805493606,
      "lat": 12.9721008,
      "lon": 77.6184589,
      "tags": {
        "amenity": "bank",
        "atm": "no",
        "level": "4",
        "name": "EXIM Bank;Export-Import Bank of India"
      }
    },
    {
      "type": "node",
      "id": 3805499875,
      "lat": 12.9723831,
      "lon": 77.6184938,
      "tags": {
        "amenity": "bank",
        "atm": "no",
        "brand": "Canara Bank",
        "brand:en": "Canara Bank",
        "brand:hi": "केनरा बैंक",
        "brand:kn": "ಕೆನರಾ ಬ್ಯಾಂಕ್",
        "brand:pa": "ਕੇਨਰਾ ਬੈਂਕ",
        "brand:pnb": "کینرا بینک",
        "brand:ur": "کینرا بینک",
        "brand:wikidata": "Q2003777",
        "brand:wikipedia": "en:Canara Bank",
        "brand:wikipedia:pa": "ਕੇਨਰਾ ਬੈਂਕ",
        "level": "3",
        "name": "Canara Bank",
        "name:en": "Canara Bank",
        "name:hi": "केनरा बैंक",
        "name:kn": "ಕೆನರಾ ಬ್ಯಾಂಕ್",
        "name:pa": "ਕੇਨਰਾ ਬੈਂਕ",
        "name:pnb": "کینرا بینک",
        "name:ur": "کینرا بینک",
        "website": "https://www.canarabank.com/"
      }
    },
    {
      "type": "node",
      "id": 3810662311,
      "lat": 12.9718803,
      "lon": 77.6180899,
      "tags": {
        "name": "India Cements Capital Limited",
        "shop": "travel_agency"
      }
    },
    {
      "type": "node",
      "id": 3837051274,
      "lat": 12.9782679,
      "lon": 77.6330409,
      "tags": {
        "amenity": "atm",
        "brand": "Axis Bank",
        "brand:wikidata": "Q2003549",
        "name": "Axis Bank",
        "name:kn": "ಅಕ್ಸಿಸ್ ಬ್ಯಾಂಕ್",
        "operator": "Axis Bank",
        "operator:wikidata": "Q2003549"
      }
    },
    {
      "type": "node",
      "id": 3844286515,
      "lat": 12.9727193,
      "lon": 77.6171973,
      "tags": {
        "amenity": "bicycle_rental",
        "bicycle_rental": "dropoff_point",
        "level": "0"
      }
    },
    {
      "type": "node",
      "id": 3961375648,
      "lat": 12.9779131,
      "lon": 77.6328957,
      "tags": {
        "addr:street": "17th E Cross",
        "amenity": "restaurant",
        "capacity": "50",
        "cuisine": "coorg",
        "level": "1",
        "name": "Hotel Dil Coorg",
        "takeaway": "yes"
      }
    },
    {
      "type": "node",
      "id": 4079515910,
      "lat": 12.9783607,
      "lon": 77.6315391,
      "tags": {
        "name": "Sri Balaji Cycle Shop",
        "shop": "bicycle"
      }
    },
    {
      "type": "node",
      "id": 4117249119,
      "lat": 12.9821023,
      "lon": 77.6318122,
      "tags": {
        "amenity": "place_of_worship",
        "name": "Byel Anjaneya Swamy",
        "religion": "hindu"
      }
    },
    {
      "type": "node",
      "id": 4117249120,
      "lat": 12.9814424,
      "lon": 77.6288865,
      "tags": {
        "amenity": "place_of_worship",
        "name": "Christ Grace Church",
        "religion": "christian"
      }
    },
    {
      "type": "node",
      "id": 4272948387,
      "lat": 12.9770418,
      "lon": 77.6328323,
      "tags": {
        "name": "Aquaverse",
        "pet": "fish",
        "shop": "pet",
        "tourism": "aquarium"
      }
    },
    {
      "type": "node",
      "id": 4272948388,
      "lat": 12.9780154,
      "lon": 77.6334331,
      "tags": {
        "name": "Dlecta Foods Private Limited",
        "phone": "+917411177799",
        "shop": "dairy"
      }
    },
    {
      "type": "node",
      "id": 4272948489,
      "lat": 12.9780533,
      "lon": 77.6330968,
      "tags": {
        "name": "Limra Fashion for Ladies and Kids",
        "shop": "tailor"
      }
    },
    {
      "type": "node",
      "id": 4272948490,
      "lat": 12.9777187,
      "lon": 77.6333365,
      "tags": {
        "name": "Satin Soft Salon and Boutique",
        "opening_hours": "Mo-Fr 09:00-21:00",
        "shop": "clothes"
      }
    },
    {
      "type": "node",
      "id": 4272948491,
      "lat": 12.9779357,
      "lon": 77.6332748,
      "tags": {
        "clothes": "women",
        "name": "Sri Krishna Akarshan Boutique",
        "shop": "clothes"
      }
    },
    {
      "type": "node",
      "id": 4286285297,
      "lat": 12.977683,
      "lon": 77.632226,
      "tags": {
        "addr:housenumber": "134",
        "addr:street": "18th",
        "description": "auto repair",
        "name": "Sri Vinayaka Motors",
        "shop": "motorcycle_repair"
      }
    },
    {
      "type": "node",
      "id": 4286285299,
      "lat": 12.9769262,
      "lon": 77.631936,
      "tags": {
        "addr:street": "1st main",
        "amenity": "place_of_worship",
        "description": "temple",
        "name": "Anniyamma temple",
        "name:kn": "ಅಣ್ಣಿಯಮ್ಮ ದೇವಸ್ಥಾನ",
        "religion": "hindu"
      }
    },
    {
      "type": "node",
      "id": 4286285300,
      "lat": 12.9770585,
      "lon": 77.6318947,
      "tags": {
        "addr:housenumber": "22",
        "addr:street": "lakshmipuram 1st main road",
        "description": "rice store",
        "name": "Annapurneshwari rice corner",
        "shop": "greengrocer"
      }
    },
    {
      "type": "node",
      "id": 4286285302,
      "lat": 12.9772166,
      "lon": 77.631572,
      "tags": {
        "addr:housenumber": "20",
        "addr:street": "1st Main Road",
        "amenity": "atm",
        "brand": "ICICI Bank",
        "brand:wikidata": "Q1653258",
        "name": "ICICI Bank",
        "operator": "ICICI Bank",
        "operator:wikidata": "Q1653258",
        "short_name": "ICICI"
      }
    },
    {
      "type": "node",
      "id": 4286285433,
      "lat": 12.9778564,
      "lon": 77.6322647,
      "tags": {
        "addr:street": "18th cross",
        "description": "kitchen essentials",
        "name": "Jayana",
        "shop": "doityourself"
      }
    },
    {
      "type": "node",
      "id": 4286285468,
      "lat": 12.9772038,
      "lon": 77.6316324,
      "tags": {
        "addr:housenumber": "12",
        "addr:street": "lakshmipuram 1st main road",
        "check_date": "2024-02-06",
        "description": "vegetable and fruit stall",
        "internet_access": "no",
        "name": "Mithra vegetable and fruit stall",
        "organic": "yes",
        "payment:cards": "no",
        "payment:cash": "yes",
        "payment:credit_cards": "no",
        "payment:debit_cards": "no",
        "shop": "greengrocer",
        "wheelchair": "no"
      }
    },
    {
      "type": "node",
      "id": 4286285517,
      "lat": 12.9777082,
      "lon": 77.6323407,
      "tags": {
        "addr:housenumber": "111(3/1)",
        "addr:street": "18th Cross Road",
        "amenity": "hospital",
        "description": "hospital",
        "healthcare": "hospital",
        "name": "Ameena Medical centre"
      }
    },
    {
      "type": "node",
      "id": 4463865291,
      "lat": 12.9737462,
      "lon": 77.6193171,
      "tags": {
        "addr:postcode": "560001",
        "addr:street": "Naveen Complex Building,MG Road",
        "amenity": "bank",
        "brand": "Canara Bank",
        "brand:en": "Canara Bank",
        "brand:hi": "केनरा बैंक",
        "brand:kn": "ಕೆನರಾ ಬ್ಯಾಂಕ್",
        "brand:pa": "ਕੇਨਰਾ ਬੈਂਕ",
        "brand:pnb": "کینرا بینک",
        "brand:ur": "کینرا بینک",
        "brand:wikidata": "Q2003777",
        "brand:wikipedia": "en:Canara Bank",
        "brand:wikipedia:pa": "ਕੇਨਰਾ ਬੈਂਕ",
        "name": "Canara Bank",
        "name:en": "Canara Bank",
        "name:hi": "केनरा बैंक",
        "name:kn": "ಕೆನರಾ ಬ್ಯಾಂಕ್",
        "name:pa": "ਕੇਨਰਾ ਬੈਂਕ",
        "name:pnb": "کینرا بینک",
        "name:ur": "کینرا بینک",
        "opening_hours": "Mo-Sa 22:00-06:00",
        "website": "https://www.canarabank.com/"
      }
    },
    {
      "type": "node",
      "id": 4488018492,
      "lat": 12.9747522,
      "lon": 77.6329973,
      "tags": {
        "addr:housenumber": "91/72",
        "addr:street": "7th Cross Road, 2nd Stage, Eshwara Layout, Indiranagar",
        "name": "Citi Nest Sports Centre",
        "opening_hours": "05:00-00:00",
        "phone": "080 2525 8287",
        "shop": "sports"
      }
    },
    {
      "type": "node",
      "id": 4488087436,
      "lat": 12.9761039,
      "lon": 77.6267652,
      "tags": {
        "addr:city": "Bangalore",
        "addr:housenumber": "132",
        "addr:postcode": "560008",
        "addr:street": "Swamy Vivekananda Road (Old Madras Road), Kadiranapalya, Indira Nagar",
        "name": "RR Cycles",
        "opening_hours": "11:00-21:00",
        "phone": "080 4113 4142",
        "shop": "sports"
      }
    },
    {
      "type": "node",
      "id": 4489106086,
      "lat": 12.9736655,
      "lon": 77.6203864,
      "tags": {
        "addr:city": "Bangalore",
        "addr:housenumber": "1",
        "addr:postcode": "560008",
        "addr:street": "Swami Vivekanand Road, Bhadrappa Layout, Someshwarpura, Ulsoor",
        "name": "Manchester United Store",
        "opening_hours": "10:00-21:30",
        "phone": "080 3256 9278",
        "shop": "sports",
        "website": "https://www.manutd.com/"
      }
    },
    {
      "type": "node",
      "id": 4489180444,
      "lat": 12.9825245,
      "lon": 77.6235846,
      "tags": {
        "addr:city": "bangalore",
        "addr:postcode": "560008",
        "addr:street": "A1, Silver Oaks, Kensington Cross Road, Ulsoor, Kensington Gardens, Kalhalli, Ulsoor",
        "name": "Zeven",
        "opening_hours": "10:00-21:30",
        "phone": "080 4170 9090",
        "shop": "sports",
        "website": "zevenworld.com"
      }
    },
    {
      "type": "node",
      "id": 4489922811,
      "lat": 12.9733578,
      "lon": 77.6218193,
      "tags": {
        "addr:city": "Bangalore",
        "addr:postcode": "560001",
        "addr:street": "Swami Vivekanand Road, MG Road, Trinity Circle, Someshwarpura",
        "name": "Lakme Salon",
        "opening_hours": "10:00-20:00",
        "phone": "080 2208 6677",
        "shop": "beauty",
        "website": "https://lakmeindia.com/"
      }
    },
    {
      "type": "node",
      "id": 4490387636,
      "lat": 12.9724506,
      "lon": 77.6273001,
      "tags": {
        "addr:city": "Bangalore",
        "addr:postcode": "560008",
        "addr:street": "Near Frank Anthony Public School,, 17/1, Cambridge Road, Halasuru, Bhadrappa Layout, Udani Layout, Ulsoor, Bengaluru",
        "leisure": "sports_centre",
        "name": "Contours Women's Fitness Studio",
        "opening_hours": "6:00-20:00",
        "phone": "8041736700",
        "sport": "gymnasium",
        "website": "https://contours.in/"
      }
    },
    {
      "type": "node",
      "id": 4809112928,
      "lat": 12.9737963,
      "lon": 77.6218675,
      "tags": {
        "amenity": "parking_entrance"
      }
    },
    {
      "type": "node",
      "id": 4810078627,
      "lat": 12.9732081,
      "lon": 77.6218855,
      "tags": {
        "amenity": "parking_entrance"
      }
    },
    {
      "type": "node",
      "id": 4832473456,
      "lat": 12.9759486,
      "lon": 77.6253838,
      "tags": {
        "addr:city": "Bangalore",
        "addr:postcode": "560008",
        "addr:street": "Car Street",
        "amenity": "bank",
        "atm": "yes",
        "brand": "Indian Bank",
        "brand:wikidata": "Q2003789",
        "brand:wikipedia": "en:Indian Bank",
        "check_date": "2024-03-05",
        "name": "Indian Bank",
        "name:en": "Indian Bank",
        "name:kn": "ಇಂಡಿಯನ್ ಬ್ಯಾಂಕ್",
        "operator": "Indian Bank",
        "website": "https://www.indianbank.in/"
      }
    },
    {
      "type": "node",
      "id": 4834488421,
      "lat": 12.9759801,
      "lon": 77.6252681,
      "tags": {
        "addr:postcode": "560008",
        "addr:street": "car street",
        "amenity": "restaurant",
        "name": "Udupi Vaibhav",
        "name:en": "Udupi Vaibhav"
      }
    },
    {
      "type": "node",
      "id": 4840185928,
      "lat": 12.9716236,
      "lon": 77.6273835,
      "tags": {
        "addr:district": "Bengaluru Urban",
        "addr:full": "No 18/17, Cambridge Road, Ulsoor",
        "addr:postcode": "560008",
        "addr:state": "Karnataka",
        "amenity": "hospital",
        "healthcare": "hospital",
        "name": "Cambridge Hospital",
        "name:en": "Cambridge Hospital",
        "source": "OpenGovernmentData"
      }
    },
    {
      "type": "node",
      "id": 4840185929,
      "lat": 12.9738255,
      "lon": 77.6262686,
      "tags": {
        "amenity": "toilets"
      }
    },
    {
      "type": "node",
      "id": 4840186222,
      "lat": 12.9753996,
      "lon": 77.6223913,
      "tags": {
        "amenity": "pharmacy",
        "healthcare": "pharmacy",
        "name": "Suneel Pharma",
        "name:en": "Suneel Pharma"
      }
    },
    {
      "type": "node",
      "id": 4846787926,
      "lat": 12.9755275,
      "lon": 77.6179176,
      "tags": {
        "amenity": "bank",
        "brand": "BNP Paribas",
        "brand:wikidata": "Q499707",
        "brand:wikipedia": "en:BNP Paribas",
        "name": "BNP Paribas",
        "name:en": "BNP PARIBAS"
      }
    },
    {
      "type": "node",
      "id": 4846787927,
      "lat": 12.9750488,
      "lon": 77.6181385,
      "tags": {
        "name": "The travel company",
        "name:en": "The travel company",
        "shop": "travel_agency"
      }
    },
    {
      "type": "node",
      "id": 4846789724,
      "lat": 12.9749189,
      "lon": 77.6185055,
      "tags": {
        "amenity": "bank",
        "brand": "HDFC Bank",
        "brand:wikidata": "Q631047",
        "name": "HDFC Bank",
        "name:en": "HDFC Bank",
        "name:kn": "ಎಚ್ ಡಿ ಎಫ್ ಸಿ",
        "short_name": "HDFC"
      }
    },
    {
      "type": "node",
      "id": 4846789824,
      "lat": 12.9749455,
      "lon": 77.6197537,
      "tags": {
        "amenity": "school",
        "name": "Purvankara academy of excellence",
        "name:en": "Purvankara academy of excellence"
      }
    },
    {
      "type": "node",
      "id": 4846789825,
      "lat": 12.9756503,
      "lon": 77.6170739,
      "tags": {
        "amenity": "cafe",
        "name": "The French Loaf",
        "name:en": "The French Loaf"
      }
    },
    {
      "type": "node",
      "id": 4846817422,
      "lat": 12.9746129,
      "lon": 77.6193934,
      "tags": {
        "addr:city": "Bengaluru",
        "addr:country": "IN",
        "addr:floor": "G",
        "addr:postcode": "560008",
        "addr:street": "Halasuru Road",
        "addr:suburb": "Ulsoor",
        "air_conditioning": "yes",
        "amenity": "cafe",
        "bar": "no",
        "check_date": "2025-01-11",
        "contact:instagram": "@marzipan.cafe",
        "cuisine": "greek",
        "delivery": "yes",
        "email": "marzipan.ulsoor@gmail.com",
        "level": "0",
        "name": "Marzipan Cafe",
        "name:en": "Marzipan Cafe",
        "outdoor_seating": "yes",
        "payment:cash": "yes",
        "payment:credit_cards": "yes",
        "payment:debit_cards": "yes",
        "phone": "9844422724",
        "shop": "bakery",
        "takeaway": "yes",
        "wheelchair": "no"
      }
    },
    {
      "type": "node",
      "id": 4846817423,
      "lat": 12.9725684,
      "lon": 77.6205679,
      "tags": {
        "amenity": "dentist",
        "name": "Ridgetop dental",
        "name:en": "Ridgetop dental"
      }
    },
    {
      "type": "node",
      "id": 4859042821,
      "lat": 12.9754695,
      "lon": 77.6258473,
      "tags": {
        "addr:postcode": "560008",
        "addr:street": "Swamy Vivekananda Road (Old Madras Road)",
        "name": "Sharada stores",
        "name:en": "Sharada stores",
        "shop": "books"
      }
    },
    {
      "type": "node",
      "id": 5265720466,
      "lat": 12.977874,
      "lon": 77.6285,
      "tags": {
        "amenity": "bank",
        "name": "Repco Bank"
      }
    },
    {
      "type": "node",
      "id": 5524163946,
      "lat": 12.9737445,
      "lon": 77.62041,
      "tags": {
        "amenity": "cafe",
        "level": "5",
        "name": "Cafe Felix"
      }
    },
    {
      "type": "node",
      "id": 5599537622,
      "lat": 12.973347,
      "lon": 77.6217445,
      "tags": {
        "addr:city": "Bangalore",
        "addr:housenumber": "0",
        "addr:postcode": "560008",
        "addr:street": "Ground floor Lido mall",
        "amenity": "fast_food",
        "brand": "McDonald's",
        "brand:pa": "ਮੈਕਡੋਨਲਡ’ਜ਼",
        "brand:ur": "مکڈونلڈز",
        "brand:wikidata": "Q38076",
        "brand:wikipedia": "en:McDonald's",
        "brand:wikipedia:pa": "ਮੈਕਡੋਨਲਡ’ਜ਼",
        "brand:wikipedia:ur": "مکڈونلڈز",
        "cuisine": "burger",
        "name": "McDonald's",
        "name:kn": "ಮ್ಯಾಕ್‌ಡೊನಾಲ್ಡ್ಸ್",
        "name:pa": "ਮੈਕਡੋਨਲਡ’ਜ਼",
        "name:ur": "مکڈونلڈز",
        "takeaway": "yes",
        "wheelchair": "yes"
      }
    },
    {
      "type": "node",
      "id": 5604142122,
      "lat": 12.9814345,
      "lon": 77.6283604,
      "tags": {
        "amenity": "shelter"
      }
    },
    {
      "type": "node",
      "id": 5645889421,
      "lat": 12.9752413,
      "lon": 77.6247184,
      "tags": {
        "addr:housenumber": "57",
        "addr:street": "Bazaar Stree",
        "name": "Sri Guru Sweet Mart",
        "shop": "confectionery"
      }
    },
    {
      "type": "node",
      "id": 5645889422,
      "lat": 12.9754304,
      "lon": 77.6246612,
      "tags": {
        "name": "Kingdom Garments",
        "shop": "clothes"
      }
    },
    {
      "type": "node",
      "id": 5645889521,
      "lat": 12.9753605,
      "lon": 77.6246523,
      "tags": {
        "name": "Baby Doll Fashions",
        "shop": "clothes"
      }
    },
    {
      "type": "node",
      "id": 5645889621,
      "lat": 12.9752623,
      "lon": 77.6246355,
      "tags": {
        "addr:housenumber": "1",
        "addr:street": "Bazaar Street",
        "name": "Shoppee Paradise",
        "shop": "clothes"
      }
    },
    {
      "type": "node",
      "id": 5645919621,
      "lat": 12.9754599,
      "lon": 77.6247364,
      "tags": {
        "name": "Varalakshmi Dry Cleaners",
        "shop": "dry_cleaning"
      }
    },
    {
      "type": "node",
      "id": 5714945190,
      "lat": 12.9721029,
      "lon": 77.6193559,
      "tags": {
        "amenity": "bank",
        "branch": "CAB Bangalore Branch",
        "brand": "State Bank of India",
        "brand:wikidata": "Q1340361",
        "name": "State Bank of India",
        "name:kn": "ಎಸ್ ಬಿ ಐ",
        "short_name": "SBI"
      }
    },
    {
      "type": "node",
      "id": 5715589842,
      "lat": 12.9752206,
      "lon": 77.6221318,
      "tags": {
        "amenity": "place_of_worship",
        "name": "Sri Pan Perumal Temple",
        "religion": "hindu"
      }
    },
    {
      "type": "node",
      "id": 5715589843,
      "lat": 12.9754837,
      "lon": 77.6229882,
      "tags": {
        "amenity": "place_of_worship",
        "name": "Anjaneya Swamy Temple",
        "name:kn": "ಆಂಜನೇಯಸ್ವಾಮಿ ದೇವಸ್ಥಾನ",
        "religion": "hindu"
      }
    },
    {
      "type": "node",
      "id": 6348823859,
      "lat": 12.9723069,
      "lon": 77.6302852,
      "tags": {
        "addr:place": "Jogupalya",
        "amenity": "school",
        "isced:level": "2",
        "name": "GHPS (K) Jogupalya",
        "name:kn": "ಸರ್ಕಾರಿ ಹಿರಿಯ ಪ್ರಾಥಮಿಕ ಶಾಲೆ (ಕನ್ನಡ) ಜೊಗುಪಾಳ್ಯ",
        "operator": "Department of Education",
        "school": "primary"
      }
    },
    {
      "type": "node",
      "id": 6348833682,
      "lat": 12.9760932,
      "lon": 77.6293447,
      "tags": {
        "addr:place": "Ulsoor",
        "amenity": "school",
        "isced:level": "2",
        "name": "Sri Ramakrishna HPS Ulsoor",
        "name:kn": "ಶ್ರೀ ರಾಮಕೃಷ್ಣ ಹಿರಿಯ ಪ್ರಾಥಮಿಕ ಶಾಲೆ ಹಲಸೂರು",
        "operator": "Department of Education",
        "school": "primary"
      }
    },
    {
      "type": "node",
      "id": 6349564529,
      "lat": 12.9766881,
      "lon": 77.6282174,
      "tags": {
        "addr:place": "Jogupalya",
        "amenity": "school",
        "isced:level": "2",
        "name": "Kairaliketan HPS Jogupalya",
        "name:kn": "ಕೈರಾಲಿಕೇತನ್ ಹಿರಿಯ ಪ್ರಾಥಮಿಕ ಶಾಲೆ ಜೊಗುಪಾಳ್ಯ",
        "operator": "Pvt. Aided",
        "school": "primary"
      }
    },
    {
      "type": "node",
      "id": 6443209514,
      "lat": 12.9730754,
      "lon": 77.6266744,
      "tags": {
        "brand": "Nandini",
        "name": "Nandini Milk Parlour",
        "shop": "dairy"
      }
    },
    {
      "type": "node",
      "id": 6443493785,
      "lat": 12.978038,
      "lon": 77.6327993,
      "tags": {
        "amenity": "place_of_worship",
        "name": "Sri Vidya Ganapathi Temple",
        "religion": "hindu"
      }
    },
    {
      "type": "node",
      "id": 6453978785,
      "lat": 12.978438,
      "lon": 77.6229537,
      "tags": {
        "amenity": "place_of_worship",
        "name": "Sri Panchamukhi Ganesh Temple",
        "religion": "hindu"
      }
    },
    {
      "type": "node",
      "id": 6454509103,
      "lat": 12.9756177,
      "lon": 77.6233864,
      "tags": {
        "amenity": "post_office",
        "name": "Halasuru Bazaar"
      }
    },
    {
      "type": "node",
      "id": 6455766772,
      "lat": 12.9807967,
      "lon": 77.6297271,
      "tags": {
        "amenity": "clinic",
        "name": "Ramakrishna Math Charitable Dispensary"
      }
    },
    {
      "type": "node",
      "id": 6458988265,
      "lat": 12.977819,
      "lon": 77.6303184,
      "tags": {
        "amenity": "fast_food",
        "name": "Dosa shop"
      }
    },
    {
      "type": "node",
      "id": 6458991781,
      "lat": 12.9777866,
      "lon": 77.6302967,
      "tags": {
        "amenity": "pharmacy",
        "check_date": "2024-02-06",
        "healthcare": "pharmacy",
        "name": "Suresh Pharma"
      }
    },
    {
      "type": "node",
      "id": 6458991784,
      "lat": 12.9778066,
      "lon": 77.6303466,
      "tags": {
        "name": "Snacks shop",
        "shop": "bakery"
      }
    },
    {
      "type": "node",
      "id": 6531687424,
      "lat": 12.9723602,
      "lon": 77.6304912,
      "tags": {
        "addr:place": "jogupalya",
        "amenity": "school",
        "isced:level": "1",
        "name": "GTLPS jogupalya",
        "name:kn": "ಸರ್ಕಾರಿ ತೆಲುಗು ಕಿರಿಯ ಪ್ರಾಥಮಿಕ ಶಾಲೆ ಜೊಗುಪಾಳ್ಯ",
        "operator": "Private Un-Aided",
        "school": "primary"
      }
    },
    {
      "type": "node",
      "id": 6531788004,
      "lat": 12.9740521,
      "lon": 77.6273143,
      "tags": {
        "addr:place": "Jogupalya",
        "amenity": "school",
        "isced:level": "1",
        "name": "GULPS Jogupalya,",
        "name:kn": "ಸರ್ಕಾರಿ ಉರ್ದು ಕಿರಿಯ ಪ್ರಾಥಮಿಕ ಶಾಲೆ ಜೊಗುಪಾಳ್ಯ",
        "operator": "Department of Education",
        "school": "primary"
      }
    },
    {
      "type": "node",
      "id": 6531889492,
      "lat": 12.9696041,
      "lon": 77.6243903,
      "tags": {
        "addr:place": "Jogupalya",
        "amenity": "school",
        "isced:level": "1",
        "name": "GLPS Gowthamapura, jogupalya",
        "name:kn": "ಸರ್ಕಾರಿ ಕಿರಿಯ ಪ್ರಾಥಮಿಕ ಶಾಲೆ ಗೌತಮಪುರ, ಜೊಗುಪಾಳ್ಯ",
        "operator": "Department of Education",
        "school": "primary"
      }
    },
    {
      "type": "node",
      "id": 6583723603,
      "lat": 12.9752019,
      "lon": 77.6247748,
      "tags": {
        "addr:city": "Bangalore",
        "addr:housenumber": "58",
        "addr:street": "Bazaar Steet, Ulsoor",
        "clothes": "women;children;men;babies;fashion;lingerie",
        "name": "Stylo garments",
        "operator": "Fasal",
        "shop": "clothes"
      }
    },
    {
      "type": "node",
      "id": 6591879250,
      "lat": 12.9786439,
      "lon": 77.6332563,
      "tags": {
        "brand": "Nandini",
        "name": "Nandini Shoppe",
        "shop": "dairy"
      }
    },
    {
      "type": "node",
      "id": 6819843991,
      "lat": 12.9777864,
      "lon": 77.617985,
      "tags": {
        "addr:city": "Bangalore",
        "addr:housenumber": "46",
        "addr:postcode": "560042",
        "addr:street": "3rd Cross Road",
        "name": "Jasmine's Beauty Salon",
        "phone": "+91 80 2559 2498",
        "shop": "hairdresser"
      }
    },
    {
      "type": "node",
      "id": 6938864303,
      "lat": 12.976032,
      "lon": 77.6254061,
      "tags": {
        "addr:district": "Bengaluru Urban",
        "addr:full": "CGHS Dispensary No.4, Ulsoor No.27, Car StreetUlsoor",
        "addr:postcode": "560004",
        "addr:state": "Karnataka",
        "amenity": "clinic",
        "health_facility:type": "dispensary",
        "healthcare": "centre",
        "name": "CGHS Dispensary No.4",
        "operator:type": "government",
        "source": "OpenGovernmentData",
        "website": "http://nb.bsf.gov.in/CGHS%20DIspenseries.pdf"
      }
    },
    {
      "type": "node",
      "id": 6944256063,
      "lat": 12.9781151,
      "lon": 77.6301697,
      "tags": {
        "addr:district": "Bengaluru Urban",
        "addr:full": "10,12 th Cross, Lakshmipuram",
        "addr:postcode": "560008",
        "addr:state": "Karnataka",
        "amenity": "clinic",
        "healthcare": "clinic",
        "name": "Joseph Clinic, Bengaluru Urban",
        "source": "OpenGovernmentData"
      }
    },
    {
      "type": "node",
      "id": 6944418996,
      "lat": 12.975802,
      "lon": 77.6184806,
      "tags": {
        "addr:district": "Bengaluru Urban",
        "addr:full": "No.1 Haudin Road, Off Ulsoor Road",
        "addr:postcode": "560042",
        "addr:state": "Karnataka",
        "amenity": "hospital",
        "name": "Nikad Ortho Centre",
        "source": "OpenGovernmentData"
      }
    },
    {
      "type": "node",
      "id": 7178597795,
      "lat": 12.973545,
      "lon": 77.6204172,
      "tags": {
        "addr:city": "Bengaluru",
        "addr:country": "IN",
        "addr:hamlet": "Ulsoor",
        "addr:housenumber": "1MG Mall",
        "addr:postcode": "560008",
        "addr:street": "Mahatma Gandhi Road",
        "amenity": "cafe",
        "name": "Food Hall",
        "website": "https://www.foodhallonline.com/"
      }
    },
    {
      "type": "node",
      "id": 7184126229,
      "lat": 12.9759778,
      "lon": 77.6262092,
      "tags": {
        "name": "Track & Trail",
        "shop": "bicycle"
      }
    },
    {
      "type": "node",
      "id": 7572526740,
      "lat": 12.9761401,
      "lon": 77.6227086,
      "tags": {
        "addr:district": "Bengaluru Urban",
        "addr:full": "Someshwarpura, Halasuru, Bengaluru",
        "addr:postcode": "560008",
        "addr:state": "Karnataka",
        "amenity": "dentist",
        "name": "Dhyan Dental Care",
        "source": "Local Knowledge"
      }
    },
    {
      "type": "node",
      "id": 7572526746,
      "lat": 12.9767057,
      "lon": 77.6229194,
      "tags": {
        "addr:district": "Bengaluru Urban",
        "addr:full": "Someshwarpura, Halasuru, Bengaluru",
        "addr:postcode": "560008",
        "addr:state": "Karnataka",
        "amenity": "clinic",
        "name": "Ghagare Health Care Clinic",
        "source": "Local Knowledge"
      }
    },
    {
      "type": "node",
      "id": 7572526809,
      "lat": 12.9728469,
      "lon": 77.6268497,
      "tags": {
        "addr:district": "Bengaluru Urban",
        "addr:full": "Cambridge Road, Udani Layout, Jogupalya, Bengaluru",
        "addr:postcode": "560008",
        "addr:state": "Karnataka",
        "amenity": "clinic",
        "healthcare": "clinic",
        "name": "Rai Clinic",
        "source": "Local Knowledge"
      }
    },
    {
      "type": "node",
      "id": 7617898613,
      "lat": 12.9793422,
      "lon": 77.6323235,
      "tags": {
        "amenity": "grave_yard",
        "name": "Hindu Graveyard",
        "religion": "hindu"
      }
    },
    {
      "type": "node",
      "id": 8143836838,
      "lat": 12.9771467,
      "lon": 77.6172628,
      "tags": {
        "addr:city": "Bangalore",
        "addr:housenumber": "17, Hanumanthappa Layout Rd",
        "addr:postcode": "560042",
        "addr:street": "Hanumanthappa Layout, Sivanchetti Gardens, Halasuru, Karnataka 560042",
        "name": "Tinge Custom Makeup Studio",
        "organic": "only",
        "shop": "supermarket",
        "website": "https://tingestore.com/"
      }
    },
    {
      "type": "node",
      "id": 8442476341,
      "lat": 12.9723871,
      "lon": 77.6185557,
      "tags": {
        "name": "Aubree",
        "shop": "bakery"
      }
    },
    {
      "type": "node",
      "id": 8442476342,
      "lat": 12.9723374,
      "lon": 77.6187616,
      "tags": {
        "addr:city": "Bengaluru",
        "addr:hamlet": "Craig Park Layout",
        "addr:housename": "Ramanashree Arcade",
        "addr:postcode": "560001",
        "addr:street": "Mahatma Gandhi Road",
        "addr:suburb": "Ashok Nagar",
        "amenity": "restaurant",
        "capacity": "41",
        "contact:facebook": "comal.india",
        "contact:instagram": "comal.in",
        "cuisine": "mexican",
        "delivery": "no",
        "name": "Comal",
        "opening_hours": "Tu-Su 12:00-15:00,19:00-22:30",
        "outdoor_seating": "no",
        "phone": "+91 8123240555",
        "reservation": "required",
        "start_date": "06-12-2024",
        "takeaway": "no"
      }
    },
    {
      "type": "node",
      "id": 8834772573,
      "lat": 12.9768014,
      "lon": 77.6297744,
      "tags": {
        "amenity": "place_of_worship",
        "name": "Thotada Muneshwara Swamy temple",
        "name:kn": "ತೋಟದ ಮುನೇಶ್ವರ ಸ್ವಾಮಿ ದೇವಸ್ಥಾನ",
        "religion": "hindu"
      }
    },
    {
      "type": "node",
      "id": 9230655278,
      "lat": 12.9722238,
      "lon": 77.6192451,
      "tags": {
        "name": "Saboo Collections",
        "shop": "clothes"
      }
    },
    {
      "type": "node",
      "id": 9230655289,
      "lat": 12.972361,
      "lon": 77.6186442,
      "tags": {
        "air_conditioning": "yes",
        "amenity": "restaurant",
        "cuisine": "regional",
        "diet:vegetarian": "yes",
        "indoor_seating": "yes",
        "name": "Dindigul Thalappakatti",
        "outdoor_seating": "no",
        "smoking": "no"
      }
    },
    {
      "type": "node",
      "id": 9230655290,
      "lat": 12.9723446,
      "lon": 77.618718,
      "tags": {
        "amenity": "restaurant",
        "cuisine": "italian",
        "name": "Chianti"
      }
    },
    {
      "type": "node",
      "id": 9230655291,
      "lat": 12.9723937,
      "lon": 77.6184551,
      "tags": {
        "addr:floor": "G",
        "air_conditioning": "yes",
        "amenity": "cafe",
        "bar": "no",
        "brand": "Starbucks",
        "brand:pa": "ਸਟਾਰਬਕਸ",
        "brand:ur": "اسٹاربکس",
        "brand:wikidata": "Q37158",
        "brand:wikipedia": "en:Starbucks",
        "capacity": "50",
        "check_date": "2024-06-23",
        "cuisine": "coffee_shop",
        "indoor_seating": "yes",
        "internet_access": "wlan",
        "internet_access:fee": "customers",
        "level": "0",
        "name": "Starbucks",
        "name:pa": "ਸਟਾਰਬਕਸ",
        "name:ur": "اسٹاربکس",
        "official_name": "Starbucks Coffee",
        "official_name:pa": "ਸਟਾਰਬਕਸ ਕੌਫੀ",
        "official_name:ur": "اسٹاربکس کافی",
        "outdoor_seating": "no",
        "payment:cash": "yes",
        "payment:mastercard": "yes",
        "payment:visa": "yes",
        "takeaway": "yes",
        "toilets": "yes"
      }
    },
    {
      "type": "node",
      "id": 9230655292,
      "lat": 12.9723584,
      "lon": 77.6183143,
      "tags": {
        "amenity": "fast_food"
      }
    },
    {
      "type": "node",
      "id": 9811346733,
      "lat": 12.9745892,
      "lon": 77.6196447,
      "tags": {
        "amenity": "bank",
        "atm": "yes",
        "brand": "Union Bank of India",
        "brand:wikidata": "Q2004078",
        "name": "Union Bank of India",
        "name:kn": "ಯೂನಿಯನ್ ಬ್ಯಾಂಕ್",
        "operator": "Union Bank of India"
      }
    },
    {
      "type": "node",
      "id": 9811346734,
      "lat": 12.9749146,
      "lon": 77.619237,
      "tags": {
        "amenity": "waste_basket"
      }
    },
    {
      "type": "node",
      "id": 9811346735,
      "lat": 12.975044,
      "lon": 77.6191498,
      "tags": {
        "amenity": "fast_food",
        "name": "Lassi Corner"
      }
    },
    {
      "type": "node",
      "id": 9811346745,
      "lat": 12.9749198,
      "lon": 77.6187354,
      "tags": {
        "amenity": "waste_basket"
      }
    },
    {
      "type": "node",
      "id": 9811346746,
      "lat": 12.9751054,
      "lon": 77.618203,
      "tags": {
        "amenity": "waste_basket"
      }
    },
    {
      "type": "node",
      "id": 9811346754,
      "lat": 12.9754377,
      "lon": 77.6175464,
      "tags": {
        "amenity": "waste_basket"
      }
    },
    {
      "type": "node",
      "id": 9811346759,
      "lat": 12.9756687,
      "lon": 77.6168136,
      "tags": {
        "amenity": "waste_basket"
      }
    },
    {
      "type": "node",
      "id": 9811346763,
      "lat": 12.9759438,
      "lon": 77.6160009,
      "tags": {
        "amenity": "waste_basket"
      }
    },
    {
      "type": "node",
      "id": 9811346770,
      "lat": 12.9737084,
      "lon": 77.6204856,
      "tags": {
        "access": "yes",
        "amenity": "toilets",
        "fee": "no",
        "female": "yes"
      }
    },
    {
      "type": "node",
      "id": 9811346771,
      "lat": 12.973741,
      "lon": 77.6204869,
      "tags": {
        "access": "yes",
        "amenity": "toilets",
        "fee": "no",
        "male": "yes"
      }
    },
    {
      "type": "node",
      "id": 9811371638,
      "lat": 12.9750407,
      "lon": 77.6199867,
      "tags": {
        "amenity": "pub",
        "name": "Night Owl Sky Lounge"
      }
    },
    {
      "type": "node",
      "id": 10121397955,
      "lat": 12.9757484,
      "lon": 77.6226219,
      "tags": {
        "name": "Sharon",
        "shop": "tea"
      }
    },
    {
      "type": "node",
      "id": 10138074550,
      "lat": 12.9721349,
      "lon": 77.6188655,
      "tags": {
        "access": "customers",
        "amenity": "parking_entrance",
        "fee": "yes",
        "parking": "underground"
      }
    },
    {
      "type": "node",
      "id": 10138074552,
      "lat": 12.9723087,
      "lon": 77.6186288,
      "tags": {
        "brand": "Fabindia",
        "brand:wikidata": "Q5427779",
        "name": "Fabindia",
        "shop": "clothes"
      }
    },
    {
      "type": "node",
      "id": 10138074571,
      "lat": 12.972708,
      "lon": 77.6179187,
      "tags": {
        "amenity": "waste_basket"
      }
    },
    {
      "type": "node",
      "id": 10138074572,
      "lat": 12.9723799,
      "lon": 77.6175807,
      "tags": {
        "addr:city": "Bengaluru",
        "addr:country": "IN",
        "addr:housename": "Logos",
        "addr:housenumber": "206",
        "addr:postcode": "560001",
        "addr:suburb": "Ashok Nagar",
        "amenity": "coworking_space",
        "fee": "yes",
        "name": "IndiQube Logos",
        "office": "coworking",
        "operator": "IndiQube"
      }
    },
    {
      "type": "node",
      "id": 10280759751,
      "lat": 12.9733385,
      "lon": 77.6197399,
      "tags": {
        "amenity": "pub",
        "microbrewery": "yes",
        "name": "7 Rivers Brewing Company"
      }
    },
    {
      "type": "node",
      "id": 10280790807,
      "lat": 12.9725047,
      "lon": 77.6265299,
      "tags": {
        "addr:city": "Bengaluru",
        "addr:country": "IN",
        "addr:housenumber": "18/1",
        "addr:postcode": "560008",
        "addr:street": "Cambridge Road",
        "addr:suburb": "Halasuru",
        "amenity": "pub",
        "contact:instagram": "adda1522blr",
        "email": "adda1522blr@gmail.com",
        "mobile": "+919164441522",
        "name": "ADDA 1522",
        "payment:credit_cards": "yes",
        "payment:debit_cards": "yes",
        "phone": "+919916661522",
        "website": "https://adda1522.com/"
      }
    },
    {
      "type": "node",
      "id": 10294506356,
      "lat": 12.9764825,
      "lon": 77.6268299,
      "tags": {
        "amenity": "charging_station",
        "brand": "Yulu",
        "note": "This is a battery swapping station of e-bikes."
      }
    },
    {
      "type": "node",
      "id": 10298154446,
      "lat": 12.9697851,
      "lon": 77.6245511,
      "tags": {
        "amenity": "place_of_worship",
        "religion": "hindu"
      }
    },
    {
      "type": "node",
      "id": 10727955503,
      "lat": 12.9732928,
      "lon": 77.6203649,
      "tags": {
        "addr:city": "Bangalore",
        "addr:country": "IN",
        "addr:housename": "1 MG Road Mall",
        "addr:postcode": "560008",
        "addr:street": "Mahatma Gandhi Road",
        "amenity": "restaurant",
        "contact:facebook": "YauatchaBlr",
        "contact:instagram": "yauatchabengaluru",
        "cuisine": "cantonese",
        "delivery": "yes",
        "email": "reservation.bengaluru@yauatchaindia.com",
        "level": "5",
        "name": "Yauatcha",
        "phone": "+91 922 2222800",
        "reservation": "yes",
        "website": "https://yauatcha.com/bengaluru/"
      }
    },
    {
      "type": "node",
      "id": 10873245737,
      "lat": 12.9728112,
      "lon": 77.6172247,
      "tags": {
        "name": "The Cane Joint",
        "shop": "kiosk"
      }
    },
    {
      "type": "node",
      "id": 10979969450,
      "lat": 12.9730589,
      "lon": 77.6182875,
      "tags": {
        "access": "customers",
        "amenity": "parking",
        "parking": "surface"
      }
    },
    {
      "type": "node",
      "id": 10994052517,
      "lat": 12.9734392,
      "lon": 77.6203608,
      "tags": {
        "contact:instagram": "theancestrystore",
        "contact:youtube": "@theancestrystore",
        "email": "care@theancestrystore.in",
        "name": "Ancestry",
        "phone": "+91 7304477926",
        "shop": "boutique",
        "website": "https://theancestrystore.in/"
      }
    },
    {
      "type": "node",
      "id": 11131430560,
      "lat": 12.9714734,
      "lon": 77.6277316,
      "tags": {
        "amenity": "pharmacy",
        "brand": "MedPlus",
        "brand:wikidata": "Q65684234",
        "healthcare": "pharmacy",
        "name": "MedPlus"
      }
    },
    {
      "type": "node",
      "id": 11131430561,
      "lat": 12.9714974,
      "lon": 77.6277058,
      "tags": {
        "amenity": "atm",
        "brand": "Kotak Mahindra Bank",
        "brand:wikidata": "Q2040404",
        "operator": "Kotak Mahindra Bank",
        "operator:wikidata": "Q2040404"
      }
    },
    {
      "type": "node",
      "id": 11131430562,
      "lat": 12.9721652,
      "lon": 77.6273558,
      "tags": {
        "amenity": "kindergarten",
        "name": "Little Wings Pre Primary School"
      }
    },
    {
      "type": "node",
      "id": 11188703538,
      "lat": 12.9738038,
      "lon": 77.6203662,
      "tags": {
        "amenity": "pub",
        "contact:instagram": "julietblr_",
        "name": "Juliet"
      }
    },
    {
      "type": "node",
      "id": 11188703539,
      "lat": 12.9731869,
      "lon": 77.6203595,
      "tags": {
        "amenity": "pub",
        "contact:instagram": "twomoonsblr",
        "name": "Two Moons",
        "phone": "+91 96203 47095"
      }
    },
    {
      "type": "node",
      "id": 11188703541,
      "lat": 12.973528,
      "lon": 77.6203608,
      "tags": {
        "amenity": "pub",
        "contact:instagram": "minxblr",
        "name": "Minx"
      }
    },
    {
      "type": "node",
      "id": 11188703545,
      "lat": 12.9714775,
      "lon": 77.618895,
      "tags": {
        "name": "Kohler",
        "shop": "kitchen"
      }
    },
    {
      "type": "node",
      "id": 11289218780,
      "lat": 12.9747794,
      "lon": 77.6199654,
      "tags": {
        "amenity": "waste_basket"
      }
    },
    {
      "type": "node",
      "id": 11385585231,
      "lat": 12.972819,
      "lon": 77.6172708,
      "tags": {
        "amenity": "atm",
        "brand": "State Bank of India",
        "brand:wikidata": "Q1340361",
        "check_date": "2023-11-30",
        "level": "1",
        "operator": "State Bank of India",
        "operator:wikidata": "Q1340361",
        "short_name": "SBI"
      }
    },
    {
      "type": "node",
      "id": 11404712824,
      "lat": 12.9776472,
      "lon": 77.6273121,
      "tags": {
        "amenity": "pharmacy",
        "name": "Shree Raajarajeshwari Medicals & General store"
      }
    },
    {
      "type": "node",
      "id": 11499112406,
      "lat": 12.972617,
      "lon": 77.6266243,
      "tags": {
        "addr:floor": "2",
        "amenity": "restaurant",
        "check_date": "2024-01-08",
        "contact:instagram": "https://www.instagram.com/podiandspice",
        "level": "2",
        "name": "Podi and Spice"
      }
    },
    {
      "type": "node",
      "id": 11594813843,
      "lat": 12.9784568,
      "lon": 77.6302376,
      "tags": {
        "check_date": "2025-08-18",
        "check_date:opening_hours": "2025-08-18",
        "description": "Wholesale store for household items",
        "internet_access": "no",
        "name": "Mahadev Marketing",
        "opening_hours": "Mo-Su 09:00-21:00",
        "payment:cards": "no",
        "payment:cash": "yes",
        "payment:credit_cards": "no",
        "payment:debit_cards": "no",
        "shop": "department_store",
        "toilets": "no"
      }
    },
    {
      "type": "node",
      "id": 11594813844,
      "lat": 12.9784827,
      "lon": 77.6300943,
      "tags": {
        "check_date": "2024-10-06",
        "description": "Xerox, printout and binding service",
        "internet_access": "no",
        "name": "Moon Graphics",
        "opening_hours": "Mo-Sa 09:00-22:00",
        "payment:cards": "no",
        "payment:cash": "yes",
        "payment:credit_cards": "no",
        "payment:debit_cards": "no",
        "shop": "copyshop",
        "wheelchair": "no"
      }
    },
    {
      "type": "node",
      "id": 11598342947,
      "lat": 12.9784278,
      "lon": 77.6304586,
      "tags": {
        "check_date": "2025-08-22",
        "check_date:opening_hours": "2025-08-22",
        "internet_access": "no",
        "level": "0",
        "male": "yes",
        "name": "Blue Diamond Hair Dresses",
        "opening_hours": "Mo-Su 09:00-21:00",
        "payment:cards": "no",
        "payment:cash": "yes",
        "payment:credit_cards": "no",
        "payment:debit_cards": "no",
        "shop": "hairdresser",
        "wheelchair": "no"
      }
    },
    {
      "type": "node",
      "id": 11598342948,
      "lat": 12.9784307,
      "lon": 77.6304114,
      "tags": {
        "check_date": "2025-08-26",
        "check_date:opening_hours": "2025-08-26",
        "internet_access": "no",
        "name": "Saint Gobain Glass",
        "opening_hours": "Mo-Sa 09:00-21:00",
        "payment:cash": "yes",
        "payment:credit_cards": "yes",
        "payment:debit_cards": "yes",
        "shop": "hardware",
        "wheelchair": "no"
      }
    },
    {
      "type": "node",
      "id": 11598459984,
      "lat": 12.9782131,
      "lon": 77.6306819,
      "tags": {
        "check_date": "2025-09-12",
        "check_date:opening_hours": "2025-09-12",
        "internet_access": "no",
        "level": "0",
        "name": "B.P Bakery",
        "opening_hours": "Mo-Sa 09:00-21:00",
        "payment:cards": "no",
        "payment:cash": "yes",
        "payment:credit_cards": "no",
        "payment:debit_cards": "no",
        "shop": "bakery",
        "wheelchair": "no"
      }
    },
    {
      "type": "node",
      "id": 11598473994,
      "lat": 12.9782427,
      "lon": 77.6303751,
      "tags": {
        "check_date": "2024-02-08",
        "description": "Dealers in 2&3 wheeler spare parts",
        "level": "0",
        "name": "New Krishna Automobiles",
        "shop": "car_parts"
      }
    },
    {
      "type": "node",
      "id": 11598477573,
      "lat": 12.9782547,
      "lon": 77.6303592,
      "tags": {
        "check_date": "2024-02-08",
        "internet_access": "no",
        "level": "0",
        "name": "DJ Glass Hardware Studio",
        "payment:cash": "yes",
        "payment:credit_cards": "yes",
        "payment:debit_cards": "yes",
        "shop": "hardware",
        "wheelchair": "no"
      }
    },
    {
      "type": "node",
      "id": 11598493631,
      "lat": 12.9784183,
      "lon": 77.6305007,
      "tags": {
        "check_date": "2025-08-30",
        "check_date:opening_hours": "2025-08-30",
        "internet_access": "no",
        "level": "0",
        "name": "Arihant Jewels",
        "opening_hours": "Mo-Sa 08:00-19:00",
        "payment:cash": "yes",
        "payment:credit_cards": "yes",
        "payment:debit_cards": "yes",
        "shop": "jewelry",
        "wheelchair": "no"
      }
    },
    {
      "type": "node",
      "id": 11598493632,
      "lat": 12.9784308,
      "lon": 77.6305574,
      "tags": {
        "amenity": "fixme",
        "check_date": "2024-02-08",
        "description": "Xerox, printout, book stationary",
        "fixme": "type",
        "fixme:type": "stationary",
        "internet_access": "no",
        "level": "0",
        "name": "Arihant Impex",
        "payment:cards": "no",
        "payment:cash": "yes",
        "payment:credit_cards": "no",
        "payment:debit_cards": "no",
        "wheelchair": "no"
      }
    },
    {
      "type": "node",
      "id": 11607152425,
      "lat": 12.9780746,
      "lon": 77.6311299,
      "tags": {
        "amenity": "place_of_worship",
        "name": "Masjid-E-Mohammadi",
        "religion": "muslim"
      }
    },
    {
      "type": "node",
      "id": 11623164488,
      "lat": 12.9785401,
      "lon": 77.6303791,
      "tags": {
        "check_date": "2024-02-14",
        "description": "Popular Auto Dealers Pvt. Ltd.",
        "internet_access": "no",
        "name": "Maruti Suzuki Genuine Parts",
        "payment:cash": "yes",
        "payment:credit_cards": "yes",
        "payment:debit_cards": "yes",
        "shop": "car_parts",
        "wheelchair": "no"
      }
    },
    {
      "type": "node",
      "id": 11630684166,
      "lat": 12.9782284,
      "lon": 77.6306448,
      "tags": {
        "amenity": "atm",
        "brand": "Canara Bank",
        "brand:en": "Canara Bank",
        "brand:hi": "केनरा बैंक",
        "brand:kn": "ಕೆನರಾ ಬ್ಯಾಂಕ್",
        "brand:pa": "ਕੇਨਰਾ ਬੈਂਕ",
        "brand:pnb": "کینرا بینک",
        "brand:ur": "کینرا بینک",
        "brand:wikidata": "Q2003777",
        "cash_in": "no",
        "check_date": "2024-02-16",
        "currency:INR": "yes",
        "indoor": "yes",
        "name:en": "Canara Bank",
        "name:hi": "केनरा बैंक",
        "name:kn": "ಕೆನರಾ ಬ್ಯಾಂಕ್",
        "name:pa": "ਕੇਨਰਾ ਬੈਂਕ",
        "name:pnb": "کینرا بینک",
        "name:ur": "کینرا بینک",
        "operator": "Canara Bank",
        "operator:wikidata": "Q2003777"
      }
    },
    {
      "type": "node",
      "id": 11630714851,
      "lat": 12.9782886,
      "lon": 77.6300822,
      "tags": {
        "check_date": "2025-09-10",
        "check_date:opening_hours": "2025-09-10",
        "currency:INR": "yes",
        "name": "Balaji Electricals",
        "name:kn": "ಬಾಲಾಜಿ ಎಲಕ್ಟ್ರಿಕಲ್ಸ್",
        "opening_hours": "Mo-Sa 09:00-21:00",
        "payment:cash": "yes",
        "payment:credit_cards": "yes",
        "payment:debit_cards": "yes",
        "shop": "electrical",
        "source": "local knowledge;survey",
        "wheelchair": "no"
      }
    },
    {
      "type": "node",
      "id": 11630716966,
      "lat": 12.9787338,
      "lon": 77.6311027,
      "tags": {
        "amenity": "place_of_worship",
        "check_date": "2024-02-16",
        "name": "Temple",
        "religion": "hindu"
      }
    },
    {
      "type": "node",
      "id": 11630738956,
      "lat": 12.9784085,
      "lon": 77.630885,
      "tags": {
        "amenity": "pharmacy",
        "check_date": "2024-02-16",
        "healthcare": "pharmacy",
        "internet_access": "no",
        "name": "Eshwar Pharma",
        "payment:cash": "yes",
        "payment:credit_cards": "yes",
        "payment:debit_cards": "yes",
        "phone": "+91 91643 45443",
        "wheelchair": "no"
      }
    },
    {
      "type": "node",
      "id": 11630763683,
      "lat": 12.9786029,
      "lon": 77.6310756,
      "tags": {
        "amenity": "place_of_worship",
        "check_date": "2024-02-16",
        "description": "Prayer hall",
        "name": "Sri shivanibhava Mutt",
        "religion": "hindu"
      }
    },
    {
      "type": "node",
      "id": 11630772965,
      "lat": 12.9784895,
      "lon": 77.6299631,
      "tags": {
        "amenity": "restaurant",
        "check_date": "2024-10-06",
        "cuisine": "indian",
        "internet_access": "no",
        "name": "Ambur Hot Dum Biriyani",
        "payment:cards": "no",
        "payment:cash": "yes",
        "payment:credit_cards": "no",
        "payment:debit_cards": "no",
        "wheelchair": "no"
      }
    },
    {
      "type": "node",
      "id": 11659385836,
      "lat": 12.9735962,
      "lon": 77.6228357,
      "tags": {
        "check_date": "2024-02-24",
        "internet_access": "no",
        "name": "Royal Dealing Office",
        "payment:cards": "no",
        "payment:cash": "yes",
        "payment:credit_cards": "no",
        "payment:debit_cards": "no",
        "shop": "motorcycle_repair",
        "wheelchair": "no"
      }
    },
    {
      "type": "node",
      "id": 11659385837,
      "lat": 12.9736597,
      "lon": 77.6229416,
      "tags": {
        "amenity": "pharmacy",
        "check_date": "2024-02-24",
        "healthcare": "pharmacy",
        "internet_access": "no",
        "name": "Pharma Point",
        "payment:cash": "yes",
        "payment:credit_cards": "yes",
        "payment:debit_cards": "yes",
        "wheelchair": "no"
      }
    },
    {
      "type": "node",
      "id": 11659393739,
      "lat": 12.9737997,
      "lon": 77.6231991,
      "tags": {
        "amenity": "bank",
        "brand": "Punjab & Sind Bank",
        "brand:en": "Punjab & Sind Bank",
        "brand:hi": "पंजाब एण्ड सिंध बैंक",
        "brand:wikidata": "Q2003302",
        "check_date": "2024-02-24",
        "internet_access": "no",
        "name": "Punjab & Sind Bank",
        "name:en": "Punjab & Sind Bank",
        "name:hi": "पंजाब एण्ड सिंध बैंक"
      }
    },
    {
      "type": "node",
      "id": 11659393740,
      "lat": 12.9737843,
      "lon": 77.6231744,
      "tags": {
        "amenity": "atm",
        "check_date": "2024-02-24",
        "currency:INR": "yes",
        "operator": "Punjab & Sind Bank ATM"
      }
    },
    {
      "type": "node",
      "id": 11659394421,
      "lat": 12.9753929,
      "lon": 77.6257352,
      "tags": {
        "check_date": "2024-02-24",
        "description": "Computerised Duplicate Keys for all types of vehicles",
        "name": "Global Key Maker",
        "shop": "locksmith"
      }
    },
    {
      "type": "node",
      "id": 11659407358,
      "lat": 12.9783601,
      "lon": 77.6313384,
      "tags": {
        "amenity": "fast_food",
        "check_date": "2024-02-19",
        "cuisine": "juice",
        "internet_access": "no",
        "name": "Sri Brahmalingeshwara Juice And Condiments",
        "payment:cards": "no",
        "payment:cash": "yes",
        "payment:credit_cards": "no",
        "payment:debit_cards": "no",
        "wheelchair": "no"
      }
    },
    {
      "type": "node",
      "id": 11659423776,
      "lat": 12.9743258,
      "lon": 77.6240436,
      "tags": {
        "amenity": "post_office",
        "brand": "Blue Dart Express",
        "brand:short": "Blue Dart",
        "brand:wikidata": "Q54621493",
        "check_date": "2024-02-24",
        "name": "Blue Dart",
        "operator": "Blue Dart Express",
        "operator:short": "Blue Dart",
        "operator:wikidata": "Q54621493"
      }
    },
    {
      "type": "node",
      "id": 11659423777,
      "lat": 12.9743419,
      "lon": 77.6240687,
      "tags": {
        "check_date": "2024-02-24",
        "name": "MPS Arts & Crafts",
        "shop": "craft"
      }
    },
    {
      "type": "node",
      "id": 11684465147,
      "lat": 12.9776129,
      "lon": 77.6273546,
      "tags": {
        "amenity": "restaurant",
        "check_date": "2024-03-02",
        "internet_access": "no",
        "name": "Zamam's Darbaar",
        "payment:cards": "no",
        "payment:cash": "yes",
        "payment:credit_cards": "no",
        "payment:debit_cards": "no",
        "wheelchair": "no"
      }
    },
    {
      "type": "node",
      "id": 11684465148,
      "lat": 12.9775675,
      "lon": 77.6272973,
      "tags": {
        "amenity": "driving_school",
        "check_date": "2024-03-02",
        "internet_access": "no",
        "name": "Balaji Motor Driving Training School",
        "payment:cash": "yes",
        "payment:credit_cards": "yes",
        "payment:debit_cards": "yes",
        "wheelchair": "no"
      }
    },
    {
      "type": "node",
      "id": 11684501144,
      "lat": 12.9774449,
      "lon": 77.6271297,
      "tags": {
        "amenity": "hospital",
        "check_date": "2024-03-02",
        "healthcare": "hospital",
        "name": "Span Health Center"
      }
    },
    {
      "type": "node",
      "id": 11687670308,
      "lat": 12.9767459,
      "lon": 77.632192,
      "tags": {
        "check_date": "2024-03-03",
        "internet_access": "no",
        "name": "G.M Men's Beauty Salon",
        "payment:cards": "no",
        "payment:cash": "yes",
        "payment:credit_cards": "no",
        "payment:debit_cards": "no",
        "phone": "+91 98809 12306",
        "shop": "hairdresser",
        "wheelchair": "no"
      }
    },
    {
      "type": "node",
      "id": 11687670309,
      "lat": 12.9768053,
      "lon": 77.6322245,
      "tags": {
        "check_date": "2024-03-03",
        "internet_access": "no",
        "name": "Miracle Look Beauty Salon",
        "opening_hours": "Mo-Fr 10:00-20:00",
        "payment:cards": "no",
        "payment:cash": "yes",
        "payment:credit_cards": "no",
        "payment:debit_cards": "no",
        "phone": "+91 80736 15071",
        "shop": "beauty",
        "wheelchair": "no"
      }
    },
    {
      "type": "node",
      "id": 11687703006,
      "lat": 12.9770118,
      "lon": 77.6319376,
      "tags": {
        "check_date": "2024-03-03",
        "internet_access": "no",
        "name": "Iyengars Amma Pastries",
        "payment:cards": "no",
        "payment:cash": "yes",
        "payment:credit_cards": "no",
        "payment:debit_cards": "no",
        "shop": "bakery",
        "wheelchair": "no"
      }
    },
    {
      "type": "node",
      "id": 11687760729,
      "lat": 12.9783466,
      "lon": 77.6314892,
      "tags": {
        "check_date": "2024-03-03",
        "internet_access": "no",
        "name": "Bharath Hardware Center",
        "payment:cash": "yes",
        "payment:credit_cards": "yes",
        "payment:debit_cards": "yes",
        "shop": "hardware",
        "wheelchair": "no"
      }
    },
    {
      "type": "node",
      "id": 11687795827,
      "lat": 12.9783897,
      "lon": 77.6309594,
      "tags": {
        "check_date": "2024-03-03",
        "internet_access": "no",
        "name": "Sree Srinivasa Glass & Plywoods",
        "payment:cash": "yes",
        "payment:credit_cards": "yes",
        "payment:debit_cards": "yes",
        "shop": "hardware"
      }
    },
    {
      "type": "node",
      "id": 11690851846,
      "lat": 12.9784197,
      "lon": 77.6306998,
      "tags": {
        "amenity": "clinic",
        "check_date": "2024-03-04",
        "healthcare": "clinic",
        "name": "Laxmi Piles Clinic"
      }
    },
    {
      "type": "node",
      "id": 11694166515,
      "lat": 12.9753427,
      "lon": 77.6255211,
      "tags": {
        "amenity": "restaurant",
        "check_date": "2024-03-05",
        "internet_access": "no",
        "name": "Sri Krishna Foodline",
        "payment:cards": "no",
        "payment:cash": "yes",
        "payment:credit_cards": "no",
        "payment:debit_cards": "no",
        "phone": "+91 95380 88881",
        "wheelchair": "no"
      }
    },
    {
      "type": "node",
      "id": 11694166516,
      "lat": 12.9753224,
      "lon": 77.6255177,
      "tags": {
        "amenity": "fast_food",
        "check_date": "2024-03-05",
        "cuisine": "juice",
        "internet_access": "no",
        "name": "Juicy Creamz",
        "payment:cards": "no",
        "payment:cash": "yes",
        "payment:credit_cards": "no",
        "payment:debit_cards": "no",
        "wheelchair": "no"
      }
    },
    {
      "type": "node",
      "id": 11694166517,
      "lat": 12.9754162,
      "lon": 77.6255638,
      "tags": {
        "check_date": "2024-03-05",
        "name": "Mahadev Kangan Store",
        "shop": "cosmetics"
      }
    },
    {
      "type": "node",
      "id": 11694166518,
      "lat": 12.9753697,
      "lon": 77.6254264,
      "tags": {
        "check_date": "2024-03-05",
        "internet_access": "no",
        "name": "Aishwarya Pranam Home Needs",
        "payment:cards": "no",
        "payment:cash": "yes",
        "payment:credit_cards": "no",
        "payment:debit_cards": "no",
        "shop": "houseware",
        "wheelchair": "no"
      }
    },
    {
      "type": "node",
      "id": 11694188673,
      "lat": 12.9760589,
      "lon": 77.6248726,
      "tags": {
        "amenity": "restaurant",
        "check_date": "2024-03-05",
        "cuisine": "chinese",
        "internet_access": "no",
        "name": "Kaati King",
        "payment:cards": "no",
        "payment:cash": "yes",
        "payment:credit_cards": "no",
        "payment:debit_cards": "no",
        "wheelchair": "no"
      }
    },
    {
      "type": "node",
      "id": 11694214521,
      "lat": 12.9761609,
      "lon": 77.6244665,
      "tags": {
        "amenity": "pharmacy",
        "check_date": "2024-03-05",
        "healthcare": "pharmacy",
        "name": "Sri Sai Med Pharma",
        "phone": "+91 98443 85199"
      }
    },
    {
      "type": "node",
      "id": 11694214522,
      "lat": 12.9761193,
      "lon": 77.6242848,
      "tags": {
        "amenity": "doctors",
        "check_date": "2024-03-05",
        "healthcare": "doctor",
        "healthcare:speciality": "dermatology",
        "name": "Dr. Sahana's Skin & Hair Clinic",
        "phone": "+91 70196 43144"
      }
    },
    {
      "type": "node",
      "id": 11694239927,
      "lat": 12.9757077,
      "lon": 77.6259807,
      "tags": {
        "amenity": "bank",
        "brand": "ESAF Small Finance Bank",
        "brand:wikidata": "Q28173964",
        "check_date": "2024-03-05",
        "internet_access": "no",
        "name": "ESAF Small Finance Bank",
        "payment:cash": "yes",
        "payment:credit_cards": "yes",
        "payment:debit_cards": "yes",
        "wheelchair": "no"
      }
    },
    {
      "type": "node",
      "id": 11694239928,
      "lat": 12.9756424,
      "lon": 77.6259639,
      "tags": {
        "check_date": "2024-03-05",
        "internet_access": "no",
        "name": "Meghdooth Suzuki",
        "payment:cash": "yes",
        "payment:credit_cards": "yes",
        "payment:debit_cards": "yes",
        "shop": "motorcycle",
        "wheelchair": "no"
      }
    },
    {
      "type": "node",
      "id": 11694239929,
      "lat": 12.9756782,
      "lon": 77.6259775,
      "tags": {
        "check_date": "2024-03-05",
        "internet_access": "no",
        "name": "Vinay Bankers",
        "payment:cash": "yes",
        "payment:credit_cards": "yes",
        "payment:debit_cards": "yes",
        "shop": "money_lender",
        "wheelchair": "no"
      }
    },
    {
      "type": "node",
      "id": 11694248757,
      "lat": 12.9771934,
      "lon": 77.6270227,
      "tags": {
        "amenity": "restaurant",
        "check_date": "2024-03-05",
        "name": "Samutara Restaurant"
      }
    },
    {
      "type": "node",
      "id": 11694248758,
      "lat": 12.9772272,
      "lon": 77.6270474,
      "tags": {
        "amenity": "restaurant",
        "check_date": "2024-03-05",
        "internet_access": "no",
        "name": "New Taj",
        "payment:cards": "no",
        "payment:cash": "yes",
        "payment:credit_cards": "no",
        "payment:debit_cards": "no",
        "wheelchair": "no"
      }
    },
    {
      "type": "node",
      "id": 11694248759,
      "lat": 12.9772465,
      "lon": 77.627059,
      "tags": {
        "amenity": "post_office",
        "brand": "Desk to Desk Courier & Cargo",
        "brand:short": "DTDC",
        "brand:wikidata": "Q55608802",
        "check_date": "2024-03-05",
        "internet_access": "no",
        "name": "DTDC",
        "operator": "Desk to Desk Courier & Cargo",
        "operator:short": "DTDC",
        "operator:wikidata": "Q55608802",
        "payment:cash": "yes",
        "payment:credit_cards": "yes",
        "payment:debit_cards": "yes",
        "wheelchair": "no"
      }
    },
    {
      "type": "node",
      "id": 11699311582,
      "lat": 12.9785564,
      "lon": 77.6294684,
      "tags": {
        "check_date": "2024-03-07",
        "internet_access": "no",
        "name": "White Horse Spirits",
        "payment:cash": "yes",
        "payment:credit_cards": "yes",
        "payment:debit_cards": "yes",
        "shop": "wine",
        "wheelchair": "no"
      }
    },
    {
      "type": "node",
      "id": 11699311583,
      "lat": 12.9783532,
      "lon": 77.629448,
      "tags": {
        "amenity": "bar",
        "check_date": "2024-03-07",
        "internet_access": "no",
        "name": "S.G.R Bar & Restaurant",
        "payment:cards": "no",
        "payment:cash": "yes",
        "payment:credit_cards": "no",
        "payment:debit_cards": "no",
        "wheelchair": "no"
      }
    },
    {
      "type": "node",
      "id": 11699347751,
      "lat": 12.9782892,
      "lon": 77.6288056,
      "tags": {
        "amenity": "atm",
        "cash_in": "no",
        "check_date": "2024-03-07",
        "currency:INR": "yes",
        "operator": "Axis Bank ATM"
      }
    },
    {
      "type": "node",
      "id": 11707836860,
      "lat": 12.9782708,
      "lon": 77.6302447,
      "tags": {
        "check_date": "2024-10-06",
        "internet_access": "no",
        "name": "Karnataka Ham Shop",
        "payment:cards": "no",
        "payment:cash": "yes",
        "payment:credit_cards": "no",
        "payment:debit_cards": "no",
        "phone": "+91 90190 83337",
        "shop": "butcher",
        "wheelchair": "no"
      }
    },
    {
      "type": "node",
      "id": 11707870439,
      "lat": 12.9785545,
      "lon": 77.6293917,
      "tags": {
        "check_date": "2024-03-09",
        "internet_access": "no",
        "name": "Metro Studio",
        "payment:cash": "yes",
        "payment:credit_cards": "yes",
        "payment:debit_cards": "yes",
        "shop": "photo",
        "wheelchair": "no"
      }
    },
    {
      "type": "node",
      "id": 11707891107,
      "lat": 12.9785518,
      "lon": 77.6294482,
      "tags": {
        "amenity": "fast_food",
        "check_date": "2024-03-09",
        "cuisine": "fish_and_chips",
        "internet_access": "no",
        "name": "Sri Vinayaka Hot Chips",
        "payment:cards": "no",
        "payment:cash": "yes",
        "payment:credit_cards": "no",
        "payment:debit_cards": "no",
        "wheelchair": "no"
      }
    },
    {
      "type": "node",
      "id": 11707891108,
      "lat": 12.9785518,
      "lon": 77.629481,
      "tags": {
        "check_date": "2024-03-09",
        "internet_access": "no",
        "name": "Ameen Times",
        "payment:cash": "yes",
        "payment:credit_cards": "yes",
        "payment:debit_cards": "yes",
        "shop": "watches",
        "wheelchair": "no"
      }
    },
    {
      "type": "node",
      "id": 11707891109,
      "lat": 12.9783519,
      "lon": 77.62943,
      "tags": {
        "check_date": "2024-03-09",
        "internet_access": "no",
        "name": "Jagannath Glass & Plywoods",
        "payment:cash": "yes",
        "payment:credit_cards": "yes",
        "payment:debit_cards": "yes",
        "shop": "hardware",
        "wheelchair": "no"
      }
    },
    {
      "type": "node",
      "id": 11708674465,
      "lat": 12.978571,
      "lon": 77.6292671,
      "tags": {
        "amenity": "atm",
        "brand": "Karur Vysya Bank",
        "brand:wikidata": "Q6373724",
        "cash_in": "no",
        "check_date": "2024-03-09",
        "currency:INR": "yes",
        "operator": "Karur Vysya Bank",
        "operator:wikidata": "Q6373724"
      }
    },
    {
      "type": "node",
      "id": 11708674466,
      "lat": 12.9785693,
      "lon": 77.6292371,
      "tags": {
        "check_date": "2024-03-09",
        "internet_access": "no",
        "name": "L.J Iyengar's Bakery & Sweets",
        "payment:cards": "no",
        "payment:cash": "yes",
        "payment:credit_cards": "no",
        "payment:debit_cards": "no",
        "shop": "bakery",
        "wheelchair": "no"
      }
    },
    {
      "type": "node",
      "id": 11708674467,
      "lat": 12.978586,
      "lon": 77.6290504,
      "tags": {
        "amenity": "bar",
        "check_date": "2024-03-09",
        "internet_access": "no",
        "name": "MS Corner Bar & Restaurant",
        "payment:cash": "yes",
        "payment:credit_cards": "yes",
        "payment:debit_cards": "yes",
        "wheelchair": "no"
      }
    },
    {
      "type": "node",
      "id": 11708674468,
      "lat": 12.9790267,
      "lon": 77.6290089,
      "tags": {
        "access": "yes",
        "amenity": "toilets",
        "check_date": "2024-03-09",
        "fee": "yes"
      }
    },
    {
      "type": "node",
      "id": 11708703069,
      "lat": 12.9792906,
      "lon": 77.6290909,
      "tags": {
        "check_date": "2024-03-09",
        "internet_access": "no",
        "name": "TVS Service & Parts",
        "payment:cash": "yes",
        "payment:credit_cards": "yes",
        "payment:debit_cards": "yes",
        "shop": "motorcycle_repair",
        "wheelchair": "no"
      }
    },
    {
      "type": "node",
      "id": 11708703071,
      "lat": 12.9799014,
      "lon": 77.6287716,
      "tags": {
        "amenity": "place_of_worship",
        "check_date": "2024-03-09",
        "internet_access": "no",
        "name": "Sri Munishwaran Temple",
        "payment:cards": "no",
        "payment:cash": "yes",
        "payment:credit_cards": "no",
        "payment:debit_cards": "no",
        "religion": "hindu",
        "wheelchair": "no"
      }
    },
    {
      "type": "node",
      "id": 11708703072,
      "lat": 12.9811642,
      "lon": 77.6286416,
      "tags": {
        "amenity": "pharmacy",
        "check_date": "2024-03-09",
        "healthcare": "pharmacy",
        "internet_access": "no",
        "name": "Friends Pharma",
        "payment:cash": "yes",
        "payment:credit_cards": "yes",
        "payment:debit_cards": "yes",
        "wheelchair": "no"
      }
    },
    {
      "type": "node",
      "id": 11708703073,
      "lat": 12.9811275,
      "lon": 77.62852,
      "tags": {
        "amenity": "place_of_worship",
        "check_date": "2024-03-09",
        "name": "Sri Ganesha Ayyappa Temple",
        "religion": "hindu"
      }
    },
    {
      "type": "node",
      "id": 11708703074,
      "lat": 12.9820074,
      "lon": 77.6266972,
      "tags": {
        "amenity": "restaurant",
        "check_date": "2024-03-09",
        "internet_access": "no",
        "name": "New Shahi Kabab Rolls Center",
        "payment:cards": "no",
        "payment:cash": "yes",
        "payment:credit_cards": "no",
        "payment:debit_cards": "no",
        "wheelchair": "no"
      }
    },
    {
      "type": "node",
      "id": 11710491602,
      "lat": 12.9778346,
      "lon": 77.6282837,
      "tags": {
        "amenity": "hospital",
        "check_date": "2024-03-10",
        "description": "Multi-speciality hospital",
        "healthcare": "hospital",
        "name": "Uvin Care Hospital"
      }
    },
    {
      "type": "node",
      "id": 11710491603,
      "lat": 12.977871,
      "lon": 77.6283344,
      "tags": {
        "check_date": "2024-03-10",
        "name": "BK Dressers",
        "shop": "tailor"
      }
    },
    {
      "type": "node",
      "id": 11710491604,
      "lat": 12.9778856,
      "lon": 77.6283568,
      "tags": {
        "check_date": "2024-03-10",
        "internet_access": "no",
        "name": "Ever Green Fashion",
        "payment:cards": "no",
        "payment:cash": "yes",
        "payment:credit_cards": "no",
        "payment:debit_cards": "no",
        "shop": "tailor",
        "wheelchair": "no"
      }
    },
    {
      "type": "node",
      "id": 11710491606,
      "lat": 12.978118,
      "lon": 77.6282179,
      "tags": {
        "amenity": "place_of_worship",
        "check_date": "2024-03-10",
        "internet_access": "no",
        "name": "Temple",
        "payment:cards": "no",
        "payment:cash": "yes",
        "payment:credit_cards": "no",
        "payment:debit_cards": "no",
        "religion": "hindu",
        "wheelchair": "no"
      }
    },
    {
      "type": "node",
      "id": 11710500777,
      "lat": 12.9779856,
      "lon": 77.6299007,
      "tags": {
        "check_date": "2024-03-10",
        "internet_access": "no",
        "name": "Mutton Stall",
        "payment:cards": "no",
        "payment:cash": "yes",
        "payment:credit_cards": "no",
        "payment:debit_cards": "no",
        "shop": "butcher",
        "wheelchair": "no"
      }
    },
    {
      "type": "node",
      "id": 11710500778,
      "lat": 12.9779459,
      "lon": 77.6299957,
      "tags": {
        "check_date": "2024-03-10",
        "internet_access": "no",
        "name": "Ramson Ladies Tailor",
        "payment:cards": "no",
        "payment:cash": "yes",
        "payment:credit_cards": "no",
        "payment:debit_cards": "no",
        "shop": "tailor",
        "wheelchair": "no"
      }
    },
    {
      "type": "node",
      "id": 11710500779,
      "lat": 12.9780328,
      "lon": 77.6295292,
      "tags": {
        "amenity": "atm",
        "brand": "ICICI Bank",
        "brand:wikidata": "Q1653258",
        "cash_in": "no",
        "check_date": "2024-03-10",
        "currency:INR": "yes",
        "indoor": "yes",
        "operator": "ICICI Bank",
        "operator:wikidata": "Q1653258",
        "short_name": "ICICI"
      }
    },
    {
      "type": "node",
      "id": 11710512182,
      "lat": 12.9779864,
      "lon": 77.6279808,
      "tags": {
        "amenity": "car_wash",
        "check_date": "2024-03-10",
        "internet_access": "no",
        "name": "SKA Washing Center",
        "payment:cards": "no",
        "payment:cash": "yes",
        "payment:credit_cards": "no",
        "payment:debit_cards": "no",
        "phone": "+91 89518 67779",
        "wheelchair": "no"
      }
    },
    {
      "type": "node",
      "id": 11710512183,
      "lat": 12.9779697,
      "lon": 77.6279533,
      "tags": {
        "check_date": "2024-03-10",
        "internet_access": "no",
        "leisure": "fitness_centre",
        "name": "Kamaraj's Gym",
        "payment:cards": "no",
        "payment:cash": "yes",
        "payment:credit_cards": "no",
        "payment:debit_cards": "no",
        "wheelchair": "no"
      }
    },
    {
      "type": "node",
      "id": 11710512185,
      "lat": 12.9779369,
      "lon": 77.627889,
      "tags": {
        "check_date": "2024-03-10",
        "internet_access": "no",
        "name": "M.M Cycle Sales & Service",
        "payment:cards": "no",
        "payment:cash": "yes",
        "payment:credit_cards": "no",
        "payment:debit_cards": "no",
        "shop": "bicycle",
        "wheelchair": "no"
      }
    },
    {
      "type": "node",
      "id": 11710512186,
      "lat": 12.9778855,
      "lon": 77.6277954,
      "tags": {
        "check_date": "2024-03-10",
        "internet_access": "no",
        "name": "A.B Steel & Hardware",
        "payment:cards": "no",
        "payment:cash": "yes",
        "payment:credit_cards": "no",
        "payment:debit_cards": "no",
        "shop": "hardware",
        "wheelchair": "no"
      }
    },
    {
      "type": "node",
      "id": 11783257554,
      "lat": 12.9759999,
      "lon": 77.6318654,
      "tags": {
        "amenity": "car_wash",
        "automated": "no",
        "check_date": "2024-04-03",
        "name": "Manju Washing Center",
        "opening_hours": "Mo-Su 08:00-21:00",
        "phone": "+91 98866 34400",
        "self_service": "no"
      }
    },
    {
      "type": "node",
      "id": 11896917266,
      "lat": 12.9759242,
      "lon": 77.622773,
      "tags": {
        "amenity": "atm",
        "brand": "Canara Bank",
        "brand:en": "Canara Bank",
        "brand:hi": "केनरा बैंक",
        "brand:kn": "ಕೆನರಾ ಬ್ಯಾಂಕ್",
        "brand:pa": "ਕੇਨਰਾ ਬੈਂਕ",
        "brand:pnb": "کینرا بینک",
        "brand:ur": "کینرا بینک",
        "brand:wikidata": "Q2003777",
        "name": "Canara Bank",
        "name:en": "Canara Bank",
        "name:hi": "केनरा बैंक",
        "name:kn": "ಕೆನರಾ ಬ್ಯಾಂಕ್",
        "name:pa": "ਕੇਨਰਾ ਬੈਂਕ",
        "name:pnb": "کینرا بینک",
        "name:ur": "کینرا بینک",
        "operator": "Canara Bank",
        "operator:wikidata": "Q2003777"
      }
    },
    {
      "type": "node",
      "id": 11896935868,
      "lat": 12.9762403,
      "lon": 77.6227329,
      "tags": {
        "amenity": "atm",
        "name": "Union Bank ATM"
      }
    },
    {
      "type": "node",
      "id": 11896939309,
      "lat": 12.9765152,
      "lon": 77.6230761,
      "tags": {
        "amenity": "atm",
        "brand": "ICICI Bank",
        "brand:wikidata": "Q1653258",
        "name": "ICICI Bank",
        "operator": "ICICI Bank",
        "operator:wikidata": "Q1653258",
        "short_name": "ICICI"
      }
    },
    {
      "type": "node",
      "id": 11896951311,
      "lat": 12.9758961,
      "lon": 77.6227691,
      "tags": {
        "amenity": "atm",
        "name": "TMB"
      }
    },
    {
      "type": "node",
      "id": 11969472096,
      "lat": 12.9803341,
      "lon": 77.6281419,
      "tags": {
        "amenity": "shelter",
        "shelter_type": "gazebo"
      }
    },
    {
      "type": "node",
      "id": 12006381672,
      "lat": 12.9732588,
      "lon": 77.6267472,
      "tags": {
        "amenity": "place_of_worship",
        "religion": "hindu"
      }
    },
    {
      "type": "node",
      "id": 12006381721,
      "lat": 12.9725655,
      "lon": 77.6206499,
      "tags": {
        "amenity": "ice_cream",
        "brand": "Cold Stone Creamery",
        "brand:wikidata": "Q1094923",
        "cuisine": "ice_cream",
        "name": "Cold Stone Creamery"
      }
    },
    {
      "type": "node",
      "id": 12006381722,
      "lat": 12.9725727,
      "lon": 77.6205365,
      "tags": {
        "amenity": "fast_food",
        "brand": "Domino's",
        "brand:wikidata": "Q839466",
        "cuisine": "pizza",
        "name": "Domino's",
        "name:kn": "ಡಾಮಿನೋಸ್",
        "takeaway": "yes"
      }
    },
    {
      "type": "node",
      "id": 12006381723,
      "lat": 12.9725636,
      "lon": 77.6207712,
      "tags": {
        "amenity": "fast_food",
        "name": "IDC"
      }
    },
    {
      "type": "node",
      "id": 12014724392,
      "lat": 12.9755065,
      "lon": 77.6253762,
      "tags": {
        "amenity": "school",
        "contact:email": "hm.ggs@rbanmscharities.in",
        "name": "RBANMs Govindammal Senior Primary School"
      }
    },
    {
      "type": "node",
      "id": 12064321599,
      "lat": 12.9784954,
      "lon": 77.6302874,
      "tags": {
        "check_date": "2024-07-20",
        "description": "Packaging materials",
        "name": "SRS Packaging",
        "shop": "houseware"
      }
    },
    {
      "type": "node",
      "id": 12215439066,
      "lat": 12.9730642,
      "lon": 77.6203543,
      "tags": {
        "addr:housename": "1 MG Road Mall",
        "addr:street": "Mahatma Gandhi Road",
        "check_date": "2024-10-02",
        "name": "The Meat Pantry by Cambay Tiger",
        "shop": "butcher"
      }
    },
    {
      "type": "node",
      "id": 12287375450,
      "lat": 12.9717604,
      "lon": 77.6275714,
      "tags": {
        "addr:housenumber": "12/36",
        "addr:street": "Cambridge Road",
        "amenity": "restaurant",
        "check_date": "2024-10-25",
        "contact:instagram": "https://www.instagram.com/guerilladiner",
        "cuisine": "burger;mexican",
        "name": "Guerilla Diner"
      }
    },
    {
      "type": "node",
      "id": 12318821670,
      "lat": 12.9773226,
      "lon": 77.6314531,
      "tags": {
        "check_date": "2024-11-06",
        "name": "Sri Lakshmi Pork Shop",
        "shop": "butcher"
      }
    },
    {
      "type": "node",
      "id": 12318821671,
      "lat": 12.9772724,
      "lon": 77.6314306,
      "tags": {
        "amenity": "restaurant",
        "check_date": "2024-11-06",
        "cuisine": "chinese",
        "name": "Tribe Roots"
      }
    },
    {
      "type": "node",
      "id": 12325730790,
      "lat": 12.9783268,
      "lon": 77.6330485,
      "tags": {
        "name": "Niva Bakery N Juice",
        "shop": "bakery"
      }
    },
    {
      "type": "node",
      "id": 12326483296,
      "lat": 12.9783429,
      "lon": 77.6330507,
      "tags": {
        "name": "Xerox & Stationary",
        "shop": "stationery"
      }
    },
    {
      "type": "node",
      "id": 12326757980,
      "lat": 12.9781055,
      "lon": 77.6320538,
      "tags": {
        "name": "United Glass & Plywood",
        "shop": "hardware"
      }
    },
    {
      "type": "node",
      "id": 12326757981,
      "lat": 12.9781111,
      "lon": 77.6320286,
      "tags": {
        "name": "Prestige Electricals",
        "shop": "electrical"
      }
    },
    {
      "type": "node",
      "id": 12326757982,
      "lat": 12.9781197,
      "lon": 77.6320003,
      "tags": {
        "name": "Laxmi Hardwares",
        "shop": "hardware"
      }
    },
    {
      "type": "node",
      "id": 12327045085,
      "lat": 12.978141,
      "lon": 77.6317635,
      "tags": {
        "name": "ESS Sanitary Hardware",
        "shop": "hardware"
      }
    },
    {
      "type": "node",
      "id": 12327045086,
      "lat": 12.9781418,
      "lon": 77.6317525,
      "tags": {
        "name": "The A.Z. Traders",
        "shop": "locksmith"
      }
    },
    {
      "type": "node",
      "id": 12327045087,
      "lat": 12.9781436,
      "lon": 77.6317392,
      "tags": {
        "name": "Start Seatcover",
        "shop": "yes"
      }
    },
    {
      "type": "node",
      "id": 12327045088,
      "lat": 12.9781394,
      "lon": 77.6317739,
      "tags": {
        "name": "Dhamu Electricals",
        "shop": "electronics"
      }
    },
    {
      "type": "node",
      "id": 12367648314,
      "lat": 12.9763917,
      "lon": 77.6296215,
      "tags": {
        "amenity": "place_of_worship",
        "name": "Plague Maramma Temple",
        "religion": "hindu"
      }
    },
    {
      "type": "node",
      "id": 12395928083,
      "lat": 12.9724525,
      "lon": 77.6204038,
      "tags": {
        "addr:city": "Bengaluru",
        "addr:floor": "4",
        "addr:street": "Mahatma Gandhi Road",
        "addr:suburb": "Ashok Nagar",
        "amenity": "bar",
        "contact:instagram": "lumara.blr",
        "level": "4",
        "name": "Lumara",
        "toilets": "yes"
      }
    },
    {
      "type": "node",
      "id": 12404254558,
      "lat": 12.9764897,
      "lon": 77.6269565,
      "tags": {
        "amenity": "restaurant",
        "check_date": "2024-12-08",
        "name": "Murugan Cafe"
      }
    },
    {
      "type": "node",
      "id": 12404291343,
      "lat": 12.9773097,
      "lon": 77.6284146,
      "tags": {
        "amenity": "community_centre",
        "check_date": "2024-12-08",
        "community_centre": "community_hall",
        "name": "Shri Subramanya Swamy Kalyana Mantapa"
      }
    },
    {
      "type": "node",
      "id": 12449741773,
      "lat": 12.9753711,
      "lon": 77.6219469,
      "tags": {
        "amenity": "place_of_worship",
        "check_date": "2024-12-24",
        "name": "CSI Wesleyan Centenary Kannada Church",
        "religion": "christian",
        "start_date": "1913"
      }
    },
    {
      "type": "node",
      "id": 12462618881,
      "lat": 12.9763403,
      "lon": 77.6214901,
      "tags": {
        "access": "private",
        "amenity": "parking_entrance",
        "parking": "underground"
      }
    },
    {
      "type": "node",
      "id": 12462618882,
      "lat": 12.9761124,
      "lon": 77.6215431,
      "tags": {
        "access": "private",
        "amenity": "parking_entrance",
        "parking": "underground"
      }
    },
    {
      "type": "node",
      "id": 12480291450,
      "lat": 12.9814136,
      "lon": 77.6245263,
      "tags": {
        "amenity": "place_of_worship",
        "religion": "hindu"
      }
    },
    {
      "type": "node",
      "id": 12480291525,
      "lat": 12.9864128,
      "lon": 77.6241582,
      "tags": {
        "amenity": "place_of_worship",
        "religion": "hindu"
      }
    },
    {
      "type": "node",
      "id": 12492736707,
      "lat": 12.9742285,
      "lon": 77.6198097,
      "tags": {
        "brand": "Nature's Basket",
        "brand:wikidata": "Q28174237",
        "name": "Nature's Basket",
        "shop": "supermarket"
      }
    },
    {
      "type": "node",
      "id": 12492736784,
      "lat": 12.9750466,
      "lon": 77.6179321,
      "tags": {
        "name": "Shooketts",
        "shop": "bakery"
      }
    },
    {
      "type": "node",
      "id": 12495380307,
      "lat": 12.9727086,
      "lon": 77.6188843,
      "tags": {
        "amenity": "post_box",
        "operator": "India Post"
      }
    },
    {
      "type": "node",
      "id": 12526232547,
      "lat": 12.974056,
      "lon": 77.6195173,
      "tags": {
        "amenity": "restaurant",
        "name": "Italia"
      }
    },
    {
      "type": "node",
      "id": 12574343636,
      "lat": 12.9725668,
      "lon": 77.6208704,
      "tags": {
        "amenity": "restaurant",
        "check_date": "2025-02-10",
        "name": "New Kudla"
      }
    },
    {
      "type": "node",
      "id": 12632042172,
      "lat": 12.972464,
      "lon": 77.6203034,
      "tags": {
        "amenity": "cafe",
        "cuisine": "bubble_tea",
        "delivery": "yes",
        "email": "info@yoyotea.in",
        "name": "YOYO! Fresh Tea Bar",
        "opening_hours": "11:00-23:00",
        "phone": "+91 97401 72610",
        "takeaway": "yes",
        "website": "https://yoyofreshtea.in/"
      }
    },
    {
      "type": "node",
      "id": 12853586157,
      "lat": 12.9722075,
      "lon": 77.6184168,
      "tags": {
        "addr:floor": "1",
        "amenity": "restaurant",
        "check_date": "2025-05-21",
        "level": "1",
        "name": "Kerala Pavilion",
        "name:en": "Kerala Pavilion"
      }
    },
    {
      "type": "node",
      "id": 13089020176,
      "lat": 12.9754556,
      "lon": 77.616835,
      "tags": {
        "amenity": "bar",
        "name": "Sama"
      }
    },
    {
      "type": "node",
      "id": 13089143191,
      "lat": 12.9716862,
      "lon": 77.6191623,
      "tags": {
        "addr:floor": "13",
        "amenity": "bar",
        "contact:instagram": "kai_bengaluru",
        "level": "13",
        "name": "Kai"
      }
    },
    {
      "type": "node",
      "id": 13114667051,
      "lat": 12.9777179,
      "lon": 77.6306728,
      "tags": {
        "amenity": "pharmacy",
        "name": "Revive Janata",
        "panoramax": "79f2bf3c-3de5-4988-ae0e-9fb07b69e622"
      }
    },
    {
      "type": "node",
      "id": 13277110519,
      "lat": 12.974173,
      "lon": 77.6221257,
      "tags": {
        "amenity": "community_centre",
        "name": "Above Zenith Makerspace"
      }
    },
    {
      "type": "node",
      "id": 13277110520,
      "lat": 12.9741096,
      "lon": 77.6221284,
      "tags": {
        "amenity": "events_venue",
        "contact:email": "sthalaspace@gmail.com",
        "contact:instagram": "sthalaspace",
        "name": "Sthala",
        "website": "https://sthala.org"
      }
    },
    {
      "type": "node",
      "id": 13288585571,
      "lat": 12.9753916,
      "lon": 77.6205926,
      "tags": {
        "amenity": "restaurant",
        "name": "Indian Durbar"
      }
    },
    {
      "type": "node",
      "id": 13288585572,
      "lat": 12.9724609,
      "lon": 77.6201477,
      "tags": {
        "amenity": "restaurant",
        "cuisine": "punjabi",
        "name": "Lohri"
      }
    },
    {
      "type": "node",
      "id": 13296104561,
      "lat": 12.9728117,
      "lon": 77.6171498,
      "tags": {
        "amenity": "fast_food",
        "check_date": "2025-11-25",
        "name": "Cocat Cafe"
      }
    },
    {
      "type": "node",
      "id": 13296104562,
      "lat": 12.9728149,
      "lon": 77.6171369,
      "tags": {
        "amenity": "fast_food",
        "check_date": "2025-11-25",
        "cuisine": "sandwich",
        "name": "Little Break"
      }
    },
    {
      "type": "node",
      "id": 13296104563,
      "lat": 12.9728232,
      "lon": 77.6170871,
      "tags": {
        "amenity": "fast_food",
        "check_date": "2025-11-25",
        "cuisine": "juice",
        "name": "The Cane Joint"
      }
    },
    {
      "type": "node",
      "id": 13310470855,
      "lat": 12.9733821,
      "lon": 77.6168321,
      "tags": {
        "amenity": "bank",
        "check_date": "2025-11-17",
        "name": "Axis Bank"
      }
    },
    {
      "type": "node",
      "id": 13323589248,
      "lat": 12.9784829,
      "lon": 77.6301651,
      "tags": {
        "check_date": "2025-11-22",
        "name": "S.A.B Trading",
        "shop": "appliance"
      }
    },
    {
      "type": "way",
      "id": 49712539,
      "center": {
        "lat": 12.9713385,
        "lon": 77.6286336
      },
      "tags": {
        "amenity": "school",
        "name": "Frank Anthony Public School",
        "name:etymology:wikidata": "Q5485043"
      }
    },
    {
      "type": "way",
      "id": 59358729,
      "center": {
        "lat": 12.9790236,
        "lon": 77.6285473
      },
      "tags": {
        "leisure": "park",
        "name": "B R Ambedkar Playground",
        "name:etymology:wikidata": "Q231690"
      }
    },
    {
      "type": "way",
      "id": 59358836,
      "center": {
        "lat": 12.9790665,
        "lon": 77.6335165
      },
      "tags": {
        "barrier": "fence",
        "leisure": "park",
        "name": "Indiranagar Park",
        "name:kn": "ಇಂದಿರಾನಗರ ಉದ್ಯಾನವನ",
        "opening_hours": "5:00-10:00;16:30-19:00"
      }
    },
    {
      "type": "way",
      "id": 59358843,
      "center": {
        "lat": 12.9797301,
        "lon": 77.6285752
      },
      "tags": {
        "amenity": "school",
        "name": "Government Kannada Higher Primary School",
        "name:kn": "ಸರ್ಕಾರಿ ಕನ್ನಡ ಹಿರಿಯ ಪ್ರಾಥಮಿಕ ಶಾಲೆ"
      }
    },
    {
      "type": "way",
      "id": 59358860,
      "center": {
        "lat": 12.9765873,
        "lon": 77.6342897
      },
      "tags": {
        "amenity": "college",
        "name": "Sri Bhagavan Mahaveer Jain College",
        "name:kn": "ಶ್ರೀ ಭಗವಾನ್ ಮಹಾವೀರ್ ಜೈನ್ ಕಾಲೇಜು"
      }
    },
    {
      "type": "way",
      "id": 59358879,
      "center": {
        "lat": 12.9802379,
        "lon": 77.6323349
      },
      "tags": {
        "amenity": "grave_yard",
        "landuse": "cemetery",
        "name": "Lakshmipuram Cemetery",
        "name:kn": "ಲಕ್ಷ್ಮೀಪುರಂ ಸ್ಮಶಾನ",
        "religion": "christian"
      }
    },
    {
      "type": "way",
      "id": 105317893,
      "center": {
        "lat": 12.9801381,
        "lon": 77.6337183
      },
      "tags": {
        "barrier": "fence",
        "leisure": "park",
        "loc_name": "Jogger's Park",
        "name": "Jogger's Park",
        "name:kn": "ಜೋಗರ್ಸ್ ಪಾರ್ಕ್",
        "opening_hours": "5:00-10:00,16:30-19:00"
      }
    },
    {
      "type": "way",
      "id": 132782108,
      "center": {
        "lat": 12.9731768,
        "lon": 77.6212771
      },
      "tags": {
        "amenity": "cinema",
        "brand": "INOX Leisure",
        "brand:wikidata": "Q5972349",
        "building": "yes",
        "name": "INOX Lido",
        "name:kn": "ಐನಾಕ್ಸ್ ಲಿಡೊ",
        "short_name": "INOX"
      }
    },
    {
      "type": "way",
      "id": 132782111,
      "center": {
        "lat": 12.9721434,
        "lon": 77.620635
      },
      "tags": {
        "amenity": "place_of_worship",
        "building": "yes",
        "name": "CSI Holy Trinity Church",
        "religion": "christian"
      }
    },
    {
      "type": "way",
      "id": 133881869,
      "center": {
        "lat": 12.9719421,
        "lon": 77.6203877
      },
      "tags": {
        "amenity": "place_of_worship",
        "heritage": "2",
        "heritage:operator": "nmma",
        "heritage:website": "https://nmma.nic.in/nmma/exploreBuiltState.do?state=29",
        "name": "The Holy Trinity Church",
        "name:kn": "ಹೋಲಿ ಟ್ರಿನಿಟಿ ಚರ್ಚ್",
        "ref:nmma": "KR20010312",
        "religion": "christian",
        "start_date": "1852",
        "wikidata": "Q5886431",
        "wikimedia_commons": "Category:Holy Trinity Church, Bangalore",
        "wikipedia": "en:Holy Trinity Church, Bangalore"
      }
    },
    {
      "type": "way",
      "id": 138980186,
      "center": {
        "lat": 12.9773214,
        "lon": 77.6278721
      },
      "tags": {
        "amenity": "place_of_worship",
        "name:kn": "ಸುಬ್ರಮಣ್ಯಸ್ವಾಮಿ ದೇವಾಲಯ",
        "religion": "hindu"
      }
    },
    {
      "type": "way",
      "id": 142374812,
      "center": {
        "lat": 12.9704702,
        "lon": 77.6290171
      },
      "tags": {
        "amenity": "school",
        "name": "Lourde's Boys High School"
      }
    },
    {
      "type": "way",
      "id": 147558632,
      "center": {
        "lat": 12.9734281,
        "lon": 77.6203876
      },
      "tags": {
        "alt_name": "Lido Mall",
        "landuse": "retail",
        "loc_name": "GESCO Lido Centre",
        "name": "One M G Road",
        "name:en": "1 MG Road",
        "old_name": "Lido Talkies",
        "shop": "mall"
      }
    },
    {
      "type": "way",
      "id": 164042298,
      "center": {
        "lat": 12.9760923,
        "lon": 77.6207155
      },
      "tags": {
        "amenity": "place_of_worship",
        "name": "Gurudwara",
        "name:kn": "ಗುರುದ್ವಾರ",
        "religion": "sikh"
      }
    },
    {
      "type": "way",
      "id": 169709281,
      "center": {
        "lat": 12.9788896,
        "lon": 77.6276716
      },
      "tags": {
        "amenity": "marketplace",
        "landuse": "retail",
        "name": "Murphy Town Market",
        "name:kn": "ಮಾರುಕಟ್ಟೆ"
      }
    },
    {
      "type": "way",
      "id": 169709282,
      "center": {
        "lat": 12.9756053,
        "lon": 77.6238958
      },
      "tags": {
        "amenity": "place_of_worship",
        "name": "Someshwara Temple",
        "name:kn": "ಸೋಮೇಶ್ವರ ದೇವಸ್ಥಾನ",
        "religion": "hindu"
      }
    },
    {
      "type": "way",
      "id": 182177279,
      "center": {
        "lat": 12.9853954,
        "lon": 77.6221829
      },
      "tags": {
        "leisure": "park",
        "name": "Ulsoor Lake Park",
        "operator": "ಬೃಹತ್ ಬೆಂಗಳೂರು ಮಹಾನಗರ ಪಾಲಿಕೆ",
        "operator:en": "Bruhat Bengaluru Mahanagara Palike",
        "operator:ka": "ಬೃಹತ್ ಬೆಂಗಳೂರು ಮಹಾನಗರ ಪಾಲಿಕೆ",
        "operator:short": "BBMP",
        "operator:type": "government",
        "operator:wikidata": "Q4978693"
      }
    },
    {
      "type": "way",
      "id": 217536632,
      "center": {
        "lat": 12.9805172,
        "lon": 77.6275193
      },
      "tags": {
        "leisure": "playground"
      }
    },
    {
      "type": "way",
      "id": 217536633,
      "center": {
        "lat": 12.9797005,
        "lon": 77.6272862
      },
      "tags": {
        "leisure": "playground"
      }
    },
    {
      "type": "way",
      "id": 217536634,
      "center": {
        "lat": 12.9803621,
        "lon": 77.6281335
      },
      "tags": {
        "leisure": "playground"
      }
    },
    {
      "type": "way",
      "id": 217536636,
      "center": {
        "lat": 12.9806681,
        "lon": 77.6268962
      },
      "tags": {
        "leisure": "park"
      }
    },
    {
      "type": "way",
      "id": 217536638,
      "center": {
        "lat": 12.9785416,
        "lon": 77.6276986
      },
      "tags": {
        "amenity": "marketplace",
        "name": "Halasuru Fruit and Vegetable Market"
      }
    },
    {
      "type": "way",
      "id": 217536639,
      "center": {
        "lat": 12.9812865,
        "lon": 77.6276874
      },
      "tags": {
        "leisure": "park"
      }
    },
    {
      "type": "way",
      "id": 217536640,
      "center": {
        "lat": 12.9788845,
        "lon": 77.6272201
      },
      "tags": {
        "leisure": "park",
        "name": "Children's Park"
      }
    },
    {
      "type": "way",
      "id": 217536641,
      "center": {
        "lat": 12.9798755,
        "lon": 77.6267697
      },
      "tags": {
        "leisure": "playground"
      }
    },
    {
      "type": "way",
      "id": 217536645,
      "center": {
        "lat": 12.9737974,
        "lon": 77.6272297
      },
      "tags": {
        "leisure": "park"
      }
    },
    {
      "type": "way",
      "id": 239772775,
      "center": {
        "lat": 12.9803266,
        "lon": 77.6297834
      },
      "tags": {
        "addr:city": "Bangalore",
        "addr:housenumber": "113",
        "addr:postcode": "560008",
        "addr:street": "Swamy Vivekananda Road",
        "addr:suburb": "Ulsoor",
        "amenity": "place_of_worship",
        "name": "Ramakrishna Math",
        "name:kn": "ರಾಮಕೃಷ್ಣ ಮಠ",
        "old_name": "Vivekananda Ashram",
        "religion": "unitarian_universalist",
        "start_date": "1906",
        "website": "https://www.ramakrishnamath.in/"
      }
    },
    {
      "type": "way",
      "id": 311368523,
      "center": {
        "lat": 12.9724757,
        "lon": 77.6198663
      },
      "tags": {
        "amenity": "fuel",
        "brand": "Indian Oil",
        "brand:wikidata": "Q1289348",
        "compressed_air": "yes",
        "name": "Indian Oil"
      }
    },
    {
      "type": "way",
      "id": 323639484,
      "center": {
        "lat": 12.9814681,
        "lon": 77.6228861
      },
      "tags": {
        "leisure": "garden"
      }
    },
    {
      "type": "way",
      "id": 323639485,
      "center": {
        "lat": 12.9817834,
        "lon": 77.6229747
      },
      "tags": {
        "leisure": "garden"
      }
    },
    {
      "type": "way",
      "id": 323639486,
      "center": {
        "lat": 12.9803284,
        "lon": 77.6304649
      },
      "tags": {
        "amenity": "place_of_worship",
        "check_date": "2025-08-31",
        "name": "Masjid e Anwar-ul-Islam",
        "religion": "muslim"
      }
    },
    {
      "type": "way",
      "id": 323639487,
      "center": {
        "lat": 12.9817283,
        "lon": 77.6233462
      },
      "tags": {
        "leisure": "garden"
      }
    },
    {
      "type": "way",
      "id": 323639489,
      "center": {
        "lat": 12.9769712,
        "lon": 77.6275061
      },
      "tags": {
        "addr:city": "Jogupalya, Bangalore",
        "addr:street": "Swamy Vivekananda Road (Old Madras Road)",
        "amenity": "place_of_worship",
        "building": "yes",
        "check_date": "2024-07-02",
        "name": "Subramania Swamy Temple",
        "name:kn": "ಸುಬ್ರಮಣ್ಯಸ್ವಾಮಿ ದೇವಾಲಯ",
        "religion": "hindu"
      }
    },
    {
      "type": "way",
      "id": 323639490,
      "center": {
        "lat": 12.9803288,
        "lon": 77.6295405
      },
      "tags": {
        "amenity": "place_of_worship",
        "building": "yes",
        "name": "Ramakrishna Matha - Halasuru",
        "religion": "unitarian_universalist"
      }
    },
    {
      "type": "way",
      "id": 328349212,
      "center": {
        "lat": 12.9737902,
        "lon": 77.6183329
      },
      "tags": {
        "access": "private",
        "leisure": "swimming_pool"
      }
    },
    {
      "type": "way",
      "id": 330036957,
      "center": {
        "lat": 12.9786611,
        "lon": 77.6333294
      },
      "tags": {
        "building": "yes",
        "name": "HOPCOMS",
        "name:kn": "ಹಾಪ್ ಕಾಮ್ಸ್",
        "shop": "convenience"
      }
    },
    {
      "type": "way",
      "id": 330036958,
      "center": {
        "lat": 12.978648,
        "lon": 77.6332636
      },
      "tags": {
        "building": "yes",
        "name": "Nandini Shoppe",
        "shop": "convenience"
      }
    },
    {
      "type": "way",
      "id": 331338651,
      "center": {
        "lat": 12.9783192,
        "lon": 77.6338301
      },
      "tags": {
        "addr:housenumber": "34",
        "addr:street": "Chinmaya Mission Hospital Road",
        "building": "yes",
        "name": "Prakruth Holiday",
        "shop": "furniture"
      }
    },
    {
      "type": "way",
      "id": 331338695,
      "center": {
        "lat": 12.9783113,
        "lon": 77.6332191
      },
      "tags": {
        "addr:housenumber": "39",
        "addr:street": "Chinmaya Mission Hospital Road",
        "building": "yes",
        "name": "Sleepwell",
        "shop": "curtain"
      }
    },
    {
      "type": "way",
      "id": 331497951,
      "center": {
        "lat": 12.9710325,
        "lon": 77.6296727
      },
      "tags": {
        "amenity": "place_of_worship",
        "building": "church",
        "denomination": "catholic",
        "name": "Our Lady of Lourdes Church",
        "name:kn": "ಅವರ್ ಲೇಡಿ ಅಫ್ ಲೂರ್ಡ್ಸ್ ಚರ್ಚ್",
        "religion": "christian"
      }
    },
    {
      "type": "way",
      "id": 344076945,
      "center": {
        "lat": 12.9792227,
        "lon": 77.6335632
      },
      "tags": {
        "access": "yes",
        "leisure": "playground"
      }
    },
    {
      "type": "way",
      "id": 346250133,
      "center": {
        "lat": 12.9756886,
        "lon": 77.6335932
      },
      "tags": {
        "amenity": "place_of_worship",
        "building": "yes",
        "name": "Temple",
        "name:en": "Temple",
        "name:kn": "ದೇವಸ್ಥಾನ",
        "religion": "hindu"
      }
    },
    {
      "type": "way",
      "id": 346456833,
      "center": {
        "lat": 12.9790733,
        "lon": 77.6159764
      },
      "tags": {
        "amenity": "place_of_worship",
        "building": "mosque",
        "religion": "muslim"
      }
    },
    {
      "type": "way",
      "id": 346711854,
      "center": {
        "lat": 12.9714272,
        "lon": 77.627494
      },
      "tags": {
        "addr:city": "Bangalore",
        "addr:district": "Bengaluru Urban",
        "addr:full": "17/4, Cambridge Road, Ulsoor",
        "addr:housenumber": "17/4",
        "addr:postcode": "560008",
        "addr:state": "Karnataka",
        "addr:street": "Cambridge Road",
        "amenity": "hospital",
        "emergency": "no",
        "healthcare": "hospital",
        "name": "Shyamala Hospital",
        "name:kn": "ಶ್ಯಾಮಲಾ ಆಸ್ಪತ್ರೆ",
        "source": "OpenGovernmentData"
      }
    },
    {
      "type": "way",
      "id": 346761097,
      "center": {
        "lat": 12.9720193,
        "lon": 77.6316265
      },
      "tags": {
        "amenity": "place_of_worship",
        "building": "yes",
        "name": "Shri Varasiddhi Vinayaka Temple, Jogupalya",
        "religion": "hindu"
      }
    },
    {
      "type": "way",
      "id": 347060424,
      "center": {
        "lat": 12.9734475,
        "lon": 77.6217468
      },
      "tags": {
        "building": "yes",
        "name": "Lido Mall",
        "shop": "mall",
        "toilets": "yes"
      }
    },
    {
      "type": "way",
      "id": 347061555,
      "center": {
        "lat": 12.9772168,
        "lon": 77.6236749
      },
      "tags": {
        "amenity": "place_of_worship",
        "building": "yes",
        "name": "Sri Thiruvengada Ramanujar Sannidhi",
        "religion": "hindu"
      }
    },
    {
      "type": "way",
      "id": 347062467,
      "center": {
        "lat": 12.9742316,
        "lon": 77.623807
      },
      "tags": {
        "amenity": "place_of_worship",
        "building": "yes",
        "name": "Angala Parameshwari Temple",
        "name:kn": "ಆಂಗಲ ಪರಮೇಶ್ವರಿ ದೇವಸ್ಥಾನ",
        "religion": "hindu"
      }
    },
    {
      "type": "way",
      "id": 349791775,
      "center": {
        "lat": 12.9783149,
        "lon": 77.6333178
      },
      "tags": {
        "addr:housenumber": "38",
        "addr:street": "Chinmaya Mission Hospital Road",
        "building": "yes",
        "name": "Royaloak",
        "shop": "furniture"
      }
    },
    {
      "type": "way",
      "id": 359647411,
      "center": {
        "lat": 12.9756334,
        "lon": 77.6237598
      },
      "tags": {
        "amenity": "place_of_worship",
        "building": "yes",
        "religion": "hindu"
      }
    },
    {
      "type": "way",
      "id": 364495430,
      "center": {
        "lat": 12.9744829,
        "lon": 77.6331236
      },
      "tags": {
        "landuse": "residential",
        "leisure": "fitness_centre",
        "name": "Citi Nest",
        "place": "locality"
      }
    },
    {
      "type": "way",
      "id": 367149867,
      "center": {
        "lat": 12.9735447,
        "lon": 77.619858
      },
      "tags": {
        "access": "private",
        "leisure": "swimming_pool"
      }
    },
    {
      "type": "way",
      "id": 368802983,
      "center": {
        "lat": 12.9805552,
        "lon": 77.615782
      },
      "tags": {
        "addr:city": "Bangalore",
        "addr:housenumber": "13",
        "addr:postcode": "560042",
        "addr:street": "Gangadhara Chetty Road, Ulsoor",
        "amenity": "community_centre",
        "building": "yes",
        "name": "Sri Mahan Odukathur Swamigal Mutt",
        "note": "Free annual Carnatic music concerts during the Janmashtami season."
      }
    },
    {
      "type": "way",
      "id": 369295551,
      "center": {
        "lat": 12.9749939,
        "lon": 77.6239792
      },
      "tags": {
        "amenity": "place_of_worship",
        "building": "yes",
        "name": "Halasur Jamia Masjid",
        "name:kn": "ಹಲಸೂರು ಜಮ ಮಸೀದಿ",
        "religion": "muslim"
      }
    },
    {
      "type": "way",
      "id": 369295552,
      "center": {
        "lat": 12.973692,
        "lon": 77.6266773
      },
      "tags": {
        "addr:district": "Bengaluru Urban",
        "addr:full": "Kembridge Road, Near Police Station",
        "addr:postcode": "560008",
        "addr:state": "Karnataka",
        "amenity": "hospital",
        "healthcare": "hospital",
        "name": "Halasuru Referal Hospital",
        "operator": "BBMP",
        "source": "OpenGovernmentData"
      }
    },
    {
      "type": "way",
      "id": 369295553,
      "center": {
        "lat": 12.9747988,
        "lon": 77.6252645
      },
      "tags": {
        "amenity": "police",
        "check_date": "2024-02-09",
        "internet_access": "no",
        "level": "0",
        "name": "Halasuru Police Station",
        "name:kn": "ಹಲಸೂರು ಆರಕ್ಷಕ ಠಾಣೆ",
        "wheelchair": "limited"
      }
    },
    {
      "type": "way",
      "id": 369295559,
      "center": {
        "lat": 12.9740209,
        "lon": 77.6256572
      },
      "tags": {
        "amenity": "college",
        "name": "St Anne's Degree College"
      }
    },
    {
      "type": "way",
      "id": 370404411,
      "center": {
        "lat": 12.9797744,
        "lon": 77.6158045
      },
      "tags": {
        "amenity": "college",
        "name": "Hasnath Group of Institutions"
      }
    },
    {
      "type": "way",
      "id": 380364388,
      "center": {
        "lat": 12.9795467,
        "lon": 77.6336223
      },
      "tags": {
        "amenity": "public_building",
        "name": "BBMP Office",
        "name:kn": "ಬೃಹತ್ ಬೆಂಗಳೂರು ಮಹಾನಗರ ಪಾಲಿಕೆ ಕಛೇರಿ"
      }
    },
    {
      "type": "way",
      "id": 389341678,
      "center": {
        "lat": 12.9762462,
        "lon": 77.6206136
      },
      "tags": {
        "amenity": "place_of_worship",
        "building": "gurudwara",
        "check_date": "2025-09-21",
        "name": "Sri Gurdwara Singh Sabha",
        "name:en": "Sri Gurdwara Singh Sabha",
        "name:kn": "ಶ್ರೀ ಗುರುದ್ವಾರ ಸಿಂಗ್ ಸಭ",
        "religion": "sikh"
      }
    },
    {
      "type": "way",
      "id": 409003899,
      "center": {
        "lat": 12.9807984,
        "lon": 77.6227654
      },
      "tags": {
        "name": "Dhobi Ghat",
        "name:kn": "ಧೋಬಿ ಘಾಟ್",
        "shop": "laundry"
      }
    },
    {
      "type": "way",
      "id": 422658659,
      "center": {
        "lat": 12.9778522,
        "lon": 77.6332062
      },
      "tags": {
        "addr:housenumber": "672",
        "addr:postcode": "560038",
        "addr:street": "17th D Cross",
        "building": "yes",
        "building:levels": "4",
        "leisure": "fitness_centre",
        "name": "Diksha Yoga Classes",
        "sport": "yoga"
      }
    },
    {
      "type": "way",
      "id": 422819789,
      "center": {
        "lat": 12.9766113,
        "lon": 77.6343903
      },
      "tags": {
        "leisure": "pitch",
        "sport": "cricket",
        "surface": "grass"
      }
    },
    {
      "type": "way",
      "id": 436666219,
      "center": {
        "lat": 12.9841065,
        "lon": 77.6221108
      },
      "tags": {
        "access": "customers",
        "leisure": "swimming_pool",
        "length": "50",
        "location": "outdoor"
      }
    },
    {
      "type": "way",
      "id": 457146562,
      "center": {
        "lat": 12.9705218,
        "lon": 77.6274434
      },
      "tags": {
        "leisure": "swimming_pool"
      }
    },
    {
      "type": "way",
      "id": 457146563,
      "center": {
        "lat": 12.9702411,
        "lon": 77.6274552
      },
      "tags": {
        "leisure": "swimming_pool"
      }
    },
    {
      "type": "way",
      "id": 478447819,
      "center": {
        "lat": 12.9725698,
        "lon": 77.628564
      },
      "tags": {
        "leisure": "park"
      }
    },
    {
      "type": "way",
      "id": 489810878,
      "center": {
        "lat": 12.9731163,
        "lon": 77.621751
      },
      "tags": {
        "access": "customers",
        "amenity": "parking",
        "motor_vehicle": "no",
        "motorcycle": "yes",
        "parking": "surface",
        "scooter": "yes"
      }
    },
    {
      "type": "way",
      "id": 492502342,
      "center": {
        "lat": 12.9840801,
        "lon": 77.6221647
      },
      "tags": {
        "leisure": "sports_centre",
        "name": "Kensington Swimming Pool",
        "sport": "swimming"
      }
    },
    {
      "type": "way",
      "id": 526095699,
      "center": {
        "lat": 12.9805076,
        "lon": 77.6258528
      },
      "tags": {
        "leisure": "playground",
        "name": "Ground"
      }
    },
    {
      "type": "way",
      "id": 526096135,
      "center": {
        "lat": 12.981077,
        "lon": 77.6262588
      },
      "tags": {
        "leisure": "park",
        "name": "Childrens Playing Park"
      }
    },
    {
      "type": "way",
      "id": 526097595,
      "center": {
        "lat": 12.9812734,
        "lon": 77.624778
      },
      "tags": {
        "addr:city": "bangalore",
        "addr:postcode": "560008",
        "amenity": "place_of_worship",
        "building": "yes",
        "name": "Sir Moogambigai Amman Temple",
        "religion": "hindu"
      }
    },
    {
      "type": "way",
      "id": 526748584,
      "center": {
        "lat": 12.9715381,
        "lon": 77.6287373
      },
      "tags": {
        "leisure": "playground"
      }
    },
    {
      "type": "way",
      "id": 549116221,
      "center": {
        "lat": 12.9744233,
        "lon": 77.633078
      },
      "tags": {
        "leisure": "swimming_pool"
      }
    },
    {
      "type": "way",
      "id": 603115732,
      "center": {
        "lat": 12.9789173,
        "lon": 77.6167663
      },
      "tags": {
        "amenity": "school",
        "name": "Auro Mirra International School"
      }
    },
    {
      "type": "way",
      "id": 616276010,
      "center": {
        "lat": 12.9738555,
        "lon": 77.6302876
      },
      "tags": {
        "amenity": "school",
        "name": "BBMP College",
        "name:kn": "ಬೃ.ಬೆಂ.ಮ.ಪಾ. ಕಾಲೇಜು"
      }
    },
    {
      "type": "way",
      "id": 616276012,
      "center": {
        "lat": 12.9746241,
        "lon": 77.6305856
      },
      "tags": {
        "amenity": "school",
        "name": "Sri Ramakrishna High School",
        "name:kn": "ಶ್ರೀ ರಾಮಕೃಷ್ಣ ಪ್ರೌಡಶಾಲೆ"
      }
    },
    {
      "type": "way",
      "id": 616276013,
      "center": {
        "lat": 12.9737968,
        "lon": 77.6304013
      },
      "tags": {
        "leisure": "playground"
      }
    },
    {
      "type": "way",
      "id": 616276014,
      "center": {
        "lat": 12.9717468,
        "lon": 77.631471
      },
      "tags": {
        "amenity": "community_centre",
        "name": "Jogupalya Community Hall"
      }
    },
    {
      "type": "way",
      "id": 674028951,
      "center": {
        "lat": 12.9799277,
        "lon": 77.6170644
      },
      "tags": {
        "leisure": "garden"
      }
    },
    {
      "type": "way",
      "id": 674028953,
      "center": {
        "lat": 12.9802024,
        "lon": 77.6171231
      },
      "tags": {
        "access": "private",
        "amenity": "parking",
        "parking": "surface"
      }
    },
    {
      "type": "way",
      "id": 674028955,
      "center": {
        "lat": 12.9797894,
        "lon": 77.617344
      },
      "tags": {
        "leisure": "garden"
      }
    },
    {
      "type": "way",
      "id": 688353425,
      "center": {
        "lat": 12.9810372,
        "lon": 77.6246913
      },
      "tags": {
        "amenity": "college",
        "name": "Aavishkar Academy"
      }
    },
    {
      "type": "way",
      "id": 688353427,
      "center": {
        "lat": 12.978366,
        "lon": 77.6236685
      },
      "tags": {
        "leisure": "playground"
      }
    },
    {
      "type": "way",
      "id": 688353433,
      "center": {
        "lat": 12.9782781,
        "lon": 77.6232947
      },
      "tags": {
        "amenity": "place_of_worship",
        "name": "Satyanarayana Temple",
        "name:kn": "ಸತ್ಯನಾರಾಯಣ ದೇವಸ್ಥಾನ",
        "religion": "hindu"
      }
    },
    {
      "type": "way",
      "id": 688353437,
      "center": {
        "lat": 12.9784999,
        "lon": 77.6228104
      },
      "tags": {
        "amenity": "place_of_worship",
        "name": "Sri Venkateshwara Swamy Temple",
        "name:kn": "ವೆಂಕಟೇಶ್ವರ ಸ್ವಾಮಿ ದೇವಸ್ಥಾನ",
        "religion": "hindu"
      }
    },
    {
      "type": "way",
      "id": 688356350,
      "center": {
        "lat": 12.9804661,
        "lon": 77.6259975
      },
      "tags": {
        "amenity": "school",
        "name": "Government Girls Tamil School",
        "name:kn": "ಸರ್ಕಾರಿ ಬಾಲಕಿಯರ ತಮಿಳು ಶಾಲೆ"
      }
    },
    {
      "type": "way",
      "id": 688356352,
      "center": {
        "lat": 12.979026,
        "lon": 77.6264656
      },
      "tags": {
        "amenity": "veterinary",
        "name": "Veterinary Hospital",
        "name:kn": "ಪಶುವೈದ್ಯ ಆಸ್ಪತ್ರೆ"
      }
    },
    {
      "type": "way",
      "id": 688356353,
      "center": {
        "lat": 12.9790012,
        "lon": 77.6267043
      },
      "tags": {
        "amenity": "clinic",
        "name": "Halasuru BBMP Primary Health Centre",
        "name:kn": "ಆರೋಗ್ಯ ಪ್ರಾಥಮಿಕ ಕೇಂದ್ರ"
      }
    },
    {
      "type": "way",
      "id": 688413058,
      "center": {
        "lat": 12.9771467,
        "lon": 77.6256998
      },
      "tags": {
        "leisure": "common"
      }
    },
    {
      "type": "way",
      "id": 688432869,
      "center": {
        "lat": 12.9804989,
        "lon": 77.6298948
      },
      "tags": {
        "amenity": "library",
        "building": "yes",
        "name": "Ramakrishna Mission Library",
        "name:kn": "ರಾಮಯ್ಯ ಉದ್ಯಾನವನ"
      }
    },
    {
      "type": "way",
      "id": 688432870,
      "center": {
        "lat": 12.9807315,
        "lon": 77.6300214
      },
      "tags": {
        "amenity": "parking"
      }
    },
    {
      "type": "way",
      "id": 688444676,
      "center": {
        "lat": 12.9813273,
        "lon": 77.6283257
      },
      "tags": {
        "amenity": "place_of_worship",
        "name": "Good Shepherd Church",
        "religion": "christian"
      }
    },
    {
      "type": "way",
      "id": 688446487,
      "center": {
        "lat": 12.9813274,
        "lon": 77.6267989
      },
      "tags": {
        "leisure": "park"
      }
    },
    {
      "type": "way",
      "id": 691134035,
      "center": {
        "lat": 12.971739,
        "lon": 77.6284244
      },
      "tags": {
        "amenity": "food_court",
        "building": "yes",
        "name": "Canteen Area"
      }
    },
    {
      "type": "way",
      "id": 691134036,
      "center": {
        "lat": 12.9718314,
        "lon": 77.6285742
      },
      "tags": {
        "leisure": "playground"
      }
    },
    {
      "type": "way",
      "id": 691134079,
      "center": {
        "lat": 12.9713244,
        "lon": 77.6282139
      },
      "tags": {
        "amenity": "theatre",
        "building": "yes",
        "name": "Assembly Stage"
      }
    },
    {
      "type": "way",
      "id": 695920527,
      "center": {
        "lat": 12.9717004,
        "lon": 77.6285665
      },
      "tags": {
        "leisure": "pitch",
        "sport": "basketball"
      }
    },
    {
      "type": "way",
      "id": 775163650,
      "center": {
        "lat": 12.9756138,
        "lon": 77.6207859
      },
      "tags": {
        "access": "customers",
        "leisure": "swimming_pool",
        "location": "roof"
      }
    },
    {
      "type": "way",
      "id": 1068769787,
      "center": {
        "lat": 12.9814362,
        "lon": 77.6309396
      },
      "tags": {
        "amenity": "fuel",
        "brand": "Bharat Petroleum",
        "brand:wikidata": "Q854826",
        "compressed_air": "yes",
        "name": "Bharat Petroleum",
        "name:kn": "ಭಾರತ್ ಪೆಟ್ರೋಲಿಯಂ"
      }
    },
    {
      "type": "way",
      "id": 1068844239,
      "center": {
        "lat": 12.9749635,
        "lon": 77.6188909
      },
      "tags": {
        "access": "yes",
        "amenity": "parking",
        "parking": "street_side"
      }
    },
    {
      "type": "way",
      "id": 1068844248,
      "center": {
        "lat": 12.973839,
        "lon": 77.6194421
      },
      "tags": {
        "access": "customers",
        "amenity": "parking",
        "parking": "surface"
      }
    },
    {
      "type": "way",
      "id": 1068844251,
      "center": {
        "lat": 12.9729109,
        "lon": 77.619671
      },
      "tags": {
        "access": "customers",
        "amenity": "parking",
        "parking": "surface"
      }
    },
    {
      "type": "way",
      "id": 1082724730,
      "center": {
        "lat": 12.9821949,
        "lon": 77.6318397
      },
      "tags": {
        "amenity": "place_of_worship",
        "religion": "hindu"
      }
    },
    {
      "type": "way",
      "id": 1087008972,
      "center": {
        "lat": 12.9835444,
        "lon": 77.6234989
      },
      "tags": {
        "amenity": "social_facility",
        "brand": "Red Cross",
        "name": "Indian Red Cross Society",
        "office": "ngo"
      }
    },
    {
      "type": "way",
      "id": 1108003238,
      "center": {
        "lat": 12.9724712,
        "lon": 77.6186855
      },
      "tags": {
        "access": "customers",
        "amenity": "parking",
        "fee": "yes",
        "parking": "surface"
      }
    },
    {
      "type": "way",
      "id": 1137152703,
      "center": {
        "lat": 12.9733645,
        "lon": 77.6262363
      },
      "tags": {
        "addr:city": "Bengaluru",
        "addr:country": "IN",
        "addr:postcode": "560008",
        "addr:street": "Cambridge Road",
        "addr:suburb": "Halasuru",
        "amenity": "coworking_space",
        "fee": "yes",
        "landuse": "commercial",
        "name": "IndiQube Brigade Square",
        "office": "coworking",
        "operator": "IndiQube"
      }
    },
    {
      "type": "way",
      "id": 1349194501,
      "center": {
        "lat": 12.986285,
        "lon": 77.6230704
      },
      "tags": {
        "amenity": "place_of_worship",
        "landuse": "religious",
        "name": "Sri Anandpur Satsang Ashram",
        "religion": "hindu"
      }
    },
    {
      "type": "way",
      "id": 1349194514,
      "center": {
        "lat": 12.9825143,
        "lon": 77.62327
      },
      "tags": {
        "access": "private",
        "leisure": "swimming_pool"
      }
    },
    {
      "type": "way",
      "id": 1354829391,
      "center": {
        "lat": 12.9773752,
        "lon": 77.6275658
      },
      "tags": {
        "amenity": "parking"
      }
    },
    {
      "type": "way",
      "id": 1365455956,
      "center": {
        "lat": 12.97422,
        "lon": 77.632671
      },
      "tags": {
        "leisure": "garden"
      }
    },
    {
      "type": "way",
      "id": 1365459517,
      "center": {
        "lat": 12.9723486,
        "lon": 77.6304802
      },
      "tags": {
        "amenity": "school"
      }
    },
    {
      "type": "way",
      "id": 1369206475,
      "center": {
        "lat": 12.9727648,
        "lon": 77.6306002
      },
      "tags": {
        "addr:place": "Ulsoor",
        "amenity": "school",
        "isced:level": "1",
        "name": "Corporation HPS Ulsoor",
        "name:kn": "ಕಾರ್ಪೋರೇಶನ್ ಹಿರಿಯ ಪ್ರಾಥಮಿಕ ಶಾಲೆ ಹಲಸೂರು",
        "operator": "Department of Education",
        "school": "primary"
      }
    }
  ]
}