{
  "area_name": "Halagevaderahalli",
  "osm_id": 8711415095,
  "osm_type": "node",
  "place_type": "neighbourhood",
  "amenity_count": 100,
  "amenities": [
    {
      "type": "node",
      "id": 1463563270,
      "lat": 12.9262076,
      "lon": 77.5151161,
      "tags": {
        "name": "Classic Polo Showroom",
        "shop": "clothes"
      }
    },
    {
      "type": "node",
      "id": 1463563608,
      "lat": 12.9263226,
      "lon": 77.5156579,
      "tags": {
        "amenity": "hospital",
        "name": "Veturi Child Health Centre"
      }
    },
    {
      "type": "node",
      "id": 1463569358,
      "lat": 12.9217044,
      "lon": 77.5204162,
      "tags": {
        "amenity": "fast_food",
        "cuisine": "regional",
        "name": "Bramhi Aahaara"
      }
    },
    {
      "type": "node",
      "id": 1463570044,
      "lat": 12.9214078,
      "lon": 77.5206736,
      "tags": {
        "amenity": "restaurant",
        "cuisine": "chinese",
        "name": "Beijing Bites",
        "name:kn": "ಬೀಜಿಂಗ್ ಬೈಟ್ಸ್"
      }
    },
    {
      "type": "node",
      "id": 1463570454,
      "lat": 12.920634,
      "lon": 77.5205368,
      "tags": {
        "amenity": "cafe",
        "name": "Coffee Day"
      }
    },
    {
      "type": "node",
      "id": 1463571018,
      "lat": 12.9209843,
      "lon": 77.5202713,
      "tags": {
        "name": "Food World",
        "shop": "supermarket"
      }
    },
    {
      "type": "node",
      "id": 1463571577,
      "lat": 12.9202209,
      "lon": 77.5201908,
      "tags": {
        "amenity": "place_of_worship",
        "name": "Ganesha Temple",
        "name:kn": "ಗಣೇಶ ದೇವಸ್ಥಾನ",
        "religion": "hindu"
      }
    },
    {
      "type": "node",
      "id": 1463576394,
      "lat": 12.9176066,
      "lon": 77.5200084,
      "tags": {
        "leisure": "playground",
        "name": "Balakrishna Rangamandira",
        "name:kn": "ಬಾಲಕೃಷ್ಣ ರಂಗಮಂದಿರ"
      }
    },
    {
      "type": "node",
      "id": 2996236143,
      "lat": 12.9266584,
      "lon": 77.5199911,
      "tags": {
        "amenity": "restaurant",
        "cuisine": "regional",
        "name": "Monish Corner"
      }
    },
    {
      "type": "node",
      "id": 2996236145,
      "lat": 12.9247082,
      "lon": 77.5196155,
      "tags": {
        "name": "Lakshmi Departmental Stores",
        "shop": "department_store"
      }
    },
    {
      "type": "node",
      "id": 2996236146,
      "lat": 12.9244128,
      "lon": 77.5190496,
      "tags": {
        "name": "Namdhari's Fresh",
        "shop": "supermarket"
      }
    },
    {
      "type": "node",
      "id": 2996236148,
      "lat": 12.9242219,
      "lon": 77.518945,
      "tags": {
        "amenity": "school",
        "name": "Carmel School Ground"
      }
    },
    {
      "type": "node",
      "id": 2997256383,
      "lat": 12.9192621,
      "lon": 77.5204447,
      "tags": {
        "addr:city": "Bangalore",
        "addr:housenumber": "826",
        "addr:postcode": "560098",
        "addr:street": "Jawaharlal Nehru Road",
        "brand": "Lenskart",
        "name": "Lenskart.com",
        "opening_hours": "11:00 - 23:00",
        "shop": "optician",
        "takeaway": "yes",
        "website": "https://www.lenskart.com/"
      }
    },
    {
      "type": "node",
      "id": 3004239730,
      "lat": 12.9228792,
      "lon": 77.5207873,
      "tags": {
        "name": "Le Pape",
        "shop": "clothes"
      }
    },
    {
      "type": "node",
      "id": 3259732942,
      "lat": 12.9204553,
      "lon": 77.515172,
      "tags": {
        "addr:city": "BENGALURU",
        "addr:postcode": "560098",
        "addr:street": "1st Cross, 1st Main, 1st Phase, 5th Stage, BEML Layout",
        "name": "HP GAS",
        "operator": "Abhishek GAS Agency",
        "shop": "Distributor"
      }
    },
    {
      "type": "node",
      "id": 3259733378,
      "lat": 12.920322,
      "lon": 77.5161055,
      "tags": {
        "addr:city": "BENGALURU",
        "addr:housenumber": "1669",
        "addr:postcode": "560098",
        "addr:street": "I Main, I Phase, V Stage, BEML Layout, RajaRajeshwari Nagar",
        "name": "Nikhil Electricals",
        "operator": "Nikhil Electricals",
        "shop": "electrical"
      }
    },
    {
      "type": "node",
      "id": 3259763130,
      "lat": 12.926408,
      "lon": 77.5158466,
      "tags": {
        "addr:city": "BENGALURU",
        "addr:postcode": "560098",
        "addr:street": "Ideal Homes",
        "amenity": "bank",
        "atm": "yes",
        "brand": "State Bank of India",
        "brand:wikidata": "Q1340361",
        "brand:wikipedia": "en:State Bank of India",
        "drive_through": "no",
        "name": "State Bank of India",
        "name:kn": "ಭಾರತೀಯ ಸ್ಟೇಟ್ ಬ್ಯಾಂಕ್",
        "operator": "State Bank of India"
      }
    },
    {
      "type": "node",
      "id": 3259780194,
      "lat": 12.9198566,
      "lon": 77.5142588,
      "tags": {
        "addr:city": "BENGALURU",
        "addr:postcode": "560098",
        "amenity": "bank",
        "name": "Apex Bank",
        "name:kn": "ಏಪೆಕ್ಸ್ ಬ್ಯಾಂಕ್",
        "opening_hours": "Mo-Fr 09:00-15:00;Sa 09:00-12:00",
        "operator": "APEX Bank"
      }
    },
    {
      "type": "node",
      "id": 3546831488,
      "lat": 12.9209531,
      "lon": 77.5213014,
      "tags": {
        "amenity": "school",
        "name": "BET Convent"
      }
    },
    {
      "type": "node",
      "id": 4210647484,
      "lat": 12.9201765,
      "lon": 77.5174169,
      "tags": {
        "emergency": "no",
        "name": "Ramesh Medicals",
        "shop": "medical_supply"
      }
    },
    {
      "type": "node",
      "id": 4210647488,
      "lat": 12.9188235,
      "lon": 77.5203753,
      "tags": {
        "name": "Hopcoms",
        "name:kn": "ಹಾಪ್ ಕಾಮ್ಸ್",
        "shop": "supermarket"
      }
    },
    {
      "type": "node",
      "id": 4210647789,
      "lat": 12.9178772,
      "lon": 77.5204317,
      "tags": {
        "amenity": "bank",
        "atm": "yes",
        "brand:wikidata": "Q1340361",
        "brand:wikipedia": "en:State Bank of India",
        "name": "State Bank of India",
        "name:kn": "ಸ್ಟೇಟ್ ಬ್ಯಾಂಕ್ ಆಫ್ ಮೈಸೂರು",
        "short_name": "SBI",
        "website": "https://www.sbi.co.in"
      }
    },
    {
      "type": "node",
      "id": 4210668285,
      "lat": 12.920166,
      "lon": 77.5173257,
      "tags": {
        "name": "ACE Iyengar",
        "shop": "deli"
      }
    },
    {
      "type": "node",
      "id": 4210668286,
      "lat": 12.9201189,
      "lon": 77.5177655,
      "tags": {
        "name": "Delhi Chats",
        "shop": "deli"
      }
    },
    {
      "type": "node",
      "id": 4210668287,
      "lat": 12.9200614,
      "lon": 77.5183905,
      "tags": {
        "amenity": "childcare"
      }
    },
    {
      "type": "node",
      "id": 4210670193,
      "lat": 12.918753,
      "lon": 77.520891,
      "tags": {
        "amenity": "clinic",
        "description": "Dr. Parthasarathy",
        "name": "Yogeshwara Clinic"
      }
    },
    {
      "type": "node",
      "id": 4210670194,
      "lat": 12.9162563,
      "lon": 77.520671,
      "tags": {
        "amenity": "restaurant",
        "cuisine": "indian",
        "name": "Kaapi Katte",
        "name:kn": "ಕಾಫಿ ಕಟ್ಟೆ",
        "smoking": "no"
      }
    },
    {
      "type": "node",
      "id": 4212006126,
      "lat": 12.926701,
      "lon": 77.5143041,
      "tags": {
        "name": "Reliance Digital",
        "name:kn": "ರಿಲಾಯನ್ಸ್ ಡಿಜಿಟಲ್",
        "operator": "Reliance",
        "shop": "electronics"
      }
    },
    {
      "type": "node",
      "id": 4212006127,
      "lat": 12.9268736,
      "lon": 77.5143095,
      "tags": {
        "amenity": "community_centre",
        "name": "Vasavi Mahal",
        "name:kn": "ವಾಸವಿ ಮಹಲ್"
      }
    },
    {
      "type": "node",
      "id": 4212006129,
      "lat": 12.9221365,
      "lon": 77.5204974,
      "tags": {
        "addr:city": "Bengaluru",
        "addr:postcode": "560098",
        "addr:street": "BEML Layout 3rd Stage, Rajarajeshwari Nagar",
        "name": "Feet Shop",
        "shop": "shoes"
      }
    },
    {
      "type": "node",
      "id": 4488319661,
      "lat": 12.9208959,
      "lon": 77.5206097,
      "tags": {
        "addr:city": "BANGALORE",
        "addr:postcode": "560098",
        "addr:street": "Rajeswari nagar",
        "name": "Lakme Salon",
        "phone": "8033050394",
        "shop": "beauty"
      }
    },
    {
      "type": "node",
      "id": 4490001355,
      "lat": 12.9193043,
      "lon": 77.5206092,
      "tags": {
        "addr:city": "BANGALORE",
        "addr:housenumber": "500,",
        "addr:postcode": "560098",
        "addr:street": ", 60 Feet Road, Rajarajeshwari Naga",
        "name": "YLG",
        "opening_hours": "10:00-22:00",
        "phone": "(91)-80-33050394",
        "shop": "beauty",
        "website": "https://www.ylgindia.com/"
      }
    },
    {
      "type": "node",
      "id": 5075572822,
      "lat": 12.9257694,
      "lon": 77.5211371,
      "tags": {
        "shop": "bakery"
      }
    },
    {
      "type": "node",
      "id": 5277512092,
      "lat": 12.9147197,
      "lon": 77.5179327,
      "tags": {
        "amenity": "fast_food",
        "name": "Santhrupthi Hotel"
      }
    },
    {
      "type": "node",
      "id": 5459056421,
      "lat": 12.9302122,
      "lon": 77.5150097,
      "tags": {
        "amenity": "fast_food",
        "check_date": "2025-10-18",
        "name": "RR Coffee House",
        "wheelchair": "no"
      }
    },
    {
      "type": "node",
      "id": 6292879944,
      "lat": 12.9275842,
      "lon": 77.5153381,
      "tags": {
        "amenity": "place_of_worship",
        "religion": "hindu"
      }
    },
    {
      "type": "node",
      "id": 6293010388,
      "lat": 12.9263673,
      "lon": 77.5156313,
      "tags": {
        "amenity": "bank",
        "atm": "yes",
        "brand": "HDFC Bank",
        "brand:wikidata": "Q631047",
        "brand:wikipedia": "en:HDFC Bank",
        "drive_through": "no",
        "name": "HDFC Bank",
        "name:kn": "ಎಚ್ ಡಿ ಎಫ್ ಸಿ",
        "operator": "HDFC"
      }
    },
    {
      "type": "node",
      "id": 6944095850,
      "lat": 12.9162321,
      "lon": 77.5165567,
      "tags": {
        "addr:district": "Bengaluru Urban",
        "addr:full": "No-1406, 8Th Main, 7Th Cross 5Th Stage, 1st Phase,Beml Layout, Rajarajeswaringar",
        "addr:postcode": "560098",
        "addr:state": "Karnataka",
        "amenity": "clinic",
        "name": "Sudhanva Health Care",
        "source": "OpenGovernmentData"
      }
    },
    {
      "type": "node",
      "id": 9838551995,
      "lat": 12.9167617,
      "lon": 77.5216256,
      "tags": {
        "amenity": "place_of_worship",
        "name": "Sangameshwara Temple",
        "name:kn": "ಸಂಗಮೇಶ್ವರ ದೇವಾಲಯ",
        "religion": "hindu"
      }
    },
    {
      "type": "node",
      "id": 9838551996,
      "lat": 12.9200603,
      "lon": 77.5108428,
      "tags": {
        "amenity": "place_of_worship",
        "name": "Anjaneya Temple",
        "religion": "hindu"
      }
    },
    {
      "type": "node",
      "id": 13127368034,
      "lat": 12.9285532,
      "lon": 77.5161999,
      "tags": {
        "amenity": "shelter",
        "shelter_type": "gazebo"
      }
    },
    {
      "type": "node",
      "id": 13127368035,
      "lat": 12.9286813,
      "lon": 77.5165969,
      "tags": {
        "amenity": "shelter",
        "shelter_type": "gazebo"
      }
    },
    {
      "type": "node",
      "id": 13127368064,
      "lat": 12.9290983,
      "lon": 77.5178924,
      "tags": {
        "amenity": "shelter",
        "shelter_type": "gazebo"
      }
    },
    {
      "type": "node",
      "id": 13127368065,
      "lat": 12.9295087,
      "lon": 77.5175303,
      "tags": {
        "amenity": "shelter",
        "shelter_type": "gazebo"
      }
    },
    {
      "type": "node",
      "id": 13130322035,
      "lat": 12.9227174,
      "lon": 77.5059164,
      "tags": {
        "leisure": "fitness_centre"
      }
    },
    {
      "type": "node",
      "id": 13240113592,
      "lat": 12.9300874,
      "lon": 77.5149732,
      "tags": {
        "amenity": "restaurant",
        "check_date": "2025-10-18",
        "diet:vegetarian": "yes",
        "name": "Paakashala"
      }
    },
    {
      "type": "node",
      "id": 13240113596,
      "lat": 12.9274267,
      "lon": 77.5150483,
      "tags": {
        "amenity": "community_centre",
        "check_date": "2025-10-18",
        "community_centre": "community_hall",
        "name": "Ideal Community Hall"
      }
    },
    {
      "type": "node",
      "id": 13240135376,
      "lat": 12.9282791,
      "lon": 77.5162838,
      "tags": {
        "amenity": "post_box",
        "operator": "India Post"
      }
    },
    {
      "type": "node",
      "id": 13240137087,
      "lat": 12.9285703,
      "lon": 77.5161577,
      "tags": {
        "amenity": "bench",
        "backrest": "yes",
        "material": "stone",
        "seats": "2"
      }
    },
    {
      "type": "node",
      "id": 13240142053,
      "lat": 12.928377,
      "lon": 77.5162909,
      "tags": {
        "amenity": "bench"
      }
    },
    {
      "type": "node",
      "id": 13240142054,
      "lat": 12.9283894,
      "lon": 77.5162546,
      "tags": {
        "amenity": "waste_basket"
      }
    },
    {
      "type": "node",
      "id": 13240142055,
      "lat": 12.9284084,
      "lon": 77.5162238,
      "tags": {
        "amenity": "bench"
      }
    },
    {
      "type": "node",
      "id": 13240142056,
      "lat": 12.9283564,
      "lon": 77.5163222,
      "tags": {
        "amenity": "bench"
      }
    },
    {
      "type": "node",
      "id": 13240142057,
      "lat": 12.928462,
      "lon": 77.5161446,
      "tags": {
        "amenity": "bench"
      }
    },
    {
      "type": "node",
      "id": 13240151359,
      "lat": 12.9272313,
      "lon": 77.5178189,
      "tags": {
        "amenity": "kindergarten",
        "check_date": "2025-10-18",
        "name": "Eunoia"
      }
    },
    {
      "type": "node",
      "id": 13240162744,
      "lat": 12.9286287,
      "lon": 77.5161986,
      "tags": {
        "amenity": "bench",
        "armrest": "yes",
        "backrest": "yes",
        "material": "concrete",
        "seats": "3"
      }
    },
    {
      "type": "node",
      "id": 13240162745,
      "lat": 12.9278374,
      "lon": 77.5163046,
      "tags": {
        "brand": "Nandini",
        "brand:wikidata": "Q124374212",
        "check_date": "2025-10-18",
        "name": "Nandini",
        "shop": "dairy"
      }
    },
    {
      "type": "node",
      "id": 13240162746,
      "lat": 12.9277651,
      "lon": 77.5162915,
      "tags": {
        "check_date": "2025-10-18",
        "shop": "copyshop"
      }
    },
    {
      "type": "node",
      "id": 13240172802,
      "lat": 12.9284394,
      "lon": 77.5160786,
      "tags": {
        "check_date": "2025-10-18",
        "name": "AG Enterprises",
        "shop": "kiosk"
      }
    },
    {
      "type": "node",
      "id": 13240191660,
      "lat": 12.9265957,
      "lon": 77.5168425,
      "tags": {
        "amenity": "dancing_school",
        "check_date": "2025-10-18",
        "name": "Kalagrhm"
      }
    },
    {
      "type": "node",
      "id": 13240191661,
      "lat": 12.92661,
      "lon": 77.5174309,
      "tags": {
        "amenity": "kindergarten",
        "check_date": "2025-10-18",
        "name": "Child's Kingdom"
      }
    },
    {
      "type": "node",
      "id": 13240191662,
      "lat": 12.925836,
      "lon": 77.5180757,
      "tags": {
        "amenity": "bank",
        "brand": "Indian Bank",
        "brand:wikidata": "Q2003789",
        "check_date": "2025-10-18",
        "name": "Indian Bank"
      }
    },
    {
      "type": "node",
      "id": 13240199710,
      "lat": 12.9279833,
      "lon": 77.518069,
      "tags": {
        "check_date": "2025-10-18",
        "name": "Coffee 2 Day",
        "shop": "coffee"
      }
    },
    {
      "type": "node",
      "id": 13240199712,
      "lat": 12.9281615,
      "lon": 77.5180785,
      "tags": {
        "check_date": "2025-10-18",
        "name": "Petrichor",
        "organic": "only",
        "shop": "greengrocer"
      }
    },
    {
      "type": "node",
      "id": 13240199714,
      "lat": 12.9280883,
      "lon": 77.5180799,
      "tags": {
        "amenity": "cafe",
        "check_date": "2025-10-18",
        "name": "Blossom Bean Cafe"
      }
    },
    {
      "type": "node",
      "id": 13242935400,
      "lat": 12.9276696,
      "lon": 77.5150909,
      "tags": {
        "amenity": "community_centre",
        "check_date": "2025-10-18",
        "community_centre": "community_hall",
        "name": "Golden Jubilee Convention Centre"
      }
    },
    {
      "type": "node",
      "id": 13242935443,
      "lat": 12.9303818,
      "lon": 77.5151297,
      "tags": {
        "brand": "Nandini",
        "brand:wikidata": "Q124374212",
        "name": "Nandini",
        "shop": "dairy"
      }
    },
    {
      "type": "node",
      "id": 13242935444,
      "lat": 12.9300368,
      "lon": 77.5149474,
      "tags": {
        "name": "Naturals Salon",
        "shop": "beauty"
      }
    },
    {
      "type": "node",
      "id": 13242935445,
      "lat": 12.9299662,
      "lon": 77.5149339,
      "tags": {
        "amenity": "fast_food",
        "cuisine": "pizza",
        "name": "Onesta"
      }
    },
    {
      "type": "node",
      "id": 13242935450,
      "lat": 12.9299989,
      "lon": 77.5149447,
      "tags": {
        "brand": "Royal Enfield",
        "brand:wikidata": "Q2668720",
        "name": "Royal Enfield",
        "shop": "motorcycle"
      }
    },
    {
      "type": "node",
      "id": 13242935451,
      "lat": 12.9304381,
      "lon": 77.5151002,
      "tags": {
        "amenity": "fast_food",
        "name": "The Madras Cafe"
      }
    },
    {
      "type": "node",
      "id": 13269444089,
      "lat": 12.9300684,
      "lon": 77.5150004,
      "tags": {
        "brand": "Royal Enfield",
        "brand:wikidata": "Q2668720",
        "check_date": "2025-10-18",
        "name": "Royal Enfield",
        "shop": "motorcycle",
        "wheelchair": "no"
      }
    },
    {
      "type": "node",
      "id": 13269444090,
      "lat": 12.9300434,
      "lon": 77.5149538,
      "tags": {
        "amenity": "cafe",
        "check_date": "2025-10-18",
        "name": "Onesta",
        "wheelchair": "no"
      }
    },
    {
      "type": "way",
      "id": 132998344,
      "center": {
        "lat": 12.919261,
        "lon": 77.5196974
      },
      "tags": {
        "leisure": "park",
        "name": "Dr Ambedkar Park",
        "name:etymology:wikidata": "Q231690",
        "name:kn": "ಅಂಬೇಡ್ಕರ್ ಉದ್ಯಾನ"
      }
    },
    {
      "type": "way",
      "id": 173051066,
      "center": {
        "lat": 12.9161336,
        "lon": 77.5218978
      },
      "tags": {
        "leisure": "park",
        "name": "Sangameshwara Park",
        "name:kn": "ಸಂಗಮೇಶ್ವರ ಪಾರ್ಕ್"
      }
    },
    {
      "type": "way",
      "id": 319551492,
      "center": {
        "lat": 12.9210796,
        "lon": 77.519083
      },
      "tags": {
        "leisure": "park",
        "name": "Vivekananda Park",
        "name:kn": "ವಿವೇಕಾನಂದ ಪಾರ್ಕ್"
      }
    },
    {
      "type": "way",
      "id": 319552562,
      "center": {
        "lat": 12.928623,
        "lon": 77.5165144
      },
      "tags": {
        "leisure": "park",
        "name": "Rajarajeshwari Nagar Park",
        "name:kn": "ರಾಜರಾಜೇಶ್ವರಿ ನಗರ ಉದ್ಯಾನವನ"
      }
    },
    {
      "type": "way",
      "id": 347481812,
      "center": {
        "lat": 12.9218063,
        "lon": 77.5087855
      },
      "tags": {
        "amenity": "place_of_worship",
        "building": "yes",
        "religion": "hindu"
      }
    },
    {
      "type": "way",
      "id": 348149826,
      "center": {
        "lat": 12.9244231,
        "lon": 77.5114174
      },
      "tags": {
        "amenity": "community_centre",
        "building": "yes",
        "name": "Meenakshi Kalyana Matapa",
        "name:kn": "ಮೀನಾಕ್ಷಿ ಕಲ್ಯಾಣ ಮಂಟಪ"
      }
    },
    {
      "type": "way",
      "id": 348250634,
      "center": {
        "lat": 12.9248553,
        "lon": 77.5113967
      },
      "tags": {
        "amenity": "community_centre",
        "building": "yes",
        "name": "Meenakshi Padmavathi Kalyana Matapa",
        "name:kn": "ಮೀನಾಕ್ಷಿ ಪದ್ಮಾವತಿ ಕಲ್ಯಾಣ ಮಂಟಪ"
      }
    },
    {
      "type": "way",
      "id": 362910765,
      "center": {
        "lat": 12.916814,
        "lon": 77.508714
      },
      "tags": {
        "leisure": "park"
      }
    },
    {
      "type": "way",
      "id": 362911977,
      "center": {
        "lat": 12.9175529,
        "lon": 77.5200831
      },
      "tags": {
        "leisure": "park"
      }
    },
    {
      "type": "way",
      "id": 362913634,
      "center": {
        "lat": 12.9265922,
        "lon": 77.5186791
      },
      "tags": {
        "leisure": "park"
      }
    },
    {
      "type": "way",
      "id": 362913765,
      "center": {
        "lat": 12.92941,
        "lon": 77.5177585
      },
      "tags": {
        "leisure": "park",
        "name": "Netaji Memorial Park"
      }
    },
    {
      "type": "way",
      "id": 401829358,
      "center": {
        "lat": 12.9237378,
        "lon": 77.5233068
      },
      "tags": {
        "amenity": "school",
        "name": "National Hill View Public School"
      }
    },
    {
      "type": "way",
      "id": 672017071,
      "center": {
        "lat": 12.9265471,
        "lon": 77.5154436
      },
      "tags": {
        "amenity": "pub",
        "building": "yes",
        "cuisine": "pub",
        "name": "The Watering Hole"
      }
    },
    {
      "type": "way",
      "id": 1120154288,
      "center": {
        "lat": 12.9126949,
        "lon": 77.5124865
      },
      "tags": {
        "addr:city": "Bengaluru",
        "addr:postcode": "560098",
        "addr:street": "Kenchenahalli Main Road",
        "amenity": "school",
        "education": "school",
        "name": "Shri Jnanakshi Vidyaniketan",
        "name:kn": "ಜ್ಞಾನಾಕ್ಷಿ ವಿದ್ಯಾನಿಕೇತನ"
      }
    },
    {
      "type": "way",
      "id": 1182315656,
      "center": {
        "lat": 12.9264187,
        "lon": 77.5216783
      },
      "tags": {
        "amenity": "hospital",
        "name": "SS Sparsh Hospital"
      }
    },
    {
      "type": "way",
      "id": 1265721147,
      "center": {
        "lat": 12.9293231,
        "lon": 77.5141903
      },
      "tags": {
        "amenity": "fuel",
        "brand": "Bharat Petroleum",
        "brand:wikidata": "Q854826",
        "name": "Bharat Petroleum",
        "name:kn": "ಭಾರತ್ ಪೆಟ್ರೋಲಿಯಂ",
        "operator": "JainPax Filling Station"
      }
    },
    {
      "type": "way",
      "id": 1265721167,
      "center": {
        "lat": 12.9268513,
        "lon": 77.5125515
      },
      "tags": {
        "amenity": "place_of_worship",
        "landuse": "religious",
        "name": "Pyramid Temple",
        "religion": "hindu"
      }
    },
    {
      "type": "way",
      "id": 1265721171,
      "center": {
        "lat": 12.9270828,
        "lon": 77.5146577
      },
      "tags": {
        "amenity": "fuel",
        "brand": "Shell"
      }
    },
    {
      "type": "way",
      "id": 1364433566,
      "center": {
        "lat": 12.9266958,
        "lon": 77.5070802
      },
      "tags": {
        "leisure": "park"
      }
    },
    {
      "type": "way",
      "id": 1364433567,
      "center": {
        "lat": 12.9263964,
        "lon": 77.5080296
      },
      "tags": {
        "leisure": "park"
      }
    },
    {
      "type": "way",
      "id": 1427923069,
      "center": {
        "lat": 12.9247404,
        "lon": 77.5175994
      },
      "tags": {
        "amenity": "place_of_worship",
        "landuse": "religious",
        "name": "Shri Nimishamba Devi Temple",
        "name:kn": "ನಿಮಿಶಾಂಬ ದೇವಸ್ಥಾನ",
        "religion": "hindu"
      }
    },
    {
      "type": "way",
      "id": 1427923075,
      "center": {
        "lat": 12.9241038,
        "lon": 77.5186018
      },
      "tags": {
        "amenity": "school",
        "landuse": "education",
        "name": "Mount Carmel School"
      }
    },
    {
      "type": "way",
      "id": 1428266426,
      "center": {
        "lat": 12.9245556,
        "lon": 77.508896
      },
      "tags": {
        "leisure": "garden"
      }
    },
    {
      "type": "way",
      "id": 1443183186,
      "center": {
        "lat": 12.9287182,
        "lon": 77.513014
      },
      "tags": {
        "amenity": "school",
        "name": "Rajarajeshwari Vidya Shala",
        "name:kn": "ರಾಜರಾಜೇಶ್ವರಿ ವಿದ್ಯ ಶಾಲೆ"
      }
    },
    {
      "type": "way",
      "id": 1443183189,
      "center": {
        "lat": 12.9288584,
        "lon": 77.5164775
      },
      "tags": {
        "leisure": "playground"
      }
    },
    {
      "type": "way",
      "id": 1443183199,
      "center": {
        "lat": 12.9272579,
        "lon": 77.5158506
      },
      "tags": {
        "access": "permissive",
        "leisure": "swimming_pool"
      }
    },
    {
      "type": "way",
      "id": 1443186861,
      "center": {
        "lat": 12.9262121,
        "lon": 77.5102962
      },
      "tags": {
        "amenity": "place_of_worship",
        "landuse": "religious",
        "name": "Rajarajeshwari Temple",
        "name:kn": "ರಾಜರಾಜೇಶ್ವರಿ ದೇವಸ್ಥಾನ",
        "religion": "hindu"
      }
    }
  ]
}