{
  "area_name": "Hampi Nagar",
  "osm_id": 19883470,
  "osm_type": "relation",
  "place_type": "administrative",
  "amenity_count": 108,
  "amenities": [
    {
      "type": "node",
      "id": 1120055861,
      "lat": 12.9685151,
      "lon": 77.5371276,
      "tags": {
        "amenity": "bank"
      }
    },
    {
      "type": "node",
      "id": 1474854776,
      "lat": 12.9619713,
      "lon": 77.5327333,
      "tags": {
        "amenity": "school",
        "check_date": "2024-03-27",
        "name": "RNS Vidyaniketan School"
      }
    },
    {
      "type": "node",
      "id": 1474854792,
      "lat": 12.9646688,
      "lon": 77.5330893,
      "tags": {
        "amenity": "school",
        "name": "KVV High School"
      }
    },
    {
      "type": "node",
      "id": 1778850359,
      "lat": 12.9683294,
      "lon": 77.5380482,
      "tags": {
        "amenity": "restaurant",
        "cuisine": "indian",
        "name": "Nisarga Andhra Style",
        "name:kn": "ನಿಸರ್ಗ ಆಂಧ್ರಶೈಲಿ"
      }
    },
    {
      "type": "node",
      "id": 1809698917,
      "lat": 12.9656038,
      "lon": 77.5363115,
      "tags": {
        "amenity": "cafe",
        "brand": "Cafe Coffee Day",
        "brand:wikidata": "Q5017235",
        "cuisine": "coffee_shop",
        "name": "Cafe Coffee Day",
        "name:kn": "ಕಫೆ ಕಾಫಿ ಡೇ",
        "takeaway": "yes",
        "wheelchair": "no"
      }
    },
    {
      "type": "node",
      "id": 1809705963,
      "lat": 12.9685025,
      "lon": 77.537261,
      "tags": {
        "amenity": "atm",
        "brand": "HDFC Bank",
        "brand:wikidata": "Q631047",
        "fee": "no",
        "name": "HDFC Bank",
        "operator": "HDFC Bank",
        "operator:wikidata": "Q631047",
        "short_name": "HDFC",
        "wheelchair": "no"
      }
    },
    {
      "type": "node",
      "id": 1809705983,
      "lat": 12.968448,
      "lon": 77.5371909,
      "tags": {
        "name": "World of Titan",
        "shop": "gift"
      }
    },
    {
      "type": "node",
      "id": 1843719342,
      "lat": 12.9676863,
      "lon": 77.5366433,
      "tags": {
        "amenity": "atm",
        "brand": "Axis Bank",
        "brand:wikidata": "Q2003549",
        "fee": "no",
        "name": "Axis Bank",
        "name:kn": "ಆಕ್ಸಿಸ್ ಬ್ಯಾಂಕ್",
        "operator": "Axis Bank",
        "operator:wikidata": "Q2003549",
        "source": "Survey"
      }
    },
    {
      "type": "node",
      "id": 1843719349,
      "lat": 12.96777,
      "lon": 77.536697,
      "tags": {
        "amenity": "bank",
        "brand": "Axis Bank",
        "brand:wikidata": "Q2003549",
        "brand:wikipedia": "en:Axis Bank",
        "name": "Axis Bank",
        "name:en": "Axis Bank",
        "name:kn": "ಆಕ್ಸಿಸ್ ಬ್ಯಾಂಕ್",
        "source": "Survey",
        "website": "https://www.axisbank.com"
      }
    },
    {
      "type": "node",
      "id": 1930100783,
      "lat": 12.9674027,
      "lon": 77.5364911,
      "tags": {
        "name": "Prime Honda",
        "shop": "bicycle"
      }
    },
    {
      "type": "node",
      "id": 1930100794,
      "lat": 12.9686831,
      "lon": 77.5369098,
      "tags": {
        "amenity": "fast_food",
        "brand": "McDonald's",
        "brand:pa": "ਮੈਕਡੋਨਲਡ’ਜ਼",
        "brand:ur": "مکڈونلڈز",
        "brand:wikidata": "Q38076",
        "brand:wikipedia": "en:McDonald's",
        "brand:wikipedia:pa": "ਮੈਕਡੋਨਲਡ’ਜ਼",
        "brand:wikipedia:ur": "مکڈونلڈز",
        "cuisine": "burger",
        "name": "McDonald's",
        "name:kn": "ಮ್ಯಾಕ್‌ಡೊನಾಲ್ಡ್ಸ್",
        "name:pa": "ਮੈਕਡੋਨਲਡ’ਜ਼",
        "name:ur": "مکڈونلڈز",
        "opening_hours": "Mo-Su 10:00-23:00",
        "takeaway": "yes"
      }
    },
    {
      "type": "node",
      "id": 1930110069,
      "lat": 12.9613203,
      "lon": 77.5329636,
      "tags": {
        "amenity": "parking",
        "name": "Bunt's Sangha Car Parking",
        "parking": "surface"
      }
    },
    {
      "type": "node",
      "id": 1979048417,
      "lat": 12.9605279,
      "lon": 77.5302714,
      "tags": {
        "name": "Just Bake",
        "name:kn": "ಜಸ್ಟ್ ಬೇಕ್",
        "shop": "bakery"
      }
    },
    {
      "type": "node",
      "id": 2017962169,
      "lat": 12.965712,
      "lon": 77.5363,
      "tags": {
        "amenity": "fast_food"
      }
    },
    {
      "type": "node",
      "id": 2483622553,
      "lat": 12.9683417,
      "lon": 77.5379567,
      "tags": {
        "addr:city": "Bangalore",
        "addr:housename": "Near Nisarga Andhra Style, Vijayangar",
        "addr:postcode": "560040",
        "addr:street": "20th Main",
        "name": "Baby's Planet",
        "shop": "baby_goods"
      }
    },
    {
      "type": "node",
      "id": 2487524450,
      "lat": 12.9683779,
      "lon": 77.5380113,
      "tags": {
        "addr:city": "Bangalore",
        "addr:housename": "Near World of Titan, Maruti Mandir, Vijayanagar",
        "addr:postcode": "560040",
        "addr:street": "20th Main",
        "name": "Blak",
        "shop": "shoes"
      }
    },
    {
      "type": "node",
      "id": 2487524456,
      "lat": 12.9684412,
      "lon": 77.5373058,
      "tags": {
        "addr:city": "Bangalore",
        "addr:housename": "Near World of Titan, Maruti Mandir, Vijayanagar",
        "addr:postcode": "560040",
        "addr:street": "20th Main",
        "branch": "Show Room",
        "brand": "Liberty",
        "brand:wikidata": "Q6541947",
        "name": "Liberty Exclusive Showroom",
        "shop": "shoes"
      }
    },
    {
      "type": "node",
      "id": 2514705840,
      "lat": 12.9605849,
      "lon": 77.5301348,
      "tags": {
        "addr:city": "Bangalore",
        "addr:housename": "Near Attiguppe Bus Stop, Chandra Layout",
        "addr:street": "4th Main Road",
        "name": "Eye Gallery",
        "shop": "optician"
      }
    },
    {
      "type": "node",
      "id": 2514705841,
      "lat": 12.960679,
      "lon": 77.5298263,
      "tags": {
        "addr:city": "Bangalore",
        "addr:housename": "Attiguppe, Chandra Layout",
        "addr:street": "4th Main Road",
        "name": "Poohlala Musical Mings",
        "shop": "music"
      }
    },
    {
      "type": "node",
      "id": 2514705842,
      "lat": 12.9605536,
      "lon": 77.530226,
      "tags": {
        "addr:city": "Bangalore",
        "addr:housename": "Near Attiguppe Bus Stop, Chandra Layout",
        "addr:street": "4th Main Road",
        "name": "Just Books",
        "shop": "books"
      }
    },
    {
      "type": "node",
      "id": 2514705843,
      "lat": 12.9605719,
      "lon": 77.5301723,
      "tags": {
        "addr:city": "Bangalore",
        "addr:housename": "Near Attiguppe Bus Stop, Chandra Layout",
        "addr:street": "4th Main Road",
        "name": "Baskin Robbins",
        "shop": "ice_cream"
      }
    },
    {
      "type": "node",
      "id": 2914178500,
      "lat": 12.9580924,
      "lon": 77.5341659,
      "tags": {
        "addr:housename": "Poornima Complex",
        "addr:housenumber": "1st Floor",
        "addr:street": "RPC Layout",
        "amenity": "bank",
        "atm": "yes",
        "name": "Gandharva Sip & Dine;ICICI Bank"
      }
    },
    {
      "type": "node",
      "id": 2914181101,
      "lat": 12.9578735,
      "lon": 77.5342317,
      "tags": {
        "amenity": "bank",
        "branch": "RPC Layout Branch",
        "brand": "State Bank of India",
        "brand:wikidata": "Q1340361",
        "brand:wikipedia": "en:State Bank of India",
        "name": "State Bank of India",
        "name:kn": "ಭಾರತೀಯ ಸ್ಟೇಟ್ ಬ್ಯಾಂಕ್",
        "short_name": "SBI"
      }
    },
    {
      "type": "node",
      "id": 2914218960,
      "lat": 12.9649244,
      "lon": 77.5387391,
      "tags": {
        "addr:city": "Bangalore",
        "addr:postcode": "560040",
        "addr:street": "5th Main, Vijayanagar",
        "amenity": "cafe",
        "cuisine": "South_Indian",
        "description": "Holige, Idli, Dose available",
        "internet_access": "no",
        "name": "By-two Coffee",
        "opening_hours": "Mo-Su 09:30-21:00",
        "phone": "9844086711/9880428819",
        "smoking": "no"
      }
    },
    {
      "type": "node",
      "id": 2914260121,
      "lat": 12.9623406,
      "lon": 77.5342853,
      "tags": {
        "addr:district": "Bengaluru Urban",
        "addr:full": "No.1133/F,30 Ft.Service Road, R.P.C. Layout,Vijaynagar",
        "addr:postcode": "560040",
        "addr:state": "Karnataka",
        "amenity": "hospital",
        "healthcare": "hospital",
        "name": "Sharavathi Hospitals (P) Ltd.",
        "source": "OpenGovernmentData"
      }
    },
    {
      "type": "node",
      "id": 2914344547,
      "lat": 12.96021,
      "lon": 77.5347682,
      "tags": {
        "amenity": "library",
        "name": "Public Library",
        "name:kn": "ಸಾರ್ವಜನಿಕ ಗ್ರಂಥಾಲಯ"
      }
    },
    {
      "type": "node",
      "id": 2962224266,
      "lat": 12.965202,
      "lon": 77.5380586,
      "tags": {
        "addr:city": "Bangalore",
        "addr:postcode": "560040",
        "amenity": "kindergarten",
        "name": "Holy Saint High School"
      }
    },
    {
      "type": "node",
      "id": 3957986963,
      "lat": 12.9645889,
      "lon": 77.5307793,
      "tags": {
        "amenity": "atm",
        "branch": "Subbanna Garden ATM",
        "brand": "ICICI Bank",
        "brand:wikidata": "Q1653258",
        "name": "ICICI Bank",
        "operator": "ICICI Bank",
        "operator:wikidata": "Q1653258",
        "short_name": "ICICI"
      }
    },
    {
      "type": "node",
      "id": 3957993459,
      "lat": 12.9645916,
      "lon": 77.5308035,
      "tags": {
        "addr:city": "Bangalore",
        "addr:postcode": "560040",
        "addr:street": "Subbanna Garden Main road",
        "amenity": "dentist",
        "name": "SN Dental Avenue"
      }
    },
    {
      "type": "node",
      "id": 3957994139,
      "lat": 12.964602,
      "lon": 77.5306989,
      "tags": {
        "addr:city": "Bangalore",
        "addr:postcode": "560040",
        "addr:street": "Subbanna Garden Main road",
        "amenity": "pharmacy",
        "name": "Apollo",
        "name:kn": "ಅಪೊಲೋ",
        "operator": "Apollo"
      }
    },
    {
      "type": "node",
      "id": 4104244613,
      "lat": 12.9580745,
      "lon": 77.5341292,
      "tags": {
        "addr:city": "Bangalore",
        "addr:housenumber": "998/20",
        "addr:postcode": "560040",
        "addr:street": "Chord Road",
        "amenity": "bank",
        "atm": "yes",
        "brand": "ICICI Bank",
        "brand:wikidata": "Q1653258",
        "drive_through": "no",
        "name": "ICICI Bank",
        "name:en": "ICICI Bank",
        "name:kn": "ಐಸಿಐಸಿಐ ಬ್ಯಾಂಕು",
        "opening_hours": "8:00-20:00",
        "short_name": "ICICI",
        "website": "https://www.icicibank.com"
      }
    },
    {
      "type": "node",
      "id": 4444371825,
      "lat": 12.9682261,
      "lon": 77.5375793,
      "tags": {
        "addr:city": "Bangalore",
        "addr:housenumber": "111",
        "addr:postcode": "560040",
        "addr:street": "1st Main, Club Road, Near Food World, Hampi Nagar, RPC Layout,Vijay Nagar",
        "amenity": "restaurant",
        "cuisine": "regional",
        "name": "Nisarga restaurant",
        "opening_hours": "11:30-15:00,19:00-22:30",
        "phone": "080 23400974"
      }
    },
    {
      "type": "node",
      "id": 4446403278,
      "lat": 12.9606425,
      "lon": 77.5300492,
      "tags": {
        "addr:city": "Bangalore",
        "addr:housenumber": "109",
        "addr:postcode": "560040",
        "addr:street": "1st Main, Widia Layout, Chandra Layout, Vijay Naga",
        "amenity": "restaurant",
        "cuisine": "regional",
        "name": "Koli Mane",
        "name:kn": "ಕೋಳಿಮನೆ",
        "opening_hours": "12:00-23:00",
        "phone": "+91 7829190119"
      }
    },
    {
      "type": "node",
      "id": 4446511509,
      "lat": 12.9528642,
      "lon": 77.5289366,
      "tags": {
        "addr:city": "bangalore",
        "addr:housenumber": "427",
        "addr:postcode": "560040",
        "addr:street": "8th Main, Near Traffic Police Station, Vijay Nagar",
        "amenity": "restaurant",
        "cuisine": "regional",
        "name": "Donne biryani house",
        "opening_hours": "12:00-16:00,19:00-22:00",
        "phone": "080 68888366"
      }
    },
    {
      "type": "node",
      "id": 4447075424,
      "lat": 12.9644231,
      "lon": 77.5333324,
      "tags": {
        "addr:city": "Bangalore",
        "addr:housenumber": "3437",
        "addr:postcode": "560040",
        "addr:street": "7 Subbanna Garden Vijaynagar, Attiguppe",
        "amenity": "hospital",
        "healthcare": "hospital",
        "name": "Venkat Charmalaya",
        "phone": "+918023392788"
      }
    },
    {
      "type": "node",
      "id": 4447083784,
      "lat": 12.9621516,
      "lon": 77.533401,
      "tags": {
        "addr:city": "Bangalore",
        "addr:postcode": "560040",
        "addr:street": "Chord Road",
        "amenity": "hospital",
        "healthcare": "hospital",
        "name": "Shreya Hearing Clinic",
        "phone": "\" 080 2318 0012\""
      }
    },
    {
      "type": "node",
      "id": 4447100075,
      "lat": 12.9649703,
      "lon": 77.5389842,
      "tags": {
        "addr:city": "Bangalore",
        "addr:housenumber": "221",
        "addr:postcode": "560040",
        "addr:street": "1st Floor, Next to Sai Prasadam Hotel, 5th Main Rd, Hampi Nagar 2nd Stage, RPC Layout",
        "amenity": "hospital",
        "healthcare": "hospital",
        "name": "Blossom Infertility Center",
        "phone": "+91 99009 99116"
      }
    },
    {
      "type": "node",
      "id": 4447102993,
      "lat": 12.9683009,
      "lon": 77.5377378,
      "tags": {
        "addr:city": "Bangalore",
        "addr:postcode": "560040",
        "addr:street": "1st Main Rd, Hosahalli Extension, Vijayanagar",
        "amenity": "clinic",
        "ele": "1",
        "name": "Nirmal Skin & Hair Clinic",
        "phone": "080 2338 0138"
      }
    },
    {
      "type": "node",
      "id": 4447105332,
      "lat": 12.958321,
      "lon": 77.5350434,
      "tags": {
        "addr:city": "Bangalore",
        "addr:housenumber": "30",
        "addr:postcode": "560040",
        "addr:street": "1108/30 10Th Main 4Th Cross, Rpc Layout, Vijayanagar",
        "amenity": "hospital",
        "name": "Padmashree Nursing Home and Maternity Home",
        "phone": "080 2311 8372"
      }
    },
    {
      "type": "node",
      "id": 4447398721,
      "lat": 12.9608763,
      "lon": 77.5306651,
      "tags": {
        "addr:city": "Bangalore",
        "addr:housenumber": "20/A",
        "addr:postcode": "560040",
        "addr:street": "2nd cross near hp petrol pump, Govindaraja Nagar Ward, Widia Layout, Vijayanagar",
        "amenity": "pharmacy",
        "name": "Ritecure Pharmacy",
        "phone": "+9181518 34646",
        "source": "justdial"
      }
    },
    {
      "type": "node",
      "id": 4513110189,
      "lat": 12.9601779,
      "lon": 77.5345169,
      "tags": {
        "amenity": "library",
        "name": "RPC Layout Central Library",
        "name:en": "RPC Layout Central Library"
      }
    },
    {
      "type": "node",
      "id": 4619897393,
      "lat": 12.9582106,
      "lon": 77.5348921,
      "tags": {
        "amenity": "atm",
        "operator": "SBI E-lobby"
      }
    },
    {
      "type": "node",
      "id": 4620010489,
      "lat": 12.9582945,
      "lon": 77.5351343,
      "tags": {
        "amenity": "atm",
        "operator": "Union Bank"
      }
    },
    {
      "type": "node",
      "id": 5307972739,
      "lat": 12.9605675,
      "lon": 77.5350542,
      "tags": {
        "name": "Aravind Book Store",
        "shop": "books"
      }
    },
    {
      "type": "node",
      "id": 5307982275,
      "lat": 12.9622239,
      "lon": 77.5332587,
      "tags": {
        "amenity": "restaurant"
      }
    },
    {
      "type": "node",
      "id": 5921847685,
      "lat": 12.96482,
      "lon": 77.5352602,
      "tags": {
        "addr:housenumber": "39/2",
        "addr:postcode": "560040",
        "addr:street": "Sha Shi Marulayya Road",
        "name": "Sri Sai Telecom Carl",
        "name:en": "Sri Sai Tele communication (CarlCare Centre)",
        "opening_hours": "Mo-Sa 10:00-18:30",
        "phone": "+918048658105",
        "shop": "mobile_phone"
      }
    },
    {
      "type": "node",
      "id": 6945309984,
      "lat": 12.9601022,
      "lon": 77.5315556,
      "tags": {
        "addr:district": "Bengaluru Urban",
        "addr:full": "No.20/1, 2nd Cross, Widia Layout, Chandra Layout Main Road,Vijayanagar",
        "addr:postcode": "560040",
        "addr:state": "Karnataka",
        "amenity": "hospital",
        "healthcare": "hospital",
        "name": "A.M. Hospital",
        "source": "OpenGovernmentData"
      }
    },
    {
      "type": "node",
      "id": 7124643398,
      "lat": 12.9574282,
      "lon": 77.5342686,
      "tags": {
        "access": "customers",
        "amenity": "toilets",
        "fee": "yes"
      }
    },
    {
      "type": "node",
      "id": 7139631471,
      "lat": 12.9623357,
      "lon": 77.5336571,
      "tags": {
        "access": "yes",
        "amenity": "motorcycle_parking",
        "name": "Metro Parking",
        "parking": "surface"
      }
    },
    {
      "type": "node",
      "id": 7139631475,
      "lat": 12.9553122,
      "lon": 77.5345114,
      "tags": {
        "male": "yes",
        "name": "Baba Gents Parlour and Spa",
        "shop": "hairdresser"
      }
    },
    {
      "type": "node",
      "id": 7164440799,
      "lat": 12.9554357,
      "lon": 77.534498,
      "tags": {
        "name": "Reality Sofa Center",
        "shop": "furniture"
      }
    },
    {
      "type": "node",
      "id": 7164457816,
      "lat": 12.9600943,
      "lon": 77.5322543,
      "tags": {
        "brand": "Liberty",
        "brand:wikidata": "Q6541947",
        "name": "Liberty Exclusive Showroom",
        "shop": "shoes"
      }
    },
    {
      "type": "node",
      "id": 7236398085,
      "lat": 12.9645783,
      "lon": 77.5329264,
      "tags": {
        "amenity": "car_wash",
        "name": "Maruthi Water Service"
      }
    },
    {
      "type": "node",
      "id": 9654236896,
      "lat": 12.965918,
      "lon": 77.5355695,
      "tags": {
        "name": "Nandini Milk Parlour",
        "shop": "dairy"
      }
    },
    {
      "type": "node",
      "id": 11898536494,
      "lat": 12.9671277,
      "lon": 77.5363679,
      "tags": {
        "amenity": "clinic",
        "check_date": "2024-05-12",
        "healthcare": "clinic",
        "healthcare:speciality": "orthopaedics;cardiology;general",
        "name": "Temple Health Clinic",
        "operator:type": "private",
        "phone": "+91 96325 87814"
      }
    },
    {
      "type": "node",
      "id": 11904000038,
      "lat": 12.9612426,
      "lon": 77.5346527,
      "tags": {
        "check_date": "2024-05-14",
        "leisure": "sports_centre",
        "name": "VFive",
        "operator:type": "private",
        "sport": "fitness;badminton"
      }
    },
    {
      "type": "node",
      "id": 11904013614,
      "lat": 12.9598176,
      "lon": 77.5335655,
      "tags": {
        "amenity": "clinic",
        "check_date": "2024-05-14",
        "healthcare": "clinic",
        "name": "Keshava Polyclinic"
      }
    },
    {
      "type": "node",
      "id": 11904038969,
      "lat": 12.9604833,
      "lon": 77.5352336,
      "tags": {
        "check_date": "2024-05-14",
        "name": "Midas Touch Saloon",
        "shop": "beauty"
      }
    },
    {
      "type": "node",
      "id": 11904046645,
      "lat": 12.95979,
      "lon": 77.5339559,
      "tags": {
        "check_date": "2024-05-14",
        "name": "The Fresh Greens",
        "shop": "convenience"
      }
    },
    {
      "type": "node",
      "id": 11904046646,
      "lat": 12.9597543,
      "lon": 77.533889,
      "tags": {
        "check_date": "2024-05-14",
        "name": "Marudhar Furnishing",
        "shop": "furniture"
      }
    },
    {
      "type": "node",
      "id": 11904046647,
      "lat": 12.9597969,
      "lon": 77.533492,
      "tags": {
        "amenity": "ice_cream",
        "check_date": "2024-05-14",
        "name": "Evergreen Nest"
      }
    },
    {
      "type": "node",
      "id": 11904051493,
      "lat": 12.9601479,
      "lon": 77.5334384,
      "tags": {
        "amenity": "bank",
        "brand": "Punjab National Bank",
        "brand:wikidata": "Q2743499",
        "check_date": "2024-05-14",
        "name": "Punjab National Bank"
      }
    },
    {
      "type": "node",
      "id": 11904060987,
      "lat": 12.9598893,
      "lon": 77.5337545,
      "tags": {
        "amenity": "events_venue",
        "check_date": "2024-05-14",
        "name": "Rajathashree Party Hall"
      }
    },
    {
      "type": "node",
      "id": 11906901465,
      "lat": 12.9552827,
      "lon": 77.5325885,
      "tags": {
        "access": "yes",
        "amenity": "drinking_water",
        "operator": "Water ATM",
        "payment:cash": "yes"
      }
    },
    {
      "type": "node",
      "id": 11919708357,
      "lat": 12.954989,
      "lon": 77.5337359,
      "tags": {
        "check_date": "2024-05-20",
        "name": "Sri Dhanvantri Medicals",
        "shop": "medical_supply"
      }
    },
    {
      "type": "node",
      "id": 11919737248,
      "lat": 12.9551368,
      "lon": 77.5334141,
      "tags": {
        "check_date": "2024-05-20",
        "name": "Sri Sai Designer Boutique",
        "shop": "clothes"
      }
    },
    {
      "type": "node",
      "id": 11919742133,
      "lat": 12.9557425,
      "lon": 77.5344068,
      "tags": {
        "check_date": "2024-05-20",
        "name": "Atharv",
        "shop": "houseware"
      }
    },
    {
      "type": "node",
      "id": 11919757872,
      "lat": 12.9550933,
      "lon": 77.5339403,
      "tags": {
        "check_date": "2024-05-20",
        "name": "Nandini",
        "shop": "dairy"
      }
    },
    {
      "type": "node",
      "id": 11919758629,
      "lat": 12.9552579,
      "lon": 77.5340247,
      "tags": {
        "check_date": "2024-05-20",
        "name": "Infinity Beauty Salon",
        "shop": "beauty"
      }
    },
    {
      "type": "node",
      "id": 11919761711,
      "lat": 12.9546587,
      "lon": 77.5348029,
      "tags": {
        "amenity": "fixme",
        "check_date": "2024-05-20",
        "fixme": "type",
        "fixme:type": "courier",
        "name": "Courier"
      }
    },
    {
      "type": "node",
      "id": 11919762591,
      "lat": 12.9561938,
      "lon": 77.534029,
      "tags": {
        "check_date": "2024-05-20",
        "name": "Rachana Stationary",
        "shop": "stationery"
      }
    },
    {
      "type": "node",
      "id": 11919763205,
      "lat": 12.9559069,
      "lon": 77.5344105,
      "tags": {
        "check_date": "2024-05-20",
        "name": "MC Mariyappa & Sons",
        "phone": "+91 99007 25591",
        "shop": "bathroom_furnishing"
      }
    },
    {
      "type": "node",
      "id": 11919763953,
      "lat": 12.9548371,
      "lon": 77.5346246,
      "tags": {
        "check_date": "2024-05-20",
        "name": "J24 Essentials",
        "phone": "+91 74119 62517",
        "shop": "convenience"
      }
    },
    {
      "type": "node",
      "id": 11919877826,
      "lat": 12.9678746,
      "lon": 77.53859,
      "tags": {
        "check_date": "2024-05-20",
        "clothes": "men;children;women",
        "name": "Desi Store",
        "shop": "clothes"
      }
    },
    {
      "type": "node",
      "id": 11922136038,
      "lat": 12.9655044,
      "lon": 77.5367666,
      "tags": {
        "amenity": "atm",
        "brand": "ICICI Bank",
        "brand:wikidata": "Q1653258",
        "check_date": "2024-05-21",
        "operator": "ICICI Bank",
        "operator:wikidata": "Q1653258",
        "short_name": "ICICI"
      }
    },
    {
      "type": "node",
      "id": 11922136039,
      "lat": 12.9655423,
      "lon": 77.5366178,
      "tags": {
        "amenity": "atm",
        "brand": "Kotak Mahindra Bank",
        "brand:wikidata": "Q2040404",
        "check_date": "2024-05-21",
        "operator": "Kotak Mahindra Bank",
        "operator:wikidata": "Q2040404"
      }
    },
    {
      "type": "node",
      "id": 11922152406,
      "lat": 12.9654054,
      "lon": 77.5369897,
      "tags": {
        "check_date": "2024-05-21",
        "name": "Nivvi's Pets",
        "shop": "pet"
      }
    },
    {
      "type": "node",
      "id": 11922182881,
      "lat": 12.9653192,
      "lon": 77.5372327,
      "tags": {
        "addr:floor": "1",
        "check_date": "2024-05-21",
        "level": "1",
        "name": "Decorland",
        "shop": "flooring"
      }
    },
    {
      "type": "node",
      "id": 11922182882,
      "lat": 12.9652902,
      "lon": 77.5372027,
      "tags": {
        "addr:floor": "G",
        "check_date": "2024-05-21",
        "level": "0",
        "name": "Preity's Silks",
        "shop": "clothes"
      }
    },
    {
      "type": "node",
      "id": 11922186732,
      "lat": 12.9653758,
      "lon": 77.5371458,
      "tags": {
        "amenity": "fixme",
        "check_date": "2024-05-21",
        "fixme": "type",
        "fixme:type": "courier",
        "name": "SME Express"
      }
    },
    {
      "type": "node",
      "id": 11922188745,
      "lat": 12.9654322,
      "lon": 77.5368748,
      "tags": {
        "check_date": "2024-05-21",
        "name": "Impana Images",
        "shop": "photo"
      }
    },
    {
      "type": "node",
      "id": 11922189794,
      "lat": 12.9654,
      "lon": 77.5370654,
      "tags": {
        "check_date": "2024-05-21",
        "name": "Oxford Saloon",
        "shop": "hairdresser"
      }
    },
    {
      "type": "node",
      "id": 11922194550,
      "lat": 12.9652737,
      "lon": 77.5373512,
      "tags": {
        "check_date": "2024-05-21",
        "name": "Belli Jewellers",
        "shop": "jewelry"
      }
    },
    {
      "type": "node",
      "id": 11922199835,
      "lat": 12.9652886,
      "lon": 77.537287,
      "tags": {
        "check_date": "2024-05-21",
        "name": "Praveen Jewellers",
        "shop": "jewelry"
      }
    },
    {
      "type": "node",
      "id": 11922269793,
      "lat": 12.9654241,
      "lon": 77.5378299,
      "tags": {
        "check_date": "2024-05-21",
        "name": "Shivani Organics",
        "organic": "only",
        "shop": "supermarket"
      }
    },
    {
      "type": "node",
      "id": 11922269795,
      "lat": 12.9653425,
      "lon": 77.538099,
      "tags": {
        "check_date": "2024-05-21",
        "name": "Life Care Medicals",
        "shop": "medical_supply"
      }
    },
    {
      "type": "node",
      "id": 11922269796,
      "lat": 12.9652928,
      "lon": 77.5383608,
      "tags": {
        "addr:floor": "1",
        "check_date": "2024-05-21",
        "level": "1",
        "name": "Cut 'N' Style",
        "shop": "hairdresser"
      }
    },
    {
      "type": "node",
      "id": 11922269797,
      "lat": 12.9653744,
      "lon": 77.5383779,
      "tags": {
        "check_date": "2024-05-21",
        "name": "Rajajinagar Bakery",
        "shop": "bakery"
      }
    },
    {
      "type": "node",
      "id": 11922269798,
      "lat": 12.9654818,
      "lon": 77.5383935,
      "tags": {
        "check_date": "2024-05-21",
        "name": "Sri Balaji General Store & Stationery",
        "shop": "stationery"
      }
    },
    {
      "type": "node",
      "id": 11922269799,
      "lat": 12.9650601,
      "lon": 77.5389467,
      "tags": {
        "amenity": "clinic",
        "check_date": "2024-05-21",
        "healthcare": "clinic",
        "healthcare:speciality": "orthopaedics",
        "name": "Prasad Ortho Care",
        "phone": "+91 96636 11405"
      }
    },
    {
      "type": "node",
      "id": 11922269800,
      "lat": 12.9650636,
      "lon": 77.5388749,
      "tags": {
        "check_date": "2024-05-21",
        "name": "Rishabh Jewels And Diamonds",
        "shop": "jewelry"
      }
    },
    {
      "type": "node",
      "id": 11922269801,
      "lat": 12.9649164,
      "lon": 77.5392244,
      "tags": {
        "amenity": "clinic",
        "check_date": "2024-05-21",
        "healthcare": "clinic",
        "healthcare:speciality": "diabetology;paediatrics;gynaecology",
        "name": "Avikova Clinics"
      }
    },
    {
      "type": "node",
      "id": 11930674589,
      "lat": 12.9639892,
      "lon": 77.5348786,
      "tags": {
        "amenity": "pharmacy",
        "brand": "MedPlus",
        "brand:wikidata": "Q65684234",
        "check_date": "2024-05-24",
        "healthcare": "pharmacy",
        "name": "MedPlus"
      }
    },
    {
      "type": "node",
      "id": 11930674590,
      "lat": 12.9632858,
      "lon": 77.5346055,
      "tags": {
        "check_date": "2024-05-24",
        "name": "Maruti Medicals",
        "shop": "medical_supply"
      }
    },
    {
      "type": "node",
      "id": 11934957072,
      "lat": 12.9581229,
      "lon": 77.534236,
      "tags": {
        "check_date": "2024-05-26",
        "name": "Vishal Mega Mart",
        "shop": "supermarket"
      }
    },
    {
      "type": "node",
      "id": 12054475567,
      "lat": 12.9511593,
      "lon": 77.529216,
      "tags": {
        "amenity": "dentist",
        "check_date": "2024-07-15",
        "healthcare": "dentist",
        "name": "Sai Suraksha Dental Clinic"
      }
    },
    {
      "type": "node",
      "id": 12081392350,
      "lat": 12.9600737,
      "lon": 77.532163,
      "tags": {
        "addr:floor": "G",
        "brand": "Nandini",
        "brand:wikidata": "Q124374212",
        "check_date": "2024-07-29",
        "level": "0",
        "name": "Nandini",
        "name:en": "Nandini",
        "shop": "dairy"
      }
    },
    {
      "type": "node",
      "id": 12438126006,
      "lat": 12.9598638,
      "lon": 77.5334473,
      "tags": {
        "check_date": "2024-05-14",
        "name": "Prabhu Technologies",
        "shop": "computer"
      }
    },
    {
      "type": "node",
      "id": 12438126007,
      "lat": 12.9607659,
      "lon": 77.5335532,
      "tags": {
        "amenity": "cafe",
        "check_date": "2024-05-14",
        "name": "Kuppu's Kafe"
      }
    },
    {
      "type": "way",
      "id": 54148010,
      "center": {
        "lat": 12.9646952,
        "lon": 77.5365751
      },
      "tags": {
        "leisure": "park"
      }
    },
    {
      "type": "way",
      "id": 169806414,
      "center": {
        "lat": 12.9639081,
        "lon": 77.5305351
      },
      "tags": {
        "amenity": "place_of_worship",
        "building": "yes",
        "name": "Shri Kailaseshwara Temple",
        "name:kn": "ಶ್ರೀ ಕೈಲಾಸೇಶ್ವರ ದೇವಸ್ಥಾನ",
        "religion": "hindu"
      }
    },
    {
      "type": "way",
      "id": 169806840,
      "center": {
        "lat": 12.9550848,
        "lon": 77.5323257
      },
      "tags": {
        "amenity": "school",
        "name": "Government High School and PU College",
        "name:kn": "ಪದವಿ ಪೂರ್ವ ಕಾಲೇಜು"
      }
    },
    {
      "type": "way",
      "id": 363140785,
      "center": {
        "lat": 12.9528817,
        "lon": 77.5295238
      },
      "tags": {
        "leisure": "park"
      }
    },
    {
      "type": "way",
      "id": 849531366,
      "center": {
        "lat": 12.9530609,
        "lon": 77.5315475
      },
      "tags": {
        "leisure": "garden"
      }
    },
    {
      "type": "way",
      "id": 1050580095,
      "center": {
        "lat": 12.9569959,
        "lon": 77.5344182
      },
      "tags": {
        "leisure": "park"
      }
    },
    {
      "type": "way",
      "id": 1084363612,
      "center": {
        "lat": 12.9515474,
        "lon": 77.5282461
      },
      "tags": {
        "amenity": "school"
      }
    },
    {
      "type": "way",
      "id": 1257058561,
      "center": {
        "lat": 12.9619005,
        "lon": 77.5333452
      },
      "tags": {
        "amenity": "place_of_worship",
        "building": "temple",
        "religion": "hindu"
      }
    },
    {
      "type": "way",
      "id": 1343761959,
      "center": {
        "lat": 12.967483,
        "lon": 77.53726
      },
      "tags": {
        "leisure": "park"
      }
    }
  ]
}