{
  "area_name": "Hanumanthanagar",
  "osm_id": 565301088,
  "osm_type": "node",
  "place_type": "neighbourhood",
  "amenity_count": 19,
  "amenities": [
    {
      "type": "node",
      "id": 7810750285,
      "lat": 13.0685996,
      "lon": 77.6663343,
      "tags": {
        "amenity": "place_of_worship",
        "name": "Philadelphia AG Church",
        "religion": "christian"
      }
    },
    {
      "type": "node",
      "id": 8292584420,
      "lat": 13.0618398,
      "lon": 77.6668945,
      "tags": {
        "addr:city": "Bengaluru",
        "addr:country": "IN",
        "addr:hamlet": "Hanumanth Nagar",
        "addr:housenumber": "33/1",
        "addr:postcode": "560077",
        "addr:street": "Ellu's Road",
        "addr:suburb": "Kothanur",
        "name": "One Field Farmer's Market",
        "opening_hours": "Mo-Sa 08:00-20:00",
        "organic": "yes",
        "shop": "greengrocer",
        "website": "https://onefield.in/"
      }
    },
    {
      "type": "way",
      "id": 35911235,
      "center": {
        "lat": 13.063974,
        "lon": 77.6693003
      },
      "tags": {
        "amenity": "college",
        "name": "Shri Vidya Niketan School and College"
      }
    },
    {
      "type": "way",
      "id": 774643981,
      "center": {
        "lat": 13.0617647,
        "lon": 77.6613042
      },
      "tags": {
        "leisure": "garden"
      }
    },
    {
      "type": "way",
      "id": 774643984,
      "center": {
        "lat": 13.0609573,
        "lon": 77.6598992
      },
      "tags": {
        "leisure": "garden"
      }
    },
    {
      "type": "way",
      "id": 837164865,
      "center": {
        "lat": 13.0686046,
        "lon": 77.6663332
      },
      "tags": {
        "amenity": "place_of_worship",
        "building": "yes",
        "religion": "christian"
      }
    },
    {
      "type": "way",
      "id": 838541425,
      "center": {
        "lat": 13.0669619,
        "lon": 77.6646275
      },
      "tags": {
        "addr:city": "Bengaluru",
        "addr:housenumber": "#14, P26",
        "addr:postcode": "560077",
        "addr:street": "Dodda Gubbi Road",
        "amenity": "school",
        "building": "yes",
        "name": "Brighton School"
      }
    },
    {
      "type": "way",
      "id": 1050475641,
      "center": {
        "lat": 13.0553848,
        "lon": 77.667148
      },
      "tags": {
        "access": "private",
        "leisure": "swimming_pool"
      }
    },
    {
      "type": "way",
      "id": 1279250173,
      "center": {
        "lat": 13.0621111,
        "lon": 77.6618452
      },
      "tags": {
        "access": "private",
        "leisure": "swimming_pool"
      }
    },
    {
      "type": "way",
      "id": 1279250174,
      "center": {
        "lat": 13.0612035,
        "lon": 77.6600284
      },
      "tags": {
        "access": "permissive",
        "amenity": "parking",
        "parking": "surface"
      }
    },
    {
      "type": "way",
      "id": 1279250175,
      "center": {
        "lat": 13.0609601,
        "lon": 77.6605734
      },
      "tags": {
        "access": "permissive",
        "amenity": "parking",
        "parking": "surface"
      }
    },
    {
      "type": "way",
      "id": 1279250179,
      "center": {
        "lat": 13.0626047,
        "lon": 77.6631213
      },
      "tags": {
        "leisure": "park"
      }
    },
    {
      "type": "way",
      "id": 1337316832,
      "center": {
        "lat": 13.0594856,
        "lon": 77.6685655
      },
      "tags": {
        "leisure": "park"
      }
    },
    {
      "type": "way",
      "id": 1337316885,
      "center": {
        "lat": 13.0647613,
        "lon": 77.6715449
      },
      "tags": {
        "access": "private",
        "leisure": "swimming_pool"
      }
    },
    {
      "type": "way",
      "id": 1353180293,
      "center": {
        "lat": 13.0683339,
        "lon": 77.6656368
      },
      "tags": {
        "amenity": "place_of_worship",
        "name": "Malankara Orthodox Diocesian Centre",
        "name:en": "Malankara Orthodox Syrian Church - Bangalore Diocesan Centre",
        "religion": "christian"
      }
    },
    {
      "type": "way",
      "id": 1382606114,
      "center": {
        "lat": 13.0646603,
        "lon": 77.6712312
      },
      "tags": {
        "leisure": "resort",
        "name": "Bits Club"
      }
    },
    {
      "type": "way",
      "id": 1414809359,
      "center": {
        "lat": 13.0553727,
        "lon": 77.6731915
      },
      "tags": {
        "leisure": "pitch",
        "sport": "tennis"
      }
    },
    {
      "type": "way",
      "id": 1419157185,
      "center": {
        "lat": 13.0553541,
        "lon": 77.6636654
      },
      "tags": {
        "amenity": "fuel"
      }
    },
    {
      "type": "way",
      "id": 1419165096,
      "center": {
        "lat": 13.0547394,
        "lon": 77.6696213
      },
      "tags": {
        "access": "private",
        "leisure": "swimming_pool"
      }
    }
  ]
}