{
  "area_name": "Haralur",
  "osm_id": 10220948588,
  "osm_type": "node",
  "place_type": "suburb",
  "amenity_count": 98,
  "amenities": [
    {
      "type": "node",
      "id": 4440946384,
      "lat": 12.9041502,
      "lon": 77.6741043,
      "tags": {
        "addr:city": "Bangalore",
        "addr:housenumber": "9 IAS layout",
        "addr:postcode": "560035",
        "addr:street": "Lake Shore HomesRoad, Amrita college road, off sarjapur road, Kasavanahalli",
        "amenity": "hospital",
        "healthcare": "hospital",
        "name": "Raksha Orthopaedic And Multi Speciality Centre",
        "phone": "+91-74115 27777"
      }
    },
    {
      "type": "node",
      "id": 4470676091,
      "lat": 12.910423,
      "lon": 77.6703983,
      "tags": {
        "leisure": "garden",
        "name": "Kaikondrahalli Butterfly Garden",
        "name:en": "Kaikondrahalli Butterfly Garden"
      }
    },
    {
      "type": "node",
      "id": 4470703091,
      "lat": 12.911639,
      "lon": 77.669657,
      "tags": {
        "amenity": "theatre",
        "name": "Amphitheatre",
        "name:en": "Amphitheatre"
      }
    },
    {
      "type": "node",
      "id": 4470703092,
      "lat": 12.9118035,
      "lon": 77.6698033,
      "tags": {
        "amenity": "toilets"
      }
    },
    {
      "type": "node",
      "id": 6749776309,
      "lat": 12.9028489,
      "lon": 77.6694198,
      "tags": {
        "access": "private",
        "amenity": "parking_entrance",
        "parking": "underground"
      }
    },
    {
      "type": "node",
      "id": 7298370297,
      "lat": 12.9080765,
      "lon": 77.6635364,
      "tags": {
        "name": "Hasiru",
        "shop": "greengrocer"
      }
    },
    {
      "type": "node",
      "id": 7298370298,
      "lat": 12.9081445,
      "lon": 77.6633996,
      "tags": {
        "brand": "Nilgiri's",
        "brand:wikidata": "Q17079567",
        "name": "Nilgiri's",
        "shop": "supermarket"
      }
    },
    {
      "type": "node",
      "id": 7298370324,
      "lat": 12.9107812,
      "lon": 77.6635605,
      "tags": {
        "amenity": "clinic",
        "healthcare": "clinic",
        "name": "Aria Clinic"
      }
    },
    {
      "type": "node",
      "id": 7298370325,
      "lat": 12.9106949,
      "lon": 77.6634425,
      "tags": {
        "amenity": "pharmacy",
        "healthcare": "pharmacy",
        "name": "Aria Pharma"
      }
    },
    {
      "type": "node",
      "id": 8293160652,
      "lat": 12.9036054,
      "lon": 77.6638956,
      "tags": {
        "amenity": "parking_entrance",
        "parking": "underground"
      }
    },
    {
      "type": "node",
      "id": 8293160689,
      "lat": 12.9040784,
      "lon": 77.6651169,
      "tags": {
        "amenity": "parking_entrance",
        "parking": "underground"
      }
    },
    {
      "type": "node",
      "id": 8293160690,
      "lat": 12.9033097,
      "lon": 77.6649412,
      "tags": {
        "amenity": "parking_entrance",
        "parking": "underground"
      }
    },
    {
      "type": "node",
      "id": 8439438617,
      "lat": 12.8987996,
      "lon": 77.6584097,
      "tags": {
        "addr:postcode": "560102",
        "addr:street": "Haralur Road",
        "air_conditioning": "yes",
        "amenity": "fast_food",
        "brand": "Domino's",
        "brand:wikidata": "Q839466",
        "brand:wikipedia": "en:Domino's Pizza",
        "cuisine": "pizza",
        "diet:vegetarian": "yes",
        "indoor_seating": "yes",
        "name": "Domino's",
        "name:en": "Domino's Pizza",
        "name:hi": "डोमिनोज़ पिज़्ज़ा",
        "name:kn": "ಡಾಮಿನೋಸ್",
        "opening_hours": "Mo-Su 10:00-23:00",
        "outdoor_seating": "no",
        "smoking": "no",
        "takeaway": "yes",
        "website": "https://www.dominos.co.in/"
      }
    },
    {
      "type": "node",
      "id": 9830902358,
      "lat": 12.9094795,
      "lon": 77.663988,
      "tags": {
        "name": "Kadence Xperience",
        "shop": "musical_instrument",
        "wheelchair": "no"
      }
    },
    {
      "type": "node",
      "id": 9830902367,
      "lat": 12.9131204,
      "lon": 77.6662403,
      "tags": {
        "amenity": "ice_cream",
        "brand": "Baskin-Robbins",
        "brand:wikidata": "Q584601",
        "cuisine": "ice_cream",
        "name": "Baskin-Robbins",
        "name:kn": "ಬಸ್ಕಿನ್ ರಾಬಿನ್ಸ್"
      }
    },
    {
      "type": "node",
      "id": 9830902368,
      "lat": 12.9130791,
      "lon": 77.6662145,
      "tags": {
        "amenity": "cafe",
        "brand": "Cafe Coffee Day",
        "brand:wikidata": "Q5017235",
        "cuisine": "coffee_shop",
        "name": "Cafe Coffee Day",
        "name:kn": "ಕಫೆ ಕಾಫಿ ಡೇ",
        "takeaway": "yes"
      }
    },
    {
      "type": "node",
      "id": 10006378715,
      "lat": 12.9063129,
      "lon": 77.6715473,
      "tags": {
        "amenity": "parking_entrance"
      }
    },
    {
      "type": "node",
      "id": 10174066604,
      "lat": 12.9134203,
      "lon": 77.6665425,
      "tags": {
        "amenity": "childcare",
        "check_date": "2025-02-09",
        "name": "Klay Daycare"
      }
    },
    {
      "type": "node",
      "id": 10174066605,
      "lat": 12.9131646,
      "lon": 77.6662853,
      "tags": {
        "amenity": "pharmacy",
        "dispensing": "yes",
        "healthcare": "pharmacy",
        "name": "Frank Ross"
      }
    },
    {
      "type": "node",
      "id": 10963251389,
      "lat": 12.9094156,
      "lon": 77.663997,
      "tags": {
        "addr:city": "Bengaluru",
        "addr:postcode": "560102",
        "addr:street": "HARLUR MAIN ROAD ,OPP.OZONE EVERGREEN SOCIETY GATE 1",
        "amenity": "hospital",
        "emergency": "yes",
        "healthcare": "hospital",
        "healthcare:speciality": "dentist",
        "name": "The Local Dentist",
        "operator": "DENTAL CLINIC",
        "operator:type": "business"
      }
    },
    {
      "type": "node",
      "id": 11016534412,
      "lat": 12.9077084,
      "lon": 77.6721872,
      "tags": {
        "amenity": "parking_entrance"
      }
    },
    {
      "type": "node",
      "id": 11016534522,
      "lat": 12.9096537,
      "lon": 77.6688047,
      "tags": {
        "access": "private",
        "amenity": "parking_entrance",
        "parking": "underground"
      }
    },
    {
      "type": "node",
      "id": 12580943041,
      "lat": 12.9007752,
      "lon": 77.6598469,
      "tags": {
        "amenity": "atm",
        "brand": "Canara Bank",
        "brand:en": "Canara Bank",
        "brand:hi": "केनरा बैंक",
        "brand:kn": "ಕೆನರಾ ಬ್ಯಾಂಕ್",
        "brand:pa": "ਕੇਨਰਾ ਬੈਂਕ",
        "brand:pnb": "کینرا بینک",
        "brand:ur": "کینرا بینک",
        "brand:wikidata": "Q2003777",
        "check_date": "2025-02-12",
        "name:en": "Canara Bank",
        "name:hi": "केनरा बैंक",
        "name:kn": "ಕೆನರಾ ಬ್ಯಾಂಕ್",
        "name:pa": "ਕੇਨਰਾ ਬੈਂਕ",
        "name:pnb": "کینرا بینک",
        "name:ur": "کینرا بینک",
        "opening_hours": "24/7",
        "operator": "Canara Bank",
        "operator:wikidata": "Q2003777",
        "source": "survey"
      }
    },
    {
      "type": "node",
      "id": 12580943042,
      "lat": 12.9130823,
      "lon": 77.6653081,
      "tags": {
        "brand": "Shell",
        "brand:wikidata": "Q110716465",
        "check_date": "2025-02-12",
        "name": "Shell",
        "payment:cash": "yes",
        "payment:mastercard": "yes",
        "payment:visa": "yes",
        "shop": "convenience",
        "source": "survey"
      }
    },
    {
      "type": "node",
      "id": 13140374195,
      "lat": 12.9036692,
      "lon": 77.6704276,
      "tags": {
        "access": "private",
        "amenity": "parking_entrance",
        "parking": "underground"
      }
    },
    {
      "type": "node",
      "id": 13140521711,
      "lat": 12.9095288,
      "lon": 77.6674081,
      "tags": {
        "access": "private",
        "amenity": "parking_entrance",
        "parking": "underground"
      }
    },
    {
      "type": "way",
      "id": 24355353,
      "center": {
        "lat": 12.9118811,
        "lon": 77.6644062
      },
      "tags": {
        "amenity": "school",
        "name": "Kidzee Play School"
      }
    },
    {
      "type": "way",
      "id": 24365167,
      "center": {
        "lat": 12.9015628,
        "lon": 77.6605259
      },
      "tags": {
        "amenity": "clinic",
        "healthcare": "clinic",
        "name": "Sri Lakshmi Clinic",
        "name:kn": "ಶ್ರೀ ಲಕ್ಷ್ಮಿ ಆರೋಗ್ಯ ಕೇಂದ್ರ"
      }
    },
    {
      "type": "way",
      "id": 24365350,
      "center": {
        "lat": 12.9011202,
        "lon": 77.6603117
      },
      "tags": {
        "amenity": "place_of_worship",
        "check_date": "2025-02-12",
        "created_by": "JOSM",
        "religion": "hindu",
        "source": "survey"
      }
    },
    {
      "type": "way",
      "id": 24365351,
      "center": {
        "lat": 12.8997336,
        "lon": 77.6591542
      },
      "tags": {
        "created_by": "JOSM",
        "name": "Grandway Stop & Shop",
        "shop": "convenience"
      }
    },
    {
      "type": "way",
      "id": 583256404,
      "center": {
        "lat": 12.9012242,
        "lon": 77.6643306
      },
      "tags": {
        "leisure": "park"
      }
    },
    {
      "type": "way",
      "id": 583256406,
      "center": {
        "lat": 12.9010679,
        "lon": 77.6662731
      },
      "tags": {
        "leisure": "park"
      }
    },
    {
      "type": "way",
      "id": 583256408,
      "center": {
        "lat": 12.9021705,
        "lon": 77.6645535
      },
      "tags": {
        "leisure": "park"
      }
    },
    {
      "type": "way",
      "id": 583256410,
      "center": {
        "lat": 12.902174,
        "lon": 77.6640182
      },
      "tags": {
        "leisure": "park"
      }
    },
    {
      "type": "way",
      "id": 610094122,
      "center": {
        "lat": 12.9133958,
        "lon": 77.6727771
      },
      "tags": {
        "leisure": "park",
        "name": "Kaikondrahalli Lake Park",
        "name:kn": "ಕೈಕೊಂಡ್ರಹಳ್ಳಿ ಕೆರೆ",
        "opening_hours": "Mo-Su 5:30-10:00,16:00-18:30"
      }
    },
    {
      "type": "way",
      "id": 781696175,
      "center": {
        "lat": 12.8996736,
        "lon": 77.6678737
      },
      "tags": {
        "amenity": "parking",
        "parking": "surface"
      }
    },
    {
      "type": "way",
      "id": 781700159,
      "center": {
        "lat": 12.907817,
        "lon": 77.663132
      },
      "tags": {
        "leisure": "park"
      }
    },
    {
      "type": "way",
      "id": 781700160,
      "center": {
        "lat": 12.9088419,
        "lon": 77.6636731
      },
      "tags": {
        "access": "permissive",
        "amenity": "parking",
        "parking": "surface"
      }
    },
    {
      "type": "way",
      "id": 892243891,
      "center": {
        "lat": 12.9043343,
        "lon": 77.6644346
      },
      "tags": {
        "access": "permissive",
        "amenity": "parking"
      }
    },
    {
      "type": "way",
      "id": 892243894,
      "center": {
        "lat": 12.9037633,
        "lon": 77.6639809
      },
      "tags": {
        "leisure": "garden"
      }
    },
    {
      "type": "way",
      "id": 892243895,
      "center": {
        "lat": 12.903875,
        "lon": 77.6637439
      },
      "tags": {
        "leisure": "garden"
      }
    },
    {
      "type": "way",
      "id": 892243896,
      "center": {
        "lat": 12.9042458,
        "lon": 77.6636031
      },
      "tags": {
        "leisure": "pitch",
        "sport": "basketball"
      }
    },
    {
      "type": "way",
      "id": 892243897,
      "center": {
        "lat": 12.9039833,
        "lon": 77.6634981
      },
      "tags": {
        "leisure": "garden"
      }
    },
    {
      "type": "way",
      "id": 892243898,
      "center": {
        "lat": 12.9039457,
        "lon": 77.6643788
      },
      "tags": {
        "leisure": "playground"
      }
    },
    {
      "type": "way",
      "id": 892243899,
      "center": {
        "lat": 12.9036628,
        "lon": 77.6642699
      },
      "tags": {
        "leisure": "playground"
      }
    },
    {
      "type": "way",
      "id": 892243900,
      "center": {
        "lat": 12.904145,
        "lon": 77.6633719
      },
      "tags": {
        "access": "permissive",
        "amenity": "parking"
      }
    },
    {
      "type": "way",
      "id": 892243902,
      "center": {
        "lat": 12.9038509,
        "lon": 77.6646139
      },
      "tags": {
        "access": "private",
        "leisure": "swimming_pool"
      }
    },
    {
      "type": "way",
      "id": 892243907,
      "center": {
        "lat": 12.9035225,
        "lon": 77.6651836
      },
      "tags": {
        "leisure": "garden"
      }
    },
    {
      "type": "way",
      "id": 892243908,
      "center": {
        "lat": 12.904008,
        "lon": 77.6652186
      },
      "tags": {
        "leisure": "garden"
      }
    },
    {
      "type": "way",
      "id": 892243909,
      "center": {
        "lat": 12.9038112,
        "lon": 77.6652296
      },
      "tags": {
        "leisure": "playground"
      }
    },
    {
      "type": "way",
      "id": 892243910,
      "center": {
        "lat": 12.9032857,
        "lon": 77.6651141
      },
      "tags": {
        "leisure": "pitch",
        "sport": "basketball"
      }
    },
    {
      "type": "way",
      "id": 892243913,
      "center": {
        "lat": 12.9047941,
        "lon": 77.6639045
      },
      "tags": {
        "leisure": "park"
      }
    },
    {
      "type": "way",
      "id": 892243915,
      "center": {
        "lat": 12.9026038,
        "lon": 77.6621282
      },
      "tags": {
        "leisure": "park"
      }
    },
    {
      "type": "way",
      "id": 892243916,
      "center": {
        "lat": 12.9018937,
        "lon": 77.6652141
      },
      "tags": {
        "leisure": "pitch",
        "sport": "tennis",
        "surface": "artificial_turf"
      }
    },
    {
      "type": "way",
      "id": 892243917,
      "center": {
        "lat": 12.9018821,
        "lon": 77.6653752
      },
      "tags": {
        "leisure": "pitch",
        "sport": "tennis",
        "surface": "artificial_turf"
      }
    },
    {
      "type": "way",
      "id": 892243918,
      "center": {
        "lat": 12.9009155,
        "lon": 77.665136
      },
      "tags": {
        "leisure": "pitch",
        "sport": "soccer"
      }
    },
    {
      "type": "way",
      "id": 892243919,
      "center": {
        "lat": 12.9021711,
        "lon": 77.6632212
      },
      "tags": {
        "leisure": "garden"
      }
    },
    {
      "type": "way",
      "id": 892243920,
      "center": {
        "lat": 12.903718,
        "lon": 77.665559
      },
      "tags": {
        "amenity": "school"
      }
    },
    {
      "type": "way",
      "id": 892243921,
      "center": {
        "lat": 12.9035909,
        "lon": 77.6645158
      },
      "tags": {
        "access": "private",
        "leisure": "swimming_pool"
      }
    },
    {
      "type": "way",
      "id": 1186050624,
      "center": {
        "lat": 12.9087564,
        "lon": 77.6703466
      },
      "tags": {
        "access": "private",
        "leisure": "swimming_pool",
        "location": "outdoor",
        "swimming_pool": "outdoor"
      }
    },
    {
      "type": "way",
      "id": 1186050627,
      "center": {
        "lat": 12.9063346,
        "lon": 77.6710662
      },
      "tags": {
        "access": "private",
        "leisure": "pitch",
        "sport": "basketball"
      }
    },
    {
      "type": "way",
      "id": 1186050630,
      "center": {
        "lat": 12.9071542,
        "lon": 77.6729049
      },
      "tags": {
        "access": "private",
        "leisure": "pitch",
        "sport": "tennis"
      }
    },
    {
      "type": "way",
      "id": 1186050696,
      "center": {
        "lat": 12.9128982,
        "lon": 77.6654053
      },
      "tags": {
        "amenity": "fuel",
        "brand": "Shell",
        "brand:wikidata": "Q110716465",
        "check_date": "2022-10-08",
        "fuel:diesel": "yes",
        "fuel:petrol": "yes",
        "name": "Shell",
        "name:kn": "ಶೆಲ್"
      }
    },
    {
      "type": "way",
      "id": 1204249206,
      "center": {
        "lat": 12.8953459,
        "lon": 77.6643682
      },
      "tags": {
        "leisure": "park"
      }
    },
    {
      "type": "way",
      "id": 1244165575,
      "center": {
        "lat": 12.8960497,
        "lon": 77.6645006
      },
      "tags": {
        "leisure": "park"
      }
    },
    {
      "type": "way",
      "id": 1270617935,
      "center": {
        "lat": 12.9079256,
        "lon": 77.671176
      },
      "tags": {
        "leisure": "sports_centre"
      }
    },
    {
      "type": "way",
      "id": 1270617936,
      "center": {
        "lat": 12.9066207,
        "lon": 77.67077
      },
      "tags": {
        "leisure": "park"
      }
    },
    {
      "type": "way",
      "id": 1285046617,
      "center": {
        "lat": 12.9074553,
        "lon": 77.671538
      },
      "tags": {
        "access": "permissive",
        "amenity": "parking",
        "parking": "street_side"
      }
    },
    {
      "type": "way",
      "id": 1285046619,
      "center": {
        "lat": 12.9061246,
        "lon": 77.6709598
      },
      "tags": {
        "leisure": "playground"
      }
    },
    {
      "type": "way",
      "id": 1285046624,
      "center": {
        "lat": 12.9076428,
        "lon": 77.6713405
      },
      "tags": {
        "leisure": "pitch"
      }
    },
    {
      "type": "way",
      "id": 1285046625,
      "center": {
        "lat": 12.9080602,
        "lon": 77.6714556
      },
      "tags": {
        "leisure": "playground"
      }
    },
    {
      "type": "way",
      "id": 1285046626,
      "center": {
        "lat": 12.9080235,
        "lon": 77.671628
      },
      "tags": {
        "leisure": "pitch",
        "sport": "basketball"
      }
    },
    {
      "type": "way",
      "id": 1285046627,
      "center": {
        "lat": 12.9090542,
        "lon": 77.6696236
      },
      "tags": {
        "access": "private",
        "leisure": "pitch",
        "sport": "soccer"
      }
    },
    {
      "type": "way",
      "id": 1285046628,
      "center": {
        "lat": 12.9088681,
        "lon": 77.6697459
      },
      "tags": {
        "access": "private",
        "leisure": "pitch",
        "sport": "tennis"
      }
    },
    {
      "type": "way",
      "id": 1285046629,
      "center": {
        "lat": 12.9082419,
        "lon": 77.6701661
      },
      "tags": {
        "leisure": "park"
      }
    },
    {
      "type": "way",
      "id": 1285046630,
      "center": {
        "lat": 12.9078602,
        "lon": 77.6696945
      },
      "tags": {
        "access": "permissive",
        "amenity": "parking",
        "parking": "surface"
      }
    },
    {
      "type": "way",
      "id": 1285046631,
      "center": {
        "lat": 12.9092683,
        "lon": 77.669397
      },
      "tags": {
        "access": "permissive",
        "amenity": "parking",
        "parking": "surface"
      }
    },
    {
      "type": "way",
      "id": 1285046632,
      "center": {
        "lat": 12.9095725,
        "lon": 77.6689405
      },
      "tags": {
        "access": "permissive",
        "amenity": "parking",
        "parking": "surface"
      }
    },
    {
      "type": "way",
      "id": 1285046633,
      "center": {
        "lat": 12.9091131,
        "lon": 77.6705127
      },
      "tags": {
        "access": "permissive",
        "amenity": "parking",
        "parking": "surface"
      }
    },
    {
      "type": "way",
      "id": 1285046634,
      "center": {
        "lat": 12.9095659,
        "lon": 77.6690399
      },
      "tags": {
        "leisure": "park"
      }
    },
    {
      "type": "way",
      "id": 1285046635,
      "center": {
        "lat": 12.9085056,
        "lon": 77.669517
      },
      "tags": {
        "leisure": "park"
      }
    },
    {
      "type": "way",
      "id": 1285046637,
      "center": {
        "lat": 12.9089937,
        "lon": 77.6683862
      },
      "tags": {
        "access": "permissive",
        "amenity": "parking",
        "parking": "surface"
      }
    },
    {
      "type": "way",
      "id": 1312726768,
      "center": {
        "lat": 12.8981117,
        "lon": 77.6713276
      },
      "tags": {
        "leisure": "park",
        "name": "Janaki Ammal Park",
        "name:etymology:wikidata": "Q4794782",
        "name:etymology:wikipedia": "en:Janaki Ammal"
      }
    },
    {
      "type": "way",
      "id": 1312726770,
      "center": {
        "lat": 12.8986659,
        "lon": 77.6714073
      },
      "tags": {
        "access": "private",
        "leisure": "swimming_pool"
      }
    },
    {
      "type": "way",
      "id": 1362578786,
      "center": {
        "lat": 12.9090409,
        "lon": 77.66389
      },
      "tags": {
        "addr:city": "Bengaluru",
        "addr:district": "Karnataka",
        "addr:housenumber": "Plumeria 2nd Floor",
        "addr:postcode": "560102",
        "addr:street": "Haralur Main Road",
        "amenity": "hospital",
        "email": "urwelcome@klinikgluhen.com",
        "emergency": "yes",
        "healthcare": "hospital",
        "healthcare:speciality": "dentist;dental_oral_maxillo_facial_surgery;dentistry;implantology;orthodontics;pedodontics;maxillofacial_surgery;craniofacial;plastic_surgery;psychiatry",
        "image": "https://lh3.googleusercontent.com/p/AF1QipN-H9esnouOf6f9LhnY3IkGoS4dyHJiYGpHHac5=s680-w680-h510",
        "mobile": "+916366800859",
        "name": "Klinik Guhen - Dental Clinic",
        "opening_hours": "All Days 10:00-19:30 (Tue Holiday)",
        "operator": "Dental Clinic",
        "operator:type": "business",
        "payment:cash": "yes",
        "payment:credit_cards": "yes",
        "payment:debit_cards": "yes",
        "payment:google_pay": "yes",
        "phone": "+916366800859",
        "source": "streetlevel imagery;local knowledge;survey;gps",
        "start_date": "2021-10-01",
        "website": "https://klinikgluhen.com/",
        "wheelchair": "yes"
      }
    },
    {
      "type": "way",
      "id": 1363265481,
      "center": {
        "lat": 12.9072072,
        "lon": 77.6717255
      },
      "tags": {
        "access": "private",
        "amenity": "parking",
        "parking": "surface"
      }
    },
    {
      "type": "way",
      "id": 1363265488,
      "center": {
        "lat": 12.8999391,
        "lon": 77.6659796
      },
      "tags": {
        "amenity": "school",
        "name": "Orchids the International School"
      }
    },
    {
      "type": "way",
      "id": 1364168872,
      "center": {
        "lat": 12.8990752,
        "lon": 77.6584302
      },
      "tags": {
        "addr:city": "Bangalore",
        "addr:postcode": "560068",
        "addr:street": "Haralur Road",
        "amenity": "fuel",
        "brand": "Indian Oil",
        "brand:wikidata": "Q1289348",
        "brand:wikipedia": "en:Indian Oil Corporation",
        "compressed_air": "yes",
        "name": "Indian Oil",
        "name:kn": "ಇಂಡಿಯನ್ ಆಯಿಲ್"
      }
    },
    {
      "type": "way",
      "id": 1364168917,
      "center": {
        "lat": 12.8993951,
        "lon": 77.6572331
      },
      "tags": {
        "addr:housename": "Vibgyor",
        "addr:street": "hosa road",
        "amenity": "school",
        "name": "Vibgyor School",
        "name:en": "Vibgyor",
        "name:hi": "विभ्योर",
        "name:kn": "ವಿಬ್ಗ್ಯೋರ್ ಶಾಲೆ",
        "source": "bing"
      }
    },
    {
      "type": "way",
      "id": 1393256141,
      "center": {
        "lat": 12.9089321,
        "lon": 77.6626544
      },
      "tags": {
        "access": "private",
        "leisure": "swimming_pool"
      }
    },
    {
      "type": "way",
      "id": 1393256142,
      "center": {
        "lat": 12.9088976,
        "lon": 77.6628211
      },
      "tags": {
        "access": "private",
        "leisure": "swimming_pool"
      }
    },
    {
      "type": "way",
      "id": 1429442441,
      "center": {
        "lat": 12.9030494,
        "lon": 77.6696942
      },
      "tags": {
        "access": "private",
        "leisure": "playground"
      }
    },
    {
      "type": "way",
      "id": 1429442443,
      "center": {
        "lat": 12.9033449,
        "lon": 77.6698198
      },
      "tags": {
        "access": "private",
        "leisure": "pitch",
        "sport": "tennis"
      }
    },
    {
      "type": "way",
      "id": 1429442444,
      "center": {
        "lat": 12.9028566,
        "lon": 77.6695816
      },
      "tags": {
        "access": "private",
        "leisure": "swimming_pool"
      }
    },
    {
      "type": "way",
      "id": 1429442448,
      "center": {
        "lat": 12.902244,
        "lon": 77.6694952
      },
      "tags": {
        "access": "private",
        "amenity": "theatre",
        "theatre:type": "amphi"
      }
    },
    {
      "type": "way",
      "id": 1429442450,
      "center": {
        "lat": 12.9016982,
        "lon": 77.670861
      },
      "tags": {
        "access": "private",
        "leisure": "swimming_pool"
      }
    },
    {
      "type": "way",
      "id": 1429459090,
      "center": {
        "lat": 12.908524,
        "lon": 77.6694583
      },
      "tags": {
        "access": "private",
        "leisure": "playground"
      }
    },
    {
      "type": "way",
      "id": 1429459091,
      "center": {
        "lat": 12.9093808,
        "lon": 77.6674105
      },
      "tags": {
        "access": "private",
        "amenity": "parking",
        "parking": "surface"
      }
    }
  ]
}