{
  "area_name": "Hebbagodi",
  "osm_id": 459514803,
  "osm_type": "node",
  "place_type": "neighbourhood",
  "amenity_count": 56,
  "amenities": [
    {
      "type": "node",
      "id": 283650908,
      "lat": 12.8263652,
      "lon": 77.6820851,
      "tags": {
        "amenity": "police",
        "name": "Hebbagodi Police Station",
        "name:kn": "ಹೆಬ್ಬಗೋಡಿ ಆರಕ್ಷಕ ಠಾಣೆ"
      }
    },
    {
      "type": "node",
      "id": 1603463881,
      "lat": 12.8305804,
      "lon": 77.681425,
      "tags": {
        "amenity": "fuel",
        "brand": "Hindustan Petroleum",
        "brand:wikidata": "Q1619375",
        "check_date": "2025-01-22",
        "check_date:compressed_air": "2025-01-22",
        "compressed_air": "yes",
        "name": "HP",
        "official_name": "Hindustan Petroleum",
        "self_service": "no",
        "source": "survey",
        "wheelchair": "yes"
      }
    },
    {
      "type": "node",
      "id": 1814895812,
      "lat": 12.824974,
      "lon": 77.6848809,
      "tags": {
        "amenity": "place_of_worship",
        "name": "Ganapathi Temple",
        "name:kn": "ಗಣಪತಿ ದೇವಸ್ಥಾನ",
        "religion": "hindu",
        "wheelchair": "no"
      }
    },
    {
      "type": "node",
      "id": 2550426043,
      "lat": 12.8354736,
      "lon": 77.6803178,
      "tags": {
        "amenity": "atm",
        "brand": "Karnataka Bank",
        "brand:wikidata": "Q2042632",
        "name": "Karnataka Bank",
        "name:kn": "ಕರ್ನಾಟಕ ಬ್ಯಾಂಕ್",
        "operator": "Karnataka Bank",
        "operator:wikidata": "Q2042632"
      }
    },
    {
      "type": "node",
      "id": 2550433190,
      "lat": 12.8327806,
      "lon": 77.6809399,
      "tags": {
        "amenity": "bank",
        "atm": "yes",
        "brand": "South Indian Bank",
        "brand:wikidata": "Q2044973",
        "check_date": "2025-08-07",
        "name": "South Indian Bank",
        "name:kn": "ಸೌತ್ ಇಂಡಿಯನ್ ಬ್ಯಾಂಕ್",
        "operator": "South India Bank"
      }
    },
    {
      "type": "node",
      "id": 2550434272,
      "lat": 12.8354228,
      "lon": 77.679878,
      "tags": {
        "name": "Prestige Smart Kitchen",
        "shop": "appliance"
      }
    },
    {
      "type": "node",
      "id": 2550435099,
      "lat": 12.8346539,
      "lon": 77.6793362,
      "tags": {
        "amenity": "cafe",
        "brand": "Cafe Coffee Day",
        "brand:wikidata": "Q5017235",
        "cuisine": "coffee_shop",
        "name": "Cafe Coffee Day",
        "name:kn": "ಕಫೆ ಕಾಫಿ ಡೇ",
        "takeaway": "yes"
      }
    },
    {
      "type": "node",
      "id": 2556896493,
      "lat": 12.8281395,
      "lon": 77.6821828,
      "tags": {
        "amenity": "atm",
        "brand": "ICICI Bank",
        "brand:wikidata": "Q1653258",
        "name": "ICICI Bank",
        "operator": "ICICI Bank",
        "operator:wikidata": "Q1653258",
        "short_name": "ICICI"
      }
    },
    {
      "type": "node",
      "id": 2952008222,
      "lat": 12.8260429,
      "lon": 77.6820929,
      "tags": {
        "addr:place": "Hebbagodi",
        "amenity": "veterinary",
        "name": "Goverment Veterinary Clinic",
        "name:kn": "ಸರ್ಕಾರಿ ಪಶುವೈದ್ಯ ಕೇಂದ್ರ"
      }
    },
    {
      "type": "node",
      "id": 3933494257,
      "lat": 12.8355087,
      "lon": 77.6798817,
      "tags": {
        "amenity": "weighbridge",
        "check_date": "2016-01-09",
        "name": "Srinivas Weighers"
      }
    },
    {
      "type": "node",
      "id": 4445930976,
      "lat": 12.8254184,
      "lon": 77.6799855,
      "tags": {
        "addr:city": "Bangalore",
        "addr:housenumber": "67/2",
        "addr:postcode": "560100",
        "addr:street": "Nandhi Shwetha Complex, Hennagara Gate, Hosur Road, NearElectronic City",
        "amenity": "restaurant",
        "cuisine": "regional",
        "delivery": "yes",
        "name": "Sunshine",
        "opening_hours": "07:00-22:00",
        "phone": "080 27834064 +919060848899",
        "smoking": "no",
        "takeaway": "yes"
      }
    },
    {
      "type": "node",
      "id": 4445976364,
      "lat": 12.824219,
      "lon": 77.6811826,
      "tags": {
        "addr:city": "Bangalore",
        "addr:housenumber": "144 - C/1",
        "addr:postcode": "560100",
        "addr:street": "Hullimangala Road",
        "amenity": "restaurant",
        "cuisine": "regional",
        "delivery": "yes",
        "name": "Time Traveler sai Vishram Electronic City  ·",
        "opening_hours": "07:00-23:00",
        "phone": "080 40400400",
        "smoking": "no",
        "takeaway": "yes"
      }
    },
    {
      "type": "node",
      "id": 4446023580,
      "lat": 12.8356079,
      "lon": 77.6788813,
      "tags": {
        "addr:city": "Bangalore",
        "addr:housenumber": "4",
        "addr:postcode": "560100",
        "addr:street": "Alphines Luxurious Hotel, Narayana Hrudayalaya Hospital Road, Kithaganahali, Bommasandra, Electronic City",
        "amenity": "restaurant",
        "cuisine": "regional",
        "delivery": "yes",
        "name": "Royal South Restaurant Electronic City",
        "opening_hours": "07:00-10:30,12:00-15:30,18:30-23:00",
        "phone": "080 27831414   08027831515",
        "smoking": "no",
        "takeaway": "yes"
      }
    },
    {
      "type": "node",
      "id": 5395273234,
      "lat": 12.8239543,
      "lon": 77.6848729,
      "tags": {
        "alt_name": "Kentucky Fried Chicken",
        "alt_name:en": "Kentucky Fried Chicken",
        "alt_name:hi": "केंटुकी फ्राइड चिकन",
        "alt_name:pa": "ਕੈਂਟੁਕੀ ਫ੍ਰਾਈਡ ਚਿਕਨ",
        "alt_name:pnb": "کینٹکی فرائیڈ چکن",
        "alt_name:ur": "کینٹکی فرائیڈ چکن",
        "amenity": "fast_food",
        "brand": "KFC",
        "brand:en": "KFC",
        "brand:hi": "केएफसी",
        "brand:pa": "ਕੇਐਫਸੀ",
        "brand:pnb": "کے ایف سی",
        "brand:ur": "کے ایف سی",
        "brand:wikidata": "Q524757",
        "brand:wikipedia": "en:KFC",
        "brand:wikipedia:pa": "ਕੇਐਫਸੀ",
        "brand:wikipedia:ur": "کینٹکی فرائیڈ چکن",
        "cuisine": "chicken",
        "indoor_seating": "yes",
        "name": "KFC",
        "name:en": "KFC",
        "name:hi": "केएफसी",
        "name:pa": "ਕੇਐਫਸੀ",
        "name:pnb": "کے ایف سی",
        "name:ur": "کے ایف سی",
        "outdoor_seating": "no",
        "takeaway": "yes"
      }
    },
    {
      "type": "node",
      "id": 5395273235,
      "lat": 12.8215205,
      "lon": 77.687234,
      "tags": {
        "name": "Airtel 4g",
        "shop": "mobile_phone"
      }
    },
    {
      "type": "node",
      "id": 5402302824,
      "lat": 12.8240253,
      "lon": 77.6847849,
      "tags": {
        "check_date": "2024-08-29",
        "name": "Unilet",
        "shop": "electronics",
        "source": "survey"
      }
    },
    {
      "type": "node",
      "id": 5402312921,
      "lat": 12.8238095,
      "lon": 77.6850392,
      "tags": {
        "brand": "Bata",
        "brand:wikidata": "Q688082",
        "check_date": "2025-07-04",
        "name": "Bata",
        "payment:cash": "yes",
        "payment:credit_cards": "yes",
        "payment:debit_cards": "yes",
        "shop": "shoes",
        "source": "survey"
      }
    },
    {
      "type": "node",
      "id": 7572669015,
      "lat": 12.8250195,
      "lon": 77.6851774,
      "tags": {
        "addr:district": "Bengaluru Urban",
        "addr:full": "Vidyanagar, Bommasandra",
        "addr:postcode": "560100",
        "addr:state": "Karnataka",
        "amenity": "clinic",
        "name": "Anjaneya Homeo Care",
        "source": "Local Knowledge"
      }
    },
    {
      "type": "node",
      "id": 7572669017,
      "lat": 12.822495,
      "lon": 77.674843,
      "tags": {
        "addr:district": "Bengaluru Urban",
        "addr:full": "Vinayaka Nagar, Electronic City, Bengaluru",
        "addr:postcode": "560099",
        "addr:state": "Karnataka",
        "amenity": "clinic",
        "name": "Svasthir Care Centre",
        "source": "Local Knowledge"
      }
    },
    {
      "type": "node",
      "id": 7572669020,
      "lat": 12.827999,
      "lon": 77.687546,
      "tags": {
        "addr:district": "Bengaluru Urban",
        "addr:full": "Kammasandra, Electronic City, Bengaluru",
        "addr:postcode": "560100",
        "addr:state": "Karnataka",
        "amenity": "clinic",
        "name": "Sri Sai Clinic",
        "source": "Local Knowledge"
      }
    },
    {
      "type": "node",
      "id": 7572669047,
      "lat": 12.826249,
      "lon": 77.678792,
      "tags": {
        "addr:district": "Bengaluru Urban",
        "addr:full": "Hebbagodi, Bengaluru",
        "addr:postcode": "560099",
        "addr:state": "Karnataka",
        "amenity": "hospital",
        "name": "Bhumika Hospital",
        "source": "Local Knowledge"
      }
    },
    {
      "type": "node",
      "id": 11353294131,
      "lat": 12.8354408,
      "lon": 77.6807317,
      "tags": {
        "amenity": "pharmacy",
        "brand": "MedPlus",
        "brand:wikidata": "Q65684234",
        "healthcare": "pharmacy",
        "name": "MedPlus"
      }
    },
    {
      "type": "node",
      "id": 11353353688,
      "lat": 12.8354052,
      "lon": 77.6798696,
      "tags": {
        "check_date": "2025-07-04",
        "indoor_seating": "no",
        "name": "New Surya Sweets",
        "outdoor_seating": "no",
        "shop": "bakery",
        "takeaway": "only"
      }
    },
    {
      "type": "node",
      "id": 11353369797,
      "lat": 12.8354504,
      "lon": 77.6808663,
      "tags": {
        "amenity": "atm",
        "brand": "Indian Bank",
        "brand:wikidata": "Q2003789",
        "name": "Indian Bank",
        "operator": "Indian Bank",
        "operator:wikidata": "Q2003789"
      }
    },
    {
      "type": "node",
      "id": 11353376439,
      "lat": 12.8354463,
      "lon": 77.6808819,
      "tags": {
        "amenity": "bank",
        "brand": "Indian Bank",
        "brand:wikidata": "Q2003789",
        "name": "Indian Bank"
      }
    },
    {
      "type": "node",
      "id": 11353377685,
      "lat": 12.8354782,
      "lon": 77.6809917,
      "tags": {
        "amenity": "pharmacy",
        "brand": "Apollo Pharmacy",
        "brand:wikidata": "Q62562612",
        "healthcare": "pharmacy",
        "name": "Apollo Pharmacy"
      }
    },
    {
      "type": "node",
      "id": 11659991949,
      "lat": 12.8237201,
      "lon": 77.6850775,
      "tags": {
        "brand": "Puma",
        "brand:wikidata": "Q157064",
        "check_date": "2024-02-24",
        "internet_access": "wlan",
        "internet_access:fee": "customers",
        "name": "Puma",
        "payment:cash": "yes",
        "payment:credit_cards": "yes",
        "payment:debit_cards": "yes",
        "shop": "clothes",
        "wheelchair": "no"
      }
    },
    {
      "type": "node",
      "id": 11659991950,
      "lat": 12.8236609,
      "lon": 77.6851292,
      "tags": {
        "check_date": "2024-02-24",
        "internet_access": "wlan",
        "internet_access:fee": "customers",
        "name": "Titan Eye+",
        "payment:cash": "yes",
        "payment:credit_cards": "yes",
        "payment:debit_cards": "yes",
        "shop": "optician",
        "wheelchair": "no"
      }
    },
    {
      "type": "node",
      "id": 11659991951,
      "lat": 12.8236113,
      "lon": 77.6851744,
      "tags": {
        "brand": "Fastrack",
        "brand:wikidata": "Q28164179",
        "check_date": "2024-02-24",
        "internet_access": "wlan",
        "internet_access:fee": "customers",
        "name": "Fastrack",
        "payment:cash": "yes",
        "payment:credit_cards": "yes",
        "payment:debit_cards": "yes",
        "shop": "watches",
        "wheelchair": "no"
      }
    },
    {
      "type": "node",
      "id": 11660009299,
      "lat": 12.8238072,
      "lon": 77.6849739,
      "tags": {
        "amenity": "restaurant",
        "brand": "Pizza Hut",
        "brand:wikidata": "Q191615",
        "check_date": "2024-02-24",
        "cuisine": "pizza",
        "delivery": "yes",
        "indoor_seating": "yes",
        "internet_access": "wlan",
        "internet_access:fee": "customers",
        "name": "Pizza Hut",
        "opening_hours": "08:30-23:00",
        "outdoor_seating": "no",
        "payment:cash": "yes",
        "payment:credit_cards": "yes",
        "payment:debit_cards": "yes",
        "source": "local knowledge",
        "takeaway": "yes",
        "toilets": "yes",
        "wheelchair": "yes"
      }
    },
    {
      "type": "node",
      "id": 11660009300,
      "lat": 12.8239651,
      "lon": 77.6848199,
      "tags": {
        "amenity": "restaurant",
        "check_date": "2024-02-24",
        "internet_access": "no",
        "name": "Akshara Restaurant",
        "payment:cash": "yes",
        "payment:credit_cards": "yes",
        "payment:debit_cards": "yes",
        "wheelchair": "no"
      }
    },
    {
      "type": "node",
      "id": 11660036944,
      "lat": 12.8240536,
      "lon": 77.6847266,
      "tags": {
        "brand": "Honda",
        "brand:wikidata": "Q9584",
        "check_date": "2024-02-24",
        "internet_access": "wlan",
        "internet_access:fee": "customers",
        "name": "Honda",
        "name:en": "Ananda Honda",
        "payment:cash": "yes",
        "payment:credit_cards": "yes",
        "payment:debit_cards": "yes",
        "shop": "motorcycle",
        "wheelchair": "no"
      }
    },
    {
      "type": "node",
      "id": 12144442645,
      "lat": 12.8263616,
      "lon": 77.6831196,
      "tags": {
        "amenity": "place_of_worship",
        "check_date": "2024-08-29",
        "religion": "hindu",
        "source": "survey"
      }
    },
    {
      "type": "node",
      "id": 12876472299,
      "lat": 12.8244971,
      "lon": 77.6844177,
      "tags": {
        "amenity": "fast_food",
        "brand": "Domino's",
        "brand:wikidata": "Q839466",
        "check_date": "2025-05-31",
        "cuisine": "pizza",
        "indoor_seating": "yes",
        "name": "Domino's",
        "outdoor_seating": "no",
        "payment:cash": "yes",
        "payment:credit_cards": "yes",
        "payment:debit_cards": "yes",
        "source": "survey",
        "takeaway": "yes"
      }
    },
    {
      "type": "node",
      "id": 12977371128,
      "lat": 12.827566,
      "lon": 77.6826438,
      "tags": {
        "check_date": "2025-07-04",
        "name": "Sri Vinayaka Wines",
        "shop": "alcohol"
      }
    },
    {
      "type": "node",
      "id": 12977371129,
      "lat": 12.8300865,
      "lon": 77.6816793,
      "tags": {
        "amenity": "fuel",
        "check_date": "2025-07-04"
      }
    },
    {
      "type": "node",
      "id": 13070296287,
      "lat": 12.8290127,
      "lon": 77.6813292,
      "tags": {
        "access": "yes",
        "amenity": "motorcycle_parking",
        "capacity": "150",
        "fee": "yes",
        "name": "Hebbagodi Metro Parking",
        "operator": "BMRCL",
        "parking": "surface"
      }
    },
    {
      "type": "way",
      "id": 248215821,
      "center": {
        "lat": 12.8320701,
        "lon": 77.68128
      },
      "tags": {
        "amenity": "place_of_worship",
        "name": "SFS Church",
        "name:kn": "ಎಸ್.ಎಫ್. ಎಸ್ ಚರ್ಚ್",
        "religion": "christian"
      }
    },
    {
      "type": "way",
      "id": 248215991,
      "center": {
        "lat": 12.8332699,
        "lon": 77.681306
      },
      "tags": {
        "amenity": "school",
        "name": "SFS High School"
      }
    },
    {
      "type": "way",
      "id": 248215995,
      "center": {
        "lat": 12.8320355,
        "lon": 77.6827612
      },
      "tags": {
        "amenity": "college",
        "name": "SFS Degree College"
      }
    },
    {
      "type": "way",
      "id": 248983458,
      "center": {
        "lat": 12.8330573,
        "lon": 77.6822436
      },
      "tags": {
        "amenity": "college",
        "name": "Suvidya College"
      }
    },
    {
      "type": "way",
      "id": 291715226,
      "center": {
        "lat": 12.8255099,
        "lon": 77.6822499
      },
      "tags": {
        "addr:place": "Hebbagodi",
        "amenity": "school",
        "check_date": "2025-01-27",
        "name": "Government Higher Primary School",
        "name:kn": "ಸರ್ಕಾರಿ ಹಿರಿಯ ಪ್ರಾಥಮಿಕ ಶಾಲೆ",
        "operator:type": "government",
        "source": "survey"
      }
    },
    {
      "type": "way",
      "id": 1072261803,
      "center": {
        "lat": 12.8295935,
        "lon": 77.6823045
      },
      "tags": {
        "amenity": "school",
        "check_date": "2025-01-22",
        "name": "National Public School, Hosur Road"
      }
    },
    {
      "type": "way",
      "id": 1224006308,
      "center": {
        "lat": 12.8354289,
        "lon": 77.6801295
      },
      "tags": {
        "addr:postcode": "560100",
        "amenity": "fuel",
        "brand": "Indian Oil",
        "brand:wikidata": "Q1289348",
        "name": "Indian Oil"
      }
    },
    {
      "type": "way",
      "id": 1238771672,
      "center": {
        "lat": 12.8321003,
        "lon": 77.6741854
      },
      "tags": {
        "leisure": "park"
      }
    },
    {
      "type": "way",
      "id": 1238771674,
      "center": {
        "lat": 12.8334222,
        "lon": 77.6749035
      },
      "tags": {
        "leisure": "pitch",
        "sport": "tennis"
      }
    },
    {
      "type": "way",
      "id": 1243090906,
      "center": {
        "lat": 12.8310221,
        "lon": 77.687174
      },
      "tags": {
        "amenity": "school",
        "name": "St. Augustine School"
      }
    },
    {
      "type": "way",
      "id": 1243090914,
      "center": {
        "lat": 12.8319432,
        "lon": 77.6856899
      },
      "tags": {
        "amenity": "monastery",
        "name": "SD Convent",
        "religion": "christian"
      }
    },
    {
      "type": "way",
      "id": 1243090929,
      "center": {
        "lat": 12.8342647,
        "lon": 77.6811624
      },
      "tags": {
        "amenity": "school",
        "name": "SFS Kannada Medium School",
        "name:kn": "ಎಸ್.ಎಫ್.ಎಸ್ ಕನ್ನಡ ಮಾಧ್ಯಮ ಶಾಲೆ"
      }
    },
    {
      "type": "way",
      "id": 1335878878,
      "center": {
        "lat": 12.8178024,
        "lon": 77.6814635
      },
      "tags": {
        "amenity": "fuel",
        "brand": "Shell",
        "brand:wikidata": "Q110716465",
        "name": "Shell"
      }
    },
    {
      "type": "way",
      "id": 1419688630,
      "center": {
        "lat": 12.8322588,
        "lon": 77.6826649
      },
      "tags": {
        "leisure": "pitch"
      }
    },
    {
      "type": "way",
      "id": 1419688631,
      "center": {
        "lat": 12.8315555,
        "lon": 77.6826961
      },
      "tags": {
        "leisure": "pitch",
        "sport": "basketball"
      }
    },
    {
      "type": "way",
      "id": 1419688635,
      "center": {
        "lat": 12.8336667,
        "lon": 77.6809138
      },
      "tags": {
        "leisure": "pitch"
      }
    },
    {
      "type": "way",
      "id": 1419688646,
      "center": {
        "lat": 12.8348606,
        "lon": 77.6807681
      },
      "tags": {
        "addr:full": "Huskur Gate, Electronic City, Bengaluru",
        "addr:postcode": "560100",
        "addr:street": "Hosur Road",
        "amenity": "hospital",
        "check_date": "2025-07-04",
        "healthcare": "hospital",
        "name": "Vimalaya Hospital",
        "name:kn": "ವಿಮಲಯ ಆಸ್ಪತ್ರೆ"
      }
    },
    {
      "type": "way",
      "id": 1419964587,
      "center": {
        "lat": 12.8274877,
        "lon": 77.6841715
      },
      "tags": {
        "addr:city": "Bengaluru",
        "addr:district": "BENGALURU",
        "addr:housenumber": "143/2",
        "addr:postcode": "560100",
        "addr:street": "Kammasandra, Electronic CIty Area",
        "amenity": "kindergarten",
        "name": "Glow Montessori Centre",
        "name:kn": "ಗ್ಲೋ ಮಾಂಟೆಸ್ಸರಿ ಸೆಂಟರ್",
        "office": "educational_institution",
        "phone": "+916364680599",
        "website": "www.gmchrd.com"
      }
    },
    {
      "type": "way",
      "id": 1421987311,
      "center": {
        "lat": 12.8242393,
        "lon": 77.6711706
      },
      "tags": {
        "amenity": "school"
      }
    }
  ]
}