{
  "area_name": "HMT Watch Factory Colony",
  "osm_id": 589789927,
  "osm_type": "node",
  "place_type": "neighbourhood",
  "amenity_count": 49,
  "amenities": [
    {
      "type": "node",
      "id": 598947938,
      "lat": 13.0457661,
      "lon": 77.5416305,
      "tags": {
        "amenity": "school",
        "name": "Father Mathews School"
      }
    },
    {
      "type": "node",
      "id": 7164392990,
      "lat": 13.0517881,
      "lon": 77.5372848,
      "tags": {
        "amenity": "parking",
        "name": "Visitor's Parking"
      }
    },
    {
      "type": "node",
      "id": 7164393032,
      "lat": 13.0465165,
      "lon": 77.5368583,
      "tags": {
        "leisure": "fitness_station"
      }
    },
    {
      "type": "node",
      "id": 9181029917,
      "lat": 13.0475645,
      "lon": 77.5288249,
      "tags": {
        "amenity": "place_of_worship",
        "name": "Prasad Enclave Temple",
        "religion": "hindu"
      }
    },
    {
      "type": "node",
      "id": 12260570036,
      "lat": 13.05513,
      "lon": 77.534738,
      "tags": {
        "amenity": "restaurant",
        "name": "Darshan Bar & Restaurant"
      }
    },
    {
      "type": "way",
      "id": 41210246,
      "center": {
        "lat": 13.0555739,
        "lon": 77.5365404
      },
      "tags": {
        "amenity": "school",
        "name": "Kendriya Vidyalaya",
        "name:kn": "ಕೇಂದ್ರಿಯ ವಿದ್ಯಾಲಯ"
      }
    },
    {
      "type": "way",
      "id": 42013556,
      "center": {
        "lat": 13.0441165,
        "lon": 77.5380409
      },
      "tags": {
        "amenity": "school",
        "name": "HMT School",
        "name:kn": "ಎಚ್ ಎಂ ಟಿ ಶಾಲೆ"
      }
    },
    {
      "type": "way",
      "id": 42014453,
      "center": {
        "lat": 13.0428557,
        "lon": 77.5383775
      },
      "tags": {
        "amenity": "college",
        "name": "National Academy of Customs Excise and Narcotics",
        "short_name": "NACEN"
      }
    },
    {
      "type": "way",
      "id": 46251156,
      "center": {
        "lat": 13.0456314,
        "lon": 77.5333949
      },
      "tags": {
        "amenity": "college",
        "name": "Ministry of Fisheries Training"
      }
    },
    {
      "type": "way",
      "id": 326551177,
      "center": {
        "lat": 13.0449062,
        "lon": 77.5256683
      },
      "tags": {
        "amenity": "bus_station",
        "name": "Basaveshwara Bus Station",
        "name:kn": "ಬಸವೇಶ್ವರ ಬಸ್ ನಿಲ್ದಾಣ",
        "operator": "KSRTC",
        "website": "https://www.ksrtc.in/"
      }
    },
    {
      "type": "way",
      "id": 400456658,
      "center": {
        "lat": 13.0458527,
        "lon": 77.5345359
      },
      "tags": {
        "leisure": "pitch"
      }
    },
    {
      "type": "way",
      "id": 767320176,
      "center": {
        "lat": 13.0517563,
        "lon": 77.5371633
      },
      "tags": {
        "leisure": "garden"
      }
    },
    {
      "type": "way",
      "id": 767320179,
      "center": {
        "lat": 13.0510421,
        "lon": 77.53692
      },
      "tags": {
        "leisure": "garden"
      }
    },
    {
      "type": "way",
      "id": 767320180,
      "center": {
        "lat": 13.050984,
        "lon": 77.5358901
      },
      "tags": {
        "access": "private",
        "leisure": "swimming_pool"
      }
    },
    {
      "type": "way",
      "id": 767320181,
      "center": {
        "lat": 13.0515762,
        "lon": 77.5351531
      },
      "tags": {
        "leisure": "pitch",
        "name": "Tennis Court",
        "name:kn": "ಟೆನ್ನಿಸ್ ಅಂಗಣ",
        "sport": "tennis"
      }
    },
    {
      "type": "way",
      "id": 767320184,
      "center": {
        "lat": 13.045502,
        "lon": 77.5380808
      },
      "tags": {
        "leisure": "pitch",
        "lit": "yes",
        "name": "Basketball Court",
        "name:kn": "ಬಾಸ್ಕೆಟ್ ಬಾಲ್ ಅಂಕಣ",
        "sport": "basketball",
        "surface": "concrete"
      }
    },
    {
      "type": "way",
      "id": 767320185,
      "center": {
        "lat": 13.0472655,
        "lon": 77.5367212
      },
      "tags": {
        "leisure": "pitch",
        "lit": "yes",
        "name": "Tennis Court",
        "name:kn": "ಟೆನ್ನಿಸ್ ಅಂಗಣ",
        "sport": "tennis",
        "surface": "concrete"
      }
    },
    {
      "type": "way",
      "id": 767320187,
      "center": {
        "lat": 13.0457872,
        "lon": 77.5375299
      },
      "tags": {
        "access": "private",
        "leisure": "swimming_pool"
      }
    },
    {
      "type": "way",
      "id": 767320198,
      "center": {
        "lat": 13.0457842,
        "lon": 77.5408092
      },
      "tags": {
        "leisure": "garden"
      }
    },
    {
      "type": "way",
      "id": 767320211,
      "center": {
        "lat": 13.0453592,
        "lon": 77.5407479
      },
      "tags": {
        "access": "private",
        "leisure": "swimming_pool"
      }
    },
    {
      "type": "way",
      "id": 781538792,
      "center": {
        "lat": 13.0384134,
        "lon": 77.5361185
      },
      "tags": {
        "leisure": "park"
      }
    },
    {
      "type": "way",
      "id": 993823507,
      "center": {
        "lat": 13.047554,
        "lon": 77.5288081
      },
      "tags": {
        "amenity": "place_of_worship",
        "building": "yes",
        "name": "Prasas Enclave Temple",
        "religion": "hindu"
      }
    },
    {
      "type": "way",
      "id": 993823653,
      "center": {
        "lat": 13.0495317,
        "lon": 77.5296335
      },
      "tags": {
        "leisure": "park",
        "name": "Children Park",
        "operator": "CTI"
      }
    },
    {
      "type": "way",
      "id": 993823807,
      "center": {
        "lat": 13.0514322,
        "lon": 77.5286514
      },
      "tags": {
        "leisure": "park",
        "name": "Paschim Udayan"
      }
    },
    {
      "type": "way",
      "id": 993827241,
      "center": {
        "lat": 13.0481683,
        "lon": 77.5299217
      },
      "tags": {
        "amenity": "motorcycle_parking"
      }
    },
    {
      "type": "way",
      "id": 993827243,
      "center": {
        "lat": 13.0481188,
        "lon": 77.5293405
      },
      "tags": {
        "amenity": "motorcycle_parking"
      }
    },
    {
      "type": "way",
      "id": 993827244,
      "center": {
        "lat": 13.0476446,
        "lon": 77.5293718
      },
      "tags": {
        "amenity": "motorcycle_parking"
      }
    },
    {
      "type": "way",
      "id": 993827245,
      "center": {
        "lat": 13.0477626,
        "lon": 77.5287784
      },
      "tags": {
        "amenity": "motorcycle_parking"
      }
    },
    {
      "type": "way",
      "id": 993827246,
      "center": {
        "lat": 13.0480985,
        "lon": 77.5286529
      },
      "tags": {
        "amenity": "parking"
      }
    },
    {
      "type": "way",
      "id": 993827247,
      "center": {
        "lat": 13.0480623,
        "lon": 77.5287595
      },
      "tags": {
        "amenity": "motorcycle_parking"
      }
    },
    {
      "type": "way",
      "id": 993827248,
      "center": {
        "lat": 13.0498265,
        "lon": 77.5295848
      },
      "tags": {
        "leisure": "pitch"
      }
    },
    {
      "type": "way",
      "id": 993828223,
      "center": {
        "lat": 13.0478511,
        "lon": 77.5299403
      },
      "tags": {
        "amenity": "motorcycle_parking"
      }
    },
    {
      "type": "way",
      "id": 993829003,
      "center": {
        "lat": 13.0516354,
        "lon": 77.5292343
      },
      "tags": {
        "amenity": "post_office",
        "building": "yes",
        "operator": "India Post",
        "operator:wikidata": "Q3519720",
        "operator:wikipedia": "en:India Post"
      }
    },
    {
      "type": "way",
      "id": 993829833,
      "center": {
        "lat": 13.0538398,
        "lon": 77.5322045
      },
      "tags": {
        "leisure": "pitch",
        "name": "Subroto Cricket Field",
        "sport": "cricket"
      }
    },
    {
      "type": "way",
      "id": 993831073,
      "center": {
        "lat": 13.051014,
        "lon": 77.528803
      },
      "tags": {
        "amenity": "bank",
        "atm": "yes",
        "brand": "State Bank of India",
        "brand:wikidata": "Q1340361",
        "brand:wikipedia": "en:State Bank of India",
        "building": "yes",
        "name": "State Bank of India",
        "name:kn": "ಭಾರತೀಯ ಸ್ಟೇಟ್ ಬ್ಯಾಂಕ್",
        "short_name": "SBI"
      }
    },
    {
      "type": "way",
      "id": 993834533,
      "center": {
        "lat": 13.0511166,
        "lon": 77.5290016
      },
      "tags": {
        "building": "yes",
        "name": "AFwwa Shop",
        "shop": "convenience"
      }
    },
    {
      "type": "way",
      "id": 993834534,
      "center": {
        "lat": 13.0510955,
        "lon": 77.529097
      },
      "tags": {
        "building": "yes",
        "shop": "convenience"
      }
    },
    {
      "type": "way",
      "id": 993841199,
      "center": {
        "lat": 13.049892,
        "lon": 77.525724
      },
      "tags": {
        "leisure": "pitch",
        "name": "AFTC tennis court",
        "sport": "tennis"
      }
    },
    {
      "type": "way",
      "id": 993852931,
      "center": {
        "lat": 13.0504513,
        "lon": 77.5291477
      },
      "tags": {
        "leisure": "pitch",
        "sport": "basketball"
      }
    },
    {
      "type": "way",
      "id": 995325355,
      "center": {
        "lat": 13.0476104,
        "lon": 77.5277914
      },
      "tags": {
        "amenity": "place_of_worship",
        "building": "yes"
      }
    },
    {
      "type": "way",
      "id": 995603451,
      "center": {
        "lat": 13.0540493,
        "lon": 77.5313824
      },
      "tags": {
        "amenity": "community_centre",
        "building": "yes"
      }
    },
    {
      "type": "way",
      "id": 995603457,
      "center": {
        "lat": 13.0525019,
        "lon": 77.5315192
      },
      "tags": {
        "amenity": "place_of_worship",
        "building": "yes",
        "religion": "sikh"
      }
    },
    {
      "type": "way",
      "id": 995603507,
      "center": {
        "lat": 13.0504895,
        "lon": 77.5294263
      },
      "tags": {
        "amenity": "parking"
      }
    },
    {
      "type": "way",
      "id": 1189935461,
      "center": {
        "lat": 13.0413816,
        "lon": 77.5350177
      },
      "tags": {
        "amenity": "bicycle_parking",
        "building": "shelter"
      }
    },
    {
      "type": "way",
      "id": 1303659502,
      "center": {
        "lat": 13.0387206,
        "lon": 77.537034
      },
      "tags": {
        "access": "private",
        "amenity": "parking",
        "parking": "surface"
      }
    },
    {
      "type": "way",
      "id": 1303659503,
      "center": {
        "lat": 13.0389454,
        "lon": 77.5368112
      },
      "tags": {
        "access": "private",
        "amenity": "parking",
        "parking": "surface"
      }
    },
    {
      "type": "way",
      "id": 1333114378,
      "center": {
        "lat": 13.0458065,
        "lon": 77.5286902
      },
      "tags": {
        "leisure": "playground"
      }
    },
    {
      "type": "way",
      "id": 1333114385,
      "center": {
        "lat": 13.0432026,
        "lon": 77.5378022
      },
      "tags": {
        "access": "private",
        "leisure": "swimming_pool"
      }
    },
    {
      "type": "way",
      "id": 1353057322,
      "center": {
        "lat": 13.0448177,
        "lon": 77.5281941
      },
      "tags": {
        "leisure": "park"
      }
    }
  ]
}