{
  "area_name": "HMT Layout",
  "osm_id": 850751602,
  "osm_type": "node",
  "place_type": "neighbourhood",
  "amenity_count": 177,
  "amenities": [
    {
      "type": "node",
      "id": 582591613,
      "lat": 13.0216684,
      "lon": 77.5928265,
      "tags": {
        "amenity": "post_office",
        "name": "Rabindranath Tagore Nagar",
        "name:kn": "ರವೀಂದ್ರನಾಥ ಠಾಗೋರ್ ನಗರ"
      }
    },
    {
      "type": "node",
      "id": 593146903,
      "lat": 13.026313,
      "lon": 77.5845772,
      "tags": {
        "amenity": "college",
        "name": "National Bureau of Agriculturally Important Insects"
      }
    },
    {
      "type": "node",
      "id": 850751623,
      "lat": 13.0249229,
      "lon": 77.5928698,
      "tags": {
        "amenity": "atm",
        "brand": "UCO Bank",
        "brand:wikidata": "Q2005310",
        "name": "UCO Bank",
        "operator": "UCO Bank",
        "operator:wikidata": "Q2005310"
      }
    },
    {
      "type": "node",
      "id": 850751634,
      "lat": 13.0256109,
      "lon": 77.5931302,
      "tags": {
        "brand": "Levi's",
        "brand:wikidata": "Q127962",
        "clothes": "denim;men;women",
        "name": "Levi's",
        "name:kn": "ಲೆವಿಸ್",
        "shop": "clothes"
      }
    },
    {
      "type": "node",
      "id": 850751635,
      "lat": 13.0259675,
      "lon": 77.5932154,
      "tags": {
        "amenity": "library",
        "name": "RT Nagar Public Library"
      }
    },
    {
      "type": "node",
      "id": 850751637,
      "lat": 13.0248113,
      "lon": 77.5934442,
      "tags": {
        "amenity": "atm",
        "name": "Vijaya Bank",
        "name:kn": "ವಿಜಯ ಬ್ಯಾಂಕು"
      }
    },
    {
      "type": "node",
      "id": 850751641,
      "lat": 13.0254978,
      "lon": 77.5931058,
      "tags": {
        "amenity": "bank",
        "brand": "Andhra Bank",
        "brand:wikidata": "Q2003476",
        "brand:wikipedia": "en:Andhra Bank",
        "name": "Andhra Bank",
        "name:en": "Andhra Bank",
        "name:kn": "ಆಂಧ್ರ ಬ್ಯಾಂಕ್",
        "website": "https://www.andhrabank.in"
      }
    },
    {
      "type": "node",
      "id": 850751651,
      "lat": 13.0265973,
      "lon": 77.5933811,
      "tags": {
        "brand": "Adidas",
        "brand:wikidata": "Q3895",
        "name": "Adidas",
        "name:kn": "ಅಡಿಡಾಸ್",
        "shop": "sports"
      }
    },
    {
      "type": "node",
      "id": 850751657,
      "lat": 13.0260757,
      "lon": 77.5932346,
      "tags": {
        "brand": "Reebok",
        "brand:wikidata": "Q466183",
        "name": "Reebok",
        "name:kn": "ರೀಬಾಕ್",
        "shop": "clothes"
      }
    },
    {
      "type": "node",
      "id": 850751675,
      "lat": 13.0273116,
      "lon": 77.5934753,
      "tags": {
        "amenity": "restaurant",
        "name": "Kabab Manor",
        "name:kn": "ಕಬಾಬ್ ಮೆನರ್"
      }
    },
    {
      "type": "node",
      "id": 850751693,
      "lat": 13.0249491,
      "lon": 77.5926439,
      "tags": {
        "amenity": "atm",
        "brand": "Citibank",
        "brand:wikidata": "Q857063",
        "name": "Citibank",
        "name:kn": "ಸಿಟಿಬ್ಯಾಂಕ್",
        "operator": "Citibank",
        "operator:wikidata": "Q857063",
        "short_name": "Citi"
      }
    },
    {
      "type": "node",
      "id": 1415907177,
      "lat": 13.0236679,
      "lon": 77.592064,
      "tags": {
        "brand": "Nilgiri's",
        "brand:wikidata": "Q17079567",
        "name": "Nilgiri's",
        "name:kn": "ನೀಲ್ಗಿರೀಸ್",
        "shop": "supermarket"
      }
    },
    {
      "type": "node",
      "id": 1474819109,
      "lat": 13.0256971,
      "lon": 77.5931352,
      "tags": {
        "amenity": "restaurant",
        "name": "Punjabi Rasoi",
        "name:kn": "ಪಂಜಾಬಿ ರಸೋಯಿ"
      }
    },
    {
      "type": "node",
      "id": 1474819110,
      "lat": 13.0263622,
      "lon": 77.5930491,
      "tags": {
        "amenity": "bank",
        "brand": "Andhra Bank",
        "brand:wikidata": "Q2003476",
        "brand:wikipedia": "en:Andhra Bank",
        "name": "Andhra Bank",
        "name:en": "Andhra Bank",
        "name:kn": "ಆಂಧ್ರ ಬ್ಯಾಂಕ್",
        "website": "https://www.andhrabank.in"
      }
    },
    {
      "type": "node",
      "id": 1474819111,
      "lat": 13.0264438,
      "lon": 77.5933686,
      "tags": {
        "amenity": "hospital",
        "name": "TSR heart care"
      }
    },
    {
      "type": "node",
      "id": 1474819113,
      "lat": 13.0265699,
      "lon": 77.5866871,
      "tags": {
        "amenity": "bank",
        "brand": "ICICI Bank",
        "brand:wikidata": "Q1653258",
        "name": "ICICI Bank",
        "name:kn": "ಐಸಿಐಸಿಐ ಬ್ಯಾಂಕು",
        "short_name": "ICICI"
      }
    },
    {
      "type": "node",
      "id": 1474819114,
      "lat": 13.0266169,
      "lon": 77.586655,
      "tags": {
        "amenity": "bank",
        "name": "Indus Bank",
        "name:kn": "ಇಂಡಸ್ ಬ್ಯಾಂಕ್",
        "wheelchair": "limited"
      }
    },
    {
      "type": "node",
      "id": 1474819115,
      "lat": 13.0249236,
      "lon": 77.5927811,
      "tags": {
        "amenity": "restaurant",
        "name": "Tiffin Centre",
        "name:kn": "ಟಿಫಿನ್ ಸೆಂಟೆರ್"
      }
    },
    {
      "type": "node",
      "id": 1474819116,
      "lat": 13.0270037,
      "lon": 77.5858396,
      "tags": {
        "name": "Gilma Store",
        "shop": "convenience"
      }
    },
    {
      "type": "node",
      "id": 1474819152,
      "lat": 13.0254514,
      "lon": 77.593103,
      "tags": {
        "name": "Emporium",
        "shop": "clothes"
      }
    },
    {
      "type": "node",
      "id": 1474819153,
      "lat": 13.0261152,
      "lon": 77.5887524,
      "tags": {
        "name": "Amma Pastries",
        "shop": "bakery"
      }
    },
    {
      "type": "node",
      "id": 1474819154,
      "lat": 13.0253678,
      "lon": 77.593103,
      "tags": {
        "name": "Nokia Care",
        "shop": "kiosk"
      }
    },
    {
      "type": "node",
      "id": 1474819328,
      "lat": 13.023831,
      "lon": 77.5929101,
      "tags": {
        "name": "UniverCell Store",
        "shop": "convenience"
      }
    },
    {
      "type": "node",
      "id": 1474819329,
      "lat": 13.0238887,
      "lon": 77.5926095,
      "tags": {
        "name": "Titan Show room",
        "shop": "convenience"
      }
    },
    {
      "type": "node",
      "id": 1474819330,
      "lat": 13.0233034,
      "lon": 77.5928133,
      "tags": {
        "amenity": "restaurant",
        "diet:vegetarian": "only",
        "name": "New Shanti Sagar",
        "name:kn": "ನ್ಯೂ ಶಾಂತಿ ಸಾಗರ್"
      }
    },
    {
      "type": "node",
      "id": 1824234555,
      "lat": 13.0352818,
      "lon": 77.5891227,
      "tags": {
        "amenity": "bank",
        "atm": "yes",
        "brand": "Canara Bank",
        "brand:pa": "ਕੇਨਰਾ ਬੈਂਕ",
        "brand:ur": "کینرا بینک",
        "brand:wikidata": "Q2003777",
        "brand:wikipedia": "en:Canara Bank",
        "brand:wikipedia:pa": "ਕੇਨਰਾ ਬੈਂਕ",
        "name": "Canara Bank",
        "name:kn": "ಕೆನರಾ ಬ್ಯಾಂಕ್",
        "name:pa": "ਕੇਨਰਾ ਬੈਂਕ",
        "name:ur": "کینرا بینک",
        "opening_hours": "Mo-Sa 10:00-16:00"
      }
    },
    {
      "type": "node",
      "id": 2210804544,
      "lat": 13.0269431,
      "lon": 77.60086,
      "tags": {
        "amenity": "place_of_worship",
        "name": "Rama temple",
        "name:kn": "ರಾಮ ದೇವಸ್ಥಾನ",
        "religion": "hindu"
      }
    },
    {
      "type": "node",
      "id": 2210807119,
      "lat": 13.0235333,
      "lon": 77.6000246,
      "tags": {
        "amenity": "pharmacy"
      }
    },
    {
      "type": "node",
      "id": 2458999135,
      "lat": 13.0229372,
      "lon": 77.5848295,
      "tags": {
        "addr:city": "Bangalore",
        "addr:postcode": "560032",
        "addr:street": "Bellary Road",
        "alt_name": "A2B",
        "amenity": "restaurant",
        "brand": "Adyar Ananda Bhavan",
        "brand:wikidata": "Q15178238",
        "cuisine": "regional",
        "diet:vegetarian": "only",
        "email": "info@aabsweets.com",
        "name": "Adyar Ananda Bhavan",
        "name:kn": "ಆದ್ಯಾರ್ ಆನಂದ ಭವನ",
        "operator": "Adyar Ananda Bhavan",
        "phone": "+91 80 4151 5454",
        "smoking": "no",
        "website": "https://aabsweets.com",
        "wheelchair": "no"
      }
    },
    {
      "type": "node",
      "id": 2666006577,
      "lat": 13.0267368,
      "lon": 77.5871118,
      "tags": {
        "amenity": "restaurant"
      }
    },
    {
      "type": "node",
      "id": 3337863242,
      "lat": 13.0230972,
      "lon": 77.5848995,
      "tags": {
        "amenity": "bank",
        "atm": "yes",
        "brand": "Corporation Bank",
        "brand:wikidata": "Q2003387",
        "brand:wikipedia": "en:Corporation Bank",
        "check_date": "2024-02-15",
        "name": "Union Bank of India",
        "name:en": "Union Bank of India",
        "wheelchair": "no"
      }
    },
    {
      "type": "node",
      "id": 3363186002,
      "lat": 13.0199268,
      "lon": 77.5951979,
      "tags": {
        "amenity": "atm"
      }
    },
    {
      "type": "node",
      "id": 3461018651,
      "lat": 13.0275949,
      "lon": 77.5860423,
      "tags": {
        "addr:city": "Bangalore",
        "addr:street": "Ganga Nagar Flyover",
        "name": "Lotus Motors",
        "shop": "motorcycle"
      }
    },
    {
      "type": "node",
      "id": 3461018660,
      "lat": 13.0272029,
      "lon": 77.5859484,
      "tags": {
        "addr:city": "Bangalore",
        "addr:street": "Ganga Nagar Flyover",
        "amenity": "pharmacy",
        "name": "Srinidhi Pet Pharma"
      }
    },
    {
      "type": "node",
      "id": 3591576155,
      "lat": 13.0207677,
      "lon": 77.5929009,
      "tags": {
        "amenity": "cafe",
        "brand": "Cafe Coffee Day",
        "brand:wikidata": "Q5017235",
        "cuisine": "coffee_shop",
        "name": "Cafe Coffee Day",
        "name:kn": "ಕಫೆ ಕಾಫಿ ಡೇ",
        "takeaway": "yes"
      }
    },
    {
      "type": "node",
      "id": 3591577007,
      "lat": 13.0207547,
      "lon": 77.5929974,
      "tags": {
        "name": "Namdhari Fresh",
        "shop": "supermarket"
      }
    },
    {
      "type": "node",
      "id": 3591592755,
      "lat": 13.0207547,
      "lon": 77.5930859,
      "tags": {
        "amenity": "bank",
        "atm": "yes",
        "brand": "Andhra Bank",
        "brand:wikidata": "Q2003476",
        "brand:wikipedia": "en:Andhra Bank",
        "name": "Andhra Bank",
        "name:en": "Andhra Bank",
        "name:kn": "ಆಂಧ್ರ ಬ್ಯಾಂಕ್",
        "website": "https://www.andhrabank.in"
      }
    },
    {
      "type": "node",
      "id": 3591611473,
      "lat": 13.022371,
      "lon": 77.5942251,
      "tags": {
        "shop": "greengrocer"
      }
    },
    {
      "type": "node",
      "id": 3591611743,
      "lat": 13.0218513,
      "lon": 77.5962159,
      "tags": {
        "name": "Everyday Needs",
        "shop": "yes"
      }
    },
    {
      "type": "node",
      "id": 4422272111,
      "lat": 13.0222579,
      "lon": 77.5922587,
      "tags": {
        "amenity": "bar",
        "name": "Ujwal Bar and Restaurant"
      }
    },
    {
      "type": "node",
      "id": 4422272112,
      "lat": 13.022359,
      "lon": 77.5927417,
      "tags": {
        "amenity": "restaurant",
        "name": "Al Bek"
      }
    },
    {
      "type": "node",
      "id": 4422272113,
      "lat": 13.0214967,
      "lon": 77.5924037,
      "tags": {
        "name": "Food World",
        "shop": "supermarket"
      }
    },
    {
      "type": "node",
      "id": 4443560972,
      "lat": 13.0272204,
      "lon": 77.593535,
      "tags": {
        "addr:city": "bangalore",
        "addr:housenumber": "16",
        "addr:postcode": "560032",
        "addr:street": "Hmt Layout, Near-R T Nagar Bus Depot, R T Nagar, HMT Layout, Dinnur, RT Nagar",
        "amenity": "pharmacy",
        "name": "Sri Srinivasa Medicals",
        "phone": "080 2353 5499"
      }
    },
    {
      "type": "node",
      "id": 4446284603,
      "lat": 13.0277184,
      "lon": 77.5860886,
      "tags": {
        "addr:city": "Bangalore",
        "addr:housenumber": "#80",
        "addr:postcode": "560024",
        "addr:street": "Bellary Road, Opposite Veterinary College, Lakshmayya Layout, Vishveshvaraiah Nagar",
        "amenity": "pharmacy",
        "name": "Shree Vet Life Pharma",
        "phone": "+919845164047",
        "source": "http://bestofhealthindia.com/"
      }
    },
    {
      "type": "node",
      "id": 4446306864,
      "lat": 13.02454,
      "lon": 77.5950447,
      "tags": {
        "addr:city": "Bangalore",
        "addr:housenumber": "#1",
        "addr:postcode": "560032",
        "addr:street": "Dinnur Main Road,  Dinnur Main Road, Ex Servicemen Colony,RT Nagar",
        "amenity": "pharmacy",
        "name": "Popular Medical And General",
        "phone": "08023338662",
        "source": "bangalorehospital.co.in"
      }
    },
    {
      "type": "node",
      "id": 4446312739,
      "lat": 13.0237176,
      "lon": 77.5928768,
      "tags": {
        "addr:city": "Bangalore",
        "addr:housenumber": "#3",
        "addr:postcode": "560032",
        "addr:street": "RT Nagar Main Road,  80 Feet Main Road, P&T Colony",
        "amenity": "pharmacy",
        "name": "Trust Chemists Druggists",
        "phone": "080 4128 4949",
        "source": "http://www.bangalorehospital.co.in/"
      }
    },
    {
      "type": "node",
      "id": 4446992566,
      "lat": 13.0216774,
      "lon": 77.5927881,
      "tags": {
        "addr:city": "bangalore",
        "addr:housenumber": "16",
        "addr:postcode": "560032,",
        "addr:street": "RT Nagar Main Road",
        "amenity": "pharmacy",
        "name": "Sri Srinivasa Medicals",
        "phone": "+91 80 2353 5499",
        "source": "www.justdial.com"
      }
    },
    {
      "type": "node",
      "id": 4488018121,
      "lat": 13.0345054,
      "lon": 77.5895751,
      "tags": {
        "addr:city": "Bangalore",
        "addr:housenumber": "127/128",
        "addr:postcode": "560024",
        "addr:street": "Anandnagar Main Road,Esteem Mall, Shop, 1st Floor, Hebbal,",
        "name": "Wildcraft Basecamp",
        "opening_hours": "10:30-21:00",
        "phone": "080 4164 8242",
        "shop": "sports",
        "website": "https://wildcraft.in/"
      }
    },
    {
      "type": "node",
      "id": 4488023121,
      "lat": 13.0227583,
      "lon": 77.5848341,
      "tags": {
        "addr:city": "Bangalore",
        "addr:housenumber": "37, 1stFloor",
        "addr:postcode": "560032",
        "addr:street": "Bellary Road, Naveen Complex Bellary, 1st Main Road, Ganganagar",
        "name": "Kadamba Sports & Fitness",
        "opening_hours": "10:00-21:00",
        "phone": "080 2333 4422",
        "shop": "sports"
      }
    },
    {
      "type": "node",
      "id": 4488026407,
      "lat": 13.027822,
      "lon": 77.5861383,
      "tags": {
        "addr:city": "Bangalore",
        "addr:housenumber": "80",
        "addr:postcode": "560024",
        "addr:street": "Bellary Road, Vishveshvaraiah Nagar, Ganga Nagar, Bengaluru",
        "name": "Sports Line",
        "opening_hours": "10:30-21:00",
        "phone": "080 2363 6471",
        "shop": "sports",
        "website": "https://www.sportslineindia.com/"
      }
    },
    {
      "type": "node",
      "id": 4489722790,
      "lat": 13.0241827,
      "lon": 77.5929161,
      "tags": {
        "addr:city": "Bangalore",
        "addr:housenumber": "#11/12",
        "addr:postcode": "560032",
        "addr:street": ",Unique Center, 1st Floor, Above Unilet Electronics, 80 Feet Rd,, , RT Nagar, Bhadrappa Layout, P&T Colony, RT Nagar, Bengaluru, Karnataka 560032",
        "leisure": "sports_centre",
        "name": "Group Ex Fitness Revolution",
        "opening_hours": "6:00-21:00",
        "phone": "\"090190 31031",
        "website": "https://groupex.co.in/"
      }
    },
    {
      "type": "node",
      "id": 4489730800,
      "lat": 13.0241022,
      "lon": 77.5972276,
      "tags": {
        "addr:city": "bangalore",
        "addr:postcode": "560032",
        "addr:street": "3rd Floor, Dinnur Main Road, R T Nagar",
        "leisure": "sports_centre",
        "name": "Power Cuts And Curves Gym And Fitness Centre",
        "opening_hours": "06:00-12:30",
        "phone": "(91)-9731420000",
        "sport": "gymnastics",
        "website": "www.powercutsncurves.com"
      }
    },
    {
      "type": "node",
      "id": 4489826333,
      "lat": 13.0218675,
      "lon": 77.597868,
      "tags": {
        "addr:city": "Bengaluru",
        "addr:housenumber": "551",
        "addr:postcode": "560032",
        "addr:street": ", 2nd Floor, 2nd Cross, 2nd Block, R.T Nagar, Bhadrappa Layout, RT Nagar, , Karnataka",
        "leisure": "sports_centre",
        "name": "Reach Roots Fitness",
        "opening_hours": "5:30-22:00",
        "phone": "080 4128 9578",
        "website": "rootsfitness.co.in"
      }
    },
    {
      "type": "node",
      "id": 4489850392,
      "lat": 13.0242132,
      "lon": 77.5929468,
      "tags": {
        "addr:city": "Bangalore",
        "addr:housenumber": "5, 2nd Floor",
        "addr:postcode": "560032",
        "addr:street": ", Above-Vivek Show Room, Next To-R T Nagar Police Station, R T Nagar, P&T Colony, RT Nagar, Bengaluru, Karnataka",
        "leisure": "sports_centre",
        "name": "Cuts and Curves",
        "opening_hours": "6:00-22:00",
        "phone": "080 2343 5320",
        "website": "https://agarwalpacking.in/"
      }
    },
    {
      "type": "node",
      "id": 4697854891,
      "lat": 13.0264736,
      "lon": 77.599251,
      "tags": {
        "amenity": "school",
        "name": "Kingston school",
        "name:en": "Kingston school"
      }
    },
    {
      "type": "node",
      "id": 4697889489,
      "lat": 13.0263631,
      "lon": 77.5996649,
      "tags": {
        "name": "Ashok bakery",
        "name:en": "Ashok bakery",
        "shop": "bakery"
      }
    },
    {
      "type": "node",
      "id": 4973060956,
      "lat": 13.0224361,
      "lon": 77.5847518,
      "tags": {
        "amenity": "restaurant",
        "name": "Hotel Emirates"
      }
    },
    {
      "type": "node",
      "id": 4973098284,
      "lat": 13.0348877,
      "lon": 77.5889021,
      "tags": {
        "name": "Toyota",
        "shop": "car"
      }
    },
    {
      "type": "node",
      "id": 5269791614,
      "lat": 13.0304194,
      "lon": 77.5872271,
      "tags": {
        "amenity": "fast_food",
        "cuisine": "regional",
        "delivery": "no",
        "name": "Hebbal Indira Canteen",
        "operator": "BBMP",
        "takeaway": "no"
      }
    },
    {
      "type": "node",
      "id": 5269791615,
      "lat": 13.0345665,
      "lon": 77.588793,
      "tags": {
        "amenity": "bank",
        "atm": "yes",
        "brand": "State Bank of India",
        "brand:wikidata": "Q1340361",
        "name": "State Bank of India",
        "name:kn": "ಭಾರತೀಯ ಸ್ಟೇಟ್ ಬ್ಯಾಂಕ್",
        "short_name": "SBI"
      }
    },
    {
      "type": "node",
      "id": 5295212551,
      "lat": 13.0225676,
      "lon": 77.5847474,
      "tags": {
        "name": "SM Silks",
        "shop": "clothes"
      }
    },
    {
      "type": "node",
      "id": 5983371030,
      "lat": 13.0260907,
      "lon": 77.5849835,
      "tags": {
        "amenity": "restaurant",
        "name": "Indira Canteen"
      }
    },
    {
      "type": "node",
      "id": 6126093263,
      "lat": 13.0238647,
      "lon": 77.5851211,
      "tags": {
        "name": "Track & Trail",
        "shop": "bicycle"
      }
    },
    {
      "type": "node",
      "id": 6856463615,
      "lat": 13.0351773,
      "lon": 77.5890219,
      "tags": {
        "amenity": "restaurant",
        "name": "Udupi Park Inn",
        "opening_hours": "Mo-Sa 09:45-20:00"
      }
    },
    {
      "type": "node",
      "id": 6886594822,
      "lat": 13.0357887,
      "lon": 77.589498,
      "tags": {
        "addr:city": "Bengaluru",
        "addr:district": "BENGALURU URBAN",
        "addr:full": "Bellary Road, Hebbal",
        "addr:postcode": "560024",
        "addr:state": "Karnataka",
        "amenity": "blood_bank",
        "contact:mobile": "9480424340",
        "contact:phone": "8022024700",
        "name": "Bangalore Baptist Hospital Blood Bank",
        "opening_hours": "24/7",
        "operator:type": "private",
        "source": "OpenGovernmentData",
        "website": "https://www.bbh.org.in/"
      }
    },
    {
      "type": "node",
      "id": 6886594823,
      "lat": 13.0228765,
      "lon": 77.5848772,
      "tags": {
        "addr:city": "Bengaluru",
        "addr:district": "BENGALURU URBAN",
        "addr:full": "2, 10th Cross, Ganganagar, Bengaluru",
        "addr:postcode": "560032",
        "addr:state": "Karnataka",
        "amenity": "blood_bank",
        "contact:mobile": "9740330720",
        "contact:phone": "8023431233",
        "name": "Grace Blood Bank and Laboratory",
        "opening_hours": "24/7",
        "operator:type": "private",
        "source": "OpenGovernmentData"
      }
    },
    {
      "type": "node",
      "id": 6937890455,
      "lat": 13.0237316,
      "lon": 77.5941463,
      "tags": {
        "addr:district": "Bengaluru Urban",
        "addr:full": "No 80, P&T Colony R T Nagar",
        "addr:postcode": "560032",
        "addr:state": "Karnataka",
        "amenity": "hospital",
        "name": "Chaitanya Hospital",
        "name:kn": "ಚೈತನ್ಯ ಆಸ್ಪತ್ರೆ",
        "source": "OpenGovernmentData"
      }
    },
    {
      "type": "node",
      "id": 6937963276,
      "lat": 13.0261691,
      "lon": 77.5984029,
      "tags": {
        "addr:district": "Bengaluru Urban",
        "addr:full": "#7, 2nd Main, 7Th Cross Dinnur, Rt Nagar Post",
        "addr:postcode": "560032",
        "addr:state": "Karnataka",
        "amenity": "clinic",
        "name": "Kids Care Health Centre",
        "source": "OpenGovernmentData",
        "wheelchair": "limited"
      }
    },
    {
      "type": "node",
      "id": 6938653696,
      "lat": 13.0263529,
      "lon": 77.5933929,
      "tags": {
        "addr:district": "Bengaluru Urban",
        "addr:full": "# 9 80 Fet Road H M T Layout R T Nagar",
        "addr:postcode": "560032",
        "addr:state": "Karnataka",
        "amenity": "hospital",
        "name": "Asha Kiran Children & Women Health Care Centre",
        "source": "OpenGovernmentData"
      }
    },
    {
      "type": "node",
      "id": 6938864296,
      "lat": 13.0228314,
      "lon": 77.5863478,
      "tags": {
        "addr:district": "Bengaluru Urban",
        "addr:full": "CGHS Dispensary No.9, Gangenahalli 256, 1stCross, II Main Ganganagar, Layout",
        "addr:state": "Karnataka",
        "amenity": "clinic",
        "health_facility:type": "dispensary",
        "healthcare": "centre",
        "name": "CGHS Dispensary No.9",
        "operator:type": "government",
        "source": "OpenGovernmentData",
        "website": "http://nb.bsf.gov.in/CGHS%20DIspenseries.pdf"
      }
    },
    {
      "type": "node",
      "id": 6938948962,
      "lat": 13.024837,
      "lon": 77.592089,
      "tags": {
        "addr:district": "Bengaluru Urban",
        "addr:full": "402, 2nd Cross Judges Colony Ganganagar",
        "addr:postcode": "560032",
        "addr:state": "Karnataka",
        "amenity": "hospital",
        "name": "Lakshmi Hospital, Ganganagar",
        "source": "OpenGovernmentData"
      }
    },
    {
      "type": "node",
      "id": 6938988776,
      "lat": 13.0250141,
      "lon": 77.5856289,
      "tags": {
        "addr:district": "Bengaluru Urban",
        "addr:full": "1st Main Road, 7th Cross, Ganganagar",
        "addr:postcode": "560032",
        "addr:state": "Karnataka",
        "addr:subdistrict": "Ganganagar",
        "amenity": "hospital",
        "healthcare:speciality": "Piles; fistula; fissure",
        "name": "Dr. T.V.Ramesh Piles Hospital",
        "operator:type": "private",
        "source": "OpenGovernmentData",
        "website": "https://www.pilesramesh.com/"
      }
    },
    {
      "type": "node",
      "id": 6944105329,
      "lat": 13.0251833,
      "lon": 77.5920609,
      "tags": {
        "addr:district": "Bengaluru Urban",
        "addr:full": "No.533, 108 Bus Stop, Ganganagar",
        "addr:postcode": "560032",
        "addr:state": "Karnataka",
        "addr:subdistrict": "R.T.Nagar",
        "amenity": "hospital",
        "name": "Vasan Eye Care Hospital, R.T.Nagar",
        "operator:type": "private",
        "source": "OpenGovernmentData",
        "website": "http://www.vasaneye.in/"
      }
    },
    {
      "type": "node",
      "id": 6944560298,
      "lat": 13.0267995,
      "lon": 77.5870813,
      "tags": {
        "addr:district": "Bengaluru Urban",
        "addr:full": "Cbi Road, (10Th Cross) Between 2 nd & 3 nd Main Ganganagar",
        "addr:postcode": "560032",
        "addr:state": "Karnataka",
        "amenity": "hospital",
        "name": "North Side Health Centre",
        "source": "OpenGovernmentData"
      }
    },
    {
      "type": "node",
      "id": 6947287709,
      "lat": 13.0244555,
      "lon": 77.6003999,
      "tags": {
        "addr:district": "Bengaluru Urban",
        "addr:full": "No.4, 6th Cross, Ganesha Block, Dinnur Main Road",
        "addr:postcode": "560032",
        "addr:state": "Karnataka",
        "addr:subdistrict": "Ganesha Block",
        "amenity": "clinic",
        "name": "Pradnya Nethralaya",
        "operator:type": "private",
        "source": "OpenGovernmentData",
        "website": "https://www.pradnyanethralaya.com/"
      }
    },
    {
      "type": "node",
      "id": 6947430278,
      "lat": 13.0263344,
      "lon": 77.595128,
      "tags": {
        "addr:district": "Bengaluru Urban",
        "addr:full": "#200/A, Hmt Layout, Karthik Complex, Dinnur Main Road, R.T. Nagar",
        "addr:postcode": "560032",
        "addr:state": "Karnataka",
        "amenity": "hospital",
        "name": "Poornima Hospital",
        "source": "OpenGovernmentData"
      }
    },
    {
      "type": "node",
      "id": 6948590938,
      "lat": 13.0241863,
      "lon": 77.5960574,
      "tags": {
        "addr:district": "Bengaluru Urban",
        "addr:full": "No.2, Ex-Servicemen Colony, 5Th Cross, Dinnur Main Road, R.T.Nagar",
        "addr:postcode": "560032",
        "addr:state": "Karnataka",
        "amenity": "hospital",
        "name": "Premier Hospital",
        "source": "OpenGovernmentData"
      }
    },
    {
      "type": "node",
      "id": 7223109295,
      "lat": 13.024189,
      "lon": 77.5851756,
      "tags": {
        "amenity": "bank",
        "atm": "yes",
        "branch": "Gangenahalli",
        "brand": "State Bank of India",
        "brand:wikidata": "Q1340361",
        "check_date": "2025-09-19",
        "name": "State Bank of India",
        "operator": "State Bank of India",
        "short_name": "SBI"
      }
    },
    {
      "type": "node",
      "id": 7223109296,
      "lat": 13.0252747,
      "lon": 77.5854385,
      "tags": {
        "amenity": "bank",
        "atm": "yes",
        "brand": "Axis Bank",
        "brand:wikidata": "Q2003549",
        "name": "Axis Bank",
        "name:kn": "ಆಕ್ಸಿಸ್ ಬ್ಯಾಂಕ್",
        "operator": "Axis Bank"
      }
    },
    {
      "type": "node",
      "id": 7223109303,
      "lat": 13.0259692,
      "lon": 77.5850059,
      "tags": {
        "access": "yes",
        "amenity": "toilets",
        "fee": "yes"
      }
    },
    {
      "type": "node",
      "id": 7257189847,
      "lat": 13.0228696,
      "lon": 77.5848321,
      "tags": {
        "leisure": "fitness_centre",
        "name": "Eon Fitness"
      }
    },
    {
      "type": "node",
      "id": 7257189855,
      "lat": 13.0237231,
      "lon": 77.5850442,
      "tags": {
        "name": "R R Cycle",
        "shop": "bicycle"
      }
    },
    {
      "type": "node",
      "id": 8187962208,
      "lat": 13.024748,
      "lon": 77.5917987,
      "tags": {
        "addr:full": "No. 20, 108B Bus Stand, 1st Main Road, Papanna Block, AK Colony, RT Nagar, Bengaluru, Karnataka",
        "addr:state": "Karnataka",
        "amenity": "bank",
        "brand": "Federal Bank",
        "brand:wikidata": "Q2044983",
        "name": "Federal Bank",
        "name:kn": "ಫೆಡೆರಲ್ ಬ್ಯಾಂಕ್"
      }
    },
    {
      "type": "node",
      "id": 8188057276,
      "lat": 13.0203034,
      "lon": 77.5923603,
      "tags": {
        "addr:full": "335, Ravindra Tagore Nagar Main Rd, Rahmath Nagar, RT Nagar, Bengaluru, Karnataka",
        "addr:state": "Karnataka",
        "amenity": "restaurant",
        "diet:vegetarian": "only",
        "name": "Vishnu Garden Vegetarian Restaurant"
      }
    },
    {
      "type": "node",
      "id": 8288337665,
      "lat": 13.0327874,
      "lon": 77.5965496,
      "tags": {
        "amenity": "school",
        "name": "Sukrupa School"
      }
    },
    {
      "type": "node",
      "id": 8534906273,
      "lat": 13.0265666,
      "lon": 77.593378,
      "tags": {
        "name": "Heads up for Tails",
        "shop": "pet"
      }
    },
    {
      "type": "node",
      "id": 8534917998,
      "lat": 13.026494,
      "lon": 77.5933758,
      "tags": {
        "amenity": "veterinary",
        "name": "CUPA Small Animals Hospital"
      }
    },
    {
      "type": "node",
      "id": 8540221706,
      "lat": 13.0264238,
      "lon": 77.5926546,
      "tags": {
        "amenity": "toilets",
        "name": "Public Toilet",
        "name:kn": "ಸಾರ್ವಜನಿಕ ಶೌಚಾಲಯ"
      }
    },
    {
      "type": "node",
      "id": 8684335453,
      "lat": 13.0329988,
      "lon": 77.5991477,
      "tags": {
        "amenity": "fuel",
        "brand": "Bharat Petroleum",
        "brand:wikidata": "Q854826",
        "name": "Bharat Petroleum",
        "name:kn": "ಭಾರತ್ ಪೆಟ್ರೋಲಿಯಂ"
      }
    },
    {
      "type": "node",
      "id": 8684358823,
      "lat": 13.0331404,
      "lon": 77.5993644,
      "tags": {
        "amenity": "pharmacy",
        "name": "Shiv shakthi medicals"
      }
    },
    {
      "type": "node",
      "id": 9532893828,
      "lat": 13.0276815,
      "lon": 77.5860809,
      "tags": {
        "name": "The White Teak Company",
        "shop": "furniture"
      }
    },
    {
      "type": "node",
      "id": 9532893829,
      "lat": 13.0306487,
      "lon": 77.5865717,
      "tags": {
        "amenity": "post_office",
        "name": "India Post",
        "operator": "India Post",
        "operator:wikidata": "Q3519720"
      }
    },
    {
      "type": "node",
      "id": 9737551099,
      "lat": 13.0353615,
      "lon": 77.5895647,
      "tags": {
        "amenity": "fast_food",
        "name": "Juice Place",
        "opening_hours": "PH,Mo-Su 08:00-20:00"
      }
    },
    {
      "type": "node",
      "id": 9826431267,
      "lat": 13.0222937,
      "lon": 77.5847256,
      "tags": {
        "amenity": "restaurant",
        "name": "The Punjabi Rasoi"
      }
    },
    {
      "type": "node",
      "id": 10242924686,
      "lat": 13.0242809,
      "lon": 77.5866545,
      "tags": {
        "amenity": "recycling",
        "name": "BBMP Dry Waste Collection Center",
        "name:kn": "ಒಣ ತ್ಯಾಜ್ಯ ನಿರ್ವಹಣೆಗೆ ಸ್ಥಳ",
        "recycling_type": "centre"
      }
    },
    {
      "type": "node",
      "id": 10293921742,
      "lat": 13.0264468,
      "lon": 77.5918691,
      "tags": {
        "amenity": "college",
        "club": "music",
        "name": "The Bangalore School of Music"
      }
    },
    {
      "type": "node",
      "id": 10293921743,
      "lat": 13.0264454,
      "lon": 77.5915888,
      "tags": {
        "amenity": "place_of_worship",
        "building": "church",
        "denomination": "catholic",
        "name": "Shrine of St. Jude Thaddeaus",
        "religion": "christian"
      }
    },
    {
      "type": "node",
      "id": 10293921744,
      "lat": 13.0244058,
      "lon": 77.5941852,
      "tags": {
        "diet:vegetarian": "only",
        "name": "Simpli Namdhari's",
        "organic": "only",
        "shop": "supermarket",
        "website": "https://www.simplinamdharis.com/"
      }
    },
    {
      "type": "node",
      "id": 10302703777,
      "lat": 13.0239133,
      "lon": 77.5926268,
      "tags": {
        "amenity": "fast_food",
        "brand": "Popeyes",
        "brand:wikidata": "Q1330910",
        "brand:wikipedia": "en:Popeyes",
        "cuisine": "chicken",
        "delivery": "yes",
        "name": "Popeyes",
        "official_name": "Popeyes Louisiana Kitchen",
        "takeaway": "yes",
        "website": "https://www.popeyes.in/"
      }
    },
    {
      "type": "node",
      "id": 10574607719,
      "lat": 13.0293422,
      "lon": 77.5837058,
      "tags": {
        "amenity": "college",
        "name": "Dairy Science College"
      }
    },
    {
      "type": "node",
      "id": 10574607724,
      "lat": 13.0285112,
      "lon": 77.5835663,
      "tags": {
        "amenity": "college",
        "name": "National Bureau of Soil Survey and Landuse Planning"
      }
    },
    {
      "type": "node",
      "id": 11119061521,
      "lat": 13.0353378,
      "lon": 77.5891319,
      "tags": {
        "name": "Ather",
        "shop": "motorcycle"
      }
    },
    {
      "type": "node",
      "id": 11119061522,
      "lat": 13.0282096,
      "lon": 77.5863039,
      "tags": {
        "amenity": "cafe",
        "brand": "Cafe Coffee Day",
        "brand:wikidata": "Q5017235",
        "cuisine": "coffee_shop",
        "name": "Cafe Coffee Day",
        "name:kn": "ಕಫೆ ಕಾಫಿ ಡೇ",
        "takeaway": "yes"
      }
    },
    {
      "type": "node",
      "id": 11119061523,
      "lat": 13.0282427,
      "lon": 77.5863357,
      "tags": {
        "name": "The White Teak Company",
        "shop": "furniture"
      }
    },
    {
      "type": "node",
      "id": 11359595250,
      "lat": 13.0295006,
      "lon": 77.5949717,
      "tags": {
        "name": "Sai Medicals And General Stores",
        "shop": "medical_supply"
      }
    },
    {
      "type": "node",
      "id": 11359611697,
      "lat": 13.0274249,
      "lon": 77.5935355,
      "tags": {
        "addr:city": "Bengaluru",
        "addr:housenumber": "18",
        "addr:street": "80 Feet Road, RT Nagar",
        "amenity": "fast_food",
        "brand": "Pizza Hut",
        "brand:wikidata": "Q191615",
        "cuisine": "pizza",
        "name": "Pizza Hut",
        "opening_hours": "Mo-Su 11:00-23:00"
      }
    },
    {
      "type": "node",
      "id": 12022091569,
      "lat": 13.0357921,
      "lon": 77.5896457,
      "tags": {
        "amenity": "atm",
        "brand": "HDFC Bank",
        "brand:wikidata": "Q631047",
        "note": "one needs to pass through the Baptist Hospital gate to access the ATM",
        "opening_hours": "24/7",
        "operator": "HDFC Bank",
        "operator:wikidata": "Q631047"
      }
    },
    {
      "type": "node",
      "id": 12140229732,
      "lat": 13.025346,
      "lon": 77.5846247,
      "tags": {
        "access": "permissive",
        "amenity": "parking_entrance",
        "parking": "underground"
      }
    },
    {
      "type": "node",
      "id": 12149767435,
      "lat": 13.02577,
      "lon": 77.5844822,
      "tags": {
        "access": "permissive",
        "amenity": "drinking_water",
        "fee": "no"
      }
    },
    {
      "type": "node",
      "id": 12149767436,
      "lat": 13.0258564,
      "lon": 77.5844357,
      "tags": {
        "access": "permissive",
        "addr:floor": "1",
        "amenity": "toilets",
        "check_date": "2024-09-01",
        "level": "1"
      }
    },
    {
      "type": "node",
      "id": 12525819187,
      "lat": 13.0265315,
      "lon": 77.5871428,
      "tags": {
        "addr:city": "Bengaluru",
        "addr:district": "Bengaluru Urban",
        "addr:housenumber": "197",
        "addr:postcode": "560032",
        "addr:street": "10th Cross, CBI Road, Ganganagar, RT Nagar",
        "name": "Honeybee trips Pvt Ltd",
        "shop": "travel_agency"
      }
    },
    {
      "type": "node",
      "id": 12628600882,
      "lat": 13.0283715,
      "lon": 77.5863916,
      "tags": {
        "check_date": "2025-03-01",
        "name": "Simple",
        "shop": "motorcycle"
      }
    },
    {
      "type": "node",
      "id": 12833133105,
      "lat": 13.0312837,
      "lon": 77.5909518,
      "tags": {
        "brand": "HOPCOMS",
        "brand:wikidata": "Q22908959",
        "name": "HOPCOMS",
        "shop": "greengrocer"
      }
    },
    {
      "type": "node",
      "id": 12833133106,
      "lat": 13.0312001,
      "lon": 77.5909477,
      "tags": {
        "brand": "Nandini",
        "brand:wikidata": "Q124374212",
        "name": "Nandini",
        "shop": "dairy"
      }
    },
    {
      "type": "node",
      "id": 13062869382,
      "lat": 13.0207254,
      "lon": 77.593135,
      "tags": {
        "addr:city": "Bengaluru",
        "addr:country": "IN",
        "amenity": "cafe",
        "brand": "Starbucks",
        "brand:wikidata": "Q37158",
        "cuisine": "coffee_shop",
        "name": "Starbucks",
        "official_name": "Starbucks Coffee",
        "takeaway": "yes"
      }
    },
    {
      "type": "node",
      "id": 13155774216,
      "lat": 13.0350381,
      "lon": 77.5890679,
      "tags": {
        "check_date": "2025-09-19",
        "name": "River",
        "shop": "motorcycle"
      }
    },
    {
      "type": "node",
      "id": 13155774217,
      "lat": 13.0275516,
      "lon": 77.5860894,
      "tags": {
        "amenity": "veterinary_pharmacy",
        "check_date": "2025-09-19",
        "name": "Venky Vet Pharma"
      }
    },
    {
      "type": "node",
      "id": 13155774218,
      "lat": 13.0252499,
      "lon": 77.5855296,
      "tags": {
        "brand": "Suzuki",
        "brand:wikidata": "Q181642",
        "check_date": "2025-09-19",
        "name": "Suzuki",
        "operator": "Meghanath",
        "shop": "motorcycle"
      }
    },
    {
      "type": "node",
      "id": 13155774219,
      "lat": 13.0249358,
      "lon": 77.5854217,
      "tags": {
        "amenity": "bank",
        "brand": "Indian Bank",
        "brand:wikidata": "Q2003789",
        "check_date": "2025-09-19",
        "name": "Indian Bank"
      }
    },
    {
      "type": "node",
      "id": 13155774220,
      "lat": 13.0236639,
      "lon": 77.5851074,
      "tags": {
        "check_date": "2025-09-19",
        "name": "OLA",
        "shop": "motorcycle"
      }
    },
    {
      "type": "node",
      "id": 13155774221,
      "lat": 13.0226528,
      "lon": 77.5848532,
      "tags": {
        "brand": "Vespa",
        "brand:wikidata": "Q217673",
        "check_date": "2025-09-19",
        "name": "Vespa",
        "shop": "motorcycle"
      }
    },
    {
      "type": "node",
      "id": 13155774222,
      "lat": 13.0225276,
      "lon": 77.5848255,
      "tags": {
        "brand": "Triumph",
        "brand:wikidata": "Q1140383",
        "check_date": "2025-09-19",
        "shop": "motorcycle"
      }
    },
    {
      "type": "way",
      "id": 45740308,
      "center": {
        "lat": 13.0194919,
        "lon": 77.5962353
      },
      "tags": {
        "leisure": "park"
      }
    },
    {
      "type": "way",
      "id": 45740314,
      "center": {
        "lat": 13.0218574,
        "lon": 77.5935145
      },
      "tags": {
        "leisure": "park"
      }
    },
    {
      "type": "way",
      "id": 45740327,
      "center": {
        "lat": 13.0213685,
        "lon": 77.5970546
      },
      "tags": {
        "leisure": "park"
      }
    },
    {
      "type": "way",
      "id": 45740328,
      "center": {
        "lat": 13.0209333,
        "lon": 77.5984875
      },
      "tags": {
        "landuse": "commercial",
        "leisure": "resort",
        "name": "Patel's Inn Resort"
      }
    },
    {
      "type": "way",
      "id": 54963084,
      "center": {
        "lat": 13.0347249,
        "lon": 77.5901708
      },
      "tags": {
        "addr:city": "Bangalore",
        "addr:district": "Bengaluru Urban",
        "addr:full": "138/1, Srinivasa Nagar, Devara Jeevanahalli, Bengaluru, Karnataka",
        "addr:postcode": "560024",
        "addr:state": "Karnataka",
        "addr:street": "Bellary Road",
        "amenity": "hospital",
        "emergency": "yes",
        "healthcare": "hospital",
        "name": "Baptist Hospital",
        "name:kn": "ಬೆಂಗಳೂರು ಬಾಪ್ಟಿಸ್ಟ್ ಆಸ್ಪತ್ರೆ",
        "phone": "08022024700",
        "source": "OpenGovernmentData",
        "website": "https://www.bbh.org.in/",
        "wheelchair": "limited"
      }
    },
    {
      "type": "way",
      "id": 71516174,
      "center": {
        "lat": 13.0285944,
        "lon": 77.5954864
      },
      "tags": {
        "leisure": "park",
        "name": "VV Park"
      }
    },
    {
      "type": "way",
      "id": 149355875,
      "center": {
        "lat": 13.0291133,
        "lon": 77.5857219
      },
      "tags": {
        "leisure": "park",
        "name": "Veterinary College Garden"
      }
    },
    {
      "type": "way",
      "id": 175278312,
      "center": {
        "lat": 13.0202739,
        "lon": 77.595591
      },
      "tags": {
        "amenity": "public_building",
        "building": "yes"
      }
    },
    {
      "type": "way",
      "id": 175278313,
      "center": {
        "lat": 13.0205158,
        "lon": 77.5947013
      },
      "tags": {
        "amenity": "public_building",
        "building": "yes"
      }
    },
    {
      "type": "way",
      "id": 211067633,
      "center": {
        "lat": 13.0269684,
        "lon": 77.6004156
      },
      "tags": {
        "amenity": "school",
        "name": "Vivekananda centre",
        "name:kn": "ವಿವೇಕನಂದ ಕೇಂದ್ರ"
      }
    },
    {
      "type": "way",
      "id": 260994096,
      "center": {
        "lat": 13.0283387,
        "lon": 77.5844332
      },
      "tags": {
        "amenity": "veterinary",
        "name": "Veterinary Hospital",
        "name:kn": "ಪಶುವೈದ್ಯ ಆಸ್ಪತ್ರೆ"
      }
    },
    {
      "type": "way",
      "id": 260994753,
      "center": {
        "lat": 13.0275269,
        "lon": 77.5843812
      },
      "tags": {
        "amenity": "post_office",
        "name": "UAS Farm Post Office",
        "operator": "India Post"
      }
    },
    {
      "type": "way",
      "id": 278457027,
      "center": {
        "lat": 13.0223671,
        "lon": 77.5954429
      },
      "tags": {
        "leisure": "park",
        "name": "Park at RT Nagar"
      }
    },
    {
      "type": "way",
      "id": 325764796,
      "center": {
        "lat": 13.0280151,
        "lon": 77.5852582
      },
      "tags": {
        "leisure": "park"
      }
    },
    {
      "type": "way",
      "id": 325764797,
      "center": {
        "lat": 13.0301133,
        "lon": 77.5861251
      },
      "tags": {
        "leisure": "park"
      }
    },
    {
      "type": "way",
      "id": 346501622,
      "center": {
        "lat": 13.0360513,
        "lon": 77.5905954
      },
      "tags": {
        "amenity": "restaurant",
        "building": "yes"
      }
    },
    {
      "type": "way",
      "id": 347120887,
      "center": {
        "lat": 13.0267744,
        "lon": 77.5987021
      },
      "tags": {
        "amenity": "school",
        "building": "yes",
        "name": "Vatican High School"
      }
    },
    {
      "type": "way",
      "id": 353374337,
      "center": {
        "lat": 13.0220269,
        "lon": 77.5928761
      },
      "tags": {
        "amenity": "school",
        "name": "Florence School"
      }
    },
    {
      "type": "way",
      "id": 353378505,
      "center": {
        "lat": 13.0232026,
        "lon": 77.5959511
      },
      "tags": {
        "leisure": "park"
      }
    },
    {
      "type": "way",
      "id": 367411062,
      "center": {
        "lat": 13.0343582,
        "lon": 77.5940581
      },
      "tags": {
        "leisure": "park",
        "name": "BBMP Amarjyothi Layout Park",
        "name:kn": "ಅಮರಜ್ಯೋತಿ ಉದ್ಯಾನವನ"
      }
    },
    {
      "type": "way",
      "id": 773825319,
      "center": {
        "lat": 13.0280416,
        "lon": 77.586258
      },
      "tags": {
        "amenity": "fuel",
        "brand": "Bharat Petroleum",
        "brand:wikidata": "Q854826",
        "name": "Bharat Petroleum",
        "name:kn": "ಭಾರತ್ ಪೆಟ್ರೋಲಿಯಂ",
        "operator": "Bharat Petroleum"
      }
    },
    {
      "type": "way",
      "id": 775184937,
      "center": {
        "lat": 13.0206624,
        "lon": 77.5857778
      },
      "tags": {
        "leisure": "garden"
      }
    },
    {
      "type": "way",
      "id": 782108513,
      "center": {
        "lat": 13.0363198,
        "lon": 77.590595
      },
      "tags": {
        "amenity": "restaurant",
        "building": "yes"
      }
    },
    {
      "type": "way",
      "id": 782292577,
      "center": {
        "lat": 13.0349259,
        "lon": 77.5915241
      },
      "tags": {
        "access": "private",
        "leisure": "park"
      }
    },
    {
      "type": "way",
      "id": 839044763,
      "center": {
        "lat": 13.0194822,
        "lon": 77.5946407
      },
      "tags": {
        "leisure": "park"
      }
    },
    {
      "type": "way",
      "id": 963352879,
      "center": {
        "lat": 13.0333764,
        "lon": 77.5886106
      },
      "tags": {
        "amenity": "police",
        "name": "R T Nagar Traffic Police station"
      }
    },
    {
      "type": "way",
      "id": 963352882,
      "center": {
        "lat": 13.0248754,
        "lon": 77.5830666
      },
      "tags": {
        "addr:city": "Bengaluru",
        "addr:postcode": "560024",
        "addr:street": "Hebbal, Sanjaynagar, Karnataka",
        "amenity": "college",
        "fixme": "polygon boundaries",
        "landuse": "education",
        "name": "ICAR - Indian Veterinary Research Institute, Hebbal",
        "name:kn": "ಕೃಷಿ ವಿಶ್ವವಿದ್ಯಾಲಯ",
        "phone": "080 2341 0729",
        "website": "ivri.nic.in"
      }
    },
    {
      "type": "way",
      "id": 1119921717,
      "center": {
        "lat": 13.0241141,
        "lon": 77.5866881
      },
      "tags": {
        "leisure": "playground"
      }
    },
    {
      "type": "way",
      "id": 1119921718,
      "center": {
        "lat": 13.024187,
        "lon": 77.5863339
      },
      "tags": {
        "leisure": "park"
      }
    },
    {
      "type": "way",
      "id": 1125698046,
      "center": {
        "lat": 13.0258289,
        "lon": 77.5947264
      },
      "tags": {
        "amenity": "school"
      }
    },
    {
      "type": "way",
      "id": 1172705361,
      "center": {
        "lat": 13.0352813,
        "lon": 77.5883564
      },
      "tags": {
        "leisure": "park"
      }
    },
    {
      "type": "way",
      "id": 1308743211,
      "center": {
        "lat": 13.0334315,
        "lon": 77.5915469
      },
      "tags": {
        "access": "private",
        "amenity": "parking",
        "parking": "surface"
      }
    },
    {
      "type": "way",
      "id": 1311549277,
      "center": {
        "lat": 13.0247211,
        "lon": 77.5852977
      },
      "tags": {
        "amenity": "fuel",
        "brand": "Hindustan Petroleum",
        "brand:wikidata": "Q1619375",
        "name": "Hindustan Petroleum",
        "name:kn": "ಹಿಂದುಸ್ತಾನ್ ಪೆಟ್ರೋಲಿಯಂ",
        "official_name": "Hindustan Petroleum",
        "wheelchair": "limited"
      }
    },
    {
      "type": "way",
      "id": 1385609285,
      "center": {
        "lat": 13.0244119,
        "lon": 77.585337
      },
      "tags": {
        "amenity": "place_of_worship",
        "religion": "hindu"
      }
    },
    {
      "type": "way",
      "id": 1386042566,
      "center": {
        "lat": 13.0310903,
        "lon": 77.5901491
      },
      "tags": {
        "leisure": "park"
      }
    },
    {
      "type": "way",
      "id": 1386042651,
      "center": {
        "lat": 13.0246853,
        "lon": 77.5931961
      },
      "tags": {
        "amenity": "police",
        "name": "RT Nagar Police Station",
        "name:kn": "ಆರ್ ಟಿ ನಗರ ಪೊಲೀಸ್ ಠಾಣೆ"
      }
    },
    {
      "type": "way",
      "id": 1386060476,
      "center": {
        "lat": 13.0333663,
        "lon": 77.5979688
      },
      "tags": {
        "amenity": "college",
        "landuse": "education",
        "name": "Rajiv Gandhi Institute of Technology"
      }
    },
    {
      "type": "way",
      "id": 1386060477,
      "center": {
        "lat": 13.0338347,
        "lon": 77.5974269
      },
      "tags": {
        "addr:city": "Bangalore",
        "addr:postcode": "560032",
        "addr:street": "Cholanagar",
        "amenity": "college",
        "description": "Dental College and Hospital",
        "landuse": "education",
        "name": "Sri Rajiv Gandhi College of Dental Sciences & Hospital",
        "opening_hours": "Mo-Sa 08:30-15:30",
        "phone": "+918023339377",
        "website": "https://srgcds.ac.in"
      }
    },
    {
      "type": "way",
      "id": 1386060496,
      "center": {
        "lat": 13.0320393,
        "lon": 77.5926422
      },
      "tags": {
        "leisure": "park"
      }
    },
    {
      "type": "way",
      "id": 1386060497,
      "center": {
        "lat": 13.0315745,
        "lon": 77.5914906
      },
      "tags": {
        "leisure": "park",
        "name": "Captain Kevin Park"
      }
    },
    {
      "type": "way",
      "id": 1386060510,
      "center": {
        "lat": 13.0312274,
        "lon": 77.5912953
      },
      "tags": {
        "amenity": "place_of_worship",
        "landuse": "religious",
        "religion": "hindu"
      }
    },
    {
      "type": "way",
      "id": 1386060629,
      "center": {
        "lat": 13.0321748,
        "lon": 77.5917027
      },
      "tags": {
        "leisure": "pitch",
        "sport": "soccer"
      }
    },
    {
      "type": "way",
      "id": 1386060630,
      "center": {
        "lat": 13.0322036,
        "lon": 77.5915014
      },
      "tags": {
        "access": "yes",
        "hoops": "2",
        "leisure": "pitch",
        "sport": "basketball",
        "surface": "concrete"
      }
    },
    {
      "type": "way",
      "id": 1386060657,
      "center": {
        "lat": 13.0291099,
        "lon": 77.592251
      },
      "tags": {
        "amenity": "place_of_worship",
        "landuse": "religious",
        "name": "Sri Shirdi Saibaba Temple",
        "religion": "hindu"
      }
    },
    {
      "type": "way",
      "id": 1386060663,
      "center": {
        "lat": 13.0293226,
        "lon": 77.5905011
      },
      "tags": {
        "leisure": "park",
        "name": "RBI Colony Park"
      }
    },
    {
      "type": "way",
      "id": 1386060674,
      "center": {
        "lat": 13.0294084,
        "lon": 77.5892348
      },
      "tags": {
        "amenity": "college",
        "name": "Vidya Vahini School and PU College"
      }
    },
    {
      "type": "way",
      "id": 1386469070,
      "center": {
        "lat": 13.0185914,
        "lon": 77.5919576
      },
      "tags": {
        "amenity": "fuel",
        "operator": "BP"
      }
    },
    {
      "type": "way",
      "id": 1388693672,
      "center": {
        "lat": 13.0302783,
        "lon": 77.5935492
      },
      "tags": {
        "amenity": "place_of_worship",
        "building": "mosque",
        "name:kn": "ಮಸೀದಿ",
        "religion": "muslim"
      }
    },
    {
      "type": "way",
      "id": 1393079985,
      "center": {
        "lat": 13.0272639,
        "lon": 77.5850349
      },
      "tags": {
        "leisure": "pitch",
        "sport": "tennis"
      }
    },
    {
      "type": "way",
      "id": 1433092910,
      "center": {
        "lat": 13.0349676,
        "lon": 77.5915546
      },
      "tags": {
        "access": "private",
        "leisure": "playground"
      }
    },
    {
      "type": "way",
      "id": 1433092944,
      "center": {
        "lat": 13.0360265,
        "lon": 77.5932498
      },
      "tags": {
        "access": "private",
        "leisure": "swimming_pool"
      }
    },
    {
      "type": "way",
      "id": 1433092945,
      "center": {
        "lat": 13.0360889,
        "lon": 77.5930945
      },
      "tags": {
        "access": "private",
        "leisure": "playground"
      }
    },
    {
      "type": "way",
      "id": 1433092958,
      "center": {
        "lat": 13.0347569,
        "lon": 77.5927344
      },
      "tags": {
        "access": "private",
        "leisure": "pitch",
        "sport": "basketball"
      }
    },
    {
      "type": "way",
      "id": 1433092959,
      "center": {
        "lat": 13.034955,
        "lon": 77.592752
      },
      "tags": {
        "access": "private",
        "leisure": "pitch",
        "sport": "tennis"
      }
    },
    {
      "type": "way",
      "id": 1448247042,
      "center": {
        "lat": 13.0344628,
        "lon": 77.5905401
      },
      "tags": {
        "access": "private",
        "amenity": "parking",
        "parking": "surface"
      }
    }
  ]
}