{
  "area_name": "HMT Ward",
  "osm_id": 19883266,
  "osm_type": "relation",
  "place_type": "administrative",
  "amenity_count": 67,
  "amenities": [
    {
      "type": "node",
      "id": 426408807,
      "lat": 13.0376617,
      "lon": 77.5352197,
      "tags": {
        "amenity": "atm",
        "operator": "SBI"
      }
    },
    {
      "type": "node",
      "id": 426926468,
      "lat": 13.0492109,
      "lon": 77.547547,
      "tags": {
        "amenity": "restaurant",
        "name": "Kamat Nandanvan",
        "name:kn": "ಕಾಮತ್ ನಂದನವನ",
        "wheelchair": "no"
      }
    },
    {
      "type": "node",
      "id": 443726342,
      "lat": 13.0483161,
      "lon": 77.5520608,
      "tags": {
        "amenity": "place_of_worship",
        "name": "Ekadanta Temple",
        "name:kn": "ಏಕದಂತ ದೇವಸ್ಥಾನ",
        "religion": "hindu",
        "wheelchair": "no"
      }
    },
    {
      "type": "node",
      "id": 521144440,
      "lat": 13.0492252,
      "lon": 77.5474051,
      "tags": {
        "name": "Nilgiris",
        "name:kn": "ನೀಲ್ಗಿರೀಸ್",
        "shop": "supermarket",
        "wheelchair": "no"
      }
    },
    {
      "type": "node",
      "id": 589848191,
      "lat": 13.0397585,
      "lon": 77.5555028,
      "tags": {
        "name": "City Supermarket",
        "shop": "supermarket"
      }
    },
    {
      "type": "node",
      "id": 589848959,
      "lat": 13.0400303,
      "lon": 77.5555993,
      "tags": {
        "addr:street": "Pipeline Road",
        "name": "Spencers Daily",
        "organic": "yes",
        "shop": "supermarket",
        "website": "https://www.spencers.in/"
      }
    },
    {
      "type": "node",
      "id": 590002267,
      "lat": 13.0436252,
      "lon": 77.5536883,
      "tags": {
        "amenity": "fuel",
        "brand": "Hindustan Petroleum",
        "brand:wikidata": "Q1619375",
        "compressed_air": "yes",
        "name": "Hindustan Petroleum",
        "official_name": "Hindustan Petroleum",
        "operator": "Hindustan Petroleum",
        "wheelchair": "limited"
      }
    },
    {
      "type": "node",
      "id": 590010907,
      "lat": 13.0521546,
      "lon": 77.5515881,
      "tags": {
        "amenity": "restaurant",
        "cuisine": "regional",
        "microbrewery": "no",
        "name": "Bharath",
        "name:kn": "ಭಾರತ್",
        "outdoor_seating": "no",
        "toilets:wheelchair": "no",
        "wheelchair": "no"
      }
    },
    {
      "type": "node",
      "id": 590011234,
      "lat": 13.051811,
      "lon": 77.5517989,
      "tags": {
        "addr:postcode": "560013",
        "addr:street": "Bel Market",
        "amenity": "fast_food",
        "name": "Kadamba Veg",
        "toilets:wheelchair": "no",
        "wheelchair": "no"
      }
    },
    {
      "type": "node",
      "id": 598947938,
      "lat": 13.0457661,
      "lon": 77.5416305,
      "tags": {
        "amenity": "school",
        "name": "Father Mathews School"
      }
    },
    {
      "type": "node",
      "id": 1462247631,
      "lat": 13.0441027,
      "lon": 77.5439669,
      "tags": {
        "amenity": "school",
        "name": "St. Claret PU College"
      }
    },
    {
      "type": "node",
      "id": 1462248328,
      "lat": 13.043392,
      "lon": 77.5451578,
      "tags": {
        "amenity": "school",
        "name": "Saint Claret School"
      }
    },
    {
      "type": "node",
      "id": 1473042460,
      "lat": 13.0496036,
      "lon": 77.5437392,
      "tags": {
        "alt_name": "HMT Cinema",
        "amenity": "theatre",
        "name": "K V S Gowda Open air theater",
        "wheelchair": "no"
      }
    },
    {
      "type": "node",
      "id": 2859829423,
      "lat": 13.0400516,
      "lon": 77.5573893,
      "tags": {
        "amenity": "bank",
        "atm": "yes",
        "brand": "Union Bank of India",
        "brand:wikidata": "Q2004078",
        "brand:wikipedia": "en:Union Bank of India",
        "name": "Union Bank of India",
        "name:en": "Union Bank of India",
        "name:kn": "ಯೂನಿಯನ್ ಬ್ಯಾಂಕ್",
        "short_name": "UBI",
        "website": "https://www.unionbankofindia.co.in/",
        "wheelchair": "no"
      }
    },
    {
      "type": "node",
      "id": 2859829724,
      "lat": 13.0403573,
      "lon": 77.5574215,
      "tags": {
        "amenity": "bank",
        "atm": "yes",
        "name": "Vijaya Bank - Gokula",
        "name:kn": "ವಿಜಯ ಬ್ಯಾಂಕು",
        "wheelchair": "no"
      }
    },
    {
      "type": "node",
      "id": 4488039310,
      "lat": 13.0435746,
      "lon": 77.5532589,
      "tags": {
        "addr:city": "Bangalore",
        "addr:housenumber": "901",
        "addr:postcode": "560054",
        "addr:street": "MES Ring Road, Muthyala Nagar,",
        "name": "New Kiran Super Bazar",
        "phone": "+91 9986875053",
        "shop": "supermarket",
        "website": "NA"
      }
    },
    {
      "type": "node",
      "id": 4488602509,
      "lat": 13.039288,
      "lon": 77.5537006,
      "tags": {
        "addr:city": "Bengaluru",
        "addr:housenumber": "10",
        "addr:postcode": "560054",
        "addr:street": "Muthyalamma Nagar 1st Main Road",
        "name": "I Mart",
        "phone": "(91)-80-39629225",
        "shop": "supermarket"
      }
    },
    {
      "type": "node",
      "id": 7164393032,
      "lat": 13.0465165,
      "lon": 77.5368583,
      "tags": {
        "leisure": "fitness_station"
      }
    },
    {
      "type": "node",
      "id": 7228148584,
      "lat": 13.0401787,
      "lon": 77.5574362,
      "tags": {
        "amenity": "fast_food",
        "cuisine": "juice",
        "name": "Lassi Shop"
      }
    },
    {
      "type": "node",
      "id": 7228151822,
      "lat": 13.0496063,
      "lon": 77.5534585,
      "tags": {
        "name": "Nandini Milk Galaxy",
        "shop": "dairy"
      }
    },
    {
      "type": "node",
      "id": 8137530880,
      "lat": 13.04116,
      "lon": 77.5580795,
      "tags": {
        "amenity": "vending_machine",
        "name": "Water ATM",
        "operator": "BBMP",
        "vending": "water"
      }
    },
    {
      "type": "node",
      "id": 8137538969,
      "lat": 13.0419839,
      "lon": 77.5557271,
      "tags": {
        "amenity": "vending_machine",
        "name": "Water ATM",
        "operator": "BBMP",
        "vending": "water"
      }
    },
    {
      "type": "node",
      "id": 8188057146,
      "lat": 13.044658,
      "lon": 77.552906,
      "tags": {
        "addr:full": "7 main near hp gas agency bahubali nagar jalahalli, Bahubali Nagar, Jalahalli, Bengaluru, Karnataka",
        "addr:state": "Karnataka",
        "amenity": "restaurant",
        "name": "Dashami Fast Food"
      }
    },
    {
      "type": "node",
      "id": 8427345271,
      "lat": 13.0435248,
      "lon": 77.5520426,
      "tags": {
        "amenity": "dentist",
        "name": "Kushi Dental Clinic",
        "phone": "9886059236"
      }
    },
    {
      "type": "node",
      "id": 9912846653,
      "lat": 13.0438016,
      "lon": 77.5542565,
      "tags": {
        "amenity": "toilets",
        "fee": "no",
        "operator": "BBMP"
      }
    },
    {
      "type": "node",
      "id": 11496155848,
      "lat": 13.0402331,
      "lon": 77.55714,
      "tags": {
        "amenity": "post_office",
        "check_date": "2024-01-07",
        "name": "MS Ramaiah Post Office",
        "operator": "India Post",
        "operator:wikidata": "Q3519720"
      }
    },
    {
      "type": "node",
      "id": 12676265205,
      "lat": 13.0401523,
      "lon": 77.5571714,
      "tags": {
        "amenity": "post_box"
      }
    },
    {
      "type": "node",
      "id": 12676265206,
      "lat": 13.0421041,
      "lon": 77.5573027,
      "tags": {
        "check_date": "2025-03-18",
        "name": "Girias",
        "shop": "electronics"
      }
    },
    {
      "type": "node",
      "id": 12676265207,
      "lat": 13.0424609,
      "lon": 77.5572131,
      "tags": {
        "check_date": "2025-03-18",
        "name": "Car Care",
        "shop": "car_repair"
      }
    },
    {
      "type": "node",
      "id": 12676265212,
      "lat": 13.0493054,
      "lon": 77.553817,
      "tags": {
        "amenity": "social_centre",
        "check_date": "2025-03-18",
        "name": "Bharat Electronics Employee Co-operative Society Limited"
      }
    },
    {
      "type": "node",
      "id": 12676265214,
      "lat": 13.0522469,
      "lon": 77.551486,
      "tags": {
        "check_date": "2025-03-18",
        "name": "BL Suguna",
        "shop": "butcher"
      }
    },
    {
      "type": "node",
      "id": 12676265220,
      "lat": 13.0516497,
      "lon": 77.5515983,
      "tags": {
        "amenity": "pharmacy",
        "brand": "Apollo Pharmacy",
        "brand:wikidata": "Q62562612",
        "check_date": "2025-03-18",
        "healthcare": "pharmacy",
        "name": "Apollo Pharmacy"
      }
    },
    {
      "type": "node",
      "id": 12676265221,
      "lat": 13.0496128,
      "lon": 77.5535048,
      "tags": {
        "amenity": "fast_food",
        "check_date": "2025-03-18",
        "name": "Sri Mahalasa Grand"
      }
    },
    {
      "type": "node",
      "id": 12676265223,
      "lat": 13.0406654,
      "lon": 77.5574556,
      "tags": {
        "check_date": "2025-03-18",
        "shop": "garden_centre"
      }
    },
    {
      "type": "way",
      "id": 37107047,
      "center": {
        "lat": 13.0348402,
        "lon": 77.5507145
      },
      "tags": {
        "leisure": "park",
        "name": "Jayaprakash Narayan Park",
        "name:etymology:wikidata": "Q734509",
        "name:kn": "ಜಯಪ್ರಕಾಶ ನಾರಾಯಣ ಉದ್ಯಾನ"
      }
    },
    {
      "type": "way",
      "id": 41972358,
      "center": {
        "lat": 13.043819,
        "lon": 77.5448045
      },
      "tags": {
        "amenity": "college",
        "name": "St. Claret College"
      }
    },
    {
      "type": "way",
      "id": 42013556,
      "center": {
        "lat": 13.0441165,
        "lon": 77.5380409
      },
      "tags": {
        "amenity": "school",
        "name": "HMT School",
        "name:kn": "ಎಚ್ ಎಂ ಟಿ ಶಾಲೆ"
      }
    },
    {
      "type": "way",
      "id": 42014453,
      "center": {
        "lat": 13.0428557,
        "lon": 77.5383775
      },
      "tags": {
        "amenity": "college",
        "name": "National Academy of Customs Excise and Narcotics",
        "short_name": "NACEN"
      }
    },
    {
      "type": "way",
      "id": 42014454,
      "center": {
        "lat": 13.04958,
        "lon": 77.5509219
      },
      "tags": {
        "amenity": "hospital",
        "name": "HMT Hospital",
        "name:kn": "ಎಚ್ಎಂಟಿ ಆಸ್ಪತ್ರೆ",
        "wheelchair": "limited"
      }
    },
    {
      "type": "way",
      "id": 46251156,
      "center": {
        "lat": 13.0456314,
        "lon": 77.5333949
      },
      "tags": {
        "amenity": "college",
        "name": "Ministry of Fisheries Training"
      }
    },
    {
      "type": "way",
      "id": 133020179,
      "center": {
        "lat": 13.0444977,
        "lon": 77.5545298
      },
      "tags": {
        "amenity": "school",
        "name": "BEL CBSE Vidyalaya",
        "wheelchair": "limited"
      }
    },
    {
      "type": "way",
      "id": 133020314,
      "center": {
        "lat": 13.0434541,
        "lon": 77.5510744
      },
      "tags": {
        "amenity": "school",
        "name": "ತಾಯಿ ತೆರೇಸಾ ಶಾಲೆ",
        "wheelchair": "no"
      }
    },
    {
      "type": "way",
      "id": 400456658,
      "center": {
        "lat": 13.0458527,
        "lon": 77.5345359
      },
      "tags": {
        "leisure": "pitch"
      }
    },
    {
      "type": "way",
      "id": 767320184,
      "center": {
        "lat": 13.045502,
        "lon": 77.5380808
      },
      "tags": {
        "leisure": "pitch",
        "lit": "yes",
        "name": "Basketball Court",
        "name:kn": "ಬಾಸ್ಕೆಟ್ ಬಾಲ್ ಅಂಕಣ",
        "sport": "basketball",
        "surface": "concrete"
      }
    },
    {
      "type": "way",
      "id": 767320185,
      "center": {
        "lat": 13.0472655,
        "lon": 77.5367212
      },
      "tags": {
        "leisure": "pitch",
        "lit": "yes",
        "name": "Tennis Court",
        "name:kn": "ಟೆನ್ನಿಸ್ ಅಂಗಣ",
        "sport": "tennis",
        "surface": "concrete"
      }
    },
    {
      "type": "way",
      "id": 767320187,
      "center": {
        "lat": 13.0457872,
        "lon": 77.5375299
      },
      "tags": {
        "access": "private",
        "leisure": "swimming_pool"
      }
    },
    {
      "type": "way",
      "id": 767320219,
      "center": {
        "lat": 13.0436854,
        "lon": 77.544117
      },
      "tags": {
        "leisure": "pitch",
        "sport": "basketball"
      }
    },
    {
      "type": "way",
      "id": 767320220,
      "center": {
        "lat": 13.0438343,
        "lon": 77.5451856
      },
      "tags": {
        "leisure": "pitch",
        "sport": "basketball"
      }
    },
    {
      "type": "way",
      "id": 767320225,
      "center": {
        "lat": 13.0443834,
        "lon": 77.5454065
      },
      "tags": {
        "amenity": "place_of_worship",
        "name": "St. Thomas Church",
        "name:kn": "ಸೇಂಟ್ ಥೋಮಸ್ ಚರ್ಚ್",
        "religion": "christian"
      }
    },
    {
      "type": "way",
      "id": 767320227,
      "center": {
        "lat": 13.0430184,
        "lon": 77.5448272
      },
      "tags": {
        "amenity": "parking"
      }
    },
    {
      "type": "way",
      "id": 767320228,
      "center": {
        "lat": 13.0429109,
        "lon": 77.545146
      },
      "tags": {
        "leisure": "pitch",
        "sport": "tennis"
      }
    },
    {
      "type": "way",
      "id": 767320230,
      "center": {
        "lat": 13.0435481,
        "lon": 77.5445871
      },
      "tags": {
        "leisure": "park"
      }
    },
    {
      "type": "way",
      "id": 774708672,
      "center": {
        "lat": 13.0405827,
        "lon": 77.5569057
      },
      "tags": {
        "amenity": "place_of_worship",
        "name": "Venkateswara Temple",
        "name:kn": "ವೆಂಕಟೇಶ್ವರ ದೇವಸ್ಥಾನ",
        "religion": "hindu",
        "wheelchair": "no"
      }
    },
    {
      "type": "way",
      "id": 774708673,
      "center": {
        "lat": 13.0409309,
        "lon": 77.5563535
      },
      "tags": {
        "amenity": "community_centre"
      }
    },
    {
      "type": "way",
      "id": 774708680,
      "center": {
        "lat": 13.0477733,
        "lon": 77.5547259
      },
      "tags": {
        "leisure": "garden"
      }
    },
    {
      "type": "way",
      "id": 774708681,
      "center": {
        "lat": 13.0462568,
        "lon": 77.5557062
      },
      "tags": {
        "leisure": "garden"
      }
    },
    {
      "type": "way",
      "id": 774708682,
      "center": {
        "lat": 13.0504359,
        "lon": 77.5516648
      },
      "tags": {
        "amenity": "community_centre",
        "building": "yes",
        "name": "BEL Kalyana Mantapa"
      }
    },
    {
      "type": "way",
      "id": 774708683,
      "center": {
        "lat": 13.0505443,
        "lon": 77.5525439
      },
      "tags": {
        "leisure": "park"
      }
    },
    {
      "type": "way",
      "id": 781538792,
      "center": {
        "lat": 13.0384134,
        "lon": 77.5361185
      },
      "tags": {
        "leisure": "park"
      }
    },
    {
      "type": "way",
      "id": 874066501,
      "center": {
        "lat": 13.0410007,
        "lon": 77.5582603
      },
      "tags": {
        "leisure": "park",
        "name": "Sundaranagar Park",
        "name:kn": "ಸುಂದರನಗರ ಉದ್ಯಾನ",
        "operator": "ಬೃಹತ್ ಬೆಂಗಳೂರು ಮಹಾನಗರ ಪಾಲಿಕೆ",
        "operator:en": "Bruhat Bengaluru Mahanagara Palike",
        "operator:ka": "ಬೃಹತ್ ಬೆಂಗಳೂರು ಮಹಾನಗರ ಪಾಲಿಕೆ",
        "operator:short": "BBMP",
        "operator:type": "government",
        "operator:wikidata": "Q4978693"
      }
    },
    {
      "type": "way",
      "id": 1189935461,
      "center": {
        "lat": 13.0413816,
        "lon": 77.5350177
      },
      "tags": {
        "amenity": "bicycle_parking",
        "building": "shelter"
      }
    },
    {
      "type": "way",
      "id": 1303659502,
      "center": {
        "lat": 13.0387206,
        "lon": 77.537034
      },
      "tags": {
        "access": "private",
        "amenity": "parking",
        "parking": "surface"
      }
    },
    {
      "type": "way",
      "id": 1303659503,
      "center": {
        "lat": 13.0389454,
        "lon": 77.5368112
      },
      "tags": {
        "access": "private",
        "amenity": "parking",
        "parking": "surface"
      }
    },
    {
      "type": "way",
      "id": 1308403425,
      "center": {
        "lat": 13.0426534,
        "lon": 77.5567946
      },
      "tags": {
        "alt_name": "Sri Laxmi Petrol / Gas Station",
        "amenity": "fuel",
        "brand": "Bharat Petroleum",
        "brand:wikidata": "Q854826",
        "check_date": "2025-08-08",
        "name": "Bharat Petroleum",
        "name:kn": "ಭಾರತ್ ಪೆಟ್ರೋಲಿಯಂ",
        "operator": "Bharat Petroleum",
        "wheelchair": "limited"
      }
    },
    {
      "type": "way",
      "id": 1308403427,
      "center": {
        "lat": 13.0431085,
        "lon": 77.5567444
      },
      "tags": {
        "alt_name": "Mohan Gas Station",
        "amenity": "fuel",
        "brand": "Indian Oil",
        "brand:wikidata": "Q1289348",
        "brand:wikipedia": "en:Indian Oil Corporation",
        "check_date": "2025-08-08",
        "name": "Indian Oil",
        "operator": "Indian Oil",
        "wheelchair": "no"
      }
    },
    {
      "type": "way",
      "id": 1333114385,
      "center": {
        "lat": 13.0432026,
        "lon": 77.5378022
      },
      "tags": {
        "access": "private",
        "leisure": "swimming_pool"
      }
    },
    {
      "type": "way",
      "id": 1353057322,
      "center": {
        "lat": 13.0448177,
        "lon": 77.5281941
      },
      "tags": {
        "leisure": "park"
      }
    }
  ]
}