{
  "area_name": "Hombegowda Nagara",
  "osm_id": 19883477,
  "osm_type": "relation",
  "place_type": "administrative",
  "amenity_count": 218,
  "amenities": [
    {
      "type": "node",
      "id": 315207084,
      "lat": 12.9537994,
      "lon": 77.5925553,
      "tags": {
        "amenity": "toilets",
        "survey:date": "2024-02-01"
      }
    },
    {
      "type": "node",
      "id": 317119985,
      "lat": 12.9543746,
      "lon": 77.5930172,
      "tags": {
        "amenity": "restaurant",
        "brand": "Adyar Ananda Bhavan",
        "brand:wikidata": "Q15178238",
        "name": "Adyar Ananda Bhavan",
        "name:kn": "ಕದಂಬ ವೆಜ್",
        "opening_hours": "PH,Mo-Su 07:00-22:30",
        "shop": "confectionery",
        "survey:date": "2024-02-01"
      }
    },
    {
      "type": "node",
      "id": 429833271,
      "lat": 12.9550389,
      "lon": 77.5854279,
      "tags": {
        "addr:housenumber": "14",
        "addr:postcode": "560027",
        "addr:street": "Lalbagh Road",
        "alt_name": "MTR",
        "amenity": "restaurant",
        "name": "Mavalli Tiffin Rooms",
        "name:kn": "ಮಾವಳ್ಳಿ ಟಿಫಿನ್ ರೂಮ್ಸ್ - ಎಂಟಿಆರ್",
        "opening_hours": "Tu-Su 06:30-11:00, 12:30-21:00",
        "phone": "+918022220022",
        "short_name": "MTR",
        "start_date": "1924",
        "website": "http://www.mavallitiffinrooms.com",
        "wheelchair": "no",
        "wikidata": "Q6794121",
        "wikimedia_commons": "Category:Mavalli Tiffin Room",
        "wikipedia": "en:Mavalli Tiffin Room"
      }
    },
    {
      "type": "node",
      "id": 459471357,
      "lat": 12.954643,
      "lon": 77.5858156,
      "tags": {
        "amenity": "parking"
      }
    },
    {
      "type": "node",
      "id": 517874464,
      "lat": 12.9522306,
      "lon": 77.5897955,
      "tags": {
        "amenity": "restaurant"
      }
    },
    {
      "type": "node",
      "id": 577393706,
      "lat": 12.9547341,
      "lon": 77.593073,
      "tags": {
        "amenity": "taxi",
        "auto_rickshaw": "yes",
        "fee": "yes"
      }
    },
    {
      "type": "node",
      "id": 577394250,
      "lat": 12.9511843,
      "lon": 77.5919036,
      "tags": {
        "amenity": "toilets"
      }
    },
    {
      "type": "node",
      "id": 594206377,
      "lat": 12.9571863,
      "lon": 77.5862334,
      "tags": {
        "addr:street": "Lalbagh Road",
        "amenity": "fuel",
        "brand": "Indian Oil",
        "brand:wikidata": "Q1289348",
        "brand:wikipedia": "en:Indian Oil Corporation",
        "name": "Indian Oil",
        "name:kn": "ಇಂಡಿಯನ್ ಆಯಿಲ್"
      }
    },
    {
      "type": "node",
      "id": 1342910456,
      "lat": 12.9516439,
      "lon": 77.5950678,
      "tags": {
        "shop": "motorcycle"
      }
    },
    {
      "type": "node",
      "id": 1474511948,
      "lat": 12.9483598,
      "lon": 77.5940621,
      "tags": {
        "addr:district": "Bengaluru Urban",
        "addr:full": "87/2, 8Th Cross,Wilson Garden",
        "addr:postcode": "560027",
        "addr:state": "Karnataka",
        "amenity": "hospital",
        "healthcare": "hospital",
        "name": "Manjunath Hospital",
        "name:kn": "ಮಂಜುನಾಥ ಆಸ್ಪತ್ರೆ",
        "source": "OpenGovernmentData"
      }
    },
    {
      "type": "node",
      "id": 1474512442,
      "lat": 12.9484356,
      "lon": 77.5942592,
      "tags": {
        "addr:street": "8th Cross",
        "amenity": "hospital",
        "healthcare": "hospital",
        "name": "Karthik Hospital",
        "name:kn": "ಕಾರ್ತಿಕ್ ಆಸ್ಪತ್ರೆ"
      }
    },
    {
      "type": "node",
      "id": 1603318755,
      "lat": 12.9510846,
      "lon": 77.5955162,
      "tags": {
        "amenity": "doctors",
        "name": "Swetha Clinic"
      }
    },
    {
      "type": "node",
      "id": 1603318780,
      "lat": 12.9481696,
      "lon": 77.5986927,
      "tags": {
        "amenity": "atm",
        "brand": "Corporation Bank",
        "brand:wikidata": "Q2003387",
        "name": "Corporation Bank",
        "operator": "Corporation Bank",
        "operator:wikidata": "Q2003387"
      }
    },
    {
      "type": "node",
      "id": 1603318781,
      "lat": 12.9488718,
      "lon": 77.5977625,
      "tags": {
        "amenity": "atm",
        "brand": "Karnataka Bank",
        "brand:wikidata": "Q2042632",
        "name": "Karnataka Bank",
        "name:kn": "ಕರ್ನಾಟಕ ಬ್ಯಾಂಕ್",
        "operator": "Karnataka Bank",
        "operator:wikidata": "Q2042632"
      }
    },
    {
      "type": "node",
      "id": 1930675161,
      "lat": 12.9496534,
      "lon": 77.5966436,
      "tags": {
        "name": "Maariyah Opticals",
        "shop": "optician"
      }
    },
    {
      "type": "node",
      "id": 3302507156,
      "lat": 12.9487986,
      "lon": 77.597431,
      "tags": {
        "amenity": "post_office",
        "name": "Wilson Garden",
        "name:kn": "ಅಂಚೆ ಕಛೇರಿ"
      }
    },
    {
      "type": "node",
      "id": 3391134548,
      "lat": 12.9554901,
      "lon": 77.5854638,
      "tags": {
        "name": "Helmet Paradise",
        "shop": "variety_store"
      }
    },
    {
      "type": "node",
      "id": 3535926312,
      "lat": 12.9540627,
      "lon": 77.5918908,
      "tags": {
        "amenity": "parking_entrance",
        "parking": "multi-storey"
      }
    },
    {
      "type": "node",
      "id": 3710157236,
      "lat": 12.9477109,
      "lon": 77.5997799,
      "tags": {
        "addr:city": "Bengaluru, Karnataka",
        "addr:postcode": "560030",
        "addr:street": "16th Cross Road, Chinnayanpalya, Wilson Garden",
        "name": "Appoji Dry Cleaners",
        "shop": "dry_cleaning"
      }
    },
    {
      "type": "node",
      "id": 3710158896,
      "lat": 12.9472236,
      "lon": 77.598734,
      "tags": {
        "amenity": "atm",
        "brand": "ICICI Bank",
        "brand:wikidata": "Q1653258",
        "name": "ICICI Bank",
        "name:kn": "ಐಸಿಐಸಿಐ",
        "operator": "ICICI Bank",
        "operator:wikidata": "Q1653258",
        "short_name": "ICICI"
      }
    },
    {
      "type": "node",
      "id": 3710179080,
      "lat": 12.9476738,
      "lon": 77.5990277,
      "tags": {
        "shop": "tailor"
      }
    },
    {
      "type": "node",
      "id": 3710210170,
      "lat": 12.9474222,
      "lon": 77.5986921,
      "tags": {
        "amenity": "hospital",
        "healthcare": "hospital",
        "name": "Krishna Nursing Home"
      }
    },
    {
      "type": "node",
      "id": 3710229271,
      "lat": 12.9479461,
      "lon": 77.5999219,
      "tags": {
        "name": "Shaheen Chicken Stall",
        "shop": "butcher"
      }
    },
    {
      "type": "node",
      "id": 3710229273,
      "lat": 12.9480956,
      "lon": 77.5999568,
      "tags": {
        "name": "Shree Sai Baba Condiments",
        "shop": "convenience"
      }
    },
    {
      "type": "node",
      "id": 3710229275,
      "lat": 12.9481356,
      "lon": 77.5999766,
      "tags": {
        "amenity": "recycling",
        "name": "Newspaper recycling store"
      }
    },
    {
      "type": "node",
      "id": 3710229276,
      "lat": 12.9482719,
      "lon": 77.5999963,
      "tags": {
        "name": "Wahid Pasha Vegetable stall",
        "shop": "greengrocer"
      }
    },
    {
      "type": "node",
      "id": 3710229277,
      "lat": 12.9482984,
      "lon": 77.6000248,
      "tags": {
        "name": "L S Iyengar Bakery",
        "shop": "bakery"
      }
    },
    {
      "type": "node",
      "id": 3710229278,
      "lat": 12.9483481,
      "lon": 77.6000553,
      "tags": {
        "amenity": "pharmacy",
        "healthcare": "pharmacy",
        "name": "Padmavathi Medicals"
      }
    },
    {
      "type": "node",
      "id": 3710229279,
      "lat": 12.9484922,
      "lon": 77.6001079,
      "tags": {
        "name": "AquaDay",
        "shop": "Water_cans"
      }
    },
    {
      "type": "node",
      "id": 3710229280,
      "lat": 12.9485115,
      "lon": 77.6001153,
      "tags": {
        "name": "Nandini Franchise Outlet",
        "shop": "dairy"
      }
    },
    {
      "type": "node",
      "id": 3710229281,
      "lat": 12.9486255,
      "lon": 77.600076,
      "tags": {
        "addr:district": "Bengaluru Urban",
        "addr:full": "16/10 3Road Main, 14Th Cross, Chinmaya Pallya, Wilson Garden",
        "addr:postcode": "560030",
        "addr:state": "Karnataka",
        "addr:street": "BTS Main Road",
        "amenity": "clinic",
        "healthcare": "clinic",
        "name": "Roshni Nursing Home",
        "source": "OpenGovernmentData"
      }
    },
    {
      "type": "node",
      "id": 3710229282,
      "lat": 12.948665,
      "lon": 77.6001706,
      "tags": {
        "amenity": "pharmacy",
        "healthcare": "pharmacy",
        "name": "Sanjana Medicals"
      }
    },
    {
      "type": "node",
      "id": 4062011906,
      "lat": 12.9487921,
      "lon": 77.6009276,
      "tags": {
        "amenity": "fast_food",
        "name": "Bharathi Restaurant"
      }
    },
    {
      "type": "node",
      "id": 4062011908,
      "lat": 12.9490257,
      "lon": 77.6001501,
      "tags": {
        "name": "Chowdeswsri Rice traders",
        "shop": "houseware"
      }
    },
    {
      "type": "node",
      "id": 4062011909,
      "lat": 12.9489334,
      "lon": 77.6001044,
      "tags": {
        "amenity": "atm",
        "brand": "Axis Bank",
        "brand:wikidata": "Q2003549",
        "name": "Axis Bank",
        "name:kn": "ಆಕ್ಸಿಸ್ ಬ್ಯಾಂಕ್ ಎಟಿಎಂ",
        "operator": "Axis Bank",
        "operator:wikidata": "Q2003549"
      }
    },
    {
      "type": "node",
      "id": 4062011910,
      "lat": 12.9489794,
      "lon": 77.5997483,
      "tags": {
        "name": "BSNL Customer Service Center",
        "shop": "mobile_phone"
      }
    },
    {
      "type": "node",
      "id": 4062014201,
      "lat": 12.9483365,
      "lon": 77.5988241,
      "tags": {
        "amenity": "food_court",
        "name": "Janatha Hotel"
      }
    },
    {
      "type": "node",
      "id": 4062014290,
      "lat": 12.9484634,
      "lon": 77.5989705,
      "tags": {
        "amenity": "atm",
        "brand": "State Bank of India",
        "brand:wikidata": "Q1340361",
        "check_date": "2022-04-23",
        "drive_through": "yes",
        "name": "State Bank of India",
        "operator": "State Bank of India",
        "operator:wikidata": "Q1340361",
        "short_name": "SBI"
      }
    },
    {
      "type": "node",
      "id": 4062014291,
      "lat": 12.9482223,
      "lon": 77.5990903,
      "tags": {
        "amenity": "school",
        "name": "Srs English Nursery School"
      }
    },
    {
      "type": "node",
      "id": 4314392992,
      "lat": 12.9541378,
      "lon": 77.5920058,
      "tags": {
        "addr:floor": "G",
        "amenity": "restaurant",
        "check_date": "2025-02-21",
        "cuisine": "indian",
        "diet:non-vegetarian": "yes",
        "diet:vegetarian": "yes",
        "indoor_seating": "yes",
        "level": "0",
        "name": "Swathi Deluxe",
        "name:kn": "ಸ್ವಾತಿ ಡಿಲಕ್ಸ್",
        "outdoor_seating": "no",
        "source": "survey"
      }
    },
    {
      "type": "node",
      "id": 4349307190,
      "lat": 12.9532485,
      "lon": 77.5873773,
      "tags": {
        "amenity": "place_of_worship",
        "name": "Dargah Hazrat Atulla Shah",
        "place_of_worship": "shrine",
        "religion": "muslim"
      }
    },
    {
      "type": "node",
      "id": 4349317390,
      "lat": 12.954324,
      "lon": 77.5850242,
      "tags": {
        "amenity": "restaurant",
        "name": "Anand Bhavan",
        "name:en": "New Udupi Anand Bhavan",
        "name:kn": "ಆನಂದ್ ಭಾವನ್"
      }
    },
    {
      "type": "node",
      "id": 4446974323,
      "lat": 12.9469375,
      "lon": 77.5981349,
      "tags": {
        "addr:city": "Bangalore",
        "addr:housenumber": "466/1",
        "addr:postcode": "560027",
        "addr:street": "10th Main, 13th Cross, Near-Brand Factory, Wilson Garden",
        "amenity": "pharmacy",
        "healthcare": "pharmacy",
        "name": "Nisarga Ayurvedic Medicine Research Centre",
        "phone": "+9180 2212 6994",
        "source": "www.justdial.com"
      }
    },
    {
      "type": "node",
      "id": 4489921297,
      "lat": 12.9484309,
      "lon": 77.5986254,
      "tags": {
        "addr:city": "Bengaluru,",
        "addr:housenumber": "#476/42",
        "addr:postcode": "560027",
        "addr:street": ", 2nd Floor, 12th Cross, Chinnayanpalya, Wilson Garden, Karnataka",
        "leisure": "sports_centre",
        "name": "Macho Fitness Centre",
        "opening_hours": "5:00-22:00",
        "phone": "080 2223 3827"
      }
    },
    {
      "type": "node",
      "id": 4550578791,
      "lat": 12.949078,
      "lon": 77.5978259,
      "tags": {
        "amenity": "restaurant",
        "name": "Annapurna benne dosa",
        "name:en": "Annapurna benne dosa",
        "name:kn": "ಅನ್ನಪೂರ್ಣ ಬೆಣ್ಣೆ ದೋಸ",
        "opening_hours": "Mo-Sa 16:00-21:30"
      }
    },
    {
      "type": "node",
      "id": 4841949621,
      "lat": 12.9460622,
      "lon": 77.595536,
      "tags": {
        "name": "Luna sweets",
        "name:en": "Luna sweets",
        "shop": "confectionery",
        "wheelchair": "limited"
      }
    },
    {
      "type": "node",
      "id": 4843100435,
      "lat": 12.9496879,
      "lon": 77.5931127,
      "tags": {
        "leisure": "fitness_centre",
        "name": "Mara fitness international",
        "name:en": "Mara fitness international"
      }
    },
    {
      "type": "node",
      "id": 4847824924,
      "lat": 12.9500152,
      "lon": 77.5929905,
      "tags": {
        "leisure": "fitness_centre",
        "name": "Mara fitness",
        "name:en": "Mara fitness"
      }
    },
    {
      "type": "node",
      "id": 4849094831,
      "lat": 12.9539546,
      "lon": 77.5857915,
      "tags": {
        "amenity": "restaurant"
      }
    },
    {
      "type": "node",
      "id": 5234720701,
      "lat": 12.9468669,
      "lon": 77.5964194,
      "tags": {
        "amenity": "bank",
        "brand": "ICICI Bank",
        "brand:wikidata": "Q1653258",
        "name": "ICICI Bank",
        "name:kn": "ಐಸಿಐಸಿಐ ಬ್ಯಾಂಕು",
        "short_name": "ICICI"
      }
    },
    {
      "type": "node",
      "id": 5234722396,
      "lat": 12.9471118,
      "lon": 77.5966087,
      "tags": {
        "amenity": "bank",
        "brand": "HDFC Bank",
        "brand:wikidata": "Q631047",
        "name": "HDFC Bank",
        "name:kn": "ಎಚ್. ಡಿ. ಎಫ್. ಸಿ. ಬ್ಯಾಂಕ್",
        "short_name": "HDFC"
      }
    },
    {
      "type": "node",
      "id": 5234723863,
      "lat": 12.9472091,
      "lon": 77.5966914,
      "tags": {
        "addr:district": "Bengaluru Urban",
        "addr:full": "196, 10Th Cross, Wilson Gardens",
        "addr:postcode": "560027",
        "addr:state": "Karnataka",
        "amenity": "hospital",
        "healthcare": "hospital",
        "name": "V. S. Achar Multispeciality Hospital",
        "source": "OpenGovernmentData"
      }
    },
    {
      "type": "node",
      "id": 5234726029,
      "lat": 12.9477827,
      "lon": 77.5970683,
      "tags": {
        "amenity": "internet_cafe",
        "name": "iStar Cyber Cafe"
      }
    },
    {
      "type": "node",
      "id": 5234729438,
      "lat": 12.9478549,
      "lon": 77.5971182,
      "tags": {
        "amenity": "atm",
        "brand": "Kotak Mahindra Bank",
        "brand:wikidata": "Q2040404",
        "check_date": "2022-07-11",
        "operator": "Kotak Mahindra Bank",
        "operator:wikidata": "Q2040404"
      }
    },
    {
      "type": "node",
      "id": 5234729473,
      "lat": 12.948031,
      "lon": 77.5972353,
      "tags": {
        "amenity": "pharmacy",
        "healthcare": "pharmacy",
        "name": "Trust Medicals"
      }
    },
    {
      "type": "node",
      "id": 5234733420,
      "lat": 12.9483581,
      "lon": 77.5972643,
      "tags": {
        "amenity": "bank",
        "brand": "State Bank of India",
        "brand:wikidata": "Q1340361",
        "name": "State Bank of India",
        "name:kn": "ಭಾರತೀಯ ಸ್ಟೇಟ್ ಬ್ಯಾಂಕ್",
        "short_name": "SBI"
      }
    },
    {
      "type": "node",
      "id": 5234735116,
      "lat": 12.9488127,
      "lon": 77.5978542,
      "tags": {
        "amenity": "bank",
        "branch": "Ltd",
        "brand": "Karnataka Bank",
        "brand:wikidata": "Q2042632",
        "name": "Karnataka Bank",
        "name:kn": "ಕರ್ನಾಟಕ ಬ್ಯಾಂಕ್"
      }
    },
    {
      "type": "node",
      "id": 5234736190,
      "lat": 12.9486539,
      "lon": 77.5977493,
      "tags": {
        "amenity": "fast_food",
        "brand": "Domino's",
        "brand:ks": "ڈومینوز",
        "brand:pa": "ਡੋਮੀਨੋਜ਼",
        "brand:ur": "ڈومینوز",
        "brand:wikidata": "Q839466",
        "brand:wikipedia": "en:Domino's Pizza",
        "cuisine": "pizza",
        "name": "Domino's",
        "name:ks": "ڈومینوز",
        "name:pa": "ਡੋਮੀਨੋਜ਼",
        "name:ur": "ڈومینوز",
        "takeaway": "yes"
      }
    },
    {
      "type": "node",
      "id": 5234736819,
      "lat": 12.9485625,
      "lon": 77.5976727,
      "tags": {
        "amenity": "bank",
        "brand": "State Bank of India",
        "brand:wikidata": "Q1340361",
        "name": "State Bank of India",
        "name:kn": "ಭಾರತೀಯ ಸ್ಟೇಟ್ ಬ್ಯಾಂಕ್",
        "short_name": "SBI"
      }
    },
    {
      "type": "node",
      "id": 5234740873,
      "lat": 12.9495474,
      "lon": 77.5970623,
      "tags": {
        "name": "Anand Bhavan Sweets",
        "shop": "bakery"
      }
    },
    {
      "type": "node",
      "id": 5661650529,
      "lat": 12.9485812,
      "lon": 77.5990306,
      "tags": {
        "addr:city": "Bengaluru,",
        "addr:postcode": "560030",
        "addr:street": "12th Cross Road",
        "name": "Maruti Stores",
        "payment:cash": "yes",
        "shop": "department_store"
      }
    },
    {
      "type": "node",
      "id": 5983455179,
      "lat": 12.9588104,
      "lon": 77.5868782,
      "tags": {
        "amenity": "fuel",
        "check_date": "2023-04-05",
        "name": "Gogas",
        "source": "survey"
      }
    },
    {
      "type": "node",
      "id": 6349052554,
      "lat": 12.9482206,
      "lon": 77.5968593,
      "tags": {
        "addr:place": "Wilson Garden",
        "amenity": "school",
        "isced:level": "2",
        "name": "GKMPS Wilson Garden",
        "name:kn": "ಸರ್ಕಾರಿ ಕನ್ನಡ ಮಾದರಿ ಪ್ರಾಥಮಿಕ ಶಾಲೆ ವಿಲ್ಸನ್ ಗಾರ್ಡನ್",
        "operator": "Department of Education",
        "school": "primary"
      }
    },
    {
      "type": "node",
      "id": 6349206826,
      "lat": 12.9492633,
      "lon": 77.5974085,
      "tags": {
        "addr:place": "Willson Garden",
        "amenity": "school",
        "isced:level": "2",
        "name": "Maruthi KHPS Willson Garden",
        "name:kn": "ಮಾರುತಿ ಕನ್ನಡ ಹಿರಿಯ ಪ್ರಾಥಮಿಕ ಶಾಲೆ ವಿಲ್ಸನ್ ಗಾರ್ಡನ್",
        "operator": "Pvt. Aided",
        "school": "primary"
      }
    },
    {
      "type": "node",
      "id": 6938868534,
      "lat": 12.9491537,
      "lon": 77.5978383,
      "tags": {
        "addr:district": "Bengaluru Urban",
        "addr:full": "376/21, T.V. Plaza, 6Th Cross, Wilson Garden",
        "addr:postcode": "560027",
        "addr:state": "Karnataka",
        "amenity": "clinic",
        "healthcare": "clinic",
        "name": "Shantha Nethralaya",
        "source": "OpenGovernmentData"
      }
    },
    {
      "type": "node",
      "id": 6944138103,
      "lat": 12.9489406,
      "lon": 77.5949925,
      "tags": {
        "addr:district": "Bengaluru Urban",
        "addr:full": "56, 8Th Cross, Wilson Garden",
        "addr:postcode": "560027",
        "addr:state": "Karnataka",
        "amenity": "hospital",
        "healthcare": "hospital",
        "name": "Karthik Hospital, Bengaluru Urban",
        "source": "OpenGovernmentData"
      }
    },
    {
      "type": "node",
      "id": 6944138104,
      "lat": 12.9462401,
      "lon": 77.5975627,
      "tags": {
        "addr:district": "Bengaluru Urban",
        "addr:full": "#5/2, 13th Cross, Hosur Road, Wilson Garden",
        "addr:postcode": "560027",
        "addr:state": "Karnataka",
        "amenity": "clinic",
        "email": "enquiry@mgmihospitalsindia.com",
        "healthcare": "clinic",
        "name": "M.G. Speciality Health Care (A Unit Of Mgmi Hospitals(India) Pvt Ltd)",
        "operator:type": "private",
        "source": "OpenGovernmentData",
        "website": "http://mgmihospitalsindia.com/"
      }
    },
    {
      "type": "node",
      "id": 7043229686,
      "lat": 12.9550956,
      "lon": 77.5858088,
      "tags": {
        "name": "Megha Enterprises",
        "shop": "motorcycle"
      }
    },
    {
      "type": "node",
      "id": 7043229687,
      "lat": 12.9552795,
      "lon": 77.5858224,
      "tags": {
        "name": "Chethan's Helmet World",
        "shop": "motorcycle"
      }
    },
    {
      "type": "node",
      "id": 7043229688,
      "lat": 12.9549086,
      "lon": 77.5857588,
      "tags": {
        "amenity": "restaurant",
        "name": "New Ambur Biriyani"
      }
    },
    {
      "type": "node",
      "id": 7043245785,
      "lat": 12.9550094,
      "lon": 77.5857787,
      "tags": {
        "name": "Moto Nation",
        "shop": "motorcycle"
      }
    },
    {
      "type": "node",
      "id": 7043255185,
      "lat": 12.9554304,
      "lon": 77.585944,
      "tags": {
        "amenity": "restaurant",
        "cuisine": "indian",
        "name": "Hotel Nandeshwara Lunch Home"
      }
    },
    {
      "type": "node",
      "id": 7043262185,
      "lat": 12.9553721,
      "lon": 77.5855419,
      "tags": {
        "addr:housenumber": "120/1",
        "addr:street": "Lalbagh Road",
        "amenity": "pharmacy",
        "name": "Sapthagiri Medicals"
      }
    },
    {
      "type": "node",
      "id": 7043262385,
      "lat": 12.9550862,
      "lon": 77.5858696,
      "tags": {
        "name": "Babu Auto Garage",
        "shop": "car_repair"
      }
    },
    {
      "type": "node",
      "id": 7043262485,
      "lat": 12.9549325,
      "lon": 77.5857756,
      "tags": {
        "name": "The Car Shopp",
        "shop": "car_parts"
      }
    },
    {
      "type": "node",
      "id": 7043519087,
      "lat": 12.9524178,
      "lon": 77.5889783,
      "tags": {
        "addr:housenumber": "2",
        "addr:postcode": "560027",
        "addr:street": "Dr. M. H. Marigowda Road",
        "name": "Prakash S. M. Kannappa Automobiles Pvt. Ltd.",
        "name:en": "S.M. Kannappa Automobiles Pvt. Ltd.",
        "shop": "car"
      }
    },
    {
      "type": "node",
      "id": 7043533585,
      "lat": 12.9522659,
      "lon": 77.5897266,
      "tags": {
        "amenity": "childcare",
        "name": "Sri Maruthi Nursery"
      }
    },
    {
      "type": "node",
      "id": 10045910454,
      "lat": 12.9549456,
      "lon": 77.588287,
      "tags": {
        "name": "MRS Enterprises",
        "shop": "car_parts"
      }
    },
    {
      "type": "node",
      "id": 10289145777,
      "lat": 12.9555473,
      "lon": 77.5925404,
      "tags": {
        "amenity": "bench",
        "backrest": "no",
        "material": "stone"
      }
    },
    {
      "type": "node",
      "id": 10289145794,
      "lat": 12.9554494,
      "lon": 77.5926661,
      "tags": {
        "amenity": "bench",
        "backrest": "no",
        "material": "stone"
      }
    },
    {
      "type": "node",
      "id": 10571060033,
      "lat": 12.9471121,
      "lon": 77.5986482,
      "tags": {
        "addr:city": "Bengaluru, Karnataka",
        "addr:housenumber": "86/47",
        "addr:postcode": "560027",
        "addr:street": "8th Main Road, Lakkasandra, Wilson Garden",
        "name": "Bikenbiker",
        "opening_hours": "Mo-Su 11:00-19:30",
        "shop": "motorcycle"
      }
    },
    {
      "type": "node",
      "id": 10792887305,
      "lat": 12.9585496,
      "lon": 77.5867635,
      "tags": {
        "access": "private",
        "amenity": "parking",
        "covered": "no",
        "fee": "yes",
        "parking": "surface",
        "payment:cash": "yes",
        "source": "survey",
        "supervised": "yes",
        "surface": "ground"
      }
    },
    {
      "type": "node",
      "id": 10895966348,
      "lat": 12.9482721,
      "lon": 77.5970484,
      "tags": {
        "access": "yes",
        "amenity": "toilets",
        "fee": "yes",
        "operator": "Bruhat Bengaluru Mahanagara Palike",
        "operator:short": "BBMP",
        "operator:wikidata": "Q4978693"
      }
    },
    {
      "type": "node",
      "id": 10895966350,
      "lat": 12.9511455,
      "lon": 77.5951937,
      "tags": {
        "brand": "Lenskart",
        "brand:wikidata": "Q17068753",
        "name": "Lenskart",
        "shop": "optician"
      }
    },
    {
      "type": "node",
      "id": 11295469699,
      "lat": 12.9519038,
      "lon": 77.5944072,
      "tags": {
        "amenity": "pharmacy",
        "healthcare": "pharmacy",
        "level": "0",
        "name": "Primecare Pharma",
        "opening_hours": "Mo-Su 08:00-23:00,13:30-18:30; PH open"
      }
    },
    {
      "type": "node",
      "id": 11295826654,
      "lat": 12.9550118,
      "lon": 77.5925388,
      "tags": {
        "amenity": "restaurant",
        "level": "0",
        "name": "Sri Vishnu Bhavan",
        "survey:date": "2024-02-01"
      }
    },
    {
      "type": "node",
      "id": 11295826656,
      "lat": 12.9547541,
      "lon": 77.5929871,
      "tags": {
        "amenity": "atm",
        "brand": "Karnataka Bank",
        "brand:wikidata": "Q2042632",
        "cash_in": "no",
        "level": "0",
        "operator": "Karnataka Bank",
        "operator:wikidata": "Q2042632"
      }
    },
    {
      "type": "node",
      "id": 11295833796,
      "lat": 12.9551335,
      "lon": 77.592631,
      "tags": {
        "amenity": "waste_basket",
        "waste": "trash"
      }
    },
    {
      "type": "node",
      "id": 11295848643,
      "lat": 12.9468716,
      "lon": 77.5947342,
      "tags": {
        "amenity": "shelter",
        "shelter_type": "public_transport"
      }
    },
    {
      "type": "node",
      "id": 11295848644,
      "lat": 12.9470676,
      "lon": 77.5945671,
      "tags": {
        "amenity": "shelter",
        "shelter_type": "public_transport"
      }
    },
    {
      "type": "node",
      "id": 11295848646,
      "lat": 12.946989,
      "lon": 77.594634,
      "tags": {
        "amenity": "shelter",
        "shelter_type": "public_transport"
      }
    },
    {
      "type": "node",
      "id": 11295921628,
      "lat": 12.9500344,
      "lon": 77.5965335,
      "tags": {
        "amenity": "pharmacy",
        "healthcare": "pharmacy",
        "level": "0",
        "name": "Kamaldeep Medicals"
      }
    },
    {
      "type": "node",
      "id": 11295921629,
      "lat": 12.9499736,
      "lon": 77.5966031,
      "tags": {
        "amenity": "pharmacy",
        "healthcare": "pharmacy",
        "level": "0",
        "name": "Amruth Medicals"
      }
    },
    {
      "type": "node",
      "id": 11295921632,
      "lat": 12.9494898,
      "lon": 77.5962984,
      "tags": {
        "level": "0",
        "name": "Bake Land",
        "opening_hours": "Mo-Su 07:00-23:30; PH open",
        "shop": "bakery"
      }
    },
    {
      "type": "node",
      "id": 11295921634,
      "lat": 12.9500034,
      "lon": 77.5965705,
      "tags": {
        "indoor_seating": "no",
        "level": "0",
        "name": "Sri Venkatesha Iyengar's Bakery",
        "outdoor_seating": "no",
        "shop": "bakery",
        "takeaway": "only",
        "wheelchair": "no"
      }
    },
    {
      "type": "node",
      "id": 11295921635,
      "lat": 12.9514745,
      "lon": 77.595132,
      "tags": {
        "amenity": "pharmacy",
        "healthcare": "pharmacy",
        "level": "0",
        "name": "Rajalakshmi Medicals"
      }
    },
    {
      "type": "node",
      "id": 11295921636,
      "lat": 12.94961,
      "lon": 77.5962261,
      "tags": {
        "amenity": "pharmacy",
        "brand": "Apollo Pharmacy",
        "brand:wikidata": "Q62562612",
        "healthcare": "pharmacy",
        "level": "0",
        "name": "Apollo Pharmacy",
        "name:kn": "ಅಪೋಲೋ ಫಾರ್ಮಸಿ"
      }
    },
    {
      "type": "node",
      "id": 11296003727,
      "lat": 12.9494082,
      "lon": 77.59618,
      "tags": {
        "amenity": "pharmacy",
        "healthcare": "pharmacy",
        "level": "0",
        "name": "Susheela Medicals"
      }
    },
    {
      "type": "node",
      "id": 11417003455,
      "lat": 12.9484916,
      "lon": 77.5938183,
      "tags": {
        "check_date": "2023-12-14",
        "name": "Right Tyres",
        "shop": "tyres"
      }
    },
    {
      "type": "node",
      "id": 11417003456,
      "lat": 12.9485984,
      "lon": 77.5937714,
      "tags": {
        "check_date": "2023-12-14",
        "name": "Front Line Decor",
        "shop": "interior_decoration"
      }
    },
    {
      "type": "node",
      "id": 11417003457,
      "lat": 12.9490255,
      "lon": 77.5936154,
      "tags": {
        "check_date": "2023-12-14",
        "name": "The Furniture Store",
        "shop": "furniture",
        "wheelchair": "yes"
      }
    },
    {
      "type": "node",
      "id": 11417003458,
      "lat": 12.9492483,
      "lon": 77.5934342,
      "tags": {
        "check_date": "2023-12-14",
        "name": "Prolink",
        "shop": "copyshop"
      }
    },
    {
      "type": "node",
      "id": 11417003459,
      "lat": 12.9500234,
      "lon": 77.593064,
      "tags": {
        "brand": "Tata",
        "brand:wikidata": "Q188514",
        "check_date": "2023-12-14",
        "name": "Tata",
        "shop": "car"
      }
    },
    {
      "type": "node",
      "id": 11577096069,
      "lat": 12.9538309,
      "lon": 77.5926163,
      "tags": {
        "amenity": "shelter",
        "bench": "yes",
        "lit": "yes",
        "name": "Airavat Passengers Waiting Lounge",
        "shelter_type": "public_transport",
        "survey:date": "2024-02-01"
      }
    },
    {
      "type": "node",
      "id": 11963070622,
      "lat": 12.9536988,
      "lon": 77.59234,
      "tags": {
        "amenity": "atm",
        "brand": "Karnataka Bank",
        "brand:wikidata": "Q2042632",
        "cash_in": "no",
        "check_date": "2024-06-07",
        "currency:INR": "yes",
        "drive_through": "no",
        "indoor": "no",
        "operator": "Karnataka Bank",
        "operator:wikidata": "Q2042632"
      }
    },
    {
      "type": "node",
      "id": 11981271373,
      "lat": 12.953587,
      "lon": 77.5927559,
      "tags": {
        "addr:floor": "G",
        "brand": "METRO",
        "brand:wikidata": "Q13610282",
        "check_date": "2024-06-14",
        "level": "0",
        "name": "Metro",
        "name:en": "METRO",
        "shop": "wholesale"
      }
    },
    {
      "type": "node",
      "id": 11981271373,
      "lat": 12.953587,
      "lon": 77.5927559,
      "tags": {
        "addr:floor": "G",
        "brand": "METRO",
        "brand:wikidata": "Q13610282",
        "check_date": "2024-06-14",
        "level": "0",
        "name": "Metro",
        "name:en": "METRO",
        "shop": "wholesale"
      }
    },
    {
      "type": "node",
      "id": 12036211740,
      "lat": 12.9543622,
      "lon": 77.5929328,
      "tags": {
        "addr:floor": "G",
        "check_date": "2024-07-05",
        "level": "0",
        "name": "Sri Vari Stationary & Conditiments",
        "name:en": "Sri Vari Stationary & Conditiments",
        "shop": "convenience"
      }
    },
    {
      "type": "node",
      "id": 12061117156,
      "lat": 12.9563963,
      "lon": 77.5862865,
      "tags": {
        "addr:floor": "G",
        "brand": "Volkswagen",
        "brand:wikidata": "Q246",
        "check_date": "2024-07-18",
        "level": "0",
        "name": "Volkswagen Bengaluru Central",
        "name:en": "Volkswagen Bengaluru Central",
        "shop": "car"
      }
    },
    {
      "type": "node",
      "id": 12061117157,
      "lat": 12.9568208,
      "lon": 77.5862981,
      "tags": {
        "addr:floor": "G",
        "brand": "Kia",
        "brand:wikidata": "Q35349",
        "check_date": "2024-07-18",
        "level": "0",
        "name": "Advaith Kia",
        "name:en": "Advaith Kia",
        "shop": "car"
      }
    },
    {
      "type": "node",
      "id": 12078423950,
      "lat": 12.9539684,
      "lon": 77.5920517,
      "tags": {
        "access": "yes",
        "amenity": "toilets",
        "check_date": "2024-07-28",
        "fee": "no",
        "payment:cash": "yes",
        "payment:upi": "yes",
        "source": "survey"
      }
    },
    {
      "type": "node",
      "id": 12078423951,
      "lat": 12.9538065,
      "lon": 77.5922406,
      "tags": {
        "check_date": "2024-07-28",
        "name": "Venkatadri Condiments",
        "payment:cash": "yes",
        "payment:upi": "yes",
        "shop": "convenience",
        "source": "survey"
      }
    },
    {
      "type": "node",
      "id": 12078423951,
      "lat": 12.9538065,
      "lon": 77.5922406,
      "tags": {
        "check_date": "2024-07-28",
        "name": "Venkatadri Condiments",
        "payment:cash": "yes",
        "payment:upi": "yes",
        "shop": "convenience",
        "source": "survey"
      }
    },
    {
      "type": "node",
      "id": 12078423952,
      "lat": 12.9540507,
      "lon": 77.5921812,
      "tags": {
        "check_date": "2024-07-28",
        "name": "Sri Sai Sweets & Coffee Point",
        "payment:cash": "yes",
        "payment:upi": "yes",
        "shop": "convenience",
        "source": "survey"
      }
    },
    {
      "type": "node",
      "id": 12102995495,
      "lat": 12.9559235,
      "lon": 77.5923618,
      "tags": {
        "amenity": "bench",
        "backrest": "no",
        "material": "stone"
      }
    },
    {
      "type": "node",
      "id": 12103665088,
      "lat": 12.9546902,
      "lon": 77.5929698,
      "tags": {
        "amenity": "bicycle_parking",
        "brand": "Trin",
        "operator": "DULT",
        "operator:type": "government"
      }
    },
    {
      "type": "node",
      "id": 12168410900,
      "lat": 12.9532918,
      "lon": 77.5930251,
      "tags": {
        "addr:floor": "G",
        "check_date": "2024-09-10",
        "level": "0",
        "name": "SRS Travels",
        "name:en": "SRS Travels",
        "shop": "travel_agency"
      }
    },
    {
      "type": "node",
      "id": 12168445591,
      "lat": 12.950762,
      "lon": 77.595979,
      "tags": {
        "addr:floor": "1",
        "check_date": "2024-09-10",
        "leisure": "fitness_centre",
        "level": "1",
        "name": "Game On Fitness",
        "name:en": "Game On Fitness"
      }
    },
    {
      "type": "node",
      "id": 12168445592,
      "lat": 12.9489708,
      "lon": 77.5979648,
      "tags": {
        "addr:floor": "G",
        "amenity": "restaurant",
        "check_date": "2024-09-10",
        "diet:vegetarian": "yes",
        "level": "0",
        "name": "Sandhya Veg",
        "name:en": "Sandhya Veg"
      }
    },
    {
      "type": "node",
      "id": 12168445593,
      "lat": 12.9482059,
      "lon": 77.5987156,
      "tags": {
        "addr:floor": "G",
        "amenity": "pharmacy",
        "brand": "MedPlus",
        "brand:wikidata": "Q65684234",
        "check_date": "2024-09-10",
        "healthcare": "pharmacy",
        "level": "0",
        "name": "MedPlus",
        "name:en": "Med Plus",
        "name:kn": "ಮೆಡ್‍ಪ್ಲಸ್"
      }
    },
    {
      "type": "node",
      "id": 12246167229,
      "lat": 12.9514622,
      "lon": 77.5971982,
      "tags": {
        "amenity": "place_of_worship",
        "check_date": "2024-10-12",
        "religion": "hindu"
      }
    },
    {
      "type": "node",
      "id": 12246167230,
      "lat": 12.9505253,
      "lon": 77.598265,
      "tags": {
        "amenity": "fast_food",
        "brand": "Indira Canteen",
        "brand:wikidata": "Q36164828",
        "check_date": "2024-10-12",
        "cuisine": "south_indian",
        "fast_food": "cafeteria",
        "name": "Indira Canteen",
        "operator": "BBMP",
        "takeaway": "yes"
      }
    },
    {
      "type": "node",
      "id": 12535615443,
      "lat": 12.9478762,
      "lon": 77.599636,
      "tags": {
        "addr:city": "Bangalore",
        "addr:postcode": "560030",
        "addr:street": "5th Main Road, 14th Cross",
        "amenity": "kindergarten",
        "name": "Merry Hill Kinder Garten"
      }
    },
    {
      "type": "node",
      "id": 13155991171,
      "lat": 12.9498997,
      "lon": 77.5958958,
      "tags": {
        "amenity": "atm",
        "brand": "State Bank of India",
        "brand:wikidata": "Q1340361",
        "check_date": "2025-09-19",
        "operator": "State Bank of India",
        "operator:wikidata": "Q1340361"
      }
    },
    {
      "type": "node",
      "id": 13155991172,
      "lat": 12.9495651,
      "lon": 77.5962737,
      "tags": {
        "check_date": "2025-09-19",
        "name": "Sunil Raj Printers",
        "shop": "copyshop"
      }
    },
    {
      "type": "node",
      "id": 13155991173,
      "lat": 12.9492191,
      "lon": 77.5962052,
      "tags": {
        "amenity": "restaurant",
        "check_date": "2025-09-19",
        "name": "Flames Restaurant"
      }
    },
    {
      "type": "node",
      "id": 13236852613,
      "lat": 12.9538537,
      "lon": 77.5924088,
      "tags": {
        "addr:floor": "G",
        "check_date": "2025-10-16",
        "level": "0",
        "name": "Sree Devi Condiments",
        "name:en": "Sree Devi Condiments",
        "shop": "convenience"
      }
    },
    {
      "type": "node",
      "id": 13341775165,
      "lat": 12.950955,
      "lon": 77.5938177,
      "tags": {
        "access": "yes",
        "amenity": "bench",
        "armrest": "no",
        "backrest": "yes",
        "material": "stone",
        "seats": "3"
      }
    },
    {
      "type": "node",
      "id": 13341775173,
      "lat": 12.9502461,
      "lon": 77.5929829,
      "tags": {
        "addr:housenumber": "1",
        "addr:street": "3rd Cross Road",
        "amenity": "place_of_worship",
        "check_date": "2025-11-30",
        "name": "Ahmadiyya Masjid",
        "phone": "18001032131",
        "religion": "muslim",
        "website": "https://alislam.org"
      }
    },
    {
      "type": "node",
      "id": 13341775174,
      "lat": 12.9512757,
      "lon": 77.5941291,
      "tags": {
        "access": "yes",
        "amenity": "bench",
        "armrest": "no",
        "backrest": "yes",
        "material": "stone",
        "seats": "3"
      }
    },
    {
      "type": "node",
      "id": 13341775175,
      "lat": 12.9512355,
      "lon": 77.5940951,
      "tags": {
        "access": "yes",
        "amenity": "bench",
        "armrest": "no",
        "backrest": "yes",
        "material": "stone",
        "seats": "3"
      }
    },
    {
      "type": "node",
      "id": 13341775176,
      "lat": 12.9512041,
      "lon": 77.5940552,
      "tags": {
        "access": "yes",
        "amenity": "bench",
        "armrest": "no",
        "backrest": "no",
        "material": "stone",
        "seats": "3"
      }
    },
    {
      "type": "node",
      "id": 13341775177,
      "lat": 12.9511623,
      "lon": 77.5940154,
      "tags": {
        "access": "yes",
        "amenity": "bench",
        "armrest": "no",
        "backrest": "yes",
        "material": "stone",
        "seats": "4"
      }
    },
    {
      "type": "node",
      "id": 13341775178,
      "lat": 12.9510987,
      "lon": 77.5939516,
      "tags": {
        "access": "yes",
        "amenity": "bench",
        "armrest": "no",
        "backrest": "no",
        "material": "stone",
        "seats": "3"
      }
    },
    {
      "type": "node",
      "id": 13341775179,
      "lat": 12.9510585,
      "lon": 77.5939167,
      "tags": {
        "access": "yes",
        "amenity": "bench",
        "armrest": "no",
        "backrest": "yes",
        "material": "stone",
        "seats": "3"
      }
    },
    {
      "type": "node",
      "id": 13341775181,
      "lat": 12.9508398,
      "lon": 77.5937107,
      "tags": {
        "access": "yes",
        "amenity": "bench",
        "armrest": "no",
        "backrest": "yes",
        "material": "stone",
        "seats": "3"
      }
    },
    {
      "type": "node",
      "id": 13341775182,
      "lat": 12.9507637,
      "lon": 77.5936396,
      "tags": {
        "access": "yes",
        "amenity": "bench",
        "armrest": "no",
        "backrest": "yes",
        "material": "stone",
        "seats": "3"
      }
    },
    {
      "type": "node",
      "id": 13341775183,
      "lat": 12.9507045,
      "lon": 77.5935782,
      "tags": {
        "access": "yes",
        "amenity": "bench",
        "armrest": "no",
        "backrest": "yes",
        "material": "stone",
        "seats": "3"
      }
    },
    {
      "type": "node",
      "id": 13341775184,
      "lat": 12.9506327,
      "lon": 77.5935171,
      "tags": {
        "access": "yes",
        "amenity": "bench",
        "armrest": "no",
        "backrest": "yes",
        "material": "stone",
        "seats": "3"
      }
    },
    {
      "type": "node",
      "id": 13341775185,
      "lat": 12.9505504,
      "lon": 77.5934449,
      "tags": {
        "access": "yes",
        "amenity": "bench",
        "armrest": "no",
        "backrest": "yes",
        "material": "stone",
        "seats": "3"
      }
    },
    {
      "type": "node",
      "id": 13341775186,
      "lat": 12.9503847,
      "lon": 77.5933052,
      "tags": {
        "access": "yes",
        "amenity": "bench",
        "armrest": "no",
        "backrest": "yes",
        "material": "stone",
        "seats": "3"
      }
    },
    {
      "type": "node",
      "id": 13341775187,
      "lat": 12.9504496,
      "lon": 77.5935075,
      "tags": {
        "access": "yes",
        "amenity": "bench",
        "armrest": "no",
        "backrest": "yes",
        "material": "stone",
        "seats": "3"
      }
    },
    {
      "type": "node",
      "id": 13341775188,
      "lat": 12.9504677,
      "lon": 77.5935778,
      "tags": {
        "amenity": "waste_basket",
        "colour": "Green and Blue",
        "material": "plastic",
        "operator": "BBMP",
        "waste": "mixed"
      }
    },
    {
      "type": "node",
      "id": 13341775189,
      "lat": 12.9504829,
      "lon": 77.5936337,
      "tags": {
        "access": "yes",
        "amenity": "bench",
        "armrest": "no",
        "backrest": "yes",
        "material": "stone",
        "seats": "3"
      }
    },
    {
      "type": "node",
      "id": 13341775190,
      "lat": 12.9505083,
      "lon": 77.5936882,
      "tags": {
        "access": "yes",
        "amenity": "bench",
        "armrest": "no",
        "backrest": "yes",
        "material": "stone",
        "seats": "3"
      }
    },
    {
      "type": "node",
      "id": 13341775191,
      "lat": 12.9505426,
      "lon": 77.5937699,
      "tags": {
        "access": "yes",
        "amenity": "bench",
        "armrest": "no",
        "backrest": "yes",
        "material": "stone",
        "seats": "3"
      }
    },
    {
      "type": "node",
      "id": 13341775192,
      "lat": 12.9505884,
      "lon": 77.5938736,
      "tags": {
        "access": "yes",
        "amenity": "bench",
        "armrest": "no",
        "material": "stone",
        "seats": "3"
      }
    },
    {
      "type": "node",
      "id": 13341775193,
      "lat": 12.9506357,
      "lon": 77.5939583,
      "tags": {
        "access": "yes",
        "amenity": "bench",
        "armrest": "no",
        "backrest": "yes",
        "material": "stone",
        "seats": "3"
      }
    },
    {
      "type": "node",
      "id": 13341775194,
      "lat": 12.9506573,
      "lon": 77.5940061,
      "tags": {
        "access": "yes",
        "amenity": "bench",
        "armrest": "no",
        "backrest": "no",
        "material": "stone",
        "seats": "3"
      }
    },
    {
      "type": "node",
      "id": 13341775195,
      "lat": 12.9506997,
      "lon": 77.5940911,
      "tags": {
        "access": "yes",
        "amenity": "bench",
        "armrest": "no",
        "backrest": "yes",
        "material": "stone",
        "seats": "3"
      }
    },
    {
      "type": "node",
      "id": 13341775196,
      "lat": 12.9509344,
      "lon": 77.594536,
      "tags": {
        "access": "yes",
        "amenity": "bench",
        "armrest": "no",
        "backrest": "no",
        "material": "stone",
        "seats": "3"
      }
    },
    {
      "type": "node",
      "id": 13341775197,
      "lat": 12.9507483,
      "lon": 77.5941885,
      "tags": {
        "access": "yes",
        "amenity": "bench",
        "armrest": "no",
        "backrest": "yes",
        "material": "stone",
        "seats": "3"
      }
    },
    {
      "type": "node",
      "id": 13341775198,
      "lat": 12.9507739,
      "lon": 77.5942358,
      "tags": {
        "access": "yes",
        "amenity": "bench",
        "armrest": "no",
        "backrest": "no",
        "material": "stone",
        "seats": "3"
      }
    },
    {
      "type": "node",
      "id": 13341775199,
      "lat": 12.9508028,
      "lon": 77.5942867,
      "tags": {
        "access": "yes",
        "amenity": "bench",
        "armrest": "no",
        "backrest": "yes",
        "material": "stone",
        "seats": "3"
      }
    },
    {
      "type": "node",
      "id": 13341775200,
      "lat": 12.9508235,
      "lon": 77.594331,
      "tags": {
        "access": "yes",
        "amenity": "bench",
        "armrest": "no",
        "backrest": "no",
        "material": "stone",
        "seats": "3"
      }
    },
    {
      "type": "node",
      "id": 13341789489,
      "lat": 12.9510827,
      "lon": 77.5942784,
      "tags": {
        "amenity": "shelter",
        "bench": "yes",
        "name": "Gaze P",
        "shelter_type": "gazebo"
      }
    },
    {
      "type": "node",
      "id": 13341800373,
      "lat": 12.951193,
      "lon": 77.5948828,
      "tags": {
        "amenity": "bench"
      }
    },
    {
      "type": "node",
      "id": 13341800374,
      "lat": 12.9510853,
      "lon": 77.5946963,
      "tags": {
        "amenity": "bench"
      }
    },
    {
      "type": "node",
      "id": 13341800382,
      "lat": 12.9509376,
      "lon": 77.5921354,
      "tags": {
        "level": "0",
        "name": "Elica",
        "shop": "appliance"
      }
    },
    {
      "type": "node",
      "id": 13341800384,
      "lat": 12.9511529,
      "lon": 77.5948087,
      "tags": {
        "amenity": "bench"
      }
    },
    {
      "type": "node",
      "id": 13341800388,
      "lat": 12.9510515,
      "lon": 77.5946258,
      "tags": {
        "amenity": "bench"
      }
    },
    {
      "type": "node",
      "id": 13341800391,
      "lat": 12.9509903,
      "lon": 77.592186,
      "tags": {
        "level": "2",
        "name": "Double Two",
        "shop": "clothes"
      }
    },
    {
      "type": "node",
      "id": 13341800392,
      "lat": 12.9512697,
      "lon": 77.5945254,
      "tags": {
        "amenity": "shelter",
        "shelter_type": "gazebo"
      }
    },
    {
      "type": "node",
      "id": 13341800397,
      "lat": 12.9511181,
      "lon": 77.5947387,
      "tags": {
        "amenity": "bench"
      }
    },
    {
      "type": "node",
      "id": 13341812877,
      "lat": 12.951213,
      "lon": 77.5941732,
      "tags": {
        "amenity": "shelter",
        "bench": "yes",
        "name": "Gazebo",
        "shelter_type": "gazebo"
      }
    },
    {
      "type": "node",
      "id": 13341818301,
      "lat": 12.9508419,
      "lon": 77.5943618,
      "tags": {
        "access": "yes",
        "amenity": "bench",
        "armrest": "no",
        "backrest": "yes",
        "material": "stone",
        "seats": "3"
      }
    },
    {
      "type": "node",
      "id": 13341818302,
      "lat": 12.9508552,
      "lon": 77.5943934,
      "tags": {
        "access": "yes",
        "amenity": "bench",
        "armrest": "no",
        "backrest": "no",
        "material": "stone",
        "seats": "3"
      }
    },
    {
      "type": "node",
      "id": 13341818303,
      "lat": 12.9508754,
      "lon": 77.5944231,
      "tags": {
        "access": "yes",
        "amenity": "bench",
        "armrest": "no",
        "backrest": "yes",
        "material": "stone",
        "seats": "3"
      }
    },
    {
      "type": "node",
      "id": 13341818304,
      "lat": 12.9508843,
      "lon": 77.5944461,
      "tags": {
        "access": "yes",
        "amenity": "bench",
        "armrest": "no",
        "backrest": "no",
        "material": "stone",
        "seats": "3"
      }
    },
    {
      "type": "node",
      "id": 13341818305,
      "lat": 12.9508866,
      "lon": 77.5944535,
      "tags": {
        "amenity": "waste_basket",
        "colour": "Green and Blue",
        "material": "plastic",
        "operator": "BBMP",
        "waste": "mixed"
      }
    },
    {
      "type": "node",
      "id": 13341818306,
      "lat": 12.9508984,
      "lon": 77.5944766,
      "tags": {
        "access": "yes",
        "amenity": "bench",
        "armrest": "no",
        "backrest": "no",
        "material": "stone",
        "seats": "3"
      }
    },
    {
      "type": "node",
      "id": 13341818307,
      "lat": 12.9509094,
      "lon": 77.5944919,
      "tags": {
        "access": "yes",
        "amenity": "bench",
        "armrest": "no",
        "backrest": "yes",
        "material": "stone",
        "seats": "3"
      }
    },
    {
      "type": "node",
      "id": 13341818308,
      "lat": 12.9509273,
      "lon": 77.5945205,
      "tags": {
        "access": "yes",
        "amenity": "bench",
        "armrest": "no",
        "backrest": "yes",
        "material": "stone",
        "seats": "3"
      }
    },
    {
      "type": "node",
      "id": 13341818309,
      "lat": 12.9507263,
      "lon": 77.594144,
      "tags": {
        "access": "yes",
        "amenity": "bench",
        "armrest": "no",
        "backrest": "no",
        "material": "stone",
        "seats": "3"
      }
    },
    {
      "type": "node",
      "id": 13341823601,
      "lat": 12.9512445,
      "lon": 77.5941483,
      "tags": {
        "amenity": "waste_basket",
        "manufacturer": "aristo"
      }
    },
    {
      "type": "node",
      "id": 13342377538,
      "lat": 12.9552799,
      "lon": 77.592933,
      "tags": {
        "amenity": "bench"
      }
    },
    {
      "type": "node",
      "id": 13342464189,
      "lat": 12.955353,
      "lon": 77.5927762,
      "tags": {
        "amenity": "bench"
      }
    },
    {
      "type": "node",
      "id": 13342464190,
      "lat": 12.9552689,
      "lon": 77.5930082,
      "tags": {
        "amenity": "bench"
      }
    },
    {
      "type": "node",
      "id": 13342466241,
      "lat": 12.9552446,
      "lon": 77.5930388,
      "tags": {
        "amenity": "bench"
      }
    },
    {
      "type": "node",
      "id": 13342467443,
      "lat": 12.9551831,
      "lon": 77.5930617,
      "tags": {
        "amenity": "bench"
      }
    },
    {
      "type": "node",
      "id": 13342467572,
      "lat": 12.9551639,
      "lon": 77.5930683,
      "tags": {
        "amenity": "bench"
      }
    },
    {
      "type": "node",
      "id": 13342471978,
      "lat": 12.9552575,
      "lon": 77.5930235,
      "tags": {
        "amenity": "bench"
      }
    },
    {
      "type": "node",
      "id": 13342479152,
      "lat": 12.9553263,
      "lon": 77.592815,
      "tags": {
        "amenity": "bench"
      }
    },
    {
      "type": "node",
      "id": 13342480857,
      "lat": 12.955204,
      "lon": 77.5930607,
      "tags": {
        "amenity": "bench"
      }
    },
    {
      "type": "node",
      "id": 13342482275,
      "lat": 12.9552804,
      "lon": 77.5929511,
      "tags": {
        "amenity": "bench"
      }
    },
    {
      "type": "node",
      "id": 13342485808,
      "lat": 12.9552798,
      "lon": 77.5929697,
      "tags": {
        "amenity": "bench"
      }
    },
    {
      "type": "node",
      "id": 13343543419,
      "lat": 12.9550869,
      "lon": 77.5925863,
      "tags": {
        "amenity": "parking_entrance",
        "parking": "multi-storey"
      }
    },
    {
      "type": "node",
      "id": 13343543420,
      "lat": 12.9536152,
      "lon": 77.5925145,
      "tags": {
        "amenity": "parking_entrance",
        "parking": "multi-storey"
      }
    },
    {
      "type": "way",
      "id": 129888684,
      "center": {
        "lat": 12.9541534,
        "lon": 77.5884604
      },
      "tags": {
        "amenity": "grave_yard",
        "landuse": "cemetery",
        "name": "Bada Makan",
        "name:kn": "ಬಡ ಮಕಾನ್",
        "religion": "muslim"
      }
    },
    {
      "type": "way",
      "id": 129888685,
      "center": {
        "lat": 12.9530904,
        "lon": 77.5873952
      },
      "tags": {
        "amenity": "grave_yard",
        "landuse": "cemetery",
        "religion": "muslim"
      }
    },
    {
      "type": "way",
      "id": 131396833,
      "center": {
        "lat": 12.9468482,
        "lon": 77.5956798
      },
      "tags": {
        "addr:city": "Bengaluru",
        "addr:district": "Bengaluru Urban",
        "addr:postcode": "560027",
        "addr:street": "Hombegowda Boys High School Skating Ground, Wilson Garden,Hombegowda Nagar",
        "amenity": "clinic",
        "building": "yes",
        "healthcare": "clinic",
        "name": "Nama Clinic"
      }
    },
    {
      "type": "way",
      "id": 131487139,
      "center": {
        "lat": 12.9533813,
        "lon": 77.5867976
      },
      "tags": {
        "amenity": "place_of_worship",
        "denomination": "sunni",
        "name": "Al-Ameen Mosque",
        "name:kn": "ಆಲ್-ಆಮೀನ್ ಮಸೀದಿ",
        "religion": "muslim"
      }
    },
    {
      "type": "way",
      "id": 138991403,
      "center": {
        "lat": 12.9545969,
        "lon": 77.5919117
      },
      "tags": {
        "amenity": "transportation",
        "building": "shed"
      }
    },
    {
      "type": "way",
      "id": 147124751,
      "center": {
        "lat": 12.9510783,
        "lon": 77.594223
      },
      "tags": {
        "leisure": "park",
        "name": "Kitturu Rani Chennamma Park",
        "name:etymology:wikidata": "Q3536979",
        "name:kn": "ಕಿತ್ತೂರು ರಾಣಿ ಚೆನ್ನಮ್ಮ ಉದ್ಯಾನವನ",
        "old_name": "Wilson Garden Park"
      }
    },
    {
      "type": "way",
      "id": 152462759,
      "center": {
        "lat": 12.9515662,
        "lon": 77.5905178
      },
      "tags": {
        "leisure": "garden"
      }
    },
    {
      "type": "way",
      "id": 172899266,
      "center": {
        "lat": 12.9537421,
        "lon": 77.5938108
      },
      "tags": {
        "amenity": "school",
        "name": "Outreach School"
      }
    },
    {
      "type": "way",
      "id": 172899341,
      "center": {
        "lat": 12.953617,
        "lon": 77.5948769
      },
      "tags": {
        "amenity": "school"
      }
    },
    {
      "type": "way",
      "id": 323458337,
      "center": {
        "lat": 12.9479026,
        "lon": 77.5965298
      },
      "tags": {
        "amenity": "school",
        "name": "Hombegowda Boys School",
        "name:kn": "ಹೊಂಬೆಗೌಡ ಬಾಲಕರ ಶಾಲೆ"
      }
    },
    {
      "type": "way",
      "id": 323458339,
      "center": {
        "lat": 12.9487167,
        "lon": 77.5971382
      },
      "tags": {
        "amenity": "place_of_worship",
        "name": "Ram Mandir",
        "name:kn": "ರಾಮ ಮಂದಿರ",
        "religion": "hindu"
      }
    },
    {
      "type": "way",
      "id": 335369723,
      "center": {
        "lat": 12.9529705,
        "lon": 77.5881572
      },
      "tags": {
        "addr:street": "MariGowda Road",
        "amenity": "college",
        "name": "Al Ameen Pre and Degree College",
        "name:kn": "ಆಲ್‌-ಆಮೀನ್‌ ಕಾಲೇಜು"
      }
    },
    {
      "type": "way",
      "id": 347167749,
      "center": {
        "lat": 12.9491979,
        "lon": 77.596808
      },
      "tags": {
        "amenity": "hospital",
        "healthcare": "hospital",
        "name": "BBMP Maternity Hospital",
        "name:kn": "ಸರಕಾರಿ ಹೆರಿಗೆ ಆಸ್ಪತ್ರೆ"
      }
    },
    {
      "type": "way",
      "id": 347234063,
      "center": {
        "lat": 12.9538875,
        "lon": 77.5922444
      },
      "tags": {
        "alt_name": "TTMC Shanthinagara MLCP",
        "amenity": "parking",
        "building": "parking",
        "building:levels": "7",
        "name": "Multi Level Car Park",
        "parking": "multi-storey",
        "roof:shape": "flat"
      }
    },
    {
      "type": "way",
      "id": 348608464,
      "center": {
        "lat": 12.9470974,
        "lon": 77.5966177
      },
      "tags": {
        "amenity": "bank",
        "building": "yes"
      }
    },
    {
      "type": "way",
      "id": 393699912,
      "center": {
        "lat": 12.9540365,
        "lon": 77.5930748
      },
      "tags": {
        "alt_name": "TTMC Shanthinagara 'A' Block",
        "amenity": "office",
        "building": "yes",
        "building:levels": "6",
        "name": "'A' Block",
        "roof:shape": "flat"
      }
    },
    {
      "type": "way",
      "id": 625747310,
      "center": {
        "lat": 12.9474276,
        "lon": 77.5952577
      },
      "tags": {
        "alt_name": "Elephant Park",
        "leisure": "park",
        "name": "Bhuvaneshwari Park",
        "name:kn": "ಭುವನೇಶ್ವರಿ ಉದ್ಯಾನವನ"
      }
    },
    {
      "type": "way",
      "id": 635256290,
      "center": {
        "lat": 12.9522929,
        "lon": 77.5892459
      },
      "tags": {
        "amenity": "fuel",
        "compressed_air": "yes"
      }
    },
    {
      "type": "way",
      "id": 639010019,
      "center": {
        "lat": 12.9492019,
        "lon": 77.5977936
      },
      "tags": {
        "addr:district": "Bengaluru Urban",
        "addr:full": "35, Siddiah Road, Wilson Garden",
        "addr:postcode": "560027",
        "addr:state": "Karnataka",
        "amenity": "hospital",
        "building": "hospital",
        "healthcare": "hospital",
        "name": "Agadi Hospital",
        "name:kn": "ಅಗಡಿ ಆಸ್ಪತ್ರೆ",
        "source": "OpenGovernmentData"
      }
    },
    {
      "type": "way",
      "id": 673677240,
      "center": {
        "lat": 12.9482151,
        "lon": 77.5968238
      },
      "tags": {
        "amenity": "college"
      }
    },
    {
      "type": "way",
      "id": 897512106,
      "center": {
        "lat": 12.9471141,
        "lon": 77.5954126
      },
      "tags": {
        "leisure": "pitch",
        "sport": "skateboard",
        "wheelchair": "yes"
      }
    },
    {
      "type": "way",
      "id": 1079087278,
      "center": {
        "lat": 12.9542208,
        "lon": 77.5867157
      },
      "tags": {
        "amenity": "college",
        "name": "Al-Ameen Arts and Science College",
        "name:kn": "ಆಲ್-ಆಮೀನ್ ಕಾಲೇಜು"
      }
    },
    {
      "type": "way",
      "id": 1125144619,
      "center": {
        "lat": 12.9556473,
        "lon": 77.5924648
      },
      "tags": {
        "leisure": "garden"
      }
    },
    {
      "type": "way",
      "id": 1125144620,
      "center": {
        "lat": 12.9552802,
        "lon": 77.592935
      },
      "tags": {
        "leisure": "garden"
      }
    },
    {
      "type": "way",
      "id": 1125144623,
      "center": {
        "lat": 12.9558173,
        "lon": 77.592403
      },
      "tags": {
        "amenity": "shelter",
        "building": "yes",
        "shelter_type": "gazebo"
      }
    },
    {
      "type": "way",
      "id": 1172707221,
      "center": {
        "lat": 12.9514665,
        "lon": 77.5947664
      },
      "tags": {
        "access": "yes",
        "leisure": "playground"
      }
    },
    {
      "type": "way",
      "id": 1307025478,
      "center": {
        "lat": 12.9501836,
        "lon": 77.5961204
      },
      "tags": {
        "amenity": "police",
        "name": "Wilson Garden Police Station",
        "name:kn": "ವಿಲ್ಸನ್ ಗಾರ್ಡನ್ ಪೋಲಿಸ್ ಠಾಣೆ"
      }
    },
    {
      "type": "way",
      "id": 1351859098,
      "center": {
        "lat": 12.9552124,
        "lon": 77.5921494
      },
      "tags": {
        "leisure": "garden"
      }
    },
    {
      "type": "way",
      "id": 1455412266,
      "center": {
        "lat": 12.9544737,
        "lon": 77.5926291
      },
      "tags": {
        "alt_name": "TTMC Shantinagara 'B' Block; Shanthinagar TTMC;Shanthi nagar TTMC",
        "amenity": "transportation",
        "building": "yes",
        "building:levels": "6",
        "bus": "yes",
        "full_name": "Atal Bihari Vajpayee Traffic and Transit Management Center",
        "name": "Shantinagara Bus Station",
        "name:kn": "ಶಾಂತಿನಗರ ಬಸ್ ನಿಲ್ದಾಣ",
        "official_name": "Atal Bihari Vajpayee TTMC",
        "phone": "7760991061",
        "public_transport": "station",
        "roof:shape": "flat",
        "short_name": "SBS",
        "start_date": "2005",
        "wikidata": "Q7489090",
        "wikipedia": "en:Atal Bihari Vajpayee TTMC"
      }
    },
    {
      "type": "way",
      "id": 1455412267,
      "center": {
        "lat": 12.9546736,
        "lon": 77.592278
      },
      "tags": {
        "alt_name": "Shanthinagar TTMC 'C' Block;Shanthi nagar TTMC 'C' block",
        "amenity": "office",
        "building": "yes",
        "building:levels": "7",
        "name": "Shanthinagara 'C' Block",
        "roof:shape": "flat"
      }
    }
  ]
}