{
  "area_name": "Hosakerehalli",
  "osm_id": 19883414,
  "osm_type": "relation",
  "place_type": "administrative",
  "amenity_count": 36,
  "amenities": [
    {
      "type": "node",
      "id": 2093264600,
      "lat": 12.9342211,
      "lon": 77.5345124,
      "tags": {
        "addr:housename": "PES University",
        "addr:postcode": "560085",
        "addr:street": "100 Feet Outer Ring Road",
        "amenity": "bank",
        "atm": "yes",
        "brand:wikidata": "Q2004078",
        "brand:wikipedia": "en:Union Bank of India",
        "name": "Union Bank of India",
        "name:en": "Union Bank of India",
        "name:kn": "ಯೂನಿಯನ್ ಬ್ಯಾಂಕ್",
        "short_name": "UBI",
        "website": "https://www.unionbankofindia.co.in/"
      }
    },
    {
      "type": "node",
      "id": 2093288411,
      "lat": 12.9336327,
      "lon": 77.5343127,
      "tags": {
        "addr:city": "Bengaluru",
        "addr:housename": "PES University",
        "addr:postcode": "560085",
        "addr:street": "100",
        "amenity": "restaurant",
        "cuisine": "indian",
        "name": "PES Food Court"
      }
    },
    {
      "type": "node",
      "id": 2093290604,
      "lat": 12.9335839,
      "lon": 77.5344798,
      "tags": {
        "addr:city": "Bengaluru",
        "addr:housename": "PES University",
        "addr:postcode": "560085",
        "addr:street": "Outer ring road",
        "amenity": "cafe",
        "cuisine": "indian",
        "name": "Cafe Coffe Day Express",
        "name:kn": "ಕಫೆ ಕಾಫಿ ಡೇ",
        "website": "https://www.cafecoffeeday.com/"
      }
    },
    {
      "type": "node",
      "id": 4243885680,
      "lat": 12.9336297,
      "lon": 77.5345923,
      "tags": {
        "amenity": "fountain",
        "name": "Pi R Cube"
      }
    },
    {
      "type": "node",
      "id": 4243886023,
      "lat": 12.9337527,
      "lon": 77.5345277,
      "tags": {
        "amenity": "bench"
      }
    },
    {
      "type": "node",
      "id": 4243891304,
      "lat": 12.9357187,
      "lon": 77.5345513,
      "tags": {
        "addr:city": "Bengaluru",
        "addr:housename": "PES University",
        "addr:postcode": "560085",
        "addr:street": "100 Feet Outer Ring Road",
        "name": "Campus Mart",
        "shop": "convenience"
      }
    },
    {
      "type": "node",
      "id": 4243906616,
      "lat": 12.9342254,
      "lon": 77.5344569,
      "tags": {
        "amenity": "atm",
        "operator": "ICICI"
      }
    },
    {
      "type": "node",
      "id": 4243908360,
      "lat": 12.9355646,
      "lon": 77.5345308,
      "tags": {
        "addr:city": "Bengaluru",
        "addr:housename": "PES University",
        "addr:postcode": "560085",
        "addr:street": "100 Feet Outer Ring Road",
        "amenity": "cafe",
        "cuisine": "indian",
        "name": "Nescafe",
        "wifi": "no"
      }
    },
    {
      "type": "node",
      "id": 4617511989,
      "lat": 12.9308886,
      "lon": 77.5403351,
      "tags": {
        "name": "Castrol Bike Repairs",
        "name:en": "Castrol Bike Repairs",
        "opening_hours": "24/7",
        "shop": "bicycle"
      }
    },
    {
      "type": "node",
      "id": 4620181689,
      "lat": 12.9298098,
      "lon": 77.5400027,
      "tags": {
        "amenity": "pharmacy",
        "name": "MedPlus",
        "name:en": "MedPlus",
        "name:kn": "ಮೆಡ್‍ಪ್ಲಸ್"
      }
    },
    {
      "type": "node",
      "id": 6449182704,
      "lat": 12.9356526,
      "lon": 77.5345329,
      "tags": {
        "amenity": "ice_cream"
      }
    },
    {
      "type": "node",
      "id": 6449182705,
      "lat": 12.9356072,
      "lon": 77.5344944,
      "tags": {
        "amenity": "fast_food",
        "name": "Food Corner"
      }
    },
    {
      "type": "node",
      "id": 6449182706,
      "lat": 12.9354906,
      "lon": 77.5345149,
      "tags": {
        "name": "Fruit Juice Shop",
        "shop": "beverages"
      }
    },
    {
      "type": "node",
      "id": 6449208761,
      "lat": 12.9341922,
      "lon": 77.5342788,
      "tags": {
        "leisure": "fitness_centre",
        "level": "0",
        "name": "PESU Sports Center"
      }
    },
    {
      "type": "node",
      "id": 6449209437,
      "lat": 12.9334557,
      "lon": 77.5356164,
      "tags": {
        "amenity": "library",
        "level": "1",
        "name": "Lending Library"
      }
    },
    {
      "type": "node",
      "id": 6449209438,
      "lat": 12.9353489,
      "lon": 77.5351147,
      "tags": {
        "amenity": "library",
        "level": "1",
        "name": "Reference Library"
      }
    },
    {
      "type": "node",
      "id": 6899554637,
      "lat": 12.9349789,
      "lon": 77.5366498,
      "tags": {
        "name": "Nandini Parlour",
        "shop": "dairy"
      }
    },
    {
      "type": "node",
      "id": 6899554638,
      "lat": 12.9349174,
      "lon": 77.5367638,
      "tags": {
        "amenity": "cafe",
        "name": "Coffee House"
      }
    },
    {
      "type": "node",
      "id": 6899554639,
      "lat": 12.9349665,
      "lon": 77.5367068,
      "tags": {
        "amenity": "atm",
        "brand": "HDFC Bank",
        "brand:wikidata": "Q631047",
        "name": "HDFC Bank",
        "operator": "HDFC Bank",
        "operator:wikidata": "Q631047",
        "short_name": "HDFC"
      }
    },
    {
      "type": "node",
      "id": 11340895285,
      "lat": 12.9296753,
      "lon": 77.5349343,
      "tags": {
        "check_date": "2023-11-02",
        "name": "Krishna Cake Palace",
        "shop": "bakery"
      }
    },
    {
      "type": "node",
      "id": 11340895286,
      "lat": 12.9296544,
      "lon": 77.5350121,
      "tags": {
        "check_date": "2023-11-02",
        "name": "Nandini",
        "shop": "dairy"
      }
    },
    {
      "type": "node",
      "id": 11340895287,
      "lat": 12.9294996,
      "lon": 77.5352415,
      "tags": {
        "amenity": "restaurant",
        "check_date": "2023-11-02",
        "name": "Ba Guru Thindi Madona"
      }
    },
    {
      "type": "way",
      "id": 199316737,
      "center": {
        "lat": 12.9345346,
        "lon": 77.5354966
      },
      "tags": {
        "leisure": "park",
        "name": "Student Lounge",
        "source": "bing"
      }
    },
    {
      "type": "way",
      "id": 347044129,
      "center": {
        "lat": 12.9326876,
        "lon": 77.5379543
      },
      "tags": {
        "amenity": "place_of_worship",
        "building": "yes",
        "name": "Shri Venugopala Swami Devasthana",
        "name:kn": "ಶ್ರೀ ವೇಣುಗೋಪಾಲ ಸ್ವಾಮಿ ದೇವಸ್ಥಾನ (ಬನಶಂಕರಿ)",
        "religion": "hindu"
      }
    },
    {
      "type": "way",
      "id": 687910157,
      "center": {
        "lat": 12.9352011,
        "lon": 77.5347115
      },
      "tags": {
        "amenity": "theatre",
        "name": "Open Air Theatre"
      }
    },
    {
      "type": "way",
      "id": 687919139,
      "center": {
        "lat": 12.9354352,
        "lon": 77.5354024
      },
      "tags": {
        "amenity": "parking",
        "operator": "Reserved Parking"
      }
    },
    {
      "type": "way",
      "id": 691137802,
      "center": {
        "lat": 12.933912,
        "lon": 77.5341528
      },
      "tags": {
        "amenity": "shelter",
        "building": "yes"
      }
    },
    {
      "type": "way",
      "id": 691137806,
      "center": {
        "lat": 12.9340838,
        "lon": 77.5358619
      },
      "tags": {
        "amenity": "food_court",
        "building": "yes",
        "level": "1",
        "name": "South Thindies (Food Point)"
      }
    },
    {
      "type": "way",
      "id": 691141403,
      "center": {
        "lat": 12.9334377,
        "lon": 77.5350132
      },
      "tags": {
        "amenity": "motorcycle_parking",
        "operator": "Hostel Parking"
      }
    },
    {
      "type": "way",
      "id": 691142527,
      "center": {
        "lat": 12.9352328,
        "lon": 77.5353381
      },
      "tags": {
        "amenity": "fountain"
      }
    },
    {
      "type": "way",
      "id": 691142529,
      "center": {
        "lat": 12.9353606,
        "lon": 77.5355414
      },
      "tags": {
        "leisure": "park"
      }
    },
    {
      "type": "way",
      "id": 691142530,
      "center": {
        "lat": 12.9346384,
        "lon": 77.5358562
      },
      "tags": {
        "leisure": "garden"
      }
    },
    {
      "type": "way",
      "id": 691143423,
      "center": {
        "lat": 12.9351058,
        "lon": 77.53565
      },
      "tags": {
        "amenity": "motorcycle_parking"
      }
    },
    {
      "type": "way",
      "id": 691143424,
      "center": {
        "lat": 12.9350725,
        "lon": 77.5356515
      },
      "tags": {
        "amenity": "motorcycle_parking"
      }
    },
    {
      "type": "way",
      "id": 691144638,
      "center": {
        "lat": 12.9337358,
        "lon": 77.5346714
      },
      "tags": {
        "amenity": "fountain"
      }
    },
    {
      "type": "way",
      "id": 1182315665,
      "center": {
        "lat": 12.93463,
        "lon": 77.533221
      },
      "tags": {
        "leisure": "pitch",
        "name": "Football Ground",
        "name:kn": "ಫುಟ್ಬಾಲ್ ಆಟದ ಮೈದಾನ",
        "sport": "soccer"
      }
    }
  ]
}