{
  "area_name": "Hosakerehalli Layout",
  "osm_id": 11652753120,
  "osm_type": "node",
  "place_type": "neighbourhood",
  "amenity_count": 204,
  "amenities": [
    {
      "type": "node",
      "id": 951438815,
      "lat": 12.9409932,
      "lon": 77.544655,
      "tags": {
        "addr:street": "80 Feet Road Girinagar",
        "name": "More",
        "name:kn": "ಮೋರ್",
        "shop": "supermarket"
      }
    },
    {
      "type": "node",
      "id": 951466463,
      "lat": 12.9394898,
      "lon": 77.5451718,
      "tags": {
        "addr:street": "Nehru Road",
        "amenity": "bank",
        "operator": "State Bank of India"
      }
    },
    {
      "type": "node",
      "id": 951467420,
      "lat": 12.9385924,
      "lon": 77.5410571,
      "tags": {
        "addr:postcode": "560085",
        "amenity": "community_centre",
        "name": "Nandagokula Sabhangana",
        "shop": "Community Hall"
      }
    },
    {
      "type": "node",
      "id": 951467567,
      "lat": 12.9388834,
      "lon": 77.5392281,
      "tags": {
        "amenity": "community_centre",
        "name": "Sundar Mahal"
      }
    },
    {
      "type": "node",
      "id": 951467897,
      "lat": 12.9382164,
      "lon": 77.5417664,
      "tags": {
        "amenity": "place_of_worship",
        "name": "Sri Sai Mandiram"
      }
    },
    {
      "type": "node",
      "id": 951468113,
      "lat": 12.9407969,
      "lon": 77.5454937,
      "tags": {
        "amenity": "post_office",
        "name": "Girinagara Post Office",
        "name:kn": "ಗಿರಿನಗರ ಅಂಚೆ ಕಛೇರಿ"
      }
    },
    {
      "type": "node",
      "id": 951468562,
      "lat": 12.9410374,
      "lon": 77.542039,
      "tags": {
        "addr:street": "80 Feet Road Girinagar",
        "name": "Nilgiris Store",
        "shop": "convenience"
      }
    },
    {
      "type": "node",
      "id": 953434497,
      "lat": 12.9386147,
      "lon": 77.5434317,
      "tags": {
        "amenity": "place_of_worship",
        "name": "Ganapathi Sacchidananda Ashrama",
        "religion": "hindu"
      }
    },
    {
      "type": "node",
      "id": 953435253,
      "lat": 12.9381024,
      "lon": 77.543378,
      "tags": {
        "amenity": "school",
        "name": "Auden Public School"
      }
    },
    {
      "type": "node",
      "id": 953626886,
      "lat": 12.935917,
      "lon": 77.5439681,
      "tags": {
        "amenity": "police",
        "name": "Girinagar Police Station",
        "name:kn": "ಗಿರಿನಗರ ಆರಕ್ಷಕ ಠಾಣೆ"
      }
    },
    {
      "type": "node",
      "id": 953635112,
      "lat": 12.9408732,
      "lon": 77.5471975,
      "tags": {
        "amenity": "place_of_worship",
        "name": "Sharadamba Temple",
        "name:kn": "ಶಾರದಾಂಬ ದೇವಸ್ಥಾನ",
        "religion": "hindu"
      }
    },
    {
      "type": "node",
      "id": 953636026,
      "lat": 12.9412393,
      "lon": 77.547176,
      "tags": {
        "amenity": "place_of_worship",
        "name": "Mahaganapathi Temple",
        "name:kn": "ಮಹಾಗಣಪತಿ ದೇವಸ್ಥಾನ",
        "religion": "hindu"
      }
    },
    {
      "type": "node",
      "id": 953639347,
      "lat": 12.9408942,
      "lon": 77.5456204,
      "tags": {
        "amenity": "pharmacy",
        "name": "Radhakrishna Pharmacy"
      }
    },
    {
      "type": "node",
      "id": 953661272,
      "lat": 12.9403595,
      "lon": 77.5458556,
      "tags": {
        "amenity": "pharmacy",
        "name": "Sri Balaji Medicals and General Stores"
      }
    },
    {
      "type": "node",
      "id": 953662697,
      "lat": 12.9405791,
      "lon": 77.5458127,
      "tags": {
        "amenity": "atm",
        "brand": "ICICI Bank",
        "brand:wikidata": "Q1653258",
        "name": "ICICI Bank",
        "name:kn": "ಐಸಿಐಸಿಐ ಬ್ಯಾಂಕು",
        "operator": "ICICI Bank",
        "operator:wikidata": "Q1653258",
        "short_name": "ICICI"
      }
    },
    {
      "type": "node",
      "id": 953685844,
      "lat": 12.9323436,
      "lon": 77.5437984,
      "tags": {
        "amenity": "school",
        "name": "Auden School"
      }
    },
    {
      "type": "node",
      "id": 953687122,
      "lat": 12.9380085,
      "lon": 77.5496081,
      "tags": {
        "addr:street": "80 Feet Road",
        "amenity": "fuel",
        "brand": "IBP",
        "fuel:biodiesel": "no",
        "fuel:biogas": "no",
        "fuel:cng": "no",
        "fuel:diesel": "yes",
        "fuel:e10": "no",
        "fuel:e85": "no",
        "fuel:electricity": "no",
        "fuel:lpg": "no",
        "name": "IBP Petrol Station"
      }
    },
    {
      "type": "node",
      "id": 959266145,
      "lat": 12.9321449,
      "lon": 77.5417724,
      "tags": {
        "amenity": "post_office"
      }
    },
    {
      "type": "node",
      "id": 959268235,
      "lat": 12.9332899,
      "lon": 77.5427058,
      "tags": {
        "amenity": "pharmacy",
        "brand": "Apollo Pharmacy",
        "brand:wikidata": "Q62562612",
        "healthcare": "pharmacy",
        "name": "Apollo Pharmacy",
        "name:kn": "ಅಪೋಲೋ ಫಾರ್ಮಸಿ",
        "opening_hours": "Mo-Su,PH 08:30-21:30"
      }
    },
    {
      "type": "node",
      "id": 1433646771,
      "lat": 12.932367,
      "lon": 77.5414216,
      "tags": {
        "addr:city": "bangalore",
        "addr:postcode": "560085",
        "amenity": "fuel",
        "brand": "Hindustan Petroleum",
        "brand:wikidata": "Q1619375",
        "name": "Sri Mahadeshwara Filling Station",
        "official_name": "Hindustan Petroleum",
        "operator": "Hindustan Petroleum"
      }
    },
    {
      "type": "node",
      "id": 1465026171,
      "lat": 12.9293305,
      "lon": 77.5483881,
      "tags": {
        "leisure": "park"
      }
    },
    {
      "type": "node",
      "id": 1465027748,
      "lat": 12.9296442,
      "lon": 77.5479375,
      "tags": {
        "amenity": "fountain"
      }
    },
    {
      "type": "node",
      "id": 1468288815,
      "lat": 12.940921,
      "lon": 77.5457658,
      "tags": {
        "addr:postcode": "560085",
        "addr:street": "80 feet road girinagar",
        "amenity": "bank",
        "atm": "yes",
        "brand": "Canara Bank",
        "brand:pa": "ਕੇਨਰਾ ਬੈਂਕ",
        "brand:ur": "کینرا بینک",
        "brand:wikidata": "Q2003777",
        "brand:wikipedia": "en:Canara Bank",
        "brand:wikipedia:pa": "ਕੇਨਰਾ ਬੈਂਕ",
        "name": "Canara Bank",
        "name:kn": "ಕೆನರಾ ಬ್ಯಾಂಕ್",
        "name:pa": "ਕੇਨਰਾ ਬੈਂਕ",
        "name:ur": "کینرا بینک",
        "website": "https://www.canarabank.com/"
      }
    },
    {
      "type": "node",
      "id": 1468292292,
      "lat": 12.9405681,
      "lon": 77.5459187,
      "tags": {
        "addr:postcode": "560085",
        "addr:street": "80 feet road girinagar",
        "amenity": "bank",
        "atm": "yes",
        "name": "HDFC Bank Girinagar"
      }
    },
    {
      "type": "node",
      "id": 1468449594,
      "lat": 12.9366883,
      "lon": 77.5488033,
      "tags": {
        "amenity": "bank",
        "atm": "yes",
        "brand": "State Bank of India",
        "brand:wikidata": "Q1340361",
        "name": "State Bank of India",
        "name:kn": "ಭಾರತೀಯ ಸ್ಟೇಟ್ ಬ್ಯಾಂಕ್",
        "short_name": "SBI"
      }
    },
    {
      "type": "node",
      "id": 1661793645,
      "lat": 12.9398383,
      "lon": 77.5451133,
      "tags": {
        "name": "Belliah Milk Booth",
        "shop": "convenience"
      }
    },
    {
      "type": "node",
      "id": 1661797104,
      "lat": 12.9339016,
      "lon": 77.5414815,
      "tags": {
        "amenity": "pharmacy",
        "brand": "MedPlus",
        "brand:wikidata": "Q65684234",
        "healthcare": "pharmacy",
        "name": "MedPlus",
        "opening_hours": "Mo-Su,PH 08:30-21:00"
      }
    },
    {
      "type": "node",
      "id": 1661797962,
      "lat": 12.9383665,
      "lon": 77.5411678,
      "tags": {
        "amenity": "place_of_worship",
        "name": "Bhandarakeri Mutt Bhagavathashrama"
      }
    },
    {
      "type": "node",
      "id": 1661812758,
      "lat": 12.9406461,
      "lon": 77.5477204,
      "tags": {
        "amenity": "atm",
        "brand": "Axis Bank",
        "brand:wikidata": "Q2003549",
        "name": "Axis Bank",
        "operator": "Axis Bank",
        "operator:wikidata": "Q2003549"
      }
    },
    {
      "type": "node",
      "id": 1661813636,
      "lat": 12.9403899,
      "lon": 77.5478867,
      "tags": {
        "amenity": "townhall",
        "name": "Avadhani Convention Center"
      }
    },
    {
      "type": "node",
      "id": 1661814576,
      "lat": 12.9395353,
      "lon": 77.5449692,
      "tags": {
        "name": "Manasa Hair Dresser",
        "name:kn": "ಮಾನಸ",
        "shop": "hairdresser"
      }
    },
    {
      "type": "node",
      "id": 2093264600,
      "lat": 12.9342211,
      "lon": 77.5345124,
      "tags": {
        "addr:housename": "PES University",
        "addr:postcode": "560085",
        "addr:street": "100 Feet Outer Ring Road",
        "amenity": "bank",
        "atm": "yes",
        "brand:wikidata": "Q2004078",
        "brand:wikipedia": "en:Union Bank of India",
        "name": "Union Bank of India",
        "name:en": "Union Bank of India",
        "name:kn": "ಯೂನಿಯನ್ ಬ್ಯಾಂಕ್",
        "short_name": "UBI",
        "website": "https://www.unionbankofindia.co.in/"
      }
    },
    {
      "type": "node",
      "id": 2093288411,
      "lat": 12.9336327,
      "lon": 77.5343127,
      "tags": {
        "addr:city": "Bengaluru",
        "addr:housename": "PES University",
        "addr:postcode": "560085",
        "addr:street": "100",
        "amenity": "restaurant",
        "cuisine": "indian",
        "name": "PES Food Court"
      }
    },
    {
      "type": "node",
      "id": 2093290604,
      "lat": 12.9335839,
      "lon": 77.5344798,
      "tags": {
        "addr:city": "Bengaluru",
        "addr:housename": "PES University",
        "addr:postcode": "560085",
        "addr:street": "Outer ring road",
        "amenity": "cafe",
        "cuisine": "indian",
        "name": "Cafe Coffe Day Express",
        "name:kn": "ಕಫೆ ಕಾಫಿ ಡೇ",
        "website": "https://www.cafecoffeeday.com/"
      }
    },
    {
      "type": "node",
      "id": 2199535405,
      "lat": 12.9286056,
      "lon": 77.5453234,
      "tags": {
        "amenity": "cafe",
        "brand": "Cafe Coffee Day",
        "brand:wikidata": "Q5017235",
        "cuisine": "coffee_shop",
        "name": "Cafe Coffee Day",
        "name:kn": "ಕಫೆ ಕಾಫಿ ಡೇ",
        "opening_hours": "Mo-Su,PH 10:00-22:00",
        "takeaway": "yes",
        "wifi": "no"
      }
    },
    {
      "type": "node",
      "id": 2587475453,
      "lat": 12.9307314,
      "lon": 77.5471958,
      "tags": {
        "amenity": "marketplace",
        "name": "Homemart"
      }
    },
    {
      "type": "node",
      "id": 2587475454,
      "lat": 12.9324534,
      "lon": 77.5486407,
      "tags": {
        "addr:housenumber": "752",
        "addr:street": "50 Feet Road",
        "amenity": "place_of_worship",
        "name": "Shri Chamundeshwari Temple",
        "name:kn": "ಚಾಮುಂಡೇಶ್ವರಿ ದೇವಸ್ಥಾನ",
        "religion": "hindu"
      }
    },
    {
      "type": "node",
      "id": 2587475455,
      "lat": 12.9307552,
      "lon": 77.5475178,
      "tags": {
        "amenity": "bank",
        "atm": "yes",
        "branch": "Kathriguppe",
        "brand:wikidata": "Q1340361",
        "brand:wikipedia": "en:State Bank of India",
        "name": "State Bank of India",
        "name:kn": "ಭಾರತೀಯ ಸ್ಟೇಟ್ ಬ್ಯಾಂಕ್",
        "opening_hours": "Mo-Fr 09:00-16:30",
        "short_name": "SBI",
        "website": "https://www.sbi.co.in"
      }
    },
    {
      "type": "node",
      "id": 2591242677,
      "lat": 12.9305998,
      "lon": 77.5471604,
      "tags": {
        "name": "Sai Dry Cleaners",
        "shop": "dry_cleaning"
      }
    },
    {
      "type": "node",
      "id": 4243885680,
      "lat": 12.9336297,
      "lon": 77.5345923,
      "tags": {
        "amenity": "fountain",
        "name": "Pi R Cube"
      }
    },
    {
      "type": "node",
      "id": 4243886023,
      "lat": 12.9337527,
      "lon": 77.5345277,
      "tags": {
        "amenity": "bench"
      }
    },
    {
      "type": "node",
      "id": 4243891304,
      "lat": 12.9357187,
      "lon": 77.5345513,
      "tags": {
        "addr:city": "Bengaluru",
        "addr:housename": "PES University",
        "addr:postcode": "560085",
        "addr:street": "100 Feet Outer Ring Road",
        "name": "Campus Mart",
        "shop": "convenience"
      }
    },
    {
      "type": "node",
      "id": 4243906616,
      "lat": 12.9342254,
      "lon": 77.5344569,
      "tags": {
        "amenity": "atm",
        "operator": "ICICI"
      }
    },
    {
      "type": "node",
      "id": 4243908360,
      "lat": 12.9355646,
      "lon": 77.5345308,
      "tags": {
        "addr:city": "Bengaluru",
        "addr:housename": "PES University",
        "addr:postcode": "560085",
        "addr:street": "100 Feet Outer Ring Road",
        "amenity": "cafe",
        "cuisine": "indian",
        "name": "Nescafe",
        "wifi": "no"
      }
    },
    {
      "type": "node",
      "id": 4445160433,
      "lat": 12.931055,
      "lon": 77.5418888,
      "tags": {
        "addr:city": "Bangalore",
        "addr:housenumber": "# 633",
        "addr:postcode": "560085",
        "addr:street": "2nd Main Road, 7th Block, Banashankari 3rd Stag",
        "amenity": "pharmacy",
        "name": "Vishwas Medicals",
        "phone": "080-33055342"
      }
    },
    {
      "type": "node",
      "id": 4445386697,
      "lat": 12.9431647,
      "lon": 77.5415743,
      "tags": {
        "addr:city": "Banashankari,Bangalore",
        "addr:housenumber": "476,2nd floor",
        "addr:postcode": "560085",
        "addr:street": "10th Cross Road",
        "amenity": "restaurant",
        "cuisine": "regional",
        "name": "The Biryani Cafe",
        "opening_hours": "18:30-22:30",
        "phone": "088618 37788",
        "takeaway": "yes"
      }
    },
    {
      "type": "node",
      "id": 4446323202,
      "lat": 12.9349664,
      "lon": 77.5469781,
      "tags": {
        "addr:city": "Banashankari,Banglore",
        "addr:housenumber": "4001/4002",
        "addr:postcode": "560070",
        "addr:street": "80 Feet Road",
        "amenity": "restaurant",
        "cuisine": "indian",
        "name": "Bengaluru Coffee House",
        "opening_hours": "06:30-22:30",
        "phone": "+91 95381 98222",
        "takeaway": "yes"
      }
    },
    {
      "type": "node",
      "id": 4446338453,
      "lat": 12.9278495,
      "lon": 77.5462411,
      "tags": {
        "addr:city": "Banashankari,Bangalore",
        "addr:housenumber": "76",
        "addr:postcode": "560085",
        "addr:street": "1st Main Road",
        "amenity": "restaurant",
        "cuisine": "indian",
        "name": "Mandara Bar and Restaurant",
        "opening_hours": "00:00-24:00",
        "phone": "097318 20559",
        "takeaway": "yes",
        "wheelchair": "no"
      }
    },
    {
      "type": "node",
      "id": 4446359270,
      "lat": 12.9285834,
      "lon": 77.5457702,
      "tags": {
        "addr:city": "Banashankari,Bangalore",
        "addr:postcode": "560085",
        "addr:street": "Outer Ring Road",
        "amenity": "restaurant",
        "cuisine": "regional",
        "name": "Ayodhya Upachar",
        "name:kn": "ಅಯೋಧ್ಯ ಉಪಚಾರ",
        "opening_hours": "07:00-23:00",
        "phone": "099013 93214",
        "takeaway": "yes",
        "wheelchair": "no"
      }
    },
    {
      "type": "node",
      "id": 4446893667,
      "lat": 12.9373748,
      "lon": 77.5494778,
      "tags": {
        "addr:city": "bangalore",
        "addr:district": "Bengaluru Urban",
        "addr:full": "110, 1st Main, Sbm Colony, Bsk 1st Stage Hanumantha Nagar",
        "addr:housenumber": "110",
        "addr:postcode": "560050",
        "addr:state": "Karnataka",
        "addr:street": "State Bank Of Mysore Colony, 1st Stage,80 Feet Road,, Banashankari",
        "amenity": "hospital",
        "name": "Vinayaka Hospital, Hanumantha Nagar",
        "operator:type": "private",
        "phone": "080 2679 6167",
        "source": "OpenGovernmentData",
        "website": "http://dpal.kar.nic.in/Kanunu%20padakosha%20PDF%20Files/Recognised%20Hospitals.pdf"
      }
    },
    {
      "type": "node",
      "id": 4446894388,
      "lat": 12.9354293,
      "lon": 77.5477956,
      "tags": {
        "addr:city": "Banglore",
        "addr:housenumber": "788",
        "addr:postcode": "560050",
        "addr:street": "11th Cross, 2nd Main, 80ft Main Road, SBM Colony, Giri Nagar 4th Phase",
        "amenity": "hospital",
        "name": "Diavista Diabetes & Multispeciality Hospital",
        "phone": "080 4096 9392",
        "source": "justdail",
        "website": "diavista.co.in"
      }
    },
    {
      "type": "node",
      "id": 4446907712,
      "lat": 12.9389007,
      "lon": 77.5438808,
      "tags": {
        "addr:city": "bangalore",
        "addr:housenumber": "5/8/1",
        "addr:postcode": "560085",
        "addr:street": "20th Main Road, Muneshwara Block, Girinagar, 1st phase Girinagar, Kadavanthra, Banashankari",
        "amenity": "hospital",
        "name": "Pulse Multispecialty Hospital",
        "phone": "080 2672 4466",
        "source": "just dial"
      }
    },
    {
      "type": "node",
      "id": 4446909294,
      "lat": 12.9316792,
      "lon": 77.5450887,
      "tags": {
        "addr:city": "bangalore",
        "addr:housenumber": "103,994",
        "addr:postcode": "560085",
        "addr:street": ",2nd Main,1st Block,4th Phase,Kathriguppe,BSK 3rd Stage, Water Tank Road, Banashankari",
        "amenity": "hospital",
        "name": "Surya Galaxy Hospital",
        "phone": "080 2642 1051",
        "source": "just dial"
      }
    },
    {
      "type": "node",
      "id": 4446989153,
      "lat": 12.9334596,
      "lon": 77.5463009,
      "tags": {
        "addr:city": "Banashankari,Banglore",
        "addr:housenumber": "91/2",
        "addr:postcode": "560070",
        "addr:street": "80 Feet Road",
        "amenity": "restaurant",
        "cuisine": "indian",
        "name": "Halli Dhaba",
        "opening_hours": "00:00-23:59",
        "phone": "+91 9844560214",
        "takeaway": "yes"
      }
    },
    {
      "type": "node",
      "id": 4447009759,
      "lat": 12.9302815,
      "lon": 77.5467741,
      "tags": {
        "addr:city": "bangalore",
        "addr:housenumber": "56",
        "addr:postcode": "560085",
        "addr:street": "BMS Plaza, First Floor, Opposite Kathriguppe Water Tank, 3rd Cross Rd, 1st Block, Banashankari 3rd Stage, Banashankari,",
        "amenity": "pharmacy",
        "name": "Sunrise Diagnostic Laboratory",
        "phone": "+9189710 01078",
        "source": "justdial"
      }
    },
    {
      "type": "node",
      "id": 4447087215,
      "lat": 12.9266045,
      "lon": 77.5459463,
      "tags": {
        "addr:city": "Bangalore",
        "addr:housenumber": "11",
        "addr:postcode": "560085",
        "addr:street": "Near Aiyappa Temple, Madivala",
        "amenity": "restaurant",
        "cuisine": "regional",
        "delivery": "yes",
        "name": "Kairali",
        "name:kn": "ಕೈರಲಿ",
        "opening_hours": "08:00-23:00",
        "phone": "+91 9844034033",
        "smoking": "no",
        "takeaway": "yes",
        "website": "https://www.kairali.com/"
      }
    },
    {
      "type": "node",
      "id": 4488335404,
      "lat": 12.9284682,
      "lon": 77.5452795,
      "tags": {
        "addr:city": "Banashankari,Bangalore",
        "addr:housenumber": "no.10",
        "addr:postcode": "560085",
        "addr:street": "50 Feet Road",
        "name": "Green Trends Hair & Style Salon",
        "opening_hours": "09:00-20:00",
        "phone": "9972936226",
        "shop": "beauty",
        "website": "https://www.mygreentrends.in/"
      }
    },
    {
      "type": "node",
      "id": 4489885397,
      "lat": 12.933338,
      "lon": 77.5402961,
      "tags": {
        "addr:city": "Bengaluru",
        "addr:housenumber": "677",
        "addr:postcode": "560085",
        "addr:street": ", Outer Ring Rd, Hosakerehalli Layout, Banashankari Stage I, Banashankari, , Karnataka",
        "leisure": "sports_centre",
        "name": "Shapes Gym",
        "opening_hours": "5:00-22:00"
      }
    },
    {
      "type": "node",
      "id": 4489941583,
      "lat": 12.9401558,
      "lon": 77.5478441,
      "tags": {
        "addr:city": "Bengaluru",
        "addr:housenumber": "4,",
        "addr:postcode": "560085",
        "addr:street": "Vivekananda Park Road, Nagendra Block, Banashankari Stage I, Banashankari,, Karnataka",
        "leisure": "fitness_centre",
        "name": "Body Image Fitness Center",
        "opening_hours": "5:30-22:00"
      }
    },
    {
      "type": "node",
      "id": 4617491993,
      "lat": 12.9300351,
      "lon": 77.5411161,
      "tags": {
        "amenity": "dentist",
        "name": "Vajradanta Dental Clinic",
        "name:en": "Vajradanta Dental Clinic"
      }
    },
    {
      "type": "node",
      "id": 4617491994,
      "lat": 12.9299855,
      "lon": 77.5411817,
      "tags": {
        "amenity": "fast_food",
        "name": "North Karnataka Joladda Roti",
        "name:en": "North Karnataka Joladda Roti"
      }
    },
    {
      "type": "node",
      "id": 4617511989,
      "lat": 12.9308886,
      "lon": 77.5403351,
      "tags": {
        "name": "Castrol Bike Repairs",
        "name:en": "Castrol Bike Repairs",
        "opening_hours": "24/7",
        "shop": "bicycle"
      }
    },
    {
      "type": "node",
      "id": 4617527589,
      "lat": 12.929906,
      "lon": 77.5415113,
      "tags": {
        "amenity": "dentist",
        "name": "Chowdeshwari Dental Clinic",
        "name:en": "Chowdeshwari Dental Clinic"
      }
    },
    {
      "type": "node",
      "id": 4620181689,
      "lat": 12.9298098,
      "lon": 77.5400027,
      "tags": {
        "amenity": "pharmacy",
        "name": "MedPlus",
        "name:en": "MedPlus",
        "name:kn": "ಮೆಡ್‍ಪ್ಲಸ್"
      }
    },
    {
      "type": "node",
      "id": 4969981521,
      "lat": 12.9285357,
      "lon": 77.5453297,
      "tags": {
        "addr:postcode": "560085",
        "addr:street": "Outer Ring Road",
        "name": "Creatise office",
        "name:en": "Creatise office",
        "shop": "cosmetics"
      }
    },
    {
      "type": "node",
      "id": 5302772310,
      "lat": 12.9309162,
      "lon": 77.5473845,
      "tags": {
        "amenity": "restaurant",
        "level": "0",
        "name": "Bengaluru Coffee House",
        "opening_hours": "06:30-12:30,16:00-20:30"
      }
    },
    {
      "type": "node",
      "id": 5302772311,
      "lat": 12.9306675,
      "lon": 77.5474147,
      "tags": {
        "amenity": "clinic",
        "level": "-1",
        "name": "Shekhar Clinic",
        "opening_hours": "10:00-13:00,18:00-21:00"
      }
    },
    {
      "type": "node",
      "id": 5302772312,
      "lat": 12.9306773,
      "lon": 77.5474666,
      "tags": {
        "amenity": "bank",
        "branch": "Banashankari 3rd Stage",
        "level": "1",
        "name": "Karnataka State Co-Operative Apex Bank Ltd",
        "opening_hours": "Mo-Fr 09:00-13:30,14:00-17:00",
        "short_name": "Apex Bank"
      }
    },
    {
      "type": "node",
      "id": 5302772313,
      "lat": 12.9306492,
      "lon": 77.547441,
      "tags": {
        "amenity": "pharmacy",
        "brand": "MedPlus",
        "brand:wikidata": "Q65684234",
        "healthcare": "pharmacy",
        "level": "0",
        "name": "MedPlus"
      }
    },
    {
      "type": "node",
      "id": 5302772314,
      "lat": 12.9306982,
      "lon": 77.5474396,
      "tags": {
        "amenity": "restaurant",
        "level": "-1",
        "name": "Davanagere Bajji Centre"
      }
    },
    {
      "type": "node",
      "id": 5302831862,
      "lat": 12.9364676,
      "lon": 77.5507803,
      "tags": {
        "name": "Srinivasa Dry Cleaners",
        "shop": "dry_cleaning"
      }
    },
    {
      "type": "node",
      "id": 5302831866,
      "lat": 12.9368035,
      "lon": 77.5511894,
      "tags": {
        "name": "Ullas Ladies Tailor",
        "shop": "tailor"
      }
    },
    {
      "type": "node",
      "id": 5303068048,
      "lat": 12.9406476,
      "lon": 77.5427806,
      "tags": {
        "amenity": "ice_cream",
        "name": "Vadilals",
        "shop": "dairy"
      }
    },
    {
      "type": "node",
      "id": 5303068049,
      "lat": 12.9407678,
      "lon": 77.542786,
      "tags": {
        "amenity": "bank",
        "level": "1",
        "name": "Saphalya Credit Co-op. Society"
      }
    },
    {
      "type": "node",
      "id": 5303068050,
      "lat": 12.9407992,
      "lon": 77.5427847,
      "tags": {
        "name": "Sri Sri Ayurveda Clinic",
        "shop": "medical_supply"
      }
    },
    {
      "type": "node",
      "id": 5303068057,
      "lat": 12.9395543,
      "lon": 77.5427951,
      "tags": {
        "name": "Sameepa Iyengar's Bakery",
        "shop": "bakery"
      }
    },
    {
      "type": "node",
      "id": 5303068058,
      "lat": 12.9397235,
      "lon": 77.5424829,
      "tags": {
        "name": "Charan Stores",
        "shop": "convenience"
      }
    },
    {
      "type": "node",
      "id": 5303068059,
      "lat": 12.9397313,
      "lon": 77.5425822,
      "tags": {
        "name": "Amrutha Bakery",
        "shop": "bakery"
      }
    },
    {
      "type": "node",
      "id": 5303068060,
      "lat": 12.9433956,
      "lon": 77.5424957,
      "tags": {
        "amenity": "post_office",
        "level": "1",
        "operator": "India Post",
        "operator:wikidata": "Q3519720"
      }
    },
    {
      "type": "node",
      "id": 5304601828,
      "lat": 12.9390746,
      "lon": 77.5480968,
      "tags": {
        "amenity": "community_centre",
        "name": "Sri Srinivasa Nilaya Dharmika Sabha Mandira"
      }
    },
    {
      "type": "node",
      "id": 5304601829,
      "lat": 12.9354259,
      "lon": 77.5473967,
      "tags": {
        "name": "Annapoorneshwari Cars",
        "shop": "car"
      }
    },
    {
      "type": "node",
      "id": 5304601834,
      "lat": 12.9355043,
      "lon": 77.5474745,
      "tags": {
        "name": "Sarvesh Enterprises",
        "shop": "hardware"
      }
    },
    {
      "type": "node",
      "id": 5304601836,
      "lat": 12.935505,
      "lon": 77.5478306,
      "tags": {
        "name": "U Trust Cars",
        "shop": "car"
      }
    },
    {
      "type": "node",
      "id": 5304601837,
      "lat": 12.9355376,
      "lon": 77.5478534,
      "tags": {
        "name": "Repose Sleep Station",
        "shop": "mattress"
      }
    },
    {
      "type": "node",
      "id": 5304601843,
      "lat": 12.9358062,
      "lon": 77.5480552,
      "tags": {
        "name": "Sam Tours and Travels",
        "office": "yes",
        "shop": "travel_agency"
      }
    },
    {
      "type": "node",
      "id": 5304601844,
      "lat": 12.9358925,
      "lon": 77.5477749,
      "tags": {
        "amenity": "bank",
        "atm": "yes",
        "branch": "Hosakerehalli",
        "brand": "HDFC Bank",
        "brand:wikidata": "Q631047",
        "name": "HDFC Bank",
        "name:kn": "ಎಚ್ ಡಿ ಎಫ್ ಸಿ",
        "short_name": "HDFC"
      }
    },
    {
      "type": "node",
      "id": 5304601846,
      "lat": 12.9360376,
      "lon": 77.5479197,
      "tags": {
        "name": "Zoyo Wholesale Center",
        "shop": "clothes"
      }
    },
    {
      "type": "node",
      "id": 5304601852,
      "lat": 12.9363794,
      "lon": 77.5482564,
      "tags": {
        "brand": "Maruti Suzuki",
        "name": "Bimal Auto Agency",
        "shop": "car"
      }
    },
    {
      "type": "node",
      "id": 5304601862,
      "lat": 12.9366134,
      "lon": 77.5483683,
      "tags": {
        "amenity": "school",
        "name": "MediBase"
      }
    },
    {
      "type": "node",
      "id": 5304601865,
      "lat": 12.9369584,
      "lon": 77.5486218,
      "tags": {
        "amenity": "school",
        "name": "KKN coaching classes"
      }
    },
    {
      "type": "node",
      "id": 5304601866,
      "lat": 12.9369447,
      "lon": 77.54865,
      "tags": {
        "name": "My Shoppe",
        "shop": "gift"
      }
    },
    {
      "type": "node",
      "id": 5304601867,
      "lat": 12.9370957,
      "lon": 77.5486674,
      "tags": {
        "amenity": "community_centre",
        "name": "Souharda Mini Hall"
      }
    },
    {
      "type": "node",
      "id": 5304601868,
      "lat": 12.9370832,
      "lon": 77.5487177,
      "tags": {
        "amenity": "community_centre",
        "name": "Sapthapadi Kalyana Mantapa"
      }
    },
    {
      "type": "node",
      "id": 5304601869,
      "lat": 12.9371917,
      "lon": 77.5488136,
      "tags": {
        "name": "Alankar Family Salon",
        "shop": "beauty"
      }
    },
    {
      "type": "node",
      "id": 5304601870,
      "lat": 12.9374172,
      "lon": 77.5490235,
      "tags": {
        "name": "Epitome Skin and Laser Center",
        "shop": "cosmetics"
      }
    },
    {
      "type": "node",
      "id": 5304601871,
      "lat": 12.937429,
      "lon": 77.5490711,
      "tags": {
        "amenity": "dentist",
        "name": "Classic Smiles"
      }
    },
    {
      "type": "node",
      "id": 5304601872,
      "lat": 12.9373819,
      "lon": 77.5490738,
      "tags": {
        "amenity": "ice_cream",
        "brand": "Polar Bear",
        "brand:wikidata": "Q124374249",
        "delivery": "yes",
        "name": "Polar Bear",
        "takeaway": "yes"
      }
    },
    {
      "type": "node",
      "id": 5304601873,
      "lat": 12.9374505,
      "lon": 77.5491321,
      "tags": {
        "name": "Just Bake",
        "shop": "bakery"
      }
    },
    {
      "type": "node",
      "id": 5304601878,
      "lat": 12.9373192,
      "lon": 77.549336,
      "tags": {
        "amenity": "restaurant",
        "name": "Aahar Utsav"
      }
    },
    {
      "type": "node",
      "id": 5304601881,
      "lat": 12.9376675,
      "lon": 77.5492313,
      "tags": {
        "name": "KBS Family Mart",
        "shop": "supermarket"
      }
    },
    {
      "type": "node",
      "id": 5304601882,
      "lat": 12.9377041,
      "lon": 77.5492421,
      "tags": {
        "amenity": "restaurant",
        "name": "Havyaka Mess"
      }
    },
    {
      "type": "node",
      "id": 5304601883,
      "lat": 12.9377198,
      "lon": 77.5493212,
      "tags": {
        "name": "Oven Fresh",
        "shop": "bakery"
      }
    },
    {
      "type": "node",
      "id": 5304601884,
      "lat": 12.9388308,
      "lon": 77.5490148,
      "tags": {
        "name": "SL Bike Center",
        "shop": "car_repair"
      }
    },
    {
      "type": "node",
      "id": 5304601885,
      "lat": 12.9388367,
      "lon": 77.5489343,
      "tags": {
        "name": "Sri Manjunatha Material Suppliers",
        "shop": "hardware"
      }
    },
    {
      "type": "node",
      "id": 5304601886,
      "lat": 12.9388399,
      "lon": 77.5488753,
      "tags": {
        "name": "MM King Tyres",
        "shop": "car_repair"
      }
    },
    {
      "type": "node",
      "id": 5304601888,
      "lat": 12.9388615,
      "lon": 77.5486191,
      "tags": {
        "name": "Cake Bites",
        "shop": "bakery"
      }
    },
    {
      "type": "node",
      "id": 5304601890,
      "lat": 12.9388844,
      "lon": 77.5486641,
      "tags": {
        "leisure": "fitness_centre",
        "name": "Raghavas Fitness"
      }
    },
    {
      "type": "node",
      "id": 5304601891,
      "lat": 12.9390478,
      "lon": 77.5480928,
      "tags": {
        "amenity": "community_centre",
        "name": "Kamalanaga Party Hall"
      }
    },
    {
      "type": "node",
      "id": 5304601902,
      "lat": 12.9393634,
      "lon": 77.5501453,
      "tags": {
        "shop": "convenience"
      }
    },
    {
      "type": "node",
      "id": 5304601911,
      "lat": 12.938535,
      "lon": 77.5494412,
      "tags": {
        "name": "Desi Shop",
        "shop": "boutique"
      }
    },
    {
      "type": "node",
      "id": 5304601922,
      "lat": 12.9386007,
      "lon": 77.549108,
      "tags": {
        "name": "Nandini Milk Parlor",
        "name:kn": "ನಂದಿನಿ ಹಾಲಿನ ಅಂಗಡಿ",
        "shop": "dairy"
      }
    },
    {
      "type": "node",
      "id": 5304601923,
      "lat": 12.9386661,
      "lon": 77.549057,
      "tags": {
        "amenity": "cafe",
        "name": "coffee bite"
      }
    },
    {
      "type": "node",
      "id": 5304601924,
      "lat": 12.9385197,
      "lon": 77.5491576,
      "tags": {
        "amenity": "clinic",
        "name": "Fracture and Ortho Clinic"
      }
    },
    {
      "type": "node",
      "id": 5304602025,
      "lat": 12.9361997,
      "lon": 77.5510016,
      "tags": {
        "name": "Ganesh Traders",
        "shop": "convenience"
      }
    },
    {
      "type": "node",
      "id": 5348591335,
      "lat": 12.940807,
      "lon": 77.5416769,
      "tags": {
        "amenity": "school",
        "cmt": "Genauigkeit: 20.0m",
        "designation": "Higher elementary school",
        "ele": "779.0",
        "hdop": "5.0",
        "name": "Janana Deepthi School",
        "sat": "8",
        "source": "local_signs",
        "time": "2013-02-26T09:56:33Z"
      }
    },
    {
      "type": "node",
      "id": 6449182704,
      "lat": 12.9356526,
      "lon": 77.5345329,
      "tags": {
        "amenity": "ice_cream"
      }
    },
    {
      "type": "node",
      "id": 6449182705,
      "lat": 12.9356072,
      "lon": 77.5344944,
      "tags": {
        "amenity": "fast_food",
        "name": "Food Corner"
      }
    },
    {
      "type": "node",
      "id": 6449182706,
      "lat": 12.9354906,
      "lon": 77.5345149,
      "tags": {
        "name": "Fruit Juice Shop",
        "shop": "beverages"
      }
    },
    {
      "type": "node",
      "id": 6449208761,
      "lat": 12.9341922,
      "lon": 77.5342788,
      "tags": {
        "leisure": "fitness_centre",
        "level": "0",
        "name": "PESU Sports Center"
      }
    },
    {
      "type": "node",
      "id": 6449209437,
      "lat": 12.9334557,
      "lon": 77.5356164,
      "tags": {
        "amenity": "library",
        "level": "1",
        "name": "Lending Library"
      }
    },
    {
      "type": "node",
      "id": 6449209438,
      "lat": 12.9353489,
      "lon": 77.5351147,
      "tags": {
        "amenity": "library",
        "level": "1",
        "name": "Reference Library"
      }
    },
    {
      "type": "node",
      "id": 6899554637,
      "lat": 12.9349789,
      "lon": 77.5366498,
      "tags": {
        "name": "Nandini Parlour",
        "shop": "dairy"
      }
    },
    {
      "type": "node",
      "id": 6899554638,
      "lat": 12.9349174,
      "lon": 77.5367638,
      "tags": {
        "amenity": "cafe",
        "name": "Coffee House"
      }
    },
    {
      "type": "node",
      "id": 6899554639,
      "lat": 12.9349665,
      "lon": 77.5367068,
      "tags": {
        "amenity": "atm",
        "brand": "HDFC Bank",
        "brand:wikidata": "Q631047",
        "name": "HDFC Bank",
        "operator": "HDFC Bank",
        "operator:wikidata": "Q631047",
        "short_name": "HDFC"
      }
    },
    {
      "type": "node",
      "id": 6938777925,
      "lat": 12.9291283,
      "lon": 77.5461361,
      "tags": {
        "addr:district": "Bengaluru Urban",
        "addr:full": "No.160, 1st Floor,Rashi Complex,2nd Stage,2nd Block,Near Bda Complex, Nagarabhavi",
        "addr:postcode": "560072",
        "addr:state": "Karnataka",
        "amenity": "hospital",
        "name": "Netraspandana Healthcare and Research Pvt. Ltd",
        "source": "OpenGovernmentData"
      }
    },
    {
      "type": "node",
      "id": 6939582677,
      "lat": 12.9275311,
      "lon": 77.5457901,
      "tags": {
        "addr:district": "Bengaluru Urban",
        "addr:full": "30, 2nd Cross Anjaneya Nagar, 3Road Stage Banashankari",
        "addr:postcode": "560085",
        "addr:state": "Karnataka",
        "amenity": "hospital",
        "name": "Sg Hospital",
        "source": "OpenGovernmentData"
      }
    },
    {
      "type": "node",
      "id": 6944201468,
      "lat": 12.9271131,
      "lon": 77.5471291,
      "tags": {
        "addr:district": "Bengaluru Urban",
        "addr:full": "# 77, 100 Ft.Ring Road, B.S.K.3rd Stage, 5th Block",
        "addr:postcode": "560085",
        "addr:state": "Karnataka",
        "amenity": "hospital",
        "email": "abhayaeye@yahoo.com",
        "healthcare:speciality": "Cataract",
        "name": "Abhaya Eye Hospital, Super Speciality Eye Care Centre",
        "operator:type": "private",
        "source": "OpenGovernmentData",
        "website": "http://www.abhayaeyehospital.com/"
      }
    },
    {
      "type": "node",
      "id": 7059472363,
      "lat": 12.9275729,
      "lon": 77.5470424,
      "tags": {
        "addr:city": "Bangalore",
        "addr:postcode": "560085",
        "name": "Curtains N More",
        "opening_hours": "10:30-21:00",
        "shop": "furniture",
        "source": "survey;local knowledge;gps"
      }
    },
    {
      "type": "node",
      "id": 7257279181,
      "lat": 12.9332662,
      "lon": 77.5403188,
      "tags": {
        "amenity": "bank",
        "brand": "Union Bank of India",
        "brand:wikidata": "Q2004078",
        "name": "Union Bank of India"
      }
    },
    {
      "type": "node",
      "id": 7258378647,
      "lat": 12.931298,
      "lon": 77.5412566,
      "tags": {
        "amenity": "hospital",
        "healthcare": "hospital",
        "healthcare:speciality": "optometry;optometrist",
        "name": "Vittal Eye HOspital"
      }
    },
    {
      "type": "node",
      "id": 7576958025,
      "lat": 12.93753,
      "lon": 77.549675,
      "tags": {
        "addr:district": "Bengaluru Urban",
        "addr:full": "Srinivasnagar, Banashankari, Bengaluru",
        "addr:state": "Karnataka",
        "amenity": "hospital",
        "name": "Vinayaka Hospital",
        "source": "Local Knowledge"
      }
    },
    {
      "type": "node",
      "id": 7576958081,
      "lat": 12.9406605,
      "lon": 77.5443444,
      "tags": {
        "addr:district": "Bengaluru Urban",
        "addr:full": "Girinagar, Kadavanthra, Banashankari, Bengaluru",
        "addr:state": "Karnataka",
        "amenity": "clinic",
        "name": "Shantanu Ayurveda Clinic",
        "source": "Local Knowledge"
      }
    },
    {
      "type": "node",
      "id": 7576958085,
      "lat": 12.9428346,
      "lon": 77.5458567,
      "tags": {
        "addr:district": "Bengaluru Urban",
        "addr:full": "Vinobha Colony, Muneshwara Block, Banashankari, Bengaluru",
        "addr:state": "Karnataka",
        "amenity": "dentist",
        "name": "Shree Dental Specialities",
        "source": "Local Knowledge"
      }
    },
    {
      "type": "node",
      "id": 7579924712,
      "lat": 12.9280659,
      "lon": 77.5446602,
      "tags": {
        "addr:district": "Bengaluru Urban",
        "addr:full": "Hosakerehalli, Bengaluru",
        "addr:postcode": "560085",
        "addr:state": "Karnataka",
        "amenity": "clinic",
        "name": "Hanumagiri Clinic",
        "source": "Local Knowledge"
      }
    },
    {
      "type": "node",
      "id": 7579924726,
      "lat": 12.9271897,
      "lon": 77.5447555,
      "tags": {
        "addr:district": "Bengaluru Urban",
        "addr:full": "Anjaneya Nagar, Ittamadu, Banashankari, Bengaluru",
        "addr:postcode": "560085",
        "addr:state": "Karnataka",
        "amenity": "clinic",
        "name": "Ramdas Homeopathy Clinic",
        "source": "Local Knowledge"
      }
    },
    {
      "type": "node",
      "id": 8261705436,
      "lat": 12.9336108,
      "lon": 77.5415266,
      "tags": {
        "addr:city": "Bengaluru",
        "addr:postcode": "560085",
        "addr:street": "2nd Main Rd, 6th Block, Banashankari 3rd Stage, Banashankari",
        "amenity": "clinic",
        "healthcare": "clinic",
        "healthcare:speciality": "Spine_Surgeon",
        "name": "Sri Balaji Specialist clinic",
        "website": "https://www.spineexpertbangalore.in/dr-pramod-sudarshan"
      }
    },
    {
      "type": "node",
      "id": 11278723468,
      "lat": 12.9364245,
      "lon": 77.5349405,
      "tags": {
        "amenity": "fast_food",
        "brand": "Indira Canteen",
        "brand:wikidata": "Q36164828",
        "cuisine": "south_indian",
        "name": "Indira Canteen",
        "operator": "BBMP",
        "takeaway": "yes"
      }
    },
    {
      "type": "node",
      "id": 11279447635,
      "lat": 12.9338966,
      "lon": 77.539501,
      "tags": {
        "access": "yes",
        "amenity": "toilets"
      }
    },
    {
      "type": "node",
      "id": 11340895285,
      "lat": 12.9296753,
      "lon": 77.5349343,
      "tags": {
        "check_date": "2023-11-02",
        "name": "Krishna Cake Palace",
        "shop": "bakery"
      }
    },
    {
      "type": "node",
      "id": 11340895286,
      "lat": 12.9296544,
      "lon": 77.5350121,
      "tags": {
        "check_date": "2023-11-02",
        "name": "Nandini",
        "shop": "dairy"
      }
    },
    {
      "type": "node",
      "id": 11340895287,
      "lat": 12.9294996,
      "lon": 77.5352415,
      "tags": {
        "amenity": "restaurant",
        "check_date": "2023-11-02",
        "name": "Ba Guru Thindi Madona"
      }
    },
    {
      "type": "node",
      "id": 11969539775,
      "lat": 12.9354729,
      "lon": 77.5396693,
      "tags": {
        "amenity": "shelter",
        "shelter_type": "gazebo"
      }
    },
    {
      "type": "node",
      "id": 11969539776,
      "lat": 12.9349266,
      "lon": 77.5395164,
      "tags": {
        "amenity": "shelter",
        "shelter_type": "gazebo"
      }
    },
    {
      "type": "node",
      "id": 12206971476,
      "lat": 12.940738,
      "lon": 77.5427812,
      "tags": {
        "amenity": "fast_food",
        "check_date": "2024-09-28",
        "diet:vegetarian": "yes",
        "name": "Swaada - The Melting Point"
      }
    },
    {
      "type": "node",
      "id": 12388462222,
      "lat": 12.9397569,
      "lon": 77.5484359,
      "tags": {
        "addr:city": "Bengaluru",
        "addr:district": "Bengaluru",
        "addr:postcode": "560050",
        "addr:street": "2D Cross Rd, opposite to Martin Luther Public School,, 1st phase Girinagar,",
        "amenity": "conference_centre",
        "name": "Sambrama Party Hall"
      }
    },
    {
      "type": "node",
      "id": 12395928076,
      "lat": 12.9307897,
      "lon": 77.5434861,
      "tags": {
        "addr:city": "Bengaluru",
        "addr:street": "Outer Ring Road",
        "addr:suburb": "Banashankari",
        "amenity": "cafe",
        "delivery": "yes",
        "name": "Cafe Jassie's",
        "takeaway": "yes"
      }
    },
    {
      "type": "node",
      "id": 12590497685,
      "lat": 12.9280341,
      "lon": 77.5435903,
      "tags": {
        "access": "private",
        "amenity": "parking_entrance",
        "parking": "underground"
      }
    },
    {
      "type": "node",
      "id": 12782808240,
      "lat": 12.9343562,
      "lon": 77.543281,
      "tags": {
        "leisure": "playground"
      }
    },
    {
      "type": "way",
      "id": 41196430,
      "center": {
        "lat": 12.934578,
        "lon": 77.5428986
      },
      "tags": {
        "leisure": "park"
      }
    },
    {
      "type": "way",
      "id": 81251699,
      "center": {
        "lat": 12.9309219,
        "lon": 77.5444503
      },
      "tags": {
        "leisure": "park",
        "name": "BBMP Park",
        "name:kn": "ಬೃ. ಬೆ. ಮ. ಪಾ. ಉದ್ಯಾನವನ"
      }
    },
    {
      "type": "way",
      "id": 132924556,
      "center": {
        "lat": 12.9296424,
        "lon": 77.5479735
      },
      "tags": {
        "designation": "BBMP Park - mysore mallige KS narasimhaswamy park",
        "leisure": "park"
      }
    },
    {
      "type": "way",
      "id": 133378267,
      "center": {
        "lat": 12.9394835,
        "lon": 77.5472653
      },
      "tags": {
        "leisure": "park",
        "name": "Vivekananda Park",
        "name:kn": "ವಿವೇಕಾನಂದ ಉದ್ಯಾನವನ"
      }
    },
    {
      "type": "way",
      "id": 133379520,
      "center": {
        "lat": 12.9409612,
        "lon": 77.5455617
      },
      "tags": {
        "addr:city": "bangalore",
        "addr:district": "Bengaluru Urban",
        "addr:full": "3/4, Sunrise Tower, J.P. Road, Girinagar",
        "addr:housenumber": "3-4",
        "addr:postcode": "560085",
        "addr:state": "Karnataka",
        "addr:street": "Sunrise Towers, 30th crs JP Rd. Girinagar.,opp Canara Bank",
        "amenity": "hospital",
        "emergency": "yes",
        "name": "Radhakrishna Multispeciality Hospital",
        "name:kn": "ರಾಧಾಕೃಷ್ಣ ಆಸ್ಪತ್ರೆ",
        "phone": "080 2642 2977",
        "source": "OpenGovernmentData"
      }
    },
    {
      "type": "way",
      "id": 141790510,
      "center": {
        "lat": 12.9301996,
        "lon": 77.5422679
      },
      "tags": {
        "leisure": "park",
        "name": "Nandanavana Udyanavana",
        "name:kn": "ನಂದನವನ ಉದ್ಯಾನವನ"
      }
    },
    {
      "type": "way",
      "id": 141791769,
      "center": {
        "lat": 12.9308127,
        "lon": 77.5412224
      },
      "tags": {
        "addr:district": "Bengaluru Urban",
        "addr:full": "#1,2nd Cross, 2nd Main,7Th Block, Banashankari 3Road Stage, Hosakerehalli",
        "addr:postcode": "560085",
        "addr:state": "Karnataka",
        "amenity": "hospital",
        "emergency": "yes",
        "name": "Vittala International Institute Of Ophthalmology, Hosakerehalli",
        "source": "OpenGovernmentData"
      }
    },
    {
      "type": "way",
      "id": 141813089,
      "center": {
        "lat": 12.929527,
        "lon": 77.5438362
      },
      "tags": {
        "amenity": "college",
        "name": "NCERT"
      }
    },
    {
      "type": "way",
      "id": 141816745,
      "center": {
        "lat": 12.9317713,
        "lon": 77.5414635
      },
      "tags": {
        "addr:postcode": "560085",
        "addr:street": "Hosakerehalli",
        "amenity": "school",
        "name": "Little Flower School"
      }
    },
    {
      "type": "way",
      "id": 199316737,
      "center": {
        "lat": 12.9345346,
        "lon": 77.5354966
      },
      "tags": {
        "leisure": "park",
        "name": "Student Lounge",
        "source": "bing"
      }
    },
    {
      "type": "way",
      "id": 213799479,
      "center": {
        "lat": 12.942856,
        "lon": 77.5430107
      },
      "tags": {
        "alt_name": "BDA Park",
        "leisure": "park",
        "name": "B.D.A. Park",
        "name:en": "Avalahalli BDA Park",
        "source": "Local_Signs"
      }
    },
    {
      "type": "way",
      "id": 346756253,
      "center": {
        "lat": 12.9405756,
        "lon": 77.5425574
      },
      "tags": {
        "addr:street": "80 Feet Road Girinagar",
        "amenity": "place_of_worship",
        "building": "yes",
        "name": "Sri Raghavendra Swamy Mutt",
        "name:kn": "ರಾಘವೇಂದ್ರ ಸ್ವಾಮಿ ಮಠ",
        "religion": "hindu"
      }
    },
    {
      "type": "way",
      "id": 346756377,
      "center": {
        "lat": 12.9406287,
        "lon": 77.5454836
      },
      "tags": {
        "addr:city": "bangalore",
        "addr:district": "Bengaluru Urban",
        "addr:postcode": "560085",
        "addr:street": "80 feet road",
        "alt_name": "KK Plaza",
        "building": "yes",
        "leisure": "fitness_centre",
        "name": "My Fitness",
        "opening_hours": "Mo-Sa 05:00-22:00"
      }
    },
    {
      "type": "way",
      "id": 347044129,
      "center": {
        "lat": 12.9326876,
        "lon": 77.5379543
      },
      "tags": {
        "amenity": "place_of_worship",
        "building": "yes",
        "name": "Shri Venugopala Swami Devasthana",
        "name:kn": "ಶ್ರೀ ವೇಣುಗೋಪಾಲ ಸ್ವಾಮಿ ದೇವಸ್ಥಾನ (ಬನಶಂಕರಿ)",
        "religion": "hindu"
      }
    },
    {
      "type": "way",
      "id": 347174216,
      "center": {
        "lat": 12.9387063,
        "lon": 77.5482737
      },
      "tags": {
        "building": "yes",
        "name": "Om Cars",
        "shop": "car"
      }
    },
    {
      "type": "way",
      "id": 348272691,
      "center": {
        "lat": 12.9401419,
        "lon": 77.5485244
      },
      "tags": {
        "amenity": "school",
        "building": "yes",
        "name": "Martin Luther School",
        "name:kn": "ಮಾರ್ಟಿನ್ ಲೂಥರ್ ಶಾಲೆ"
      }
    },
    {
      "type": "way",
      "id": 348273191,
      "center": {
        "lat": 12.939932,
        "lon": 77.5488064
      },
      "tags": {
        "amenity": "school",
        "building": "yes",
        "name": "Martin Luther School",
        "name:kn": "ಮಾರ್ಟಿನ್ ಲೂಥರ್ ಶಾಲೆ"
      }
    },
    {
      "type": "way",
      "id": 348287603,
      "center": {
        "lat": 12.93628,
        "lon": 77.5480299
      },
      "tags": {
        "building": "yes",
        "name": "Sri Rajeswari Stones",
        "shop": "hardware"
      }
    },
    {
      "type": "way",
      "id": 348287689,
      "center": {
        "lat": 12.935815,
        "lon": 77.547652
      },
      "tags": {
        "amenity": "fuel",
        "brand": "Nayara",
        "brand:wikidata": "Q5399377",
        "building": "yes",
        "name": "Mamtha Petroleum"
      }
    },
    {
      "type": "way",
      "id": 348287808,
      "center": {
        "lat": 12.9352746,
        "lon": 77.5476721
      },
      "tags": {
        "amenity": "community_centre",
        "building": "yes",
        "name": "Saligrama Party Hall"
      }
    },
    {
      "type": "way",
      "id": 348287929,
      "center": {
        "lat": 12.9351361,
        "lon": 77.5477728
      },
      "tags": {
        "amenity": "place_of_worship",
        "building": "yes",
        "name": "Subramanya Swami Temple",
        "name:kn": "ಸುಬ್ರಮಣ್ಯಸ್ವಾಮಿ ದೇವಾಲಯ",
        "religion": "hindu"
      }
    },
    {
      "type": "way",
      "id": 348460058,
      "center": {
        "lat": 12.9354912,
        "lon": 77.550587
      },
      "tags": {
        "amenity": "school",
        "building": "yes",
        "name": "Holy Saint High School"
      }
    },
    {
      "type": "way",
      "id": 348460459,
      "center": {
        "lat": 12.9373127,
        "lon": 77.5503892
      },
      "tags": {
        "amenity": "school",
        "building": "yes",
        "name": "JHS school"
      }
    },
    {
      "type": "way",
      "id": 348460564,
      "center": {
        "lat": 12.9367447,
        "lon": 77.5495935
      },
      "tags": {
        "amenity": "place_of_worship",
        "building": "yes",
        "name": "Manjunathswamy Temple",
        "name:kn": "ಮಂಜುನಾಥಸ್ವಾಮಿ ದೇವಸ್ಥಾನ",
        "religion": "hindu"
      }
    },
    {
      "type": "way",
      "id": 350577190,
      "center": {
        "lat": 12.9305558,
        "lon": 77.5437431
      },
      "tags": {
        "brand": "KTM",
        "brand:wikidata": "Q215657",
        "building": "yes",
        "name": "KTM",
        "shop": "motorcycle"
      }
    },
    {
      "type": "way",
      "id": 351424362,
      "center": {
        "lat": 12.9402925,
        "lon": 77.5423963
      },
      "tags": {
        "addr:city": "Bangalore",
        "addr:postcode": "560085",
        "addr:street": "8th Main Rd, Giri Nagar, 2nd Phase, Banashankari",
        "alt_name": "Samskrita Bharati",
        "amenity": "language_school",
        "building": "yes",
        "building:levels": "3",
        "name": "Samskrita Bharati, Aksharam"
      }
    },
    {
      "type": "way",
      "id": 362894271,
      "center": {
        "lat": 12.9322491,
        "lon": 77.5490336
      },
      "tags": {
        "leisure": "park"
      }
    },
    {
      "type": "way",
      "id": 420181759,
      "center": {
        "lat": 12.9341348,
        "lon": 77.5396549
      },
      "tags": {
        "amenity": "bus_station",
        "name": "Shri Vidhyanagara BMTC Bus station",
        "name:kn": "ಬಸ್ ನಿಲ್ದಾನ"
      }
    },
    {
      "type": "way",
      "id": 548937690,
      "center": {
        "lat": 12.9368784,
        "lon": 77.5503602
      },
      "tags": {
        "amenity": "place_of_worship",
        "name": "Sri Muthu Maramma Temple",
        "name:kn": "ಶ್ರೀ ಮುತ್ತು ಮಾರಮ್ಮ",
        "religion": "hindu"
      }
    },
    {
      "type": "way",
      "id": 548963957,
      "center": {
        "lat": 12.9428045,
        "lon": 77.5424856
      },
      "tags": {
        "leisure": "playground",
        "name": "Sri Varasiddhi Vinayaka Children's Park",
        "operator": "BBMP"
      }
    },
    {
      "type": "way",
      "id": 548963966,
      "center": {
        "lat": 12.9432705,
        "lon": 77.5425134
      },
      "tags": {
        "amenity": "toilets",
        "name": "Nirmala Shouchalaya",
        "name:kn": "ನಿರ್ಮಲ ಶೌಚಾಲಯ"
      }
    },
    {
      "type": "way",
      "id": 548963967,
      "center": {
        "lat": 12.9432721,
        "lon": 77.5423974
      },
      "tags": {
        "name": "HOPCOMS",
        "name:kn": "ಹಾಪ್ ಕಾಮ್ಸ್",
        "shop": "greengrocer"
      }
    },
    {
      "type": "way",
      "id": 687910157,
      "center": {
        "lat": 12.9352011,
        "lon": 77.5347115
      },
      "tags": {
        "amenity": "theatre",
        "name": "Open Air Theatre"
      }
    },
    {
      "type": "way",
      "id": 687919139,
      "center": {
        "lat": 12.9354352,
        "lon": 77.5354024
      },
      "tags": {
        "amenity": "parking",
        "operator": "Reserved Parking"
      }
    },
    {
      "type": "way",
      "id": 691137802,
      "center": {
        "lat": 12.933912,
        "lon": 77.5341528
      },
      "tags": {
        "amenity": "shelter",
        "building": "yes"
      }
    },
    {
      "type": "way",
      "id": 691137806,
      "center": {
        "lat": 12.9340838,
        "lon": 77.5358619
      },
      "tags": {
        "amenity": "food_court",
        "building": "yes",
        "level": "1",
        "name": "South Thindies (Food Point)"
      }
    },
    {
      "type": "way",
      "id": 691141403,
      "center": {
        "lat": 12.9334377,
        "lon": 77.5350132
      },
      "tags": {
        "amenity": "motorcycle_parking",
        "operator": "Hostel Parking"
      }
    },
    {
      "type": "way",
      "id": 691142527,
      "center": {
        "lat": 12.9352328,
        "lon": 77.5353381
      },
      "tags": {
        "amenity": "fountain"
      }
    },
    {
      "type": "way",
      "id": 691142529,
      "center": {
        "lat": 12.9353606,
        "lon": 77.5355414
      },
      "tags": {
        "leisure": "park"
      }
    },
    {
      "type": "way",
      "id": 691142530,
      "center": {
        "lat": 12.9346384,
        "lon": 77.5358562
      },
      "tags": {
        "leisure": "garden"
      }
    },
    {
      "type": "way",
      "id": 691143423,
      "center": {
        "lat": 12.9351058,
        "lon": 77.53565
      },
      "tags": {
        "amenity": "motorcycle_parking"
      }
    },
    {
      "type": "way",
      "id": 691143424,
      "center": {
        "lat": 12.9350725,
        "lon": 77.5356515
      },
      "tags": {
        "amenity": "motorcycle_parking"
      }
    },
    {
      "type": "way",
      "id": 691144638,
      "center": {
        "lat": 12.9337358,
        "lon": 77.5346714
      },
      "tags": {
        "amenity": "fountain"
      }
    },
    {
      "type": "way",
      "id": 737361889,
      "center": {
        "lat": 12.9344285,
        "lon": 77.5507627
      },
      "tags": {
        "leisure": "park",
        "name": "Banni Mantapa",
        "name:kn": "ಬನ್ನಿ ಮಂಟಪ"
      }
    },
    {
      "type": "way",
      "id": 1157397996,
      "center": {
        "lat": 12.9381289,
        "lon": 77.5379681
      },
      "tags": {
        "amenity": "place_of_worship",
        "landuse": "religious",
        "name": "Sri Ramakrishna Seva Trust",
        "religion": "hindu"
      }
    },
    {
      "type": "way",
      "id": 1157397997,
      "center": {
        "lat": 12.9352391,
        "lon": 77.5395846
      },
      "tags": {
        "leisure": "park",
        "name": "Vidyanagara Park"
      }
    },
    {
      "type": "way",
      "id": 1182315665,
      "center": {
        "lat": 12.93463,
        "lon": 77.533221
      },
      "tags": {
        "leisure": "pitch",
        "name": "Football Ground",
        "name:kn": "ಫುಟ್ಬಾಲ್ ಆಟದ ಮೈದಾನ",
        "sport": "soccer"
      }
    },
    {
      "type": "way",
      "id": 1217250856,
      "center": {
        "lat": 12.9376715,
        "lon": 77.5341687
      },
      "tags": {
        "amenity": "fuel",
        "brand": "Go Gas",
        "name": "Go Gas",
        "operator": "Go Gas"
      }
    },
    {
      "type": "way",
      "id": 1217326870,
      "center": {
        "lat": 12.9291128,
        "lon": 77.5422803
      },
      "tags": {
        "access": "private",
        "leisure": "swimming_pool"
      }
    },
    {
      "type": "way",
      "id": 1217326872,
      "center": {
        "lat": 12.9327215,
        "lon": 77.5439239
      },
      "tags": {
        "leisure": "park"
      }
    },
    {
      "type": "way",
      "id": 1217326874,
      "center": {
        "lat": 12.9330817,
        "lon": 77.5415726
      },
      "tags": {
        "amenity": "place_of_worship",
        "religion": "hindu"
      }
    },
    {
      "type": "way",
      "id": 1291004769,
      "center": {
        "lat": 12.9342175,
        "lon": 77.539285
      },
      "tags": {
        "amenity": "fuel",
        "brand": "Indian Oil",
        "brand:wikidata": "Q1289348",
        "brand:wikipedia": "en:Indian Oil Corporation",
        "name": "Kalabhyraveshwara Service Station",
        "operator": "Indian Oil Corporation"
      }
    },
    {
      "type": "way",
      "id": 1360123892,
      "center": {
        "lat": 12.9287096,
        "lon": 77.5435724
      },
      "tags": {
        "access": "private",
        "amenity": "parking",
        "orientation": "perpendicular",
        "parking": "street_side"
      }
    },
    {
      "type": "way",
      "id": 1360123893,
      "center": {
        "lat": 12.9277859,
        "lon": 77.5435403
      },
      "tags": {
        "access": "private",
        "amenity": "parking",
        "parking": "street_side"
      }
    },
    {
      "type": "way",
      "id": 1360123910,
      "center": {
        "lat": 12.9275136,
        "lon": 77.5437387
      },
      "tags": {
        "access": "private",
        "leisure": "pitch",
        "sport": "tennis"
      }
    },
    {
      "type": "way",
      "id": 1363986252,
      "center": {
        "lat": 12.9417285,
        "lon": 77.5380163
      },
      "tags": {
        "amenity": "place_of_worship",
        "landuse": "religious",
        "religion": "hindu"
      }
    }
  ]
}