{
  "area_name": "HRBR Layout",
  "osm_id": 19883359,
  "osm_type": "relation",
  "place_type": "administrative",
  "amenity_count": 33,
  "amenities": [
    {
      "type": "node",
      "id": 2211056425,
      "lat": 13.0145004,
      "lon": 77.635717,
      "tags": {
        "amenity": "restaurant",
        "cuisine": "indian",
        "name": "Empire Restaurant"
      }
    },
    {
      "type": "node",
      "id": 2211056431,
      "lat": 13.0144977,
      "lon": 77.6357519,
      "tags": {
        "name": "Bakey and Joy",
        "shop": "bakery"
      }
    },
    {
      "type": "node",
      "id": 4263311302,
      "lat": 13.0148535,
      "lon": 77.6336331,
      "tags": {
        "name": "Maha Bazar",
        "shop": "supermarket"
      }
    },
    {
      "type": "node",
      "id": 4263313808,
      "lat": 13.0147612,
      "lon": 77.6335463,
      "tags": {
        "amenity": "hospital",
        "name": "Dianova Diabetes Center and Hospital"
      }
    },
    {
      "type": "node",
      "id": 4446897124,
      "lat": 13.013929,
      "lon": 77.6389286,
      "tags": {
        "addr:city": "bangalore",
        "addr:housenumber": "8",
        "addr:postcode": "560033",
        "addr:street": "Nehru Road, Kullappa Road, Near-Kullapa Circle, Kammanahalli, PNS Layout, Subbayianiah Palyam, Banswadi",
        "amenity": "pharmacy",
        "name": "Royal Medicals",
        "phone": "08033792698"
      }
    },
    {
      "type": "node",
      "id": 4446912425,
      "lat": 13.0120076,
      "lon": 77.629801,
      "tags": {
        "addr:city": "bengaluru",
        "addr:postcode": "560066",
        "addr:street": "Immadihalli Main Rd, Vinayaka Layout, Whitefield",
        "amenity": "pharmacy",
        "drive_through": "no",
        "name": "Sri Durga Medicals",
        "phone": "+9198456 19107",
        "source": "http://www.bangalorean.co.in/"
      }
    },
    {
      "type": "node",
      "id": 4489336845,
      "lat": 13.0142127,
      "lon": 77.6361981,
      "tags": {
        "addr:city": "bengalore",
        "addr:housenumber": "48, 49",
        "addr:postcode": "560084",
        "addr:street": "3rd Main Nehru Rd, MEG Layout, A Narayanapura, Kammanahalli,",
        "name": "Falcon Sports",
        "opening_hours": "10:30-22:30",
        "phone": "+919901541131",
        "shop": "sports"
      }
    },
    {
      "type": "node",
      "id": 4489749852,
      "lat": 13.0151194,
      "lon": 77.6368067,
      "tags": {
        "addr:city": "bangalore",
        "addr:housenumber": "218",
        "addr:postcode": "560043",
        "addr:street": "Sunshine Complex, 3rd Floor, Kammanahalli Main Road, Kalyan Nagar Post, HRBR Layout",
        "name": "Hair Do Salon And Spa",
        "opening_hours": "09:00-21:30",
        "phone": "080-25448677",
        "shop": "beauty"
      }
    },
    {
      "type": "node",
      "id": 4489754229,
      "lat": 13.0133693,
      "lon": 77.6355793,
      "tags": {
        "addr:city": "bangalore",
        "addr:housenumber": "36",
        "addr:postcode": "560084",
        "addr:street": "1st Floor, Kammanahalli Main Road, Kammanahalli",
        "leisure": "sports_centre",
        "name": "Leon Maestro De Fitness",
        "opening_hours": "05:00-23:00",
        "phone": "(91)-80-33537002",
        "sport": "gymnastics",
        "website": "https://www.fitternity.com/"
      }
    },
    {
      "type": "node",
      "id": 4489877531,
      "lat": 13.0155509,
      "lon": 77.6323859,
      "tags": {
        "addr:city": "bangalore",
        "addr:housenumber": "317",
        "addr:postcode": "560084",
        "addr:street": "3rd Block,3rd D Main, Kammanahalli",
        "name": "Parker Spa And Salon",
        "opening_hours": "09:00-21:00",
        "phone": "9611354523",
        "shop": "beauty"
      }
    },
    {
      "type": "node",
      "id": 4489894388,
      "lat": 13.0153602,
      "lon": 77.6307515,
      "tags": {
        "addr:city": "bangalore",
        "addr:housenumber": "1987",
        "addr:postcode": "560084",
        "addr:street": "kammahalli road",
        "name": "Ebony Blonde",
        "opening_hours": "09:00-21:30",
        "phone": "9980836102",
        "shop": "beauty"
      }
    },
    {
      "type": "node",
      "id": 4490414160,
      "lat": 13.0157441,
      "lon": 77.6304813,
      "tags": {
        "addr:city": "bangalore",
        "addr:housenumber": "No.1987/1, Nehru Road",
        "addr:postcode": "560084",
        "addr:street": "2nd Cross Road",
        "name": "Ebony Blonde",
        "opening_hours": "10:00 - 20:00",
        "phone": "(91)-80-41125267",
        "shop": "beauty"
      }
    },
    {
      "type": "node",
      "id": 4844863380,
      "lat": 13.0140839,
      "lon": 77.6406622,
      "tags": {
        "name": "Kamakshi",
        "name:en": "Kamakshi",
        "name:kn": "ಕಾಮಾಕ್ಷಿ",
        "shop": "clothes"
      }
    },
    {
      "type": "node",
      "id": 4844863382,
      "lat": 13.0143953,
      "lon": 77.6363195,
      "tags": {
        "name": "Vivo",
        "name:en": "Vivo",
        "shop": "mobile_phone"
      }
    },
    {
      "type": "node",
      "id": 4844863383,
      "lat": 13.0143717,
      "lon": 77.6363708,
      "tags": {
        "shop": "optician"
      }
    },
    {
      "type": "node",
      "id": 4844863384,
      "lat": 13.015025,
      "lon": 77.6358463,
      "tags": {
        "amenity": "restaurant",
        "name": "Nandana Palace",
        "name:en": "Nandana Palace"
      }
    },
    {
      "type": "node",
      "id": 4844865054,
      "lat": 13.0140126,
      "lon": 77.6395774,
      "tags": {
        "name": "Ty engar",
        "name:en": "Ty engar",
        "shop": "bakery"
      }
    },
    {
      "type": "node",
      "id": 4844865056,
      "lat": 13.0142154,
      "lon": 77.6363852,
      "tags": {
        "amenity": "restaurant",
        "name": "Kairali",
        "name:en": "Kairali",
        "name:kn": "ಕೈರಲಿ"
      }
    },
    {
      "type": "node",
      "id": 4844865057,
      "lat": 13.014746,
      "lon": 77.6357881,
      "tags": {
        "amenity": "hospital",
        "name": "Doctor's diagnostics Centre",
        "name:en": "Doctor's diagnostics Centre"
      }
    },
    {
      "type": "node",
      "id": 4844867426,
      "lat": 13.0141702,
      "lon": 77.6362532,
      "tags": {
        "name": "IPhone Final desicion",
        "name:en": "IPhone Final desicion",
        "shop": "mobile_phone"
      }
    },
    {
      "type": "node",
      "id": 6915514224,
      "lat": 13.0148336,
      "lon": 77.6327095,
      "tags": {
        "name": "Expert Optics",
        "shop": "optician"
      }
    },
    {
      "type": "node",
      "id": 6944525274,
      "lat": 13.0138123,
      "lon": 77.6354731,
      "tags": {
        "addr:district": "Bengaluru Urban",
        "addr:full": "No. 31, Kammanahalli Main Road Near Venkateswara Ent",
        "addr:postcode": "560084",
        "addr:state": "Karnataka",
        "amenity": "hospital",
        "name": "R K Hospital, Bengaluru Urban",
        "source": "OpenGovernmentData"
      }
    },
    {
      "type": "node",
      "id": 6947526185,
      "lat": 13.0139391,
      "lon": 77.6388192,
      "tags": {
        "addr:housenumber": "2nd floor",
        "addr:street": "Nehru Road",
        "amenity": "bureau_de_change",
        "name": "Currency Exchange",
        "opening_hours": "Mo-Su 09:00-18:00"
      }
    },
    {
      "type": "node",
      "id": 6947678585,
      "lat": 13.0149675,
      "lon": 77.6354957,
      "tags": {
        "addr:district": "Bengaluru Urban",
        "addr:full": "No.1, 1 Cross Rananurthy Road",
        "addr:postcode": "560084",
        "addr:state": "Karnataka",
        "amenity": "hospital",
        "email": "info@zionhospitals.com",
        "name": "Zion Hospital And Research Centre Pvt.Ltd.",
        "operator:type": "private",
        "source": "OpenGovernmentData",
        "website": "http://zionhospitals.com/"
      }
    },
    {
      "type": "node",
      "id": 11500714575,
      "lat": 13.0149527,
      "lon": 77.6321133,
      "tags": {
        "addr:city": "Bangalore",
        "addr:district": "Bangalore",
        "addr:housenumber": "Doner Club",
        "addr:postcode": "560084",
        "addr:street": "Yadava Street, Nehru Road",
        "air_conditioning": "yes",
        "amenity": "restaurant",
        "cuisine": "turkish;mediterranean;arab",
        "delivery": "yes",
        "diet:healthy": "yes",
        "diet:non-vegetarian": "yes",
        "name": "Doner Club",
        "opening_hours": "Mo-Su 13:30-23:30",
        "website": "https://www.donerclub.in/"
      }
    },
    {
      "type": "node",
      "id": 12862846433,
      "lat": 13.016659,
      "lon": 77.629651,
      "tags": {
        "amenity": "restaurant",
        "cuisine": "burger",
        "delivery": "yes",
        "name": "Sanky's Burger House",
        "takeaway": "yes"
      }
    },
    {
      "type": "way",
      "id": 175068138,
      "center": {
        "lat": 13.0158334,
        "lon": 77.6310206
      },
      "tags": {
        "addr:postcode": "540045",
        "addr:street": "Hennur Main Rd, Saint Thomas Town, Kacharakana Halli",
        "amenity": "school",
        "name": "Jyothi High School",
        "name:kn": "ಜ್ಯೋತಿ ಪ್ರೌಡಶಾಲೆ"
      }
    },
    {
      "type": "way",
      "id": 197731598,
      "center": {
        "lat": 13.0121889,
        "lon": 77.6290254
      },
      "tags": {
        "leisure": "park",
        "wheelchair": "limited"
      }
    },
    {
      "type": "way",
      "id": 348631787,
      "center": {
        "lat": 13.01372,
        "lon": 77.635789
      },
      "tags": {
        "addr:city": "bangalore",
        "addr:district": "Bengaluru Urban",
        "addr:housenumber": "36",
        "addr:postcode": "560084",
        "addr:street": "Kammanahalli Main Road",
        "alt_name": "Mohan Stores",
        "amenity": "bank",
        "brand": "HDFC Bank",
        "brand:wikidata": "Q631047",
        "building": "yes",
        "name": "HDFC Bank",
        "short_name": "HDFC"
      }
    },
    {
      "type": "way",
      "id": 743353828,
      "center": {
        "lat": 13.0165401,
        "lon": 77.6364124
      },
      "tags": {
        "access": "customers",
        "amenity": "parking",
        "parking": "surface"
      }
    },
    {
      "type": "way",
      "id": 1363505233,
      "center": {
        "lat": 13.0156318,
        "lon": 77.6334279
      },
      "tags": {
        "leisure": "park"
      }
    },
    {
      "type": "way",
      "id": 1363505236,
      "center": {
        "lat": 13.0149014,
        "lon": 77.6290147
      },
      "tags": {
        "amenity": "place_of_worship",
        "building": "yes",
        "name": "St. Francis of Assisi Church",
        "religion": "christian"
      }
    },
    {
      "type": "way",
      "id": 1364670944,
      "center": {
        "lat": 13.0132839,
        "lon": 77.6356805
      },
      "tags": {
        "amenity": "fuel"
      }
    }
  ]
}