{
  "area_name": "Hulimavu",
  "osm_id": 19883357,
  "osm_type": "relation",
  "place_type": "administrative",
  "amenity_count": 105,
  "amenities": [
    {
      "type": "node",
      "id": 247966855,
      "lat": 12.8772119,
      "lon": 77.6025994,
      "tags": {
        "amenity": "school"
      }
    },
    {
      "type": "node",
      "id": 1918885763,
      "lat": 12.8770168,
      "lon": 77.599844,
      "tags": {
        "amenity": "place_of_worship",
        "name": "Cave Temple",
        "name:kn": "ಗುಹಾಂತರ ದೇವಸ್ಥಾನ",
        "religion": "hindu"
      }
    },
    {
      "type": "node",
      "id": 1918889488,
      "lat": 12.87667,
      "lon": 77.6000418,
      "tags": {
        "amenity": "police",
        "name": "Hulimavu Police Station",
        "name:kn": "ಹುಳಿಮಾವು ಆರಕ್ಷಕ ಠಾಣೆ"
      }
    },
    {
      "type": "node",
      "id": 2322673154,
      "lat": 12.8766254,
      "lon": 77.5958823,
      "tags": {
        "amenity": "fast_food",
        "brand": "Domino's",
        "brand:ks": "ڈومینوز",
        "brand:pa": "ਡੋਮੀਨੋਜ਼",
        "brand:ur": "ڈومینوز",
        "brand:wikidata": "Q839466",
        "brand:wikipedia": "en:Domino's Pizza",
        "cuisine": "pizza",
        "name": "Domino's",
        "name:ks": "ڈومینوز",
        "name:pa": "ਡੋਮੀਨੋਜ਼",
        "name:ur": "ڈومینوز",
        "phone": "+918068886888",
        "takeaway": "yes"
      }
    },
    {
      "type": "node",
      "id": 2322728637,
      "lat": 12.8761229,
      "lon": 77.5961005,
      "tags": {
        "amenity": "food_court",
        "name": "Aharam - The Food Court",
        "website": "http://royalmeenakshimall.com/"
      }
    },
    {
      "type": "node",
      "id": 2322728638,
      "lat": 12.8755826,
      "lon": 77.5952263,
      "tags": {
        "amenity": "cinema",
        "brand": "Cinepolis",
        "brand:wikidata": "Q5686673",
        "name": "Cinepolis",
        "website": "http://www.cinepolisindia.com/",
        "wheelchair": "limited"
      }
    },
    {
      "type": "node",
      "id": 2322728639,
      "lat": 12.8761976,
      "lon": 77.5954434,
      "tags": {
        "brand": "Cromā",
        "brand:wikidata": "Q5187683",
        "name": "Cromā",
        "shop": "electronics",
        "website": "http://www.cromaretail.com/"
      }
    },
    {
      "type": "node",
      "id": 2322728640,
      "lat": 12.876118,
      "lon": 77.5953397,
      "tags": {
        "name": "HyperCITY",
        "shop": "supermarket",
        "website": "http://www.hypercityindia.com/",
        "wheelchair": "no"
      }
    },
    {
      "type": "node",
      "id": 2322728641,
      "lat": 12.875838,
      "lon": 77.5952566,
      "tags": {
        "alt_name": "Kentucky Fried Chicken",
        "alt_name:en": "Kentucky Fried Chicken",
        "alt_name:hi": "केंटुकी फ्राइड चिकन",
        "alt_name:pa": "ਕੈਂਟੁਕੀ ਫ੍ਰਾਈਡ ਚਿਕਨ",
        "alt_name:pnb": "کینٹکی فرائیڈ چکن",
        "alt_name:ur": "کینٹکی فرائیڈ چکن",
        "amenity": "fast_food",
        "brand": "KFC",
        "brand:en": "KFC",
        "brand:hi": "केएफसी",
        "brand:pa": "ਕੇਐਫਸੀ",
        "brand:pnb": "کے ایف سی",
        "brand:ur": "کے ایف سی",
        "brand:wikidata": "Q524757",
        "brand:wikipedia": "en:KFC",
        "brand:wikipedia:pa": "ਕੇਐਫਸੀ",
        "brand:wikipedia:ur": "کینٹکی فرائیڈ چکن",
        "cuisine": "chicken",
        "name": "KFC",
        "name:en": "KFC",
        "name:hi": "केएफसी",
        "name:kn": "ಕೆಎಫ್‌ಸಿ",
        "name:pa": "ਕੇਐਫਸੀ",
        "name:pnb": "کے ایف سی",
        "name:ur": "کے ایف سی",
        "takeaway": "yes",
        "website": "http://www.kfc.co.in/"
      }
    },
    {
      "type": "node",
      "id": 2322728642,
      "lat": 12.8757152,
      "lon": 77.595244,
      "tags": {
        "amenity": "cafe",
        "cuisine": "coffee_shop",
        "name": "Kalmane Koffees",
        "name:kn": "ಕಲ್ಮನೆ ಕಾಫೀಸ್",
        "smoking": "no",
        "website": "http://kalmanekoffee.com/"
      }
    },
    {
      "type": "node",
      "id": 2322728643,
      "lat": 12.8759805,
      "lon": 77.5952792,
      "tags": {
        "amenity": "fast_food",
        "brand": "McDonald's",
        "brand:pa": "ਮੈਕਡੋਨਲਡ’ਜ਼",
        "brand:ur": "مکڈونلڈز",
        "brand:wikidata": "Q38076",
        "brand:wikipedia": "en:McDonald's",
        "brand:wikipedia:pa": "ਮੈਕਡੋਨਲਡ’ਜ਼",
        "brand:wikipedia:ur": "مکڈونلڈز",
        "cuisine": "burger",
        "name": "McDonald's",
        "name:kn": "ಮ್ಯಾಕ್‌ಡೊನಾಲ್ಡ್ಸ್",
        "name:pa": "ਮੈਕਡੋਨਲਡ’ਜ਼",
        "name:ur": "مکڈونلڈز",
        "phone": "+918066000666",
        "takeaway": "yes",
        "website": "https://www.mcdonaldsindia.com/"
      }
    },
    {
      "type": "node",
      "id": 2322728644,
      "lat": 12.8762432,
      "lon": 77.5957831,
      "tags": {
        "amenity": "restaurant",
        "cuisine": "indian",
        "name": "Oye Amritsar",
        "phone": "+918066490324"
      }
    },
    {
      "type": "node",
      "id": 2322728645,
      "lat": 12.8759927,
      "lon": 77.5960602,
      "tags": {
        "amenity": "restaurant",
        "cuisine": "indian",
        "name": "Rajdhani Thali",
        "name:kn": "ರಾಜಧಾನಿ ಥಾಲಿ",
        "website": "https://www.rajdhani.co.in/"
      }
    },
    {
      "type": "node",
      "id": 2322728647,
      "lat": 12.8762457,
      "lon": 77.5955916,
      "tags": {
        "amenity": "restaurant",
        "name": "TGIF",
        "operator": "international",
        "website": "https://tgifindia.com/"
      }
    },
    {
      "type": "node",
      "id": 2322728648,
      "lat": 12.876231,
      "lon": 77.5959821,
      "tags": {
        "amenity": "pub",
        "name": "The Pint Room"
      }
    },
    {
      "type": "node",
      "id": 2645199686,
      "lat": 12.8785368,
      "lon": 77.6038179,
      "tags": {
        "amenity": "place_of_worship",
        "religion": "hindu"
      }
    },
    {
      "type": "node",
      "id": 2939021445,
      "lat": 12.8776598,
      "lon": 77.5989566,
      "tags": {
        "addr:street": "8th Cross Road",
        "amenity": "theatre",
        "name": "BGS NPS Auditorium"
      }
    },
    {
      "type": "node",
      "id": 2939032222,
      "lat": 12.8779083,
      "lon": 77.6025132,
      "tags": {
        "amenity": "place_of_worship",
        "historic": "yes",
        "name": "Sri Rama Temple Hulimavu",
        "name:kn": "ಶ್ರೀ ರಾಮ ದೇವಸ್ಥಾನ ಹುಳಿಮಾವು",
        "note": "The Anjenya (Hanuman) idol is special. This is a very old temple, and the annual Chariot festival is a big event.",
        "religion": "hindu"
      }
    },
    {
      "type": "node",
      "id": 2939032225,
      "lat": 12.8766662,
      "lon": 77.5982619,
      "tags": {
        "leisure": "playground"
      }
    },
    {
      "type": "node",
      "id": 3702253640,
      "lat": 12.8741518,
      "lon": 77.5948911,
      "tags": {
        "amenity": "place_of_worship",
        "name": "Islamia Institue Masjid",
        "religion": "muslim"
      }
    },
    {
      "type": "node",
      "id": 4440987271,
      "lat": 12.8750879,
      "lon": 77.5950098,
      "tags": {
        "amenity": "hospital",
        "description": "Eye Hospital",
        "healthcare": "hospital",
        "name": "Narayana Nethralaya",
        "name:kn": "ನಾರಾಯಣ ನೇತ್ರಾಲಯ"
      }
    },
    {
      "type": "node",
      "id": 4445406542,
      "lat": 12.875504,
      "lon": 77.5953765,
      "tags": {
        "addr:city": "Bangalore",
        "addr:housenumber": "Balmuri Main Road, Hulimavu",
        "addr:postcode": "560076",
        "addr:street": "Bannerghatta Road",
        "brand": "Nike",
        "brand:wikidata": "Q483915",
        "level": "0",
        "name": "Nike",
        "name:kn": "ನೈಕ್",
        "opening_hours": "11:00-21:30",
        "phone": "+918067080241",
        "shop": "clothes",
        "website": "https://www.nike.ssiplgroup.com"
      }
    },
    {
      "type": "node",
      "id": 4445423271,
      "lat": 12.8756086,
      "lon": 77.5953765,
      "tags": {
        "addr:city": "Bangalore",
        "addr:housenumber": "Balmuri Main Road, Hulimavu",
        "addr:postcode": "560076",
        "addr:street": "Bannerghatta Road",
        "level": "1",
        "name": "wild craft",
        "opening_hours": "11:00-21:30",
        "phone": "080 67080255",
        "shop": "bag",
        "website": "https://www.wildcraft.in/"
      }
    },
    {
      "type": "node",
      "id": 4445435686,
      "lat": 12.8757393,
      "lon": 77.5953738,
      "tags": {
        "addr:city": "Bangalore",
        "addr:housenumber": "Balmuri Main Road, Hulimavu",
        "addr:postcode": "560076",
        "addr:street": "Bannerghatta Road",
        "amenity": "cafe",
        "brand": "Cafe Coffee Day",
        "brand:wikidata": "Q5017235",
        "cuisine": "coffee_shop",
        "internet_access": "wlan",
        "level": "0",
        "name": "Cafe Coffee Day",
        "name:kn": "ಕಫೆ ಕಾಫಿ ಡೇ",
        "opening_hours": "11:00-21:30",
        "phone": "9343003325",
        "smoking": "no",
        "takeaway": "yes",
        "website": "https://www.cafecoffeeday.com/"
      }
    },
    {
      "type": "node",
      "id": 4445473461,
      "lat": 12.877055,
      "lon": 77.5953965,
      "tags": {
        "addr:city": "Bangalore",
        "addr:housenumber": "Balmuri Main Road, Hulimavu",
        "addr:postcode": "560076",
        "addr:street": "Bannerghatta Road",
        "amenity": "ice_cream",
        "brand": "Baskin-Robbins",
        "brand:wikidata": "Q584601",
        "cuisine": "ice_cream",
        "delivery": "yes",
        "description": "icecream parlour",
        "level": "0",
        "name": "Baskin-Robbins",
        "name:kn": "ಬಸ್ಕಿನ್ ರಾಬಿನ್ಸ್",
        "opening_hours": "11:00-21:30",
        "phone": "+918861323147",
        "shop": "bakery",
        "smoking": "no",
        "takeaway": "yes",
        "website": "https://www.baskinrobbinsindia.com/"
      }
    },
    {
      "type": "node",
      "id": 4445479312,
      "lat": 12.8759903,
      "lon": 77.5954284,
      "tags": {
        "addr:city": "Bangalore",
        "addr:housenumber": "Balmuri Main Road, Hulimavu",
        "addr:postcode": "560076",
        "addr:street": "Bannerghatta Road",
        "brand": "Metro",
        "brand:wikidata": "Q16938284",
        "level": "1",
        "name": "Metro",
        "name:kn": "ಮೆಟ್ರೋ",
        "opening_hours": "11:00-21:30",
        "phone": "+918025125120",
        "shop": "shoes",
        "website": "https://www.metroshoes.net/"
      }
    },
    {
      "type": "node",
      "id": 4445846940,
      "lat": 12.8760834,
      "lon": 77.5954874,
      "tags": {
        "addr:city": "Bangalore",
        "addr:housenumber": "Balmuri Main Road, Hulimavu",
        "addr:postcode": "560076",
        "addr:street": "Bannerghatta Road",
        "brand": "Woodland",
        "brand:wikidata": "Q123068491",
        "level": "1",
        "name": "Woodland",
        "opening_hours": "10:00-21:30",
        "phone": "08067080220",
        "shop": "shoes",
        "website": "https://www.woodlandworldwide.com/"
      }
    },
    {
      "type": "node",
      "id": 4445853881,
      "lat": 12.8761671,
      "lon": 77.5955652,
      "tags": {
        "addr:city": "Bangalore",
        "addr:housenumber": "Balmuri Main Road, Hulimavu,",
        "addr:postcode": "560076",
        "addr:street": "Bannerghatta Road",
        "brand": "Samsung",
        "brand:wikidata": "Q20718",
        "level": "0",
        "name": "Samsung",
        "name:kn": "ಸ್ಯಾಮ್‌ಸಂಗ್",
        "opening_hours": "10:00-21:30",
        "phone": "+918067080229",
        "shop": "electronics",
        "website": "https://www.samsung.com/"
      }
    },
    {
      "type": "node",
      "id": 4445862197,
      "lat": 12.8762142,
      "lon": 77.5956644,
      "tags": {
        "addr:city": "Bangalore",
        "addr:housenumber": "Balmuri Main Road, Hulimavu",
        "addr:postcode": "560076",
        "addr:street": "Bannerghatta Road",
        "level": "2",
        "name": "Sangeetha",
        "name:kn": "ಸಂಗೀತ",
        "opening_hours": "10:00-21:30",
        "phone": "+917847888283",
        "shop": "electronics",
        "website": "https://www.sangeethamobiles.com/"
      }
    },
    {
      "type": "node",
      "id": 4445869470,
      "lat": 12.8762037,
      "lon": 77.5957797,
      "tags": {
        "addr:city": "Bangalore",
        "addr:housenumber": "Balmuri Main Road, Hulimavu",
        "addr:postcode": "560076",
        "addr:street": "Bannerghatta Road",
        "name": "Allen Solly",
        "name:kn": "ಅಲೆನ್ ಸೊಲಿ",
        "opening_hours": "10:00-21:30",
        "phone": "+918067080182",
        "shop": "clothes",
        "website": "https://www.allensolly.com/"
      }
    },
    {
      "type": "node",
      "id": 4445878781,
      "lat": 12.8761932,
      "lon": 77.595879,
      "tags": {
        "addr:city": "Bangalore",
        "addr:housenumber": "Balmuri Main Road, Hulimavu",
        "addr:postcode": "560076",
        "addr:street": "Bannerghatta Road",
        "level": "2",
        "name": "Fab India",
        "opening_hours": "10:00-21:30",
        "phone": "+918025125012",
        "shop": "clothes",
        "website": "https://www.fabindia.com/"
      }
    },
    {
      "type": "node",
      "id": 4447351331,
      "lat": 12.8762429,
      "lon": 77.5953023,
      "tags": {
        "addr:city": "Bangalore",
        "addr:housenumber": "Balmuri Main Road, Hulimavu",
        "addr:postcode": "560076",
        "addr:street": "Bannerghatta Road",
        "level": "1",
        "name": "hanes",
        "opening_hours": "11:00-21:30",
        "phone": "080670 80230",
        "shop": "clothes",
        "website": "https://www.hanes.com/"
      }
    },
    {
      "type": "node",
      "id": 4447372958,
      "lat": 12.8761932,
      "lon": 77.5959662,
      "tags": {
        "addr:city": "Bangalore",
        "addr:housenumber": "Balmuri Main Road, Hulimavu",
        "addr:postcode": "560076",
        "addr:street": "Bannerghatta Road",
        "name": "jockey",
        "opening_hours": "10:00-21:30",
        "phone": "8067080225",
        "shop": "clothes",
        "website": "https://www.jockeyindia.com/"
      }
    },
    {
      "type": "node",
      "id": 4447377449,
      "lat": 12.8762903,
      "lon": 77.5960641,
      "tags": {
        "addr:city": "Bangalore",
        "addr:housenumber": "Balmuri Main Road, Hulimavu",
        "addr:postcode": "560076",
        "addr:street": "Bannerghatta Road",
        "level": "1",
        "name": "Lee",
        "opening_hours": "10:00-21:30",
        "phone": "080 2512 5016",
        "shop": "clothes",
        "website": "https://lee.in/"
      }
    },
    {
      "type": "node",
      "id": 4447380144,
      "lat": 12.8761282,
      "lon": 77.595946,
      "tags": {
        "addr:city": "Bangalore",
        "addr:housenumber": "Balmuri Main Road, Hulimavu",
        "addr:postcode": "560076",
        "addr:street": "Bannerghatta Road",
        "brand": "Levi's",
        "brand:wikidata": "Q127962",
        "clothes": "denim;men;women",
        "name": "Levi's",
        "name:kn": "ಲೆವಿಸ್",
        "opening_hours": "10:00-21:30",
        "phone": "9916592936",
        "shop": "clothes",
        "website": "https://www.levi.in/"
      }
    },
    {
      "type": "node",
      "id": 4447381891,
      "lat": 12.8761125,
      "lon": 77.5960185,
      "tags": {
        "addr:city": "Bangalore",
        "addr:housenumber": "Balmuri Main Road, Hulimavu",
        "addr:postcode": "560076",
        "addr:street": "Bannerghatta Road",
        "level": "2",
        "name": "liberty silks",
        "opening_hours": "10:00-21:30",
        "phone": "8067080286",
        "shop": "clothes"
      }
    },
    {
      "type": "node",
      "id": 4447384389,
      "lat": 12.8760994,
      "lon": 77.5956161,
      "tags": {
        "addr:city": "Bangalore",
        "addr:housenumber": "Balmuri Main Road, Hulimavu,",
        "addr:postcode": "560076",
        "addr:street": "Bannerghatta Road",
        "level": "0",
        "name": "Louis Phillipe",
        "opening_hours": "10:00-21:30",
        "phone": "08067080183",
        "shop": "clothes",
        "website": "https://www.louisphilippe.com"
      }
    },
    {
      "type": "node",
      "id": 4447395895,
      "lat": 12.8761282,
      "lon": 77.5956939,
      "tags": {
        "addr:city": "Bangalore",
        "addr:housenumber": "Balmuri Main Road, Hulimavu,",
        "addr:postcode": "560076",
        "addr:street": "Bannerghatta Road",
        "name": "Mother Earth",
        "opening_hours": "10:00-21:30",
        "phone": "080 6539 3999",
        "shop": "clothes",
        "website": "www.motherearth.co.in"
      }
    },
    {
      "type": "node",
      "id": 4447395896,
      "lat": 12.8760524,
      "lon": 77.5955732,
      "tags": {
        "addr:city": "Bangalore",
        "addr:housenumber": "Balmuri Main Road, Hulimavu,",
        "addr:postcode": "560076",
        "addr:street": "Bannerghatta Road",
        "level": "0",
        "name": "Mother Earth",
        "opening_hours": "10:00-21:30",
        "phone": "080 6539 3999",
        "shop": "clothes",
        "website": "www.motherearth.co.in"
      }
    },
    {
      "type": "node",
      "id": 4447397235,
      "lat": 12.8760001,
      "lon": 77.5955142,
      "tags": {
        "addr:city": "Bangalore",
        "addr:housenumber": "Balmuri Main Road, Hulimavu",
        "addr:postcode": "560076",
        "addr:street": "Bannerghatta Road",
        "level": "1",
        "name": "Peter England",
        "name:kn": "ಪೀಟರ್ ಇಂಗ್ಲೆಂಡ್",
        "opening_hours": "10:00-21:30",
        "phone": "080-67080161",
        "shop": "clothes",
        "website": "https://www.peterengland.com"
      }
    },
    {
      "type": "node",
      "id": 4447398762,
      "lat": 12.8761308,
      "lon": 77.5958361,
      "tags": {
        "addr:city": "Bangalore",
        "addr:housenumber": "Balmuri Main Road, Hulimavu",
        "addr:postcode": "560076",
        "addr:street": "Bannerghatta Road",
        "level": "1",
        "name": "UCB",
        "opening_hours": "10:00-21:30",
        "phone": "9986011137",
        "shop": "clothes",
        "website": "https://world.benetton.com"
      }
    },
    {
      "type": "node",
      "id": 4447402860,
      "lat": 12.8761073,
      "lon": 77.5961821,
      "tags": {
        "addr:city": "Bangalore",
        "addr:housenumber": "Balmuri Main Road, Hulimavu",
        "addr:postcode": "560076",
        "addr:street": "Bannerghatta Road",
        "level": "2",
        "name": "show off",
        "opening_hours": "10:00-21:30",
        "phone": "8067080222",
        "shop": "clothes"
      }
    },
    {
      "type": "node",
      "id": 4447422127,
      "lat": 12.8760888,
      "lon": 77.5961161,
      "tags": {
        "addr:city": "Bangalore",
        "addr:housenumber": "Balmuri Main Road, Hulimavu",
        "addr:postcode": "560076",
        "addr:street": "Bannerghatta Road",
        "name": "Van Huesen",
        "opening_hours": "10:00-21:30",
        "phone": "8067080181",
        "shop": "clothes",
        "website": "https://www.vanheusenindia.com/"
      }
    },
    {
      "type": "node",
      "id": 4447439589,
      "lat": 12.8759384,
      "lon": 77.5960999,
      "tags": {
        "addr:city": "Bangalore",
        "addr:housenumber": "Balmuri Main Road, Hulimavu,",
        "addr:postcode": "560076",
        "addr:street": "Bannerghatta Road",
        "level": "2",
        "name": "w",
        "opening_hours": "10:00-21:30",
        "phone": "8067080227",
        "shop": "clothes",
        "website": "https://www.wforwoman.com/"
      }
    },
    {
      "type": "node",
      "id": 4447514124,
      "lat": 12.8759894,
      "lon": 77.5955735,
      "tags": {
        "addr:city": "Bangalore",
        "addr:housenumber": "Balmuri Main Road, Hulimavu",
        "addr:postcode": "560076",
        "addr:street": "Bannerghatta Road",
        "level": "1",
        "name": "Wrangler",
        "name:kn": "ರಾಂಗ್ಲರ್",
        "opening_hours": "10:00-21:30",
        "phone": "080670 80257",
        "shop": "clothes",
        "website": "https://www.wrangler.com/"
      }
    },
    {
      "type": "node",
      "id": 4447519985,
      "lat": 12.8759398,
      "lon": 77.5955547,
      "tags": {
        "addr:city": "Bangalore",
        "addr:housenumber": "Balmuri Main Road, Hulimavu",
        "addr:postcode": "560076",
        "addr:street": "Bannerghatta Road",
        "brand": "U.S. Polo Assn.",
        "brand:wikidata": "Q7863282",
        "level": "1",
        "name": "U.S. Polo Assn.",
        "opening_hours": "10:00-21:30",
        "phone": "8067080121",
        "shop": "clothes",
        "website": "https://www.uspolo.org"
      }
    },
    {
      "type": "node",
      "id": 4447574885,
      "lat": 12.8760612,
      "lon": 77.5958575,
      "tags": {
        "addr:city": "Bangalore",
        "addr:housenumber": "Balmuri Main Road, Hulimavu",
        "addr:postcode": "560076",
        "addr:street": "Bannerghatta Road",
        "level": "1",
        "name": "VIP lounge",
        "opening_hours": "10:00-21:30",
        "phone": "8067080264",
        "shop": "bag",
        "website": "https://www.vipbags.com/"
      }
    },
    {
      "type": "node",
      "id": 4447581393,
      "lat": 12.8760769,
      "lon": 77.5959487,
      "tags": {
        "addr:city": "Bangalore",
        "addr:housenumber": "Balmuri Main Road, Hulimavu",
        "addr:postcode": "560076",
        "addr:street": "Bannerghatta Road",
        "brand": "Biba",
        "brand:wikidata": "Q4902942",
        "level": "2",
        "name": "Biba",
        "opening_hours": "10:00-21:30",
        "phone": "080670 80020",
        "shop": "clothes",
        "website": "https://www.biba.in/"
      }
    },
    {
      "type": "node",
      "id": 4447586738,
      "lat": 12.8761109,
      "lon": 77.5958548,
      "tags": {
        "addr:city": "Bangalore",
        "addr:housenumber": "Balmuri Main Road, Hulimavu",
        "addr:postcode": "560076",
        "addr:street": "Bannerghatta Road",
        "level": "0",
        "name": "shopper stop",
        "opening_hours": "10:00-21:30",
        "phone": "8046658301",
        "shop": "clothes",
        "website": "https://www.shoppersstop.com"
      }
    },
    {
      "type": "node",
      "id": 4448660601,
      "lat": 12.8755356,
      "lon": 77.5954471,
      "tags": {
        "addr:city": "Bangalore",
        "addr:housenumber": "Balmuri Main Road",
        "addr:postcode": "560076",
        "addr:street": "Bannerghatta Road",
        "level": "1",
        "name": "eye sense",
        "opening_hours": "10:00-21:30",
        "phone": "098445 01111",
        "shop": "optician",
        "website": "https://www.eyesense.in/"
      }
    },
    {
      "type": "node",
      "id": 4448660620,
      "lat": 12.8755644,
      "lon": 77.5956483,
      "tags": {
        "addr:city": "Bangalore",
        "addr:housenumber": "Balmuri Main Road",
        "addr:postcode": "560076",
        "addr:street": "Bannerghatta Road",
        "level": "3",
        "name": "travel vacation",
        "opening_hours": "10:00-21:30",
        "phone": "080670 80100",
        "shop": "travel_agency"
      }
    },
    {
      "type": "node",
      "id": 4448661878,
      "lat": 12.8756821,
      "lon": 77.5954793,
      "tags": {
        "addr:city": "Bangalore",
        "addr:housenumber": "Balmuri Main Road",
        "addr:postcode": "560076",
        "addr:street": "Bannerghatta Road",
        "level": "1",
        "name": "Swagger",
        "opening_hours": "10:00-21:30",
        "phone": "8025125099",
        "shop": "clothes"
      }
    },
    {
      "type": "node",
      "id": 4448670452,
      "lat": 12.8756925,
      "lon": 77.5958039,
      "tags": {
        "addr:city": "Bangalore",
        "addr:housenumber": "Balmuri Main Road",
        "addr:postcode": "560076",
        "addr:street": "Bannerghatta Road",
        "brand": "Max",
        "brand:wikidata": "Q24939079",
        "level": "1",
        "name": "Max",
        "opening_hours": "10:00-21:30",
        "phone": "8067080000",
        "shop": "clothes",
        "website": "http://www.maxfashionindia.com/"
      }
    },
    {
      "type": "node",
      "id": 4448671062,
      "lat": 12.8757945,
      "lon": 77.595879,
      "tags": {
        "addr:city": "Bangalore",
        "addr:housenumber": "Balmuri Main Road",
        "addr:postcode": "560076",
        "addr:street": "Bannerghatta Road",
        "brand": "Reliance Trends",
        "level": "1",
        "name": "Reliance trends",
        "opening_hours": "10:00-21:30",
        "phone": "8067080235",
        "shop": "clothes",
        "website": "https://www.reliancetrends.com/"
      }
    },
    {
      "type": "node",
      "id": 4448671579,
      "lat": 12.8758886,
      "lon": 77.5959889,
      "tags": {
        "addr:city": "Bangalore",
        "addr:housenumber": "Balmuri Main Road",
        "addr:postcode": "560076",
        "addr:street": "Bannerghatta Road",
        "level": "2",
        "name": "affinity salon",
        "opening_hours": "10:00-21:30",
        "phone": "8067080199",
        "shop": "beauty",
        "website": "https://affinitysalon.com/"
      }
    },
    {
      "type": "node",
      "id": 4448672308,
      "lat": 12.8759645,
      "lon": 77.5957985,
      "tags": {
        "addr:city": "Bangalore",
        "addr:housenumber": "Balmuri Main Road",
        "addr:postcode": "560076",
        "addr:street": "Bannerghatta Road",
        "level": "1",
        "name": "Body Shop",
        "opening_hours": "10:00-21:30",
        "phone": "8067080261",
        "shop": "beauty",
        "website": "https://www.thebodyshop.in/"
      }
    },
    {
      "type": "node",
      "id": 4448673212,
      "lat": 12.8757997,
      "lon": 77.595769,
      "tags": {
        "addr:city": "Bangalore",
        "addr:housenumber": "Balmuri Main Road,",
        "addr:postcode": "560076",
        "addr:street": "Bannerghatta Road",
        "level": "2",
        "name": "Health And Glow",
        "opening_hours": "10:00-21:30",
        "phone": "080670 80100",
        "shop": "cosmetics",
        "website": "www.healthandglow.in"
      }
    },
    {
      "type": "node",
      "id": 4448675649,
      "lat": 12.8757788,
      "lon": 77.5956322,
      "tags": {
        "addr:city": "Bangalore",
        "addr:housenumber": "Balmuri Main Road",
        "addr:postcode": "560076",
        "addr:street": "Bannerghatta Road",
        "level": "0",
        "name": "new U",
        "opening_hours": "10:00-21:30",
        "phone": "O8067080100",
        "shop": "cosmetics",
        "website": "https://www.newu.in/"
      }
    },
    {
      "type": "node",
      "id": 4448676192,
      "lat": 12.8757108,
      "lon": 77.5956993,
      "tags": {
        "addr:city": "Bangalore",
        "addr:housenumber": "Balmuri Main Road",
        "addr:postcode": "560076",
        "addr:street": "Bannerghatta Road",
        "level": "2",
        "name": "home stop",
        "opening_hours": "10:00-21:30",
        "phone": "0804340 1500",
        "shop": "clothes",
        "website": "https://www.shoppersstop.com/"
      }
    },
    {
      "type": "node",
      "id": 4487971422,
      "lat": 12.8758755,
      "lon": 77.5958084,
      "tags": {
        "addr:city": "Bangalore",
        "addr:postcode": "560076",
        "addr:street": "Bannerghatta Road",
        "name": "Hypercity Retail India Pvt Ltd",
        "phone": "18002097172",
        "shop": "supermarket"
      }
    },
    {
      "type": "node",
      "id": 4488543982,
      "lat": 12.8766502,
      "lon": 77.5957349,
      "tags": {
        "addr:city": "Bangalore",
        "addr:housenumber": "Pai Layout, Hulimavu,",
        "addr:postcode": "560076",
        "addr:street": "Hulimavu",
        "leisure": "sports_centre",
        "name": "Pain & Gain Fitness",
        "opening_hours": "5:30-22:00",
        "phone": "918049652413",
        "sport": "gymnastics"
      }
    },
    {
      "type": "node",
      "id": 4489142043,
      "lat": 12.878889,
      "lon": 77.5957702,
      "tags": {
        "addr:city": "Bangalore",
        "addr:housenumber": "740",
        "addr:postcode": "560076",
        "addr:street": "Bannerghatta Road",
        "name": "Foodworld",
        "phone": "(91)-80-39880707",
        "shop": "supermarket"
      }
    },
    {
      "type": "node",
      "id": 4702606094,
      "lat": 12.8763018,
      "lon": 77.6030612,
      "tags": {
        "amenity": "school",
        "name": "Government School",
        "name:en": "Govt. School",
        "name:kn": "ಸರ್ಕಾರಿ ಶಾಲೆ"
      }
    },
    {
      "type": "node",
      "id": 4702679394,
      "lat": 12.8801826,
      "lon": 77.6021197,
      "tags": {
        "name": "Naveen Electronic Shop",
        "name:en": "Naveen Electronic Shop",
        "shop": "electronics"
      }
    },
    {
      "type": "node",
      "id": 4702679790,
      "lat": 12.8807806,
      "lon": 77.6012639,
      "tags": {
        "name": "E K Mart",
        "name:en": "E K Mart",
        "shop": "department_store"
      }
    },
    {
      "type": "node",
      "id": 4702704789,
      "lat": 12.8775041,
      "lon": 77.6031664,
      "tags": {
        "amenity": "restaurant",
        "name": "S L V Bhavan",
        "name:en": "S L V Bhavan"
      }
    },
    {
      "type": "node",
      "id": 4702705489,
      "lat": 12.8815342,
      "lon": 77.596892,
      "tags": {
        "name": "Bike Point",
        "name:en": "Bike Point",
        "shop": "tyres"
      }
    },
    {
      "type": "node",
      "id": 4702706589,
      "lat": 12.8805619,
      "lon": 77.6020723,
      "tags": {
        "amenity": "atm",
        "operator": "Yes Bank ATM"
      }
    },
    {
      "type": "node",
      "id": 4714399092,
      "lat": 12.8770584,
      "lon": 77.6034138,
      "tags": {
        "amenity": "courthouse",
        "name": "Santa Monica",
        "name:en": "Santa Monica"
      }
    },
    {
      "type": "node",
      "id": 4714399093,
      "lat": 12.8782079,
      "lon": 77.6026104,
      "tags": {
        "amenity": "school",
        "name": "Government School",
        "name:en": "Government School",
        "name:kn": "ಸರ್ಕಾರಿ ಶಾಲೆ"
      }
    },
    {
      "type": "node",
      "id": 4714421893,
      "lat": 12.8776273,
      "lon": 77.6023317,
      "tags": {
        "amenity": "atm",
        "brand": "State Bank of India",
        "brand:wikidata": "Q1340361",
        "name": "State Bank of India",
        "operator": "State Bank of India",
        "operator:wikidata": "Q1340361",
        "short_name": "SBI"
      }
    },
    {
      "type": "node",
      "id": 4714421894,
      "lat": 12.8763164,
      "lon": 77.5998218,
      "tags": {
        "name": "Pet Shop",
        "name:en": "Pet Shop",
        "shop": "pet"
      }
    },
    {
      "type": "node",
      "id": 4714421895,
      "lat": 12.8770848,
      "lon": 77.6020997,
      "tags": {
        "amenity": "atm",
        "operator": "Axis ATM"
      }
    },
    {
      "type": "node",
      "id": 4714435690,
      "lat": 12.8775594,
      "lon": 77.6027868,
      "tags": {
        "shop": "butcher"
      }
    },
    {
      "type": "node",
      "id": 4714437394,
      "lat": 12.8771444,
      "lon": 77.6021148,
      "tags": {
        "amenity": "school",
        "name": "Lords School",
        "name:en": "Lords School"
      }
    },
    {
      "type": "node",
      "id": 4714446389,
      "lat": 12.8784346,
      "lon": 77.6035728,
      "tags": {
        "amenity": "bank",
        "name": "Central Bank",
        "name:en": "Central Bank"
      }
    },
    {
      "type": "node",
      "id": 4740836823,
      "lat": 12.8763595,
      "lon": 77.6026806,
      "tags": {
        "addr:postcode": "560076",
        "amenity": "place_of_worship",
        "name": "Sai Baba Temple",
        "name:en": "Sai Baba Temple",
        "name:kn": "ಸಾಯಿಬಾಬಾ ದೇವಸ್ಥಾನ"
      }
    },
    {
      "type": "node",
      "id": 4792258335,
      "lat": 12.8797542,
      "lon": 77.6039308,
      "tags": {
        "amenity": "bank",
        "name": "Central Bank & ATM",
        "name:en": "Central Bank & ATM"
      }
    },
    {
      "type": "node",
      "id": 5730417438,
      "lat": 12.8814615,
      "lon": 77.5968614,
      "tags": {
        "addr:city": "Bangalore",
        "addr:housenumber": "1st Floor",
        "addr:street": "Hulimavu Main Road",
        "level": "1",
        "name": "Prestige Smart Kitchen",
        "opening_hours": "Mo-Su 10:00-21:00",
        "shop": "appliance",
        "source": "local knowledge",
        "website": "https://www.prestigesmartkitchen.com/"
      }
    },
    {
      "type": "node",
      "id": 6348719364,
      "lat": 12.8722269,
      "lon": 77.5995362,
      "tags": {
        "addr:place": "Venugopal Nagar",
        "amenity": "school",
        "isced:level": "2",
        "name": "GHPS Venugopal Nagar",
        "name:kn": "ಸರ್ಕಾರಿ ಹಿರಿಯ ಪ್ರಾಥಮಿಕ ಶಾಲೆ ವೇಣುಗೋಪಾಲ್ ನಗರ",
        "operator": "Department of Education",
        "school": "primary"
      }
    },
    {
      "type": "node",
      "id": 6349589920,
      "lat": 12.8763234,
      "lon": 77.6028969,
      "tags": {
        "amenity": "school",
        "isced:level": "2",
        "name": "GMPS Hulimavu",
        "name:kn": "ಸರ್ಕಾರಿ ಮಾದರಿ ಪ್ರಾಥಮಿಕ ಶಾಲೆ ಹುಳಿಮಾವು",
        "operator": "Department of Education",
        "school": "primary"
      }
    },
    {
      "type": "node",
      "id": 7714597069,
      "lat": 12.8763589,
      "lon": 77.5998058,
      "tags": {
        "addr:city": "Bengaluru",
        "addr:housenumber": "2A2",
        "addr:postcode": "560076",
        "addr:street": "Muthurayyaswamy layout, Bannerghatta road",
        "name": "Tattoos and Tales - Tattoo and piercing studio",
        "opening_hours": "Mo-Su 10:00-22:00",
        "operator": "Tattoos and Tales",
        "payment:cash": "yes",
        "payment:credit_cards": "yes",
        "payment:debit_cards": "yes",
        "payment:electronic_purses": "yes",
        "shop": "tattoo",
        "studio": "art"
      }
    },
    {
      "type": "node",
      "id": 11302031532,
      "lat": 12.8767868,
      "lon": 77.5953714,
      "tags": {
        "amenity": "bar",
        "name": "Barrel House"
      }
    },
    {
      "type": "way",
      "id": 290364531,
      "center": {
        "lat": 12.877533,
        "lon": 77.5997011
      },
      "tags": {
        "alt_name": "BGS NPS",
        "amenity": "school",
        "name": "BGS National Public School"
      }
    },
    {
      "type": "way",
      "id": 347137872,
      "center": {
        "lat": 12.8781892,
        "lon": 77.5958953
      },
      "tags": {
        "amenity": "place_of_worship",
        "building": "church",
        "religion": "christian"
      }
    },
    {
      "type": "way",
      "id": 349536480,
      "center": {
        "lat": 12.8794867,
        "lon": 77.5966355
      },
      "tags": {
        "building": "yes",
        "name": "Advaith Hyundai Service Center Hulimavu",
        "name:kn": "ಅದ್ವೈತ ಹ್ಯುಂಡಾಯ್",
        "opening_hours": "Mo-Su 09:00-18:00",
        "shop": "car_repair"
      }
    },
    {
      "type": "way",
      "id": 352209489,
      "center": {
        "lat": 12.8768193,
        "lon": 77.6056437
      },
      "tags": {
        "addr:city": "bangalore",
        "addr:postcode": "560076",
        "addr:street": "4th Cross Road",
        "leisure": "swimming_pool",
        "location": "outdoor",
        "name": "SanMok Poolscape",
        "opening_hours": "Mo-Fr 06:00-21:00; Sa-Su 07:00-21:00"
      }
    },
    {
      "type": "way",
      "id": 668612930,
      "center": {
        "lat": 12.8758758,
        "lon": 77.5957621
      },
      "tags": {
        "building": "yes",
        "name": "Royal Meenakshi Mall",
        "name:en": "Royal Meenakshi Mall",
        "shop": "mall",
        "wheelchair": "yes"
      }
    },
    {
      "type": "way",
      "id": 668612952,
      "center": {
        "lat": 12.8766721,
        "lon": 77.6000885
      },
      "tags": {
        "amenity": "police",
        "building": "yes"
      }
    },
    {
      "type": "way",
      "id": 668612959,
      "center": {
        "lat": 12.8728096,
        "lon": 77.5975747
      },
      "tags": {
        "amenity": "school",
        "name": "SOS Children's Village"
      }
    },
    {
      "type": "way",
      "id": 1074088675,
      "center": {
        "lat": 12.8778683,
        "lon": 77.596113
      },
      "tags": {
        "amenity": "college",
        "name": "Christ University Bannerghatta Road",
        "name:kn": "ಕ್ರಿಸ್ತ ವಿಶ್ವವಿದ್ಯಾಲಯ"
      }
    },
    {
      "type": "way",
      "id": 1134831508,
      "center": {
        "lat": 12.8723517,
        "lon": 77.5988148
      },
      "tags": {
        "amenity": "fire_station",
        "name": "Hulimavu Fire Station",
        "name:kn": "ಹುಳಿಮಾವು ಅಗ್ನಿಶಾಮಕ ಠಾಣೆ"
      }
    },
    {
      "type": "way",
      "id": 1199401120,
      "center": {
        "lat": 12.8736599,
        "lon": 77.5989796
      },
      "tags": {
        "amenity": "college"
      }
    },
    {
      "type": "way",
      "id": 1199401153,
      "center": {
        "lat": 12.8745052,
        "lon": 77.5966313
      },
      "tags": {
        "amenity": "college",
        "landuse": "education",
        "name": "Islamia Institute of Technology"
      }
    },
    {
      "type": "way",
      "id": 1199401156,
      "center": {
        "lat": 12.8748756,
        "lon": 77.5972704
      },
      "tags": {
        "leisure": "pitch",
        "sport": "cricket"
      }
    },
    {
      "type": "way",
      "id": 1199401157,
      "center": {
        "lat": 12.8756351,
        "lon": 77.5977392
      },
      "tags": {
        "leisure": "pitch",
        "sport": "tennis"
      }
    },
    {
      "type": "way",
      "id": 1289420647,
      "center": {
        "lat": 12.8769434,
        "lon": 77.6053151
      },
      "tags": {
        "amenity": "fuel",
        "brand": "Indian Oil",
        "brand:wikidata": "Q1289348",
        "fuel:diesel": "yes",
        "fuel:petrol": "yes",
        "name": "Indian Oil",
        "opening_hours": "24/7",
        "self_service": "no"
      }
    },
    {
      "type": "way",
      "id": 1289421404,
      "center": {
        "lat": 12.877281,
        "lon": 77.6035418
      },
      "tags": {
        "addr:city": "bangalore",
        "addr:housenumber": "5&6",
        "addr:postcode": "560076",
        "addr:street": "Begur-Hulimav Road",
        "indoor": "yes",
        "leisure": "pitch",
        "name": "AspirePro Badminton Academy",
        "sport": "badminton",
        "website": "https://goaspire.in/"
      }
    },
    {
      "type": "way",
      "id": 1326186252,
      "center": {
        "lat": 12.8758209,
        "lon": 77.5974954
      },
      "tags": {
        "garden:type": "landscaping",
        "leisure": "garden"
      }
    },
    {
      "type": "way",
      "id": 1326186253,
      "center": {
        "lat": 12.8759226,
        "lon": 77.5973223
      },
      "tags": {
        "access": "private",
        "amenity": "parking",
        "parking": "street_side"
      }
    },
    {
      "type": "way",
      "id": 1356597050,
      "center": {
        "lat": 12.8721491,
        "lon": 77.6017182
      },
      "tags": {
        "amenity": "place_of_worship",
        "name": "Saadh Sangat Gurudwara",
        "religion": "sikh"
      }
    },
    {
      "type": "way",
      "id": 1391367672,
      "center": {
        "lat": 12.8782038,
        "lon": 77.5958382
      },
      "tags": {
        "amenity": "place_of_worship",
        "name": "Santhome Church",
        "religion": "christian"
      }
    },
    {
      "type": "way",
      "id": 1428207624,
      "center": {
        "lat": 12.8769394,
        "lon": 77.6020494
      },
      "tags": {
        "amenity": "place_of_worship",
        "landuse": "religious",
        "name": "Temple",
        "religion": "hindu"
      }
    },
    {
      "type": "way",
      "id": 1428207628,
      "center": {
        "lat": 12.8777002,
        "lon": 77.5985317
      },
      "tags": {
        "leisure": "pitch"
      }
    },
    {
      "type": "way",
      "id": 1428269080,
      "center": {
        "lat": 12.8807629,
        "lon": 77.6094116
      },
      "tags": {
        "access": "private",
        "leisure": "swimming_pool"
      }
    }
  ]
}