{
  "area_name": "Hunasamaranahalli",
  "osm_id": 1701916545,
  "osm_type": "node",
  "place_type": "suburb",
  "amenity_count": 24,
  "amenities": [
    {
      "type": "node",
      "id": 1464784842,
      "lat": 13.1463768,
      "lon": 77.6181865,
      "tags": {
        "amenity": "cafe",
        "name": "Cafe Coffee Day",
        "name:kn": "ಕಫೆ ಕಾಫಿ ಡೇ"
      }
    },
    {
      "type": "node",
      "id": 1464784875,
      "lat": 13.1458876,
      "lon": 77.6180972,
      "tags": {
        "amenity": "bar",
        "name": "Bhagini",
        "name:kn": "ಭಗಿನಿ"
      }
    },
    {
      "type": "node",
      "id": 4729146718,
      "lat": 13.1521488,
      "lon": 77.6210423,
      "tags": {
        "addr:city": "Bangalore",
        "addr:postcode": "560077",
        "addr:street": "Bellary Road",
        "alt_name": "A2B",
        "amenity": "restaurant",
        "brand": "Adyar Ananda Bhavan",
        "brand:wikidata": "Q15178238",
        "check_date": "2022-09-24",
        "cuisine": "regional",
        "diet:halal": "no",
        "diet:vegetarian": "only",
        "email": "info@aabsweets.com",
        "highchair": "no",
        "indoor_seating": "yes",
        "name": "Adyar Ananda Bhavan",
        "name:kn": "ಆದ್ಯಾರ್ ಆನಂದ ಭವನ",
        "opening_hours": "Mo-Su 07:00-23:00",
        "operator": "Adyar Ananda Bhavan",
        "outdoor_seating": "no",
        "payment:cash": "yes",
        "payment:credit_cards": "yes",
        "payment:debit_cards": "yes",
        "payment:upi": "yes",
        "phone": "+91 94821 04129",
        "smoking": "no",
        "takeaway": "yes",
        "website": "https://aabsweets.com",
        "wheelchair": "limited"
      }
    },
    {
      "type": "node",
      "id": 11469000661,
      "lat": 13.1520922,
      "lon": 77.6200567,
      "tags": {
        "amenity": "restaurant",
        "check_date": "2023-12-30",
        "cuisine": "indian",
        "diet:vegetarian": "yes",
        "internet_access": "no",
        "name": "Sri Devi Tiffen Center",
        "payment:cards": "no",
        "payment:cash": "yes",
        "payment:credit_cards": "no",
        "payment:debit_cards": "no",
        "wheelchair": "no"
      }
    },
    {
      "type": "node",
      "id": 11889550062,
      "lat": 13.1433356,
      "lon": 77.618545,
      "tags": {
        "amenity": "place_of_worship",
        "religion": "hindu"
      }
    },
    {
      "type": "node",
      "id": 13155761023,
      "lat": 13.1402313,
      "lon": 77.6180424,
      "tags": {
        "check_date": "2025-09-19",
        "name": "Mahindra",
        "shop": "car"
      }
    },
    {
      "type": "way",
      "id": 720456480,
      "center": {
        "lat": 13.1526187,
        "lon": 77.6211956
      },
      "tags": {
        "addr:city": "Bangalore",
        "addr:postcode": "562157",
        "addr:street": "Ballari Road",
        "amenity": "fast_food",
        "brand": "Burger King",
        "brand:pa": "ਬਰਗਰ ਕਿੰਗ",
        "brand:ur": "برگر کنگ",
        "brand:wikidata": "Q177054",
        "brand:wikipedia": "en:Burger King",
        "brand:wikipedia:pa": "ਬਰਗਰ ਕਿੰਗ",
        "brand:wikipedia:ur": "برگر کنگ",
        "building": "yes",
        "cuisine": "burger",
        "name": "Burger King",
        "name:kn": "ಬರ್ಗರ್ ಕಿಂಗ್",
        "name:pa": "ਬਰਗਰ ਕਿੰਗ",
        "name:ru": "Бургер Кинг",
        "name:ur": "برگر کنگ",
        "operator": "BURGER KING",
        "takeaway": "yes"
      }
    },
    {
      "type": "way",
      "id": 720457382,
      "center": {
        "lat": 13.1462552,
        "lon": 77.6144101
      },
      "tags": {
        "addr:city": "BANGALORE",
        "addr:postcode": "562157",
        "addr:street": "NEAR HALLI",
        "amenity": "restaurant",
        "building": "yes",
        "name": "Maa Bhagwati Hotel"
      }
    },
    {
      "type": "way",
      "id": 720462542,
      "center": {
        "lat": 13.152444,
        "lon": 77.6171782
      },
      "tags": {
        "addr:city": "Bangalore",
        "addr:postcode": "562157",
        "addr:street": "SIR MVIT ROAD",
        "building": "yes",
        "name": "Mrp Wine Shop",
        "payment:cash": "yes",
        "payment:debit_cards": "yes",
        "payment:mastercard": "yes",
        "shop": "wine"
      }
    },
    {
      "type": "way",
      "id": 720467383,
      "center": {
        "lat": 13.1459888,
        "lon": 77.6137144
      },
      "tags": {
        "addr:city": "BANGALORE",
        "addr:postcode": "562157",
        "addr:street": "HUNASAMARANHALLI",
        "amenity": "school",
        "name": "Government School",
        "name:kn": "ಸರ್ಕಾರಿ ಶಾಲೆ"
      }
    },
    {
      "type": "way",
      "id": 720468316,
      "center": {
        "lat": 13.145195,
        "lon": 77.6168442
      },
      "tags": {
        "addr:street": "HUNASAMARANHALLI",
        "building": "yes",
        "name": "Medicate",
        "shop": "medical_supply"
      }
    },
    {
      "type": "way",
      "id": 720469069,
      "center": {
        "lat": 13.144381,
        "lon": 77.6179891
      },
      "tags": {
        "addr:street": "HUNASAMARANHALLI",
        "building": "yes",
        "leisure": "fitness_centre",
        "name": "Fitness Den"
      }
    },
    {
      "type": "way",
      "id": 720774866,
      "center": {
        "lat": 13.1520348,
        "lon": 77.6146229
      },
      "tags": {
        "amenity": "fuel"
      }
    },
    {
      "type": "way",
      "id": 1068394015,
      "center": {
        "lat": 13.140549,
        "lon": 77.6180663
      },
      "tags": {
        "amenity": "fuel",
        "brand": "Indian Oil",
        "brand:wikidata": "Q1289348",
        "check_date": "2025-03-02",
        "compressed_air": "yes",
        "name": "Indian Oil"
      }
    },
    {
      "type": "way",
      "id": 1116926302,
      "center": {
        "lat": 13.142885,
        "lon": 77.6161887
      },
      "tags": {
        "landuse": "commercial",
        "name": "Spinny Park",
        "second_hand": "only",
        "shop": "car"
      }
    },
    {
      "type": "way",
      "id": 1267672084,
      "center": {
        "lat": 13.1494383,
        "lon": 77.6200585
      },
      "tags": {
        "landuse": "commercial",
        "name": "Toyota",
        "name:kn": "ಟೊಯೋಟೊ",
        "shop": "car"
      }
    },
    {
      "type": "way",
      "id": 1272032903,
      "center": {
        "lat": 13.1519249,
        "lon": 77.6224094
      },
      "tags": {
        "landuse": "commercial",
        "name": "GigaCars",
        "shop": "car"
      }
    },
    {
      "type": "way",
      "id": 1272839479,
      "center": {
        "lat": 13.1475158,
        "lon": 77.6190606
      },
      "tags": {
        "leisure": "park"
      }
    },
    {
      "type": "way",
      "id": 1272839480,
      "center": {
        "lat": 13.1470158,
        "lon": 77.6186368
      },
      "tags": {
        "access": "private",
        "amenity": "parking",
        "parking": "surface"
      }
    },
    {
      "type": "way",
      "id": 1272839482,
      "center": {
        "lat": 13.1482008,
        "lon": 77.6191297
      },
      "tags": {
        "leisure": "park"
      }
    },
    {
      "type": "way",
      "id": 1272839495,
      "center": {
        "lat": 13.1451013,
        "lon": 77.6172186
      },
      "tags": {
        "amenity": "school"
      }
    },
    {
      "type": "way",
      "id": 1280104584,
      "center": {
        "lat": 13.14367,
        "lon": 77.6162262
      },
      "tags": {
        "amenity": "college",
        "name": "SJPU PU College"
      }
    },
    {
      "type": "way",
      "id": 1280939836,
      "center": {
        "lat": 13.1451404,
        "lon": 77.6103684
      },
      "tags": {
        "amenity": "college",
        "name": "Jain School of Design, Media and Creative Arts"
      }
    },
    {
      "type": "way",
      "id": 1280939856,
      "center": {
        "lat": 13.1402398,
        "lon": 77.6157475
      },
      "tags": {
        "leisure": "park"
      }
    }
  ]
}