{
  "area_name": "Huskur",
  "osm_id": 695119369,
  "osm_type": "node",
  "place_type": "suburb",
  "amenity_count": 12,
  "amenities": [
    {
      "type": "node",
      "id": 9929594134,
      "lat": 12.8585376,
      "lon": 77.6993224,
      "tags": {
        "amenity": "parking_entrance"
      }
    },
    {
      "type": "way",
      "id": 344999423,
      "center": {
        "lat": 12.8593113,
        "lon": 77.7036357
      },
      "tags": {
        "amenity": "place_of_worship",
        "building": "yes",
        "religion": "hindu"
      }
    },
    {
      "type": "way",
      "id": 1033976930,
      "center": {
        "lat": 12.8611675,
        "lon": 77.7051923
      },
      "tags": {
        "amenity": "place_of_worship",
        "religion": "hindu"
      }
    },
    {
      "type": "way",
      "id": 1083523197,
      "center": {
        "lat": 12.8582052,
        "lon": 77.6991809
      },
      "tags": {
        "leisure": "pitch",
        "sport": "volleyball"
      }
    },
    {
      "type": "way",
      "id": 1083523205,
      "center": {
        "lat": 12.8582545,
        "lon": 77.6989571
      },
      "tags": {
        "access": "private",
        "leisure": "swimming_pool"
      }
    },
    {
      "type": "way",
      "id": 1127316234,
      "center": {
        "lat": 12.8617946,
        "lon": 77.7056621
      },
      "tags": {
        "amenity": "post_office",
        "building": "yes",
        "name": "Huskuru Post Office"
      }
    },
    {
      "type": "way",
      "id": 1127316235,
      "center": {
        "lat": 12.8616194,
        "lon": 77.7053037
      },
      "tags": {
        "amenity": "bus_station",
        "name": "Huskuru Bus Stop"
      }
    },
    {
      "type": "way",
      "id": 1127316236,
      "center": {
        "lat": 12.8616161,
        "lon": 77.7047939
      },
      "tags": {
        "amenity": "school"
      }
    },
    {
      "type": "way",
      "id": 1127416863,
      "center": {
        "lat": 12.8645846,
        "lon": 77.699764
      },
      "tags": {
        "leisure": "pitch",
        "sport": "basketball"
      }
    },
    {
      "type": "way",
      "id": 1127416864,
      "center": {
        "lat": 12.8646849,
        "lon": 77.6996092
      },
      "tags": {
        "leisure": "pitch",
        "sport": "tennis"
      }
    },
    {
      "type": "way",
      "id": 1291974880,
      "center": {
        "lat": 12.8640726,
        "lon": 77.7002028
      },
      "tags": {
        "amenity": "monastery"
      }
    },
    {
      "type": "way",
      "id": 1421391192,
      "center": {
        "lat": 12.8582248,
        "lon": 77.7079443
      },
      "tags": {
        "amenity": "school"
      }
    }
  ]
}