{
  "area_name": "Iggaluru",
  "osm_id": 3335797567,
  "osm_type": "node",
  "place_type": "neighbourhood",
  "amenity_count": 20,
  "amenities": [
    {
      "type": "node",
      "id": 6043072316,
      "lat": 12.7936585,
      "lon": 77.7020065,
      "tags": {
        "leisure": "park",
        "name": "Public Park"
      }
    },
    {
      "type": "node",
      "id": 6944392358,
      "lat": 12.7945637,
      "lon": 77.7068165,
      "tags": {
        "addr:district": "Kodagu",
        "addr:full": "Government Of Karnataka Dept. Of Labauv Gonikoppal Road, Opposite Ksrtc Bus Stant",
        "addr:postcode": "571218",
        "addr:state": "Karnataka",
        "amenity": "hospital",
        "name": "Athreya Hospital",
        "source": "OpenGovernmentData",
        "wheelchair": "yes"
      }
    },
    {
      "type": "node",
      "id": 6944525394,
      "lat": 12.7945363,
      "lon": 77.7068715,
      "tags": {
        "addr:district": "Bengaluru Urban",
        "addr:full": "6/2 B, Opposite Suryanagara, Phase 1, Chandpura, Anekal Main Road",
        "addr:postcode": "560081",
        "addr:state": "Karnataka",
        "amenity": "hospital",
        "email": "Athreya@athreyahospital.in; drswamy@athreyahospital.in",
        "healthcare:speciality": "multi speciality",
        "name": "Athreya Hospital, Chandpura",
        "operator:type": "private",
        "source": "OpenGovernmentData",
        "website": "https://www.athreyahospital.in/"
      }
    },
    {
      "type": "node",
      "id": 10314164963,
      "lat": 12.7894812,
      "lon": 77.7049713,
      "tags": {
        "addr:street": "Chandapura",
        "amenity": "bank",
        "branch": "Chandapura Branch",
        "brand": "Bank of Maharashtra",
        "brand:wikidata": "Q2004304",
        "name": "Bank of Maharashtra",
        "opening_hours": "Mo-Fr 10:00-17:00"
      }
    },
    {
      "type": "way",
      "id": 734444604,
      "center": {
        "lat": 12.7930815,
        "lon": 77.7019947
      },
      "tags": {
        "access": "yes",
        "leisure": "playground",
        "max_age": "0",
        "min_age": "0",
        "surface": "ground"
      }
    },
    {
      "type": "way",
      "id": 746901596,
      "center": {
        "lat": 12.7938386,
        "lon": 77.7022974
      },
      "tags": {
        "leisure": "park"
      }
    },
    {
      "type": "way",
      "id": 746901597,
      "center": {
        "lat": 12.7943613,
        "lon": 77.6997426
      },
      "tags": {
        "leisure": "park"
      }
    },
    {
      "type": "way",
      "id": 966839072,
      "center": {
        "lat": 12.7950695,
        "lon": 77.7019808
      },
      "tags": {
        "leisure": "park"
      }
    },
    {
      "type": "way",
      "id": 966839311,
      "center": {
        "lat": 12.795321,
        "lon": 77.7028786
      },
      "tags": {
        "leisure": "park"
      }
    },
    {
      "type": "way",
      "id": 1188688469,
      "center": {
        "lat": 12.7908864,
        "lon": 77.6980123
      },
      "tags": {
        "leisure": "park"
      }
    },
    {
      "type": "way",
      "id": 1188688470,
      "center": {
        "lat": 12.7893935,
        "lon": 77.6962064
      },
      "tags": {
        "leisure": "park"
      }
    },
    {
      "type": "way",
      "id": 1191870325,
      "center": {
        "lat": 12.7956502,
        "lon": 77.7033917
      },
      "tags": {
        "leisure": "park"
      }
    },
    {
      "type": "way",
      "id": 1191870328,
      "center": {
        "lat": 12.7895064,
        "lon": 77.7028884
      },
      "tags": {
        "amenity": "school"
      }
    },
    {
      "type": "way",
      "id": 1191870335,
      "center": {
        "lat": 12.7889617,
        "lon": 77.6986116
      },
      "tags": {
        "leisure": "park"
      }
    },
    {
      "type": "way",
      "id": 1353936114,
      "center": {
        "lat": 12.7922244,
        "lon": 77.7065994
      },
      "tags": {
        "amenity": "school"
      }
    },
    {
      "type": "way",
      "id": 1353936117,
      "center": {
        "lat": 12.7942545,
        "lon": 77.7041631
      },
      "tags": {
        "amenity": "school"
      }
    },
    {
      "type": "way",
      "id": 1353936118,
      "center": {
        "lat": 12.7873911,
        "lon": 77.6966873
      },
      "tags": {
        "amenity": "school"
      }
    },
    {
      "type": "way",
      "id": 1353936130,
      "center": {
        "lat": 12.7844858,
        "lon": 77.7104799
      },
      "tags": {
        "leisure": "park"
      }
    },
    {
      "type": "way",
      "id": 1414010192,
      "center": {
        "lat": 12.7940986,
        "lon": 77.7050706
      },
      "tags": {
        "amenity": "school"
      }
    },
    {
      "type": "way",
      "id": 1422346054,
      "center": {
        "lat": 12.7821485,
        "lon": 77.7132874
      },
      "tags": {
        "leisure": "park"
      }
    }
  ]
}