{
  "area_name": "Indira Gandhi Colony",
  "osm_id": 10760556149,
  "osm_type": "node",
  "place_type": "neighbourhood",
  "amenity_count": 530,
  "amenities": [
    {
      "type": "node",
      "id": 662761071,
      "lat": 12.946945,
      "lon": 77.6175314,
      "tags": {
        "amenity": "school",
        "name": "St. Sara's School"
      }
    },
    {
      "type": "node",
      "id": 662874260,
      "lat": 12.9451797,
      "lon": 77.6213677,
      "tags": {
        "amenity": "place_of_worship",
        "name": "Annamma Temple",
        "name:kn": "ಅಣ್ಣಮ್ಮ ದೇವಸ್ಥಾನ",
        "religion": "hindu",
        "ups_other": "temple"
      }
    },
    {
      "type": "node",
      "id": 662874261,
      "lat": 12.9479784,
      "lon": 77.6189413,
      "tags": {
        "amenity": "place_of_worship",
        "religion": "christian",
        "ups_other": "church"
      }
    },
    {
      "type": "node",
      "id": 662894703,
      "lat": 12.949455,
      "lon": 77.6171956,
      "tags": {
        "shop": "General store",
        "ups_shop": "shop"
      }
    },
    {
      "type": "node",
      "id": 662894707,
      "lat": 12.9497687,
      "lon": 77.6175899,
      "tags": {
        "shop": "General store",
        "ups_shop": "shop"
      }
    },
    {
      "type": "node",
      "id": 662894709,
      "lat": 12.9494393,
      "lon": 77.6174022,
      "tags": {
        "amenity": "toilets",
        "name": "Public Toilet",
        "name:kn": "ಶೌಚಾಲಯ"
      }
    },
    {
      "type": "node",
      "id": 662894713,
      "lat": 12.9501905,
      "lon": 77.6177916,
      "tags": {
        "shop": "electrical"
      }
    },
    {
      "type": "node",
      "id": 663604724,
      "lat": 12.9502096,
      "lon": 77.6166557,
      "tags": {
        "amenity": "place_of_worship",
        "name": "Church statue",
        "religion": "christian",
        "ups_other": "statue"
      }
    },
    {
      "type": "node",
      "id": 669245460,
      "lat": 12.9476788,
      "lon": 77.6244575,
      "tags": {
        "amenity": "recycling",
        "name": "Ravi Chandra's Shop"
      }
    },
    {
      "type": "node",
      "id": 672011694,
      "lat": 12.9511406,
      "lon": 77.6174732,
      "tags": {
        "amenity": "recycling",
        "name": "Kumar"
      }
    },
    {
      "type": "node",
      "id": 672011699,
      "lat": 12.9518495,
      "lon": 77.6179311,
      "tags": {
        "amenity": "recycling",
        "description": "dumpsite"
      }
    },
    {
      "type": "node",
      "id": 672055796,
      "lat": 12.9495725,
      "lon": 77.6176442,
      "tags": {
        "amenity": "recycling",
        "name": "Baba shop"
      }
    },
    {
      "type": "node",
      "id": 672055799,
      "lat": 12.9519474,
      "lon": 77.6196686,
      "tags": {
        "amenity": "recycling",
        "name": "Vinayakai"
      }
    },
    {
      "type": "node",
      "id": 672055806,
      "lat": 12.9492855,
      "lon": 77.617491,
      "tags": {
        "amenity": "recycling",
        "name": "sagai"
      }
    },
    {
      "type": "node",
      "id": 672060567,
      "lat": 12.9490485,
      "lon": 77.6174494,
      "tags": {
        "amenity": "recycling",
        "name": "dumping site"
      }
    },
    {
      "type": "node",
      "id": 672071448,
      "lat": 12.94905,
      "lon": 77.617456,
      "tags": {
        "amenity": "recycling",
        "description": "dumpsite"
      }
    },
    {
      "type": "node",
      "id": 672579813,
      "lat": 12.941691,
      "lon": 77.6190666,
      "tags": {
        "amenity": "recycling",
        "name": "Sakappan"
      }
    },
    {
      "type": "node",
      "id": 672579825,
      "lat": 12.9433716,
      "lon": 77.6180879,
      "tags": {
        "amenity": "recycling",
        "name": "Elumalai"
      }
    },
    {
      "type": "node",
      "id": 672579826,
      "lat": 12.9419692,
      "lon": 77.6193404,
      "tags": {
        "amenity": "recycling",
        "name": "Mukesh"
      }
    },
    {
      "type": "node",
      "id": 672579834,
      "lat": 12.9430309,
      "lon": 77.6193113,
      "tags": {
        "amenity": "recycling",
        "name": "Gajendra",
        "name:kn": "ಗಜೇಂದ್ರ"
      }
    },
    {
      "type": "node",
      "id": 672579841,
      "lat": 12.9433546,
      "lon": 77.6187346,
      "tags": {
        "amenity": "recycling",
        "description": "dumpsite"
      }
    },
    {
      "type": "node",
      "id": 748867206,
      "lat": 12.9380122,
      "lon": 77.6265834,
      "tags": {
        "amenity": "place_of_worship",
        "name": "Ganesh Temple",
        "name:kn": "ಗಣೇಶ ದೇವಸ್ಥಾನ",
        "religion": "hindu",
        "wheelchair": "no"
      }
    },
    {
      "type": "node",
      "id": 1091310741,
      "lat": 12.9377655,
      "lon": 77.6267552,
      "tags": {
        "addr:street": "80 Feet Road",
        "amenity": "restaurant",
        "name": "Gangothri Restaurant",
        "name:kn": "ಗಂಗೋತ್ರಿ ರೆಸ್ಟೋರೆಂಟ್"
      }
    },
    {
      "type": "node",
      "id": 1091310756,
      "lat": 12.9398542,
      "lon": 77.6251855,
      "tags": {
        "addr:street": "80 Feet Road",
        "amenity": "restaurant",
        "brand": "Pizza Hut",
        "brand:wikidata": "Q191615",
        "cuisine": "pizza",
        "name": "Pizza Hut",
        "name:kn": "ಪಿಟ್ಸ ಹಟ್"
      }
    },
    {
      "type": "node",
      "id": 1091310761,
      "lat": 12.9376227,
      "lon": 77.6269262,
      "tags": {
        "addr:street": "Koramangala Inner Ring Road",
        "amenity": "fast_food",
        "brand": "Taco Bell",
        "brand:wikidata": "Q752941",
        "brand:wikipedia": "en:Taco Bell",
        "cuisine": "tex-mex",
        "name": "Taco Bell",
        "name:kn": "ಟಾಕೊ ಬೆಲ್",
        "takeaway": "yes"
      }
    },
    {
      "type": "node",
      "id": 1328615137,
      "lat": 12.9370423,
      "lon": 77.6245906,
      "tags": {
        "amenity": "restaurant",
        "name": "Coast to Coast Sea food restaurant",
        "name:kn": "ಕೋಸ್ಟ್ ಟು ಕೋಸ್ಟ್ ಸೀ ಫುಡ್ ರೆಸ್ಟೋರೆಂಟ್"
      }
    },
    {
      "type": "node",
      "id": 1328615139,
      "lat": 12.9370998,
      "lon": 77.6245424,
      "tags": {
        "amenity": "restaurant",
        "name": "Kubey Seafood Restaurant",
        "name:kn": "ಕುಬೆ ಸೀಫುಂಡ್ ರೆಸ್ಟೋರೆಂಟ್"
      }
    },
    {
      "type": "node",
      "id": 1463745568,
      "lat": 12.9372017,
      "lon": 77.6244522,
      "tags": {
        "amenity": "fast_food",
        "name": "Madurai Idly shop"
      }
    },
    {
      "type": "node",
      "id": 1464782937,
      "lat": 12.9380019,
      "lon": 77.62749,
      "tags": {
        "addr:street": "near Sony World signal, Koramangala, Bangalore",
        "brand": "Cromā",
        "brand:wikidata": "Q5187683",
        "name": "Cromā",
        "name:kn": "ಕ್ರೋಮ",
        "shop": "electronics"
      }
    },
    {
      "type": "node",
      "id": 1464792933,
      "lat": 12.9404971,
      "lon": 77.6207624,
      "tags": {
        "addr:place": "Koramangala",
        "amenity": "school",
        "isced:level": "3",
        "name": "Bethany High School Koramangala",
        "name:kn": "ಬೆಥನಿ ಪ್ರೌಢಶಾಲೆ ,ಕೋರಮಂಗಲ",
        "operator": "Private Un-Aided",
        "school": "Higher Secondary"
      }
    },
    {
      "type": "node",
      "id": 1464885140,
      "lat": 12.9373048,
      "lon": 77.6244506,
      "tags": {
        "addr:postcode": "560095",
        "addr:street": "17th b main, 6th block",
        "amenity": "pharmacy",
        "brand": "Apollo Pharmacy",
        "brand:wikidata": "Q62562612",
        "dispensing": "yes",
        "healthcare": "pharmacy",
        "name": "Apollo Pharmacy",
        "name:kn": "ಅಪೋಲೋ ಫಾರ್ಮಸಿ"
      }
    },
    {
      "type": "node",
      "id": 1464957155,
      "lat": 12.9378758,
      "lon": 77.6266672,
      "tags": {
        "amenity": "place_of_worship",
        "name": "Sri Prasanna Veeranjaneya Temple",
        "religion": "hindu"
      }
    },
    {
      "type": "node",
      "id": 1464958052,
      "lat": 12.9376456,
      "lon": 77.626351,
      "tags": {
        "addr:street": "80 Feet Peripheral Rd, Koramangala 6 Block, KoramangalaBengaluru, Karnataka, India",
        "brand": "Manyavar",
        "brand:wikidata": "Q24906783",
        "check_date": "2024-01-10",
        "name": "Manyavar",
        "shop": "clothes"
      }
    },
    {
      "type": "node",
      "id": 1465177404,
      "lat": 12.9373618,
      "lon": 77.6244338,
      "tags": {
        "amenity": "atm",
        "brand": "HDFC Bank",
        "brand:wikidata": "Q631047",
        "fee": "no",
        "name": "HDFC Bank",
        "operator": "HDFC Bank",
        "operator:wikidata": "Q631047",
        "short_name": "HDFC"
      }
    },
    {
      "type": "node",
      "id": 1465272544,
      "lat": 12.9371376,
      "lon": 77.6241392,
      "tags": {
        "addr:postcode": "560095",
        "addr:street": "17th C Main",
        "designation": "Saree/Salwar shop",
        "name": "Navya shree sarees",
        "shop": "clothes"
      }
    },
    {
      "type": "node",
      "id": 1465741141,
      "lat": 12.941685,
      "lon": 77.621969,
      "tags": {
        "amenity": "place_of_worship",
        "denomination": "all",
        "designation": "ganapathy aanjaneya and raghavendra",
        "name": "Ganapathy, Anjaneya, Raghavendra Swamy temple",
        "religion": "hindu"
      }
    },
    {
      "type": "node",
      "id": 1466628075,
      "lat": 12.9449911,
      "lon": 77.618272,
      "tags": {
        "amenity": "bar",
        "name": "Mookambika Bar& Resturant"
      }
    },
    {
      "type": "node",
      "id": 1466631787,
      "lat": 12.9429573,
      "lon": 77.6174085,
      "tags": {
        "addr:district": "Bengaluru Urban",
        "addr:full": "No.3&4, 7Nth Main 1st Block OppositeB.T.S Kalyana Mantapa Koramangala",
        "addr:postcode": "560034",
        "addr:state": "Karnataka",
        "amenity": "clinic",
        "name": "Sharadha Nursing Home",
        "source": "OpenGovernmentData"
      }
    },
    {
      "type": "node",
      "id": 1466638204,
      "lat": 12.9423039,
      "lon": 77.6174893,
      "tags": {
        "amenity": "hospital",
        "healthcare": "hospital",
        "name": "Srinivasa Nursing Home"
      }
    },
    {
      "type": "node",
      "id": 1466648669,
      "lat": 12.9422358,
      "lon": 77.6178071,
      "tags": {
        "amenity": "restaurant",
        "cuisine": "chinese",
        "name": "Dim Sum",
        "name:kn": "ದಿಮ್ ಸಮ್"
      }
    },
    {
      "type": "node",
      "id": 1466650618,
      "lat": 12.9423666,
      "lon": 77.6174611,
      "tags": {
        "amenity": "pharmacy",
        "brand": "Apollo Pharmacy",
        "brand:wikidata": "Q62562612",
        "healthcare": "pharmacy",
        "name": "Apollo Pharmacy",
        "name:kn": "ಅಪೋಲೋ ಫಾರ್ಮಸಿ"
      }
    },
    {
      "type": "node",
      "id": 1466752184,
      "lat": 12.9402493,
      "lon": 77.6201159,
      "tags": {
        "shop": "florist"
      }
    },
    {
      "type": "node",
      "id": 1468025770,
      "lat": 12.9373691,
      "lon": 77.6243143,
      "tags": {
        "amenity": "restaurant",
        "cuisine": "indian",
        "name": "Bhojohori manna",
        "name:kn": "ಬೊಜೊಹೊರಿ ಮನ್ನ"
      }
    },
    {
      "type": "node",
      "id": 1468025780,
      "lat": 12.9373234,
      "lon": 77.624368,
      "tags": {
        "addr:housename": "1st floor",
        "addr:postcode": "560095",
        "amenity": "restaurant",
        "cuisine": "indian",
        "name": "heritage of Bengal",
        "name:kn": "ಹೆರಿಟೇಜ್ ಆಫ್ ಬೆಂಗಲ್"
      }
    },
    {
      "type": "node",
      "id": 1468025786,
      "lat": 12.9390944,
      "lon": 77.6229075,
      "tags": {
        "name": "The boutique",
        "shop": "clothes"
      }
    },
    {
      "type": "node",
      "id": 1468025793,
      "lat": 12.9397911,
      "lon": 77.6222423,
      "tags": {
        "name": "Aanchal",
        "shop": "clothes"
      }
    },
    {
      "type": "node",
      "id": 1468540658,
      "lat": 12.9377944,
      "lon": 77.6266966,
      "tags": {
        "amenity": "restaurant",
        "cuisine": "indian",
        "name": "Chalo Punjab",
        "name:kn": "ಚಲೊ ಪಂಜಾಬ್"
      }
    },
    {
      "type": "node",
      "id": 1468540672,
      "lat": 12.937648,
      "lon": 77.6267717,
      "tags": {
        "name": "Dreams on wheelz",
        "shop": "car_repair"
      }
    },
    {
      "type": "node",
      "id": 1468540675,
      "lat": 12.9382962,
      "lon": 77.626001,
      "tags": {
        "name": "Namdhari's fresh",
        "shop": "supermarket"
      }
    },
    {
      "type": "node",
      "id": 1468540691,
      "lat": 12.9380577,
      "lon": 77.6261445,
      "tags": {
        "amenity": "restaurant",
        "cuisine": "ice_cream",
        "name": "Kwality Walls",
        "name:kn": "ಕ್ವಲಿಟಿ ವಾಲ್ಸ್"
      }
    },
    {
      "type": "node",
      "id": 1468540703,
      "lat": 12.9401157,
      "lon": 77.6250336,
      "tags": {
        "amenity": "atm",
        "brand": "IndusInd Bank",
        "brand:wikidata": "Q2040323",
        "check_date": "2021-11-28",
        "fee": "no",
        "name": "IndusInd Bank",
        "operator": "IndusInd Bank",
        "operator:wikidata": "Q2040323"
      }
    },
    {
      "type": "node",
      "id": 1468540710,
      "lat": 12.937482,
      "lon": 77.6265625,
      "tags": {
        "name": "Sheelu Flowers",
        "shop": "florist"
      }
    },
    {
      "type": "node",
      "id": 1468540713,
      "lat": 12.9377879,
      "lon": 77.6263171,
      "tags": {
        "amenity": "ice_cream",
        "brand": "Baskin-Robbins",
        "brand:wikidata": "Q584601",
        "cuisine": "ice_cream",
        "name": "Baskin-Robbins",
        "name:kn": "ಬಾಸ್ಕಿನ್ ರಾಬಿನ್ಸ್"
      }
    },
    {
      "type": "node",
      "id": 1468540733,
      "lat": 12.9402371,
      "lon": 77.6253403,
      "tags": {
        "addr:district": "Bengaluru Urban",
        "addr:full": "No.897/C, 80 Feet Road, 6th Block, Koramangala",
        "addr:postcode": "560095",
        "addr:state": "Karnataka",
        "addr:subdistrict": "Koramangala",
        "amenity": "hospital",
        "emergency": "yes",
        "healthcare": "hospital",
        "name": "Vasan Eye Care Hospital, Koramangala",
        "operator:type": "private",
        "source": "OpenGovernmentData",
        "website": "http://www.vasaneye.in/"
      }
    },
    {
      "type": "node",
      "id": 1468540736,
      "lat": 12.937363,
      "lon": 77.626659,
      "tags": {
        "name": "Brown Tree Super",
        "shop": "supermarket"
      }
    },
    {
      "type": "node",
      "id": 1468540756,
      "lat": 12.9378271,
      "lon": 77.6266388,
      "tags": {
        "name": "Mahindra showroom",
        "shop": "car"
      }
    },
    {
      "type": "node",
      "id": 1470523384,
      "lat": 12.9416947,
      "lon": 77.621508,
      "tags": {
        "amenity": "restaurant",
        "cuisine": "international",
        "name": "Boca Grande",
        "name:kn": "ಬೊಕ ಗ್ರಾಂಡೆ"
      }
    },
    {
      "type": "node",
      "id": 1470523385,
      "lat": 12.9420162,
      "lon": 77.6219426,
      "tags": {
        "amenity": "bank",
        "atm": "yes",
        "brand": "Federal Bank",
        "brand:wikidata": "Q2044983",
        "brand:wikipedia": "en:Federal Bank",
        "name": "Federal Bank",
        "name:en": "Federal Bank",
        "website": "https://www.federalbank.co.in"
      }
    },
    {
      "type": "node",
      "id": 1470523395,
      "lat": 12.9420816,
      "lon": 77.6220418,
      "tags": {
        "designation": "Dealers in Piano",
        "name": "Theme Piano World",
        "shop": "music"
      }
    },
    {
      "type": "node",
      "id": 1470707052,
      "lat": 12.941581,
      "lon": 77.617208,
      "tags": {
        "amenity": "pharmacy",
        "name": "Krishna Pharma"
      }
    },
    {
      "type": "node",
      "id": 1470856095,
      "lat": 12.9377559,
      "lon": 77.6239822,
      "tags": {
        "amenity": "bank",
        "atm": "yes",
        "brand": "Corporation Bank",
        "brand:wikidata": "Q2003387",
        "brand:wikipedia": "en:Corporation Bank",
        "name": "Corporation Bank",
        "name:en": "Corporation Bank",
        "name:kn": "ಕಾರ್ಪರೇಷನ್ ಬ್ಯಾಂಕ್",
        "website": "https://corpbank.com/"
      }
    },
    {
      "type": "node",
      "id": 1471128642,
      "lat": 12.9392359,
      "lon": 77.6191015,
      "tags": {
        "name": "Scissors Enrich Unisex salon",
        "shop": "hairdresser"
      }
    },
    {
      "type": "node",
      "id": 1471128655,
      "lat": 12.9390997,
      "lon": 77.6190857,
      "tags": {
        "brand": "Bajaj",
        "brand:wikidata": "Q10910065",
        "name": "Bajaj Showroom",
        "shop": "motorcycle"
      }
    },
    {
      "type": "node",
      "id": 1473308076,
      "lat": 12.9377532,
      "lon": 77.6266479,
      "tags": {
        "amenity": "pharmacy",
        "healthcare": "pharmacy",
        "name": "Himalaya Health care - druggists"
      }
    },
    {
      "type": "node",
      "id": 1473308082,
      "lat": 12.938682,
      "lon": 77.6299136,
      "tags": {
        "amenity": "restaurant",
        "cuisine": "international",
        "name": "Cube Multi-cuisine Restaurant",
        "name:kn": "ಕ್ಯುಬ್ ಮಲ್ಟಿ-ಕ್ಯುಸಿನ್ ರೆಸ್ಟೊರೆಂಟ್"
      }
    },
    {
      "type": "node",
      "id": 1473308109,
      "lat": 12.9376735,
      "lon": 77.6264373,
      "tags": {
        "amenity": "restaurant",
        "cuisine": "indian",
        "name": "Taste of Bihar",
        "name:kn": "ಟೆಸ್ಟ್ ಆಫ್ ಬಿಹಾರ್"
      }
    },
    {
      "type": "node",
      "id": 1473330353,
      "lat": 12.9447798,
      "lon": 77.6191001,
      "tags": {
        "amenity": "place_of_worship",
        "denomination": "vaishnavism",
        "name": "Sri Srinivasa temple",
        "name:kn": "ಶ್ರೀನಿವಾಸ ದೇವಸ್ಥಾನ",
        "religion": "hindu"
      }
    },
    {
      "type": "node",
      "id": 1473330384,
      "lat": 12.9426306,
      "lon": 77.6223732,
      "tags": {
        "female": "yes",
        "male": "yes",
        "name": "Kolourrs Unisex salon",
        "shop": "hairdresser"
      }
    },
    {
      "type": "node",
      "id": 1474324419,
      "lat": 12.9372827,
      "lon": 77.6245142,
      "tags": {
        "name": "Sumith Provision & Condiments",
        "shop": "convenience"
      }
    },
    {
      "type": "node",
      "id": 1474324438,
      "lat": 12.9374604,
      "lon": 77.6242714,
      "tags": {
        "name": "Crystal Stationeries",
        "shop": "convenience"
      }
    },
    {
      "type": "node",
      "id": 1684631607,
      "lat": 12.9501262,
      "lon": 77.6186016,
      "tags": {
        "amenity": "place_of_worship",
        "name": "Anaga Parmeshwari temple",
        "religion": "hindu"
      }
    },
    {
      "type": "node",
      "id": 1684702809,
      "lat": 12.9510012,
      "lon": 77.6188616,
      "tags": {
        "amenity": "place_of_worship",
        "name:kn": "ಮಸೀದಿ",
        "religion": "muslim"
      }
    },
    {
      "type": "node",
      "id": 1722528824,
      "lat": 12.9376941,
      "lon": 77.6270393,
      "tags": {
        "alt_name": "Kentucky Fried Chicken",
        "alt_name:en": "Kentucky Fried Chicken",
        "alt_name:hi": "केंटुकी फ्राइड चिकन",
        "alt_name:pa": "ਕੈਂਟੁਕੀ ਫ੍ਰਾਈਡ ਚਿਕਨ",
        "alt_name:pnb": "کینٹکی فرائیڈ چکن",
        "alt_name:ur": "کینٹکی فرائیڈ چکن",
        "amenity": "fast_food",
        "brand": "KFC",
        "brand:en": "KFC",
        "brand:hi": "केएफसी",
        "brand:pa": "ਕੇਐਫਸੀ",
        "brand:pnb": "کے ایف سی",
        "brand:ur": "کے ایف سی",
        "brand:wikidata": "Q524757",
        "brand:wikipedia": "en:KFC",
        "brand:wikipedia:pa": "ਕੇਐਫਸੀ",
        "brand:wikipedia:ur": "کینٹکی فرائیڈ چکن",
        "cuisine": "chicken",
        "name": "KFC",
        "name:en": "KFC",
        "name:hi": "केएफसी",
        "name:pa": "ਕੇਐਫਸੀ",
        "name:pnb": "کے ایف سی",
        "name:ur": "کے ایف سی",
        "takeaway": "yes"
      }
    },
    {
      "type": "node",
      "id": 1781815219,
      "lat": 12.9410107,
      "lon": 77.6176795,
      "tags": {
        "amenity": "pharmacy",
        "dispensing": "no",
        "name": "Lavish Medical"
      }
    },
    {
      "type": "node",
      "id": 1781889338,
      "lat": 12.939175,
      "lon": 77.6191546,
      "tags": {
        "craft": "photographer",
        "name": "G K Vale Photo Studio",
        "shop": "electronics"
      }
    },
    {
      "type": "node",
      "id": 1781959088,
      "lat": 12.943062,
      "lon": 77.6175679,
      "tags": {
        "amenity": "fast_food",
        "cuisine": "indian",
        "name": "Manasa Veg"
      }
    },
    {
      "type": "node",
      "id": 1781959093,
      "lat": 12.9410164,
      "lon": 77.6175336,
      "tags": {
        "name": "Pooja Items",
        "religion": "hindu",
        "shop": "gift"
      }
    },
    {
      "type": "node",
      "id": 1781959094,
      "lat": 12.9417545,
      "lon": 77.6215457,
      "tags": {
        "amenity": "restaurant",
        "cuisine": "indian",
        "name": "Sagar Fast Food",
        "name:kn": "ಸಾಗರ್ ಫಾಸ್ಟ್ ಫುಡ್"
      }
    },
    {
      "type": "node",
      "id": 1781959102,
      "lat": 12.943452,
      "lon": 77.6178697,
      "tags": {
        "amenity": "atm",
        "brand": "HDFC Bank",
        "brand:wikidata": "Q631047",
        "name": "HDFC Bank",
        "operator": "HDFC Bank",
        "operator:wikidata": "Q631047",
        "short_name": "HDFC"
      }
    },
    {
      "type": "node",
      "id": 1781959104,
      "lat": 12.9434676,
      "lon": 77.6178331,
      "tags": {
        "amenity": "atm",
        "brand": "ICICI Bank",
        "brand:wikidata": "Q1653258",
        "name": "ICICI Bank",
        "operator": "ICICI Bank",
        "operator:wikidata": "Q1653258",
        "short_name": "ICICI"
      }
    },
    {
      "type": "node",
      "id": 2387041069,
      "lat": 12.9437857,
      "lon": 77.6236824,
      "tags": {
        "amenity": "atm",
        "brand": "Canara Bank",
        "brand:en": "Canara Bank",
        "brand:hi": "केनरा बैंक",
        "brand:kn": "ಕೆನರಾ ಬ್ಯಾಂಕ್",
        "brand:pa": "ਕੇਨਰਾ ਬੈਂਕ",
        "brand:pnb": "کینرا بینک",
        "brand:ur": "کینرا بینک",
        "brand:wikidata": "Q2003777",
        "name": "Canara Bank",
        "name:en": "Canara Bank",
        "name:hi": "केनरा बैंक",
        "name:kn": "ಕೆನರಾ ಬ್ಯಾಂಕ್",
        "name:pa": "ਕੇਨਰਾ ਬੈਂਕ",
        "name:pnb": "کینرا بینک",
        "name:ur": "کینرا بینک",
        "operator": "Canara Bank",
        "operator:wikidata": "Q2003777"
      }
    },
    {
      "type": "node",
      "id": 2387041347,
      "lat": 12.9422696,
      "lon": 77.6253883,
      "tags": {
        "amenity": "atm",
        "brand": "State Bank of India",
        "brand:wikidata": "Q1340361",
        "name": "State Bank of India",
        "operator": "State Bank of India",
        "operator:wikidata": "Q1340361",
        "short_name": "SBI"
      }
    },
    {
      "type": "node",
      "id": 3016052466,
      "lat": 12.9386176,
      "lon": 77.6288681,
      "tags": {
        "addr:city": "Bangalore",
        "addr:postcode": "560047",
        "addr:street": "Inner Ring Road",
        "name": "Mark & Spencer",
        "organic": "yes",
        "shop": "supermarket",
        "website": "https://www.marksandspencer.com/"
      }
    },
    {
      "type": "node",
      "id": 3389796914,
      "lat": 12.9466123,
      "lon": 77.6218766,
      "tags": {
        "amenity": "atm",
        "brand": "Syndicate Bank",
        "brand:wikidata": "Q2004088",
        "name": "Syndicate Bank",
        "name:kn": "ಸಿಂಡಿಕೇಟ್ ಬ್ಯಾಂಕ್",
        "operator": "Syndicate Bank",
        "operator:wikidata": "Q2004088"
      }
    },
    {
      "type": "node",
      "id": 3389796915,
      "lat": 12.9460379,
      "lon": 77.6221481,
      "tags": {
        "name": "Nandini Milk Parlour",
        "name:kn": "ನಂದಿನಿ ಹಾಲಿನ ಅಂಗಡಿ",
        "shop": "dairy"
      }
    },
    {
      "type": "node",
      "id": 3389796916,
      "lat": 12.9440649,
      "lon": 77.624007,
      "tags": {
        "name": "Nandini Milk Parlour",
        "name:kn": "ನಂದಿನಿ ಹಾಲಿನ ಅಂಗಡಿ",
        "shop": "dairy"
      }
    },
    {
      "type": "node",
      "id": 3450179286,
      "lat": 12.9449588,
      "lon": 77.6246107,
      "tags": {
        "amenity": "bench"
      }
    },
    {
      "type": "node",
      "id": 3450179288,
      "lat": 12.9455895,
      "lon": 77.623801,
      "tags": {
        "leisure": "playground"
      }
    },
    {
      "type": "node",
      "id": 3450179289,
      "lat": 12.9450044,
      "lon": 77.6244659,
      "tags": {
        "leisure": "playground"
      }
    },
    {
      "type": "node",
      "id": 3450179290,
      "lat": 12.9452269,
      "lon": 77.6245846,
      "tags": {
        "amenity": "bench"
      }
    },
    {
      "type": "node",
      "id": 3450179292,
      "lat": 12.9447767,
      "lon": 77.624409,
      "tags": {
        "amenity": "bench"
      }
    },
    {
      "type": "node",
      "id": 3450233794,
      "lat": 12.9451192,
      "lon": 77.6245441,
      "tags": {
        "amenity": "bench"
      }
    },
    {
      "type": "node",
      "id": 3450233796,
      "lat": 12.9436693,
      "lon": 77.62521,
      "tags": {
        "shop": "convenience"
      }
    },
    {
      "type": "node",
      "id": 3450233797,
      "lat": 12.9460107,
      "lon": 77.6236793,
      "tags": {
        "amenity": "bench"
      }
    },
    {
      "type": "node",
      "id": 3450233799,
      "lat": 12.9450495,
      "lon": 77.6246043,
      "tags": {
        "amenity": "bench"
      }
    },
    {
      "type": "node",
      "id": 3450233800,
      "lat": 12.9440787,
      "lon": 77.6247551,
      "tags": {
        "name": "Nami Designer",
        "shop": "clothes"
      }
    },
    {
      "type": "node",
      "id": 3450233801,
      "lat": 12.945912,
      "lon": 77.6235334,
      "tags": {
        "amenity": "bench"
      }
    },
    {
      "type": "node",
      "id": 3450233804,
      "lat": 12.9440393,
      "lon": 77.6257271,
      "tags": {
        "name": "The Bangalore A1",
        "shop": "dry_cleaning"
      }
    },
    {
      "type": "node",
      "id": 3450233805,
      "lat": 12.9446683,
      "lon": 77.6245223,
      "tags": {
        "amenity": "bench"
      }
    },
    {
      "type": "node",
      "id": 3450276060,
      "lat": 12.9440468,
      "lon": 77.6253568,
      "tags": {
        "amenity": "bench"
      }
    },
    {
      "type": "node",
      "id": 3450276061,
      "lat": 12.9447492,
      "lon": 77.6244929,
      "tags": {
        "name": "Sri Adhi Lakshmi",
        "shop": "general"
      }
    },
    {
      "type": "node",
      "id": 3450276065,
      "lat": 12.943929,
      "lon": 77.6254021,
      "tags": {
        "amenity": "bench"
      }
    },
    {
      "type": "node",
      "id": 3450276070,
      "lat": 12.9440208,
      "lon": 77.6254787,
      "tags": {
        "amenity": "bench"
      }
    },
    {
      "type": "node",
      "id": 3450276072,
      "lat": 12.9450817,
      "lon": 77.6242547,
      "tags": {
        "name": "Sri Adhi Lakshmi",
        "shop": "stationery"
      }
    },
    {
      "type": "node",
      "id": 3450276077,
      "lat": 12.9441697,
      "lon": 77.6253844,
      "tags": {
        "amenity": "bench"
      }
    },
    {
      "type": "node",
      "id": 3450276078,
      "lat": 12.9451326,
      "lon": 77.6242163,
      "tags": {
        "name": "Bhunaa's",
        "shop": "beauty"
      }
    },
    {
      "type": "node",
      "id": 3450276080,
      "lat": 12.9423718,
      "lon": 77.6251542,
      "tags": {
        "amenity": "atm",
        "brand": "State Bank of India",
        "brand:wikidata": "Q1340361",
        "name": "State Bank of India",
        "operator": "State Bank of India",
        "operator:wikidata": "Q1340361",
        "short_name": "SBI"
      }
    },
    {
      "type": "node",
      "id": 3450286671,
      "lat": 12.9453933,
      "lon": 77.6229542,
      "tags": {
        "amenity": "bench"
      }
    },
    {
      "type": "node",
      "id": 3450286672,
      "lat": 12.9449444,
      "lon": 77.6232623,
      "tags": {
        "amenity": "bench"
      }
    },
    {
      "type": "node",
      "id": 3450286673,
      "lat": 12.944377,
      "lon": 77.6237053,
      "tags": {
        "amenity": "bench"
      }
    },
    {
      "type": "node",
      "id": 3450286674,
      "lat": 12.9480125,
      "lon": 77.621251,
      "tags": {
        "amenity": "bench"
      }
    },
    {
      "type": "node",
      "id": 3450286675,
      "lat": 12.9474183,
      "lon": 77.6216118,
      "tags": {
        "amenity": "bench"
      }
    },
    {
      "type": "node",
      "id": 3450286676,
      "lat": 12.9468063,
      "lon": 77.622023,
      "tags": {
        "amenity": "bench"
      }
    },
    {
      "type": "node",
      "id": 3450286677,
      "lat": 12.9464615,
      "lon": 77.6222478,
      "tags": {
        "amenity": "bench"
      }
    },
    {
      "type": "node",
      "id": 3450286681,
      "lat": 12.947312,
      "lon": 77.6216728,
      "tags": {
        "amenity": "bench"
      }
    },
    {
      "type": "node",
      "id": 3450286682,
      "lat": 12.9467687,
      "lon": 77.6220638,
      "tags": {
        "amenity": "bench"
      }
    },
    {
      "type": "node",
      "id": 3450286684,
      "lat": 12.9464124,
      "lon": 77.6223041,
      "tags": {
        "amenity": "bench"
      }
    },
    {
      "type": "node",
      "id": 3450286686,
      "lat": 12.9447953,
      "lon": 77.6233916,
      "tags": {
        "amenity": "bench"
      }
    },
    {
      "type": "node",
      "id": 3450286687,
      "lat": 12.9477655,
      "lon": 77.6213842,
      "tags": {
        "amenity": "bench"
      }
    },
    {
      "type": "node",
      "id": 3450286688,
      "lat": 12.9471143,
      "lon": 77.6218054,
      "tags": {
        "amenity": "bench"
      }
    },
    {
      "type": "node",
      "id": 3450286689,
      "lat": 12.9463692,
      "lon": 77.6223473,
      "tags": {
        "amenity": "bench"
      }
    },
    {
      "type": "node",
      "id": 3450286690,
      "lat": 12.945852,
      "lon": 77.6226364,
      "tags": {
        "amenity": "bench"
      }
    },
    {
      "type": "node",
      "id": 3450286691,
      "lat": 12.945289,
      "lon": 77.6230595,
      "tags": {
        "amenity": "bench"
      }
    },
    {
      "type": "node",
      "id": 3450286692,
      "lat": 12.9476818,
      "lon": 77.6214516,
      "tags": {
        "amenity": "bench"
      }
    },
    {
      "type": "node",
      "id": 3450287293,
      "lat": 12.9467225,
      "lon": 77.6220925,
      "tags": {
        "amenity": "bench"
      }
    },
    {
      "type": "node",
      "id": 3450287294,
      "lat": 12.9464949,
      "lon": 77.622215,
      "tags": {
        "amenity": "bench"
      }
    },
    {
      "type": "node",
      "id": 3450287295,
      "lat": 12.9461799,
      "lon": 77.6224732,
      "tags": {
        "amenity": "bench"
      }
    },
    {
      "type": "node",
      "id": 3450287296,
      "lat": 12.9457608,
      "lon": 77.6226909,
      "tags": {
        "amenity": "bench"
      }
    },
    {
      "type": "node",
      "id": 3450287297,
      "lat": 12.9445205,
      "lon": 77.6236082,
      "tags": {
        "amenity": "bench"
      }
    },
    {
      "type": "node",
      "id": 3450287298,
      "lat": 12.9481111,
      "lon": 77.6211966,
      "tags": {
        "amenity": "bench"
      }
    },
    {
      "type": "node",
      "id": 3450287299,
      "lat": 12.9470767,
      "lon": 77.6218374,
      "tags": {
        "amenity": "bench"
      }
    },
    {
      "type": "node",
      "id": 3450287300,
      "lat": 12.9466763,
      "lon": 77.6221421,
      "tags": {
        "amenity": "bench"
      }
    },
    {
      "type": "node",
      "id": 3450287301,
      "lat": 12.9460638,
      "lon": 77.6225918,
      "tags": {
        "amenity": "bench"
      }
    },
    {
      "type": "node",
      "id": 3450290054,
      "lat": 12.9465594,
      "lon": 77.6219261,
      "tags": {
        "amenity": "bench"
      }
    },
    {
      "type": "node",
      "id": 3450290055,
      "lat": 12.9477895,
      "lon": 77.6211508,
      "tags": {
        "amenity": "bench"
      }
    },
    {
      "type": "node",
      "id": 3450290056,
      "lat": 12.9462885,
      "lon": 77.6221055,
      "tags": {
        "amenity": "bench"
      }
    },
    {
      "type": "node",
      "id": 3450290058,
      "lat": 12.9475234,
      "lon": 77.6212831,
      "tags": {
        "amenity": "bench"
      }
    },
    {
      "type": "node",
      "id": 3450290059,
      "lat": 12.9478548,
      "lon": 77.6211068,
      "tags": {
        "amenity": "bench"
      }
    },
    {
      "type": "node",
      "id": 3450290060,
      "lat": 12.9463265,
      "lon": 77.6220929,
      "tags": {
        "amenity": "bench"
      }
    },
    {
      "type": "node",
      "id": 3450290061,
      "lat": 12.9464862,
      "lon": 77.621982,
      "tags": {
        "amenity": "bench"
      }
    },
    {
      "type": "node",
      "id": 3450290062,
      "lat": 12.9465885,
      "lon": 77.6219053,
      "tags": {
        "amenity": "bench"
      }
    },
    {
      "type": "node",
      "id": 3450290063,
      "lat": 12.9475731,
      "lon": 77.621237,
      "tags": {
        "amenity": "bench"
      }
    },
    {
      "type": "node",
      "id": 3450290064,
      "lat": 12.946356,
      "lon": 77.622072,
      "tags": {
        "amenity": "bench"
      }
    },
    {
      "type": "node",
      "id": 3450290066,
      "lat": 12.9479321,
      "lon": 77.6209283,
      "tags": {
        "leisure": "playground"
      }
    },
    {
      "type": "node",
      "id": 3450290067,
      "lat": 12.9462373,
      "lon": 77.6221382,
      "tags": {
        "amenity": "bench"
      }
    },
    {
      "type": "node",
      "id": 3450290068,
      "lat": 12.9465119,
      "lon": 77.6219601,
      "tags": {
        "amenity": "bench"
      }
    },
    {
      "type": "node",
      "id": 3450290071,
      "lat": 12.9463859,
      "lon": 77.6220465,
      "tags": {
        "amenity": "bench"
      }
    },
    {
      "type": "node",
      "id": 3450296713,
      "lat": 12.9450983,
      "lon": 77.6227822,
      "tags": {
        "leisure": "playground"
      }
    },
    {
      "type": "node",
      "id": 3463769188,
      "lat": 12.9419581,
      "lon": 77.6227858,
      "tags": {
        "amenity": "school",
        "name": "Eye Level Learning Center"
      }
    },
    {
      "type": "node",
      "id": 3463769191,
      "lat": 12.9404424,
      "lon": 77.6217797,
      "tags": {
        "leisure": "hackerspace",
        "name": "BHive"
      }
    },
    {
      "type": "node",
      "id": 3463769192,
      "lat": 12.9420247,
      "lon": 77.6227252,
      "tags": {
        "amenity": "dentist",
        "healthcare": "dentist",
        "name": "Sculptura Aesthetic Centre"
      }
    },
    {
      "type": "node",
      "id": 3473325936,
      "lat": 12.9482932,
      "lon": 77.6213652,
      "tags": {
        "addr:city": "Bangalore",
        "addr:housenumber": "Ganga Block",
        "addr:postcode": "560047",
        "addr:street": "National Games Village",
        "name": "SLV Stores",
        "shop": "supermarket"
      }
    },
    {
      "type": "node",
      "id": 3510015824,
      "lat": 12.9417768,
      "lon": 77.6215095,
      "tags": {
        "addr:city": "Koramangala",
        "addr:housenumber": "Ganapathi Temple Rd",
        "addr:postcode": "560095",
        "addr:street": "Koramangala 8th Block, Nanjappa Reddy Layout,",
        "amenity": "cafe",
        "cuisine": "coffee_shop",
        "internet_access": "yes",
        "name": "Juice Maker",
        "opening_hours": "08:00-23:00",
        "smoking": "outside"
      }
    },
    {
      "type": "node",
      "id": 3801706348,
      "lat": 12.937762,
      "lon": 77.6271125,
      "tags": {
        "amenity": "restaurant",
        "craft": "brewery",
        "level": "3;2",
        "name": "Ichin Restaurant"
      }
    },
    {
      "type": "node",
      "id": 4023499153,
      "lat": 12.9477974,
      "lon": 77.6259438,
      "tags": {
        "addr:housenumber": "6",
        "addr:street": "13th cross, R.A. Road, Ejipura",
        "amenity": "studio",
        "description": "Studio",
        "name": "Musical Cubicle",
        "opening_hours": "Tu-Su 10:00-22:00",
        "phone": "+919900701921"
      }
    },
    {
      "type": "node",
      "id": 4061141085,
      "lat": 12.9449935,
      "lon": 77.6288015,
      "tags": {
        "amenity": "place_of_worship",
        "denomination": "vaishnavism",
        "name": "Sriram Temple",
        "name:kn": "ಶ್ರೀರಾಮ್ ದೇಚಸ್ಥಾನ",
        "religion": "hindu"
      }
    },
    {
      "type": "node",
      "id": 4062937541,
      "lat": 12.9448035,
      "lon": 77.6289262,
      "tags": {
        "name": "Manju Electricals",
        "name:kn": "ಮಂಜು ಎಲ್ಕಟ್ರಿಕಲ್ಸ್",
        "opening_hours": "09:30-13:30,14:30-21:00",
        "shop": "electronics",
        "wheelchair": "no"
      }
    },
    {
      "type": "node",
      "id": 4062937542,
      "lat": 12.9446297,
      "lon": 77.6289275,
      "tags": {
        "amenity": "atm",
        "brand": "Axis Bank",
        "brand:wikidata": "Q2003549",
        "name": "Axis Bank",
        "opening_hours": "24/7",
        "operator": "Axis Bank",
        "operator:wikidata": "Q2003549",
        "wheelchair": "no"
      }
    },
    {
      "type": "node",
      "id": 4062937543,
      "lat": 12.9446671,
      "lon": 77.6289233,
      "tags": {
        "opening_hours": "09:30-13:30,14:30-21:00",
        "recharge": "yes",
        "shop": "mobile_phone",
        "wheelchair": "no"
      }
    },
    {
      "type": "node",
      "id": 4062937544,
      "lat": 12.9447067,
      "lon": 77.6289232,
      "tags": {
        "opening_hours": "09:30-13:30,14:30-21:00",
        "shop": "jewelry"
      }
    },
    {
      "type": "node",
      "id": 4062937545,
      "lat": 12.9447632,
      "lon": 77.6289263,
      "tags": {
        "amenity": "dentist",
        "wheelchair": "no"
      }
    },
    {
      "type": "node",
      "id": 4062937546,
      "lat": 12.9448343,
      "lon": 77.6289279,
      "tags": {
        "opening_hours": "09:30-13:30,14:30-21:00",
        "shop": "clothes",
        "wheelchair": "no"
      }
    },
    {
      "type": "node",
      "id": 4062942991,
      "lat": 12.9444948,
      "lon": 77.6297409,
      "tags": {
        "amenity": "waste_disposal"
      }
    },
    {
      "type": "node",
      "id": 4062957400,
      "lat": 12.9460942,
      "lon": 77.6290815,
      "tags": {
        "name": "Femina Wear",
        "name:kn": "ಫೆಮಿನಾ ವೇರ್",
        "opening_hours": "09:30-13:30,14:30-21:00",
        "shop": "tailor",
        "wheelchair": "no"
      }
    },
    {
      "type": "node",
      "id": 4062957401,
      "lat": 12.9460314,
      "lon": 77.629121,
      "tags": {
        "motorcycle:repair": "yes",
        "name": "Om Sri Vinayaka Garriage",
        "name:kn": "ಓಂ ಶ್ರೀ ವಿನಾಯಕ ಗ್ಯಾರೇಜ್",
        "shop": "motorcycle"
      }
    },
    {
      "type": "node",
      "id": 4062957410,
      "lat": 12.9456961,
      "lon": 77.6293342,
      "tags": {
        "shop": "trade",
        "trade": "timber"
      }
    },
    {
      "type": "node",
      "id": 4062971147,
      "lat": 12.9461707,
      "lon": 77.6289442,
      "tags": {
        "name": "Balaji Xerox Shop",
        "name:kn": "ಬಾಲಾಜಿ ಜೆರಾಕ್ಸ",
        "opening_hours": "09:30-13:30,14:30-21:00",
        "shop": "copyshop",
        "wheelchair": "no"
      }
    },
    {
      "type": "node",
      "id": 4062971148,
      "lat": 12.9462204,
      "lon": 77.6289455,
      "tags": {
        "name": "JJ Footwear",
        "name:kn": "ಜೆ ಜೆ ಫುಟ್‌ವೇರ್",
        "opening_hours": "09:30-13:30,14:30-21:00",
        "second_hand": "no",
        "shop": "shoes",
        "wheelchair": "no"
      }
    },
    {
      "type": "node",
      "id": 4062971149,
      "lat": 12.9461899,
      "lon": 77.6289433,
      "tags": {
        "name": "Jai Maa Provision Store",
        "name:kn": "ಜೈ ಮಾ ಪ್ರಾವಿಜನ್ ಅಂಗಡಿ",
        "opening_hours": "09:30-13:30,14:30-21:00",
        "shop": "variety_store",
        "wheelchair": "no"
      }
    },
    {
      "type": "node",
      "id": 4062971150,
      "lat": 12.9462863,
      "lon": 77.6289431,
      "tags": {
        "name": "Soundarya Tailor Shop",
        "name:kn": "ಸೌಂದರ್ಯ ಟೇಲರ್ಸ್",
        "opening_hours": "09:30-13:30,14:30-21:00",
        "shop": "tailor",
        "wheelchair": "no"
      }
    },
    {
      "type": "node",
      "id": 4062971151,
      "lat": 12.9462056,
      "lon": 77.6289433,
      "tags": {
        "opening_hours": "09:30-13:30,14:30-21:00",
        "shop": "greengrocer",
        "wheelchair": "no"
      }
    },
    {
      "type": "node",
      "id": 4062971152,
      "lat": 12.9462353,
      "lon": 77.6289433,
      "tags": {
        "opening_hours": "09:30-13:30,14:30-21:00",
        "shop": "boutique",
        "wheelchair": "no"
      }
    },
    {
      "type": "node",
      "id": 4062971153,
      "lat": 12.9462475,
      "lon": 77.6289419,
      "tags": {
        "shop": "flour_mill"
      }
    },
    {
      "type": "node",
      "id": 4062971154,
      "lat": 12.946264,
      "lon": 77.6289449,
      "tags": {
        "opening_hours": "09:30-13:30,14:30-21:00",
        "shop": "greengrocer",
        "wheelchair": "no"
      }
    },
    {
      "type": "node",
      "id": 4063552235,
      "lat": 12.9460433,
      "lon": 77.6289502,
      "tags": {
        "name": "Chippu's Juice and Bakery",
        "name:kn": "ಚಿಪ್ಪುಸ್ ಜ್ಯೂಸ್ ಮತ್ತು ಬೇಕರಿ",
        "opening_hours": "09:30-13:30,14:30-21:00",
        "shop": "beverages",
        "wheelchair": "no"
      }
    },
    {
      "type": "node",
      "id": 4063552236,
      "lat": 12.9459822,
      "lon": 77.6289502,
      "tags": {
        "amenity": "fast_food",
        "name": "Royal Fast Food",
        "name:kn": "ರಾಯಲ್ ಫಾಸ್ಟ್ ಫುಡ್"
      }
    },
    {
      "type": "node",
      "id": 4063552238,
      "lat": 12.9461467,
      "lon": 77.6289446,
      "tags": {
        "opening_hours": "09:30-13:30,14:30-21:00",
        "shop": "convenience",
        "wheelchair": "no"
      }
    },
    {
      "type": "node",
      "id": 4063559074,
      "lat": 12.945821,
      "lon": 77.6289508,
      "tags": {
        "name": "Ashok Textiles",
        "name:kn": "ಅಶೋಕ್ ಬಟ್ಟೆ ಅಂಗಡಿ",
        "opening_hours": "09:30-13:30,14:30-21:00",
        "second_hand": "no",
        "shop": "clothes",
        "wheelchair": "no"
      }
    },
    {
      "type": "node",
      "id": 4063559075,
      "lat": 12.9453451,
      "lon": 77.6289362,
      "tags": {
        "name": "Balaji Electricals",
        "name:kn": "ಬಾಲಾಜಿ ಎಲಕ್ಟ್ರಿಕಲ್ಸ್",
        "opening_hours": "09:30-13:30,14:30-21:00",
        "shop": "electronics",
        "wheelchair": "no"
      }
    },
    {
      "type": "node",
      "id": 4063559076,
      "lat": 12.9453821,
      "lon": 77.6289419,
      "tags": {
        "amenity": "fast_food",
        "cuisine": "chinese",
        "internet_access": "no",
        "name": "Bob's Chinese Fast Food",
        "name:kn": "ಬಾಬ್ಸ್ ಚೈನೀಸ್ ಸೆಂಟರ್",
        "opening_hours": "09:30-13:30,14:30-21:00",
        "takeaway": "yes",
        "wheelchair": "no"
      }
    },
    {
      "type": "node",
      "id": 4063559077,
      "lat": 12.9457828,
      "lon": 77.6289521,
      "tags": {
        "name": "Hari Jewelers",
        "name:kn": "ಹರಿ ಚಿನ್ನದಂಗಡಿ",
        "shop": "jewelry"
      }
    },
    {
      "type": "node",
      "id": 4063559078,
      "lat": 12.9452772,
      "lon": 77.6289318,
      "tags": {
        "name": "Kanthi Enterprises",
        "name:kn": "ಕಾಂತಿ ಎಂಟರ್‌ಪ್ರೈಸಸ್",
        "operator": "Hathway Internet",
        "shop": "yes",
        "type": "Internet Service Provider"
      }
    },
    {
      "type": "node",
      "id": 4063559079,
      "lat": 12.9455056,
      "lon": 77.6289457,
      "tags": {
        "name": "M Srinivas Electricals",
        "name:kn": "ಎಂ ಶ್ರೀನಿವಾಸ ಎಲಕ್ಟ್ರಿಕಲ್ಸ್",
        "opening_hours": "09:30-13:30,14:30-21:00",
        "shop": "electronics",
        "wheelchair": "no"
      }
    },
    {
      "type": "node",
      "id": 4063559080,
      "lat": 12.9455852,
      "lon": 77.6289464,
      "tags": {
        "name": "Sapna Mobiles",
        "name:kn": "ಸಪ್ನ ಮೊಬೈಲ್ಸ್",
        "opening_hours": "09:30-13:30,14:30-21:00",
        "recharge": "yes",
        "shop": "mobile_phone",
        "wheelchair": "no"
      }
    },
    {
      "type": "node",
      "id": 4063559081,
      "lat": 12.9454537,
      "lon": 77.6289432,
      "tags": {
        "name": "Sri Venkataeshwara Saloon",
        "name:kn": "ಶ್ರೀ ವೆಂಕಟೇಶ್ವರ ಸಲೂನ್",
        "opening_hours": "09:30-13:30,14:30-21:00",
        "shop": "hairdresser",
        "wheelchair": "no"
      }
    },
    {
      "type": "node",
      "id": 4063559082,
      "lat": 12.9456667,
      "lon": 77.6289508,
      "tags": {
        "name": "Style Hairdresses",
        "name:kn": "ಸ್ಟೈಲ್ ಹೇರ್ ಡ್ರೆಸಸ್",
        "opening_hours": "09:30-13:30,14:30-21:00",
        "shop": "hairdresser",
        "wheelchair": "no"
      }
    },
    {
      "type": "node",
      "id": 4063559083,
      "lat": 12.9455457,
      "lon": 77.6289451,
      "tags": {
        "name": "TMS Provision Stores",
        "name:kn": "ಟಿಎಂಎಸ್ ಕಿರಾಣಿ ಅಂಗಡಿ",
        "opening_hours": "09:30-13:30,14:30-21:00",
        "shop": "convenience",
        "wheelchair": "no"
      }
    },
    {
      "type": "node",
      "id": 4063559086,
      "lat": 12.945892,
      "lon": 77.6289533,
      "tags": {
        "shop": "medical_supply",
        "wheelchair": "no"
      }
    },
    {
      "type": "node",
      "id": 4063568039,
      "lat": 12.945121,
      "lon": 77.6289356,
      "tags": {
        "name": "Fashion Point Cloth Store",
        "name:kn": "ಫ್ಯಾಷನ್ ಪಾಯಿಂಟ್ ಬಟ್ಟೆ ಅಂಗಡಿ",
        "opening_hours": "09:30-13:30,14:30-21:00",
        "second_hand": "no",
        "shop": "clothes",
        "wheelchair": "no"
      }
    },
    {
      "type": "node",
      "id": 4063568040,
      "lat": 12.9450827,
      "lon": 77.6289375,
      "tags": {
        "name": "Fresh Bakery Cake",
        "name:kn": "ಫ್ರೆಷ್ ಬೇಕರಿ ಕೇಕ್",
        "opening_hours": "09:30-13:30,14:30-21:00",
        "shop": "bakery",
        "wheelchair": "no"
      }
    },
    {
      "type": "node",
      "id": 4063568041,
      "lat": 12.9449308,
      "lon": 77.6289299,
      "tags": {
        "name": "Karnataka Stores",
        "name:kn": "ಕರ್ನಾಟಕ ಸ್ಟೋರ್ಸ್",
        "opening_hours": "09:30-13:30,14:30-21:00",
        "shop": "greengrocer",
        "wheelchair": "no"
      }
    },
    {
      "type": "node",
      "id": 4063568042,
      "lat": 12.9451981,
      "lon": 77.6289343,
      "tags": {
        "name": "New Hindustan Furnitures",
        "name:kn": "ನ್ಊ ಹಿಂದೂಸ್ಥಾನ್ ಫರ್ನಿಚರ್ಸ್",
        "opening_hours": "09:30-13:30,14:30-21:00",
        "shop": "furniture",
        "wheelchair": "no"
      }
    },
    {
      "type": "node",
      "id": 4063568043,
      "lat": 12.9451555,
      "lon": 77.6289394,
      "tags": {
        "name": "Public Distribution Shop",
        "name:kn": "ನ್ಯಾಯ ಬೆಲೆ ಅಂಗಡಿ",
        "opening_hours": "Mo-Fr 08:30-20:00; Sa,Su 08:00-15:00; PH off",
        "shop": "convenience",
        "wheelchair": "no"
      }
    },
    {
      "type": "node",
      "id": 4063568044,
      "lat": 12.944858,
      "lon": 77.6289267,
      "tags": {
        "name": "SMR Star Garriage",
        "name:kn": "ಎಸ್ಎಂಆರ್ ಸ್ಟಾರ್ ಗ್ಯಾರೇಜ್",
        "shop": "motorcycle_repair"
      }
    },
    {
      "type": "node",
      "id": 4063568045,
      "lat": 12.9452383,
      "lon": 77.6289337,
      "tags": {
        "name": "Sairam Xerox",
        "name:kn": "ಸಾಯಿರಾಮ್ ಜೆರಾಕ್ಸ್",
        "opening_hours": "09:30-13:30,14:30-21:00",
        "shop": "copyshop",
        "wheelchair": "no"
      }
    },
    {
      "type": "node",
      "id": 4063568046,
      "lat": 12.9449987,
      "lon": 77.6289375,
      "tags": {
        "name": "Santosh Paan Shop",
        "name:kn": "ಸಂತೋಷ್ ಪಾನ್ ಅಂಗಡಿ",
        "opening_hours": "09:30-13:30,14:30-21:00",
        "shop": "confectionery",
        "wheelchair": "no"
      }
    },
    {
      "type": "node",
      "id": 4063568047,
      "lat": 12.9449012,
      "lon": 77.6289255,
      "tags": {
        "name": "Tea Shop",
        "name:kn": "ಟೀ ಅಂಗಡಿ",
        "opening_hours": "09:30-13:30,14:30-21:00",
        "shop": "beverages",
        "wheelchair": "no"
      }
    },
    {
      "type": "node",
      "id": 4063568048,
      "lat": 12.9449679,
      "lon": 77.628935,
      "tags": {
        "amenity": "recycling",
        "recycling:paper": "yes",
        "recycling_type": "centre"
      }
    },
    {
      "type": "node",
      "id": 4063568050,
      "lat": 12.9450345,
      "lon": 77.6289388,
      "tags": {
        "amenity": "atm",
        "brand": "Karur Vysya Bank",
        "brand:wikidata": "Q6373724",
        "name": "Karur Vysya Bank",
        "name:kn": "ಕರೂರು ವೈಶ್ಯ ಬ್ಯಾಂಕ್",
        "opening_hours": "24/7",
        "operator": "Karur Vysya Bank",
        "operator:wikidata": "Q6373724",
        "wheelchair": "no"
      }
    },
    {
      "type": "node",
      "id": 4191956493,
      "lat": 12.9416121,
      "lon": 77.6172504,
      "tags": {
        "amenity": "atm",
        "opening_hours": "24/7"
      }
    },
    {
      "type": "node",
      "id": 4191976704,
      "lat": 12.9411724,
      "lon": 77.6172571,
      "tags": {
        "amenity": "fast_food",
        "cuisine": "indian;south_indian",
        "name": "Ksheera Sagar",
        "takeaway": "yes"
      }
    },
    {
      "type": "node",
      "id": 4191976705,
      "lat": 12.940484,
      "lon": 77.6183624,
      "tags": {
        "amenity": "atm"
      }
    },
    {
      "type": "node",
      "id": 4192020689,
      "lat": 12.9414316,
      "lon": 77.6174359,
      "tags": {
        "amenity": "atm",
        "opening_hours": "24/7"
      }
    },
    {
      "type": "node",
      "id": 4446872947,
      "lat": 12.9422807,
      "lon": 77.6208282,
      "tags": {
        "addr:city": "bangalore",
        "addr:housenumber": "727",
        "addr:postcode": "560095",
        "addr:street": ", 8th Block, 1st Main, Opposite Shiva Theater, 2nd C Cross Rd, Koramangala 8th Block, Koramangala",
        "amenity": "clinic",
        "healthcare": "clinic",
        "name": "Shradha Nursing Home",
        "phone": "080 2290 3660"
      }
    },
    {
      "type": "node",
      "id": 4447013605,
      "lat": 12.9398696,
      "lon": 77.6257338,
      "tags": {
        "addr:city": "bangalore",
        "addr:housenumber": "914",
        "addr:postcode": "560095",
        "addr:street": "Venkateshwara Complex, 80 Feet Main Road, 6th Block, Venkappa Garden, Koramangala, Venkappa Garden, Ejipura",
        "amenity": "pharmacy",
        "healthcare": "pharmacy",
        "name": "Diabetacare",
        "phone": "+9180679 19191",
        "source": "justdial",
        "website": "https://diabetacare.com/"
      }
    },
    {
      "type": "node",
      "id": 4447017356,
      "lat": 12.937327,
      "lon": 77.6240168,
      "tags": {
        "addr:city": "Bangalore",
        "addr:housenumber": "668/A",
        "addr:postcode": "560034",
        "addr:street": "17th C main, 6th Block, Near Koramangala Club, Koramangala, 6th Block, Koramangala",
        "amenity": "clinic",
        "brand": "Apollo Diagnostics",
        "brand:wikidata": "Q134885714",
        "healthcare": "laboratory",
        "name": "Apollo Diagnostics",
        "phone": "+9180 4162 4433",
        "source": "justdial",
        "website": "https://apollowhitedental.com/"
      }
    },
    {
      "type": "node",
      "id": 4447082865,
      "lat": 12.9495697,
      "lon": 77.6182599,
      "tags": {
        "addr:city": "bangalore",
        "addr:housenumber": "999",
        "addr:postcode": "560034",
        "addr:street": "80 Feet Road, Koramangala 1st Block, HSR Layout",
        "amenity": "pharmacy",
        "name": "Sri Balaji Medicals",
        "phone": "+9180 2552 9317",
        "source": "justdial"
      }
    },
    {
      "type": "node",
      "id": 4466385493,
      "lat": 12.9438501,
      "lon": 77.6189683,
      "tags": {
        "addr:housenumber": "67",
        "addr:postcode": "560095",
        "addr:street": "2 D Main",
        "amenity": "post_office",
        "email": "shintojoseph55@gmail.com",
        "internet_access": "wlan",
        "name": "Koramangala",
        "name:hi": "Koramangala",
        "name:kn": "ಕೋರಮಂಗಲ",
        "opening_hours": "24/7",
        "operator": "Herbalife products",
        "phone": "9663727834"
      }
    },
    {
      "type": "node",
      "id": 4487961417,
      "lat": 12.9452356,
      "lon": 77.6184676,
      "tags": {
        "addr:city": "bangalore",
        "addr:postcode": "560068",
        "addr:street": "ICICI Lombard General Insurance Madivala Bangalore, 2nd Floor, S V R Complex 89, Hosur Main Road,, Madiwala, 1st Stage, Koramangala",
        "brand": "Puma",
        "brand:wikidata": "Q157064",
        "name": "Puma",
        "phone": "+9194003 77812",
        "shop": "clothes"
      }
    },
    {
      "type": "node",
      "id": 4489773833,
      "lat": 12.9384867,
      "lon": 77.6235272,
      "tags": {
        "addr:city": "Bangalore",
        "addr:housenumber": "no 112",
        "addr:postcode": "560095",
        "addr:street": "kathalipalya village ,Ejipura Dhekale ,6th cross 6th, block,Koramangala",
        "name": "Ocean salon & spa",
        "opening_hours": "11:00-21:30",
        "phone": "080-41232838",
        "shop": "beauty"
      }
    },
    {
      "type": "node",
      "id": 4489788239,
      "lat": 12.9418541,
      "lon": 77.6256581,
      "tags": {
        "addr:street": "Builders Ngv Club, Koramangala 6th block, 6th Block, Koramangala,",
        "leisure": "sports_centre",
        "name": "Fitness Cafe",
        "opening_hours": "5:00-22:00",
        "phone": "9611578950",
        "sport": "gymnasium",
        "website": "https://www.fitnesscafe.in/"
      }
    },
    {
      "type": "node",
      "id": 4489864991,
      "lat": 12.9406759,
      "lon": 77.6245,
      "tags": {
        "addr:city": "Bangalore",
        "addr:housenumber": "1st Floor,# 470, 80 Feet Road Koramangala",
        "addr:postcode": "560095",
        "addr:street": "6th Block, Opp Koramangala Bus Depot,Koramangala, 6th Block",
        "name": "STUDIO11 Salon & Spa",
        "opening_hours": "09:00-21:00",
        "phone": "078158 98038",
        "shop": "beauty",
        "website": "https://www.studio11.co/"
      }
    },
    {
      "type": "node",
      "id": 4489951082,
      "lat": 12.9402498,
      "lon": 77.6176946,
      "tags": {
        "addr:city": "Bengaluru",
        "addr:postcode": "560095",
        "addr:street": "1st B Cross Street, Koramangala 8th Block, Nanjappa Reddy Layout, Koramangala, Koramangala 8th Block, Koramangala, Karnataka",
        "name": "Shobas Herbal Beauty Parlour",
        "opening_hours": "10:00-20:00",
        "phone": "080 2553 6344",
        "shop": "beauty"
      }
    },
    {
      "type": "node",
      "id": 4719908532,
      "lat": 12.9446893,
      "lon": 77.6236964,
      "tags": {
        "leisure": "park"
      }
    },
    {
      "type": "node",
      "id": 4766266155,
      "lat": 12.9378068,
      "lon": 77.6271846,
      "tags": {
        "name": "SOCH",
        "shop": "clothes"
      }
    },
    {
      "type": "node",
      "id": 4766266156,
      "lat": 12.9378414,
      "lon": 77.6272417,
      "tags": {
        "name": "Kushals",
        "shop": "clothes"
      }
    },
    {
      "type": "node",
      "id": 5273078605,
      "lat": 12.9409559,
      "lon": 77.6241477,
      "tags": {
        "amenity": "pub",
        "name": "Jimi's Beer Cafe"
      }
    },
    {
      "type": "node",
      "id": 5773097749,
      "lat": 12.9380609,
      "lon": 77.6275572,
      "tags": {
        "addr:city": "Bangalore",
        "addr:floor": "4",
        "addr:housenumber": "23",
        "addr:place": "Koramangala",
        "addr:postcode": "560095",
        "amenity": "restaurant",
        "contact:phone": "+9187920 00390",
        "name": "Bakasur"
      }
    },
    {
      "type": "node",
      "id": 5773107048,
      "lat": 12.9381482,
      "lon": 77.6276388,
      "tags": {
        "addr:block": "6",
        "addr:city": "Bangalore",
        "addr:floor": "4",
        "addr:place": "Koramangala",
        "addr:postcode": "560034",
        "addr:street": "100 Feet Inner Ring Road",
        "amenity": "bar",
        "contact:phone": "+9187920 00390",
        "name": "Bak Bak Bar"
      }
    },
    {
      "type": "node",
      "id": 5803867127,
      "lat": 12.9499659,
      "lon": 77.6209707,
      "tags": {
        "amenity": "bench",
        "backrest": "yes"
      }
    },
    {
      "type": "node",
      "id": 5803867128,
      "lat": 12.9491329,
      "lon": 77.6213403,
      "tags": {
        "amenity": "bench",
        "backrest": "yes"
      }
    },
    {
      "type": "node",
      "id": 5803867141,
      "lat": 12.9492812,
      "lon": 77.621791,
      "tags": {
        "amenity": "bench"
      }
    },
    {
      "type": "node",
      "id": 5915195097,
      "lat": 12.9418151,
      "lon": 77.6222238,
      "tags": {
        "amenity": "place_of_worship",
        "name": "Sai Sparshan",
        "religion": "hindu"
      }
    },
    {
      "type": "node",
      "id": 5915195099,
      "lat": 12.9407272,
      "lon": 77.6244407,
      "tags": {
        "amenity": "pub",
        "name": "The Local"
      }
    },
    {
      "type": "node",
      "id": 5915195100,
      "lat": 12.9398518,
      "lon": 77.6257018,
      "tags": {
        "leisure": "fitness_centre",
        "name": "Snap Fitness"
      }
    },
    {
      "type": "node",
      "id": 5915195103,
      "lat": 12.9388196,
      "lon": 77.625775,
      "tags": {
        "amenity": "restaurant",
        "diet:vegan": "yes",
        "name": "Carrots",
        "website": "https://www.carrots-india.com/"
      }
    },
    {
      "type": "node",
      "id": 6348847356,
      "lat": 12.9475264,
      "lon": 77.6171647,
      "tags": {
        "addr:place": "Rajendranagar",
        "amenity": "school",
        "isced:level": "2",
        "name": "GUHPS Rajendranagar",
        "name:kn": "ಸರ್ಕಾರಿ ಉರ್ದು ಹಿರಿಯ ಪ್ರಾಥಮಿಕ ಶಾಲೆ ರಾಜೇಂದ್ರನಗರ",
        "operator": "Department of Primary and Secondary Education",
        "operator:type": "government",
        "operator:wikidata": "Q111467381",
        "school": "primary"
      }
    },
    {
      "type": "node",
      "id": 6348868701,
      "lat": 12.94766,
      "lon": 77.6182798,
      "tags": {
        "addr:place": "Koramangala",
        "amenity": "school",
        "isced:level": "2",
        "name": "Koramangala K&T HPS",
        "name:kn": "ಕೋರಮಂಗಲ ಕೆ.ಟಿ ಹಿರಿಯ ಪ್ರಾಥಮಿಕ ಶಾಲೆ",
        "operator": "Department of Primary and Secondary Education",
        "operator:type": "government",
        "operator:wikidata": "Q111467381",
        "school": "primary"
      }
    },
    {
      "type": "node",
      "id": 6348880655,
      "lat": 12.9436634,
      "lon": 77.6189383,
      "tags": {
        "addr:place": "Koramangala",
        "amenity": "school",
        "isced:level": "2",
        "name": "GMPS Koramangala",
        "name:kn": "ಸರ್ಕಾರಿ ಮಾದರಿ ಪ್ರಾಥಮಿಕ ಶಾಲೆ ಕೋರಮಂಗಲ",
        "operator": "Department of Primary and Secondary Education",
        "operator:type": "government",
        "operator:wikidata": "Q111467381",
        "school": "primary"
      }
    },
    {
      "type": "node",
      "id": 6348899089,
      "lat": 12.94917,
      "lon": 77.6188547,
      "tags": {
        "addr:place": "Koramangala",
        "amenity": "school",
        "isced:level": "2",
        "name": "Shivaganga HPS Koramangala",
        "name:kn": "ಶಿವಗಂಗಾ ಹಿರಿಯ ಪ್ರಾಥಮಿಕ ಶಾಲೆ ಕೋರಮಂಗಲ",
        "operator": "Department of Primary and Secondary Education",
        "operator:type": "government",
        "operator:wikidata": "Q111467381",
        "school": "primary"
      }
    },
    {
      "type": "node",
      "id": 6349003902,
      "lat": 12.9447434,
      "lon": 77.6296536,
      "tags": {
        "addr:place": "Eegipura",
        "amenity": "school",
        "isced:level": "2",
        "name": "GHPS Eegipura",
        "name:kn": "ಸರ್ಕಾರಿ ಹಿರಿಯ ಪ್ರಾಥಮಿಕ ಶಾಲೆ ಈಜಿಪುರ",
        "operator": "Department of Primary and Secondary Education",
        "operator:type": "government",
        "operator:wikidata": "Q111467381",
        "school": "primary"
      }
    },
    {
      "type": "node",
      "id": 6420770985,
      "lat": 12.9531262,
      "lon": 77.6204588,
      "tags": {
        "addr:place": "Austin Town",
        "amenity": "school",
        "isced:level": "3",
        "name": "Shanthinikethan HPS Vivekanag, Austin Town W No 71",
        "name:kn": "ಶಾಂತಿನಿಕೇತನ ಹಿರಿಯ ಪ್ರಾಥಮಿಕ ಶಾಲೆ ವಿವೇಕನಗರ, ಆಸ್ಟಿನ್‌ಟೌನ್‌",
        "operator": "Private Un-Aided",
        "school": "Higher Secondary"
      }
    },
    {
      "type": "node",
      "id": 6536296262,
      "lat": 12.9448595,
      "lon": 77.6170535,
      "tags": {
        "addr:place": "Koramangala",
        "amenity": "school",
        "isced:level": "1",
        "name": "GLPS Rajendranagar, Koramangala",
        "name:kn": "ಸರ್ಕಾರಿ ಕಿರಿಯ ಪ್ರಾಥಮಿಕ ಶಾಲೆ ರಾಜೇಂದ್ರನಗರ,ಕೋರಮಂಗಲ",
        "operator": "Department of Primary and Secondary Education",
        "operator:type": "government",
        "operator:wikidata": "Q111467381",
        "school": "primary"
      }
    },
    {
      "type": "node",
      "id": 6536310217,
      "lat": 12.9412382,
      "lon": 77.6187265,
      "tags": {
        "addr:place": "Koramangala",
        "amenity": "school",
        "isced:level": "3",
        "name": "Mes HS, Koramangala",
        "name:kn": "ಎಂ.ಇ.ಎಸ್. ಪ್ರೌಢಶಾಲೆ,ಕೋರಮಂಗಲ",
        "operator": "Private Un-Aided",
        "school": "Higher Secondary"
      }
    },
    {
      "type": "node",
      "id": 6536319890,
      "lat": 12.9515543,
      "lon": 77.6190638,
      "tags": {
        "addr:place": "Koramangala",
        "amenity": "school",
        "isced:level": "3",
        "name": "Sunshine HPS Lr Nagar, Koramangala",
        "name:kn": "ಸನ್ಶೈನ್ ಹಿರಿಯ ಪ್ರಾಥಮಿಕ ಶಾಲೆ ಎಲ್.ಆರ್.ನಗರ, ಕೋರಮಂಗಲ",
        "operator": "Private Un-Aided",
        "school": "Higher Secondary"
      }
    },
    {
      "type": "node",
      "id": 6536327169,
      "lat": 12.9447944,
      "lon": 77.6172545,
      "tags": {
        "addr:place": "Koramangala",
        "amenity": "school",
        "name": "Cephas Memorial Sch Rajendranagra, Koramangala",
        "name:kn": "ಸೆಫಾಸ್ ಸ್ಮಾರಕ ಶಾಲೆ ರಾಜೇಂದ್ರನಗರ, ಕೋರಮಂಗಲ"
      }
    },
    {
      "type": "node",
      "id": 6536955399,
      "lat": 12.9462573,
      "lon": 77.6173121,
      "tags": {
        "addr:place": "Madivala",
        "amenity": "school",
        "isced:level": "2",
        "name": "St. Sara Eng School Madiwala",
        "name:kn": "ಸೆಂಟ್ ಸಾರಾ ಆಂಗ್ಲ ಮಡಿವಾಳ",
        "operator": "Private Un-Aided",
        "school": "Higher Primary"
      }
    },
    {
      "type": "node",
      "id": 6702879198,
      "lat": 12.9417163,
      "lon": 77.6309641,
      "tags": {
        "addr:place": "Eegipura",
        "amenity": "school",
        "isced:level": "3",
        "name": "Modern HPS Eegipura",
        "name:kn": "ಮೊಡರನ್‌ ಹಿರಿಯ ಪ್ರಾಥಮಿಕ ಶಾಲೆ ಈಜಿಪುರ",
        "operator": "Private Un-Aided",
        "school": "Higher Secondary"
      }
    },
    {
      "type": "node",
      "id": 6734571279,
      "lat": 12.9447783,
      "lon": 77.6288038,
      "tags": {
        "addr:place": "Eegipura",
        "amenity": "school",
        "isced:level": "3",
        "name": "GHS Ejipura",
        "name:kn": "ಸರ್ಕಾರಿ ಹಿರಿಯ ಪ್ರಾಥಮಿಕ ಶಾಲೆ ಈಜಿಪುರ",
        "operator": "Department of Primary and Secondary Education",
        "operator:type": "government",
        "operator:wikidata": "Q111467381",
        "school": "Higher Secondary"
      }
    },
    {
      "type": "node",
      "id": 6734902089,
      "lat": 12.9500615,
      "lon": 77.624214,
      "tags": {
        "addr:place": "Eegipura",
        "amenity": "school",
        "isced:level": "3",
        "name": "Sathya Bama Gopal Eng HS",
        "name:kn": "ಸತ್ಯಭಾಮ ಗೋಪಾಲ್ ಆಂಗ್ಲ ಪ್ರೌಢಶಾಲೆ ಈಜಿಪುರ",
        "operator": "Private Un-Aided",
        "school": "Higher Secondary"
      }
    },
    {
      "type": "node",
      "id": 6734919588,
      "lat": 12.9401321,
      "lon": 77.6306411,
      "tags": {
        "addr:place": "Eegipura",
        "amenity": "school",
        "isced:level": "3",
        "name": "Chinmaya Vidya Kendra HPS",
        "name:kn": "ಚಿನ್ಮಯ ವಿದ್ಯಾ ಕೇಂದ್ರ ಹಿರಿಯ ಪ್ರಾಥಮಿಕ ಶಾಲೆ, ಈಜಿಪುರ",
        "operator": "Private Un-Aided",
        "school": "Higher Secondary"
      }
    },
    {
      "type": "node",
      "id": 6745269432,
      "lat": 12.9499617,
      "lon": 77.6182698,
      "tags": {
        "addr:place": "Neelasandra",
        "amenity": "school",
        "isced:level": "3",
        "name": "Shanthinikethan HPS",
        "name:kn": "ಶಾಂತಿನಿಕೇತನ್ ಹಿರಿಯ ಪ್ರಾಥಮಿಕ ಶಾಲೆ ನೀಲಸಂದ್ರ",
        "operator": "Private Un-Aided",
        "school": "Higher Secondary"
      }
    },
    {
      "type": "node",
      "id": 6755811685,
      "lat": 12.9422798,
      "lon": 77.62855,
      "tags": {
        "addr:city": "Bengaluru",
        "addr:housenumber": "23",
        "addr:postcode": "560047",
        "addr:street": "20F Cross Road",
        "amenity": "place_of_worship",
        "name": "Rehoboth Church",
        "religion": "christian"
      }
    },
    {
      "type": "node",
      "id": 6755811686,
      "lat": 12.9420698,
      "lon": 77.6280215,
      "tags": {
        "amenity": "restaurant",
        "cuisine": "indian;north_indian;regional",
        "name": "Devi Sri Juice and Condiments",
        "opening_hours": "Mo-Su 08:00-23:00",
        "phone": "094677 66383",
        "shop": "bakery"
      }
    },
    {
      "type": "node",
      "id": 6939253041,
      "lat": 12.9412109,
      "lon": 77.6238987,
      "tags": {
        "addr:district": "Bengaluru Urban",
        "addr:full": "#434, 18Th Main 80 Ft Road, 6Th Block, Opp Koramangala Bus Depot",
        "addr:housenumber": "434",
        "addr:postcode": "560095",
        "addr:state": "Karnataka",
        "addr:street": "18th Main Road",
        "amenity": "hospital",
        "check_date": "2024-01-10",
        "email": "care@devieyehospital.in",
        "full_name": "Devi Super Speciality Eye Hospital Pvt Ltd",
        "healthcare": "hospital",
        "healthcare:speciality": "multi speciality",
        "name": "Devi Eye Hospital",
        "operator:type": "private",
        "source": "OpenGovernmentData",
        "website": "http://www.devieyehospital.in/"
      }
    },
    {
      "type": "node",
      "id": 6947701126,
      "lat": 12.9425676,
      "lon": 77.6224349,
      "tags": {
        "addr:district": "Bengaluru Urban",
        "addr:full": "Koramangala",
        "addr:postcode": "560095",
        "addr:state": "Karnataka",
        "amenity": "hospital",
        "healthcare": "hospital",
        "name": "Well Spring hospital",
        "source": "OpenGovernmentData"
      }
    },
    {
      "type": "node",
      "id": 7160747616,
      "lat": 12.9405303,
      "lon": 77.6235653,
      "tags": {
        "addr:city": "Bengaluru",
        "addr:country": "IN",
        "addr:hamlet": "Koramangala 6th Block",
        "addr:housenumber": "438",
        "addr:postcode": "560095",
        "addr:street": "18th Main Road",
        "amenity": "restaurant",
        "check_date": "2024-10-11",
        "cuisine": "regional",
        "diet:halal": "yes",
        "diet:meat": "yes",
        "diet:non-vegetarian": "yes",
        "diet:vegetarian": "yes",
        "email": "info@kappachakkakandhari.com",
        "highchair": "yes",
        "name": "Kappa Chakka Kandhari",
        "payment:cash": "yes",
        "payment:credit_cards": "yes",
        "payment:debit_cards": "yes",
        "phone": "+91 636467 1010",
        "toilets:wheelchair": "yes",
        "website": "https://www.kappachakkakandhari.com/",
        "wheelchair": "yes"
      }
    },
    {
      "type": "node",
      "id": 7178597282,
      "lat": 12.9407064,
      "lon": 77.6201677,
      "tags": {
        "addr:city": "Bengaluru",
        "addr:country": "IN",
        "addr:hamlet": "Koramangala 8tth Block",
        "addr:housenumber": "583",
        "addr:postcode": "560095",
        "addr:street": "80 Feet Road",
        "email": "hello@sourhouse.in",
        "name": "Sour House",
        "opening_hours": "Mo-Sa 10:00-19:00",
        "shop": "bakery",
        "website": "https://www.sourhouse.in"
      }
    },
    {
      "type": "node",
      "id": 9310793280,
      "lat": 12.9506267,
      "lon": 77.6237605,
      "tags": {
        "name": "Shine Bakery",
        "shop": "bakery"
      }
    },
    {
      "type": "node",
      "id": 9310793281,
      "lat": 12.9508998,
      "lon": 77.6234253,
      "tags": {
        "shop": "butcher"
      }
    },
    {
      "type": "node",
      "id": 9310793282,
      "lat": 12.9507267,
      "lon": 77.6234214,
      "tags": {
        "shop": "greengrocer"
      }
    },
    {
      "type": "node",
      "id": 9310793306,
      "lat": 12.9507407,
      "lon": 77.6233681,
      "tags": {
        "name": "Seven Sisters Northeast Shop",
        "shop": "convenience"
      }
    },
    {
      "type": "node",
      "id": 9310793307,
      "lat": 12.9507013,
      "lon": 77.6235404,
      "tags": {
        "amenity": "restaurant",
        "delivery": "yes",
        "name": "Maven Kitchen",
        "takeaway": "yes"
      }
    },
    {
      "type": "node",
      "id": 9933650417,
      "lat": 12.9434734,
      "lon": 77.6212956,
      "tags": {
        "check_date": "2023-09-09",
        "name": "Cherry Pick Furniture",
        "shop": "furniture"
      }
    },
    {
      "type": "node",
      "id": 9950801517,
      "lat": 12.9409561,
      "lon": 77.6277218,
      "tags": {
        "name": "Kolkata Sweets",
        "shop": "confectionery"
      }
    },
    {
      "type": "node",
      "id": 9950801617,
      "lat": 12.9411457,
      "lon": 77.627647,
      "tags": {
        "name": "Cigarette Shop",
        "shop": "convenience"
      }
    },
    {
      "type": "node",
      "id": 9951289022,
      "lat": 12.9487106,
      "lon": 77.619815,
      "tags": {
        "amenity": "place_of_worship",
        "name": "Salvation Prayer Church",
        "religion": "christian"
      }
    },
    {
      "type": "node",
      "id": 9951289023,
      "lat": 12.950313,
      "lon": 77.6212433,
      "tags": {
        "amenity": "fast_food",
        "brand": "Indira Canteen",
        "brand:wikidata": "Q36164828",
        "cuisine": "south_indian",
        "name": "Indira Canteen",
        "operator": "BBMP",
        "takeaway": "yes"
      }
    },
    {
      "type": "node",
      "id": 9951289027,
      "lat": 12.9512174,
      "lon": 77.6214015,
      "tags": {
        "brand": "Nandini Dairy",
        "name": "Nandini",
        "shop": "dairy"
      }
    },
    {
      "type": "node",
      "id": 9953934317,
      "lat": 12.94086,
      "lon": 77.6276412,
      "tags": {
        "name": "Sizani",
        "shop": "clothes"
      }
    },
    {
      "type": "node",
      "id": 9953939217,
      "lat": 12.9411755,
      "lon": 77.6277014,
      "tags": {
        "amenity": "pharmacy",
        "brand": "MedPlus",
        "brand:wikidata": "Q65684234",
        "healthcare": "pharmacy",
        "name": "MedPlus"
      }
    },
    {
      "type": "node",
      "id": 9954106618,
      "lat": 12.9390473,
      "lon": 77.6283697,
      "tags": {
        "amenity": "restaurant",
        "name": "Uttara Karnataka Food Store"
      }
    },
    {
      "type": "node",
      "id": 9954120017,
      "lat": 12.9392947,
      "lon": 77.6283105,
      "tags": {
        "name": "The Baklava Company",
        "shop": "confectionery"
      }
    },
    {
      "type": "node",
      "id": 9954120117,
      "lat": 12.9392892,
      "lon": 77.628352,
      "tags": {
        "name": "Bakery",
        "shop": "bakery"
      }
    },
    {
      "type": "node",
      "id": 9954120118,
      "lat": 12.9391694,
      "lon": 77.6283469,
      "tags": {
        "amenity": "cafe",
        "name": "Chubby Chai"
      }
    },
    {
      "type": "node",
      "id": 9954120217,
      "lat": 12.9396097,
      "lon": 77.6284305,
      "tags": {
        "name": "Food Max Super Store",
        "shop": "department_store"
      }
    },
    {
      "type": "node",
      "id": 9961659918,
      "lat": 12.9416964,
      "lon": 77.6278671,
      "tags": {
        "name": "Anushka Two Wheelers Service",
        "shop": "car_repair"
      }
    },
    {
      "type": "node",
      "id": 9961663217,
      "lat": 12.9416656,
      "lon": 77.6279521,
      "tags": {
        "name": "Aniket Laundry",
        "shop": "laundry"
      }
    },
    {
      "type": "node",
      "id": 9961663317,
      "lat": 12.9416715,
      "lon": 77.627858,
      "tags": {
        "name": "Classic Chicken Center",
        "shop": "butcher"
      }
    },
    {
      "type": "node",
      "id": 9961663318,
      "lat": 12.9417192,
      "lon": 77.6278767,
      "tags": {
        "amenity": "pharmacy",
        "name": "Mahaveer Medical"
      }
    },
    {
      "type": "node",
      "id": 9961663417,
      "lat": 12.9415499,
      "lon": 77.6278423,
      "tags": {
        "name": "Sri Balaji Provision Store",
        "shop": "grocery"
      }
    },
    {
      "type": "node",
      "id": 9961663517,
      "lat": 12.9414967,
      "lon": 77.6278372,
      "tags": {
        "amenity": "fast_food",
        "name": "Santhosh Fast Food"
      }
    },
    {
      "type": "node",
      "id": 9961671017,
      "lat": 12.9415544,
      "lon": 77.6279345,
      "tags": {
        "name": "Dream Magic",
        "shop": "stationery"
      }
    },
    {
      "type": "node",
      "id": 9961671117,
      "lat": 12.9415174,
      "lon": 77.6279374,
      "tags": {
        "name": "Royal Mobile Solution",
        "shop": "mobile_phone"
      }
    },
    {
      "type": "node",
      "id": 9961671217,
      "lat": 12.9414193,
      "lon": 77.6279151,
      "tags": {
        "name": "Blossom Herbal Beauty Parlour",
        "shop": "beauty"
      }
    },
    {
      "type": "node",
      "id": 9961691617,
      "lat": 12.941334,
      "lon": 77.6278179,
      "tags": {
        "name": "Super Traders",
        "shop": "department_store"
      }
    },
    {
      "type": "node",
      "id": 10036557117,
      "lat": 12.9449962,
      "lon": 77.6194713,
      "tags": {
        "name": "Akshara Motors",
        "shop": "car"
      }
    },
    {
      "type": "node",
      "id": 10036557217,
      "lat": 12.9448081,
      "lon": 77.6197397,
      "tags": {
        "name": "Advaith Hyundai",
        "name:kn": "ಅದ್ವೈತ ಹ್ಯುಂಡೈ",
        "shop": "car"
      }
    },
    {
      "type": "node",
      "id": 10036561217,
      "lat": 12.9449334,
      "lon": 77.6196372,
      "tags": {
        "amenity": "clinic",
        "name": "IVF Access - Fertility Clinic"
      }
    },
    {
      "type": "node",
      "id": 10036567521,
      "lat": 12.9451177,
      "lon": 77.6200265,
      "tags": {
        "amenity": "fast_food",
        "brand": "McDonald's",
        "brand:wikidata": "Q38076",
        "cuisine": "burger",
        "name": "McDonald's",
        "takeaway": "yes"
      }
    },
    {
      "type": "node",
      "id": 10036568019,
      "lat": 12.9436787,
      "lon": 77.6211534,
      "tags": {
        "amenity": "restaurant",
        "name": "Coasta"
      }
    },
    {
      "type": "node",
      "id": 10036568120,
      "lat": 12.9433532,
      "lon": 77.6215421,
      "tags": {
        "name": "Liquor Mart",
        "shop": "alcohol"
      }
    },
    {
      "type": "node",
      "id": 10036568121,
      "lat": 12.943275,
      "lon": 77.6216701,
      "tags": {
        "name": "Manu Pit Stop",
        "shop": "car_repair"
      }
    },
    {
      "type": "node",
      "id": 10036602717,
      "lat": 12.9450064,
      "lon": 77.620248,
      "tags": {
        "addr:city": "Bengaluru",
        "addr:street": "80 Feet Road",
        "air_conditioning": "yes",
        "brand": "Zudio",
        "brand:wikidata": "Q123375926",
        "clothes": "women;men;underwear;children;denim",
        "name": "Zudio",
        "opening_hours": "Mo-Su 11:00-21:00",
        "payment:cash": "yes",
        "payment:contactless": "yes",
        "payment:credit_cards": "yes",
        "payment:debit_cards": "yes",
        "payment:mastercard": "yes",
        "payment:visa": "yes",
        "shop": "clothes",
        "website": "https://www.zudio.com/"
      }
    },
    {
      "type": "node",
      "id": 10036635918,
      "lat": 12.9405431,
      "lon": 77.6245299,
      "tags": {
        "amenity": "bank",
        "brand": "Axis Bank",
        "brand:wikidata": "Q2003549",
        "name": "Axis Bank",
        "name:kn": "ಆಕ್ಸಿಸ್ ಬ್ಯಾಂಕ್"
      }
    },
    {
      "type": "node",
      "id": 10036648017,
      "lat": 12.942727,
      "lon": 77.6222852,
      "tags": {
        "name": "My Tech World",
        "shop": "computer"
      }
    },
    {
      "type": "node",
      "id": 10036648018,
      "lat": 12.9423709,
      "lon": 77.6226909,
      "tags": {
        "name": "Just Dogs",
        "shop": "pet"
      }
    },
    {
      "type": "node",
      "id": 10036648022,
      "lat": 12.941012,
      "lon": 77.6241505,
      "tags": {
        "amenity": "restaurant",
        "name": "The Coorg Food Company"
      }
    },
    {
      "type": "node",
      "id": 10036648023,
      "lat": 12.9408608,
      "lon": 77.6243138,
      "tags": {
        "amenity": "restaurant",
        "check_date": "2023-11-30",
        "name": "Biriyani Depot"
      }
    },
    {
      "type": "node",
      "id": 10036648024,
      "lat": 12.9405717,
      "lon": 77.6246062,
      "tags": {
        "amenity": "atm",
        "brand": "Axis Bank",
        "brand:wikidata": "Q2003549",
        "operator": "Axis Bank",
        "operator:wikidata": "Q2003549"
      }
    },
    {
      "type": "node",
      "id": 10036648117,
      "lat": 12.9423282,
      "lon": 77.6226526,
      "tags": {
        "amenity": "bank",
        "name": "HDFC Home Loans"
      }
    },
    {
      "type": "node",
      "id": 10036648118,
      "lat": 12.9425012,
      "lon": 77.6229374,
      "tags": {
        "name": "H.K.G.N Bike Mechanic",
        "shop": "motorcycle_repair"
      }
    },
    {
      "type": "node",
      "id": 10036648119,
      "lat": 12.9417161,
      "lon": 77.6233404,
      "tags": {
        "amenity": "bank",
        "atm": "yes",
        "brand": "Ujjivan Small Finance Bank",
        "brand:wikidata": "Q42529272",
        "name": "Ujjivan Small Finance Bank"
      }
    },
    {
      "type": "node",
      "id": 10036648121,
      "lat": 12.940938,
      "lon": 77.6241703,
      "tags": {
        "amenity": "pharmacy",
        "healthcare": "pharmacy",
        "name": "Vitamin Galaxy"
      }
    },
    {
      "type": "node",
      "id": 10036648122,
      "lat": 12.9409106,
      "lon": 77.6242697,
      "tags": {
        "amenity": "cafe",
        "name": "Tea Coffee House"
      }
    },
    {
      "type": "node",
      "id": 10036648217,
      "lat": 12.9422163,
      "lon": 77.6228522,
      "tags": {
        "amenity": "bank",
        "brand": "RBL Bank",
        "brand:wikidata": "Q13120398",
        "name": "RBL Bank"
      }
    },
    {
      "type": "node",
      "id": 10036648218,
      "lat": 12.9419888,
      "lon": 77.6230815,
      "tags": {
        "amenity": "restaurant",
        "name": "Madurai Restaurant"
      }
    },
    {
      "type": "node",
      "id": 10036648219,
      "lat": 12.9414494,
      "lon": 77.6236346,
      "tags": {
        "amenity": "cafe",
        "check_date": "2023-11-30",
        "name": "Cafe Five Guys"
      }
    },
    {
      "type": "node",
      "id": 10036648317,
      "lat": 12.942267,
      "lon": 77.6228332,
      "tags": {
        "amenity": "atm",
        "brand": "RBL Bank",
        "brand:wikidata": "Q13120398",
        "operator": "RBL Bank",
        "operator:wikidata": "Q13120398"
      }
    },
    {
      "type": "node",
      "id": 10036648318,
      "lat": 12.9420181,
      "lon": 77.6229498,
      "tags": {
        "amenity": "bank",
        "brand": "HDFC Bank",
        "brand:wikidata": "Q631047",
        "name": "HDFC Bank",
        "short_name": "HDFC"
      }
    },
    {
      "type": "node",
      "id": 10036648417,
      "lat": 12.9420232,
      "lon": 77.6230093,
      "tags": {
        "amenity": "atm",
        "brand": "HDFC Bank",
        "brand:wikidata": "Q631047",
        "operator": "HDFC Bank",
        "operator:wikidata": "Q631047",
        "short_name": "HDFC"
      }
    },
    {
      "type": "node",
      "id": 10036648517,
      "lat": 12.9415824,
      "lon": 77.6235081,
      "tags": {
        "amenity": "dentist",
        "name": "Sabka Dentist"
      }
    },
    {
      "type": "node",
      "id": 10036648518,
      "lat": 12.9413673,
      "lon": 77.6240803,
      "tags": {
        "name": "Puncture Shop",
        "shop": "motorcycle"
      }
    },
    {
      "type": "node",
      "id": 10036648617,
      "lat": 12.9408618,
      "lon": 77.6242481,
      "tags": {
        "name": "Retreat Spa & Salon",
        "shop": "massage"
      }
    },
    {
      "type": "node",
      "id": 10036672417,
      "lat": 12.9386047,
      "lon": 77.6292569,
      "tags": {
        "amenity": "restaurant",
        "indoor_seating": "yes",
        "name": "Ambur Biryani",
        "outdoor_seating": "no"
      }
    },
    {
      "type": "node",
      "id": 10036672517,
      "lat": 12.9386018,
      "lon": 77.6292401,
      "tags": {
        "name": "Sunil Maghaipaan & Cigarettes",
        "shop": "variety_store"
      }
    },
    {
      "type": "node",
      "id": 10036672617,
      "lat": 12.9386225,
      "lon": 77.6291616,
      "tags": {
        "amenity": "fast_food",
        "name": "Darjeeling Momo"
      }
    },
    {
      "type": "node",
      "id": 10036672717,
      "lat": 12.9385717,
      "lon": 77.6291645,
      "tags": {
        "amenity": "fast_food",
        "name": "Panipuri Shop"
      }
    },
    {
      "type": "node",
      "id": 10047410317,
      "lat": 12.9398397,
      "lon": 77.6252767,
      "tags": {
        "amenity": "bank",
        "name": "Utkarsh Small Finance Bank"
      }
    },
    {
      "type": "node",
      "id": 10047410318,
      "lat": 12.9398703,
      "lon": 77.6252571,
      "tags": {
        "amenity": "atm",
        "operator": "Utkarsh Small Finance Bank"
      }
    },
    {
      "type": "node",
      "id": 10047410320,
      "lat": 12.9407259,
      "lon": 77.6268205,
      "tags": {
        "name": "R.K.Mens Saloon",
        "shop": "hairdresser"
      }
    },
    {
      "type": "node",
      "id": 10047410321,
      "lat": 12.9407018,
      "lon": 77.6267911,
      "tags": {
        "amenity": "fast_food",
        "name": "Shree Ganesh Juice Centre"
      }
    },
    {
      "type": "node",
      "id": 10047410417,
      "lat": 12.9399395,
      "lon": 77.6251611,
      "tags": {
        "amenity": "bank",
        "brand": "IndusInd Bank",
        "brand:wikidata": "Q2040323",
        "name": "IndusInd Bank"
      }
    },
    {
      "type": "node",
      "id": 10047410418,
      "lat": 12.9400847,
      "lon": 77.6250647,
      "tags": {
        "name": "Tyre Port",
        "shop": "tyres"
      }
    },
    {
      "type": "node",
      "id": 10047410420,
      "lat": 12.9400354,
      "lon": 77.6254608,
      "tags": {
        "amenity": "bar",
        "name": "Sixtyy"
      }
    },
    {
      "type": "node",
      "id": 10047410517,
      "lat": 12.9399297,
      "lon": 77.6252027,
      "tags": {
        "amenity": "atm",
        "brand": "IndusInd Bank",
        "brand:wikidata": "Q2040323",
        "operator": "IndusInd Bank",
        "operator:wikidata": "Q2040323"
      }
    },
    {
      "type": "node",
      "id": 10047410520,
      "lat": 12.9408506,
      "lon": 77.6270827,
      "tags": {
        "name": "Amman Garage",
        "shop": "car_repair"
      }
    },
    {
      "type": "node",
      "id": 10047410617,
      "lat": 12.9402358,
      "lon": 77.6248865,
      "tags": {
        "amenity": "fast_food",
        "brand": "Domino's",
        "brand:wikidata": "Q839466",
        "cuisine": "pizza",
        "name": "Domino's",
        "takeaway": "yes"
      }
    },
    {
      "type": "node",
      "id": 10047410817,
      "lat": 12.9403001,
      "lon": 77.6252477,
      "tags": {
        "name": "Perfect Yamaha",
        "shop": "motorcycle"
      }
    },
    {
      "type": "node",
      "id": 10047410818,
      "lat": 12.9402228,
      "lon": 77.6252938,
      "tags": {
        "name": "Raju Honda",
        "shop": "motorcycle"
      }
    },
    {
      "type": "node",
      "id": 10047410819,
      "lat": 12.9406228,
      "lon": 77.6261245,
      "tags": {
        "name": "Flora Beauty Salon",
        "shop": "beauty"
      }
    },
    {
      "type": "node",
      "id": 10047410820,
      "lat": 12.9405384,
      "lon": 77.6261865,
      "tags": {
        "name": "Hello Mobile",
        "shop": "mobile_phone"
      }
    },
    {
      "type": "node",
      "id": 10047410821,
      "lat": 12.9409683,
      "lon": 77.6273958,
      "tags": {
        "amenity": "animal_boarding",
        "name": "Cowshed"
      }
    },
    {
      "type": "node",
      "id": 10068956818,
      "lat": 12.9392334,
      "lon": 77.6191718,
      "tags": {
        "brand": "Biba",
        "brand:wikidata": "Q4902942",
        "clothes": "women",
        "name": "Biba",
        "name:kn": "ಬೀಬ",
        "shop": "clothes"
      }
    },
    {
      "type": "node",
      "id": 10068956856,
      "lat": 12.9402915,
      "lon": 77.6198934,
      "tags": {
        "name": "Enrich",
        "shop": "beauty"
      }
    },
    {
      "type": "node",
      "id": 10068956857,
      "lat": 12.940527,
      "lon": 77.620013,
      "tags": {
        "name": "Heads up For Tails",
        "shop": "pet"
      }
    },
    {
      "type": "node",
      "id": 10068956858,
      "lat": 12.9404955,
      "lon": 77.6200555,
      "tags": {
        "amenity": "bank",
        "brand": "IDFC First Bank",
        "brand:wikidata": "Q22031467",
        "name": "IDFC First Bank"
      }
    },
    {
      "type": "node",
      "id": 10068956859,
      "lat": 12.9407577,
      "lon": 77.6202069,
      "tags": {
        "amenity": "cafe",
        "name": "Blue Tokai"
      }
    },
    {
      "type": "node",
      "id": 10095556617,
      "lat": 12.9438945,
      "lon": 77.6284681,
      "tags": {
        "name": "Mathrusree Bakery",
        "shop": "bakery"
      }
    },
    {
      "type": "node",
      "id": 10095556618,
      "lat": 12.9434986,
      "lon": 77.6284529,
      "tags": {
        "name": "SAS Vision Optics",
        "shop": "optician"
      }
    },
    {
      "type": "node",
      "id": 10095556717,
      "lat": 12.9436376,
      "lon": 77.6284598,
      "tags": {
        "name": "Sasta Mandi",
        "shop": "greengrocer"
      }
    },
    {
      "type": "node",
      "id": 10095556817,
      "lat": 12.9435297,
      "lon": 77.628548,
      "tags": {
        "amenity": "fast_food",
        "name": "C.Kosila Kitchen"
      }
    },
    {
      "type": "node",
      "id": 10095556917,
      "lat": 12.9436474,
      "lon": 77.62853,
      "tags": {
        "name": "KK Store",
        "shop": "convenience"
      }
    },
    {
      "type": "node",
      "id": 10095557017,
      "lat": 12.9434116,
      "lon": 77.6284322,
      "tags": {
        "amenity": "dentist",
        "name": "Devi Dental Clinic"
      }
    },
    {
      "type": "node",
      "id": 10098185417,
      "lat": 12.9512726,
      "lon": 77.6222965,
      "tags": {
        "name": "Deepa Condiments",
        "shop": "convenience"
      }
    },
    {
      "type": "node",
      "id": 10098185418,
      "lat": 12.9512117,
      "lon": 77.6224293,
      "tags": {
        "name": "Manjunatha Liquor",
        "shop": "alcohol"
      }
    },
    {
      "type": "node",
      "id": 10098185419,
      "lat": 12.9510939,
      "lon": 77.6225922,
      "tags": {
        "amenity": "bank",
        "name": "Sangha Mitra Credit Co-Operative Society"
      }
    },
    {
      "type": "node",
      "id": 10098185420,
      "lat": 12.9511094,
      "lon": 77.6226696,
      "tags": {
        "amenity": "fast_food",
        "name": "Bilal Biryani House"
      }
    },
    {
      "type": "node",
      "id": 10098185517,
      "lat": 12.9512393,
      "lon": 77.6223758,
      "tags": {
        "amenity": "fast_food",
        "name": "Sree Durga Donne Biryani"
      }
    },
    {
      "type": "node",
      "id": 10098185518,
      "lat": 12.9511568,
      "lon": 77.622471,
      "tags": {
        "name": "M.R.P Liquor Shop",
        "shop": "alcohol"
      }
    },
    {
      "type": "node",
      "id": 10098185520,
      "lat": 12.9513766,
      "lon": 77.6225836,
      "tags": {
        "name": "Hyper Bazaar",
        "shop": "department_store"
      }
    },
    {
      "type": "node",
      "id": 10098185617,
      "lat": 12.9511615,
      "lon": 77.6225552,
      "tags": {
        "amenity": "clinic",
        "name": "Sanjith Clinic"
      }
    },
    {
      "type": "node",
      "id": 10098185618,
      "lat": 12.9510923,
      "lon": 77.6227055,
      "tags": {
        "name": "Brite’s Fresh Chicken",
        "shop": "butcher"
      }
    },
    {
      "type": "node",
      "id": 10098185717,
      "lat": 12.9511416,
      "lon": 77.6225971,
      "tags": {
        "name": "Shree Durga Bakery",
        "shop": "bakery"
      }
    },
    {
      "type": "node",
      "id": 10098185718,
      "lat": 12.9510408,
      "lon": 77.6228088,
      "tags": {
        "name": "Good Will Motors",
        "shop": "motorcycle"
      }
    },
    {
      "type": "node",
      "id": 10101174017,
      "lat": 12.9509802,
      "lon": 77.6228981,
      "tags": {
        "name": "Nandini Milk Products",
        "shop": "farm"
      }
    },
    {
      "type": "node",
      "id": 10101174018,
      "lat": 12.9509127,
      "lon": 77.6230621,
      "tags": {
        "amenity": "pharmacy",
        "healthcare": "pharmacy",
        "name": "United Medicals"
      }
    },
    {
      "type": "node",
      "id": 10101174019,
      "lat": 12.9509055,
      "lon": 77.6231072,
      "tags": {
        "amenity": "bar",
        "name": "Madhura Bar and Restaurant"
      }
    },
    {
      "type": "node",
      "id": 10101174117,
      "lat": 12.9508521,
      "lon": 77.6228252,
      "tags": {
        "name": "Pork Shop",
        "shop": "butcher"
      }
    },
    {
      "type": "node",
      "id": 10101174118,
      "lat": 12.9509475,
      "lon": 77.6229392,
      "tags": {
        "name": "Sri Murugan Stores",
        "shop": "grocery"
      }
    },
    {
      "type": "node",
      "id": 10101174119,
      "lat": 12.9509346,
      "lon": 77.6230113,
      "tags": {
        "name": "Sun Jyothi Bakery",
        "shop": "bakery"
      }
    },
    {
      "type": "node",
      "id": 10101174120,
      "lat": 12.9509274,
      "lon": 77.6230416,
      "tags": {
        "name": "Asian Enterprises",
        "shop": "hardware"
      }
    },
    {
      "type": "node",
      "id": 10101174121,
      "lat": 12.9509774,
      "lon": 77.6230906,
      "tags": {
        "name": "Fruit Stall",
        "shop": "greengrocer"
      }
    },
    {
      "type": "node",
      "id": 10101174122,
      "lat": 12.9509673,
      "lon": 77.623189,
      "tags": {
        "amenity": "pharmacy",
        "healthcare": "pharmacy",
        "name": "Bright Medicals"
      }
    },
    {
      "type": "node",
      "id": 10101174123,
      "lat": 12.9509965,
      "lon": 77.6231889,
      "tags": {
        "name": "Dean Laundry",
        "shop": "laundry"
      }
    },
    {
      "type": "node",
      "id": 10101174417,
      "lat": 12.9509598,
      "lon": 77.6231109,
      "tags": {
        "amenity": "fast_food",
        "name": "Bajji Stall"
      }
    },
    {
      "type": "node",
      "id": 10101174617,
      "lat": 12.9509357,
      "lon": 77.6231929,
      "tags": {
        "name": "X Longe",
        "shop": "clothes"
      }
    },
    {
      "type": "node",
      "id": 10105885618,
      "lat": 12.9420276,
      "lon": 77.6280345,
      "tags": {
        "amenity": "fast_food",
        "name": "Gayathri Chats and Paratha"
      }
    },
    {
      "type": "node",
      "id": 10105887417,
      "lat": 12.9419868,
      "lon": 77.6280382,
      "tags": {
        "name": "Galaxy Men’s Beauty Saloon",
        "shop": "hairdresser"
      }
    },
    {
      "type": "node",
      "id": 10105887517,
      "lat": 12.94215,
      "lon": 77.6279445,
      "tags": {
        "name": "Sri Venkateshwara Vegetables and Fruits",
        "shop": "greengrocer"
      }
    },
    {
      "type": "node",
      "id": 10106533117,
      "lat": 12.9513201,
      "lon": 77.622873,
      "tags": {
        "name": "Yuvaratna Appu Salon Shop",
        "shop": "hairdresser"
      }
    },
    {
      "type": "node",
      "id": 10106533217,
      "lat": 12.9513036,
      "lon": 77.6229768,
      "tags": {
        "amenity": "restaurant",
        "name": "Brindavan Andhra Style"
      }
    },
    {
      "type": "node",
      "id": 10106533218,
      "lat": 12.9513411,
      "lon": 77.6230341,
      "tags": {
        "amenity": "kindergarten",
        "name": "A.V.Kids Kindergarten"
      }
    },
    {
      "type": "node",
      "id": 10106533317,
      "lat": 12.9512846,
      "lon": 77.6230246,
      "tags": {
        "amenity": "bank",
        "name": "Muthoottu Mini Financiers"
      }
    },
    {
      "type": "node",
      "id": 10106533318,
      "lat": 12.9512774,
      "lon": 77.6231042,
      "tags": {
        "name": "Sri Murugan Hyper Mart",
        "shop": "department_store"
      }
    },
    {
      "type": "node",
      "id": 10109902602,
      "lat": 12.9407883,
      "lon": 77.6274129,
      "tags": {
        "amenity": "animal_boarding",
        "name": "Cowshed"
      }
    },
    {
      "type": "node",
      "id": 10111481449,
      "lat": 12.9393803,
      "lon": 77.6286584,
      "tags": {
        "amenity": "dentist",
        "healthcare": "dentist",
        "name": "Dental Lounge"
      }
    },
    {
      "type": "node",
      "id": 10114122210,
      "lat": 12.9391778,
      "lon": 77.6258972,
      "tags": {
        "name": "Parameshwari Traders",
        "shop": "department_store"
      }
    },
    {
      "type": "node",
      "id": 10114122211,
      "lat": 12.938973,
      "lon": 77.6259626,
      "tags": {
        "name": "Lenovo",
        "shop": "computer"
      }
    },
    {
      "type": "node",
      "id": 10114122212,
      "lat": 12.9390389,
      "lon": 77.6259421,
      "tags": {
        "name": "Realme",
        "shop": "mobile_phone"
      }
    },
    {
      "type": "node",
      "id": 10114122213,
      "lat": 12.9396583,
      "lon": 77.6257225,
      "tags": {
        "name": "Auto Style",
        "shop": "car_parts"
      }
    },
    {
      "type": "node",
      "id": 10114122214,
      "lat": 12.9392459,
      "lon": 77.6258767,
      "tags": {
        "name": "Acer Mall",
        "operator": "Maxware Technologies",
        "shop": "computer"
      }
    },
    {
      "type": "node",
      "id": 10114122215,
      "lat": 12.939109,
      "lon": 77.6259207,
      "tags": {
        "name": "Fatima",
        "shop": "bakery"
      }
    },
    {
      "type": "node",
      "id": 10114142767,
      "lat": 12.9395545,
      "lon": 77.6257533,
      "tags": {
        "name": "Khanate Bespoke Fashion",
        "shop": "clothes"
      }
    },
    {
      "type": "node",
      "id": 10114142768,
      "lat": 12.9394907,
      "lon": 77.6257893,
      "tags": {
        "amenity": "pharmacy",
        "healthcare": "pharmacy",
        "name": "Ramdev Medical"
      }
    },
    {
      "type": "node",
      "id": 10114180706,
      "lat": 12.9383445,
      "lon": 77.6259659,
      "tags": {
        "amenity": "atm",
        "brand": "IDFC First Bank",
        "brand:wikidata": "Q22031467",
        "operator": "IDFC First Bank",
        "operator:wikidata": "Q22031467"
      }
    },
    {
      "type": "node",
      "id": 10114180707,
      "lat": 12.9385446,
      "lon": 77.6261803,
      "tags": {
        "name": "The Detailing Mafia",
        "shop": "car_repair"
      }
    },
    {
      "type": "node",
      "id": 10114180708,
      "lat": 12.9387545,
      "lon": 77.6260701,
      "tags": {
        "name": "Dell Exclusive Store",
        "shop": "computer"
      }
    },
    {
      "type": "node",
      "id": 10114180709,
      "lat": 12.938313,
      "lon": 77.6259211,
      "tags": {
        "amenity": "bank",
        "brand": "IDFC First Bank",
        "brand:wikidata": "Q22031467",
        "name": "IDFC First Bank"
      }
    },
    {
      "type": "node",
      "id": 10114180710,
      "lat": 12.93869,
      "lon": 77.6261024,
      "tags": {
        "name": "Asus",
        "name:kn": "ಆಸುಸ್",
        "operator": "Mega IT Store",
        "shop": "computer"
      }
    },
    {
      "type": "node",
      "id": 10114201658,
      "lat": 12.9389146,
      "lon": 77.6264312,
      "tags": {
        "addr:city": "Ejipura",
        "addr:district": "Bengaluru",
        "addr:housenumber": "14",
        "addr:postcode": "560095",
        "addr:street": "Patel Narayana Reddy Layout",
        "air_conditioning": "no",
        "amenity": "pub",
        "diet:non-vegetarian": "yes",
        "diet:vegan": "yes",
        "diet:vegetarian": "yes",
        "email": "connect@frothytales.com",
        "level": "1-3",
        "microbrewery": "yes",
        "mobile": "09108180000",
        "name": "The Bier Library",
        "opening_hours": "Mo-Su 12:00-1:00",
        "website": "https://www.thebierlibrary.in/",
        "website:menu": "https://www.thebierlibrary.in/copy-of-beverages"
      }
    },
    {
      "type": "node",
      "id": 10114207612,
      "lat": 12.9388064,
      "lon": 77.6260422,
      "tags": {
        "name": "Bhumi Spirit",
        "shop": "alcohol"
      }
    },
    {
      "type": "node",
      "id": 10116658722,
      "lat": 12.9508407,
      "lon": 77.6235723,
      "tags": {
        "name": "Magic Bags and Footwear",
        "shop": "shoes"
      }
    },
    {
      "type": "node",
      "id": 10116658723,
      "lat": 12.9506947,
      "lon": 77.6235728,
      "tags": {
        "amenity": "fast_food",
        "cuisine": "juice",
        "name": "Juice Shop"
      }
    },
    {
      "type": "node",
      "id": 10116658724,
      "lat": 12.9506787,
      "lon": 77.6236538,
      "tags": {
        "amenity": "fast_food",
        "name": "Icy Spicy"
      }
    },
    {
      "type": "node",
      "id": 10116658725,
      "lat": 12.9508146,
      "lon": 77.6237047,
      "tags": {
        "name": "S.R.V Vegetable and Fruits",
        "shop": "greengrocer"
      }
    },
    {
      "type": "node",
      "id": 10116658726,
      "lat": 12.9508202,
      "lon": 77.6236716,
      "tags": {
        "name": "Grocer",
        "shop": "convenience"
      }
    },
    {
      "type": "node",
      "id": 10116658727,
      "lat": 12.9508248,
      "lon": 77.6236033,
      "tags": {
        "name": "Magic",
        "shop": "mobile_phone"
      }
    },
    {
      "type": "node",
      "id": 10116658728,
      "lat": 12.9509047,
      "lon": 77.6236201,
      "tags": {
        "name": "Happy Land",
        "shop": "toys"
      }
    },
    {
      "type": "node",
      "id": 10116658729,
      "lat": 12.9507135,
      "lon": 77.6234929,
      "tags": {
        "amenity": "bar",
        "name": "V.S.Garden"
      }
    },
    {
      "type": "node",
      "id": 10116667433,
      "lat": 12.9505737,
      "lon": 77.6240593,
      "tags": {
        "name": "Alba Suit Specialists",
        "shop": "clothes"
      }
    },
    {
      "type": "node",
      "id": 10116667435,
      "lat": 12.9505916,
      "lon": 77.6239594,
      "tags": {
        "amenity": "bar",
        "name": "Lakshmi Bar and Restaurant"
      }
    },
    {
      "type": "node",
      "id": 10116667436,
      "lat": 12.9506075,
      "lon": 77.6239137,
      "tags": {
        "amenity": "fast_food",
        "name": "Kentaky Restaurant"
      }
    },
    {
      "type": "node",
      "id": 10116667437,
      "lat": 12.9505809,
      "lon": 77.6240278,
      "tags": {
        "name": "Bharath Trading Corporation",
        "shop": "mobile_phone"
      }
    },
    {
      "type": "node",
      "id": 10118710999,
      "lat": 12.95079,
      "lon": 77.6237562,
      "tags": {
        "name": "Patel Electricals",
        "shop": "electrical"
      }
    },
    {
      "type": "node",
      "id": 10118711000,
      "lat": 12.9507764,
      "lon": 77.6238164,
      "tags": {
        "name": "Mobile Shop",
        "shop": "mobile_phone"
      }
    },
    {
      "type": "node",
      "id": 10118711001,
      "lat": 12.9507714,
      "lon": 77.6238421,
      "tags": {
        "amenity": "pharmacy",
        "healthcare": "pharmacy"
      }
    },
    {
      "type": "node",
      "id": 10118711002,
      "lat": 12.9507957,
      "lon": 77.6237907,
      "tags": {
        "name": "Lovely Fancy and Gifts",
        "shop": "toys"
      }
    },
    {
      "type": "node",
      "id": 10118722285,
      "lat": 12.9505253,
      "lon": 77.6243086,
      "tags": {
        "name": "Aaboos",
        "shop": "clothes"
      }
    },
    {
      "type": "node",
      "id": 10118722286,
      "lat": 12.9504745,
      "lon": 77.624194,
      "tags": {
        "name": "St.Mary’s Auto Garage",
        "shop": "car_repair"
      }
    },
    {
      "type": "node",
      "id": 10118722287,
      "lat": 12.950745,
      "lon": 77.623974,
      "tags": {
        "name": "Sri Marudhar",
        "shop": "jewelry"
      }
    },
    {
      "type": "node",
      "id": 10118722288,
      "lat": 12.950735,
      "lon": 77.6240042,
      "tags": {
        "name": "Tasty Bakes",
        "shop": "bakery"
      }
    },
    {
      "type": "node",
      "id": 10118769915,
      "lat": 12.9507942,
      "lon": 77.6239057,
      "tags": {
        "name": "Shakthi Studio",
        "shop": "photo"
      }
    },
    {
      "type": "node",
      "id": 10118769916,
      "lat": 12.9507634,
      "lon": 77.6239329,
      "tags": {
        "name": "Tea City",
        "shop": "tea"
      }
    },
    {
      "type": "node",
      "id": 10118796372,
      "lat": 12.9499075,
      "lon": 77.6264294,
      "tags": {
        "name": "Fair Lands",
        "shop": "clothes"
      }
    },
    {
      "type": "node",
      "id": 10118807317,
      "lat": 12.9507606,
      "lon": 77.6238917,
      "tags": {
        "name": "Mahalakshmi Enterprises",
        "shop": "mobile_phone"
      }
    },
    {
      "type": "node",
      "id": 10159375313,
      "lat": 12.9506146,
      "lon": 77.6238474,
      "tags": {
        "name": "Cigarette and Bag Shop",
        "shop": "convenience"
      }
    },
    {
      "type": "node",
      "id": 10159375314,
      "lat": 12.9506216,
      "lon": 77.623825,
      "tags": {
        "amenity": "fast_food",
        "name": "The Shawarma Makers"
      }
    },
    {
      "type": "node",
      "id": 10159375315,
      "lat": 12.9506296,
      "lon": 77.6238015,
      "tags": {
        "name": "Selvam Hardware and Paints",
        "shop": "paint"
      }
    },
    {
      "type": "node",
      "id": 10159376490,
      "lat": 12.9506988,
      "lon": 77.6241602,
      "tags": {
        "name": "M.G.Enterprises",
        "shop": "mobile_phone"
      }
    },
    {
      "type": "node",
      "id": 10159376491,
      "lat": 12.9508367,
      "lon": 77.6243426,
      "tags": {
        "name": "Mayur Jewels",
        "shop": "jewelry"
      }
    },
    {
      "type": "node",
      "id": 10159376494,
      "lat": 12.9506886,
      "lon": 77.6242057,
      "tags": {
        "name": "Moti Textile",
        "shop": "clothes"
      }
    },
    {
      "type": "node",
      "id": 10159395929,
      "lat": 12.9506644,
      "lon": 77.6242582,
      "tags": {
        "amenity": "fast_food",
        "name": "Bajji Shop"
      }
    },
    {
      "type": "node",
      "id": 10159395930,
      "lat": 12.9505124,
      "lon": 77.6243668,
      "tags": {
        "amenity": "pharmacy",
        "healthcare": "pharmacy",
        "name": "Ambica Medical"
      }
    },
    {
      "type": "node",
      "id": 10159395931,
      "lat": 12.950483,
      "lon": 77.6243878,
      "tags": {
        "amenity": "dentist",
        "healthcare": "dentist",
        "name": "Dental Clinic"
      }
    },
    {
      "type": "node",
      "id": 10159395932,
      "lat": 12.950654,
      "lon": 77.624314,
      "tags": {
        "name": "Sola Men’s Saloon",
        "shop": "hairdresser"
      }
    },
    {
      "type": "node",
      "id": 10159395933,
      "lat": 12.9506565,
      "lon": 77.6242952,
      "tags": {
        "amenity": "fast_food",
        "name": "Bajji Shop"
      }
    },
    {
      "type": "node",
      "id": 10159395934,
      "lat": 12.9504856,
      "lon": 77.6243625,
      "tags": {
        "beauty": "nails",
        "name": "S.S.Beauty Saloon and Training Institute",
        "shop": "beauty"
      }
    },
    {
      "type": "node",
      "id": 10159395935,
      "lat": 12.9505044,
      "lon": 77.6243923,
      "tags": {
        "name": "Raj Communication",
        "shop": "mobile_phone"
      }
    },
    {
      "type": "node",
      "id": 10159395936,
      "lat": 12.9505168,
      "lon": 77.6243361,
      "tags": {
        "name": "K S R T C Travel House",
        "shop": "travel_agency"
      }
    },
    {
      "type": "node",
      "id": 10314122714,
      "lat": 12.9523754,
      "lon": 77.618828,
      "tags": {
        "amenity": "place_of_worship",
        "religion": "hindu"
      }
    },
    {
      "type": "node",
      "id": 10314122715,
      "lat": 12.9524002,
      "lon": 77.6190586,
      "tags": {
        "amenity": "community_centre",
        "name": "Samata Sainik Dal",
        "name:kn": "ಸಮತ ಸೈನಿಕ ದಳ",
        "ups_community": "community_centre",
        "website": "https://ssdindia.org/"
      }
    },
    {
      "type": "node",
      "id": 10740614251,
      "lat": 12.9379519,
      "lon": 77.6209361,
      "tags": {
        "amenity": "bicycle_parking"
      }
    },
    {
      "type": "node",
      "id": 10740621566,
      "lat": 12.9377909,
      "lon": 77.6215174,
      "tags": {
        "amenity": "toilets"
      }
    },
    {
      "type": "node",
      "id": 10740635747,
      "lat": 12.9402168,
      "lon": 77.6201873,
      "tags": {
        "amenity": "toilets",
        "male": "yes"
      }
    },
    {
      "type": "node",
      "id": 10760556145,
      "lat": 12.9443883,
      "lon": 77.6285671,
      "tags": {
        "amenity": "place_of_worship",
        "religion": "hindu"
      }
    },
    {
      "type": "node",
      "id": 10760556146,
      "lat": 12.9432852,
      "lon": 77.628734,
      "tags": {
        "amenity": "place_of_worship",
        "religion": "hindu"
      }
    },
    {
      "type": "node",
      "id": 10760556147,
      "lat": 12.9460064,
      "lon": 77.6268022,
      "tags": {
        "amenity": "place_of_worship",
        "name": "Jehovah Jireh AG Church",
        "religion": "christian"
      }
    },
    {
      "type": "node",
      "id": 10760556155,
      "lat": 12.9454823,
      "lon": 77.6227011,
      "tags": {
        "amenity": "post_box",
        "operator": "India Post",
        "operator:wikidata": "Q3519720"
      }
    },
    {
      "type": "node",
      "id": 10873245739,
      "lat": 12.9423062,
      "lon": 77.6227822,
      "tags": {
        "name": "Aubree",
        "shop": "chocolate",
        "website": "https://shop.aubree.in"
      }
    },
    {
      "type": "node",
      "id": 10873245757,
      "lat": 12.9485446,
      "lon": 77.6197252,
      "tags": {
        "amenity": "place_of_worship",
        "religion": "hindu"
      }
    },
    {
      "type": "node",
      "id": 11036798846,
      "lat": 12.9400467,
      "lon": 77.6179642,
      "tags": {
        "amenity": "pharmacy",
        "healthcare": "pharmacy",
        "name": "Roots Pharma"
      }
    },
    {
      "type": "node",
      "id": 11117270552,
      "lat": 12.937942,
      "lon": 77.6262087,
      "tags": {
        "amenity": "cafe",
        "brand": "Glen's Bakehouse",
        "delivery": "yes",
        "name": "Glen's Bakehouse",
        "shop": "pastry",
        "takeaway": "yes"
      }
    },
    {
      "type": "node",
      "id": 11277885669,
      "lat": 12.9398026,
      "lon": 77.625213,
      "tags": {
        "amenity": "restaurant",
        "contact:instagram": "ssurablr",
        "name": "Ssura"
      }
    },
    {
      "type": "node",
      "id": 11296273091,
      "lat": 12.9399627,
      "lon": 77.6280572,
      "tags": {
        "addr:city": "Ejipura, Bengaluru",
        "addr:district": "Bengaluru",
        "addr:housenumber": "8",
        "addr:postcode": "560047",
        "addr:street": "1st Main Road, Ashwini Layout",
        "air_conditioning": "yes",
        "female": "yes",
        "name": "illusion Saloon",
        "shop": "hairdresser"
      }
    },
    {
      "type": "node",
      "id": 11385562464,
      "lat": 12.9491111,
      "lon": 77.6201679,
      "tags": {
        "amenity": "bench",
        "backrest": "yes",
        "material": "stone",
        "seats": "2"
      }
    },
    {
      "type": "node",
      "id": 11385562465,
      "lat": 12.9475564,
      "lon": 77.6192527,
      "tags": {
        "amenity": "bench",
        "backrest": "yes",
        "material": "stone",
        "seats": "2"
      }
    },
    {
      "type": "node",
      "id": 11385562466,
      "lat": 12.947529,
      "lon": 77.6192363,
      "tags": {
        "amenity": "bench",
        "backrest": "yes",
        "material": "stone",
        "seats": "2"
      }
    },
    {
      "type": "node",
      "id": 11385580174,
      "lat": 12.9440443,
      "lon": 77.6207612,
      "tags": {
        "amenity": "fast_food",
        "check_date": "2023-11-30",
        "name": "Khana Junction"
      }
    },
    {
      "type": "node",
      "id": 11385580176,
      "lat": 12.9373048,
      "lon": 77.626698,
      "tags": {
        "check_date": "2023-11-30",
        "name": "rentomojo.com",
        "shop": "furniture"
      }
    },
    {
      "type": "node",
      "id": 11385580177,
      "lat": 12.9374519,
      "lon": 77.6265817,
      "tags": {
        "amenity": "pharmacy",
        "check_date": "2023-11-30",
        "healthcare": "pharmacy",
        "name": "Lavish Pharma"
      }
    },
    {
      "type": "node",
      "id": 11385580178,
      "lat": 12.9374048,
      "lon": 77.6266273,
      "tags": {
        "check_date": "2023-11-30",
        "name": "Satyam Office Suppliers",
        "shop": "stationery"
      }
    },
    {
      "type": "node",
      "id": 11385580180,
      "lat": 12.9381932,
      "lon": 77.6259997,
      "tags": {
        "check_date": "2023-11-30",
        "name": "Mega IT Store",
        "shop": "electronics"
      }
    },
    {
      "type": "node",
      "id": 11385580184,
      "lat": 12.9491259,
      "lon": 77.6201795,
      "tags": {
        "amenity": "bench",
        "backrest": "yes",
        "material": "stone",
        "seats": "2"
      }
    },
    {
      "type": "node",
      "id": 11385580185,
      "lat": 12.9408888,
      "lon": 77.6242864,
      "tags": {
        "amenity": "restaurant",
        "check_date": "2023-11-30",
        "name": "The Coorg Food Company"
      }
    },
    {
      "type": "node",
      "id": 11385580186,
      "lat": 12.9418935,
      "lon": 77.6231805,
      "tags": {
        "check_date": "2023-11-30",
        "name": "Satvik Aahar",
        "shop": "supermarket"
      }
    },
    {
      "type": "node",
      "id": 11385580187,
      "lat": 12.9425114,
      "lon": 77.6225024,
      "tags": {
        "check_date": "2023-11-30",
        "name": "Dell",
        "shop": "computer"
      }
    },
    {
      "type": "node",
      "id": 11385580188,
      "lat": 12.9431166,
      "lon": 77.6218102,
      "tags": {
        "brand": "Bajaj",
        "brand:wikidata": "Q10910065",
        "check_date": "2023-11-30",
        "name": "Bajaj",
        "name:kn": "ಬಜಾಜ್",
        "shop": "motorcycle"
      }
    },
    {
      "type": "node",
      "id": 11385580189,
      "lat": 12.9438577,
      "lon": 77.6209994,
      "tags": {
        "amenity": "fast_food",
        "check_date": "2023-11-30",
        "name": "Sri Udupi Utsav"
      }
    },
    {
      "type": "node",
      "id": 11385580190,
      "lat": 12.9452528,
      "lon": 77.6198347,
      "tags": {
        "brand": "Toni & Guy",
        "brand:wikidata": "Q324784",
        "check_date": "2023-11-30",
        "name": "Toni & Guy",
        "shop": "hairdresser"
      }
    },
    {
      "type": "node",
      "id": 11396013061,
      "lat": 12.9376704,
      "lon": 77.626955,
      "tags": {
        "amenity": "pub",
        "name": "Magique"
      }
    },
    {
      "type": "node",
      "id": 11398011945,
      "lat": 12.9390758,
      "lon": 77.6191481,
      "tags": {
        "amenity": "cafe",
        "branch": "Koramangala",
        "brand": "Chaayos",
        "brand:wikidata": "Q117235235",
        "cuisine": "tea",
        "name": "Chaayos",
        "takeaway": "yes"
      }
    },
    {
      "type": "node",
      "id": 11398011946,
      "lat": 12.9394664,
      "lon": 77.6193423,
      "tags": {
        "amenity": "cafe",
        "brand": "Tim Hortons",
        "brand:wikidata": "Q175106",
        "cuisine": "coffee_shop",
        "name": "Tim Hortons",
        "takeaway": "yes"
      }
    },
    {
      "type": "node",
      "id": 11505691629,
      "lat": 12.9372703,
      "lon": 77.6266577,
      "tags": {
        "check_date": "2024-01-10",
        "name": "GIVA",
        "shop": "jewelry"
      }
    },
    {
      "type": "node",
      "id": 11505724627,
      "lat": 12.9402757,
      "lon": 77.6248468,
      "tags": {
        "amenity": "fast_food",
        "check_date": "2024-01-10",
        "cuisine": "juice",
        "name": "Sri Ganesh Juice Junction"
      }
    },
    {
      "type": "node",
      "id": 11505756828,
      "lat": 12.9466331,
      "lon": 77.6186349,
      "tags": {
        "check_date": "2024-01-10",
        "name": "Classic Men's Salon",
        "shop": "hairdresser"
      }
    },
    {
      "type": "node",
      "id": 11505756829,
      "lat": 12.9477206,
      "lon": 77.6192277,
      "tags": {
        "amenity": "place_of_worship",
        "check_date": "2024-01-10",
        "religion": "hindu"
      }
    },
    {
      "type": "node",
      "id": 11505830446,
      "lat": 12.9537213,
      "lon": 77.6203916,
      "tags": {
        "access": "yes",
        "amenity": "drinking_water",
        "fee": "yes"
      }
    },
    {
      "type": "node",
      "id": 11780212783,
      "lat": 12.9376205,
      "lon": 77.6243795,
      "tags": {
        "amenity": "cafe",
        "name": "Cafe Reset"
      }
    },
    {
      "type": "node",
      "id": 12078376833,
      "lat": 12.9408051,
      "lon": 77.6241773,
      "tags": {
        "amenity": "restaurant",
        "contact:instagram": "cafezubaan",
        "cuisine": "arab",
        "delivery": "yes",
        "name": "Cafe Zubaan",
        "takeaway": "yes"
      }
    },
    {
      "type": "node",
      "id": 12129019639,
      "lat": 12.9408358,
      "lon": 77.6202589,
      "tags": {
        "amenity": "cafe",
        "delivery": "no",
        "name": "The Peck",
        "takeaway": "yes"
      }
    },
    {
      "type": "node",
      "id": 12162201547,
      "lat": 12.9393477,
      "lon": 77.6192653,
      "tags": {
        "amenity": "restaurant",
        "check_date": "2024-09-07",
        "cuisine": "regional;indian",
        "name": "Dindigul Ponram",
        "payment:cash": "yes",
        "payment:credit_cards": "yes",
        "payment:debit_cards": "yes"
      }
    },
    {
      "type": "node",
      "id": 12260570041,
      "lat": 12.9421337,
      "lon": 77.6219393,
      "tags": {
        "amenity": "restaurant",
        "name": "Yara Cafe"
      }
    },
    {
      "type": "node",
      "id": 12313885295,
      "lat": 12.9383091,
      "lon": 77.6271996,
      "tags": {
        "addr:city": "Ejipura",
        "addr:district": "Bengaluru",
        "addr:housenumber": "54/A",
        "addr:postcode": "560095",
        "addr:street": "Venkata Reddy Layout",
        "brand": "Worksupp",
        "name": "Worksupp (WSC Technologies Pvt ltd)",
        "opening_hours": "Mo-Sa 10:00-20:00",
        "shop": "wholesale",
        "website": "https://worksupp.com",
        "wholesale": "arecanut_plates,_housekeeping,_stationary"
      }
    },
    {
      "type": "node",
      "id": 12395928063,
      "lat": 12.9400829,
      "lon": 77.6255134,
      "tags": {
        "addr:city": "Bengaluru",
        "addr:suburb": "Koramangala",
        "amenity": "restaurant",
        "name": "Jolly Johnny's Bar"
      }
    },
    {
      "type": "node",
      "id": 12468378369,
      "lat": 12.9453987,
      "lon": 77.6196691,
      "tags": {
        "amenity": "restaurant",
        "brand": "Dave & Buster's",
        "brand:wikidata": "Q5228205",
        "cuisine": "american",
        "leisure": "amusement_arcade",
        "name": "Dave & Buster's"
      }
    },
    {
      "type": "node",
      "id": 12526065875,
      "lat": 12.9434791,
      "lon": 77.628423,
      "tags": {
        "addr:city": "Bengaluru",
        "addr:housenumber": "65",
        "addr:postcode": "560047",
        "addr:street": "Sri Rama Termple Road, Ejipura",
        "amenity": "bank",
        "brand": "ICICI Bank",
        "brand:wikidata": "Q1653258",
        "name": "ICICI Bank",
        "short_name": "ICICI"
      }
    },
    {
      "type": "node",
      "id": 13084285574,
      "lat": 12.940859,
      "lon": 77.6234175,
      "tags": {
        "amenity": "cafe",
        "check_date": "2025-08-20",
        "contact:instagram": "https://www.instagram.com/cafe.de.verde",
        "name": "Cafe de Verde"
      }
    },
    {
      "type": "way",
      "id": 28186787,
      "center": {
        "lat": 12.9382909,
        "lon": 77.6243154
      },
      "tags": {
        "leisure": "sports_centre",
        "name": "Koramangala Club",
        "name:kn": "ಕೋರಮಂಗಲ ಕ್ಲಬ್"
      }
    },
    {
      "type": "way",
      "id": 28186877,
      "center": {
        "lat": 12.9390827,
        "lon": 77.6197058
      },
      "tags": {
        "leisure": "park",
        "name": "Lakshmi Devi Park",
        "name:kn": "ಲಕ್ಷ್ಮಿದೇವಿ ಉದ್ಯಾನ"
      }
    },
    {
      "type": "way",
      "id": 32291084,
      "center": {
        "lat": 12.9389509,
        "lon": 77.6249907
      },
      "tags": {
        "leisure": "park"
      }
    },
    {
      "type": "way",
      "id": 32291138,
      "center": {
        "lat": 12.9406352,
        "lon": 77.6209531
      },
      "tags": {
        "amenity": "school",
        "name": "Bethany High School",
        "name:kn": "ಬೆತಾನಿ ಪ್ರೌಡಶಾಲೆ"
      }
    },
    {
      "type": "way",
      "id": 111996869,
      "center": {
        "lat": 12.9375355,
        "lon": 77.6281117
      },
      "tags": {
        "alt_name": "Salarpuria Oasis",
        "building": "yes",
        "name": "Oasis Centre",
        "shop": "mall"
      }
    },
    {
      "type": "way",
      "id": 112580278,
      "center": {
        "lat": 12.9536356,
        "lon": 77.6188074
      },
      "tags": {
        "amenity": "place_of_worship",
        "name": "Infant Jesus Church",
        "religion": "christian",
        "wikidata": "Q15378772",
        "wikimedia_commons": "Category:Infant Jesus Church, Bangalore",
        "wikipedia": "en:Infant Jesus Church, Bangalore"
      }
    },
    {
      "type": "way",
      "id": 122415848,
      "center": {
        "lat": 12.940967,
        "lon": 77.625052
      },
      "tags": {
        "amenity": "bus_station",
        "bus": "yes",
        "name": "Koramangala TTMC",
        "name:kn": "ಕೋರಮಂಗಲ",
        "operator": "BMTC",
        "public_transport": "station"
      }
    },
    {
      "type": "way",
      "id": 133355001,
      "center": {
        "lat": 12.9409255,
        "lon": 77.6291584
      },
      "tags": {
        "amenity": "place_of_worship",
        "building": "yes",
        "name": "Bethel Baptist Church",
        "religion": "christian"
      }
    },
    {
      "type": "way",
      "id": 166733773,
      "center": {
        "lat": 12.9405031,
        "lon": 77.6172058
      },
      "tags": {
        "leisure": "park",
        "name": "B R Ambedkar Park",
        "name:etymology:wikidata": "Q231690",
        "name:kn": "ಅಂಬೇಡ್ಕರ್ ಉದ್ಯಾನವನ"
      }
    },
    {
      "type": "way",
      "id": 166750577,
      "center": {
        "lat": 12.9432742,
        "lon": 77.6177477
      },
      "tags": {
        "amenity": "cinema",
        "name": "Shiva Theatre",
        "name:kn": "ಶಿವ"
      }
    },
    {
      "type": "way",
      "id": 172883350,
      "center": {
        "lat": 12.9446538,
        "lon": 77.6238972
      },
      "tags": {
        "full_name": "National Games Village Park",
        "leisure": "park",
        "name": "NGV Park"
      }
    },
    {
      "type": "way",
      "id": 201068721,
      "center": {
        "lat": 12.937577,
        "lon": 77.6211789
      },
      "tags": {
        "alt_name": "Chellamma Park",
        "leisure": "park",
        "name": "Leena Park",
        "source:alt_name": "anonymous note"
      }
    },
    {
      "type": "way",
      "id": 302838145,
      "center": {
        "lat": 12.9441475,
        "lon": 77.6234179
      },
      "tags": {
        "amenity": "bank",
        "brand": "Syndicate Bank",
        "brand:wikidata": "Q2004088",
        "building": "yes",
        "name": "Syndicate Bank",
        "name:kn": "ಸಿಂಡಿಕೇಟ್ ಬ್ಯಾಂಕ್"
      }
    },
    {
      "type": "way",
      "id": 326201186,
      "center": {
        "lat": 12.9543449,
        "lon": 77.6226955
      },
      "tags": {
        "amenity": "bus_station",
        "name": "Viveknagar Bus Station",
        "name:kn": "ವಿವೇಕನಗರ ಬಸ್ ನಿಲ್ದಾಣ",
        "wheelchair": "no"
      }
    },
    {
      "type": "way",
      "id": 326201187,
      "center": {
        "lat": 12.9519353,
        "lon": 77.6229445
      },
      "tags": {
        "landuse": "recreation_ground",
        "leisure": "playground",
        "name": "Viveknagar Ground"
      }
    },
    {
      "type": "way",
      "id": 326201188,
      "center": {
        "lat": 12.9523032,
        "lon": 77.6242867
      },
      "tags": {
        "leisure": "park"
      }
    },
    {
      "type": "way",
      "id": 331885717,
      "center": {
        "lat": 12.945884,
        "lon": 77.6236517
      },
      "tags": {
        "hoops": "2",
        "leisure": "pitch",
        "sport": "basketball",
        "surface": "concrete"
      }
    },
    {
      "type": "way",
      "id": 331885718,
      "center": {
        "lat": 12.9457611,
        "lon": 77.6237397
      },
      "tags": {
        "hoops": "2",
        "leisure": "pitch",
        "sport": "basketball",
        "surface": "concrete"
      }
    },
    {
      "type": "way",
      "id": 345895237,
      "center": {
        "lat": 12.9403448,
        "lon": 77.6252876
      },
      "tags": {
        "amenity": "fast_food",
        "brand": "Domino's",
        "brand:ks": "ڈومینوز",
        "brand:pa": "ਡੋਮੀਨੋਜ਼",
        "brand:ur": "ڈومینوز",
        "brand:wikidata": "Q839466",
        "brand:wikipedia": "en:Domino's Pizza",
        "building": "yes",
        "cuisine": "pizza",
        "name": "Domino's",
        "name:kn": "ಡಾಮಿನೋಸ್",
        "name:ks": "ڈومینوز",
        "name:pa": "ਡੋਮੀਨੋਜ਼",
        "name:ur": "ڈومینوز",
        "takeaway": "yes"
      }
    },
    {
      "type": "way",
      "id": 345917371,
      "center": {
        "lat": 12.9447386,
        "lon": 77.6288254
      },
      "tags": {
        "addr:city": "Ejipura",
        "addr:postcode": "560047",
        "addr:street": "Sri Rama Temple Road",
        "addr:suburb": "Ejipura",
        "alt_name": "GHS Ejipura",
        "amenity": "school",
        "building": "school",
        "building:levels": "4",
        "capacity": "120",
        "max_age": "16",
        "min_age": "13",
        "name": "Government High School",
        "name:kn": "ಸರ್ಕಾರಿ ಪ್ರೌಢಶಾಲೆ",
        "operator": "Government",
        "wheelchair": "yes"
      }
    },
    {
      "type": "way",
      "id": 346708710,
      "center": {
        "lat": 12.9478859,
        "lon": 77.6246231
      },
      "tags": {
        "amenity": "place_of_worship",
        "building": "chapel",
        "name": "Velankanni Chapel",
        "religion": "christian"
      }
    },
    {
      "type": "way",
      "id": 346779092,
      "center": {
        "lat": 12.9439197,
        "lon": 77.6272854
      },
      "tags": {
        "addr:city": "Ejipura, Bangaluru",
        "addr:postcode": "560095",
        "addr:street": "Pipeline Road",
        "amenity": "place_of_worship",
        "building": "yes",
        "name": "St. Chavara Church",
        "religion": "christian",
        "service_times": "Mo-Su 08:00-18:00"
      }
    },
    {
      "type": "way",
      "id": 346821156,
      "center": {
        "lat": 12.9544178,
        "lon": 77.6237098
      },
      "tags": {
        "addr:district": "Bangalore",
        "addr:postcode": "560047",
        "amenity": "place_of_worship",
        "building": "yes",
        "denomination": "sunni",
        "name": "Masjid E Mairaj",
        "name:kn": "ಮಸ್ಜಿದ್ ಇ ಮೈರಾಜ್",
        "religion": "muslim"
      }
    },
    {
      "type": "way",
      "id": 347126522,
      "center": {
        "lat": 12.9422662,
        "lon": 77.6281151
      },
      "tags": {
        "addr:city": "Bengaluru",
        "addr:postcode": "560047",
        "addr:street": "Sri Rama Temple Road",
        "air_conditioning": "yes",
        "building": "yes",
        "clothes": "men",
        "name": "Trends Collection",
        "opening_hours": "Mo-Su 09:00-22:00",
        "payment:cash": "yes",
        "payment:debit_cards": "yes",
        "shop": "clothes"
      }
    },
    {
      "type": "way",
      "id": 347159335,
      "center": {
        "lat": 12.9404099,
        "lon": 77.6199261
      },
      "tags": {
        "brand": "Reliance Fresh",
        "brand:wikidata": "Q7311014",
        "building": "yes",
        "name": "Reliance Fresh",
        "name:kn": "ರಿಲಯನ್ಸ್ ಫ್ರೆಶ್",
        "shop": "supermarket"
      }
    },
    {
      "type": "way",
      "id": 348839277,
      "center": {
        "lat": 12.941154,
        "lon": 77.6275686
      },
      "tags": {
        "addr:city": "Ejipura, Bengaluru",
        "addr:housenumber": "18",
        "addr:postcode": "560095",
        "addr:street": "Sri Rama Temple Road",
        "amenity": "place_of_worship",
        "building": "yes",
        "name": "Sri Mutyellama Temple",
        "name:kn": "ಮುತ್ಯಾಲಮ್ಮ ದೇವಸ್ಥಾನ",
        "religion": "hindu",
        "service_times": "Mo-Su 06:00 - 19:00"
      }
    },
    {
      "type": "way",
      "id": 351627455,
      "center": {
        "lat": 12.9410831,
        "lon": 77.623777
      },
      "tags": {
        "amenity": "dentist",
        "building": "yes",
        "healthcare": "dentist"
      }
    },
    {
      "type": "way",
      "id": 366254060,
      "center": {
        "lat": 12.9412874,
        "lon": 77.622297
      },
      "tags": {
        "amenity": "kindergarten",
        "name": "Bachpan Play School"
      }
    },
    {
      "type": "way",
      "id": 370388046,
      "center": {
        "lat": 12.9454671,
        "lon": 77.6186752
      },
      "tags": {
        "amenity": "fuel",
        "brand": "Indian Oil",
        "brand:wikidata": "Q1289348",
        "compressed_air": "yes",
        "fuel:diesel": "yes",
        "fuel:lpg": "yes",
        "fuel:petrol": "yes",
        "name": "Kaveri Petrol"
      }
    },
    {
      "type": "way",
      "id": 393815407,
      "center": {
        "lat": 12.9435056,
        "lon": 77.6228002
      },
      "tags": {
        "alt_name": "National Games Village Stadium",
        "leisure": "stadium",
        "name": "Koramangala Indoor Stadium",
        "name:kn": "ಕೋರಮಂಗಲ ಒಳಾಂಗಣ ಕ್ರೀಡಾಂಗಣ"
      }
    },
    {
      "type": "way",
      "id": 393815411,
      "center": {
        "lat": 12.9423733,
        "lon": 77.6239743
      },
      "tags": {
        "amenity": "animal_shelter",
        "name": "Akhila Karnataka Prani Daya",
        "name:kn": "ಅಖಿಲ ಕರ್ನಾಟಕ ಪ್ರಾಣಿ ದಯ"
      }
    },
    {
      "type": "way",
      "id": 401993917,
      "center": {
        "lat": 12.9490229,
        "lon": 77.6199247
      },
      "tags": {
        "amenity": "hospital",
        "name": "Government Hospital",
        "name:kn": "ಸರ್ಕಾರಿ ಆಸ್ಪತ್ರೆ",
        "ups_hospital": "general hospital"
      }
    },
    {
      "type": "way",
      "id": 402869173,
      "center": {
        "lat": 12.9447993,
        "lon": 77.6296947
      },
      "tags": {
        "addr:city": "Bengaluru",
        "addr:street": "Ejipura Main Road",
        "addr:suburb": "Ejipura",
        "alt_name": "GHPS Ejipura",
        "amenity": "school",
        "max_age": "13",
        "min_age": "6",
        "name": "Government Higher Primary School",
        "name:kn": "ಸರ್ಕಾರಿ ಹಿರಿಯ ಪ್ರಾಥಮಿಕ ಶಾಲೆ",
        "operator": "Government",
        "wheelchair": "yes"
      }
    },
    {
      "type": "way",
      "id": 429123140,
      "center": {
        "lat": 12.9420615,
        "lon": 77.6256944
      },
      "tags": {
        "leisure": "park"
      }
    },
    {
      "type": "way",
      "id": 429123141,
      "center": {
        "lat": 12.9424872,
        "lon": 77.6255954
      },
      "tags": {
        "leisure": "pitch"
      }
    },
    {
      "type": "way",
      "id": 429123142,
      "center": {
        "lat": 12.9420031,
        "lon": 77.6256203
      },
      "tags": {
        "leisure": "sports_centre",
        "name": "NGV Sports Club"
      }
    },
    {
      "type": "way",
      "id": 441572865,
      "center": {
        "lat": 12.9492755,
        "lon": 77.6212439
      },
      "tags": {
        "amenity": "school",
        "email": "info@npskrm.com",
        "isced:level": "3",
        "landuse": "education",
        "name": "National Public School Kormangala",
        "name:kn": "ನ್ಯಾಷನಲ್ ಪಬ್ಲಿಕ್ ಶಾಲೆ ಕೋರಮಂಗಲ, ಈಜಿಪುರ",
        "operator": "Private Un-Aided",
        "phone": "+91 80 2570 5171",
        "religion": "none",
        "school": "Higher Secondary",
        "school:gender": "mixed",
        "website": "https://npskrm.com",
        "wikidata": "Q6975123",
        "wikipedia": "en:National Public School, Koramangala"
      }
    },
    {
      "type": "way",
      "id": 609270066,
      "center": {
        "lat": 12.9491547,
        "lon": 77.6217817
      },
      "tags": {
        "access": "customers",
        "hoops": "2",
        "leisure": "pitch",
        "lit": "no",
        "name": "Cement Court",
        "sport": "basketball",
        "surface": "cement"
      }
    },
    {
      "type": "way",
      "id": 613381965,
      "center": {
        "lat": 12.9496067,
        "lon": 77.6208798
      },
      "tags": {
        "amenity": "fuel",
        "brand": "Indian Oil",
        "brand:wikidata": "Q1289348",
        "brand:wikipedia": "en:Indian Oil Corporation",
        "fuel:diesel": "yes",
        "fuel:petrol": "yes",
        "name": "Indian Oil",
        "name:kn": "ಇಂಡಿಯನ್ ಆಯಿಲ್"
      }
    },
    {
      "type": "way",
      "id": 613381973,
      "center": {
        "lat": 12.9493319,
        "lon": 77.6206167
      },
      "tags": {
        "access": "customers",
        "hoops": "1",
        "leisure": "pitch",
        "lit": "no",
        "name": "Back court",
        "sport": "basketball",
        "surface": "sand"
      }
    },
    {
      "type": "way",
      "id": 613381978,
      "center": {
        "lat": 12.9490048,
        "lon": 77.6206238
      },
      "tags": {
        "access": "customers",
        "leisure": "playground",
        "max_age": "6",
        "min_age": "3",
        "name": "KG Playground",
        "surface": "sand"
      }
    },
    {
      "type": "way",
      "id": 613469815,
      "center": {
        "lat": 12.9395203,
        "lon": 77.6253565
      },
      "tags": {
        "amenity": "fuel",
        "brand": "Indian Oil",
        "brand:wikidata": "Q1289348",
        "brand:wikipedia": "en:Indian Oil Corporation",
        "fuel:diesel": "yes",
        "fuel:petrol": "yes",
        "name": "Indian Oil",
        "name:kn": "ಇಂಡಿಯನ್ ಆಯಿಲ್"
      }
    },
    {
      "type": "way",
      "id": 621061139,
      "center": {
        "lat": 12.938341,
        "lon": 77.6265231
      },
      "tags": {
        "amenity": "parking"
      }
    },
    {
      "type": "way",
      "id": 635317788,
      "center": {
        "lat": 12.9452499,
        "lon": 77.6189892
      },
      "tags": {
        "amenity": "fuel",
        "brand": "Indian Oil",
        "brand:wikidata": "Q1289348",
        "brand:wikipedia": "en:Indian Oil Corporation",
        "compressed_air": "yes",
        "fuel:cng": "yes",
        "name": "Indian Oil",
        "name:kn": "ಇಂಡಿಯನ್ ಆಯಿಲ್"
      }
    },
    {
      "type": "way",
      "id": 766721105,
      "center": {
        "lat": 12.9400444,
        "lon": 77.6235497
      },
      "tags": {
        "leisure": "garden"
      }
    },
    {
      "type": "way",
      "id": 781192788,
      "center": {
        "lat": 12.9514387,
        "lon": 77.6250349
      },
      "tags": {
        "leisure": "park"
      }
    },
    {
      "type": "way",
      "id": 1086044094,
      "center": {
        "lat": 12.9508087,
        "lon": 77.6215833
      },
      "tags": {
        "amenity": "recycling",
        "name": "BBMP",
        "name:kn": "ಬೃ. ಬೆಂ. ಮ. ಪಾ.",
        "office": "government",
        "recycling_type": "centre"
      }
    },
    {
      "type": "way",
      "id": 1099882755,
      "center": {
        "lat": 12.9410977,
        "lon": 77.6214106
      },
      "tags": {
        "amenity": "police",
        "name": "Koramangala Police Station",
        "name:kn": "ಕೋರಮಂಗಲ ಆರಕ್ಷಕ ಠಾಣೆ"
      }
    },
    {
      "type": "way",
      "id": 1153736760,
      "center": {
        "lat": 12.9501568,
        "lon": 77.6182109
      },
      "tags": {
        "amenity": "clinic",
        "fee": "yes",
        "healthcare": "clinic",
        "name": "UPHC, Koramangala",
        "name:kn": "ಗ್ರಾಮಾಂತರ ಪ್ರಾಥಮಿಕ ಆರೋಗ್ಯ ಕೇಂದ್ರ",
        "operator": "BBMP"
      }
    },
    {
      "type": "way",
      "id": 1153736761,
      "center": {
        "lat": 12.9515077,
        "lon": 77.6252401
      },
      "tags": {
        "alt_name": "UPHC, Austin Town",
        "amenity": "clinic",
        "name": "UPHC, Viveknagar",
        "name:kn": "ಗ್ರಾಮಾಂತರ ಪ್ರಾಥಮಿಕ ಆರೋಗ್ಯ ಕೇಂದ್ರ",
        "operator": "BBMP"
      }
    },
    {
      "type": "way",
      "id": 1153736762,
      "center": {
        "lat": 12.952795,
        "lon": 77.6251835
      },
      "tags": {
        "leisure": "playground"
      }
    },
    {
      "type": "way",
      "id": 1153736764,
      "center": {
        "lat": 12.9518683,
        "lon": 77.622351
      },
      "tags": {
        "amenity": "police",
        "name": "Viveknagar Police Station",
        "name:kn": "ವಿವೇಕನಗರ ಆರಕ್ಷಕ ಠಾಣೆ"
      }
    },
    {
      "type": "way",
      "id": 1153736765,
      "center": {
        "lat": 12.9512681,
        "lon": 77.622113
      },
      "tags": {
        "amenity": "cinema",
        "name": "Ravi Cinemas"
      }
    },
    {
      "type": "way",
      "id": 1153736766,
      "center": {
        "lat": 12.9511632,
        "lon": 77.6228231
      },
      "tags": {
        "leisure": "park"
      }
    },
    {
      "type": "way",
      "id": 1155057714,
      "center": {
        "lat": 12.9378692,
        "lon": 77.621408
      },
      "tags": {
        "building": "yes",
        "leisure": "sports_hall"
      }
    },
    {
      "type": "way",
      "id": 1157119896,
      "center": {
        "lat": 12.9404725,
        "lon": 77.6275231
      },
      "tags": {
        "addr:place": "Ejipura",
        "amenity": "school",
        "isced:level": "3",
        "name": "Everest High School",
        "name:kn": "ಎವರೆಸ್ಟ್, ನೀಲಸಂದ್ರ",
        "operator": "Private Un-Aided",
        "school": "Higher Secondary"
      }
    },
    {
      "type": "way",
      "id": 1157119897,
      "center": {
        "lat": 12.9450046,
        "lon": 77.6287162
      },
      "tags": {
        "amenity": "place_of_worship",
        "religion": "hindu"
      }
    },
    {
      "type": "way",
      "id": 1157119903,
      "center": {
        "lat": 12.9472834,
        "lon": 77.6334983
      },
      "tags": {
        "leisure": "pitch",
        "name": "ASC Polo Ground",
        "operator": "ASC",
        "sport": "equestrian"
      }
    },
    {
      "type": "way",
      "id": 1218033510,
      "center": {
        "lat": 12.954134,
        "lon": 77.623748
      },
      "tags": {
        "addr:city": "Bengaluru",
        "addr:postcode": "560047",
        "addr:street": "4th Main Rd, Viveka Nagar",
        "branch": "Milk Parlour",
        "brand": "Nandini",
        "brand:wikidata": "Q124374212",
        "building": "yes",
        "name": "Nandini Shoppe",
        "name:kn": "ನಂದಿನಿ ಹಾಲಿನ ಅಂಗಡಿ",
        "shop": "dairy"
      }
    },
    {
      "type": "way",
      "id": 1237434577,
      "center": {
        "lat": 12.9395439,
        "lon": 77.6280117
      },
      "tags": {
        "amenity": "parking",
        "parking": "surface"
      }
    },
    {
      "type": "way",
      "id": 1258131866,
      "center": {
        "lat": 12.9387216,
        "lon": 77.6244241
      },
      "tags": {
        "access": "permissive",
        "leisure": "swimming_pool"
      }
    },
    {
      "type": "way",
      "id": 1258131867,
      "center": {
        "lat": 12.938307,
        "lon": 77.6239072
      },
      "tags": {
        "leisure": "pitch",
        "sport": "tennis"
      }
    }
  ]
}