{
  "area_name": "Isaac Layout",
  "osm_id": 10983994555,
  "osm_type": "node",
  "place_type": "neighbourhood",
  "amenity_count": 59,
  "amenities": [
    {
      "type": "node",
      "id": 959509895,
      "lat": 13.1077028,
      "lon": 77.5806507,
      "tags": {
        "name": "Kanti Sweets",
        "shop": "confectionery",
        "wheelchair": "limited"
      }
    },
    {
      "type": "node",
      "id": 2537631631,
      "lat": 13.1070925,
      "lon": 77.5756631,
      "tags": {
        "amenity": "restaurant",
        "name": "Sri Ganesh Bake Paradise"
      }
    },
    {
      "type": "node",
      "id": 3641302856,
      "lat": 13.1076367,
      "lon": 77.5734215,
      "tags": {
        "amenity": "place_of_worship",
        "name": "Billal-E-Masjid",
        "religion": "muslim"
      }
    },
    {
      "type": "node",
      "id": 4242256789,
      "lat": 13.1110497,
      "lon": 77.5797494,
      "tags": {
        "addr:postcode": "560064",
        "addr:street": "Doddaballapur Road",
        "amenity": "bus_station",
        "name": "Bus Station Puttanahalli",
        "name:kn": "ಪುಟ್ಟನಹಳ್ಳಿ ಬಸ್ ನಿಲ್ದಾಣ"
      }
    },
    {
      "type": "node",
      "id": 4997735501,
      "lat": 13.1155339,
      "lon": 77.5770221,
      "tags": {
        "addr:city": "bangalore",
        "addr:postcode": "560064",
        "addr:street": "susheelamma layout",
        "amenity": "place_of_worship",
        "denomination": "hindu",
        "name": "Ganesha Shrine",
        "name:kn": "ಗಣೇಶ ಗುಡಿ",
        "religion": "hindu"
      }
    },
    {
      "type": "node",
      "id": 5000226091,
      "lat": 13.1143086,
      "lon": 77.5791243,
      "tags": {
        "addr:city": "bangalore",
        "addr:housenumber": "SH-9",
        "addr:postcode": "560064",
        "addr:street": "Doddaballapur Road",
        "amenity": "place_of_worship",
        "denomination": "hindu",
        "name": "Shri Anjaneya shrine",
        "name:kn": "ಅಂಜನೆಯ ಗುಡಿ",
        "religion": "hindu"
      }
    },
    {
      "type": "node",
      "id": 5707092821,
      "lat": 13.1180936,
      "lon": 77.5725944,
      "tags": {
        "amenity": "community_centre",
        "name": "Royal Kempegowda Convention Center"
      }
    },
    {
      "type": "node",
      "id": 5964485859,
      "lat": 13.1214753,
      "lon": 77.5764289,
      "tags": {
        "name": "Nice Mart",
        "shop": "supermarket"
      }
    },
    {
      "type": "node",
      "id": 7230029017,
      "lat": 13.1192444,
      "lon": 77.5803637,
      "tags": {
        "amenity": "parking"
      }
    },
    {
      "type": "node",
      "id": 7230029018,
      "lat": 13.1199262,
      "lon": 77.5796905,
      "tags": {
        "amenity": "parking"
      }
    },
    {
      "type": "node",
      "id": 7230029034,
      "lat": 13.116341,
      "lon": 77.5781161,
      "tags": {
        "amenity": "restaurant",
        "name": "3 Peg Bar and Restaurant",
        "name:kn": "3 ಪೆಗ್ ಬಾರ್ ಮತ್ತು ರೆಸ್ಟೋರೆಂಟ್",
        "wheelchair": "limited"
      }
    },
    {
      "type": "node",
      "id": 7230029088,
      "lat": 13.1143831,
      "lon": 77.5789408,
      "tags": {
        "name": "Just Bake",
        "shop": "bakery"
      }
    },
    {
      "type": "node",
      "id": 7230029089,
      "lat": 13.1140618,
      "lon": 77.5789194,
      "tags": {
        "name": "Royal Mart",
        "shop": "supermarket"
      }
    },
    {
      "type": "node",
      "id": 10293914392,
      "lat": 13.1090384,
      "lon": 77.5803302,
      "tags": {
        "diet:vegetarian": "only",
        "name": "Simpli Namdhari's",
        "organic": "only",
        "shop": "supermarket",
        "website": "https://www.simplinamdharis.com/"
      }
    },
    {
      "type": "node",
      "id": 10971500592,
      "lat": 13.1081782,
      "lon": 77.5801411,
      "tags": {
        "access": "permissive",
        "amenity": "parking_entrance",
        "parking": "underground"
      }
    },
    {
      "type": "node",
      "id": 11921193978,
      "lat": 13.1165088,
      "lon": 77.5769527,
      "tags": {
        "access": "private",
        "amenity": "parking_entrance",
        "parking": "underground"
      }
    },
    {
      "type": "node",
      "id": 11921193984,
      "lat": 13.1164167,
      "lon": 77.5760025,
      "tags": {
        "access": "private",
        "amenity": "parking_entrance",
        "parking": "underground"
      }
    },
    {
      "type": "node",
      "id": 12128997662,
      "lat": 13.1133093,
      "lon": 77.5748035,
      "tags": {
        "amenity": "place_of_worship",
        "check_date": "2025-04-11",
        "denomination": "reddy",
        "name": "Shiva Temple (Built by Ramakka)",
        "religion": "hindu"
      }
    },
    {
      "type": "node",
      "id": 12260569913,
      "lat": 13.1145947,
      "lon": 77.5778291,
      "tags": {
        "amenity": "restaurant",
        "name": "Aangan"
      }
    },
    {
      "type": "node",
      "id": 12412564737,
      "lat": 13.1079225,
      "lon": 77.5806948,
      "tags": {
        "check_date": "2024-11-29",
        "drive_through": "no",
        "internet_access": "no",
        "name": "Rajdhani Liquors",
        "payment:cash": "yes",
        "payment:credit_cards": "yes",
        "shop": "alcohol",
        "wheelchair": "no"
      }
    },
    {
      "type": "node",
      "id": 12632035896,
      "lat": 13.1090044,
      "lon": 77.5802122,
      "tags": {
        "amenity": "restaurant",
        "name": "Shukra Dine"
      }
    },
    {
      "type": "node",
      "id": 12632035897,
      "lat": 13.1090867,
      "lon": 77.5802082,
      "tags": {
        "amenity": "restaurant",
        "name": "ON DE Roof"
      }
    },
    {
      "type": "node",
      "id": 12749773445,
      "lat": 13.1142754,
      "lon": 77.5689594,
      "tags": {
        "check_date": "2025-04-12",
        "internet_access": "no",
        "name": "Suguna Super Market",
        "payment:upi": "yes",
        "shop": "supermarket",
        "wheelchair": "no"
      }
    },
    {
      "type": "way",
      "id": 133125287,
      "center": {
        "lat": 13.1184672,
        "lon": 77.575678
      },
      "tags": {
        "addr:street": "Doddaballapur Road",
        "amenity": "school",
        "name": "Kendriya Vidyalaya CRPF",
        "name:kn": "ಕೇಂದ್ರಿಯ ವಿದ್ಯಾಲಯ"
      }
    },
    {
      "type": "way",
      "id": 628258487,
      "center": {
        "lat": 13.1166813,
        "lon": 77.5760199
      },
      "tags": {
        "leisure": "swimming_pool"
      }
    },
    {
      "type": "way",
      "id": 628258488,
      "center": {
        "lat": 13.1172702,
        "lon": 77.5761464
      },
      "tags": {
        "leisure": "swimming_pool"
      }
    },
    {
      "type": "way",
      "id": 766720021,
      "center": {
        "lat": 13.1247842,
        "lon": 77.5764128
      },
      "tags": {
        "amenity": "hospital",
        "name": "CRPF Hospital",
        "name:kn": "ಕೇಂದ್ರ ಮೀಸಲು ಪಡೆ ಆಸ್ಪತ್ರೆ",
        "wheelchair": "yes"
      }
    },
    {
      "type": "way",
      "id": 766720031,
      "center": {
        "lat": 13.1189023,
        "lon": 77.5793208
      },
      "tags": {
        "leisure": "swimming_pool"
      }
    },
    {
      "type": "way",
      "id": 773577280,
      "center": {
        "lat": 13.1089877,
        "lon": 77.5813237
      },
      "tags": {
        "alt_name": "Kalyana Mantapa",
        "amenity": "community_centre",
        "name": "Utsava Convention Hall"
      }
    },
    {
      "type": "way",
      "id": 774954546,
      "center": {
        "lat": 13.1217871,
        "lon": 77.5771072
      },
      "tags": {
        "access": "permissive",
        "leisure": "swimming_pool"
      }
    },
    {
      "type": "way",
      "id": 774954554,
      "center": {
        "lat": 13.1193345,
        "lon": 77.579716
      },
      "tags": {
        "leisure": "garden"
      }
    },
    {
      "type": "way",
      "id": 774954555,
      "center": {
        "lat": 13.119537,
        "lon": 77.5796718
      },
      "tags": {
        "leisure": "garden"
      }
    },
    {
      "type": "way",
      "id": 774954563,
      "center": {
        "lat": 13.1145189,
        "lon": 77.5783112
      },
      "tags": {
        "leisure": "garden"
      }
    },
    {
      "type": "way",
      "id": 774954564,
      "center": {
        "lat": 13.1144598,
        "lon": 77.5778666
      },
      "tags": {
        "access": "customers",
        "leisure": "swimming_pool"
      }
    },
    {
      "type": "way",
      "id": 774954565,
      "center": {
        "lat": 13.1145392,
        "lon": 77.5779081
      },
      "tags": {
        "amenity": "community_centre",
        "landuse": "commercial",
        "leisure": "resort",
        "name": "Ramanashree California Resort",
        "website": "https://www.ramanashree.com/"
      }
    },
    {
      "type": "way",
      "id": 1181417661,
      "center": {
        "lat": 13.108329,
        "lon": 77.579839
      },
      "tags": {
        "access": "permissive",
        "amenity": "parking",
        "parking": "surface"
      }
    },
    {
      "type": "way",
      "id": 1181417667,
      "center": {
        "lat": 13.1076379,
        "lon": 77.5798826
      },
      "tags": {
        "leisure": "park"
      }
    },
    {
      "type": "way",
      "id": 1181417669,
      "center": {
        "lat": 13.1077636,
        "lon": 77.5797492
      },
      "tags": {
        "access": "permissive",
        "leisure": "swimming_pool"
      }
    },
    {
      "type": "way",
      "id": 1181417676,
      "center": {
        "lat": 13.1086459,
        "lon": 77.5803597
      },
      "tags": {
        "amenity": "animal_shelter",
        "animal_shelter": "mammal",
        "landuse": "recreation_ground",
        "name": "Cow Shed",
        "natural": "scrub"
      }
    },
    {
      "type": "way",
      "id": 1182880583,
      "center": {
        "lat": 13.1180457,
        "lon": 77.5693124
      },
      "tags": {
        "leisure": "park"
      }
    },
    {
      "type": "way",
      "id": 1182880586,
      "center": {
        "lat": 13.1166792,
        "lon": 77.5800714
      },
      "tags": {
        "amenity": "hospital",
        "name": "KPTCL Hospital Yelahanka"
      }
    },
    {
      "type": "way",
      "id": 1182962298,
      "center": {
        "lat": 13.1115981,
        "lon": 77.5747091
      },
      "tags": {
        "leisure": "park"
      }
    },
    {
      "type": "way",
      "id": 1238373962,
      "center": {
        "lat": 13.1105693,
        "lon": 77.5803939
      },
      "tags": {
        "leisure": "park"
      }
    },
    {
      "type": "way",
      "id": 1238373981,
      "center": {
        "lat": 13.1075552,
        "lon": 77.5799961
      },
      "tags": {
        "leisure": "playground"
      }
    },
    {
      "type": "way",
      "id": 1238373982,
      "center": {
        "lat": 13.1075588,
        "lon": 77.5797447
      },
      "tags": {
        "leisure": "playground"
      }
    },
    {
      "type": "way",
      "id": 1253477223,
      "center": {
        "lat": 13.1187138,
        "lon": 77.5790869
      },
      "tags": {
        "leisure": "pitch",
        "sport": "tennis"
      }
    },
    {
      "type": "way",
      "id": 1285043072,
      "center": {
        "lat": 13.1181849,
        "lon": 77.5766007
      },
      "tags": {
        "access": "permissive",
        "amenity": "parking",
        "parking": "surface"
      }
    },
    {
      "type": "way",
      "id": 1285043073,
      "center": {
        "lat": 13.1177446,
        "lon": 77.5769259
      },
      "tags": {
        "leisure": "pitch",
        "sport": "basketball"
      }
    },
    {
      "type": "way",
      "id": 1285043177,
      "center": {
        "lat": 13.1165088,
        "lon": 77.5767897
      },
      "tags": {
        "access": "permissive",
        "amenity": "parking",
        "parking": "surface"
      }
    },
    {
      "type": "way",
      "id": 1285043178,
      "center": {
        "lat": 13.1164032,
        "lon": 77.5753589
      },
      "tags": {
        "access": "permissive",
        "amenity": "parking",
        "parking": "surface"
      }
    },
    {
      "type": "way",
      "id": 1323789400,
      "center": {
        "lat": 13.1074572,
        "lon": 77.5761591
      },
      "tags": {
        "amenity": "prep_school",
        "building": "yes",
        "name": "Allen Career Institute",
        "operator:type": "private",
        "wheelchair": "yes"
      }
    },
    {
      "type": "way",
      "id": 1324940127,
      "center": {
        "lat": 13.1145168,
        "lon": 77.5770085
      },
      "tags": {
        "leisure": "pitch",
        "sport": "tennis"
      }
    },
    {
      "type": "way",
      "id": 1348650366,
      "center": {
        "lat": 13.1110495,
        "lon": 77.5802926
      },
      "tags": {
        "amenity": "place_of_worship",
        "landuse": "religious",
        "religion": "hindu"
      }
    },
    {
      "type": "way",
      "id": 1348650371,
      "center": {
        "lat": 13.1087079,
        "lon": 77.5810132
      },
      "tags": {
        "leisure": "garden"
      }
    },
    {
      "type": "way",
      "id": 1348650372,
      "center": {
        "lat": 13.109019,
        "lon": 77.5808986
      },
      "tags": {
        "leisure": "garden"
      }
    },
    {
      "type": "way",
      "id": 1348650373,
      "center": {
        "lat": 13.1093558,
        "lon": 77.5808619
      },
      "tags": {
        "access": "private",
        "amenity": "parking",
        "parking": "surface"
      }
    },
    {
      "type": "way",
      "id": 1365454967,
      "center": {
        "lat": 13.1077543,
        "lon": 77.5747848
      },
      "tags": {
        "amenity": "place_of_worship",
        "landuse": "religious",
        "name": "Shiva Temple",
        "name:kn": "ಶಿವ ದೇವಸ್ಥಾನ",
        "religion": "hindu"
      }
    },
    {
      "type": "way",
      "id": 1365454970,
      "center": {
        "lat": 13.1117947,
        "lon": 77.5713025
      },
      "tags": {
        "access": "private",
        "leisure": "swimming_pool"
      }
    },
    {
      "type": "way",
      "id": 1428234037,
      "center": {
        "lat": 13.1149517,
        "lon": 77.573367
      },
      "tags": {
        "description": "Retail Space where Goods of daily use is sold to Public",
        "landuse": "retail",
        "name": "KPN Fresh",
        "shop": "supermarket"
      }
    }
  ]
}