{
  "area_name": "J.P PARK",
  "osm_id": 19883413,
  "osm_type": "relation",
  "place_type": "administrative",
  "amenity_count": 20,
  "amenities": [
    {
      "type": "node",
      "id": 638988095,
      "lat": 13.0326654,
      "lon": 77.5537972,
      "tags": {
        "amenity": "post_office",
        "name": "Shree Chowdeshwari Post Office",
        "wheelchair": "no"
      }
    },
    {
      "type": "node",
      "id": 8364368007,
      "lat": 13.0290405,
      "lon": 77.5534527,
      "tags": {
        "name": "B.M. Chicken stall",
        "shop": "butcher"
      }
    },
    {
      "type": "node",
      "id": 8427329628,
      "lat": 13.0352127,
      "lon": 77.5516758,
      "tags": {
        "amenity": "shelter"
      }
    },
    {
      "type": "node",
      "id": 8427345116,
      "lat": 13.035149,
      "lon": 77.551521,
      "tags": {
        "amenity": "bench"
      }
    },
    {
      "type": "node",
      "id": 8427345703,
      "lat": 13.0344526,
      "lon": 77.5507974,
      "tags": {
        "amenity": "shelter"
      }
    },
    {
      "type": "node",
      "id": 8427350030,
      "lat": 13.0360573,
      "lon": 77.5530606,
      "tags": {
        "leisure": "playground",
        "name": "Childrens play area"
      }
    },
    {
      "type": "node",
      "id": 8427351025,
      "lat": 13.0353351,
      "lon": 77.5522161,
      "tags": {
        "amenity": "bench"
      }
    },
    {
      "type": "node",
      "id": 8427351188,
      "lat": 13.0349208,
      "lon": 77.5514821,
      "tags": {
        "amenity": "bench"
      }
    },
    {
      "type": "node",
      "id": 8427352488,
      "lat": 13.0352837,
      "lon": 77.5520765,
      "tags": {
        "amenity": "bench"
      }
    },
    {
      "type": "node",
      "id": 8427354831,
      "lat": 13.0347025,
      "lon": 77.5513895,
      "tags": {
        "amenity": "bench"
      }
    },
    {
      "type": "node",
      "id": 8463198337,
      "lat": 13.0323599,
      "lon": 77.5536575,
      "tags": {
        "amenity": "toilets",
        "fee": "yes"
      }
    },
    {
      "type": "node",
      "id": 8544017587,
      "lat": 13.0298326,
      "lon": 77.5534828,
      "tags": {
        "amenity": "atm",
        "brand": "HDFC Bank",
        "brand:wikidata": "Q631047",
        "name": "HDFC Bank",
        "operator": "HDFC Bank",
        "operator:wikidata": "Q631047",
        "short_name": "HDFC"
      }
    },
    {
      "type": "node",
      "id": 8544082326,
      "lat": 13.0299023,
      "lon": 77.5534768,
      "tags": {
        "amenity": "pharmacy",
        "name": "Nandini Medicals"
      }
    },
    {
      "type": "node",
      "id": 8544085413,
      "lat": 13.0292949,
      "lon": 77.5549852,
      "tags": {
        "name": "Shivananda Provision store",
        "shop": "yes"
      }
    },
    {
      "type": "way",
      "id": 37107047,
      "center": {
        "lat": 13.0348402,
        "lon": 77.5507145
      },
      "tags": {
        "leisure": "park",
        "name": "Jayaprakash Narayan Park",
        "name:etymology:wikidata": "Q734509",
        "name:kn": "ಜಯಪ್ರಕಾಶ ನಾರಾಯಣ ಉದ್ಯಾನ"
      }
    },
    {
      "type": "way",
      "id": 236577270,
      "center": {
        "lat": 13.0375171,
        "lon": 77.5522746
      },
      "tags": {
        "leisure": "swimming_pool",
        "sport": "swimming",
        "wheelchair": "limited"
      }
    },
    {
      "type": "way",
      "id": 287724333,
      "center": {
        "lat": 13.0328303,
        "lon": 77.5540115
      },
      "tags": {
        "amenity": "bus_station",
        "name": "Choudeshwari Bus Stand",
        "name:kn": "ಚೌಡೇಶ್ವರಿ ಬಸ್‌ ನಿಲ್ದಾಣ (ಮತ್ತಿಕೆರೆ)",
        "wheelchair": "no"
      }
    },
    {
      "type": "way",
      "id": 346459984,
      "center": {
        "lat": 13.0384448,
        "lon": 77.5524873
      },
      "tags": {
        "amenity": "cinema",
        "building": "yes",
        "name": "Swagath Murali Cinema"
      }
    },
    {
      "type": "way",
      "id": 674362392,
      "center": {
        "lat": 13.0331759,
        "lon": 77.5531194
      },
      "tags": {
        "leisure": "pitch",
        "name": "JP Ground"
      }
    },
    {
      "type": "way",
      "id": 1087820282,
      "center": {
        "lat": 13.0273983,
        "lon": 77.5517047
      },
      "tags": {
        "amenity": "school",
        "brand": "Kendriya Vidyalaya",
        "brand:wikidata": "Q1156653",
        "name": "Kendriya Vidyalaya",
        "name:kn": "ಕೇಂದ್ರಿಯ ವಿದ್ಯಾಲಯ",
        "operator:type": "government_non_profit"
      }
    }
  ]
}