{
  "area_name": "J.P Nagar",
  "osm_id": 19883265,
  "osm_type": "relation",
  "place_type": "administrative",
  "amenity_count": 207,
  "amenities": [
    {
      "type": "node",
      "id": 1397260169,
      "lat": 12.9052591,
      "lon": 77.5951539,
      "tags": {
        "addr:city": "Bengaluru",
        "addr:postcode": "560078",
        "addr:street": "3rd Main Road",
        "name": "MK Ahmed Bazar",
        "organic": "yes",
        "shop": "supermarket",
        "website": "https://www.mkretail.com/"
      }
    },
    {
      "type": "node",
      "id": 1466669150,
      "lat": 12.9071627,
      "lon": 77.5988768,
      "tags": {
        "name": "Crossword",
        "shop": "books"
      }
    },
    {
      "type": "node",
      "id": 1467143629,
      "lat": 12.9140071,
      "lon": 77.5993825,
      "tags": {
        "amenity": "cinema",
        "level": "3",
        "name": "Gopalan Cinemas",
        "name:kn": "ಗೋಪಾಲನ್ ಸಿನೆಮಾಸ್",
        "opening_hours": "PH,Mo-Su 09:00-22:00"
      }
    },
    {
      "type": "node",
      "id": 1468035295,
      "lat": 12.9189547,
      "lon": 77.607059,
      "tags": {
        "amenity": "place_of_worship",
        "name": "Ganesha Temple",
        "name:kn": "ಗಣೇಶ ದೇವಸ್ಥಾನ",
        "religion": "hindu"
      }
    },
    {
      "type": "node",
      "id": 1468035313,
      "lat": 12.9168527,
      "lon": 77.6034541,
      "tags": {
        "amenity": "fast_food",
        "check_date": "2023-12-04",
        "name": "Juice Burg Cafe"
      }
    },
    {
      "type": "node",
      "id": 1468035355,
      "lat": 12.9180449,
      "lon": 77.6018824,
      "tags": {
        "amenity": "place_of_worship",
        "name": "Saibaba Temple",
        "name:kn": "ಸಾಯಿಬಾಬಾ ದೇವಸ್ಥಾನ",
        "religion": "hindu"
      }
    },
    {
      "type": "node",
      "id": 1468035390,
      "lat": 12.9168632,
      "lon": 77.6045592,
      "tags": {
        "amenity": "atm",
        "fee": "ING vysya"
      }
    },
    {
      "type": "node",
      "id": 1470640244,
      "lat": 12.916875,
      "lon": 77.6024995,
      "tags": {
        "amenity": "place_of_worship",
        "name": "Lord Shiva Temple",
        "name:kn": "ಶಿವ ದೇವಸ್ಥಾನ",
        "religion": "hindu"
      }
    },
    {
      "type": "node",
      "id": 1801503131,
      "lat": 12.9060493,
      "lon": 77.5951397,
      "tags": {
        "name": "K C Das",
        "shop": "confectionery"
      }
    },
    {
      "type": "node",
      "id": 1801505690,
      "lat": 12.9063265,
      "lon": 77.5960973,
      "tags": {
        "amenity": "fast_food",
        "cuisine": "indian",
        "name": "Chaithanya Restaurant"
      }
    },
    {
      "type": "node",
      "id": 2357184836,
      "lat": 12.9055105,
      "lon": 77.595119,
      "tags": {
        "amenity": "restaurant",
        "cuisine": "pizza",
        "name": "Pizza Stop"
      }
    },
    {
      "type": "node",
      "id": 2357184837,
      "lat": 12.9056098,
      "lon": 77.595119,
      "tags": {
        "amenity": "restaurant",
        "cuisine": "ice_cream",
        "name": "Gelato"
      }
    },
    {
      "type": "node",
      "id": 2357184842,
      "lat": 12.9063288,
      "lon": 77.5965004,
      "tags": {
        "amenity": "cafe",
        "cuisine": "sandwich",
        "name": "Daily Bread"
      }
    },
    {
      "type": "node",
      "id": 2357184843,
      "lat": 12.9064308,
      "lon": 77.5968652,
      "tags": {
        "amenity": "restaurant",
        "cuisine": "kebab",
        "name": "Barbeque Nation",
        "phone": "+918060600002",
        "website": "https://www.barbeque-nation.com/"
      }
    },
    {
      "type": "node",
      "id": 2357184844,
      "lat": 12.9064098,
      "lon": 77.596723,
      "tags": {
        "brand": "Gold's Gym",
        "brand:wikidata": "Q1536234",
        "leisure": "fitness_centre",
        "name": "Gold's Gym"
      }
    },
    {
      "type": "node",
      "id": 2357184845,
      "lat": 12.9061118,
      "lon": 77.5967632,
      "tags": {
        "amenity": "fast_food",
        "brand": "Au Bon Pain",
        "brand:wikidata": "Q4818942",
        "cuisine": "sandwich",
        "internet_access": "yes",
        "name": "Au Bon Pain",
        "takeaway": "yes"
      }
    },
    {
      "type": "node",
      "id": 2357184846,
      "lat": 12.9061458,
      "lon": 77.5968786,
      "tags": {
        "amenity": "fast_food",
        "brand": "Domino's",
        "brand:ks": "ڈومینوز",
        "brand:pa": "ਡੋਮੀਨੋਜ਼",
        "brand:ur": "ڈومینوز",
        "brand:wikidata": "Q839466",
        "brand:wikipedia": "en:Domino's Pizza",
        "cuisine": "pizza",
        "name": "Domino's",
        "name:ks": "ڈومینوز",
        "name:pa": "ਡੋਮੀਨੋਜ਼",
        "name:ur": "ڈومینوز",
        "takeaway": "yes"
      }
    },
    {
      "type": "node",
      "id": 2357184852,
      "lat": 12.9117616,
      "lon": 77.5990109,
      "tags": {
        "amenity": "restaurant",
        "cuisine": "regional",
        "name": "MTR 1924"
      }
    },
    {
      "type": "node",
      "id": 2357184857,
      "lat": 12.9114243,
      "lon": 77.5990217,
      "tags": {
        "amenity": "fast_food",
        "cuisine": "regional",
        "name": "Park View"
      }
    },
    {
      "type": "node",
      "id": 2561072706,
      "lat": 12.9167048,
      "lon": 77.6069253,
      "tags": {
        "amenity": "bank",
        "atm": "yes",
        "brand": "Corporation Bank",
        "brand:wikidata": "Q2003387",
        "brand:wikipedia": "en:Corporation Bank",
        "name": "Corporation Bank",
        "name:en": "Corporation Bank",
        "name:kn": "ಕಾರ್ಪರೇಷನ್ ಬ್ಯಾಂಕ್",
        "website": "https://corpbank.com/"
      }
    },
    {
      "type": "node",
      "id": 2677285854,
      "lat": 12.9076665,
      "lon": 77.596728,
      "tags": {
        "amenity": "school",
        "name": "Ekya School"
      }
    },
    {
      "type": "node",
      "id": 2891394131,
      "lat": 12.9061378,
      "lon": 77.5951859,
      "tags": {
        "name": "Greengold Store",
        "shop": "toys"
      }
    },
    {
      "type": "node",
      "id": 2918827908,
      "lat": 12.9099094,
      "lon": 77.5998609,
      "tags": {
        "amenity": "bank",
        "atm": "yes",
        "brand": "Yes Bank",
        "brand:wikidata": "Q2040394",
        "brand:wikipedia": "en:Yes Bank",
        "name": "Yes Bank",
        "name:en": "YES Bank",
        "name:kn": "ಯಸ್ ಬ್ಯಾಂಕ್",
        "website": "https://www.yesbank.in"
      }
    },
    {
      "type": "node",
      "id": 2918828415,
      "lat": 12.9088379,
      "lon": 77.5999309,
      "tags": {
        "amenity": "bank",
        "brand": "Axis Bank",
        "brand:wikidata": "Q2003549",
        "brand:wikipedia": "en:Axis Bank",
        "name": "Axis Bank",
        "name:en": "Axis Bank",
        "name:kn": "ಆಕ್ಸಿಸ್ ಬ್ಯಾಂಕ್",
        "website": "https://www.axisbank.com"
      }
    },
    {
      "type": "node",
      "id": 2934044440,
      "lat": 12.9165996,
      "lon": 77.5970356,
      "tags": {
        "amenity": "pharmacy",
        "dispensing": "yes",
        "healthcare": "pharmacy",
        "name": "Bharathi Medical Stores"
      }
    },
    {
      "type": "node",
      "id": 2934044441,
      "lat": 12.9166576,
      "lon": 77.5970419,
      "tags": {
        "name": "Cake Corner",
        "shop": "bakery"
      }
    },
    {
      "type": "node",
      "id": 2934044442,
      "lat": 12.9166467,
      "lon": 77.5971555,
      "tags": {
        "name": "Dennys Bar",
        "shop": "alcohol"
      }
    },
    {
      "type": "node",
      "id": 2934044443,
      "lat": 12.9164737,
      "lon": 77.596929,
      "tags": {
        "amenity": "restaurant",
        "brand": "Denny's",
        "brand:wikidata": "Q1189695",
        "check_date": "2023-11-29",
        "cuisine": "american",
        "name": "Denny's"
      }
    },
    {
      "type": "node",
      "id": 2934044445,
      "lat": 12.9165607,
      "lon": 77.5972018,
      "tags": {
        "amenity": "bank",
        "atm": "no",
        "brand": "HDFC Bank",
        "brand:wikidata": "Q631047",
        "brand:wikipedia": "en:HDFC Bank",
        "check_date": "2023-11-29",
        "name": "HDFC Bank",
        "name:kn": "ಎಚ್ ಡಿ ಎಫ್ ಸಿ",
        "short_name": "HDFC",
        "website": "https://www.hdfcbank.com"
      }
    },
    {
      "type": "node",
      "id": 2934044447,
      "lat": 12.9162385,
      "lon": 77.5970407,
      "tags": {
        "amenity": "restaurant",
        "cuisine": "indian",
        "name": "Kabab Magic"
      }
    },
    {
      "type": "node",
      "id": 2934044448,
      "lat": 12.9165635,
      "lon": 77.5970388,
      "tags": {
        "name": "Nandini Shoppe",
        "note": "Milk & Milk products",
        "shop": "kiosk"
      }
    },
    {
      "type": "node",
      "id": 2934044452,
      "lat": 12.9166472,
      "lon": 77.5972012,
      "tags": {
        "amenity": "atm",
        "brand": "HDFC Bank",
        "brand:wikidata": "Q631047",
        "name": "HDFC Bank",
        "operator": "HDFC Bank",
        "operator:wikidata": "Q631047",
        "short_name": "HDFC"
      }
    },
    {
      "type": "node",
      "id": 3016052468,
      "lat": 12.9101075,
      "lon": 77.5950902,
      "tags": {
        "branch": "Shoppe",
        "brand": "Nandini",
        "brand:wikidata": "Q124374212",
        "name": "Nandini",
        "shop": "dairy"
      }
    },
    {
      "type": "node",
      "id": 3016090370,
      "lat": 12.9145163,
      "lon": 77.5987874,
      "tags": {
        "amenity": "school",
        "name": "St. Marks School",
        "name:kn": "ಸಂತ ಮಾರ್ಕ್ಸ್ ಶಾಲೆ"
      }
    },
    {
      "type": "node",
      "id": 3016090373,
      "lat": 12.9165191,
      "lon": 77.5987455,
      "tags": {
        "amenity": "atm",
        "brand": "Axis Bank",
        "brand:wikidata": "Q2003549",
        "name": "Axis Bank",
        "operator": "Axis Bank",
        "operator:wikidata": "Q2003549"
      }
    },
    {
      "type": "node",
      "id": 3022074189,
      "lat": 12.9109222,
      "lon": 77.5997273,
      "tags": {
        "amenity": "auditorium",
        "name": "Shilpa Kala Mantap",
        "note": "A large hall were events like marriages are performed",
        "source": "survey"
      }
    },
    {
      "type": "node",
      "id": 3024935600,
      "lat": 12.910453,
      "lon": 77.5962584,
      "tags": {
        "amenity": "post_box",
        "operator": "India Post",
        "operator:wikidata": "Q3519720",
        "source": "survey"
      }
    },
    {
      "type": "node",
      "id": 3050185859,
      "lat": 12.9048841,
      "lon": 77.6016207,
      "tags": {
        "alt_name": "Kentucky Fried Chicken",
        "alt_name:en": "Kentucky Fried Chicken",
        "alt_name:hi": "केंटुकी फ्राइड चिकन",
        "alt_name:pa": "ਕੈਂਟੁਕੀ ਫ੍ਰਾਈਡ ਚਿਕਨ",
        "alt_name:pnb": "کینٹکی فرائیڈ چکن",
        "alt_name:ur": "کینٹکی فرائیڈ چکن",
        "amenity": "fast_food",
        "brand": "KFC",
        "brand:en": "KFC",
        "brand:hi": "केएफसी",
        "brand:pa": "ਕੇਐਫਸੀ",
        "brand:pnb": "کے ایف سی",
        "brand:ur": "کے ایف سی",
        "brand:wikidata": "Q524757",
        "cuisine": "chicken",
        "name": "KFC",
        "name:en": "KFC",
        "name:hi": "केएफसी",
        "name:pa": "ਕੇਐਫਸੀ",
        "name:pnb": "کے ایف سی",
        "name:ur": "کے ایف سی",
        "source": "survey",
        "takeaway": "yes"
      }
    },
    {
      "type": "node",
      "id": 3072185612,
      "lat": 12.917008,
      "lon": 77.5951912,
      "tags": {
        "name": "M D Tyers & Tubes",
        "shop": "tyres",
        "source": "survey"
      }
    },
    {
      "type": "node",
      "id": 3231750612,
      "lat": 12.9168242,
      "lon": 77.6037973,
      "tags": {
        "amenity": "atm",
        "brand": "Citibank",
        "brand:wikidata": "Q857063",
        "name": "Citibank",
        "operator": "Citibank",
        "operator:wikidata": "Q857063",
        "short_name": "Citi",
        "source": "Survey"
      }
    },
    {
      "type": "node",
      "id": 3231750613,
      "lat": 12.9168242,
      "lon": 77.6038323,
      "tags": {
        "amenity": "atm",
        "brand": "Kotak Mahindra Bank",
        "brand:wikidata": "Q2040404",
        "operator": "Kotak Mahindra Bank",
        "operator:wikidata": "Q2040404",
        "source": "Survey"
      }
    },
    {
      "type": "node",
      "id": 3231750614,
      "lat": 12.9168388,
      "lon": 77.6033703,
      "tags": {
        "amenity": "atm",
        "brand": "Karur Vysya Bank",
        "brand:wikidata": "Q6373724",
        "name": "Karur Vysya Bank",
        "operator": "Karur Vysya Bank",
        "operator:wikidata": "Q6373724",
        "source": "Survey"
      }
    },
    {
      "type": "node",
      "id": 3231750615,
      "lat": 12.9168388,
      "lon": 77.6034052,
      "tags": {
        "amenity": "atm",
        "brand": "State Bank of India",
        "brand:wikidata": "Q1340361",
        "name": "State Bank of India",
        "operator": "State Bank of India",
        "operator:wikidata": "Q1340361",
        "short_name": "SBI",
        "source": "Survey"
      }
    },
    {
      "type": "node",
      "id": 3395243171,
      "lat": 12.9169861,
      "lon": 77.596996,
      "tags": {
        "amenity": "pharmacy",
        "healthcare": "pharmacy",
        "name": "Maruthi Medical Stores"
      }
    },
    {
      "type": "node",
      "id": 3395246648,
      "lat": 12.9102709,
      "lon": 77.5993958,
      "tags": {
        "name": "Laguna Clothing",
        "shop": "clothes"
      }
    },
    {
      "type": "node",
      "id": 3519968729,
      "lat": 12.9051816,
      "lon": 77.6015721,
      "tags": {
        "brand": "Tanishq",
        "brand:en": "Tanishq",
        "brand:wikidata": "Q13117711",
        "name": "Tanishq",
        "name:en": "Tanishq",
        "operator": "Tanishq",
        "shop": "jewelry",
        "wheelchair": "yes"
      }
    },
    {
      "type": "node",
      "id": 3995057637,
      "lat": 12.9170191,
      "lon": 77.5972034,
      "tags": {
        "addr:city": "bangalore",
        "addr:postcode": "560069",
        "addr:street": "Marenahalli Road (South End)",
        "brand": "Royal Enfield",
        "brand:wikidata": "Q2668720",
        "name": "Royal Enfield Brand Store",
        "shop": "motorcycle"
      }
    },
    {
      "type": "node",
      "id": 4195979551,
      "lat": 12.918083,
      "lon": 77.5958017,
      "tags": {
        "opening_hours": "08:30-12:30,15:30-20:00",
        "shop": "butcher",
        "wheelchair": "no"
      }
    },
    {
      "type": "node",
      "id": 4195979556,
      "lat": 12.9181994,
      "lon": 77.5958138,
      "tags": {
        "amenity": "recycling",
        "opening_hours": "08:30-12:30,15:30-20:00",
        "recycling:paper": "yes",
        "recycling:scrap_metal": "yes",
        "recycling_type": "centre",
        "wheelchair": "no"
      }
    },
    {
      "type": "node",
      "id": 4195979561,
      "lat": 12.9183771,
      "lon": 77.5958232,
      "tags": {
        "opening_hours": "08:30-12:30,15:30-20:00",
        "shop": "butcher",
        "wheelchair": "no"
      }
    },
    {
      "type": "node",
      "id": 4197693023,
      "lat": 12.9174665,
      "lon": 77.595836,
      "tags": {
        "name": "Dishad Fashions",
        "shop": "tailor",
        "wheelchair": "no"
      }
    },
    {
      "type": "node",
      "id": 4197693024,
      "lat": 12.917308,
      "lon": 77.5958374,
      "tags": {
        "name": "Salaam Auto Clinic",
        "parts": "yes",
        "sales": "no",
        "shop": "motorcycle_repair",
        "wheelchair": "no"
      }
    },
    {
      "type": "node",
      "id": 4197693025,
      "lat": 12.9178015,
      "lon": 77.5957843,
      "tags": {
        "motorcycle:parts": "yes",
        "motorcycle:repair": "yes",
        "name": "Vikas Enterprise",
        "shop": "motorcycle",
        "wheelchair": "no"
      }
    },
    {
      "type": "node",
      "id": 4197698506,
      "lat": 12.916973,
      "lon": 77.5958573,
      "tags": {
        "amenity": "bureau_de_change",
        "name": "Manapurram Gold Loan",
        "wheelchair": "no"
      }
    },
    {
      "type": "node",
      "id": 4197698512,
      "lat": 12.9172621,
      "lon": 77.5957949,
      "tags": {
        "shop": "bookmaker",
        "wheelchair": "no"
      }
    },
    {
      "type": "node",
      "id": 4197712275,
      "lat": 12.9169736,
      "lon": 77.5960975,
      "tags": {
        "name": "Karnataka Engineering Works",
        "shop": "hardware"
      }
    },
    {
      "type": "node",
      "id": 4197712276,
      "lat": 12.9177769,
      "lon": 77.5961824,
      "tags": {
        "name": "Public Distribution Shop",
        "name:kn": "ನ್ಯಾಯ ಬೆಲೆ ಅಂಗಡಿ",
        "opening_hours": "08:30-12:30,15:30-20:00",
        "shop": "convenience",
        "wheelchair": "no"
      }
    },
    {
      "type": "node",
      "id": 4197712277,
      "lat": 12.9170642,
      "lon": 77.5961094,
      "tags": {
        "name": "S L Men's wear",
        "shop": "tailor",
        "wheelchair": "no"
      }
    },
    {
      "type": "node",
      "id": 4197712278,
      "lat": 12.9173423,
      "lon": 77.5961254,
      "tags": {
        "name": "Vijay Paints",
        "shop": "paint"
      }
    },
    {
      "type": "node",
      "id": 4197719557,
      "lat": 12.918707,
      "lon": 77.5964054,
      "tags": {
        "amenity": "place_of_worship",
        "denomination": "shaivism",
        "name": "Shiva Temple",
        "name:kn": "ಶಿವ ದೇವಸ್ಥಾನ",
        "religion": "hindu",
        "wheelchair": "no"
      }
    },
    {
      "type": "node",
      "id": 4197719558,
      "lat": 12.9185951,
      "lon": 77.5961373,
      "tags": {
        "amenity": "place_of_worship",
        "denomination": "shaktism",
        "name": "Sri Devi Karimariamma Temple",
        "opening_hours": "sunrise-sunset",
        "religion": "hindu",
        "service_times": "sunset,sunrise",
        "wheelchair": "no"
      }
    },
    {
      "type": "node",
      "id": 4197719559,
      "lat": 12.9189327,
      "lon": 77.5964279,
      "tags": {
        "amenity": "fast_food",
        "cuisine": "chicken;indian",
        "internet_access": "no",
        "name": "Street side food",
        "smoking": "yes",
        "takeaway": "no",
        "wheelchair": "no"
      }
    },
    {
      "type": "node",
      "id": 4197719562,
      "lat": 12.9189101,
      "lon": 77.5958772,
      "tags": {
        "amenity": "waste_disposal"
      }
    },
    {
      "type": "node",
      "id": 4197757507,
      "lat": 12.9189411,
      "lon": 77.5958321,
      "tags": {
        "motorcycle:repair": "yes",
        "motorcycle:sales": "yes",
        "name": "AF Motors",
        "shop": "motorcycle",
        "wheelchair": "no"
      }
    },
    {
      "type": "node",
      "id": 4197757511,
      "lat": 12.9188764,
      "lon": 77.5958387,
      "tags": {
        "name": "JMR Pasha",
        "shop": "clothes"
      }
    },
    {
      "type": "node",
      "id": 4254309393,
      "lat": 12.916485,
      "lon": 77.5982924,
      "tags": {
        "addr:housenumber": "118/47",
        "addr:postcode": "560067",
        "addr:street": "Marenahalli Road",
        "amenity": "restaurant",
        "cuisine": "arab",
        "name": "AL-BEK"
      }
    },
    {
      "type": "node",
      "id": 4446852004,
      "lat": 12.9175511,
      "lon": 77.6039486,
      "tags": {
        "addr:city": "Bengaluru",
        "addr:housenumber": "57",
        "addr:postcode": "560029",
        "addr:street": "8th B Main Road, BTM Layout 1st Stage, KEB Colony, New Gurappana Palya, BTM Layout 1, Karnataka",
        "amenity": "hospital",
        "name": "Vedam Ayurveda Multispeciality Hospital",
        "phone": "080 4120 2911",
        "website": "https://vedamayurveda.co.in/"
      }
    },
    {
      "type": "node",
      "id": 4487934284,
      "lat": 12.9070546,
      "lon": 77.5985562,
      "tags": {
        "addr:city": "bangalore",
        "addr:housenumber": "72/A, 3rd Floor",
        "addr:postcode": "560078",
        "addr:street": "15th Cross Road",
        "leisure": "sports_centre",
        "name": "Kaizen Fitness"
      }
    },
    {
      "type": "node",
      "id": 4489941584,
      "lat": 12.9036049,
      "lon": 77.5972402,
      "tags": {
        "addr:city": "Bengaluru",
        "addr:housenumber": "Shop No. 294 , Opp. Shalini Park , 10th Main Rd, 39th Cross Rd,",
        "addr:postcode": "560076",
        "addr:street": "Bannerghatta Road",
        "name": "Trans studio",
        "opening_hours": "07:00-20:00",
        "phone": "80-33538046",
        "shop": "beauty"
      }
    },
    {
      "type": "node",
      "id": 4490274989,
      "lat": 12.9064639,
      "lon": 77.5967451,
      "tags": {
        "addr:city": "Bengaluru",
        "addr:floor": "1",
        "addr:full": "67, 1st Floor, 15th Cross, 6th B Main Road, J P Nagar, 3rd Phase, Dollar Layout, 3rd Phase, JP Nagar, Bengaluru, Karnataka - 560078",
        "addr:housenumber": "67",
        "addr:postcode": "560078",
        "addr:street": "6th B Main Road",
        "brand": "Gold's Gym",
        "brand:wikidata": "Q1536234",
        "leisure": "fitness_centre",
        "name": "Gold's Gym",
        "opening_hours": "5:30-22:30",
        "phone": "8042420404",
        "sport": "gymnasium"
      }
    },
    {
      "type": "node",
      "id": 4586768489,
      "lat": 12.9148191,
      "lon": 77.5982088,
      "tags": {
        "amenity": "fast_food",
        "name": "Brahmins Special",
        "name:en": "Brahmins Special"
      }
    },
    {
      "type": "node",
      "id": 5273034143,
      "lat": 12.904966,
      "lon": 77.6016531,
      "tags": {
        "amenity": "restaurant",
        "name": "Nagarjuna Andhra Style"
      }
    },
    {
      "type": "node",
      "id": 5374238410,
      "lat": 12.9035841,
      "lon": 77.6011747,
      "tags": {
        "addr:city": "Bengaluru",
        "addr:country": "IN",
        "addr:hamlet": "Dollars Colony",
        "addr:housenumber": "175, 176",
        "addr:postcode": "560076",
        "addr:street": "Bannerghatta Road",
        "addr:suburb": "JP Nagar",
        "addr:unit": "3rd, 4th, 5th Floor",
        "amenity": "coworking_space",
        "description": "coworking space",
        "fee": "yes",
        "name": "91springboard",
        "office": "coworking",
        "operator": "91springboard",
        "website": "https://www.91springboard.com"
      }
    },
    {
      "type": "node",
      "id": 5402224047,
      "lat": 12.9063647,
      "lon": 77.5967688,
      "tags": {
        "shop": "bakery"
      }
    },
    {
      "type": "node",
      "id": 5402224048,
      "lat": 12.9060155,
      "lon": 77.5958706,
      "tags": {
        "amenity": "fast_food",
        "brand": "Domino's",
        "brand:ks": "ڈومینوز",
        "brand:pa": "ਡੋਮੀਨੋਜ਼",
        "brand:ur": "ڈومینوز",
        "brand:wikidata": "Q839466",
        "brand:wikipedia": "en:Domino's Pizza",
        "check_date": "2023-10-28",
        "cuisine": "pizza",
        "level": "0",
        "name": "Domino's",
        "name:ks": "ڈومینوز",
        "name:pa": "ਡੋਮੀਨੋਜ਼",
        "name:ur": "ڈومینوز",
        "takeaway": "yes",
        "wheelchair": "no"
      }
    },
    {
      "type": "node",
      "id": 5402308136,
      "lat": 12.9065334,
      "lon": 77.598516,
      "tags": {
        "shop": "tyres"
      }
    },
    {
      "type": "node",
      "id": 5402312926,
      "lat": 12.9060471,
      "lon": 77.5969859,
      "tags": {
        "shop": "hairdresser"
      }
    },
    {
      "type": "node",
      "id": 6349012849,
      "lat": 12.9174015,
      "lon": 77.6036834,
      "tags": {
        "addr:suburb": "Neelasandra",
        "amenity": "school",
        "isced:level": "2",
        "name": "GUHPS Neelasandra",
        "name:kn": "ಸರ್ಕಾರಿ ಹಿರಿಯ ಪ್ರಾಥಮಿಕ ಶಾಲೆ ನೀಲಸಂದ್ರ",
        "operator": "Department of Primary and Secondary Education",
        "operator:wikidata": "Q111467381",
        "school": "primary"
      }
    },
    {
      "type": "node",
      "id": 6349215701,
      "lat": 12.9180064,
      "lon": 77.5978472,
      "tags": {
        "addr:place": "Jayanagar",
        "amenity": "school",
        "isced:level": "2",
        "name": "Sahakari Vidyakendra AHPS Jayanagar",
        "name:kn": "ಸಹಕಾರಿ ವಿದ್ಯಾಕೇಂದ್ರ ಹಿರಿಯ ಪ್ರಾಥಮಿಕ ಶಾಲೆ ಜಯನಗರ",
        "operator": "Pvt. Aided",
        "school": "primary"
      }
    },
    {
      "type": "node",
      "id": 6349222321,
      "lat": 12.9188794,
      "lon": 77.605562,
      "tags": {
        "addr:place": "Gurappana Palya",
        "amenity": "school",
        "isced:level": "2",
        "name": "GHPS Gurappana Palya",
        "name:kn": "ಸರ್ಕಾರಿ ಹಿರಿಯ ಪ್ರಾಥಮಿಕ ಶಾಲೆ ಗುರಪ್ಪನಪಾಳ್ಯ",
        "operator": "Department of Education",
        "school": "primary"
      }
    },
    {
      "type": "node",
      "id": 6882713318,
      "lat": 12.9180569,
      "lon": 77.5991875,
      "tags": {
        "addr:city": "Bengaluru",
        "addr:district": "BENGALURU URBAN",
        "addr:full": "Gurappanapaly Post, Banneraghatta Road",
        "addr:postcode": "560069",
        "addr:state": "Karnataka",
        "amenity": "blood_bank",
        "contact:mobile": "9886812718",
        "contact:phone": "8022977213",
        "name": "Sri Jayadeva Institute of Cardiology Blood Bank",
        "opening_hours": "24/7",
        "operator:type": "government",
        "source": "OpenGovernmentData"
      }
    },
    {
      "type": "node",
      "id": 6938741378,
      "lat": 12.9122295,
      "lon": 77.5994906,
      "tags": {
        "addr:district": "Bengaluru Urban",
        "addr:full": "C K Emerald, No-10,N S Palya Kaveriappa Industrial Area, Bannergatta Road",
        "addr:postcode": "560076",
        "addr:state": "Karnataka",
        "amenity": "hospital",
        "healthcare": "hospital",
        "name": "Dr Agarwals Eye Hospital Ltd",
        "operator": "Dr. Agarwal's Eye Hospital",
        "operator:type": "private",
        "operator:wikidata": "Q17052044",
        "source": "OpenGovernmentData"
      }
    },
    {
      "type": "node",
      "id": 6939642200,
      "lat": 12.9064778,
      "lon": 77.5959125,
      "tags": {
        "addr:district": "Bengaluru Urban",
        "addr:full": "3rd Phase, 633, 100 Feet Ring Road, J.P.Nagar",
        "addr:postcode": "560078",
        "addr:state": "Karnataka",
        "amenity": "clinic",
        "email": "info@shekarnethralaya.com",
        "healthcare:speciality": "Ophthalmology; Pediatric Ophthalmology; Plastic Surgery",
        "name": "Shekar Nethralaya, Bengaluru Urban",
        "operator:type": "private",
        "source": "OpenGovernmentData",
        "website": "www.shekarnethralaya.com"
      }
    },
    {
      "type": "node",
      "id": 6944578930,
      "lat": 12.9188948,
      "lon": 77.6058905,
      "tags": {
        "addr:district": "Bengaluru Urban",
        "addr:full": "No.53, 3Road Main Road, Opposite To Maruti Layout, B.T.M Layout 1st Stage",
        "addr:postcode": "560029",
        "addr:state": "Karnataka",
        "amenity": "hospital",
        "healthcare": "hospital",
        "name": "Kareem E.N.T and Multispeciality Centre",
        "source": "OpenGovernmentData"
      }
    },
    {
      "type": "node",
      "id": 7109544853,
      "lat": 12.9065609,
      "lon": 77.5952791,
      "tags": {
        "addr:postcode": "560078",
        "addr:street": "Outer Ring Road",
        "amenity": "bank",
        "atm": "yes",
        "name": "Apex Bank",
        "name:kn": "ಏಪೆಕ್ಸ್ ಬ್ಯಾಂಕ್",
        "operator": "Govt of Karnataka"
      }
    },
    {
      "type": "node",
      "id": 7109696063,
      "lat": 12.9073592,
      "lon": 77.5982079,
      "tags": {
        "addr:city": "Bengaluru",
        "addr:postcode": "560078",
        "addr:street": "14th Cross Road",
        "name": "KIA SERVICE CENTRE",
        "payment:cash": "yes",
        "payment:credit_cards": "yes",
        "payment:electronic_purses": "yes",
        "service:vehicle:car_repair": "yes",
        "shop": "car_repair"
      }
    },
    {
      "type": "node",
      "id": 7579924724,
      "lat": 12.917483,
      "lon": 77.6028048,
      "tags": {
        "addr:district": "Bengaluru Urban",
        "addr:full": "Bannerghatta Road, Bengaluru",
        "addr:postcode": "560029",
        "addr:state": "Karnataka",
        "amenity": "dentist",
        "healthcare": "dentist",
        "name": "M.F. Dental Care",
        "source": "Local Knowledge"
      }
    },
    {
      "type": "node",
      "id": 7579924752,
      "lat": 12.917402,
      "lon": 77.6010132,
      "tags": {
        "addr:district": "Bengaluru Urban",
        "addr:full": "KEB Colony, BTM Layout 1, Bengaluru",
        "addr:postcode": "560029",
        "addr:state": "Karnataka",
        "amenity": "clinic",
        "healthcare": "clinic",
        "name": "Shenoy's Children Clinic",
        "source": "Local Knowledge"
      }
    },
    {
      "type": "node",
      "id": 7579924756,
      "lat": 12.918787,
      "lon": 77.605897,
      "tags": {
        "addr:district": "Bengaluru Urban",
        "addr:full": "KEB Colony, Bengaluru",
        "addr:postcode": "560029",
        "addr:state": "Karnataka",
        "amenity": "clinic",
        "healthcare": "clinic",
        "name": "Kareem ENT",
        "source": "Local Knowledge"
      }
    },
    {
      "type": "node",
      "id": 7579924781,
      "lat": 12.918036,
      "lon": 77.603516,
      "tags": {
        "addr:district": "Bengaluru Urban",
        "addr:full": "BTM Layout, Bengaluru",
        "addr:postcode": "560029",
        "addr:state": "Karnataka",
        "amenity": "clinic",
        "healthcare": "clinic",
        "name": "Ayesha Speciality Clinic",
        "source": "Local Knowledge"
      }
    },
    {
      "type": "node",
      "id": 7653024620,
      "lat": 12.9170835,
      "lon": 77.6057329,
      "tags": {
        "amenity": "place_of_worship",
        "name": "Kerala Mosque",
        "religion": "muslim"
      }
    },
    {
      "type": "node",
      "id": 9892036252,
      "lat": 12.9068098,
      "lon": 77.5995603,
      "tags": {
        "amenity": "restaurant",
        "name": "Klayworkz Barista"
      }
    },
    {
      "type": "node",
      "id": 10051816951,
      "lat": 12.9070051,
      "lon": 77.5982256,
      "tags": {
        "amenity": "restaurant",
        "name": "The Studs Sports Bar + Grill"
      }
    },
    {
      "type": "node",
      "id": 10632949330,
      "lat": 12.9169027,
      "lon": 77.6021902,
      "tags": {
        "amenity": "recycling",
        "name": "BBMP Dry Waste Collection Center",
        "recycling_type": "centre"
      }
    },
    {
      "type": "node",
      "id": 10697707067,
      "lat": 12.9125107,
      "lon": 77.5995074,
      "tags": {
        "name": "Reliance Trends",
        "shop": "clothes"
      }
    },
    {
      "type": "node",
      "id": 10697707069,
      "lat": 12.9047312,
      "lon": 77.6014844,
      "tags": {
        "air_conditioning": "yes",
        "amenity": "restaurant",
        "cuisine": "indian",
        "diet:vegetarian": "yes",
        "indoor_seating": "yes",
        "name": "Nagarjuna",
        "outdoor_seating": "no",
        "wheelchair": "yes"
      }
    },
    {
      "type": "node",
      "id": 10854298558,
      "lat": 12.9170314,
      "lon": 77.5954331,
      "tags": {
        "name": "Factory Outlet",
        "shop": "clothes"
      }
    },
    {
      "type": "node",
      "id": 11048973795,
      "lat": 12.9101235,
      "lon": 77.5953898,
      "tags": {
        "amenity": "bank",
        "brand": "CSB Bank",
        "brand:wikidata": "Q5053244",
        "name": "CSB Bank",
        "official_name": "Catholic Syrian Bank"
      }
    },
    {
      "type": "node",
      "id": 11162603758,
      "lat": 12.9100271,
      "lon": 77.5953771,
      "tags": {
        "amenity": "restaurant",
        "name": "Vyana World Cuisine",
        "website": "https://thevyana.com"
      }
    },
    {
      "type": "node",
      "id": 11164777495,
      "lat": 12.9141742,
      "lon": 77.5995886,
      "tags": {
        "amenity": "fast_food",
        "brand": "Taco Bell",
        "brand:wikidata": "Q752941",
        "check_date": "2023-09-03",
        "cuisine": "tex-mex",
        "name": "Taco Bell",
        "source": "survey",
        "takeaway": "yes"
      }
    },
    {
      "type": "node",
      "id": 11201322521,
      "lat": 12.9107075,
      "lon": 77.5992431,
      "tags": {
        "amenity": "restaurant",
        "check_date": "2023-09-19",
        "cuisine": "indian;seafood",
        "name": "Check Post",
        "opening_hours": "11:00-23:00",
        "payment:mastercard": "yes",
        "payment:visa": "yes"
      }
    },
    {
      "type": "node",
      "id": 11279857303,
      "lat": 12.9165615,
      "lon": 77.5981025,
      "tags": {
        "brand": "Triumph",
        "brand:wikidata": "Q1140383",
        "name": "Triumph",
        "shop": "motorcycle"
      }
    },
    {
      "type": "node",
      "id": 11279857304,
      "lat": 12.9165524,
      "lon": 77.5974065,
      "tags": {
        "name": "Divine Interior",
        "shop": "interior_decoration"
      }
    },
    {
      "type": "node",
      "id": 11296562017,
      "lat": 12.9070559,
      "lon": 77.6003303,
      "tags": {
        "amenity": "restaurant",
        "name": "Millenials"
      }
    },
    {
      "type": "node",
      "id": 11296562018,
      "lat": 12.9060834,
      "lon": 77.5953108,
      "tags": {
        "amenity": "restaurant",
        "brand": "Pizza Hut",
        "brand:wikidata": "Q191615",
        "cuisine": "pizza",
        "level": "0",
        "name": "Pizza Hut",
        "wheelchair": "no"
      }
    },
    {
      "type": "node",
      "id": 11296562019,
      "lat": 12.9059837,
      "lon": 77.596215,
      "tags": {
        "amenity": "restaurant",
        "cuisine": "pizza",
        "level": "0",
        "name": "Wood and Brixx Pizza",
        "wheelchair": "no"
      }
    },
    {
      "type": "node",
      "id": 11296562020,
      "lat": 12.9064253,
      "lon": 77.5981787,
      "tags": {
        "amenity": "atm",
        "brand": "Kotak Mahindra Bank",
        "brand:wikidata": "Q2040404",
        "check_date": "2025-09-19",
        "level": "0",
        "opening_hours": "24/7",
        "operator": "Kotak Mahindra Bank",
        "operator:wikidata": "Q2040404",
        "wheelchair": "no"
      }
    },
    {
      "type": "node",
      "id": 11296562021,
      "lat": 12.9068787,
      "lon": 77.5997761,
      "tags": {
        "amenity": "atm",
        "brand": "HDFC Bank",
        "brand:wikidata": "Q631047",
        "level": "0",
        "operator": "HDFC Bank",
        "operator:wikidata": "Q631047",
        "short_name": "HDFC",
        "wheelchair": "no"
      }
    },
    {
      "type": "node",
      "id": 11296562022,
      "lat": 12.9071793,
      "lon": 77.5997596,
      "tags": {
        "amenity": "shelter",
        "name": "JP Nagar 3rd Phase",
        "name:kn": "ಜೆಪಿ ನಗರ ೩ನೇ ಹಂತ",
        "shelter_type": "public_transport"
      }
    },
    {
      "type": "node",
      "id": 11296562023,
      "lat": 12.9071348,
      "lon": 77.5996493,
      "tags": {
        "amenity": "shelter",
        "name": "JD Mara",
        "shelter_type": "public_transport"
      }
    },
    {
      "type": "node",
      "id": 11296562024,
      "lat": 12.9071096,
      "lon": 77.5995703,
      "tags": {
        "amenity": "shelter",
        "shelter_type": "public_transport"
      }
    },
    {
      "type": "node",
      "id": 11296562025,
      "lat": 12.9060271,
      "lon": 77.5957624,
      "tags": {
        "addr:full": "No.6 (4th Phase), 100 Feet Road, JP Nagar, Bangalore - 560078",
        "amenity": "fast_food",
        "contact:phone": "+91-080-4680-9292",
        "cuisine": "biryani",
        "name": "PotFul",
        "operator": "PotFul India Private Limited"
      }
    },
    {
      "type": "node",
      "id": 11296562026,
      "lat": 12.9069216,
      "lon": 77.5998856,
      "tags": {
        "amenity": "atm",
        "brand": "RBL Bank",
        "brand:wikidata": "Q13120398",
        "level": "0",
        "operator": "RBL Bank",
        "operator:wikidata": "Q13120398",
        "wheelchair": "no"
      }
    },
    {
      "type": "node",
      "id": 11296562027,
      "lat": 12.9069377,
      "lon": 77.5999429,
      "tags": {
        "amenity": "bank",
        "branch": "4th Phase, JP Nagar",
        "brand": "RBL Bank",
        "brand:wikidata": "Q13120398",
        "level": "0",
        "name": "RBL Bank",
        "wheelchair": "no"
      }
    },
    {
      "type": "node",
      "id": 11296562028,
      "lat": 12.9070463,
      "lon": 77.6002896,
      "tags": {
        "amenity": "restaurant",
        "name": "Crumb Together"
      }
    },
    {
      "type": "node",
      "id": 11296562029,
      "lat": 12.9068917,
      "lon": 77.5998225,
      "tags": {
        "amenity": "bank",
        "branch": "Bilekahalli, JP Nagar 4th Phase",
        "brand": "HDFC Bank",
        "brand:wikidata": "Q631047",
        "level": "0",
        "name": "HDFC Bank",
        "short_name": "HDFC",
        "wheelchair": "no"
      }
    },
    {
      "type": "node",
      "id": 11296562030,
      "lat": 12.9065152,
      "lon": 77.5984826,
      "tags": {
        "amenity": "fast_food",
        "diet:lacto_vegetarian": "yes",
        "name": "Saanvi Sagar"
      }
    },
    {
      "type": "node",
      "id": 11296660884,
      "lat": 12.9068092,
      "lon": 77.5980072,
      "tags": {
        "level": "0",
        "shop": "supermarket",
        "wheelchair": "limited"
      }
    },
    {
      "type": "node",
      "id": 11296660886,
      "lat": 12.9063159,
      "lon": 77.5977639,
      "tags": {
        "name": "Avenue Automotives",
        "shop": "car"
      }
    },
    {
      "type": "node",
      "id": 11296660887,
      "lat": 12.906721,
      "lon": 77.5992833,
      "tags": {
        "amenity": "cafe",
        "cuisine": "coffee_shop",
        "delivery": "yes",
        "name": "Blue Tokai Coffee Roasters",
        "takeaway": "yes",
        "toilets": "yes"
      }
    },
    {
      "type": "node",
      "id": 11296660890,
      "lat": 12.9062801,
      "lon": 77.597683,
      "tags": {
        "amenity": "restaurant",
        "cuisine": "japanese",
        "name": "Saiko"
      }
    },
    {
      "type": "node",
      "id": 11302751565,
      "lat": 12.9177118,
      "lon": 77.5996743,
      "tags": {
        "amenity": "atm",
        "branch": "Sri Jayadeva Institute of Cardiology",
        "brand": "Canara Bank",
        "brand:en": "Canara Bank",
        "brand:hi": "केनरा बैंक",
        "brand:kn": "ಕೆನರಾ ಬ್ಯಾಂಕ್",
        "brand:pa": "ਕੇਨਰਾ ਬੈਂਕ",
        "brand:pnb": "کینرا بینک",
        "brand:ur": "کینرا بینک",
        "brand:wikidata": "Q2003777",
        "level": "0",
        "name:en": "Canara Bank",
        "name:hi": "केनरा बैंक",
        "name:kn": "ಕೆನರಾ ಬ್ಯಾಂಕ್",
        "name:pa": "ਕੇਨਰਾ ਬੈਂਕ",
        "name:pnb": "کینرا بینک",
        "name:ur": "کینرا بینک",
        "operator": "Canara Bank",
        "operator:wikidata": "Q2003777",
        "wheelchair": "limited"
      }
    },
    {
      "type": "node",
      "id": 11309805458,
      "lat": 12.9165695,
      "lon": 77.5973579,
      "tags": {
        "check_date": "2023-11-03",
        "name": "Power Sports",
        "shop": "outdoor"
      }
    },
    {
      "type": "node",
      "id": 11309805467,
      "lat": 12.9166293,
      "lon": 77.5969461,
      "tags": {
        "check_date": "2023-11-03",
        "name": "Kurukulu Thindi",
        "shop": "kiosk"
      }
    },
    {
      "type": "node",
      "id": 11382935821,
      "lat": 12.9165727,
      "lon": 77.5969464,
      "tags": {
        "amenity": "fast_food",
        "check_date": "2023-11-29",
        "name": "Sri Krishna Mane Holige"
      }
    },
    {
      "type": "node",
      "id": 11382935822,
      "lat": 12.9169011,
      "lon": 77.5972275,
      "tags": {
        "check_date": "2023-11-29",
        "name": "Nandini",
        "shop": "dairy"
      }
    },
    {
      "type": "node",
      "id": 11382935823,
      "lat": 12.9169736,
      "lon": 77.5984763,
      "tags": {
        "check_date": "2023-11-29",
        "shop": "copyshop"
      }
    },
    {
      "type": "node",
      "id": 11393362100,
      "lat": 12.9169721,
      "lon": 77.5977608,
      "tags": {
        "amenity": "cafe",
        "check_date": "2023-12-04",
        "name": "The Coffee Brewery"
      }
    },
    {
      "type": "node",
      "id": 11393362101,
      "lat": 12.9168676,
      "lon": 77.6004295,
      "tags": {
        "amenity": "bank",
        "brand": "State Bank of India",
        "brand:wikidata": "Q1340361",
        "check_date": "2023-12-04",
        "name": "State Bank of India",
        "name:kn": "ಎಸ್ ಬಿ ಐ",
        "short_name": "SBI"
      }
    },
    {
      "type": "node",
      "id": 11394086038,
      "lat": 12.9168157,
      "lon": 77.6048362,
      "tags": {
        "check_date": "2023-12-04",
        "name": "Swathi's Furniture",
        "shop": "furniture"
      }
    },
    {
      "type": "node",
      "id": 11394086039,
      "lat": 12.9168516,
      "lon": 77.6040297,
      "tags": {
        "amenity": "bank",
        "brand": "IndusInd Bank",
        "brand:wikidata": "Q2040323",
        "check_date": "2023-12-04",
        "name": "IndusInd Bank",
        "name:kn": "ಇಂಡಸ್ಇಂಡ್"
      }
    },
    {
      "type": "node",
      "id": 11394086041,
      "lat": 12.9169468,
      "lon": 77.5980837,
      "tags": {
        "amenity": "fast_food",
        "check_date": "2023-12-04",
        "name": "Udupi Thindi"
      }
    },
    {
      "type": "node",
      "id": 11394086042,
      "lat": 12.9169667,
      "lon": 77.5984499,
      "tags": {
        "amenity": "fast_food",
        "check_date": "2023-12-04",
        "name": "Lilliput Upahar"
      }
    },
    {
      "type": "node",
      "id": 11394086043,
      "lat": 12.9170097,
      "lon": 77.5974513,
      "tags": {
        "leisure": "park"
      }
    },
    {
      "type": "node",
      "id": 11395345921,
      "lat": 12.9169578,
      "lon": 77.5961811,
      "tags": {
        "check_date": "2023-12-05",
        "shop": "hairdresser"
      }
    },
    {
      "type": "node",
      "id": 11395345924,
      "lat": 12.9169678,
      "lon": 77.5985202,
      "tags": {
        "amenity": "pharmacy",
        "check_date": "2023-12-05",
        "healthcare": "pharmacy",
        "name": "Poornima Medicals"
      }
    },
    {
      "type": "node",
      "id": 11395345925,
      "lat": 12.9168623,
      "lon": 77.602811,
      "tags": {
        "amenity": "cafe",
        "check_date": "2023-12-05",
        "name": "Tea Time"
      }
    },
    {
      "type": "node",
      "id": 11395345926,
      "lat": 12.9168575,
      "lon": 77.6028425,
      "tags": {
        "amenity": "atm",
        "brand": "IDFC First Bank",
        "brand:wikidata": "Q22031467",
        "check_date": "2023-12-05",
        "operator": "IDFC First Bank",
        "operator:wikidata": "Q22031467"
      }
    },
    {
      "type": "node",
      "id": 11395345927,
      "lat": 12.9168319,
      "lon": 77.6039247,
      "tags": {
        "amenity": "pharmacy",
        "brand": "Apollo Pharmacy",
        "brand:wikidata": "Q62562612",
        "check_date": "2023-12-05",
        "healthcare": "pharmacy",
        "name": "Apollo Pharmacy"
      }
    },
    {
      "type": "node",
      "id": 11397272611,
      "lat": 12.917015,
      "lon": 77.5961948,
      "tags": {
        "check_date": "2023-12-06",
        "name": "Izaan Chicken Center",
        "shop": "butcher"
      }
    },
    {
      "type": "node",
      "id": 11602938164,
      "lat": 12.9107013,
      "lon": 77.5991351,
      "tags": {
        "amenity": "restaurant",
        "cuisine": "indian",
        "name": "Cafe Khadya"
      }
    },
    {
      "type": "node",
      "id": 11602938165,
      "lat": 12.9107288,
      "lon": 77.5993819,
      "tags": {
        "amenity": "restaurant",
        "cuisine": "indian;italian",
        "name": "three dots & a dash"
      }
    },
    {
      "type": "node",
      "id": 11618114056,
      "lat": 12.9052307,
      "lon": 77.5954974,
      "tags": {
        "amenity": "cafe",
        "check_date": "2025-10-27",
        "cuisine": "coffee_shop",
        "name": "Kinya Coffee"
      }
    },
    {
      "type": "node",
      "id": 11757924267,
      "lat": 12.905666,
      "lon": 77.6012072,
      "tags": {
        "amenity": "restaurant",
        "name": "Thelagram"
      }
    },
    {
      "type": "node",
      "id": 11757924268,
      "lat": 12.9057693,
      "lon": 77.6012005,
      "tags": {
        "amenity": "restaurant",
        "cuisine": "regional",
        "name": "IDC Kitchen"
      }
    },
    {
      "type": "node",
      "id": 11758069169,
      "lat": 12.9057288,
      "lon": 77.6009323,
      "tags": {
        "amenity": "pub",
        "name": "URU Brewpark",
        "toilets:wheelchair": "no",
        "wheelchair": "limited"
      }
    },
    {
      "type": "node",
      "id": 11939332953,
      "lat": 12.916813,
      "lon": 77.6052477,
      "tags": {
        "amenity": "bank",
        "atm": "yes",
        "brand": "HDFC Bank",
        "brand:wikidata": "Q631047",
        "name": "HDFC Bank",
        "short_name": "HDFC"
      }
    },
    {
      "type": "node",
      "id": 12053283217,
      "lat": 12.9036722,
      "lon": 77.6012438,
      "tags": {
        "addr:postcode": "560076",
        "addr:street": "Bannerghatta Road",
        "brand": "Zudio",
        "brand:wikidata": "Q123375926",
        "name": "Zudio",
        "shop": "clothes"
      }
    },
    {
      "type": "node",
      "id": 12229802211,
      "lat": 12.9103614,
      "lon": 77.5991174,
      "tags": {
        "name": "Bengaluru Brand Warehouse",
        "shop": "clothes"
      }
    },
    {
      "type": "node",
      "id": 12247828085,
      "lat": 12.9145426,
      "lon": 77.599578,
      "tags": {
        "name": "IBO",
        "shop": "hardware"
      }
    },
    {
      "type": "node",
      "id": 12379077731,
      "lat": 12.9068713,
      "lon": 77.5979725,
      "tags": {
        "addr:city": "Bengaluru",
        "addr:floor": "3",
        "addr:postcode": "560078",
        "addr:street": "Outer Ring Road",
        "addr:suburb": "JP Nagar",
        "amenity": "bar",
        "name": "Jollygunj",
        "toilets": "yes"
      }
    },
    {
      "type": "node",
      "id": 12395928077,
      "lat": 12.9065183,
      "lon": 77.5967668,
      "tags": {
        "addr:city": "Bengaluru",
        "addr:street": "Outer Ring Road",
        "addr:suburb": "JP Nagar",
        "amenity": "bar",
        "name": "Bricks Bar And Restaurant"
      }
    },
    {
      "type": "node",
      "id": 12459243355,
      "lat": 12.9148564,
      "lon": 77.598488,
      "tags": {
        "blind": "no",
        "fitness_station": "yes",
        "leisure": "fitness_station",
        "sport": "fitness",
        "wheelchair": "no"
      }
    },
    {
      "type": "node",
      "id": 12461000333,
      "lat": 12.9071543,
      "lon": 77.5988211,
      "tags": {
        "amenity": "restaurant",
        "contact:facebook": "pastastreet",
        "contact:instagram": "pasta.street",
        "cuisine": "pasta",
        "email": "info@pastastreet.co.in",
        "name": "Pasta Street",
        "phone": "+91 9266844026",
        "website": "https://pastastreet.co.in/"
      }
    },
    {
      "type": "node",
      "id": 12676813327,
      "lat": 12.9071,
      "lon": 77.6003438,
      "tags": {
        "addr:city": "Bengaluru",
        "addr:district": "Bangalore Urban",
        "addr:street": "Outer Ring Road",
        "amenity": "restaurant",
        "cuisine": "regional;indian",
        "diet:vegetarian": "yes",
        "name": "Dakshin Cafe"
      }
    },
    {
      "type": "node",
      "id": 12676833806,
      "lat": 12.9178963,
      "lon": 77.5969663,
      "tags": {
        "addr:city": "Jayanagar",
        "addr:district": "Bengaluru Urban",
        "addr:street": "East End Main Road",
        "amenity": "restaurant",
        "check_date": "2025-03-15",
        "cuisine": "regional;coffee_shop;indian",
        "diet:halal": "yes",
        "diet:non-vegetarian": "yes",
        "name": "Laddu Boy"
      }
    },
    {
      "type": "node",
      "id": 13086275907,
      "lat": 12.9056206,
      "lon": 77.6014402,
      "tags": {
        "amenity": "restaurant",
        "contact:instagram": "thebombaychapter003",
        "name": "The Bombay Chapter 003"
      }
    },
    {
      "type": "node",
      "id": 13155076496,
      "lat": 12.9059599,
      "lon": 77.5963485,
      "tags": {
        "check_date": "2025-09-19",
        "name": "Just Dogs",
        "shop": "pet"
      }
    },
    {
      "type": "node",
      "id": 13159852004,
      "lat": 12.9106158,
      "lon": 77.5966659,
      "tags": {
        "level": "0",
        "name": "Beku",
        "shop": "books",
        "wheelchair": "no"
      }
    },
    {
      "type": "node",
      "id": 13164727392,
      "lat": 12.9061909,
      "lon": 77.5985444,
      "tags": {
        "addr:floor": "G",
        "check_date": "2025-09-19",
        "level": "0",
        "shop": "convenience"
      }
    },
    {
      "type": "node",
      "id": 13168786890,
      "lat": 12.9112282,
      "lon": 77.5992921,
      "tags": {
        "amenity": "cafe",
        "contact:instagram": "nombre.india",
        "cuisine": "coffee_shop",
        "name": "Nombre"
      }
    },
    {
      "type": "node",
      "id": 13176393733,
      "lat": 12.9187759,
      "lon": 77.5967671,
      "tags": {
        "shop": "bakery"
      }
    },
    {
      "type": "node",
      "id": 13176401337,
      "lat": 12.9179144,
      "lon": 77.5967581,
      "tags": {
        "amenity": "clinic",
        "name": "Chiranjeevi Specialist Center"
      }
    },
    {
      "type": "node",
      "id": 13260788310,
      "lat": 12.9029077,
      "lon": 77.5947434,
      "tags": {
        "amenity": "cafe",
        "check_date": "2025-10-27",
        "name": "Bonheur Cafe"
      }
    },
    {
      "type": "node",
      "id": 13261840354,
      "lat": 12.9040105,
      "lon": 77.5971527,
      "tags": {
        "access": "private",
        "amenity": "toilets",
        "female": "yes",
        "male": "yes"
      }
    },
    {
      "type": "node",
      "id": 13261840355,
      "lat": 12.9041112,
      "lon": 77.5972583,
      "tags": {
        "access": "private",
        "amenity": "toilets",
        "female": "yes",
        "male": "yes"
      }
    },
    {
      "type": "node",
      "id": 13261840361,
      "lat": 12.9039241,
      "lon": 77.5972221,
      "tags": {
        "amenity": "bench",
        "backrest": "yes",
        "seats": "2"
      }
    },
    {
      "type": "node",
      "id": 13261840362,
      "lat": 12.903922,
      "lon": 77.597285,
      "tags": {
        "amenity": "bench",
        "backrest": "yes",
        "seats": "2"
      }
    },
    {
      "type": "node",
      "id": 13261840378,
      "lat": 12.9025778,
      "lon": 77.5966183,
      "tags": {
        "amenity": "library",
        "name": "BBMP Reading Room"
      }
    },
    {
      "type": "node",
      "id": 13261840379,
      "lat": 12.9031431,
      "lon": 77.5964187,
      "tags": {
        "amenity": "shelter",
        "shelter_type": "gazebo"
      }
    },
    {
      "type": "node",
      "id": 13261961508,
      "lat": 12.9067026,
      "lon": 77.5992461,
      "tags": {
        "name": "BBLUNT",
        "shop": "beauty"
      }
    },
    {
      "type": "node",
      "id": 13324229361,
      "lat": 12.9168328,
      "lon": 77.6050816,
      "tags": {
        "name": "Sangeetha",
        "shop": "mobile_phone"
      }
    },
    {
      "type": "way",
      "id": 40678727,
      "center": {
        "lat": 12.9185194,
        "lon": 77.599254
      },
      "tags": {
        "addr:district": "Bengaluru Urban",
        "addr:full": "Jayanagar 9Th Block, B.G. Road, Banglore",
        "addr:postcode": "560041",
        "addr:state": "Karnataka",
        "addr:street": "Bannerghatta Road",
        "amenity": "hospital",
        "emergency": "yes",
        "healthcare": "hospital",
        "healthcare:speciality": "cardiology",
        "name": "Sri Jayadeva Institute Of Cardiology",
        "name:kn": "ಜಯದೇವ ಹೃದ್ರೋಗ ಸಂಸ್ಥೆ",
        "name:ta": "ஸ்ரீ ஜெயதேவா இருதய மருத்துவமனை",
        "source": "OpenGovernmentData"
      }
    },
    {
      "type": "way",
      "id": 52573068,
      "center": {
        "lat": 12.9036264,
        "lon": 77.5981263
      },
      "tags": {
        "amenity": "public_building",
        "name": "Swami Vivekananda Youth Movement (SWYM)"
      }
    },
    {
      "type": "way",
      "id": 118923756,
      "center": {
        "lat": 12.9143458,
        "lon": 77.5994854
      },
      "tags": {
        "building": "yes",
        "name": "Gopalan Innovation Mall",
        "name:kn": "ಗೋಪಾಲನ್ ಮಾಲ್",
        "opening_hours": "Mo-Su 08:00-23:00",
        "shop": "mall",
        "toilets": "yes",
        "wheelchair": "yes"
      }
    },
    {
      "type": "way",
      "id": 243910231,
      "center": {
        "lat": 12.913347,
        "lon": 77.599406
      },
      "tags": {
        "leisure": "park"
      }
    },
    {
      "type": "way",
      "id": 323470679,
      "center": {
        "lat": 12.9172838,
        "lon": 77.5989772
      },
      "tags": {
        "leisure": "garden"
      }
    },
    {
      "type": "way",
      "id": 348229736,
      "center": {
        "lat": 12.9071086,
        "lon": 77.6005145
      },
      "tags": {
        "amenity": "place_of_worship",
        "building": "yes",
        "name": "Shree Raksha Ganapathy Temple",
        "name:kn": "ರಕ್ಷಾ ಗಣಪತಿ ದೇವಸ್ಥಾನ",
        "religion": "hindu"
      }
    },
    {
      "type": "way",
      "id": 348498503,
      "center": {
        "lat": 12.905902,
        "lon": 77.5952149
      },
      "tags": {
        "amenity": "restaurant",
        "building": "yes",
        "cuisine": "juice;sandwich;rolls",
        "name": "Juice Junction"
      }
    },
    {
      "type": "way",
      "id": 349542323,
      "center": {
        "lat": 12.9184936,
        "lon": 77.5959747
      },
      "tags": {
        "addr:city": "Bengaluru",
        "addr:street": "East End Main Road",
        "addr:suburb": "Jayanagar 9th Block",
        "alt_name": "GHS Jayanagar 9th Block",
        "amenity": "school",
        "building": "school",
        "building:levels": "3",
        "capacity": "180",
        "max_age": "16",
        "min_age": "13",
        "name": "Government High School",
        "name:kn": "ಸರ್ಕಾರಿ ಪ್ರೌಢ ಶಾಲೆ"
      }
    },
    {
      "type": "way",
      "id": 359115595,
      "center": {
        "lat": 12.9088788,
        "lon": 77.5998534
      },
      "tags": {
        "addr:city": "Bengaluru",
        "addr:postcode": "560078",
        "addr:street": "Bannerghatta Road",
        "amenity": "community_centre",
        "building": "yes",
        "name": "N G R Kalyana Mantap"
      }
    },
    {
      "type": "way",
      "id": 362886442,
      "center": {
        "lat": 12.9207334,
        "lon": 77.607243
      },
      "tags": {
        "leisure": "park",
        "name": "Maruthi Layout Park"
      }
    },
    {
      "type": "way",
      "id": 419771780,
      "center": {
        "lat": 12.9188156,
        "lon": 77.5960357
      },
      "tags": {
        "access": "yes",
        "amenity": "parking_space",
        "fee": "no",
        "lit": "no",
        "opening_hours": "24/7",
        "parking": "surface",
        "supervised": "no",
        "surface": "ground"
      }
    },
    {
      "type": "way",
      "id": 483509324,
      "center": {
        "lat": 12.9030054,
        "lon": 77.596625
      },
      "tags": {
        "addr:city": "Bengaluru",
        "addr:postcode": "560076",
        "addr:street": "4th Cross Road 7th Main",
        "addr:unit": "Dollars Colony JP Nagar 4th Phase",
        "leisure": "park",
        "name": "Dollars Colony Park",
        "name:ta": "டாலர்ஸ் காலனி பூங்கா"
      }
    },
    {
      "type": "way",
      "id": 547652016,
      "center": {
        "lat": 12.9095679,
        "lon": 77.5941468
      },
      "tags": {
        "leisure": "park",
        "name": "BNV Park"
      }
    },
    {
      "type": "way",
      "id": 553255862,
      "center": {
        "lat": 12.9030707,
        "lon": 77.5967923
      },
      "tags": {
        "leisure": "pitch",
        "sport": "skateboard",
        "surface": "concrete"
      }
    },
    {
      "type": "way",
      "id": 553255863,
      "center": {
        "lat": 12.9032586,
        "lon": 77.5965116
      },
      "tags": {
        "leisure": "fitness_station",
        "sport": "fitness"
      }
    },
    {
      "type": "way",
      "id": 672649586,
      "center": {
        "lat": 12.9042519,
        "lon": 77.6013463
      },
      "tags": {
        "amenity": "fuel",
        "brand": "Indian Oil",
        "brand:wikidata": "Q1289348",
        "brand:wikipedia": "en:Indian Oil Corporation",
        "compressed_air": "yes",
        "fuel:diesel": "yes",
        "name": "Indian Oil",
        "name:kn": "ಇಂಡಿಯನ್ ಆಯಿಲ್",
        "self_service": "no"
      }
    },
    {
      "type": "way",
      "id": 674038060,
      "center": {
        "lat": 12.9050544,
        "lon": 77.5995508
      },
      "tags": {
        "leisure": "park",
        "name": "Freedom Park"
      }
    },
    {
      "type": "way",
      "id": 1106333598,
      "center": {
        "lat": 12.9165723,
        "lon": 77.5975557
      },
      "tags": {
        "amenity": "fuel",
        "brand": "Indian Oil",
        "brand:wikidata": "Q1289348",
        "name": "Indian Oil",
        "name:kn": "ಇಂಡಿಯನ್ ಆಯಿಲ್"
      }
    },
    {
      "type": "way",
      "id": 1108934944,
      "center": {
        "lat": 12.9034004,
        "lon": 77.6007617
      },
      "tags": {
        "addr:city": "Bengaluru",
        "addr:housenumber": "178/1 & 178/2",
        "addr:postcode": "560076",
        "addr:street": "Bannerghatta Road",
        "amenity": "hospital",
        "beds": "77",
        "emergency": "yes",
        "healthcare": "hospital",
        "healthcare:speciality": "paediatrics;gynaecology",
        "name": "Rainbow Children's Hospital",
        "operator": "Rainbow Hospitals",
        "operator:type": "private",
        "phone:mobile": "9355400341",
        "website": "https://www.rainbowhospitals.in/our-centre/bengaluru/bannerghatta",
        "wheelchair": "yes"
      }
    },
    {
      "type": "way",
      "id": 1141414944,
      "center": {
        "lat": 12.9187229,
        "lon": 77.5985354
      },
      "tags": {
        "leisure": "park"
      }
    },
    {
      "type": "way",
      "id": 1149959372,
      "center": {
        "lat": 12.9131243,
        "lon": 77.5993103
      },
      "tags": {
        "access": "private",
        "leisure": "swimming_pool",
        "location": "outdoor",
        "sport": "swimming"
      }
    },
    {
      "type": "way",
      "id": 1157395077,
      "center": {
        "lat": 12.9136583,
        "lon": 77.5962921
      },
      "tags": {
        "amenity": "place_of_worship",
        "landuse": "religious",
        "religion": "hindu"
      }
    },
    {
      "type": "way",
      "id": 1249829825,
      "center": {
        "lat": 12.9156772,
        "lon": 77.5985086
      },
      "tags": {
        "leisure": "park",
        "name": "Rajguru Park",
        "name:etymology:wikidata": "Q2721886"
      }
    },
    {
      "type": "way",
      "id": 1249829826,
      "center": {
        "lat": 12.9137173,
        "lon": 77.5985609
      },
      "tags": {
        "leisure": "park",
        "name": "Sukhdev Park",
        "name:etymology:wikidata": "Q2721919"
      }
    },
    {
      "type": "way",
      "id": 1249829827,
      "center": {
        "lat": 12.9116507,
        "lon": 77.5987341
      },
      "tags": {
        "leisure": "park",
        "name": "Bhagat Singh Park",
        "name:etymology:wikidata": "Q377808"
      }
    },
    {
      "type": "way",
      "id": 1249829828,
      "center": {
        "lat": 12.9087483,
        "lon": 77.5990498
      },
      "tags": {
        "leisure": "park",
        "name": "Sanna Kaadu - Small Forest"
      }
    },
    {
      "type": "way",
      "id": 1249829829,
      "center": {
        "lat": 12.9075874,
        "lon": 77.5999871
      },
      "tags": {
        "brand": "Maruti Suzuki",
        "brand:wikidata": "Q963718",
        "name": "Mandovi Motors",
        "name:kn": "ಮಂಡೋವಿ ಮೋಟರ್ಸ್",
        "operator": "Mandovi Motors Private Limited",
        "service": "parts;repair",
        "shop": "car_repair"
      }
    },
    {
      "type": "way",
      "id": 1249829839,
      "center": {
        "lat": 12.9035053,
        "lon": 77.5958832
      },
      "tags": {
        "amenity": "school",
        "name": "Clarence Public School"
      }
    },
    {
      "type": "way",
      "id": 1249829840,
      "center": {
        "lat": 12.9036041,
        "lon": 77.5963611
      },
      "tags": {
        "amenity": "place_of_worship",
        "building": "church",
        "name": "CSI Christha Krupalaya Church",
        "name:kn": "ಕ್ರಿಸ್ತ ಕೃಪಾಲಯ",
        "religion": "christian"
      }
    },
    {
      "type": "way",
      "id": 1249829841,
      "center": {
        "lat": 12.9035988,
        "lon": 77.5968077
      },
      "tags": {
        "amenity": "place_of_worship",
        "name": "Chinmaya Mission Sripada Kshetra",
        "religion": "hindu"
      }
    },
    {
      "type": "way",
      "id": 1265794484,
      "center": {
        "lat": 12.9064232,
        "lon": 77.6004308
      },
      "tags": {
        "leisure": "park",
        "wheelchair": "yes"
      }
    },
    {
      "type": "way",
      "id": 1346915452,
      "center": {
        "lat": 12.9149466,
        "lon": 77.5984858
      },
      "tags": {
        "amenity": "shelter",
        "building": "yes",
        "shelter_type": "gazebo"
      }
    },
    {
      "type": "way",
      "id": 1431706427,
      "center": {
        "lat": 12.910525,
        "lon": 77.5966495
      },
      "tags": {
        "access": "customers",
        "leisure": "outdoor_seating",
        "weather_protection": "roof"
      }
    },
    {
      "type": "way",
      "id": 1431706428,
      "center": {
        "lat": 12.9105907,
        "lon": 77.5966425
      },
      "tags": {
        "air_conditioning": "yes",
        "amenity": "restaurant",
        "diet:lactose_free": "yes",
        "diet:vegan": "yes",
        "diet:vegetarian": "only",
        "image:menu": "339a5244-c9aa-4cbd-9ead-730e3f4cbead",
        "image:menu:0": "08aa4a2c-6424-4045-8bcd-31510018320e",
        "image:menu:1": "7e5f752c-09bc-4f11-83c0-889f25c2091e",
        "image:menu:2": "01959ba5-027d-4922-b8f8-ab7cae4653e0",
        "image:menu:3": "651c4d10-31fe-4e51-89d8-0780be7a3cca",
        "image:menu:4": "8c57d782-2ba6-4219-9f18-65b95240c519",
        "indoor_seating": "yes",
        "level": "0",
        "name": "Beku",
        "operator": "S.S. Enterprises",
        "outdoor_seating": "yes",
        "panoramax": "c9dcd7aa-f7aa-49ea-9a5f-1ccb94ccfdda",
        "payment:cards": "yes",
        "payment:cash": "yes",
        "payment:qr_code": "no",
        "toilets": "separate",
        "wheelchair": "no",
        "wikimedia_commons": "Category:Beku,_JP_Nagar,_Bangalore"
      }
    },
    {
      "type": "way",
      "id": 1431816379,
      "center": {
        "lat": 12.9106772,
        "lon": 77.5966806
      },
      "tags": {
        "access": "permissive",
        "amenity": "toilets",
        "fee": "no",
        "level": "0",
        "panoramax": "beedef3e-a5cf-4943-ad01-ecca1c5f7ffc",
        "panoramax:0": "5aa15f97-4511-45da-9f76-533cde23bec4",
        "panoramax:1": "bd875d20-565e-4433-b82e-23b3b0d4a26a",
        "panoramax:2": "5e7dd92f-71d0-40d0-807b-a3d4cf8cd291",
        "panoramax:3": "51624e91-a5d9-46de-a427-9a1a665f793c",
        "toilets:disposal": "flush",
        "toilets:handwashing": "yes",
        "toilets:position": "seated",
        "unisex": "yes",
        "wheelchair": "no"
      }
    }
  ]
}