{
  "area_name": "Jaladarshini Layout",
  "osm_id": 2084115337,
  "osm_type": "node",
  "place_type": "neighbourhood",
  "amenity_count": 391,
  "amenities": [
    {
      "type": "node",
      "id": 374216597,
      "lat": 13.0288047,
      "lon": 77.5710204,
      "tags": {
        "addr:street": "New BEL Road",
        "amenity": "toilets"
      }
    },
    {
      "type": "node",
      "id": 374218325,
      "lat": 13.0322135,
      "lon": 77.5698943,
      "tags": {
        "amenity": "fuel",
        "brand": "Indian Oil",
        "brand:wikidata": "Q1289348",
        "brand:wikipedia": "en:Indian Oil Corporation",
        "name": "Indian Oil",
        "operator": "Indian Oil",
        "wheelchair": "yes"
      }
    },
    {
      "type": "node",
      "id": 445346235,
      "lat": 13.0294768,
      "lon": 77.5638561,
      "tags": {
        "amenity": "theatre",
        "check_date": "2025-11-16",
        "name": "JRD Tata Auditorium",
        "name:etymology:wikidata": "Q468334"
      }
    },
    {
      "type": "node",
      "id": 446805877,
      "lat": 13.0362217,
      "lon": 77.5663481,
      "tags": {
        "amenity": "bus_station",
        "bus": "yes",
        "name": "Chikkamaranahalli",
        "name:kn": "ಚಿಕ್ಕಮಾರನಹಳ್ಳಿ",
        "public_transport": "station"
      }
    },
    {
      "type": "node",
      "id": 529018365,
      "lat": 13.0281613,
      "lon": 77.5732067,
      "tags": {
        "amenity": "cafe",
        "name": "Polar Bear"
      }
    },
    {
      "type": "node",
      "id": 529018378,
      "lat": 13.02807,
      "lon": 77.5729018,
      "tags": {
        "amenity": "restaurant",
        "name": "Hav Mor",
        "name:kn": "ಹೇ ಮೊರ್"
      }
    },
    {
      "type": "node",
      "id": 598948012,
      "lat": 13.0333714,
      "lon": 77.5689251,
      "tags": {
        "amenity": "bank",
        "atm": "yes",
        "brand": "IndusInd Bank",
        "brand:wikidata": "Q2040323",
        "name": "IndusInd Bank",
        "name:kn": "ಐಯ್ಯಂಗಾರ್ ಬೇಕರಿ"
      }
    },
    {
      "type": "node",
      "id": 598948014,
      "lat": 13.033237,
      "lon": 77.5690007,
      "tags": {
        "amenity": "bank",
        "atm": "yes",
        "name": "ING Vysya"
      }
    },
    {
      "type": "node",
      "id": 598948016,
      "lat": 13.0330093,
      "lon": 77.5691944,
      "tags": {
        "amenity": "restaurant",
        "name": "Nandini Palace",
        "name:kn": "ನಂದಿನಿ ಪ್ಯಾಲೇಸ್"
      }
    },
    {
      "type": "node",
      "id": 598948018,
      "lat": 13.0330766,
      "lon": 77.5694147,
      "tags": {
        "name": "Denizen",
        "shop": "clothes"
      }
    },
    {
      "type": "node",
      "id": 598948019,
      "lat": 13.0330896,
      "lon": 77.569359,
      "tags": {
        "amenity": "restaurant",
        "name": "Beijing Bites",
        "name:kn": "ಬೀಜಿಂಗ್ ಬೈಟ್ಸ್"
      }
    },
    {
      "type": "node",
      "id": 598948020,
      "lat": 13.033163,
      "lon": 77.5691004,
      "tags": {
        "name": "World of Titan",
        "shop": "watches"
      }
    },
    {
      "type": "node",
      "id": 598948021,
      "lat": 13.0331351,
      "lon": 77.5691098,
      "tags": {
        "brand": "Van Heusen",
        "brand:wikidata": "Q67551865",
        "clothes": "men",
        "name": "Van Heusen",
        "name:kn": "ವ್ಯಾನ್ ಹುಸೇನ್",
        "shop": "clothes"
      }
    },
    {
      "type": "node",
      "id": 598948022,
      "lat": 13.0336086,
      "lon": 77.5691007,
      "tags": {
        "brand": "Bata",
        "brand:wikidata": "Q688082",
        "check_date": "2025-08-08",
        "name": "Bata",
        "name:kn": "ಬಾಟಾ",
        "shop": "shoes"
      }
    },
    {
      "type": "node",
      "id": 598948023,
      "lat": 13.0332457,
      "lon": 77.5692878,
      "tags": {
        "name": "Koutons",
        "shop": "clothes"
      }
    },
    {
      "type": "node",
      "id": 598969460,
      "lat": 13.0293247,
      "lon": 77.5708017,
      "tags": {
        "addr:street": "New BEL Road",
        "amenity": "fast_food",
        "brand": "McDonald's",
        "brand:pa": "ਮੈਕਡੋਨਲਡ’ਜ਼",
        "brand:ur": "مکڈونلڈز",
        "brand:wikidata": "Q38076",
        "brand:wikipedia": "en:McDonald's",
        "brand:wikipedia:pa": "ਮੈਕਡੋਨਲਡ’ਜ਼",
        "brand:wikipedia:ur": "مکڈونلڈز",
        "check_date": "2025-08-02",
        "cuisine": "burger",
        "name": "McDonald's",
        "name:kn": "ಮ್ಯಾಕ್‌ಡೊನಾಲ್ಡ್ಸ್",
        "name:pa": "ਮੈਕਡੋਨਲਡ’ਜ਼",
        "name:ur": "مکڈونلڈز",
        "takeaway": "yes"
      }
    },
    {
      "type": "node",
      "id": 598969461,
      "lat": 13.0292372,
      "lon": 77.5708378,
      "tags": {
        "addr:street": "New BEL Road",
        "amenity": "restaurant",
        "check_date": "2025-08-02",
        "cuisine": "pizza",
        "name": "Onesta",
        "name:kn": "ಒನೆಸ್ಟ"
      }
    },
    {
      "type": "node",
      "id": 598969462,
      "lat": 13.0282486,
      "lon": 77.5727818,
      "tags": {
        "name": "Cane Crush",
        "shop": "juice"
      }
    },
    {
      "type": "node",
      "id": 621235471,
      "lat": 13.0369119,
      "lon": 77.5659032,
      "tags": {
        "addr:city": "Bangalore",
        "addr:country": "IN",
        "addr:full": "Devasandra Circle",
        "addr:postcode": "560054",
        "addr:state": "Karnataka",
        "addr:street": "New BEL Road",
        "amenity": "cafe",
        "check_date": "2025-08-08",
        "name": "Shanthi Sagar",
        "name:kn": "ಶಾಂತಿ ಸಾಗರ"
      }
    },
    {
      "type": "node",
      "id": 621241029,
      "lat": 13.038095,
      "lon": 77.569086,
      "tags": {
        "amenity": "bar",
        "name": "RMV Club"
      }
    },
    {
      "type": "node",
      "id": 621241147,
      "lat": 13.0380165,
      "lon": 77.5693434,
      "tags": {
        "amenity": "restaurant",
        "name": "RMV Club",
        "name:kn": "ಆರ್‌ಎಮ್‌ವಿ ಕ್ಲಬ್"
      }
    },
    {
      "type": "node",
      "id": 622720272,
      "lat": 13.0342258,
      "lon": 77.5691996,
      "tags": {
        "brand": "Reliance Fresh",
        "brand:wikidata": "Q7311014",
        "name": "Reliance Fresh",
        "name:kn": "ರಿಲಾಯನ್ಸ್ ಫ್ರೆಶ್",
        "shop": "supermarket"
      }
    },
    {
      "type": "node",
      "id": 622720273,
      "lat": 13.0342347,
      "lon": 77.5693249,
      "tags": {
        "addr:city": "Chikkamaranahalli, Bangalore",
        "addr:housenumber": "10",
        "addr:street": "1st Main Road, New BEL Road",
        "amenity": "restaurant",
        "cuisine": "chinese",
        "name": "Hunan Chinese Restaurant",
        "name:kn": "ಹುನನ್ ಚೈನೀಸ್ ರೆಸ್ಟೋರಂಟ್",
        "phone": "+91-80-23413337"
      }
    },
    {
      "type": "node",
      "id": 627936451,
      "lat": 13.0372579,
      "lon": 77.566121,
      "tags": {
        "amenity": "restaurant",
        "name": "Chicken County",
        "name:kn": "ಚಿಕನ್ ಕೌಂಟಿ"
      }
    },
    {
      "type": "node",
      "id": 634815194,
      "lat": 13.0290015,
      "lon": 77.5615609,
      "tags": {
        "brand": "Reliance Fresh",
        "brand:wikidata": "Q7311014",
        "name": "Reliance Fresh",
        "name:kn": "ರಿಲಾಯನ್ಸ್ ಫ್ರೆಶ್",
        "operator": "Reliance",
        "shop": "supermarket",
        "wheelchair": "no"
      }
    },
    {
      "type": "node",
      "id": 639450444,
      "lat": 13.0243423,
      "lon": 77.5671642,
      "tags": {
        "shop": "convenience"
      }
    },
    {
      "type": "node",
      "id": 660061426,
      "lat": 13.0282488,
      "lon": 77.5717997,
      "tags": {
        "amenity": "fast_food",
        "cuisine": "indian",
        "name": "Sri Ganesh Darshan"
      }
    },
    {
      "type": "node",
      "id": 660061429,
      "lat": 13.0275961,
      "lon": 77.5766293,
      "tags": {
        "amenity": "restaurant",
        "name": "Freska",
        "name:kn": "ಫ್ರೆಸ್ಕ"
      }
    },
    {
      "type": "node",
      "id": 660345491,
      "lat": 13.0279832,
      "lon": 77.5715545,
      "tags": {
        "addr:street": "New BEL Road",
        "amenity": "restaurant",
        "brand": "Pizza Hut",
        "brand:wikidata": "Q191615",
        "cuisine": "pizza",
        "name": "Pizza Hut",
        "name:kn": "ಪಿಟ್ಸ ಹಟ್"
      }
    },
    {
      "type": "node",
      "id": 660345492,
      "lat": 13.027204,
      "lon": 77.57712,
      "tags": {
        "amenity": "pub",
        "cuisine": "indian",
        "name": "The Founders Brewery",
        "wheelchair": "limited"
      }
    },
    {
      "type": "node",
      "id": 668642311,
      "lat": 13.033221,
      "lon": 77.5690234,
      "tags": {
        "name": "Printo",
        "shop": "copyshop"
      }
    },
    {
      "type": "node",
      "id": 926120636,
      "lat": 13.032525,
      "lon": 77.5656528,
      "tags": {
        "fixme": "is the location correct?",
        "leisure": "sports_centre",
        "name": "Sports complex",
        "sport": "multi"
      }
    },
    {
      "type": "node",
      "id": 966862788,
      "lat": 13.0335598,
      "lon": 77.5758979,
      "tags": {
        "amenity": "police",
        "name": "Sanjayanagar Police station",
        "name:kn": "ಸಂಜಯನಗರ ಆರಕ್ಷಕ ಠಾಣೆ"
      }
    },
    {
      "type": "node",
      "id": 966863252,
      "lat": 13.0322788,
      "lon": 77.576876,
      "tags": {
        "amenity": "hospital",
        "emergency": "yes",
        "healthcare": "hospital",
        "name": "RMV Hospital"
      }
    },
    {
      "type": "node",
      "id": 1078399168,
      "lat": 13.0291565,
      "lon": 77.5707096,
      "tags": {
        "name": "Cakes and Bakes",
        "shop": "bakery"
      }
    },
    {
      "type": "node",
      "id": 1078399175,
      "lat": 13.0301779,
      "lon": 77.5708089,
      "tags": {
        "addr:street": "New BEL Road",
        "amenity": "fast_food",
        "name": "Paratha Shop"
      }
    },
    {
      "type": "node",
      "id": 1078399227,
      "lat": 13.0302354,
      "lon": 77.5705086,
      "tags": {
        "addr:street": "New BEL Road",
        "amenity": "cafe",
        "brand": "Barista",
        "brand:wikidata": "Q644735",
        "cuisine": "coffee_shop",
        "name": "Barista",
        "name:kn": "ಬರಿಸ್ಟಾ",
        "takeaway": "yes"
      }
    },
    {
      "type": "node",
      "id": 1085604211,
      "lat": 13.0295181,
      "lon": 77.5648212,
      "tags": {
        "amenity": "parking"
      }
    },
    {
      "type": "node",
      "id": 1085604375,
      "lat": 13.0295577,
      "lon": 77.5634442,
      "tags": {
        "access": "customers",
        "amenity": "parking",
        "fee": "no",
        "name": "NIAS",
        "parking": "surface"
      }
    },
    {
      "type": "node",
      "id": 1464771580,
      "lat": 13.0374605,
      "lon": 77.5657693,
      "tags": {
        "amenity": "fast_food",
        "brand": "Domino's",
        "brand:ks": "ڈومینوز",
        "brand:pa": "ਡੋਮੀਨੋਜ਼",
        "brand:ur": "ڈومینوز",
        "brand:wikidata": "Q839466",
        "brand:wikipedia": "en:Domino's Pizza",
        "cuisine": "pizza",
        "name": "Domino's",
        "name:ks": "ڈومینوز",
        "name:pa": "ਡੋਮੀਨੋਜ਼",
        "name:ur": "ڈومینوز"
      }
    },
    {
      "type": "node",
      "id": 1464771943,
      "lat": 13.0356496,
      "lon": 77.5670648,
      "tags": {
        "name": "Sweet Chariot",
        "name:kn": "ಸ್ವೀಟ್ ಚಾರಿಯಟ್",
        "shop": "bakery"
      }
    },
    {
      "type": "node",
      "id": 1464772068,
      "lat": 13.0354798,
      "lon": 77.5671533,
      "tags": {
        "name": "More",
        "shop": "convenience"
      }
    },
    {
      "type": "node",
      "id": 1464772262,
      "lat": 13.0349833,
      "lon": 77.5676844,
      "tags": {
        "amenity": "hospital",
        "name": "Guru Kripa Clinic"
      }
    },
    {
      "type": "node",
      "id": 1464772283,
      "lat": 13.0341967,
      "lon": 77.5682745,
      "tags": {
        "amenity": "bank",
        "brand": "Punjab National Bank",
        "brand:wikidata": "Q2743499",
        "check_date": "2025-08-08",
        "name": "Punjab National Bank",
        "name:en": "Punjab National Bank",
        "name:kn": "ಪಂಜಾಬ ರಾಷ್ಟ್ರೀಯ ಬ್ಯಾಂಕ್",
        "short_name": "PNB",
        "website": "https://www.pnbindia.in"
      }
    },
    {
      "type": "node",
      "id": 1464772815,
      "lat": 13.0321716,
      "lon": 77.5699911,
      "tags": {
        "amenity": "restaurant",
        "name": "Food Bay",
        "name:kn": "ಫುಡ್ ಬೇ"
      }
    },
    {
      "type": "node",
      "id": 1464772828,
      "lat": 13.0318449,
      "lon": 77.570207,
      "tags": {
        "alt_name": "Kentucky Fried Chicken",
        "alt_name:en": "Kentucky Fried Chicken",
        "alt_name:hi": "केंटुकी फ्राइड चिकन",
        "alt_name:pa": "ਕੈਂਟੁਕੀ ਫ੍ਰਾਈਡ ਚਿਕਨ",
        "alt_name:pnb": "کینٹکی فرائیڈ چکن",
        "alt_name:ur": "کینٹکی فرائیڈ چکن",
        "amenity": "fast_food",
        "brand": "KFC",
        "brand:en": "KFC",
        "brand:hi": "केएफसी",
        "brand:pa": "ਕੇਐਫਸੀ",
        "brand:pnb": "کے ایف سی",
        "brand:ur": "کے ایف سی",
        "brand:wikidata": "Q524757",
        "brand:wikipedia": "en:KFC",
        "brand:wikipedia:pa": "ਕੇਐਫਸੀ",
        "brand:wikipedia:ur": "کینٹکی فرائیڈ چکن",
        "cuisine": "chicken",
        "name": "KFC",
        "name:en": "KFC",
        "name:hi": "केएफसी",
        "name:pa": "ਕੇਐਫਸੀ",
        "name:pnb": "کے ایف سی",
        "name:ur": "کے ایف سی",
        "takeaway": "yes"
      }
    },
    {
      "type": "node",
      "id": 1464772829,
      "lat": 13.0314371,
      "lon": 77.5703125,
      "tags": {
        "amenity": "restaurant",
        "cuisine": "indian",
        "name": "Nandhini Deluxe",
        "name:kn": "ನಂದಿನಿ ಡಿಲಕ್ಸ್"
      }
    },
    {
      "type": "node",
      "id": 1464772967,
      "lat": 13.0290776,
      "lon": 77.5706643,
      "tags": {
        "name": "Just Bake",
        "shop": "bakery"
      }
    },
    {
      "type": "node",
      "id": 1464773025,
      "lat": 13.0297179,
      "lon": 77.5708843,
      "tags": {
        "name": "Ayappa Bakery",
        "shop": "bakery"
      }
    },
    {
      "type": "node",
      "id": 1464773026,
      "lat": 13.0289717,
      "lon": 77.5712245,
      "tags": {
        "amenity": "restaurant",
        "check_date": "2025-08-02",
        "name": "Casino",
        "name:kn": "ಕಸೀನೊ"
      }
    },
    {
      "type": "node",
      "id": 1464773800,
      "lat": 13.0290129,
      "lon": 77.5712153,
      "tags": {
        "amenity": "restaurant",
        "check_date": "2025-08-02",
        "cuisine": "chinese",
        "name": "Auntie Fung's"
      }
    },
    {
      "type": "node",
      "id": 1464775456,
      "lat": 13.0362481,
      "lon": 77.5747038,
      "tags": {
        "amenity": "restaurant",
        "cuisine": "chinese;indian",
        "diet:vegan": "yes",
        "diet:vegetarian": "yes",
        "name": "Atithi Satkaar",
        "name:kn": "ಅತಿಥಿ"
      }
    },
    {
      "type": "node",
      "id": 1465482494,
      "lat": 13.029027,
      "lon": 77.561291,
      "tags": {
        "amenity": "atm",
        "check_date": "2022-05-09",
        "fee": "Free first five transaction in a month if from other bank",
        "operator": "SBI State Bank of India ATM"
      }
    },
    {
      "type": "node",
      "id": 1467309641,
      "lat": 13.0281022,
      "lon": 77.5733848,
      "tags": {
        "amenity": "cafe",
        "brand": "Cafe Coffee Day",
        "brand:wikidata": "Q5017235",
        "cuisine": "coffee_shop",
        "name": "Cafe Coffee Day",
        "name:kn": "ಕಫೆ ಕಾಫಿ ಡೇ",
        "takeaway": "yes"
      }
    },
    {
      "type": "node",
      "id": 1467314071,
      "lat": 13.0290328,
      "lon": 77.5708477,
      "tags": {
        "amenity": "ice_cream",
        "brand": "Baskin-Robbins",
        "brand:wikidata": "Q584601",
        "cuisine": "ice_cream",
        "name": "Baskin-Robbins",
        "name:kn": "ಬಸ್ಕಿನ್ ರಾಬಿನ್ಸ್"
      }
    },
    {
      "type": "node",
      "id": 1467318815,
      "lat": 13.0280073,
      "lon": 77.5725777,
      "tags": {
        "amenity": "cafe",
        "check_date": "2025-12-01",
        "cuisine": "ice_cream",
        "name": "Corner House"
      }
    },
    {
      "type": "node",
      "id": 1467328374,
      "lat": 13.0283015,
      "lon": 77.5726596,
      "tags": {
        "amenity": "bank",
        "atm": "yes",
        "brand": "HDFC Bank",
        "brand:wikidata": "Q631047",
        "brand:wikipedia": "en:HDFC Bank",
        "name": "HDFC Bank",
        "name:kn": "ಎಚ್. ಡಿ. ಎಫ್. ಸಿ. ಬ್ಯಾಂಕ್",
        "operator": "HDFC Bank",
        "short_name": "HDFC",
        "website": "https://www.hdfcbank.com"
      }
    },
    {
      "type": "node",
      "id": 1467329134,
      "lat": 13.0272537,
      "lon": 77.5774582,
      "tags": {
        "amenity": "atm",
        "brand": "IDBI Bank",
        "brand:wikidata": "Q3633485",
        "name": "IDBI Bank",
        "operator": "IDBI Bank",
        "operator:wikidata": "Q3633485",
        "short_name": "IDBI"
      }
    },
    {
      "type": "node",
      "id": 1467359289,
      "lat": 13.0282784,
      "lon": 77.5715263,
      "tags": {
        "amenity": "pharmacy",
        "check_date": "2025-12-01",
        "name": "Maruthi Medical Store",
        "toilets:wheelchair": "no",
        "wheelchair": "limited"
      }
    },
    {
      "type": "node",
      "id": 1467362696,
      "lat": 13.0285232,
      "lon": 77.5716015,
      "tags": {
        "addr:city": "Bangalore",
        "addr:housenumber": "51",
        "addr:postcode": "560094",
        "addr:street": "80 Feet Road, Rmv Extension,",
        "name": "Kwality BIg Bazaar",
        "phone": "080-23515851",
        "shop": "convenience",
        "website": "NA"
      }
    },
    {
      "type": "node",
      "id": 1467371493,
      "lat": 13.0280554,
      "lon": 77.5733958,
      "tags": {
        "name": "Just Books",
        "name:kn": "ಜಸ್ಟ್ ಬುಕ್ಸ್",
        "shop": "books"
      }
    },
    {
      "type": "node",
      "id": 1467374658,
      "lat": 13.0280149,
      "lon": 77.5739162,
      "tags": {
        "brand": "HOPCOMS",
        "brand:wikidata": "Q22908959",
        "name": "HOPCOMS",
        "name:kn": "ಹಾಪ್ ಕಾಮ್ಸ್",
        "shop": "greengrocer",
        "wheelchair": "limited"
      }
    },
    {
      "type": "node",
      "id": 1467816822,
      "lat": 13.033232,
      "lon": 77.5690512,
      "tags": {
        "amenity": "atm",
        "brand": "Citibank",
        "brand:wikidata": "Q857063",
        "operator": "Citibank",
        "operator:wikidata": "Q857063",
        "short_name": "Citi"
      }
    },
    {
      "type": "node",
      "id": 1468864418,
      "lat": 13.0287132,
      "lon": 77.5713419,
      "tags": {
        "name": "Factory Outlet",
        "shop": "clothes"
      }
    },
    {
      "type": "node",
      "id": 1468864847,
      "lat": 13.0285771,
      "lon": 77.5713665,
      "tags": {
        "check_date": "2025-08-08",
        "name": "Puma",
        "name:kn": "ಪೂಮ",
        "shop": "shoes;clothes"
      }
    },
    {
      "type": "node",
      "id": 1468865977,
      "lat": 13.0301562,
      "lon": 77.5705035,
      "tags": {
        "brand": "Peter England",
        "brand:wikidata": "Q19573665",
        "clothes": "men",
        "name": "Peter England",
        "name:kn": "ಪೀಟರ್ ಇಂಗ್ಲೆಂಡ್",
        "shop": "clothes"
      }
    },
    {
      "type": "node",
      "id": 1468865978,
      "lat": 13.0303271,
      "lon": 77.5705126,
      "tags": {
        "name": "Raymonds",
        "shop": "clothes"
      }
    },
    {
      "type": "node",
      "id": 1468865981,
      "lat": 13.0314703,
      "lon": 77.5700231,
      "tags": {
        "brand": "Levi's",
        "brand:wikidata": "Q127962",
        "check_date": "2025-08-08",
        "clothes": "denim;men;women",
        "name": "Levi's",
        "name:kn": "ಲೆವಿಸ್",
        "shop": "clothes"
      }
    },
    {
      "type": "node",
      "id": 1469039064,
      "lat": 13.0315088,
      "lon": 77.5702923,
      "tags": {
        "name": "Reebok Kids Store",
        "shop": "clothes"
      }
    },
    {
      "type": "node",
      "id": 1469041150,
      "lat": 13.0319734,
      "lon": 77.5699954,
      "tags": {
        "brand": "Reebok",
        "brand:wikidata": "Q466183",
        "name": "Reebok",
        "name:kn": "ರೀಬಾಕ್",
        "shop": "clothes"
      }
    },
    {
      "type": "node",
      "id": 1469041157,
      "lat": 13.0323445,
      "lon": 77.569786,
      "tags": {
        "brand": "Adidas",
        "brand:wikidata": "Q3895",
        "name": "Adidas",
        "name:kn": "ಅಡಿಡಾಸ್",
        "shop": "sports",
        "wheelchair": "no"
      }
    },
    {
      "type": "node",
      "id": 1469042982,
      "lat": 13.0295495,
      "lon": 77.5707026,
      "tags": {
        "name": "Wildcraft",
        "shop": "clothes"
      }
    },
    {
      "type": "node",
      "id": 1469044512,
      "lat": 13.0296229,
      "lon": 77.5706879,
      "tags": {
        "brand": "Fastrack",
        "brand:wikidata": "Q28164179",
        "name": "Fastrack",
        "shop": "watches"
      }
    },
    {
      "type": "node",
      "id": 1472104730,
      "lat": 13.0345529,
      "lon": 77.5758254,
      "tags": {
        "amenity": "bank",
        "atm": "yes",
        "name": "Vijaya Bank",
        "name:kn": "ವಿಜಯ ಬ್ಯಾಂಕು"
      }
    },
    {
      "type": "node",
      "id": 1472104851,
      "lat": 13.0342969,
      "lon": 77.5759809,
      "tags": {
        "amenity": "atm",
        "brand": "HDFC Bank",
        "brand:wikidata": "Q631047",
        "name": "HDFC Bank",
        "name:kn": "ಎಚ್ ಡಿ ಎಫ್ ಸಿ",
        "operator": "HDFC Bank",
        "operator:wikidata": "Q631047",
        "short_name": "HDFC"
      }
    },
    {
      "type": "node",
      "id": 1472724213,
      "lat": 13.0337321,
      "lon": 77.5680068,
      "tags": {
        "addr:street": "Dollars Colony",
        "amenity": "bank",
        "atm": "yes",
        "brand": "State Bank of India",
        "brand:wikidata": "Q1340361",
        "brand:wikipedia": "en:State Bank of India",
        "name": "State Bank of India",
        "name:kn": "ಭಾರತೀಯ ಸ್ಟೇಟ್ ಬ್ಯಾಂಕ್",
        "short_name": "SBI"
      }
    },
    {
      "type": "node",
      "id": 1473169657,
      "lat": 13.0383519,
      "lon": 77.5742318,
      "tags": {
        "addr:postcode": "560094",
        "addr:street": "Sanjaynagar Main Road",
        "name": "Sri Krishna Bhavan Sweets",
        "opening_hours": "PH,Mo-Su 07:00-22:00",
        "shop": "bakery"
      }
    },
    {
      "type": "node",
      "id": 1473172359,
      "lat": 13.0370609,
      "lon": 77.5744676,
      "tags": {
        "amenity": "bank",
        "atm": "yes",
        "brand": "Karnataka Bank",
        "brand:wikidata": "Q2042632",
        "name": "Karnataka Bank",
        "name:kn": "ಕರ್ನಾಟಕ ಬ್ಯಾಂಕ್"
      }
    },
    {
      "type": "node",
      "id": 1473179094,
      "lat": 13.0349108,
      "lon": 77.5752718,
      "tags": {
        "amenity": "bank",
        "atm": "yes",
        "brand:wikidata": "Q2003549",
        "brand:wikipedia": "en:Axis Bank",
        "check_date": "2024-06-03",
        "name": "Axis Bank",
        "name:en": "Axis Bank",
        "name:kn": "ಆಕ್ಸಿಸ್ ಬ್ಯಾಂಕ್",
        "website": "https://www.axisbank.com"
      }
    },
    {
      "type": "node",
      "id": 1473180303,
      "lat": 13.0363059,
      "lon": 77.5748837,
      "tags": {
        "amenity": "atm",
        "brand": "Citibank",
        "brand:wikidata": "Q857063",
        "name": "Citibank",
        "operator": "Citibank",
        "operator:wikidata": "Q857063",
        "short_name": "Citi"
      }
    },
    {
      "type": "node",
      "id": 1473180305,
      "lat": 13.0363843,
      "lon": 77.5748622,
      "tags": {
        "amenity": "atm"
      }
    },
    {
      "type": "node",
      "id": 1473180307,
      "lat": 13.0359923,
      "lon": 77.5749695,
      "tags": {
        "amenity": "bank",
        "atm": "yes",
        "brand": "State Bank of India",
        "brand:wikidata": "Q1340361",
        "brand:wikipedia": "en:State Bank of India",
        "name": "State Bank of India",
        "name:kn": "ಭಾರತೀಯ ಸ್ಟೇಟ್ ಬ್ಯಾಂಕ್",
        "short_name": "SBI",
        "website": "https://www.sbi.co.in"
      }
    },
    {
      "type": "node",
      "id": 1473190732,
      "lat": 13.0298437,
      "lon": 77.5782954,
      "tags": {
        "amenity": "bank",
        "atm": "yes",
        "brand": "Corporation Bank",
        "brand:wikidata": "Q2003387",
        "name": "Corporation Bank",
        "name:kn": "ಕಾರ್ಪರೇಷನ್ ಬ್ಯಾಂಕ್",
        "operator": "Corporation Bank"
      }
    },
    {
      "type": "node",
      "id": 1756144063,
      "lat": 13.0282873,
      "lon": 77.5705701,
      "tags": {
        "amenity": "pharmacy",
        "dispensing": "yes",
        "name": "MSR Pharma",
        "wheelchair": "yes"
      }
    },
    {
      "type": "node",
      "id": 1756144065,
      "lat": 13.0299644,
      "lon": 77.5640792,
      "tags": {
        "amenity": "bank",
        "brand": "Bank of Baroda",
        "brand:wikidata": "Q2003797",
        "name": "Bank of Baroda",
        "name:kn": "ವಿಜಯ ಬ್ಯಾಂಕು"
      }
    },
    {
      "type": "node",
      "id": 1756144144,
      "lat": 13.0287613,
      "lon": 77.5663599,
      "tags": {
        "amenity": "library",
        "name": "M S Ramaiah Library",
        "name:etymology:wikidata": "Q6713104"
      }
    },
    {
      "type": "node",
      "id": 1777151114,
      "lat": 13.0288137,
      "lon": 77.5659698,
      "tags": {
        "amenity": "fast_food",
        "cuisine": "regional",
        "name": "M S Ramaiah Food Court"
      }
    },
    {
      "type": "node",
      "id": 1777151118,
      "lat": 13.0291001,
      "lon": 77.5680818,
      "tags": {
        "amenity": "fast_food",
        "diet:vegetarian": "only",
        "name": "Ganesh Darshan"
      }
    },
    {
      "type": "node",
      "id": 1795673244,
      "lat": 13.0290845,
      "lon": 77.5681567,
      "tags": {
        "name": "Ganesh Book Store",
        "shop": "books"
      }
    },
    {
      "type": "node",
      "id": 1864376228,
      "lat": 13.0307945,
      "lon": 77.5676331,
      "tags": {
        "amenity": "parking",
        "parking": "underground"
      }
    },
    {
      "type": "node",
      "id": 1864382659,
      "lat": 13.0297623,
      "lon": 77.5697601,
      "tags": {
        "amenity": "fast_food",
        "diet:vegetarian": "only",
        "name": "Ogara"
      }
    },
    {
      "type": "node",
      "id": 1864398447,
      "lat": 13.0295828,
      "lon": 77.571027,
      "tags": {
        "amenity": "fast_food",
        "brand": "Wow! Momo",
        "brand:wikidata": "Q8037446",
        "check_date": "2025-08-02",
        "cuisine": "momo",
        "name": "Wow! Momo",
        "takeaway": "yes"
      }
    },
    {
      "type": "node",
      "id": 1871539757,
      "lat": 13.0372438,
      "lon": 77.5648754,
      "tags": {
        "addr:district": "Bengaluru Urban",
        "addr:full": "No 519 2nd Nain Netravathystreet, Devasandra, New Bel Road",
        "addr:postcode": "560054",
        "addr:state": "Karnataka",
        "amenity": "hospital",
        "emergency": "yes",
        "name": "Shirdi Sai Hospital",
        "name:kn": "ಶಿರಡಿ ಸಾಯಿ ಆಸ್ಪತ್ರೆ",
        "operator:type": "private",
        "source": "OpenGovernmentData",
        "website": "http://shirdisaihospital.in/"
      }
    },
    {
      "type": "node",
      "id": 1871539758,
      "lat": 13.0367811,
      "lon": 77.5660503,
      "tags": {
        "amenity": "restaurant",
        "cuisine": "indian",
        "name": "Via Lucknow"
      }
    },
    {
      "type": "node",
      "id": 1871547602,
      "lat": 13.0282521,
      "lon": 77.5729006,
      "tags": {
        "amenity": "restaurant",
        "cuisine": "international",
        "name": "Ice and Spice"
      }
    },
    {
      "type": "node",
      "id": 1871547607,
      "lat": 13.0290021,
      "lon": 77.5687628,
      "tags": {
        "amenity": "pharmacy",
        "dispensing": "yes",
        "name": "MSR Medicals"
      }
    },
    {
      "type": "node",
      "id": 1929734613,
      "lat": 13.0353701,
      "lon": 77.5752731,
      "tags": {
        "amenity": "bank",
        "atm": "no",
        "name": "Karnataka Bank",
        "name:kn": "ಕರ್ನಾಟಕ ಬ್ಯಾಂಕ್",
        "operator": "Karnataka Bank"
      }
    },
    {
      "type": "node",
      "id": 1929739823,
      "lat": 13.0364505,
      "lon": 77.5745807,
      "tags": {
        "shop": "convenience"
      }
    },
    {
      "type": "node",
      "id": 1947633360,
      "lat": 13.0282258,
      "lon": 77.5730112,
      "tags": {
        "amenity": "restaurant",
        "name": "Frappy's"
      }
    },
    {
      "type": "node",
      "id": 1999582217,
      "lat": 13.0370746,
      "lon": 77.5656715,
      "tags": {
        "addr:city": "Bangalore",
        "addr:postcode": "560054",
        "addr:street": "New BEL Road",
        "name": "Maha Bazar",
        "phone": "(91)-80-33293209",
        "shop": "supermarket",
        "website": "https://www.mahabazaaronline.com/"
      }
    },
    {
      "type": "node",
      "id": 2068101647,
      "lat": 13.0304259,
      "lon": 77.569741,
      "tags": {
        "amenity": "restaurant",
        "cuisine": "indian",
        "name": "Ghar ka Khana"
      }
    },
    {
      "type": "node",
      "id": 2084115319,
      "lat": 13.0298117,
      "lon": 77.5783199,
      "tags": {
        "amenity": "atm",
        "operator": "Axis Bank ATM"
      }
    },
    {
      "type": "node",
      "id": 2084115343,
      "lat": 13.0305385,
      "lon": 77.5698806,
      "tags": {
        "amenity": "restaurant",
        "cuisine": "turkish",
        "name": "Darband"
      }
    },
    {
      "type": "node",
      "id": 2104341409,
      "lat": 13.0321646,
      "lon": 77.5765785,
      "tags": {
        "addr:city": "Bangalore",
        "addr:postcode": "560094",
        "addr:street": "Nagashettihalli, Sanjay Nagar,",
        "brand": "Reliance Fresh",
        "brand:wikidata": "Q7311014",
        "name": "Reliance Fresh",
        "name:kn": "ರಿಲಾಯನ್ಸ್ ಫ್ರೆಶ್",
        "phone": "80-22965183",
        "shop": "supermarket"
      }
    },
    {
      "type": "node",
      "id": 2265699807,
      "lat": 13.0287644,
      "lon": 77.5712591,
      "tags": {
        "amenity": "streetfood",
        "cuisine": "pani_puri"
      }
    },
    {
      "type": "node",
      "id": 2297715693,
      "lat": 13.0293289,
      "lon": 77.5617382,
      "tags": {
        "amenity": "restaurant",
        "cuisine": "indian",
        "name": "Chandrappa Hotel",
        "name:kn": "ಚಂದ್ರಪ್ಪ"
      }
    },
    {
      "type": "node",
      "id": 2297715821,
      "lat": 13.0269768,
      "lon": 77.5778843,
      "tags": {
        "shop": "car_repair"
      }
    },
    {
      "type": "node",
      "id": 2309677672,
      "lat": 13.028009,
      "lon": 77.5728764,
      "tags": {
        "alt_name": "Khushi multicuisine restaurant",
        "amenity": "restaurant",
        "cuisine": "indian",
        "name": "Bhaga's"
      }
    },
    {
      "type": "node",
      "id": 2309677679,
      "lat": 13.0289052,
      "lon": 77.5716135,
      "tags": {
        "shop": "bakery"
      }
    },
    {
      "type": "node",
      "id": 2309677682,
      "lat": 13.0284874,
      "lon": 77.5717984,
      "tags": {
        "name": "Archies",
        "shop": "gift"
      }
    },
    {
      "type": "node",
      "id": 2309677686,
      "lat": 13.0281424,
      "lon": 77.5733461,
      "tags": {
        "amenity": "restaurant",
        "cuisine": "international",
        "name": "Tomatoes"
      }
    },
    {
      "type": "node",
      "id": 2309684404,
      "lat": 13.0273348,
      "lon": 77.5765728,
      "tags": {
        "amenity": "restaurant",
        "cuisine": "indian",
        "name": "Darasuni",
        "wheelchair": "no"
      }
    },
    {
      "type": "node",
      "id": 2309684405,
      "lat": 13.027186,
      "lon": 77.5776081,
      "tags": {
        "name": "3M Car Care",
        "shop": "car_repair"
      }
    },
    {
      "type": "node",
      "id": 2310497999,
      "lat": 13.032401,
      "lon": 77.5669086,
      "tags": {
        "amenity": "restaurant",
        "cuisine": "chicken",
        "name": "Deccan House"
      }
    },
    {
      "type": "node",
      "id": 2319451107,
      "lat": 13.0323229,
      "lon": 77.5770689,
      "tags": {
        "amenity": "pharmacy",
        "name": "RMV Medicals"
      }
    },
    {
      "type": "node",
      "id": 2481122142,
      "lat": 13.0301366,
      "lon": 77.5712239,
      "tags": {
        "name": "Select Bridgestone Tyre Service",
        "shop": "tyres"
      }
    },
    {
      "type": "node",
      "id": 2702151800,
      "lat": 13.0273584,
      "lon": 77.5763017,
      "tags": {
        "amenity": "cafe",
        "cuisine": "bavarian",
        "name": "Cafe Rossini",
        "wheelchair": "no"
      }
    },
    {
      "type": "node",
      "id": 2702151803,
      "lat": 13.0290865,
      "lon": 77.5664915,
      "tags": {
        "amenity": "atm",
        "operator": "Vijaya Bank"
      }
    },
    {
      "type": "node",
      "id": 2702151807,
      "lat": 13.0290286,
      "lon": 77.5664063,
      "tags": {
        "amenity": "atm",
        "brand": "State Bank of India",
        "brand:wikidata": "Q1340361",
        "operator": "State Bank of India",
        "operator:wikidata": "Q1340361",
        "short_name": "SBI"
      }
    },
    {
      "type": "node",
      "id": 2702151808,
      "lat": 13.0298041,
      "lon": 77.570686,
      "tags": {
        "amenity": "atm",
        "brand": "State Bank of India",
        "brand:wikidata": "Q1340361",
        "operator": "State Bank of India",
        "operator:wikidata": "Q1340361",
        "short_name": "SBI"
      }
    },
    {
      "type": "node",
      "id": 2703661726,
      "lat": 13.0282068,
      "lon": 77.5729312,
      "tags": {
        "amenity": "atm",
        "brand": "Karnataka Bank",
        "brand:wikidata": "Q2042632",
        "operator": "Karnataka Bank",
        "operator:wikidata": "Q2042632"
      }
    },
    {
      "type": "node",
      "id": 2896563906,
      "lat": 13.0271848,
      "lon": 77.571876,
      "tags": {
        "amenity": "restaurant",
        "check_date": "2025-08-08",
        "cuisine": "chinese",
        "name": "Canyin"
      }
    },
    {
      "type": "node",
      "id": 2897376820,
      "lat": 13.0282899,
      "lon": 77.5714773,
      "tags": {
        "amenity": "restaurant",
        "check_date": "2025-12-01",
        "name": "A1 Rice Bowl"
      }
    },
    {
      "type": "node",
      "id": 3122056107,
      "lat": 13.0349227,
      "lon": 77.5614892,
      "tags": {
        "addr:city": "Mathikere",
        "addr:postcode": "560054",
        "amenity": "place_of_worship",
        "name": "Shiva Temple",
        "name:kn": "ಶಿವ ದೇವಸ್ಥಾನ",
        "religion": "hindu"
      }
    },
    {
      "type": "node",
      "id": 3122059772,
      "lat": 13.0356902,
      "lon": 77.5634153,
      "tags": {
        "addr:city": "Mathikere",
        "addr:postcode": "560054",
        "amenity": "cinema",
        "name": "Lakshmi Tent"
      }
    },
    {
      "type": "node",
      "id": 3307010962,
      "lat": 13.0285702,
      "lon": 77.5714972,
      "tags": {
        "amenity": "restaurant",
        "cuisine": "chinese",
        "name": "Chung Wah"
      }
    },
    {
      "type": "node",
      "id": 3412599218,
      "lat": 13.0280761,
      "lon": 77.5634762,
      "tags": {
        "amenity": "parking"
      }
    },
    {
      "type": "node",
      "id": 3483711802,
      "lat": 13.0374157,
      "lon": 77.5661276,
      "tags": {
        "addr:city": "Bangalore",
        "addr:housenumber": "534",
        "addr:postcode": "560094",
        "addr:street": "5th Main",
        "amenity": "cafe",
        "cuisine": "dessert",
        "internet_access": "no",
        "name": "Ibaco",
        "opening_hours": "11:00 -23:00",
        "phone": "+91 9535710883",
        "smoking": "no"
      }
    },
    {
      "type": "node",
      "id": 3555811424,
      "lat": 13.0279983,
      "lon": 77.5726967,
      "tags": {
        "amenity": "restaurant",
        "building": "yes",
        "cuisine": "chinese",
        "name": "Chung Wah",
        "name:kn": "ಚುಂಗ್ ವಾ"
      }
    },
    {
      "type": "node",
      "id": 3571019993,
      "lat": 13.0289716,
      "lon": 77.5633966,
      "tags": {
        "amenity": "restaurant",
        "cuisine": "regional",
        "name": "NIAS Main Eating Point"
      }
    },
    {
      "type": "node",
      "id": 3571023993,
      "lat": 13.0292739,
      "lon": 77.5636598,
      "tags": {
        "leisure": "park",
        "name": "Shri M Hamid Ansari - Planted Tree"
      }
    },
    {
      "type": "node",
      "id": 3665552667,
      "lat": 13.0319123,
      "lon": 77.576777,
      "tags": {
        "amenity": "pharmacy"
      }
    },
    {
      "type": "node",
      "id": 3677324087,
      "lat": 13.0302272,
      "lon": 77.5627649,
      "tags": {
        "addr:city": "Bangalore",
        "addr:housenumber": "4/3",
        "addr:street": "MSRIT Road",
        "addr:street_1": "Sree Complex",
        "amenity": "cafe",
        "cuisine": "Fast_Food",
        "name": "Freedom Cafe",
        "opening_hours": "11:00-23:00",
        "phone": "080-41145266, 9900362266, 9900372266"
      }
    },
    {
      "type": "node",
      "id": 3719529455,
      "lat": 13.0374079,
      "lon": 77.5654203,
      "tags": {
        "amenity": "restaurant",
        "cuisine": "indian",
        "name": "Akshaya Deluxe"
      }
    },
    {
      "type": "node",
      "id": 3836949170,
      "lat": 13.0305521,
      "lon": 77.5660376,
      "tags": {
        "addr:city": "Bengaluru",
        "addr:housenumber": "Ramaiah Institute of Technology",
        "addr:postcode": "560054",
        "addr:street": "MSR Nagar 1st Main Road",
        "amenity": "research_institute",
        "description": "Velocita Racing is the exclusive combustion class formula student team of Ramaiah Institute of Technology, Bengaluru, Karnataka. This team comprises of 35 passionate and enthusiastic undergraduate students from various departments, who are continuously wo",
        "email": "velocitarcing.rit@gmail.com",
        "image": "https://velocitaracing.github.io/src/assets/Logo/VR-new-logo.webp",
        "internet_access": "yes",
        "internet_access:fee": "no",
        "name": "Velocita Racing",
        "operator": "Ramaiah Institute of Technology",
        "operator:type": "private_non_profit",
        "source": "local knowledge;streetlevel imagery;survey",
        "start_date": "2015",
        "website": "https://velocitaracing.github.io",
        "wheelchair": "yes"
      }
    },
    {
      "type": "node",
      "id": 4008637875,
      "lat": 13.0243879,
      "lon": 77.5645728,
      "tags": {
        "amenity": "parking"
      }
    },
    {
      "type": "node",
      "id": 4008639892,
      "lat": 13.0243552,
      "lon": 77.564035,
      "tags": {
        "amenity": "parking"
      }
    },
    {
      "type": "node",
      "id": 4489386645,
      "lat": 13.029313,
      "lon": 77.5608165,
      "tags": {
        "addr:city": "Bangalore",
        "addr:housenumber": "361/7",
        "addr:postcode": "560054",
        "addr:street": ",HMT Main Road, MS Ramaiah Rd, Bhadrappa Layout, Nanjappa Reddy Colony, Yeshwanthpur",
        "name": "Image Sports And General Stores",
        "opening_hours": "10:00-21:30",
        "shop": "sports"
      }
    },
    {
      "type": "node",
      "id": 4489390993,
      "lat": 13.0282272,
      "lon": 77.5716378,
      "tags": {
        "addr:city": "Bangalore",
        "addr:postcode": "560094",
        "addr:street": "Lakshmi Corner,Opposite M S Ramaiah Hospital, Off New BEL Road, 80 Feet Rd, RMV 2nd Stage, Ashwath Nagar",
        "name": "Hatrick Sports",
        "opening_hours": "10:00-21:30",
        "phone": "080 2341 9864",
        "shop": "sports"
      }
    },
    {
      "type": "node",
      "id": 4489734162,
      "lat": 13.0293044,
      "lon": 77.5706882,
      "tags": {
        "addr:city": "Bangalore",
        "addr:housenumber": "191",
        "addr:postcode": "560054",
        "addr:street": "New Bel Road",
        "leisure": "sports_centre",
        "name": "Target Fitness",
        "opening_hours": "06:00-13:00",
        "phone": "(91)-80-33792091",
        "sport": "gymnastics"
      }
    },
    {
      "type": "node",
      "id": 4489740098,
      "lat": 13.0316501,
      "lon": 77.5692545,
      "tags": {
        "addr:city": "Bangalore",
        "addr:housenumber": "36",
        "addr:postcode": "560054",
        "addr:street": ",2nd Floor,Rasasri Chambers, Jaladarshini Layout, New Bel Road",
        "leisure": "sports_centre",
        "name": "Snap Fitness",
        "opening_hours": "05:00-23:00",
        "phone": "(91)-80-33532365",
        "sport": "gymnastics",
        "website": "www.snapfitnessindia.com"
      }
    },
    {
      "type": "node",
      "id": 4489775834,
      "lat": 13.0311539,
      "lon": 77.5707749,
      "tags": {
        "addr:city": "Bangalore",
        "addr:housenumber": "3",
        "addr:postcode": "560094",
        "addr:street": "\" No 3, Sapthagiri Janardhan Sun City, Seenappa Layout,New Bel Road, Bhadrappa Layout, Jaladarsini Layout, R.M.V. 2nd Stage, Bengaluru, Karnataka 560094\"",
        "leisure": "sports_centre",
        "name": "Gymnasium",
        "opening_hours": "06:00-24:00",
        "phone": "080 4804 9351",
        "sport": "gymnasium",
        "website": "absfitness.in"
      }
    },
    {
      "type": "node",
      "id": 4489841033,
      "lat": 13.0326555,
      "lon": 77.5758079,
      "tags": {
        "addr:city": "Bangalore",
        "addr:housenumber": "No172",
        "addr:postcode": "560064",
        "addr:street": "AECS Naidu Layout 1st Cross",
        "name": "Freesia Spa Salon",
        "opening_hours": "10:00-21:00",
        "phone": "080-41210952",
        "shop": "beauty"
      }
    },
    {
      "type": "node",
      "id": 4552278323,
      "lat": 13.0271537,
      "lon": 77.5718835,
      "tags": {
        "amenity": "restaurant",
        "check_date": "2025-08-08",
        "name": "Gilly's Resto Bar"
      }
    },
    {
      "type": "node",
      "id": 6536955969,
      "lat": 13.0267394,
      "lon": 77.5633585,
      "tags": {
        "amenity": "college",
        "name": "IISc-ISRO Space Technology Cell"
      }
    },
    {
      "type": "node",
      "id": 6536993900,
      "lat": 13.0257673,
      "lon": 77.5633424,
      "tags": {
        "amenity": "parking"
      }
    },
    {
      "type": "node",
      "id": 6536993902,
      "lat": 13.0240674,
      "lon": 77.5643067,
      "tags": {
        "amenity": "parking",
        "parking": "surface"
      }
    },
    {
      "type": "node",
      "id": 6570549326,
      "lat": 13.0254093,
      "lon": 77.5633894,
      "tags": {
        "amenity": "college",
        "name": "Centre for High Energy Physics",
        "short_name": "CHEP",
        "website": "http://chep.iisc.ac.in/"
      }
    },
    {
      "type": "node",
      "id": 6570549327,
      "lat": 13.0249311,
      "lon": 77.5629804,
      "tags": {
        "amenity": "college",
        "name": "Astronomy and Astrophysics Programme",
        "short_name": "AAP",
        "website": "https://physics.iisc.ac.in/~jap/"
      }
    },
    {
      "type": "node",
      "id": 6570549329,
      "lat": 13.0234782,
      "lon": 77.5643228,
      "tags": {
        "amenity": "college",
        "name": "Microbiology & Cell Biology",
        "short_name": "MCB",
        "website": "https://mcbl.iisc.ac.in/"
      }
    },
    {
      "type": "node",
      "id": 6570549335,
      "lat": 13.0241471,
      "lon": 77.5640331,
      "tags": {
        "amenity": "college",
        "name": "Biochemistry",
        "short_name": "BC",
        "website": "https://biochem.iisc.ac.in/"
      }
    },
    {
      "type": "node",
      "id": 6886594820,
      "lat": 13.0295016,
      "lon": 77.5684762,
      "tags": {
        "addr:city": "Bengaluru",
        "addr:district": "BENGALURU URBAN",
        "addr:full": "Gokul Extension",
        "addr:postcode": "560054",
        "addr:state": "Karnataka",
        "amenity": "blood_bank",
        "contact:mobile": "9845120603",
        "contact:phone": "8022183100",
        "name": "M. S. Ramaiah Medical Teaching Hospital Blood Bank",
        "opening_hours": "24/7",
        "operator:type": "private",
        "source": "OpenGovernmentData"
      }
    },
    {
      "type": "node",
      "id": 6939108450,
      "lat": 13.0322819,
      "lon": 77.5770459,
      "tags": {
        "addr:district": "Bengaluru Urban",
        "addr:full": "No.138, Aec Layout, Sanjay Nagar",
        "addr:postcode": "560094",
        "addr:state": "Karnataka",
        "amenity": "hospital",
        "name": "Raj Mahal Vilas Hospital",
        "source": "OpenGovernmentData"
      }
    },
    {
      "type": "node",
      "id": 6947504016,
      "lat": 13.0377564,
      "lon": 77.5744454,
      "tags": {
        "addr:district": "Bengaluru Rural",
        "addr:full": "12, D Rajgopal Road, Next To Food World, Nagashettyhalli, Sanjaynagar",
        "addr:postcode": "560091",
        "addr:state": "Karnataka",
        "amenity": "hospital",
        "healthcare": "hospital",
        "name": "Mamta Hospital, Bengaluru Rural",
        "source": "OpenGovernmentData"
      }
    },
    {
      "type": "node",
      "id": 6947504017,
      "lat": 13.0360827,
      "lon": 77.575065,
      "tags": {
        "addr:district": "Bengaluru Urban",
        "addr:full": "No.2, Ngef Layout, Sanjaynagar Main Road",
        "addr:postcode": "560094",
        "addr:state": "Karnataka",
        "amenity": "hospital",
        "name": "S. J. Hospital",
        "source": "OpenGovernmentData"
      }
    },
    {
      "type": "node",
      "id": 7215593390,
      "lat": 13.0286823,
      "lon": 77.5618337,
      "tags": {
        "name": "Cake Gallery",
        "shop": "bakery"
      }
    },
    {
      "type": "node",
      "id": 7215593392,
      "lat": 13.0260574,
      "lon": 77.5618619,
      "tags": {
        "amenity": "place_of_worship",
        "check_date": "2023-12-23",
        "name": "Sri Shaneshwara Swami Temple",
        "religion": "hindu"
      }
    },
    {
      "type": "node",
      "id": 7228148551,
      "lat": 13.0296204,
      "lon": 77.5611135,
      "tags": {
        "name": "Vishal Mega Mart",
        "shop": "supermarket"
      }
    },
    {
      "type": "node",
      "id": 7228148552,
      "lat": 13.0306174,
      "lon": 77.5604819,
      "tags": {
        "amenity": "fast_food",
        "brand": "Domino's",
        "brand:ks": "ڈومینوز",
        "brand:pa": "ਡੋਮੀਨੋਜ਼",
        "brand:ur": "ڈومینوز",
        "brand:wikidata": "Q839466",
        "brand:wikipedia": "en:Domino's Pizza",
        "cuisine": "pizza",
        "name": "Domino's",
        "name:kn": "ಡಾಮಿನೋಸ್",
        "name:ks": "ڈومینوز",
        "name:pa": "ਡੋਮੀਨੋਜ਼",
        "name:ur": "ڈومینوز",
        "takeaway": "yes"
      }
    },
    {
      "type": "node",
      "id": 7257728185,
      "lat": 13.0280499,
      "lon": 77.5715386,
      "tags": {
        "amenity": "fast_food",
        "brand": "Subway",
        "brand:pa": "ਸਬਵੇਅ",
        "brand:ur": "سب وے",
        "brand:wikidata": "Q244457",
        "brand:wikipedia": "en:Subway (restaurant)",
        "check_date": "2025-08-02",
        "cuisine": "sandwich",
        "name": "Subway",
        "name:pa": "ਸਬਵੇਅ",
        "name:ur": "سب وے",
        "takeaway": "yes"
      }
    },
    {
      "type": "node",
      "id": 7257728186,
      "lat": 13.0279258,
      "lon": 77.5715741,
      "tags": {
        "name": "Bharath Auto Tyres Shop",
        "shop": "tyres"
      }
    },
    {
      "type": "node",
      "id": 7257728188,
      "lat": 13.0285808,
      "lon": 77.5713244,
      "tags": {
        "amenity": "fast_food",
        "cuisine": "juice",
        "name": "Lassi Shop"
      }
    },
    {
      "type": "node",
      "id": 7257728192,
      "lat": 13.0312438,
      "lon": 77.5705675,
      "tags": {
        "amenity": "fast_food",
        "brand": "Domino's",
        "brand:ks": "ڈومینوز",
        "brand:pa": "ਡੋਮੀਨੋਜ਼",
        "brand:ur": "ڈومینوز",
        "brand:wikidata": "Q839466",
        "brand:wikipedia": "en:Domino's Pizza",
        "check_date": "2025-08-08",
        "cuisine": "pizza",
        "name": "Domino's",
        "name:kn": "ಡಾಮಿನೋಸ್",
        "name:ks": "ڈومینوز",
        "name:pa": "ਡੋਮੀਨੋਜ਼",
        "name:ur": "ڈومینوز",
        "takeaway": "yes"
      }
    },
    {
      "type": "node",
      "id": 7257728203,
      "lat": 13.0337165,
      "lon": 77.5689791,
      "tags": {
        "amenity": "restaurant",
        "check_date": "2025-08-08",
        "name": "Burp"
      }
    },
    {
      "type": "node",
      "id": 7257728219,
      "lat": 13.0338576,
      "lon": 77.568906,
      "tags": {
        "name": "HP Printing Supplies",
        "shop": "electronics"
      }
    },
    {
      "type": "node",
      "id": 7257728221,
      "lat": 13.0341673,
      "lon": 77.568676,
      "tags": {
        "amenity": "dentist",
        "check_date": "2025-08-08",
        "name": "Clove Dental"
      }
    },
    {
      "type": "node",
      "id": 7257728222,
      "lat": 13.0340915,
      "lon": 77.5696886,
      "tags": {
        "name": "Churn",
        "organic": "yes",
        "shop": "greengrocer"
      }
    },
    {
      "type": "node",
      "id": 7257728242,
      "lat": 13.0350322,
      "lon": 77.5725438,
      "tags": {
        "amenity": "clinic",
        "name": "Ayush Ayurvedic"
      }
    },
    {
      "type": "node",
      "id": 7257728243,
      "lat": 13.0359742,
      "lon": 77.5734048,
      "tags": {
        "amenity": "place_of_worship",
        "religion": "hindu"
      }
    },
    {
      "type": "node",
      "id": 7257728266,
      "lat": 13.0368849,
      "lon": 77.5747217,
      "tags": {
        "amenity": "fast_food",
        "cuisine": "regional",
        "name": "Brindavan Vaibhav"
      }
    },
    {
      "type": "node",
      "id": 7430631839,
      "lat": 13.0313151,
      "lon": 77.5668561,
      "tags": {
        "amenity": "parking"
      }
    },
    {
      "type": "node",
      "id": 7495014660,
      "lat": 13.0378871,
      "lon": 77.5743958,
      "tags": {
        "name": "EasyDay Supermarket Ltd.",
        "payment:cash": "yes",
        "payment:credit_cards": "yes",
        "payment:debit_cards": "yes",
        "shop": "supermarket"
      }
    },
    {
      "type": "node",
      "id": 8151014159,
      "lat": 13.0291853,
      "lon": 77.5611297,
      "tags": {
        "amenity": "atm",
        "brand": "Kotak Mahindra Bank",
        "brand:wikidata": "Q2040404",
        "name": "Kotak Mahindra Bank",
        "operator": "Kotak Mahindra Bank",
        "operator:wikidata": "Q2040404"
      }
    },
    {
      "type": "node",
      "id": 8151054162,
      "lat": 13.0298633,
      "lon": 77.5605424,
      "tags": {
        "name": "Vellai malar vegetables and fruits",
        "shop": "greengrocer"
      }
    },
    {
      "type": "node",
      "id": 8151057665,
      "lat": 13.0297384,
      "lon": 77.5607209,
      "tags": {
        "shop": "nuts"
      }
    },
    {
      "type": "node",
      "id": 8151058939,
      "lat": 13.0292268,
      "lon": 77.5611013,
      "tags": {
        "amenity": "atm",
        "brand": "ICICI Bank",
        "brand:wikidata": "Q1653258",
        "name": "ICICI Bank",
        "operator": "ICICI Bank",
        "operator:wikidata": "Q1653258",
        "short_name": "ICICI"
      }
    },
    {
      "type": "node",
      "id": 8187962142,
      "lat": 13.0384524,
      "lon": 77.5649122,
      "tags": {
        "addr:full": "28, New BEL Rd, AGS Layout, AGs Layout, R.M.V. 2nd Stage, Bengaluru, Karnataka",
        "addr:state": "Karnataka",
        "amenity": "bank",
        "name": "Bank of Baroda",
        "name:kn": "ಬ್ಯಾಂಕ್ ಆಫ್ ಬರೋಡ"
      }
    },
    {
      "type": "node",
      "id": 8187962187,
      "lat": 13.0280537,
      "lon": 77.5621055,
      "tags": {
        "addr:full": "1st Cross, MS Ramaiah Engineering College Road, Mathikere, Gokula 1st Stage, Mathikere, Bengaluru, Karnataka",
        "addr:state": "Karnataka",
        "amenity": "bank",
        "brand": "Andhra Bank",
        "brand:wikidata": "Q2003476",
        "name": "Andhra Bank",
        "name:kn": "ಆಂಧ್ರ ಬ್ಯಾಂಕ್"
      }
    },
    {
      "type": "node",
      "id": 8364339784,
      "lat": 13.0290323,
      "lon": 77.5622137,
      "tags": {
        "amenity": "post_office",
        "brand": "KPN parcel service"
      }
    },
    {
      "type": "node",
      "id": 8442191507,
      "lat": 13.0304848,
      "lon": 77.5758007,
      "tags": {
        "amenity": "fast_food",
        "cuisine": "american",
        "delivery": "only",
        "name": "amerikhani",
        "opening_hours": "Mo-Su 08:00-22:00",
        "outdoor_seating": "no",
        "takeaway": "only"
      }
    },
    {
      "type": "node",
      "id": 8544071048,
      "lat": 13.0318872,
      "lon": 77.56986,
      "tags": {
        "brand": "Croma",
        "shop": "appliance"
      }
    },
    {
      "type": "node",
      "id": 8544090696,
      "lat": 13.0320123,
      "lon": 77.5698439,
      "tags": {
        "amenity": "cafe",
        "description": "Icecream and shakes",
        "name": "Frozen Bottle"
      }
    },
    {
      "type": "node",
      "id": 8873814642,
      "lat": 13.0294938,
      "lon": 77.5618421,
      "tags": {
        "name": "Printouts and projects",
        "shop": "copyshop"
      }
    },
    {
      "type": "node",
      "id": 9197334699,
      "lat": 13.0305155,
      "lon": 77.5744414,
      "tags": {
        "name": "lulu Store",
        "shop": "convenience"
      }
    },
    {
      "type": "node",
      "id": 9197342023,
      "lat": 13.0274554,
      "lon": 77.5772913,
      "tags": {
        "addr:city": "Bangalore",
        "addr:country": "IN",
        "addr:hamlet": "Dollars Colony",
        "addr:housename": "RK Plaza",
        "addr:postcode": "560094",
        "addr:street": "80 Feet Road",
        "addr:suburb": "Ashwath Nagar",
        "amenity": "cafe",
        "delivery": "yes",
        "name": "Old Madras Baking Company",
        "opening_hours": "08:00-23:00",
        "operator": "Old Madras Baking Company",
        "shop": "bakery",
        "takeaway": "yes"
      }
    },
    {
      "type": "node",
      "id": 9197342024,
      "lat": 13.0272477,
      "lon": 77.5765631,
      "tags": {
        "amenity": "cafe",
        "name": "Third Wave Coffee Roasters"
      }
    },
    {
      "type": "node",
      "id": 9197342025,
      "lat": 13.027398,
      "lon": 77.5760011,
      "tags": {
        "leisure": "fitness_station",
        "name": "Cult.fit",
        "wheelchair": "limited"
      }
    },
    {
      "type": "node",
      "id": 9197342026,
      "lat": 13.0274123,
      "lon": 77.575867,
      "tags": {
        "amenity": "cafe",
        "brand": "Starbucks",
        "brand:pa": "ਸਟਾਰਬਕਸ",
        "brand:ur": "اسٹاربکس",
        "brand:wikidata": "Q37158",
        "brand:wikipedia": "en:Starbucks",
        "cuisine": "coffee_shop",
        "name": "Starbucks",
        "name:pa": "ਸਟਾਰਬਕਸ",
        "name:ur": "اسٹاربکس",
        "official_name": "Starbucks Coffee",
        "official_name:pa": "ਸਟਾਰਬਕਸ ਕੌਫੀ",
        "official_name:ur": "اسٹاربکس کافی",
        "takeaway": "yes",
        "wheelchair": "no"
      }
    },
    {
      "type": "node",
      "id": 9197342027,
      "lat": 13.0277102,
      "lon": 77.5760025,
      "tags": {
        "name": "Ajfan Dry Fruits and Nuts",
        "shop": "convenience"
      }
    },
    {
      "type": "node",
      "id": 9197342028,
      "lat": 13.0278749,
      "lon": 77.5751294,
      "tags": {
        "amenity": "ice_cream",
        "name": "Milano Ice Cream",
        "wheelchair": "no"
      }
    },
    {
      "type": "node",
      "id": 9197342029,
      "lat": 13.0279894,
      "lon": 77.5726551,
      "tags": {
        "amenity": "restaurant",
        "check_date": "2025-12-01",
        "name": "IDC Kitchen"
      }
    },
    {
      "type": "node",
      "id": 9197342030,
      "lat": 13.0286549,
      "lon": 77.5719067,
      "tags": {
        "amenity": "restaurant",
        "cuisine": "punjabi",
        "name": "Queens"
      }
    },
    {
      "type": "node",
      "id": 9197342031,
      "lat": 13.0284577,
      "lon": 77.571902,
      "tags": {
        "amenity": "restaurant",
        "name": "Leon Grill"
      }
    },
    {
      "type": "node",
      "id": 9197342032,
      "lat": 13.0287953,
      "lon": 77.5713435,
      "tags": {
        "amenity": "fast_food",
        "brand": "Burger King",
        "brand:pa": "ਬਰਗਰ ਕਿੰਗ",
        "brand:ur": "برگر کنگ",
        "brand:wikidata": "Q177054",
        "brand:wikipedia": "en:Burger King",
        "brand:wikipedia:pa": "ਬਰਗਰ ਕਿੰਗ",
        "brand:wikipedia:ur": "برگر کنگ",
        "check_date": "2025-08-02",
        "cuisine": "burger",
        "name": "Burger King",
        "name:pa": "ਬਰਗਰ ਕਿੰਗ",
        "name:ru": "Бургер Кинг",
        "name:ur": "برگر کنگ",
        "takeaway": "yes"
      }
    },
    {
      "type": "node",
      "id": 9197342034,
      "lat": 13.0281976,
      "lon": 77.5731593,
      "tags": {
        "amenity": "restaurant",
        "name": "The Belgian Waffel Co."
      }
    },
    {
      "type": "node",
      "id": 9466195428,
      "lat": 13.0284621,
      "lon": 77.5719342,
      "tags": {
        "amenity": "pub"
      }
    },
    {
      "type": "node",
      "id": 9709501450,
      "lat": 13.0283896,
      "lon": 77.5722836,
      "tags": {
        "name": "iPlanet",
        "shop": "electronics"
      }
    },
    {
      "type": "node",
      "id": 9709501451,
      "lat": 13.0282825,
      "lon": 77.5728013,
      "tags": {
        "amenity": "cafe",
        "name": "Glen's Bakehouse",
        "shop": "bakery"
      }
    },
    {
      "type": "node",
      "id": 9723783009,
      "lat": 13.0298889,
      "lon": 77.5607765,
      "tags": {
        "description": "HP certified reseller",
        "name": "Compustar Inc.",
        "shop": "computer"
      }
    },
    {
      "type": "node",
      "id": 9723910392,
      "lat": 13.0299384,
      "lon": 77.5607361,
      "tags": {
        "name": "Crescent Computers",
        "shop": "computer"
      }
    },
    {
      "type": "node",
      "id": 9723910698,
      "lat": 13.0298464,
      "lon": 77.560805,
      "tags": {
        "name": "Asus",
        "shop": "computer"
      }
    },
    {
      "type": "node",
      "id": 9723910699,
      "lat": 13.0297952,
      "lon": 77.5607072,
      "tags": {
        "name": "Nandu",
        "shop": "butcher"
      }
    },
    {
      "type": "node",
      "id": 10033755411,
      "lat": 13.0272434,
      "lon": 77.571858,
      "tags": {
        "amenity": "restaurant",
        "cuisine": "chinese",
        "name": "Chinese Wok"
      }
    },
    {
      "type": "node",
      "id": 10033755413,
      "lat": 13.0329244,
      "lon": 77.5692613,
      "tags": {
        "addr:city": "Bengaluru",
        "addr:street": "New BEL Road",
        "amenity": "restaurant",
        "cuisine": "italian;pizza",
        "name": "Vinny's"
      }
    },
    {
      "type": "node",
      "id": 10033755414,
      "lat": 13.0352714,
      "lon": 77.567758,
      "tags": {
        "addr:city": "Bengaluru",
        "addr:street": "New BEL Road",
        "amenity": "restaurant",
        "cuisine": "chinese",
        "name": "Hao Chi"
      }
    },
    {
      "type": "node",
      "id": 10033755415,
      "lat": 13.0285638,
      "lon": 77.5618686,
      "tags": {
        "addr:city": "Bengaluru",
        "addr:street": "MS Ramaiah Road",
        "amenity": "restaurant",
        "cuisine": "south_indian",
        "diet:vegetarian": "yes",
        "name": "Ganesh Darshan"
      }
    },
    {
      "type": "node",
      "id": 10033755416,
      "lat": 13.0301774,
      "lon": 77.5621558,
      "tags": {
        "addr:city": "Bengaluru",
        "amenity": "restaurant",
        "cuisine": "kerala;chinese;south_indian;north_inddian;arabic",
        "name": "Thalassery",
        "name:kn": "ತಲಸ್ಸೆರಿ"
      }
    },
    {
      "type": "node",
      "id": 10033768417,
      "lat": 13.0302419,
      "lon": 77.5620777,
      "tags": {
        "addr:city": "Bengaluru",
        "amenity": "restaurant",
        "cuisine": "kerala;south_indian",
        "name": "Calicut"
      }
    },
    {
      "type": "node",
      "id": 10212418972,
      "lat": 13.0293905,
      "lon": 77.5784862,
      "tags": {
        "shop": "greengrocer"
      }
    },
    {
      "type": "node",
      "id": 10212418978,
      "lat": 13.0274959,
      "lon": 77.5771357,
      "tags": {
        "name": "Blown",
        "shop": "beauty"
      }
    },
    {
      "type": "node",
      "id": 10212418991,
      "lat": 13.0276122,
      "lon": 77.5764397,
      "tags": {
        "amenity": "restaurant",
        "cuisine": "regional",
        "name": "Nammura Naati Mane"
      }
    },
    {
      "type": "node",
      "id": 10212418992,
      "lat": 13.0276645,
      "lon": 77.5762868,
      "tags": {
        "amenity": "cafe",
        "name": "Theobroma",
        "shop": "bakery"
      }
    },
    {
      "type": "node",
      "id": 10212418993,
      "lat": 13.0278814,
      "lon": 77.5750376,
      "tags": {
        "amenity": "fast_food",
        "contact:instagram": "milanopizzacafe_india",
        "cuisine": "pizza",
        "name": "Milano Pizza",
        "wheelchair": "no"
      }
    },
    {
      "type": "node",
      "id": 10233456232,
      "lat": 13.0375552,
      "lon": 77.5665276,
      "tags": {
        "access": "yes",
        "amenity": "toilets",
        "fee": "yes",
        "operator": "BBMP"
      }
    },
    {
      "type": "node",
      "id": 10233456233,
      "lat": 13.0372716,
      "lon": 77.5659201,
      "tags": {
        "amenity": "pub",
        "microbrewery": "yes",
        "name": "La Casa Brew + Kitchen"
      }
    },
    {
      "type": "node",
      "id": 10302647643,
      "lat": 13.0305507,
      "lon": 77.569124,
      "tags": {
        "amenity": "restaurant",
        "cuisine": "tapas",
        "name": "Snow Lion Tibet Kitchen"
      }
    },
    {
      "type": "node",
      "id": 10302647644,
      "lat": 13.029998,
      "lon": 77.5705549,
      "tags": {
        "amenity": "bar",
        "name": "Chin Lung"
      }
    },
    {
      "type": "node",
      "id": 10302647645,
      "lat": 13.0292246,
      "lon": 77.571546,
      "tags": {
        "amenity": "restaurant",
        "cuisine": "thai",
        "name": "Lan Thai"
      }
    },
    {
      "type": "node",
      "id": 10302647646,
      "lat": 13.0324962,
      "lon": 77.5694874,
      "tags": {
        "amenity": "bar",
        "name": "Chapter One"
      }
    },
    {
      "type": "node",
      "id": 10302647647,
      "lat": 13.0329535,
      "lon": 77.5691722,
      "tags": {
        "amenity": "pub",
        "name": "1522 - The Pub"
      }
    },
    {
      "type": "node",
      "id": 10302647653,
      "lat": 13.0329849,
      "lon": 77.5695384,
      "tags": {
        "amenity": "fast_food",
        "brand": "Popeyes",
        "brand:wikidata": "Q1330910",
        "brand:wikipedia": "en:Popeyes",
        "cuisine": "chicken",
        "delivery": "yes",
        "name": "Popeyes",
        "official_name": "Popeyes Louisiana Kitchen",
        "takeaway": "yes",
        "website": "https://www.popeyes.in/"
      }
    },
    {
      "type": "node",
      "id": 10600408936,
      "lat": 13.0368157,
      "lon": 77.5659898,
      "tags": {
        "addr:city": "Bangalore",
        "addr:country": "IN",
        "addr:hamlet": "RMV Extension 2nd Stage",
        "addr:housenumber": "472",
        "addr:postcode": "560054",
        "addr:street": "New BEL Road",
        "amenity": "restaurant",
        "cuisine": "american",
        "delivery": "yes",
        "level": "0",
        "name": "New BEL Road SOCIAL",
        "smoking": "separated",
        "takeaway": "yes"
      }
    },
    {
      "type": "node",
      "id": 10753140993,
      "lat": 13.0363283,
      "lon": 77.5747083,
      "tags": {
        "shop": "bakery"
      }
    },
    {
      "type": "node",
      "id": 10753140994,
      "lat": 13.0361951,
      "lon": 77.5750262,
      "tags": {
        "name": "Bata",
        "name:kn": "ಬಾಟಾ",
        "shop": "shoes"
      }
    },
    {
      "type": "node",
      "id": 10753140995,
      "lat": 13.0364459,
      "lon": 77.5746654,
      "tags": {
        "name": "Poorvika",
        "shop": "mobile_phone"
      }
    },
    {
      "type": "node",
      "id": 10753140996,
      "lat": 13.0362055,
      "lon": 77.5747083,
      "tags": {
        "amenity": "restaurant",
        "cuisine": "chinese;indian",
        "name": "Taste of Coast"
      }
    },
    {
      "type": "node",
      "id": 10753151412,
      "lat": 13.0345887,
      "lon": 77.57535,
      "tags": {
        "amenity": "bank",
        "atm": "yes",
        "brand": "ICICI Bank",
        "brand:wikidata": "Q1653258",
        "name": "ICICI Bank",
        "name:kn": "ಐಸಿಐಸಿಐ ಬ್ಯಾಂಕು",
        "operator": "ICICI Bank",
        "short_name": "ICICI"
      }
    },
    {
      "type": "node",
      "id": 10753151416,
      "lat": 13.0346376,
      "lon": 77.5753815,
      "tags": {
        "access": "permissive",
        "amenity": "motorcycle_parking",
        "parking": "surface",
        "surface": "15"
      }
    },
    {
      "type": "node",
      "id": 10753151419,
      "lat": 13.0340079,
      "lon": 77.5755465,
      "tags": {
        "amenity": "shelter",
        "shelter_type": "gazebo"
      }
    },
    {
      "type": "node",
      "id": 10753151428,
      "lat": 13.0332579,
      "lon": 77.5759301,
      "tags": {
        "amenity": "bank",
        "atm": "yes",
        "brand": "HDFC Bank",
        "brand:wikidata": "Q631047",
        "name": "HDFC Bank",
        "name:kn": "ಎಚ್ ಡಿ ಎಫ್ ಸಿ",
        "operator": "HDFC Bank",
        "short_name": "HDFC"
      }
    },
    {
      "type": "node",
      "id": 10753151433,
      "lat": 13.0319305,
      "lon": 77.5769245,
      "tags": {
        "access": "yes",
        "amenity": "toilets",
        "fee": "yes",
        "female": "yes",
        "male": "yes",
        "operator": "BBMP"
      }
    },
    {
      "type": "node",
      "id": 10753151495,
      "lat": 13.0311635,
      "lon": 77.5771639,
      "tags": {
        "amenity": "fuel",
        "brand": "Nayara",
        "brand:wikidata": "Q1360409",
        "name": "Nayara",
        "operator": "Nayara"
      }
    },
    {
      "type": "node",
      "id": 10753151502,
      "lat": 13.030552,
      "lon": 77.5777929,
      "tags": {
        "amenity": "fast_food",
        "name": "Sri Ganesh Darshini"
      }
    },
    {
      "type": "node",
      "id": 10753151503,
      "lat": 13.0302084,
      "lon": 77.5780423,
      "tags": {
        "name": "Just Bake",
        "name:kn": "ಜಸ್ಟ್ ಬೇಕ್",
        "shop": "bakery"
      }
    },
    {
      "type": "node",
      "id": 10848190371,
      "lat": 13.0297739,
      "lon": 77.5678793,
      "tags": {
        "amenity": "college",
        "name": "M S Ramaiah Faculty of Pharmacy",
        "name:etymology:wikidata": "Q6713104"
      }
    },
    {
      "type": "node",
      "id": 10931287090,
      "lat": 13.0333141,
      "lon": 77.568959,
      "tags": {
        "amenity": "cafe",
        "check_date": "2025-08-08",
        "name": "bub lee"
      }
    },
    {
      "type": "node",
      "id": 11117243810,
      "lat": 13.0299497,
      "lon": 77.5784688,
      "tags": {
        "amenity": "restaurant",
        "cuisine": "pizza",
        "delivery": "yes",
        "name": "Nomad Pizza",
        "takeaway": "yes"
      }
    },
    {
      "type": "node",
      "id": 11117243811,
      "lat": 13.0345161,
      "lon": 77.5680296,
      "tags": {
        "amenity": "restaurant",
        "cuisine": "asian",
        "delivery": "yes",
        "name": "Papa Pho",
        "takeaway": "yes"
      }
    },
    {
      "type": "node",
      "id": 11176400127,
      "lat": 13.0271928,
      "lon": 77.5767475,
      "tags": {
        "amenity": "restaurant",
        "check_date": "2023-09-02",
        "diet:vegetarian": "yes",
        "name": "Ayodhya aahar",
        "wheelchair": "yes"
      }
    },
    {
      "type": "node",
      "id": 11176400129,
      "lat": 13.0275337,
      "lon": 77.576734,
      "tags": {
        "check_date": "2023-09-02",
        "name": "Reeti Designer studio",
        "shop": "clothes",
        "wheelchair": "no"
      }
    },
    {
      "type": "node",
      "id": 11199068287,
      "lat": 13.0349878,
      "lon": 77.575524,
      "tags": {
        "addr:floor": "G",
        "addr:street": "4th Main Road",
        "amenity": "fast_food",
        "check_date": "2023-09-18",
        "cuisine": "indian",
        "diet:vegetarian": "yes",
        "name": "Brahmins thindis",
        "opening_hours": "Mo-Su 07:00-21:00",
        "phone": "080508 86278"
      }
    },
    {
      "type": "node",
      "id": 11199092874,
      "lat": 13.0348398,
      "lon": 77.5754822,
      "tags": {
        "addr:floor": "G",
        "check_date": "2023-09-18",
        "name": "Manjunath condiments",
        "shop": "tea"
      }
    },
    {
      "type": "node",
      "id": 11371349956,
      "lat": 13.037758,
      "lon": 77.5744038,
      "tags": {
        "addr:city": "Bengaluru",
        "addr:district": "Bengaluru Urban",
        "addr:housenumber": "S. No. 6A",
        "addr:postcode": "560094",
        "addr:street": "Sanjaynagar Main Road",
        "amenity": "bank",
        "atm": "yes",
        "branch": "Ltd",
        "brand": "ICICI Bank",
        "brand:wikidata": "Q1653258",
        "name": "ICICI Bank",
        "opening_hours": "Mo-Fr 09:30-15:00",
        "short_name": "ICICI"
      }
    },
    {
      "type": "node",
      "id": 11371401649,
      "lat": 13.0354243,
      "lon": 77.5753543,
      "tags": {
        "addr:city": "Bengaluru",
        "addr:district": "Bengaluru Urban",
        "addr:housenumber": "24",
        "addr:postcode": "560094",
        "addr:street": "Sanjaynagar Main Road",
        "leisure": "sports_hall",
        "name": "Transform Fitness 2.0",
        "opening_hours": "Mo-Sa 05:30-22:00; Su 08:00-13:00",
        "phone": "08884655522",
        "sport": "gy",
        "unisex": "yes"
      }
    },
    {
      "type": "node",
      "id": 11445452516,
      "lat": 13.0262516,
      "lon": 77.5617355,
      "tags": {
        "check_date": "2023-12-23",
        "name": "SR Flower Decoration",
        "shop": "florist"
      }
    },
    {
      "type": "node",
      "id": 11445452517,
      "lat": 13.0281331,
      "lon": 77.5618375,
      "tags": {
        "amenity": "bank",
        "brand": "Central Bank of India",
        "brand:wikidata": "Q2007090",
        "check_date": "2023-12-23",
        "name": "Central Bank of India"
      }
    },
    {
      "type": "node",
      "id": 11445452518,
      "lat": 13.0287243,
      "lon": 77.5613902,
      "tags": {
        "amenity": "fast_food",
        "check_date": "2023-12-23",
        "name": "Sri Raghavendra Vaibhava"
      }
    },
    {
      "type": "node",
      "id": 11475679272,
      "lat": 13.0282636,
      "lon": 77.5731795,
      "tags": {
        "addr:city": "Bengaluru",
        "addr:country": "IN",
        "addr:housenumber": "83",
        "addr:postcode": "560094",
        "addr:street": "80 Feet Road",
        "amenity": "cafe",
        "delivery": "yes",
        "name": "Rosé Restaurant And Patisserie",
        "takeaway": "yes"
      }
    },
    {
      "type": "node",
      "id": 11770974408,
      "lat": 13.0300772,
      "lon": 77.5705291,
      "tags": {
        "addr:city": "Bengaluru",
        "addr:district": "Bengaluru Urban",
        "addr:housenumber": "205, New BEL Rd, KGE Layout, Devasandra Layout",
        "addr:postcode": "560054",
        "addr:street": "New BEL Road",
        "amenity": "cafe",
        "cuisine": "coffee_shop;pizza;sandwich;burger",
        "name": "The Belstreet",
        "outdoor_seating": "no",
        "phone": "08041678314",
        "website": "https://www.thebelstreet.com/"
      }
    },
    {
      "type": "node",
      "id": 11771063155,
      "lat": 13.0301991,
      "lon": 77.562353,
      "tags": {
        "amenity": "restaurant",
        "cuisine": "indian;chicken",
        "diet:chicken": "yes",
        "diet:fish": "yes",
        "diet:non-vegetarian": "yes",
        "diet:ovo_vegetarian": "yes",
        "diet:vegetarian": "yes",
        "name": "Bong Connection",
        "opening_hours": "Mo-Su 11:30-22:30",
        "phone": "07259540540"
      }
    },
    {
      "type": "node",
      "id": 11850255969,
      "lat": 13.0311563,
      "lon": 77.5778161,
      "tags": {
        "amenity": "school",
        "name": "चिरंतना इंग्लिश स्कूल",
        "name:en": "Chirantana English High school"
      }
    },
    {
      "type": "node",
      "id": 11932321830,
      "lat": 13.0265515,
      "lon": 77.5617056,
      "tags": {
        "amenity": "fast_food",
        "check_date": "2024-05-25",
        "name": "Bites & Beverages"
      }
    },
    {
      "type": "node",
      "id": 11932321833,
      "lat": 13.0296128,
      "lon": 77.5607646,
      "tags": {
        "amenity": "pharmacy",
        "check_date": "2024-05-25",
        "healthcare": "pharmacy",
        "name": "Ram Medicals"
      }
    },
    {
      "type": "node",
      "id": 11950041907,
      "lat": 13.0312554,
      "lon": 77.5704918,
      "tags": {
        "check_date": "2024-06-01",
        "name": "Manyavar",
        "shop": "clothes"
      }
    },
    {
      "type": "node",
      "id": 12001090810,
      "lat": 13.0333592,
      "lon": 77.5740914,
      "tags": {
        "amenity": "arts_centre",
        "contact:instagram": "pagalcanvasbackyard",
        "email": "pagalcanvas@gmail.com",
        "name": "Pagal Canvas Backyard",
        "website": "https://pagalcanvas.wordpress.com/"
      }
    },
    {
      "type": "node",
      "id": 12064153963,
      "lat": 13.0315097,
      "lon": 77.577408,
      "tags": {
        "addr:city": "Bengaluru",
        "addr:country": "IN",
        "addr:postcode": "560094",
        "addr:street": "Sanjay Nagar Main Road",
        "addr:suburb": "Sanjay Nagar",
        "amenity": "pub",
        "contact:instagram": "toroblr",
        "delivery": "yes",
        "name": "Toro Brew House & Kitchen Zozo",
        "phone": "+91 9900005230",
        "takeaway": "yes"
      }
    },
    {
      "type": "node",
      "id": 12149544732,
      "lat": 13.0275983,
      "lon": 77.5748627,
      "tags": {
        "amenity": "restaurant",
        "check_date": "2024-09-01",
        "cuisine": "pizza",
        "delivery": "yes",
        "name": "The Pizza Bakery",
        "outdoor_seating": "yes",
        "takeaway": "yes",
        "toilets": "yes",
        "wheelchair": "no"
      }
    },
    {
      "type": "node",
      "id": 12149544733,
      "lat": 13.0276129,
      "lon": 77.5747367,
      "tags": {
        "amenity": "fast_food",
        "check_date": "2024-09-01",
        "name": "Paris Panini",
        "wheelchair": "no"
      }
    },
    {
      "type": "node",
      "id": 12149544734,
      "lat": 13.0273632,
      "lon": 77.5761223,
      "tags": {
        "check_date": "2024-09-01",
        "name": "KC Das",
        "shop": "confectionery",
        "wheelchair": "no"
      }
    },
    {
      "type": "node",
      "id": 12149544735,
      "lat": 13.0272159,
      "lon": 77.577638,
      "tags": {
        "amenity": "post_box"
      }
    },
    {
      "type": "node",
      "id": 12208469960,
      "lat": 13.0277599,
      "lon": 77.5738956,
      "tags": {
        "amenity": "ice_cream",
        "name": "Cream Stone"
      }
    },
    {
      "type": "node",
      "id": 12291501592,
      "lat": 13.0373232,
      "lon": 77.5655573,
      "tags": {
        "amenity": "cafe",
        "check_date": "2025-08-08",
        "name": "Thalassery Cafe"
      }
    },
    {
      "type": "node",
      "id": 12291502162,
      "lat": 13.0336695,
      "lon": 77.5686948,
      "tags": {
        "amenity": "cafe",
        "check_date": "2025-08-08",
        "name": "Chai Theory"
      }
    },
    {
      "type": "node",
      "id": 12291502164,
      "lat": 13.0337675,
      "lon": 77.5686049,
      "tags": {
        "brand": "Fabindia",
        "brand:wikidata": "Q5427779",
        "name": "Fabindia",
        "shop": "clothes"
      }
    },
    {
      "type": "node",
      "id": 12501041562,
      "lat": 13.026469,
      "lon": 77.5645494,
      "tags": {
        "amenity": "fast_food",
        "name": "Sanvi Star Canteen"
      }
    },
    {
      "type": "node",
      "id": 12501041563,
      "lat": 13.026563,
      "lon": 77.5625579,
      "tags": {
        "amenity": "fast_food",
        "name": "Vayu Vihar Aerospace Canteen"
      }
    },
    {
      "type": "node",
      "id": 12512224860,
      "lat": 13.0315097,
      "lon": 77.5700118,
      "tags": {
        "amenity": "bar",
        "name": "Masala Martini"
      }
    },
    {
      "type": "node",
      "id": 12519659558,
      "lat": 13.0271055,
      "lon": 77.5778326,
      "tags": {
        "addr:city": "Bengaluru",
        "addr:housenumber": "3",
        "addr:postcode": "560094",
        "addr:street": "80 Feet Road, New Bel Rd, near MSR Hospital Road, Ashwath Nagar, R.M.V. 2nd Stage",
        "amenity": "clinic",
        "healthcare": "clinic",
        "name": "Dental Cures Clinic"
      }
    },
    {
      "type": "node",
      "id": 12541388519,
      "lat": 13.0282975,
      "lon": 77.5731188,
      "tags": {
        "addr:city": "Bengaluru",
        "addr:housenumber": "84",
        "addr:postcode": "560094",
        "addr:street": "80 Feet Rd, Jaladarsini Layout, Sanjayanagara",
        "amenity": "restaurant",
        "cuisine": "american",
        "name": "Truffles"
      }
    },
    {
      "type": "node",
      "id": 12632035875,
      "lat": 13.0302202,
      "lon": 77.5704154,
      "tags": {
        "amenity": "restaurant",
        "name": "Liquids Bar and Kitchen"
      }
    },
    {
      "type": "node",
      "id": 12717556901,
      "lat": 13.0323908,
      "lon": 77.5771592,
      "tags": {
        "amenity": "cafe",
        "name": "Sakura cafe / RMV CANTEEN"
      }
    },
    {
      "type": "node",
      "id": 12862846447,
      "lat": 13.0369782,
      "lon": 77.5658376,
      "tags": {
        "amenity": "fast_food",
        "cuisine": "burger",
        "delivery": "yes",
        "name": "Boss Burger",
        "takeaway": "yes"
      }
    },
    {
      "type": "node",
      "id": 12877031186,
      "lat": 13.0289671,
      "lon": 77.5714346,
      "tags": {
        "amenity": "restaurant",
        "check_date": "2025-05-31",
        "cuisine": "regional;indian",
        "diet:vegetarian": "yes",
        "name": "Udupi Express",
        "name:en": "Udupi Express"
      }
    },
    {
      "type": "node",
      "id": 12877032109,
      "lat": 13.0323496,
      "lon": 77.5773083,
      "tags": {
        "check_date": "2025-05-31",
        "internet_access": "no",
        "name": "Amma Pastries",
        "name:en": "Amma Pastries",
        "payment:cash": "yes",
        "payment:upi": "yes",
        "shop": "bakery"
      }
    },
    {
      "type": "node",
      "id": 12957089042,
      "lat": 13.0275443,
      "lon": 77.5770193,
      "tags": {
        "addr:floor": "4",
        "air_conditioning": "yes",
        "amenity": "cafe",
        "check_date": "2025-06-28",
        "contact:instagram": "https://www.instagram.com/thestagecafe_blr",
        "cuisine": "coffee_shop",
        "delivery": "yes",
        "level": "4",
        "name": "The Stage Cafe",
        "opening_hours": "09:00-23:00",
        "takeaway": "yes",
        "toilets": "yes",
        "website": "https://thestagecafe.in"
      }
    },
    {
      "type": "node",
      "id": 13013584295,
      "lat": 13.0274933,
      "lon": 77.5773905,
      "tags": {
        "amenity": "restaurant",
        "name": "Curry Central"
      }
    },
    {
      "type": "node",
      "id": 13013588745,
      "lat": 13.0276135,
      "lon": 77.5717753,
      "tags": {
        "addr:city": "Bengaluru",
        "addr:country": "IN",
        "addr:postcode": "560024",
        "addr:street": "New BEL Road",
        "addr:suburb": "RMV 2nd Stage",
        "amenity": "restaurant",
        "check_date": "2025-12-01",
        "contact:instagram": "sinonnas",
        "cuisine": "pizza",
        "delivery": "yes",
        "name": "Si Nonna's",
        "reservation": "yes",
        "takeaway": "yes",
        "toilets": "yes",
        "website": "https://sinonnas.com/"
      }
    },
    {
      "type": "node",
      "id": 13042397030,
      "lat": 13.0294433,
      "lon": 77.5710362,
      "tags": {
        "check_date": "2025-08-02",
        "name": "The Indoor Collection",
        "shop": "curtain"
      }
    },
    {
      "type": "node",
      "id": 13042397031,
      "lat": 13.0294061,
      "lon": 77.5710465,
      "tags": {
        "check_date": "2025-08-02",
        "name": "Pinklemon",
        "shop": "convenience"
      }
    },
    {
      "type": "node",
      "id": 13042402448,
      "lat": 13.0292301,
      "lon": 77.5711275,
      "tags": {
        "brand": "Airtel",
        "brand:wikidata": "Q854867",
        "check_date": "2025-08-02",
        "name": "Airtel",
        "shop": "mobile_phone"
      }
    },
    {
      "type": "node",
      "id": 13042402449,
      "lat": 13.02918,
      "lon": 77.5711479,
      "tags": {
        "check_date": "2025-08-02",
        "name": "Zodiac",
        "shop": "clothes"
      }
    },
    {
      "type": "node",
      "id": 13042402450,
      "lat": 13.0293347,
      "lon": 77.5710905,
      "tags": {
        "brand": "Tanishq",
        "brand:en": "Tanishq",
        "brand:wikidata": "Q13117711",
        "check_date": "2025-08-02",
        "name": "Tanishq",
        "name:en": "Tanishq",
        "shop": "jewelry"
      }
    },
    {
      "type": "node",
      "id": 13042402451,
      "lat": 13.0296106,
      "lon": 77.5710175,
      "tags": {
        "check_date": "2025-08-02",
        "name": "Nykaa",
        "shop": "clothes"
      }
    },
    {
      "type": "node",
      "id": 13042538825,
      "lat": 13.0335135,
      "lon": 77.5688007,
      "tags": {
        "brand": "Hyundai",
        "brand:wikidata": "Q55931",
        "check_date": "2025-08-02",
        "name": "Hyundai",
        "shop": "car"
      }
    },
    {
      "type": "node",
      "id": 13043171811,
      "lat": 13.0339935,
      "lon": 77.5688182,
      "tags": {
        "amenity": "bar",
        "name": "Moonrock Lounge Bar"
      }
    },
    {
      "type": "node",
      "id": 13043171812,
      "lat": 13.0337518,
      "lon": 77.5689442,
      "tags": {
        "amenity": "cafe",
        "check_date": "2025-08-08",
        "name": "Dolci"
      }
    },
    {
      "type": "node",
      "id": 13043171813,
      "lat": 13.0320546,
      "lon": 77.5698106,
      "tags": {
        "amenity": "fast_food",
        "brand": "Taco Bell",
        "brand:wikidata": "Q752941",
        "cuisine": "tex-mex",
        "name": "Taco Bell",
        "takeaway": "yes"
      }
    },
    {
      "type": "node",
      "id": 13043171814,
      "lat": 13.0316417,
      "lon": 77.5699393,
      "tags": {
        "brand": "Cromā",
        "brand:wikidata": "Q5187683",
        "name": "Cromā",
        "shop": "electronics"
      }
    },
    {
      "type": "node",
      "id": 13043171815,
      "lat": 13.0313752,
      "lon": 77.5700507,
      "tags": {
        "name": "Chumbak",
        "shop": "interior_decoration"
      }
    },
    {
      "type": "node",
      "id": 13043171816,
      "lat": 13.0299092,
      "lon": 77.5705804,
      "tags": {
        "amenity": "fast_food",
        "name": "Pizza Brew House"
      }
    },
    {
      "type": "node",
      "id": 13043171817,
      "lat": 13.0298987,
      "lon": 77.5709049,
      "tags": {
        "amenity": "restaurant",
        "name": "BurgerMan"
      }
    },
    {
      "type": "node",
      "id": 13043171818,
      "lat": 13.0292971,
      "lon": 77.5708131,
      "tags": {
        "amenity": "fast_food",
        "name": "The Belgian Waffle"
      }
    },
    {
      "type": "node",
      "id": 13043171891,
      "lat": 13.0282476,
      "lon": 77.5714826,
      "tags": {
        "amenity": "pharmacy",
        "check_date": "2025-08-08",
        "name": "Divya Medicals"
      }
    },
    {
      "type": "node",
      "id": 13043171896,
      "lat": 13.0276847,
      "lon": 77.5717056,
      "tags": {
        "brand": "Lenskart",
        "brand:wikidata": "Q17068753",
        "check_date": "2025-12-01",
        "name": "Lenskart",
        "shop": "optician"
      }
    },
    {
      "type": "node",
      "id": 13043171897,
      "lat": 13.027296,
      "lon": 77.5718397,
      "tags": {
        "check_date": "2025-08-08",
        "leisure": "escape_game",
        "name": "Mystery Owl"
      }
    },
    {
      "type": "node",
      "id": 13057916462,
      "lat": 13.0277326,
      "lon": 77.5716918,
      "tags": {
        "amenity": "fast_food",
        "brand": "Subway",
        "brand:wikidata": "Q244457",
        "check_date": "2025-12-01",
        "cuisine": "sandwich",
        "name": "Subway",
        "takeaway": "yes"
      }
    },
    {
      "type": "node",
      "id": 13057916464,
      "lat": 13.0365781,
      "lon": 77.5659501,
      "tags": {
        "amenity": "bank",
        "brand": "HDFC Bank",
        "brand:wikidata": "Q631047",
        "check_date": "2025-08-08",
        "name": "HDFC Bank",
        "short_name": "HDFC"
      }
    },
    {
      "type": "node",
      "id": 13108814301,
      "lat": 13.0280492,
      "lon": 77.5721604,
      "tags": {
        "addr:housenumber": "62",
        "addr:postcode": "560094",
        "addr:street": "80 Feet Road",
        "amenity": "restaurant",
        "cuisine": "indian",
        "level": "1",
        "name": "The LightHouse Restaurant",
        "opening_hours": "Mo-Su 11:30-15:30, 19:00-23:00",
        "outdoor_seating": "yes",
        "phone": "070262 36661",
        "self_service": "no"
      }
    },
    {
      "type": "node",
      "id": 13288585471,
      "lat": 13.0346551,
      "lon": 77.5678409,
      "tags": {
        "amenity": "restaurant",
        "name": "Nati Republic"
      }
    },
    {
      "type": "node",
      "id": 13344560275,
      "lat": 13.0280568,
      "lon": 77.5723185,
      "tags": {
        "check_date": "2025-12-01",
        "name": "Health & Glow",
        "shop": "beauty"
      }
    },
    {
      "type": "way",
      "id": 37107184,
      "center": {
        "lat": 13.0301869,
        "lon": 77.5675088
      },
      "tags": {
        "amenity": "university",
        "full_name": "MS Ramaiah University of Applied Sciences",
        "landuse": "education",
        "name": "MS Ramaiah University",
        "name:etymology:wikidata": "Q6713104",
        "name:kn": "ಗೋಕುಲ ಶಿಕ್ಷಣ ಸಂಸ್ಥೆ",
        "official_name": "Gokula Education Foundation",
        "wikidata": "Q24590299",
        "wikipedia": "en:Ramaiah University of Applied Sciences"
      }
    },
    {
      "type": "way",
      "id": 37107313,
      "center": {
        "lat": 13.0211693,
        "lon": 77.5748124
      },
      "tags": {
        "amenity": "research_institute",
        "landuse": "industrial",
        "name": "Central Power Research Institute",
        "name:kn": "ಕೇಂದ್ರ ವಿದ್ಯುತ್ ಸಂಶೋಧನಾ ಸಂಸ್ಥೆ",
        "office": "research",
        "website": "https://cpri.res.in/",
        "wikidata": "Q5061693",
        "wikipedia": "en:Central Power Research Institute"
      }
    },
    {
      "type": "way",
      "id": 79292774,
      "center": {
        "lat": 13.0323352,
        "lon": 77.5654115
      },
      "tags": {
        "leisure": "pitch",
        "sport": "tennis"
      }
    },
    {
      "type": "way",
      "id": 132417430,
      "center": {
        "lat": 13.0319397,
        "lon": 77.5774013
      },
      "tags": {
        "leisure": "park",
        "name": "Sanjay Nagar Park"
      }
    },
    {
      "type": "way",
      "id": 133297105,
      "center": {
        "lat": 13.027577,
        "lon": 77.5722591
      },
      "tags": {
        "amenity": "place_of_worship",
        "landuse": "religious",
        "name": "Anjaneya Temple",
        "name:kn": "ಆಂಜನೇಯ ದೇವಸ್ಥಾನ",
        "religion": "hindu"
      }
    },
    {
      "type": "way",
      "id": 133297837,
      "center": {
        "lat": 13.03191,
        "lon": 77.5759882
      },
      "tags": {
        "amenity": "school",
        "name": "Sandeepani English High School"
      }
    },
    {
      "type": "way",
      "id": 133298024,
      "center": {
        "lat": 13.0281634,
        "lon": 77.5737594
      },
      "tags": {
        "leisure": "park",
        "wheelchair": "no"
      }
    },
    {
      "type": "way",
      "id": 133442033,
      "center": {
        "lat": 13.0329201,
        "lon": 77.5732641
      },
      "tags": {
        "leisure": "park"
      }
    },
    {
      "type": "way",
      "id": 133442034,
      "center": {
        "lat": 13.0325048,
        "lon": 77.5749403
      },
      "tags": {
        "leisure": "park"
      }
    },
    {
      "type": "way",
      "id": 133442035,
      "center": {
        "lat": 13.0330656,
        "lon": 77.5726321
      },
      "tags": {
        "leisure": "park"
      }
    },
    {
      "type": "way",
      "id": 133487598,
      "center": {
        "lat": 13.0337092,
        "lon": 77.5756624
      },
      "tags": {
        "amenity": "place_of_worship",
        "check_date": "2023-09-05",
        "landuse": "religious",
        "name": "Radhakrishna Temple",
        "name:en": "Radhakrishna Temple",
        "name:kn": "ರಾಧಾಕೃಷ್ಣ ದೇವಸ್ಥಾನ",
        "religion": "hindu"
      }
    },
    {
      "type": "way",
      "id": 148029459,
      "center": {
        "lat": 13.0286987,
        "lon": 77.5673279
      },
      "tags": {
        "amenity": "parking"
      }
    },
    {
      "type": "way",
      "id": 148029465,
      "center": {
        "lat": 13.0284514,
        "lon": 77.5684215
      },
      "tags": {
        "amenity": "parking"
      }
    },
    {
      "type": "way",
      "id": 148032600,
      "center": {
        "lat": 13.0282176,
        "lon": 77.569775
      },
      "tags": {
        "addr:district": "Bengaluru Urban",
        "addr:full": "M S R I T Nagar, New Bel Road",
        "addr:postcode": "560054",
        "addr:state": "Karnataka",
        "amenity": "hospital",
        "building": "yes",
        "building:levels": "2",
        "email": "contact@msrmh.com",
        "emergency": "yes",
        "healthcare": "hospital",
        "name": "Ramaiah Memorial Hospital",
        "name:etymology:wikidata": "Q6713104",
        "name:kn": "ರಾಮಯ್ಯ ಆಸ್ಪತ್ರೆ",
        "operator": "GEF",
        "operator:type": "private",
        "source": "OpenGovernmentData",
        "website": "https://msrmh.com/"
      }
    },
    {
      "type": "way",
      "id": 148032604,
      "center": {
        "lat": 13.0296722,
        "lon": 77.5657745
      },
      "tags": {
        "leisure": "park",
        "name": "RIT Entrance Garden"
      }
    },
    {
      "type": "way",
      "id": 165740586,
      "center": {
        "lat": 13.0286183,
        "lon": 77.5678331
      },
      "tags": {
        "leisure": "park"
      }
    },
    {
      "type": "way",
      "id": 166254793,
      "center": {
        "lat": 13.0291793,
        "lon": 77.5702268
      },
      "tags": {
        "leisure": "garden"
      }
    },
    {
      "type": "way",
      "id": 166365464,
      "center": {
        "lat": 13.0309173,
        "lon": 77.565225
      },
      "tags": {
        "alt_name": "MSRIT",
        "amenity": "college",
        "building": "yes",
        "name": "M S Ramaiah Institute of Technology",
        "name:etymology:wikidata": "Q6713104"
      }
    },
    {
      "type": "way",
      "id": 167606945,
      "center": {
        "lat": 13.0293038,
        "lon": 77.5652193
      },
      "tags": {
        "amenity": "parking"
      }
    },
    {
      "type": "way",
      "id": 169454717,
      "center": {
        "lat": 13.0291538,
        "lon": 77.569833
      },
      "tags": {
        "amenity": "college",
        "building": "yes",
        "name": "M S Ramaiah Institute of Management Sciences",
        "name:etymology:wikidata": "Q6713104"
      }
    },
    {
      "type": "way",
      "id": 169454720,
      "center": {
        "lat": 13.0292782,
        "lon": 77.5702444
      },
      "tags": {
        "amenity": "parking"
      }
    },
    {
      "type": "way",
      "id": 169454723,
      "center": {
        "lat": 13.0295409,
        "lon": 77.5698493
      },
      "tags": {
        "amenity": "library",
        "building": "yes",
        "name": "M S Ramaiah Advanced Learning Center",
        "name:etymology:wikidata": "Q6713104"
      }
    },
    {
      "type": "way",
      "id": 175877124,
      "center": {
        "lat": 13.0321493,
        "lon": 77.5696941
      },
      "tags": {
        "amenity": "parking",
        "name": "Food Bay and KFC Parking"
      }
    },
    {
      "type": "way",
      "id": 175880547,
      "center": {
        "lat": 13.0271503,
        "lon": 77.5768623
      },
      "tags": {
        "addr:district": "Bengaluru Urban",
        "addr:full": "8, Poojary Layout, 80Ft. Road, Rmv Iind Stage,Sanjaynagar",
        "addr:postcode": "560094",
        "addr:state": "Karnataka",
        "amenity": "hospital",
        "building": "yes",
        "name": "Nethra Eye Hospital",
        "source": "OpenGovernmentData",
        "wheelchair": "no"
      }
    },
    {
      "type": "way",
      "id": 184299457,
      "center": {
        "lat": 13.0280798,
        "lon": 77.572201
      },
      "tags": {
        "addr:city": "Bengaluru",
        "addr:postcode": "560094",
        "addr:street": "RMV 2nd Stage, Banday Colony, Ashwath Nagar",
        "amenity": "restaurant",
        "building": "yes",
        "building:levels": "1",
        "check_date": "2025-12-01",
        "name": "Shiv Sagar Express"
      }
    },
    {
      "type": "way",
      "id": 184923392,
      "center": {
        "lat": 13.0356871,
        "lon": 77.574775
      },
      "tags": {
        "addr:city": "Bengaluru",
        "addr:housenumber": "RMV Extension, 2nd stage,68/5",
        "addr:postcode": "560094",
        "addr:street": "Sanjaynagar Main Road, Near police station, Sanjayanagara",
        "amenity": "cinema",
        "building": "commercial",
        "contact:phone": "08023411877",
        "contact:website": "http://www.vaibhavtheatre.com/",
        "name": "Vaibhav Theatre",
        "name:kn": "ವೈಭವ"
      }
    },
    {
      "type": "way",
      "id": 261253027,
      "center": {
        "lat": 13.0280351,
        "lon": 77.5743362
      },
      "tags": {
        "building": "yes",
        "name": "Nexus Maruti Service",
        "shop": "car_repair",
        "wheelchair": "limited"
      }
    },
    {
      "type": "way",
      "id": 286098653,
      "center": {
        "lat": 13.0289527,
        "lon": 77.5676897
      },
      "tags": {
        "amenity": "parking"
      }
    },
    {
      "type": "way",
      "id": 302576805,
      "center": {
        "lat": 13.0287865,
        "lon": 77.5699967
      },
      "tags": {
        "addr:city": "Bengaluru",
        "addr:postcode": "560054",
        "addr:street": "MSR Nagar Rd Ext, M S Ramaiah Nagar, Mathikere",
        "alt_name": "Dwaraka",
        "amenity": "conference_centre",
        "building": "roof",
        "name": "Ramaiah Institute Of Technology Auditorium"
      }
    },
    {
      "type": "way",
      "id": 312368010,
      "center": {
        "lat": 13.0302068,
        "lon": 77.560704
      },
      "tags": {
        "addr:city": "Mathikere",
        "addr:district": "Bengaluru Urban",
        "addr:full": "No. 31, M. S. Ramaiah Road, Mathikere",
        "addr:postcode": "560054",
        "addr:state": "Karnataka",
        "addr:street": "MS Ramaiah Road",
        "amenity": "hospital",
        "emergency": "yes",
        "name": "Subbaiah Hospital",
        "name:kn": "ಸುಬ್ಬಯ್ಯ ಆಸ್ಪತ್ರೆ",
        "operator": "Subbaiah hospital",
        "source": "OpenGovernmentData",
        "wheelchair": "limited"
      }
    },
    {
      "type": "way",
      "id": 323113360,
      "center": {
        "lat": 13.0363195,
        "lon": 77.5664043
      },
      "tags": {
        "amenity": "bus_station",
        "name": "Chikkamaranahalli",
        "name:kn": "ಚಿಕ್ಕಮಾರನಹಳ್ಳಿ ಬಸ್ ನಿಲ್ದಾನ"
      }
    },
    {
      "type": "way",
      "id": 345894198,
      "center": {
        "lat": 13.0268056,
        "lon": 77.5777865
      },
      "tags": {
        "building": "yes",
        "name": "Cauvery Pumps",
        "shop": "hardware"
      }
    },
    {
      "type": "way",
      "id": 345918323,
      "center": {
        "lat": 13.036373,
        "lon": 77.5768723
      },
      "tags": {
        "addr:city": "Bengaluru",
        "addr:postcode": "560094",
        "addr:street": "2nd Main Road, NGEF Layout, Postal Colony",
        "amenity": "place_of_worship",
        "building": "yes",
        "name": "Sri Raghavendra Swamy Mutt and Temple",
        "religion": "hindu"
      }
    },
    {
      "type": "way",
      "id": 346753343,
      "center": {
        "lat": 13.0279158,
        "lon": 77.5719737
      },
      "tags": {
        "addr:city": "Bengaluru",
        "addr:street": "New BEL Road",
        "amenity": "restaurant",
        "building": "yes",
        "cuisine": "south_indian",
        "name": "Brahmin's Fast Food, Juice and Chats"
      }
    },
    {
      "type": "way",
      "id": 346753888,
      "center": {
        "lat": 13.0304983,
        "lon": 77.5738738
      },
      "tags": {
        "addr:city": "Bengaluru",
        "addr:street": "1st Main Road",
        "amenity": "veterinary",
        "building": "yes",
        "name": "RMV Hospital"
      }
    },
    {
      "type": "way",
      "id": 346807771,
      "center": {
        "lat": 13.0284013,
        "lon": 77.5723448
      },
      "tags": {
        "addr:city": "Bengaluru",
        "addr:street": "80 Feet Road",
        "building": "yes",
        "name": "Max",
        "operator": "Max",
        "shop": "mall"
      }
    },
    {
      "type": "way",
      "id": 346807969,
      "center": {
        "lat": 13.0377598,
        "lon": 77.5749792
      },
      "tags": {
        "addr:city": "Bengaluru",
        "addr:housenumber": "1",
        "addr:postcode": "560094",
        "addr:street": "1st Cross Road, Sachidanda Nagar, Raj Mahal Vilas 2nd Stage, Sanjaynagar",
        "leisure": "park",
        "name": "NGEF Park",
        "opening_hours": "Mo-Su 06:00-08:00,16:30-20:00"
      }
    },
    {
      "type": "way",
      "id": 349461400,
      "center": {
        "lat": 13.0278568,
        "lon": 77.5732416
      },
      "tags": {
        "amenity": "restaurant",
        "building": "yes",
        "cuisine": "indian",
        "name": "Smoke"
      }
    },
    {
      "type": "way",
      "id": 349461449,
      "center": {
        "lat": 13.0282052,
        "lon": 77.5718135
      },
      "tags": {
        "addr:city": "Bengaluru",
        "addr:postcode": "560094",
        "addr:street": "80 feet Road, New BEL Rd, opposite MS Ramaiah Hospital, R.M.V. 2nd Stage",
        "building": "yes",
        "building:levels": "2",
        "name": "Ambika Hardware & Plywood",
        "shop": "hardware"
      }
    },
    {
      "type": "way",
      "id": 351328015,
      "center": {
        "lat": 13.0295468,
        "lon": 77.5635305
      },
      "tags": {
        "amenity": "car_sharing",
        "name": "Parking Area"
      }
    },
    {
      "type": "way",
      "id": 351328935,
      "center": {
        "lat": 13.0293609,
        "lon": 77.5631302
      },
      "tags": {
        "leisure": "park",
        "name": "Green House Park"
      }
    },
    {
      "type": "way",
      "id": 351329265,
      "center": {
        "lat": 13.0294355,
        "lon": 77.5639077
      },
      "tags": {
        "amenity": "theatre",
        "building": "yes",
        "check_date": "2025-11-16",
        "ele": "1",
        "name": "JRD Tata Auditorium",
        "name:etymology:wikidata": "Q468334",
        "operator": "National Institute of Advanced Studies"
      }
    },
    {
      "type": "way",
      "id": 351329776,
      "center": {
        "lat": 13.0289146,
        "lon": 77.563138
      },
      "tags": {
        "leisure": "park",
        "name": "NIAS residence Garden Area"
      }
    },
    {
      "type": "way",
      "id": 351370428,
      "center": {
        "lat": 13.0290451,
        "lon": 77.5634759
      },
      "tags": {
        "amenity": "cafe",
        "building": "yes",
        "internet_access": "no",
        "name": "NIAS Guest House Cafe",
        "note": "Added cafeteria building",
        "smoking": "no"
      }
    },
    {
      "type": "way",
      "id": 353171034,
      "center": {
        "lat": 13.0292726,
        "lon": 77.5629961
      },
      "tags": {
        "leisure": "garden",
        "name": "Rose Garden",
        "name:kn": "ಗುಲಾಬಿ ಉದ್ಯಾನ"
      }
    },
    {
      "type": "way",
      "id": 362949505,
      "center": {
        "lat": 13.0376027,
        "lon": 77.566628
      },
      "tags": {
        "leisure": "park"
      }
    },
    {
      "type": "way",
      "id": 363073628,
      "center": {
        "lat": 13.0340583,
        "lon": 77.5754571
      },
      "tags": {
        "leisure": "park",
        "name": "Jyothivana Park",
        "name:kn": "ಜ್ಯೋತಿವನ"
      }
    },
    {
      "type": "way",
      "id": 363073976,
      "center": {
        "lat": 13.0350016,
        "lon": 77.5728653
      },
      "tags": {
        "leisure": "park"
      }
    },
    {
      "type": "way",
      "id": 363121717,
      "center": {
        "lat": 13.0361307,
        "lon": 77.5693741
      },
      "tags": {
        "leisure": "park",
        "name": "Dollar's Colony Park",
        "official_name": "Soundarya Park"
      }
    },
    {
      "type": "way",
      "id": 397497237,
      "center": {
        "lat": 13.0288198,
        "lon": 77.5709148
      },
      "tags": {
        "leisure": "park"
      }
    },
    {
      "type": "way",
      "id": 467074955,
      "center": {
        "lat": 13.0382134,
        "lon": 77.5687093
      },
      "tags": {
        "leisure": "pitch",
        "sport": "tennis"
      }
    },
    {
      "type": "way",
      "id": 495353386,
      "center": {
        "lat": 13.0313639,
        "lon": 77.5666327
      },
      "tags": {
        "leisure": "park"
      }
    },
    {
      "type": "way",
      "id": 495353387,
      "center": {
        "lat": 13.0324068,
        "lon": 77.5649509
      },
      "tags": {
        "leisure": "park",
        "name": "RIT hostel courtyard 2"
      }
    },
    {
      "type": "way",
      "id": 495353388,
      "center": {
        "lat": 13.0320488,
        "lon": 77.5648865
      },
      "tags": {
        "leisure": "park",
        "name": "RIT Hostel courtyard 1"
      }
    },
    {
      "type": "way",
      "id": 542443489,
      "center": {
        "lat": 13.032091,
        "lon": 77.5684643
      },
      "tags": {
        "landuse": "grass",
        "leisure": "park",
        "name": "MS Ramaiah Park",
        "name:etymology:wikidata": "Q6713104",
        "name:kn": "ರಾಮಯ್ಯ ಉದ್ಯಾನ"
      }
    },
    {
      "type": "way",
      "id": 583239937,
      "center": {
        "lat": 13.034535,
        "lon": 77.5698022
      },
      "tags": {
        "leisure": "park",
        "name": "Atal Bihari Vajpayee Park",
        "name:etymology:wikidata": "Q233289"
      }
    },
    {
      "type": "way",
      "id": 674383492,
      "center": {
        "lat": 13.0298161,
        "lon": 77.5701643
      },
      "tags": {
        "leisure": "park"
      }
    },
    {
      "type": "way",
      "id": 674383493,
      "center": {
        "lat": 13.0332213,
        "lon": 77.5698495
      },
      "tags": {
        "leisure": "park"
      }
    },
    {
      "type": "way",
      "id": 674383495,
      "center": {
        "lat": 13.0348663,
        "lon": 77.5699823
      },
      "tags": {
        "leisure": "park",
        "name": "Shubhodaya Park"
      }
    },
    {
      "type": "way",
      "id": 696136973,
      "center": {
        "lat": 13.0229586,
        "lon": 77.566298
      },
      "tags": {
        "leisure": "garden"
      }
    },
    {
      "type": "way",
      "id": 777690256,
      "center": {
        "lat": 13.0235709,
        "lon": 77.5723936
      },
      "tags": {
        "amenity": "place_of_worship",
        "check_date": "2025-08-08",
        "name": "Swamiye Saravana Ayeppa",
        "religion": "hindu"
      }
    },
    {
      "type": "way",
      "id": 777690257,
      "center": {
        "lat": 13.0303103,
        "lon": 77.5708074
      },
      "tags": {
        "addr:street": "New BEL Road",
        "amenity": "fuel",
        "brand": "Hindustan Petroleum",
        "brand:wikidata": "Q1619375",
        "name": "Hindustan Petroleum",
        "name:kn": "ಹಿಂದುಸ್ತಾನ್ ಪೆಟ್ರೋಲಿಯಂ",
        "official_name": "Hindustan Petroleum",
        "operator": "Hindustan Petroleum"
      }
    },
    {
      "type": "way",
      "id": 777690271,
      "center": {
        "lat": 13.034927,
        "lon": 77.5775813
      },
      "tags": {
        "leisure": "park"
      }
    },
    {
      "type": "way",
      "id": 794445339,
      "center": {
        "lat": 13.0350995,
        "lon": 77.5744519
      },
      "tags": {
        "access": "private",
        "leisure": "swimming_pool"
      }
    },
    {
      "type": "way",
      "id": 1056658516,
      "center": {
        "lat": 13.0276753,
        "lon": 77.5704835
      },
      "tags": {
        "leisure": "garden"
      }
    },
    {
      "type": "way",
      "id": 1056658519,
      "center": {
        "lat": 13.0275291,
        "lon": 77.5700569
      },
      "tags": {
        "access": "permissive",
        "amenity": "parking",
        "capacity": "25",
        "operator": "IISc",
        "parking": "surface"
      }
    },
    {
      "type": "way",
      "id": 1056658521,
      "center": {
        "lat": 13.0287163,
        "lon": 77.5707038
      },
      "tags": {
        "access": "permissive",
        "amenity": "parking",
        "parking": "surface"
      }
    },
    {
      "type": "way",
      "id": 1077744657,
      "center": {
        "lat": 13.0293756,
        "lon": 77.5635513
      },
      "tags": {
        "amenity": "college",
        "name": "National Institute of Advanced Studies - NIAS"
      }
    },
    {
      "type": "way",
      "id": 1116582879,
      "center": {
        "lat": 13.0277749,
        "lon": 77.5772226
      },
      "tags": {
        "leisure": "sports_centre"
      }
    },
    {
      "type": "way",
      "id": 1119921720,
      "center": {
        "lat": 13.0262063,
        "lon": 77.5774846
      },
      "tags": {
        "leisure": "park"
      }
    },
    {
      "type": "way",
      "id": 1156278588,
      "center": {
        "lat": 13.0307105,
        "lon": 77.57753
      },
      "tags": {
        "amenity": "place_of_worship",
        "landuse": "religious",
        "name": "Sri Ramanjaneya Swamy Temple",
        "name:kn": "ಶ್ರೀ ರಾಮಾಂಜನೇಯಸ್ವಾಮಿ ದೇವಸ್ಥಾನ",
        "religion": "hindu"
      }
    },
    {
      "type": "way",
      "id": 1173114174,
      "center": {
        "lat": 13.0277375,
        "lon": 77.5718968
      },
      "tags": {
        "building": "yes",
        "name": "Sri Manjunatha Condiments",
        "shop": "yes"
      }
    },
    {
      "type": "way",
      "id": 1173114175,
      "center": {
        "lat": 13.028132,
        "lon": 77.5719962
      },
      "tags": {
        "addr:district": "Bengaluru Urban",
        "addr:postcode": "560094",
        "addr:street": "80 Feet Road",
        "building": "yes",
        "clothes": "men",
        "name": "Shiva Enterprises",
        "shop": "tyres",
        "wheelchair": "no"
      }
    },
    {
      "type": "way",
      "id": 1173114177,
      "center": {
        "lat": 13.0279558,
        "lon": 77.5727563
      },
      "tags": {
        "addr:city": "Bengaluru",
        "addr:street": "80 Feet Road",
        "amenity": "ice_cream",
        "brand": "Naturals",
        "brand:wikidata": "Q24439154",
        "building": "yes",
        "cuisine": "ice_cream",
        "name": "Naturals"
      }
    },
    {
      "type": "way",
      "id": 1173114178,
      "center": {
        "lat": 13.0278683,
        "lon": 77.5733339
      },
      "tags": {
        "addr:city": "Bengaluru",
        "addr:street": "80 Feet Road",
        "building": "yes",
        "name": "Occassions",
        "shop": "bakery"
      }
    },
    {
      "type": "way",
      "id": 1195527478,
      "center": {
        "lat": 13.0223584,
        "lon": 77.5664991
      },
      "tags": {
        "access": "permissive",
        "amenity": "bicycle_parking",
        "bicycle_parking": "shed",
        "capacity": "30"
      }
    },
    {
      "type": "way",
      "id": 1207800621,
      "center": {
        "lat": 13.0229887,
        "lon": 77.5662198
      },
      "tags": {
        "amenity": "fountain"
      }
    },
    {
      "type": "way",
      "id": 1284656988,
      "center": {
        "lat": 13.0368506,
        "lon": 77.5744706
      },
      "tags": {
        "amenity": "fuel",
        "brand": "Bharat Petroleum"
      }
    },
    {
      "type": "way",
      "id": 1293934438,
      "center": {
        "lat": 13.0262935,
        "lon": 77.5677744
      },
      "tags": {
        "leisure": "playground"
      }
    },
    {
      "type": "way",
      "id": 1293934495,
      "center": {
        "lat": 13.0246985,
        "lon": 77.563832
      },
      "tags": {
        "access": "permissive",
        "amenity": "parking",
        "parking": "surface"
      }
    },
    {
      "type": "way",
      "id": 1314362194,
      "center": {
        "lat": 13.0265658,
        "lon": 77.5625598
      },
      "tags": {
        "amenity": "restaurant",
        "building": "roof",
        "cuisine": "indian",
        "name": "Vaayu Vihar Canteen"
      }
    },
    {
      "type": "way",
      "id": 1319188467,
      "center": {
        "lat": 13.026305,
        "lon": 77.5760732
      },
      "tags": {
        "leisure": "playground"
      }
    },
    {
      "type": "way",
      "id": 1326435525,
      "center": {
        "lat": 13.035843,
        "lon": 77.5707539
      },
      "tags": {
        "garden:type": "landscaping",
        "leisure": "garden"
      }
    },
    {
      "type": "way",
      "id": 1328289204,
      "center": {
        "lat": 13.035552,
        "lon": 77.5637031
      },
      "tags": {
        "amenity": "school"
      }
    },
    {
      "type": "way",
      "id": 1328527099,
      "center": {
        "lat": 13.0320233,
        "lon": 77.5653837
      },
      "tags": {
        "leisure": "pitch",
        "sport": "tennis"
      }
    },
    {
      "type": "way",
      "id": 1377977009,
      "center": {
        "lat": 13.0359857,
        "lon": 77.5756743
      },
      "tags": {
        "leisure": "park"
      }
    },
    {
      "type": "way",
      "id": 1378923002,
      "center": {
        "lat": 13.0368248,
        "lon": 77.5724644
      },
      "tags": {
        "leisure": "park"
      }
    },
    {
      "type": "way",
      "id": 1378923032,
      "center": {
        "lat": 13.0381346,
        "lon": 77.5728031
      },
      "tags": {
        "amenity": "school",
        "name": "Rajamahal High School"
      }
    },
    {
      "type": "way",
      "id": 1378926273,
      "center": {
        "lat": 13.0348953,
        "lon": 77.5771994
      },
      "tags": {
        "amenity": "school"
      }
    },
    {
      "type": "way",
      "id": 1419412632,
      "center": {
        "lat": 13.0382814,
        "lon": 77.5647074
      },
      "tags": {
        "amenity": "fuel",
        "check_date": "2025-08-08",
        "operator": "HP"
      }
    },
    {
      "type": "way",
      "id": 1428274859,
      "center": {
        "lat": 13.0350456,
        "lon": 77.572806
      },
      "tags": {
        "leisure": "playground"
      }
    }
  ]
}