{
  "area_name": "JC Nagar",
  "osm_id": 7944634960,
  "osm_type": "node",
  "place_type": "neighbourhood",
  "amenity_count": 179,
  "amenities": [
    {
      "type": "node",
      "id": 519549595,
      "lat": 12.9981215,
      "lon": 77.5404836,
      "tags": {
        "addr:city": "Basaveshwara Nagar, Bangalore",
        "addr:district": "Bengaluru Urban",
        "addr:full": "#100/101, Lic Colony West Of Chord, Basaveshwaranagar",
        "addr:housenumber": "100",
        "addr:postcode": "560079",
        "addr:state": "Karnataka",
        "addr:street": "West of Chord Road (LIC Colony)",
        "amenity": "hospital",
        "email": "chordroadhospital100@yahoo.co.in",
        "healthcare:speciality": "multi speciality",
        "name": "Chord Road Hospital Pvt Ltd",
        "name:kn": "ಕೊರ್ಡ್ ರಸ್ತೆ ಆಸ್ಪತ್ರೆ",
        "operator:type": "private",
        "phone": "+91-80-23225858;+91-80-23225868;+91-80-23225878",
        "source": "OpenGovernmentData",
        "website": "http://www.chordroadhospitalent.com/",
        "wheelchair": "yes"
      }
    },
    {
      "type": "node",
      "id": 519549716,
      "lat": 12.9967798,
      "lon": 77.5404068,
      "tags": {
        "addr:street": "WOC Road",
        "amenity": "fuel",
        "brand": "Indian Oil",
        "brand:wikidata": "Q1289348",
        "brand:wikipedia": "en:Indian Oil Corporation",
        "name": "Indian Oil",
        "operator": "Indian Oil",
        "wheelchair": "yes"
      }
    },
    {
      "type": "node",
      "id": 519549718,
      "lat": 12.9966627,
      "lon": 77.5400464,
      "tags": {
        "addr:street": "WOC Road",
        "amenity": "fuel",
        "brand": "Bharat Petroleum",
        "brand:wikidata": "Q854826",
        "name": "Bharat Petroleum",
        "operator": "Bharat Petroleum",
        "wheelchair": "yes"
      }
    },
    {
      "type": "node",
      "id": 519549757,
      "lat": 12.9965228,
      "lon": 77.5423272,
      "tags": {
        "addr:city": "Basaveshwara Nagar, Bangalore",
        "amenity": "school",
        "name": "St Charles High School"
      }
    },
    {
      "type": "node",
      "id": 519549869,
      "lat": 12.9951833,
      "lon": 77.5396211,
      "tags": {
        "addr:city": "Basaveshwara Nagar, Bangalore",
        "addr:street": "WOC Road",
        "amenity": "restaurant",
        "name": "Guru Sagar Hotel",
        "name:kn": "ಗುರು ಸಾಗರ"
      }
    },
    {
      "type": "node",
      "id": 519550433,
      "lat": 12.9974545,
      "lon": 77.5403023,
      "tags": {
        "addr:city": "Basaveshwara Nagar, Bangalore",
        "name": "Fresh@Heritage",
        "shop": "convenience"
      }
    },
    {
      "type": "node",
      "id": 530353033,
      "lat": 12.9978931,
      "lon": 77.5436127,
      "tags": {
        "addr:city": "Basaveshwara Nagar, Bangalore",
        "addr:housenumber": "877",
        "addr:postcode": "560079",
        "addr:street": "Modi Hospital Road (West of Chord Road)",
        "amenity": "hospital",
        "email": "pristinehospitals@pristinehospitals.com",
        "fax": "+91-80-41354455",
        "healthcare": "hospital",
        "name": "Pristline Hospital",
        "name:kn": "ಪ್ರಿಸ್ಟೀನ್ ಆಸ್ಪತ್ರೆ",
        "phone": "+91-80-41354444;+91-80-51270776",
        "website": "http://www.pristinehospitals.com/"
      }
    },
    {
      "type": "node",
      "id": 530720679,
      "lat": 12.9972514,
      "lon": 77.541656,
      "tags": {
        "shop": "convenience"
      }
    },
    {
      "type": "node",
      "id": 530721052,
      "lat": 12.9993286,
      "lon": 77.5408919,
      "tags": {
        "addr:city": "Basaveshwara Nagar, Bangalore",
        "name": "Photo Studio",
        "shop": "photo_studio"
      }
    },
    {
      "type": "node",
      "id": 997417046,
      "lat": 12.9972009,
      "lon": 77.540616,
      "tags": {
        "addr:city": "Basaveshwara Nagar, Bangalore",
        "amenity": "restaurant",
        "brand": "Pizza Hut",
        "brand:wikidata": "Q191615",
        "cuisine": "pizza",
        "name": "Pizza Hut",
        "name:kn": "ಪಿಜ್ಜಾ ಹಟ್",
        "operator": "Pizza Hut",
        "wheelchair": "no"
      }
    },
    {
      "type": "node",
      "id": 1024942747,
      "lat": 12.9958306,
      "lon": 77.5401339,
      "tags": {
        "addr:street": "WOC Road",
        "amenity": "bank",
        "atm": "yes",
        "brand": "Axis Bank",
        "brand:wikidata": "Q2003549",
        "brand:wikipedia": "en:Axis Bank",
        "name": "Axis Bank",
        "name:en": "Axis Bank",
        "name:kn": "ಆಕ್ಸಿಸ್ ಬ್ಯಾಂಕ್",
        "website": "https://www.axisbank.com",
        "wheelchair": "no"
      }
    },
    {
      "type": "node",
      "id": 1036698401,
      "lat": 12.9995896,
      "lon": 77.5409326,
      "tags": {
        "amenity": "place_of_worship",
        "name": "Shri Avani Shankara Matha",
        "name:kn": "ಶ್ರೀ ಆವನಿ ಶಂಕರ ಮಠ",
        "religion": "hindu",
        "wheelchair": "no"
      }
    },
    {
      "type": "node",
      "id": 1467501580,
      "lat": 12.9973265,
      "lon": 77.5403657,
      "tags": {
        "amenity": "cafe",
        "brand": "Cafe Coffee Day",
        "brand:wikidata": "Q5017235",
        "cuisine": "coffee_shop",
        "name": "Cafe Coffee Day",
        "name:kn": "ಕಫೆ ಕಾಫಿ ಡೇ",
        "operator": "Cafe Coffee Day",
        "takeaway": "yes"
      }
    },
    {
      "type": "node",
      "id": 1467501727,
      "lat": 12.9972063,
      "lon": 77.5402705,
      "tags": {
        "amenity": "atm",
        "brand": "HDFC Bank",
        "brand:wikidata": "Q631047",
        "name": "HDFC Bank",
        "operator": "HDFC Bank",
        "operator:wikidata": "Q631047",
        "short_name": "HDFC"
      }
    },
    {
      "type": "node",
      "id": 1467779103,
      "lat": 13.0027573,
      "lon": 77.5465737,
      "tags": {
        "name": "Hopcoms",
        "name:kn": "ಹಾಪ್ ಕಾಮ್ಸ್",
        "shop": "greengrocer"
      }
    },
    {
      "type": "node",
      "id": 1470577447,
      "lat": 13.0043024,
      "lon": 77.5443072,
      "tags": {
        "amenity": "place_of_worship",
        "name": "Gudda Anjaneya Temple",
        "name:kn": "ಗುಡ್ಡ ಆಂಜನೇಯ",
        "religion": "hindu",
        "wheelchair": "no"
      }
    },
    {
      "type": "node",
      "id": 1471737564,
      "lat": 13.0079383,
      "lon": 77.5469059,
      "tags": {
        "amenity": "hospital",
        "name": "Suprabha Hospital",
        "wheelchair": "yes"
      }
    },
    {
      "type": "node",
      "id": 1471738633,
      "lat": 13.0080794,
      "lon": 77.5469863,
      "tags": {
        "amenity": "cafe",
        "name": "Mahalakshmi Refreshments"
      }
    },
    {
      "type": "node",
      "id": 1471738634,
      "lat": 13.0082414,
      "lon": 77.5468871,
      "tags": {
        "amenity": "pharmacy",
        "name": "Sri Dhanvantri Ayurved Bhandara"
      }
    },
    {
      "type": "node",
      "id": 1471739089,
      "lat": 13.0085603,
      "lon": 77.5433815,
      "tags": {
        "brand": "Reliance Fresh",
        "brand:wikidata": "Q7311014",
        "name": "Reliance Fresh",
        "name:kn": "ರಿಲಾಯನ್ಸ್ ಫ್ರೆಶ್",
        "shop": "supermarket",
        "wheelchair": "no"
      }
    },
    {
      "type": "node",
      "id": 1471739653,
      "lat": 13.0087092,
      "lon": 77.5433895,
      "tags": {
        "amenity": "bank",
        "brand": "Corporation Bank",
        "brand:wikidata": "Q2003387",
        "brand:wikipedia": "en:Corporation Bank",
        "name": "Corporation Bank",
        "name:en": "Corporation Bank",
        "name:kn": "ಕಾರ್ಪರೇಷನ್ ಬ್ಯಾಂಕ್",
        "website": "https://corpbank.com/",
        "wheelchair": "no"
      }
    },
    {
      "type": "node",
      "id": 1471776615,
      "lat": 13.0086735,
      "lon": 77.5428733,
      "tags": {
        "amenity": "place_of_worship",
        "name": "Panchamukhi Ganesha Temple",
        "name:kn": "ಪಂಚಮುಖಿ ಗಣೇಶ ದೇವಸ್ಥಾನ",
        "religion": "hindu"
      }
    },
    {
      "type": "node",
      "id": 1471776616,
      "lat": 13.0085716,
      "lon": 77.5426802,
      "tags": {
        "amenity": "place_of_worship",
        "name": "Sri Dharmasastha Ayappa Temple",
        "name:kn": "ಅಯ್ಯಪ್ಪ ದೇವಸ್ಥಾನ",
        "religion": "hindu"
      }
    },
    {
      "type": "node",
      "id": 1472808792,
      "lat": 13.0047859,
      "lon": 77.543073,
      "tags": {
        "amenity": "hospital",
        "name": "Namratha Hospital",
        "name:kn": "ನಮ್ರತ ಆಸ್ಪತ್ರೆ"
      }
    },
    {
      "type": "node",
      "id": 1473930474,
      "lat": 13.0004716,
      "lon": 77.5346306,
      "tags": {
        "amenity": "school"
      }
    },
    {
      "type": "node",
      "id": 1474001855,
      "lat": 13.0011459,
      "lon": 77.5359798,
      "tags": {
        "amenity": "hospital",
        "emergency": "yes",
        "healthcare": "hospital",
        "name": "Punya Hospital"
      }
    },
    {
      "type": "node",
      "id": 1474058008,
      "lat": 13.0029824,
      "lon": 77.5444696,
      "tags": {
        "amenity": "place_of_worship",
        "name": "Manjunatheshwara Temple",
        "name:kn": "ಮಂಜುನಾಥೇಶ್ವರ ದೇವಸ್ಥಾನ",
        "religion": "hindu"
      }
    },
    {
      "type": "node",
      "id": 1474058047,
      "lat": 12.9997052,
      "lon": 77.54097,
      "tags": {
        "amenity": "place_of_worship",
        "name": "Sri Avani Shankar Mutt"
      }
    },
    {
      "type": "node",
      "id": 1474058074,
      "lat": 13.001119,
      "lon": 77.5411129,
      "tags": {
        "amenity": "school",
        "name": "Gautham College of Nursing"
      }
    },
    {
      "type": "node",
      "id": 1474058080,
      "lat": 13.00091,
      "lon": 77.5412684,
      "tags": {
        "amenity": "restaurant",
        "name": "Hamsa Sagar",
        "name:kn": "ಹಂಸ ಸಾಗರ್"
      }
    },
    {
      "type": "node",
      "id": 1474058087,
      "lat": 13.0000789,
      "lon": 77.5409358,
      "tags": {
        "amenity": "school",
        "name": "Anupama English School"
      }
    },
    {
      "type": "node",
      "id": 2027517345,
      "lat": 12.9984475,
      "lon": 77.5423888,
      "tags": {
        "addr:housename": "Near Shankar Mutt",
        "addr:street": "Modi Hospital road",
        "name": "Next Electronic Shop",
        "shop": "hifi",
        "website": "www.next.co.in"
      }
    },
    {
      "type": "node",
      "id": 2083025578,
      "lat": 13.007947,
      "lon": 77.5428561,
      "tags": {
        "name": "Nilgiris",
        "name:kn": "ನೀಲ್ಗಿರೀಸ್",
        "shop": "supermarket"
      }
    },
    {
      "type": "node",
      "id": 2090827123,
      "lat": 13.0124684,
      "lon": 77.5368288,
      "tags": {
        "amenity": "police",
        "name": "Nandini Layout Police Station",
        "name:kn": "ನಂದಿನಿ ಲೇಔಟ್ ಪೋಲಿಸ್ ಠಾಣೆ"
      }
    },
    {
      "type": "node",
      "id": 2090827478,
      "lat": 13.0124501,
      "lon": 77.5367215,
      "tags": {
        "amenity": "bank",
        "atm": "yes",
        "brand": "State Bank of India",
        "brand:wikidata": "Q1340361",
        "brand:wikipedia": "en:State Bank of India",
        "name": "State Bank of India",
        "name:kn": "ಮೈಸೂರು ಬ್ಯಾಂಕ್‌",
        "short_name": "SBI",
        "website": "https://www.sbi.co.in"
      }
    },
    {
      "type": "node",
      "id": 2090829415,
      "lat": 13.0103477,
      "lon": 77.5367403,
      "tags": {
        "amenity": "fuel",
        "brand": "Hindustan Petroleum",
        "brand:wikidata": "Q1619375",
        "name": "HP Petrol",
        "name:kn": "ಹಿಂದುಸ್ತಾನ್ ಪೆಟ್ರೋಲಿಯಂ",
        "official_name": "Hindustan Petroleum",
        "wheelchair": "yes"
      }
    },
    {
      "type": "node",
      "id": 2245719955,
      "lat": 12.9982959,
      "lon": 77.5406241,
      "tags": {
        "name": "Reliance Autozone",
        "shop": "car_parts"
      }
    },
    {
      "type": "node",
      "id": 2268405950,
      "lat": 12.9951284,
      "lon": 77.5386071,
      "tags": {
        "amenity": "place_of_worship",
        "name": "Ganapati Temple",
        "name:kn": "ಗಣಪತಿ ದೇವಸ್ಥಾನ",
        "religion": "hindu"
      }
    },
    {
      "type": "node",
      "id": 2296632108,
      "lat": 12.9985489,
      "lon": 77.5430189,
      "tags": {
        "amenity": "bank",
        "atm": "yes",
        "brand": "Punjab National Bank",
        "brand:wikidata": "Q2743499",
        "brand:wikipedia": "en:Punjab National Bank",
        "name": "Punjab National Bank",
        "name:en": "Punjab National Bank",
        "name:kn": "ಪಂಜಾಬ ರಾಷ್ಟ್ರೀಯ ಬ್ಯಾಂಕ್",
        "short_name": "PNB",
        "website": "https://www.pnbindia.in"
      }
    },
    {
      "type": "node",
      "id": 2296638505,
      "lat": 13.000431,
      "lon": 77.5411664,
      "tags": {
        "amenity": "hospital",
        "emergency": "no",
        "healthcare": "hospital",
        "name": "Krupa Medical center"
      }
    },
    {
      "type": "node",
      "id": 3391134555,
      "lat": 13.0086858,
      "lon": 77.5434159,
      "tags": {
        "amenity": "atm",
        "brand": "HDFC Bank",
        "brand:wikidata": "Q631047",
        "name": "HDFC Bank",
        "name:kn": "ಎಚ್ ಡಿ ಎಫ್ ಸಿ",
        "operator": "HDFC Bank",
        "operator:wikidata": "Q631047",
        "short_name": "HDFC"
      }
    },
    {
      "type": "node",
      "id": 3391835399,
      "lat": 13.0087585,
      "lon": 77.5432729,
      "tags": {
        "amenity": "pharmacy",
        "brand": "Apollo Pharmacy",
        "brand:wikidata": "Q62562612",
        "healthcare": "pharmacy",
        "name": "Apollo Pharmacy",
        "name:kn": "ಅಪೊಲೋ ಫಾರ್ಮಸಿ"
      }
    },
    {
      "type": "node",
      "id": 4446903358,
      "lat": 13.0082692,
      "lon": 77.5441674,
      "tags": {
        "addr:city": "bangalore",
        "addr:housenumber": "27/A",
        "addr:postcode": "560086",
        "addr:street": "6th A Main, Mahalakshmi Layout, 2nd Stage",
        "amenity": "pharmacy",
        "name": "Bharath Medicals",
        "name:kn": "ಭಾರತ್ ಮೆಡಿಕಲ್ಸ್",
        "phone": "080 2359 8348"
      }
    },
    {
      "type": "node",
      "id": 4447009524,
      "lat": 12.9984229,
      "lon": 77.5403887,
      "tags": {
        "addr:city": "Bangalore",
        "addr:housenumber": "877",
        "addr:postcode": "560010",
        "addr:street": "Dr. Modi Hospital Road, 2nd stage extension",
        "amenity": "hospital",
        "name": "Pristine Hospital",
        "name:kn": "ಪ್ರಿಸ್ಟೀನ್ ಆಸ್ಪತ್ರೆ",
        "phone": "+9180 4135 4444",
        "source": "www.justdial.com",
        "website": "pristinehospitals.com"
      }
    },
    {
      "type": "node",
      "id": 4447132775,
      "lat": 13.003897,
      "lon": 77.5435549,
      "tags": {
        "addr:city": "bangalore",
        "addr:housenumber": "159",
        "addr:postcode": "560010",
        "addr:street": "Opposite Nandini Theatre, 6th Main Rd, Mahalakshmi Puram, 2nd Phase, 2nd Stage",
        "amenity": "restaurant",
        "cuisine": "regional",
        "name": "Hotel Aditya",
        "opening_hours": "07:00-11:00,12:30-16:00,19:00-23:00",
        "phone": "+91 97310 15011"
      }
    },
    {
      "type": "node",
      "id": 4485016129,
      "lat": 13.0036302,
      "lon": 77.5435304,
      "tags": {
        "amenity": "toilets",
        "name": "BBMP Public Toilet",
        "name:kn": "ಸಾರ್ವಜನಿಕ ಶೌಚಾಲಯ"
      }
    },
    {
      "type": "node",
      "id": 4509818407,
      "lat": 12.9957925,
      "lon": 77.5356897,
      "tags": {
        "amenity": "car_wash",
        "name": "Quicky Clean Car Wash"
      }
    },
    {
      "type": "node",
      "id": 4597818308,
      "lat": 12.9992093,
      "lon": 77.5463437,
      "tags": {
        "amenity": "toilets"
      }
    },
    {
      "type": "node",
      "id": 5036023485,
      "lat": 13.0031536,
      "lon": 77.5470029,
      "tags": {
        "name": "Nandini Parlour",
        "shop": "dairy"
      }
    },
    {
      "type": "node",
      "id": 5036029170,
      "lat": 13.0029165,
      "lon": 77.5464264,
      "tags": {
        "addr:city": "Bengaluru",
        "addr:country": "IN",
        "addr:postcode": "560086",
        "addr:street": "12th Cross Road",
        "addr:suburb": "Mahalakshmipuram",
        "amenity": "post_office",
        "name": "Mahalakshmipuram Layout"
      }
    },
    {
      "type": "node",
      "id": 5825297254,
      "lat": 12.9952836,
      "lon": 77.5389682,
      "tags": {
        "level": "-1",
        "name": "Karnataka Medical Store",
        "shop": "medical_supply"
      }
    },
    {
      "type": "node",
      "id": 5825297255,
      "lat": 12.9952954,
      "lon": 77.5391057,
      "tags": {
        "description": "Good quality medicines with discount are available",
        "name": "Medplus",
        "name:kn": "ಮೆಡ್‍ಪ್ಲಸ್",
        "payment:cash": "yes",
        "payment:coins": "yes",
        "payment:credit_cards": "yes",
        "payment:debit_cards": "yes",
        "shop": "medical_supply"
      }
    },
    {
      "type": "node",
      "id": 5825299920,
      "lat": 12.9952764,
      "lon": 77.5390017,
      "tags": {
        "level": "-1",
        "name": "Keerthi Jewellers",
        "shop": "jewelry"
      }
    },
    {
      "type": "node",
      "id": 5825311129,
      "lat": 12.9951449,
      "lon": 77.5396001,
      "tags": {
        "brand": "Peter England",
        "brand:wikidata": "Q19573665",
        "clothes": "men",
        "name": "Peter England",
        "name:kn": "ಪೀಟರ್ ಇಂಗ್ಲೆಂಡ್",
        "shop": "clothes"
      }
    },
    {
      "type": "node",
      "id": 5846722872,
      "lat": 12.9952391,
      "lon": 77.5388279,
      "tags": {
        "amenity": "atm",
        "operator": "Axis Bank ATM"
      }
    },
    {
      "type": "node",
      "id": 5846740873,
      "lat": 12.995652,
      "lon": 77.5397922,
      "tags": {
        "name": "Mahalakshmi Sweet Center",
        "payment:cash": "yes",
        "payment:coins": "yes",
        "payment:debit_cards": "yes",
        "shop": "bakery"
      }
    },
    {
      "type": "node",
      "id": 6017445198,
      "lat": 12.997555,
      "lon": 77.5445911,
      "tags": {
        "amenity": "restaurant",
        "cuisine": "regional",
        "delivery": "yes",
        "name": "Raata",
        "takeaway": "yes"
      }
    },
    {
      "type": "node",
      "id": 6780250610,
      "lat": 12.9970563,
      "lon": 77.5402485,
      "tags": {
        "addr:city": "Bengaluru",
        "addr:country": "IN",
        "addr:housenumber": "103",
        "addr:postcode": "560079",
        "addr:street": "Siddhaiah Puranik Road",
        "email": "orders@chefbakers.in",
        "name": "Chef Baker's",
        "shop": "bakery",
        "website": "https://www.chefbakers.com"
      }
    },
    {
      "type": "node",
      "id": 6938690629,
      "lat": 13.0089953,
      "lon": 77.5406188,
      "tags": {
        "addr:district": "Bengaluru Urban",
        "addr:full": "41-42/5 7Th Cross, Saraswathipuram, Nandini Layout, Main Road",
        "addr:postcode": "560096",
        "addr:state": "Karnataka",
        "amenity": "hospital",
        "name": "Shankara Nethralaya Eye Hospital",
        "source": "OpenGovernmentData"
      }
    },
    {
      "type": "node",
      "id": 6944256035,
      "lat": 13.0045747,
      "lon": 77.5432728,
      "tags": {
        "addr:district": "Bengaluru Urban",
        "addr:full": "158, 6Th Main Road 4Th Stage, Ii Phase West Of Chord Road",
        "addr:postcode": "560086",
        "addr:state": "Karnataka",
        "amenity": "hospital",
        "name": "Namratha Nursing And Maternity Home",
        "source": "OpenGovernmentData"
      }
    },
    {
      "type": "node",
      "id": 6944543261,
      "lat": 13.0098352,
      "lon": 77.5384723,
      "tags": {
        "addr:district": "Bengaluru Urban",
        "addr:full": "#4,Sfhs,Next To Nandini Layout",
        "addr:postcode": "560096",
        "addr:state": "Karnataka",
        "amenity": "hospital",
        "healthcare": "hospital",
        "healthcare:speciality": "blood_check;general",
        "name": "J.P.Nursing Home",
        "opening_hours": "24/7",
        "operator": "Jyothi Prakash",
        "operator:type": "public",
        "source": "OpenGovernmentData"
      }
    },
    {
      "type": "node",
      "id": 6947033494,
      "lat": 12.9980009,
      "lon": 77.5432779,
      "tags": {
        "addr:district": "Bengaluru Urban",
        "addr:full": "No.877, Modi Hospital Road, West of Chord Road, II Stage Extension",
        "addr:postcode": "560086",
        "addr:state": "Karnataka",
        "amenity": "hospital",
        "healthcare": "hospital",
        "name": "Pristine Hospital",
        "name:kn": "ಪ್ರಿಸ್ಟೀನ್ ಆಸ್ಪತ್ರೆ",
        "operator:type": "private",
        "source": "OpenGovernmentData",
        "website": "http://pristinehospitals.com/"
      }
    },
    {
      "type": "node",
      "id": 6948030294,
      "lat": 12.9986239,
      "lon": 77.542782,
      "tags": {
        "addr:district": "Bengaluru Urban",
        "addr:full": "1078 11Th Main 9Th Cross Above Punjab National Bank Mahalakshmipura",
        "addr:postcode": "560086",
        "addr:state": "Karnataka",
        "amenity": "hospital",
        "healthcare": "hospital",
        "name": "Sri Ranga Arogyadhama",
        "source": "OpenGovernmentData"
      }
    },
    {
      "type": "node",
      "id": 6948604083,
      "lat": 13.0001802,
      "lon": 77.5461146,
      "tags": {
        "addr:district": "Bengaluru Urban",
        "addr:full": "No - 30,1st Cross, Opp Geleyara Balaga Bus Stop,Mahalakshmipuram,Banglore",
        "addr:postcode": "560086",
        "addr:state": "Karnataka",
        "amenity": "hospital",
        "name": "Gurukripa Hospital and Health Care Centre",
        "source": "OpenGovernmentData"
      }
    },
    {
      "type": "node",
      "id": 7104329287,
      "lat": 13.003006,
      "lon": 77.5470695,
      "tags": {
        "access": "yes",
        "amenity": "toilets"
      }
    },
    {
      "type": "node",
      "id": 7201051929,
      "lat": 13.0034719,
      "lon": 77.5472693,
      "tags": {
        "name": "Colors Beauty Parlour",
        "shop": "beauty"
      }
    },
    {
      "type": "node",
      "id": 7291611501,
      "lat": 13.0035542,
      "lon": 77.5472411,
      "tags": {
        "amenity": "clinic",
        "healthcare": "clinic",
        "name": "Sucheta Clinic"
      }
    },
    {
      "type": "node",
      "id": 8187929872,
      "lat": 13.0092756,
      "lon": 77.5375966,
      "tags": {
        "addr:full": "Saraswathipura, Nandini Layout, Bengaluru, Karnataka",
        "addr:state": "Karnataka",
        "amenity": "atm",
        "brand": "Axis Bank",
        "brand:wikidata": "Q2003549",
        "name": "Axis Bank",
        "name:kn": "ಆಕ್ಸಿಸ್ ಬ್ಯಾಂಕ್ ಎಟಿಎಂ",
        "operator": "Axis Bank",
        "operator:wikidata": "Q2003549"
      }
    },
    {
      "type": "node",
      "id": 8187962395,
      "lat": 13.0012148,
      "lon": 77.5358056,
      "tags": {
        "addr:full": "Pipeline Rd, Rajkumar statue, JC Nagar, Kurubarahalli, Basaweshwara Nagar, Bengaluru, Karnataka",
        "addr:state": "Karnataka",
        "amenity": "bank",
        "brand": "Canara Bank",
        "brand:en": "Canara Bank",
        "brand:hi": "केनरा बैंक",
        "brand:kn": "ಕೆನರಾ ಬ್ಯಾಂಕ್",
        "brand:pa": "ਕੇਨਰਾ ਬੈਂਕ",
        "brand:pnb": "کینرا بینک",
        "brand:ur": "کینرا بینک",
        "brand:wikidata": "Q2003777",
        "brand:wikipedia": "en:Canara Bank",
        "brand:wikipedia:pa": "ਕੇਨਰਾ ਬੈਂਕ",
        "name": "Canara Bank",
        "name:en": "Canara Bank",
        "name:hi": "केनरा बैंक",
        "name:kn": "ಕೆನರಾ ಬ್ಯಾಂಕ್",
        "name:pa": "ਕੇਨਰਾ ਬੈਂਕ",
        "name:pnb": "کینرا بینک",
        "name:ur": "کینرا بینک"
      }
    },
    {
      "type": "node",
      "id": 8187962407,
      "lat": 13.0000414,
      "lon": 77.5330938,
      "tags": {
        "addr:full": "34, Pipeline Rd, KHBS Layout, Basaveshwar Nagar, Bengaluru, Karnataka",
        "addr:state": "Karnataka",
        "amenity": "bank",
        "brand": "State Bank of India",
        "brand:wikidata": "Q1340361",
        "brand:wikipedia": "en:State Bank of India",
        "name": "State Bank of India",
        "name:kn": "ಎಸ್ ಬಿ ಐ",
        "short_name": "SBI"
      }
    },
    {
      "type": "node",
      "id": 8187962425,
      "lat": 12.9977915,
      "lon": 77.5437368,
      "tags": {
        "addr:full": "760 A, 1st Floor, Narendra Chambers, Dr MC Modi Hospital Rd, West of Chord Road 2nd Stage, Indiranagar, Basaveshwar Nagar, Bengaluru, Karnataka",
        "addr:state": "Karnataka",
        "amenity": "bank",
        "brand": "State Bank of India",
        "brand:wikidata": "Q1340361",
        "brand:wikipedia": "en:State Bank of India",
        "name": "State Bank of India",
        "short_name": "SBI"
      }
    },
    {
      "type": "node",
      "id": 8187986355,
      "lat": 13.0000365,
      "lon": 77.5349821,
      "tags": {
        "addr:full": "1st Main Road, Kurubarahalli, 154-140, 1st Cross Rd, Rajkumar statue, KHBS Layout, Bengaluru, Karnataka",
        "addr:state": "Karnataka",
        "amenity": "clinic",
        "healthcare": "clinic",
        "name": "Manjunatha maternity clinic"
      }
    },
    {
      "type": "node",
      "id": 8187986356,
      "lat": 12.9986082,
      "lon": 77.5425992,
      "tags": {
        "addr:full": "2nd Stage, Mahalakshmi Puram, Near Punjab National Bank, Dr MC Modi Hospital Rd, West of Chord Road 2nd Stage, West of Chord Road, Stage 2, Nagapura, Bengaluru, Karnataka",
        "addr:state": "Karnataka",
        "amenity": "clinic",
        "healthcare": "clinic",
        "name": "Shilpa Clinic"
      }
    },
    {
      "type": "node",
      "id": 8188038684,
      "lat": 13.004314,
      "lon": 77.547749,
      "tags": {
        "addr:full": "233, 1st A Main Rd, West of Chord Road 2nd Stage, 2nd Stage, Mahalakshmipuram, Bengaluru, Karnataka",
        "addr:state": "Karnataka",
        "amenity": "hospital",
        "healthcare": "hospital",
        "name": "Atharva Ayurdhama Ayurvedic Hospital"
      }
    },
    {
      "type": "node",
      "id": 8196808708,
      "lat": 13.0066617,
      "lon": 77.5449837,
      "tags": {
        "addr:full": "Ca site no 6(p), west of chord road, 2nd stage, Mahalakshmipuram, Bovipalya, Mahalakshmipuram, Bengaluru, Karnataka",
        "addr:state": "Karnataka",
        "amenity": "college",
        "name": "Anupama College of Management And Science"
      }
    },
    {
      "type": "node",
      "id": 8240881794,
      "lat": 12.9996588,
      "lon": 77.5407482,
      "tags": {
        "name": "Exclusive Mobile Phone Center",
        "shop": "mobile_phone"
      }
    },
    {
      "type": "node",
      "id": 8240881795,
      "lat": 12.9999437,
      "lon": 77.5402124,
      "tags": {
        "name": "Miami Day Bakery",
        "shop": "bakery"
      }
    },
    {
      "type": "node",
      "id": 8240881800,
      "lat": 13.0006827,
      "lon": 77.5368362,
      "tags": {
        "name": "Bherav Jewellers",
        "shop": "jewelry"
      }
    },
    {
      "type": "node",
      "id": 8240881801,
      "lat": 13.0007003,
      "lon": 77.5365438,
      "tags": {
        "name": "Anand Jewelers",
        "shop": "jewelry"
      }
    },
    {
      "type": "node",
      "id": 8240881804,
      "lat": 13.0003344,
      "lon": 77.5342458,
      "tags": {
        "amenity": "atm",
        "brand": "Axis Bank",
        "brand:wikidata": "Q2003549",
        "name": "Axis Bank",
        "name:kn": "ಆಕ್ಸಿಸ್ ಬ್ಯಾಂಕ್",
        "operator": "Axis Bank",
        "operator:wikidata": "Q2003549"
      }
    },
    {
      "type": "node",
      "id": 8240881806,
      "lat": 12.9998836,
      "lon": 77.5315113,
      "tags": {
        "access": "yes",
        "amenity": "toilets"
      }
    },
    {
      "type": "node",
      "id": 8442182837,
      "lat": 12.9982005,
      "lon": 77.5406416,
      "tags": {
        "amenity": "ice_cream",
        "name": "Iceberg"
      }
    },
    {
      "type": "node",
      "id": 8442182838,
      "lat": 12.9981626,
      "lon": 77.5406349,
      "tags": {
        "name": "The Tea Planet",
        "shop": "tea"
      }
    },
    {
      "type": "node",
      "id": 8442182839,
      "lat": 12.9981123,
      "lon": 77.5406402,
      "tags": {
        "amenity": "pharmacy"
      }
    },
    {
      "type": "node",
      "id": 8442182841,
      "lat": 12.9978,
      "lon": 77.5407596,
      "tags": {
        "brand": "Fabindia",
        "brand:wikidata": "Q5427779",
        "name": "Fabindia",
        "shop": "clothes"
      }
    },
    {
      "type": "node",
      "id": 8442182842,
      "lat": 12.9977569,
      "lon": 77.5407442,
      "tags": {
        "amenity": "clinic",
        "name": "Sharma Nethralaya",
        "shop": "optician"
      }
    },
    {
      "type": "node",
      "id": 8442182844,
      "lat": 12.9977281,
      "lon": 77.5408233,
      "tags": {
        "amenity": "bank",
        "atm": "yes",
        "brand": "Equitas Small Finance Bank",
        "brand:wikidata": "Q29467249",
        "name": "Equitas Small Finance Bank"
      }
    },
    {
      "type": "node",
      "id": 8442182845,
      "lat": 12.9978471,
      "lon": 77.5407804,
      "tags": {
        "name": "Health and Glow",
        "shop": "beauty"
      }
    },
    {
      "type": "node",
      "id": 8442182847,
      "lat": 12.9975877,
      "lon": 77.5404263,
      "tags": {
        "shop": "tattoo"
      }
    },
    {
      "type": "node",
      "id": 8442182848,
      "lat": 12.9976504,
      "lon": 77.5404578,
      "tags": {
        "amenity": "fast_food",
        "cuisine": "sandwich",
        "name": "Sandwich Station"
      }
    },
    {
      "type": "node",
      "id": 8442182849,
      "lat": 12.9976327,
      "lon": 77.5404827,
      "tags": {
        "alt_name": "Goli Vada Pav No.1",
        "amenity": "fast_food",
        "brand": "Goli Vada Pav",
        "brand:wikidata": "Q5580697",
        "cuisine": "indian",
        "name": "Goli Vada Pav",
        "takeaway": "yes"
      }
    },
    {
      "type": "node",
      "id": 8442182850,
      "lat": 12.9975844,
      "lon": 77.5404666,
      "tags": {
        "amenity": "pharmacy",
        "name": "People Pharmacy"
      }
    },
    {
      "type": "node",
      "id": 8510230820,
      "lat": 13.0083246,
      "lon": 77.5426038,
      "tags": {
        "addr:city": "Bengaluru",
        "addr:housenumber": "#36",
        "addr:postcode": "560096",
        "addr:street": "1st cross road",
        "brand": "TVS Motors",
        "name": "Global TVS",
        "opening_hours": "Mo-Su 09:00-19:00",
        "shop": "motorcycle"
      }
    },
    {
      "type": "node",
      "id": 8540417945,
      "lat": 13.0087341,
      "lon": 77.5417641,
      "tags": {
        "name": "TVS Motors Sevice Centre",
        "opening_hours": "Mo-Sa 09:00-17:00",
        "operator": "TVS Motors",
        "service:vehicle:body_repair": "yes",
        "service:vehicle:diagnostics": "yes",
        "service:vehicle:inspection": "yes",
        "service:vehicle:oil_change": "yes",
        "shop": "motorcycle_repair"
      }
    },
    {
      "type": "node",
      "id": 9161008310,
      "lat": 12.9960692,
      "lon": 77.540254,
      "tags": {
        "name": "The Cake Factory",
        "shop": "pastry"
      }
    },
    {
      "type": "node",
      "id": 9161008311,
      "lat": 12.9955335,
      "lon": 77.5400716,
      "tags": {
        "brand": "pepperfry",
        "name": "pepperfry",
        "operator": "pepperfry",
        "shop": "furniture",
        "website": "https://www.pepperfry.com"
      }
    },
    {
      "type": "node",
      "id": 9197316221,
      "lat": 13.003104,
      "lon": 77.5469354,
      "tags": {
        "name": "Hopcoms",
        "shop": "greengrocer"
      }
    },
    {
      "type": "node",
      "id": 9574153221,
      "lat": 12.9986945,
      "lon": 77.5420618,
      "tags": {
        "name": "Amma's Pastries",
        "shop": "bakery"
      }
    },
    {
      "type": "node",
      "id": 9574153222,
      "lat": 12.9985298,
      "lon": 77.5422657,
      "tags": {
        "amenity": "bank",
        "atm": "yes",
        "brand": "Kotak Mahindra Bank",
        "brand:wikidata": "Q2040404",
        "name": "Kotak Mahindra Bank",
        "name:kn": "ಕೋಟಕ್ ಮಹಿಂದ್ರ ಬ್ಯಾಂಕ್",
        "operator": "Kotak Mahindra Bank"
      }
    },
    {
      "type": "node",
      "id": 9574153223,
      "lat": 12.9974557,
      "lon": 77.5448459,
      "tags": {
        "amenity": "restaurant",
        "cuisine": "regional",
        "name": "Crepito"
      }
    },
    {
      "type": "node",
      "id": 10795162724,
      "lat": 13.0081682,
      "lon": 77.5467584,
      "tags": {
        "name": "Nandini Milk Booth",
        "name:kn": "ನಂದಿನಿ ಹಾಲಿನ ಅಂಗಡಿ",
        "shop": "dairy"
      }
    },
    {
      "type": "node",
      "id": 10795162737,
      "lat": 13.0084373,
      "lon": 77.5431944,
      "tags": {
        "name": "Specsavers Opticians",
        "shop": "optician"
      }
    },
    {
      "type": "node",
      "id": 11146739633,
      "lat": 13.0045434,
      "lon": 77.546177,
      "tags": {
        "amenity": "shelter",
        "shelter_type": "gazebo"
      }
    },
    {
      "type": "node",
      "id": 12441118643,
      "lat": 12.9991427,
      "lon": 77.5453891,
      "tags": {
        "amenity": "toilets",
        "male": "yes"
      }
    },
    {
      "type": "node",
      "id": 12441118644,
      "lat": 12.9991479,
      "lon": 77.5455681,
      "tags": {
        "amenity": "toilets",
        "female": "yes"
      }
    },
    {
      "type": "node",
      "id": 12441126050,
      "lat": 12.9991923,
      "lon": 77.5412223,
      "tags": {
        "shop": "greengrocer"
      }
    },
    {
      "type": "node",
      "id": 12517695086,
      "lat": 12.9987935,
      "lon": 77.54079,
      "tags": {
        "addr:city": "Basaveshwara Nagar, Bangalore",
        "addr:postcode": "560079",
        "addr:street": "Siddhaiah Puranik Road",
        "air_conditioning": "yes",
        "amenity": "bank",
        "atm": "yes",
        "brand": "Canara Bank",
        "brand:en": "Canara Bank",
        "brand:hi": "केनरा बैंक",
        "brand:kn": "ಕೆನರಾ ಬ್ಯಾಂಕ್",
        "brand:pa": "ਕੇਨਰਾ ਬੈਂਕ",
        "brand:pnb": "کینرا بینک",
        "brand:ur": "کینرا بینک",
        "brand:wikidata": "Q2003777",
        "brand:wikipedia": "en:Canara Bank",
        "brand:wikipedia:pa": "ਕੇਨਰਾ ਬੈਂਕ",
        "building": "yes",
        "currency:INR": "yes",
        "name": "Canara Bank",
        "name:en": "Canara Bank",
        "name:hi": "केनरा बैंक",
        "name:kn": "ಕೆನರಾ ಬ್ಯಾಂಕ್",
        "name:pa": "ਕੇਨਰਾ ਬੈਂਕ",
        "name:pnb": "کینرا بینک",
        "name:ur": "کینرا بینک",
        "old_name": "Syndicate Bank"
      }
    },
    {
      "type": "node",
      "id": 12529178824,
      "lat": 12.9986003,
      "lon": 77.5427169,
      "tags": {
        "addr:city": "Bengaluru",
        "addr:postcode": "560086",
        "addr:street": "Dr MC Modi Hospital Rd, West of Chord Road 2nd Stage,Mahalakshmipuram",
        "amenity": "bank",
        "brand": "Punjab National Bank",
        "brand:wikidata": "Q2743499",
        "name": "Punjab National Bank",
        "operator": "Punjab National Bank"
      }
    },
    {
      "type": "node",
      "id": 12985592701,
      "lat": 13.0110387,
      "lon": 77.5394468,
      "tags": {
        "addr:housenumber": "0",
        "addr:postcode": "560096",
        "addr:street": "11th Main Road",
        "amenity": "school",
        "name": "SG International Public School",
        "opening_hours": "Mo-Sa 09:00-05:00"
      }
    },
    {
      "type": "node",
      "id": 12985592707,
      "lat": 13.0114927,
      "lon": 77.5395216,
      "tags": {
        "addr:postcode": "560096",
        "amenity": "kindergarten",
        "name": "Happy Hoots Play School",
        "opening_hours": "Mo-Fr 10:00-01:00"
      }
    },
    {
      "type": "node",
      "id": 12985593409,
      "lat": 13.0100309,
      "lon": 77.5386261,
      "tags": {
        "addr:postcode": "560096",
        "addr:street": "4th Cross Road",
        "name": "Vijaya Krishna Bakery",
        "opening_hours": "Mo-Su 08:00-09:30",
        "shop": "bakery"
      }
    },
    {
      "type": "node",
      "id": 12985593906,
      "lat": 13.0117456,
      "lon": 77.5391611,
      "tags": {
        "leisure": "park",
        "name": "BBMP Park"
      }
    },
    {
      "type": "node",
      "id": 12985593907,
      "lat": 13.0092475,
      "lon": 77.5383111,
      "tags": {
        "addr:postcode": "560096",
        "addr:street": "Saraswathipuram Main Road",
        "amenity": "place_of_worship",
        "name": "Ganesha Temple"
      }
    },
    {
      "type": "node",
      "id": 12985594010,
      "lat": 13.0109802,
      "lon": 77.5398828,
      "tags": {
        "addr:postcode": "560096",
        "name": "Shahana Home Needs",
        "shop": "grocery"
      }
    },
    {
      "type": "node",
      "id": 12985604701,
      "lat": 13.009385,
      "lon": 77.538382,
      "tags": {
        "addr:postcode": "560096",
        "amenity": "restaurant",
        "name": "Sannidhi Grand"
      }
    },
    {
      "type": "node",
      "id": 12985610202,
      "lat": 13.0099404,
      "lon": 77.5390596,
      "tags": {
        "addr:postcode": "560096",
        "addr:street": "4th Cross Road",
        "amenity": "pharmacy",
        "healthcare": "pharmacy",
        "name": "Sri Ram Medical Store"
      }
    },
    {
      "type": "node",
      "id": 12985610401,
      "lat": 13.00911,
      "lon": 77.5382451,
      "tags": {
        "addr:postcode": "560096",
        "addr:street": "Saraswathipuram Main Road",
        "amenity": "pharmacy",
        "brand": "MedPlus",
        "brand:wikidata": "Q65684234",
        "healthcare": "pharmacy",
        "name": "MedPlus"
      }
    },
    {
      "type": "way",
      "id": 41749089,
      "center": {
        "lat": 12.9994423,
        "lon": 77.5416585
      },
      "tags": {
        "alt_name": "Shankar Mutt Park",
        "leisure": "park",
        "name": "Swamy Vivekananda Park",
        "name:etymology:wikidata": "Q47478",
        "name:kn": "ಸ್ವಾಮಿ ವಿವೇಕನಂದ ಉದ್ಯಾನವನ"
      }
    },
    {
      "type": "way",
      "id": 42445598,
      "center": {
        "lat": 12.9993472,
        "lon": 77.5422719
      },
      "tags": {
        "alt_name": "Shankar Mutt Grounds",
        "leisure": "pitch",
        "name": "Vivekananda Grounds",
        "name:kn": "ವಿವೇಕಾನಂದ ಮೈದಾನ"
      }
    },
    {
      "type": "way",
      "id": 42445763,
      "center": {
        "lat": 12.9959343,
        "lon": 77.5413651
      },
      "tags": {
        "leisure": "park"
      }
    },
    {
      "type": "way",
      "id": 42475178,
      "center": {
        "lat": 12.9979812,
        "lon": 77.5417661
      },
      "tags": {
        "leisure": "park"
      }
    },
    {
      "type": "way",
      "id": 94441458,
      "center": {
        "lat": 13.0114373,
        "lon": 77.5366935
      },
      "tags": {
        "leisure": "park",
        "name": "Circular Park, Nandini Layout"
      }
    },
    {
      "type": "way",
      "id": 133596125,
      "center": {
        "lat": 13.0078265,
        "lon": 77.5471834
      },
      "tags": {
        "addr:housename": "Dreamland",
        "addr:housenumber": "172/7,Mahalaksmilayout, Bovipalya, Nagapura,Bangalore",
        "addr:postcode": "560086",
        "name": "DreamLand",
        "shop": "gift"
      }
    },
    {
      "type": "way",
      "id": 133596134,
      "center": {
        "lat": 13.0079159,
        "lon": 77.5452028
      },
      "tags": {
        "addr:housename": "East West Public School",
        "addr:postcode": "560086",
        "addr:street": "13th Cross, Mahalakshmi Layout",
        "amenity": "school",
        "name": "East West Public School"
      }
    },
    {
      "type": "way",
      "id": 133600673,
      "center": {
        "lat": 13.0040069,
        "lon": 77.5436038
      },
      "tags": {
        "name": "S-Mart",
        "shop": "supermarket"
      }
    },
    {
      "type": "way",
      "id": 133946174,
      "center": {
        "lat": 13.0008297,
        "lon": 77.5352069
      },
      "tags": {
        "leisure": "park"
      }
    },
    {
      "type": "way",
      "id": 133946305,
      "center": {
        "lat": 13.0006134,
        "lon": 77.534341
      },
      "tags": {
        "leisure": "park"
      }
    },
    {
      "type": "way",
      "id": 133952209,
      "center": {
        "lat": 13.0002469,
        "lon": 77.5328793
      },
      "tags": {
        "leisure": "park"
      }
    },
    {
      "type": "way",
      "id": 133952210,
      "center": {
        "lat": 12.9999013,
        "lon": 77.5313317
      },
      "tags": {
        "leisure": "park"
      }
    },
    {
      "type": "way",
      "id": 133959051,
      "center": {
        "lat": 13.0018312,
        "lon": 77.5474978
      },
      "tags": {
        "leisure": "park"
      }
    },
    {
      "type": "way",
      "id": 133959052,
      "center": {
        "lat": 13.0075879,
        "lon": 77.5447396
      },
      "tags": {
        "leisure": "park"
      }
    },
    {
      "type": "way",
      "id": 133959053,
      "center": {
        "lat": 13.0079372,
        "lon": 77.5445461
      },
      "tags": {
        "leisure": "park"
      }
    },
    {
      "type": "way",
      "id": 133959054,
      "center": {
        "lat": 13.0030047,
        "lon": 77.5420989
      },
      "tags": {
        "leisure": "park"
      }
    },
    {
      "type": "way",
      "id": 133959055,
      "center": {
        "lat": 13.0048157,
        "lon": 77.5460371
      },
      "tags": {
        "leisure": "park"
      }
    },
    {
      "type": "way",
      "id": 133959056,
      "center": {
        "lat": 13.0038852,
        "lon": 77.546476
      },
      "tags": {
        "leisure": "park"
      }
    },
    {
      "type": "way",
      "id": 139263814,
      "center": {
        "lat": 13.0037476,
        "lon": 77.5419598
      },
      "tags": {
        "leisure": "park"
      }
    },
    {
      "type": "way",
      "id": 142344347,
      "center": {
        "lat": 13.0102309,
        "lon": 77.5435066
      },
      "tags": {
        "leisure": "park"
      }
    },
    {
      "type": "way",
      "id": 192184215,
      "center": {
        "lat": 13.0026563,
        "lon": 77.5470971
      },
      "tags": {
        "leisure": "sports_centre",
        "name": "BBMP Playground",
        "name:kn": "ಬೃ. ಬೆ. ಮ. ಪಾ. ಉದ್ಯಾನವನ"
      }
    },
    {
      "type": "way",
      "id": 199023745,
      "center": {
        "lat": 13.0125724,
        "lon": 77.535532
      },
      "tags": {
        "leisure": "park"
      }
    },
    {
      "type": "way",
      "id": 199023795,
      "center": {
        "lat": 13.0113749,
        "lon": 77.5374511
      },
      "tags": {
        "amenity": "library",
        "name": "Nandini Layout Public Library",
        "name:kn": "ನಂದಿನಿ ಬಡಾವಣೆ ಗ್ರಂಥಾಲಯ"
      }
    },
    {
      "type": "way",
      "id": 220553492,
      "center": {
        "lat": 12.9999825,
        "lon": 77.5421478
      },
      "tags": {
        "amenity": "school",
        "building": "yes",
        "name": "Hamsalekha Music school"
      }
    },
    {
      "type": "way",
      "id": 335167581,
      "center": {
        "lat": 13.0086638,
        "lon": 77.5441278
      },
      "tags": {
        "leisure": "park",
        "name": "Anna Basavanna Park"
      }
    },
    {
      "type": "way",
      "id": 335167682,
      "center": {
        "lat": 13.0087591,
        "lon": 77.5460294
      },
      "tags": {
        "leisure": "park",
        "name": "Anjaneya Swami Gudi Udyana",
        "name:kn": "ಆಂಜನೇಯ ಸ್ವಾಮಿ ಗುಡಿ ಉದ್ಯಾನ"
      }
    },
    {
      "type": "way",
      "id": 346433329,
      "center": {
        "lat": 13.0090863,
        "lon": 77.5437204
      },
      "tags": {
        "amenity": "place_of_worship",
        "building": "yes",
        "name": "Vasavi Temple",
        "name:kn": "ವಾಸವಿ ದೇವಸ್ಥಾನ",
        "religion": "hindu"
      }
    },
    {
      "type": "way",
      "id": 346433364,
      "center": {
        "lat": 13.008493,
        "lon": 77.5452688
      },
      "tags": {
        "amenity": "place_of_worship",
        "building": "yes",
        "name": "Sri Venkateshwara Temple",
        "name:kn": "ವೆಂಕಟೇಶ್ವರ ದೇವಸ್ಥಾನ",
        "religion": "hindu",
        "wheelchair": "no"
      }
    },
    {
      "type": "way",
      "id": 363067725,
      "center": {
        "lat": 13.0066962,
        "lon": 77.5380496
      },
      "tags": {
        "leisure": "park"
      }
    },
    {
      "type": "way",
      "id": 363069942,
      "center": {
        "lat": 12.9988269,
        "lon": 77.5387661
      },
      "tags": {
        "leisure": "park"
      }
    },
    {
      "type": "way",
      "id": 363069963,
      "center": {
        "lat": 12.9976289,
        "lon": 77.5375677
      },
      "tags": {
        "leisure": "park"
      }
    },
    {
      "type": "way",
      "id": 389877535,
      "center": {
        "lat": 13.0082708,
        "lon": 77.5444172
      },
      "tags": {
        "leisure": "playground",
        "name": "Local Playground"
      }
    },
    {
      "type": "way",
      "id": 389877536,
      "center": {
        "lat": 13.0028187,
        "lon": 77.5466654
      },
      "tags": {
        "amenity": "school",
        "name": "Vidya Bharathi School",
        "name:kn": "ವಿದ್ಯಾಭಾರತಿ"
      }
    },
    {
      "type": "way",
      "id": 412935366,
      "center": {
        "lat": 13.0010146,
        "lon": 77.5360114
      },
      "tags": {
        "leisure": "playground"
      }
    },
    {
      "type": "way",
      "id": 412935370,
      "center": {
        "lat": 13.0013543,
        "lon": 77.5374954
      },
      "tags": {
        "leisure": "park"
      }
    },
    {
      "type": "way",
      "id": 412935372,
      "center": {
        "lat": 12.9976804,
        "lon": 77.5357264
      },
      "tags": {
        "leisure": "pitch",
        "name": "Kurubarahalli Playground"
      }
    },
    {
      "type": "way",
      "id": 412935374,
      "center": {
        "lat": 13.0019286,
        "lon": 77.5394486
      },
      "tags": {
        "leisure": "park"
      }
    },
    {
      "type": "way",
      "id": 412935378,
      "center": {
        "lat": 12.9976869,
        "lon": 77.5363178
      },
      "tags": {
        "leisure": "park",
        "name": "Kempegowda Park",
        "name:etymology:wikidata": "Q6387049",
        "name:kn": "ಕೆಂಪೆಗೌಡ ಉದ್ಯಾನವನ"
      }
    },
    {
      "type": "way",
      "id": 454420332,
      "center": {
        "lat": 12.9967265,
        "lon": 77.5354857
      },
      "tags": {
        "amenity": "place_of_worship",
        "building": "yes",
        "name": "Shani Mahatma Temple",
        "name:kn": "ಶನಿ ಮಹಾತ್ಮ ದೇವಸ್ಥಾನ",
        "religion": "hindu"
      }
    },
    {
      "type": "way",
      "id": 454420712,
      "center": {
        "lat": 12.9963126,
        "lon": 77.5345779
      },
      "tags": {
        "leisure": "park"
      }
    },
    {
      "type": "way",
      "id": 697081723,
      "center": {
        "lat": 12.9980069,
        "lon": 77.5459005
      },
      "tags": {
        "addr:district": "Bengaluru Urban",
        "addr:full": "Modi Hospital Road, Mahalakshmipuram",
        "addr:postcode": "560086",
        "addr:state": "Karnataka",
        "amenity": "hospital",
        "email": "modihospital@hotmail.com",
        "healthcare": "hospital",
        "name": "M C Modi Eye Hospital",
        "name:etymology:wikidata": "Q1880759",
        "name:kn": "ಮೋದಿ ಕಣ್ಣಿನ ಆಸ್ಪತ್ರೆ",
        "operator:type": "private",
        "source": "OpenGovernmentData",
        "website": "http://www.modieyehospital.com/",
        "wheelchair": "yes"
      }
    },
    {
      "type": "way",
      "id": 765181802,
      "center": {
        "lat": 13.0045232,
        "lon": 77.5413363
      },
      "tags": {
        "leisure": "sports_centre",
        "name": "Dr. Rajkumar Indoor Stadium",
        "name:etymology:wikidata": "Q984634"
      }
    },
    {
      "type": "way",
      "id": 773258619,
      "center": {
        "lat": 13.0051588,
        "lon": 77.5446998
      },
      "tags": {
        "leisure": "sports_centre"
      }
    },
    {
      "type": "way",
      "id": 773258621,
      "center": {
        "lat": 13.0049694,
        "lon": 77.5449384
      },
      "tags": {
        "addr:city": "Bengaluru",
        "addr:country": "IN",
        "addr:housenumber": "6, 7",
        "addr:postcode": "560086",
        "addr:street": "Pipeline Road",
        "addr:suburb": "Mahalakshmipuram",
        "amenity": "school",
        "email": "principalbgswsml@gmail.com",
        "name": "BGS World School",
        "phone": "+91 80 2349 6765",
        "school:gender": "mixed",
        "website": "https://www.bgsworldschoolml.com/"
      }
    },
    {
      "type": "way",
      "id": 781541656,
      "center": {
        "lat": 13.0028414,
        "lon": 77.547416
      },
      "tags": {
        "amenity": "police",
        "name": "Mahalakshmipuram Police Station",
        "name:kn": "ಆರಕ್ಷಕ ಠಾಣೆ ಮಹಾಲಕ್ಷ್ಮಿಪುರಂ",
        "wheelchair": "no"
      }
    },
    {
      "type": "way",
      "id": 792799065,
      "center": {
        "lat": 12.9986489,
        "lon": 77.545599
      },
      "tags": {
        "amenity": "school",
        "name": "Sri Aurobindo Vidya Mandir",
        "name:etymology:wikidata": "Q192207"
      }
    },
    {
      "type": "way",
      "id": 886251287,
      "center": {
        "lat": 13.0001456,
        "lon": 77.5394506
      },
      "tags": {
        "amenity": "place_of_worship",
        "religion": "hindu"
      }
    },
    {
      "type": "way",
      "id": 909240053,
      "center": {
        "lat": 12.9974668,
        "lon": 77.5409806
      },
      "tags": {
        "leisure": "park"
      }
    },
    {
      "type": "way",
      "id": 909240054,
      "center": {
        "lat": 12.9976349,
        "lon": 77.5408214
      },
      "tags": {
        "leisure": "park"
      }
    },
    {
      "type": "way",
      "id": 1047034049,
      "center": {
        "lat": 13.0020215,
        "lon": 77.5366089
      },
      "tags": {
        "description": "Temple playground",
        "leisure": "playground"
      }
    },
    {
      "type": "way",
      "id": 1119921714,
      "center": {
        "lat": 13.0038907,
        "lon": 77.5426982
      },
      "tags": {
        "amenity": "recycling",
        "recycling_type": "centre"
      }
    },
    {
      "type": "way",
      "id": 1147338817,
      "center": {
        "lat": 12.9951618,
        "lon": 77.5381263
      },
      "tags": {
        "amenity": "fast_food",
        "brand": "Indira Canteen",
        "brand:wikidata": "Q36164828",
        "cuisine": "south_indian",
        "name": "Indira Canteen",
        "operator": "BBMP",
        "takeaway": "yes"
      }
    },
    {
      "type": "way",
      "id": 1160675952,
      "center": {
        "lat": 13.0069712,
        "lon": 77.5438328
      },
      "tags": {
        "leisure": "park"
      }
    },
    {
      "type": "way",
      "id": 1160675953,
      "center": {
        "lat": 13.0068837,
        "lon": 77.5450599
      },
      "tags": {
        "leisure": "park"
      }
    },
    {
      "type": "way",
      "id": 1160675954,
      "center": {
        "lat": 13.0072537,
        "lon": 77.5448886
      },
      "tags": {
        "leisure": "playground"
      }
    },
    {
      "type": "way",
      "id": 1160675960,
      "center": {
        "lat": 13.0089812,
        "lon": 77.5466473
      },
      "tags": {
        "amenity": "place_of_worship",
        "landuse": "religious",
        "name": "Prasanna Veeranjaneya Temple",
        "name:kn": "ಪ್ರಸನ್ನ ವೀರಾಂಜನೇಯ ದೇವಸ್ಥಾನ",
        "religion": "hindu",
        "wheelchair": "no",
        "wikidata": "Q107669501",
        "wikipedia": "en:Sri Prasanna Veeranjeneya Swami Temple"
      }
    },
    {
      "type": "way",
      "id": 1163334246,
      "center": {
        "lat": 13.0080453,
        "lon": 77.5460143
      },
      "tags": {
        "amenity": "fuel",
        "brand": "Nayara",
        "brand:wikidata": "Q1360409",
        "name": "Nayara",
        "operator": "Nayara"
      }
    },
    {
      "type": "way",
      "id": 1271969090,
      "center": {
        "lat": 13.0115825,
        "lon": 77.535844
      },
      "tags": {
        "amenity": "bus_station",
        "name": "Nandini Layout",
        "name:kn": "ನಂದಿನಿ ಲೇಔಟ್",
        "wheelchair": "limited"
      }
    },
    {
      "type": "way",
      "id": 1293369513,
      "center": {
        "lat": 13.0095183,
        "lon": 77.5438022
      },
      "tags": {
        "leisure": "playground"
      }
    },
    {
      "type": "way",
      "id": 1344574759,
      "center": {
        "lat": 13.0031927,
        "lon": 77.5481465
      },
      "tags": {
        "amenity": "college"
      }
    },
    {
      "type": "way",
      "id": 1393083788,
      "center": {
        "lat": 12.997424,
        "lon": 77.5446699
      },
      "tags": {
        "access": "customers",
        "amenity": "parking",
        "parking": "surface"
      }
    },
    {
      "type": "way",
      "id": 1444555977,
      "center": {
        "lat": 12.9992902,
        "lon": 77.5379424
      },
      "tags": {
        "amenity": "community_centre",
        "building": "outbuilding",
        "community_centre": "events_place",
        "name": "BBMP Yoga Center",
        "operator": "BBMP",
        "operator:type": "public/government"
      }
    }
  ]
}