{
  "area_name": "Jooganahalli",
  "osm_id": 8442191514,
  "osm_type": "node",
  "place_type": "neighbourhood",
  "amenity_count": 613,
  "amenities": [
    {
      "type": "node",
      "id": 446995814,
      "lat": 12.9907411,
      "lon": 77.5577577,
      "tags": {
        "amenity": "bar",
        "name": "Navarang Bar",
        "wheelchair": "no"
      }
    },
    {
      "type": "node",
      "id": 1118255762,
      "lat": 12.9945063,
      "lon": 77.554298,
      "tags": {
        "amenity": "police",
        "check_date": "2025-03-18",
        "name": "Rajaji Nagar Police Station",
        "name:kn": "ರಾಜಾಜಿನಗರ ಆರಕ್ಷಕ ಠಾಣೆ",
        "name:ta": "ராஜாஜிநகர காவல் நிலையம்"
      }
    },
    {
      "type": "node",
      "id": 1470547253,
      "lat": 12.9970293,
      "lon": 77.5539717,
      "tags": {
        "amenity": "fast_food",
        "name": "Shanti Sagar Hotel",
        "wheelchair": "no"
      }
    },
    {
      "type": "node",
      "id": 1472178615,
      "lat": 12.9872341,
      "lon": 77.549974,
      "tags": {
        "amenity": "fast_food",
        "name": "Gangasagar Chats",
        "wheelchair": "no"
      }
    },
    {
      "type": "node",
      "id": 1472178648,
      "lat": 12.9880757,
      "lon": 77.5496789,
      "tags": {
        "amenity": "cafe",
        "wheelchair": "no"
      }
    },
    {
      "type": "node",
      "id": 1474819884,
      "lat": 12.997825,
      "lon": 77.5499844,
      "tags": {
        "addr:city": "Bangalore",
        "addr:housenumber": "5",
        "addr:postcode": "560010",
        "addr:street": "Modi Hospital Main Road",
        "amenity": "restaurant",
        "cuisine": "regional",
        "delivery": "yes",
        "name": "Swati Deluxe",
        "name:kn": "ಸ್ವಾತಿ ಡಿಲಕ್ಸ್",
        "opening_hours": "11:30-16:00,18:30-21:00",
        "phone": "+(91)-80-23595565",
        "phone_1": "23597075",
        "phone_2": "23498074"
      }
    },
    {
      "type": "node",
      "id": 1474819885,
      "lat": 12.9971233,
      "lon": 77.5512976,
      "tags": {
        "amenity": "pharmacy",
        "healthcare": "pharmacy",
        "name": "Sri Rama Medicals and General Stores"
      }
    },
    {
      "type": "node",
      "id": 1474819887,
      "lat": 12.9955579,
      "lon": 77.5503454,
      "tags": {
        "amenity": "place_of_worship",
        "name": "Ranganatha Swamy Temple",
        "name:kn": "ರಂಗನಾಥಸ್ವಾಮಿ ದೇವಸ್ಥಾನ",
        "religion": "hindu"
      }
    },
    {
      "type": "node",
      "id": 1474819888,
      "lat": 12.998275,
      "lon": 77.550863,
      "tags": {
        "addr:city": "Bangalore",
        "addr:housenumber": "399/34",
        "addr:postcode": "560010",
        "addr:street": "19th Main (Goorur Ramaswamy Iyengar Road)",
        "air_conditioning": "no",
        "alt_name": "Udipi Brahmin's Cafe",
        "amenity": "restaurant",
        "cuisine": "regional",
        "delivery": "yes",
        "diet:halal": "no",
        "diet:vegan": "yes",
        "diet:vegetarian": "only",
        "indoor_seating": "yes",
        "name": "Gokul Vegetarian",
        "name:kn": "ಗೋಕುಲ್ ವೆಜಿಟೆರಿಯನ್",
        "opening_hours": "11:00-22:30",
        "outdoor_seating": "no",
        "payment:credit_cards": "yes",
        "payment:debit_cards": "yes",
        "phone": "+91 80 2342 3955",
        "phone_1": "+91 9741116699",
        "smoking": "no",
        "wheelchair": "no"
      }
    },
    {
      "type": "node",
      "id": 1474819889,
      "lat": 12.9980255,
      "lon": 77.5499457,
      "tags": {
        "name": "My Looks",
        "shop": "clothes"
      }
    },
    {
      "type": "node",
      "id": 1474819894,
      "lat": 12.9963776,
      "lon": 77.5514093,
      "tags": {
        "addr:city": "Bangalore",
        "addr:housenumber": "156",
        "addr:postcode": "560010",
        "addr:street": "19th Main (Goorur Ramaswamy Iyengar Road)",
        "name": "Health and Glow",
        "phone": "+(91)-80-32466651",
        "shop": "supermarket"
      }
    },
    {
      "type": "node",
      "id": 1474819896,
      "lat": 12.9956506,
      "lon": 77.5510696,
      "tags": {
        "addr:city": "Bangalore",
        "addr:district": "Bengaluru Urban",
        "addr:full": "25/91, Chord Road, Iind Block, Rajajinagar",
        "addr:housenumber": "25/91",
        "addr:postcode": "560010",
        "addr:state": "Karnataka",
        "addr:street": "Chord Road",
        "amenity": "hospital",
        "name": "Citi Hospital",
        "opening_hours": "24/7",
        "phone": "+(91)-80-23131778",
        "phone_1": "23131777",
        "phone_2": "23526910",
        "source": "OpenGovernmentData"
      }
    },
    {
      "type": "node",
      "id": 1474819897,
      "lat": 12.9995223,
      "lon": 77.5505328,
      "tags": {
        "addr:city": "Bengaluru",
        "addr:country": "IN",
        "addr:district": "Bengaluru Urban",
        "addr:full": "Old 389, New 46, 19th Main, 1st Block, Rajaji Nagar",
        "addr:hamlet": "Rajajinagar 1st Block",
        "addr:housenumber": "46",
        "addr:postcode": "560010",
        "addr:state": "Karnataka",
        "addr:street": "19th Cross Road",
        "amenity": "hospital",
        "healthcare": "hospital",
        "name": "Vasan Eye Care Hospital, Rajaji Nagar",
        "source": "OpenGovernmentData",
        "wheelchair": "no"
      }
    },
    {
      "type": "node",
      "id": 1474819898,
      "lat": 12.9998205,
      "lon": 77.55045,
      "tags": {
        "addr:district": "Bengaluru Urban",
        "addr:full": "No.389/44, 19th Main, 1st Block, Rajajinagar",
        "addr:postcode": "560010",
        "addr:state": "Karnataka",
        "amenity": "hospital",
        "contact:email": "enquiries@ananyahospital.org",
        "emergency_telephone_code": "080 23527411;09980783835",
        "healthcare": "hospital",
        "healthcare:speciality": "Cardiology;Cosmetology;Dermatology;Diabetology;Emergency Medicine;ENT;Gastroenterology;General Medicine;General Surgery;Internal Medicine;Laparoscopic Surgery;Medical Oncology;Nephrology;Obesity;Obstetricsand Gynaecology",
        "medical_system": "Allopathic",
        "name": "Ananya Hospital",
        "name:kn": "ಅನನ್ಯ ಆಸ್ಪತ್ರೆ",
        "operator:type": "private",
        "source": "https://data.gov.in",
        "website": "www.ananyahospital.org"
      }
    },
    {
      "type": "node",
      "id": 1474819901,
      "lat": 12.9940551,
      "lon": 77.5513325,
      "tags": {
        "amenity": "place_of_worship",
        "name": "Yesukrupalaya Church",
        "religion": "christian"
      }
    },
    {
      "type": "node",
      "id": 1474820324,
      "lat": 12.9872807,
      "lon": 77.5494174,
      "tags": {
        "amenity": "restaurant",
        "name": "Sree Nandini Palace Restaurant",
        "name:kn": "ಶ್ರೀ ನಂದಿನಿ ಪ್ಯಾಲಸ್ ರೆಸ್ಟೋರೆಂಟ್"
      }
    },
    {
      "type": "node",
      "id": 1813501242,
      "lat": 12.9989198,
      "lon": 77.552547,
      "tags": {
        "addr:city": "bangalore",
        "addr:housenumber": "5 & 6",
        "addr:postcode": "560010",
        "addr:street": "Dr. Rajkumar Road",
        "amenity": "restaurant",
        "cuisine": "regional",
        "delivery": "yes",
        "name": "Jalpaan",
        "name:kn": "ಜಪ್ಲಾನ್",
        "opening_hours": "12:00-15:30,19:00-23:00",
        "phone": "+91 9591996822",
        "phone_1": "080 41701550",
        "wheelchair": "no"
      }
    },
    {
      "type": "node",
      "id": 1813502850,
      "lat": 12.9993994,
      "lon": 77.5525068,
      "tags": {
        "amenity": "bank",
        "atm": "yes",
        "branch": "Rajajinagar",
        "brand": "Axis Bank",
        "brand:wikidata": "Q2003549",
        "check_date": "2023-01-02",
        "designation": "Axis Bank",
        "fee": "no",
        "name": "Axis Bank",
        "name:kn": "ಆಕ್ಸಿಸ್ ಬ್ಯಾಂಕ್",
        "operator": "Axis Bank",
        "source": "Survey",
        "wheelchair": "no"
      }
    },
    {
      "type": "node",
      "id": 1979096567,
      "lat": 12.9972801,
      "lon": 77.5609014,
      "tags": {
        "amenity": "place_of_worship",
        "name": "Circle Ganapathi Temple",
        "religion": "hindu",
        "wheelchair": "no"
      }
    },
    {
      "type": "node",
      "id": 2026076836,
      "lat": 12.9993857,
      "lon": 77.5606403,
      "tags": {
        "addr:district": "Bengaluru Urban",
        "addr:full": "No 3367,5Th Cross, Gayathri Nagar",
        "addr:postcode": "560021",
        "addr:state": "Karnataka",
        "amenity": "hospital",
        "emergency": "yes",
        "name": "Nayak Hospital, Gayathri Nagar",
        "source": "OpenGovernmentData"
      }
    },
    {
      "type": "node",
      "id": 2249047993,
      "lat": 12.9916432,
      "lon": 77.5578265,
      "tags": {
        "amenity": "fuel",
        "brand": "Hindustan Petroleum",
        "brand:wikidata": "Q1619375",
        "brand:wikipedia": "en:Hindustan Petroleum",
        "compressed_air": "yes",
        "name": "HP",
        "name:kn": "ಹಿಂದುಸ್ತಾನ್ ಪೆಟ್ರೋಲಿಯಂ",
        "official_name": "Hindustan Petroleum"
      }
    },
    {
      "type": "node",
      "id": 2249048755,
      "lat": 12.9877059,
      "lon": 77.5596356,
      "tags": {
        "amenity": "atm",
        "brand": "Citibank",
        "brand:wikidata": "Q857063",
        "name": "Citibank",
        "name:kn": "ಸಿಟಿಬ್ಯಾಂಕ್",
        "operator": "Citibank",
        "operator:wikidata": "Q857063",
        "short_name": "Citi"
      }
    },
    {
      "type": "node",
      "id": 2249052140,
      "lat": 12.9863548,
      "lon": 77.5603215,
      "tags": {
        "brand": "Honda",
        "brand:wikidata": "Q9584",
        "name": "Honda 2 Wheeler Service",
        "shop": "motorcycle"
      }
    },
    {
      "type": "node",
      "id": 2271426098,
      "lat": 12.9875529,
      "lon": 77.5496062,
      "tags": {
        "amenity": "community_centre",
        "name": "Nandana Party Hall",
        "wheelchair": "no"
      }
    },
    {
      "type": "node",
      "id": 2293249618,
      "lat": 12.9843055,
      "lon": 77.5537764,
      "tags": {
        "addr:city": "Bangalore",
        "addr:postcode": "560079",
        "addr:street": "60th Cross Road",
        "alt_name": "A2B",
        "amenity": "restaurant",
        "brand": "Adyar Ananda Bhavan",
        "brand:wikidata": "Q15178238",
        "cuisine": "regional",
        "diet:vegetarian": "only",
        "name": "Adyar Ananda Bhavan",
        "name:kn": "ಆದ್ಯಾರ್ ಆನಂದ ಭವನ",
        "operator": "Adyar Ananda Bhavan",
        "phone": "+91 80 4212 3599",
        "smoking": "no",
        "website": "https://aabsweets.com",
        "wheelchair": "no"
      }
    },
    {
      "type": "node",
      "id": 2301063513,
      "lat": 12.9975064,
      "lon": 77.5499528,
      "tags": {
        "shop": "alcohol"
      }
    },
    {
      "type": "node",
      "id": 2531808714,
      "lat": 12.9985477,
      "lon": 77.5510414,
      "tags": {
        "amenity": "restaurant",
        "cuisine": "regional",
        "name": "New Prashanth Hotel",
        "name:kn": "ಪ್ರಶಾಂತ್ ಹೋಟೆಲ್",
        "user_defined": "Restaurant",
        "wheelchair": "no"
      }
    },
    {
      "type": "node",
      "id": 2554302336,
      "lat": 12.9843805,
      "lon": 77.5558016,
      "tags": {
        "amenity": "community_centre",
        "name": "KTSVS Rajatha Mahotsava Samudaaya Bhavana"
      }
    },
    {
      "type": "node",
      "id": 2554302439,
      "lat": 12.9855811,
      "lon": 77.5556847,
      "tags": {
        "amenity": "cafe",
        "cuisine": "regional",
        "name": "Crane Crush"
      }
    },
    {
      "type": "node",
      "id": 2554302473,
      "lat": 12.9846268,
      "lon": 77.5558117,
      "tags": {
        "amenity": "bank",
        "atm": "yes",
        "brand": "State Bank of India",
        "brand:wikidata": "Q1340361",
        "brand:wikipedia": "en:State Bank of India",
        "name": "State Bank of India",
        "name:kn": "ಭಾರತೀಯ ಸ್ಟೇಟ್ ಬ್ಯಾಂಕ್",
        "short_name": "SBI"
      }
    },
    {
      "type": "node",
      "id": 2554302512,
      "lat": 12.9843701,
      "lon": 77.555666,
      "tags": {
        "amenity": "hospital",
        "name": "Pragathi Ayurvedic Center",
        "wheelchair": "no"
      }
    },
    {
      "type": "node",
      "id": 2767232789,
      "lat": 12.990035,
      "lon": 77.5643749,
      "tags": {
        "amenity": "veterinary",
        "name": "BBMP Veterinary Hospital",
        "name:kn": "ಬೃ. ಬೆಂ. ಮ. ಪಾ. ಪಶುವೈದ್ಯ ಆಸ್ಪತ್ರೆ"
      }
    },
    {
      "type": "node",
      "id": 2767239588,
      "lat": 12.9902879,
      "lon": 77.5645516,
      "tags": {
        "amenity": "library",
        "name": "Government Public Library",
        "name:kn": "ಸರ್ಕಾರಿ ಗ್ರಂಥಾಲಯ"
      }
    },
    {
      "type": "node",
      "id": 2767247932,
      "lat": 12.9915519,
      "lon": 77.5639515,
      "tags": {
        "amenity": "place_of_worship",
        "name": "Muneshwaraswamy Temple",
        "name:kn": "ಮುನೇಶ್ವರಸ್ವಾಮಿ ದೇವಸ್ಥಾನ",
        "religion": "hindu",
        "wheelchair": "no"
      }
    },
    {
      "type": "node",
      "id": 2774709473,
      "lat": 12.9855905,
      "lon": 77.5599798,
      "tags": {
        "name": "Suzuki 2 Wheelers",
        "shop": "motorcycle"
      }
    },
    {
      "type": "node",
      "id": 2774710664,
      "lat": 12.9960866,
      "lon": 77.5543901,
      "tags": {
        "amenity": "place_of_worship",
        "name": "Raghavendra Swamy Mutt",
        "name:kn": "ರಾಘವೇಂದ್ರ ಸ್ವಾಮಿ ಮಠ",
        "religion": "hindu"
      }
    },
    {
      "type": "node",
      "id": 3201207024,
      "lat": 12.9955091,
      "lon": 77.5546879,
      "tags": {
        "amenity": "library",
        "name": "City Central Library",
        "name:kn": "ಕೇಂದ್ರಿಯ ಗ್ರಂಥಾಲಯ",
        "operator": "Karnataka government"
      }
    },
    {
      "type": "node",
      "id": 3209500886,
      "lat": 12.9914598,
      "lon": 77.5546233,
      "tags": {
        "name": "O. G. Variar and Sons Bakery",
        "shop": "bakery"
      }
    },
    {
      "type": "node",
      "id": 3209503890,
      "lat": 12.9895284,
      "lon": 77.5574083,
      "tags": {
        "name": "Nandini Milk Booth",
        "name:kn": "ನಂದಿನಿ ಹಾಲಿನ ಅಂಗಡಿ",
        "shop": "dairy"
      }
    },
    {
      "type": "node",
      "id": 3391133321,
      "lat": 12.9976064,
      "lon": 77.5512613,
      "tags": {
        "amenity": "pharmacy",
        "brand": "Apollo Pharmacy",
        "brand:wikidata": "Q62562612",
        "healthcare": "pharmacy",
        "name": "Apollo Pharmacy",
        "name:kn": "ಅಪೊಲೋ ಫಾರ್ಮಸಿ"
      }
    },
    {
      "type": "node",
      "id": 3391134117,
      "lat": 12.9952537,
      "lon": 77.5517627,
      "tags": {
        "name": "Manjunath Dry Cleaners",
        "shop": "dry_cleaning"
      }
    },
    {
      "type": "node",
      "id": 3391134551,
      "lat": 12.9845372,
      "lon": 77.5543971,
      "tags": {
        "name": "Karthik Aquarium",
        "shop": "aquarium"
      }
    },
    {
      "type": "node",
      "id": 3391134552,
      "lat": 12.9894264,
      "lon": 77.5544249,
      "tags": {
        "name": "Vinutha Jewellers",
        "shop": "jewelry"
      }
    },
    {
      "type": "node",
      "id": 3391135055,
      "lat": 12.9852058,
      "lon": 77.5564437,
      "tags": {
        "amenity": "bank",
        "brand": "Axis Bank",
        "brand:wikidata": "Q2003549",
        "brand:wikipedia": "en:Axis Bank",
        "name": "Axis Bank",
        "name:en": "Axis Bank",
        "name:kn": "ಆಕ್ಸಿಸ್ ಬ್ಯಾಂಕ್",
        "website": "https://www.axisbank.com"
      }
    },
    {
      "type": "node",
      "id": 3391135056,
      "lat": 12.989866,
      "lon": 77.554497,
      "tags": {
        "name": "Mahesh Opticals",
        "shop": "optician"
      }
    },
    {
      "type": "node",
      "id": 3391135057,
      "lat": 12.9899339,
      "lon": 77.5526805,
      "tags": {
        "amenity": "restaurant",
        "name": "New Sagar Fast Food & Party Hall"
      }
    },
    {
      "type": "node",
      "id": 3392655602,
      "lat": 12.9874289,
      "lon": 77.5541838,
      "tags": {
        "amenity": "bank",
        "brand": "State Bank of India",
        "brand:wikidata": "Q1340361",
        "name": "State Bank of India",
        "operator": "State Bank Of India",
        "short_name": "SBI"
      }
    },
    {
      "type": "node",
      "id": 3412354770,
      "lat": 12.9893163,
      "lon": 77.5570578,
      "tags": {
        "name": "Nandini General Stores",
        "shop": "general"
      }
    },
    {
      "type": "node",
      "id": 3412355482,
      "lat": 12.9893048,
      "lon": 77.5569651,
      "tags": {
        "building": "publishers",
        "name": "Bhavesh Publications Pvt Limited",
        "shop": "publi"
      }
    },
    {
      "type": "node",
      "id": 3412360994,
      "lat": 12.9896534,
      "lon": 77.5570551,
      "tags": {
        "name": "Artway tailors - Ladies and Gents",
        "shop": "tailor"
      }
    },
    {
      "type": "node",
      "id": 3412365834,
      "lat": 12.9893115,
      "lon": 77.5569048,
      "tags": {
        "name": "U S Chemicals",
        "shop": "yes"
      }
    },
    {
      "type": "node",
      "id": 3412377280,
      "lat": 12.9893195,
      "lon": 77.5568469,
      "tags": {
        "name": "Ganesh Jeans Alteration Center",
        "shop": "tailor"
      }
    },
    {
      "type": "node",
      "id": 3412384583,
      "lat": 12.9893684,
      "lon": 77.5574688,
      "tags": {
        "brand": "HOPCOMS",
        "brand:wikidata": "Q22908959",
        "name": "HOPCOMS",
        "name:kn": "ಹಾಪ್ ಕಾಮ್ಸ್",
        "shop": "greengrocer"
      }
    },
    {
      "type": "node",
      "id": 3412396638,
      "lat": 12.9893418,
      "lon": 77.5560549,
      "tags": {
        "name": "Marvel Abrasive Tools",
        "shop": "hardware"
      }
    },
    {
      "type": "node",
      "id": 3412397362,
      "lat": 12.9898332,
      "lon": 77.5561709,
      "tags": {
        "amenity": "cafe",
        "brand": "Cafe Coffee Day",
        "brand:wikidata": "Q5017235",
        "brand:wikipedia": "en:Café Coffee Day",
        "cuisine": "coffee_shop",
        "name": "Cafe Coffee Day",
        "name:kn": "ಕಫೆ ಕಾಫಿ ಡೇ",
        "takeaway": "yes",
        "wheelchair": "no"
      }
    },
    {
      "type": "node",
      "id": 3412398779,
      "lat": 12.989787,
      "lon": 77.5560235,
      "tags": {
        "building": "gymnasium",
        "leisure": "sports_centre",
        "name": "Body Flex Fitness Center and Gymnasium"
      }
    },
    {
      "type": "node",
      "id": 3412399008,
      "lat": 12.9893375,
      "lon": 77.5561073,
      "tags": {
        "amenity": "library",
        "name": "Just Books Lending Library",
        "wheelchair": "no"
      }
    },
    {
      "type": "node",
      "id": 3412399842,
      "lat": 12.9895832,
      "lon": 77.5560181,
      "tags": {
        "amenity": "clinic",
        "healthcare": "clinic",
        "name": "CKV Clinic"
      }
    },
    {
      "type": "node",
      "id": 3412401298,
      "lat": 12.9896302,
      "lon": 77.5560208,
      "tags": {
        "amenity": "pharmacy",
        "name": "Standard Medicals",
        "wheelchair": "no"
      }
    },
    {
      "type": "node",
      "id": 3412403085,
      "lat": 12.9894943,
      "lon": 77.5560074,
      "tags": {
        "name": "Khadi Gramodyog Bhavan",
        "shop": "clothes"
      }
    },
    {
      "type": "node",
      "id": 3412403732,
      "lat": 12.9894211,
      "lon": 77.556002,
      "tags": {
        "name": "Sri Manjunatha Condiments",
        "shop": "yes"
      }
    },
    {
      "type": "node",
      "id": 3412403797,
      "lat": 12.9894159,
      "lon": 77.556053,
      "tags": {
        "name": "Raikar Jewellery Works",
        "shop": "jewelry"
      }
    },
    {
      "type": "node",
      "id": 3412405288,
      "lat": 12.9893868,
      "lon": 77.5550414,
      "tags": {
        "name": "Classic Alteration Centre",
        "shop": "tailor"
      }
    },
    {
      "type": "node",
      "id": 3412406635,
      "lat": 12.9894133,
      "lon": 77.5560959,
      "tags": {
        "name": "Toddler's Den",
        "shop": "clothes"
      }
    },
    {
      "type": "node",
      "id": 3412406636,
      "lat": 12.9894159,
      "lon": 77.5561388,
      "tags": {
        "name": "Manju Dry Cleaners",
        "shop": "dry_cleaning"
      }
    },
    {
      "type": "node",
      "id": 3412411945,
      "lat": 12.9895753,
      "lon": 77.5545027,
      "tags": {
        "name": "Lidkar Leather Emporium",
        "shop": "shoes"
      }
    },
    {
      "type": "node",
      "id": 3412418277,
      "lat": 12.9894313,
      "lon": 77.554456,
      "tags": {
        "building": "company",
        "name": "Stella's Beauty Salon",
        "shop": "beauty"
      }
    },
    {
      "type": "node",
      "id": 3412443803,
      "lat": 12.9891535,
      "lon": 77.5550832,
      "tags": {
        "name": "Global Management Services",
        "shop": "services"
      }
    },
    {
      "type": "node",
      "id": 3412445610,
      "lat": 12.989273,
      "lon": 77.5551359,
      "tags": {
        "name": "Hi Tech Junction - Jeans Alteration",
        "shop": "tailor"
      }
    },
    {
      "type": "node",
      "id": 3412449880,
      "lat": 12.9893267,
      "lon": 77.5559106,
      "tags": {
        "name": "Om Ganesh Video Vision",
        "shop": "video"
      }
    },
    {
      "type": "node",
      "id": 3412449884,
      "lat": 12.9892765,
      "lon": 77.5559234,
      "tags": {
        "name": "Ganesh Enterprises",
        "shop": "stationery"
      }
    },
    {
      "type": "node",
      "id": 3412643476,
      "lat": 12.9892743,
      "lon": 77.5559849,
      "tags": {
        "amenity": "dentist",
        "building": "dentist",
        "name": "Kanva Dental Super Specialty Center"
      }
    },
    {
      "type": "node",
      "id": 3412647285,
      "lat": 12.9892332,
      "lon": 77.5559116,
      "tags": {
        "name": "Sun Stamps and Seals",
        "shop": "stamps"
      }
    },
    {
      "type": "node",
      "id": 3412649472,
      "lat": 12.9891936,
      "lon": 77.5559165,
      "tags": {
        "amenity": "clinic",
        "name": "Santosh Clinic - Family Physician"
      }
    },
    {
      "type": "node",
      "id": 3412651166,
      "lat": 12.9891599,
      "lon": 77.5559116,
      "tags": {
        "amenity": "pharmacy",
        "name": "Sairam Medicals and General Stores"
      }
    },
    {
      "type": "node",
      "id": 3412653247,
      "lat": 12.989107,
      "lon": 77.5559009,
      "tags": {
        "name": "Bombay Fashions - Ladies Tailors",
        "shop": "tailor"
      }
    },
    {
      "type": "node",
      "id": 3412653248,
      "lat": 12.9890068,
      "lon": 77.5559058,
      "tags": {
        "name": "Bhairav Jewellers",
        "shop": "jewelry"
      }
    },
    {
      "type": "node",
      "id": 3412653430,
      "lat": 12.9890694,
      "lon": 77.5558999,
      "tags": {
        "amenity": "bank",
        "atm": "yes",
        "brand": "Syndicate Bank",
        "brand:wikidata": "Q2004088",
        "building": "bank",
        "name": "Syndicate Bank",
        "name:en": "Syndicate Bank",
        "name:kn": "ಸಿಂಡಿಕೇಟ್ ಬ್ಯಾಂಕ್",
        "website": "https://www.syndicatebank.in"
      }
    },
    {
      "type": "node",
      "id": 3412656229,
      "lat": 12.9893325,
      "lon": 77.5559867,
      "tags": {
        "name": "Sri Maruti Air Travels",
        "shop": "travel_agency"
      }
    },
    {
      "type": "node",
      "id": 3412656370,
      "lat": 12.9893394,
      "lon": 77.5559942,
      "tags": {
        "name": "Sri Raghavendra Condiments",
        "shop": "convenience"
      }
    },
    {
      "type": "node",
      "id": 3412656669,
      "lat": 12.9891463,
      "lon": 77.5559752,
      "tags": {
        "name": "M N Tailors",
        "shop": "tailor"
      }
    },
    {
      "type": "node",
      "id": 3412659107,
      "lat": 12.9892592,
      "lon": 77.5559827,
      "tags": {
        "building": "services",
        "name": "Touch One Stop Repair Services - Laptop, Desktop, Tablet, Accessories",
        "shop": "electronics"
      }
    },
    {
      "type": "node",
      "id": 3412661323,
      "lat": 12.989092,
      "lon": 77.5559747,
      "tags": {
        "name": "Kailash Fashion Jewellery",
        "shop": "jewelry"
      }
    },
    {
      "type": "node",
      "id": 3412667183,
      "lat": 12.9891135,
      "lon": 77.5559765,
      "tags": {
        "amenity": "internet_cafe",
        "name": "A. Cyber Joint - Browsing Center"
      }
    },
    {
      "type": "node",
      "id": 3412667782,
      "lat": 12.9890532,
      "lon": 77.5559703,
      "tags": {
        "amenity": "dentist",
        "name": "Sangam Dental Center"
      }
    },
    {
      "type": "node",
      "id": 3412669259,
      "lat": 12.9890644,
      "lon": 77.5559708,
      "tags": {
        "name": "Sri Charan stores",
        "shop": "convenience"
      }
    },
    {
      "type": "node",
      "id": 3412672603,
      "lat": 12.9890834,
      "lon": 77.5559738,
      "tags": {
        "name": "Soundarya Beauty Parlour",
        "shop": "beauty"
      }
    },
    {
      "type": "node",
      "id": 3412675541,
      "lat": 12.9890052,
      "lon": 77.5559614,
      "tags": {
        "name": "Sri Manjunath Stores",
        "shop": "convenience"
      }
    },
    {
      "type": "node",
      "id": 3412676559,
      "lat": 12.9890226,
      "lon": 77.5559646,
      "tags": {
        "name": "Pradhan Jewellers",
        "shop": "jewelry"
      }
    },
    {
      "type": "node",
      "id": 3412677002,
      "lat": 12.9890135,
      "lon": 77.5559637,
      "tags": {
        "name": "Sri Balaji Agency",
        "shop": "travel_agency"
      }
    },
    {
      "type": "node",
      "id": 3412678729,
      "lat": 12.9890002,
      "lon": 77.5559632,
      "tags": {
        "name": "Mobile and More",
        "shop": "mobile_phone"
      }
    },
    {
      "type": "node",
      "id": 3412680703,
      "lat": 12.9889846,
      "lon": 77.555961,
      "tags": {
        "name": "Mamatha Jewels",
        "shop": "jewelry"
      }
    },
    {
      "type": "node",
      "id": 3412680704,
      "lat": 12.9889803,
      "lon": 77.5559601,
      "tags": {
        "name": "Gyan Exports",
        "shop": "clothes"
      }
    },
    {
      "type": "node",
      "id": 3412680774,
      "lat": 12.9889687,
      "lon": 77.555961,
      "tags": {
        "name": "Vishal Tea Company",
        "shop": "tea"
      }
    },
    {
      "type": "node",
      "id": 3412680901,
      "lat": 12.988954,
      "lon": 77.5559592,
      "tags": {
        "name": "Prasad Coffee Powder",
        "shop": "yes"
      }
    },
    {
      "type": "node",
      "id": 3412690280,
      "lat": 12.9904639,
      "lon": 77.5569256,
      "tags": {
        "amenity": "pharmacy",
        "healthcare": "pharmacy",
        "name": "Sri Prasamshi Medical Stores"
      }
    },
    {
      "type": "node",
      "id": 4382905014,
      "lat": 12.9973946,
      "lon": 77.5485023,
      "tags": {
        "brand": "Reliance Fresh",
        "brand:wikidata": "Q7311014",
        "brand:wikipedia": "en:Reliance Fresh",
        "name": "Reliance Fresh",
        "name:kn": "ರಿಲಾಯನ್ಸ್ ಫ್ರೆಶ್",
        "shop": "supermarket"
      }
    },
    {
      "type": "node",
      "id": 4383592314,
      "lat": 12.9974503,
      "lon": 77.5496185,
      "tags": {
        "brand": "Bata",
        "brand:wikidata": "Q688082",
        "name": "Bata",
        "name:kn": "ಬಾಟಾ",
        "shop": "shoes"
      }
    },
    {
      "type": "node",
      "id": 4383592315,
      "lat": 12.9977051,
      "lon": 77.5495154,
      "tags": {
        "addr:city": "Bangalore",
        "addr:housenumber": "16",
        "addr:postcode": "560086",
        "addr:street": "Modi Hospital Main Road",
        "name": "Parmar",
        "phone": "+(91)-80-23496604",
        "phone_1": "+(91)-9448492269",
        "shop": "stationery"
      }
    },
    {
      "type": "node",
      "id": 4383676406,
      "lat": 12.9939186,
      "lon": 77.5513274,
      "tags": {
        "name": "Simply Organics",
        "organic": "only",
        "shop": "supermarket"
      }
    },
    {
      "type": "node",
      "id": 4383676407,
      "lat": 12.9875682,
      "lon": 77.5504525,
      "tags": {
        "addr:city": "Bangalore",
        "addr:housenumber": "1190",
        "addr:postcode": "560010",
        "addr:street": "18th C Main Road, Rajajinagar 5th Block",
        "amenity": "internet_cafe",
        "name": "Blitz Zone"
      }
    },
    {
      "type": "node",
      "id": 4383686517,
      "lat": 12.9988718,
      "lon": 77.5498125,
      "tags": {
        "amenity": "pharmacy",
        "healthcare": "pharmacy",
        "name": "Universal Pharma"
      }
    },
    {
      "type": "node",
      "id": 4391574437,
      "lat": 12.9932191,
      "lon": 77.5546749,
      "tags": {
        "amenity": "driving_school",
        "name": "Shekhar Driving School"
      }
    },
    {
      "type": "node",
      "id": 4443484964,
      "lat": 12.9898377,
      "lon": 77.5550568,
      "tags": {
        "addr:city": "bangalore",
        "addr:housenumber": "723/B",
        "addr:postcode": "560010",
        "addr:street": "11th Main Rd, 3rd Block, Rajaji Nagar",
        "amenity": "pharmacy",
        "healthcare": "pharmacy",
        "name": "Dr. Suresh's Dia Care",
        "phone": "080 2338 2867",
        "website": "drsureshdiacare.com"
      }
    },
    {
      "type": "node",
      "id": 4443494165,
      "lat": 12.9861471,
      "lon": 77.5598537,
      "tags": {
        "addr:city": "bangalore",
        "addr:housenumber": "403",
        "addr:postcode": "560010",
        "addr:street": "Dr. Rajkumar Road, 6th Block, 80 Feet Rd, 4th Block, Ramchandrapuram, Rajaji Nagar",
        "amenity": "pharmacy",
        "name": "Amrutha Medicals",
        "name:kn": "ಅಮೃತ ಮೆಡಿಕಲ್ಸ್",
        "phone": "080 2311 7929"
      }
    },
    {
      "type": "node",
      "id": 4443504959,
      "lat": 12.9988814,
      "lon": 77.5552883,
      "tags": {
        "addr:city": "bangalore",
        "addr:housenumber": "2941/5",
        "addr:postcode": "560010",
        "addr:street": "Mahakavi Kuvempu Road, 2nd Stage, Rajajinagar, Near Varalaxmi Nursing Home, D-Block, Gayatrinagar, Rajaji Nagar",
        "amenity": "pharmacy",
        "name": "Health Shopee by Manjushree Medicals",
        "phone": "+91 98861 14333"
      }
    },
    {
      "type": "node",
      "id": 4443592306,
      "lat": 12.9882463,
      "lon": 77.5584271,
      "tags": {
        "addr:city": "bangalore",
        "addr:housenumber": "2/835/64/1",
        "addr:postcode": "560010",
        "addr:street": "4th Block, Amulya Corner, 3rd Main, 3rd Main Road, 4th Block, Rajaji Nagar",
        "amenity": "pharmacy",
        "name": "Nandhi Medical And General Stores",
        "phone": "080 2314 5334"
      }
    },
    {
      "type": "node",
      "id": 4446271460,
      "lat": 12.9908258,
      "lon": 77.5578843,
      "tags": {
        "addr:city": "bangalore",
        "addr:housenumber": "1000",
        "addr:postcode": "560010",
        "addr:street": "4th Block, Dr Rajkumar Road,Rajajinagar",
        "amenity": "restaurant",
        "cuisine": "regional",
        "name": "Navarang Kabab Corner",
        "opening_hours": "12:00-15:00,18:30-22:00",
        "phone": "080 41487575",
        "website": "navrangkababkorner.in"
      }
    },
    {
      "type": "node",
      "id": 4446322676,
      "lat": 12.9903931,
      "lon": 77.5584441,
      "tags": {
        "addr:city": "bangalore",
        "addr:housenumber": "73",
        "addr:postcode": "560010",
        "addr:street": "Kantha Complex, Dr. Rajkumar Road, 3rd Stage, Rajajinaga",
        "amenity": "restaurant",
        "cuisine": "regional",
        "name": "Kudla beach",
        "opening_hours": "11:30-16:30,18:30-23:00",
        "phone": "080 32409844"
      }
    },
    {
      "type": "node",
      "id": 4446343508,
      "lat": 12.9967355,
      "lon": 77.5543173,
      "tags": {
        "addr:city": "bangalore",
        "addr:postcode": "560010",
        "addr:street": "Dr Rajkumar Road, Opposite KLE College, Near Navrang Theatre,Rajajinaga",
        "amenity": "restaurant",
        "check_date": "2025-03-18",
        "cuisine": "regional",
        "diet:vegan": "no",
        "diet:vegetarian": "only",
        "indoor_seating": "yes",
        "name": "Sagar Caterers and Hotel",
        "opening_hours": "11:00-23:00",
        "outdoor_seating": "no",
        "payment:credit_cards": "yes",
        "payment:debit_cards": "yes",
        "phone": "080 23325917",
        "wheelchair": "no"
      }
    },
    {
      "type": "node",
      "id": 4446347659,
      "lat": 12.9891546,
      "lon": 77.5500014,
      "tags": {
        "addr:city": "bangalore",
        "addr:housenumber": "1",
        "addr:postcode": "560010",
        "addr:street": "5th Main, West of Chord Road, Shivanagar, Rajajinagar",
        "amenity": "restaurant",
        "cuisine": "regional",
        "name": "Shree Nandana Palace",
        "opening_hours": "12:00-23:00",
        "phone": "080 64444455"
      }
    },
    {
      "type": "node",
      "id": 4446664412,
      "lat": 12.9881648,
      "lon": 77.5548179,
      "tags": {
        "addr:city": "bangalore",
        "addr:housenumber": "111",
        "addr:postcode": "560010",
        "addr:street": "West of Chord Road,, Opp Rajajinagar 1st Block Junction",
        "amenity": "hospital",
        "name": "Fortis Hospital",
        "name:kn": "ಫೋರ್ಟಿಸ್ ಆಸ್ಪತ್ರೆ",
        "phone": "080-2300-4444",
        "website": "fortisbangalore.com"
      }
    },
    {
      "type": "node",
      "id": 4446670981,
      "lat": 12.9883267,
      "lon": 77.5549712,
      "tags": {
        "addr:city": "bangalore",
        "addr:housenumber": "2",
        "addr:postcode": "560010",
        "addr:street": "46th cross, Rajajinagar 4th Block",
        "amenity": "pharmacy",
        "name": "Nandhi Medicals",
        "phone": "+91 80 2314 5334"
      }
    },
    {
      "type": "node",
      "id": 4446692224,
      "lat": 12.9898567,
      "lon": 77.5542305,
      "tags": {
        "addr:city": "Bangalore",
        "addr:housenumber": "955",
        "addr:postcode": "560010,",
        "addr:street": "3rd Block, Rajajinagar",
        "amenity": "pharmacy",
        "healthcare": "pharmacy",
        "name": "Sri Venkateshwara Medical & General Store",
        "phone": "+91 94491 68854"
      }
    },
    {
      "type": "node",
      "id": 4446701038,
      "lat": 12.9862636,
      "lon": 77.5575477,
      "tags": {
        "addr:city": "Bangalore",
        "addr:housenumber": "403",
        "addr:postcode": "560010",
        "addr:street": "Dr Rajkumar Road, Rajajinagar",
        "amenity": "pharmacy",
        "name": "Amrutha Medicals",
        "name:kn": "ಅಮೃತ ಮೆಡಿಕಲ್ಸ್",
        "phone": "+91 80 2311 7929"
      }
    },
    {
      "type": "node",
      "id": 4446742748,
      "lat": 12.9906244,
      "lon": 77.5633161,
      "tags": {
        "addr:city": "bangalore",
        "addr:housenumber": "529",
        "addr:postcode": "560010",
        "addr:street": "10th Main, 2nd Block, Rajajinagar",
        "amenity": "pharmacy",
        "name": "Prasad Medicals",
        "phone": "+91 80507 82573"
      }
    },
    {
      "type": "node",
      "id": 4446968478,
      "lat": 12.9869612,
      "lon": 77.5602264,
      "tags": {
        "addr:city": "bangalore",
        "addr:housenumber": "2/10",
        "addr:postcode": "560010",
        "addr:street": "Dr Rajkumar Rd, 4N Block",
        "amenity": "pharmacy",
        "name": "Kanva Diagnostics",
        "phone": "+9180 2313 3840",
        "source": "www.yellowpages.co.in",
        "website": "https://kanvadiagnostic.com/"
      }
    },
    {
      "type": "node",
      "id": 4446986158,
      "lat": 12.9877039,
      "lon": 77.5530939,
      "tags": {
        "addr:city": "bangalore",
        "addr:housenumber": "13",
        "addr:postcode": "560003",
        "addr:street": ",2nd Main Rd, Malleshwaram",
        "amenity": "pharmacy",
        "name": "Sridhar Medicals",
        "phone": "080 2336 3765"
      }
    },
    {
      "type": "node",
      "id": 4446999695,
      "lat": 12.9887964,
      "lon": 77.5555474,
      "tags": {
        "addr:city": "Bangalore",
        "addr:housenumber": "2/835/64/1,",
        "addr:postcode": "560010",
        "addr:street": "4th Block, Rajaji Nagar",
        "amenity": "pharmacy",
        "name": "Nandhi Medicals",
        "phone": "+9180 2314 5334",
        "source": "www.justdial.com"
      }
    },
    {
      "type": "node",
      "id": 4447076789,
      "lat": 12.9985137,
      "lon": 77.5523235,
      "tags": {
        "addr:city": "bangalore",
        "addr:housenumber": "28",
        "addr:postcode": "560010",
        "addr:street": "12th Main, Near Navarang Theatre, Rajajinagar, Bengaluru",
        "amenity": "restaurant",
        "cuisine": "regional",
        "indoor_seating": "yes",
        "name": "Hotel Nalapaka",
        "name:kn": "ನಳಪಾಕ",
        "opening_hours": "07:30-15:30,17:00-22:30",
        "outdoor_seating": "yes",
        "phone": "080 2352 3108",
        "phone_1": "+91 9740381399"
      }
    },
    {
      "type": "node",
      "id": 4447156426,
      "lat": 12.9898003,
      "lon": 77.5500343,
      "tags": {
        "addr:city": "bangalore",
        "addr:housenumber": "5",
        "addr:postcode": "560010",
        "addr:street": "1st Stage, West Shivanahalli, Chord Road, Shivanagar, Rajaji Nagar",
        "amenity": "restaurant",
        "cuisine": "regional",
        "name": "Shree Nandini Palace",
        "opening_hours": "10:30-16:00,18:00-22:30",
        "phone": "080 2335 0055"
      }
    },
    {
      "type": "node",
      "id": 4447163944,
      "lat": 12.9878305,
      "lon": 77.5558493,
      "tags": {
        "addr:city": "Bangalore",
        "addr:housenumber": "638",
        "addr:postcode": "560010",
        "addr:street": "2nd Main, Near-Navarang Theater, Dr Rajkumar Rd, D-Block, 2nd Stage, Rajaji Nagar,",
        "amenity": "restaurant",
        "cuisine": "regional",
        "name": "Ambika Veg Restaurant",
        "opening_hours": "10:00 - 01:00",
        "phone": "080 4121 4708"
      }
    },
    {
      "type": "node",
      "id": 4448781935,
      "lat": 12.998169,
      "lon": 77.5496373,
      "tags": {
        "addr:city": "Bangalore",
        "addr:housenumber": "12",
        "addr:postcode": "560086",
        "addr:street": "1st Main Road",
        "amenity": "bank",
        "brand": "Bank of Baroda",
        "brand:wikidata": "Q2003797",
        "brand:wikipedia": "en:Vijaya Bank",
        "name": "Bank of Baroda",
        "name:kn": "ವಿಜಯ ಬ್ಯಾಂಕು",
        "phone": "+91 80 25584066"
      }
    },
    {
      "type": "node",
      "id": 4453499055,
      "lat": 12.9974074,
      "lon": 77.548344,
      "tags": {
        "shop": "stationery"
      }
    },
    {
      "type": "node",
      "id": 4453499060,
      "lat": 12.9977215,
      "lon": 77.5488179,
      "tags": {
        "name": "Patel Fancy Store",
        "shop": "stationery"
      }
    },
    {
      "type": "node",
      "id": 4453499061,
      "lat": 12.9970994,
      "lon": 77.5484588,
      "tags": {
        "shop": "hairdresser"
      }
    },
    {
      "type": "node",
      "id": 4483975441,
      "lat": 12.997569,
      "lon": 77.5505796,
      "tags": {
        "name": "Boots Bazaar",
        "shop": "shoes"
      }
    },
    {
      "type": "node",
      "id": 4484938760,
      "lat": 12.9978014,
      "lon": 77.5491399,
      "tags": {
        "amenity": "toilets"
      }
    },
    {
      "type": "node",
      "id": 4488021019,
      "lat": 12.984947,
      "lon": 77.5540532,
      "tags": {
        "addr:city": "Bangalore",
        "addr:housenumber": "179/Y",
        "addr:postcode": "560010",
        "addr:street": "Rajajinagar",
        "name": "Sweet Chariot",
        "phone": "(91)-80-23151481",
        "shop": "supermarket"
      }
    },
    {
      "type": "node",
      "id": 4488045269,
      "lat": 12.9926468,
      "lon": 77.5570803,
      "tags": {
        "addr:city": "bangalore",
        "addr:housenumber": "101",
        "addr:postcode": "560021",
        "addr:street": "7th cross, 11th Main Rd, Bhadrappa Layout, Prakash Nagar, Rajaji Nagar",
        "name": "reenix sports india pvt ltd",
        "opening_hours": "10:00-21:30",
        "phone": "+9198868 11390",
        "shop": "sports"
      }
    },
    {
      "type": "node",
      "id": 4489149510,
      "lat": 12.9982313,
      "lon": 77.5586322,
      "tags": {
        "addr:city": "bangalore",
        "addr:housenumber": "2904",
        "addr:postcode": "560021",
        "addr:street": "Mahakavi Kuvempu Rd, Bhadrappa Layout, Mariappanapalya, Rajaji Nagar",
        "name": "Bismilla Cycle Mart",
        "opening_hours": "10:00-21:30",
        "phone": "+9196862 54320",
        "shop": "sports"
      }
    },
    {
      "type": "node",
      "id": 4489837289,
      "lat": 12.9842839,
      "lon": 77.5533883,
      "tags": {
        "addr:city": "Bangalore",
        "addr:housenumber": "61st cross Rajajinagar 5th Block",
        "addr:postcode": "560010",
        "addr:street": "61st Cross Road",
        "leisure": "sports_centre",
        "name": "Golden Touch Beauty Salon & Spa",
        "opening_hours": "08:00-20:00",
        "phone": "91)-80-23124499"
      }
    },
    {
      "type": "node",
      "id": 4489849129,
      "lat": 12.9980214,
      "lon": 77.5495463,
      "tags": {
        "addr:city": "Bangalore",
        "addr:housenumber": "Sri Gururagavendra Complex, Rajajinaga",
        "addr:postcode": "560010",
        "addr:street": "Modi Hospital Main Road",
        "leisure": "sports_centre",
        "name": "Magic Feel Beauty",
        "opening_hours": "10:00-21:30",
        "phone": "91)-80-23119993"
      }
    },
    {
      "type": "node",
      "id": 4490262862,
      "lat": 12.9881831,
      "lon": 77.5534451,
      "tags": {
        "addr:city": "bangalore",
        "addr:housenumber": "No.808/14,",
        "addr:postcode": "560010",
        "addr:street": "14th Main,50th Cross, Rajajinagar 3rd Block,",
        "name": "Snippetts Unisex Salon and Spa",
        "opening_hours": "08:00-20:00",
        "phone": "91)-9900777522",
        "shop": "beauty"
      }
    },
    {
      "type": "node",
      "id": 4490265653,
      "lat": 12.998558,
      "lon": 77.5543175,
      "tags": {
        "addr:city": "bangalore",
        "addr:housenumber": "No 13,",
        "addr:postcode": "560010",
        "addr:street": "Mahakavi Kuvempu Road,D Block,2nd Stage, Rajajinagar",
        "name": "Lakme Salon",
        "name:kn": "ಲಾಕ್ಮೆ",
        "opening_hours": "10:00-20:00",
        "phone": "91 80 33051011",
        "shop": "beauty"
      }
    },
    {
      "type": "node",
      "id": 4528688849,
      "lat": 12.9978601,
      "lon": 77.5495201,
      "tags": {
        "amenity": "atm"
      }
    },
    {
      "type": "node",
      "id": 4528688850,
      "lat": 12.9981241,
      "lon": 77.5495926,
      "tags": {
        "amenity": "atm"
      }
    },
    {
      "type": "node",
      "id": 4528688851,
      "lat": 12.9974416,
      "lon": 77.550126,
      "tags": {
        "amenity": "atm",
        "brand": "State Bank of India",
        "brand:wikidata": "Q1340361",
        "name": "State Bank of India",
        "operator": "State Bank of India",
        "operator:wikidata": "Q1340361",
        "short_name": "SBI"
      }
    },
    {
      "type": "node",
      "id": 4530356087,
      "lat": 12.9889585,
      "lon": 77.555959,
      "tags": {
        "amenity": "cafe",
        "name": "Priya Tiffin Room"
      }
    },
    {
      "type": "node",
      "id": 4559831520,
      "lat": 12.9977049,
      "lon": 77.5482864,
      "tags": {
        "addr:city": "Bangalore",
        "addr:housenumber": "712",
        "addr:postcode": "560086",
        "addr:street": "Modi Hospital Main Road",
        "name": "Shree Venkateshwara Traders",
        "phone": "9036092531",
        "shop": "hardware"
      }
    },
    {
      "type": "node",
      "id": 4581424990,
      "lat": 12.9988676,
      "lon": 77.5502861,
      "tags": {
        "addr:city": "Bangalore",
        "addr:housenumber": "68",
        "addr:postcode": "560010",
        "addr:street": "Chord Road",
        "name": "Damro Furniture",
        "opening_hours": "9:30-21:00",
        "phone": "+91 80 6999 9300",
        "shop": "furniture",
        "website": "https://damroindia.com"
      }
    },
    {
      "type": "node",
      "id": 4586321862,
      "lat": 12.9974969,
      "lon": 77.5501201,
      "tags": {
        "addr:city": "Bangalore",
        "addr:housenumber": "1",
        "addr:postcode": "560010",
        "addr:street": "Modi Hospital Main Road",
        "amenity": "fast_food",
        "delivery": "yes",
        "name": "Rolls Kitchen",
        "opening_hours": "12:00-22:30",
        "outdoor_seating": "no",
        "phone": "+91 7022164745"
      }
    },
    {
      "type": "node",
      "id": 4586321863,
      "lat": 12.9978602,
      "lon": 77.5519674,
      "tags": {
        "addr:city": "Bangalore",
        "addr:housenumber": "32",
        "addr:postcode": "560010",
        "addr:street": "Mahakavi Kuvempu Road",
        "amenity": "restaurant",
        "cuisine": "regional",
        "delivery": "yes",
        "name": "Empire Plaza",
        "opening_hours": "11:00-23:00"
      }
    },
    {
      "type": "node",
      "id": 4586321864,
      "lat": 12.9984348,
      "lon": 77.5530658,
      "tags": {
        "addr:city": "Bangalore",
        "addr:housenumber": "2961",
        "addr:postcode": "560010",
        "addr:street": "Mahakavi Kuvempu Road",
        "amenity": "restaurant",
        "cuisine": "regional",
        "delivery": "yes",
        "name": "Nisarga Family Resturant",
        "opening_hours": "7:00-20:30",
        "phone": "080 23130006"
      }
    },
    {
      "type": "node",
      "id": 4596136694,
      "lat": 12.9973971,
      "lon": 77.5480936,
      "tags": {
        "brand": "Liberty",
        "brand:wikidata": "Q6541947",
        "name": "Liberty Exclusive Showroom",
        "shop": "shoes"
      }
    },
    {
      "type": "node",
      "id": 4597419989,
      "lat": 12.9966984,
      "lon": 77.5613324,
      "tags": {
        "amenity": "restaurant",
        "name": "Al-Bek",
        "name:en": "Al-Bek"
      }
    },
    {
      "type": "node",
      "id": 4597833389,
      "lat": 12.9984887,
      "lon": 77.5504219,
      "tags": {
        "addr:district": "Bengaluru Urban",
        "addr:full": "No. 408, 20Th Main, 1st Block,Opp Swathi Hotel, Woc Road, Rajajinagar",
        "addr:postcode": "560010",
        "addr:state": "Karnataka",
        "amenity": "hospital",
        "healthcare": "hospital",
        "healthcare:speciality": "orthopaedics",
        "name": "Cauvery Orthopaedic Centre",
        "source": "OpenGovernmentData"
      }
    },
    {
      "type": "node",
      "id": 4623723101,
      "lat": 12.997613,
      "lon": 77.5509423,
      "tags": {
        "addr:district": "Bengaluru Urban",
        "addr:full": "No.607/77, 1st Main, Dr.Rajkumar Road, Rajajinagar 2nd Block",
        "addr:postcode": "560021",
        "addr:state": "Karnataka",
        "amenity": "hospital",
        "healthcare": "hospital",
        "name": "Nethradhama Superspeciality Eye Hospital, Rajajinagar",
        "name:en": "Nethradhama",
        "name:kn": "ನೇತ್ರಧಾಮ",
        "source": "OpenGovernmentData"
      }
    },
    {
      "type": "node",
      "id": 4623723102,
      "lat": 12.9988689,
      "lon": 77.5556335,
      "tags": {
        "shop": "mobile_phone"
      }
    },
    {
      "type": "node",
      "id": 4716286889,
      "lat": 12.9989452,
      "lon": 77.5497945,
      "tags": {
        "amenity": "clinic",
        "healthcare": "clinic",
        "name": "Sree Clinic and Laboratory"
      }
    },
    {
      "type": "node",
      "id": 4975005036,
      "lat": 12.9977103,
      "lon": 77.5483913,
      "tags": {
        "name": "Aruna Silks",
        "shop": "clothes"
      }
    },
    {
      "type": "node",
      "id": 4975005037,
      "lat": 12.9972696,
      "lon": 77.548401,
      "tags": {
        "name": "Ram Medicals",
        "shop": "medical_supply"
      }
    },
    {
      "type": "node",
      "id": 4975005038,
      "lat": 12.9974316,
      "lon": 77.5486505,
      "tags": {
        "amenity": "atm",
        "brand": "State Bank of India",
        "brand:wikidata": "Q1340361",
        "name": "State Bank of India",
        "name:kn": "ಭಾರತೀಯ ಸ್ಟೇಟ್ ಬ್ಯಾಂಕ್",
        "operator": "State Bank of India",
        "operator:wikidata": "Q1340361",
        "short_name": "SBI"
      }
    },
    {
      "type": "node",
      "id": 4975005039,
      "lat": 12.9974264,
      "lon": 77.5485995,
      "tags": {
        "amenity": "bank",
        "atm": "yes",
        "brand": "State Bank of India",
        "brand:wikidata": "Q1340361",
        "name": "State Bank of India",
        "name:kn": "ಭಾರತೀಯ ಸ್ಟೇಟ್ ಬ್ಯಾಂಕ್",
        "short_name": "SBI"
      }
    },
    {
      "type": "node",
      "id": 4975005040,
      "lat": 12.9974496,
      "lon": 77.5487141,
      "tags": {
        "name": "Geetha Medicals",
        "shop": "medical_supply"
      }
    },
    {
      "type": "node",
      "id": 4975005041,
      "lat": 12.9974748,
      "lon": 77.5490415,
      "tags": {
        "amenity": "place_of_worship",
        "denomination": "hindu",
        "religion": "hindu"
      }
    },
    {
      "type": "node",
      "id": 4975005042,
      "lat": 12.9977093,
      "lon": 77.5495591,
      "tags": {
        "name": "New Feet Fashion",
        "shop": "shoes"
      }
    },
    {
      "type": "node",
      "id": 4975005043,
      "lat": 12.9983605,
      "lon": 77.5491093,
      "tags": {
        "amenity": "fast_food",
        "name": "Manjunath Gobi Corner"
      }
    },
    {
      "type": "node",
      "id": 5061380651,
      "lat": 12.9982067,
      "lon": 77.5499224,
      "tags": {
        "amenity": "bank",
        "brand": "United Bank of India",
        "brand:wikidata": "Q2003237",
        "name": "United Bank of India"
      }
    },
    {
      "type": "node",
      "id": 5061380652,
      "lat": 12.9977674,
      "lon": 77.5499952,
      "tags": {
        "amenity": "ice_cream",
        "name": "Cream House"
      }
    },
    {
      "type": "node",
      "id": 5061380655,
      "lat": 12.9981249,
      "lon": 77.5532794,
      "tags": {
        "amenity": "restaurant",
        "cuisine": "indian",
        "name": "Annappa's Naati Mane Hassan Style",
        "outdoor_seating": "no"
      }
    },
    {
      "type": "node",
      "id": 5061380656,
      "lat": 12.9981288,
      "lon": 77.5579299,
      "tags": {
        "amenity": "fast_food",
        "check_date": "2023-09-16",
        "name": "Sri Eshwar Fruit Juice Center"
      }
    },
    {
      "type": "node",
      "id": 5061380657,
      "lat": 12.996421,
      "lon": 77.5630308,
      "tags": {
        "name": "Kerala Jewels",
        "shop": "jewelry"
      }
    },
    {
      "type": "node",
      "id": 5076791290,
      "lat": 12.9977034,
      "lon": 77.5486648,
      "tags": {
        "name": "Navkar Jewels and Diamonds",
        "phone": "80-23190002",
        "shop": "jewelry"
      }
    },
    {
      "type": "node",
      "id": 5076791291,
      "lat": 12.997702,
      "lon": 77.5485734,
      "tags": {
        "name": "Grand Bell Dry Cleaner",
        "phone": "9900901141",
        "shop": "dry_cleaning"
      }
    },
    {
      "type": "node",
      "id": 5076861312,
      "lat": 12.9974378,
      "lon": 77.5497693,
      "tags": {
        "brand": "Liberty",
        "brand:wikidata": "Q6541947",
        "name": "Liberty Exclusive Showroom",
        "shop": "shoes"
      }
    },
    {
      "type": "node",
      "id": 5091022367,
      "lat": 12.9974809,
      "lon": 77.5498277,
      "tags": {
        "name": "Prakash Electronics",
        "shop": "electronics"
      }
    },
    {
      "type": "node",
      "id": 5091022372,
      "lat": 12.9995779,
      "lon": 77.5501734,
      "tags": {
        "name": "IFB Point",
        "shop": "appliance"
      }
    },
    {
      "type": "node",
      "id": 5091022373,
      "lat": 12.9977114,
      "lon": 77.5497952,
      "tags": {
        "name": "Bharathi Garments",
        "shop": "clothes"
      }
    },
    {
      "type": "node",
      "id": 5091022374,
      "lat": 12.997704,
      "lon": 77.5494434,
      "tags": {
        "amenity": "fast_food",
        "name": "Nandini Grand"
      }
    },
    {
      "type": "node",
      "id": 5157373777,
      "lat": 12.9974787,
      "lon": 77.5492772,
      "tags": {
        "name": "Khalandar Mutton Stall",
        "shop": "butcher"
      }
    },
    {
      "type": "node",
      "id": 5157373778,
      "lat": 12.9933689,
      "lon": 77.5528214,
      "tags": {
        "amenity": "college",
        "name": "Government First Grade College"
      }
    },
    {
      "type": "node",
      "id": 5157373803,
      "lat": 12.9899364,
      "lon": 77.5528432,
      "tags": {
        "amenity": "pharmacy",
        "healthcare": "pharmacy",
        "name": "Kasturi Pharma and General Stores"
      }
    },
    {
      "type": "node",
      "id": 5157373805,
      "lat": 12.9873914,
      "lon": 77.5544089,
      "tags": {
        "name": "Vishwas Jewels (P) Ltd.",
        "shop": "jewelry"
      }
    },
    {
      "type": "node",
      "id": 5157373806,
      "lat": 12.987399,
      "lon": 77.5560805,
      "tags": {
        "name": "Prakash Medicals",
        "shop": "medical_supply"
      }
    },
    {
      "type": "node",
      "id": 5157373807,
      "lat": 12.9849537,
      "lon": 77.5569222,
      "tags": {
        "addr:district": "Bengaluru Urban",
        "addr:full": "6/63, 59Th Cross, 4Th Block, Rajajinagar Entrance, Mei Polytechnic, Rajajinagar",
        "addr:postcode": "560010",
        "addr:state": "Karnataka",
        "alt_name": "Altius Cancer Center",
        "amenity": "hospital",
        "healthcare": "hospital",
        "name": "Altius Hospital",
        "source": "OpenGovernmentData"
      }
    },
    {
      "type": "node",
      "id": 5175027874,
      "lat": 12.9973521,
      "lon": 77.5501349,
      "tags": {
        "name": "Mahaveer Hardware",
        "shop": "hardware"
      }
    },
    {
      "type": "node",
      "id": 5175027875,
      "lat": 12.9977279,
      "lon": 77.5514466,
      "tags": {
        "name": "7 Colors",
        "shop": "clothes"
      }
    },
    {
      "type": "node",
      "id": 5175027876,
      "lat": 12.9977954,
      "lon": 77.5516928,
      "tags": {
        "brand": "Vivo",
        "brand:wikidata": "Q18301787",
        "brand:wikipedia": "en:Vivo (technology company)",
        "name": "Vivo",
        "shop": "mobile_phone"
      }
    },
    {
      "type": "node",
      "id": 5175027877,
      "lat": 12.9979084,
      "lon": 77.5521686,
      "tags": {
        "amenity": "atm",
        "brand": "HDFC Bank",
        "brand:wikidata": "Q631047",
        "name": "HDFC Bank",
        "operator": "HDFC Bank",
        "operator:wikidata": "Q631047",
        "short_name": "HDFC"
      }
    },
    {
      "type": "node",
      "id": 5175027878,
      "lat": 12.998422,
      "lon": 77.5532934,
      "tags": {
        "name": "Sangeetha",
        "shop": "electronics"
      }
    },
    {
      "type": "node",
      "id": 5175027879,
      "lat": 12.9981821,
      "lon": 77.5535026,
      "tags": {
        "name": "Titan",
        "shop": "watches"
      }
    },
    {
      "type": "node",
      "id": 5175027880,
      "lat": 12.9985641,
      "lon": 77.5552753,
      "tags": {
        "amenity": "atm",
        "brand": "Axis Bank",
        "brand:wikidata": "Q2003549",
        "name": "Axis Bank",
        "name:kn": "ಆಕ್ಸಿಸ್ ಬ್ಯಾಂಕ್",
        "operator": "Axis Bank",
        "operator:wikidata": "Q2003549"
      }
    },
    {
      "type": "node",
      "id": 5175027881,
      "lat": 12.9984849,
      "lon": 77.5554044,
      "tags": {
        "amenity": "atm",
        "brand": "ICICI Bank",
        "brand:wikidata": "Q1653258",
        "name": "ICICI Bank",
        "operator": "ICICI Bank",
        "operator:wikidata": "Q1653258",
        "short_name": "ICICI"
      }
    },
    {
      "type": "node",
      "id": 5175027882,
      "lat": 12.9982334,
      "lon": 77.557495,
      "tags": {
        "name": "HP World",
        "shop": "electronics"
      }
    },
    {
      "type": "node",
      "id": 5175027883,
      "lat": 12.9969598,
      "lon": 77.5613556,
      "tags": {
        "name": "Tan Shoes",
        "shop": "shoes"
      }
    },
    {
      "type": "node",
      "id": 5227398203,
      "lat": 12.997507,
      "lon": 77.5500266,
      "tags": {
        "amenity": "restaurant",
        "name": "Santhosh Bar & Restaurant"
      }
    },
    {
      "type": "node",
      "id": 5227399587,
      "lat": 12.9979227,
      "lon": 77.5522341,
      "tags": {
        "amenity": "restaurant",
        "name": "Hotel Nalapaka",
        "name:kn": "ನಳಪಾಕ"
      }
    },
    {
      "type": "node",
      "id": 5227399588,
      "lat": 12.9982738,
      "lon": 77.5526311,
      "tags": {
        "amenity": "clinic",
        "healthcare": "clinic",
        "name": "Dr. Shetty's Cosmetic Centre"
      }
    },
    {
      "type": "node",
      "id": 5227399589,
      "lat": 12.9983619,
      "lon": 77.5528438,
      "tags": {
        "amenity": "fast_food",
        "check_date": "2024-08-11",
        "name": "Al Ambur Dum Biryani"
      }
    },
    {
      "type": "node",
      "id": 5227399590,
      "lat": 12.9983443,
      "lon": 77.5530904,
      "tags": {
        "amenity": "fast_food",
        "name": "Gopal's Pure Veg and Sweets"
      }
    },
    {
      "type": "node",
      "id": 5227399591,
      "lat": 12.9981658,
      "lon": 77.5533488,
      "tags": {
        "name": "SRN Gems & Jewellery Works",
        "shop": "jewelry"
      }
    },
    {
      "type": "node",
      "id": 5227399592,
      "lat": 12.9981764,
      "lon": 77.5534478,
      "tags": {
        "name": "Ideal Decor",
        "shop": "furniture"
      }
    },
    {
      "type": "node",
      "id": 5227399593,
      "lat": 12.9981822,
      "lon": 77.5534003,
      "tags": {
        "name": "Nisarga Holidays",
        "shop": "travel_agency"
      }
    },
    {
      "type": "node",
      "id": 5227399594,
      "lat": 12.9985671,
      "lon": 77.5553891,
      "tags": {
        "name": "Sri Ganesha Stationeries",
        "shop": "stationery"
      }
    },
    {
      "type": "node",
      "id": 5227399595,
      "lat": 12.9987696,
      "lon": 77.5561682,
      "tags": {
        "name": "Shiva Vision Care",
        "shop": "optician"
      }
    },
    {
      "type": "node",
      "id": 5227399596,
      "lat": 12.9969929,
      "lon": 77.5613395,
      "tags": {
        "amenity": "fast_food",
        "name": "Malgudi's Donne Biryani"
      }
    },
    {
      "type": "node",
      "id": 5227399597,
      "lat": 12.9967846,
      "lon": 77.5626479,
      "tags": {
        "amenity": "bank",
        "atm": "yes",
        "brand": "Karnataka Bank",
        "brand:wikidata": "Q2042632",
        "name": "Karnataka Bank",
        "name:kn": "ಕರ್ನಾಟಕ ಬ್ಯಾಂಕ್"
      }
    },
    {
      "type": "node",
      "id": 5227399598,
      "lat": 12.9961831,
      "lon": 77.5642198,
      "tags": {
        "name": "Queen's Studio",
        "shop": "photo"
      }
    },
    {
      "type": "node",
      "id": 5227399599,
      "lat": 12.9961741,
      "lon": 77.5643288,
      "tags": {
        "name": "Variety Footware",
        "shop": "shoes"
      }
    },
    {
      "type": "node",
      "id": 5232581129,
      "lat": 12.9971748,
      "lon": 77.5483724,
      "tags": {
        "name": "Saanvi Rice Traders",
        "shop": "yes"
      }
    },
    {
      "type": "node",
      "id": 5232581130,
      "lat": 12.9974492,
      "lon": 77.5488565,
      "tags": {
        "amenity": "fast_food",
        "name": "Sree Ganesh Fruit Juice Center"
      }
    },
    {
      "type": "node",
      "id": 5265572204,
      "lat": 12.996966,
      "lon": 77.5523974,
      "tags": {
        "amenity": "bank",
        "name": "HDFC Securities"
      }
    },
    {
      "type": "node",
      "id": 5274915541,
      "lat": 12.9978121,
      "lon": 77.5505122,
      "tags": {
        "amenity": "fast_food",
        "brand": "Indira Canteen",
        "brand:wikidata": "Q36164828",
        "cuisine": "south_indian",
        "delivery": "no",
        "drive_through": "no",
        "name": "Indira Canteen",
        "operator": "BBMP",
        "takeaway": "no"
      }
    },
    {
      "type": "node",
      "id": 5277355067,
      "lat": 12.9971501,
      "lon": 77.5484803,
      "tags": {
        "amenity": "atm",
        "brand": "Corporation Bank",
        "brand:wikidata": "Q2003387",
        "name": "Corporation Bank",
        "name:kn": "ಕಾರ್ಪರೇಷನ್ ಬ್ಯಾಂಕ್",
        "operator": "Corporation Bank",
        "operator:wikidata": "Q2003387"
      }
    },
    {
      "type": "node",
      "id": 5277355068,
      "lat": 12.9973648,
      "lon": 77.5483946,
      "tags": {
        "amenity": "ice_cream",
        "name": "Arun Ice Creams"
      }
    },
    {
      "type": "node",
      "id": 5277355069,
      "lat": 12.9978198,
      "lon": 77.5488214,
      "tags": {
        "name": "Sri Ranga Silks",
        "shop": "clothes"
      }
    },
    {
      "type": "node",
      "id": 5277355070,
      "lat": 12.997882,
      "lon": 77.5488237,
      "tags": {
        "name": "Marshall Tours n Travels",
        "shop": "travel_agency"
      }
    },
    {
      "type": "node",
      "id": 5277355071,
      "lat": 12.9977063,
      "lon": 77.5486255,
      "tags": {
        "craft": "watchmaker",
        "name": "Timex",
        "shop": "watches"
      }
    },
    {
      "type": "node",
      "id": 5277355072,
      "lat": 12.9974567,
      "lon": 77.5489079,
      "tags": {
        "shop": "tailor"
      }
    },
    {
      "type": "node",
      "id": 5277355077,
      "lat": 12.9982228,
      "lon": 77.5491431,
      "tags": {
        "shop": "dairy"
      }
    },
    {
      "type": "node",
      "id": 5402224029,
      "lat": 12.9985202,
      "lon": 77.5527956,
      "tags": {
        "amenity": "dentist",
        "healthcare": "dentist"
      }
    },
    {
      "type": "node",
      "id": 5402224030,
      "lat": 12.9953339,
      "lon": 77.5550415,
      "tags": {
        "name": "Karnataka Furniture",
        "shop": "furniture"
      }
    },
    {
      "type": "node",
      "id": 5402224031,
      "lat": 12.9871073,
      "lon": 77.5598186,
      "tags": {
        "brand": "Yamaha",
        "brand:wikidata": "Q158888",
        "name": "Yamaha",
        "shop": "motorcycle"
      }
    },
    {
      "type": "node",
      "id": 5402302822,
      "lat": 12.9910874,
      "lon": 77.5580951,
      "tags": {
        "shop": "motorcycle"
      }
    },
    {
      "type": "node",
      "id": 5402307921,
      "lat": 12.9889292,
      "lon": 77.5593177,
      "tags": {
        "amenity": "toilets"
      }
    },
    {
      "type": "node",
      "id": 5402307933,
      "lat": 12.9986872,
      "lon": 77.5531093,
      "tags": {
        "amenity": "place_of_worship",
        "religion": "hindu"
      }
    },
    {
      "type": "node",
      "id": 5402307934,
      "lat": 12.9924016,
      "lon": 77.5571593,
      "tags": {
        "shop": "motorcycle"
      }
    },
    {
      "type": "node",
      "id": 5611358756,
      "lat": 12.9970708,
      "lon": 77.5484424,
      "tags": {
        "name": "Tanishka Xerox Centre",
        "service:print": "yes",
        "shop": "copyshop"
      }
    },
    {
      "type": "node",
      "id": 5611358757,
      "lat": 12.9976787,
      "lon": 77.5493004,
      "tags": {
        "addr:city": "Bangalore",
        "addr:housenumber": "27",
        "addr:postcode": "560086",
        "addr:street": "Modi Hospital Main Road",
        "brand": "Jockey",
        "brand:wikidata": "Q534235",
        "brand:wikipedia": "en:Jockey International",
        "email": "jockey.B60@pageind.com",
        "name": "Jockey",
        "phone": "+918043006571",
        "shop": "clothes",
        "website": "https://www.jockeyindia.com"
      }
    },
    {
      "type": "node",
      "id": 5623433261,
      "lat": 12.9864932,
      "lon": 77.5558162,
      "tags": {
        "amenity": "pharmacy",
        "brand": "Apollo Pharmacy",
        "brand:wikidata": "Q62562612",
        "healthcare": "pharmacy",
        "name": "Apollo Pharmacy",
        "name:kn": "ಅಪೊಲೋ ಫಾರ್ಮಸಿ"
      }
    },
    {
      "type": "node",
      "id": 5623433262,
      "lat": 12.9863494,
      "lon": 77.5558101,
      "tags": {
        "name": "KAP Stationery",
        "shop": "stationery"
      }
    },
    {
      "type": "node",
      "id": 5623433263,
      "lat": 12.9863207,
      "lon": 77.5558088,
      "tags": {
        "name": "Sri Vasavi Gram Gold",
        "shop": "jewelry"
      }
    },
    {
      "type": "node",
      "id": 5623433264,
      "lat": 12.986288,
      "lon": 77.5558088,
      "tags": {
        "amenity": "atm",
        "brand": "State Bank of India",
        "brand:wikidata": "Q1340361",
        "name": "State Bank of India",
        "operator": "State Bank of India",
        "operator:wikidata": "Q1340361",
        "short_name": "SBI"
      }
    },
    {
      "type": "node",
      "id": 5623433265,
      "lat": 12.9861567,
      "lon": 77.5557927,
      "tags": {
        "amenity": "fast_food",
        "cuisine": "regional",
        "name": "Sri Venkateshwara Utsav"
      }
    },
    {
      "type": "node",
      "id": 5623433266,
      "lat": 12.9860253,
      "lon": 77.55579,
      "tags": {
        "name": "Sri Shiva Sai Agencies",
        "shop": "bed"
      }
    },
    {
      "type": "node",
      "id": 5623433267,
      "lat": 12.9860005,
      "lon": 77.5557914,
      "tags": {
        "name": "Sindhu Swadeshi Distribution Centre",
        "shop": "stationery"
      }
    },
    {
      "type": "node",
      "id": 5623433268,
      "lat": 12.9858992,
      "lon": 77.5557672,
      "tags": {
        "name": "Krishna Traders",
        "shop": "hardware"
      }
    },
    {
      "type": "node",
      "id": 5623433269,
      "lat": 12.9858665,
      "lon": 77.5557679,
      "tags": {
        "shop": "copyshop"
      }
    },
    {
      "type": "node",
      "id": 5623433270,
      "lat": 12.9858371,
      "lon": 77.5557672,
      "tags": {
        "name": "Manasa Enterprises",
        "shop": "clothes"
      }
    },
    {
      "type": "node",
      "id": 5623433272,
      "lat": 12.9855196,
      "lon": 77.5556874,
      "tags": {
        "name": "Shri Lakshmi Jewellery Works",
        "shop": "jewelry"
      }
    },
    {
      "type": "node",
      "id": 5623433275,
      "lat": 12.985206,
      "lon": 77.5557887,
      "tags": {
        "amenity": "clinic",
        "name": "Shri Kaushika Dental Clinic"
      }
    },
    {
      "type": "node",
      "id": 5623433276,
      "lat": 12.9848766,
      "lon": 77.5559878,
      "tags": {
        "amenity": "college",
        "name": "Rajajinagar PU Degree College"
      }
    },
    {
      "type": "node",
      "id": 5623550267,
      "lat": 12.9877647,
      "lon": 77.5558484,
      "tags": {
        "name": "V. G. Provision Store",
        "shop": "convenience"
      }
    },
    {
      "type": "node",
      "id": 5623550268,
      "lat": 12.9877078,
      "lon": 77.5558591,
      "tags": {
        "amenity": "bank",
        "atm": "yes",
        "brand": "Canara Bank",
        "brand:en": "Canara Bank",
        "brand:hi": "केनरा बैंक",
        "brand:kn": "ಕೆನರಾ ಬ್ಯಾಂಕ್",
        "brand:pa": "ਕੇਨਰਾ ਬੈਂਕ",
        "brand:pnb": "کینرا بینک",
        "brand:ur": "کینرا بینک",
        "brand:wikidata": "Q2003777",
        "brand:wikipedia": "en:Canara Bank",
        "brand:wikipedia:pa": "ਕੇਨਰਾ ਬੈਂਕ",
        "name": "Canara Bank",
        "name:en": "Canara Bank",
        "name:hi": "केनरा बैंक",
        "name:kn": "ಕೆನರಾ ಬ್ಯಾಂಕ್",
        "name:pa": "ਕੇਨਰਾ ਬੈਂਕ",
        "name:pnb": "کینرا بینک",
        "name:ur": "کینرا بینک"
      }
    },
    {
      "type": "node",
      "id": 5623550269,
      "lat": 12.9876052,
      "lon": 77.5558577,
      "tags": {
        "amenity": "atm",
        "brand": "Canara Bank",
        "brand:en": "Canara Bank",
        "brand:hi": "केनरा बैंक",
        "brand:kn": "ಕೆನರಾ ಬ್ಯಾಂಕ್",
        "brand:pa": "ਕੇਨਰਾ ਬੈਂਕ",
        "brand:pnb": "کینرا بینک",
        "brand:ur": "کینرا بینک",
        "brand:wikidata": "Q2003777",
        "name": "Canara Bank",
        "name:en": "Canara Bank",
        "name:hi": "केनरा बैंक",
        "name:kn": "ಕೆನರಾ ಬ್ಯಾಂಕ್",
        "name:pa": "ਕੇਨਰਾ ਬੈਂਕ",
        "name:pnb": "کینرا بینک",
        "name:ur": "کینرا بینک",
        "operator": "Canara Bank",
        "operator:wikidata": "Q2003777"
      }
    },
    {
      "type": "node",
      "id": 5623550270,
      "lat": 12.9873452,
      "lon": 77.5558457,
      "tags": {
        "name": "Naveenraj Fruits Stall",
        "shop": "greengrocer"
      }
    },
    {
      "type": "node",
      "id": 5623550273,
      "lat": 12.9872184,
      "lon": 77.555841,
      "tags": {
        "name": "Himalaya Provision Store",
        "note": "Dry Fruits, Kirana & General Merchants",
        "shop": "convenience"
      }
    },
    {
      "type": "node",
      "id": 5623550274,
      "lat": 12.9871929,
      "lon": 77.5558383,
      "tags": {
        "name": "LJB Bakery",
        "shop": "bakery"
      }
    },
    {
      "type": "node",
      "id": 5623550275,
      "lat": 12.9870838,
      "lon": 77.5558457,
      "tags": {
        "shop": "greengrocer"
      }
    },
    {
      "type": "node",
      "id": 5623550276,
      "lat": 12.9870453,
      "lon": 77.5558383,
      "tags": {
        "name": "Samsung - Seema Enterprises",
        "shop": "electronics"
      }
    },
    {
      "type": "node",
      "id": 5623550277,
      "lat": 12.9870178,
      "lon": 77.5558417,
      "tags": {
        "shop": "greengrocer"
      }
    },
    {
      "type": "node",
      "id": 5623550279,
      "lat": 12.9867356,
      "lon": 77.5558403,
      "tags": {
        "name": "Jagger Tailors",
        "shop": "tailor"
      }
    },
    {
      "type": "node",
      "id": 5623550280,
      "lat": 12.9867094,
      "lon": 77.5558383,
      "tags": {
        "name": "Madhok Ladies Tailors",
        "shop": "tailor"
      }
    },
    {
      "type": "node",
      "id": 5623550281,
      "lat": 12.9866689,
      "lon": 77.5558296,
      "tags": {
        "name": "Bijapur Stores",
        "shop": "greengrocer"
      }
    },
    {
      "type": "node",
      "id": 5623550282,
      "lat": 12.9866447,
      "lon": 77.5558249,
      "tags": {
        "name": "Blue Bird Dry Cleaners",
        "shop": "dry_cleaning"
      }
    },
    {
      "type": "node",
      "id": 5623550283,
      "lat": 12.9865814,
      "lon": 77.5558215,
      "tags": {
        "amenity": "ice_cream",
        "name": "Himadri Ice Creams"
      }
    },
    {
      "type": "node",
      "id": 5624262705,
      "lat": 12.9898647,
      "lon": 77.5545636,
      "tags": {
        "name": "Sri Sai Fashion",
        "shop": "clothes"
      }
    },
    {
      "type": "node",
      "id": 5624262706,
      "lat": 12.9898621,
      "lon": 77.5546219,
      "tags": {
        "amenity": "atm",
        "brand": "indicash"
      }
    },
    {
      "type": "node",
      "id": 5624262707,
      "lat": 12.9898477,
      "lon": 77.5551537,
      "tags": {
        "name": "Aadinath Medicals",
        "shop": "medical_supply"
      }
    },
    {
      "type": "node",
      "id": 5624262708,
      "lat": 12.9898516,
      "lon": 77.5551738,
      "tags": {
        "amenity": "atm",
        "brand": "HDFC Bank",
        "brand:wikidata": "Q631047",
        "name": "HDFC Bank",
        "operator": "HDFC Bank",
        "operator:wikidata": "Q631047",
        "short_name": "HDFC"
      }
    },
    {
      "type": "node",
      "id": 5624262709,
      "lat": 12.9898484,
      "lon": 77.5553153,
      "tags": {
        "name": "Graduate Textiles & Tailors",
        "shop": "tailor"
      }
    },
    {
      "type": "node",
      "id": 5624262710,
      "lat": 12.9898418,
      "lon": 77.5553763,
      "tags": {
        "amenity": "atm",
        "brand": "Union Bank"
      }
    },
    {
      "type": "node",
      "id": 5624262711,
      "lat": 12.9898399,
      "lon": 77.5554641,
      "tags": {
        "amenity": "dentist",
        "healthcare": "dentist",
        "name": "Magi Orthodontic Dental Care Centre"
      }
    },
    {
      "type": "node",
      "id": 5624262712,
      "lat": 12.9898562,
      "lon": 77.5555627,
      "tags": {
        "name": "Shri Thrupti Real Estate",
        "shop": "copyshop"
      }
    },
    {
      "type": "node",
      "id": 5624262713,
      "lat": 12.9898575,
      "lon": 77.5556009,
      "tags": {
        "name": "Bombay Modern Tailors",
        "shop": "tailor"
      }
    },
    {
      "type": "node",
      "id": 5624262714,
      "lat": 12.9898562,
      "lon": 77.5556318,
      "tags": {
        "name": "Singer Showroom",
        "note": "Sewing Machine, Home Appliances",
        "shop": "houseware"
      }
    },
    {
      "type": "node",
      "id": 5624262715,
      "lat": 12.9898418,
      "lon": 77.555723,
      "tags": {
        "amenity": "clinic",
        "healthcare": "clinic",
        "name": "Deepashri Clinical Laboratory"
      }
    },
    {
      "type": "node",
      "id": 5624262716,
      "lat": 12.989817,
      "lon": 77.5558289,
      "tags": {
        "name": "N Rich Fashions",
        "shop": "clothes"
      }
    },
    {
      "type": "node",
      "id": 5624262717,
      "lat": 12.9896759,
      "lon": 77.5559161,
      "tags": {
        "name": "Just Bake",
        "name:kn": "ಜಸ್ಟ್ ಬೇಕ್",
        "shop": "bakery"
      }
    },
    {
      "type": "node",
      "id": 5624262718,
      "lat": 12.9895772,
      "lon": 77.5559134,
      "tags": {
        "name": "Party N Toys Zone",
        "shop": "toys"
      }
    },
    {
      "type": "node",
      "id": 5624262719,
      "lat": 12.9895269,
      "lon": 77.5559134,
      "tags": {
        "name": "The Mobile Track",
        "shop": "mobile_phone"
      }
    },
    {
      "type": "node",
      "id": 5624262720,
      "lat": 12.9885991,
      "lon": 77.555898,
      "tags": {
        "amenity": "atm",
        "name": "NKGSB Bank"
      }
    },
    {
      "type": "node",
      "id": 5624263021,
      "lat": 12.9887846,
      "lon": 77.555898,
      "tags": {
        "note": "name unknown",
        "shop": "supermarket"
      }
    },
    {
      "type": "node",
      "id": 5624263022,
      "lat": 12.9886337,
      "lon": 77.5558993,
      "tags": {
        "amenity": "bank",
        "atm": "yes",
        "name": "NKGSB Bank"
      }
    },
    {
      "type": "node",
      "id": 5624263023,
      "lat": 12.9885435,
      "lon": 77.5558846,
      "tags": {
        "name": "One Touch",
        "shop": "electronics"
      }
    },
    {
      "type": "node",
      "id": 5624263024,
      "lat": 12.9885148,
      "lon": 77.5558839,
      "tags": {
        "name": "Pradhan Jewels & Diamonds",
        "shop": "jewelry"
      }
    },
    {
      "type": "node",
      "id": 5624263025,
      "lat": 12.9884716,
      "lon": 77.5558826,
      "tags": {
        "shop": "copyshop"
      }
    },
    {
      "type": "node",
      "id": 5624263026,
      "lat": 12.9884632,
      "lon": 77.5557008,
      "tags": {
        "name": "GP Footwear",
        "shop": "shoes"
      }
    },
    {
      "type": "node",
      "id": 5624263027,
      "lat": 12.9882482,
      "lon": 77.5558591,
      "tags": {
        "name": "Sharada Hearing Centre",
        "shop": "hearing_aids"
      }
    },
    {
      "type": "node",
      "id": 5624263028,
      "lat": 12.9882162,
      "lon": 77.5558598,
      "tags": {
        "name": "Sudha Book House",
        "shop": "books"
      }
    },
    {
      "type": "node",
      "id": 5624263029,
      "lat": 12.988128,
      "lon": 77.5558463,
      "tags": {
        "name": "Sri Sai Cake Palace",
        "shop": "bakery"
      }
    },
    {
      "type": "node",
      "id": 5624263030,
      "lat": 12.9880953,
      "lon": 77.5558457,
      "tags": {
        "name": "S. K. Fashions",
        "shop": "clothes"
      }
    },
    {
      "type": "node",
      "id": 5624263031,
      "lat": 12.9880221,
      "lon": 77.5558457,
      "tags": {
        "amenity": "pharmacy",
        "name": "Sree Prabhu Medical Centre"
      }
    },
    {
      "type": "node",
      "id": 5922659263,
      "lat": 12.9971721,
      "lon": 77.5501728,
      "tags": {
        "shop": "yes"
      }
    },
    {
      "type": "node",
      "id": 5922659264,
      "lat": 12.9970049,
      "lon": 77.550213,
      "tags": {
        "amenity": "atm",
        "brand": "ICICI Bank",
        "brand:wikidata": "Q1653258",
        "name": "ICICI Bank",
        "operator": "ICICI Bank",
        "operator:wikidata": "Q1653258",
        "short_name": "ICICI"
      }
    },
    {
      "type": "node",
      "id": 5922659265,
      "lat": 12.9969748,
      "lon": 77.5502077,
      "tags": {
        "amenity": "atm",
        "brand": "Axis Bank",
        "brand:wikidata": "Q2003549",
        "name": "Axis Bank",
        "name:kn": "ಆಕ್ಸಿಸ್ ಬ್ಯಾಂಕ್",
        "operator": "Axis Bank",
        "operator:wikidata": "Q2003549"
      }
    },
    {
      "type": "node",
      "id": 5922659271,
      "lat": 12.994309,
      "lon": 77.5508192,
      "tags": {
        "name": "Rostar Mottan Stall",
        "note": "spelled as Mottan on board",
        "shop": "butcher"
      }
    },
    {
      "type": "node",
      "id": 5922659273,
      "lat": 12.9934544,
      "lon": 77.5508621,
      "tags": {
        "name": "The Ancient Buddha",
        "note": "Healthcare and Spa",
        "shop": "yes"
      }
    },
    {
      "type": "node",
      "id": 5922659275,
      "lat": 12.9928703,
      "lon": 77.550834,
      "tags": {
        "amenity": "fast_food",
        "cuisine": "regional",
        "name": "Hotel Park Inn"
      }
    },
    {
      "type": "node",
      "id": 5922659276,
      "lat": 12.9928193,
      "lon": 77.5508326,
      "tags": {
        "name": "Srinidhi Wines",
        "shop": "wine"
      }
    },
    {
      "type": "node",
      "id": 5922659277,
      "lat": 12.9921267,
      "lon": 77.5507937,
      "tags": {
        "brand": "Hyundai",
        "brand:wikidata": "Q55931",
        "name": "Trident Hyundai",
        "shop": "car"
      }
    },
    {
      "type": "node",
      "id": 5922659278,
      "lat": 12.9914563,
      "lon": 77.550787,
      "tags": {
        "amenity": "community_centre",
        "name": "Sri Channakeshava Kalyana Mantapa"
      }
    },
    {
      "type": "node",
      "id": 5922659279,
      "lat": 12.9913348,
      "lon": 77.5507951,
      "tags": {
        "amenity": "college",
        "name": "Hindi Shikshak Training College"
      }
    },
    {
      "type": "node",
      "id": 5922659280,
      "lat": 12.9911127,
      "lon": 77.5507508,
      "tags": {
        "name": "Sun Car Decore",
        "shop": "car_parts"
      }
    },
    {
      "type": "node",
      "id": 5922659281,
      "lat": 12.9909964,
      "lon": 77.5507374,
      "tags": {
        "name": "Bharath Car Fitting",
        "shop": "car_repair"
      }
    },
    {
      "type": "node",
      "id": 5922659282,
      "lat": 12.9910238,
      "lon": 77.5505564,
      "tags": {
        "amenity": "atm",
        "brand": "ICICI Bank",
        "brand:wikidata": "Q1653258",
        "operator": "ICICI Bank",
        "operator:wikidata": "Q1653258",
        "short_name": "ICICI"
      }
    },
    {
      "type": "node",
      "id": 5922660388,
      "lat": 12.9898921,
      "lon": 77.5536704,
      "tags": {
        "amenity": "dentist",
        "healthcare": "dentist",
        "name": "Ohan's Dental Care"
      }
    },
    {
      "type": "node",
      "id": 5922660389,
      "lat": 12.9899039,
      "lon": 77.5535725,
      "tags": {
        "name": "V. R. Opticians",
        "shop": "optician"
      }
    },
    {
      "type": "node",
      "id": 5922660390,
      "lat": 12.9899111,
      "lon": 77.5535088,
      "tags": {
        "name": "Annapoorneshwari Cars",
        "shop": "car"
      }
    },
    {
      "type": "node",
      "id": 5922660392,
      "lat": 12.9899111,
      "lon": 77.5532211,
      "tags": {
        "amenity": "restaurant",
        "cuisine": "regional",
        "name": "Sri Durga Grand Veg"
      }
    },
    {
      "type": "node",
      "id": 5922660393,
      "lat": 12.9899104,
      "lon": 77.5531138,
      "tags": {
        "amenity": "pharmacy",
        "name": "Seetha Medicals & General Store"
      }
    },
    {
      "type": "node",
      "id": 5922660394,
      "lat": 12.9899287,
      "lon": 77.5528993,
      "tags": {
        "amenity": "bank",
        "atm": "yes",
        "brand": "Axis Bank",
        "brand:wikidata": "Q2003549",
        "name": "Axis Bank",
        "name:kn": "ಆಕ್ಸಿಸ್ ಬ್ಯಾಂಕ್"
      }
    },
    {
      "type": "node",
      "id": 5922660395,
      "lat": 12.9899349,
      "lon": 77.5527977,
      "tags": {
        "amenity": "fast_food",
        "cuisine": "regional",
        "name": "Hotel Kaveri",
        "name:kn": "ಹೊಟೆಲ್ ಕಾವೇರಿ"
      }
    },
    {
      "type": "node",
      "id": 6017490877,
      "lat": 12.998341,
      "lon": 77.5488936,
      "tags": {
        "amenity": "bench",
        "backrest": "no",
        "material": "stone",
        "seats": "2"
      }
    },
    {
      "type": "node",
      "id": 6017490878,
      "lat": 12.9983365,
      "lon": 77.5488747,
      "tags": {
        "amenity": "bench",
        "backrest": "no",
        "material": "stone",
        "seats": "2"
      }
    },
    {
      "type": "node",
      "id": 6017490879,
      "lat": 12.9983307,
      "lon": 77.5488551,
      "tags": {
        "amenity": "bench",
        "seats": "2"
      }
    },
    {
      "type": "node",
      "id": 6017490880,
      "lat": 12.998326,
      "lon": 77.5488359,
      "tags": {
        "amenity": "bench",
        "seats": "2"
      }
    },
    {
      "type": "node",
      "id": 6017490881,
      "lat": 12.9983224,
      "lon": 77.548819,
      "tags": {
        "amenity": "bench",
        "backrest": "no",
        "material": "stone",
        "seats": "2"
      }
    },
    {
      "type": "node",
      "id": 6108140989,
      "lat": 12.997195,
      "lon": 77.5603577,
      "tags": {
        "access": "yes",
        "amenity": "toilets",
        "fee": "yes"
      }
    },
    {
      "type": "node",
      "id": 6464656295,
      "lat": 12.9874542,
      "lon": 77.5495752,
      "tags": {
        "name": "J.P. Lights and Appliances",
        "shop": "electronics"
      }
    },
    {
      "type": "node",
      "id": 6464656296,
      "lat": 12.9873587,
      "lon": 77.5495564,
      "tags": {
        "amenity": "fast_food",
        "name": "Nala's Kitchen"
      }
    },
    {
      "type": "node",
      "id": 6487165551,
      "lat": 12.9904646,
      "lon": 77.5505346,
      "tags": {
        "amenity": "restaurant",
        "cuisine": "indian",
        "name": "Udupi Upachar"
      }
    },
    {
      "type": "node",
      "id": 6487165552,
      "lat": 12.9954423,
      "lon": 77.5504727,
      "tags": {
        "name": "True Cars",
        "shop": "car"
      }
    },
    {
      "type": "node",
      "id": 6508610153,
      "lat": 12.9974487,
      "lon": 77.5487521,
      "tags": {
        "name": "Sri Sai Mementos and Trophies",
        "shop": "interior_decoration"
      }
    },
    {
      "type": "node",
      "id": 6508610154,
      "lat": 12.9974496,
      "lon": 77.5487807,
      "tags": {
        "name": "Vivek Steel Furnitures",
        "shop": "furniture"
      }
    },
    {
      "type": "node",
      "id": 6508610155,
      "lat": 12.9983548,
      "lon": 77.5489481,
      "tags": {
        "amenity": "bench",
        "backrest": "no",
        "material": "stone",
        "seats": "2"
      }
    },
    {
      "type": "node",
      "id": 6508610156,
      "lat": 12.9983497,
      "lon": 77.5489277,
      "tags": {
        "amenity": "bench",
        "backrest": "no",
        "material": "stone",
        "seats": "2"
      }
    },
    {
      "type": "node",
      "id": 6508610157,
      "lat": 12.9983454,
      "lon": 77.5489095,
      "tags": {
        "amenity": "bench",
        "backrest": "no",
        "material": "stone",
        "seats": "2"
      }
    },
    {
      "type": "node",
      "id": 6508610158,
      "lat": 12.9976732,
      "lon": 77.5490208,
      "tags": {
        "name": "Nandini Milk Parlour",
        "name:kn": "ನಂದಿನಿ ಹಾಲಿನ ಅಂಗಡಿ",
        "shop": "dairy"
      }
    },
    {
      "type": "node",
      "id": 6533844583,
      "lat": 12.997183,
      "lon": 77.5484972,
      "tags": {
        "name": "SN Digital Xerox",
        "shop": "copyshop"
      }
    },
    {
      "type": "node",
      "id": 6546848142,
      "lat": 12.9976981,
      "lon": 77.5493842,
      "tags": {
        "name": "Khadim's",
        "shop": "shoes",
        "website": "https://www.khadims.com/"
      }
    },
    {
      "type": "node",
      "id": 6546848143,
      "lat": 12.997802,
      "lon": 77.5492702,
      "tags": {
        "amenity": "bank",
        "atm": "yes",
        "brand": "ICICI Bank",
        "brand:wikidata": "Q1653258",
        "level": "2",
        "name": "ICICI Bank",
        "name:kn": "ಐಸಿಐಸಿಐ ಬ್ಯಾಂಕು",
        "short_name": "ICICI"
      }
    },
    {
      "type": "node",
      "id": 6546848155,
      "lat": 12.9974452,
      "lon": 77.5494057,
      "tags": {
        "shop": "alcohol"
      }
    },
    {
      "type": "node",
      "id": 6546848161,
      "lat": 12.9974694,
      "lon": 77.5491408,
      "tags": {
        "name": "The Nobel House",
        "shop": "clothes"
      }
    },
    {
      "type": "node",
      "id": 6646295302,
      "lat": 12.9860978,
      "lon": 77.5543504,
      "tags": {
        "addr:city": "Bangalore",
        "addr:postcode": "560010",
        "addr:street": "12th Main Road",
        "air_conditioning": "no",
        "amenity": "restaurant",
        "bar": "no",
        "cuisine": "indian;juice;ice_cream",
        "name": "New Shanthi Sagar",
        "opening_hours": "Mo-Su 06:00-22:00"
      }
    },
    {
      "type": "node",
      "id": 6681215502,
      "lat": 12.9845735,
      "lon": 77.5572538,
      "tags": {
        "leisure": "fitness_station",
        "name": "Fitness Hub"
      }
    },
    {
      "type": "node",
      "id": 6681254105,
      "lat": 12.9963828,
      "lon": 77.5508957,
      "tags": {
        "amenity": "pharmacy",
        "healthcare": "pharmacy",
        "name": "Prashanthi Ayurvedic Centre"
      }
    },
    {
      "type": "node",
      "id": 6681254107,
      "lat": 12.9899287,
      "lon": 77.5529918,
      "tags": {
        "amenity": "restaurant",
        "name": "Al-Taj Restaurant"
      }
    },
    {
      "type": "node",
      "id": 6681254109,
      "lat": 12.9897373,
      "lon": 77.556185,
      "tags": {
        "amenity": "ice_cream",
        "name": "Fresh Natural Ice Cream"
      }
    },
    {
      "type": "node",
      "id": 6681254110,
      "lat": 12.9889656,
      "lon": 77.5561219,
      "tags": {
        "amenity": "dentist",
        "name": "Sabka Dentist"
      }
    },
    {
      "type": "node",
      "id": 6681254111,
      "lat": 12.9879672,
      "lon": 77.5560717,
      "tags": {
        "name": "Roop Niketan",
        "shop": "boutique"
      }
    },
    {
      "type": "node",
      "id": 6681254112,
      "lat": 12.9869192,
      "lon": 77.5562131,
      "tags": {
        "amenity": "cafe",
        "name": "by 2 coffy"
      }
    },
    {
      "type": "node",
      "id": 6711246907,
      "lat": 12.9993177,
      "lon": 77.5502049,
      "tags": {
        "amenity": "pharmacy",
        "healthcare": "pharmacy",
        "name": "Homoeo Mart"
      }
    },
    {
      "type": "node",
      "id": 6711246908,
      "lat": 12.9973881,
      "lon": 77.5501344,
      "tags": {
        "name": "Tattoo Planet",
        "shop": "tattoo"
      }
    },
    {
      "type": "node",
      "id": 6720274156,
      "lat": 12.9989861,
      "lon": 77.550271,
      "tags": {
        "name": "Orix Spa",
        "shop": "massage"
      }
    },
    {
      "type": "node",
      "id": 6855409795,
      "lat": 12.9992623,
      "lon": 77.5496684,
      "tags": {
        "addr:city": "Bengaluru",
        "addr:country": "IN",
        "addr:housenumber": "46",
        "addr:postcode": "560086",
        "addr:street": "10th Cross Road",
        "addr:suburb": "Rajajinagar",
        "amenity": "coworking_space",
        "email": "info@urbandesk.in",
        "fee": "yes",
        "name": "UrbanDesk",
        "office": "coworking",
        "operator": "UrbanDesk",
        "phone": "+91 78998 00771",
        "website": "https://urbandesk.in/"
      }
    },
    {
      "type": "node",
      "id": 6886594811,
      "lat": 12.9898745,
      "lon": 77.5528128,
      "tags": {
        "addr:city": "Bengaluru",
        "addr:district": "BENGALURU URBAN",
        "addr:full": "No. 968, 2nd Floor, 41st Cross, 3rd Block. Opposite E. S. I. Hospital, Rajajinagar",
        "addr:postcode": "560010",
        "addr:state": "Karnataka",
        "amenity": "blood_bank",
        "contact:mobile": "9448084990",
        "contact:phone": "8023147303",
        "name": "Akshay Voluntary Blood Bank",
        "opening_hours": "24/7",
        "operator:type": "ngo",
        "source": "OpenGovernmentData"
      }
    },
    {
      "type": "node",
      "id": 6886594812,
      "lat": 12.9907376,
      "lon": 77.5533566,
      "tags": {
        "addr:city": "Bengaluru",
        "addr:district": "BENGALURU URBAN",
        "addr:full": "Rajajinagar",
        "addr:postcode": "560010",
        "addr:state": "Karnataka",
        "amenity": "blood_bank",
        "contact:mobile": "9945343990",
        "contact:phone": "8023013808",
        "name": "E. S. I. Hospital Blood Bank, Rajajinagar",
        "opening_hours": "24/7",
        "operator:type": "government",
        "source": "OpenGovernmentData"
      }
    },
    {
      "type": "node",
      "id": 6886594813,
      "lat": 12.998505,
      "lon": 77.5527035,
      "tags": {
        "addr:city": "Bengaluru",
        "addr:district": "BENGALURU URBAN",
        "addr:full": "No. 2953, Ist Floor, Near Navarang Circle, M. K. K. Road, Rajaji Nagar",
        "addr:postcode": "560010",
        "addr:state": "Karnataka",
        "amenity": "blood_bank",
        "contact:mobile": "9844111233",
        "contact:phone": "8023521233",
        "name": "Navarang Blood Bank",
        "opening_hours": "24/7",
        "operator:type": "private",
        "source": "OpenGovernmentData"
      }
    },
    {
      "type": "node",
      "id": 6938690601,
      "lat": 12.9848505,
      "lon": 77.5581537,
      "tags": {
        "addr:district": "Bengaluru Urban",
        "addr:full": "No. 546/46, 6Th Main, 4Th Block, Rajajinagar",
        "addr:postcode": "560010",
        "addr:state": "Karnataka",
        "amenity": "clinic",
        "name": "Spandana Nursing Home, Bengaluru Urban",
        "source": "OpenGovernmentData"
      }
    },
    {
      "type": "node",
      "id": 6938690602,
      "lat": 12.9845343,
      "lon": 77.5532775,
      "tags": {
        "addr:district": "Bengaluru Urban",
        "addr:full": "25 27 60Th Cross 5Th Block Near Bashyam Circle Rajajinagar",
        "addr:postcode": "560010",
        "addr:state": "Karnataka",
        "amenity": "clinic",
        "name": "Jinka Nursing Home",
        "source": "OpenGovernmentData"
      }
    },
    {
      "type": "node",
      "id": 6938690603,
      "lat": 12.9845512,
      "lon": 77.5528322,
      "tags": {
        "addr:district": "Bengaluru Urban",
        "addr:full": "No. 851/D , 5Th Block , Rajajinagar , 60Th Cross",
        "addr:postcode": "560040",
        "addr:state": "Karnataka",
        "amenity": "hospital",
        "name": "Vaidyam Hospital",
        "source": "OpenGovernmentData"
      }
    },
    {
      "type": "node",
      "id": 6938690604,
      "lat": 12.9897745,
      "lon": 77.5551014,
      "tags": {
        "addr:district": "Bengaluru Urban",
        "addr:full": "723 / B Main E S I Hospital Raod, 3Road Block, Rajajinagar",
        "addr:postcode": "560010",
        "addr:state": "Karnataka",
        "amenity": "hospital",
        "name": "Suresh Hospital - Bangalore",
        "source": "OpenGovernmentData"
      }
    },
    {
      "type": "node",
      "id": 6938695148,
      "lat": 12.9992083,
      "lon": 77.550269,
      "tags": {
        "addr:district": "Bengaluru Urban",
        "addr:full": "No. 414/65, 20th Main, West of Chord road, 1st Block, Rajajinagar, Bangalore",
        "addr:postcode": "560010",
        "addr:state": "Karnataka",
        "amenity": "hospital",
        "contact:email": "info@chanrericr.com",
        "contact:phone": "080 - 42516699",
        "healthcare": "hospital",
        "name": "ChanRe Rheumatology and Immunology Center and Research",
        "source": "OpenGovernmentData",
        "website": "https://www.chanrericr.com/"
      }
    },
    {
      "type": "node",
      "id": 6939061708,
      "lat": 12.9856882,
      "lon": 77.5565229,
      "tags": {
        "addr:district": "Bengaluru Urban",
        "addr:full": "Rajaji Nager",
        "addr:postcode": "560010",
        "addr:state": "Karnataka",
        "amenity": "clinic",
        "name": "Ramamni Nursing And Maternity",
        "source": "OpenGovernmentData"
      }
    },
    {
      "type": "node",
      "id": 6939075872,
      "lat": 12.9929043,
      "lon": 77.5588015,
      "tags": {
        "addr:district": "Bengaluru Urban",
        "addr:full": "15/1 Iyappaswamy Templestraight Road",
        "addr:postcode": "560021",
        "addr:state": "Karnataka",
        "amenity": "hospital",
        "healthcare": "hospital",
        "name": "Supriya Hospital, Bengaluru Urban",
        "source": "OpenGovernmentData"
      }
    },
    {
      "type": "node",
      "id": 6945606655,
      "lat": 12.9907644,
      "lon": 77.5568951,
      "tags": {
        "addr:district": "Bengaluru Urban",
        "addr:full": "No 562, 3Road Main Second Block, Rajajinagar",
        "addr:postcode": "560010",
        "addr:state": "Karnataka",
        "amenity": "clinic",
        "healthcare": "clinic",
        "name": "Kumar Nethralaya",
        "source": "OpenGovernmentData"
      }
    },
    {
      "type": "node",
      "id": 6948540414,
      "lat": 12.9880313,
      "lon": 77.5557142,
      "tags": {
        "addr:district": "Bengaluru Urban",
        "addr:full": "No. 652 , 46Th Cross , 'A' , 3Road Block Rajajinagar Near Cananra Bank",
        "addr:postcode": "560010",
        "addr:state": "Karnataka",
        "amenity": "clinic",
        "name": "Sri Sai Clinic and Maternity Home",
        "source": "OpenGovernmentData"
      }
    },
    {
      "type": "node",
      "id": 7043906885,
      "lat": 12.9900969,
      "lon": 77.5545487,
      "tags": {
        "name": "Shree Sai Silk Sarees",
        "shop": "clothes"
      }
    },
    {
      "type": "node",
      "id": 7043906886,
      "lat": 12.9882933,
      "lon": 77.5561065,
      "tags": {
        "amenity": "pharmacy",
        "brand": "Wellness Forever",
        "healthcare": "pharmacy",
        "name": "Wellness Forever"
      }
    },
    {
      "type": "node",
      "id": 7087593325,
      "lat": 12.9977994,
      "lon": 77.5517734,
      "tags": {
        "name": "Batte Angadi",
        "shop": "clothes"
      }
    },
    {
      "type": "node",
      "id": 7087593326,
      "lat": 12.9984069,
      "lon": 77.5564425,
      "tags": {
        "access": "yes",
        "amenity": "toilets"
      }
    },
    {
      "type": "node",
      "id": 7087593327,
      "lat": 12.9961698,
      "lon": 77.5641029,
      "tags": {
        "name": "Malavalli Metal Mart",
        "shop": "hardware"
      }
    },
    {
      "type": "node",
      "id": 7099723586,
      "lat": 12.9949401,
      "lon": 77.554936,
      "tags": {
        "brand": "Hyundai",
        "brand:wikidata": "Q55931",
        "brand:wikipedia": "en:Hyundai Motor Company",
        "check_date": "2025-03-18",
        "name": "Hyundai",
        "name:kn": "ಹ್ಯುಂಡೈ",
        "shop": "car"
      }
    },
    {
      "type": "node",
      "id": 7099723587,
      "lat": 12.9925863,
      "lon": 77.5566119,
      "tags": {
        "brand": "KTM",
        "brand:wikidata": "Q215657",
        "name": "KTM",
        "shop": "motorcycle"
      }
    },
    {
      "type": "node",
      "id": 7124643393,
      "lat": 12.9876889,
      "lon": 77.5496471,
      "tags": {
        "name": "Royal Stag",
        "shop": "alcohol"
      }
    },
    {
      "type": "node",
      "id": 7146770599,
      "lat": 12.9976465,
      "lon": 77.5523655,
      "tags": {
        "amenity": "cafe",
        "name": "Cafe 916 & Bake"
      }
    },
    {
      "type": "node",
      "id": 7146770600,
      "lat": 12.9955818,
      "lon": 77.5538957,
      "tags": {
        "amenity": "bank",
        "atm": "yes",
        "brand": "Canara Bank",
        "brand:en": "Canara Bank",
        "brand:hi": "केनरा बैंक",
        "brand:kn": "ಕೆನರಾ ಬ್ಯಾಂಕ್",
        "brand:pa": "ਕੇਨਰਾ ਬੈਂਕ",
        "brand:pnb": "کینرا بینک",
        "brand:ur": "کینرا بینک",
        "brand:wikidata": "Q2003777",
        "brand:wikipedia": "en:Canara Bank",
        "brand:wikipedia:pa": "ਕੇਨਰਾ ਬੈਂਕ",
        "name": "Canara Bank",
        "name:en": "Canara Bank",
        "name:hi": "केनरा बैंक",
        "name:kn": "ಕೆನರಾ ಬ್ಯಾಂಕ್",
        "name:pa": "ਕੇਨਰਾ ਬੈਂਕ",
        "name:pnb": "کینرا بینک",
        "name:ur": "کینرا بینک"
      }
    },
    {
      "type": "node",
      "id": 7146770601,
      "lat": 12.9936804,
      "lon": 77.5546413,
      "tags": {
        "access": "yes",
        "amenity": "toilets",
        "fee": "no"
      }
    },
    {
      "type": "node",
      "id": 7146770602,
      "lat": 12.9921881,
      "lon": 77.5546494,
      "tags": {
        "amenity": "restaurant",
        "cuisine": "regional",
        "name": "Karavali Fine Dine"
      }
    },
    {
      "type": "node",
      "id": 7146770603,
      "lat": 12.988307,
      "lon": 77.5558618,
      "tags": {
        "amenity": "fast_food",
        "cuisine": "regional",
        "name": "Spicy Secret"
      }
    },
    {
      "type": "node",
      "id": 7146770604,
      "lat": 12.98691,
      "lon": 77.5558256,
      "tags": {
        "brand": "Airtel",
        "brand:wikidata": "Q854867",
        "name": "Airtel",
        "shop": "mobile_phone"
      }
    },
    {
      "type": "node",
      "id": 7146770605,
      "lat": 12.9849224,
      "lon": 77.5552703,
      "tags": {
        "brand": "Airtel",
        "brand:wikidata": "Q854867",
        "name": "Airtel",
        "shop": "mobile_phone"
      }
    },
    {
      "type": "node",
      "id": 7156536792,
      "lat": 12.9906161,
      "lon": 77.5505832,
      "tags": {
        "amenity": "pharmacy",
        "name": "Harshitha Medical & General Store"
      }
    },
    {
      "type": "node",
      "id": 7156536793,
      "lat": 12.988699,
      "lon": 77.5499944,
      "tags": {
        "amenity": "atm",
        "brand": "ICICI Bank",
        "brand:wikidata": "Q1653258",
        "name": "ICICI Bank",
        "operator": "ICICI Bank",
        "operator:wikidata": "Q1653258",
        "short_name": "ICICI"
      }
    },
    {
      "type": "node",
      "id": 7159760429,
      "lat": 12.9986585,
      "lon": 77.5508011,
      "tags": {
        "addr:city": "Bengaluru",
        "addr:postcode": "560010",
        "addr:street": "19th Main (Goorur Ramaswamy Iyengar Road)",
        "addr:suburb": "Rajajinagar",
        "name": "Coffee Day Essentials",
        "shop": "convenience",
        "website": "http://www.coffeedayessentials.com/"
      }
    },
    {
      "type": "node",
      "id": 7159791860,
      "lat": 12.9864945,
      "lon": 77.5555319,
      "tags": {
        "addr:city": "Bengaluru",
        "addr:postcode": "560010",
        "addr:street": "54th Cross Road",
        "addr:suburb": "Rajajinagar",
        "name": "Coffee Day Essentials",
        "shop": "convenience"
      }
    },
    {
      "type": "node",
      "id": 7176651863,
      "lat": 12.9961267,
      "lon": 77.5644824,
      "tags": {
        "amenity": "bank",
        "atm": "yes",
        "brand": "Canara Bank",
        "brand:en": "Canara Bank",
        "brand:hi": "केनरा बैंक",
        "brand:kn": "ಕೆನರಾ ಬ್ಯಾಂಕ್",
        "brand:pa": "ਕੇਨਰਾ ਬੈਂਕ",
        "brand:pnb": "کینرا بینک",
        "brand:ur": "کینرا بینک",
        "brand:wikidata": "Q2003777",
        "brand:wikipedia": "en:Canara Bank",
        "brand:wikipedia:pa": "ਕੇਨਰਾ ਬੈਂਕ",
        "name": "Canara Bank",
        "name:en": "Canara Bank",
        "name:hi": "केनरा बैंक",
        "name:kn": "ಕೆನರಾ ಬ್ಯಾಂಕ್",
        "name:pa": "ਕੇਨਰਾ ਬੈਂਕ",
        "name:pnb": "کینرا بینک",
        "name:ur": "کینرا بینک"
      }
    },
    {
      "type": "node",
      "id": 7201052049,
      "lat": 12.9964898,
      "lon": 77.5508565,
      "tags": {
        "addr:city": "Bengaluru",
        "addr:country": "IN",
        "addr:housenumber": "31",
        "addr:street": "Chord Road",
        "addr:suburb": "Rajajinagar",
        "amenity": "bar",
        "name": "Le Grapes Restobar"
      }
    },
    {
      "type": "node",
      "id": 7215440236,
      "lat": 12.9997281,
      "lon": 77.5507924,
      "tags": {
        "name": "Probe Tailors",
        "shop": "tailor"
      }
    },
    {
      "type": "node",
      "id": 7215440237,
      "lat": 12.9995804,
      "lon": 77.550832,
      "tags": {
        "addr:city": "Bengaluru",
        "addr:country": "IN",
        "addr:hamlet": "Rajajinagar 1st Block",
        "addr:housenumber": "14",
        "addr:postcode": "560010",
        "addr:street": "15th Cross Road",
        "email": "info@decorbengaluru.com",
        "name": "Decor Bengaluru",
        "phone": "0802966826",
        "shop": "interior_decoration",
        "website": "http://www.decorbengaluru.com"
      }
    },
    {
      "type": "node",
      "id": 7215440242,
      "lat": 12.999403,
      "lon": 77.5508739,
      "tags": {
        "name": "Samsung SmartCafe",
        "shop": "electronics"
      }
    },
    {
      "type": "node",
      "id": 7215440243,
      "lat": 12.9992657,
      "lon": 77.5509184,
      "tags": {
        "female": "no",
        "male": "yes",
        "name": "Dreams Mens Salon",
        "shop": "hairdresser"
      }
    },
    {
      "type": "node",
      "id": 7215440244,
      "lat": 12.9991338,
      "lon": 77.5509354,
      "tags": {
        "amenity": "fast_food",
        "indoor_seating": "no",
        "name": "Sree Gajendra Juice and Chaats Center",
        "outdoor_seating": "yes"
      }
    },
    {
      "type": "node",
      "id": 7215440245,
      "lat": 12.9989923,
      "lon": 77.5510234,
      "tags": {
        "amenity": "clinic",
        "healthcare": "clinic",
        "healthcare:speciality": "urology",
        "name": "Sanjay Urology and Andrology Center"
      }
    },
    {
      "type": "node",
      "id": 7215440246,
      "lat": 12.9989365,
      "lon": 77.5507306,
      "tags": {
        "name": "Galaxy Opticals",
        "shop": "optician"
      }
    },
    {
      "type": "node",
      "id": 7215440247,
      "lat": 12.9987812,
      "lon": 77.5507637,
      "tags": {
        "name": "Cake and Pastries",
        "phone": "080 4157 1512",
        "shop": "bakery"
      }
    },
    {
      "type": "node",
      "id": 7215440248,
      "lat": 12.9987641,
      "lon": 77.5509847,
      "tags": {
        "shop": "greengrocer"
      }
    },
    {
      "type": "node",
      "id": 7215440249,
      "lat": 12.9986599,
      "lon": 77.5510126,
      "tags": {
        "name": "Wildcraft",
        "shop": "outdoor"
      }
    },
    {
      "type": "node",
      "id": 7215440250,
      "lat": 12.9983967,
      "lon": 77.5510859,
      "tags": {
        "name": "Titan",
        "shop": "watches"
      }
    },
    {
      "type": "node",
      "id": 7215440251,
      "lat": 12.9982589,
      "lon": 77.5511091,
      "tags": {
        "name": "Krishna Fancy and Gift Center",
        "shop": "gift"
      }
    },
    {
      "type": "node",
      "id": 7215440253,
      "lat": 12.997484,
      "lon": 77.5498729,
      "tags": {
        "amenity": "atm",
        "brand": "Karnataka Bank",
        "brand:wikidata": "Q2042632",
        "name": "Karnataka Bank",
        "operator": "Karnataka Bank",
        "operator:wikidata": "Q2042632"
      }
    },
    {
      "type": "node",
      "id": 7235403985,
      "lat": 12.9870634,
      "lon": 77.549951,
      "tags": {
        "amenity": "hospital",
        "name": "Focus Diagnostic Center"
      }
    },
    {
      "type": "node",
      "id": 7236205644,
      "lat": 12.9853419,
      "lon": 77.5564646,
      "tags": {
        "amenity": "atm",
        "brand": "ICICI Bank",
        "brand:wikidata": "Q1653258",
        "name": "ICICI Bank",
        "operator": "ICICI Bank",
        "operator:wikidata": "Q1653258",
        "short_name": "ICICI"
      }
    },
    {
      "type": "node",
      "id": 7236205645,
      "lat": 12.9872008,
      "lon": 77.556077,
      "tags": {
        "amenity": "fast_food",
        "name": "Malnad Aroma"
      }
    },
    {
      "type": "node",
      "id": 7236205646,
      "lat": 12.9878091,
      "lon": 77.5560877,
      "tags": {
        "name": "Sri Hema Book World",
        "shop": "books"
      }
    },
    {
      "type": "node",
      "id": 7236205647,
      "lat": 12.9893831,
      "lon": 77.5561236,
      "tags": {
        "amenity": "fast_food",
        "cuisine": "juice",
        "name": "Lassi Corner"
      }
    },
    {
      "type": "node",
      "id": 7236205648,
      "lat": 12.9900398,
      "lon": 77.5557384,
      "tags": {
        "amenity": "pharmacy",
        "name": "Stay Happi Pharmacy"
      }
    },
    {
      "type": "node",
      "id": 7236205652,
      "lat": 12.9847669,
      "lon": 77.5531782,
      "tags": {
        "amenity": "school",
        "name": "New Oxford High School"
      }
    },
    {
      "type": "node",
      "id": 7236205657,
      "lat": 12.9850504,
      "lon": 77.5532533,
      "tags": {
        "amenity": "pharmacy",
        "brand": "Apollo Pharmacy",
        "brand:wikidata": "Q62562612",
        "healthcare": "pharmacy",
        "name": "Apollo Pharmacy",
        "name:kn": "ಅಪೊಲೋ ಫಾರ್ಮಸಿ"
      }
    },
    {
      "type": "node",
      "id": 7236205658,
      "lat": 12.9857287,
      "lon": 77.5524808,
      "tags": {
        "amenity": "bank",
        "atm": "yes",
        "brand": "HDFC Bank",
        "brand:wikidata": "Q631047",
        "name": "HDFC Bank",
        "operator": "HDFC Bank",
        "short_name": "HDFC"
      }
    },
    {
      "type": "node",
      "id": 7236205659,
      "lat": 12.9858058,
      "lon": 77.5513798,
      "tags": {
        "amenity": "bank",
        "atm": "yes",
        "brand": "Karur Vysya Bank",
        "brand:wikidata": "Q6373724",
        "name": "Karur Vysya Bank",
        "name:kn": "ಕರೂರು ವೈಶ್ಯ ಬ್ಯಾಂಕ್",
        "operator": "Karur Vysya Bank"
      }
    },
    {
      "type": "node",
      "id": 7236205660,
      "lat": 12.9862606,
      "lon": 77.5508527,
      "tags": {
        "name": "Ashirwad Market",
        "shop": "supermarket"
      }
    },
    {
      "type": "node",
      "id": 7236205661,
      "lat": 12.9863873,
      "lon": 77.5508474,
      "tags": {
        "amenity": "bank",
        "atm": "yes",
        "brand": "Bank of Maharashtra",
        "brand:wikidata": "Q2004304",
        "name": "Bank of Maharashtra",
        "operator": "Bank of Maharashtra"
      }
    },
    {
      "type": "node",
      "id": 7236205666,
      "lat": 12.9885082,
      "lon": 77.5499395,
      "tags": {
        "name": "City Lights and Appliances",
        "shop": "electronics"
      }
    },
    {
      "type": "node",
      "id": 7236205672,
      "lat": 12.9915491,
      "lon": 77.5507884,
      "tags": {
        "name": "Car World",
        "shop": "car_parts"
      }
    },
    {
      "type": "node",
      "id": 7255294906,
      "lat": 12.9988434,
      "lon": 77.5507481,
      "tags": {
        "name": "Akshaya Magazine Center",
        "shop": "kiosk"
      }
    },
    {
      "type": "node",
      "id": 7255294907,
      "lat": 12.9987729,
      "lon": 77.5522368,
      "tags": {
        "amenity": "bank",
        "atm": "yes",
        "brand": "Bank of India",
        "brand:wikidata": "Q2004439",
        "brand:wikipedia": "en:Bank of India",
        "name": "Bank of India",
        "name:kn": "ಬ್ಯಾಂಕ್ ಅಫ್ ಇಂಡಿಯ",
        "operator": "Bank of India"
      }
    },
    {
      "type": "node",
      "id": 7255294908,
      "lat": 12.9989715,
      "lon": 77.5521791,
      "tags": {
        "amenity": "restaurant",
        "cuisine": "regional",
        "name": "Rajbhog"
      }
    },
    {
      "type": "node",
      "id": 7255294909,
      "lat": 12.9998157,
      "lon": 77.5518975,
      "tags": {
        "amenity": "clinic",
        "healthcare": "clinic",
        "name": "Cauvery Clinic and Laboratory"
      }
    },
    {
      "type": "node",
      "id": 7255294910,
      "lat": 13.0000077,
      "lon": 77.552163,
      "tags": {
        "amenity": "bank",
        "atm": "yes",
        "brand": "State Bank of India",
        "brand:wikidata": "Q1340361",
        "brand:wikipedia": "en:State Bank of India",
        "name": "State Bank of India",
        "name:kn": "ಎಸ್ ಬಿ ಐ",
        "operator": "State Bank of India",
        "short_name": "SBI"
      }
    },
    {
      "type": "node",
      "id": 7255294912,
      "lat": 13.0002247,
      "lon": 77.5519605,
      "tags": {
        "amenity": "fast_food",
        "cuisine": "regional",
        "diet:vegetarian": "only",
        "name": "Udupi Veg"
      }
    },
    {
      "type": "node",
      "id": 7255294913,
      "lat": 12.9999163,
      "lon": 77.5517097,
      "tags": {
        "name": "Akshaya Tailors",
        "shop": "tailor"
      }
    },
    {
      "type": "node",
      "id": 7255294960,
      "lat": 12.9991492,
      "lon": 77.5518914,
      "tags": {
        "shop": "convenience"
      }
    },
    {
      "type": "node",
      "id": 7257126384,
      "lat": 12.9960502,
      "lon": 77.5476876,
      "tags": {
        "amenity": "college",
        "name": "Goutham College",
        "website": "https://gouthamcollege.org/"
      }
    },
    {
      "type": "node",
      "id": 7291611529,
      "lat": 12.9974224,
      "lon": 77.5491294,
      "tags": {
        "name": "Sri Gururaghavendra Jewellery Works",
        "shop": "jewelry"
      }
    },
    {
      "type": "node",
      "id": 7292235595,
      "lat": 12.9840076,
      "lon": 77.5581591,
      "tags": {
        "amenity": "fast_food",
        "name": "Gobi Corner"
      }
    },
    {
      "type": "node",
      "id": 7292235596,
      "lat": 12.9844846,
      "lon": 77.5573383,
      "tags": {
        "name": "Uttara Computers",
        "shop": "computer"
      }
    },
    {
      "type": "node",
      "id": 7292235604,
      "lat": 12.9855248,
      "lon": 77.5567147,
      "tags": {
        "amenity": "place_of_worship",
        "religion": "hindu"
      }
    },
    {
      "type": "node",
      "id": 7292235609,
      "lat": 12.9872988,
      "lon": 77.5560663,
      "tags": {
        "shop": "shoes"
      }
    },
    {
      "type": "node",
      "id": 7292235610,
      "lat": 12.9897647,
      "lon": 77.5553186,
      "tags": {
        "name": "Matrix Salon",
        "shop": "hairdresser"
      }
    },
    {
      "type": "node",
      "id": 7292235617,
      "lat": 12.9960993,
      "lon": 77.550948,
      "tags": {
        "amenity": "kindergarten",
        "name": "Little Me Academy"
      }
    },
    {
      "type": "node",
      "id": 7292235618,
      "lat": 12.9977823,
      "lon": 77.5524942,
      "tags": {
        "access": "yes",
        "amenity": "toilets",
        "fee": "yes",
        "wheelchair": "no"
      }
    },
    {
      "type": "node",
      "id": 7292235619,
      "lat": 12.9993792,
      "lon": 77.5555868,
      "tags": {
        "amenity": "place_of_worship",
        "religion": "hindu"
      }
    },
    {
      "type": "node",
      "id": 7658279907,
      "lat": 12.9951493,
      "lon": 77.5530776,
      "tags": {
        "access": "yes",
        "amenity": "toilets",
        "description": "BBMP",
        "fee": "yes",
        "female": "yes",
        "male": "yes"
      }
    },
    {
      "type": "node",
      "id": 7658279910,
      "lat": 12.9930284,
      "lon": 77.5541264,
      "tags": {
        "access": "yes",
        "amenity": "toilets",
        "description": "BBMP",
        "female": "yes",
        "male": "yes"
      }
    },
    {
      "type": "node",
      "id": 7890840024,
      "lat": 13.0007712,
      "lon": 77.5518249,
      "tags": {
        "amenity": "place_of_worship",
        "name": "Marammadevi Temple",
        "religion": "hindu"
      }
    },
    {
      "type": "node",
      "id": 8187929955,
      "lat": 12.990191,
      "lon": 77.560667,
      "tags": {
        "addr:full": "2, Prakash Nagar, Rajajinagar, Bengaluru, Karnataka",
        "addr:state": "Karnataka",
        "amenity": "atm",
        "brand": "Axis Bank",
        "brand:wikidata": "Q2003549",
        "name": "Axis Bank",
        "name:kn": "ಆಕ್ಸಿಸ್ ಬ್ಯಾಂಕ್ ಎಟಿಎಂ",
        "operator": "Axis Bank",
        "operator:wikidata": "Q2003549"
      }
    },
    {
      "type": "node",
      "id": 8187959329,
      "lat": 12.9900506,
      "lon": 77.5561739,
      "tags": {
        "addr:full": "Shop No.53, 41st Cross, Near Old Police Station, 2nd Block, 4th Block, Rajajinagar, Bengaluru, Karnataka",
        "addr:state": "Karnataka",
        "amenity": "bank",
        "brand": "Vijaya Bank",
        "brand:wikidata": "Q2003171",
        "brand:wikipedia": "en:Vijaya Bank",
        "name": "Vijaya Bank",
        "name:kn": "ವಿಜಯ ಬ್ಯಾಂಕ್"
      }
    },
    {
      "type": "node",
      "id": 8187962416,
      "lat": 12.9985128,
      "lon": 77.5531829,
      "tags": {
        "addr:full": "1761 Navarang Circle, Rajajinagar, 2nd Stage, Rajajinagar, Bengaluru, Karnataka",
        "addr:state": "Karnataka",
        "amenity": "bank",
        "brand": "Union Bank of India",
        "brand:wikidata": "Q2004078",
        "brand:wikipedia": "en:Union Bank of India",
        "name": "Union Bank of India"
      }
    },
    {
      "type": "node",
      "id": 8187962466,
      "lat": 12.9937009,
      "lon": 77.5556279,
      "tags": {
        "addr:full": "No.82, Patel Arcade, Dr Rajkumar Road, 2nd Block, 2nd Block, Rajajinagar, Bengaluru, Karnataka",
        "addr:state": "Karnataka",
        "amenity": "bank",
        "brand": "IDBI Bank",
        "brand:wikidata": "Q3633485",
        "brand:wikipedia": "en:IDBI Bank",
        "name": "IDBI Bank",
        "name:kn": "ಐಡಿಬಿಐ ಬ್ಯಾಂಕ್",
        "short_name": "IDBI"
      }
    },
    {
      "type": "node",
      "id": 8187962477,
      "lat": 12.9926008,
      "lon": 77.5552992,
      "tags": {
        "addr:full": "33-34, 2nd Main Rd, 2nd Block, Rajajinagar, Bengaluru, Karnataka",
        "addr:state": "Karnataka",
        "amenity": "bank",
        "brand": "Federal Bank",
        "brand:wikidata": "Q2044983",
        "brand:wikipedia": "en:Federal Bank",
        "name": "Federal Bank"
      }
    },
    {
      "type": "node",
      "id": 8187962488,
      "lat": 12.9916668,
      "lon": 77.5549016,
      "tags": {
        "addr:full": "41st Cross Rd, 2nd Block, Rajajinagar, Bengaluru, Karnataka",
        "addr:state": "Karnataka",
        "amenity": "bank",
        "brand": "Union Bank of India",
        "brand:wikidata": "Q2004078",
        "brand:wikipedia": "en:Union Bank of India",
        "name": "Union Bank of India",
        "name:kn": "ಯೂನಿಯನ್ ಬ್ಯಾಂಕ್"
      }
    },
    {
      "type": "node",
      "id": 8187962500,
      "lat": 12.9910228,
      "lon": 77.5576941,
      "tags": {
        "addr:full": "588, Dr Rajkumar Rd, 2nd Block, Rajajinagar, Bengaluru, Karnataka",
        "addr:state": "Karnataka",
        "amenity": "bank",
        "brand": "Andhra Bank",
        "brand:wikidata": "Q2003476",
        "brand:wikipedia": "en:Andhra Bank",
        "name": "Andhra Bank",
        "name:kn": "ಆಂಧ್ರ ಬ್ಯಾಂಕ್"
      }
    },
    {
      "type": "node",
      "id": 8187962507,
      "lat": 12.9905494,
      "lon": 77.5578922,
      "tags": {
        "addr:full": "Dr Rajkumar Rd, 4th Block, RajajiNagar, 4th Block, Rajajinagar, Bengaluru, Karnataka",
        "addr:state": "Karnataka",
        "amenity": "bank",
        "brand": "Bank of Baroda",
        "brand:wikidata": "Q2003797",
        "brand:wikipedia": "en:Bank of Baroda",
        "name": "Bank of Baroda",
        "name:kn": "ಬ್ಯಾಂಕ್ ಆಫ್ ಬರೋಡ"
      }
    },
    {
      "type": "node",
      "id": 8187986368,
      "lat": 12.9918121,
      "lon": 77.5626808,
      "tags": {
        "addr:full": "81, Ganesh Clinic, 5th Cross 7th Main, Lakshmi Narayana Pur, Lakshmi Narayana Pur, Bashyam Nagar, Lakshminarayanapuram, Rajajinagar, Bengaluru, Karnataka",
        "addr:state": "Karnataka",
        "amenity": "clinic",
        "healthcare": "clinic",
        "name": "Ganesha Clinic"
      }
    },
    {
      "type": "node",
      "id": 8188038705,
      "lat": 12.998238,
      "lon": 77.551173,
      "tags": {
        "addr:full": "69/26, 19th Main, 19th Cross, Rajajinagar 1st Block, 1st Block, Rajajinagar, Bengaluru, Karnataka",
        "addr:state": "Karnataka",
        "amenity": "hospital",
        "healthcare": "hospital",
        "name": "Poornayu Ayurveda Hospital"
      }
    },
    {
      "type": "node",
      "id": 8188038735,
      "lat": 12.9916924,
      "lon": 77.5539007,
      "tags": {
        "addr:full": "620/A/1, 12th Main Rd, 2nd Block, Rajajinagar, Bengaluru, Karnataka",
        "addr:state": "Karnataka",
        "amenity": "hospital",
        "healthcare": "hospital",
        "name": "ESIC Model Hospital"
      }
    },
    {
      "type": "node",
      "id": 8188038742,
      "lat": 12.9905045,
      "lon": 77.5566355,
      "tags": {
        "addr:full": "172/A, 8th Main Rd, 2nd Block, Rajajinagar, Bengaluru, Karnataka",
        "addr:state": "Karnataka",
        "amenity": "hospital",
        "healthcare": "hospital",
        "name": "Government Hospital",
        "name:kn": "ಸರ್ಕಾರಿ ಆಸ್ಪತ್ರೆ"
      }
    },
    {
      "type": "node",
      "id": 8188038743,
      "lat": 12.9904985,
      "lon": 77.5530924,
      "tags": {
        "addr:full": "3rd Block, Rajajinagar, Bengaluru, Karnataka",
        "addr:state": "Karnataka",
        "amenity": "hospital",
        "healthcare": "hospital",
        "name": "Esi Hospital Bangalore",
        "operator": "Employees' State Insurance",
        "operator:short": "ESI",
        "operator:wikidata": "Q3595726"
      }
    },
    {
      "type": "node",
      "id": 8188038786,
      "lat": 12.9844963,
      "lon": 77.5551801,
      "tags": {
        "addr:full": "20th Main Rd, 5 Block, 3rd Block, Rajajinagar, Bengaluru, Karnataka",
        "addr:state": "Karnataka",
        "amenity": "hospital",
        "name": "Government Hospital",
        "name:kn": "ಸರ್ಕಾರಿ ಆಸ್ಪತ್ರೆ"
      }
    },
    {
      "type": "node",
      "id": 8255015074,
      "lat": 12.9999594,
      "lon": 77.5602699,
      "tags": {
        "amenity": "atm",
        "brand": "State Bank of India",
        "brand:wikidata": "Q1340361",
        "name": "State Bank of India",
        "name:kn": "ಎಸ್ ಬಿ ಐ",
        "operator": "State Bank of India",
        "operator:wikidata": "Q1340361",
        "short_name": "SBI"
      }
    },
    {
      "type": "node",
      "id": 8989622939,
      "lat": 12.9862109,
      "lon": 77.5563151,
      "tags": {
        "amenity": "toilets"
      }
    },
    {
      "type": "node",
      "id": 8989622941,
      "lat": 12.9883109,
      "lon": 77.556248,
      "tags": {
        "amenity": "fast_food",
        "cuisine": "regional",
        "name": "Prakriti Deluxe"
      }
    },
    {
      "type": "node",
      "id": 8989622948,
      "lat": 12.9974681,
      "lon": 77.5491837,
      "tags": {
        "amenity": "fast_food",
        "cuisine": "regional",
        "name": "Hasanamba Benne Dosa"
      }
    },
    {
      "type": "node",
      "id": 9136927430,
      "lat": 12.9953858,
      "lon": 77.5546266,
      "tags": {
        "addr:housenumber": "624",
        "amenity": "pharmacy",
        "name": "Pradhanmantri Bharatiya Janaushadhi Kendra"
      }
    },
    {
      "type": "node",
      "id": 9171580313,
      "lat": 12.9951708,
      "lon": 77.5509506,
      "tags": {
        "amenity": "toilets",
        "operator": "BBMP"
      }
    },
    {
      "type": "node",
      "id": 9171580314,
      "lat": 12.9967141,
      "lon": 77.5508025,
      "tags": {
        "brand": "MG",
        "brand:wikidata": "Q1881443",
        "name": "MG",
        "shop": "car"
      }
    },
    {
      "type": "node",
      "id": 9171580315,
      "lat": 12.9983064,
      "lon": 77.5498825,
      "tags": {
        "amenity": "restaurant",
        "check_date": "2024-07-28",
        "delivery": "yes",
        "name": "Aum Zone",
        "website": "https://www.mamaketo.co.in/"
      }
    },
    {
      "type": "node",
      "id": 9214185079,
      "lat": 12.9967592,
      "lon": 77.5628636,
      "tags": {
        "amenity": "fast_food",
        "cuisine": "regional",
        "name": "Grill Biryanis"
      }
    },
    {
      "type": "node",
      "id": 9214185080,
      "lat": 12.9967278,
      "lon": 77.5629723,
      "tags": {
        "name": "Iyengar Bakery",
        "name:kn": "ಐಯ್ಯಂಗಾರ್ ಬೇಕರಿ",
        "shop": "bakery"
      }
    },
    {
      "type": "node",
      "id": 9214185081,
      "lat": 12.9968572,
      "lon": 77.5619034,
      "tags": {
        "name": "Karnad Furniture",
        "shop": "furniture"
      }
    },
    {
      "type": "node",
      "id": 9214185086,
      "lat": 12.9984527,
      "lon": 77.5576884,
      "tags": {
        "amenity": "fast_food",
        "brand": "Indira Canteen",
        "brand:wikidata": "Q36164828",
        "cuisine": "south_indian",
        "name": "Indira Canteen",
        "operator": "BBMP",
        "takeaway": "yes"
      }
    },
    {
      "type": "node",
      "id": 9214185087,
      "lat": 12.9988121,
      "lon": 77.5560348,
      "tags": {
        "name": "Amma Pastries Karnataka",
        "shop": "pastry"
      }
    },
    {
      "type": "node",
      "id": 9214185088,
      "lat": 12.9986788,
      "lon": 77.5545019,
      "tags": {
        "shop": "mobile_phone"
      }
    },
    {
      "type": "node",
      "id": 9214185089,
      "lat": 12.9983978,
      "lon": 77.5527249,
      "tags": {
        "name": "Inkspiration Tattoo",
        "shop": "tattoo"
      }
    },
    {
      "type": "node",
      "id": 9257406457,
      "lat": 12.9989516,
      "lon": 77.5497464,
      "tags": {
        "amenity": "fast_food",
        "cuisine": "burger",
        "delivery": "yes",
        "name": "Burger Elite",
        "takeaway": "yes"
      }
    },
    {
      "type": "node",
      "id": 9632587574,
      "lat": 12.9851321,
      "lon": 77.556643,
      "tags": {
        "name": "Naseeb Fruits Stall",
        "shop": "greengrocer"
      }
    },
    {
      "type": "node",
      "id": 9632587578,
      "lat": 12.9870485,
      "lon": 77.5562185,
      "tags": {
        "shop": "greengrocer"
      }
    },
    {
      "type": "node",
      "id": 9632587579,
      "lat": 12.9876209,
      "lon": 77.5554702,
      "tags": {
        "name": "Jain Bakes",
        "shop": "bakery"
      }
    },
    {
      "type": "node",
      "id": 9632587580,
      "lat": 12.9876993,
      "lon": 77.5547004,
      "tags": {
        "name": "Color Curry",
        "shop": "copyshop"
      }
    },
    {
      "type": "node",
      "id": 9632587581,
      "lat": 12.987698,
      "lon": 77.5544375,
      "tags": {
        "name": "Asha Sweet Center",
        "shop": "confectionery"
      }
    },
    {
      "type": "node",
      "id": 9632587582,
      "lat": 12.9876693,
      "lon": 77.5541344,
      "tags": {
        "shop": "mobile_phone"
      }
    },
    {
      "type": "node",
      "id": 9632587583,
      "lat": 12.9877072,
      "lon": 77.5532667,
      "tags": {
        "name": "Ganapathi Jewels and Diamonds",
        "shop": "jewelry"
      }
    },
    {
      "type": "node",
      "id": 9632587584,
      "lat": 12.9874837,
      "lon": 77.5525647,
      "tags": {
        "name": "Adishwar",
        "name:kn": "ಅದಿಶ್ವರ್",
        "shop": "electronics"
      }
    },
    {
      "type": "node",
      "id": 9632587585,
      "lat": 12.9885762,
      "lon": 77.5526297,
      "tags": {
        "name": "Bharath Book Center",
        "shop": "books"
      }
    },
    {
      "type": "node",
      "id": 9632587586,
      "lat": 12.9895014,
      "lon": 77.5526485,
      "tags": {
        "name": "The Signman",
        "shop": "hardware"
      }
    },
    {
      "type": "node",
      "id": 9632630919,
      "lat": 12.9932335,
      "lon": 77.5512538,
      "tags": {
        "access": "yes",
        "amenity": "toilets"
      }
    },
    {
      "type": "node",
      "id": 9687256219,
      "lat": 12.9844193,
      "lon": 77.5580075,
      "tags": {
        "amenity": "fast_food",
        "name": "HOPCOMS"
      }
    },
    {
      "type": "node",
      "id": 9687256224,
      "lat": 12.9850753,
      "lon": 77.5567442,
      "tags": {
        "amenity": "fast_food",
        "brand": "Domino's",
        "brand:wikidata": "Q839466",
        "cuisine": "pizza",
        "delivery": "yes",
        "name": "Domino's",
        "operator": "Domino's",
        "outdoor_seating": "no",
        "takeaway": "yes"
      }
    },
    {
      "type": "node",
      "id": 9811397086,
      "lat": 12.9997549,
      "lon": 77.5525097,
      "tags": {
        "amenity": "bank",
        "atm": "yes",
        "brand": "HDFC Bank",
        "brand:wikidata": "Q631047",
        "check_date": "2023-01-02",
        "name": "HDFC Bank",
        "name:kn": "ಎಚ್ ಡಿ ಎಫ್ ಸಿ",
        "operator": "HDFC Bank",
        "short_name": "HDFC",
        "wheelchair": "no"
      }
    },
    {
      "type": "node",
      "id": 9811397090,
      "lat": 12.9976256,
      "lon": 77.5532413,
      "tags": {
        "access": "yes",
        "amenity": "toilets",
        "check_date": "2025-03-18",
        "operator": "BBMP"
      }
    },
    {
      "type": "node",
      "id": 9872645087,
      "lat": 12.9841291,
      "lon": 77.5576642,
      "tags": {
        "shop": "copyshop"
      }
    },
    {
      "type": "node",
      "id": 9872645098,
      "lat": 12.9852752,
      "lon": 77.5564539,
      "tags": {
        "amenity": "atm",
        "brand": "State Bank of India",
        "brand:wikidata": "Q1340361",
        "name": "State Bank of India",
        "name:kn": "ಎಸ್ ಬಿ ಐ",
        "operator": "State Bank of India",
        "operator:wikidata": "Q1340361",
        "short_name": "SBI"
      }
    },
    {
      "type": "node",
      "id": 9872645099,
      "lat": 12.9867722,
      "lon": 77.5562862,
      "tags": {
        "name": "Kempegowda Vegetable Market",
        "shop": "greengrocer"
      }
    },
    {
      "type": "node",
      "id": 9872645102,
      "lat": 12.9892564,
      "lon": 77.5561494,
      "tags": {
        "name": "cycle.in",
        "shop": "bicycle"
      }
    },
    {
      "type": "node",
      "id": 9872645103,
      "lat": 12.9895171,
      "lon": 77.5561675,
      "tags": {
        "amenity": "cafe",
        "name": "Tandoor Chai Point"
      }
    },
    {
      "type": "node",
      "id": 9872645104,
      "lat": 12.9895929,
      "lon": 77.5553307,
      "tags": {
        "amenity": "kindergarten",
        "name": "Kids Cube International"
      }
    },
    {
      "type": "node",
      "id": 9872645111,
      "lat": 12.9897405,
      "lon": 77.5526163,
      "tags": {
        "shop": "greengrocer"
      }
    },
    {
      "type": "node",
      "id": 9872645114,
      "lat": 12.9905083,
      "lon": 77.5507381,
      "tags": {
        "access": "yes",
        "amenity": "toilets"
      }
    },
    {
      "type": "node",
      "id": 9895563364,
      "lat": 12.9979395,
      "lon": 77.5499441,
      "tags": {
        "male": "yes",
        "name": "Le-Studio",
        "shop": "hairdresser"
      }
    },
    {
      "type": "node",
      "id": 9909999098,
      "lat": 12.9974759,
      "lon": 77.5602881,
      "tags": {
        "name": "Jyothi Kaju Bhavan",
        "shop": "pastry"
      }
    },
    {
      "type": "node",
      "id": 9909999112,
      "lat": 12.9844173,
      "lon": 77.5574496,
      "tags": {
        "name": "Royal Cakes and Cookies",
        "shop": "bakery"
      }
    },
    {
      "type": "node",
      "id": 9909999114,
      "lat": 12.9851805,
      "lon": 77.5565518,
      "tags": {
        "name": "Window Styles",
        "shop": "curtain"
      }
    },
    {
      "type": "node",
      "id": 9909999115,
      "lat": 12.9870231,
      "lon": 77.5562178,
      "tags": {
        "amenity": "dentist",
        "name": "Bagda Dental Care"
      }
    },
    {
      "type": "node",
      "id": 9909999116,
      "lat": 12.9893616,
      "lon": 77.5561199,
      "tags": {
        "amenity": "fast_food",
        "cuisine": "regional",
        "name": "Malnad Cafe"
      }
    },
    {
      "type": "node",
      "id": 9910000923,
      "lat": 12.9941692,
      "lon": 77.5513637,
      "tags": {
        "name": "Kadambari",
        "shop": "boutique"
      }
    },
    {
      "type": "node",
      "id": 9910000932,
      "lat": 12.9977366,
      "lon": 77.5493745,
      "tags": {
        "amenity": "cafe",
        "name": "Kaappi Ready"
      }
    },
    {
      "type": "node",
      "id": 9936631185,
      "lat": 12.986139,
      "lon": 77.5508943,
      "tags": {
        "amenity": "school",
        "name": "Bala Vidya Mandir School"
      }
    },
    {
      "type": "node",
      "id": 9936631186,
      "lat": 12.9860841,
      "lon": 77.5507428,
      "tags": {
        "amenity": "kindergarten",
        "name": "Jack and the Beanstalk"
      }
    },
    {
      "type": "node",
      "id": 9936631187,
      "lat": 12.9881057,
      "lon": 77.550838,
      "tags": {
        "brand": "HOPCOMS",
        "brand:wikidata": "Q22908959",
        "name": "HOPCOMS",
        "shop": "greengrocer"
      }
    },
    {
      "type": "node",
      "id": 9936631189,
      "lat": 12.9878673,
      "lon": 77.5507743,
      "tags": {
        "access": "yes",
        "amenity": "toilets",
        "fee": "yes",
        "operator": "BBMP"
      }
    },
    {
      "type": "node",
      "id": 9936668824,
      "lat": 12.9874406,
      "lon": 77.5509466,
      "tags": {
        "amenity": "drinking_water"
      }
    },
    {
      "type": "node",
      "id": 9936668825,
      "lat": 12.9871936,
      "lon": 77.5507991,
      "tags": {
        "shop": "hairdresser"
      }
    },
    {
      "type": "node",
      "id": 9936668911,
      "lat": 12.9871845,
      "lon": 77.5501205,
      "tags": {
        "name": "Vivek Tailors",
        "shop": "tailor"
      }
    },
    {
      "type": "node",
      "id": 10032901881,
      "lat": 12.9982887,
      "lon": 77.5491294,
      "tags": {
        "amenity": "fast_food",
        "name": "Raj Lakshmi Momos Corner"
      }
    },
    {
      "type": "node",
      "id": 10138042330,
      "lat": 12.9986069,
      "lon": 77.5503404,
      "tags": {
        "amenity": "fast_food",
        "cuisine": "regional",
        "name": "Vaibhav Biryani"
      }
    },
    {
      "type": "node",
      "id": 10183518534,
      "lat": 12.9976491,
      "lon": 77.5598998,
      "tags": {
        "amenity": "atm",
        "brand": "Canara Bank",
        "brand:en": "Canara Bank",
        "brand:hi": "केनरा बैंक",
        "brand:kn": "ಕೆನರಾ ಬ್ಯಾಂಕ್",
        "brand:pa": "ਕੇਨਰਾ ਬੈਂਕ",
        "brand:pnb": "کینرا بینک",
        "brand:ur": "کینرا بینک",
        "brand:wikidata": "Q2003777",
        "name:en": "Canara Bank",
        "name:hi": "केनरा बैंक",
        "name:kn": "ಕೆನರಾ ಬ್ಯಾಂಕ್",
        "name:pa": "ਕੇਨਰਾ ਬੈਂਕ",
        "name:pnb": "کینرا بینک",
        "name:ur": "کینرا بینک",
        "operator": "Canara Bank",
        "operator:wikidata": "Q2003777"
      }
    },
    {
      "type": "node",
      "id": 10183518535,
      "lat": 12.9979,
      "lon": 77.5592387,
      "tags": {
        "shop": "furniture"
      }
    },
    {
      "type": "node",
      "id": 10183518536,
      "lat": 12.9983652,
      "lon": 77.5580183,
      "tags": {
        "shop": "bicycle"
      }
    },
    {
      "type": "node",
      "id": 10276162816,
      "lat": 12.9990996,
      "lon": 77.5502801,
      "tags": {
        "amenity": "college",
        "name": "Sri Aurobindo College"
      }
    },
    {
      "type": "node",
      "id": 10279677059,
      "lat": 12.9840494,
      "lon": 77.5578305,
      "tags": {
        "leisure": "fitness_centre",
        "name": "Tusker Fitness"
      }
    },
    {
      "type": "node",
      "id": 10285926886,
      "lat": 12.9869518,
      "lon": 77.5558249,
      "tags": {
        "contact:facebook": "tumbledry.in",
        "contact:instagram": "tumbledryind",
        "laundry_service": "yes",
        "name": "Tumbledry",
        "phone": "+917677250250",
        "shop": "laundry",
        "website": "https://www.tumbledry.in/"
      }
    },
    {
      "type": "node",
      "id": 10285926887,
      "lat": 12.9894282,
      "lon": 77.5541009,
      "tags": {
        "amenity": "dentist"
      }
    },
    {
      "type": "node",
      "id": 10285926888,
      "lat": 12.9894334,
      "lon": 77.5540446,
      "tags": {
        "amenity": "restaurant",
        "cuisine": "regional",
        "name": "Swagat"
      }
    },
    {
      "type": "node",
      "id": 10285926890,
      "lat": 12.9918327,
      "lon": 77.5525928,
      "tags": {
        "access": "customers",
        "amenity": "toilets",
        "fee": "yes",
        "operator": "BBMP"
      }
    },
    {
      "type": "node",
      "id": 10286250885,
      "lat": 12.9961908,
      "lon": 77.5640237,
      "tags": {
        "amenity": "bank",
        "atm": "yes",
        "brand": "Canara Bank",
        "brand:en": "Canara Bank",
        "brand:hi": "केनरा बैंक",
        "brand:kn": "ಕೆನರಾ ಬ್ಯಾಂಕ್",
        "brand:pa": "ਕੇਨਰਾ ਬੈਂਕ",
        "brand:pnb": "کینرا بینک",
        "brand:ur": "کینرا بینک",
        "brand:wikidata": "Q2003777",
        "name": "Canara Bank",
        "name:en": "Canara Bank",
        "name:hi": "केनरा बैंक",
        "name:kn": "ಕೆನರಾ ಬ್ಯಾಂಕ್",
        "name:pa": "ਕੇਨਰਾ ਬੈਂਕ",
        "name:pnb": "کینرا بینک",
        "name:ur": "کینرا بینک",
        "operator": "Canara Bank"
      }
    },
    {
      "type": "node",
      "id": 10286250895,
      "lat": 12.9977412,
      "lon": 77.5513718,
      "tags": {
        "brand": "Vivo",
        "brand:wikidata": "Q18301787",
        "name": "Vivo",
        "shop": "mobile_phone"
      }
    },
    {
      "type": "node",
      "id": 10298704408,
      "lat": 12.999059,
      "lon": 77.5495592,
      "tags": {
        "name": "Jaya's Skin Essentia",
        "shop": "beauty"
      }
    },
    {
      "type": "node",
      "id": 10303872102,
      "lat": 12.9999811,
      "lon": 77.552513,
      "tags": {
        "amenity": "bank",
        "atm": "yes",
        "brand": "IndusInd Bank",
        "brand:wikidata": "Q2040323",
        "check_date": "2023-01-02",
        "name": "IndusInd Bank",
        "source": "survey",
        "wheelchair": "no"
      }
    },
    {
      "type": "node",
      "id": 10303872103,
      "lat": 13.0003797,
      "lon": 77.552997,
      "tags": {
        "amenity": "bank",
        "atm": "yes",
        "check_date": "2023-01-02",
        "name": "DCB Bank",
        "name:kn": "ಡಿಸಿಬಿ ಬ್ಯಾಂಕ್",
        "source": "survey"
      }
    },
    {
      "type": "node",
      "id": 10303872104,
      "lat": 13.0008101,
      "lon": 77.5530886,
      "tags": {
        "amenity": "atm",
        "brand": "ICICI Bank",
        "brand:wikidata": "Q1653258",
        "check_date": "2023-01-02",
        "name": "ICICI Bank",
        "name:kn": "ಐಸಿಐಸಿಐ ಬ್ಯಾಂಕು",
        "operator": "ICICI Bank",
        "operator:wikidata": "Q1653258",
        "short_name": "ICICI",
        "source": "survey",
        "wheelchair": "no"
      }
    },
    {
      "type": "node",
      "id": 10303872107,
      "lat": 13.0011678,
      "lon": 77.5532246,
      "tags": {
        "amenity": "restaurant",
        "check_date": "2023-01-02",
        "diet:non-vegetarian": "yes",
        "name": "Savipriya Hindu Military Hotel",
        "source": "survey",
        "wheelchair": "no"
      }
    },
    {
      "type": "node",
      "id": 10303927110,
      "lat": 12.9991903,
      "lon": 77.5525312,
      "tags": {
        "amenity": "bank",
        "atm": "yes",
        "branch": "Rajajinagar",
        "brand": "Canara Bank",
        "brand:en": "Canara Bank",
        "brand:hi": "केनरा बैंक",
        "brand:kn": "ಕೆನರಾ ಬ್ಯಾಂಕ್",
        "brand:pa": "ਕੇਨਰਾ ਬੈਂਕ",
        "brand:pnb": "کینرا بینک",
        "brand:ur": "کینرا بینک",
        "brand:wikidata": "Q2003777",
        "check_date": "2023-01-02",
        "name": "Canara Bank",
        "name:en": "Canara Bank",
        "name:hi": "केनरा बैंक",
        "name:kn": "ಕೆನರಾ ಬ್ಯಾಂಕ್",
        "name:pa": "ਕੇਨਰਾ ਬੈਂਕ",
        "name:pnb": "کینرا بینک",
        "name:ur": "کینرا بینک",
        "source": "survey"
      }
    },
    {
      "type": "node",
      "id": 10571082049,
      "lat": 12.9905041,
      "lon": 77.5580505,
      "tags": {
        "addr:city": "Bengaluru",
        "addr:housenumber": "1003",
        "addr:postcode": "560010",
        "addr:street": "4th Block Dr. Rajkumar Road Near Navrang Bar, Rajajinagar",
        "name": "Bulwark Authorized Motorcycle Riding Gears",
        "opening_hours": "Mo-Su 09:30-20:30",
        "shop": "motorcycle"
      }
    },
    {
      "type": "node",
      "id": 10571126134,
      "lat": 12.9903362,
      "lon": 77.5584987,
      "tags": {
        "addr:city": "Bengaluru",
        "addr:housenumber": "71/61",
        "addr:postcode": "560021",
        "addr:street": "Dr. Rajkumar Road, 3rd Stage, Prakash Nagar, Rajajinagar",
        "name": "Rynox Showroom Rajajinagar",
        "opening_hours": "Mo-Su 11:00-20:00",
        "phone": "07411539955",
        "shop": "motorcycle"
      }
    },
    {
      "type": "node",
      "id": 10934276549,
      "lat": 12.9985298,
      "lon": 77.5575603,
      "tags": {
        "amenity": "clinic",
        "name": "Namma Clinic"
      }
    },
    {
      "type": "node",
      "id": 11025051044,
      "lat": 12.9982515,
      "lon": 77.5489122,
      "tags": {
        "amenity": "shelter",
        "shelter_type": "gazebo"
      }
    },
    {
      "type": "node",
      "id": 11088679767,
      "lat": 12.9878755,
      "lon": 77.5560771,
      "tags": {
        "brand": "Nandini",
        "name": "Nandini",
        "shop": "dairy"
      }
    },
    {
      "type": "node",
      "id": 11088679768,
      "lat": 12.9974204,
      "lon": 77.5506404,
      "tags": {
        "name": "Alcho Lab",
        "shop": "wine"
      }
    },
    {
      "type": "node",
      "id": 11102274265,
      "lat": 12.9846349,
      "lon": 77.5536744,
      "tags": {
        "name": "Kim Lee Beauty Parlour",
        "shop": "beauty"
      }
    },
    {
      "type": "node",
      "id": 11102274266,
      "lat": 12.9847002,
      "lon": 77.5536101,
      "tags": {
        "amenity": "restaurant",
        "name": "Kim Lee Restaurant"
      }
    },
    {
      "type": "node",
      "id": 11102274267,
      "lat": 12.9857652,
      "lon": 77.55176,
      "tags": {
        "amenity": "restaurant",
        "name": "Sicilia Point"
      }
    },
    {
      "type": "node",
      "id": 11102274271,
      "lat": 12.9873583,
      "lon": 77.5507381,
      "tags": {
        "amenity": "clinic",
        "name": "Dhanavantri Health Care"
      }
    },
    {
      "type": "node",
      "id": 11196202957,
      "lat": 12.9981235,
      "lon": 77.5573106,
      "tags": {
        "amenity": "place_of_worship",
        "check_date": "2023-09-16",
        "name": "Sri Balamuri Ganapathi Temple",
        "religion": "hindu"
      }
    },
    {
      "type": "node",
      "id": 11465535796,
      "lat": 12.9965458,
      "lon": 77.5630224,
      "tags": {
        "access": "customers",
        "amenity": "toilets",
        "check_date": "2023-11-21",
        "level": "1",
        "operator": "BMRCL"
      }
    },
    {
      "type": "node",
      "id": 11465535797,
      "lat": 12.9966335,
      "lon": 77.5630375,
      "tags": {
        "access": "customers",
        "amenity": "drinking_water",
        "fee": "no",
        "layer": "1",
        "level": "1"
      }
    },
    {
      "type": "node",
      "id": 11982389393,
      "lat": 12.9977266,
      "lon": 77.5496662,
      "tags": {
        "amenity": "fast_food",
        "check_date": "2024-06-15",
        "name": "Ganapa Thatte Idli"
      }
    },
    {
      "type": "node",
      "id": 11982389397,
      "lat": 12.9988382,
      "lon": 77.5550964,
      "tags": {
        "amenity": "hospital",
        "check_date": "2024-06-15",
        "healthcare": "hospital",
        "name": "New Varalakshmi Hospital"
      }
    },
    {
      "type": "node",
      "id": 11982389398,
      "lat": 12.9987672,
      "lon": 77.556238,
      "tags": {
        "check_date": "2024-06-15",
        "name": "Specscart",
        "shop": "optician"
      }
    },
    {
      "type": "node",
      "id": 12103684984,
      "lat": 12.9993937,
      "lon": 77.5501824,
      "tags": {
        "check_date": "2024-08-11",
        "name": "Cee Jay School Supplies",
        "shop": "stationery"
      }
    },
    {
      "type": "node",
      "id": 12103684985,
      "lat": 12.9993248,
      "lon": 77.5497135,
      "tags": {
        "access": "private",
        "amenity": "motorcycle_parking",
        "capacity": "10",
        "covered": "no"
      }
    },
    {
      "type": "node",
      "id": 12103825747,
      "lat": 12.9983088,
      "lon": 77.5528285,
      "tags": {
        "check_date": "2024-08-11",
        "name": "Ramya Tours & Travels",
        "shop": "travel_agency"
      }
    },
    {
      "type": "node",
      "id": 12103825765,
      "lat": 12.9984584,
      "lon": 77.5534988,
      "tags": {
        "check_date": "2024-08-11",
        "name": "Navarang Opticals",
        "shop": "optician"
      }
    },
    {
      "type": "node",
      "id": 12103825766,
      "lat": 12.9982841,
      "lon": 77.552708,
      "tags": {
        "check_date": "2024-08-11",
        "name": "Mataji Mobile and Accessories",
        "shop": "mobile_phone"
      }
    },
    {
      "type": "node",
      "id": 12103825768,
      "lat": 12.9983224,
      "lon": 77.5528804,
      "tags": {
        "check_date": "2024-08-11",
        "shop": "mobile_phone"
      }
    },
    {
      "type": "node",
      "id": 12103825769,
      "lat": 12.9983131,
      "lon": 77.5527368,
      "tags": {
        "check_date": "2024-08-11",
        "name": "Mahalakshmi Tours & Travels",
        "shop": "travel_agency"
      }
    },
    {
      "type": "node",
      "id": 12103825770,
      "lat": 12.9978859,
      "lon": 77.5523038,
      "tags": {
        "amenity": "fast_food",
        "check_date": "2024-08-11",
        "name": "New Meenakshi Coffee Bar"
      }
    },
    {
      "type": "node",
      "id": 12103825773,
      "lat": 12.9981375,
      "lon": 77.5519794,
      "tags": {
        "amenity": "fast_food",
        "check_date": "2024-08-11",
        "name": "New Shetty Lunch Home"
      }
    },
    {
      "type": "node",
      "id": 12103825774,
      "lat": 12.9975886,
      "lon": 77.5508595,
      "tags": {
        "check_date": "2024-08-11",
        "name": "Suman Pharma and Opticals",
        "shop": "optician"
      }
    },
    {
      "type": "node",
      "id": 12118816468,
      "lat": 12.9964977,
      "lon": 77.5544213,
      "tags": {
        "addr:street": "Dr. Rajkumar Road",
        "name": "The Detailing Mafia",
        "shop": "car_repair"
      }
    },
    {
      "type": "node",
      "id": 12118816469,
      "lat": 12.990542,
      "lon": 77.5580302,
      "tags": {
        "addr:street": "Dr. Rajkumar Road",
        "amenity": "bank",
        "atm": "yes",
        "brand": "City Union Bank",
        "brand:en": "City Union Bank",
        "brand:hi": "सिटी यूनियन बैंक",
        "brand:ta": "சிட்டி யூனியன் வங்கி",
        "brand:wikidata": "Q2040264",
        "name": "City Union Bank",
        "name:en": "City Union Bank",
        "name:hi": "सिटी यूनियन बैंक",
        "name:ta": "சிட்டி யூனியன் வங்கி",
        "short_name": "CUB"
      }
    },
    {
      "type": "node",
      "id": 12240737170,
      "lat": 12.99743,
      "lon": 77.5510293,
      "tags": {
        "amenity": "hospital",
        "name": "Netradhama"
      }
    },
    {
      "type": "node",
      "id": 12252320934,
      "lat": 12.9987184,
      "lon": 77.552661,
      "tags": {
        "addr:city": "Bengaluru",
        "addr:district": "BENGALURU URBAN",
        "addr:housenumber": "2nd & 3rd Floor, No. 4/110, 1st Main Rd, 1st Block,",
        "addr:postcode": "560010",
        "addr:street": "Dr. Rajkumar Road",
        "amenity": "clinic",
        "healthcare": "clinic",
        "healthcare:speciality": "fertility",
        "name": "Shishu Ivf Fertility Centre Pvt Ltd",
        "opening_hours": "Mo-Su 09:00-19:00",
        "operator": "Fertility Centre",
        "operator:type": "private",
        "short_name": "SHISHU IVF FERTILITY CENTRE"
      }
    },
    {
      "type": "node",
      "id": 12260569980,
      "lat": 12.998931,
      "lon": 77.5503123,
      "tags": {
        "name": "Vanillaa Bakery and Cafe",
        "shop": "bakery",
        "website": "https://vanillaablr.com/"
      }
    },
    {
      "type": "node",
      "id": 12487685586,
      "lat": 12.9948911,
      "lon": 77.5506484,
      "tags": {
        "name": "Malnad Coffee House",
        "shop": "coffee"
      }
    },
    {
      "type": "node",
      "id": 12529149438,
      "lat": 12.9847832,
      "lon": 77.5540436,
      "tags": {
        "addr:city": "Bengaluru",
        "addr:district": "Bengaluru Urban",
        "addr:postcode": "560010",
        "addr:street": "12th Main Rd, 3rd Block, Rajajinagar",
        "brand": "Peter England",
        "brand:wikidata": "Q19573665",
        "clothes": "men",
        "name": "Peter England",
        "shop": "clothes"
      }
    },
    {
      "type": "node",
      "id": 12676261329,
      "lat": 12.9954818,
      "lon": 77.5516759,
      "tags": {
        "brand": "Nandini",
        "brand:wikidata": "Q124374212",
        "check_date": "2025-03-18",
        "name": "Nandini",
        "shop": "dairy"
      }
    },
    {
      "type": "node",
      "id": 12676261330,
      "lat": 12.9953929,
      "lon": 77.5516944,
      "tags": {
        "brand": "HOPCOMS",
        "brand:wikidata": "Q22908959",
        "check_date": "2025-03-18",
        "name": "HOPCOMS",
        "shop": "greengrocer"
      }
    },
    {
      "type": "node",
      "id": 12676261338,
      "lat": 12.9937247,
      "lon": 77.5539724,
      "tags": {
        "amenity": "hospital",
        "check_date": "2025-03-18",
        "healthcare": "hospital",
        "name": "Jindal Charitable Hospital"
      }
    },
    {
      "type": "node",
      "id": 12676261339,
      "lat": 12.9946172,
      "lon": 77.5547119,
      "tags": {
        "amenity": "place_of_worship",
        "check_date": "2025-03-18",
        "religion": "hindu"
      }
    },
    {
      "type": "node",
      "id": 12676261340,
      "lat": 12.994762,
      "lon": 77.5546732,
      "tags": {
        "check_date": "2025-03-18",
        "name": "Gayathri Furniture",
        "shop": "furniture"
      }
    },
    {
      "type": "node",
      "id": 12676261341,
      "lat": 12.994543,
      "lon": 77.5546671,
      "tags": {
        "brand": "Nandini",
        "brand:wikidata": "Q124374212",
        "check_date": "2025-03-18",
        "name": "Nandini",
        "shop": "dairy"
      }
    },
    {
      "type": "node",
      "id": 12676261349,
      "lat": 12.9948384,
      "lon": 77.5552933,
      "tags": {
        "amenity": "fast_food",
        "check_date": "2025-03-18",
        "name": "Taj Biryani Paradise"
      }
    },
    {
      "type": "node",
      "id": 12676261351,
      "lat": 12.9950231,
      "lon": 77.5552222,
      "tags": {
        "check_date": "2025-03-18",
        "name": "Star of Bangalore",
        "shop": "newsagent"
      }
    },
    {
      "type": "node",
      "id": 12676261352,
      "lat": 12.9955319,
      "lon": 77.5546673,
      "tags": {
        "amenity": "restaurant",
        "brand": "Pizza Hut",
        "brand:wikidata": "Q191615",
        "check_date": "2025-03-18",
        "cuisine": "pizza",
        "name": "Pizza Hut"
      }
    },
    {
      "type": "node",
      "id": 12676261357,
      "lat": 12.9984626,
      "lon": 77.5527166,
      "tags": {
        "check_date": "2025-03-18",
        "name": "Chinnu Photo Books",
        "shop": "books"
      }
    },
    {
      "type": "node",
      "id": 12777774134,
      "lat": 12.9984145,
      "lon": 77.5558812,
      "tags": {
        "amenity": "drinking_water"
      }
    },
    {
      "type": "node",
      "id": 12777774136,
      "lat": 12.9969944,
      "lon": 77.5551845,
      "tags": {
        "amenity": "library",
        "name": "Government Library"
      }
    },
    {
      "type": "node",
      "id": 12777774171,
      "lat": 12.9983704,
      "lon": 77.5574537,
      "tags": {
        "access": "customers",
        "amenity": "toilets",
        "female": "yes",
        "layer": "1",
        "level": "1",
        "male": "yes",
        "wheelchair": "limited"
      }
    },
    {
      "type": "node",
      "id": 12777774172,
      "lat": 12.9982979,
      "lon": 77.5573209,
      "tags": {
        "amenity": "atm",
        "brand": "State Bank of India",
        "brand:wikidata": "Q1340361",
        "cash_in": "no",
        "layer": "1",
        "level": "1",
        "name": "State Bank of India",
        "name:kn": "ಎಸ್ ಬಿ ಐ",
        "operator": "State Bank of India",
        "operator:wikidata": "Q1340361",
        "short_name": "SBI"
      }
    },
    {
      "type": "node",
      "id": 12860300101,
      "lat": 12.9872272,
      "lon": 77.5542226,
      "tags": {
        "addr:postcode": "560010",
        "addr:street": "12th Main Road",
        "name": "Namma MTR",
        "shop": "grocery"
      }
    },
    {
      "type": "node",
      "id": 12901334775,
      "lat": 12.9859554,
      "lon": 77.5509443,
      "tags": {
        "amenity": "cafe",
        "brand": "Third Wave Coffee Roasters",
        "brand:wikidata": "Q7785004",
        "cuisine": "coffee_shop",
        "delivery": "yes",
        "name": "Third Wave Coffee Roasters",
        "takeaway": "yes"
      }
    },
    {
      "type": "node",
      "id": 12901334776,
      "lat": 13.0007892,
      "lon": 77.5527658,
      "tags": {
        "addr:city": "Bengaluru",
        "addr:hamlet": "Rajajinagar 1st Block",
        "addr:housenumber": "125",
        "addr:postcode": "560010",
        "addr:street": "Dr. Rajkumar Road",
        "addr:suburb": "Rajajinagar",
        "amenity": "cafe",
        "name": "Screws and Brews"
      }
    },
    {
      "type": "node",
      "id": 12990956824,
      "lat": 12.984977,
      "lon": 77.5535912,
      "tags": {
        "amenity": "post_box",
        "operator": "India Post"
      }
    },
    {
      "type": "way",
      "id": 38096679,
      "center": {
        "lat": 12.9973223,
        "lon": 77.5564063
      },
      "tags": {
        "alt_name": "Gayathri Devi Park",
        "leisure": "park",
        "name": "Mariyappna Palya Park",
        "name:kn": "ಮರಿಯಪ್ಪನ ಪಾಳ್ಯ ಉದ್ಯಾನವನ"
      }
    },
    {
      "type": "way",
      "id": 132706873,
      "center": {
        "lat": 12.9966867,
        "lon": 77.553549
      },
      "tags": {
        "leisure": "park",
        "name": "Navaranga Playground",
        "name:kn": "ನವರಂಗ ಉದ್ಯಾನವನ"
      }
    },
    {
      "type": "way",
      "id": 133756192,
      "center": {
        "lat": 12.9872218,
        "lon": 77.5504671
      },
      "tags": {
        "leisure": "park",
        "name": "Dhobi Ghat Park"
      }
    },
    {
      "type": "way",
      "id": 138697265,
      "center": {
        "lat": 12.9909528,
        "lon": 77.5534579
      },
      "tags": {
        "alt_name": "ESI Hospital",
        "amenity": "hospital",
        "emergency": "yes",
        "healthcare": "hospital",
        "int_name": "ESICMH",
        "name": "Employees' State Insurance Corporation Model Hospital",
        "operator": "Employees' State Insurance",
        "operator:short": "ESI",
        "operator:wikidata": "Q3595726",
        "wheelchair": "yes"
      }
    },
    {
      "type": "way",
      "id": 147695305,
      "center": {
        "lat": 12.9959167,
        "lon": 77.5535397
      },
      "tags": {
        "alt_name": "K.L.E Society's Nijalingappa College",
        "amenity": "college",
        "name": "K L E Society's S. Nijalingappa College",
        "name:etymology:wikidata": "Q554171",
        "name:kn": "ನಿಜಲಿಂಗಪ್ಪ ಕಾಲೇಜು"
      }
    },
    {
      "type": "way",
      "id": 166612453,
      "center": {
        "lat": 12.9837431,
        "lon": 77.5566697
      },
      "tags": {
        "alt_name": "Rajajinagar PU and Degree College",
        "amenity": "college",
        "name": "MEI Polytechnic College"
      }
    },
    {
      "type": "way",
      "id": 166612476,
      "center": {
        "lat": 12.9846189,
        "lon": 77.5559879
      },
      "tags": {
        "amenity": "school"
      }
    },
    {
      "type": "way",
      "id": 187152098,
      "center": {
        "lat": 12.9926872,
        "lon": 77.549977
      },
      "tags": {
        "leisure": "park",
        "name": "Manjunathnagar Park",
        "name:kn": "ಮಂಜುನಾಥನಗರ ಉದ್ಯಾನವನ"
      }
    },
    {
      "type": "way",
      "id": 192184216,
      "center": {
        "lat": 12.9983963,
        "lon": 77.5488518
      },
      "tags": {
        "leisure": "park",
        "name": "Line Park"
      }
    },
    {
      "type": "way",
      "id": 248981465,
      "center": {
        "lat": 12.9856441,
        "lon": 77.5561073
      },
      "tags": {
        "leisure": "park",
        "name": "Ram Mandir Ground"
      }
    },
    {
      "type": "way",
      "id": 248982011,
      "center": {
        "lat": 12.9864756,
        "lon": 77.5560959
      },
      "tags": {
        "amenity": "place_of_worship",
        "building": "temple",
        "name": "Sri Rama Mandira",
        "name:kn": "ಶ್ರೀ ರಾಮ ಮಂದಿರ",
        "religion": "hindu"
      }
    },
    {
      "type": "way",
      "id": 255664771,
      "center": {
        "lat": 12.991534,
        "lon": 77.5534904
      },
      "tags": {
        "alt_name": "ESICMC & PGIMSR",
        "amenity": "college",
        "int_name": "ESI Medical College",
        "name": "Employees' State Insurance Corporation Medical College & Post Graduate Institute of Medical Science & Research",
        "wheelchair": "limited"
      }
    },
    {
      "type": "way",
      "id": 271785239,
      "center": {
        "lat": 12.9900504,
        "lon": 77.5649365
      },
      "tags": {
        "amenity": "police",
        "building": "yes",
        "name": "Srirampura Police Station",
        "name:kn": "ಶ್ರೀರಾಮಪುರ ಆರಕ್ಷಕ ಠಾಣೆ"
      }
    },
    {
      "type": "way",
      "id": 271785644,
      "center": {
        "lat": 12.9903679,
        "lon": 77.5648606
      },
      "tags": {
        "amenity": "school",
        "name": "Government Kannada High School",
        "name:kn": "ಸರ್ಕಾರಿ ಕನ್ನಡ ಪ್ರೌಡಶಾಲೆ"
      }
    },
    {
      "type": "way",
      "id": 271786067,
      "center": {
        "lat": 12.9907432,
        "lon": 77.5649082
      },
      "tags": {
        "addr:district": "Bengaluru Urban",
        "addr:full": "Bhashyam Circle,Rajajinagar 5Th Block",
        "addr:postcode": "560010",
        "addr:state": "Karnataka",
        "amenity": "hospital",
        "healthcare": "hospital",
        "name": "Sreerampura Referal Hospital",
        "name:kn": "ಶ್ರೀರಂಪುರ ರೆಫರಲ್ ಆಸ್ಪತ್ರೆ",
        "source": "OpenGovernmentData"
      }
    },
    {
      "type": "way",
      "id": 314079480,
      "center": {
        "lat": 12.9943157,
        "lon": 77.5532784
      },
      "tags": {
        "amenity": "school",
        "name": "Basaweshwara School",
        "name:kn": "ಬಸವೇಶ್ವರ ಶಾಲೆ"
      }
    },
    {
      "type": "way",
      "id": 314082237,
      "center": {
        "lat": 12.9898972,
        "lon": 77.557249
      },
      "tags": {
        "leisure": "park",
        "name": "Children' play park"
      }
    },
    {
      "type": "way",
      "id": 314082268,
      "center": {
        "lat": 12.988455,
        "lon": 77.5580134
      },
      "tags": {
        "amenity": "place_of_worship",
        "building": "yes",
        "name": "Masoodhi",
        "name:kn": "ಮಸ್ಜಿದ್-ಎ-ನೂರ್",
        "religion": "muslim"
      }
    },
    {
      "type": "way",
      "id": 314895195,
      "center": {
        "lat": 12.9934222,
        "lon": 77.5543414
      },
      "tags": {
        "amenity": "post_office",
        "building": "yes",
        "name": "Rajajinagar Head Post Office",
        "name:kn": "ರಾಜಾಜಿನಗರ ಮುಖ್ಯ ಅಂಚೆ ಕಛೇರಿ"
      }
    },
    {
      "type": "way",
      "id": 325257051,
      "center": {
        "lat": 12.9978518,
        "lon": 77.5527756
      },
      "tags": {
        "amenity": "cinema",
        "building": "yes",
        "name": "Navarang",
        "name:kn": "ನವರಂಗ"
      }
    },
    {
      "type": "way",
      "id": 332419689,
      "center": {
        "lat": 12.9860061,
        "lon": 77.5561076
      },
      "tags": {
        "addr:city": "Bengaluru",
        "addr:district": "Bengaluru Urban",
        "addr:housenumber": "228/B",
        "addr:postcode": "560010",
        "addr:street": "55th Cross Rd, 1st Block, 3rd Block, Rajajinagar",
        "amenity": "library",
        "building": "yes",
        "name": "Public Library Rama Mandira Ground"
      }
    },
    {
      "type": "way",
      "id": 332420722,
      "center": {
        "lat": 12.9846871,
        "lon": 77.5539948
      },
      "tags": {
        "addr:city": "Bengaluru",
        "addr:postcode": "560010",
        "addr:street": "12th Main Road, Bashyam Circle, 3rd Block, Rajajinagar",
        "building": "yes",
        "name": "Flying Machine",
        "shop": "clothes"
      }
    },
    {
      "type": "way",
      "id": 334146826,
      "center": {
        "lat": 12.989147,
        "lon": 77.5576453
      },
      "tags": {
        "leisure": "park",
        "name": "Dharma Naidu Udhyanavana",
        "name:kn": "ಧರ್ಮ ನಾಯಿದು ಉದ್ಯಾನವನ"
      }
    },
    {
      "type": "way",
      "id": 334150635,
      "center": {
        "lat": 12.9896286,
        "lon": 77.5545539
      },
      "tags": {
        "amenity": "community_centre",
        "building": "yes",
        "name": "Terapanth Bhavan",
        "name:kn": "ತೇರಾಪಂಥ್ ಭವನ"
      }
    },
    {
      "type": "way",
      "id": 336673385,
      "center": {
        "lat": 12.9935446,
        "lon": 77.5523198
      },
      "tags": {
        "amenity": "community_centre",
        "building": "yes",
        "name": "Samudaya Bhavan",
        "name:kn": "ಸಮುದಾಯ ಭವನ"
      }
    },
    {
      "type": "way",
      "id": 346825888,
      "center": {
        "lat": 12.9972666,
        "lon": 77.5479581
      },
      "tags": {
        "building": "commercial",
        "building:levels": "4",
        "name": "Unlimited",
        "shop": "clothes"
      }
    },
    {
      "type": "way",
      "id": 347489304,
      "center": {
        "lat": 12.9924959,
        "lon": 77.5547168
      },
      "tags": {
        "amenity": "place_of_worship",
        "building": "church",
        "denomination": "catholic",
        "name": "Assumption Church",
        "religion": "christian"
      }
    },
    {
      "type": "way",
      "id": 347524506,
      "center": {
        "lat": 12.9867944,
        "lon": 77.5503643
      },
      "tags": {
        "amenity": "place_of_worship",
        "religion": "hindu"
      }
    },
    {
      "type": "way",
      "id": 347575616,
      "center": {
        "lat": 12.9844374,
        "lon": 77.5583151
      },
      "tags": {
        "addr:city": "Bangalore",
        "addr:housenumber": "222A/3",
        "addr:postcode": "560010",
        "addr:street": "58th Cross Rd, 4th Block, Rajaji Nagar,",
        "amenity": "place_of_worship",
        "building": "yes",
        "denomination": "original",
        "description": "Original Mandir To Worship Lord Swaminarayan",
        "name": "Shri Swaminarayan Mandir Vadtal Sansthan",
        "religion": "hindu",
        "website": "http://swaminarayanbangalore.com/"
      }
    },
    {
      "type": "way",
      "id": 347577234,
      "center": {
        "lat": 12.9853867,
        "lon": 77.5565285
      },
      "tags": {
        "amenity": "place_of_worship",
        "building": "yes",
        "fixme": "name of the temple/community hall/prayer hall",
        "religion": "jain"
      }
    },
    {
      "type": "way",
      "id": 347606477,
      "center": {
        "lat": 12.9898922,
        "lon": 77.5520058
      },
      "tags": {
        "amenity": "place_of_worship",
        "building": "yes",
        "religion": "hindu"
      }
    },
    {
      "type": "way",
      "id": 348535898,
      "center": {
        "lat": 12.9933779,
        "lon": 77.5533031
      },
      "tags": {
        "amenity": "college",
        "building": "yes",
        "layer": "1",
        "name": "Rural DIET, Rajajinagar",
        "name:kn": "ಜಿಲ್ಲಾ ಶೈಕ್ಷಿಣಿಕ ಮತ್ತು ತರಬೇತಿ ಸಂಸ್ಥೆ, ಬೆಂಗಳೂರು ಗ್ರಾಮಾಂತರ"
      }
    },
    {
      "type": "way",
      "id": 349097599,
      "center": {
        "lat": 12.98751,
        "lon": 77.5501255
      },
      "tags": {
        "building": "yes",
        "building:levels": "4",
        "local_ref": "Varier Bakery",
        "name": "O G Varier Bakery",
        "shop": "bakery",
        "wheelchair": "no"
      }
    },
    {
      "type": "way",
      "id": 363071335,
      "center": {
        "lat": 12.9863238,
        "lon": 77.5572633
      },
      "tags": {
        "addr:city": "Bangalore",
        "addr:housenumber": "209",
        "addr:postcode": "560010",
        "addr:street": "54th Cross Road",
        "dog": "yes",
        "leisure": "park",
        "name": "ABC Park",
        "opening_hours": "Mo-Su 05:00-20:00"
      }
    },
    {
      "type": "way",
      "id": 437871416,
      "center": {
        "lat": 12.9973687,
        "lon": 77.5552461
      },
      "tags": {
        "amenity": "school",
        "name": "Saibaba Womens School",
        "wheelchair": "no"
      }
    },
    {
      "type": "way",
      "id": 440598467,
      "center": {
        "lat": 12.9863051,
        "lon": 77.5502659
      },
      "tags": {
        "leisure": "playground",
        "name": "Dhobi Ghat Ground"
      }
    },
    {
      "type": "way",
      "id": 545806415,
      "center": {
        "lat": 12.9979566,
        "lon": 77.5506802
      },
      "tags": {
        "access": "yes",
        "amenity": "parking",
        "fee": "yes",
        "name": "Rajajinagar Metro Parking",
        "parking": "surface"
      }
    },
    {
      "type": "way",
      "id": 627403914,
      "center": {
        "lat": 12.9897262,
        "lon": 77.5508363
      },
      "tags": {
        "amenity": "community_centre",
        "landuse": "commercial",
        "name": "Dr. Bheem Rao Palace"
      }
    },
    {
      "type": "way",
      "id": 700172529,
      "center": {
        "lat": 12.9978595,
        "lon": 77.5501287
      },
      "tags": {
        "leisure": "garden"
      }
    },
    {
      "type": "way",
      "id": 766245127,
      "center": {
        "lat": 12.9925083,
        "lon": 77.554919
      },
      "tags": {
        "addr:city": "Bangalore",
        "addr:country": "IN",
        "addr:hamlet": "2nd Block Rajajinagar",
        "addr:postcode": "560010",
        "addr:street": "12th Main Road",
        "amenity": "school",
        "name": "Assumption English High School",
        "phone": "+91 80 2332 5723",
        "school:gender": "mixed",
        "website": "https://www.assumptionschoolabe.co.in/"
      }
    },
    {
      "type": "way",
      "id": 820135310,
      "center": {
        "lat": 12.9916612,
        "lon": 77.554227
      },
      "tags": {
        "amenity": "place_of_worship",
        "name": "Hanuman Temple",
        "name:kn": "ಹನುಮಂತ ದೇವಸ್ಥಾನ",
        "religion": "hindu",
        "wheelchair": "limited"
      }
    },
    {
      "type": "way",
      "id": 997924004,
      "center": {
        "lat": 12.998356,
        "lon": 77.5584602
      },
      "tags": {
        "alt_name": "Sri Hombegowda PU College",
        "amenity": "college",
        "name": "Mariyappa First Grade College"
      }
    },
    {
      "type": "way",
      "id": 1054127613,
      "center": {
        "lat": 12.9902224,
        "lon": 77.5514664
      },
      "tags": {
        "amenity": "place_of_worship",
        "name": "Anjaneya Ganesha Temple",
        "name:kn": "ಅಂಜನೇಯ ಗಣಪತಿ",
        "religion": "hindu"
      }
    },
    {
      "type": "way",
      "id": 1054127615,
      "center": {
        "lat": 12.9942212,
        "lon": 77.5550169
      },
      "tags": {
        "amenity": "community_centre",
        "name": "Sri Rajarajeshwari Kalyana Mantapa"
      }
    },
    {
      "type": "way",
      "id": 1068852047,
      "center": {
        "lat": 12.9968814,
        "lon": 77.5533519
      },
      "tags": {
        "leisure": "park",
        "name": "Navaranga Park",
        "name:kn": "ನವರಂಗ ಉದ್ಯಾನವನ"
      }
    },
    {
      "type": "way",
      "id": 1076618915,
      "center": {
        "lat": 12.9849552,
        "lon": 77.556924
      },
      "tags": {
        "amenity": "hospital"
      }
    },
    {
      "type": "way",
      "id": 1081206649,
      "center": {
        "lat": 12.9965467,
        "lon": 77.564252
      },
      "tags": {
        "amenity": "place_of_worship",
        "religion": "hindu"
      }
    },
    {
      "type": "way",
      "id": 1081206654,
      "center": {
        "lat": 12.9957639,
        "lon": 77.5510655
      },
      "tags": {
        "access": "customers",
        "amenity": "parking",
        "parking": "surface"
      }
    },
    {
      "type": "way",
      "id": 1084363602,
      "center": {
        "lat": 12.9854992,
        "lon": 77.5500979
      },
      "tags": {
        "name": "Dhobi Ghat",
        "name:kn": "ಧೋಬಿ ಘಾಟ್",
        "shop": "laundry"
      }
    },
    {
      "type": "way",
      "id": 1092672115,
      "center": {
        "lat": 12.9921356,
        "lon": 77.5480351
      },
      "tags": {
        "amenity": "school"
      }
    },
    {
      "type": "way",
      "id": 1106630229,
      "center": {
        "lat": 12.9944436,
        "lon": 77.5579391
      },
      "tags": {
        "amenity": "college"
      }
    },
    {
      "type": "way",
      "id": 1106630231,
      "center": {
        "lat": 12.9973825,
        "lon": 77.560968
      },
      "tags": {
        "amenity": "place_of_worship",
        "religion": "hindu"
      }
    },
    {
      "type": "way",
      "id": 1106630232,
      "center": {
        "lat": 12.9988218,
        "lon": 77.5616587
      },
      "tags": {
        "amenity": "college",
        "name": "Vivekananda College of Law",
        "name:kn": "ವಿವೇಕನಂದ ಕಾನೂನು ಕಾಲೇಜು"
      }
    },
    {
      "type": "way",
      "id": 1111108764,
      "center": {
        "lat": 12.993391,
        "lon": 77.5528384
      },
      "tags": {
        "amenity": "college",
        "name": "Government First Grade College",
        "name:kn": "ಸರಕಾರಿ ಪ್ರಥಮ ದರ್ಜೆ ಕಾಲೇಜು"
      }
    },
    {
      "type": "way",
      "id": 1111108766,
      "center": {
        "lat": 12.99461,
        "lon": 77.5543664
      },
      "tags": {
        "amenity": "police",
        "check_date": "2025-03-18",
        "name": "Rajaji Nagar Police Station",
        "name:kn": "ರಾಜಾಜಿನಗರ ಆರಕ್ಷಕ ಠಾಣೆ",
        "name:ta": "ராஜாஜிநகர காவல் நிலையம்"
      }
    },
    {
      "type": "way",
      "id": 1124828991,
      "center": {
        "lat": 12.9982752,
        "lon": 77.5568833
      },
      "tags": {
        "access": "customers",
        "amenity": "parking",
        "fee": "yes",
        "operator": "BMRCL",
        "parking": "surface"
      }
    },
    {
      "type": "way",
      "id": 1124828992,
      "center": {
        "lat": 12.9983918,
        "lon": 77.555689
      },
      "tags": {
        "access": "yes",
        "leisure": "playground"
      }
    },
    {
      "type": "way",
      "id": 1141353122,
      "center": {
        "lat": 12.9882302,
        "lon": 77.5600393
      },
      "tags": {
        "addr:district": "Bengaluru Urban",
        "addr:full": "1A/87, Dr Rajkumar Road, 4th Block, Rajajinagar",
        "addr:postcode": "560010",
        "addr:state": "Karnataka",
        "addr:street": "Dr Rajkumar Road",
        "amenity": "hospital",
        "emergency": "yes",
        "name": "Suguna Hospital",
        "name:kn": "ಸುಗುಣ ಆಸ್ಪತ್ರೆ",
        "source": "OpenGovernmentData"
      }
    },
    {
      "type": "way",
      "id": 1182387683,
      "center": {
        "lat": 12.997409,
        "lon": 77.5546015
      },
      "tags": {
        "amenity": "college",
        "name": "Sri Sai College for Women"
      }
    },
    {
      "type": "way",
      "id": 1182387684,
      "center": {
        "lat": 12.9969702,
        "lon": 77.5547225
      },
      "tags": {
        "amenity": "place_of_worship",
        "landuse": "religious",
        "name": "Sri Manjunatha Swamy Temple",
        "religion": "hindu"
      }
    },
    {
      "type": "way",
      "id": 1195571025,
      "center": {
        "lat": 12.9974456,
        "lon": 77.5604967
      },
      "tags": {
        "amenity": "fuel",
        "brand": "Indian Oil",
        "brand:wikidata": "Q1289348",
        "name": "Indian Oil",
        "name:kn": "ಇಂಡಿಯನ್ ಆಯಿಲ್",
        "operator": "Indian Oil"
      }
    },
    {
      "type": "way",
      "id": 1228264083,
      "center": {
        "lat": 12.9882352,
        "lon": 77.5602774
      },
      "tags": {
        "amenity": "parking",
        "parking": "surface"
      }
    },
    {
      "type": "way",
      "id": 1370050108,
      "center": {
        "lat": 12.9956544,
        "lon": 77.5534083
      },
      "tags": {
        "leisure": "garden"
      }
    },
    {
      "type": "way",
      "id": 1370050109,
      "center": {
        "lat": 12.9955739,
        "lon": 77.5535584
      },
      "tags": {
        "leisure": "garden"
      }
    },
    {
      "type": "way",
      "id": 1380176392,
      "center": {
        "lat": 12.9957899,
        "lon": 77.5554288
      },
      "tags": {
        "amenity": "school",
        "name": "Orchids The International School"
      }
    },
    {
      "type": "way",
      "id": 1380176397,
      "center": {
        "lat": 12.9978288,
        "lon": 77.5557891
      },
      "tags": {
        "access": "permissive",
        "leisure": "playground"
      }
    },
    {
      "type": "way",
      "id": 1380176403,
      "center": {
        "lat": 12.9974006,
        "lon": 77.5512537
      },
      "tags": {
        "leisure": "park"
      }
    }
  ]
}