{
  "area_name": "K Kamaraj Ward",
  "osm_id": 19883451,
  "osm_type": "relation",
  "place_type": "administrative",
  "amenity_count": 172,
  "amenities": [
    {
      "type": "node",
      "id": 1725164116,
      "lat": 12.9758374,
      "lon": 77.6147563,
      "tags": {
        "name": "Bhima",
        "name:en": "Bhima",
        "name:kn": "ಭೀಮ",
        "shop": "jewelry"
      }
    },
    {
      "type": "node",
      "id": 1725164124,
      "lat": 12.9759517,
      "lon": 77.6147731,
      "tags": {
        "name": "Panasonic",
        "shop": "electronics"
      }
    },
    {
      "type": "node",
      "id": 1809856741,
      "lat": 12.9744491,
      "lon": 77.6143016,
      "tags": {
        "branch": "Jewellary",
        "brand": "Tanishq",
        "brand:en": "Tanishq",
        "brand:wikidata": "Q13117711",
        "level": "0",
        "name": "Tanishq",
        "name:en": "Tanishq",
        "opening_hours": "Mo-Sa 09:50-20:00",
        "shop": "jewelry",
        "wheelchair": "no"
      }
    },
    {
      "type": "node",
      "id": 1852664343,
      "lat": 12.9864817,
      "lon": 77.6194153,
      "tags": {
        "shop": "florist"
      }
    },
    {
      "type": "node",
      "id": 1852665371,
      "lat": 12.9865706,
      "lon": 77.6194475,
      "tags": {
        "amenity": "restaurant",
        "cuisine": "international",
        "name": "Rogue Elephant"
      }
    },
    {
      "type": "node",
      "id": 1852668995,
      "lat": 12.9755514,
      "lon": 77.6173581,
      "tags": {
        "shop": "florist"
      }
    },
    {
      "type": "node",
      "id": 1852670707,
      "lat": 12.9758023,
      "lon": 77.6165936,
      "tags": {
        "amenity": "cafe",
        "cuisine": "french",
        "name": "French Loaf"
      }
    },
    {
      "type": "node",
      "id": 1852671127,
      "lat": 12.9758154,
      "lon": 77.616548,
      "tags": {
        "amenity": "restaurant",
        "cuisine": "thai",
        "name": "Benjerong"
      }
    },
    {
      "type": "node",
      "id": 1852671675,
      "lat": 12.9758363,
      "lon": 77.6165158,
      "tags": {
        "amenity": "restaurant",
        "cuisine": "regional",
        "name": "Ente Kerelam",
        "name:kn": "ಎಂಟೆ ಕೇರಳಮ್"
      }
    },
    {
      "type": "node",
      "id": 2868082722,
      "lat": 12.9748217,
      "lon": 77.6145482,
      "tags": {
        "brand": "Bhima Jewellers",
        "brand:wikidata": "Q17004889",
        "name": "Bhima Jewellers",
        "shop": "jewelry"
      }
    },
    {
      "type": "node",
      "id": 3170025557,
      "lat": 12.9750047,
      "lon": 77.6200027,
      "tags": {
        "amenity": "restaurant",
        "cuisine": "regional",
        "level": "2",
        "name": "Carnival De Goa",
        "name:kn": "ಕಾರ್ನಿವಾಲ್ ಡಿ ಗೋವಾ",
        "smoking": "outside"
      }
    },
    {
      "type": "node",
      "id": 3292614897,
      "lat": 12.9730022,
      "lon": 77.6173053,
      "tags": {
        "amenity": "fast_food",
        "brand": "Domino's",
        "brand:ks": "ڈومینوز",
        "brand:pa": "ਡੋਮੀਨੋਜ਼",
        "brand:ur": "ڈومینوز",
        "brand:wikidata": "Q839466",
        "brand:wikipedia": "en:Domino's Pizza",
        "cuisine": "pizza",
        "indoor_seating": "yes",
        "name": "Domino's",
        "name:ks": "ڈومینوز",
        "name:pa": "ਡੋਮੀਨੋਜ਼",
        "name:ur": "ڈومینوز",
        "outdoor_seating": "no",
        "takeaway": "yes"
      }
    },
    {
      "type": "node",
      "id": 3292614929,
      "lat": 12.9736204,
      "lon": 77.6155256,
      "tags": {
        "amenity": "bank",
        "atm": "yes",
        "brand": "Citibank",
        "brand:wikidata": "Q857063",
        "name": "Citibank",
        "name:kn": "ಸಿಟಿಬ್ಯಾಂಕ್",
        "short_name": "Citi"
      }
    },
    {
      "type": "node",
      "id": 3488721663,
      "lat": 12.972765,
      "lon": 77.6190259,
      "tags": {
        "amenity": "atm",
        "brand": "Bank of Baroda",
        "brand:wikidata": "Q2003797",
        "check_date": "2022-07-03",
        "name": "Bank of Baroda",
        "name:kn": "ವಿಜಯ ಬ್ಯಾಂಕು",
        "operator": "Bank of Baroda",
        "operator:wikidata": "Q2003797"
      }
    },
    {
      "type": "node",
      "id": 3761230359,
      "lat": 12.9749935,
      "lon": 77.6199471,
      "tags": {
        "addr:street": "Bhaskaran Road",
        "amenity": "restaurant",
        "cuisine": "mexican",
        "level": "0",
        "name": "The Grill House",
        "name:kn": "ದ ಗ್ರಿಲ್ ಹೌಸ್"
      }
    },
    {
      "type": "node",
      "id": 3785881931,
      "lat": 12.9733286,
      "lon": 77.6167758,
      "tags": {
        "amenity": "bank",
        "atm": "yes",
        "brand": "Axis Bank",
        "brand:wikidata": "Q2003549",
        "brand:wikipedia": "en:Axis Bank",
        "level": "0",
        "name": "Axis Bank",
        "name:en": "Axis Bank",
        "name:kn": "ಅಕ್ಸಿಸ್ ಬ್ಯಾಂಕ್",
        "website": "https://www.axisbank.com"
      }
    },
    {
      "type": "node",
      "id": 3785884026,
      "lat": 12.9731918,
      "lon": 77.6167348,
      "tags": {
        "amenity": "cafe",
        "brand": "Chai Point",
        "brand:wikidata": "Q28173415",
        "check_date": "2024-12-29",
        "cuisine": "coffee_shop",
        "level": "0",
        "name": "Chai Point",
        "outdoor_seating": "no",
        "takeaway": "yes"
      }
    },
    {
      "type": "node",
      "id": 3785884274,
      "lat": 12.9733953,
      "lon": 77.6169631,
      "tags": {
        "amenity": "bank",
        "brand": "Corporation Bank",
        "brand:wikidata": "Q2003387",
        "brand:wikipedia": "en:Corporation Bank",
        "level": "3",
        "name": "Corporation Bank",
        "name:en": "Corporation Bank",
        "name:kn": "ಕಾರ್ಪರೇಷನ್ ಬ್ಯಾಂಕ್",
        "website": "https://corpbank.com/"
      }
    },
    {
      "type": "node",
      "id": 3785903457,
      "lat": 12.9734064,
      "lon": 77.616709,
      "tags": {
        "name": "Orbitz India Services Pvt Ltd.",
        "shop": "travel_agency"
      }
    },
    {
      "type": "node",
      "id": 3785905427,
      "lat": 12.9733651,
      "lon": 77.6164843,
      "tags": {
        "amenity": "bank",
        "atm": "yes",
        "brand": "State Bank of India",
        "brand:wikidata": "Q1340361",
        "brand:wikipedia": "en:State Bank of India",
        "level": "0",
        "name": "State Bank of India",
        "name:kn": "ಭಾರತೀಯ ಸ್ಟೇಟ್ ಬ್ಯಾಂಕ್",
        "short_name": "SBI"
      }
    },
    {
      "type": "node",
      "id": 3785906627,
      "lat": 12.9733842,
      "lon": 77.6163899,
      "tags": {
        "amenity": "restaurant",
        "cuisine": "indian",
        "level": "1",
        "name": "Caesars"
      }
    },
    {
      "type": "node",
      "id": 3785911557,
      "lat": 12.9734064,
      "lon": 77.6163313,
      "tags": {
        "amenity": "bank",
        "atm": "yes",
        "level": "0",
        "name": "Tamil Nadu Marcantile Bank"
      }
    },
    {
      "type": "node",
      "id": 3844324660,
      "lat": 12.9743706,
      "lon": 77.6143537,
      "tags": {
        "level": "0",
        "name": "Kovi Shop",
        "opening_hours": "Mo-Sa 10:00-18:00",
        "shop": "Gun_dealers"
      }
    },
    {
      "type": "node",
      "id": 3844324661,
      "lat": 12.9744925,
      "lon": 77.6143949,
      "tags": {
        "level": "0",
        "name": "Kings Way Travel Pvt Ltd",
        "shop": "travel_agency"
      }
    },
    {
      "type": "node",
      "id": 3844336215,
      "lat": 12.9743829,
      "lon": 77.6150015,
      "tags": {
        "level": "0",
        "name": "CLS Book Shop",
        "opening_hours": "Mo-Su 09:00-20:00",
        "shop": "books"
      }
    },
    {
      "type": "node",
      "id": 3846349182,
      "lat": 12.9747756,
      "lon": 77.6151783,
      "tags": {
        "amenity": "post_office",
        "level": "0",
        "name": "Shree Maruti Courier",
        "operator": "Shree Maruti Courier"
      }
    },
    {
      "type": "node",
      "id": 3846361459,
      "lat": 12.9752032,
      "lon": 77.6147572,
      "tags": {
        "amenity": "atm",
        "brand": "Citibank",
        "brand:wikidata": "Q857063",
        "level": "0",
        "name": "Citibank",
        "name:kn": "ಸಿಟಿಬ್ಯಾಂಕ್",
        "operator": "Citibank",
        "operator:wikidata": "Q857063",
        "short_name": "Citi"
      }
    },
    {
      "type": "node",
      "id": 3846361461,
      "lat": 12.9751927,
      "lon": 77.614784,
      "tags": {
        "amenity": "bank",
        "brand": "Allahabad Bank",
        "brand:wikidata": "Q2018840",
        "brand:wikipedia": "en:Allahabad Bank",
        "level": "1",
        "name": "Allahabad Bank",
        "name:en": "Allahabad Bank",
        "name:kn": "ಅಲಹಾಬಾದ್ ಬ್ಯಾಂಕ",
        "website": "https://www.allahabadbank.in"
      }
    },
    {
      "type": "node",
      "id": 3846361464,
      "lat": 12.9751587,
      "lon": 77.6148698,
      "tags": {
        "amenity": "bank",
        "brand": "Syndicate Bank",
        "brand:wikidata": "Q2004088",
        "level": "1",
        "name": "Syndicate Bank",
        "name:kn": "ಸಿಂಡಿಕೇಟ್ ಬ್ಯಾಂಕ್"
      }
    },
    {
      "type": "node",
      "id": 3846361465,
      "lat": 12.9751475,
      "lon": 77.614911,
      "tags": {
        "level": "0",
        "name": "Sears Travels",
        "shop": "travel_agency"
      }
    },
    {
      "type": "node",
      "id": 3846361466,
      "lat": 12.9751457,
      "lon": 77.6148806,
      "tags": {
        "amenity": "fast_food",
        "cuisine": "snacks",
        "level": "0",
        "name": "Bhaiya Ji Food Court"
      }
    },
    {
      "type": "node",
      "id": 3846361467,
      "lat": 12.9751333,
      "lon": 77.6149534,
      "tags": {
        "amenity": "fast_food",
        "level": "1",
        "name": "Vibhas"
      }
    },
    {
      "type": "node",
      "id": 3846361468,
      "lat": 12.9751349,
      "lon": 77.6149697,
      "tags": {
        "amenity": "fast_food",
        "level": "0",
        "name": "MumbaiStyle"
      }
    },
    {
      "type": "node",
      "id": 3846365180,
      "lat": 12.9750968,
      "lon": 77.6150804,
      "tags": {
        "level": "1",
        "name": "Page3",
        "shop": "books"
      }
    },
    {
      "type": "node",
      "id": 3846365181,
      "lat": 12.975092,
      "lon": 77.6151016,
      "tags": {
        "amenity": "bureau_de_change",
        "level": "0",
        "name": "UAE XChange"
      }
    },
    {
      "type": "node",
      "id": 3846365474,
      "lat": 12.9750841,
      "lon": 77.615139,
      "tags": {
        "amenity": "toilets",
        "level": "1",
        "male": "yes",
        "name": "Gents Toilet"
      }
    },
    {
      "type": "node",
      "id": 3846368540,
      "lat": 12.9748952,
      "lon": 77.6153654,
      "tags": {
        "amenity": "restaurant",
        "level": "5",
        "name": "Paparazzi"
      }
    },
    {
      "type": "node",
      "id": 3846368541,
      "lat": 12.9748429,
      "lon": 77.6153686,
      "tags": {
        "amenity": "cafe",
        "name": "Pinxx"
      }
    },
    {
      "type": "node",
      "id": 4117249122,
      "lat": 12.987086,
      "lon": 77.6189974,
      "tags": {
        "addr:street": "Saint John's Church Road",
        "amenity": "restaurant",
        "name": "Shanti Sagar",
        "name:kn": "ಶಾಂತಿ ಸಾಗರ್"
      }
    },
    {
      "type": "node",
      "id": 4225196591,
      "lat": 12.9872979,
      "lon": 77.6178332,
      "tags": {
        "addr:housenumber": "59",
        "addr:postcode": "560042",
        "addr:street": "Osbourne Road",
        "name": "Garden care",
        "opening_hours": "Mo-Su 10:00-19:30",
        "shop": "greengrocer"
      }
    },
    {
      "type": "node",
      "id": 4463865291,
      "lat": 12.9737462,
      "lon": 77.6193171,
      "tags": {
        "addr:postcode": "560001",
        "addr:street": "Naveen Complex Building,MG Road",
        "amenity": "bank",
        "brand": "Canara Bank",
        "brand:en": "Canara Bank",
        "brand:hi": "केनरा बैंक",
        "brand:kn": "ಕೆನರಾ ಬ್ಯಾಂಕ್",
        "brand:pa": "ਕੇਨਰਾ ਬੈਂਕ",
        "brand:pnb": "کینرا بینک",
        "brand:ur": "کینرا بینک",
        "brand:wikidata": "Q2003777",
        "brand:wikipedia": "en:Canara Bank",
        "brand:wikipedia:pa": "ਕੇਨਰਾ ਬੈਂਕ",
        "name": "Canara Bank",
        "name:en": "Canara Bank",
        "name:hi": "केनरा बैंक",
        "name:kn": "ಕೆನರಾ ಬ್ಯಾಂಕ್",
        "name:pa": "ਕੇਨਰਾ ਬੈਂਕ",
        "name:pnb": "کینرا بینک",
        "name:ur": "کینرا بینک",
        "opening_hours": "Mo-Sa 22:00-06:00",
        "website": "https://www.canarabank.com/"
      }
    },
    {
      "type": "node",
      "id": 4535369390,
      "lat": 12.9846121,
      "lon": 77.6123858,
      "tags": {
        "amenity": "place_of_worship",
        "building": "mosque",
        "name": "Sabari Ayappan Bhajana Sabha",
        "religion": "muslim"
      }
    },
    {
      "type": "node",
      "id": 4844863354,
      "lat": 12.9868859,
      "lon": 77.6162486,
      "tags": {
        "name": "Big boss",
        "name:en": "Big boss",
        "shop": "dry_cleaning"
      }
    },
    {
      "type": "node",
      "id": 4844863355,
      "lat": 12.983464,
      "lon": 77.6135965,
      "tags": {
        "amenity": "school",
        "name": "BKS",
        "name:en": "BKS"
      }
    },
    {
      "type": "node",
      "id": 4844863387,
      "lat": 12.9791268,
      "lon": 77.6154453,
      "tags": {
        "amenity": "clinic",
        "check_date": "2025-05-09",
        "name": "Medical Center",
        "name:en": "Medical Center"
      }
    },
    {
      "type": "node",
      "id": 4844865037,
      "lat": 12.985305,
      "lon": 77.6152381,
      "tags": {
        "amenity": "cafe",
        "name": "Pepper Cafe",
        "name:en": "Pepper Cafe"
      }
    },
    {
      "type": "node",
      "id": 4844865038,
      "lat": 12.9841388,
      "lon": 77.6142655,
      "tags": {
        "amenity": "restaurant",
        "name": "Tasty food corner",
        "name:en": "Tasty food corner"
      }
    },
    {
      "type": "node",
      "id": 4846787926,
      "lat": 12.9755275,
      "lon": 77.6179176,
      "tags": {
        "amenity": "bank",
        "brand": "BNP Paribas",
        "brand:wikidata": "Q499707",
        "brand:wikipedia": "en:BNP Paribas",
        "name": "BNP Paribas",
        "name:en": "BNP PARIBAS"
      }
    },
    {
      "type": "node",
      "id": 4846787927,
      "lat": 12.9750488,
      "lon": 77.6181385,
      "tags": {
        "name": "The travel company",
        "name:en": "The travel company",
        "shop": "travel_agency"
      }
    },
    {
      "type": "node",
      "id": 4846789724,
      "lat": 12.9749189,
      "lon": 77.6185055,
      "tags": {
        "amenity": "bank",
        "brand": "HDFC Bank",
        "brand:wikidata": "Q631047",
        "name": "HDFC Bank",
        "name:en": "HDFC Bank",
        "name:kn": "ಎಚ್ ಡಿ ಎಫ್ ಸಿ",
        "short_name": "HDFC"
      }
    },
    {
      "type": "node",
      "id": 4846789824,
      "lat": 12.9749455,
      "lon": 77.6197537,
      "tags": {
        "amenity": "school",
        "name": "Purvankara academy of excellence",
        "name:en": "Purvankara academy of excellence"
      }
    },
    {
      "type": "node",
      "id": 4846789825,
      "lat": 12.9756503,
      "lon": 77.6170739,
      "tags": {
        "amenity": "cafe",
        "name": "The French Loaf",
        "name:en": "The French Loaf"
      }
    },
    {
      "type": "node",
      "id": 4846817422,
      "lat": 12.9746129,
      "lon": 77.6193934,
      "tags": {
        "addr:city": "Bengaluru",
        "addr:country": "IN",
        "addr:floor": "G",
        "addr:postcode": "560008",
        "addr:street": "Halasuru Road",
        "addr:suburb": "Ulsoor",
        "air_conditioning": "yes",
        "amenity": "cafe",
        "bar": "no",
        "check_date": "2025-01-11",
        "contact:instagram": "@marzipan.cafe",
        "cuisine": "greek",
        "delivery": "yes",
        "email": "marzipan.ulsoor@gmail.com",
        "level": "0",
        "name": "Marzipan Cafe",
        "name:en": "Marzipan Cafe",
        "outdoor_seating": "yes",
        "payment:cash": "yes",
        "payment:credit_cards": "yes",
        "payment:debit_cards": "yes",
        "phone": "9844422724",
        "shop": "bakery",
        "takeaway": "yes",
        "wheelchair": "no"
      }
    },
    {
      "type": "node",
      "id": 5644430289,
      "lat": 12.9805392,
      "lon": 77.6155421,
      "tags": {
        "amenity": "place_of_worship",
        "name": "Shiva Temple",
        "name:kn": "ಶಿವ ದೇವಸ್ಥಾನ",
        "religion": "hindu"
      }
    },
    {
      "type": "node",
      "id": 5715341021,
      "lat": 12.9804586,
      "lon": 77.6120274,
      "tags": {
        "brand": "Kalyan Jewellers",
        "brand:wikidata": "Q6354854",
        "name": "Kalyan Jewellers",
        "shop": "jewelry",
        "wheelchair": "no"
      }
    },
    {
      "type": "node",
      "id": 5715357721,
      "lat": 12.9806502,
      "lon": 77.6115927,
      "tags": {
        "brand": "Malabar Gold and Diamonds",
        "brand:wikidata": "Q60748883",
        "name": "Malabar Gold and Diamonds",
        "shop": "jewelry"
      }
    },
    {
      "type": "node",
      "id": 5715505122,
      "lat": 12.9805281,
      "lon": 77.6112189,
      "tags": {
        "amenity": "place_of_worship",
        "name": "Vadamoola Ganapathy Temple",
        "religion": "hindu"
      }
    },
    {
      "type": "node",
      "id": 5862574185,
      "lat": 12.9878631,
      "lon": 77.6177434,
      "tags": {
        "amenity": "hospital",
        "name": "Lakeside Medical Centre and Hospital"
      }
    },
    {
      "type": "node",
      "id": 6819843991,
      "lat": 12.9777864,
      "lon": 77.617985,
      "tags": {
        "addr:city": "Bangalore",
        "addr:housenumber": "46",
        "addr:postcode": "560042",
        "addr:street": "3rd Cross Road",
        "name": "Jasmine's Beauty Salon",
        "phone": "+91 80 2559 2498",
        "shop": "hairdresser"
      }
    },
    {
      "type": "node",
      "id": 6944418996,
      "lat": 12.975802,
      "lon": 77.6184806,
      "tags": {
        "addr:district": "Bengaluru Urban",
        "addr:full": "No.1 Haudin Road, Off Ulsoor Road",
        "addr:postcode": "560042",
        "addr:state": "Karnataka",
        "amenity": "hospital",
        "name": "Nikad Ortho Centre",
        "source": "OpenGovernmentData"
      }
    },
    {
      "type": "node",
      "id": 7572526788,
      "lat": 12.975488,
      "lon": 77.615338,
      "tags": {
        "addr:district": "Bengaluru Urban",
        "addr:full": "Yellappa Garden, Yellappa Chetty Layout, Halasuru, Bengaluru",
        "addr:postcode": "560001",
        "addr:state": "Karnataka",
        "amenity": "dentist",
        "healthcare": "dentist",
        "name": "Bluetooth Dental Clinic",
        "source": "Local Knowledge"
      }
    },
    {
      "type": "node",
      "id": 8143836838,
      "lat": 12.9771467,
      "lon": 77.6172628,
      "tags": {
        "addr:city": "Bangalore",
        "addr:housenumber": "17, Hanumanthappa Layout Rd",
        "addr:postcode": "560042",
        "addr:street": "Hanumanthappa Layout, Sivanchetti Gardens, Halasuru, Karnataka 560042",
        "name": "Tinge Custom Makeup Studio",
        "organic": "only",
        "shop": "supermarket",
        "website": "https://tingestore.com/"
      }
    },
    {
      "type": "node",
      "id": 8220809198,
      "lat": 12.9840602,
      "lon": 77.6173267,
      "tags": {
        "addr:city": "Bangalore",
        "addr:street": "Annaswamy Mudaliar Road",
        "clothes": "women;children",
        "fair_trade": "yes",
        "name": "Ambara",
        "organic": "yes",
        "shop": "clothes"
      }
    },
    {
      "type": "node",
      "id": 9656382523,
      "lat": 12.9850818,
      "lon": 77.616241,
      "tags": {
        "amenity": "place_of_worship",
        "religion": "jain"
      }
    },
    {
      "type": "node",
      "id": 9656382524,
      "lat": 12.9848975,
      "lon": 77.611694,
      "tags": {
        "amenity": "fast_food",
        "cuisine": "regional",
        "name": "Utse Kitchen"
      }
    },
    {
      "type": "node",
      "id": 9672296508,
      "lat": 12.9811568,
      "lon": 77.6141516,
      "tags": {
        "amenity": "cafe",
        "delivery": "yes",
        "name": "Maverick and Farmer Coffee",
        "outdoor_seating": "yes",
        "takeaway": "yes",
        "website": "https://www.maverickandfarmer.com/"
      }
    },
    {
      "type": "node",
      "id": 9672296514,
      "lat": 12.9821075,
      "lon": 77.6157676,
      "tags": {
        "access": "yes",
        "amenity": "toilets"
      }
    },
    {
      "type": "node",
      "id": 9687954318,
      "lat": 12.9865306,
      "lon": 77.6194645,
      "tags": {
        "amenity": "cafe",
        "check_date": "2024-04-20",
        "dog": "leashed",
        "highchair": "yes",
        "name": "Kaara by Lake",
        "outdoor_seating": "yes",
        "pets": "yes",
        "takeaway": "yes",
        "toilets": "yes",
        "toilets:wheelchair": "limited",
        "wheelchair": "limited"
      }
    },
    {
      "type": "node",
      "id": 9796145350,
      "lat": 12.9812956,
      "lon": 77.6126653,
      "tags": {
        "name": "Museum of Art and Photography",
        "shop": "variety_store"
      }
    },
    {
      "type": "node",
      "id": 9796145351,
      "lat": 12.9814384,
      "lon": 77.6126649,
      "tags": {
        "addr:city": "Bangalore",
        "addr:country": "IN",
        "addr:housenumber": "24",
        "addr:postcode": "560042",
        "addr:street": "Gangadhar Chetty Road",
        "contact:facebook": "cinnamonthestore",
        "contact:instagram": "cinnamonthestore",
        "email": "cinnamon_blr@yahoo.com",
        "name": "Cinnamon",
        "phone": "(+91) 9972813015",
        "shop": "boutique",
        "website": "https://www.cinnamonthestore.in/"
      }
    },
    {
      "type": "node",
      "id": 9796145357,
      "lat": 12.98131,
      "lon": 77.612613,
      "tags": {
        "amenity": "cafe",
        "name": "Cafe Stone",
        "outdoor_seating": "yes"
      }
    },
    {
      "type": "node",
      "id": 9796232706,
      "lat": 12.979043,
      "lon": 77.6151383,
      "tags": {
        "amenity": "waste_basket"
      }
    },
    {
      "type": "node",
      "id": 9811346733,
      "lat": 12.9745892,
      "lon": 77.6196447,
      "tags": {
        "amenity": "bank",
        "atm": "yes",
        "brand": "Union Bank of India",
        "brand:wikidata": "Q2004078",
        "name": "Union Bank of India",
        "name:kn": "ಯೂನಿಯನ್ ಬ್ಯಾಂಕ್",
        "operator": "Union Bank of India"
      }
    },
    {
      "type": "node",
      "id": 9811346734,
      "lat": 12.9749146,
      "lon": 77.619237,
      "tags": {
        "amenity": "waste_basket"
      }
    },
    {
      "type": "node",
      "id": 9811346735,
      "lat": 12.975044,
      "lon": 77.6191498,
      "tags": {
        "amenity": "fast_food",
        "name": "Lassi Corner"
      }
    },
    {
      "type": "node",
      "id": 9811346745,
      "lat": 12.9749198,
      "lon": 77.6187354,
      "tags": {
        "amenity": "waste_basket"
      }
    },
    {
      "type": "node",
      "id": 9811346746,
      "lat": 12.9751054,
      "lon": 77.618203,
      "tags": {
        "amenity": "waste_basket"
      }
    },
    {
      "type": "node",
      "id": 9811346754,
      "lat": 12.9754377,
      "lon": 77.6175464,
      "tags": {
        "amenity": "waste_basket"
      }
    },
    {
      "type": "node",
      "id": 9811346759,
      "lat": 12.9756687,
      "lon": 77.6168136,
      "tags": {
        "amenity": "waste_basket"
      }
    },
    {
      "type": "node",
      "id": 9811346763,
      "lat": 12.9759438,
      "lon": 77.6160009,
      "tags": {
        "amenity": "waste_basket"
      }
    },
    {
      "type": "node",
      "id": 9811360820,
      "lat": 12.9760189,
      "lon": 77.6148006,
      "tags": {
        "amenity": "restaurant",
        "cuisine": "regional",
        "delivery": "yes",
        "name": "Paakashala",
        "name:kn": "ಪಾಕಶಾಲೆ",
        "takeaway": "yes"
      }
    },
    {
      "type": "node",
      "id": 9811360821,
      "lat": 12.9759889,
      "lon": 77.6151466,
      "tags": {
        "name": "PC Chandra Jewellers",
        "shop": "jewelry"
      }
    },
    {
      "type": "node",
      "id": 9811371638,
      "lat": 12.9750407,
      "lon": 77.6199867,
      "tags": {
        "amenity": "pub",
        "name": "Night Owl Sky Lounge"
      }
    },
    {
      "type": "node",
      "id": 9997962023,
      "lat": 12.9810667,
      "lon": 77.6139065,
      "tags": {
        "name": "Cricket Den",
        "shop": "sports"
      }
    },
    {
      "type": "node",
      "id": 10280759751,
      "lat": 12.9733385,
      "lon": 77.6197399,
      "tags": {
        "amenity": "pub",
        "microbrewery": "yes",
        "name": "7 Rivers Brewing Company"
      }
    },
    {
      "type": "node",
      "id": 10887396863,
      "lat": 12.9793318,
      "lon": 77.6151279,
      "tags": {
        "amenity": "college",
        "name": "Hasnath College for Women"
      }
    },
    {
      "type": "node",
      "id": 10979409747,
      "lat": 12.9850531,
      "lon": 77.6182955,
      "tags": {
        "addr:city": "Bengaluru",
        "addr:country": "IN",
        "addr:housenumber": "32",
        "addr:postcode": "560042",
        "addr:state": "Karnataka",
        "addr:street": "Annaswamy Mudaliar Road",
        "addr:suburb": "Ulsoor",
        "amenity": "cafe",
        "contact:instagram": "myurbansolace",
        "cuisine": "american",
        "name": "Urban Solace",
        "name:kn": "ಅರ್ಬನ್ ಸೊಲೇಸ್"
      }
    },
    {
      "type": "node",
      "id": 10979969450,
      "lat": 12.9730589,
      "lon": 77.6182875,
      "tags": {
        "access": "customers",
        "amenity": "parking",
        "parking": "surface"
      }
    },
    {
      "type": "node",
      "id": 11282630668,
      "lat": 12.9880012,
      "lon": 77.6175244,
      "tags": {
        "amenity": "bank",
        "atm": "yes",
        "brand": "HDFC Bank",
        "brand:wikidata": "Q631047",
        "name": "HDFC Bank",
        "operator": "HDFC Bank",
        "short_name": "HDFC"
      }
    },
    {
      "type": "node",
      "id": 11289218780,
      "lat": 12.9747794,
      "lon": 77.6199654,
      "tags": {
        "amenity": "waste_basket"
      }
    },
    {
      "type": "node",
      "id": 11304941403,
      "lat": 12.9861069,
      "lon": 77.6164486,
      "tags": {
        "access": "permissive",
        "amenity": "parking_entrance",
        "parking": "underground"
      }
    },
    {
      "type": "node",
      "id": 11304941409,
      "lat": 12.9859003,
      "lon": 77.6159611,
      "tags": {
        "access": "permissive",
        "amenity": "parking_entrance",
        "parking": "underground"
      }
    },
    {
      "type": "node",
      "id": 11473125894,
      "lat": 12.9814299,
      "lon": 77.6138657,
      "tags": {
        "leisure": "fitness_centre"
      }
    },
    {
      "type": "node",
      "id": 11530082861,
      "lat": 12.9857804,
      "lon": 77.6167848,
      "tags": {
        "addr:city": "Bengaluru",
        "addr:floor": "G",
        "addr:housenumber": "9",
        "addr:postcode": "560042",
        "addr:street": "Osbourne Road",
        "amenity": "dentist",
        "check_date": "2024-01-19",
        "email": "oralrehabilitationcenter@gmail.com",
        "healthcare": "dentist",
        "internet_access": "no",
        "mobile": "+91-7406110333",
        "name": "Oral rehabilitation center",
        "name:en": "Oral rehabilitation center",
        "name:kn": "ಒರಲ್ ರಿಹಾಬಿಲಿಟೇಶನ್ ಸೆಂಟರ್",
        "opening_hours": "Mo-Su 09:00-13:00,Mo-Su 16:00-22:00",
        "payment:cash": "yes",
        "payment:credit_cards": "yes",
        "payment:debit_cards": "yes",
        "website": "https://oralrehabilitationcenter.com/",
        "wheelchair": "limited"
      }
    },
    {
      "type": "node",
      "id": 11780029032,
      "lat": 12.9735722,
      "lon": 77.6156144,
      "tags": {
        "amenity": "bank",
        "brand": "Axis Bank",
        "brand:wikidata": "Q2003549",
        "check_date": "2024-04-02",
        "internet_access": "wlan",
        "internet_access:fee": "customers",
        "name": "Axis Bank",
        "name:kn": "ಆಕ್ಸಿಸ್ ಬ್ಯಾಂಕ್",
        "payment:cash": "yes",
        "payment:credit_cards": "yes",
        "payment:debit_cards": "yes",
        "wheelchair": "no"
      }
    },
    {
      "type": "node",
      "id": 11868278523,
      "lat": 12.9731758,
      "lon": 77.6167298,
      "tags": {
        "access": "customers",
        "amenity": "drinking_water",
        "indoor": "yes",
        "level": "1",
        "operator": "BMRCL"
      }
    },
    {
      "type": "node",
      "id": 12092047871,
      "lat": 12.9817873,
      "lon": 77.6122101,
      "tags": {
        "addr:city": "Bengaluru",
        "addr:country": "IN",
        "addr:housenumber": "24",
        "addr:postcode": "560042",
        "addr:street": "Gangadhar Chetty Road",
        "addr:suburb": "Halasuru",
        "check_date": "2024-08-04",
        "contact:instagram": "generalitems.in",
        "level": "0",
        "name": "General Items",
        "name:kn": "ಜನರಲ್ ಐಟಮ್ಸ್",
        "opening_hours": "Tu-Su 11:00-19:00",
        "shop": "general",
        "website": "https://generalitems.in/"
      }
    },
    {
      "type": "node",
      "id": 12185377424,
      "lat": 12.9742996,
      "lon": 77.6143798,
      "tags": {
        "amenity": "parking_entrance"
      }
    },
    {
      "type": "node",
      "id": 12222732600,
      "lat": 12.9840162,
      "lon": 77.6174052,
      "tags": {
        "addr:housenumber": "22",
        "addr:street": "Annaswamy Mudaliar Road",
        "amenity": "cafe",
        "check_date": "2024-10-04",
        "contact:instagram": "https://www.instagram.com/amagat.blr",
        "name": "Amagat Garden Cafe"
      }
    },
    {
      "type": "node",
      "id": 12441128605,
      "lat": 12.9835541,
      "lon": 77.6108149,
      "tags": {
        "name": "Excelsior",
        "shop": "bakery",
        "start_date": "1930"
      }
    },
    {
      "type": "node",
      "id": 12492736707,
      "lat": 12.9742285,
      "lon": 77.6198097,
      "tags": {
        "brand": "Nature's Basket",
        "brand:wikidata": "Q28174237",
        "name": "Nature's Basket",
        "shop": "supermarket"
      }
    },
    {
      "type": "node",
      "id": 12492736784,
      "lat": 12.9750466,
      "lon": 77.6179321,
      "tags": {
        "name": "Shooketts",
        "shop": "bakery"
      }
    },
    {
      "type": "node",
      "id": 12495380307,
      "lat": 12.9727086,
      "lon": 77.6188843,
      "tags": {
        "amenity": "post_box",
        "operator": "India Post"
      }
    },
    {
      "type": "node",
      "id": 12526232547,
      "lat": 12.974056,
      "lon": 77.6195173,
      "tags": {
        "amenity": "restaurant",
        "name": "Italia"
      }
    },
    {
      "type": "node",
      "id": 12788139581,
      "lat": 12.9861844,
      "lon": 77.6156891,
      "tags": {
        "amenity": "charging_station",
        "charging_station:battery_swapping": "yes",
        "fee": "yes",
        "level": "0",
        "motorcar": "no",
        "motorcycle": "yes",
        "name": "Honda e:swap",
        "operator": "Honda e:swap"
      }
    },
    {
      "type": "node",
      "id": 12788682209,
      "lat": 12.9872864,
      "lon": 77.6168337,
      "tags": {
        "amenity": "restaurant",
        "name": "Citrus Cafe"
      }
    },
    {
      "type": "node",
      "id": 12788682234,
      "lat": 12.9862396,
      "lon": 77.6159245,
      "tags": {
        "brand": "Honda",
        "brand:wikidata": "Q9584",
        "name": "Honda",
        "shop": "motorcycle"
      }
    },
    {
      "type": "node",
      "id": 13089020176,
      "lat": 12.9754556,
      "lon": 77.616835,
      "tags": {
        "amenity": "bar",
        "name": "Sama"
      }
    },
    {
      "type": "node",
      "id": 13272024164,
      "lat": 12.9754839,
      "lon": 77.6143566,
      "tags": {
        "amenity": "waste_basket",
        "material": "metal",
        "waste": "organic;mixed"
      }
    },
    {
      "type": "node",
      "id": 13299647378,
      "lat": 12.9845566,
      "lon": 77.6121654,
      "tags": {
        "name": "Iyengar Bakery",
        "shop": "bakery"
      }
    },
    {
      "type": "node",
      "id": 13310440624,
      "lat": 12.9733905,
      "lon": 77.6165811,
      "tags": {
        "amenity": "bank",
        "check_date": "2025-11-17",
        "name": "State Bank Of India"
      }
    },
    {
      "type": "node",
      "id": 13310470855,
      "lat": 12.9733821,
      "lon": 77.6168321,
      "tags": {
        "amenity": "bank",
        "check_date": "2025-11-17",
        "name": "Axis Bank"
      }
    },
    {
      "type": "way",
      "id": 37136671,
      "center": {
        "lat": 12.9876751,
        "lon": 77.6147713
      },
      "tags": {
        "amenity": "school",
        "name": "Kendriya Vidhyalaya, MEG Centre",
        "name:kn": "ಕೇಂದ್ರಿಯ ವಿದ್ಯಾಲಯ",
        "short_name": "KV MEG"
      }
    },
    {
      "type": "way",
      "id": 133881879,
      "center": {
        "lat": 12.9739931,
        "lon": 77.6144902
      },
      "tags": {
        "alt_name": "Wesleyan Cathedral of Bangalore",
        "amenity": "place_of_worship",
        "denomination": "anglican",
        "name": "East Parade Church",
        "old_name": "Wesleyan Mission Chapel",
        "religion": "christian",
        "start_date": "1865",
        "wikidata": "Q22000988",
        "wikipedia": "en:East Parade Church"
      }
    },
    {
      "type": "way",
      "id": 138314536,
      "center": {
        "lat": 12.9870764,
        "lon": 77.6195355
      },
      "tags": {
        "leisure": "park"
      }
    },
    {
      "type": "way",
      "id": 182177271,
      "center": {
        "lat": 12.9810111,
        "lon": 77.6157113
      },
      "tags": {
        "leisure": "garden"
      }
    },
    {
      "type": "way",
      "id": 182177279,
      "center": {
        "lat": 12.9853954,
        "lon": 77.6221829
      },
      "tags": {
        "leisure": "park",
        "name": "Ulsoor Lake Park",
        "operator": "ಬೃಹತ್ ಬೆಂಗಳೂರು ಮಹಾನಗರ ಪಾಲಿಕೆ",
        "operator:en": "Bruhat Bengaluru Mahanagara Palike",
        "operator:ka": "ಬೃಹತ್ ಬೆಂಗಳೂರು ಮಹಾನಗರ ಪಾಲಿಕೆ",
        "operator:short": "BBMP",
        "operator:type": "government",
        "operator:wikidata": "Q4978693"
      }
    },
    {
      "type": "way",
      "id": 207134130,
      "center": {
        "lat": 12.9793478,
        "lon": 77.6096209
      },
      "tags": {
        "amenity": "parking",
        "fee": "yes",
        "parking": "surface"
      }
    },
    {
      "type": "way",
      "id": 328349212,
      "center": {
        "lat": 12.9737902,
        "lon": 77.6183329
      },
      "tags": {
        "access": "private",
        "leisure": "swimming_pool"
      }
    },
    {
      "type": "way",
      "id": 346150556,
      "center": {
        "lat": 12.9846303,
        "lon": 77.6128058
      },
      "tags": {
        "amenity": "kindergarten",
        "building": "yes",
        "name": "Prism Pre-school"
      }
    },
    {
      "type": "way",
      "id": 346456833,
      "center": {
        "lat": 12.9790733,
        "lon": 77.6159764
      },
      "tags": {
        "amenity": "place_of_worship",
        "building": "mosque",
        "religion": "muslim"
      }
    },
    {
      "type": "way",
      "id": 367149867,
      "center": {
        "lat": 12.9735447,
        "lon": 77.619858
      },
      "tags": {
        "access": "private",
        "leisure": "swimming_pool"
      }
    },
    {
      "type": "way",
      "id": 368802983,
      "center": {
        "lat": 12.9805552,
        "lon": 77.615782
      },
      "tags": {
        "addr:city": "Bangalore",
        "addr:housenumber": "13",
        "addr:postcode": "560042",
        "addr:street": "Gangadhara Chetty Road, Ulsoor",
        "amenity": "community_centre",
        "building": "yes",
        "name": "Sri Mahan Odukathur Swamigal Mutt",
        "note": "Free annual Carnatic music concerts during the Janmashtami season."
      }
    },
    {
      "type": "way",
      "id": 370404411,
      "center": {
        "lat": 12.9797744,
        "lon": 77.6158045
      },
      "tags": {
        "amenity": "college",
        "name": "Hasnath Group of Institutions"
      }
    },
    {
      "type": "way",
      "id": 370404412,
      "center": {
        "lat": 12.9815448,
        "lon": 77.6150722
      },
      "tags": {
        "amenity": "college",
        "name": "RBANMS College",
        "name:etymology:wikidata": "Q4787468"
      }
    },
    {
      "type": "way",
      "id": 400478705,
      "center": {
        "lat": 12.9828949,
        "lon": 77.6145101
      },
      "tags": {
        "amenity": "cinema",
        "name": "Ajantha Theatre",
        "name:kn": "ಅಜಂತಾ ಚಿತ್ರಮಂದಿರ"
      }
    },
    {
      "type": "way",
      "id": 421097861,
      "center": {
        "lat": 12.9860564,
        "lon": 77.6188133
      },
      "tags": {
        "leisure": "pitch"
      }
    },
    {
      "type": "way",
      "id": 421097862,
      "center": {
        "lat": 12.9862788,
        "lon": 77.618436
      },
      "tags": {
        "leisure": "garden"
      }
    },
    {
      "type": "way",
      "id": 421097866,
      "center": {
        "lat": 12.984747,
        "lon": 77.6178878
      },
      "tags": {
        "amenity": "community_centre",
        "name": "Bangalore Tamil Sangam",
        "name:kn": "ಬೆಂಗಳೂರು ತಮಿಳು ಸಂಗಂ",
        "website": "https://www.bangaloretamilsangam.org/"
      }
    },
    {
      "type": "way",
      "id": 436666219,
      "center": {
        "lat": 12.9841065,
        "lon": 77.6221108
      },
      "tags": {
        "access": "customers",
        "leisure": "swimming_pool",
        "length": "50",
        "location": "outdoor"
      }
    },
    {
      "type": "way",
      "id": 492502342,
      "center": {
        "lat": 12.9840801,
        "lon": 77.6221647
      },
      "tags": {
        "leisure": "sports_centre",
        "name": "Kensington Swimming Pool",
        "sport": "swimming"
      }
    },
    {
      "type": "way",
      "id": 603115732,
      "center": {
        "lat": 12.9789173,
        "lon": 77.6167663
      },
      "tags": {
        "amenity": "school",
        "name": "Auro Mirra International School"
      }
    },
    {
      "type": "way",
      "id": 674028951,
      "center": {
        "lat": 12.9799277,
        "lon": 77.6170644
      },
      "tags": {
        "leisure": "garden"
      }
    },
    {
      "type": "way",
      "id": 674028953,
      "center": {
        "lat": 12.9802024,
        "lon": 77.6171231
      },
      "tags": {
        "access": "private",
        "amenity": "parking",
        "parking": "surface"
      }
    },
    {
      "type": "way",
      "id": 674028955,
      "center": {
        "lat": 12.9797894,
        "lon": 77.617344
      },
      "tags": {
        "leisure": "garden"
      }
    },
    {
      "type": "way",
      "id": 691153651,
      "center": {
        "lat": 12.9873184,
        "lon": 77.6223456
      },
      "tags": {
        "leisure": "park"
      }
    },
    {
      "type": "way",
      "id": 1050589708,
      "center": {
        "lat": 12.9782933,
        "lon": 77.6109283
      },
      "tags": {
        "amenity": "school",
        "name": "Army Public School"
      }
    },
    {
      "type": "way",
      "id": 1052463665,
      "center": {
        "lat": 12.9821415,
        "lon": 77.6151763
      },
      "tags": {
        "amenity": "college",
        "name": "RBANMS First Grade Evening College"
      }
    },
    {
      "type": "way",
      "id": 1052463666,
      "center": {
        "lat": 12.9817295,
        "lon": 77.6143469
      },
      "tags": {
        "alt_name": "SUFC",
        "leisure": "pitch",
        "name": "South United Football Club",
        "sport": "soccer",
        "surface": "artificial_turf"
      }
    },
    {
      "type": "way",
      "id": 1053381291,
      "center": {
        "lat": 12.9744379,
        "lon": 77.6158967
      },
      "tags": {
        "access": "private",
        "amenity": "parking",
        "parking": "street_side"
      }
    },
    {
      "type": "way",
      "id": 1066854627,
      "center": {
        "lat": 12.9808072,
        "lon": 77.6124146
      },
      "tags": {
        "amenity": "school",
        "name": "RBANMS Middle School",
        "name:etymology:wikidata": "Q4787468"
      }
    },
    {
      "type": "way",
      "id": 1066854631,
      "center": {
        "lat": 12.9812941,
        "lon": 77.613018
      },
      "tags": {
        "amenity": "school",
        "name": "RBANMS High School",
        "name:etymology:wikidata": "Q4787468"
      }
    },
    {
      "type": "way",
      "id": 1066854635,
      "center": {
        "lat": 12.9818766,
        "lon": 77.6135517
      },
      "tags": {
        "leisure": "pitch",
        "sport": "cricket"
      }
    },
    {
      "type": "way",
      "id": 1066854636,
      "center": {
        "lat": 12.9821091,
        "lon": 77.6130276
      },
      "tags": {
        "leisure": "track",
        "sport": "athletics"
      }
    },
    {
      "type": "way",
      "id": 1066868600,
      "center": {
        "lat": 12.9819687,
        "lon": 77.612516
      },
      "tags": {
        "amenity": "post_office",
        "landuse": "commercial",
        "name": "Sivanchetti Garden Post Office"
      }
    },
    {
      "type": "way",
      "id": 1067945112,
      "center": {
        "lat": 12.9815129,
        "lon": 77.6122852
      },
      "tags": {
        "amenity": "place_of_worship",
        "name": "Brahmo Samaj",
        "name:kn": "ಬ್ರಹ್ಮ ಸಮಾಜ",
        "religion": "hindu"
      }
    },
    {
      "type": "way",
      "id": 1068769786,
      "center": {
        "lat": 12.9824189,
        "lon": 77.6146663
      },
      "tags": {
        "building": "kiosk",
        "name": "Nandini Dairy Parlour",
        "shop": "dairy"
      }
    },
    {
      "type": "way",
      "id": 1068844239,
      "center": {
        "lat": 12.9749635,
        "lon": 77.6188909
      },
      "tags": {
        "access": "yes",
        "amenity": "parking",
        "parking": "street_side"
      }
    },
    {
      "type": "way",
      "id": 1068844248,
      "center": {
        "lat": 12.973839,
        "lon": 77.6194421
      },
      "tags": {
        "access": "customers",
        "amenity": "parking",
        "parking": "surface"
      }
    },
    {
      "type": "way",
      "id": 1068844251,
      "center": {
        "lat": 12.9729109,
        "lon": 77.619671
      },
      "tags": {
        "access": "customers",
        "amenity": "parking",
        "parking": "surface"
      }
    },
    {
      "type": "way",
      "id": 1087008972,
      "center": {
        "lat": 12.9835444,
        "lon": 77.6234989
      },
      "tags": {
        "amenity": "social_facility",
        "brand": "Red Cross",
        "name": "Indian Red Cross Society",
        "office": "ngo"
      }
    },
    {
      "type": "way",
      "id": 1143988912,
      "center": {
        "lat": 12.9782082,
        "lon": 77.610731
      },
      "tags": {
        "amenity": "library",
        "building": "school",
        "name": "Secondary Section Library",
        "operator": "APS K Kamraj Bangalore",
        "operator:type": "school"
      }
    },
    {
      "type": "way",
      "id": 1171722760,
      "center": {
        "lat": 12.9848345,
        "lon": 77.6161119
      },
      "tags": {
        "amenity": "place_of_worship",
        "name": "Sri Chandraprabhu Jain Temple",
        "religion": "jain"
      }
    },
    {
      "type": "way",
      "id": 1235836660,
      "center": {
        "lat": 12.9781878,
        "lon": 77.612049
      },
      "tags": {
        "access": "private",
        "leisure": "pitch",
        "sport": "basketball"
      }
    },
    {
      "type": "way",
      "id": 1235836661,
      "center": {
        "lat": 12.9811592,
        "lon": 77.6144789
      },
      "tags": {
        "covered": "yes",
        "leisure": "pitch",
        "sport": "soccer",
        "surface": "artificial_turf"
      }
    },
    {
      "type": "way",
      "id": 1235836662,
      "center": {
        "lat": 12.9819239,
        "lon": 77.6139481
      },
      "tags": {
        "leisure": "bleachers"
      }
    },
    {
      "type": "way",
      "id": 1235836664,
      "center": {
        "lat": 12.9811704,
        "lon": 77.6142998
      },
      "tags": {
        "access": "customers",
        "amenity": "parking",
        "parking": "surface"
      }
    },
    {
      "type": "way",
      "id": 1235836665,
      "center": {
        "lat": 12.9810081,
        "lon": 77.6144577
      },
      "tags": {
        "access": "customers",
        "amenity": "parking",
        "parking": "surface"
      }
    },
    {
      "type": "way",
      "id": 1254279082,
      "center": {
        "lat": 12.9785951,
        "lon": 77.6114956
      },
      "tags": {
        "access": "permissive",
        "hoops": "2",
        "leisure": "pitch",
        "name": "Basketball Court",
        "name:kn": "ಬಾಸ್ಕೆಟ್ ಬಾಲ್ ಅಂಕಣ",
        "sport": "basketball"
      }
    },
    {
      "type": "way",
      "id": 1293926345,
      "center": {
        "lat": 12.9796518,
        "lon": 77.6108798
      },
      "tags": {
        "access": "permissive",
        "leisure": "pitch",
        "lit": "no",
        "name": "Army Public School Playground",
        "sport": "soccer",
        "surface": "artificial_turf"
      }
    },
    {
      "type": "way",
      "id": 1293929752,
      "center": {
        "lat": 12.9785815,
        "lon": 77.611801
      },
      "tags": {
        "access": "permissive",
        "hoops": "2",
        "leisure": "pitch",
        "name": "Basketball Court",
        "name:kn": "ಬಾಸ್ಕೆಟ್ ಬಾಲ್ ಅಂಕಣ",
        "sport": "basketball",
        "surface": "artificial_turf"
      }
    },
    {
      "type": "way",
      "id": 1293934375,
      "center": {
        "lat": 12.9786393,
        "lon": 77.6121974
      },
      "tags": {
        "addr:city": "Bengaluru",
        "addr:postcode": "560042",
        "addr:street": "FM Cariappa Colony, Sivanchetti Gardens",
        "amenity": "conference_centre",
        "building": "Auditorium",
        "name": "APS Auditorium"
      }
    },
    {
      "type": "way",
      "id": 1302996816,
      "center": {
        "lat": 12.9806268,
        "lon": 77.6155302
      },
      "tags": {
        "amenity": "place_of_worship",
        "landuse": "religious",
        "religion": "hindu"
      }
    },
    {
      "type": "way",
      "id": 1302996843,
      "center": {
        "lat": 12.9814208,
        "lon": 77.6130582
      },
      "tags": {
        "access": "private",
        "amenity": "parking",
        "parking": "surface"
      }
    },
    {
      "type": "way",
      "id": 1304189526,
      "center": {
        "lat": 12.9873586,
        "lon": 77.6170219
      },
      "tags": {
        "access": "private",
        "amenity": "parking",
        "parking": "surface"
      }
    },
    {
      "type": "way",
      "id": 1304189527,
      "center": {
        "lat": 12.9870992,
        "lon": 77.6168483
      },
      "tags": {
        "access": "private",
        "amenity": "parking",
        "parking": "surface"
      }
    },
    {
      "type": "way",
      "id": 1307896631,
      "center": {
        "lat": 12.9742348,
        "lon": 77.6146618
      },
      "tags": {
        "access": "private",
        "amenity": "parking",
        "parking": "street_side"
      }
    },
    {
      "type": "way",
      "id": 1307896632,
      "center": {
        "lat": 12.9750526,
        "lon": 77.6144566
      },
      "tags": {
        "access": "customers",
        "amenity": "parking",
        "parking": "street_side"
      }
    },
    {
      "type": "way",
      "id": 1350409191,
      "center": {
        "lat": 12.9753257,
        "lon": 77.6148891
      },
      "tags": {
        "access": "yes",
        "amenity": "parking",
        "fee": "yes",
        "parking": "surface",
        "surface": "ground"
      }
    },
    {
      "type": "way",
      "id": 1381418977,
      "center": {
        "lat": 12.9861309,
        "lon": 77.6161109
      },
      "tags": {
        "access": "permissive",
        "amenity": "parking",
        "capacity": "8",
        "parking": "surface"
      }
    },
    {
      "type": "way",
      "id": 1381418978,
      "center": {
        "lat": 12.9858532,
        "lon": 77.6165343
      },
      "tags": {
        "access": "permissive",
        "amenity": "parking",
        "capacity": "12",
        "parking": "surface"
      }
    },
    {
      "type": "way",
      "id": 1381418979,
      "center": {
        "lat": 12.9858045,
        "lon": 77.616076
      },
      "tags": {
        "access": "permissive",
        "amenity": "parking",
        "capacity": "9",
        "parking": "surface"
      }
    }
  ]
}