{
  "area_name": "Kadirenahalli",
  "osm_id": 19884583,
  "osm_type": "relation",
  "place_type": "administrative",
  "amenity_count": 41,
  "amenities": [
    {
      "type": "node",
      "id": 1466576385,
      "lat": 12.9206648,
      "lon": 77.5598673,
      "tags": {
        "addr:district": "Bengaluru Urban",
        "addr:full": "274 / 275, M K Puttalingaiah Road, Padmanabhanagar",
        "addr:postcode": "560073",
        "addr:state": "Karnataka",
        "amenity": "hospital",
        "emergency": "yes",
        "name": "DG Hospital",
        "operator:type": "private",
        "source": "OpenGovernmentData",
        "website": "http://dpal.kar.nic.in/Kanunu%20padakosha%20PDF%20Files/Recognised%20Hospitals.pdf"
      }
    },
    {
      "type": "node",
      "id": 1471928748,
      "lat": 12.9140237,
      "lon": 77.5587479,
      "tags": {
        "amenity": "cafe",
        "name": "Kaappi"
      }
    },
    {
      "type": "node",
      "id": 1471928751,
      "lat": 12.9196818,
      "lon": 77.559736,
      "tags": {
        "name": "Shop Rite",
        "shop": "supermarket"
      }
    },
    {
      "type": "node",
      "id": 1471928752,
      "lat": 12.9206561,
      "lon": 77.5601874,
      "tags": {
        "name": "Sri Sai Gold Palace",
        "shop": "jewelry"
      }
    },
    {
      "type": "node",
      "id": 1812673570,
      "lat": 12.9202791,
      "lon": 77.5598033,
      "tags": {
        "addr:district": "Bengaluru Urban",
        "addr:full": "No. 277, M.K. Puttalingaiah Road, Padmanabha Nagar",
        "addr:postcode": "560070",
        "addr:state": "Karnataka",
        "amenity": "hospital",
        "emergency": "yes",
        "name": "Yogananda Medical and Research Centre",
        "source": "OpenGovernmentData"
      }
    },
    {
      "type": "node",
      "id": 1812681877,
      "lat": 12.9183471,
      "lon": 77.5595726,
      "tags": {
        "amenity": "toilets",
        "designation": "Nirmal Toilet"
      }
    },
    {
      "type": "node",
      "id": 1814593842,
      "lat": 12.9184077,
      "lon": 77.5591112,
      "tags": {
        "amenity": "school",
        "name": "Sahakari Vidya Kendra",
        "name:kn": "ಸಹಕಾರಿ ವಿದ್ಯಾ ಕೇಂದ್ರ"
      }
    },
    {
      "type": "node",
      "id": 1816295160,
      "lat": 12.9164891,
      "lon": 77.559186,
      "tags": {
        "amenity": "place_of_worship",
        "name": "Venkateshwara Temple",
        "name:kn": "ವೆಂಕಟೇಶ್ವರ ದೇವಸ್ಥಾನ",
        "religion": "hindu"
      }
    },
    {
      "type": "node",
      "id": 2123565317,
      "lat": 12.9146638,
      "lon": 77.559228,
      "tags": {
        "amenity": "school",
        "name": "Prarthana School",
        "name:kn": "ಪ್ರಾರ್ಥನಾ ಶಾಲೆ"
      }
    },
    {
      "type": "node",
      "id": 2123565615,
      "lat": 12.9187365,
      "lon": 77.5575811,
      "tags": {
        "amenity": "post_office",
        "name": "Padmanabha Nagara Post Office"
      }
    },
    {
      "type": "node",
      "id": 2124814946,
      "lat": 12.9183496,
      "lon": 77.5572332,
      "tags": {
        "name": "Choice Bakery",
        "shop": "bakery"
      }
    },
    {
      "type": "node",
      "id": 2124814949,
      "lat": 12.9184882,
      "lon": 77.557254,
      "tags": {
        "shop": "greengrocer"
      }
    },
    {
      "type": "node",
      "id": 2466664086,
      "lat": 12.9152651,
      "lon": 77.5592492,
      "tags": {
        "amenity": "fuel",
        "brand": "Total",
        "brand:wikidata": "Q154037",
        "name": "Total Auto Gas"
      }
    },
    {
      "type": "node",
      "id": 2932847484,
      "lat": 12.916348,
      "lon": 77.5591356,
      "tags": {
        "addr:city": "Bangalore",
        "addr:postcode": "560070",
        "amenity": "place_of_worship",
        "name": "Prasanna Ganapati Temple",
        "name:kn": "ರಸನ್ನ ಗಣಪತಿ ದೇವಸ್ಥಾನ",
        "religion": "hindu"
      }
    },
    {
      "type": "node",
      "id": 2932851733,
      "lat": 12.9169288,
      "lon": 77.5592568,
      "tags": {
        "addr:city": "Bangalore",
        "addr:district": "Bengaluru Urban",
        "addr:full": "No. 30, Pavana Dhama, 80 Feet Main Road,Opposite Nilgiris,Padmanabha Nagar",
        "addr:postcode": "560070",
        "addr:state": "Karnataka",
        "amenity": "hospital",
        "healthcare": "hospital",
        "name": "Dr.Agarwal's Eye Hospital Ltd, Padmanabha Nagar",
        "operator": "Dr. Agarwal's Eye Hospital",
        "operator:wikidata": "Q17052044",
        "source": "OpenGovernmentData"
      }
    },
    {
      "type": "node",
      "id": 4443301971,
      "lat": 12.9151071,
      "lon": 77.5624888,
      "tags": {
        "addr:city": "bangalore",
        "addr:housenumber": "5",
        "addr:postcode": "560050",
        "addr:street": "80 feet road,banashankari",
        "amenity": "hospital",
        "name": "NRS Medical & Dental Specialists Centre",
        "phone": "08026696054"
      }
    },
    {
      "type": "node",
      "id": 4446973326,
      "lat": 12.9170843,
      "lon": 77.5596138,
      "tags": {
        "addr:city": "Banashankari,Banglore",
        "addr:housenumber": "31/A",
        "addr:postcode": "560070",
        "addr:street": "Puttalingaiah Road",
        "amenity": "restaurant",
        "cuisine": "indian",
        "name": "Udupi Ruchis",
        "opening_hours": "07:00-22:30",
        "phone": "+91 78293 51388",
        "takeaway": "yes"
      }
    },
    {
      "type": "node",
      "id": 4446992350,
      "lat": 12.9152705,
      "lon": 77.5609497,
      "tags": {
        "addr:city": "Banashankari,Bangalore",
        "addr:housenumber": "19/1",
        "addr:postcode": "560070",
        "addr:street": "Subramaniapura Road",
        "amenity": "restaurant",
        "cuisine": "regional",
        "name": "Sri Banashankari Nati Style",
        "opening_hours": "12:00-16:00,19:00-22:30",
        "phone": "097421 74293",
        "takeaway": "yes"
      }
    },
    {
      "type": "node",
      "id": 4487961190,
      "lat": 12.9155969,
      "lon": 77.561918,
      "tags": {
        "addr:city": "bangalore",
        "addr:housenumber": ".149,",
        "addr:postcode": "560076",
        "addr:street": "Subramaniapura Road",
        "name": "Sri Lakshmi venkaterwara prasanna",
        "phone": "07259955456",
        "shop": "sports"
      }
    },
    {
      "type": "node",
      "id": 4489929890,
      "lat": 12.914482,
      "lon": 77.5643032,
      "tags": {
        "addr:city": "Bengaluru",
        "addr:housenumber": "\" #219,",
        "addr:postcode": "560070\"",
        "addr:street": "Sri Ranga Complex, Above Sweet Sagar Bakery, 5th Cross, Vivekananda Cross Road, BSK 2nd Stage, Subramanya Pura Rd, Kadarenahalli, Banashankari, , Karnataka",
        "leisure": "sports_centre",
        "name": "Muscle Mechanic",
        "opening_hours": "5:00-23:00"
      }
    },
    {
      "type": "node",
      "id": 5626258372,
      "lat": 12.9155219,
      "lon": 77.5617083,
      "tags": {
        "addr:city": "Bengaluru",
        "addr:housenumber": "26/26",
        "addr:postcode": "560070",
        "addr:street": "Subramanyapura Main Road, Bendre Nagar",
        "amenity": "pharmacy",
        "dispensing": "yes",
        "healthcare": "pharmacy",
        "name": "Sridhar Medicals",
        "payment:cash": "yes",
        "payment:paytm": "yes"
      }
    },
    {
      "type": "node",
      "id": 6852266951,
      "lat": 12.9203305,
      "lon": 77.5601312,
      "tags": {
        "amenity": "bank",
        "atm": "yes",
        "brand": "ICICI Bank",
        "brand:wikidata": "Q1653258",
        "brand:wikipedia": "en:ICICI Bank",
        "name": "ICICI Bank",
        "name:kn": "ಐಸಿಐಸಿಐ ಬ್ಯಾಂಕು",
        "short_name": "ICICI"
      }
    },
    {
      "type": "node",
      "id": 6852266952,
      "lat": 12.9205605,
      "lon": 77.5601846,
      "tags": {
        "amenity": "bank",
        "brand": "Syndicate Bank",
        "brand:wikidata": "Q2004088",
        "brand:wikipedia": "en:Syndicate Bank",
        "name": "Syndicate Bank",
        "name:kn": "ಸಿಂಡಿಕೇಟ್ ಬ್ಯಾಂಕ್"
      }
    },
    {
      "type": "node",
      "id": 6852266953,
      "lat": 12.9158516,
      "lon": 77.5593919,
      "tags": {
        "addr:district": "Bengaluru Urban",
        "addr:full": "Padmanabhanagar, Bengaluru",
        "addr:postcode": "560070",
        "addr:state": "Karnataka",
        "amenity": "hospital",
        "healthcare": "hospital",
        "name": "Yogananda Multi Speciality Hospital",
        "name:kn": "ಯೋಗನಂದ ಆಸ್ಪತ್ರೆ",
        "source": "Local Knowledge"
      }
    },
    {
      "type": "node",
      "id": 6947750361,
      "lat": 12.9162753,
      "lon": 77.5589544,
      "tags": {
        "addr:district": "Bengaluru Urban",
        "addr:full": "No. 113, 4Th Cross, R. K. Layout, Padmanabhanagar",
        "addr:postcode": "560070",
        "addr:state": "Karnataka",
        "amenity": "hospital",
        "healthcare": "hospital",
        "name": "Hillside Hospital",
        "source": "OpenGovernmentData"
      }
    },
    {
      "type": "node",
      "id": 7579924700,
      "lat": 12.9178682,
      "lon": 77.5610481,
      "tags": {
        "addr:district": "Bengaluru Urban",
        "addr:full": "Padmanabhanagar, Bengaluru",
        "addr:postcode": "560070",
        "addr:state": "Karnataka",
        "amenity": "clinic",
        "healthcare": "clinic",
        "name": "Amogh Ortho Centre",
        "source": "Local Knowledge"
      }
    },
    {
      "type": "node",
      "id": 7579924701,
      "lat": 12.9175335,
      "lon": 77.559993,
      "tags": {
        "addr:district": "Bengaluru Urban",
        "addr:full": "Bengaluru",
        "addr:postcode": "560070",
        "addr:state": "Karnataka",
        "amenity": "clinic",
        "healthcare": "clinic",
        "name": "Vismaya ENT Clinic",
        "source": "Local Knowledge"
      }
    },
    {
      "type": "node",
      "id": 7579924723,
      "lat": 12.9169158,
      "lon": 77.5607423,
      "tags": {
        "addr:district": "Bengaluru Urban",
        "addr:full": "Padmanabha Nagar, Bengaluru",
        "addr:postcode": "560070",
        "addr:state": "Karnataka",
        "amenity": "dentist",
        "healthcare": "dentist",
        "name": "Ganesh Dental Care",
        "source": "Local Knowledge"
      }
    },
    {
      "type": "node",
      "id": 7579924734,
      "lat": 12.9174804,
      "lon": 77.5608236,
      "tags": {
        "addr:district": "Bengaluru Urban",
        "addr:full": "Gururaja Layout, Padmanabha Nagar, Bengaluru",
        "addr:postcode": "560070",
        "addr:state": "Karnataka",
        "amenity": "clinic",
        "healthcare": "clinic",
        "name": "Vijaya Orthopaedic Centre",
        "source": "Local Knowledge"
      }
    },
    {
      "type": "node",
      "id": 11279634239,
      "lat": 12.9213326,
      "lon": 77.5604792,
      "tags": {
        "amenity": "shelter",
        "shelter_type": "gazebo"
      }
    },
    {
      "type": "node",
      "id": 12538086462,
      "lat": 12.9165713,
      "lon": 77.5615738,
      "tags": {
        "amenity": "atm",
        "brand": "State Bank of India",
        "brand:wikidata": "Q1340361",
        "operator": "State Bank of India",
        "operator:wikidata": "Q1340361",
        "short_name": "SBI"
      }
    },
    {
      "type": "way",
      "id": 244031567,
      "center": {
        "lat": 12.9209039,
        "lon": 77.5591701
      },
      "tags": {
        "amenity": "college",
        "name": "Regional Institute of Co-operative Management"
      }
    },
    {
      "type": "way",
      "id": 348101723,
      "center": {
        "lat": 12.9152778,
        "lon": 77.5588134
      },
      "tags": {
        "addr:city": "Bangalore",
        "addr:postcode": "560070",
        "addr:street": "Puttalingaiah Road",
        "amenity": "fuel",
        "fuel:diesel": "yes",
        "fuel:petrol": "yes",
        "name": "Bharath Petrol Bunk",
        "name:kn": "ಭಾರತ್ ಪೆಟ್ರೋಲಿಯಂ",
        "opening_hours": "07:00-21:00"
      }
    },
    {
      "type": "way",
      "id": 479981469,
      "center": {
        "lat": 12.9192913,
        "lon": 77.5592937
      },
      "tags": {
        "amenity": "school",
        "name": "Carmel School",
        "name:kn": "ಕಾರ್ಮೆಲ್ ಶಾಲೆ"
      }
    },
    {
      "type": "way",
      "id": 556950053,
      "center": {
        "lat": 12.9180877,
        "lon": 77.5576506
      },
      "tags": {
        "description": "A public park with Gazebo to rest and have the natural freshness. Also called as Senior Citizen Park.",
        "leisure": "park",
        "name": "Padmanabhanagar Park",
        "name:kn": "ಪದ್ಮನಭನಗರ ಉದ್ಯಾನವನ"
      }
    },
    {
      "type": "way",
      "id": 579495211,
      "center": {
        "lat": 12.9186872,
        "lon": 77.5592203
      },
      "tags": {
        "leisure": "park",
        "name": "Carmel School",
        "name:kn": "ಕಾರ್ಮೆಲ್ ಶಾಲೆ"
      }
    },
    {
      "type": "way",
      "id": 731648896,
      "center": {
        "lat": 12.9183704,
        "lon": 77.559938
      },
      "tags": {
        "addr:city": "Bengaluru",
        "addr:postcode": "560070",
        "addr:street": "Puttalingaiah Road",
        "amenity": "place_of_worship",
        "building": "yes",
        "name": "Sai Baba Temple",
        "name:kn": "ಸಾಯಿಬಾಬಾ ದೇವಸ್ಥಾನ",
        "religion": "hindu"
      }
    },
    {
      "type": "way",
      "id": 731648897,
      "center": {
        "lat": 12.9181044,
        "lon": 77.557742
      },
      "tags": {
        "addr:city": "Bengaluru",
        "addr:postcode": "560070",
        "addr:street": "Padmanabhanagar park",
        "amenity": "place_of_worship",
        "building": "yes",
        "name": "Sri Lakshmi Kanth Swamy Devstan Sankiran",
        "name:kn": "ಶ್ರೀ ಲಕ್ಷ್ಮಿ ಕಾಂತ್ ಸ್ವಾಮಿ ದೇವ್ಸ್ತಾನ್ ಸಂಕಿರಣ್",
        "religion": "hindu"
      }
    },
    {
      "type": "way",
      "id": 1217350537,
      "center": {
        "lat": 12.9209241,
        "lon": 77.5615494
      },
      "tags": {
        "leisure": "park"
      }
    },
    {
      "type": "way",
      "id": 1217350538,
      "center": {
        "lat": 12.9213634,
        "lon": 77.5605476
      },
      "tags": {
        "leisure": "park",
        "name": "General Bipin Rawat Park"
      }
    },
    {
      "type": "way",
      "id": 1352846823,
      "center": {
        "lat": 12.9208102,
        "lon": 77.5581159
      },
      "tags": {
        "addr:city": "Bengaluru",
        "addr:district": "Bengaluru Urban",
        "addr:postcode": "560070",
        "addr:street": "13th Main Road",
        "leisure": "park",
        "name": "Gururaghavendra Layout Park",
        "opening_hours": "Mo-Sa 05:00-20:00",
        "operator": "ಬೃಹತ್ ಬೆಂಗಳೂರು ಮಹಾನಗರ ಪಾಲಿಕೆ",
        "operator:en": "Bruhat Bengaluru Mahanagara Palike",
        "operator:ka": "ಬೃಹತ್ ಬೆಂಗಳೂರು ಮಹಾನಗರ ಪಾಲಿಕೆ",
        "operator:short": "BBMP",
        "operator:type": "government",
        "operator:wikidata": "Q4978693"
      }
    }
  ]
}