{
  "area_name": "Kadugodi",
  "osm_id": 1459473105,
  "osm_type": "node",
  "place_type": "suburb",
  "amenity_count": 73,
  "amenities": [
    {
      "type": "node",
      "id": 1198183529,
      "lat": 12.9968841,
      "lon": 77.7612995,
      "tags": {
        "amenity": "atm",
        "name": "Punjab National Bank ATM",
        "operator": "Punjab National Bank"
      }
    },
    {
      "type": "node",
      "id": 1497217077,
      "lat": 12.995384,
      "lon": 77.7574684,
      "tags": {
        "amenity": "police",
        "name": "Kadugodi Police Station",
        "name:kn": "ಕಾಡುಗೋಡಿ ಆರಕ್ಷಕ ಟಾಣೆ"
      }
    },
    {
      "type": "node",
      "id": 2474969412,
      "lat": 13.0053531,
      "lon": 77.7550286,
      "tags": {
        "amenity": "school"
      }
    },
    {
      "type": "node",
      "id": 2987147479,
      "lat": 12.9964249,
      "lon": 77.7649169,
      "tags": {
        "leisure": "park"
      }
    },
    {
      "type": "node",
      "id": 2987147480,
      "lat": 12.9964249,
      "lon": 77.7649169,
      "tags": {
        "name": "P K Store",
        "shop": "supermarket"
      }
    },
    {
      "type": "node",
      "id": 3592522250,
      "lat": 13.0031746,
      "lon": 77.757283,
      "tags": {
        "amenity": "atm",
        "operator": "State Bank of India"
      }
    },
    {
      "type": "node",
      "id": 4278444396,
      "lat": 13.0058128,
      "lon": 77.7567846,
      "tags": {
        "addr:street": "Kadugodi Main Road",
        "amenity": "restaurant",
        "name": "Aiswarya Malayali Hotel"
      }
    },
    {
      "type": "node",
      "id": 4278474191,
      "lat": 13.0043776,
      "lon": 77.7570407,
      "tags": {
        "name": "Mayura",
        "name:kn": "ಮಯೂರ",
        "shop": "bakery"
      }
    },
    {
      "type": "node",
      "id": 4445163720,
      "lat": 12.9977711,
      "lon": 77.7548105,
      "tags": {
        "addr:city": "Bangalore",
        "addr:housenumber": "817/744",
        "addr:postcode": "560067,",
        "addr:street": "Kk White Castle Apartment, Vijaya Lakshmi Colony, Kumbena Agaraha Main Rd, Kadugodi",
        "amenity": "hospital",
        "name": "Sky Diagnostic Centre kumbena agrahara",
        "phone": "08033051529"
      }
    },
    {
      "type": "node",
      "id": 4446887432,
      "lat": 12.9992982,
      "lon": 77.7575636,
      "tags": {
        "addr:city": "bangalore",
        "addr:housenumber": "34/1 B",
        "addr:postcode": "560067",
        "addr:street": "First Floor Above Dominos Pizza Opposite Sai Baba Ashram Kadugodi, Kadugodi",
        "amenity": "hospital",
        "name": "Tele Rad RX DX Health care Pvt Ltd",
        "phone": "080 4926 1111",
        "website": "https://rxdx.in/"
      }
    },
    {
      "type": "node",
      "id": 4446938197,
      "lat": 12.9967611,
      "lon": 77.7591252,
      "tags": {
        "addr:city": "Bangalore",
        "addr:postcode": "560067",
        "addr:street": "Opposite Whitefield Railway Station, Kadugodi",
        "amenity": "hospital",
        "emergency": "yes",
        "name": "New Life Hospital bangalore",
        "phone": "080 4954 0540",
        "source": "http://www.justdial.com/Bangalore/",
        "website": "https://newlifehospital.in/"
      }
    },
    {
      "type": "node",
      "id": 5423028221,
      "lat": 13.0028637,
      "lon": 77.7569157,
      "tags": {
        "amenity": "hospital",
        "name": "Telerad RXDX Kadugodi"
      }
    },
    {
      "type": "node",
      "id": 10307990282,
      "lat": 13.0060923,
      "lon": 77.756807,
      "tags": {
        "brand": "Reliance Digital",
        "brand:wikidata": "Q7311012",
        "name": "Reliance Digital",
        "shop": "electronics"
      }
    },
    {
      "type": "node",
      "id": 11007058414,
      "lat": 12.9995492,
      "lon": 77.7571949,
      "tags": {
        "access": "private",
        "amenity": "parking_entrance",
        "parking": "underground"
      }
    },
    {
      "type": "node",
      "id": 12135160549,
      "lat": 12.9957425,
      "lon": 77.7578469,
      "tags": {
        "access": "customers",
        "amenity": "drinking_water",
        "indoor": "yes",
        "level": "1",
        "operator": "BMRCL"
      }
    },
    {
      "type": "node",
      "id": 12135160550,
      "lat": 12.9954341,
      "lon": 77.7577583,
      "tags": {
        "access": "customers",
        "amenity": "toilets",
        "fee": "no",
        "level": "1",
        "male": "yes",
        "operator": "BMRCL"
      }
    },
    {
      "type": "node",
      "id": 12135160551,
      "lat": 12.9958157,
      "lon": 77.757871,
      "tags": {
        "access": "customers",
        "amenity": "toilets",
        "fee": "no",
        "female": "yes",
        "level": "1",
        "operator": "BMRCL"
      }
    },
    {
      "type": "node",
      "id": 12135160553,
      "lat": 12.995834,
      "lon": 77.7576041,
      "tags": {
        "amenity": "veterinary",
        "name": "Veterinary Dispensary"
      }
    },
    {
      "type": "node",
      "id": 12135160560,
      "lat": 12.9965828,
      "lon": 77.7615631,
      "tags": {
        "amenity": "toilets"
      }
    },
    {
      "type": "node",
      "id": 12135160565,
      "lat": 12.9961855,
      "lon": 77.7611339,
      "tags": {
        "name": "Nandini",
        "shop": "dairy"
      }
    },
    {
      "type": "node",
      "id": 12135160616,
      "lat": 12.9974433,
      "lon": 77.7682807,
      "tags": {
        "amenity": "bench"
      }
    },
    {
      "type": "node",
      "id": 12135160626,
      "lat": 13.0001672,
      "lon": 77.7675833,
      "tags": {
        "shop": "kiosk"
      }
    },
    {
      "type": "node",
      "id": 12135161149,
      "lat": 12.9948827,
      "lon": 77.7592215,
      "tags": {
        "access": "private",
        "amenity": "parking_entrance",
        "parking": "underground"
      }
    },
    {
      "type": "node",
      "id": 12135161150,
      "lat": 12.9953218,
      "lon": 77.7588111,
      "tags": {
        "access": "private",
        "amenity": "parking_entrance",
        "parking": "underground"
      }
    },
    {
      "type": "node",
      "id": 12211526522,
      "lat": 12.9954946,
      "lon": 77.7599158,
      "tags": {
        "access": "private",
        "amenity": "parking_entrance"
      }
    },
    {
      "type": "node",
      "id": 13152655039,
      "lat": 12.9960381,
      "lon": 77.760664,
      "tags": {
        "level": "0",
        "name": "Milk Stall Western Railway Bangalore Division",
        "shop": "dairy"
      }
    },
    {
      "type": "node",
      "id": 13161243881,
      "lat": 12.9962277,
      "lon": 77.7606531,
      "tags": {
        "amenity": "drinking_water"
      }
    },
    {
      "type": "node",
      "id": 13161243883,
      "lat": 12.9964327,
      "lon": 77.7615764,
      "tags": {
        "level": "0",
        "shop": "ticket"
      }
    },
    {
      "type": "node",
      "id": 13161243886,
      "lat": 12.9962659,
      "lon": 77.7606401,
      "tags": {
        "access": "yes",
        "amenity": "toilets",
        "female": "yes",
        "toilets:disposal": "flush",
        "toilets:handwashing": "yes",
        "wheelchair": "no"
      }
    },
    {
      "type": "node",
      "id": 13161243892,
      "lat": 12.996264,
      "lon": 77.7606657,
      "tags": {
        "access": "yes",
        "amenity": "toilets",
        "male": "yes",
        "toilets:disposal": "flush",
        "toilets:handwashing": "yes",
        "wheelchair": "no"
      }
    },
    {
      "type": "node",
      "id": 13161243893,
      "lat": 12.9963127,
      "lon": 77.7601258,
      "tags": {
        "amenity": "drinking_water"
      }
    },
    {
      "type": "node",
      "id": 13161427733,
      "lat": 13.0003789,
      "lon": 77.756831,
      "tags": {
        "access": "private",
        "amenity": "parking_entrance",
        "parking": "underground"
      }
    },
    {
      "type": "node",
      "id": 13161427740,
      "lat": 13.0012289,
      "lon": 77.7566908,
      "tags": {
        "access": "private",
        "amenity": "parking_entrance",
        "parking": "underground"
      }
    },
    {
      "type": "node",
      "id": 13161427764,
      "lat": 12.9997974,
      "lon": 77.7566747,
      "tags": {
        "access": "private",
        "amenity": "parking_entrance",
        "parking": "underground"
      }
    },
    {
      "type": "way",
      "id": 130127246,
      "center": {
        "lat": 12.9957008,
        "lon": 77.7585103
      },
      "tags": {
        "amenity": "bus_station",
        "bus": "yes",
        "designation": "BMTC",
        "name": "Kadugodi Bus Station",
        "name:kn": "ಕಾಡುಗೋಡಿ",
        "public_transport": "station"
      }
    },
    {
      "type": "way",
      "id": 130127247,
      "center": {
        "lat": 12.9956989,
        "lon": 77.7585204
      },
      "tags": {
        "amenity": "bus_station",
        "building": "yes",
        "bus": "yes",
        "name": "Kadugodi Bus Station",
        "name:kn": "ಕಾಡುಗೋಡಿ ಬಸ್ ನಿಲ್ದಾನ",
        "public_transport": "station"
      }
    },
    {
      "type": "way",
      "id": 130645776,
      "center": {
        "lat": 12.9983305,
        "lon": 77.758957
      },
      "tags": {
        "amenity": "place_of_worship",
        "landuse": "religious",
        "name": "Brindavan Ashram",
        "name:kn": "ಬೃಂದಾವನ ಆಶ್ರಮ",
        "religion": "hindu"
      }
    },
    {
      "type": "way",
      "id": 130645780,
      "center": {
        "lat": 13.0012666,
        "lon": 77.7595963
      },
      "tags": {
        "amenity": "college",
        "name": "Sri Sathya Sai Institute of Higher Learning"
      }
    },
    {
      "type": "way",
      "id": 136492654,
      "center": {
        "lat": 12.9942469,
        "lon": 77.7571802
      },
      "tags": {
        "amenity": "police",
        "building": "yes",
        "name": "Whitefield Traffic Police Station",
        "name:kn": "ಸಂಚಾರ ಪೊಲೀಸ್ ಠಾಣೆ"
      }
    },
    {
      "type": "way",
      "id": 150593086,
      "center": {
        "lat": 12.9968035,
        "lon": 77.7616172
      },
      "tags": {
        "access": "customers",
        "amenity": "parking",
        "name": "Whitefield Station Car Parking",
        "parking": "surface"
      }
    },
    {
      "type": "way",
      "id": 239572655,
      "center": {
        "lat": 12.9984828,
        "lon": 77.7531194
      },
      "tags": {
        "addr:street": "Junior College Road, Kadugodi Industrial Area",
        "amenity": "college",
        "name": "Government High School & Junior College,Belatur Colony"
      }
    },
    {
      "type": "way",
      "id": 346513415,
      "center": {
        "lat": 12.9977877,
        "lon": 77.7640062
      },
      "tags": {
        "amenity": "place_of_worship",
        "building": "yes",
        "religion": "hindu"
      }
    },
    {
      "type": "way",
      "id": 627968106,
      "center": {
        "lat": 13.0000438,
        "lon": 77.7571576
      },
      "tags": {
        "leisure": "park"
      }
    },
    {
      "type": "way",
      "id": 627968107,
      "center": {
        "lat": 12.9996569,
        "lon": 77.7575522
      },
      "tags": {
        "leisure": "park"
      }
    },
    {
      "type": "way",
      "id": 627968108,
      "center": {
        "lat": 13.0011035,
        "lon": 77.7569673
      },
      "tags": {
        "access": "private",
        "leisure": "pitch",
        "sport": "tennis"
      }
    },
    {
      "type": "way",
      "id": 627968110,
      "center": {
        "lat": 12.9996968,
        "lon": 77.7561376
      },
      "tags": {
        "leisure": "swimming_pool"
      }
    },
    {
      "type": "way",
      "id": 1083394758,
      "center": {
        "lat": 12.9955738,
        "lon": 77.7594027
      },
      "tags": {
        "access": "private",
        "leisure": "swimming_pool"
      }
    },
    {
      "type": "way",
      "id": 1127413583,
      "center": {
        "lat": 13.0076822,
        "lon": 77.7604508
      },
      "tags": {
        "leisure": "pitch",
        "sport": "basketball"
      }
    },
    {
      "type": "way",
      "id": 1235776032,
      "center": {
        "lat": 13.0070221,
        "lon": 77.7602931
      },
      "tags": {
        "amenity": "school",
        "name": "Valistus International School"
      }
    },
    {
      "type": "way",
      "id": 1287904674,
      "center": {
        "lat": 12.9977903,
        "lon": 77.7606679
      },
      "tags": {
        "leisure": "park",
        "name": "Kadugodi Park",
        "name:kn": "ಕಾಡುಗೋಡಿ ಉದ್ಯಾನವನ"
      }
    },
    {
      "type": "way",
      "id": 1287904688,
      "center": {
        "lat": 12.9946174,
        "lon": 77.7586699
      },
      "tags": {
        "amenity": "school",
        "name": "Ujjval World School"
      }
    },
    {
      "type": "way",
      "id": 1304106649,
      "center": {
        "lat": 12.9963482,
        "lon": 77.7641548
      },
      "tags": {
        "amenity": "place_of_worship",
        "name": "Haji Sir Ismail Sait Masjid",
        "religion": "muslim"
      }
    },
    {
      "type": "way",
      "id": 1306213262,
      "center": {
        "lat": 12.9933131,
        "lon": 77.7572503
      },
      "tags": {
        "access": "no",
        "garden:type": "landscaping",
        "leisure": "garden"
      }
    },
    {
      "type": "way",
      "id": 1307192672,
      "center": {
        "lat": 12.9964097,
        "lon": 77.7622521
      },
      "tags": {
        "amenity": "place_of_worship",
        "building": "temple",
        "religion": "hindu"
      }
    },
    {
      "type": "way",
      "id": 1307192711,
      "center": {
        "lat": 12.9972544,
        "lon": 77.7635855
      },
      "tags": {
        "amenity": "school",
        "name": "Pragathi School and PU College"
      }
    },
    {
      "type": "way",
      "id": 1307192714,
      "center": {
        "lat": 12.9981809,
        "lon": 77.7637804
      },
      "tags": {
        "amenity": "school"
      }
    },
    {
      "type": "way",
      "id": 1307192718,
      "center": {
        "lat": 12.9975788,
        "lon": 77.7683279
      },
      "tags": {
        "amenity": "place_of_worship",
        "landuse": "religious",
        "name": "Sri Kashi Vishweshwara Swamy Temple",
        "religion": "hindu"
      }
    },
    {
      "type": "way",
      "id": 1307192728,
      "center": {
        "lat": 12.9965939,
        "lon": 77.7675712
      },
      "tags": {
        "amenity": "place_of_worship",
        "landuse": "religious",
        "religion": "hindu"
      }
    },
    {
      "type": "way",
      "id": 1310982631,
      "center": {
        "lat": 12.9968323,
        "lon": 77.7613639
      },
      "tags": {
        "access": "customers",
        "amenity": "motorcycle_parking",
        "name": "Whitefield Station Bike Parking",
        "parking": "surface"
      }
    },
    {
      "type": "way",
      "id": 1310982662,
      "center": {
        "lat": 12.9990224,
        "lon": 77.7655944
      },
      "tags": {
        "amenity": "school",
        "landuse": "education"
      }
    },
    {
      "type": "way",
      "id": 1310982672,
      "center": {
        "lat": 12.9979601,
        "lon": 77.7549005
      },
      "tags": {
        "amenity": "school"
      }
    },
    {
      "type": "way",
      "id": 1310982753,
      "center": {
        "lat": 12.9959966,
        "lon": 77.759408
      },
      "tags": {
        "leisure": "park"
      }
    },
    {
      "type": "way",
      "id": 1310982759,
      "center": {
        "lat": 12.9948536,
        "lon": 77.7594422
      },
      "tags": {
        "access": "private",
        "amenity": "parking",
        "parking": "street_side"
      }
    },
    {
      "type": "way",
      "id": 1430793406,
      "center": {
        "lat": 12.9960002,
        "lon": 77.7610419
      },
      "tags": {
        "amenity": "shelter",
        "building": "roof",
        "roof:colour": "green",
        "roof:material": "metal",
        "roof:shape": "butterfly",
        "shelter_type": "public_transport"
      }
    },
    {
      "type": "way",
      "id": 1430793407,
      "center": {
        "lat": 12.9960887,
        "lon": 77.7604428
      },
      "tags": {
        "amenity": "shelter",
        "building": "roof",
        "roof:colour": "blue",
        "roof:material": "metal",
        "roof:shape": "gabled",
        "shelter_type": "public_transport"
      }
    },
    {
      "type": "way",
      "id": 1431873757,
      "center": {
        "lat": 12.9962952,
        "lon": 77.7604547
      },
      "tags": {
        "amenity": "shelter",
        "building": "roof",
        "roof:colour": "green",
        "roof:shape": "gabled",
        "shelter_type": "public_transport"
      }
    },
    {
      "type": "way",
      "id": 1431873759,
      "center": {
        "lat": 12.9963433,
        "lon": 77.759956
      },
      "tags": {
        "amenity": "shelter",
        "building": "roof",
        "building:material": "metal",
        "roof:colour": "blue",
        "roof:shape": "round",
        "shelter_type": "public_transport"
      }
    },
    {
      "type": "way",
      "id": 1431902893,
      "center": {
        "lat": 13.0011094,
        "lon": 77.756837
      },
      "tags": {
        "access": "private",
        "leisure": "pitch",
        "sport": "basketball"
      }
    },
    {
      "type": "way",
      "id": 1431902894,
      "center": {
        "lat": 13.0012871,
        "lon": 77.7567706
      },
      "tags": {
        "access": "private",
        "leisure": "playground"
      }
    },
    {
      "type": "way",
      "id": 1431902897,
      "center": {
        "lat": 12.9995763,
        "lon": 77.7570576
      },
      "tags": {
        "access": "private",
        "leisure": "playground"
      }
    },
    {
      "type": "way",
      "id": 1431902898,
      "center": {
        "lat": 13.0004715,
        "lon": 77.7572202
      },
      "tags": {
        "access": "private",
        "leisure": "playground"
      }
    },
    {
      "type": "way",
      "id": 1454051713,
      "center": {
        "lat": 12.9912132,
        "lon": 77.7618205
      },
      "tags": {
        "amenity": "school"
      }
    },
    {
      "type": "way",
      "id": 1455401177,
      "center": {
        "lat": 12.998062,
        "lon": 77.752349
      },
      "tags": {
        "access": "private",
        "leisure": "swimming_pool"
      }
    }
  ]
}