{
  "area_name": "Kaggadasapura",
  "osm_id": 19884517,
  "osm_type": "relation",
  "place_type": "administrative",
  "amenity_count": 99,
  "amenities": [
    {
      "type": "node",
      "id": 985256296,
      "lat": 12.9858685,
      "lon": 77.6687185,
      "tags": {
        "addr:street": "Kaggadasspura Main Road",
        "amenity": "fast_food",
        "brand": "Domino's",
        "brand:ks": "ڈومینوز",
        "brand:pa": "ਡੋਮੀਨੋਜ਼",
        "brand:ur": "ڈومینوز",
        "brand:wikidata": "Q839466",
        "brand:wikipedia": "en:Domino's Pizza",
        "cuisine": "pizza",
        "name": "Domino's",
        "name:kn": "ಡಾಮಿನೋಸ್",
        "name:ks": "ڈومینوز",
        "name:pa": "ਡੋਮੀਨੋਜ਼",
        "name:ur": "ڈومینوز",
        "operator": "Dominos",
        "takeaway": "yes"
      }
    },
    {
      "type": "node",
      "id": 985256304,
      "lat": 12.9858451,
      "lon": 77.6686567,
      "tags": {
        "addr:street": "Kaggadasspura Main Road",
        "amenity": "cafe",
        "brand": "Cafe Coffee Day",
        "brand:wikidata": "Q5017235",
        "cuisine": "coffee_shop",
        "name": "Cafe Coffee Day",
        "name:kn": "ಕಫೆ ಕಾಫಿ ಡೇ",
        "takeaway": "yes"
      }
    },
    {
      "type": "node",
      "id": 1076567658,
      "lat": 12.9851864,
      "lon": 77.6736268,
      "tags": {
        "addr:street": "Kaggadasspura Main Road",
        "name": "New City Super Market",
        "shop": "supermarket"
      }
    },
    {
      "type": "node",
      "id": 1076571318,
      "lat": 12.9851522,
      "lon": 77.6737584,
      "tags": {
        "addr:street": "Kaggadasspura Main Road",
        "amenity": "pharmacy",
        "name": "Trust"
      }
    },
    {
      "type": "node",
      "id": 1078161780,
      "lat": 12.9855001,
      "lon": 77.6732164,
      "tags": {
        "addr:street": "Kaggadasspura Main Road",
        "amenity": "restaurant",
        "name": "Reddys",
        "name:kn": "ರೆಡ್ಡಿಸ್"
      }
    },
    {
      "type": "node",
      "id": 1078161782,
      "lat": 12.9856566,
      "lon": 77.6730826,
      "tags": {
        "addr:street": "Kaggadasspura Main Road",
        "name": "Smart Cars",
        "shop": "car_repair"
      }
    },
    {
      "type": "node",
      "id": 1078209943,
      "lat": 12.985926,
      "lon": 77.6688553,
      "tags": {
        "addr:street": "Kaggadasspura Main Road",
        "brand": "Reliance Fresh",
        "brand:wikidata": "Q7311014",
        "name": "Reliance Fresh",
        "name:kn": "ರಿಲಾಯನ್ಸ್ ಫ್ರೆಶ್",
        "shop": "supermarket"
      }
    },
    {
      "type": "node",
      "id": 1078209946,
      "lat": 12.9859601,
      "lon": 77.6689329,
      "tags": {
        "addr:street": "Kaggadasspura Main Road",
        "brand": "Nilgiri's",
        "brand:wikidata": "Q17079567",
        "name": "Nilgiri's",
        "name:kn": "ನೀಲ್ಗಿರೀಸ್",
        "shop": "supermarket"
      }
    },
    {
      "type": "node",
      "id": 1078235338,
      "lat": 12.9851708,
      "lon": 77.6716822,
      "tags": {
        "addr:street": "Kaggadasspura Main Road",
        "name": "Cosmos",
        "shop": "convenience"
      }
    },
    {
      "type": "node",
      "id": 2204197989,
      "lat": 12.9845904,
      "lon": 77.6748205,
      "tags": {
        "amenity": "atm",
        "brand": "ICICI Bank",
        "brand:wikidata": "Q1653258",
        "fee": "no",
        "operator": "ICICI Bank",
        "operator:wikidata": "Q1653258",
        "short_name": "ICICI"
      }
    },
    {
      "type": "node",
      "id": 3714504725,
      "lat": 12.9823036,
      "lon": 77.6661836,
      "tags": {
        "addr:city": "Bangalore",
        "addr:postcode": "560093",
        "amenity": "place_of_worship",
        "name": "Anjaneya Swami Temple",
        "name:kn": "ಆಂಜನೇಯ ಸ್ವಾಮಿ ದೇವಸ್ಥಾನ",
        "religion": "hindu"
      }
    },
    {
      "type": "node",
      "id": 4235494001,
      "lat": 12.9852284,
      "lon": 77.6740857,
      "tags": {
        "amenity": "clinic",
        "name": "Garden City Polyclinic"
      }
    },
    {
      "type": "node",
      "id": 4235519191,
      "lat": 12.9850377,
      "lon": 77.6741395,
      "tags": {
        "addr:street": "Kaggadasspura Main Road",
        "name": "Little Boss",
        "shop": "toys"
      }
    },
    {
      "type": "node",
      "id": 4235525003,
      "lat": 12.9857434,
      "lon": 77.6717154,
      "tags": {
        "addr:street": "Kaggadasspura Main Road",
        "amenity": "pharmacy",
        "name": "Care Medicals"
      }
    },
    {
      "type": "node",
      "id": 4391388393,
      "lat": 12.9843887,
      "lon": 77.6761893,
      "tags": {
        "name": "Ganpati Sweets",
        "name:en": "Ganpati Sweets",
        "shop": "confectionery"
      }
    },
    {
      "type": "node",
      "id": 4391425090,
      "lat": 12.9849585,
      "lon": 77.6744639,
      "tags": {
        "amenity": "kindergarten",
        "name": "Bachpan",
        "name:en": "Bachpan"
      }
    },
    {
      "type": "node",
      "id": 4437493193,
      "lat": 12.9847048,
      "lon": 77.6756194,
      "tags": {
        "amenity": "atm",
        "brand": "Federal Bank",
        "brand:wikidata": "Q2044983",
        "operator": "Federal Bank",
        "operator:wikidata": "Q2044983"
      }
    },
    {
      "type": "node",
      "id": 4437534089,
      "lat": 12.9846784,
      "lon": 77.6757499,
      "tags": {
        "brand": "Reliance Digital",
        "brand:wikidata": "Q7311012",
        "name": "Reliance Digital",
        "shop": "electronics"
      }
    },
    {
      "type": "node",
      "id": 4448093648,
      "lat": 12.9857338,
      "lon": 77.6684774,
      "tags": {
        "addr:city": "Bengaluru",
        "addr:housenumber": "18",
        "addr:postcode": "560092",
        "addr:street": "Kaggadasapura Main Road, Varsova Layout, Kaggadasapura",
        "amenity": "pharmacy",
        "name": "Kottakil Arya Vaidya Sala",
        "phone": "080 4170 8703",
        "source": "http://bestofhealthindia.com/",
        "website": "https://aryavaidyasala.com/"
      }
    },
    {
      "type": "node",
      "id": 4448104221,
      "lat": 12.9818585,
      "lon": 77.677679,
      "tags": {
        "addr:city": "Bengalore",
        "addr:postcode": "560093",
        "addr:street": "24h Cross Road, Aishwarya Lake View Residency, Kaggadasapura",
        "amenity": "pharmacy",
        "healthcare": "pharmacy",
        "name": "Ayushman Panchakarma Therapy Centre",
        "phone": "080 4093 7668",
        "source": "http://yellowpages.sulekha.com/",
        "wheelchair": "no"
      }
    },
    {
      "type": "node",
      "id": 4452040591,
      "lat": 12.9845261,
      "lon": 77.6757799,
      "tags": {
        "brand": "Kanti Sweets",
        "name": "Kanti Sweets",
        "name:en": "Kanti sweets",
        "shop": "confectionery"
      }
    },
    {
      "type": "node",
      "id": 4554870090,
      "lat": 12.9848825,
      "lon": 77.6752109,
      "tags": {
        "name": "Family Footwear",
        "name:en": "Family Footwear",
        "shop": "shoes"
      }
    },
    {
      "type": "node",
      "id": 4554885389,
      "lat": 12.9847649,
      "lon": 77.6750195,
      "tags": {
        "name": "Bala ji collection",
        "name:en": "Bala ji  collection",
        "shop": "clothes"
      }
    },
    {
      "type": "node",
      "id": 4563708889,
      "lat": 12.9849883,
      "lon": 77.6743396,
      "tags": {
        "name": "Plaza cleaners",
        "name:en": "Plaza cleaners",
        "shop": "dry_cleaning"
      }
    },
    {
      "type": "node",
      "id": 4594331190,
      "lat": 12.9851858,
      "lon": 77.673685,
      "tags": {
        "name": "City style",
        "name:en": "City style",
        "shop": "clothes"
      }
    },
    {
      "type": "node",
      "id": 4594342490,
      "lat": 12.9851301,
      "lon": 77.6740156,
      "tags": {
        "amenity": "fast_food",
        "name": "Softy station",
        "name:en": "Softy station"
      }
    },
    {
      "type": "node",
      "id": 4594342491,
      "lat": 12.9851387,
      "lon": 77.6739584,
      "tags": {
        "name": "Green Line",
        "name:en": "Green Line",
        "shop": "travel_agency"
      }
    },
    {
      "type": "node",
      "id": 4594342492,
      "lat": 12.985224,
      "lon": 77.6738357,
      "tags": {
        "name": "Bhavani hardware",
        "name:en": "Bhavani hardware",
        "shop": "hardware"
      }
    },
    {
      "type": "node",
      "id": 4594344989,
      "lat": 12.9851657,
      "lon": 77.6736086,
      "tags": {
        "addr:district": "Bengaluru Urban",
        "addr:full": "Varsova Layout, Kaggadasapura, Bengaluru",
        "addr:postcode": "560093",
        "addr:state": "Karnataka",
        "amenity": "dentist",
        "name": "Tooth Affair Dental Clinic",
        "name:en": "Tooth Affair Dental Clinic",
        "source": "Local Knowledge"
      }
    },
    {
      "type": "node",
      "id": 4594366490,
      "lat": 12.9852988,
      "lon": 77.6737302,
      "tags": {
        "amenity": "place_of_worship",
        "name": "Vinayaka Temple",
        "name:en": "Vinayaka temple",
        "name:kn": "ವಿನಾಯಕ ದೇವಸ್ಥಾನ",
        "religion": "hindu"
      }
    },
    {
      "type": "node",
      "id": 4595863990,
      "lat": 12.9816192,
      "lon": 77.6799498,
      "tags": {
        "brand": "Patanjali Ayurved",
        "brand:wikidata": "Q19856023",
        "name": "Patanjali Store",
        "name:en": "Patanjali store",
        "name:kn": "ಪತಾಂಜಲಿ",
        "shop": "convenience"
      }
    },
    {
      "type": "node",
      "id": 4680308696,
      "lat": 12.984816,
      "lon": 77.6656733,
      "tags": {
        "amenity": "clinic",
        "name": "Government Health Center",
        "name:hi": "Government Health Center"
      }
    },
    {
      "type": "node",
      "id": 4680353494,
      "lat": 12.9853876,
      "lon": 77.6647856,
      "tags": {
        "amenity": "atm",
        "brand": "City Union Bank",
        "brand:en": "City Union Bank",
        "brand:hi": "सिटी यूनियन बैंक",
        "brand:ta": "சிட்டி யூனியன் வங்கி",
        "brand:wikidata": "Q2040264",
        "name:en": "City Union Bank",
        "name:hi": "सिटी यूनियन बैंक",
        "name:ta": "சிட்டி யூனியன் வங்கி",
        "operator": "City Union Bank",
        "operator:wikidata": "Q2040264",
        "short_name": "CUB"
      }
    },
    {
      "type": "node",
      "id": 4685192097,
      "lat": 12.9854091,
      "lon": 77.6734083,
      "tags": {
        "amenity": "atm",
        "operator": "SBH"
      }
    },
    {
      "type": "node",
      "id": 4685249489,
      "lat": 12.9854258,
      "lon": 77.6733538,
      "tags": {
        "amenity": "bank",
        "brand": "State Bank of India",
        "brand:wikidata": "Q1340361",
        "brand:wikipedia": "en:State Bank of India",
        "name": "State Bank of India",
        "name:kn": "ಭಾರತೀಯ ಸ್ಟೇಟ್ ಬ್ಯಾಂಕ್",
        "short_name": "SBI",
        "website": "https://www.sbi.co.in"
      }
    },
    {
      "type": "node",
      "id": 4686164290,
      "lat": 12.9853409,
      "lon": 77.6678905,
      "tags": {
        "amenity": "atm",
        "brand": "Canara Bank",
        "brand:en": "Canara Bank",
        "brand:hi": "केनरा बैंक",
        "brand:kn": "ಕೆನರಾ ಬ್ಯಾಂಕ್",
        "brand:pa": "ਕੇਨਰਾ ਬੈਂਕ",
        "brand:pnb": "کینرا بینک",
        "brand:ur": "کینرا بینک",
        "brand:wikidata": "Q2003777",
        "operator": "Canara Bank",
        "operator:wikidata": "Q2003777"
      }
    },
    {
      "type": "node",
      "id": 4686175591,
      "lat": 12.9856559,
      "lon": 77.6682476,
      "tags": {
        "amenity": "restaurant",
        "brand": "Pizza Hut",
        "brand:wikidata": "Q191615",
        "cuisine": "pizza",
        "name": "Pizza Hut",
        "name:en": "Pizza Hut",
        "name:kn": "ಪಿಜ್ಜಾ ಹಟ್"
      }
    },
    {
      "type": "node",
      "id": 4686180889,
      "lat": 12.9861036,
      "lon": 77.670047,
      "tags": {
        "amenity": "dentist",
        "name": "Sai Dental",
        "name:en": "Sai Dental"
      }
    },
    {
      "type": "node",
      "id": 4686180890,
      "lat": 12.9858822,
      "lon": 77.6687616,
      "tags": {
        "amenity": "restaurant",
        "name": "Mast calender",
        "name:en": "Mast calender"
      }
    },
    {
      "type": "node",
      "id": 4686183789,
      "lat": 12.9855509,
      "lon": 77.668072,
      "tags": {
        "amenity": "bank",
        "brand": "HDFC Bank",
        "brand:wikidata": "Q631047",
        "name": "HDFC Bank",
        "name:en": "HDFC CV Raman Nagar",
        "short_name": "HDFC"
      }
    },
    {
      "type": "node",
      "id": 4686804190,
      "lat": 12.9853014,
      "lon": 77.6736783,
      "tags": {
        "name": "Hasanamba",
        "name:en": "Hasanamba",
        "shop": "bakery"
      }
    },
    {
      "type": "node",
      "id": 4686864195,
      "lat": 12.9853614,
      "lon": 77.6734987,
      "tags": {
        "amenity": "restaurant",
        "name": "Punjab junction",
        "name:en": "Punjab junction"
      }
    },
    {
      "type": "node",
      "id": 4686864294,
      "lat": 12.9853071,
      "lon": 77.6736189,
      "tags": {
        "name": "Hasan studio",
        "name:en": "Hasan studio",
        "shop": "photo"
      }
    },
    {
      "type": "node",
      "id": 4686864295,
      "lat": 12.9854892,
      "lon": 77.6679809,
      "tags": {
        "amenity": "bank",
        "brand": "ICICI Bank",
        "brand:wikidata": "Q1653258",
        "name": "ICICI Bank",
        "name:en": "ICICI CV Raman nagar",
        "short_name": "ICICI"
      }
    },
    {
      "type": "node",
      "id": 4686864296,
      "lat": 12.9852368,
      "lon": 77.6679566,
      "tags": {
        "amenity": "bank",
        "brand": "Syndicate Bank",
        "brand:wikidata": "Q2004088",
        "name": "Syndicate Bank",
        "name:en": "Syndicate Bank",
        "name:kn": "ಸಿಂಡಿಕೇಟ್ ಬ್ಯಾಂಕ್",
        "website": "https://www.syndicatebank.in",
        "wikimedia_commons": "Category:Syndicate Bank"
      }
    },
    {
      "type": "node",
      "id": 4690537789,
      "lat": 12.9817167,
      "lon": 77.6800412,
      "tags": {
        "addr:district": "Bengaluru Urban",
        "addr:full": "SRR Arcade, C.V. Raman Nagar, Kaggadasapura, Bengaluru",
        "addr:postcode": "560093",
        "addr:state": "Karnataka",
        "amenity": "hospital",
        "name": "Comfort Multispeciality Hospital",
        "name:en": "Comfort multispeciality hospital",
        "source": "Local Knowledge"
      }
    },
    {
      "type": "node",
      "id": 4690543990,
      "lat": 12.9816919,
      "lon": 77.6799027,
      "tags": {
        "amenity": "clinic",
        "name": "Vidyaratnam oeshadhalaya",
        "name:en": "Vidyaratnam oeshadhalaya"
      }
    },
    {
      "type": "node",
      "id": 4690543991,
      "lat": 12.9822287,
      "lon": 77.6802297,
      "tags": {
        "amenity": "fast_food",
        "name": "Northern Flavours Chaat",
        "name:en": "Northern Flavours Chaat"
      }
    },
    {
      "type": "node",
      "id": 4691718001,
      "lat": 12.985675,
      "lon": 77.6720849,
      "tags": {
        "name": "People",
        "name:en": "People",
        "shop": "clothes"
      }
    },
    {
      "type": "node",
      "id": 4788332523,
      "lat": 12.9845566,
      "lon": 77.6757323,
      "tags": {
        "brand": "Peter England",
        "brand:wikidata": "Q19573665",
        "clothes": "men",
        "name": "Peter England",
        "name:en": "Peter England",
        "shop": "clothes"
      }
    },
    {
      "type": "node",
      "id": 4838623026,
      "lat": 12.9816838,
      "lon": 77.6748633,
      "tags": {
        "name": "SLS computers & Hardware",
        "name:en": "SLS computers & Hardware",
        "shop": "computer"
      }
    },
    {
      "type": "node",
      "id": 4915951424,
      "lat": 12.9845206,
      "lon": 77.6760104,
      "tags": {
        "brand": "Lenskart",
        "brand:wikidata": "Q17068753",
        "name": "Lenskart.com",
        "name:en": "Lenskart.com",
        "shop": "optician"
      }
    },
    {
      "type": "node",
      "id": 4915951521,
      "lat": 12.9846134,
      "lon": 77.6760139,
      "tags": {
        "name": "Best Vision Care",
        "name:en": "Best Vision Care",
        "shop": "optician"
      }
    },
    {
      "type": "node",
      "id": 4915951525,
      "lat": 12.984642,
      "lon": 77.6760274,
      "tags": {
        "amenity": "community_centre",
        "name": "Aadhar Enrollment Center",
        "name:en": "Aadhar Enrollment Center"
      }
    },
    {
      "type": "node",
      "id": 6095252355,
      "lat": 12.9793392,
      "lon": 77.6795278,
      "tags": {
        "name": "Land of cake",
        "shop": "bakery",
        "wheelchair": "no"
      }
    },
    {
      "type": "node",
      "id": 6944578931,
      "lat": 12.9840786,
      "lon": 77.6781324,
      "tags": {
        "addr:district": "Bengaluru Urban",
        "addr:full": "# 20, 1st Floor, 17 Th A Cross, Kaggadasapura Main Road C. V. Raman Nagar",
        "addr:postcode": "560093",
        "addr:state": "Karnataka",
        "amenity": "clinic",
        "name": "Shakthikrupa Nursing Home",
        "source": "OpenGovernmentData"
      }
    },
    {
      "type": "node",
      "id": 7572131829,
      "lat": 12.985028,
      "lon": 77.674772,
      "tags": {
        "addr:district": "Bengaluru Urban",
        "addr:full": "Kaggadasapura Main Road, Bengaluru",
        "addr:postcode": "560093",
        "addr:state": "Karnataka",
        "amenity": "clinic",
        "name": "Aashraya ENT Healthcare",
        "source": "Local Knowledge"
      }
    },
    {
      "type": "node",
      "id": 7572131831,
      "lat": 12.9847198,
      "lon": 77.6717957,
      "tags": {
        "addr:district": "Bengaluru Urban",
        "addr:full": "Varsova Layout, Kaggadasapura, Bengaluru",
        "addr:postcode": "560093",
        "addr:state": "Karnataka",
        "amenity": "dentist",
        "name": "I-labs Dental",
        "source": "Local Knowledge"
      }
    },
    {
      "type": "node",
      "id": 7572131847,
      "lat": 12.985023,
      "lon": 77.671603,
      "tags": {
        "addr:district": "Bengaluru Urban",
        "addr:full": "Kaggadasapura Main Road, C.V Raman Nagar, Bengaluru",
        "addr:postcode": "560093",
        "addr:state": "Karnataka",
        "amenity": "dentist",
        "name": "Sparkle Dental Clinic and Healthcare",
        "source": "Local Knowledge"
      }
    },
    {
      "type": "node",
      "id": 7572131852,
      "lat": 12.981425,
      "lon": 77.679958,
      "tags": {
        "addr:district": "Bengaluru Urban",
        "addr:full": "Kaggadasapura Main Road, Kaggadasapura, Bengaluru",
        "addr:postcode": "560093",
        "addr:state": "Karnataka",
        "amenity": "dentist",
        "name": "Sri Vinayaka Dental Concern's",
        "source": "Local Knowledge"
      }
    },
    {
      "type": "node",
      "id": 7572131860,
      "lat": 12.9847338,
      "lon": 77.675016,
      "tags": {
        "addr:district": "Bengaluru Urban",
        "addr:full": "Kaggadasapura Main Road, Bengaluru",
        "addr:postcode": "560093",
        "addr:state": "Karnataka",
        "amenity": "clinic",
        "name": "Tvacha Skin and Cosmetology Clinic",
        "source": "Local Knowledge"
      }
    },
    {
      "type": "node",
      "id": 7572131864,
      "lat": 12.9850931,
      "lon": 77.6748005,
      "tags": {
        "addr:district": "Bengaluru Urban",
        "addr:full": "Varsova Layout, Kaggadasapura, Bengaluru",
        "addr:postcode": "560093",
        "addr:state": "Karnataka",
        "amenity": "clinic",
        "name": "Shishu clinic",
        "source": "Local Knowledge"
      }
    },
    {
      "type": "node",
      "id": 7572131872,
      "lat": 12.9842776,
      "lon": 77.6780225,
      "tags": {
        "addr:district": "Bengaluru Urban",
        "addr:full": "80 Feet Road, HRBR Layout, Kalyan Nagar, Bengaluru",
        "addr:state": "Karnataka",
        "amenity": "doctors",
        "name": "Dr. Ravi Ramachandra",
        "source": "Local Knowledge"
      }
    },
    {
      "type": "node",
      "id": 7572131877,
      "lat": 12.9850241,
      "lon": 77.6754474,
      "tags": {
        "addr:district": "Bengaluru Urban",
        "addr:full": "Kaggadasapura Main Road, Kaggadasapura, Bengaluru",
        "addr:postcode": "560093",
        "addr:state": "Karnataka",
        "amenity": "clinic",
        "name": "Deepam Eye Clinic",
        "source": "Local Knowledge"
      }
    },
    {
      "type": "node",
      "id": 7572131879,
      "lat": 12.982096,
      "lon": 77.680148,
      "tags": {
        "addr:district": "Bengaluru Urban",
        "addr:full": "Kaggadasapura Main Road, Abbaiah Reddy Layout, Kaggadasapura, Bengaluru",
        "addr:postcode": "560037",
        "addr:state": "Karnataka",
        "amenity": "dentist",
        "name": "Perfect Smile Dental Clinic",
        "source": "Local Knowledge"
      }
    },
    {
      "type": "node",
      "id": 7572131889,
      "lat": 12.985164,
      "lon": 77.671732,
      "tags": {
        "addr:district": "Bengaluru Urban",
        "addr:full": "Varsova Layout, Kaggadasapura, Bengaluru",
        "addr:postcode": "560093",
        "addr:state": "Karnataka",
        "amenity": "clinic",
        "name": "Sri Vinayaka Homeopathic Clinic",
        "source": "Local Knowledge"
      }
    },
    {
      "type": "node",
      "id": 7572131906,
      "lat": 12.9820666,
      "lon": 77.680139,
      "tags": {
        "addr:district": "Bengaluru Urban",
        "addr:full": "Kaggadasapura Main Road, C V Raman Nagar, Bengaluru",
        "addr:postcode": "560093",
        "addr:state": "Karnataka",
        "amenity": "clinic",
        "name": "Sparkle Tooth Care Centre",
        "source": "Local Knowledge"
      }
    },
    {
      "type": "node",
      "id": 7572131918,
      "lat": 12.9841083,
      "lon": 77.6744171,
      "tags": {
        "addr:district": "Bengaluru Urban",
        "addr:full": "C V Raman Nagar, Bengaluru",
        "addr:postcode": "560093",
        "addr:state": "Karnataka",
        "amenity": "clinic",
        "name": "Winter Mist Clinic",
        "source": "Local Knowledge"
      }
    },
    {
      "type": "node",
      "id": 7572131930,
      "lat": 12.9851886,
      "lon": 77.676051,
      "tags": {
        "addr:district": "Bengaluru Urban",
        "addr:full": "Kagadasapura Main Road, C V Raman Nagar, Bengaluru",
        "addr:postcode": "560093",
        "addr:state": "Karnataka",
        "amenity": "clinic",
        "name": "Spectrum Physio Centre",
        "source": "Local Knowledge"
      }
    },
    {
      "type": "node",
      "id": 7572131936,
      "lat": 12.9851914,
      "lon": 77.6762954,
      "tags": {
        "addr:district": "Bengaluru Urban",
        "addr:full": "C V Raman Nagar, Kaggadasapura, Bengaluru",
        "addr:postcode": "560093",
        "addr:state": "Karnataka",
        "amenity": "doctors",
        "name": "Dr. Ruchi Gupta",
        "source": "Local Knowledge"
      }
    },
    {
      "type": "node",
      "id": 11149339761,
      "lat": 12.9789613,
      "lon": 77.6754519,
      "tags": {
        "amenity": "restaurant",
        "cuisine": "south_indian;dosa;idly;regional",
        "diet:vegetarian": "yes",
        "name": "Kannan Cafe",
        "wheelchair": "no"
      }
    },
    {
      "type": "node",
      "id": 11281361367,
      "lat": 12.9851158,
      "lon": 77.6675168,
      "tags": {
        "amenity": "fast_food",
        "name": "Vaishanavi Vaibhava"
      }
    },
    {
      "type": "node",
      "id": 11908994205,
      "lat": 12.9843724,
      "lon": 77.6654448,
      "tags": {
        "check_date": "2024-05-17",
        "name": "Solanki Medicals",
        "shop": "chemist"
      }
    },
    {
      "type": "node",
      "id": 11908994206,
      "lat": 12.9844253,
      "lon": 77.6654609,
      "tags": {
        "check_date": "2024-05-17",
        "name": "Kahinoor Rice Traders",
        "shop": "wholesale_grain_trader"
      }
    },
    {
      "type": "node",
      "id": 11908994207,
      "lat": 12.9843282,
      "lon": 77.6654378,
      "tags": {
        "amenity": "dentist",
        "check_date": "2024-05-17",
        "healthcare": "dentist",
        "name": "Chitra Dental Care"
      }
    },
    {
      "type": "node",
      "id": 12014458196,
      "lat": 12.9810194,
      "lon": 77.679839,
      "tags": {
        "addr:district": "Bengaluru Urban",
        "addr:street": "Kaggadasapura Main Road",
        "name": "Mataji General Store",
        "shop": "general"
      }
    },
    {
      "type": "node",
      "id": 12014473674,
      "lat": 12.9812196,
      "lon": 77.6800194,
      "tags": {
        "addr:district": "Bengaluru Urban",
        "addr:street": "Kaggadasapura Main Road",
        "amenity": "pharmacy",
        "name": "Mataji Medical Store"
      }
    },
    {
      "type": "node",
      "id": 12541241515,
      "lat": 12.9789825,
      "lon": 77.6757301,
      "tags": {
        "addr:city": "Bengaluru",
        "addr:postcode": "560093",
        "addr:street": "Kaggadasapura, 6th Cross post, Balaji Layout, C V Raman Nagar",
        "name": "Top In Town",
        "shop": "supermarket"
      }
    },
    {
      "type": "node",
      "id": 13173750204,
      "lat": 12.9860538,
      "lon": 77.6704131,
      "tags": {
        "amenity": "bar"
      }
    },
    {
      "type": "way",
      "id": 314210261,
      "center": {
        "lat": 12.9790506,
        "lon": 77.6739877
      },
      "tags": {
        "amenity": "school",
        "education": "school",
        "name": "NCFE School"
      }
    },
    {
      "type": "way",
      "id": 415125446,
      "center": {
        "lat": 12.9774258,
        "lon": 77.6713351
      },
      "tags": {
        "amenity": "school",
        "name": "Global City International School"
      }
    },
    {
      "type": "way",
      "id": 770675799,
      "center": {
        "lat": 12.9793867,
        "lon": 77.6770862
      },
      "tags": {
        "leisure": "pitch",
        "name": "Acti Sports Arena",
        "sport": "badminton"
      }
    },
    {
      "type": "way",
      "id": 1053086135,
      "center": {
        "lat": 12.9850948,
        "lon": 77.6654174
      },
      "tags": {
        "leisure": "park"
      }
    },
    {
      "type": "way",
      "id": 1252257170,
      "center": {
        "lat": 12.977855,
        "lon": 77.6712792
      },
      "tags": {
        "leisure": "pitch",
        "sport": "basketball"
      }
    },
    {
      "type": "way",
      "id": 1252262802,
      "center": {
        "lat": 12.9804358,
        "lon": 77.6763889
      },
      "tags": {
        "leisure": "pitch",
        "sport": "tennis",
        "wheelchair": "limited"
      }
    },
    {
      "type": "way",
      "id": 1252262807,
      "center": {
        "lat": 12.9814109,
        "lon": 77.6743372
      },
      "tags": {
        "leisure": "pitch",
        "sport": "tennis"
      }
    },
    {
      "type": "way",
      "id": 1363975877,
      "center": {
        "lat": 12.982326,
        "lon": 77.6729649
      },
      "tags": {
        "access": "private",
        "leisure": "swimming_pool"
      }
    },
    {
      "type": "way",
      "id": 1363975879,
      "center": {
        "lat": 12.9803321,
        "lon": 77.6714056
      },
      "tags": {
        "leisure": "park",
        "name": "Atal Bihari Vajpayee Park"
      }
    },
    {
      "type": "way",
      "id": 1363975921,
      "center": {
        "lat": 12.9848026,
        "lon": 77.6653924
      },
      "tags": {
        "addr:street": "Kaggadasspura Main Road",
        "amenity": "place_of_worship",
        "landuse": "religious",
        "name": "Bhuvaneshwari/Shiva Temple",
        "religion": "hindu"
      }
    },
    {
      "type": "way",
      "id": 1444260395,
      "center": {
        "lat": 12.9794635,
        "lon": 77.6775507
      },
      "tags": {
        "amenity": "school"
      }
    },
    {
      "type": "way",
      "id": 1445950447,
      "center": {
        "lat": 12.9825771,
        "lon": 77.6771255
      },
      "tags": {
        "addr:city": "Bengalore",
        "addr:postcode": "560093",
        "addr:street": "19th Cross, Kaggadasapura",
        "amenity": "school",
        "building:levels": "2",
        "landuse": "education",
        "name": "Government Primary School",
        "name:kn": "ಸರ್ಕಾರಿ ಪ್ರಾಥಮಿಕ ಶಾಲೆ",
        "operator": "BBMP"
      }
    },
    {
      "type": "way",
      "id": 1445950450,
      "center": {
        "lat": 12.9827645,
        "lon": 77.6771541
      },
      "tags": {
        "amenity": "place_of_worship",
        "landuse": "religious",
        "name": "Om Sakthi Temple",
        "name:kn": "ಓಂ ಶಕ್ತಿ ದೇವಸ್ಥಾನ",
        "religion": "hindu",
        "wheelchair": "no"
      }
    },
    {
      "type": "way",
      "id": 1445950468,
      "center": {
        "lat": 12.9826642,
        "lon": 77.6783382
      },
      "tags": {
        "amenity": "place_of_worship",
        "landuse": "religious",
        "religion": "hindu"
      }
    },
    {
      "type": "way",
      "id": 1445950679,
      "center": {
        "lat": 12.9816626,
        "lon": 77.678271
      },
      "tags": {
        "amenity": "place_of_worship",
        "building": "yes",
        "religion": "hindu"
      }
    },
    {
      "type": "way",
      "id": 1445950806,
      "center": {
        "lat": 12.9841107,
        "lon": 77.677254
      },
      "tags": {
        "addr:street": "Kaggadasspura Main Road",
        "amenity": "school",
        "name": "Saraswati Vidya Mandir",
        "name:kn": "ಸರಸ್ವತಿ ವಿದ್ಯ ಮಂದಿರ"
      }
    },
    {
      "type": "way",
      "id": 1446434696,
      "center": {
        "lat": 12.9825795,
        "lon": 77.6724319
      },
      "tags": {
        "amenity": "place_of_worship",
        "building": "yes",
        "name": "Ganesha Temple",
        "name:kn": "ಗಣೇಶ ದೇವಸ್ಥಾನ",
        "religion": "hindu"
      }
    },
    {
      "type": "way",
      "id": 1446434701,
      "center": {
        "lat": 12.9858463,
        "lon": 77.6725
      },
      "tags": {
        "leisure": "sports_centre",
        "name": "Namma United Box Cricket and Football Academy"
      }
    },
    {
      "type": "way",
      "id": 1447096789,
      "center": {
        "lat": 12.9816997,
        "lon": 77.6671956
      },
      "tags": {
        "addr:city": "Bangalore",
        "addr:housenumber": "Lake Road",
        "addr:postcode": "560093",
        "addr:street": "Byrasandra, C V Raman Nagar",
        "amenity": "place_of_worship",
        "landuse": "religious",
        "name": "Chowdheshwari Temple",
        "name:kn": "ಚೌಡೇಶ್ವರಿ ದೇವಸ್ಥಾನ",
        "religion": "hindu"
      }
    },
    {
      "type": "way",
      "id": 1447172802,
      "center": {
        "lat": 12.9794379,
        "lon": 77.6742159
      },
      "tags": {
        "leisure": "pitch",
        "sport": "basketball"
      }
    }
  ]
}