{
  "area_name": "Kaithota",
  "osm_id": 1633870850,
  "osm_type": "node",
  "place_type": "neighbourhood",
  "amenity_count": 17,
  "amenities": [
    {
      "type": "node",
      "id": 4253229493,
      "lat": 12.9694336,
      "lon": 77.7657145,
      "tags": {
        "addr:street": "Immadihalli Road",
        "amenity": "restaurant",
        "name": "Sree Srinivasa Bhavan",
        "name:en": "Nandi Upachar"
      }
    },
    {
      "type": "node",
      "id": 5281842524,
      "lat": 12.9669112,
      "lon": 77.7609314,
      "tags": {
        "amenity": "bank",
        "atm": "yes",
        "brand": "Axis Bank",
        "brand:wikidata": "Q2003549",
        "name": "Axis Bank",
        "name:kn": "ಆಕ್ಸಿಸ್ ಬ್ಯಾಂಕ್"
      }
    },
    {
      "type": "node",
      "id": 9838632427,
      "lat": 12.9710733,
      "lon": 77.7676367,
      "tags": {
        "name": "Cake Forum",
        "shop": "pastry"
      }
    },
    {
      "type": "node",
      "id": 11649830569,
      "lat": 12.9677665,
      "lon": 77.7571704,
      "tags": {
        "name": "Sportfit",
        "shop": "sports"
      }
    },
    {
      "type": "way",
      "id": 251666165,
      "center": {
        "lat": 12.9640388,
        "lon": 77.758752
      },
      "tags": {
        "amenity": "school",
        "name": "Government School",
        "name:kn": "ಸರ್ಕಾರಿ ಶಾಲೆ"
      }
    },
    {
      "type": "way",
      "id": 1072283096,
      "center": {
        "lat": 12.9709019,
        "lon": 77.7673918
      },
      "tags": {
        "amenity": "fuel",
        "brand": "Hindustan Petroleum",
        "brand:wikidata": "Q1619375",
        "name": "HP",
        "name:kn": "ಹಿಂದುಸ್ತಾನ್ ಪೆಟ್ರೋಲಿಯಂ",
        "official_name": "Hindustan Petroleum"
      }
    },
    {
      "type": "way",
      "id": 1320225547,
      "center": {
        "lat": 12.9752825,
        "lon": 77.7680684
      },
      "tags": {
        "leisure": "sports_centre"
      }
    },
    {
      "type": "way",
      "id": 1338326422,
      "center": {
        "lat": 12.969972,
        "lon": 77.7721834
      },
      "tags": {
        "access": "private",
        "leisure": "swimming_pool"
      }
    },
    {
      "type": "way",
      "id": 1338326423,
      "center": {
        "lat": 12.9689371,
        "lon": 77.7713104
      },
      "tags": {
        "access": "private",
        "leisure": "swimming_pool"
      }
    },
    {
      "type": "way",
      "id": 1338326424,
      "center": {
        "lat": 12.9673655,
        "lon": 77.7698534
      },
      "tags": {
        "access": "private",
        "leisure": "swimming_pool"
      }
    },
    {
      "type": "way",
      "id": 1338326425,
      "center": {
        "lat": 12.975748,
        "lon": 77.7649599
      },
      "tags": {
        "access": "private",
        "leisure": "swimming_pool"
      }
    },
    {
      "type": "way",
      "id": 1338326426,
      "center": {
        "lat": 12.9728416,
        "lon": 77.7671833
      },
      "tags": {
        "access": "private",
        "leisure": "swimming_pool"
      }
    },
    {
      "type": "way",
      "id": 1338326427,
      "center": {
        "lat": 12.9700866,
        "lon": 77.7685781
      },
      "tags": {
        "access": "private",
        "leisure": "swimming_pool"
      }
    },
    {
      "type": "way",
      "id": 1338326428,
      "center": {
        "lat": 12.9717122,
        "lon": 77.7695023
      },
      "tags": {
        "access": "private",
        "leisure": "swimming_pool"
      }
    },
    {
      "type": "way",
      "id": 1360924193,
      "center": {
        "lat": 12.9656541,
        "lon": 77.7600324
      },
      "tags": {
        "amenity": "school"
      }
    },
    {
      "type": "way",
      "id": 1360924198,
      "center": {
        "lat": 12.9660623,
        "lon": 77.7635034
      },
      "tags": {
        "amenity": "conference_centre",
        "building": "yes"
      }
    },
    {
      "type": "way",
      "id": 1360924207,
      "center": {
        "lat": 12.9700887,
        "lon": 77.7670736
      },
      "tags": {
        "leisure": "pitch",
        "sport": "badminton"
      }
    }
  ]
}