{
  "area_name": "Kalathammanahalli",
  "osm_id": 11808848195,
  "osm_type": "node",
  "place_type": "neighbourhood",
  "amenity_count": 10,
  "amenities": [
    {
      "type": "node",
      "id": 12951405508,
      "lat": 13.1038855,
      "lon": 77.5164413,
      "tags": {
        "amenity": "place_of_worship",
        "religion": "hindu"
      }
    },
    {
      "type": "way",
      "id": 1308088702,
      "center": {
        "lat": 13.1070127,
        "lon": 77.5141591
      },
      "tags": {
        "amenity": "college",
        "name": "Lakshya Career Academy PU College"
      }
    },
    {
      "type": "way",
      "id": 1409396163,
      "center": {
        "lat": 13.1019105,
        "lon": 77.5213926
      },
      "tags": {
        "amenity": "place_of_worship",
        "building": "yes",
        "religion": "hindu"
      }
    },
    {
      "type": "way",
      "id": 1409400940,
      "center": {
        "lat": 13.1103853,
        "lon": 77.5151177
      },
      "tags": {
        "amenity": "place_of_worship",
        "landuse": "religious",
        "religion": "hindu"
      }
    },
    {
      "type": "way",
      "id": 1409400944,
      "center": {
        "lat": 13.1088481,
        "lon": 77.5160647
      },
      "tags": {
        "amenity": "social_facility",
        "building": "yes",
        "name": "Elizabeth Mane Aksahaparavakal",
        "social_facility": "assisted_living"
      }
    },
    {
      "type": "way",
      "id": 1409400946,
      "center": {
        "lat": 13.1089999,
        "lon": 77.5157689
      },
      "tags": {
        "amenity": "place_of_worship",
        "landuse": "religious",
        "name": "St. Mary's Church, Bylakere",
        "religion": "christian"
      }
    },
    {
      "type": "way",
      "id": 1409426374,
      "center": {
        "lat": 13.1093533,
        "lon": 77.522564
      },
      "tags": {
        "amenity": "school",
        "name": "Jnana Ganga Public School"
      }
    },
    {
      "type": "way",
      "id": 1409479646,
      "center": {
        "lat": 13.1057951,
        "lon": 77.5179789
      },
      "tags": {
        "amenity": "school"
      }
    },
    {
      "type": "way",
      "id": 1419417161,
      "center": {
        "lat": 13.1057422,
        "lon": 77.5248883
      },
      "tags": {
        "leisure": "park"
      }
    },
    {
      "type": "way",
      "id": 1419417163,
      "center": {
        "lat": 13.1058958,
        "lon": 77.5154778
      },
      "tags": {
        "amenity": "place_of_worship",
        "landuse": "religious",
        "religion": "hindu"
      }
    }
  ]
}