{
  "area_name": "Kalyan Nagar",
  "osm_id": 567772575,
  "osm_type": "node",
  "place_type": "suburb",
  "amenity_count": 422,
  "amenities": [
    {
      "type": "node",
      "id": 443616778,
      "lat": 13.0248848,
      "lon": 77.6458889,
      "tags": {
        "amenity": "place_of_worship",
        "name": "Peniel Presbyterian Church",
        "religion": "christian",
        "wheelchair": "limited"
      }
    },
    {
      "type": "node",
      "id": 443636563,
      "lat": 13.0254302,
      "lon": 77.6417703,
      "tags": {
        "amenity": "atm",
        "brand": "State Bank of India",
        "brand:wikidata": "Q1340361",
        "name": "State Bank of India",
        "operator": "State Bank of India",
        "operator:wikidata": "Q1340361",
        "short_name": "SBI"
      }
    },
    {
      "type": "node",
      "id": 443636917,
      "lat": 13.0250166,
      "lon": 77.6435019,
      "tags": {
        "amenity": "kindergarten",
        "name": "Vinus Play Home and Day Care",
        "wheelchair": "limited"
      }
    },
    {
      "type": "node",
      "id": 443646019,
      "lat": 13.0259923,
      "lon": 77.6405519,
      "tags": {
        "addr:city": "Kalyan Nagar, Bangalore",
        "addr:housename": "Sri Shankar Reddy Building",
        "addr:housenumber": "122/4",
        "addr:postcode": "560043",
        "addr:street": "Outer Ring Road",
        "amenity": "restaurant",
        "name": "Ginger Greens",
        "name:kn": "ಜಿಂಜರ್ ಗ್ರೀನ್ಸ್",
        "opening_hours": "Mo-Su 11:00-23:00",
        "phone": "+91-80-25434744"
      }
    },
    {
      "type": "node",
      "id": 454089104,
      "lat": 13.0237239,
      "lon": 77.6364982,
      "tags": {
        "name": "Ruksana's Beauty Salon",
        "shop": "beauty"
      }
    },
    {
      "type": "node",
      "id": 454089105,
      "lat": 13.0232081,
      "lon": 77.6362938,
      "tags": {
        "amenity": "cafe",
        "brand": "Cafe Coffee Day",
        "brand:wikidata": "Q5017235",
        "cuisine": "coffee_shop",
        "name": "Cafe Coffee Day",
        "name:kn": "ಕಫೆ ಕಾಫಿ ಡೇ",
        "takeaway": "yes"
      }
    },
    {
      "type": "node",
      "id": 454089106,
      "lat": 13.0233653,
      "lon": 77.636232,
      "tags": {
        "amenity": "kindergarten",
        "name": "Orkids"
      }
    },
    {
      "type": "node",
      "id": 454089602,
      "lat": 13.0238997,
      "lon": 77.6349809,
      "tags": {
        "amenity": "kindergarten",
        "name": "Little Elly",
        "url": "http://www.littleelly.com/"
      }
    },
    {
      "type": "node",
      "id": 454089863,
      "lat": 13.0242154,
      "lon": 77.6356384,
      "tags": {
        "amenity": "kindergarten",
        "name": "Smiley Kids"
      }
    },
    {
      "type": "node",
      "id": 454090309,
      "lat": 13.0268228,
      "lon": 77.6329007,
      "tags": {
        "amenity": "college",
        "name": "Florida College of Management and Computer Science"
      }
    },
    {
      "type": "node",
      "id": 454090311,
      "lat": 13.0269256,
      "lon": 77.6329391,
      "tags": {
        "amenity": "college",
        "name": "Florida College of Education"
      }
    },
    {
      "type": "node",
      "id": 454090312,
      "lat": 13.0271338,
      "lon": 77.6330115,
      "tags": {
        "amenity": "college",
        "name": "Florence College of Physiotherapy"
      }
    },
    {
      "type": "node",
      "id": 454091339,
      "lat": 13.0261391,
      "lon": 77.6362268,
      "tags": {
        "amenity": "restaurant",
        "brand": "Pizza Hut",
        "brand:wikidata": "Q191615",
        "brand:wikipedia": "en:Pizza Hut",
        "cuisine": "pizza",
        "name": "Pizza Hut",
        "name:kn": "ಪಿಜ್ಜಾ ಹಟ್"
      }
    },
    {
      "type": "node",
      "id": 454091808,
      "lat": 13.0245569,
      "lon": 77.6369992,
      "tags": {
        "name": "Foodworld Supermarket",
        "shop": "supermarket"
      }
    },
    {
      "type": "node",
      "id": 454091809,
      "lat": 13.0247406,
      "lon": 77.6369933,
      "tags": {
        "amenity": "bank",
        "atm": "no",
        "brand": "ICICI Bank",
        "brand:wikidata": "Q1653258",
        "name": "ICICI Bank",
        "name:en": "ICICI Bank",
        "name:kn": "ಐಸಿಐಸಿಐ ಬ್ಯಾಂಕು",
        "short_name": "ICICI",
        "website": "https://www.icicibank.com"
      }
    },
    {
      "type": "node",
      "id": 454091810,
      "lat": 13.0248088,
      "lon": 77.6369908,
      "tags": {
        "name": "Style Spa",
        "shop": "furniture"
      }
    },
    {
      "type": "node",
      "id": 454135246,
      "lat": 13.0217371,
      "lon": 77.6370282,
      "tags": {
        "amenity": "atm",
        "brand": "Syndicate Bank",
        "brand:wikidata": "Q2004088",
        "name": "Syndicate Bank",
        "operator": "Syndicate Bank",
        "operator:wikidata": "Q2004088"
      }
    },
    {
      "type": "node",
      "id": 454141779,
      "lat": 13.0197391,
      "lon": 77.6368364,
      "tags": {
        "name": "Sabari Vegetables and Fruits",
        "shop": "greengrocer"
      }
    },
    {
      "type": "node",
      "id": 454141780,
      "lat": 13.019526,
      "lon": 77.6367557,
      "tags": {
        "name": "Sansar Collections",
        "shop": "clothes"
      }
    },
    {
      "type": "node",
      "id": 454141789,
      "lat": 13.0192548,
      "lon": 77.6366323,
      "tags": {
        "amenity": "dentist",
        "name": "Dental and Orthodontic Clinic"
      }
    },
    {
      "type": "node",
      "id": 454142398,
      "lat": 13.0185503,
      "lon": 77.6364728,
      "tags": {
        "amenity": "hospital",
        "name": "Sathya Hospital",
        "name:kn": "ಸತ್ಯ ಆಸ್ಪತ್ರೆ"
      }
    },
    {
      "type": "node",
      "id": 454142399,
      "lat": 13.0183245,
      "lon": 77.6364269,
      "tags": {
        "amenity": "pharmacy",
        "dispensing": "yes",
        "name": "Sathya Medicals"
      }
    },
    {
      "type": "node",
      "id": 454143804,
      "lat": 13.0196337,
      "lon": 77.6342441,
      "tags": {
        "amenity": "kindergarten",
        "name": "Small World"
      }
    },
    {
      "type": "node",
      "id": 454148293,
      "lat": 13.0203163,
      "lon": 77.6325425,
      "tags": {
        "amenity": "place_of_worship",
        "name": "India Evangelical Church",
        "religion": "christian"
      }
    },
    {
      "type": "node",
      "id": 454148315,
      "lat": 13.0194682,
      "lon": 77.6332105,
      "tags": {
        "amenity": "cafe",
        "internet_access": "terminal",
        "name": "Thambis's Inetcafé"
      }
    },
    {
      "type": "node",
      "id": 454160725,
      "lat": 13.0227216,
      "lon": 77.633722,
      "tags": {
        "name": "Sip n Bite",
        "shop": "grocery"
      }
    },
    {
      "type": "node",
      "id": 454160729,
      "lat": 13.017623,
      "lon": 77.6341168,
      "tags": {
        "amenity": "kindergarten",
        "name": "Orchid Academy"
      }
    },
    {
      "type": "node",
      "id": 454163741,
      "lat": 13.028839,
      "lon": 77.6349071,
      "tags": {
        "amenity": "cafe",
        "name": "Cafe Moksh"
      }
    },
    {
      "type": "node",
      "id": 454163744,
      "lat": 13.0288296,
      "lon": 77.6349444,
      "tags": {
        "name": "Jn Style",
        "shop": "beauty"
      }
    },
    {
      "type": "node",
      "id": 762086731,
      "lat": 13.0210003,
      "lon": 77.6401088,
      "tags": {
        "amenity": "place_of_worship",
        "denomination": "brethren",
        "name": "Bethel Brethren Assembly",
        "religion": "christian"
      }
    },
    {
      "type": "node",
      "id": 762088825,
      "lat": 13.0198322,
      "lon": 77.6409454,
      "tags": {
        "leisure": "fitness_centre",
        "name": "Body & Soul Gym"
      }
    },
    {
      "type": "node",
      "id": 905784975,
      "lat": 13.0228247,
      "lon": 77.6477855,
      "tags": {
        "amenity": "restaurant",
        "name": "Little Imperial",
        "name:kn": "ಲಿಟಲ್ ಇಂಪಿರಿಯಲ್"
      }
    },
    {
      "type": "node",
      "id": 1283697980,
      "lat": 13.0215955,
      "lon": 77.6393557,
      "tags": {
        "addr:street": "5th Main",
        "amenity": "fast_food",
        "brand": "Domino's",
        "brand:ks": "ڈومینوز",
        "brand:pa": "ਡੋਮੀਨੋਜ਼",
        "brand:ur": "ڈومینوز",
        "brand:wikidata": "Q839466",
        "brand:wikipedia": "en:Domino's Pizza",
        "cuisine": "pizza",
        "name": "Domino's",
        "name:kn": "ಡಾಮಿನೋಸ್",
        "name:ks": "ڈومینوز",
        "name:pa": "ਡੋਮੀਨੋਜ਼",
        "name:ur": "ڈومینوز",
        "takeaway": "yes"
      }
    },
    {
      "type": "node",
      "id": 1283697988,
      "lat": 13.0226434,
      "lon": 77.6481609,
      "tags": {
        "amenity": "pharmacy",
        "dispensing": "yes",
        "name": "Trust Pharma"
      }
    },
    {
      "type": "node",
      "id": 1711479622,
      "lat": 13.0238756,
      "lon": 77.6373573,
      "tags": {
        "amenity": "bank",
        "atm": "yes",
        "brand": "HDFC Bank",
        "brand:wikidata": "Q631047",
        "brand:wikipedia": "en:HDFC Bank",
        "name": "HDFC Bank",
        "short_name": "HDFC",
        "website": "https://www.hdfcbank.com"
      }
    },
    {
      "type": "node",
      "id": 1711482236,
      "lat": 13.0231175,
      "lon": 77.637041,
      "tags": {
        "alt_name": "Kentucky Fried Chicken",
        "alt_name:en": "Kentucky Fried Chicken",
        "alt_name:hi": "केंटुकी फ्राइड चिकन",
        "alt_name:pa": "ਕੈਂਟੁਕੀ ਫ੍ਰਾਈਡ ਚਿਕਨ",
        "alt_name:pnb": "کینٹکی فرائیڈ چکن",
        "alt_name:ur": "کینٹکی فرائیڈ چکن",
        "amenity": "fast_food",
        "brand": "KFC",
        "brand:en": "KFC",
        "brand:hi": "केएफसी",
        "brand:pa": "ਕੇਐਫਸੀ",
        "brand:pnb": "کے ایف سی",
        "brand:ur": "کے ایف سی",
        "brand:wikidata": "Q524757",
        "brand:wikipedia": "en:KFC",
        "brand:wikipedia:pa": "ਕੇਐਫਸੀ",
        "brand:wikipedia:ur": "کینٹکی فرائیڈ چکن",
        "cuisine": "chicken",
        "name": "KFC",
        "name:en": "KFC",
        "name:hi": "केएफसी",
        "name:kn": "ಕೆಎಫ್‌ಸಿ",
        "name:pa": "ਕੇਐਫਸੀ",
        "name:pnb": "کے ایف سی",
        "name:ur": "کے ایف سی",
        "takeaway": "yes"
      }
    },
    {
      "type": "node",
      "id": 1742635196,
      "lat": 13.0149612,
      "lon": 77.6438861,
      "tags": {
        "amenity": "fast_food",
        "cuisine": "coffee_shop",
        "name": "Cuppa"
      }
    },
    {
      "type": "node",
      "id": 1742635612,
      "lat": 13.0150344,
      "lon": 77.6437466,
      "tags": {
        "name": "Pacer Yamaha showroom",
        "shop": "motorcycle"
      }
    },
    {
      "type": "node",
      "id": 1742637590,
      "lat": 13.0155149,
      "lon": 77.6430312,
      "tags": {
        "amenity": "place_of_worship",
        "check_date": "2024-07-10",
        "name": "Om Shakthi Temple",
        "name:kn": "ಓಂ ಶಕ್ತಿ ದೇವಸ್ಥಾನ",
        "religion": "hindu"
      }
    },
    {
      "type": "node",
      "id": 1742639143,
      "lat": 13.0159282,
      "lon": 77.6430921,
      "tags": {
        "name": "City Honda",
        "shop": "motorcycle"
      }
    },
    {
      "type": "node",
      "id": 1742640276,
      "lat": 13.0151076,
      "lon": 77.645262,
      "tags": {
        "amenity": "bank",
        "atm": "yes",
        "name": "Vijaya Bank",
        "name:kn": "ವಿಜಯ ಬ್ಯಾಂಕು"
      }
    },
    {
      "type": "node",
      "id": 1742643868,
      "lat": 13.018092,
      "lon": 77.6474963,
      "tags": {
        "amenity": "cafe",
        "brand": "Cafe Coffee Day",
        "brand:wikidata": "Q5017235",
        "cuisine": "coffee_shop",
        "name": "Cafe Coffee Day",
        "name:kn": "ಕಫೆ ಕಾಫಿ ಡೇ",
        "takeaway": "yes"
      }
    },
    {
      "type": "node",
      "id": 1742644867,
      "lat": 13.0183141,
      "lon": 77.647035,
      "tags": {
        "amenity": "atm",
        "check_date": "2024-08-17",
        "operator": "IOB"
      }
    },
    {
      "type": "node",
      "id": 1742647037,
      "lat": 13.0183846,
      "lon": 77.647491,
      "tags": {
        "name": "Home Needs",
        "shop": "convenience"
      }
    },
    {
      "type": "node",
      "id": 1742654255,
      "lat": 13.0163724,
      "lon": 77.6428346,
      "tags": {
        "amenity": "bank",
        "atm": "yes",
        "brand": "State Bank of India",
        "brand:wikidata": "Q1340361",
        "brand:wikipedia": "en:State Bank of India",
        "name": "State Bank of India",
        "name:kn": "ಮೈಸೂರು ಬ್ಯಾಂಕ್‌",
        "short_name": "SBI",
        "website": "https://www.sbi.co.in"
      }
    },
    {
      "type": "node",
      "id": 1742657374,
      "lat": 13.0180867,
      "lon": 77.6459406,
      "tags": {
        "amenity": "post_office",
        "name": "Post Office",
        "name:kn": "ಅಂಚೆ ಕಛೇರಿ"
      }
    },
    {
      "type": "node",
      "id": 1742670069,
      "lat": 13.0143184,
      "lon": 77.6423518,
      "tags": {
        "amenity": "school",
        "check_date": "2024-07-06",
        "name": "Patel Public School"
      }
    },
    {
      "type": "node",
      "id": 1742670267,
      "lat": 13.0140832,
      "lon": 77.6423465,
      "tags": {
        "name": "Bake Fields",
        "shop": "bakery"
      }
    },
    {
      "type": "node",
      "id": 1742671873,
      "lat": 13.0256651,
      "lon": 77.6369016,
      "tags": {
        "amenity": "fast_food",
        "brand": "McDonald's",
        "brand:pa": "ਮੈਕਡੋਨਲਡ’ਜ਼",
        "brand:ur": "مکڈونلڈز",
        "brand:wikidata": "Q38076",
        "brand:wikipedia": "en:McDonald's",
        "brand:wikipedia:pa": "ਮੈਕਡੋਨਲਡ’ਜ਼",
        "brand:wikipedia:ur": "مکڈونلڈز",
        "cuisine": "burger",
        "name": "McDonald's",
        "name:kn": "ಮ್ಯಾಕ್‌ಡೊನಾಲ್ಡ್ಸ್",
        "name:pa": "ਮੈਕਡੋਨਲਡ’ਜ਼",
        "name:ur": "مکڈونلڈز",
        "takeaway": "yes"
      }
    },
    {
      "type": "node",
      "id": 1743937742,
      "lat": 13.0144106,
      "lon": 77.6427176,
      "tags": {
        "amenity": "restaurant",
        "cuisine": "indian",
        "name": "Adigas Annapoorna",
        "name:kn": "ಅಡಿಗಾಸ್ ಅನ್ನಪೂರ್ಣ"
      }
    },
    {
      "type": "node",
      "id": 1808847105,
      "lat": 13.0221658,
      "lon": 77.6401765,
      "tags": {
        "alt_name": "Lenovo Store",
        "name": "Syscom",
        "shop": "hifi"
      }
    },
    {
      "type": "node",
      "id": 1808847109,
      "lat": 13.0228142,
      "lon": 77.6373977,
      "tags": {
        "amenity": "pharmacy"
      }
    },
    {
      "type": "node",
      "id": 1808847124,
      "lat": 13.0219361,
      "lon": 77.6392168,
      "tags": {
        "amenity": "cafe",
        "brand": "Barista",
        "brand:wikidata": "Q644735",
        "cuisine": "coffee_shop",
        "name": "Barista",
        "name:kn": "ಬರಿಸ್ಟಾ",
        "takeaway": "yes"
      }
    },
    {
      "type": "node",
      "id": 1808847127,
      "lat": 13.0219568,
      "lon": 77.6398654,
      "tags": {
        "amenity": "ice_cream",
        "brand": "Baskin-Robbins",
        "brand:wikidata": "Q584601",
        "cuisine": "ice_cream",
        "name": "Baskin-Robbins",
        "name:kn": "ಬಸ್ಕಿನ್ ರಾಬಿನ್ಸ್"
      }
    },
    {
      "type": "node",
      "id": 1896502028,
      "lat": 13.0259123,
      "lon": 77.6368545,
      "tags": {
        "brand": "Tanishq",
        "brand:en": "Tanishq",
        "brand:wikidata": "Q13117711",
        "name": "Tanishq",
        "name:en": "Tanishq",
        "shop": "jewelry"
      }
    },
    {
      "type": "node",
      "id": 2013325720,
      "lat": 13.0239856,
      "lon": 77.6431902,
      "tags": {
        "brand": "Gold's Gym",
        "brand:wikidata": "Q1536234",
        "leisure": "fitness_centre",
        "name": "Gold's Gym"
      }
    },
    {
      "type": "node",
      "id": 2211056425,
      "lat": 13.0145004,
      "lon": 77.635717,
      "tags": {
        "amenity": "restaurant",
        "cuisine": "indian",
        "name": "Empire Restaurant"
      }
    },
    {
      "type": "node",
      "id": 2211056431,
      "lat": 13.0144977,
      "lon": 77.6357519,
      "tags": {
        "name": "Bakey and Joy",
        "shop": "bakery"
      }
    },
    {
      "type": "node",
      "id": 2470763135,
      "lat": 13.0178488,
      "lon": 77.6364588,
      "tags": {
        "amenity": "fast_food",
        "local_ref": "KAMAANAHALLI",
        "name": "Kammanahalli",
        "name:en": "Kammanahalli",
        "name:kn": "ಕಮ್ಮನಹಳ್ಳಿ",
        "network": "BMTC",
        "operator": "BMTC"
      }
    },
    {
      "type": "node",
      "id": 2475354324,
      "lat": 13.0155815,
      "lon": 77.6426558,
      "tags": {
        "addr:city": "Kalyan Nagar, Bangalore",
        "addr:street": "7 Main Road",
        "amenity": "college",
        "check_date": "2024-07-06",
        "name": "East Point College"
      }
    },
    {
      "type": "node",
      "id": 2475357989,
      "lat": 13.0237703,
      "lon": 77.6457711,
      "tags": {
        "addr:city": "Babusabpalya, Hennur",
        "addr:street": "Outer Ring Road",
        "amenity": "police",
        "check_date": "2024-07-05",
        "name": "Hennur Police Station",
        "name:kn": "ಹೆಣ್ಣೂರು ಆರಕ್ಷಕ ಠಾಣೆ"
      }
    },
    {
      "type": "node",
      "id": 2728559202,
      "lat": 13.0207557,
      "lon": 77.6437335,
      "tags": {
        "addr:city": "Bangalore",
        "addr:housenumber": "Canara Bank",
        "addr:postcode": "560043",
        "addr:street": "7th A Main",
        "amenity": "bank",
        "atm": "yes"
      }
    },
    {
      "type": "node",
      "id": 2730805923,
      "lat": 13.020785,
      "lon": 77.6435221,
      "tags": {
        "addr:city": "Bangalore",
        "addr:postcode": "560043",
        "addr:street": "80 feet road babusapalya main road Kalyan Nagar",
        "amenity": "cafe",
        "name": "Rastarasta.com"
      }
    },
    {
      "type": "node",
      "id": 3918664256,
      "lat": 13.0195687,
      "lon": 77.6371797,
      "tags": {
        "amenity": "restaurant",
        "cuisine": "korean",
        "name": "Arirang Korean Restaurant"
      }
    },
    {
      "type": "node",
      "id": 4189843307,
      "lat": 13.0206063,
      "lon": 77.6445361,
      "tags": {
        "addr:city": "Bangalore",
        "addr:postcode": "560043",
        "addr:street": "4th B cross, 7th C Main",
        "amenity": "hospital",
        "emergency": "no",
        "name": "Rajbal Skin Clinic",
        "operator": "Skin Specialist"
      }
    },
    {
      "type": "node",
      "id": 4349443891,
      "lat": 13.0169826,
      "lon": 77.6432959,
      "tags": {
        "addr:district": "Bengaluru Urban",
        "addr:full": "Kalyan Nagar, Bengaluru",
        "addr:postcode": "560043",
        "addr:state": "Karnataka",
        "amenity": "hospital",
        "name": "Trilife Hospital",
        "source": "Local Knowledge"
      }
    },
    {
      "type": "node",
      "id": 4426126391,
      "lat": 13.0155316,
      "lon": 77.6394955,
      "tags": {
        "amenity": "cafe",
        "name": "Al Amanah Cafe",
        "name:en": "Al amanah cafe"
      }
    },
    {
      "type": "node",
      "id": 4443463419,
      "lat": 13.0245213,
      "lon": 77.6350534,
      "tags": {
        "addr:city": "Bangalore",
        "addr:housenumber": "407",
        "addr:postcode": "560043",
        "addr:street": "Kammanahalli Main Rd",
        "amenity": "restaurant",
        "cuisine": "regional",
        "delivery": "yes",
        "name": "Beijing Bites",
        "name:kn": "ಬೀಜಿಂಗ್ ಬೈಟ್ಸ್",
        "opening_hours": "12:00-16:00 ,19:00-23:00",
        "phone": "080 4090 4288",
        "smoking": "no",
        "website": "https://beijingbites.com/"
      }
    },
    {
      "type": "node",
      "id": 4443525945,
      "lat": 13.0255437,
      "lon": 77.6371608,
      "tags": {
        "addr:city": "bangalore",
        "addr:housenumber": "430",
        "addr:postcode": "560043",
        "addr:street": "Kalyan Nagar",
        "amenity": "restaurant",
        "cuisine": "regional",
        "name": "Sigree Global Grill",
        "opening_hours": "12:30-15:30,19:00-23:00",
        "phone": "080 2545 1318",
        "website": "https://www.speciality.co.in/global_grill/index.html"
      }
    },
    {
      "type": "node",
      "id": 4443559999,
      "lat": 13.0230441,
      "lon": 77.6398714,
      "tags": {
        "addr:city": "Bangalore",
        "addr:housenumber": "418",
        "addr:postcode": "560043",
        "addr:street": "5th Main Road",
        "amenity": "restaurant",
        "cuisine": "chinese",
        "delivery": "yes",
        "name": "Chung Wah",
        "name:kn": "ಚುಂಗ್ ವಾ",
        "opening_hours": "12:00-15:30,19:00-23:00",
        "phone": "098454 94499",
        "smoking": "no",
        "takeaway": "yes"
      }
    },
    {
      "type": "node",
      "id": 4443583791,
      "lat": 13.0278559,
      "lon": 77.6397264,
      "tags": {
        "addr:city": "bangalore",
        "addr:housenumber": "8",
        "addr:postcode": "560043",
        "addr:street": "Chelekere Main Road",
        "addr:suburb": "Kalyan Nagar",
        "amenity": "restaurant",
        "cuisine": "regional",
        "delivery": "yes",
        "name": "Fragrant Kitchen",
        "opening_hours": "10:30-23:00",
        "phone": "+91 96633 33004",
        "smoking": "no",
        "takeaway": "yes",
        "website": "http://www.fragrantkitchen.in/"
      }
    },
    {
      "type": "node",
      "id": 4443594010,
      "lat": 13.0214839,
      "lon": 77.6408994,
      "tags": {
        "addr:city": "Bangalore",
        "addr:housenumber": "507",
        "addr:postcode": "560043",
        "addr:street": "CMR Road",
        "amenity": "restaurant",
        "cuisine": "korean",
        "name": "Thran",
        "opening_hours": "12:00-15:00,18:00-22:00",
        "phone": "080 4205 0685",
        "takeaway": "yes"
      }
    },
    {
      "type": "node",
      "id": 4443610206,
      "lat": 13.0250222,
      "lon": 77.6372087,
      "tags": {
        "addr:housenumber": "7",
        "addr:street": "5th main road",
        "amenity": "restaurant",
        "cuisine": "mediterranean",
        "delivery": "yes",
        "name": "Aioli BBQ & Grill Smoke House",
        "opening_hours": "11:45-23:30",
        "phone": "080 6999 0174",
        "takeaway": "yes"
      }
    },
    {
      "type": "node",
      "id": 4443620086,
      "lat": 13.0260656,
      "lon": 77.6370378,
      "tags": {
        "addr:city": "bangalore",
        "addr:housenumber": "436",
        "addr:postcode": "560043",
        "addr:street": "5th A Cross",
        "amenity": "restaurant",
        "cuisine": "seafood",
        "name": "Unwined",
        "opening_hours": "11:30-23:30",
        "phone": "080 4167 8999"
      }
    },
    {
      "type": "node",
      "id": 4445169666,
      "lat": 13.0241409,
      "lon": 77.637316,
      "tags": {
        "addr:city": "Bangalore",
        "addr:housenumber": "#4BM-403",
        "addr:postcode": "560043",
        "addr:street": "Kammanahalli Main Road, HRBR Layout 2nd Block",
        "amenity": "clinic",
        "name": "Divine Medical Centre",
        "phone": "080 2545 1143",
        "website": "https://divinemedicalcentre.in/"
      }
    },
    {
      "type": "node",
      "id": 4446869496,
      "lat": 13.0208903,
      "lon": 77.643156,
      "tags": {
        "addr:city": "Bangalore",
        "addr:housenumber": "315, 7th Main Rd",
        "addr:postcode": "560043",
        "addr:street": ", HRBR Layout 2nd Block, Kalyan Nagar",
        "amenity": "restaurant",
        "cuisine": "regional",
        "delivery": "yes",
        "name": "Sway",
        "opening_hours": "NA",
        "smoking": "no",
        "takeaway": "yes"
      }
    },
    {
      "type": "node",
      "id": 4446876066,
      "lat": 13.0204424,
      "lon": 77.6440607,
      "tags": {
        "addr:city": "Bangalore",
        "addr:housenumber": "714",
        "addr:postcode": "560043",
        "addr:street": "4th B Cross, 7th A Main, 1st Block, HRBR Layout, Kalyan Nagar",
        "amenity": "hospital",
        "name": "Herbocare Hospital Pvt",
        "phone": "+9174064 30003",
        "website": "herbocare.info"
      }
    },
    {
      "type": "node",
      "id": 4446897124,
      "lat": 13.013929,
      "lon": 77.6389286,
      "tags": {
        "addr:city": "bangalore",
        "addr:housenumber": "8",
        "addr:postcode": "560033",
        "addr:street": "Nehru Road, Kullappa Road, Near-Kullapa Circle, Kammanahalli, PNS Layout, Subbayianiah Palyam, Banswadi",
        "amenity": "pharmacy",
        "name": "Royal Medicals",
        "phone": "08033792698"
      }
    },
    {
      "type": "node",
      "id": 4446954987,
      "lat": 13.0259923,
      "lon": 77.6405519,
      "tags": {
        "addr:city": "bangalore",
        "addr:housenumber": "G 28",
        "addr:postcode": "560043",
        "addr:street": "Chelikere Ring Road, Near-23rd Bmtc Bus Depot, Kalyan Nagar,",
        "amenity": "restaurant",
        "cuisine": "regional",
        "delivery": "yes",
        "name": "Matru Sagar",
        "opening_hours": "11:00-23:00",
        "smoking": "no",
        "takeaway": "yes"
      }
    },
    {
      "type": "node",
      "id": 4446961587,
      "lat": 13.0217392,
      "lon": 77.6397872,
      "tags": {
        "addr:city": "Bangalore",
        "addr:housenumber": "11th/ 14th cross rd",
        "addr:postcode": "560043",
        "addr:street": "HRBR Lay out, Near Axis bank",
        "amenity": "restaurant",
        "cuisine": "regional",
        "delivery": "yes",
        "name": "Food Magic Restaurant",
        "opening_hours": "08:00-00:00",
        "smoking": "no",
        "takeaway": "yes"
      }
    },
    {
      "type": "node",
      "id": 4446972680,
      "lat": 13.0226589,
      "lon": 77.6395368,
      "tags": {
        "addr:city": "bangalore",
        "addr:housenumber": "406",
        "addr:postcode": "560043",
        "addr:street": "5th Main Rd, HRBR Layout, Kalyan Nagar",
        "amenity": "restaurant",
        "cuisine": "regional",
        "delivery": "yes",
        "name": "Gawa",
        "opening_hours": "NA",
        "smoking": "no",
        "takeaway": "yes"
      }
    },
    {
      "type": "node",
      "id": 4446975139,
      "lat": 13.0222694,
      "lon": 77.6397678,
      "tags": {
        "addr:city": "Bangalore",
        "addr:housenumber": "406",
        "addr:postcode": "560043",
        "addr:street": "5th A Cross Road, HRBR Layout 2nd Block, HRBR Layout, Kalyan Nagar",
        "amenity": "restaurant",
        "cuisine": "regional",
        "delivery": "yes",
        "name": "Faasos",
        "opening_hours": "09:00-23:00",
        "smoking": "no",
        "takeaway": "yes"
      }
    },
    {
      "type": "node",
      "id": 4446981238,
      "lat": 13.0155944,
      "lon": 77.6397049,
      "tags": {
        "addr:city": "bangalore",
        "addr:housenumber": "20, 5th Avenue",
        "addr:postcode": "560043",
        "addr:street": "PNS Layout, Kalyan Nagar,",
        "amenity": "restaurant",
        "cuisine": "regional",
        "delivery": "yes",
        "name": "Al Amanah Cafe",
        "opening_hours": "16:00-23:30",
        "smoking": "no",
        "takeaway": "yes"
      }
    },
    {
      "type": "node",
      "id": 4446983972,
      "lat": 13.0257816,
      "lon": 77.6378902,
      "tags": {
        "addr:city": "Bangalore",
        "addr:housenumber": "#410",
        "addr:postcode": "560043",
        "addr:street": "1st Floor, 5th A cross LL Block, HRBR layout, Kalyan nagar",
        "amenity": "restaurant",
        "cuisine": "regional",
        "delivery": "yes",
        "name": "Kera Cafe",
        "opening_hours": "11:00-23:00",
        "smoking": "no",
        "takeaway": "yes"
      }
    },
    {
      "type": "node",
      "id": 4446997759,
      "lat": 13.0230548,
      "lon": 77.6472679,
      "tags": {
        "addr:city": "Bangalore",
        "addr:housenumber": "917",
        "addr:postcode": "560043",
        "addr:street": "9th Main Rd, Kalyan Nagar, Babusabpalya, Hennur",
        "amenity": "restaurant",
        "check_date": "2025-06-21",
        "cuisine": "regional",
        "delivery": "yes",
        "name": "Sri Krishna Bhawan",
        "opening_hours": "06:00-23:00",
        "phone": "098801 98969",
        "smoking": "no",
        "takeaway": "yes"
      }
    },
    {
      "type": "node",
      "id": 4446999237,
      "lat": 13.0225104,
      "lon": 77.6395484,
      "tags": {
        "addr:city": "bangalore",
        "addr:housenumber": "1/2",
        "addr:postcode": "560043",
        "addr:street": "First Avenue, 5th Main, 2nd Block, HRBR Layout, Kalyan Nagar",
        "amenity": "restaurant",
        "cuisine": "regional",
        "delivery": "yes",
        "name": "BYLI - Bet You Love It!",
        "opening_hours": "09:00-23:00",
        "smoking": "no"
      }
    },
    {
      "type": "node",
      "id": 4447001525,
      "lat": 13.023783,
      "lon": 77.6399492,
      "tags": {
        "addr:city": "Bangalore",
        "addr:housenumber": "444",
        "addr:postcode": "560043",
        "addr:street": "5th Main Rd, HRBR Block-2, Kalyannagar,",
        "amenity": "restaurant",
        "cuisine": "regional",
        "delivery": "yes",
        "name": "Bullet Biryani",
        "opening_hours": "12:00-15:00,19:00-22:00",
        "phone": "080954 81470",
        "smoking": "no",
        "takeaway": "yes"
      }
    },
    {
      "type": "node",
      "id": 4447006252,
      "lat": 13.0222385,
      "lon": 77.6399929,
      "tags": {
        "addr:city": "bangalore",
        "addr:postcode": "560043",
        "addr:street": "5th A Main Road, 2nd Block, HRBR Layout, Kalyan Nagar",
        "amenity": "restaurant",
        "cuisine": "regional",
        "delivery": "yes",
        "name": "Cake House",
        "smoking": "no",
        "takeaway": "yes"
      }
    },
    {
      "type": "node",
      "id": 4447006821,
      "lat": 13.0210445,
      "lon": 77.6426065,
      "tags": {
        "addr:city": "Bangalore",
        "addr:housenumber": "614",
        "addr:postcode": "560043",
        "addr:street": "6th A Main Rd, HRBR Layout 2nd Block, Kalyan Nagar,",
        "amenity": "ice_cream",
        "cuisine": "regional",
        "delivery": "yes",
        "name": "Corner House",
        "name:kn": "ಕಾರ್ನರ್ ಹೌಸ್",
        "opening_hours": "11:00-23:00",
        "phone": "080 6546 5551",
        "smoking": "no",
        "takeaway": "yes"
      }
    },
    {
      "type": "node",
      "id": 4447009029,
      "lat": 13.0230092,
      "lon": 77.6370539,
      "tags": {
        "addr:city": "Bangalore",
        "addr:housenumber": "3826",
        "addr:postcode": "560043",
        "addr:street": "Mariappa Circle, Kammanahali Rd, HRBR Layout 3rd Block, Kalyan Nagar",
        "amenity": "restaurant",
        "cuisine": "regional",
        "delivery": "yes",
        "name": "Regency Park",
        "opening_hours": "11:30-23:00",
        "phone": "080 2544 1410",
        "smoking": "no",
        "takeaway": "yes",
        "website": "regencypark.co.in"
      }
    },
    {
      "type": "node",
      "id": 4447012034,
      "lat": 13.0207053,
      "lon": 77.6367655,
      "tags": {
        "addr:city": "Bangalore",
        "addr:housenumber": "86",
        "addr:postcode": "560043",
        "addr:street": "Kammanahalli Main Road, Near-Jal Vayu Vihar, Kalyan Nagar",
        "amenity": "restaurant",
        "cuisine": "regional",
        "delivery": "yes",
        "name": "Sukh Sagar",
        "opening_hours": "07:30-22:30",
        "phone": "080 4126 4476",
        "smoking": "no",
        "takeaway": "yes",
        "website": "sukhsagar.com"
      }
    },
    {
      "type": "node",
      "id": 4447013600,
      "lat": 13.022023,
      "lon": 77.6389206,
      "tags": {
        "addr:city": "Bangalore",
        "addr:housenumber": "420",
        "addr:postcode": "560043",
        "addr:street": "CMR Rd, HRBR Layout 2nd Block, Kalyan Nagar",
        "amenity": "fast_food",
        "cuisine": "regional",
        "delivery": "yes",
        "drive_through": "yes",
        "name": "Majlis Restaurant",
        "opening_hours": "12:00-23:00",
        "phone": "080 4123 1221",
        "smoking": "no",
        "takeaway": "yes"
      }
    },
    {
      "type": "node",
      "id": 4447017910,
      "lat": 13.0259481,
      "lon": 77.6372048,
      "tags": {
        "addr:city": "Bangalore",
        "addr:housenumber": "5 AC/402",
        "addr:postcode": "560043",
        "addr:street": "Service Rd, HRBR Layout 2nd Block, Kalyan Nagar",
        "amenity": "restaurant",
        "cuisine": "regional",
        "delivery": "yes",
        "name": "Pars Restaurant",
        "opening_hours": "14:30-23:00",
        "smoking": "no",
        "takeaway": "yes"
      }
    },
    {
      "type": "node",
      "id": 4447226448,
      "lat": 13.0222667,
      "lon": 77.6470832,
      "tags": {
        "addr:city": "Bangalore",
        "addr:housenumber": "5c-829",
        "addr:postcode": "560043",
        "addr:street": "5th Cross, 9th Main, 1st Block HRBR Layout, Kalyan Nagar",
        "amenity": "restaurant",
        "cuisine": "regional",
        "delivery": "yes",
        "name": "OvenTreats - Patisserie.Bistro",
        "opening_hours": "09:00-21:00",
        "phone": "090350 03460",
        "smoking": "no",
        "takeaway": "yes"
      }
    },
    {
      "type": "node",
      "id": 4447228633,
      "lat": 13.0236936,
      "lon": 77.6431324,
      "tags": {
        "addr:city": "bangalore",
        "addr:housenumber": "415",
        "addr:postcode": "560043",
        "addr:street": "7th Main Rd, HRBR Layout 1st Block, Vijaya Bank Colony Extension, Kalyan Nagar",
        "amenity": "restaurant"
      }
    },
    {
      "type": "node",
      "id": 4447235887,
      "lat": 13.0249093,
      "lon": 77.6317491,
      "tags": {
        "addr:city": "Bangalore",
        "addr:postcode": "560043",
        "addr:street": "1M, Masand Esquire,Hennur Main Road, HRBR Layout 3rd Block, Opp Teachers Academy, Near Hennur Bus Depot",
        "amenity": "restaurant",
        "cuisine": "regional",
        "name": "Chulha Chowki Da Dhaba",
        "opening_hours": "12:00-15:30,19:00-22:30",
        "phone": "080 3232 9977",
        "smoking": "no",
        "takeaway": "yes",
        "website": "http://www.chulhachaukidadhaba.com/ContactUs.php",
        "wheelchair": "no"
      }
    },
    {
      "type": "node",
      "id": 4447243242,
      "lat": 13.028492,
      "lon": 77.6347149,
      "tags": {
        "addr:city": "bangalore",
        "addr:housenumber": "100",
        "addr:postcode": "560043",
        "addr:street": "Hennur Bagalur Rd, Kalyan Nagar",
        "amenity": "restaurant",
        "cuisine": "regional",
        "delivery": "yes",
        "name": "Paradox Resto-Cafe",
        "opening_hours": "10:30-22:30",
        "phone": "080 4110 8043",
        "smoking": "no",
        "takeaway": "yes",
        "website": "https://www.zomato.com/bangalore/paradox-rest-o-cafe-kalyan-nagar"
      }
    },
    {
      "type": "node",
      "id": 4447263066,
      "lat": 13.0239866,
      "lon": 77.6329956,
      "tags": {
        "addr:city": "Bangalore",
        "addr:housenumber": "204",
        "addr:postcode": "560043",
        "addr:street": "CMR Rd, HRBR Layout 3rd Block, Kalyan Nagar",
        "amenity": "restaurant",
        "cuisine": "regional;punjabi",
        "delivery": "yes",
        "name": "Tashan The Punjabi Cuisine",
        "opening_hours": "19:00-23:00",
        "phone": "080 4112 5127",
        "smoking": "no",
        "takeaway": "yes"
      }
    },
    {
      "type": "node",
      "id": 4447268977,
      "lat": 13.021689,
      "lon": 77.639838,
      "tags": {
        "addr:city": "Bangalore",
        "addr:postcode": "560043",
        "addr:street": "CMR Rd, HRBR Layout, Kalyan Nagar",
        "amenity": "restaurant",
        "cuisine": "regional",
        "delivery": "yes",
        "name": "Paranthas and Dosas",
        "opening_hours": "09:00-22:30",
        "phone": "080 3271 3131",
        "smoking": "no"
      }
    },
    {
      "type": "node",
      "id": 4447271702,
      "lat": 13.0263547,
      "lon": 77.6405892,
      "tags": {
        "addr:city": "bangalore",
        "addr:postcode": "560043",
        "addr:street": "1st Floor, L.G.R. Complex, Outer Ring Rd, Chelekare",
        "amenity": "restaurant",
        "cuisine": "regional",
        "delivery": "yes",
        "name": "Delicacy Restaurant",
        "opening_hours": "11:00-23:00",
        "phone": "080 2544 9944",
        "smoking": "no",
        "takeaway": "yes",
        "website": "http://ww2.delicacyrestaurant.com/?folio=7POYGN0G2"
      }
    },
    {
      "type": "node",
      "id": 4447284873,
      "lat": 13.0184721,
      "lon": 77.6427206,
      "tags": {
        "addr:city": "Bangalore",
        "addr:housenumber": "615",
        "addr:postcode": "560043",
        "addr:street": "2nd B cross , 2nd Block , 6th A Main, Kalyan Nagar",
        "amenity": "restaurant",
        "cuisine": "regional",
        "delivery": "yes",
        "name": "Oye Hoye",
        "opening_hours": "09:30-15:30,18:30-22:00",
        "phone": "099000 03026",
        "smoking": "no",
        "takeaway": "yes"
      }
    },
    {
      "type": "node",
      "id": 4447291372,
      "lat": 13.0221892,
      "lon": 77.6397816,
      "tags": {
        "addr:city": "Bangalore",
        "addr:housenumber": "401",
        "addr:postcode": "560043",
        "addr:street": "2nd Block, Kalyan Nagar, 5th A Main, HRBR Layout",
        "amenity": "restaurant",
        "cuisine": "regional",
        "delivery": "yes",
        "name": "Chung's Chinese Corner",
        "opening_hours": "12:00-15:30,19:00-23:00",
        "phone": "080 2542 8677",
        "smoking": "no"
      }
    },
    {
      "type": "node",
      "id": 4447307112,
      "lat": 13.0250736,
      "lon": 77.6401906,
      "tags": {
        "addr:city": "bangalore",
        "addr:postcode": "560043",
        "addr:street": "5th Main Cross Road, HRBR Layout Kalyan Nagar 2 Block",
        "amenity": "restaurant",
        "cuisine": "regional",
        "delivery": "yes",
        "name": "La Casa",
        "opening_hours": "11:00-23:00",
        "phone": "080 4208 4201",
        "smoking": "no",
        "takeaway": "yes"
      }
    },
    {
      "type": "node",
      "id": 4447308906,
      "lat": 13.0232051,
      "lon": 77.639886,
      "tags": {
        "addr:city": "Bangalore",
        "addr:housenumber": "420",
        "addr:postcode": "560043",
        "addr:street": "5th Cross Rd, HRBR Layout 3rd Block, HRBR Layout, Kalyan Nagar",
        "amenity": "restaurant",
        "cuisine": "regional",
        "delivery": "yes",
        "name": "7 Plates",
        "opening_hours": "12:30-23:30",
        "phone": "078297 79997",
        "smoking": "no",
        "takeaway": "yes"
      }
    },
    {
      "type": "node",
      "id": 4447315290,
      "lat": 13.0219932,
      "lon": 77.6405659,
      "tags": {
        "addr:city": "Bangalore",
        "addr:postcode": "560043",
        "addr:street": "First Floor, CMR Road, HRBR Layout,2nd Block, Kalyan Nagar",
        "amenity": "restaurant",
        "cuisine": "regional",
        "delivery": "yes",
        "name": "Mast Kalandar",
        "name:kn": "ಮಸ್ತ್ ಕಲಂದರ್",
        "opening_hours": "12:00-23:00",
        "phone": "080 4161 0777",
        "smoking": "no",
        "takeaway": "yes",
        "website": "http://mkdabbawala.com/"
      }
    },
    {
      "type": "node",
      "id": 4447320093,
      "lat": 13.0254536,
      "lon": 77.6397912,
      "tags": {
        "addr:city": "bangalore",
        "addr:housenumber": "436",
        "addr:postcode": "560043",
        "addr:street": "5th Main Road, HRBR Layout,2nd Block, Kalyan Nagar",
        "amenity": "restaurant",
        "cuisine": "regional",
        "delivery": "yes",
        "name": "Unwined",
        "opening_hours": "11:30-23:30",
        "phone": "080 4167 8999",
        "smoking": "no",
        "takeaway": "yes"
      }
    },
    {
      "type": "node",
      "id": 4447327735,
      "lat": 13.0232481,
      "lon": 77.6394478,
      "tags": {
        "addr:city": "bangalore",
        "addr:postcode": "560043",
        "addr:street": "5th Main Rd, HRBR Layout 2nd Block, Kalyan Nagar",
        "amenity": "restaurant",
        "cuisine": "regional",
        "delivery": "yes",
        "name": "Aioli BBQ & Grill Smoke House",
        "opening_hours": "11:45-23:30",
        "phone": "080 6999 0174",
        "smoking": "no",
        "takeaway": "yes"
      }
    },
    {
      "type": "node",
      "id": 4447331157,
      "lat": 13.0240994,
      "lon": 77.6340746,
      "tags": {
        "addr:city": "Bangalore",
        "addr:housenumber": "507",
        "addr:postcode": "560043",
        "addr:street": "Ground Floor, 4th A Cross Road, HRBR Layout 3rd Block, Kalyan Nagar, Bangalore Urban",
        "amenity": "restaurant",
        "cuisine": "regional",
        "delivery": "yes",
        "name": "Thran",
        "opening_hours": "12:00-15:00,18:00-10:00",
        "phone": "080 4205 0685",
        "smoking": "no",
        "takeaway": "yes"
      }
    },
    {
      "type": "node",
      "id": 4447350026,
      "lat": 13.0256069,
      "lon": 77.6384078,
      "tags": {
        "addr:city": "Bangalore",
        "addr:housenumber": "2nd & 3rd Floor, 430",
        "addr:postcode": "560043",
        "addr:street": "Service Rd, HRBR Layout 2nd Block, Kalyan Nagar",
        "amenity": "restaurant",
        "check_date": "2025-06-21",
        "cuisine": "regional",
        "delivery": "yes",
        "name": "Mani's Dum Biryani",
        "opening_hours": "12:30-15:30,19:00-23:00",
        "phone": "080 2545 1318",
        "smoking": "no",
        "takeaway": "yes",
        "website": "https://www.speciality.co.in/global_grill/index.html"
      }
    },
    {
      "type": "node",
      "id": 4447355796,
      "lat": 13.0255101,
      "lon": 77.6383709,
      "tags": {
        "addr:city": "Bangalore",
        "addr:housenumber": "430",
        "addr:postcode": "560043",
        "addr:street": "5th A Cross Road, HRBR Layout 2nd Block, Kalyan Nagar",
        "amenity": "restaurant",
        "cuisine": "regional",
        "delivery": "yes",
        "name": "Mainland China",
        "opening_hours": "12:00-15:30,19:00-23:30",
        "phone": "080 2545 1358",
        "smoking": "no",
        "takeaway": "yes",
        "website": "https://www.speciality.co.in/mainland_china/index.html"
      }
    },
    {
      "type": "node",
      "id": 4447363016,
      "lat": 13.0215823,
      "lon": 77.6403247,
      "tags": {
        "addr:city": "Bangalore",
        "addr:housenumber": "No. 30,",
        "addr:postcode": "560043",
        "addr:street": "B.R.Plaza, 3rd Floor, 4th Cross, CMR Road, Hrbr Layout, Kalyan Nagar, Kalyan Naga",
        "amenity": "restaurant",
        "cuisine": "regional",
        "delivery": "yes",
        "name": "Barbeque Nation",
        "opening_hours": "12:30-22:30",
        "phone": "080 6060 0000",
        "smoking": "no",
        "takeaway": "yes",
        "website": "https://www.barbequenation.com/"
      }
    },
    {
      "type": "node",
      "id": 4447373687,
      "lat": 13.0245897,
      "lon": 77.637388,
      "tags": {
        "addr:city": "Bangalore",
        "addr:housenumber": "407",
        "addr:postcode": "560043",
        "addr:street": "Kammanahalli Main Rd, HRBR Layout 2nd Block, Kalyan Nagar",
        "amenity": "restaurant",
        "cuisine": "regional",
        "delivery": "yes",
        "name": "Beijing Bites",
        "name:kn": "ಬೀಜಿಂಗ್ ಬೈಟ್ಸ್",
        "opening_hours": "12:00-16:00 ,19:00-23:00",
        "phone": "080 4090 4288",
        "smoking": "no",
        "takeaway": "yes",
        "website": "https://beijingbites.com/"
      }
    },
    {
      "type": "node",
      "id": 4488838434,
      "lat": 13.0220604,
      "lon": 77.638771,
      "tags": {
        "addr:city": "Bangalore",
        "addr:postcode": "560043",
        "addr:street": "CMR Road, Beside Aravind Life Style, HRBR Layout 2nd Block, Kalyan Nagar",
        "name": "The Sport Mall",
        "phone": "080 3927 5511",
        "shop": "sports",
        "website": "thesportmall.in"
      }
    },
    {
      "type": "node",
      "id": 4488962870,
      "lat": 13.0220316,
      "lon": 77.6389717,
      "tags": {
        "addr:city": "Bangalore",
        "addr:postcode": "560043",
        "addr:street": "CMR Road, Beside Aravind Life Style, HRBR Layout 2nd Block, Kalyan Nagar, Bhadrappa Layout, Kalyan Nagar,",
        "name": "The Sport Mall",
        "opening_hours": "10:30-21:30",
        "phone": "08039275511",
        "shop": "sports",
        "website": "thesportmall.in"
      }
    },
    {
      "type": "node",
      "id": 4489336845,
      "lat": 13.0142127,
      "lon": 77.6361981,
      "tags": {
        "addr:city": "bengalore",
        "addr:housenumber": "48, 49",
        "addr:postcode": "560084",
        "addr:street": "3rd Main Nehru Rd, MEG Layout, A Narayanapura, Kammanahalli,",
        "name": "Falcon Sports",
        "opening_hours": "10:30-22:30",
        "phone": "+919901541131",
        "shop": "sports"
      }
    },
    {
      "type": "node",
      "id": 4489731990,
      "lat": 13.0217674,
      "lon": 77.6369247,
      "tags": {
        "addr:city": "Bangalore",
        "addr:housenumber": "4",
        "addr:postcode": "560084",
        "addr:street": "3rd Floor, Kammanahalli Main Road, Kammanahall",
        "leisure": "sports_centre",
        "name": "Cubo Fitness",
        "opening_hours": "05:00-10:00",
        "phone": "(91)-80-33761116",
        "sport": "gymnastics",
        "website": "https://www.cubofitness.com/"
      }
    },
    {
      "type": "node",
      "id": 4489749852,
      "lat": 13.0151194,
      "lon": 77.6368067,
      "tags": {
        "addr:city": "bangalore",
        "addr:housenumber": "218",
        "addr:postcode": "560043",
        "addr:street": "Sunshine Complex, 3rd Floor, Kammanahalli Main Road, Kalyan Nagar Post, HRBR Layout",
        "name": "Hair Do Salon And Spa",
        "opening_hours": "09:00-21:30",
        "phone": "080-25448677",
        "shop": "beauty"
      }
    },
    {
      "type": "node",
      "id": 4489756860,
      "lat": 13.0258854,
      "lon": 77.6372631,
      "tags": {
        "addr:city": "Bangalore",
        "addr:postcode": "560043",
        "addr:street": "Lamcy Plaza, 5AC/402, 2nd Floor, 2nd Block, HRBR Layout, Kalyannagar, Bhadrappa Layout, HRBR Layout 2nd Block, HRBR Layout, Kalyan Nagar,",
        "leisure": "sports_centre",
        "name": "Snap Fitness",
        "phone": "9008048888",
        "sport": "gymnasium",
        "website": "snapfitnessindia.com"
      }
    },
    {
      "type": "node",
      "id": 4489775073,
      "lat": 13.0197253,
      "lon": 77.6474507,
      "tags": {
        "addr:city": "bangalore",
        "addr:housenumber": "707",
        "addr:postcode": "560043",
        "addr:street": "3rd Cross, 1st Block, Hrbr Layout, Kalyan Nagar",
        "name": "Elite Unisex Spa And Saloon",
        "opening_hours": "09:00-21:30",
        "phone": "80-65655909",
        "shop": "beauty"
      }
    },
    {
      "type": "node",
      "id": 4489813530,
      "lat": 13.0209701,
      "lon": 77.6430322,
      "tags": {
        "addr:city": "Bangalore",
        "addr:housenumber": "3rd Floor",
        "addr:postcode": "560043",
        "addr:street": ", No. 7M 319, 7th Main Road, 2nd Block, HRBR Layout, Kalyan Nagar, HRBR Layout 2nd Block, HRBR Layout, Kalyan Nagar, Bengaluru, Karnataka",
        "leisure": "sports_centre",
        "name": "Figurine Fitness Kalyan Nagar",
        "opening_hours": "6:00-24:00",
        "phone": "080 6565 3777",
        "website": "https://figurinefitness.in/"
      }
    },
    {
      "type": "node",
      "id": 4489844854,
      "lat": 13.0195645,
      "lon": 77.6372622,
      "tags": {
        "addr:city": "bangalore",
        "addr:housenumber": "43",
        "addr:postcode": "560043",
        "addr:street": "1st Floor, Horamavu Main Road, Horamavu",
        "name": "Shaakya Body Spa",
        "opening_hours": "09:00-21:30",
        "phone": "9886440056",
        "shop": "beauty",
        "website": "https://www.shaakyaspa.com/"
      }
    },
    {
      "type": "node",
      "id": 4489857253,
      "lat": 13.0198978,
      "lon": 77.6474795,
      "tags": {
        "addr:city": "bangalore",
        "addr:housenumber": "9",
        "addr:postcode": "560043",
        "addr:street": "9th Mn Rd, 4th Crs, 1st Blk, Hrbr Lyt, Kalyan Nagar",
        "name": "Magic Mirror Unisex Spa And Salon",
        "opening_hours": "09:00-21:30",
        "phone": "9916690550",
        "shop": "beauty"
      }
    },
    {
      "type": "node",
      "id": 4489865196,
      "lat": 13.0245883,
      "lon": 77.6371856,
      "tags": {
        "addr:city": "Bangalore",
        "addr:housenumber": "412",
        "addr:postcode": "560043",
        "addr:street": "HRBR layout",
        "name": "Lakme Salon",
        "opening_hours": "09:00-21:30",
        "phone": "080 2545 1385",
        "shop": "beauty",
        "website": "https://lakmeindia.com/"
      }
    },
    {
      "type": "node",
      "id": 4489872855,
      "lat": 13.0217349,
      "lon": 77.6371117,
      "tags": {
        "addr:city": "Bangalore",
        "addr:housenumber": "10",
        "addr:postcode": "560043",
        "addr:street": "Kammanahalli Main Road",
        "name": "Impress Cuts Family Salon",
        "opening_hours": "09:00-21:30",
        "phone": "80-33094638",
        "shop": "beauty"
      }
    },
    {
      "type": "node",
      "id": 4489890908,
      "lat": 13.021842,
      "lon": 77.6372078,
      "tags": {
        "addr:city": "Bangalore",
        "addr:housenumber": "10",
        "addr:postcode": "560084",
        "addr:street": "Kammanahalli Main Road",
        "name": "Impress Cuts",
        "opening_hours": "09:00-21:30",
        "phone": "8041106017",
        "shop": "beauty"
      }
    },
    {
      "type": "node",
      "id": 4490504246,
      "lat": 13.0216799,
      "lon": 77.6372975,
      "tags": {
        "addr:city": "Bangalore",
        "addr:housenumber": "4/1",
        "addr:postcode": "560084",
        "addr:street": "4/1, Kammanalli Main Road, Opp. Jal Vayu Vihar, Bhadrappa Layout, Sena Vihar, Kammanahalli, Bengaluru,",
        "leisure": "sports_centre",
        "name": "Cubo Fitness",
        "opening_hours": "5:30-21:30",
        "phone": "9880079611",
        "sport": "gymnasium",
        "website": "https://cubofitness.com/"
      }
    },
    {
      "type": "node",
      "id": 4535189245,
      "lat": 13.021608,
      "lon": 77.6416377,
      "tags": {
        "addr:postcode": "5600043",
        "amenity": "restaurant",
        "name": "Fusion",
        "name:en": "fusion"
      }
    },
    {
      "type": "node",
      "id": 4583513490,
      "lat": 13.0193646,
      "lon": 77.6336294,
      "tags": {
        "amenity": "drinking_water"
      }
    },
    {
      "type": "node",
      "id": 4583523289,
      "lat": 13.0192963,
      "lon": 77.633699,
      "tags": {
        "addr:housenumber": "3",
        "addr:postcode": "560084",
        "addr:street": "2nd A main",
        "amenity": "veterinary",
        "name": "Anu Pet Clinic",
        "name:en": "Anu Pet Clinic",
        "phone": "+91 98440 04905"
      }
    },
    {
      "type": "node",
      "id": 4702180791,
      "lat": 13.0151589,
      "lon": 77.6451446,
      "tags": {
        "addr:housenumber": "805",
        "addr:street": "2nd Cross Road",
        "amenity": "clinic",
        "name": "Express Clinic",
        "name:en": "Express Clinic",
        "phone": "+91-080-42234552"
      }
    },
    {
      "type": "node",
      "id": 4798061775,
      "lat": 13.0216594,
      "lon": 77.6396888,
      "tags": {
        "addr:city": "Bangalore",
        "addr:housenumber": "421",
        "addr:postcode": "560043",
        "addr:street": "CMR Rd, HRBR Layout 2nd Block, Kalyan Nagar",
        "alt_name": "A2B",
        "amenity": "restaurant",
        "brand": "Adyar Ananda Bhavan",
        "brand:wikidata": "Q15178238",
        "cuisine": "regional",
        "delivery": "yes",
        "diet:vegetarian": "only",
        "name": "Adyar Ananda Bhavan",
        "name:kn": "ಆದ್ಯಾರ್ ಆನಂದ ಭವನ",
        "opening_hours": "06:30-22:30",
        "operator": "Adyar Ananda Bhavan",
        "phone": "+91 80 4205 8999;+91 80 4206 1999",
        "smoking": "no",
        "takeaway": "yes",
        "website": "https://aabsweets.com"
      }
    },
    {
      "type": "node",
      "id": 4844863380,
      "lat": 13.0140839,
      "lon": 77.6406622,
      "tags": {
        "name": "Kamakshi",
        "name:en": "Kamakshi",
        "name:kn": "ಕಾಮಾಕ್ಷಿ",
        "shop": "clothes"
      }
    },
    {
      "type": "node",
      "id": 4844863382,
      "lat": 13.0143953,
      "lon": 77.6363195,
      "tags": {
        "name": "Vivo",
        "name:en": "Vivo",
        "shop": "mobile_phone"
      }
    },
    {
      "type": "node",
      "id": 4844863383,
      "lat": 13.0143717,
      "lon": 77.6363708,
      "tags": {
        "shop": "optician"
      }
    },
    {
      "type": "node",
      "id": 4844863384,
      "lat": 13.015025,
      "lon": 77.6358463,
      "tags": {
        "amenity": "restaurant",
        "name": "Nandana Palace",
        "name:en": "Nandana Palace"
      }
    },
    {
      "type": "node",
      "id": 4844865054,
      "lat": 13.0140126,
      "lon": 77.6395774,
      "tags": {
        "name": "Ty engar",
        "name:en": "Ty engar",
        "shop": "bakery"
      }
    },
    {
      "type": "node",
      "id": 4844865056,
      "lat": 13.0142154,
      "lon": 77.6363852,
      "tags": {
        "amenity": "restaurant",
        "name": "Kairali",
        "name:en": "Kairali",
        "name:kn": "ಕೈರಲಿ"
      }
    },
    {
      "type": "node",
      "id": 4844865057,
      "lat": 13.014746,
      "lon": 77.6357881,
      "tags": {
        "amenity": "hospital",
        "name": "Doctor's diagnostics Centre",
        "name:en": "Doctor's diagnostics Centre"
      }
    },
    {
      "type": "node",
      "id": 4844867425,
      "lat": 13.0139843,
      "lon": 77.642086,
      "tags": {
        "name": "Regal furniture",
        "name:en": "Regal furniture",
        "shop": "furniture"
      }
    },
    {
      "type": "node",
      "id": 4844867426,
      "lat": 13.0141702,
      "lon": 77.6362532,
      "tags": {
        "name": "IPhone Final desicion",
        "name:en": "IPhone Final desicion",
        "shop": "mobile_phone"
      }
    },
    {
      "type": "node",
      "id": 4881272874,
      "lat": 13.0208689,
      "lon": 77.6425433,
      "tags": {
        "amenity": "community_centre",
        "name": "All Peoples Church & World Outreach"
      }
    },
    {
      "type": "node",
      "id": 4905066223,
      "lat": 13.022258,
      "lon": 77.6433948,
      "tags": {
        "amenity": "bank",
        "brand": "State Bank of India",
        "brand:wikidata": "Q1340361",
        "name": "State Bank of India",
        "name:en": "SBI RACPC",
        "short_name": "SBI"
      }
    },
    {
      "type": "node",
      "id": 5292780512,
      "lat": 13.0232316,
      "lon": 77.6370445,
      "tags": {
        "name": "GRT Jewellers",
        "shop": "jewelry"
      }
    },
    {
      "type": "node",
      "id": 5292780513,
      "lat": 13.0233511,
      "lon": 77.637035,
      "tags": {
        "amenity": "bank",
        "atm": "yes",
        "brand": "Dhanlaxmi Bank",
        "brand:wikidata": "Q2040440",
        "name": "Dhanlaxmi Bank",
        "name:kn": "ಧನಲಕ್ಷ್ಮಿ ಬ್ಯಾಂಕ್"
      }
    },
    {
      "type": "node",
      "id": 5292780514,
      "lat": 13.023331,
      "lon": 77.6370384,
      "tags": {
        "amenity": "restaurant",
        "name": "Hyderabad Biryaani House"
      }
    },
    {
      "type": "node",
      "id": 5292780515,
      "lat": 13.0234803,
      "lon": 77.6370308,
      "tags": {
        "brand": "Allen Solly",
        "brand:wikidata": "Q110036995",
        "name": "Allen Solly",
        "name:kn": "ಅಲೆನ್ ಸೊಲಿ",
        "shop": "clothes"
      }
    },
    {
      "type": "node",
      "id": 5292780516,
      "lat": 13.0236396,
      "lon": 77.6370323,
      "tags": {
        "name": "Angrez",
        "shop": "clothes"
      }
    },
    {
      "type": "node",
      "id": 5292780518,
      "lat": 13.0237861,
      "lon": 77.6373078,
      "tags": {
        "amenity": "dentist",
        "healthcare": "dentist",
        "name": "Oral Care"
      }
    },
    {
      "type": "node",
      "id": 5292780519,
      "lat": 13.0238651,
      "lon": 77.6370524,
      "tags": {
        "name": "Reliance footprints",
        "shop": "shoes"
      }
    },
    {
      "type": "node",
      "id": 5292780520,
      "lat": 13.0240502,
      "lon": 77.6373045,
      "tags": {
        "name": "Titan",
        "shop": "watches"
      }
    },
    {
      "type": "node",
      "id": 5292782621,
      "lat": 13.0249618,
      "lon": 77.6369885,
      "tags": {
        "name": "Unlimited",
        "shop": "clothes"
      }
    },
    {
      "type": "node",
      "id": 5292782622,
      "lat": 13.0252646,
      "lon": 77.6369384,
      "tags": {
        "brand": "Bata",
        "brand:wikidata": "Q688082",
        "name": "Bata",
        "name:kn": "ಬಾಟಾ",
        "shop": "shoes"
      }
    },
    {
      "type": "node",
      "id": 5292782623,
      "lat": 13.0254074,
      "lon": 77.6369322,
      "tags": {
        "name": "Arrow",
        "name:kn": "ಅರ್ರೊ",
        "shop": "clothes"
      }
    },
    {
      "type": "node",
      "id": 5402224049,
      "lat": 13.0224439,
      "lon": 77.6466269,
      "tags": {
        "name": "PAI Furniture",
        "shop": "furniture"
      }
    },
    {
      "type": "node",
      "id": 5402307948,
      "lat": 13.0256698,
      "lon": 77.6413199,
      "tags": {
        "amenity": "place_of_worship",
        "religion": "hindu"
      }
    },
    {
      "type": "node",
      "id": 5486846121,
      "lat": 13.0224106,
      "lon": 77.6397927,
      "tags": {
        "addr:postcode": "560043",
        "addr:street": "5th Main Road",
        "amenity": "restaurant",
        "check_date": "2025-03-31",
        "cuisine": "burger;breakfast",
        "name": "Truffles",
        "name:en": "Truffles",
        "name:hi": "टृफ्फलस"
      }
    },
    {
      "type": "node",
      "id": 5964486003,
      "lat": 13.0182255,
      "lon": 77.6430175,
      "tags": {
        "amenity": "bank",
        "atm": "yes",
        "brand": "Kotak Mahindra Bank",
        "brand:wikidata": "Q2040404",
        "name": "Kotak Mahindra Bank"
      }
    },
    {
      "type": "node",
      "id": 5964486004,
      "lat": 13.0184085,
      "lon": 77.642996,
      "tags": {
        "name": "Hettich",
        "shop": "hardware"
      }
    },
    {
      "type": "node",
      "id": 5964486005,
      "lat": 13.0182739,
      "lon": 77.643275,
      "tags": {
        "amenity": "restaurant",
        "name": "The Chef's Story",
        "note": "name may be slightly off"
      }
    },
    {
      "type": "node",
      "id": 5964486006,
      "lat": 13.0181628,
      "lon": 77.6432669,
      "tags": {
        "brand": "Nilgiri's",
        "brand:wikidata": "Q17079567",
        "name": "Nilgiri's",
        "shop": "supermarket"
      }
    },
    {
      "type": "node",
      "id": 5964486007,
      "lat": 13.0240792,
      "lon": 77.6370348,
      "tags": {
        "amenity": "restaurant",
        "cuisine": "barbecue",
        "name": "Churrascaria Brazil"
      }
    },
    {
      "type": "node",
      "id": 6938949273,
      "lat": 13.0186045,
      "lon": 77.6479433,
      "tags": {
        "addr:district": "Bengaluru Urban",
        "addr:full": "No. 3Ac 902, 3Road A Cross, 1st Block,9Th A Main, Kalyannagar",
        "addr:postcode": "560043",
        "addr:state": "Karnataka",
        "amenity": "hospital",
        "name": "Lokhande S Hospital",
        "source": "OpenGovernmentData"
      }
    },
    {
      "type": "node",
      "id": 6939069014,
      "lat": 13.0144467,
      "lon": 77.6427305,
      "tags": {
        "addr:district": "Bengaluru Urban",
        "addr:full": "# 924, 80 Feet Road, Kalyan Nagar, Next To Adigas Hotel",
        "addr:postcode": "560033",
        "addr:state": "Karnataka",
        "amenity": "clinic",
        "name": "Pratham Ent and Child Care Centre",
        "source": "OpenGovernmentData"
      }
    },
    {
      "type": "node",
      "id": 6939221867,
      "lat": 13.0195531,
      "lon": 77.6443814,
      "tags": {
        "addr:district": "Bengaluru Urban",
        "addr:full": "346, Hrbr 1st Kalyan Nagar 4Th Cross 7Th B Main H R B R Layout",
        "addr:postcode": "560043",
        "addr:state": "Karnataka",
        "amenity": "clinic",
        "name": "Amrik Nethralaya",
        "source": "OpenGovernmentData"
      }
    },
    {
      "type": "node",
      "id": 6944095845,
      "lat": 13.0241341,
      "lon": 77.6335546,
      "tags": {
        "addr:district": "Bengaluru Urban",
        "addr:full": "#205-4c, 4th Cross, 3 Road Block",
        "addr:postcode": "560043",
        "addr:state": "Karnataka",
        "addr:subdistrict": "Banaswadi",
        "amenity": "hospital",
        "name": "Vasan Eye Care Hospital, Banaswadi",
        "operator:type": "private",
        "source": "OpenGovernmentData",
        "website": "http://www.vasaneye.in/"
      }
    },
    {
      "type": "node",
      "id": 6944392376,
      "lat": 13.0221036,
      "lon": 77.6387729,
      "tags": {
        "addr:district": "Bengaluru Urban",
        "addr:full": "#4 Ac-426,4Thcross,2nd Block, Oop.Kalyana Nagar,Telephone Exchange",
        "addr:postcode": "560043",
        "addr:state": "Karnataka",
        "amenity": "hospital",
        "name": "Bangalore Eye Hospital And Retina Centre",
        "source": "OpenGovernmentData"
      }
    },
    {
      "type": "node",
      "id": 6944699915,
      "lat": 13.019851,
      "lon": 77.6339757,
      "tags": {
        "addr:district": "Bengaluru Urban",
        "addr:full": "Kammanahalli",
        "addr:postcode": "560084",
        "addr:state": "Karnataka",
        "amenity": "clinic",
        "name": "J.H.Poly Clinic",
        "source": "OpenGovernmentData"
      }
    },
    {
      "type": "node",
      "id": 6947526185,
      "lat": 13.0139391,
      "lon": 77.6388192,
      "tags": {
        "addr:housenumber": "2nd floor",
        "addr:street": "Nehru Road",
        "amenity": "bureau_de_change",
        "name": "Currency Exchange",
        "opening_hours": "Mo-Su 09:00-18:00"
      }
    },
    {
      "type": "node",
      "id": 6947540185,
      "lat": 13.0207335,
      "lon": 77.636475,
      "tags": {
        "addr:housenumber": "141",
        "addr:postcode": "560084",
        "addr:street": "3rd Cross Road",
        "amenity": "community_centre",
        "name": "ಟ್ರಿನಿಟಿ ಪಾರ್ಟಿ ಹಾಲ್",
        "name:en": "Trinity Party Hall",
        "name:hi": "Trinity Party Hall",
        "phone": "+919535491991"
      }
    },
    {
      "type": "node",
      "id": 6947678585,
      "lat": 13.0149675,
      "lon": 77.6354957,
      "tags": {
        "addr:district": "Bengaluru Urban",
        "addr:full": "No.1, 1 Cross Rananurthy Road",
        "addr:postcode": "560084",
        "addr:state": "Karnataka",
        "amenity": "hospital",
        "email": "info@zionhospitals.com",
        "name": "Zion Hospital And Research Centre Pvt.Ltd.",
        "operator:type": "private",
        "source": "OpenGovernmentData",
        "website": "http://zionhospitals.com/"
      }
    },
    {
      "type": "node",
      "id": 6951469585,
      "lat": 13.0169825,
      "lon": 77.6361692,
      "tags": {
        "addr:street": "Kammanahalli Main Road",
        "amenity": "bureau_de_change",
        "name": "Currency Exchange"
      }
    },
    {
      "type": "node",
      "id": 6956584485,
      "lat": 13.021546,
      "lon": 77.6372002,
      "tags": {
        "amenity": "bureau_de_change",
        "name": "Currency Exchange, Western Union"
      }
    },
    {
      "type": "node",
      "id": 6956587093,
      "lat": 13.0196087,
      "lon": 77.6369532,
      "tags": {
        "name": "Feet Fair",
        "note": "“Feet Fair” Shoe Store",
        "shop": "shoes"
      }
    },
    {
      "type": "node",
      "id": 6956587094,
      "lat": 13.0194926,
      "lon": 77.6369287,
      "tags": {
        "amenity": "restaurant",
        "name": "Thalassery",
        "note": "“Thalassery” Restaurant"
      }
    },
    {
      "type": "node",
      "id": 6956587195,
      "lat": 13.0213499,
      "lon": 77.6371042,
      "tags": {
        "amenity": "dentist",
        "name": "Care Dental Clinic",
        "note": "“Care” Dental Clinic"
      }
    },
    {
      "type": "node",
      "id": 6956588689,
      "lat": 13.0189238,
      "lon": 77.6367836,
      "tags": {
        "amenity": "restaurant",
        "name": "Moriz",
        "note": "“Moriz” Restaurant"
      }
    },
    {
      "type": "node",
      "id": 6956595085,
      "lat": 13.0204419,
      "lon": 77.6367354,
      "tags": {
        "name": "7 Days",
        "note": "“7 Days” Supermarket",
        "shop": "supermarket"
      }
    },
    {
      "type": "node",
      "id": 6960201789,
      "lat": 13.0207823,
      "lon": 77.636101,
      "tags": {
        "amenity": "bureau_de_change",
        "name": "Currency Exchange, Western Union"
      }
    },
    {
      "type": "node",
      "id": 7164731974,
      "lat": 13.0228,
      "lon": 77.6398442,
      "tags": {
        "amenity": "restaurant",
        "cuisine": "arabic",
        "name": "Maraheb Restaurant - Mandi & Madfoon"
      }
    },
    {
      "type": "node",
      "id": 7164771196,
      "lat": 13.0239905,
      "lon": 77.6430942,
      "tags": {
        "amenity": "restaurant",
        "cuisine": "indian;arab",
        "name": "Imperio"
      }
    },
    {
      "type": "node",
      "id": 7206004834,
      "lat": 13.024534,
      "lon": 77.6418448,
      "tags": {
        "amenity": "restaurant",
        "cuisine": "regional",
        "name": "Royal Andhra Spice"
      }
    },
    {
      "type": "node",
      "id": 7206004835,
      "lat": 13.0238518,
      "lon": 77.6431395,
      "tags": {
        "amenity": "restaurant",
        "check_date": "2024-02-14",
        "diet:vegetarian": "yes",
        "name": "White Garden"
      }
    },
    {
      "type": "node",
      "id": 7206004836,
      "lat": 13.0228092,
      "lon": 77.643102,
      "tags": {
        "addr:city": "Bangalore",
        "addr:country": "IN",
        "addr:hamlet": "HRBR Layout",
        "addr:housenumber": "415",
        "addr:postcode": "560043",
        "addr:street": "7th Main Road",
        "addr:suburb": "Kalyan Nagar",
        "name": "O2 Spa",
        "shop": "massage",
        "website": "https://www.o2spa.org/"
      }
    },
    {
      "type": "node",
      "id": 7206004849,
      "lat": 13.0225688,
      "lon": 77.6435164,
      "tags": {
        "addr:city": "Bangalore",
        "addr:country": "IN",
        "addr:hamlet": "HRBR Layout",
        "addr:postcode": "560043",
        "addr:street": "7th Main Road",
        "addr:suburb": "Kalyan Nagar",
        "amenity": "pub",
        "indoor_seating": "yes",
        "name": "Float Brewery",
        "outdoor_seating": "no"
      }
    },
    {
      "type": "node",
      "id": 7206004851,
      "lat": 13.020503,
      "lon": 77.6431489,
      "tags": {
        "name": "Royal Canin",
        "shop": "pet_grooming"
      }
    },
    {
      "type": "node",
      "id": 7206004852,
      "lat": 13.0203776,
      "lon": 77.6433782,
      "tags": {
        "amenity": "pharmacy",
        "name": "The Family Pharma"
      }
    },
    {
      "type": "node",
      "id": 7206004853,
      "lat": 13.0202861,
      "lon": 77.6433822,
      "tags": {
        "name": "Lawrence and Mayo",
        "shop": "optician"
      }
    },
    {
      "type": "node",
      "id": 7206016086,
      "lat": 13.0200444,
      "lon": 77.6434466,
      "tags": {
        "addr:city": "Bengaluru",
        "addr:country": "IN",
        "addr:hamlet": "HRBR Layout",
        "addr:postcode": "560043",
        "addr:street": "7th Main Road",
        "addr:suburb": "Kalyan Nagar",
        "amenity": "restaurant",
        "cuisine": "arab;regional",
        "microbrewery": "no",
        "name": "Aramana",
        "outdoor_seating": "no",
        "takeaway": "yes"
      }
    },
    {
      "type": "node",
      "id": 7206016087,
      "lat": 13.0194133,
      "lon": 77.6434118,
      "tags": {
        "brand": "Bata",
        "brand:wikidata": "Q688082",
        "name": "Bata",
        "shop": "shoes",
        "wheelchair": "no"
      }
    },
    {
      "type": "node",
      "id": 7206360782,
      "lat": 13.0258627,
      "lon": 77.6376128,
      "tags": {
        "name": "FBB",
        "shop": "clothes",
        "website": "https://www.fbbindia.in"
      }
    },
    {
      "type": "node",
      "id": 7577248189,
      "lat": 13.0210072,
      "lon": 77.6434284,
      "tags": {
        "addr:district": "Bengaluru Urban",
        "addr:full": "Hennur, Banaswadi, Bengaluru",
        "addr:postcode": "560043",
        "addr:state": "Karnataka",
        "amenity": "clinic",
        "name": "Oliva Skin and Hair Clinic",
        "source": "Local Knowledge"
      }
    },
    {
      "type": "node",
      "id": 7577248199,
      "lat": 13.0195123,
      "lon": 77.6475205,
      "tags": {
        "addr:district": "Bengaluru Urban",
        "addr:full": "Kalyan Nagar, Bengaluru",
        "addr:postcode": "560043",
        "addr:state": "Karnataka",
        "amenity": "clinic",
        "name": "Twinkle Kids Child Care Speciality Clinic",
        "source": "Local Knowledge"
      }
    },
    {
      "type": "node",
      "id": 7577248210,
      "lat": 13.017856,
      "lon": 77.646249,
      "tags": {
        "addr:district": "Bengaluru Urban",
        "addr:full": "HRBR Layout, Banaswadi, Bengaluru",
        "addr:postcode": "560043",
        "addr:state": "Karnataka",
        "amenity": "clinic",
        "name": "Vivekananda Health Global - Ayurveda, Naturopathy & Yoga",
        "source": "Local Knowledge"
      }
    },
    {
      "type": "node",
      "id": 7577248222,
      "lat": 13.0161535,
      "lon": 77.6428067,
      "tags": {
        "addr:district": "Bengaluru Urban",
        "addr:full": "Kalyan Nagar, Bengaluru",
        "addr:postcode": "560043",
        "addr:state": "Karnataka",
        "amenity": "clinic",
        "name": "Dr. Dinakar's Child Care",
        "source": "Local Knowledge"
      }
    },
    {
      "type": "node",
      "id": 7577248233,
      "lat": 13.0242614,
      "lon": 77.6331389,
      "tags": {
        "addr:district": "Bengaluru Urban",
        "addr:full": "HRBR Layout, Subbaiyapalya, Banaswadi, Bengaluru",
        "addr:postcode": "560043",
        "addr:state": "Karnataka",
        "amenity": "clinic",
        "name": "Vasan Eye Care",
        "source": "Local Knowledge"
      }
    },
    {
      "type": "node",
      "id": 7577248234,
      "lat": 13.0225994,
      "lon": 77.6398654,
      "tags": {
        "addr:district": "Bengaluru Urban",
        "addr:full": "HRBR Layout, Kalyan Nagar, Bengaluru",
        "addr:postcode": "560043",
        "addr:state": "Karnataka",
        "amenity": "clinic",
        "name": "Trinity Gastroenterology & Diagnostics",
        "source": "Local Knowledge"
      }
    },
    {
      "type": "node",
      "id": 7577248245,
      "lat": 13.0204243,
      "lon": 77.6439492,
      "tags": {
        "addr:district": "Bengaluru Urban",
        "addr:full": "HRBR Layout, Kalyan Nagar, Bengaluru",
        "addr:postcode": "560043",
        "addr:state": "Karnataka",
        "amenity": "dentist",
        "name": "Allure Dental and Facial Aesthetics Clinic",
        "source": "Local Knowledge"
      }
    },
    {
      "type": "node",
      "id": 7577248253,
      "lat": 13.023088,
      "lon": 77.637015,
      "tags": {
        "addr:district": "Bengaluru Urban",
        "addr:full": "Kalyan Nagar, Bengaluru",
        "addr:postcode": "560043",
        "addr:state": "Karnataka",
        "amenity": "clinic",
        "name": "Contura Clinic",
        "source": "Local Knowledge"
      }
    },
    {
      "type": "node",
      "id": 7577248256,
      "lat": 13.0244866,
      "lon": 77.6396472,
      "tags": {
        "addr:district": "Bengaluru Urban",
        "addr:full": "HRBR Layout, Kalyan Nagar, Bengaluru",
        "addr:postcode": "560043",
        "addr:state": "Karnataka",
        "amenity": "clinic",
        "name": "Dr. Harsha's physiotherapy Clinic",
        "source": "Local Knowledge"
      }
    },
    {
      "type": "node",
      "id": 7577248257,
      "lat": 13.0227961,
      "lon": 77.6425472,
      "tags": {
        "addr:district": "Bengaluru Urban",
        "addr:full": "HRBR Layout, Kalyan Nagar, Bengaluru",
        "addr:postcode": "560043",
        "addr:state": "Karnataka",
        "amenity": "clinic",
        "name": "Kalyan Eye Clinic",
        "source": "Local Knowledge"
      }
    },
    {
      "type": "node",
      "id": 7577248261,
      "lat": 13.020847,
      "lon": 77.643086,
      "tags": {
        "addr:district": "Bengaluru Urban",
        "addr:full": "HRBR Layout, Kalyan Nagar, Bengaluru",
        "addr:postcode": "560043",
        "addr:state": "Karnataka",
        "amenity": "clinic",
        "healthcare": "clinic",
        "name": "Tranquil Healthcare",
        "source": "Local Knowledge"
      }
    },
    {
      "type": "node",
      "id": 7577248266,
      "lat": 13.0188119,
      "lon": 77.647187,
      "tags": {
        "addr:district": "Bengaluru Urban",
        "addr:full": "HRBR Layout, Banaswadi, Bengaluru",
        "addr:postcode": "560043",
        "addr:state": "Karnataka",
        "amenity": "hospital",
        "check_date": "2024-08-17",
        "name": "Anjani Women's Day Care Hospital",
        "source": "Local Knowledge"
      }
    },
    {
      "type": "node",
      "id": 7577248267,
      "lat": 13.0239222,
      "lon": 77.6333307,
      "tags": {
        "addr:district": "Bengaluru Urban",
        "addr:full": "Kalyan Nagar, Bengaluru",
        "addr:postcode": "560043",
        "addr:state": "Karnataka",
        "amenity": "clinic",
        "name": "Bangalore Spine Specialist Clinic",
        "source": "Local Knowledge"
      }
    },
    {
      "type": "node",
      "id": 7577248282,
      "lat": 13.0242926,
      "lon": 77.634427,
      "tags": {
        "addr:district": "Bengaluru Urban",
        "addr:full": "Kalyan Nagar, Bengaluru",
        "addr:postcode": "560043",
        "addr:state": "Karnataka",
        "amenity": "clinic",
        "name": "Synovium Physiotherapy Clinic",
        "source": "Local Knowledge"
      }
    },
    {
      "type": "node",
      "id": 7577248284,
      "lat": 13.0241668,
      "lon": 77.6369165,
      "tags": {
        "addr:district": "Bengaluru Urban",
        "addr:full": "HRBR Layout, Kalyan Nagar, Bengaluru",
        "addr:postcode": "560043",
        "addr:state": "Karnataka",
        "amenity": "clinic",
        "name": "Cloudnine Fertility",
        "source": "Local Knowledge"
      }
    },
    {
      "type": "node",
      "id": 7577248285,
      "lat": 13.0227998,
      "lon": 77.6374429,
      "tags": {
        "addr:district": "Bengaluru Urban",
        "addr:full": "Kammanahalli, Bengaluru",
        "addr:postcode": "560043",
        "addr:state": "Karnataka",
        "amenity": "clinic",
        "name": "V Care Best Fertility IVF URO Kidney Centre",
        "source": "Local Knowledge"
      }
    },
    {
      "type": "node",
      "id": 7658290170,
      "lat": 13.019263,
      "lon": 77.6427036,
      "tags": {
        "addr:city": "Bengaluru",
        "addr:country": "IN",
        "addr:housenumber": "234",
        "addr:postcode": "560043",
        "addr:street": "6th A Main",
        "addr:suburb": "Kalyan Nagar",
        "email": "care.freshmills@gmail.com",
        "name": "Freshmills",
        "opening_hours": "Mo-Su 9:00-21:00",
        "phone": "+91 97390 59502",
        "shop": "convenience",
        "website": "https://freshmills.in"
      }
    },
    {
      "type": "node",
      "id": 8627296822,
      "lat": 13.0188427,
      "lon": 77.636598,
      "tags": {
        "amenity": "restaurant",
        "cuisine": "kebab",
        "diet:meat": "yes",
        "name": "Raidan Restaurant"
      }
    },
    {
      "type": "node",
      "id": 8627305175,
      "lat": 13.0188904,
      "lon": 77.636681,
      "tags": {
        "name": "Kwality",
        "shop": "supermarket"
      }
    },
    {
      "type": "node",
      "id": 9527967719,
      "lat": 13.0232822,
      "lon": 77.6396339,
      "tags": {
        "amenity": "restaurant",
        "cuisine": "regional",
        "name": "Sharief Bhai"
      }
    },
    {
      "type": "node",
      "id": 10302703781,
      "lat": 13.0216515,
      "lon": 77.6416723,
      "tags": {
        "amenity": "fast_food",
        "brand": "Popeyes",
        "brand:wikidata": "Q1330910",
        "brand:wikipedia": "en:Popeyes",
        "cuisine": "chicken",
        "delivery": "yes",
        "name": "Popeyes",
        "official_name": "Popeyes Louisiana Kitchen",
        "takeaway": "yes",
        "website": "https://www.popeyes.in/",
        "wikipedia": "en:Popeyes Louisiana Kitchen"
      }
    },
    {
      "type": "node",
      "id": 10303904024,
      "lat": 13.0249984,
      "lon": 77.6407176,
      "tags": {
        "amenity": "bank",
        "atm": "yes",
        "brand": "IDFC First Bank",
        "brand:wikidata": "Q22031467",
        "check_date": "2023-01-04",
        "name": "IDFC First Bank",
        "source": "survey"
      }
    },
    {
      "type": "node",
      "id": 10558850380,
      "lat": 13.0163701,
      "lon": 77.6473761,
      "tags": {
        "name": "K-Food Antenna Shop",
        "note": "Korean store",
        "shop": "supermarket"
      }
    },
    {
      "type": "node",
      "id": 10571097431,
      "lat": 13.0253198,
      "lon": 77.6375964,
      "tags": {
        "addr:city": "Bengaluru",
        "addr:housenumber": "5C, 402/C",
        "addr:postcode": "560043",
        "addr:street": "HRBR Layout 2nd Block, Kalyan Nagar",
        "name": "Rynox Showroom HRBR Layout",
        "opening_hours": "Mo-Su 11:00-20:00",
        "phone": "09742944234",
        "shop": "motorcycle"
      }
    },
    {
      "type": "node",
      "id": 10687892756,
      "lat": 13.0305597,
      "lon": 77.6391018,
      "tags": {
        "name": "Kwality Super Bazar",
        "shop": "convenience"
      }
    },
    {
      "type": "node",
      "id": 10696981908,
      "lat": 13.0177551,
      "lon": 77.6429169,
      "tags": {
        "addr:city": "Bangalore",
        "addr:country": "IN",
        "addr:postcode": "560043",
        "addr:street": "7th Main Road",
        "addr:suburb": "Kalyan Nagar",
        "amenity": "restaurant",
        "check_date": "2024-02-04",
        "contact:instagram": "https://www.instagram.com/thefiltercoffee.in",
        "cuisine": "regional",
        "delivery": "yes",
        "diet:vegetarian": "yes",
        "name": "The Filter Coffee",
        "takeaway": "yes"
      }
    },
    {
      "type": "node",
      "id": 10731175098,
      "lat": 13.0253034,
      "lon": 77.6398209,
      "tags": {
        "name": "Splashy Fin",
        "shop": "pet"
      }
    },
    {
      "type": "node",
      "id": 10731175104,
      "lat": 13.0249501,
      "lon": 77.6400286,
      "tags": {
        "amenity": "fast_food",
        "cuisine": "pizza",
        "name": "Pizzaa Chef"
      }
    },
    {
      "type": "node",
      "id": 10731175586,
      "lat": 13.0221327,
      "lon": 77.6472405,
      "tags": {
        "amenity": "restaurant",
        "name": "Megdooth Biryanis"
      }
    },
    {
      "type": "node",
      "id": 10731175591,
      "lat": 13.0219409,
      "lon": 77.6477666,
      "tags": {
        "amenity": "cafe",
        "name": "Nimma Local"
      }
    },
    {
      "type": "node",
      "id": 10731175592,
      "lat": 13.0225233,
      "lon": 77.6464809,
      "tags": {
        "name": "Pepperfry Studio",
        "shop": "furniture"
      }
    },
    {
      "type": "node",
      "id": 10731175593,
      "lat": 13.0228495,
      "lon": 77.6457323,
      "tags": {
        "amenity": "bank",
        "brand": "Indian Bank",
        "brand:wikidata": "Q2003789",
        "name": "Indian Bank",
        "name:kn": "ಇಂಡಿಯನ್ ಬ್ಯಾಂಕ್"
      }
    },
    {
      "type": "node",
      "id": 10731175602,
      "lat": 13.023138,
      "lon": 77.6449561,
      "tags": {
        "brand": "Kia",
        "brand:wikidata": "Q35349",
        "name": "Tapasee Kia",
        "shop": "car"
      }
    },
    {
      "type": "node",
      "id": 10731175603,
      "lat": 13.0234488,
      "lon": 77.6442434,
      "tags": {
        "amenity": "bar",
        "name": "House of Commons"
      }
    },
    {
      "type": "node",
      "id": 10731190951,
      "lat": 13.0241762,
      "lon": 77.6397077,
      "tags": {
        "amenity": "restaurant",
        "name": "Kailash Parabat"
      }
    },
    {
      "type": "node",
      "id": 10731190952,
      "lat": 13.0239384,
      "lon": 77.6399604,
      "tags": {
        "amenity": "restaurant",
        "name": "Food Heaven"
      }
    },
    {
      "type": "node",
      "id": 10731190994,
      "lat": 13.0223543,
      "lon": 77.6395327,
      "tags": {
        "name": "Karachi Bakery",
        "shop": "bakery"
      }
    },
    {
      "type": "node",
      "id": 10731190995,
      "lat": 13.0222216,
      "lon": 77.6394955,
      "tags": {
        "amenity": "ice_cream",
        "brand": "Naturals",
        "brand:wikidata": "Q24439154",
        "cuisine": "ice_cream",
        "name": "Naturals"
      }
    },
    {
      "type": "node",
      "id": 10731190996,
      "lat": 13.0221636,
      "lon": 77.6395019,
      "tags": {
        "name": "Lenzkare",
        "shop": "optician"
      }
    },
    {
      "type": "node",
      "id": 10731190997,
      "lat": 13.0218548,
      "lon": 77.6396997,
      "tags": {
        "amenity": "cafe",
        "brand": "Chaayos",
        "brand:wikidata": "Q117235235",
        "cuisine": "tea",
        "name": "Chaayos",
        "takeaway": "yes"
      }
    },
    {
      "type": "node",
      "id": 10731190998,
      "lat": 13.0218029,
      "lon": 77.639821,
      "tags": {
        "amenity": "cafe",
        "cuisine": "coffee_shop",
        "name": "Third Wave Coffee"
      }
    },
    {
      "type": "node",
      "id": 10731191003,
      "lat": 13.0229947,
      "lon": 77.639568,
      "tags": {
        "amenity": "pub",
        "name": "Sherlocks"
      }
    },
    {
      "type": "node",
      "id": 10731191004,
      "lat": 13.0230512,
      "lon": 77.6394769,
      "tags": {
        "amenity": "restaurant",
        "cuisine": "pizza",
        "name": "The Pizza Bakery"
      }
    },
    {
      "type": "node",
      "id": 10731191005,
      "lat": 13.0229883,
      "lon": 77.6394968,
      "tags": {
        "amenity": "restaurant",
        "name": "Bamboos"
      }
    },
    {
      "type": "node",
      "id": 10731191010,
      "lat": 13.0228447,
      "lon": 77.6393593,
      "tags": {
        "amenity": "cafe",
        "name": "The Coffee Room"
      }
    },
    {
      "type": "node",
      "id": 10770523198,
      "lat": 13.0227055,
      "lon": 77.6435679,
      "tags": {
        "amenity": "cafe",
        "delivery": "yes",
        "name": "Glen's Bakehouse",
        "takeaway": "yes"
      }
    },
    {
      "type": "node",
      "id": 10892555782,
      "lat": 13.0241171,
      "lon": 77.6332609,
      "tags": {
        "name": "yamaha music square",
        "shop": "musical_instrument"
      }
    },
    {
      "type": "node",
      "id": 10892603777,
      "lat": 13.024185,
      "lon": 77.6334554,
      "tags": {
        "amenity": "fast_food",
        "name": "SLV Food Joint"
      }
    },
    {
      "type": "node",
      "id": 11117270550,
      "lat": 13.0223754,
      "lon": 77.643519,
      "tags": {
        "amenity": "cafe",
        "name": "Glen's Bakehouse",
        "shop": "bakery"
      }
    },
    {
      "type": "node",
      "id": 11219406681,
      "lat": 13.0206355,
      "lon": 77.6436073,
      "tags": {
        "amenity": "atm",
        "check_date": "2023-09-26",
        "name": "Canara Bank"
      }
    },
    {
      "type": "node",
      "id": 11219451413,
      "lat": 13.014037,
      "lon": 77.6423838,
      "tags": {
        "amenity": "restaurant",
        "check_date": "2023-09-26",
        "name": "Bandipura Donne Biriyaani"
      }
    },
    {
      "type": "node",
      "id": 11219451414,
      "lat": 13.0139282,
      "lon": 77.6423538,
      "tags": {
        "amenity": "clinic",
        "check_date": "2023-09-26",
        "healthcare": "clinic",
        "name": "Smile 365 Dental Clinic",
        "name:kn": "ಸ್ಮೈಲ್ ೩೬೫ ದಂತ ಚಿಕಿತ್ಸಾಲಯ"
      }
    },
    {
      "type": "node",
      "id": 11219451415,
      "lat": 13.0139139,
      "lon": 77.6423634,
      "tags": {
        "check_date": "2023-09-26",
        "name": "Apollo Pharmacy",
        "name:kn": "ಅಪೊಲೊ ಫಾರ್ಮ್‌ಸಿ",
        "payment:mastercard": "yes",
        "payment:visa": "yes",
        "shop": "chemist"
      }
    },
    {
      "type": "node",
      "id": 11348674809,
      "lat": 13.025011,
      "lon": 77.640714,
      "tags": {
        "amenity": "atm",
        "name": "IDFC bank ATM"
      }
    },
    {
      "type": "node",
      "id": 11622375962,
      "lat": 13.0268329,
      "lon": 77.6369701,
      "tags": {
        "amenity": "cafe",
        "brand": "Cafe Coffee Day",
        "brand:wikidata": "Q5017235",
        "check_date": "2024-02-14",
        "cuisine": "coffee_shop",
        "name": "Cafe Coffee Day",
        "name:kn": "ಕಫೆ ಕಾಫಿ ಡೇ",
        "takeaway": "yes"
      }
    },
    {
      "type": "node",
      "id": 11653355869,
      "lat": 13.02084,
      "lon": 77.63612,
      "tags": {
        "amenity": "atm"
      }
    },
    {
      "type": "node",
      "id": 11933111681,
      "lat": 13.023413,
      "lon": 77.6471477,
      "tags": {
        "name": "Pazhampori cafe",
        "phone": "+919845978209",
        "shop": "tea",
        "website": "http://pazhamporicafe.com"
      }
    },
    {
      "type": "node",
      "id": 11962917596,
      "lat": 13.0208962,
      "lon": 77.633496,
      "tags": {
        "addr:city": "Bangalore",
        "addr:district": "Bengaluru Urban",
        "name": "Delhi Garage Performance Racing",
        "operator": "Salman Khan",
        "phone": "+91-9901188786",
        "shop": "motorcycle_repair"
      }
    },
    {
      "type": "node",
      "id": 12046492132,
      "lat": 13.0228712,
      "lon": 77.6456831,
      "tags": {
        "amenity": "atm",
        "brand": "Indian Bank",
        "brand:wikidata": "Q2003789",
        "cash_in": "no",
        "check_date": "2024-07-10",
        "opening_hours": "24/7",
        "operator": "Indian Bank",
        "operator:wikidata": "Q2003789",
        "source": "survey"
      }
    },
    {
      "type": "node",
      "id": 12046492133,
      "lat": 13.019548,
      "lon": 77.6435611,
      "tags": {
        "amenity": "pub",
        "check_date": "2024-07-10",
        "contact:instagram": "senditbob",
        "delivery": "yes",
        "name": "Bob's Bar",
        "takeaway": "yes",
        "toilets": "yes"
      }
    },
    {
      "type": "node",
      "id": 12046492134,
      "lat": 13.0195588,
      "lon": 77.6434529,
      "tags": {
        "addr:floor": "3",
        "brand": "Zudio",
        "brand:wikidata": "Q123375926",
        "check_date": "2024-07-10",
        "internet_access": "wlan",
        "internet_access:fee": "no",
        "level": "3",
        "name": "Zudio",
        "payment:cash": "yes",
        "payment:credit_cards": "yes",
        "payment:debit_cards": "yes",
        "shop": "clothes",
        "source": "survey"
      }
    },
    {
      "type": "node",
      "id": 12046492135,
      "lat": 13.0185474,
      "lon": 77.6433113,
      "tags": {
        "amenity": "bank",
        "brand": "HDFC Bank",
        "brand:wikidata": "Q631047",
        "check_date": "2024-07-10",
        "name": "HDFC Bank",
        "name:kn": "ಎಚ್ ಡಿ ಎಫ್ ಸಿ",
        "short_name": "HDFC"
      }
    },
    {
      "type": "node",
      "id": 12046492136,
      "lat": 13.0184898,
      "lon": 77.6433081,
      "tags": {
        "amenity": "atm",
        "brand": "HDFC Bank",
        "brand:wikidata": "Q631047",
        "check_date": "2024-07-10",
        "operator": "HDFC Bank",
        "operator:wikidata": "Q631047",
        "short_name": "HDFC"
      }
    },
    {
      "type": "node",
      "id": 12046492137,
      "lat": 13.0186892,
      "lon": 77.6430099,
      "tags": {
        "amenity": "atm",
        "brand": "AU Small Finance Bank",
        "brand:wikidata": "Q48729722",
        "check_date": "2024-07-10",
        "operator": "AU Small Finance Bank",
        "operator:wikidata": "Q48729722"
      }
    },
    {
      "type": "node",
      "id": 12046492138,
      "lat": 13.0191561,
      "lon": 77.6433478,
      "tags": {
        "amenity": "bank",
        "brand": "Union Bank of India",
        "brand:wikidata": "Q2004078",
        "check_date": "2024-07-10",
        "name": "Union Bank of India"
      }
    },
    {
      "type": "node",
      "id": 12046492139,
      "lat": 13.0191027,
      "lon": 77.6433499,
      "tags": {
        "amenity": "atm",
        "brand": "Union Bank of India",
        "brand:wikidata": "Q2004078",
        "check_date": "2024-07-10",
        "operator": "Union Bank of India",
        "operator:wikidata": "Q2004078"
      }
    },
    {
      "type": "node",
      "id": 12046492140,
      "lat": 13.019331,
      "lon": 77.6430305,
      "tags": {
        "amenity": "cafe",
        "brand": "Starbucks",
        "brand:wikidata": "Q37158",
        "check_date": "2024-07-10",
        "cuisine": "coffee_shop",
        "name": "Starbucks",
        "official_name": "Starbucks Coffee",
        "takeaway": "yes"
      }
    },
    {
      "type": "node",
      "id": 12129014446,
      "lat": 13.0247795,
      "lon": 77.639721,
      "tags": {
        "amenity": "cafe",
        "name": "Roastea",
        "takeaway": "yes",
        "toilets:access": "customers",
        "website": "https://roastea.in/"
      }
    },
    {
      "type": "node",
      "id": 12162210544,
      "lat": 13.0193779,
      "lon": 77.6430195,
      "tags": {
        "addr:floor": "3",
        "addr:housenumber": "3rd Floor, Y4 Heights Building, 6th Main Rd, above Starbucks Coffee, HRBR Layout 2nd Block, HRBR Layout, Kalyan Nagar",
        "addr:street": "7th Main Road",
        "check_date": "2024-09-07",
        "leisure": "fitness_centre",
        "level": "3",
        "name": "Dr. Pilates",
        "phone": "+91 88922 36442"
      }
    },
    {
      "type": "node",
      "id": 12294001133,
      "lat": 13.0182255,
      "lon": 77.6363763,
      "tags": {
        "amenity": "fast_food",
        "contact:instagram": "goodflippin",
        "cuisine": "burger",
        "delivery": "yes",
        "name": "Good Flippin' Burgers",
        "takeaway": "yes",
        "website": "https://goodflippin.com/"
      }
    },
    {
      "type": "node",
      "id": 12383609118,
      "lat": 13.0238135,
      "lon": 77.6396648,
      "tags": {
        "addr:housenumber": "66",
        "addr:street": "5th Main Road",
        "check_date": "2024-11-29",
        "contact:instagram": "https://www.instagram.com/bombaygourmetblr",
        "name": "Bombay Gourmet Market",
        "shop": "supermarket",
        "website": "https://bombaygourmetmarket.com"
      }
    },
    {
      "type": "node",
      "id": 12632035873,
      "lat": 13.0225479,
      "lon": 77.6375417,
      "tags": {
        "amenity": "restaurant",
        "name": "Sree Godavari Ruchulu"
      }
    },
    {
      "type": "node",
      "id": 12632074305,
      "lat": 13.0222643,
      "lon": 77.6383156,
      "tags": {
        "amenity": "cafe",
        "brand": "Chai Point",
        "brand:wikidata": "Q28173415",
        "cuisine": "coffee_shop",
        "name": "Chai Point",
        "takeaway": "yes"
      }
    },
    {
      "type": "node",
      "id": 12632074306,
      "lat": 13.022525,
      "lon": 77.6374982,
      "tags": {
        "amenity": "cafe",
        "name": "The Dome Cafe"
      }
    },
    {
      "type": "node",
      "id": 12632074307,
      "lat": 13.0223666,
      "lon": 77.6380289,
      "tags": {
        "amenity": "restaurant",
        "name": "The King of Taste"
      }
    },
    {
      "type": "node",
      "id": 12632074308,
      "lat": 13.0223907,
      "lon": 77.6379343,
      "tags": {
        "amenity": "restaurant",
        "name": "Zamindar"
      }
    },
    {
      "type": "node",
      "id": 12632074313,
      "lat": 13.0227138,
      "lon": 77.6379354,
      "tags": {
        "amenity": "cafe",
        "name": "The Rustic Roots"
      }
    },
    {
      "type": "node",
      "id": 12632074314,
      "lat": 13.0229627,
      "lon": 77.6374453,
      "tags": {
        "amenity": "fast_food",
        "brand": "Burger King",
        "brand:wikidata": "Q177054",
        "check_date": "2025-06-21",
        "cuisine": "burger",
        "name": "Burger King",
        "takeaway": "yes"
      }
    },
    {
      "type": "node",
      "id": 12632074315,
      "lat": 13.0229725,
      "lon": 77.6368725,
      "tags": {
        "amenity": "fast_food",
        "name": "Chickpet Donne Biryani House"
      }
    },
    {
      "type": "node",
      "id": 12632074324,
      "lat": 13.0188985,
      "lon": 77.6429518,
      "tags": {
        "amenity": "restaurant",
        "name": "MahanagaraM"
      }
    },
    {
      "type": "node",
      "id": 12657078748,
      "lat": 13.0194172,
      "lon": 77.6411842,
      "tags": {
        "amenity": "place_of_worship",
        "religion": "hindu"
      }
    },
    {
      "type": "node",
      "id": 12657078778,
      "lat": 13.0199144,
      "lon": 77.6397277,
      "tags": {
        "amenity": "place_of_worship",
        "religion": "hindu"
      }
    },
    {
      "type": "node",
      "id": 12657078828,
      "lat": 13.0260169,
      "lon": 77.6354154,
      "tags": {
        "brand": "Nandini",
        "brand:wikidata": "Q124374212",
        "name": "Nandini",
        "shop": "dairy"
      }
    },
    {
      "type": "node",
      "id": 12696683333,
      "lat": 13.0219716,
      "lon": 77.6399584,
      "tags": {
        "amenity": "fast_food",
        "name": "The Thai Chef Restaurant"
      }
    },
    {
      "type": "node",
      "id": 12696683334,
      "lat": 13.0223009,
      "lon": 77.6395172,
      "tags": {
        "amenity": "fast_food",
        "name": "Gopizza"
      }
    },
    {
      "type": "node",
      "id": 12696683343,
      "lat": 13.0222774,
      "lon": 77.6382465,
      "tags": {
        "brand": "Lenskart",
        "brand:wikidata": "Q17068753",
        "name": "Lenskart",
        "shop": "optician"
      }
    },
    {
      "type": "node",
      "id": 12696683344,
      "lat": 13.0222447,
      "lon": 77.638384,
      "tags": {
        "amenity": "fast_food",
        "brand": "Subway",
        "brand:wikidata": "Q244457",
        "cuisine": "sandwich",
        "name": "Subway",
        "takeaway": "yes"
      }
    },
    {
      "type": "node",
      "id": 12696683352,
      "lat": 13.0224995,
      "lon": 77.6384758,
      "tags": {
        "name": "Shoba Central",
        "shop": "supermarket"
      }
    },
    {
      "type": "node",
      "id": 12696683353,
      "lat": 13.0225165,
      "lon": 77.6383665,
      "tags": {
        "amenity": "fast_food",
        "name": "Khambu Momo's"
      }
    },
    {
      "type": "node",
      "id": 12696683354,
      "lat": 13.0226968,
      "lon": 77.6380762,
      "tags": {
        "name": "Lavie",
        "shop": "bag"
      }
    },
    {
      "type": "node",
      "id": 12696683360,
      "lat": 13.0227628,
      "lon": 77.6377691,
      "tags": {
        "name": "Max",
        "shop": "clothes"
      }
    },
    {
      "type": "node",
      "id": 12715063630,
      "lat": 13.0212414,
      "lon": 77.6415983,
      "tags": {
        "amenity": "pub",
        "check_date": "2025-03-31",
        "name": "The Local"
      }
    },
    {
      "type": "node",
      "id": 12715063631,
      "lat": 13.0215052,
      "lon": 77.640534,
      "tags": {
        "air_conditioning": "yes",
        "amenity": "restaurant",
        "bar": "yes",
        "check_date": "2025-03-31",
        "contact:instagram": "https://www.instagram.com/ilabengaluru",
        "name": "Ila Bengaluru",
        "start_date": "2025-03-30",
        "toilets": "yes"
      }
    },
    {
      "type": "node",
      "id": 12722075584,
      "lat": 13.022113,
      "lon": 77.6388793,
      "tags": {
        "addr:city": "Bangalore",
        "addr:district": "Bengaluru Urban",
        "addr:housenumber": "426",
        "addr:postcode": "560043",
        "addr:street": "CMR Main Rd, 3rd Cross, 2nd Block HRBR Layout, Kalyan nagar",
        "amenity": "clinic",
        "healthcare": "clinic",
        "name": "BOSH Physiotherapy",
        "operator": "Novosalus Technology",
        "operator:type": "private"
      }
    },
    {
      "type": "node",
      "id": 12734401875,
      "lat": 13.0247149,
      "lon": 77.6400121,
      "tags": {
        "amenity": "cafe",
        "cuisine": "coffee_shop",
        "name": "Blue Tokai"
      }
    },
    {
      "type": "node",
      "id": 12734401876,
      "lat": 13.0236402,
      "lon": 77.6396392,
      "tags": {
        "amenity": "fast_food",
        "name": "IDC Kitchen"
      }
    },
    {
      "type": "node",
      "id": 12734401877,
      "lat": 13.0235435,
      "lon": 77.6399329,
      "tags": {
        "amenity": "cafe",
        "name": "Got Tea"
      }
    },
    {
      "type": "node",
      "id": 12734401878,
      "lat": 13.022932,
      "lon": 77.6398592,
      "tags": {
        "amenity": "restaurant",
        "name": "Plan B"
      }
    },
    {
      "type": "node",
      "id": 12734401879,
      "lat": 13.0224355,
      "lon": 77.6395306,
      "tags": {
        "amenity": "restaurant",
        "name": "Koreyaki"
      }
    },
    {
      "type": "node",
      "id": 12734401880,
      "lat": 13.022493,
      "lon": 77.6398122,
      "tags": {
        "amenity": "ice_cream",
        "brand": "Polar Bear",
        "brand:wikidata": "Q124374249",
        "delivery": "yes",
        "name": "Polar Bear",
        "takeaway": "yes"
      }
    },
    {
      "type": "node",
      "id": 12774297319,
      "lat": 13.024283,
      "lon": 77.6332341,
      "tags": {
        "name": "Printo",
        "shop": "copyshop"
      }
    },
    {
      "type": "node",
      "id": 12774297320,
      "lat": 13.0236036,
      "lon": 77.6352605,
      "tags": {
        "amenity": "cafe",
        "cuisine": "coffee_shop",
        "name": "Cafe Azzure"
      }
    },
    {
      "type": "node",
      "id": 12774297321,
      "lat": 13.023827,
      "lon": 77.6362254,
      "tags": {
        "name": "The Sports Point",
        "shop": "sports"
      }
    },
    {
      "type": "node",
      "id": 12774297322,
      "lat": 13.0238741,
      "lon": 77.6362241,
      "tags": {
        "amenity": "cafe",
        "cuisine": "coffee_shop",
        "name": "Store Coffee"
      }
    },
    {
      "type": "node",
      "id": 12809397083,
      "lat": 13.0235762,
      "lon": 77.6396372,
      "tags": {
        "addr:housenumber": "9",
        "addr:street": "5th Main Road",
        "addr:suburb": "Kalyan Nagar",
        "amenity": "restaurant",
        "contact:instagram": "fervorblr",
        "name": "Fervor",
        "website": "https://fervor.in"
      }
    },
    {
      "type": "node",
      "id": 12862846435,
      "lat": 13.0182719,
      "lon": 77.6355845,
      "tags": {
        "amenity": "restaurant",
        "cuisine": "burger",
        "delivery": "yes",
        "name": "Simon Burgers",
        "takeaway": "yes"
      }
    },
    {
      "type": "node",
      "id": 12862846437,
      "lat": 13.0294122,
      "lon": 77.6355935,
      "tags": {
        "amenity": "fast_food",
        "cuisine": "burger",
        "delivery": "yes",
        "name": "Jethro's",
        "takeaway": "yes"
      }
    },
    {
      "type": "node",
      "id": 12862846441,
      "lat": 13.0216922,
      "lon": 77.6400017,
      "tags": {
        "amenity": "fast_food",
        "cuisine": "burger",
        "delivery": "yes",
        "name": "Original Burger Co.",
        "takeaway": "yes"
      }
    },
    {
      "type": "node",
      "id": 12862846456,
      "lat": 13.021995,
      "lon": 77.6399347,
      "tags": {
        "amenity": "fast_food",
        "cuisine": "burger;wings;chicken",
        "delivery": "yes",
        "name": "Big Guys: Wings & More",
        "takeaway": "yes"
      }
    },
    {
      "type": "node",
      "id": 12862846477,
      "lat": 13.0220312,
      "lon": 77.6384962,
      "tags": {
        "amenity": "fast_food",
        "contact:instagram": "goodflippin",
        "cuisine": "burger",
        "delivery": "yes",
        "name": "Good Flippin' Burgers",
        "takeaway": "yes",
        "website": "https://goodflippin.com/"
      }
    },
    {
      "type": "node",
      "id": 12927909823,
      "lat": 13.021972,
      "lon": 77.6378266,
      "tags": {
        "addr:city": "Bengaluru",
        "addr:housenumber": "11",
        "addr:postcode": "560043",
        "addr:street": "3rd A Cross Road",
        "addr:suburb": "Kalyan Nagar",
        "amenity": "cafe",
        "contact:instagram": "fuku.coffee.commune",
        "cuisine": "coffee_shop",
        "name": "Fuku Coffee Commune"
      }
    },
    {
      "type": "node",
      "id": 12941784936,
      "lat": 13.0233844,
      "lon": 77.6374387,
      "tags": {
        "brand": "Malabar Gold and Diamonds",
        "brand:wikidata": "Q60748883",
        "check_date": "2025-06-21",
        "name": "Malabar Gold and Diamonds",
        "shop": "jewelry"
      }
    },
    {
      "type": "node",
      "id": 12941784937,
      "lat": 13.0232534,
      "lon": 77.6374358,
      "tags": {
        "brand": "Westside",
        "brand:wikidata": "Q123376384",
        "check_date": "2025-06-21",
        "name": "Westside",
        "shop": "clothes"
      }
    },
    {
      "type": "node",
      "id": 12941834002,
      "lat": 13.0261482,
      "lon": 77.6354229,
      "tags": {
        "amenity": "bench",
        "armrest": "yes",
        "backrest": "yes",
        "material": "stone",
        "seats": "3"
      }
    },
    {
      "type": "node",
      "id": 12941834013,
      "lat": 13.0261251,
      "lon": 77.6354179,
      "tags": {
        "amenity": "bench",
        "armrest": "yes",
        "backrest": "yes",
        "material": "stone",
        "seats": "3"
      }
    },
    {
      "type": "node",
      "id": 12941834015,
      "lat": 13.0262207,
      "lon": 77.6354398,
      "tags": {
        "amenity": "bench",
        "armrest": "yes",
        "backrest": "yes",
        "material": "stone",
        "seats": "3"
      }
    },
    {
      "type": "node",
      "id": 12941834016,
      "lat": 13.0262448,
      "lon": 77.6354468,
      "tags": {
        "amenity": "bench",
        "armrest": "yes",
        "backrest": "yes",
        "material": "stone",
        "seats": "3"
      }
    },
    {
      "type": "node",
      "id": 12941834017,
      "lat": 13.0262688,
      "lon": 77.6354553,
      "tags": {
        "amenity": "bench",
        "armrest": "yes",
        "backrest": "yes",
        "material": "stone",
        "seats": "3"
      }
    },
    {
      "type": "node",
      "id": 12941834018,
      "lat": 13.0262949,
      "lon": 77.6354627,
      "tags": {
        "amenity": "bench",
        "armrest": "yes",
        "backrest": "yes",
        "material": "stone",
        "seats": "3"
      }
    },
    {
      "type": "node",
      "id": 12941834019,
      "lat": 13.026358,
      "lon": 77.6354942,
      "tags": {
        "amenity": "bench",
        "armrest": "yes",
        "backrest": "yes",
        "material": "stone",
        "seats": "3"
      }
    },
    {
      "type": "node",
      "id": 12941834020,
      "lat": 13.0263481,
      "lon": 77.6355251,
      "tags": {
        "amenity": "bench",
        "armrest": "yes",
        "backrest": "yes",
        "material": "stone",
        "seats": "3"
      }
    },
    {
      "type": "node",
      "id": 12941834021,
      "lat": 13.0263358,
      "lon": 77.6355887,
      "tags": {
        "amenity": "bench",
        "armrest": "yes",
        "backrest": "yes",
        "material": "stone",
        "seats": "3"
      }
    },
    {
      "type": "node",
      "id": 12941834022,
      "lat": 13.0263428,
      "lon": 77.635558,
      "tags": {
        "amenity": "waste_basket"
      }
    },
    {
      "type": "node",
      "id": 12941834023,
      "lat": 13.0263298,
      "lon": 77.6356089,
      "tags": {
        "amenity": "bench",
        "armrest": "yes",
        "backrest": "yes",
        "material": "stone",
        "seats": "3"
      }
    },
    {
      "type": "node",
      "id": 12941834024,
      "lat": 13.0261808,
      "lon": 77.6355983,
      "tags": {
        "amenity": "waste_basket"
      }
    },
    {
      "type": "node",
      "id": 12941834025,
      "lat": 13.0262475,
      "lon": 77.6356112,
      "tags": {
        "amenity": "bench",
        "armrest": "yes",
        "backrest": "yes",
        "material": "stone",
        "seats": "3"
      }
    },
    {
      "type": "node",
      "id": 12941834026,
      "lat": 13.0262021,
      "lon": 77.6356027,
      "tags": {
        "amenity": "bench",
        "armrest": "yes",
        "backrest": "yes",
        "material": "stone",
        "seats": "3"
      }
    },
    {
      "type": "node",
      "id": 12941834027,
      "lat": 13.0262621,
      "lon": 77.6356144,
      "tags": {
        "amenity": "waste_basket"
      }
    },
    {
      "type": "node",
      "id": 12941834028,
      "lat": 13.0262587,
      "lon": 77.6354522,
      "tags": {
        "amenity": "waste_basket"
      }
    },
    {
      "type": "node",
      "id": 12941834036,
      "lat": 13.026296,
      "lon": 77.6356189,
      "tags": {
        "amenity": "bench",
        "armrest": "yes",
        "backrest": "yes",
        "material": "stone",
        "seats": "3"
      }
    },
    {
      "type": "node",
      "id": 12941834037,
      "lat": 13.0261724,
      "lon": 77.6354593,
      "tags": {
        "amenity": "waste_basket"
      }
    },
    {
      "type": "node",
      "id": 12941839945,
      "lat": 13.0260584,
      "lon": 77.635549,
      "tags": {
        "leisure": "fitness_station",
        "sport": "fitness"
      }
    },
    {
      "type": "node",
      "id": 12941864577,
      "lat": 13.0258942,
      "lon": 77.6352808,
      "tags": {
        "addr:housenumber": "304",
        "addr:street": "5th A Cross",
        "check_date": "2025-06-21",
        "name": "Gifting Mania",
        "phone": "+91 90197 35125",
        "shop": "gift",
        "wheelchair": "no"
      }
    },
    {
      "type": "node",
      "id": 12941892971,
      "lat": 13.0262527,
      "lon": 77.6357052,
      "tags": {
        "check_date": "2025-06-21",
        "name": "Floating Walls",
        "shop": "furniture"
      }
    },
    {
      "type": "node",
      "id": 12941892972,
      "lat": 13.0261947,
      "lon": 77.6359666,
      "tags": {
        "brand": "Manyavar",
        "brand:wikidata": "Q24906783",
        "check_date": "2025-06-21",
        "name": "Manyavar",
        "shop": "clothes"
      }
    },
    {
      "type": "node",
      "id": 12941892973,
      "lat": 13.0260516,
      "lon": 77.6367126,
      "tags": {
        "brand": "Joyalukkas",
        "brand:wikidata": "Q6297357",
        "check_date": "2025-06-21",
        "name": "Joyalukkas",
        "shop": "jewelry"
      }
    },
    {
      "type": "node",
      "id": 12941892977,
      "lat": 13.0259644,
      "lon": 77.6372059,
      "tags": {
        "brand": "Levi's",
        "brand:wikidata": "Q127962",
        "check_date": "2025-06-21",
        "clothes": "denim;men;women",
        "name": "Levi's",
        "shop": "clothes"
      }
    },
    {
      "type": "node",
      "id": 12941892978,
      "lat": 13.0261052,
      "lon": 77.6374404,
      "tags": {
        "amenity": "drinking_water"
      }
    },
    {
      "type": "node",
      "id": 12941892979,
      "lat": 13.0256146,
      "lon": 77.6386989,
      "tags": {
        "check_date": "2025-06-21",
        "name": "Girias",
        "shop": "electronics"
      }
    },
    {
      "type": "node",
      "id": 12941892980,
      "lat": 13.0255229,
      "lon": 77.6391637,
      "tags": {
        "amenity": "restaurant",
        "check_date": "2025-06-21",
        "name": "Mainland China"
      }
    },
    {
      "type": "node",
      "id": 12941892981,
      "lat": 13.0252988,
      "lon": 77.6400749,
      "tags": {
        "amenity": "fuel",
        "check_date": "2025-06-21",
        "name": "Premier"
      }
    },
    {
      "type": "node",
      "id": 12941892985,
      "lat": 13.0250159,
      "lon": 77.6406472,
      "tags": {
        "check_date": "2025-06-21",
        "name": "Neelkanth",
        "shop": "jewelry"
      }
    },
    {
      "type": "node",
      "id": 12941892986,
      "lat": 13.0248546,
      "lon": 77.6410368,
      "tags": {
        "amenity": "kindergarten",
        "check_date": "2025-06-21",
        "name": "Klay"
      }
    },
    {
      "type": "node",
      "id": 12941892988,
      "lat": 13.0246407,
      "lon": 77.6415589,
      "tags": {
        "brand": "LG",
        "brand:wikidata": "Q162345",
        "check_date": "2025-06-21",
        "name": "LG",
        "shop": "electronics"
      }
    },
    {
      "type": "node",
      "id": 12941901724,
      "lat": 13.0231144,
      "lon": 77.6370424,
      "tags": {
        "addr:floor": "2",
        "check_date": "2025-06-21",
        "level": "1",
        "name": "Straight Salon",
        "shop": "beauty"
      }
    },
    {
      "type": "node",
      "id": 12941906042,
      "lat": 13.026273,
      "lon": 77.6339392,
      "tags": {
        "amenity": "kindergarten",
        "check_date": "2025-06-21",
        "name": "White Petals",
        "operator:type": "private",
        "phone": "+91 72046 87940",
        "preschool": "yes",
        "website": "https://hrbr.whitepetalspreschool.com"
      }
    },
    {
      "type": "node",
      "id": 12941906043,
      "lat": 13.0261611,
      "lon": 77.6342712,
      "tags": {
        "amenity": "studio",
        "check_date": "2025-06-21",
        "name": "Keystone Studio"
      }
    },
    {
      "type": "node",
      "id": 12941906045,
      "lat": 13.0256878,
      "lon": 77.6356886,
      "tags": {
        "addr:floor": "1",
        "addr:housenumber": "312",
        "addr:street": "5th A Cross",
        "check_date": "2025-06-21",
        "email": "starmarketingwholesale@gmail.com",
        "level": "0",
        "name": "SSL Events & Electronics Rental Company",
        "phone": "+91 70258 43909",
        "shop": "rental"
      }
    },
    {
      "type": "node",
      "id": 12941915906,
      "lat": 13.0234346,
      "lon": 77.6374345,
      "tags": {
        "addr:floor": "1",
        "check_date": "2025-06-21",
        "clothes": "women",
        "level": "0",
        "name": "Go Colors!",
        "operator": "Go Colors!",
        "shop": "clothes",
        "wheelchair": "no"
      }
    },
    {
      "type": "node",
      "id": 12941915907,
      "lat": 13.023254,
      "lon": 77.6373861,
      "tags": {
        "amenity": "waste_basket"
      }
    },
    {
      "type": "node",
      "id": 12941915908,
      "lat": 13.0232155,
      "lon": 77.6373909,
      "tags": {
        "amenity": "bench",
        "armrest": "no",
        "backrest": "no",
        "material": "marble",
        "seats": "3"
      }
    },
    {
      "type": "node",
      "id": 12941915909,
      "lat": 13.0233107,
      "lon": 77.6373863,
      "tags": {
        "amenity": "bench",
        "armrest": "no",
        "backrest": "no",
        "material": "marble",
        "seats": "3"
      }
    },
    {
      "type": "node",
      "id": 12941915910,
      "lat": 13.0234006,
      "lon": 77.6370441,
      "tags": {
        "amenity": "fast_food",
        "brand": "Taco Bell",
        "brand:wikidata": "Q752941",
        "check_date": "2025-06-21",
        "cuisine": "tex-mex",
        "name": "Taco Bell",
        "takeaway": "yes"
      }
    },
    {
      "type": "node",
      "id": 12941915911,
      "lat": 13.0233794,
      "lon": 77.6373831,
      "tags": {
        "amenity": "bench",
        "armrest": "no",
        "backrest": "no",
        "material": "marble",
        "seats": "3"
      }
    },
    {
      "type": "node",
      "id": 12941915912,
      "lat": 13.0234461,
      "lon": 77.6373852,
      "tags": {
        "amenity": "waste_basket"
      }
    },
    {
      "type": "node",
      "id": 12941937814,
      "lat": 13.0228354,
      "lon": 77.6367613,
      "tags": {
        "brand": "Nandini",
        "brand:wikidata": "Q124374212",
        "check_date": "2025-06-21",
        "name": "Nandini",
        "shop": "dairy"
      }
    },
    {
      "type": "node",
      "id": 12941957158,
      "lat": 13.0235297,
      "lon": 77.6457606,
      "tags": {
        "amenity": "shelter",
        "shelter_type": "gazebo"
      }
    },
    {
      "type": "node",
      "id": 12952263222,
      "lat": 13.0193662,
      "lon": 77.6472433,
      "tags": {
        "name": "Seven Eleven Cakes",
        "shop": "pastry"
      }
    },
    {
      "type": "node",
      "id": 12952263223,
      "lat": 13.019736,
      "lon": 77.6475142,
      "tags": {
        "amenity": "fast_food"
      }
    },
    {
      "type": "node",
      "id": 12952263230,
      "lat": 13.022118,
      "lon": 77.648854,
      "tags": {
        "amenity": "shelter",
        "shelter_type": "gazebo"
      }
    },
    {
      "type": "node",
      "id": 12952263254,
      "lat": 13.0255328,
      "lon": 77.6391048,
      "tags": {
        "brand": "Decathlon",
        "brand:wikidata": "Q509349",
        "name": "Decathlon",
        "shop": "sports"
      }
    },
    {
      "type": "node",
      "id": 12952263259,
      "lat": 13.0259163,
      "lon": 77.6374163,
      "tags": {
        "name": "Kalamandir",
        "shop": "clothes"
      }
    },
    {
      "type": "node",
      "id": 12959840781,
      "lat": 13.0170153,
      "lon": 77.6429262,
      "tags": {
        "amenity": "hospital",
        "check_date": "2025-06-29",
        "healthcare": "hospital",
        "name": "Trilife Hospital",
        "name:en": "Trilife Hospital",
        "operator:type": "private"
      }
    },
    {
      "type": "node",
      "id": 13013584298,
      "lat": 13.0220219,
      "lon": 77.6399329,
      "tags": {
        "amenity": "restaurant",
        "name": "Venn"
      }
    },
    {
      "type": "node",
      "id": 13013588744,
      "lat": 13.0233978,
      "lon": 77.6431482,
      "tags": {
        "addr:city": "Bengaluru",
        "addr:country": "IN",
        "addr:hamlet": "HRBR Layout 2nd Stage",
        "addr:postcode": "560043",
        "addr:street": "7th Main Road",
        "addr:suburb": "Kalyan Nagar",
        "amenity": "restaurant",
        "contact:instagram": "sinonnas",
        "cuisine": "pizza",
        "delivery": "yes",
        "name": "Si Nonna's",
        "reservation": "yes",
        "takeaway": "yes",
        "toilets": "yes",
        "website": "https://sinonnas.com/"
      }
    },
    {
      "type": "node",
      "id": 13013958064,
      "lat": 13.0255067,
      "lon": 77.6392248,
      "tags": {
        "amenity": "restaurant",
        "cuisine": "barbecue",
        "name": "ASF - Ancient Stone Flames"
      }
    },
    {
      "type": "node",
      "id": 13030841318,
      "lat": 13.0226898,
      "lon": 77.6393218,
      "tags": {
        "amenity": "cafe",
        "check_date": "2025-07-28",
        "contact:instagram": "https://www.instagram.com/brewlapaix",
        "name": "Brew La Paix",
        "website": "https://brewlapaix.com"
      }
    },
    {
      "type": "node",
      "id": 13164592436,
      "lat": 13.0219385,
      "lon": 77.6385853,
      "tags": {
        "addr:city": "Bangalore",
        "addr:district": "Bengaluru Urban",
        "addr:housenumber": "426",
        "addr:postcode": "560043",
        "addr:street": "CMR Main Rd, 3rd Cross,2nd Block HRBR Layout, Kalyan nagar",
        "amenity": "hospital",
        "healthcare": "hospital",
        "name": "Bangalore Orthopeadic And Surgical Hospital",
        "operator": "Novosalus Technology",
        "operator:type": "private"
      }
    },
    {
      "type": "node",
      "id": 13168786889,
      "lat": 13.0155835,
      "lon": 77.6403473,
      "tags": {
        "contact:instagram": "luxemisu",
        "name": "Luxemisu",
        "shop": "pastry"
      }
    },
    {
      "type": "node",
      "id": 13288585234,
      "lat": 13.0214589,
      "lon": 77.6406815,
      "tags": {
        "name": "Harley's Ivory Lougne",
        "shop": "pastry"
      }
    },
    {
      "type": "way",
      "id": 37827777,
      "center": {
        "lat": 13.0258374,
        "lon": 77.6438717
      },
      "tags": {
        "leisure": "pitch",
        "sport": "basketball"
      }
    },
    {
      "type": "way",
      "id": 37827925,
      "center": {
        "lat": 13.0253767,
        "lon": 77.6425302
      },
      "tags": {
        "addr:city": "Kalyan Nagar, Bangalore",
        "addr:postcode": "560043",
        "addr:street": "6th B Main (HRBR Layout)",
        "amenity": "school",
        "check_date": "2025-11-16",
        "email": "info@rcis.in",
        "name": "Royale Concorde International School",
        "phone": "+91 80 2543 5455",
        "school:gender": "mixed",
        "website": "https://www.rcis.in/"
      }
    },
    {
      "type": "way",
      "id": 37828583,
      "center": {
        "lat": 13.0278651,
        "lon": 77.6406464
      },
      "tags": {
        "amenity": "school",
        "check_date": "2025-11-16",
        "name": "Royale Concorde High School"
      }
    },
    {
      "type": "way",
      "id": 37828595,
      "center": {
        "lat": 13.0284669,
        "lon": 77.6397006
      },
      "tags": {
        "amenity": "college",
        "name": "Bangalore City College",
        "name:kn": "ನಗರ ಕಾಲೇಜು"
      }
    },
    {
      "type": "way",
      "id": 37828662,
      "center": {
        "lat": 13.0266869,
        "lon": 77.6401929
      },
      "tags": {
        "amenity": "college",
        "building": "yes",
        "name": "Indo Asian Academy of Management Studies"
      }
    },
    {
      "type": "way",
      "id": 37828776,
      "center": {
        "lat": 13.0270228,
        "lon": 77.6394042
      },
      "tags": {
        "amenity": "doctors",
        "name": "Susruta Nursing Home"
      }
    },
    {
      "type": "way",
      "id": 37828884,
      "center": {
        "lat": 13.0260401,
        "lon": 77.6410045
      },
      "tags": {
        "addr:city": "Kalyan Nagar, Bangalore",
        "addr:housename": "S S Manor",
        "addr:postcode": "560043",
        "addr:street": "Basbusabpalaya Service Road",
        "brand": "Cromā",
        "brand:wikidata": "Q5187683",
        "building": "yes",
        "landuse": "retail",
        "name": "Cromā",
        "name:kn": "ಕ್ರೋಮ",
        "opening_hours": "Mo-Su 10:30-21:30",
        "phone": "+91-80-67127288",
        "shop": "electronics"
      }
    },
    {
      "type": "way",
      "id": 38416322,
      "center": {
        "lat": 13.0266727,
        "lon": 77.6326104
      },
      "tags": {
        "amenity": "school",
        "landuse": "education",
        "name": "L.M. English School"
      }
    },
    {
      "type": "way",
      "id": 38421704,
      "center": {
        "lat": 13.0179378,
        "lon": 77.6369821
      },
      "tags": {
        "amenity": "school",
        "name": "Saint Charles High School"
      }
    },
    {
      "type": "way",
      "id": 168712748,
      "center": {
        "lat": 13.0163415,
        "lon": 77.6407229
      },
      "tags": {
        "leisure": "park",
        "name": "Dr. Rajkumar Park",
        "name:etymology:wikidata": "Q984634",
        "name:kn": "ರಾಜ್ಕುಮಾರ್ ಉದ್ಯಾನ"
      }
    },
    {
      "type": "way",
      "id": 169722382,
      "center": {
        "lat": 13.0228301,
        "lon": 77.633095
      },
      "tags": {
        "alt_name": "National Junior School",
        "amenity": "school",
        "landuse": "education",
        "name": "CMR National Public School",
        "short_name": "CMR NPS"
      }
    },
    {
      "type": "way",
      "id": 183863407,
      "center": {
        "lat": 13.0270303,
        "lon": 77.6362369
      },
      "tags": {
        "amenity": "college",
        "building": "yes",
        "name": "Chris Canadian Institutions"
      }
    },
    {
      "type": "way",
      "id": 335526663,
      "center": {
        "lat": 13.0170276,
        "lon": 77.6331507
      },
      "tags": {
        "leisure": "park"
      }
    },
    {
      "type": "way",
      "id": 340956581,
      "center": {
        "lat": 13.0302973,
        "lon": 77.6385689
      },
      "tags": {
        "leisure": "pitch",
        "sport": "soccer"
      }
    },
    {
      "type": "way",
      "id": 346136743,
      "center": {
        "lat": 13.0279136,
        "lon": 77.6394093
      },
      "tags": {
        "building": "yes",
        "name": "Family Point",
        "shop": "convenience"
      }
    },
    {
      "type": "way",
      "id": 346506657,
      "center": {
        "lat": 13.0236925,
        "lon": 77.6370146
      },
      "tags": {
        "addr:city": "Bangalore",
        "addr:district": "Bengaluru Urban",
        "addr:housenumber": "218",
        "addr:postcode": "560043",
        "addr:street": "Kammanahalli Main Rd, HRBR Layout 3rd Block",
        "amenity": "clinic",
        "building": "aesthetic_clinic",
        "building:levels": "1",
        "healthcare": "clinic",
        "healthcare:speciality": "dermatology",
        "name": "Facelit Skin Hair & Wellness"
      }
    },
    {
      "type": "way",
      "id": 350750824,
      "center": {
        "lat": 13.0171298,
        "lon": 77.6432944
      },
      "tags": {
        "addr:postcode": "560043,",
        "addr:street": "8th Main Road (west)",
        "amenity": "hospital",
        "check_date": "2024-09-18",
        "name": "Ovum Hospitals"
      }
    },
    {
      "type": "way",
      "id": 530861581,
      "center": {
        "lat": 13.0279653,
        "lon": 77.6338225
      },
      "tags": {
        "addr:city": "Bangalore",
        "addr:housenumber": "36/2",
        "addr:postcode": "560043",
        "addr:street": "Hennur Flyover",
        "amenity": "college",
        "contact:facebook": "https://www.facebook.com/rcmsbangalore",
        "ele": "5",
        "internet_access": "yes",
        "internet_access:fee": "customers",
        "name": "Royal College of Management Studies",
        "website": "https://www.rcms.co.in/"
      }
    },
    {
      "type": "way",
      "id": 530861582,
      "center": {
        "lat": 13.0280972,
        "lon": 77.6335813
      },
      "tags": {
        "leisure": "pitch",
        "lit": "yes",
        "name": "Bangalore Football Turf",
        "sport": "soccer",
        "surface": "grass"
      }
    },
    {
      "type": "way",
      "id": 552372245,
      "center": {
        "lat": 13.0229987,
        "lon": 77.6414813
      },
      "tags": {
        "alt_name": "BDA Kalyan Nagar Park",
        "leisure": "park",
        "name": "Dr. Puneeth Rajkumar Park",
        "name:etymology:wikidata": "Q3351697"
      }
    },
    {
      "type": "way",
      "id": 675933727,
      "center": {
        "lat": 13.0185653,
        "lon": 77.6410638
      },
      "tags": {
        "leisure": "park"
      }
    },
    {
      "type": "way",
      "id": 687173199,
      "center": {
        "lat": 13.0265644,
        "lon": 77.6383427
      },
      "tags": {
        "amenity": "bus_station",
        "name": "Kalyan Nagar BMTC Depot"
      }
    },
    {
      "type": "way",
      "id": 687173212,
      "center": {
        "lat": 13.0288442,
        "lon": 77.6370308
      },
      "tags": {
        "amenity": "social_facility",
        "landuse": "residential",
        "name": "Little Sisters of Poor",
        "social_facility": "assisted_living",
        "social_facility:for": "senior"
      }
    },
    {
      "type": "way",
      "id": 687173217,
      "center": {
        "lat": 13.0282997,
        "lon": 77.637756
      },
      "tags": {
        "amenity": "place_of_worship",
        "building": "church",
        "check_date": "2024-05-27",
        "name": "Saint Rocks Church",
        "religion": "christian"
      }
    },
    {
      "type": "way",
      "id": 687173234,
      "center": {
        "lat": 13.0286442,
        "lon": 77.637889
      },
      "tags": {
        "leisure": "pitch"
      }
    },
    {
      "type": "way",
      "id": 687173287,
      "center": {
        "lat": 13.0297477,
        "lon": 77.6415271
      },
      "tags": {
        "amenity": "college",
        "landuse": "college",
        "name": "St Vincent Pallotti College"
      }
    },
    {
      "type": "way",
      "id": 687216883,
      "center": {
        "lat": 13.0206384,
        "lon": 77.6513784
      },
      "tags": {
        "leisure": "park"
      }
    },
    {
      "type": "way",
      "id": 687216884,
      "center": {
        "lat": 13.0211276,
        "lon": 77.6511902
      },
      "tags": {
        "leisure": "park",
        "name": "Babusabpalya Park",
        "wheelchair": "limited"
      }
    },
    {
      "type": "way",
      "id": 743353828,
      "center": {
        "lat": 13.0165401,
        "lon": 77.6364124
      },
      "tags": {
        "access": "customers",
        "amenity": "parking",
        "parking": "surface"
      }
    },
    {
      "type": "way",
      "id": 771923571,
      "center": {
        "lat": 13.0308225,
        "lon": 77.642713
      },
      "tags": {
        "amenity": "parking"
      }
    },
    {
      "type": "way",
      "id": 771923576,
      "center": {
        "lat": 13.0269511,
        "lon": 77.6379541
      },
      "tags": {
        "leisure": "pitch",
        "sport": "basketball"
      }
    },
    {
      "type": "way",
      "id": 771923577,
      "center": {
        "lat": 13.0269406,
        "lon": 77.6381818
      },
      "tags": {
        "leisure": "pitch",
        "sport": "tennis"
      }
    },
    {
      "type": "way",
      "id": 771923579,
      "center": {
        "lat": 13.027528,
        "lon": 77.6382344
      },
      "tags": {
        "access": "private",
        "leisure": "swimming_pool"
      }
    },
    {
      "type": "way",
      "id": 772203194,
      "center": {
        "lat": 13.0302427,
        "lon": 77.6355917
      },
      "tags": {
        "addr:city": "Bangalore",
        "addr:country": "IN",
        "addr:postcode": "560043",
        "addr:street": "Hennur Main Road",
        "addr:suburb": "Kalyan Nagar",
        "amenity": "college",
        "email": "info@indianacademy.edu.in",
        "name": "Indian Academy Group of Institutions",
        "phone": "+91 8067 458900",
        "website": "https://www.indianacademy.edu.in"
      }
    },
    {
      "type": "way",
      "id": 1132387739,
      "center": {
        "lat": 13.0179107,
        "lon": 77.6470515
      },
      "tags": {
        "addr:city": "HRBR Layout Kalyan Nagar 1 Block, Banasawadi",
        "addr:street": "3rd Cross Road",
        "amenity": "place_of_worship",
        "check_date": "2024-08-17",
        "landuse": "religious",
        "name": "Maha Ganapathi Temple",
        "name:kn": "ಮಹಾ ಗಣಪತಿ ದೇವಸ್ಥಾನ",
        "religion": "hindu"
      }
    },
    {
      "type": "way",
      "id": 1153860352,
      "center": {
        "lat": 13.0256351,
        "lon": 77.6372769
      },
      "tags": {
        "amenity": "fuel",
        "brand": "Indian Oil",
        "brand:wikidata": "Q1289348",
        "brand:wikipedia": "en:Indian Oil Corporation",
        "compressed_air": "yes",
        "name": "Indian Oil",
        "name:kn": "ಇಂಡಿಯನ್ ಆಯಿಲ್",
        "opening_hours": "24/7",
        "operator": "Indian Oil"
      }
    },
    {
      "type": "way",
      "id": 1153861853,
      "center": {
        "lat": 13.0231745,
        "lon": 77.6454262
      },
      "tags": {
        "leisure": "park"
      }
    },
    {
      "type": "way",
      "id": 1305075770,
      "center": {
        "lat": 13.0232857,
        "lon": 77.6466478
      },
      "tags": {
        "addr:city": "Babusabpalya, Hennur",
        "addr:street": "Outer Ring Road",
        "amenity": "place_of_worship",
        "check_date": "2023-01-04",
        "landuse": "religious",
        "name": "Sri Shakti Vinayaka Temple",
        "name:kn": "ಶ್ರೀ ವಿನಾಯಕ ದೇವಸ್ಥಾನ",
        "religion": "hindu"
      }
    },
    {
      "type": "way",
      "id": 1315908993,
      "center": {
        "lat": 13.0186335,
        "lon": 77.6457268
      },
      "tags": {
        "leisure": "pitch"
      }
    },
    {
      "type": "way",
      "id": 1315908994,
      "center": {
        "lat": 13.0186462,
        "lon": 77.6459148
      },
      "tags": {
        "leisure": "playground"
      }
    },
    {
      "type": "way",
      "id": 1315908996,
      "center": {
        "lat": 13.0187528,
        "lon": 77.6461709
      },
      "tags": {
        "leisure": "park",
        "name": "HRBR Park"
      }
    },
    {
      "type": "way",
      "id": 1316119405,
      "center": {
        "lat": 13.0217498,
        "lon": 77.6425277
      },
      "tags": {
        "access": "permissive",
        "leisure": "pitch",
        "sport": "tennis"
      }
    },
    {
      "type": "way",
      "id": 1316384538,
      "center": {
        "lat": 13.0245581,
        "lon": 77.6381191
      },
      "tags": {
        "leisure": "park",
        "name": "Kittur Rani Chenamma Park"
      }
    },
    {
      "type": "way",
      "id": 1317621995,
      "center": {
        "lat": 13.0262815,
        "lon": 77.6351164
      },
      "tags": {
        "amenity": "fuel",
        "brand": "Bharat Petroleum",
        "brand:wikidata": "Q854826",
        "check_date": "2025-06-21",
        "compressed_air": "yes",
        "fuel:diesel": "yes",
        "fuel:petrol": "yes",
        "landuse": "commercial",
        "name": "Bharat Petroleum",
        "name:kn": "ಭಾರತ್ ಪೆಟ್ರೋಲಿಯಂ",
        "operator": "Bharat Petroleum",
        "self_service": "no",
        "source": "survey"
      }
    },
    {
      "type": "way",
      "id": 1347467890,
      "center": {
        "lat": 13.0299492,
        "lon": 77.6406743
      },
      "tags": {
        "leisure": "pitch"
      }
    },
    {
      "type": "way",
      "id": 1354858903,
      "center": {
        "lat": 13.0204889,
        "lon": 77.6422731
      },
      "tags": {
        "amenity": "library",
        "landuse": "commercial",
        "name": "City Central Library"
      }
    },
    {
      "type": "way",
      "id": 1363504984,
      "center": {
        "lat": 13.020339,
        "lon": 77.6355461
      },
      "tags": {
        "amenity": "monastery",
        "community:gender": "female",
        "denomination": "catholic",
        "landuse": "religious",
        "name": "Sisters of St. Joseph of Tarbes",
        "religion": "christian"
      }
    },
    {
      "type": "way",
      "id": 1363623349,
      "center": {
        "lat": 13.0233426,
        "lon": 77.6380822
      },
      "tags": {
        "access": "private",
        "leisure": "swimming_pool"
      }
    },
    {
      "type": "way",
      "id": 1363623616,
      "center": {
        "lat": 13.0170434,
        "lon": 77.6349303
      },
      "tags": {
        "amenity": "college",
        "name": "St. Paul PU College"
      }
    },
    {
      "type": "way",
      "id": 1363777220,
      "center": {
        "lat": 13.0269906,
        "lon": 77.6328477
      },
      "tags": {
        "amenity": "college",
        "landuse": "education"
      }
    },
    {
      "type": "way",
      "id": 1363777349,
      "center": {
        "lat": 13.0247525,
        "lon": 77.6326313
      },
      "tags": {
        "access": "private",
        "leisure": "swimming_pool"
      }
    },
    {
      "type": "way",
      "id": 1364170754,
      "center": {
        "lat": 13.0223512,
        "lon": 77.6390348
      },
      "tags": {
        "amenity": "place_of_worship",
        "landuse": "religious",
        "name": "Masjid-E-Jafar",
        "religion": "muslim"
      }
    },
    {
      "type": "way",
      "id": 1366625033,
      "center": {
        "lat": 13.0229019,
        "lon": 77.6323041
      },
      "tags": {
        "amenity": "school",
        "landuse": "education",
        "name": "Ekya School"
      }
    },
    {
      "type": "way",
      "id": 1366625049,
      "center": {
        "lat": 13.0245163,
        "lon": 77.6384886
      },
      "tags": {
        "amenity": "school",
        "landuse": "education",
        "name": "The Princeton School"
      }
    },
    {
      "type": "way",
      "id": 1366656563,
      "center": {
        "lat": 13.0266048,
        "lon": 77.6431271
      },
      "tags": {
        "amenity": "school",
        "name": "Narayana e-Techno School"
      }
    },
    {
      "type": "way",
      "id": 1366656620,
      "center": {
        "lat": 13.0196732,
        "lon": 77.6401561
      },
      "tags": {
        "amenity": "police",
        "landuse": "commercial",
        "name": "Banaswadi Police Station",
        "name:kn": "ಬಾಣಸವಾಡಿ ಆರಕ್ಷಕ ಠಾಣೆ"
      }
    },
    {
      "type": "way",
      "id": 1366656632,
      "center": {
        "lat": 13.0262445,
        "lon": 77.6355264
      },
      "tags": {
        "leisure": "playground"
      }
    },
    {
      "type": "way",
      "id": 1366656634,
      "center": {
        "lat": 13.026207,
        "lon": 77.6355179
      },
      "tags": {
        "leisure": "park",
        "name": "Kalyan Nagar Park"
      }
    },
    {
      "type": "way",
      "id": 1370883599,
      "center": {
        "lat": 13.0224975,
        "lon": 77.6387404
      },
      "tags": {
        "access": "customers",
        "amenity": "parking",
        "parking": "surface"
      }
    },
    {
      "type": "way",
      "id": 1382088997,
      "center": {
        "lat": 13.0255314,
        "lon": 77.6400662
      },
      "tags": {
        "access": "yes",
        "amenity": "toilets",
        "building": "yes",
        "fee": "yes",
        "female": "yes",
        "male": "yes"
      }
    },
    {
      "type": "way",
      "id": 1409539450,
      "center": {
        "lat": 13.0271904,
        "lon": 77.636099
      },
      "tags": {
        "amenity": "college"
      }
    },
    {
      "type": "way",
      "id": 1409539462,
      "center": {
        "lat": 13.0238349,
        "lon": 77.6450462
      },
      "tags": {
        "leisure": "park"
      }
    }
  ]
}