{
  "area_name": "Kalyani Nagara",
  "osm_id": 3417090911,
  "osm_type": "node",
  "place_type": "neighbourhood",
  "amenity_count": 69,
  "amenities": [
    {
      "type": "node",
      "id": 435688317,
      "lat": 12.8986538,
      "lon": 77.5578162,
      "tags": {
        "amenity": "bank",
        "atm": "no",
        "brand": "State Bank of India",
        "brand:wikidata": "Q1340361",
        "brand:wikipedia": "en:State Bank of India",
        "name": "State Bank of India",
        "name:kn": "ಭಾರತೀಯ ಸ್ಟೇಟ್ ಬ್ಯಾಂಕ್",
        "short_name": "SBI"
      }
    },
    {
      "type": "node",
      "id": 435688319,
      "lat": 12.8989528,
      "lon": 77.5575938,
      "tags": {
        "amenity": "bank",
        "atm": "yes",
        "brand": "Karur Vysya Bank",
        "brand:wikidata": "Q6373724",
        "brand:wikipedia": "en:Karur Vysya Bank",
        "name": "Karur Vysya Bank",
        "name:en": "Karur Vysya Bank",
        "short_name": "KVB",
        "website": "https://www.kvb.co.in"
      }
    },
    {
      "type": "node",
      "id": 435688321,
      "lat": 12.8986874,
      "lon": 77.5577817,
      "tags": {
        "addr:housename": "M K Ahmed",
        "shop": "convenience"
      }
    },
    {
      "type": "node",
      "id": 435688323,
      "lat": 12.8983313,
      "lon": 77.5582799,
      "tags": {
        "addr:housename": "Shop and save",
        "name": "Shop and save",
        "shop": "convenience"
      }
    },
    {
      "type": "node",
      "id": 1318987638,
      "lat": 12.8915893,
      "lon": 77.560715,
      "tags": {
        "amenity": "hospital",
        "emergency": "yes",
        "name": "Metro Hospital"
      }
    },
    {
      "type": "node",
      "id": 1334443053,
      "lat": 12.8929689,
      "lon": 77.5596739,
      "tags": {
        "amenity": "school",
        "name": "Insight Academy"
      }
    },
    {
      "type": "node",
      "id": 1334443054,
      "lat": 12.8980464,
      "lon": 77.5551298,
      "tags": {
        "amenity": "place_of_worship",
        "name": "Devarakere Venkataramana Temple",
        "name:kn": "ದೇವಾರೆಕೆರೆ ವೆಂಕಟರಮಣ ದೇವಸ್ಥಾನ",
        "religion": "hindu"
      }
    },
    {
      "type": "node",
      "id": 1334443060,
      "lat": 12.8988366,
      "lon": 77.5572943,
      "tags": {
        "amenity": "place_of_worship",
        "denomination": "Shaivism",
        "name:kn": "ವಿನಾಯಕ ದೇವಸ್ಥಾನ",
        "religion": "hindu"
      }
    },
    {
      "type": "node",
      "id": 2472270417,
      "lat": 12.8960028,
      "lon": 77.5542251,
      "tags": {
        "amenity": "community_centre",
        "community_centre": "cultural_centre",
        "name": "Purandara Dasa Trust Hall"
      }
    },
    {
      "type": "node",
      "id": 4426080989,
      "lat": 12.9017851,
      "lon": 77.5563991,
      "tags": {
        "addr:housenumber": "14",
        "addr:postcode": "560078",
        "addr:street": "2nd Cross Road",
        "amenity": "place_of_worship",
        "name": "Shanmukh Dixit Astrologer",
        "name:en": "Shanmukh Dixit Astrologer",
        "opening_hours": "Fr-Su 10:00-22:00",
        "phone": "+91 80 2666 1959"
      }
    },
    {
      "type": "node",
      "id": 4442178089,
      "lat": 12.8964442,
      "lon": 77.558989,
      "tags": {
        "amenity": "post_box",
        "name": "Post Office",
        "name:en": "Post Office",
        "name:kn": "ಅಂಚೆ ಕಛೇರಿ"
      }
    },
    {
      "type": "node",
      "id": 4925250030,
      "lat": 12.8973448,
      "lon": 77.557338,
      "tags": {
        "leisure": "park",
        "name": "ISRO Layout Children's Park"
      }
    },
    {
      "type": "node",
      "id": 4925257513,
      "lat": 12.8968227,
      "lon": 77.5569403,
      "tags": {
        "amenity": "place_of_worship",
        "denomination": "hindu",
        "name": "Sacred Neem tree",
        "religion": "hindu"
      }
    },
    {
      "type": "node",
      "id": 5103929761,
      "lat": 12.8938836,
      "lon": 77.556381,
      "tags": {
        "amenity": "school",
        "name": "Rays Academy For Learning"
      }
    },
    {
      "type": "node",
      "id": 5824798393,
      "lat": 12.8876502,
      "lon": 77.5525271,
      "tags": {
        "amenity": "atm",
        "brand": "Canara Bank",
        "brand:en": "Canara Bank",
        "brand:hi": "केनरा बैंक",
        "brand:kn": "ಕೆನರಾ ಬ್ಯಾಂಕ್",
        "brand:pa": "ਕੇਨਰਾ ਬੈਂਕ",
        "brand:pnb": "کینرا بینک",
        "brand:ur": "کینرا بینک",
        "brand:wikidata": "Q2003777",
        "drive_through": "no",
        "name:en": "Canara Bank",
        "name:hi": "केनरा बैंक",
        "name:kn": "ಕೆನರಾ ಬ್ಯಾಂಕ್",
        "name:pa": "ਕੇਨਰਾ ਬੈਂਕ",
        "name:pnb": "کینرا بینک",
        "name:ur": "کینرا بینک",
        "opening_hours": "00:00-24:00",
        "operator": "Canara Bank",
        "operator:wikidata": "Q2003777"
      }
    },
    {
      "type": "node",
      "id": 6947375064,
      "lat": 12.89708,
      "lon": 77.5473364,
      "tags": {
        "addr:district": "Bengaluru Urban",
        "addr:full": "No.4, Sagar Complex,Gopalakrishna Layout,Vasanthapura Main Road,Subramanyapura Post,Uttarahalli Hobli",
        "addr:postcode": "560061",
        "addr:state": "Karnataka",
        "amenity": "hospital",
        "name": "Samastha Hospitals Pvt Ltd",
        "source": "OpenGovernmentData"
      }
    },
    {
      "type": "node",
      "id": 6950185729,
      "lat": 12.8914666,
      "lon": 77.5612113,
      "tags": {
        "addr:district": "Bengaluru Rural",
        "addr:full": "No. 21/3 Vasanthpur Main Road Konanakunte Cross",
        "addr:postcode": "560062",
        "addr:state": "Karnataka",
        "amenity": "hospital",
        "name": "Metro Hospital, Bengaluru Rural",
        "source": "OpenGovernmentData"
      }
    },
    {
      "type": "node",
      "id": 7520954480,
      "lat": 12.9001694,
      "lon": 77.5603874,
      "tags": {
        "amenity": "restaurant",
        "cuisine": "south_indian",
        "name": "Veg Corner",
        "opening_hours:covid19": "off"
      }
    },
    {
      "type": "node",
      "id": 7520954481,
      "lat": 12.9001862,
      "lon": 77.5603615,
      "tags": {
        "amenity": "restaurant",
        "name": "Veg Corner"
      }
    },
    {
      "type": "node",
      "id": 10873265952,
      "lat": 12.8932654,
      "lon": 77.558797,
      "tags": {
        "name": "S V Colour Centre",
        "shop": "paint"
      }
    },
    {
      "type": "node",
      "id": 11153618185,
      "lat": 12.9035771,
      "lon": 77.557286,
      "tags": {
        "amenity": "shelter",
        "shelter_type": "gazebo"
      }
    },
    {
      "type": "node",
      "id": 11195729745,
      "lat": 12.9005351,
      "lon": 77.5583911,
      "tags": {
        "amenity": "shelter",
        "shelter_type": "gazebo"
      }
    },
    {
      "type": "node",
      "id": 11966054963,
      "lat": 12.8876321,
      "lon": 77.5526322,
      "tags": {
        "amenity": "pharmacy",
        "name": "Sukrith Medicals"
      }
    },
    {
      "type": "node",
      "id": 11980710028,
      "lat": 12.8876381,
      "lon": 77.5525922,
      "tags": {
        "name": "By2Juice",
        "shop": "beverages"
      }
    },
    {
      "type": "node",
      "id": 11980710029,
      "lat": 12.8876433,
      "lon": 77.552562,
      "tags": {
        "shop": "tea",
        "wheelchair": "no"
      }
    },
    {
      "type": "node",
      "id": 11980710030,
      "lat": 12.8876554,
      "lon": 77.5524969,
      "tags": {
        "beauty": "*",
        "female": "yes",
        "male": "yes",
        "shop": "hairdresser"
      }
    },
    {
      "type": "node",
      "id": 11980736076,
      "lat": 12.8876044,
      "lon": 77.5528634,
      "tags": {
        "shop": "bakery"
      }
    },
    {
      "type": "node",
      "id": 11980736077,
      "lat": 12.8876269,
      "lon": 77.552738,
      "tags": {
        "craft": "dressmaker",
        "shop": "fabric",
        "tailor": "alternation_service"
      }
    },
    {
      "type": "node",
      "id": 12022709091,
      "lat": 12.8881741,
      "lon": 77.5518727,
      "tags": {
        "access": "private",
        "amenity": "parking_entrance",
        "parking": "underground"
      }
    },
    {
      "type": "node",
      "id": 12022709098,
      "lat": 12.8890081,
      "lon": 77.5520658,
      "tags": {
        "access": "private",
        "amenity": "parking_entrance",
        "parking": "underground"
      }
    },
    {
      "type": "node",
      "id": 12164914045,
      "lat": 12.887545,
      "lon": 77.5532655,
      "tags": {
        "amenity": "parking_entrance"
      }
    },
    {
      "type": "node",
      "id": 12164914047,
      "lat": 12.8876081,
      "lon": 77.5529477,
      "tags": {
        "amenity": "parking_entrance"
      }
    },
    {
      "type": "node",
      "id": 12169023077,
      "lat": 12.8894274,
      "lon": 77.5563647,
      "tags": {
        "amenity": "charging_station",
        "description": "Swapping station for EV batteries.",
        "name": "Battery Swapping Station",
        "opening_hours": "24/7"
      }
    },
    {
      "type": "node",
      "id": 12508642648,
      "lat": 12.898493,
      "lon": 77.5620708,
      "tags": {
        "addr:city": "Bengaluru",
        "addr:housenumber": "153",
        "addr:postcode": "560078",
        "addr:street": "40 Fort Rd, Vikram Nagar, Yalachenahalli",
        "name": "JBR",
        "shop": "yes"
      }
    },
    {
      "type": "node",
      "id": 12926821076,
      "lat": 12.8877368,
      "lon": 77.5527254,
      "tags": {
        "name": "Hasiru Thotta",
        "opening_hours": "06:30-22:00",
        "shop": "greengrocer"
      }
    },
    {
      "type": "node",
      "id": 12964476366,
      "lat": 12.9011693,
      "lon": 77.5579422,
      "tags": {
        "description": "Vegetable shop with home delivery within 2 KMs for bill above ₹400",
        "name": "Hasiru Thota",
        "opening_hours": "06:00-21:00",
        "phone": "7795502240",
        "shop": "greengrocer"
      }
    },
    {
      "type": "way",
      "id": 37351658,
      "center": {
        "lat": 12.8938182,
        "lon": 77.5627707
      },
      "tags": {
        "amenity": "school",
        "name": "Alpine Public School"
      }
    },
    {
      "type": "way",
      "id": 117075291,
      "center": {
        "lat": 12.8954144,
        "lon": 77.5518455
      },
      "tags": {
        "amenity": "place_of_worship",
        "building": "yes",
        "name": "Vasantha Vallabharayar Temple",
        "name:kn": "ವಸಂತಪುರ ದೇವಸ್ಥಾನ",
        "religion": "hindu"
      }
    },
    {
      "type": "way",
      "id": 117076683,
      "center": {
        "lat": 12.8946945,
        "lon": 77.5530524
      },
      "tags": {
        "amenity": "place_of_worship",
        "name": "Sai Baba Temple",
        "name:kn": "ಸಾಯಿಬಾಬಾ ದೇವಸ್ಥಾನ",
        "religion": "hindu"
      }
    },
    {
      "type": "way",
      "id": 118414979,
      "center": {
        "lat": 12.8887443,
        "lon": 77.5506312
      },
      "tags": {
        "amenity": "college",
        "name": "City Engineering College",
        "name:kn": "ಸಿಟಿ ಇಂಜಿನಿಯರಿಂಗ್ ಕಾಲೇಜು",
        "wikidata": "Q5123156",
        "wikimedia_commons": "Category:City Engineering College",
        "wikipedia": "en:City Engineering College"
      }
    },
    {
      "type": "way",
      "id": 119172185,
      "center": {
        "lat": 12.9021504,
        "lon": 77.5588106
      },
      "tags": {
        "leisure": "park",
        "name": "Kumaraswamy Layout Park",
        "name:kn": "ಕುಮಾರಸ್ವಾಮಿ ಬಡಾವಣೆ ಉದ್ಯಾನವನ"
      }
    },
    {
      "type": "way",
      "id": 239449057,
      "center": {
        "lat": 12.8952439,
        "lon": 77.5590033
      },
      "tags": {
        "leisure": "park",
        "name": "Dr Abdul Kalam Park",
        "name:etymology:wikidata": "Q9513",
        "name:kn": "ಅಬ್ದುಲ್ ಕಲಾಂ ಉದ್ಯಾನವನ",
        "name:ta": "அப்துல் கலாம் பூங்கா"
      }
    },
    {
      "type": "way",
      "id": 239449580,
      "center": {
        "lat": 12.8965422,
        "lon": 77.5583021
      },
      "tags": {
        "leisure": "park",
        "name": "Dr Satish Dhawan Park",
        "name:en": "Dr Satish Dhawan Park",
        "name:etymology:wikidata": "Q325393",
        "operator": "ಬೃಹತ್ ಬೆಂಗಳೂರು ಮಹಾನಗರ ಪಾಲಿಕೆ",
        "operator:en": "Bruhat Bengaluru Mahanagara Palike",
        "operator:ka": "ಬೃಹತ್ ಬೆಂಗಳೂರು ಮಹಾನಗರ ಪಾಲಿಕೆ",
        "operator:short": "BBMP",
        "operator:type": "government",
        "operator:wikidata": "Q4978693"
      }
    },
    {
      "type": "way",
      "id": 239449581,
      "center": {
        "lat": 12.8982316,
        "lon": 77.5605454
      },
      "tags": {
        "leisure": "park",
        "name": "Rastrakavi Kuvempu Playground",
        "name:etymology:wikidata": "Q3351108",
        "operator": "ಬೃಹತ್ ಬೆಂಗಳೂರು ಮಹಾನಗರ ಪಾಲಿಕೆ",
        "operator:en": "Bruhat Bengaluru Mahanagara Palike",
        "operator:ka": "ಬೃಹತ್ ಬೆಂಗಳೂರು ಮಹಾನಗರ ಪಾಲಿಕೆ",
        "operator:short": "BBMP",
        "operator:type": "government",
        "operator:wikidata": "Q4978693"
      }
    },
    {
      "type": "way",
      "id": 239555420,
      "center": {
        "lat": 12.90134,
        "lon": 77.5579681
      },
      "tags": {
        "amenity": "bank",
        "brand": "Canara Bank",
        "brand:en": "Canara Bank",
        "brand:hi": "केनरा बैंक",
        "brand:kn": "ಕೆನರಾ ಬ್ಯಾಂಕ್",
        "brand:pa": "ਕੇਨਰਾ ਬੈਂਕ",
        "brand:pnb": "کینرا بینک",
        "brand:ur": "کینرا بینک",
        "brand:wikidata": "Q2003777",
        "brand:wikipedia": "en:Canara Bank",
        "brand:wikipedia:pa": "ਕੇਨਰਾ ਬੈਂਕ",
        "building": "yes",
        "name": "Canara Bank",
        "name:en": "Canara Bank",
        "name:hi": "केनरा बैंक",
        "name:kn": "ಕೆನರಾ ಬ್ಯಾಂಕ್",
        "name:pa": "ਕੇਨਰਾ ਬੈਂਕ",
        "name:pnb": "کینرا بینک",
        "name:ur": "کینرا بینک",
        "website": "https://www.canarabank.com/"
      }
    },
    {
      "type": "way",
      "id": 239555460,
      "center": {
        "lat": 12.900548,
        "lon": 77.5584899
      },
      "tags": {
        "leisure": "park",
        "name": "Triangle Park ISRO Layout"
      }
    },
    {
      "type": "way",
      "id": 259878361,
      "center": {
        "lat": 12.8995957,
        "lon": 77.5575497
      },
      "tags": {
        "leisure": "park",
        "name": "Children's Park",
        "operator": "ಬೃಹತ್ ಬೆಂಗಳೂರು ಮಹಾನಗರ ಪಾಲಿಕೆ",
        "operator:en": "Bruhat Bengaluru Mahanagara Palike",
        "operator:ka": "ಬೃಹತ್ ಬೆಂಗಳೂರು ಮಹಾನಗರ ಪಾಲಿಕೆ",
        "operator:short": "BBMP",
        "operator:type": "government",
        "operator:wikidata": "Q4978693"
      }
    },
    {
      "type": "way",
      "id": 259879354,
      "center": {
        "lat": 12.8994801,
        "lon": 77.558449
      },
      "tags": {
        "amenity": "bus_station",
        "bus": "yes",
        "internet_access": "yes",
        "internet_access:fee": "customers",
        "name": "ISRO Layout Bus Stand",
        "name:kn": "ಬಸ್ ನಿಲ್ದಾಣ",
        "public_transport": "station"
      }
    },
    {
      "type": "way",
      "id": 259879355,
      "center": {
        "lat": 12.8988397,
        "lon": 77.5572958
      },
      "tags": {
        "amenity": "place_of_worship",
        "denomination": "Shaivism",
        "name": "Vinayaka Temple",
        "name:kn": "ವಿನಾಯಕ ದೇವಸ್ಥಾನ",
        "religion": "hindu"
      }
    },
    {
      "type": "way",
      "id": 320372650,
      "center": {
        "lat": 12.8983871,
        "lon": 77.555736
      },
      "tags": {
        "highway": "footway",
        "leisure": "track",
        "name": "Devarakere jogging track",
        "surface": "paved"
      }
    },
    {
      "type": "way",
      "id": 347536226,
      "center": {
        "lat": 12.8961793,
        "lon": 77.5522955
      },
      "tags": {
        "amenity": "community_centre",
        "building": "yes"
      }
    },
    {
      "type": "way",
      "id": 362891218,
      "center": {
        "lat": 12.9002135,
        "lon": 77.5621488
      },
      "tags": {
        "leisure": "park",
        "name": "BBMP",
        "name:kn": "ಬೃ. ಬೆಂ. ಮ. ಪಾ.",
        "operator": "ಬೃಹತ್ ಬೆಂಗಳೂರು ಮಹಾನಗರ ಪಾಲಿಕೆ",
        "operator:en": "Bruhat Bengaluru Mahanagara Palike",
        "operator:ka": "ಬೃಹತ್ ಬೆಂಗಳೂರು ಮಹಾನಗರ ಪಾಲಿಕೆ",
        "operator:short": "BBMP",
        "operator:type": "government",
        "operator:wikidata": "Q4978693"
      }
    },
    {
      "type": "way",
      "id": 445480312,
      "center": {
        "lat": 12.8944062,
        "lon": 77.5557923
      },
      "tags": {
        "amenity": "school",
        "name": "Indira Vidya Mandir School",
        "name:kn": "ಇಂದಿರಾ ವಿದ್ಯಾ ಮಂದಿರ",
        "operator": "DAV Public School"
      }
    },
    {
      "type": "way",
      "id": 501844307,
      "center": {
        "lat": 12.8972527,
        "lon": 77.5576668
      },
      "tags": {
        "leisure": "park",
        "name": "ISRO Layout Children's Park",
        "name:en": "Dr. U.R. Rao Park"
      }
    },
    {
      "type": "way",
      "id": 585450314,
      "center": {
        "lat": 12.9048542,
        "lon": 77.5502474
      },
      "tags": {
        "access": "yes",
        "leisure": "pitch",
        "service_times": "24/7",
        "surface": "dirt"
      }
    },
    {
      "type": "way",
      "id": 627957762,
      "center": {
        "lat": 12.8883776,
        "lon": 77.5517564
      },
      "tags": {
        "leisure": "park"
      }
    },
    {
      "type": "way",
      "id": 1118946170,
      "center": {
        "lat": 12.8907999,
        "lon": 77.5486118
      },
      "tags": {
        "amenity": "place_of_worship",
        "landuse": "religious",
        "name": "Krishna Leela Park, ISCKON",
        "name:kn": "ಕೃಷ್ಣ ಲೀಲಾ ಉದ್ಯಾನವನ",
        "religion": "hindu"
      }
    },
    {
      "type": "way",
      "id": 1203175539,
      "center": {
        "lat": 12.9035215,
        "lon": 77.5574108
      },
      "tags": {
        "leisure": "park"
      }
    },
    {
      "type": "way",
      "id": 1208265159,
      "center": {
        "lat": 12.9011571,
        "lon": 77.5617683
      },
      "tags": {
        "leisure": "park"
      }
    },
    {
      "type": "way",
      "id": 1208265166,
      "center": {
        "lat": 12.8940511,
        "lon": 77.5576803
      },
      "tags": {
        "leisure": "sports_centre"
      }
    },
    {
      "type": "way",
      "id": 1270568405,
      "center": {
        "lat": 12.901644,
        "lon": 77.5616377
      },
      "tags": {
        "leisure": "park"
      }
    },
    {
      "type": "way",
      "id": 1270860707,
      "center": {
        "lat": 12.9027273,
        "lon": 77.5508723
      },
      "tags": {
        "leisure": "park"
      }
    },
    {
      "type": "way",
      "id": 1272148166,
      "center": {
        "lat": 12.8995204,
        "lon": 77.5580505
      },
      "tags": {
        "addr:city": "Bengaluru",
        "addr:district": "Bengaluru Urban",
        "addr:housenumber": "259",
        "addr:postcode": "560078",
        "addr:street": "3rd Main Road",
        "alt_name": "Mojro",
        "amenity": "bank",
        "atm": "yes",
        "brand": "State Bank of India",
        "brand:wikidata": "Q1340361",
        "building": "yes",
        "building:levels": "4",
        "name": "State Bank of India",
        "operator": "SBI",
        "short_name": "SBI"
      }
    },
    {
      "type": "way",
      "id": 1290631846,
      "center": {
        "lat": 12.8929509,
        "lon": 77.5532627
      },
      "tags": {
        "leisure": "park",
        "operator": "ಬೃಹತ್ ಬೆಂಗಳೂರು ಮಹಾನಗರ ಪಾಲಿಕೆ",
        "operator:en": "Bruhat Bengaluru Mahanagara Palike",
        "operator:ka": "ಬೃಹತ್ ಬೆಂಗಳೂರು ಮಹಾನಗರ ಪಾಲಿಕೆ",
        "operator:short": "BBMP",
        "operator:type": "government"
      }
    },
    {
      "type": "way",
      "id": 1297667819,
      "center": {
        "lat": 12.8890269,
        "lon": 77.5511308
      },
      "tags": {
        "access": "private",
        "leisure": "swimming_pool"
      }
    },
    {
      "type": "way",
      "id": 1297667822,
      "center": {
        "lat": 12.8876219,
        "lon": 77.5510935
      },
      "tags": {
        "access": "permissive",
        "amenity": "parking",
        "parking": "surface"
      }
    },
    {
      "type": "way",
      "id": 1297667823,
      "center": {
        "lat": 12.8886203,
        "lon": 77.5517818
      },
      "tags": {
        "leisure": "playground"
      }
    },
    {
      "type": "way",
      "id": 1416231938,
      "center": {
        "lat": 12.9005514,
        "lon": 77.5525787
      },
      "tags": {
        "leisure": "park"
      }
    },
    {
      "type": "way",
      "id": 1429694636,
      "center": {
        "lat": 12.899026,
        "lon": 77.5572529
      },
      "tags": {
        "amenity": "drinking_water",
        "name": "Reverse Osmosis Plant"
      }
    }
  ]
}