{
  "area_name": "Kamakya Layout",
  "osm_id": 19883380,
  "osm_type": "relation",
  "place_type": "administrative",
  "amenity_count": 59,
  "amenities": [
    {
      "type": "node",
      "id": 953674808,
      "lat": 12.9236391,
      "lon": 77.5534075,
      "tags": {
        "addr:street": "Outer Ring Road",
        "amenity": "cinema",
        "name": "Eeshwari Theatre",
        "name:en": "Eshwari Theater"
      }
    },
    {
      "type": "node",
      "id": 953675751,
      "lat": 12.9237141,
      "lon": 77.5534616,
      "tags": {
        "addr:street": "Outer Ring Road",
        "amenity": "restaurant",
        "name": "Shanthi Sagar",
        "name:kn": "ಶಾಂತಿ ಸಾಗರ"
      }
    },
    {
      "type": "node",
      "id": 1466477036,
      "lat": 12.9256842,
      "lon": 77.5489346,
      "tags": {
        "addr:district": "Bengaluru Urban",
        "addr:full": "No:114, 100 Feet Ring Road, 3Road Stage Banashankari",
        "addr:postcode": "560085",
        "addr:state": "Karnataka",
        "amenity": "hospital",
        "emergency": "yes",
        "name": "Udhbhava Hospital",
        "name:kn": "ಉದ್ಭವ ಆಸ್ಪತ್ರೆ",
        "source": "OpenGovernmentData"
      }
    },
    {
      "type": "node",
      "id": 1471945408,
      "lat": 12.9253564,
      "lon": 77.5496136,
      "tags": {
        "amenity": "restaurant",
        "cuisine": "indian",
        "name": "Nandhini",
        "name:kn": "ನಂದಿನಿ"
      }
    },
    {
      "type": "node",
      "id": 1473888090,
      "lat": 12.9232307,
      "lon": 77.5547094,
      "tags": {
        "name": "Cake of the day",
        "shop": "bakery"
      }
    },
    {
      "type": "node",
      "id": 1473946325,
      "lat": 12.9233352,
      "lon": 77.5545915,
      "tags": {
        "amenity": "fast_food",
        "name": "Mane Thindi",
        "name:kn": "ಮನೆ ತಿಂಡಿ"
      }
    },
    {
      "type": "node",
      "id": 1474820884,
      "lat": 12.923688,
      "lon": 77.5535473,
      "tags": {
        "amenity": "bank",
        "brand": "Canara Bank",
        "brand:en": "Canara Bank",
        "brand:hi": "केनरा बैंक",
        "brand:kn": "ಕೆನರಾ ಬ್ಯಾಂಕ್",
        "brand:pa": "ਕੇਨਰਾ ਬੈਂਕ",
        "brand:pnb": "کینرا بینک",
        "brand:ur": "کینرا بینک",
        "brand:wikidata": "Q2003777",
        "brand:wikipedia": "en:Canara Bank",
        "brand:wikipedia:pa": "ਕੇਨਰਾ ਬੈਂਕ",
        "name": "Canara Bank",
        "name:en": "Canara Bank",
        "name:hi": "केनरा बैंक",
        "name:kn": "ಕೆನರಾ ಬ್ಯಾಂಕ್",
        "name:pa": "ਕੇਨਰਾ ਬੈਂਕ",
        "name:pnb": "کینرا بینک",
        "name:ur": "کینرا بینک",
        "website": "https://www.canarabank.com/"
      }
    },
    {
      "type": "node",
      "id": 1474820885,
      "lat": 12.9236725,
      "lon": 77.5536141,
      "tags": {
        "amenity": "bank",
        "brand": "Axis Bank",
        "brand:wikidata": "Q2003549",
        "name": "Axis Bank",
        "name:kn": "ಆಕ್ಸಿಸ್ ಬ್ಯಾಂಕ್",
        "operator": "ATM"
      }
    },
    {
      "type": "node",
      "id": 1474820886,
      "lat": 12.923626,
      "lon": 77.5538171,
      "tags": {
        "name": "Salon",
        "shop": "convenience"
      }
    },
    {
      "type": "node",
      "id": 1474821031,
      "lat": 12.9237619,
      "lon": 77.5532989,
      "tags": {
        "amenity": "fast_food",
        "name": "Iyangar Bakery"
      }
    },
    {
      "type": "node",
      "id": 1474821317,
      "lat": 12.9235841,
      "lon": 77.5539351,
      "tags": {
        "name": "Titan Eye+",
        "shop": "convenience"
      }
    },
    {
      "type": "node",
      "id": 1474831726,
      "lat": 12.9246981,
      "lon": 77.5508112,
      "tags": {
        "name": "Reebok Store",
        "shop": "supermarket"
      }
    },
    {
      "type": "node",
      "id": 1474835281,
      "lat": 12.926078,
      "lon": 77.5484214,
      "tags": {
        "name": "Mom and Me",
        "shop": "clothes"
      }
    },
    {
      "type": "node",
      "id": 1812685208,
      "lat": 12.918619,
      "lon": 77.5518425,
      "tags": {
        "amenity": "place_of_worship",
        "name": "Temple",
        "name:kn": "ದೇವಸ್ಥಾನ",
        "religion": "hindu"
      }
    },
    {
      "type": "node",
      "id": 1816331548,
      "lat": 12.9235553,
      "lon": 77.5533335,
      "tags": {
        "amenity": "police",
        "name": "BSK 3rd stage Police Station",
        "wheelchair": "no"
      }
    },
    {
      "type": "node",
      "id": 2199535405,
      "lat": 12.9286056,
      "lon": 77.5453234,
      "tags": {
        "amenity": "cafe",
        "brand": "Cafe Coffee Day",
        "brand:wikidata": "Q5017235",
        "cuisine": "coffee_shop",
        "name": "Cafe Coffee Day",
        "name:kn": "ಕಫೆ ಕಾಫಿ ಡೇ",
        "opening_hours": "Mo-Su,PH 10:00-22:00",
        "takeaway": "yes",
        "wifi": "no"
      }
    },
    {
      "type": "node",
      "id": 2623606892,
      "lat": 12.9233245,
      "lon": 77.5533301,
      "tags": {
        "amenity": "cinema",
        "name": "Kamakya Theatre",
        "name:kn": "ಕಾಮಾಖ್ಯ"
      }
    },
    {
      "type": "node",
      "id": 4445160433,
      "lat": 12.931055,
      "lon": 77.5418888,
      "tags": {
        "addr:city": "Bangalore",
        "addr:housenumber": "# 633",
        "addr:postcode": "560085",
        "addr:street": "2nd Main Road, 7th Block, Banashankari 3rd Stag",
        "amenity": "pharmacy",
        "name": "Vishwas Medicals",
        "phone": "080-33055342"
      }
    },
    {
      "type": "node",
      "id": 4446338453,
      "lat": 12.9278495,
      "lon": 77.5462411,
      "tags": {
        "addr:city": "Banashankari,Bangalore",
        "addr:housenumber": "76",
        "addr:postcode": "560085",
        "addr:street": "1st Main Road",
        "amenity": "restaurant",
        "cuisine": "indian",
        "name": "Mandara Bar and Restaurant",
        "opening_hours": "00:00-24:00",
        "phone": "097318 20559",
        "takeaway": "yes",
        "wheelchair": "no"
      }
    },
    {
      "type": "node",
      "id": 4447087215,
      "lat": 12.9266045,
      "lon": 77.5459463,
      "tags": {
        "addr:city": "Bangalore",
        "addr:housenumber": "11",
        "addr:postcode": "560085",
        "addr:street": "Near Aiyappa Temple, Madivala",
        "amenity": "restaurant",
        "cuisine": "regional",
        "delivery": "yes",
        "name": "Kairali",
        "name:kn": "ಕೈರಲಿ",
        "opening_hours": "08:00-23:00",
        "phone": "+91 9844034033",
        "smoking": "no",
        "takeaway": "yes",
        "website": "https://www.kairali.com/"
      }
    },
    {
      "type": "node",
      "id": 4488323871,
      "lat": 12.9249152,
      "lon": 77.5504288,
      "tags": {
        "addr:city": "bangalore",
        "addr:postcode": "560085",
        "addr:street": "Outer Ring Road",
        "name": "Deep Breath Unisex Salon And Spa",
        "opening_hours": "07:00-21:00",
        "phone": "8197818685",
        "shop": "beauty"
      }
    },
    {
      "type": "node",
      "id": 4488335404,
      "lat": 12.9284682,
      "lon": 77.5452795,
      "tags": {
        "addr:city": "Banashankari,Bangalore",
        "addr:housenumber": "no.10",
        "addr:postcode": "560085",
        "addr:street": "50 Feet Road",
        "name": "Green Trends Hair & Style Salon",
        "opening_hours": "09:00-20:00",
        "phone": "9972936226",
        "shop": "beauty",
        "website": "https://www.mygreentrends.in/"
      }
    },
    {
      "type": "node",
      "id": 4617491993,
      "lat": 12.9300351,
      "lon": 77.5411161,
      "tags": {
        "amenity": "dentist",
        "name": "Vajradanta Dental Clinic",
        "name:en": "Vajradanta Dental Clinic"
      }
    },
    {
      "type": "node",
      "id": 4617491994,
      "lat": 12.9299855,
      "lon": 77.5411817,
      "tags": {
        "amenity": "fast_food",
        "name": "North Karnataka Joladda Roti",
        "name:en": "North Karnataka Joladda Roti"
      }
    },
    {
      "type": "node",
      "id": 4617527589,
      "lat": 12.929906,
      "lon": 77.5415113,
      "tags": {
        "amenity": "dentist",
        "name": "Chowdeshwari Dental Clinic",
        "name:en": "Chowdeshwari Dental Clinic"
      }
    },
    {
      "type": "node",
      "id": 4969981521,
      "lat": 12.9285357,
      "lon": 77.5453297,
      "tags": {
        "addr:postcode": "560085",
        "addr:street": "Outer Ring Road",
        "name": "Creatise office",
        "name:en": "Creatise office",
        "shop": "cosmetics"
      }
    },
    {
      "type": "node",
      "id": 4988213023,
      "lat": 12.9191661,
      "lon": 77.5511655,
      "tags": {
        "name": "RoyalMart",
        "shop": "supermarket"
      }
    },
    {
      "type": "node",
      "id": 5112171717,
      "lat": 12.9235363,
      "lon": 77.5530586,
      "tags": {
        "addr:city": "Bangalore",
        "addr:housenumber": "512",
        "addr:postcode": "560085",
        "addr:street": "2nd Cross,Banashankari",
        "amenity": "restaurant",
        "cuisine": "indian",
        "name": "Vaishali",
        "opening_hours": "11:30-23:30",
        "phone": "080 2672 2170",
        "takeaway": "yes"
      }
    },
    {
      "type": "node",
      "id": 6907496182,
      "lat": 12.9267487,
      "lon": 77.5475121,
      "tags": {
        "addr:city": "Hassan",
        "addr:district": "HASSAN",
        "addr:full": "K. R. Puram",
        "addr:postcode": "573201",
        "addr:state": "Karnataka",
        "amenity": "blood_bank",
        "contact:mobile": "9448885440",
        "contact:phone": "8172266124",
        "name": "Manjunath Orthopaedic and Trauma Centre Hospital Blood Bank",
        "opening_hours": "24/7",
        "operator:type": "private",
        "source": "OpenGovernmentData"
      }
    },
    {
      "type": "node",
      "id": 6939444286,
      "lat": 12.9246384,
      "lon": 77.5509238,
      "tags": {
        "addr:district": "Bengaluru Urban",
        "addr:full": "#271, 5Th Block, 100 Feet Road, 3Road Phase, Banashankari",
        "addr:postcode": "560085",
        "addr:state": "Karnataka",
        "amenity": "hospital",
        "name": "Abhilash Hospital And Sara Rehabilitation Centre",
        "source": "OpenGovernmentData"
      }
    },
    {
      "type": "node",
      "id": 6939582677,
      "lat": 12.9275311,
      "lon": 77.5457901,
      "tags": {
        "addr:district": "Bengaluru Urban",
        "addr:full": "30, 2nd Cross Anjaneya Nagar, 3Road Stage Banashankari",
        "addr:postcode": "560085",
        "addr:state": "Karnataka",
        "amenity": "hospital",
        "name": "Sg Hospital",
        "source": "OpenGovernmentData"
      }
    },
    {
      "type": "node",
      "id": 6944201468,
      "lat": 12.9271131,
      "lon": 77.5471291,
      "tags": {
        "addr:district": "Bengaluru Urban",
        "addr:full": "# 77, 100 Ft.Ring Road, B.S.K.3rd Stage, 5th Block",
        "addr:postcode": "560085",
        "addr:state": "Karnataka",
        "amenity": "hospital",
        "email": "abhayaeye@yahoo.com",
        "healthcare:speciality": "Cataract",
        "name": "Abhaya Eye Hospital, Super Speciality Eye Care Centre",
        "operator:type": "private",
        "source": "OpenGovernmentData",
        "website": "http://www.abhayaeyehospital.com/"
      }
    },
    {
      "type": "node",
      "id": 7258378647,
      "lat": 12.931298,
      "lon": 77.5412566,
      "tags": {
        "amenity": "hospital",
        "healthcare": "hospital",
        "healthcare:speciality": "optometry;optometrist",
        "name": "Vittal Eye HOspital"
      }
    },
    {
      "type": "node",
      "id": 7579924709,
      "lat": 12.9222659,
      "lon": 77.550702,
      "tags": {
        "addr:district": "Bengaluru Urban",
        "addr:full": "Bhuvaneshwari Nagar, Abbigere, Bengaluru",
        "addr:postcode": "560090",
        "addr:state": "Karnataka",
        "amenity": "clinic",
        "name": "Prashant Clinic",
        "source": "Local Knowledge"
      }
    },
    {
      "type": "node",
      "id": 7579924712,
      "lat": 12.9280659,
      "lon": 77.5446602,
      "tags": {
        "addr:district": "Bengaluru Urban",
        "addr:full": "Hosakerehalli, Bengaluru",
        "addr:postcode": "560085",
        "addr:state": "Karnataka",
        "amenity": "clinic",
        "name": "Hanumagiri Clinic",
        "source": "Local Knowledge"
      }
    },
    {
      "type": "node",
      "id": 7579924718,
      "lat": 12.9233888,
      "lon": 77.5512272,
      "tags": {
        "addr:district": "Bengaluru Urban",
        "addr:full": "Banashankari, Bengaluru",
        "addr:postcode": "560085",
        "addr:state": "Karnataka",
        "amenity": "doctors",
        "name": "Dr. S C Veerendra Kumar",
        "source": "Local Knowledge"
      }
    },
    {
      "type": "node",
      "id": 7579924722,
      "lat": 12.924971,
      "lon": 77.549831,
      "tags": {
        "addr:district": "Bengaluru Urban",
        "addr:full": "Banashankari, Bengaluru",
        "addr:postcode": "560085",
        "addr:state": "Karnataka",
        "amenity": "clinic",
        "name": "Shrinetra Eye Clinic",
        "source": "Local Knowledge"
      }
    },
    {
      "type": "node",
      "id": 7579924726,
      "lat": 12.9271897,
      "lon": 77.5447555,
      "tags": {
        "addr:district": "Bengaluru Urban",
        "addr:full": "Anjaneya Nagar, Ittamadu, Banashankari, Bengaluru",
        "addr:postcode": "560085",
        "addr:state": "Karnataka",
        "amenity": "clinic",
        "name": "Ramdas Homeopathy Clinic",
        "source": "Local Knowledge"
      }
    },
    {
      "type": "node",
      "id": 7579924740,
      "lat": 12.925261,
      "lon": 77.549434,
      "tags": {
        "addr:district": "Bengaluru Urban",
        "addr:full": "Banashankari, Bengaluru",
        "addr:postcode": "560085",
        "addr:state": "Karnataka",
        "amenity": "clinic",
        "name": "Dermacare Skin Clinic",
        "source": "Local Knowledge"
      }
    },
    {
      "type": "node",
      "id": 7579924746,
      "lat": 12.9250629,
      "lon": 77.5453371,
      "tags": {
        "addr:district": "Bengaluru Urban",
        "addr:full": "Banashankari 2nd Stage, Banglore",
        "addr:postcode": "560001",
        "addr:state": "Karnataka",
        "amenity": "clinic",
        "name": "Metropolis Healthcare",
        "source": "Local Knowledge"
      }
    },
    {
      "type": "node",
      "id": 7579924751,
      "lat": 12.9245451,
      "lon": 77.5492886,
      "tags": {
        "addr:district": "Bengaluru Urban",
        "addr:full": "Banashankari, Bengaluru",
        "addr:postcode": "560085",
        "addr:state": "Karnataka",
        "amenity": "doctors",
        "name": "Dr. Jagadish Adiga",
        "source": "Local Knowledge"
      }
    },
    {
      "type": "node",
      "id": 7579924760,
      "lat": 12.9254569,
      "lon": 77.5467101,
      "tags": {
        "addr:district": "Bengaluru Urban",
        "addr:full": "Banashankari, Bengaluru",
        "addr:postcode": "560085",
        "addr:state": "Karnataka",
        "amenity": "hospital",
        "name": "Sudha Prevention Centre",
        "source": "Local Knowledge"
      }
    },
    {
      "type": "node",
      "id": 7579924771,
      "lat": 12.9245021,
      "lon": 77.5511045,
      "tags": {
        "addr:district": "Bengaluru Urban",
        "addr:full": "Banashankari, Bengaluru",
        "addr:postcode": "560085",
        "addr:state": "Karnataka",
        "amenity": "dentist",
        "name": "Dental Plus Multispeciality Centre",
        "source": "Local Knowledge"
      }
    },
    {
      "type": "node",
      "id": 7579924775,
      "lat": 12.924474,
      "lon": 77.55082,
      "tags": {
        "addr:district": "Bengaluru Urban",
        "addr:full": "Banashankari, Bengaluru",
        "addr:postcode": "560085",
        "addr:state": "Karnataka",
        "amenity": "clinic",
        "name": "Hopeberry Clinic",
        "source": "Local Knowledge"
      }
    },
    {
      "type": "node",
      "id": 7579924778,
      "lat": 12.923358,
      "lon": 77.5467868,
      "tags": {
        "addr:district": "Bengaluru Urban",
        "addr:full": "Ittamadu, Banashankari, Bengaluru",
        "addr:postcode": "560085",
        "addr:state": "Karnataka",
        "amenity": "clinic",
        "name": "Ravi Clinic",
        "source": "Local Knowledge"
      }
    },
    {
      "type": "node",
      "id": 12330791159,
      "lat": 12.9266369,
      "lon": 77.5478043,
      "tags": {
        "addr:city": "Banashankari,Bangalore",
        "addr:district": "Bengaluru Urban",
        "addr:housenumber": "7, Mythri Park view, 1st Floor,",
        "addr:postcode": "560085",
        "addr:street": "5th Block, 3rd Phase, Banashankari 3rd Stage",
        "amenity": "studio",
        "name": "PIXELLOID STUDIOS PVT LTD",
        "studio": "video",
        "website": "https://pixelloid.com/"
      }
    },
    {
      "type": "node",
      "id": 12590497685,
      "lat": 12.9280341,
      "lon": 77.5435903,
      "tags": {
        "access": "private",
        "amenity": "parking_entrance",
        "parking": "underground"
      }
    },
    {
      "type": "node",
      "id": 13112261001,
      "lat": 12.9266268,
      "lon": 77.547741,
      "tags": {
        "addr:housenumber": "7",
        "addr:postcode": "560085",
        "addr:street": "100 Feet Ring Road",
        "amenity": "fast_food",
        "cuisine": "burger;chicken;sandwich",
        "level": "0",
        "name": "KFC",
        "opening_hours": "Mo-Su 11:00-23:00",
        "phone": "+91 97110 89497",
        "self_service": "partially",
        "website": "https://restaurants.kfc.co.in/",
        "website:menu": "https://restaurants.kfc.co.in/kfc-banashankari-restaurants-banashankari-bengaluru-103018/Home"
      }
    },
    {
      "type": "way",
      "id": 141790510,
      "center": {
        "lat": 12.9301996,
        "lon": 77.5422679
      },
      "tags": {
        "leisure": "park",
        "name": "Nandanavana Udyanavana",
        "name:kn": "ನಂದನವನ ಉದ್ಯಾನವನ"
      }
    },
    {
      "type": "way",
      "id": 141791769,
      "center": {
        "lat": 12.9308127,
        "lon": 77.5412224
      },
      "tags": {
        "addr:district": "Bengaluru Urban",
        "addr:full": "#1,2nd Cross, 2nd Main,7Th Block, Banashankari 3Road Stage, Hosakerehalli",
        "addr:postcode": "560085",
        "addr:state": "Karnataka",
        "amenity": "hospital",
        "emergency": "yes",
        "name": "Vittala International Institute Of Ophthalmology, Hosakerehalli",
        "source": "OpenGovernmentData"
      }
    },
    {
      "type": "way",
      "id": 141813089,
      "center": {
        "lat": 12.929527,
        "lon": 77.5438362
      },
      "tags": {
        "amenity": "college",
        "name": "NCERT"
      }
    },
    {
      "type": "way",
      "id": 141816745,
      "center": {
        "lat": 12.9317713,
        "lon": 77.5414635
      },
      "tags": {
        "addr:postcode": "560085",
        "addr:street": "Hosakerehalli",
        "amenity": "school",
        "name": "Little Flower School"
      }
    },
    {
      "type": "way",
      "id": 334651222,
      "center": {
        "lat": 12.9232707,
        "lon": 77.5492432
      },
      "tags": {
        "leisure": "park"
      }
    },
    {
      "type": "way",
      "id": 362892752,
      "center": {
        "lat": 12.9250329,
        "lon": 77.5470519
      },
      "tags": {
        "leisure": "park"
      }
    },
    {
      "type": "way",
      "id": 1217326870,
      "center": {
        "lat": 12.9291128,
        "lon": 77.5422803
      },
      "tags": {
        "access": "private",
        "leisure": "swimming_pool"
      }
    },
    {
      "type": "way",
      "id": 1360123892,
      "center": {
        "lat": 12.9287096,
        "lon": 77.5435724
      },
      "tags": {
        "access": "private",
        "amenity": "parking",
        "orientation": "perpendicular",
        "parking": "street_side"
      }
    },
    {
      "type": "way",
      "id": 1360123893,
      "center": {
        "lat": 12.9277859,
        "lon": 77.5435403
      },
      "tags": {
        "access": "private",
        "amenity": "parking",
        "parking": "street_side"
      }
    },
    {
      "type": "way",
      "id": 1360123910,
      "center": {
        "lat": 12.9275136,
        "lon": 77.5437387
      },
      "tags": {
        "access": "private",
        "leisure": "pitch",
        "sport": "tennis"
      }
    },
    {
      "type": "way",
      "id": 1427123916,
      "center": {
        "lat": 12.9261305,
        "lon": 77.5476418
      },
      "tags": {
        "leisure": "park",
        "name": "Kuvempu Park"
      }
    }
  ]
}