{
  "area_name": "Kariyammana Agrahara",
  "osm_id": 3772206674,
  "osm_type": "node",
  "place_type": "neighbourhood",
  "amenity_count": 188,
  "amenities": [
    {
      "type": "node",
      "id": 983942391,
      "lat": 12.931753,
      "lon": 77.68645,
      "tags": {
        "addr:city": "Devara Bisnhalli, Bellandur",
        "addr:housenumber": "103",
        "addr:postcode": "560037",
        "amenity": "restaurant",
        "cuisine": "indian",
        "internet_access": "no",
        "name": "Eden Dhaba",
        "name:kn": "ಒಡೆನ್ ಡಾಬ",
        "phone": "+91-80-65957659;+91-9342571046"
      }
    },
    {
      "type": "node",
      "id": 1174025197,
      "lat": 12.9300352,
      "lon": 77.6841894,
      "tags": {
        "amenity": "bank",
        "atm": "yes",
        "brand": "HDFC Bank",
        "brand:wikidata": "Q631047",
        "brand:wikipedia": "en:HDFC Bank",
        "check_date": "2024-12-23",
        "currency:INR": "yes",
        "drive_through": "no",
        "name": "HDFC Bank",
        "name:kn": "ಎಚ್ ಡಿ ಎಫ್ ಸಿ",
        "payment:cards": "no",
        "payment:cash": "yes",
        "payment:credit_cards": "no",
        "payment:debit_cards": "no",
        "short_name": "HDFC",
        "website": "https://www.hdfcbank.com",
        "wheelchair": "yes"
      }
    },
    {
      "type": "node",
      "id": 2412916687,
      "lat": 12.928883,
      "lon": 77.6870083,
      "tags": {
        "leisure": "sports_centre",
        "sport": "tennis"
      }
    },
    {
      "type": "node",
      "id": 2413350412,
      "lat": 12.9406602,
      "lon": 77.6936066,
      "tags": {
        "leisure": "swimming_pool",
        "sport": "swimming"
      }
    },
    {
      "type": "node",
      "id": 2413361199,
      "lat": 12.9394473,
      "lon": 77.6922736,
      "tags": {
        "leisure": "swimming_pool",
        "sport": "swimming"
      }
    },
    {
      "type": "node",
      "id": 2417827937,
      "lat": 12.935016,
      "lon": 77.6947265,
      "tags": {
        "amenity": "atm",
        "brand": "HDFC Bank",
        "brand:wikidata": "Q631047",
        "cash_in": "no",
        "name": "HDFC Bank",
        "operator": "HDFC Bank",
        "operator:wikidata": "Q631047",
        "short_name": "HDFC"
      }
    },
    {
      "type": "node",
      "id": 2417865360,
      "lat": 12.9356128,
      "lon": 77.6951527,
      "tags": {
        "access": "customers",
        "amenity": "parking",
        "fee": "no",
        "name": "Cisco Visitor's Parking",
        "parking": "surface"
      }
    },
    {
      "type": "node",
      "id": 2417865362,
      "lat": 12.9357853,
      "lon": 77.6951635,
      "tags": {
        "amenity": "bicycle_parking",
        "bicycle_parking": "informal",
        "covered": "no",
        "name": "Cisco Visitor's Parking"
      }
    },
    {
      "type": "node",
      "id": 2432309201,
      "lat": 12.9357533,
      "lon": 77.6962873,
      "tags": {
        "addr:city": "Bengaluru",
        "addr:housenumber": "BGL-12",
        "addr:postcode": "560103",
        "addr:street": "Cessna Business Park",
        "amenity": "cafe",
        "internet_access": "wlan",
        "name": "Clubhouse Cafe",
        "outdoor_seating": "yes"
      }
    },
    {
      "type": "node",
      "id": 2738839665,
      "lat": 12.9392013,
      "lon": 77.695393,
      "tags": {
        "addr:housenumber": "20/5 Narayanaswamy Building",
        "addr:street": "Outer Ring Road",
        "amenity": "restaurant"
      }
    },
    {
      "type": "node",
      "id": 3237596895,
      "lat": 12.9398646,
      "lon": 77.6959322,
      "tags": {
        "amenity": "restaurant",
        "cuisine": "regional",
        "indoor_seating": "yes",
        "name": "Bhagini",
        "name:kn": "ಭಗಿನಿ",
        "outdoor_seating": "no"
      }
    },
    {
      "type": "node",
      "id": 3239060994,
      "lat": 12.9389751,
      "lon": 77.6953137,
      "tags": {
        "amenity": "restaurant",
        "brand": "Pizza Hut",
        "brand:wikidata": "Q191615",
        "brand:wikipedia": "en:Pizza Hut",
        "cuisine": "pizza",
        "name": "Pizza Hut",
        "name:kn": "ಪಿಟ್ಸ ಹಟ್",
        "wheelchair": "no"
      }
    },
    {
      "type": "node",
      "id": 3771374125,
      "lat": 12.9353215,
      "lon": 77.6944935,
      "tags": {
        "amenity": "food_court",
        "indoor_seating": "yes",
        "opening_hours": "Jan-Dec: Mo-Su 08:00-22:00",
        "outdoor_seating": "no"
      }
    },
    {
      "type": "node",
      "id": 3778299724,
      "lat": 12.9298938,
      "lon": 77.6838388,
      "tags": {
        "brand": "Hyundai",
        "check_date": "2024-12-23",
        "name": "Adwaith Hyundai",
        "service:vehicle:car_repair": "yes",
        "service:vehicle:new_car_sales": "yes",
        "shop": "car"
      }
    },
    {
      "type": "node",
      "id": 3778335490,
      "lat": 12.9300073,
      "lon": 77.6831267,
      "tags": {
        "amenity": "bar",
        "name": "Chez Nous"
      }
    },
    {
      "type": "node",
      "id": 3778335491,
      "lat": 12.9300348,
      "lon": 77.6834526,
      "tags": {
        "amenity": "restaurant",
        "name": "Blue Terrain"
      }
    },
    {
      "type": "node",
      "id": 3778335492,
      "lat": 12.9301328,
      "lon": 77.6833467,
      "tags": {
        "amenity": "restaurant",
        "name": "The Square"
      }
    },
    {
      "type": "node",
      "id": 3778335493,
      "lat": 12.9298844,
      "lon": 77.683466,
      "tags": {
        "amenity": "bar",
        "name": "The Hub"
      }
    },
    {
      "type": "node",
      "id": 3778342761,
      "lat": 12.9298531,
      "lon": 77.6831469,
      "tags": {
        "name": "Delice",
        "shop": "bakery"
      }
    },
    {
      "type": "node",
      "id": 3797601852,
      "lat": 12.9301816,
      "lon": 77.6842618,
      "tags": {
        "check_date": "2025-04-06",
        "name": "pnb Housing",
        "shop": "money_lender"
      }
    },
    {
      "type": "node",
      "id": 3806232205,
      "lat": 12.9343194,
      "lon": 77.6895154,
      "tags": {
        "amenity": "restaurant",
        "cuisine": "North_Indian",
        "level": "0",
        "name": "Punjabi Tadka",
        "name:kn": "ಪಂಜಾಬಿ ತಡ್ಕ"
      }
    },
    {
      "type": "node",
      "id": 3806988604,
      "lat": 12.9316927,
      "lon": 77.6863358,
      "tags": {
        "amenity": "post_office",
        "brand": "Desk to Desk Courier & Cargo",
        "brand:short": "DTDC",
        "brand:wikidata": "Q55608802",
        "check_date": "2025-06-21",
        "level": "0",
        "name": "DTDC Couriers",
        "operator": "Desk to Desk Courier & Cargo",
        "operator:short": "DTDC",
        "operator:wikidata": "Q55608802"
      }
    },
    {
      "type": "node",
      "id": 4443755982,
      "lat": 12.9321521,
      "lon": 77.6861286,
      "tags": {
        "addr:city": "Bangalore",
        "addr:housenumber": "52/2, 52/3",
        "addr:street": "Marathahalli, Sarjapura outer ring road, Devarabisanahalli, Bellandur",
        "amenity": "post_office",
        "brand": "FedEx",
        "brand:wikidata": "Q459477",
        "name": "FedEx Office",
        "phone": "+91-9986827831",
        "shop": "copyshop",
        "website": "www.fedex.com"
      }
    },
    {
      "type": "node",
      "id": 4443764210,
      "lat": 12.9380952,
      "lon": 77.687157,
      "tags": {
        "addr:city": "Bangalore",
        "addr:housenumber": "1",
        "addr:postcode": "560037",
        "addr:street": "Kariyammana Agrahara Rd, Kadubeesanahalli, Marathahalli",
        "name": "Ayyappa Bakery",
        "name:kn": "ಅಯ್ಯಪ್ಪ ಬೇಕರಿ",
        "shop": "bakery"
      }
    },
    {
      "type": "node",
      "id": 4446529790,
      "lat": 12.9432871,
      "lon": 77.6813799,
      "tags": {
        "addr:city": "Bangalore",
        "addr:postcode": "560103",
        "addr:street": "Kariyammana Agrahara Rd, Kariyammana Agrahara, Bellandur",
        "name": "Nchant3D Demo Studio",
        "shop": "photo_studio",
        "website": "http://musion.co.in/"
      }
    },
    {
      "type": "node",
      "id": 4447013311,
      "lat": 12.9323507,
      "lon": 77.6861082,
      "tags": {
        "addr:city": "Bangalore",
        "addr:postcode": "560103",
        "addr:street": "52/2, 52/3, Marathahalli, Sarjapura outer ring road, Devarabisanahalli, Bellandur",
        "name": "Fedex Expree",
        "phone": "9986827831",
        "shop": "yes",
        "website": "www.fedex.com"
      }
    },
    {
      "type": "node",
      "id": 4447017927,
      "lat": 12.9319201,
      "lon": 77.6845129,
      "tags": {
        "addr:city": "Bengaluru",
        "addr:postcode": "560103",
        "addr:street": "Marthahalli, Sarjapura outer ring road, Devarabisanahalli, Bellandur,",
        "name": "Online Cake Delivery",
        "phone": "9711655953",
        "shop": "pastry",
        "website": "www.onlinecakesnabes.com"
      }
    },
    {
      "type": "node",
      "id": 4447105943,
      "lat": 12.9369877,
      "lon": 77.6875894,
      "tags": {
        "addr:street": "Panathur, Chandana, Bengaluru karnataka",
        "amenity": "school",
        "name": "Government Higher Primary School",
        "name:kn": "ಪಣತೂರು ಸರ್ಕಾರಿ ಹಿರಿಯ ಪ್ರಾಥಮಿಕ ಶಾಲೆ"
      }
    },
    {
      "type": "node",
      "id": 4447122292,
      "lat": 12.9391586,
      "lon": 77.6892056,
      "tags": {
        "addr:city": "Bangalore",
        "addr:housenumber": "1",
        "addr:street": "Kariyammana agrahara, yemalur, Marathalli,",
        "amenity": "restaurant",
        "name": "69 Second",
        "phone": "+919986383678"
      }
    },
    {
      "type": "node",
      "id": 4447132776,
      "lat": 12.9343473,
      "lon": 77.6894576,
      "tags": {
        "addr:street": "Marathahalli, Outer ring road, Devarabisenahalli, Bellandur, Kadubisenahalli, Bangalore",
        "name": "Patel Milk Corner",
        "shop": "dairy"
      }
    },
    {
      "type": "node",
      "id": 4447160251,
      "lat": 12.9343229,
      "lon": 77.6861083,
      "tags": {
        "addr:city": "bangalore",
        "addr:street": "Outer Ring Road",
        "amenity": "cafe",
        "name": "Classic Tea Stall"
      }
    },
    {
      "type": "node",
      "id": 4447236549,
      "lat": 12.9369135,
      "lon": 77.6905688,
      "tags": {
        "addr:street": "56,srinivas reddy building bellandur banglore 03",
        "amenity": "cafe",
        "name": "ande ka funda"
      }
    },
    {
      "type": "node",
      "id": 4668296373,
      "lat": 12.940448,
      "lon": 77.6938156,
      "tags": {
        "amenity": "place_of_worship",
        "name": "Temple",
        "name:kn": "ದೇವಸ್ಥಾನ"
      }
    },
    {
      "type": "node",
      "id": 4852926309,
      "lat": 12.9416779,
      "lon": 77.6941135,
      "tags": {
        "access": "private",
        "amenity": "parking_entrance",
        "parking": "underground"
      }
    },
    {
      "type": "node",
      "id": 5536129478,
      "lat": 12.9311048,
      "lon": 77.6937955,
      "tags": {
        "amenity": "smoking_area",
        "bench": "yes",
        "bin": "yes",
        "shelter": "yes"
      }
    },
    {
      "type": "node",
      "id": 6569023743,
      "lat": 12.9310262,
      "lon": 77.691147,
      "tags": {
        "addr:city": "Bengaluru",
        "addr:country": "IN",
        "addr:hamlet": "Embassy Tech Village",
        "addr:housename": "Block L",
        "addr:postcode": "560103",
        "addr:street": "Outer Ring Road",
        "addr:suburb": "Bellandur",
        "amenity": "coworking_space",
        "brand": "WeWork",
        "brand:wikidata": "Q19995004",
        "fee": "yes",
        "name": "WeWork",
        "office": "coworking",
        "operator": "WeWork",
        "website": "https://www.wework.com/buildings/embassy-techvillage--bengaluru--Karnataka"
      }
    },
    {
      "type": "node",
      "id": 6613030600,
      "lat": 12.9392131,
      "lon": 77.6947005,
      "tags": {
        "amenity": "restaurant",
        "name": "The Black Pearl"
      }
    },
    {
      "type": "node",
      "id": 6886594756,
      "lat": 12.9323425,
      "lon": 77.685214,
      "tags": {
        "addr:city": "Bengaluru",
        "addr:district": "BENGALURU URBAN",
        "addr:full": "Sakra world Hospital (A Unit of Takshasila Hospitals Operating Private Limited), S. No. 52/2 and 52/3, Devarabeesanahalli, Varthur Hobli, Bellandur Post",
        "addr:postcode": "560103",
        "addr:state": "Karnataka",
        "amenity": "blood_bank",
        "contact:mobile": "7259003589",
        "contact:phone": "8049694916",
        "name": "Sakra World Hospital Blood Bank",
        "opening_hours": "24/7",
        "operator:type": "private",
        "source": "OpenGovernmentData",
        "website": "https://www.sakraworldhospital.com/"
      }
    },
    {
      "type": "node",
      "id": 9318156172,
      "lat": 12.9388351,
      "lon": 77.6952036,
      "tags": {
        "addr:city": "Bengaluru",
        "addr:postcode": "560103",
        "addr:street": "Outer Ring Road",
        "amenity": "restaurant",
        "name": "Float Rooftop Restaurant"
      }
    },
    {
      "type": "node",
      "id": 9318156173,
      "lat": 12.9388878,
      "lon": 77.6952654,
      "tags": {
        "addr:city": "Bengaluru",
        "addr:postcode": "560103",
        "addr:street": "Outer Ring Road",
        "amenity": "restaurant",
        "name": "Jalsa Gold Restaurant"
      }
    },
    {
      "type": "node",
      "id": 9318844964,
      "lat": 12.9386058,
      "lon": 77.6941216,
      "tags": {
        "addr:city": "Bengaluru",
        "addr:postcode": "560103",
        "addr:street": "Outer Ring Road",
        "amenity": "bank",
        "atm": "yes",
        "brand": "Axis Bank",
        "brand:wikidata": "Q2003549",
        "brand:wikipedia": "en:Axis Bank",
        "drive_through": "no",
        "level": "0",
        "name": "Axis Bank"
      }
    },
    {
      "type": "node",
      "id": 9318844966,
      "lat": 12.9392395,
      "lon": 77.6947632,
      "tags": {
        "addr:city": "Bengaluru",
        "addr:postcode": "560103",
        "addr:street": "Outer Ring Road",
        "brand": "Kia",
        "brand:wikidata": "Q35349",
        "brand:wikipedia": "en:Kia",
        "name": "Kia",
        "shop": "car"
      }
    },
    {
      "type": "node",
      "id": 9318844969,
      "lat": 12.9396833,
      "lon": 77.6951038,
      "tags": {
        "addr:city": "Bengaluru",
        "addr:postcode": "560103",
        "addr:street": "Outer Ring Road",
        "name": "Sangeeta Mobiles",
        "payment:credit_cards": "yes",
        "payment:debit_cards": "yes",
        "shop": "electronics",
        "wheelchair": "yes"
      }
    },
    {
      "type": "node",
      "id": 9795117735,
      "lat": 12.9385651,
      "lon": 77.6941041,
      "tags": {
        "level": "1",
        "name": "Pepperfry",
        "shop": "furniture"
      }
    },
    {
      "type": "node",
      "id": 9795117736,
      "lat": 12.9386084,
      "lon": 77.6941557,
      "tags": {
        "leisure": "spa",
        "level": "2",
        "name": "Serenity Spa"
      }
    },
    {
      "type": "node",
      "id": 9846394221,
      "lat": 12.9345352,
      "lon": 77.6906624,
      "tags": {
        "air_conditioning": "no",
        "amenity": "restaurant",
        "check_date": "2025-04-09",
        "cuisine": "biryani",
        "diet:non-vegetarian": "yes",
        "indoor_seating": "yes",
        "name": "Ambur Hot Dum Biryani",
        "outdoor_seating": "no",
        "smoking": "no"
      }
    },
    {
      "type": "node",
      "id": 10259164684,
      "lat": 12.9338879,
      "lon": 77.6862757,
      "tags": {
        "name": "Suraj Store",
        "shop": "yes"
      }
    },
    {
      "type": "node",
      "id": 10291118233,
      "lat": 12.9368715,
      "lon": 77.6888055,
      "tags": {
        "addr:city": "Bengaluru",
        "addr:country": "IN",
        "addr:housename": "Helios Business Park",
        "addr:housenumber": "150",
        "addr:postcode": "560103",
        "addr:street": "Outer Ring Road",
        "addr:suburb": "Kadubeesanahalli",
        "addr:unit": "Wing C",
        "amenity": "coworking_space",
        "brand": "The Executive Centre",
        "email": "bangalore@executivecentre.com",
        "fee": "yes",
        "level": "10",
        "name": "The Executive Centre",
        "office": "coworking",
        "operator": "The Executive Centre",
        "phone": "+91 80 6158 1000",
        "website": "https://www.executivecentre.com/en-in/office-space/helios-business-park/"
      }
    },
    {
      "type": "node",
      "id": 10946873740,
      "lat": 12.9420984,
      "lon": 77.6945226,
      "tags": {
        "addr:city": "Bengaluru",
        "addr:country": "IN",
        "addr:street": "Outer Ring Road",
        "addr:suburb": "Marathahalli",
        "amenity": "coworking_space",
        "branch": "Prestige Tech Park",
        "brand": "WeWork",
        "brand:wikidata": "Q19995004",
        "fee": "yes",
        "name": "WeWork",
        "office": "coworking",
        "opening_hours": "24/7",
        "operator": "WeWork"
      }
    },
    {
      "type": "node",
      "id": 11473108147,
      "lat": 12.9299719,
      "lon": 77.6859289,
      "tags": {
        "amenity": "restaurant",
        "name": "Public Bar and Kitchen"
      }
    },
    {
      "type": "node",
      "id": 11505197729,
      "lat": 12.9412266,
      "lon": 77.6901359,
      "tags": {
        "access": "private",
        "amenity": "parking_entrance",
        "parking": "underground"
      }
    },
    {
      "type": "node",
      "id": 11505197739,
      "lat": 12.9427337,
      "lon": 77.6905008,
      "tags": {
        "access": "private",
        "amenity": "parking_entrance",
        "parking": "underground"
      }
    },
    {
      "type": "node",
      "id": 11518330724,
      "lat": 12.9395941,
      "lon": 77.6895122,
      "tags": {
        "access": "private",
        "amenity": "parking_entrance",
        "parking": "underground"
      }
    },
    {
      "type": "node",
      "id": 11535944274,
      "lat": 12.9319416,
      "lon": 77.6917676,
      "tags": {
        "access": "private",
        "amenity": "parking_entrance",
        "parking": "underground"
      }
    },
    {
      "type": "node",
      "id": 11535944281,
      "lat": 12.932563,
      "lon": 77.6923825,
      "tags": {
        "access": "private",
        "amenity": "parking_entrance",
        "maxheight": "2.5",
        "parking": "underground"
      }
    },
    {
      "type": "node",
      "id": 11535944285,
      "lat": 12.9322192,
      "lon": 77.692479,
      "tags": {
        "amenity": "parking_entrance",
        "maxheight": "2.5",
        "parking": "underground"
      }
    },
    {
      "type": "node",
      "id": 11535944287,
      "lat": 12.9322271,
      "lon": 77.6940849,
      "tags": {
        "amenity": "parking_entrance",
        "maxheight": "2.5",
        "parking": "underground"
      }
    },
    {
      "type": "node",
      "id": 11535944291,
      "lat": 12.9322018,
      "lon": 77.6944201,
      "tags": {
        "amenity": "parking_entrance",
        "maxheight": "2.5",
        "parking": "underground"
      }
    },
    {
      "type": "node",
      "id": 11535944299,
      "lat": 12.9330464,
      "lon": 77.6917744,
      "tags": {
        "access": "private",
        "amenity": "parking_entrance",
        "maxheight": "2.5",
        "parking": "underground"
      }
    },
    {
      "type": "node",
      "id": 11548980361,
      "lat": 12.9305831,
      "lon": 77.6917143,
      "tags": {
        "amenity": "fountain"
      }
    },
    {
      "type": "node",
      "id": 11548980362,
      "lat": 12.9304054,
      "lon": 77.6921663,
      "tags": {
        "amenity": "fountain"
      }
    },
    {
      "type": "node",
      "id": 11608263527,
      "lat": 12.9421533,
      "lon": 77.6916566,
      "tags": {
        "amenity": "fountain"
      }
    },
    {
      "type": "node",
      "id": 11608339729,
      "lat": 12.938138,
      "lon": 77.6963934,
      "tags": {
        "access": "private",
        "amenity": "parking_entrance",
        "parking": "underground"
      }
    },
    {
      "type": "node",
      "id": 11652249425,
      "lat": 12.9393832,
      "lon": 77.6902156,
      "tags": {
        "amenity": "parking_entrance",
        "parking": "underground"
      }
    },
    {
      "type": "node",
      "id": 11652265573,
      "lat": 12.9363795,
      "lon": 77.6900424,
      "tags": {
        "amenity": "parking_entrance",
        "parking": "underground"
      }
    },
    {
      "type": "node",
      "id": 11652265586,
      "lat": 12.9370423,
      "lon": 77.6902591,
      "tags": {
        "amenity": "parking_entrance",
        "parking": "underground"
      }
    },
    {
      "type": "node",
      "id": 11652265589,
      "lat": 12.9382469,
      "lon": 77.6888469,
      "tags": {
        "amenity": "parking_entrance",
        "parking": "underground"
      }
    },
    {
      "type": "node",
      "id": 11811087974,
      "lat": 12.9298982,
      "lon": 77.6854473,
      "tags": {
        "amenity": "pub",
        "contact:instagram": "biergartenbangalore",
        "cuisine": "pizza;regional;sandwich;burger",
        "delivery": "no",
        "indoor_seating": "yes",
        "name": "Biergarten Brewery & Kitchen",
        "outdoor_seating": "yes",
        "smoking": "isolated",
        "takeaway": "yes"
      }
    },
    {
      "type": "node",
      "id": 12057058306,
      "lat": 12.9377734,
      "lon": 77.6946701,
      "tags": {
        "addr:city": "Bangalore",
        "addr:country": "IN",
        "addr:hamlet": "Kaverappa Layout",
        "addr:postcode": "560103",
        "addr:street": "Outer Ring Road",
        "addr:suburb": "Kadubeesanahalli",
        "air_conditioning": "yes",
        "amenity": "restaurant",
        "cuisine": "american",
        "delivery": "yes",
        "diet:vegetarian": "yes",
        "indoor_seating": "yes",
        "name": "Bellandur Social",
        "outdoor_seating": "no",
        "payment:credit_cards": "yes",
        "payment:debit_cards": "yes",
        "smoking": "separated",
        "takeaway": "yes",
        "wheelchair": "no"
      }
    },
    {
      "type": "node",
      "id": 12143892929,
      "lat": 12.9425359,
      "lon": 77.6799763,
      "tags": {
        "amenity": "fuel",
        "brand": "Nayara",
        "brand:wikidata": "Q5399377",
        "name": "Nayara"
      }
    },
    {
      "type": "node",
      "id": 12833666826,
      "lat": 12.9314991,
      "lon": 77.6861058,
      "tags": {
        "amenity": "restaurant",
        "check_date": "2025-09-03",
        "diet:vegetarian": "yes",
        "name": "Udupi Nalapaka"
      }
    },
    {
      "type": "node",
      "id": 12833666827,
      "lat": 12.9315351,
      "lon": 77.6859333,
      "tags": {
        "amenity": "restaurant",
        "check_date": "2025-09-03",
        "name": "Dalchini"
      }
    },
    {
      "type": "node",
      "id": 12872632042,
      "lat": 12.9319237,
      "lon": 77.6868657,
      "tags": {
        "name": "MH Car and Bike Decor",
        "shop": "car_parts"
      }
    },
    {
      "type": "node",
      "id": 12942152842,
      "lat": 12.9327315,
      "lon": 77.6913193,
      "tags": {
        "amenity": "bicycle_rental",
        "brand": "Yulu",
        "brand:wikidata": "Q104871276",
        "check_date": "2025-06-21",
        "network": "Yulu",
        "network:wikidata": "Q104871276",
        "operator": "Yulu",
        "operator:type": "private"
      }
    },
    {
      "type": "node",
      "id": 12942381204,
      "lat": 12.9315315,
      "lon": 77.6862132,
      "tags": {
        "amenity": "pharmacy",
        "check_date": "2025-09-03",
        "healthcare": "pharmacy",
        "name": "Ramdev Medicals"
      }
    },
    {
      "type": "node",
      "id": 12942381205,
      "lat": 12.9314655,
      "lon": 77.6860413,
      "tags": {
        "amenity": "dentist",
        "check_date": "2025-06-21",
        "healthcare": "dentist"
      }
    },
    {
      "type": "node",
      "id": 13008559922,
      "lat": 12.929764,
      "lon": 77.6851805,
      "tags": {
        "amenity": "restaurant",
        "name": "Udupi Gokula"
      }
    },
    {
      "type": "node",
      "id": 13062869342,
      "lat": 12.936848,
      "lon": 77.6890633,
      "tags": {
        "amenity": "cafe",
        "brand": "Starbucks",
        "brand:pa": "ਸਟਾਰਬਕਸ",
        "brand:ur": "اسٹاربکس",
        "brand:wikidata": "Q37158",
        "brand:wikipedia": "en:Starbucks",
        "cuisine": "coffee_shop",
        "name": "Starbucks",
        "name:pa": "ਸਟਾਰਬਕਸ",
        "name:ur": "اسٹاربکس",
        "official_name": "Starbucks Coffee",
        "official_name:pa": "ਸਟਾਰਬਕਸ ਕੌਫੀ",
        "official_name:ur": "اسٹاربکس کافی",
        "takeaway": "yes"
      }
    },
    {
      "type": "node",
      "id": 13116211434,
      "lat": 12.9320549,
      "lon": 77.685201,
      "tags": {
        "addr:floor": "G",
        "amenity": "cafe",
        "check_date": "2025-09-03",
        "level": "0",
        "name": "Third Wave Coffee",
        "outdoor_seating": "only"
      }
    },
    {
      "type": "node",
      "id": 13116318617,
      "lat": 12.9320295,
      "lon": 77.6854691,
      "tags": {
        "amenity": "atm",
        "brand": "Kotak Mahindra Bank",
        "brand:wikidata": "Q2040404",
        "check_date": "2025-09-03",
        "operator": "Kotak Mahindra Bank",
        "operator:wikidata": "Q2040404"
      }
    },
    {
      "type": "node",
      "id": 13116318618,
      "lat": 12.9320273,
      "lon": 77.6854454,
      "tags": {
        "amenity": "atm",
        "brand": "Axis Bank",
        "brand:wikidata": "Q2003549",
        "check_date": "2025-09-03",
        "operator": "Axis Bank",
        "operator:wikidata": "Q2003549",
        "ref": "CECN 78514"
      }
    },
    {
      "type": "node",
      "id": 13116537351,
      "lat": 12.9316969,
      "lon": 77.6848482,
      "tags": {
        "addr:floor": "G",
        "amenity": "restaurant",
        "check_date": "2025-09-03",
        "cuisine": "indian;regional;south_indian;north_indian;chaat;juice;sandwich;coffee_shop",
        "diet:vegetarian": "only",
        "events_venue": "yes",
        "level": "0",
        "name": "Nalapaka Express"
      }
    },
    {
      "type": "node",
      "id": 13324224982,
      "lat": 12.9358146,
      "lon": 77.6919227,
      "tags": {
        "name": "puncture",
        "shop": "tyres"
      }
    },
    {
      "type": "node",
      "id": 13324226367,
      "lat": 12.9329544,
      "lon": 77.6887538,
      "tags": {
        "amenity": "shelter"
      }
    },
    {
      "type": "node",
      "id": 13342712901,
      "lat": 12.942863,
      "lon": 77.6921234,
      "tags": {
        "amenity": "cafe",
        "brand": "Third Wave Coffee Roasters",
        "brand:wikidata": "Q7785004",
        "cuisine": "coffee_shop",
        "delivery": "yes",
        "name": "Third Wave Coffee Roasters",
        "takeaway": "yes"
      }
    },
    {
      "type": "node",
      "id": 13342712903,
      "lat": 12.942301,
      "lon": 77.6946741,
      "tags": {
        "alt_name": "Dunkin' Donuts",
        "amenity": "fast_food",
        "brand": "Dunkin'",
        "brand:wikidata": "Q847743",
        "cuisine": "donut;coffee_shop",
        "name": "Dunkin'",
        "takeaway": "yes"
      }
    },
    {
      "type": "node",
      "id": 13342712904,
      "lat": 12.9423428,
      "lon": 77.6947814,
      "tags": {
        "amenity": "fast_food",
        "brand": "Wow! Momo",
        "brand:wikidata": "Q8037446",
        "cuisine": "momo",
        "name": "Wow! Momo",
        "takeaway": "yes"
      }
    },
    {
      "type": "way",
      "id": 125173712,
      "center": {
        "lat": 12.936176,
        "lon": 77.6965967
      },
      "tags": {
        "amenity": "parking",
        "building": "yes",
        "parking": "multi-storey"
      }
    },
    {
      "type": "way",
      "id": 233001392,
      "center": {
        "lat": 12.9436754,
        "lon": 77.6925659
      },
      "tags": {
        "access": "private",
        "amenity": "parking",
        "building": "yes",
        "name": "Multi-Level Car Parking",
        "parking": "multi-storey"
      }
    },
    {
      "type": "way",
      "id": 233006516,
      "center": {
        "lat": 12.9310433,
        "lon": 77.6844632
      },
      "tags": {
        "amenity": "parking",
        "name": "PSK Parking",
        "parking": "surface",
        "surface": "compacted"
      }
    },
    {
      "type": "way",
      "id": 343574024,
      "center": {
        "lat": 12.9314569,
        "lon": 77.6863097
      },
      "tags": {
        "amenity": "place_of_worship",
        "building": "yes",
        "check_date": "2025-06-21",
        "name": "Sri Abhayahastha Ganapati Temple",
        "name:kn": "ಗಣಪತಿ ದೇವಸ್ಥಾನ",
        "religion": "hindu"
      }
    },
    {
      "type": "way",
      "id": 345966914,
      "center": {
        "lat": 12.9388233,
        "lon": 77.6964281
      },
      "tags": {
        "addr:city": "Bengaluru",
        "addr:postcode": "560103",
        "addr:street": "Panathur Main Road",
        "building": "commercial",
        "building:levels": "2",
        "check_date": "2023-06-11",
        "drive_through": "no",
        "name": "Mayuri Wines",
        "payment:cards": "yes",
        "payment:cash": "yes",
        "payment:upi": "yes",
        "shop": "alcohol",
        "source": "survey",
        "wheelchair": "no"
      }
    },
    {
      "type": "way",
      "id": 348080129,
      "center": {
        "lat": 12.934563,
        "lon": 77.6935579
      },
      "tags": {
        "amenity": "restaurant",
        "building": "yes",
        "name": "Fidelis Food Court"
      }
    },
    {
      "type": "way",
      "id": 374443136,
      "center": {
        "lat": 12.9289904,
        "lon": 77.6837058
      },
      "tags": {
        "amenity": "fountain"
      }
    },
    {
      "type": "way",
      "id": 374443137,
      "center": {
        "lat": 12.9288841,
        "lon": 77.6842822
      },
      "tags": {
        "leisure": "pitch"
      }
    },
    {
      "type": "way",
      "id": 374443138,
      "center": {
        "lat": 12.9288629,
        "lon": 77.6840907
      },
      "tags": {
        "leisure": "pitch"
      }
    },
    {
      "type": "way",
      "id": 374443139,
      "center": {
        "lat": 12.9288587,
        "lon": 77.6839193
      },
      "tags": {
        "leisure": "pitch"
      }
    },
    {
      "type": "way",
      "id": 380779748,
      "center": {
        "lat": 12.929297,
        "lon": 77.6841237
      },
      "tags": {
        "amenity": "parking"
      }
    },
    {
      "type": "way",
      "id": 386896193,
      "center": {
        "lat": 12.9329366,
        "lon": 77.6850685
      },
      "tags": {
        "access": "private",
        "building": "apartments",
        "check_date": "2025-09-03",
        "leisure": "sports_hall",
        "name": "Shobha Iris Gym"
      }
    },
    {
      "type": "way",
      "id": 415452221,
      "center": {
        "lat": 12.9358287,
        "lon": 77.6906223
      },
      "tags": {
        "amenity": "cafe",
        "building": "yes",
        "cuisine": "coffee_shop",
        "internet_access": "no",
        "name": "Daily Bread",
        "smoking": "separated"
      }
    },
    {
      "type": "way",
      "id": 450584255,
      "center": {
        "lat": 12.9453245,
        "lon": 77.6860497
      },
      "tags": {
        "amenity": "place_of_worship",
        "religion": "hindu"
      }
    },
    {
      "type": "way",
      "id": 450584256,
      "center": {
        "lat": 12.9449664,
        "lon": 77.6865577
      },
      "tags": {
        "amenity": "recycling",
        "recycling:cans": "yes",
        "recycling:cardboard": "yes",
        "recycling:clothes": "yes",
        "recycling:glass": "no",
        "recycling:glass_bottles": "no",
        "recycling:paper": "yes",
        "recycling:plastic": "yes",
        "recycling:plastic_bottles": "yes",
        "recycling:plastic_packaging": "yes",
        "recycling:scrap_metal": "yes",
        "recycling_type": "centre"
      }
    },
    {
      "type": "way",
      "id": 466082613,
      "center": {
        "lat": 12.943947,
        "lon": 77.691608
      },
      "tags": {
        "access": "private",
        "amenity": "parking",
        "building": "parking",
        "parking": "multi-storey"
      }
    },
    {
      "type": "way",
      "id": 466082620,
      "center": {
        "lat": 12.9423733,
        "lon": 77.6926598
      },
      "tags": {
        "access": "private",
        "amenity": "parking",
        "building": "yes",
        "parking": "multi-storey"
      }
    },
    {
      "type": "way",
      "id": 472629012,
      "center": {
        "lat": 12.9403075,
        "lon": 77.694014
      },
      "tags": {
        "leisure": "park"
      }
    },
    {
      "type": "way",
      "id": 472629013,
      "center": {
        "lat": 12.940351,
        "lon": 77.6943279
      },
      "tags": {
        "leisure": "park"
      }
    },
    {
      "type": "way",
      "id": 493372405,
      "center": {
        "lat": 12.9405691,
        "lon": 77.6886933
      },
      "tags": {
        "access": "private",
        "amenity": "parking",
        "building": "parking",
        "parking": "multi-storey"
      }
    },
    {
      "type": "way",
      "id": 577508428,
      "center": {
        "lat": 12.9352465,
        "lon": 77.6961715
      },
      "tags": {
        "leisure": "pitch",
        "lit": "yes",
        "sport": "basketball",
        "surface": "compacted"
      }
    },
    {
      "type": "way",
      "id": 628233550,
      "center": {
        "lat": 12.9347569,
        "lon": 77.683469
      },
      "tags": {
        "leisure": "park"
      }
    },
    {
      "type": "way",
      "id": 628233552,
      "center": {
        "lat": 12.9349195,
        "lon": 77.683091
      },
      "tags": {
        "leisure": "pitch",
        "sport": "basketball"
      }
    },
    {
      "type": "way",
      "id": 631580848,
      "center": {
        "lat": 12.9322182,
        "lon": 77.6853258
      },
      "tags": {
        "addr:housenumber": "52/2, 52/3",
        "addr:street": "Kariammana Agrahara Road",
        "amenity": "hospital",
        "check_date": "2025-09-03",
        "contact:phone": "080 4962 4962",
        "contact:website": "https://www.sakraworldhospital.com/",
        "emergency": "yes",
        "healthcare": "hospital",
        "healthcare:speciality": "dermatology;otolaryngology;urology;blood_check;cardiology;intensive;diabetology;orthopaedics;cardiothoracic_surgery;gynaecology;paediatrics;emergency;general;dentistry;dental_oral_maxillo_facial_surgery;rheumatology;anaesthetics;plastic_surgery;dialysis",
        "name": "Sakra World",
        "opening_hours": "24/7",
        "operator:type": "private",
        "payment:cash": "yes",
        "payment:credit_cards": "yes",
        "payment:debit_cards": "yes",
        "payment:qr_code": "yes",
        "payment:upi": "yes",
        "wheelchair": "yes",
        "wikidata": "Q134999916"
      }
    },
    {
      "type": "way",
      "id": 631581276,
      "center": {
        "lat": 12.941168,
        "lon": 77.6957709
      },
      "tags": {
        "amenity": "fuel",
        "brand": "Indian Oil",
        "brand:wikidata": "Q1289348",
        "compressed_air": "yes",
        "fuel:diesel": "yes",
        "fuel:petrol": "yes",
        "name": "Indian Oil",
        "operator": "Indian Oil Corporation"
      }
    },
    {
      "type": "way",
      "id": 634110147,
      "center": {
        "lat": 12.9314568,
        "lon": 77.6838658
      },
      "tags": {
        "leisure": "sports_centre",
        "name": "V Play Sports"
      }
    },
    {
      "type": "way",
      "id": 656185462,
      "center": {
        "lat": 12.942595,
        "lon": 77.6912058
      },
      "tags": {
        "amenity": "fountain"
      }
    },
    {
      "type": "way",
      "id": 672510192,
      "center": {
        "lat": 12.9340157,
        "lon": 77.6910079
      },
      "tags": {
        "amenity": "bank",
        "brand": "Indian Bank",
        "brand:wikidata": "Q2003789",
        "building": "yes",
        "check_date": "2025-05-08",
        "name": "Indian Bank",
        "name:kn": "ಇಂಡಿಯನ್ ಬ್ಯಾಂಕ್",
        "wheelchair": "no"
      }
    },
    {
      "type": "way",
      "id": 672510752,
      "center": {
        "lat": 12.9343125,
        "lon": 77.6929688
      },
      "tags": {
        "leisure": "pitch",
        "name": "Basket Ball Court",
        "name:kn": "ಬಾಸ್ಕೆಟ್ ಬಾಲ್ ಅಂಕಣ",
        "sport": "basketball"
      }
    },
    {
      "type": "way",
      "id": 672512845,
      "center": {
        "lat": 12.9343765,
        "lon": 77.6921961
      },
      "tags": {
        "amenity": "university",
        "name": "New Horizon College of Engineering"
      }
    },
    {
      "type": "way",
      "id": 672517239,
      "center": {
        "lat": 12.9334526,
        "lon": 77.6925273
      },
      "tags": {
        "amenity": "library",
        "building": "yes",
        "name": "Library and information center"
      }
    },
    {
      "type": "way",
      "id": 1061041084,
      "center": {
        "lat": 12.9318492,
        "lon": 77.6940216
      },
      "tags": {
        "access": "customers",
        "amenity": "parking",
        "building": "yes",
        "fee": "no",
        "parking": "multi-storey"
      }
    },
    {
      "type": "way",
      "id": 1066397000,
      "center": {
        "lat": 12.9297805,
        "lon": 77.6834698
      },
      "tags": {
        "leisure": "swimming_pool"
      }
    },
    {
      "type": "way",
      "id": 1066397001,
      "center": {
        "lat": 12.9327954,
        "lon": 77.6861218
      },
      "tags": {
        "access": "private",
        "amenity": "parking",
        "parking": "surface"
      }
    },
    {
      "type": "way",
      "id": 1066436538,
      "center": {
        "lat": 12.9296235,
        "lon": 77.6875748
      },
      "tags": {
        "leisure": "swimming_pool"
      }
    },
    {
      "type": "way",
      "id": 1070105446,
      "center": {
        "lat": 12.9369065,
        "lon": 77.69523
      },
      "tags": {
        "leisure": "swimming_pool"
      }
    },
    {
      "type": "way",
      "id": 1070105448,
      "center": {
        "lat": 12.9377021,
        "lon": 77.6952719
      },
      "tags": {
        "access": "private",
        "amenity": "parking",
        "parking": "surface"
      }
    },
    {
      "type": "way",
      "id": 1070107460,
      "center": {
        "lat": 12.9330702,
        "lon": 77.6930034
      },
      "tags": {
        "leisure": "pitch",
        "lit": "yes",
        "sport": "tennis"
      }
    },
    {
      "type": "way",
      "id": 1073338550,
      "center": {
        "lat": 12.9342423,
        "lon": 77.6908226
      },
      "tags": {
        "addr:street": "Embassy TechVillage Rd",
        "amenity": "place_of_worship",
        "name": "Temple",
        "name:kn": "ದೇವಸ್ಥಾನ",
        "religion": "hindu"
      }
    },
    {
      "type": "way",
      "id": 1079074870,
      "center": {
        "lat": 12.9371873,
        "lon": 77.6897345
      },
      "tags": {
        "leisure": "park"
      }
    },
    {
      "type": "way",
      "id": 1196486571,
      "center": {
        "lat": 12.9300445,
        "lon": 77.690722
      },
      "tags": {
        "leisure": "park"
      }
    },
    {
      "type": "way",
      "id": 1196486572,
      "center": {
        "lat": 12.929697,
        "lon": 77.6922799
      },
      "tags": {
        "full_name": "Embassy Tech Village Central Park",
        "leisure": "park",
        "name": "ETV Central Park"
      }
    },
    {
      "type": "way",
      "id": 1212112578,
      "center": {
        "lat": 12.9349373,
        "lon": 77.6925847
      },
      "tags": {
        "landuse": "recreation_ground",
        "leisure": "pitch"
      }
    },
    {
      "type": "way",
      "id": 1212112580,
      "center": {
        "lat": 12.9308118,
        "lon": 77.6901546
      },
      "tags": {
        "leisure": "park"
      }
    },
    {
      "type": "way",
      "id": 1212362567,
      "center": {
        "lat": 12.9431054,
        "lon": 77.6910336
      },
      "tags": {
        "amenity": "theatre",
        "theatre:type": "amphi"
      }
    },
    {
      "type": "way",
      "id": 1212362576,
      "center": {
        "lat": 12.9313141,
        "lon": 77.6907647
      },
      "tags": {
        "leisure": "park"
      }
    },
    {
      "type": "way",
      "id": 1238498368,
      "center": {
        "lat": 12.9412081,
        "lon": 77.6899761
      },
      "tags": {
        "access": "private",
        "amenity": "parking",
        "parking": "street_side"
      }
    },
    {
      "type": "way",
      "id": 1238498371,
      "center": {
        "lat": 12.9410936,
        "lon": 77.6900062
      },
      "tags": {
        "access": "private",
        "amenity": "parking",
        "parking": "street_side"
      }
    },
    {
      "type": "way",
      "id": 1238498375,
      "center": {
        "lat": 12.9429091,
        "lon": 77.6905893
      },
      "tags": {
        "access": "permissive",
        "amenity": "parking",
        "parking": "surface"
      }
    },
    {
      "type": "way",
      "id": 1239811142,
      "center": {
        "lat": 12.9414756,
        "lon": 77.6911893
      },
      "tags": {
        "leisure": "garden"
      }
    },
    {
      "type": "way",
      "id": 1239811149,
      "center": {
        "lat": 12.9430465,
        "lon": 77.693605
      },
      "tags": {
        "leisure": "park"
      }
    },
    {
      "type": "way",
      "id": 1239811150,
      "center": {
        "lat": 12.9430281,
        "lon": 77.6938195
      },
      "tags": {
        "access": "private",
        "leisure": "swimming_pool"
      }
    },
    {
      "type": "way",
      "id": 1239811151,
      "center": {
        "lat": 12.9426211,
        "lon": 77.6941664
      },
      "tags": {
        "access": "private",
        "leisure": "pitch",
        "sport": "basketball"
      }
    },
    {
      "type": "way",
      "id": 1242730689,
      "center": {
        "lat": 12.9303072,
        "lon": 77.6913712
      },
      "tags": {
        "leisure": "park"
      }
    },
    {
      "type": "way",
      "id": 1242730693,
      "center": {
        "lat": 12.9295939,
        "lon": 77.6917922
      },
      "tags": {
        "full_name": "Embassy Tech Village Sports Zone",
        "leisure": "sports_centre",
        "name": "ETV Sports Zone"
      }
    },
    {
      "type": "way",
      "id": 1242730694,
      "center": {
        "lat": 12.9295858,
        "lon": 77.6922795
      },
      "tags": {
        "amenity": "fountain",
        "full_name": "Embassy Tech Village Water Fountain",
        "name": "ETV Water Fountain"
      }
    },
    {
      "type": "way",
      "id": 1242815457,
      "center": {
        "lat": 12.9424826,
        "lon": 77.6799703
      },
      "tags": {
        "amenity": "fuel",
        "brand": "Nayara",
        "brand:wikidata": "Q5399377",
        "name": "Nayara"
      }
    },
    {
      "type": "way",
      "id": 1248868613,
      "center": {
        "lat": 12.9424321,
        "lon": 77.6913519
      },
      "tags": {
        "amenity": "fountain"
      }
    },
    {
      "type": "way",
      "id": 1248868626,
      "center": {
        "lat": 12.9408436,
        "lon": 77.6930493
      },
      "tags": {
        "leisure": "park"
      }
    },
    {
      "type": "way",
      "id": 1248868627,
      "center": {
        "lat": 12.9404911,
        "lon": 77.6931158
      },
      "tags": {
        "leisure": "pitch",
        "sport": "basketball"
      }
    },
    {
      "type": "way",
      "id": 1248868631,
      "center": {
        "lat": 12.9435372,
        "lon": 77.6891456
      },
      "tags": {
        "leisure": "pitch",
        "sport": "basketball"
      }
    },
    {
      "type": "way",
      "id": 1248868633,
      "center": {
        "lat": 12.9435341,
        "lon": 77.691614
      },
      "tags": {
        "access": "permissive",
        "amenity": "parking",
        "parking": "surface"
      }
    },
    {
      "type": "way",
      "id": 1248881534,
      "center": {
        "lat": 12.9374087,
        "lon": 77.6952803
      },
      "tags": {
        "access": "private",
        "amenity": "parking",
        "parking": "surface"
      }
    },
    {
      "type": "way",
      "id": 1248881535,
      "center": {
        "lat": 12.9367975,
        "lon": 77.6958529
      },
      "tags": {
        "access": "private",
        "amenity": "parking",
        "parking": "surface"
      }
    },
    {
      "type": "way",
      "id": 1248881539,
      "center": {
        "lat": 12.9376323,
        "lon": 77.6954379
      },
      "tags": {
        "access": "private",
        "amenity": "parking",
        "parking": "surface"
      }
    },
    {
      "type": "way",
      "id": 1248881540,
      "center": {
        "lat": 12.9374765,
        "lon": 77.6956403
      },
      "tags": {
        "access": "private",
        "amenity": "parking",
        "parking": "surface"
      }
    },
    {
      "type": "way",
      "id": 1248881541,
      "center": {
        "lat": 12.9375317,
        "lon": 77.6958318
      },
      "tags": {
        "access": "private",
        "amenity": "parking",
        "parking": "surface"
      }
    },
    {
      "type": "way",
      "id": 1248881542,
      "center": {
        "lat": 12.9371446,
        "lon": 77.6965077
      },
      "tags": {
        "access": "private",
        "amenity": "parking",
        "parking": "surface"
      }
    },
    {
      "type": "way",
      "id": 1248881543,
      "center": {
        "lat": 12.9372865,
        "lon": 77.6965469
      },
      "tags": {
        "access": "private",
        "amenity": "parking",
        "parking": "surface"
      }
    },
    {
      "type": "way",
      "id": 1253535583,
      "center": {
        "lat": 12.9380731,
        "lon": 77.6886564
      },
      "tags": {
        "leisure": "pitch",
        "sport": "soccer"
      }
    },
    {
      "type": "way",
      "id": 1253535584,
      "center": {
        "lat": 12.9380495,
        "lon": 77.6883141
      },
      "tags": {
        "leisure": "pitch",
        "sport": "tennis"
      }
    },
    {
      "type": "way",
      "id": 1253535585,
      "center": {
        "lat": 12.9380507,
        "lon": 77.6884693
      },
      "tags": {
        "leisure": "pitch"
      }
    },
    {
      "type": "way",
      "id": 1253838395,
      "center": {
        "lat": 12.9344475,
        "lon": 77.686889
      },
      "tags": {
        "access": "private",
        "leisure": "swimming_pool",
        "location": "outdoor",
        "sport": "swimming",
        "swimming_pool": "outdoor"
      }
    },
    {
      "type": "way",
      "id": 1253838405,
      "center": {
        "lat": 12.932503,
        "lon": 77.686465
      },
      "tags": {
        "amenity": "parking",
        "parking": "surface"
      }
    },
    {
      "type": "way",
      "id": 1253838411,
      "center": {
        "lat": 12.9331267,
        "lon": 77.6850701
      },
      "tags": {
        "leisure": "swimming_pool",
        "sport": "swimming"
      }
    },
    {
      "type": "way",
      "id": 1257687997,
      "center": {
        "lat": 12.9362461,
        "lon": 77.6941779
      },
      "tags": {
        "amenity": "parking",
        "parking": "surface"
      }
    },
    {
      "type": "way",
      "id": 1257687998,
      "center": {
        "lat": 12.9364657,
        "lon": 77.6938996
      },
      "tags": {
        "amenity": "parking",
        "parking": "surface"
      }
    },
    {
      "type": "way",
      "id": 1257687999,
      "center": {
        "lat": 12.9362795,
        "lon": 77.6938626
      },
      "tags": {
        "amenity": "parking",
        "parking": "surface"
      }
    },
    {
      "type": "way",
      "id": 1257688041,
      "center": {
        "lat": 12.9332814,
        "lon": 77.6823421
      },
      "tags": {
        "leisure": "park"
      }
    },
    {
      "type": "way",
      "id": 1257688042,
      "center": {
        "lat": 12.9332561,
        "lon": 77.6816374
      },
      "tags": {
        "access": "private",
        "leisure": "pitch",
        "sport": "tennis"
      }
    },
    {
      "type": "way",
      "id": 1257688043,
      "center": {
        "lat": 12.9332549,
        "lon": 77.6814754
      },
      "tags": {
        "access": "private",
        "leisure": "pitch",
        "sport": "tennis"
      }
    },
    {
      "type": "way",
      "id": 1269259650,
      "center": {
        "lat": 12.9333076,
        "lon": 77.6896265
      },
      "tags": {
        "access": "private",
        "amenity": "parking",
        "parking": "surface"
      }
    },
    {
      "type": "way",
      "id": 1296363007,
      "center": {
        "lat": 12.9315354,
        "lon": 77.684004
      },
      "tags": {
        "access": "permissive",
        "amenity": "parking",
        "parking": "surface"
      }
    },
    {
      "type": "way",
      "id": 1296363008,
      "center": {
        "lat": 12.931502,
        "lon": 77.683781
      },
      "tags": {
        "leisure": "pitch"
      }
    },
    {
      "type": "way",
      "id": 1301283908,
      "center": {
        "lat": 12.9310073,
        "lon": 77.6853207
      },
      "tags": {
        "leisure": "garden"
      }
    },
    {
      "type": "way",
      "id": 1306532642,
      "center": {
        "lat": 12.9360598,
        "lon": 77.6896624
      },
      "tags": {
        "access": "private",
        "leisure": "swimming_pool"
      }
    },
    {
      "type": "way",
      "id": 1327822127,
      "center": {
        "lat": 12.9410843,
        "lon": 77.679503
      },
      "tags": {
        "addr:city": "Bengaluru",
        "addr:postcode": "560103",
        "addr:street": "Bellandur Lake Rd, Kariyammana Agrahara, Bellandur",
        "leisure": "sports_centre",
        "name": "Hawks Sports Arena, IN",
        "opening_hours": "open 24 hours"
      }
    },
    {
      "type": "way",
      "id": 1327822132,
      "center": {
        "lat": 12.9436849,
        "lon": 77.6815223
      },
      "tags": {
        "leisure": "sports_centre",
        "name": "Bravo Sports"
      }
    },
    {
      "type": "way",
      "id": 1328411047,
      "center": {
        "lat": 12.9393954,
        "lon": 77.6886083
      },
      "tags": {
        "leisure": "pitch"
      }
    },
    {
      "type": "way",
      "id": 1328411057,
      "center": {
        "lat": 12.9379289,
        "lon": 77.6874624
      },
      "tags": {
        "access": "private",
        "leisure": "swimming_pool"
      }
    },
    {
      "type": "way",
      "id": 1365367606,
      "center": {
        "lat": 12.9393945,
        "lon": 77.6882647
      },
      "tags": {
        "amenity": "place_of_worship",
        "landuse": "religious",
        "religion": "hindu"
      }
    },
    {
      "type": "way",
      "id": 1365463943,
      "center": {
        "lat": 12.93692,
        "lon": 77.6850556
      },
      "tags": {
        "amenity": "school",
        "name": "Patel Public School"
      }
    },
    {
      "type": "way",
      "id": 1392513464,
      "center": {
        "lat": 12.9436662,
        "lon": 77.6940066
      },
      "tags": {
        "leisure": "garden"
      }
    },
    {
      "type": "way",
      "id": 1392513465,
      "center": {
        "lat": 12.9435943,
        "lon": 77.6934976
      },
      "tags": {
        "leisure": "garden"
      }
    },
    {
      "type": "way",
      "id": 1409994950,
      "center": {
        "lat": 12.9369074,
        "lon": 77.6789983
      },
      "tags": {
        "leisure": "garden"
      }
    },
    {
      "type": "way",
      "id": 1409994960,
      "center": {
        "lat": 12.9395841,
        "lon": 77.6795447
      },
      "tags": {
        "leisure": "garden"
      }
    },
    {
      "type": "way",
      "id": 1411938469,
      "center": {
        "lat": 12.9348239,
        "lon": 77.6921358
      },
      "tags": {
        "access": "private",
        "amenity": "parking",
        "parking": "surface"
      }
    },
    {
      "type": "way",
      "id": 1411938470,
      "center": {
        "lat": 12.9351044,
        "lon": 77.6919084
      },
      "tags": {
        "access": "private",
        "amenity": "motorcycle_parking",
        "parking": "surface"
      }
    },
    {
      "type": "way",
      "id": 1411938471,
      "center": {
        "lat": 12.9356494,
        "lon": 77.6930573
      },
      "tags": {
        "access": "private",
        "amenity": "motorcycle_parking",
        "parking": "surface"
      }
    },
    {
      "type": "way",
      "id": 1426810494,
      "center": {
        "lat": 12.9400753,
        "lon": 77.6890487
      },
      "tags": {
        "leisure": "park",
        "name": "Open Area"
      }
    },
    {
      "type": "way",
      "id": 1426810495,
      "center": {
        "lat": 12.9408028,
        "lon": 77.6900131
      },
      "tags": {
        "amenity": "bus_station",
        "name": "Terminal 2",
        "public_transport": "station",
        "trolleybus": "yes"
      }
    }
  ]
}