{
  "area_name": "Karishma Hills",
  "osm_id": 5810244718,
  "osm_type": "node",
  "place_type": "neighbourhood",
  "amenity_count": 29,
  "amenities": [
    {
      "type": "node",
      "id": 1331959282,
      "lat": 12.8886669,
      "lon": 77.5411424,
      "tags": {
        "amenity": "school",
        "name": "Gubbalala School",
        "name:kn": "ಗುಬ್ಬಲಾಲ ಶಾಲೆ"
      }
    },
    {
      "type": "node",
      "id": 2257738780,
      "lat": 12.8856688,
      "lon": 77.5418794,
      "tags": {
        "amenity": "place_of_worship",
        "name": "Temple",
        "name:kn": "ದೇವಸ್ಥಾನ",
        "religion": "hindu"
      }
    },
    {
      "type": "node",
      "id": 11283011578,
      "lat": 12.8953421,
      "lon": 77.5392996,
      "tags": {
        "name": "Family Super Market",
        "shop": "convenience"
      }
    },
    {
      "type": "node",
      "id": 11283011579,
      "lat": 12.895157,
      "lon": 77.5393314,
      "tags": {
        "shop": "hairdresser"
      }
    },
    {
      "type": "node",
      "id": 11283011580,
      "lat": 12.8951016,
      "lon": 77.5396128,
      "tags": {
        "amenity": "toilets",
        "changing_table": "no"
      }
    },
    {
      "type": "node",
      "id": 11283011581,
      "lat": 12.8950664,
      "lon": 77.5396295,
      "tags": {
        "access": "private",
        "amenity": "shower",
        "fee": "no",
        "hot_water": "no"
      }
    },
    {
      "type": "node",
      "id": 12183998018,
      "lat": 12.884464,
      "lon": 77.5409879,
      "tags": {
        "name": "Express Car Care - Gubbalala",
        "shop": "car"
      }
    },
    {
      "type": "way",
      "id": 348117389,
      "center": {
        "lat": 12.8909307,
        "lon": 77.5422483
      },
      "tags": {
        "building": "yes",
        "name": "Scoth Yard",
        "shop": "wine"
      }
    },
    {
      "type": "way",
      "id": 413298493,
      "center": {
        "lat": 12.8881183,
        "lon": 77.5280468
      },
      "tags": {
        "amenity": "place_of_worship",
        "building": "temple",
        "name": "Turahalli Shanimahatma Temple",
        "name:kn": "ಶನಿ ಮಹಾತ್ಮ ದೇವಸ್ಥಾನ",
        "religion": "hindu"
      }
    },
    {
      "type": "way",
      "id": 525509200,
      "center": {
        "lat": 12.8918499,
        "lon": 77.5423822
      },
      "tags": {
        "building": "yes",
        "name": "ಚೌಡೇಶ್ವರಿ ಮತ್ತು ಶನಿಮಹಾತ್ಮ",
        "name:en": "Shopwell",
        "shop": "supermarket"
      }
    },
    {
      "type": "way",
      "id": 1203175500,
      "center": {
        "lat": 12.8955827,
        "lon": 77.5403851
      },
      "tags": {
        "leisure": "park"
      }
    },
    {
      "type": "way",
      "id": 1203175502,
      "center": {
        "lat": 12.8921712,
        "lon": 77.5395365
      },
      "tags": {
        "leisure": "park"
      }
    },
    {
      "type": "way",
      "id": 1217710834,
      "center": {
        "lat": 12.895111,
        "lon": 77.5398118
      },
      "tags": {
        "access": "private",
        "leisure": "swimming_pool",
        "length": "25",
        "lit": "yes",
        "location": "outdoor",
        "name": "PLRD Swimming Pool",
        "swimming_pool": "outdoor"
      }
    },
    {
      "type": "way",
      "id": 1217710835,
      "center": {
        "lat": 12.8952141,
        "lon": 77.5394274
      },
      "tags": {
        "building": "yes",
        "fee": "no",
        "leisure": "sports_centre",
        "name": "PLRD Club House",
        "opening_hours": "Mo-Su 06:00-22:00",
        "operator": "Prestige Lake Ridge",
        "operator:type": "private",
        "sport": "badminton;billiards;squash;gymnastics;dancing"
      }
    },
    {
      "type": "way",
      "id": 1217710836,
      "center": {
        "lat": 12.8954904,
        "lon": 77.5393534
      },
      "tags": {
        "amenity": "fountain"
      }
    },
    {
      "type": "way",
      "id": 1217710859,
      "center": {
        "lat": 12.8956904,
        "lon": 77.5392793
      },
      "tags": {
        "leisure": "park"
      }
    },
    {
      "type": "way",
      "id": 1217710860,
      "center": {
        "lat": 12.8964059,
        "lon": 77.5395405
      },
      "tags": {
        "leisure": "park"
      }
    },
    {
      "type": "way",
      "id": 1217945458,
      "center": {
        "lat": 12.8956782,
        "lon": 77.5405107
      },
      "tags": {
        "amenity": "parking",
        "building:levels": "2",
        "fee": "no",
        "layer": "-1",
        "operator": "Prestige Lake Ridge",
        "operator:type": "private",
        "parking": "underground",
        "surface": "concrete"
      }
    },
    {
      "type": "way",
      "id": 1301730651,
      "center": {
        "lat": 12.8879159,
        "lon": 77.5370528
      },
      "tags": {
        "amenity": "fuel"
      }
    },
    {
      "type": "way",
      "id": 1329553248,
      "center": {
        "lat": 12.8967192,
        "lon": 77.5293574
      },
      "tags": {
        "amenity": "school"
      }
    },
    {
      "type": "way",
      "id": 1329553309,
      "center": {
        "lat": 12.8957165,
        "lon": 77.5311915
      },
      "tags": {
        "leisure": "park"
      }
    },
    {
      "type": "way",
      "id": 1329553310,
      "center": {
        "lat": 12.8961342,
        "lon": 77.5310781
      },
      "tags": {
        "leisure": "pitch",
        "sport": "basketball"
      }
    },
    {
      "type": "way",
      "id": 1329553311,
      "center": {
        "lat": 12.8958327,
        "lon": 77.5310633
      },
      "tags": {
        "leisure": "pitch",
        "sport": "tennis"
      }
    },
    {
      "type": "way",
      "id": 1349974884,
      "center": {
        "lat": 12.8929767,
        "lon": 77.5329293
      },
      "tags": {
        "leisure": "park"
      }
    },
    {
      "type": "way",
      "id": 1349974885,
      "center": {
        "lat": 12.8918428,
        "lon": 77.5329052
      },
      "tags": {
        "amenity": "events_venue",
        "landuse": "commercial",
        "name": "Maharaja Palace"
      }
    },
    {
      "type": "way",
      "id": 1349974886,
      "center": {
        "lat": 12.8907065,
        "lon": 77.5352312
      },
      "tags": {
        "leisure": "park"
      }
    },
    {
      "type": "way",
      "id": 1349974888,
      "center": {
        "lat": 12.888805,
        "lon": 77.5375169
      },
      "tags": {
        "amenity": "school",
        "name": "Vidyashilp Banashankari"
      }
    },
    {
      "type": "way",
      "id": 1353399765,
      "center": {
        "lat": 12.8958094,
        "lon": 77.5301333
      },
      "tags": {
        "leisure": "park"
      }
    },
    {
      "type": "way",
      "id": 1353668677,
      "center": {
        "lat": 12.8891812,
        "lon": 77.5379798
      },
      "tags": {
        "leisure": "pitch",
        "sport": "tennis"
      }
    }
  ]
}