{
  "area_name": "Kasturibai Nagar",
  "osm_id": 699684267,
  "osm_type": "node",
  "place_type": "neighbourhood",
  "amenity_count": 80,
  "amenities": [
    {
      "type": "node",
      "id": 1789736226,
      "lat": 12.9534085,
      "lon": 77.5435706,
      "tags": {
        "amenity": "bus_station",
        "check_date": "2024-04-05",
        "name": "Mysore Road Bus Station",
        "name:kn": "ಮೈಸೂರು ರಸ್ತೆ ಬಸ್ ನಿಲ್ದಾಣ"
      }
    },
    {
      "type": "node",
      "id": 4101060393,
      "lat": 12.9607245,
      "lon": 77.5464821,
      "tags": {
        "addr:street": "Pipeline Road",
        "amenity": "place_of_worship",
        "building": "mosque",
        "name:kn": "ಮಸೀದಿ",
        "religion": "muslim"
      }
    },
    {
      "type": "node",
      "id": 4101066891,
      "lat": 12.9618838,
      "lon": 77.5509669,
      "tags": {
        "addr:housenumber": "7th cross padarayana pura",
        "addr:street": "Hosahalli Main Road",
        "amenity": "place_of_worship",
        "building": "mosque",
        "name": "Masjid e Mecca",
        "name:kn": "ಮಸ್ಜಿದ್ ಎ ಮಕ್ಕ",
        "religion": "muslim"
      }
    },
    {
      "type": "node",
      "id": 4101066892,
      "lat": 12.9609456,
      "lon": 77.5506364,
      "tags": {
        "addr:street": "vinayaka nagar",
        "name": "puncher shop",
        "shop": "tyres"
      }
    },
    {
      "type": "node",
      "id": 4101067192,
      "lat": 12.9628516,
      "lon": 77.550719,
      "tags": {
        "addr:housenumber": "7th cross padarayana pura",
        "addr:street": "Hosahalli Main Road",
        "amenity": "place_of_worship",
        "building": "mosque",
        "name": "Masjid e Riyazul Jinna",
        "religion": "muslim"
      }
    },
    {
      "type": "node",
      "id": 4101067193,
      "lat": 12.9609798,
      "lon": 77.5499693,
      "tags": {
        "addr:street": "vinayaka nagar old gudahalli",
        "amenity": "place_of_worship",
        "building": "mosque",
        "name": "Masjid e Alquba",
        "religion": "muslim"
      }
    },
    {
      "type": "node",
      "id": 4101067196,
      "lat": 12.9606146,
      "lon": 77.5565401,
      "tags": {
        "addr:street": "Mysore Road",
        "amenity": "place_of_worship",
        "check_date": "2023-10-08",
        "name": "Masjid e Khabristan",
        "religion": "muslim"
      }
    },
    {
      "type": "node",
      "id": 4101067198,
      "lat": 12.9606907,
      "lon": 77.5455229,
      "tags": {
        "addr:street": "Pipeline Road",
        "amenity": "place_of_worship",
        "building": "mosque",
        "name": "Masjid e Amiri Kalimi",
        "religion": "muslim"
      }
    },
    {
      "type": "node",
      "id": 4101094995,
      "lat": 12.9625119,
      "lon": 77.5486586,
      "tags": {
        "addr:street": "Hosahalli Main Road",
        "amenity": "restaurant",
        "name": "Khawja Hotel"
      }
    },
    {
      "type": "node",
      "id": 4101094996,
      "lat": 12.9620904,
      "lon": 77.5496787,
      "tags": {
        "amenity": "community_centre",
        "name": "Government Function Hall"
      }
    },
    {
      "type": "node",
      "id": 4101097189,
      "lat": 12.9626268,
      "lon": 77.5485405,
      "tags": {
        "addr:housenumber": "11th cross padarayana pura",
        "addr:street": "Hosahalli Main Road",
        "amenity": "place_of_worship",
        "building": "mosque",
        "name": "Masjid e Towheed",
        "name:kn": "ಮಸ್ಜಿದ್-ಎ-ತೌಹೀದ್",
        "opening_hours": "24/7",
        "religion": "muslim"
      }
    },
    {
      "type": "node",
      "id": 4101097390,
      "lat": 12.9569629,
      "lon": 77.5491868,
      "tags": {
        "addr:street": "Mysore Road",
        "amenity": "fuel",
        "brand": "Shell",
        "brand:wikidata": "Q110716465",
        "name": "Shell",
        "name:kn": "ಶೆಲ್"
      }
    },
    {
      "type": "node",
      "id": 4101097391,
      "lat": 12.9572135,
      "lon": 77.5429632,
      "tags": {
        "addr:street": "Mysore Road",
        "amenity": "cinema",
        "name": "shobha talkies"
      }
    },
    {
      "type": "node",
      "id": 4101097789,
      "lat": 12.962289,
      "lon": 77.5537495,
      "tags": {
        "addr:housenumber": "1st cross",
        "addr:street": "Hosahalli Main Road",
        "amenity": "place_of_worship",
        "building": "mosque",
        "name:kn": "ಮಸೀದಿ",
        "religion": "muslim"
      }
    },
    {
      "type": "node",
      "id": 4130913192,
      "lat": 12.9609208,
      "lon": 77.5490696,
      "tags": {
        "amenity": "clinic"
      }
    },
    {
      "type": "node",
      "id": 4130913293,
      "lat": 12.9602862,
      "lon": 77.5570381,
      "tags": {
        "amenity": "fuel",
        "brand": "Bharat Petroleum",
        "brand:wikidata": "Q854826",
        "compressed_air": "no",
        "name": "Bharat Petroleum",
        "name:kn": "ಭಾರತ್ ಪೆಟ್ರೋಲಿಯಂ"
      }
    },
    {
      "type": "node",
      "id": 4130913296,
      "lat": 12.9597748,
      "lon": 77.5548192,
      "tags": {
        "addr:street": "Mysore Road",
        "amenity": "place_of_worship",
        "name": "Mysore Road Eidgha"
      }
    },
    {
      "type": "node",
      "id": 4130929491,
      "lat": 12.9609947,
      "lon": 77.5508936,
      "tags": {
        "addr:street": "vinayaka nagar",
        "amenity": "bus_station",
        "bus": "yes",
        "name": "Old Gudahalli",
        "public_transport": "station"
      }
    },
    {
      "type": "node",
      "id": 4130929493,
      "lat": 12.9621886,
      "lon": 77.5493658,
      "tags": {
        "amenity": "clinic",
        "healthcare": "clinic",
        "name": "Shahid Doctor"
      }
    },
    {
      "type": "node",
      "id": 4130934092,
      "lat": 12.9600503,
      "lon": 77.5539163,
      "tags": {
        "amenity": "place_of_worship",
        "building": "mosque",
        "name:kn": "ಮಸೀದಿ",
        "religion": "muslim"
      }
    },
    {
      "type": "node",
      "id": 4130934098,
      "lat": 12.9608368,
      "lon": 77.5485824,
      "tags": {
        "amenity": "cafe",
        "name": "Bismillah Tea Hotel"
      }
    },
    {
      "type": "node",
      "id": 4130960196,
      "lat": 12.9614166,
      "lon": 77.5486757,
      "tags": {
        "amenity": "theatre",
        "name": "a.m function hall"
      }
    },
    {
      "type": "node",
      "id": 4130960197,
      "lat": 12.9609197,
      "lon": 77.5483084,
      "tags": {
        "amenity": "clinic",
        "name": "saty doctor"
      }
    },
    {
      "type": "node",
      "id": 4130960289,
      "lat": 12.9608675,
      "lon": 77.5495476,
      "tags": {
        "amenity": "atm",
        "opening_hours": "24/7"
      }
    },
    {
      "type": "node",
      "id": 4130960392,
      "lat": 12.9618971,
      "lon": 77.552098,
      "tags": {
        "amenity": "pharmacy"
      }
    },
    {
      "type": "node",
      "id": 4130960394,
      "lat": 12.9616399,
      "lon": 77.5484171,
      "tags": {
        "amenity": "clinic"
      }
    },
    {
      "type": "node",
      "id": 4130960395,
      "lat": 12.962222,
      "lon": 77.5505208,
      "tags": {
        "amenity": "cafe"
      }
    },
    {
      "type": "node",
      "id": 4130960396,
      "lat": 12.9615054,
      "lon": 77.5504015,
      "tags": {
        "amenity": "cafe",
        "name": "Bismillah Tea Hotel"
      }
    },
    {
      "type": "node",
      "id": 4130960490,
      "lat": 12.9621356,
      "lon": 77.5493894,
      "tags": {
        "amenity": "pharmacy",
        "healthcare": "pharmacy"
      }
    },
    {
      "type": "node",
      "id": 4130960992,
      "lat": 12.961869,
      "lon": 77.5471629,
      "tags": {
        "amenity": "cinema",
        "name": "Sujatha Talkies",
        "name:kn": "ಸುಜಾತ ಚಿತ್ರಮಂದಿರ"
      }
    },
    {
      "type": "node",
      "id": 4130960993,
      "lat": 12.9608471,
      "lon": 77.5490504,
      "tags": {
        "name": "Ayenger Bakery",
        "name:kn": "ಅಯ್ಯಂಗರ್",
        "shop": "bakery"
      }
    },
    {
      "type": "node",
      "id": 4130962590,
      "lat": 12.9608525,
      "lon": 77.5490077,
      "tags": {
        "amenity": "pharmacy",
        "healthcare": "pharmacy"
      }
    },
    {
      "type": "node",
      "id": 4130962989,
      "lat": 12.9612397,
      "lon": 77.5508007,
      "tags": {
        "amenity": "drinking_water",
        "name": "doctor water"
      }
    },
    {
      "type": "node",
      "id": 4344769202,
      "lat": 12.9567335,
      "lon": 77.5513304,
      "tags": {
        "addr:street": "Mysore Road",
        "amenity": "pharmacy",
        "name:hi": "राज सन्स फोमा"
      }
    },
    {
      "type": "node",
      "id": 4446894387,
      "lat": 12.9559132,
      "lon": 77.5561779,
      "tags": {
        "addr:city": "bangalore",
        "addr:housenumber": "9",
        "addr:postcode": "560026",
        "addr:street": "2nd Main Road valmikinagar Mysore Road, Ramachandra Agrahara, Azad Nagar",
        "amenity": "pharmacy",
        "name": "Sri Ganesh Pharma",
        "phone": "089708 85482"
      }
    },
    {
      "type": "node",
      "id": 4542486736,
      "lat": 12.9537484,
      "lon": 77.543639,
      "tags": {
        "addr:city": "Bangalore",
        "addr:postcode": "560026",
        "addr:street": "Mysore Road",
        "alt_name": "A2B",
        "amenity": "restaurant",
        "brand": "Adyar Ananda Bhavan",
        "brand:wikidata": "Q15178238",
        "cuisine": "South_Indian",
        "diet:vegetarian": "only",
        "email": "info@aabsweets.com",
        "name": "Adyar Ananda Bhavan",
        "name:kn": "ಆದ್ಯಾರ್ ಆನಂದ ಭವನ",
        "opening_hours": "7:00-22:30",
        "operator": "Adyar Ananda Bhavan",
        "phone": "+91 80 2674 6999",
        "smoking": "no",
        "website": "https://aabsweets.com"
      }
    },
    {
      "type": "node",
      "id": 4542490906,
      "lat": 12.9543065,
      "lon": 77.5444531,
      "tags": {
        "amenity": "post_office",
        "check_date": "2022-11-25",
        "name": "India Post"
      }
    },
    {
      "type": "node",
      "id": 4542494317,
      "lat": 12.9556017,
      "lon": 77.5459806,
      "tags": {
        "addr:city": "Bangalore",
        "addr:postcode": "560026",
        "addr:street": "Mysore Road",
        "name": "Deco Design",
        "operator": "Deco Design",
        "shop": "furniture",
        "wheelchair": "no"
      }
    },
    {
      "type": "node",
      "id": 5103586722,
      "lat": 12.9536888,
      "lon": 77.543512,
      "tags": {
        "addr:street": "Mysore Road",
        "amenity": "restaurant",
        "check_date": "2022-11-25",
        "name": "Imperial Restaurant",
        "source": "survey"
      }
    },
    {
      "type": "node",
      "id": 5242628721,
      "lat": 12.9621245,
      "lon": 77.5522069,
      "tags": {
        "shop": "hairdresser"
      }
    },
    {
      "type": "node",
      "id": 5259390022,
      "lat": 12.9629891,
      "lon": 77.551268,
      "tags": {
        "amenity": "school",
        "name": "Kinto School"
      }
    },
    {
      "type": "node",
      "id": 5259390023,
      "lat": 12.9610936,
      "lon": 77.5468666,
      "tags": {
        "amenity": "school",
        "name": "Kinto High School"
      }
    },
    {
      "type": "node",
      "id": 5259390024,
      "lat": 12.9622432,
      "lon": 77.5494253,
      "tags": {
        "amenity": "drinking_water",
        "name": "Doctor water"
      }
    },
    {
      "type": "node",
      "id": 6944269353,
      "lat": 12.9526505,
      "lon": 77.5548633,
      "tags": {
        "addr:district": "Bengaluru Urban",
        "addr:full": "Kempegoudanagara, Near Police Station, South",
        "addr:postcode": "560018",
        "addr:state": "Karnataka",
        "amenity": "hospital",
        "name": "Gavipuramguttahalli Maternity Home",
        "source": "OpenGovernmentData"
      }
    },
    {
      "type": "node",
      "id": 6944464994,
      "lat": 12.9559644,
      "lon": 77.5485635,
      "tags": {
        "addr:district": "Bengaluru Urban",
        "addr:full": "Kasturabanagar, Mysore Road , South",
        "addr:postcode": "560026",
        "addr:state": "Karnataka",
        "amenity": "hospital",
        "name": "Azad Nagar Maternity Home",
        "source": "OpenGovernmentData"
      }
    },
    {
      "type": "node",
      "id": 6947268976,
      "lat": 12.9561944,
      "lon": 77.5460348,
      "tags": {
        "addr:district": "Bengaluru Urban",
        "addr:full": "1/1,1/2,1/3, New Guddadahalli, Mysore Road",
        "addr:postcode": "560026",
        "addr:state": "Karnataka",
        "amenity": "clinic",
        "name": "Balaji Nursing Home",
        "source": "OpenGovernmentData"
      }
    },
    {
      "type": "node",
      "id": 7576958056,
      "lat": 12.9575488,
      "lon": 77.5594846,
      "tags": {
        "addr:district": "Bengaluru Urban",
        "addr:full": "Chamrajpet, Bengaluru",
        "addr:state": "Karnataka",
        "amenity": "doctors",
        "name": "Dr. M Kishore",
        "source": "Local Knowledge"
      }
    },
    {
      "type": "node",
      "id": 7576958061,
      "lat": 12.9587464,
      "lon": 77.5573456,
      "tags": {
        "addr:district": "Bengaluru Urban",
        "addr:full": "Ramachandra Agrahara, Azad Nagar, Bengaluru",
        "addr:postcode": "560026",
        "addr:state": "Karnataka",
        "amenity": "hospital",
        "name": "Government Hospital, Banglore",
        "source": "Local Knowledge"
      }
    },
    {
      "type": "node",
      "id": 7576958075,
      "lat": 12.945848,
      "lon": 77.548621,
      "tags": {
        "addr:district": "Bengaluru Urban",
        "addr:full": "Muneshwara Block, Banashankari, Bengaluru",
        "addr:state": "Karnataka",
        "amenity": "doctors",
        "name": "BBMP Arogya Kendra",
        "source": "Local Knowledge"
      }
    },
    {
      "type": "node",
      "id": 10218102646,
      "lat": 12.9545702,
      "lon": 77.5447288,
      "tags": {
        "amenity": "atm",
        "brand": "ICICI Bank",
        "brand:wikidata": "Q1653258",
        "cash_in": "no",
        "check_date": "2022-11-25",
        "name": "ICICI Bank",
        "operator": "ICICI Bank",
        "operator:wikidata": "Q1653258",
        "short_name": "ICICI",
        "source": "survey"
      }
    },
    {
      "type": "node",
      "id": 10218102647,
      "lat": 12.9533862,
      "lon": 77.5424568,
      "tags": {
        "amenity": "place_of_worship",
        "check_date": "2022-11-25",
        "name:en": "Roshan Mosque",
        "religion": "muslim",
        "source": "survey"
      }
    },
    {
      "type": "node",
      "id": 10571038248,
      "lat": 12.9546654,
      "lon": 77.5448794,
      "tags": {
        "addr:city": "Bengaluru",
        "addr:housenumber": "No 2",
        "addr:postcode": "560026",
        "addr:street": "Timberyard Layout Feather Lite Compound, Mysore Road",
        "branch": "Big Wing Service Topline",
        "brand": "Honda",
        "name": "Honda Big Wing Service Topline",
        "not:brand:wikidata": "Q9584",
        "opening_hours": "Mo-Su 09:30-18:30",
        "phone": "09844564832",
        "shop": "motorcycle_repair"
      }
    },
    {
      "type": "node",
      "id": 11178186995,
      "lat": 12.9584415,
      "lon": 77.5591653,
      "tags": {
        "check_date": "2023-09-09",
        "name": "Iyengar Bakery",
        "name:kn": "ಐಯ್ಯಂಗಾರ್ ಬೇಕರಿ",
        "shop": "bakery"
      }
    },
    {
      "type": "node",
      "id": 11248255456,
      "lat": 12.9571796,
      "lon": 77.5501655,
      "tags": {
        "amenity": "bank",
        "brand": "Union Bank of India",
        "brand:wikidata": "Q2004078",
        "check_date": "2023-10-08",
        "name": "Union Bank of India",
        "name:kn": "ಯೂನಿಯನ್ ಬ್ಯಾಂಕ್"
      }
    },
    {
      "type": "node",
      "id": 11248255457,
      "lat": 12.9571816,
      "lon": 77.550277,
      "tags": {
        "amenity": "atm",
        "brand": "Union Bank of India",
        "brand:wikidata": "Q2004078",
        "check_date": "2023-10-08",
        "operator": "Union Bank of India",
        "operator:wikidata": "Q2004078"
      }
    },
    {
      "type": "node",
      "id": 11248255458,
      "lat": 12.9573596,
      "lon": 77.5511498,
      "tags": {
        "amenity": "fuel",
        "brand": "Bharat Petroleum",
        "brand:wikidata": "Q854826",
        "check_date": "2024-01-25",
        "name": "Bharat Petroleum",
        "name:en": "Bharat Petroleum",
        "name:kn": "ಭಾರತ್ ಪೆಟ್ರೋಲಿಯಂ",
        "self_service": "no"
      }
    },
    {
      "type": "node",
      "id": 11248255459,
      "lat": 12.9585509,
      "lon": 77.5536366,
      "tags": {
        "amenity": "cinema",
        "check_date": "2023-10-08",
        "name": "Gopalan cinemas"
      }
    },
    {
      "type": "node",
      "id": 11248255460,
      "lat": 12.9584119,
      "lon": 77.5532961,
      "tags": {
        "brand": "DMart",
        "brand:wikidata": "Q5203271",
        "check_date": "2023-10-08",
        "name": "DMart",
        "shop": "supermarket"
      }
    },
    {
      "type": "node",
      "id": 11323076631,
      "lat": 12.9523737,
      "lon": 77.5438444,
      "tags": {
        "amenity": "restaurant",
        "check_date": "2024-04-05",
        "name": "Kadamba Classic Hotel"
      }
    },
    {
      "type": "node",
      "id": 11323095020,
      "lat": 12.9525544,
      "lon": 77.5434542,
      "tags": {
        "amenity": "toilets",
        "check_date": "2024-04-05",
        "fee": "yes",
        "wheelchair": "yes"
      }
    },
    {
      "type": "node",
      "id": 11323095021,
      "lat": 12.9523656,
      "lon": 77.544301,
      "tags": {
        "amenity": "toilets",
        "fee": "yes",
        "female": "yes",
        "male": "yes"
      }
    },
    {
      "type": "node",
      "id": 12128957168,
      "lat": 12.9555351,
      "lon": 77.544152,
      "tags": {
        "amenity": "place_of_worship",
        "denomination": "catholic",
        "name": "St. Anthony's Church",
        "religion": "christian"
      }
    },
    {
      "type": "node",
      "id": 12145536674,
      "lat": 12.9572457,
      "lon": 77.5509305,
      "tags": {
        "amenity": "fuel",
        "brand": "Bharat Petroleum",
        "brand:wikidata": "Q854826",
        "name": "Bharat Petroleum"
      }
    },
    {
      "type": "node",
      "id": 12734621153,
      "lat": 12.9562108,
      "lon": 77.5476429,
      "tags": {
        "check_date": "2025-04-07",
        "clothes": "men;women;wedding;underwear;traditional;babies;denim;children;maternity;socks;fashion;accessories",
        "name": "Pothys",
        "name:en": "Pothys",
        "payment:cash": "yes",
        "payment:credit_cards": "yes",
        "payment:debit_cards": "yes",
        "payment:upi": "yes",
        "shop": "clothes",
        "wheelchair": "limited"
      }
    },
    {
      "type": "way",
      "id": 55684219,
      "center": {
        "lat": 12.9507937,
        "lon": 77.5548602
      },
      "tags": {
        "leisure": "sports_centre",
        "name": "Rajiv Gandhi Sports Complex",
        "name:etymology:wikidata": "Q4593"
      }
    },
    {
      "type": "way",
      "id": 55684220,
      "center": {
        "lat": 12.951867,
        "lon": 77.5589753
      },
      "tags": {
        "alt_name": "Jinke Park",
        "leisure": "park",
        "name": "Dr Rajkumar Park",
        "name:etymology:wikidata": "Q984634",
        "name:kn": "ರಾಜಕುಮಾರ ಉದ್ಯಾನವನ"
      }
    },
    {
      "type": "way",
      "id": 166584397,
      "center": {
        "lat": 12.9584995,
        "lon": 77.5534667
      },
      "tags": {
        "landuse": "retail",
        "name": "Gopalan Mall",
        "name:kn": "ಗೋಪಾಲನ್ ಮಾಲ್",
        "shop": "mall"
      }
    },
    {
      "type": "way",
      "id": 182819011,
      "center": {
        "lat": 12.9582804,
        "lon": 77.5551362
      },
      "tags": {
        "leisure": "park"
      }
    },
    {
      "type": "way",
      "id": 362893293,
      "center": {
        "lat": 12.9497423,
        "lon": 77.5484953
      },
      "tags": {
        "leisure": "park"
      }
    },
    {
      "type": "way",
      "id": 363138580,
      "center": {
        "lat": 12.9474929,
        "lon": 77.5579107
      },
      "tags": {
        "amenity": "place_of_worship",
        "landuse": "religious",
        "name": "Sri Pralayakalada Veerabhadraswami Gudi",
        "religion": "hindu"
      }
    },
    {
      "type": "way",
      "id": 687319749,
      "center": {
        "lat": 12.951407,
        "lon": 77.5501031
      },
      "tags": {
        "leisure": "park"
      }
    },
    {
      "type": "way",
      "id": 1203069042,
      "center": {
        "lat": 12.9535295,
        "lon": 77.5570806
      },
      "tags": {
        "amenity": "crematorium",
        "landuse": "crematorium",
        "name": "Chamrajapet Crematorium",
        "name:kn": "ಚಾಮರಾಜಪೇಟೆ ಚಿತಾಗಾರ",
        "note": "10 Cremation Sites, conventional, wood burning, includes burial area.",
        "operator": "BBMP",
        "religion": "hindu"
      }
    },
    {
      "type": "way",
      "id": 1238821118,
      "center": {
        "lat": 12.9532043,
        "lon": 77.5437227
      },
      "tags": {
        "amenity": "bus_station",
        "check_date": "2024-04-05",
        "name": "KSRTC Mysore Road Satellite Bus Station",
        "name:kn": "ಕ. ರಾ. ರ. ಸಾ. ನಿ. ಬಸ್ ನಿಲ್ದಾಣ, ಮೈಸೂರು ರಸ್ತೆ"
      }
    },
    {
      "type": "way",
      "id": 1257194263,
      "center": {
        "lat": 12.9544671,
        "lon": 77.5437395
      },
      "tags": {
        "amenity": "fuel",
        "check_date": "2023-10-08"
      }
    },
    {
      "type": "way",
      "id": 1257194266,
      "center": {
        "lat": 12.9564423,
        "lon": 77.5487311
      },
      "tags": {
        "amenity": "fuel",
        "brand": "Indian Oil",
        "brand:wikidata": "Q1289348",
        "compressed_air": "yes",
        "name": "Indian Oil",
        "wheelchair": "yes"
      }
    },
    {
      "type": "way",
      "id": 1290606661,
      "center": {
        "lat": 12.953203,
        "lon": 77.5569578
      },
      "tags": {
        "access": "yes",
        "amenity": "shower",
        "description": "shower area",
        "fee": "no",
        "operator": "BBMP",
        "unisex": "yes",
        "wheelchair": "no"
      }
    },
    {
      "type": "way",
      "id": 1298716883,
      "center": {
        "lat": 12.9576256,
        "lon": 77.5518773
      },
      "tags": {
        "amenity": "fuel",
        "brand": "Shell",
        "brand:wikidata": "Q110716465",
        "check_date": "2022-11-25",
        "compressed_air": "yes",
        "fuel:diesel": "yes",
        "fuel:petrol": "yes",
        "name": "Shell",
        "name:kn": "ಶೆಲ್",
        "self_service": "no",
        "source": "survey"
      }
    },
    {
      "type": "way",
      "id": 1309995712,
      "center": {
        "lat": 12.9536909,
        "lon": 77.542113
      },
      "tags": {
        "amenity": "fuel",
        "check_date": "2023-10-08"
      }
    },
    {
      "type": "way",
      "id": 1348696385,
      "center": {
        "lat": 12.9506487,
        "lon": 77.5564358
      },
      "tags": {
        "name": "Dhobi Ghat",
        "shop": "laundry"
      }
    },
    {
      "type": "way",
      "id": 1348696401,
      "center": {
        "lat": 12.9591122,
        "lon": 77.555799
      },
      "tags": {
        "amenity": "fuel",
        "brand": "Indian Oil",
        "brand:wikidata": "Q1289348",
        "compressed_air": "yes",
        "name": "Indian Oil"
      }
    }
  ]
}