{
  "area_name": "Kathriguppe",
  "osm_id": 19883403,
  "osm_type": "relation",
  "place_type": "administrative",
  "amenity_count": 62,
  "amenities": [
    {
      "type": "node",
      "id": 953663233,
      "lat": 12.9265852,
      "lon": 77.5509047,
      "tags": {
        "name": "Big Bazaar",
        "name:kn": "ಬಿಗ್ ಬಜಾರ್",
        "shop": "supermarket",
        "toilets:wheelchair": "no",
        "wheelchair": "limited"
      }
    },
    {
      "type": "node",
      "id": 953663303,
      "lat": 12.925511,
      "lon": 77.5501686,
      "tags": {
        "name": "Food World",
        "name:kn": "ಫುಡ್ ವರ್ಲ್ಡ್",
        "shop": "supermarket"
      }
    },
    {
      "type": "node",
      "id": 953663359,
      "lat": 12.9261046,
      "lon": 77.5502503,
      "tags": {
        "amenity": "restaurant",
        "name": "Anna Kuteera",
        "name:kn": "ಅಣ್ಣ ಕುಟೀರ",
        "toilets:wheelchair": "no",
        "wheelchair": "no"
      }
    },
    {
      "type": "node",
      "id": 1462194226,
      "lat": 12.9256218,
      "lon": 77.5502249,
      "tags": {
        "alt_name": "Kentucky Fried Chicken",
        "alt_name:en": "Kentucky Fried Chicken",
        "alt_name:hi": "केंटुकी फ्राइड चिकन",
        "alt_name:pa": "ਕੈਂਟੁਕੀ ਫ੍ਰਾਈਡ ਚਿਕਨ",
        "alt_name:pnb": "کینٹکی فرائیڈ چکن",
        "alt_name:ur": "کینٹکی فرائیڈ چکن",
        "amenity": "fast_food",
        "brand": "KFC",
        "brand:en": "KFC",
        "brand:hi": "केएफसी",
        "brand:pa": "ਕੇਐਫਸੀ",
        "brand:pnb": "کے ایف سی",
        "brand:ur": "کے ایف سی",
        "brand:wikidata": "Q524757",
        "brand:wikipedia": "en:KFC",
        "brand:wikipedia:pa": "ਕੇਐਫਸੀ",
        "brand:wikipedia:ur": "کینٹکی فرائیڈ چکن",
        "cuisine": "chicken",
        "name": "KFC",
        "name:en": "KFC",
        "name:hi": "केएफसी",
        "name:kn": "ಕೆಎಫ್‌ಸಿ",
        "name:pa": "ਕੇਐਫਸੀ",
        "name:pnb": "کے ایف سی",
        "name:ur": "کے ایف سی",
        "takeaway": "yes"
      }
    },
    {
      "type": "node",
      "id": 1462237219,
      "lat": 12.9256318,
      "lon": 77.5498709,
      "tags": {
        "amenity": "restaurant",
        "name": "Dal Tadka",
        "name:kn": "ದಾಲ್ ತಡ್ಕ"
      }
    },
    {
      "type": "node",
      "id": 1465026171,
      "lat": 12.9293305,
      "lon": 77.5483881,
      "tags": {
        "leisure": "park"
      }
    },
    {
      "type": "node",
      "id": 1465027748,
      "lat": 12.9296442,
      "lon": 77.5479375,
      "tags": {
        "amenity": "fountain"
      }
    },
    {
      "type": "node",
      "id": 1465031293,
      "lat": 12.9257438,
      "lon": 77.5498097,
      "tags": {
        "amenity": "bank",
        "atm": "yes",
        "brand": "Bank of India",
        "brand:wikidata": "Q2004439",
        "name": "Bank of India",
        "name:kn": "ಬ್ಯಾಂಕ್ ಅಫ್ ಇಂಡಿಯ",
        "operator": "Bank of India"
      }
    },
    {
      "type": "node",
      "id": 1465032919,
      "lat": 12.9296912,
      "lon": 77.5519662,
      "tags": {
        "amenity": "atm",
        "brand": "State Bank of India",
        "brand:wikidata": "Q1340361",
        "operator": "State Bank of India",
        "operator:wikidata": "Q1340361",
        "short_name": "SBI"
      }
    },
    {
      "type": "node",
      "id": 1465033352,
      "lat": 12.9296755,
      "lon": 77.5519983,
      "tags": {
        "amenity": "bank",
        "atm": "yes",
        "brand": "State Bank of India",
        "brand:wikidata": "Q1340361",
        "brand:wikipedia": "en:State Bank of India",
        "name": "State Bank of India",
        "name:kn": "ಭಾರತೀಯ ಸ್ಟೇಟ್ ಬ್ಯಾಂಕ್",
        "short_name": "SBI",
        "website": "https://www.sbi.co.in"
      }
    },
    {
      "type": "node",
      "id": 1466478562,
      "lat": 12.925977,
      "lon": 77.5504903,
      "tags": {
        "addr:postcode": "560085",
        "addr:street": "Kathriguppa main road",
        "brand": "Levi's",
        "brand:wikidata": "Q127962",
        "clothes": "denim;men;women",
        "name": "Levi's",
        "shop": "clothes"
      }
    },
    {
      "type": "node",
      "id": 1466479502,
      "lat": 12.927054,
      "lon": 77.5506405,
      "tags": {
        "addr:city": "Bengaluru",
        "addr:housenumber": "92/3",
        "addr:postcode": "560085",
        "addr:street": "Kathriguppa Main Road",
        "addr:suburb": "Banashankri",
        "brand": "Puma",
        "brand:wikidata": "Q157064",
        "name": "Puma",
        "name:kn": "ಪೂಮ",
        "opening_hours": "10:00-22:00",
        "phone": "080 4171 1671",
        "shop": "clothes",
        "website": "https://in.puma.com/?mktID=PL:Brand%20Marketing:Puma.com-CatchAllPage:India-en&plinkID=Brand"
      }
    },
    {
      "type": "node",
      "id": 1471945412,
      "lat": 12.9251321,
      "lon": 77.5507224,
      "tags": {
        "amenity": "restaurant",
        "brand": "Pizza Hut",
        "brand:wikidata": "Q191615",
        "cuisine": "pizza",
        "name": "Pizza Hut",
        "name:kn": "ಪಿಟ್ಸ ಹಟ್"
      }
    },
    {
      "type": "node",
      "id": 1471945416,
      "lat": 12.9251112,
      "lon": 77.55076,
      "tags": {
        "name": "Lakme Salon",
        "shop": "hairdresser"
      }
    },
    {
      "type": "node",
      "id": 1473775383,
      "lat": 12.9324223,
      "lon": 77.555718,
      "tags": {
        "amenity": "place_of_worship",
        "name": "Ganesha Temple",
        "name:kn": "ಗಣೇಶ ದೇವಸ್ಥಾನ",
        "religion": "hindu"
      }
    },
    {
      "type": "node",
      "id": 1473889273,
      "lat": 12.9279154,
      "lon": 77.5563831,
      "tags": {
        "amenity": "place_of_worship",
        "name": "Shiva Temple",
        "name:kn": "ಶಿವ ದೇವಸ್ಥಾನ",
        "religion": "hindu"
      }
    },
    {
      "type": "node",
      "id": 1473950469,
      "lat": 12.9251478,
      "lon": 77.5507385,
      "tags": {
        "amenity": "restaurant",
        "cuisine": "chinese",
        "name": "Chung wah",
        "name:kn": "ಚುಂಗ್ ವ"
      }
    },
    {
      "type": "node",
      "id": 1474821033,
      "lat": 12.9240181,
      "lon": 77.5533888,
      "tags": {
        "amenity": "pharmacy",
        "brand": "Apollo Pharmacy",
        "brand:wikidata": "Q62562612",
        "healthcare": "pharmacy",
        "name": "Apollo Pharmacy",
        "name:kn": "ಅಪೋಲೋ ಫಾರ್ಮಸಿ"
      }
    },
    {
      "type": "node",
      "id": 1474821040,
      "lat": 12.9240077,
      "lon": 77.5534639,
      "tags": {
        "name": "Spectacles store",
        "shop": "convenience"
      }
    },
    {
      "type": "node",
      "id": 1474821378,
      "lat": 12.9240913,
      "lon": 77.553374,
      "tags": {
        "alt_name": "Goli Vada Pav No.1",
        "amenity": "fast_food",
        "brand": "Goli Vada Pav",
        "brand:wikidata": "Q5580697",
        "cuisine": "indian",
        "name": "Goli Vada Pav",
        "takeaway": "yes"
      }
    },
    {
      "type": "node",
      "id": 1474821379,
      "lat": 12.9241697,
      "lon": 77.552991,
      "tags": {
        "name": "Chroma Mega Store",
        "shop": "convenience"
      }
    },
    {
      "type": "node",
      "id": 1474831725,
      "lat": 12.9249818,
      "lon": 77.5512039,
      "tags": {
        "amenity": "fast_food",
        "brand": "Domino's",
        "brand:ks": "ڈومینوز",
        "brand:pa": "ਡੋਮੀਨੋਜ਼",
        "brand:ur": "ڈومینوز",
        "brand:wikidata": "Q839466",
        "brand:wikipedia": "en:Domino's Pizza",
        "cuisine": "pizza",
        "name": "Domino's",
        "name:ks": "ڈومینوز",
        "name:pa": "ਡੋਮੀਨੋਜ਼",
        "name:ur": "ڈومینوز",
        "takeaway": "yes"
      }
    },
    {
      "type": "node",
      "id": 1474831729,
      "lat": 12.9258745,
      "lon": 77.5501431,
      "tags": {
        "amenity": "cafe",
        "brand": "Cafe Coffee Day",
        "brand:wikidata": "Q5017235",
        "cuisine": "coffee_shop",
        "name": "Cafe Coffee Day",
        "name:kn": "ಕಫೆ ಕಾಫಿ ಡೇ",
        "takeaway": "yes"
      }
    },
    {
      "type": "node",
      "id": 1474831732,
      "lat": 12.925817,
      "lon": 77.550127,
      "tags": {
        "amenity": "fast_food",
        "name": "Beijing Bites",
        "name:kn": "ಬೀಜಿಂಗ್ ಬೈಟ್ಸ್"
      }
    },
    {
      "type": "node",
      "id": 1474832786,
      "lat": 12.9260889,
      "lon": 77.5504555,
      "tags": {
        "amenity": "fast_food",
        "name": "Mast Kalandar",
        "name:kn": "ಮಸ್ತ್ ಕಲಂದರ್"
      }
    },
    {
      "type": "node",
      "id": 2012855686,
      "lat": 12.9255011,
      "lon": 77.5499538,
      "tags": {
        "amenity": "atm",
        "brand": "HDFC Bank",
        "brand:wikidata": "Q631047",
        "designation": "HDFC Bank",
        "operator": "HDFC Bank",
        "operator:wikidata": "Q631047",
        "short_name": "HDFC"
      }
    },
    {
      "type": "node",
      "id": 2012858067,
      "lat": 12.9254619,
      "lon": 77.5499726,
      "tags": {
        "addr:postcode": "560085",
        "addr:street": "Outer Ring Road",
        "amenity": "bank",
        "atm": "yes",
        "brand": "HDFC Bank",
        "brand:wikidata": "Q631047",
        "brand:wikipedia": "en:HDFC Bank",
        "name": "HDFC Bank",
        "name:kn": "ಎಚ್ ಡಿ ಎಫ್ ಸಿ",
        "short_name": "HDFC",
        "website": "https://www.hdfcbank.com"
      }
    },
    {
      "type": "node",
      "id": 2513845209,
      "lat": 12.9238423,
      "lon": 77.5540301,
      "tags": {
        "amenity": "shelter",
        "bench": "yes",
        "covered": "yes",
        "shelter": "yes",
        "shelter_type": "public_transport"
      }
    },
    {
      "type": "node",
      "id": 2587475455,
      "lat": 12.9307552,
      "lon": 77.5475178,
      "tags": {
        "amenity": "bank",
        "atm": "yes",
        "branch": "Kathriguppe",
        "brand:wikidata": "Q1340361",
        "brand:wikipedia": "en:State Bank of India",
        "name": "State Bank of India",
        "name:kn": "ಭಾರತೀಯ ಸ್ಟೇಟ್ ಬ್ಯಾಂಕ್",
        "opening_hours": "Mo-Fr 09:00-16:30",
        "short_name": "SBI",
        "website": "https://www.sbi.co.in"
      }
    },
    {
      "type": "node",
      "id": 2623603733,
      "lat": 12.924471,
      "lon": 77.5523785,
      "tags": {
        "amenity": "atm",
        "brand": "Standard Chartered",
        "brand:wikidata": "Q548278",
        "name": "Standard Chartered Bank",
        "operator": "Standard Chartered",
        "operator:wikidata": "Q548278"
      }
    },
    {
      "type": "node",
      "id": 4444115045,
      "lat": 12.9301326,
      "lon": 77.5606044,
      "tags": {
        "addr:city": "Bengaluru",
        "addr:postcode": "560085",
        "addr:street": "8th Cross Rd, Vidyapeeta Layout, Banashankari 3rd Stage",
        "amenity": "police",
        "name": "Chennamanakere Achukattu Police Station",
        "name:kn": "ಚೆನ್ನಮ್ಮಕೆರೆ ಅಚ್ಚುಕಟ್ಟು",
        "phone": "080 2294 3483",
        "website": "ksp.gov.in"
      }
    },
    {
      "type": "node",
      "id": 4445574724,
      "lat": 12.9268231,
      "lon": 77.548292,
      "tags": {
        "addr:city": "Bangalore",
        "addr:housenumber": "222",
        "addr:postcode": "560085",
        "addr:street": "Kathriguppe Main Road",
        "amenity": "restaurant",
        "cuisine": "indian",
        "name": "Chicken Hunt",
        "opening_hours": "11:30-22:30",
        "phone": "+91 9341128791",
        "takeaway": "yes"
      }
    },
    {
      "type": "node",
      "id": 4445597227,
      "lat": 12.9306311,
      "lon": 77.5535559,
      "tags": {
        "addr:city": "Banashankari,Bangalore",
        "addr:housenumber": "45",
        "addr:postcode": "560085",
        "addr:street": "Kathriguppe Main Road",
        "amenity": "restaurant",
        "cuisine": "indian",
        "name": "Karavali Lunch Home",
        "opening_hours": "12:00-16:00,18:30-23:00",
        "phone": "080 2669 1046",
        "takeaway": "yes"
      }
    },
    {
      "type": "node",
      "id": 4446359270,
      "lat": 12.9285834,
      "lon": 77.5457702,
      "tags": {
        "addr:city": "Banashankari,Bangalore",
        "addr:postcode": "560085",
        "addr:street": "Outer Ring Road",
        "amenity": "restaurant",
        "cuisine": "regional",
        "name": "Ayodhya Upachar",
        "name:kn": "ಅಯೋಧ್ಯ ಉಪಚಾರ",
        "opening_hours": "07:00-23:00",
        "phone": "099013 93214",
        "takeaway": "yes",
        "wheelchair": "no"
      }
    },
    {
      "type": "node",
      "id": 4446409048,
      "lat": 12.9279866,
      "lon": 77.5519145,
      "tags": {
        "addr:city": "Banashankari,bangalore",
        "addr:housenumber": "119",
        "addr:postcode": "560085",
        "addr:street": "Kathriguppe Main Road",
        "amenity": "restaurant",
        "cuisine": "regional",
        "name": "Janahaar",
        "opening_hours": "09:00-21:00",
        "phone": "+91 90351 04559",
        "takeaway": "yes"
      }
    },
    {
      "type": "node",
      "id": 4446907220,
      "lat": 12.9274553,
      "lon": 77.5516293,
      "tags": {
        "addr:city": "Bangalore",
        "addr:housenumber": "165",
        "addr:postcode": "560085",
        "addr:street": "1st Main Road, Kathreguppe Cross Road, Kathreguppe, Banashankari 3rd Stage",
        "amenity": "hospital",
        "name": "Ring Road Hospital",
        "phone": "080 2679 7040",
        "source": "just dial"
      }
    },
    {
      "type": "node",
      "id": 4446911787,
      "lat": 12.9263669,
      "lon": 77.5546536,
      "tags": {
        "addr:city": "bangalore",
        "addr:housenumber": "62/1",
        "addr:postcode": "560085",
        "addr:street": "4th Main Road, Chennamanakere Achukatte, BSK 3rd Stage, Banashankari",
        "amenity": "clinic",
        "name": "Sri Srinivasa Clinic",
        "phone": "+9198450 26791",
        "source": "just dial"
      }
    },
    {
      "type": "node",
      "id": 4490018874,
      "lat": 12.9253941,
      "lon": 77.5504463,
      "tags": {
        "FIXME": "the website url appears to be clipped and non-functional. Can someone please fix it?",
        "addr:city": "Banashankari,bangalore",
        "addr:postcode": "560085",
        "addr:street": "Kathriguppe Main Road",
        "fixme:website": "www.fitnesssolutionsgloba..",
        "leisure": "sports_centre",
        "name": "Fitness Solution",
        "opening_hours": "12:00-23:30",
        "phone": "099160 02240"
      }
    },
    {
      "type": "node",
      "id": 4701113489,
      "lat": 12.9314007,
      "lon": 77.5577461,
      "tags": {
        "addr:postcode": "560085",
        "amenity": "school",
        "name": "ಶ್ರೀ ಕೃಷ್ಣ ಪಿ ಯು ಕಾಲೇಜು",
        "name:en": "Sri Krishna PU College",
        "name:kn": "ಶ್ರೀ ಕೃಷ್ಣ ಪಿ ಯು ಕಾಲೇಜು"
      }
    },
    {
      "type": "node",
      "id": 4797659571,
      "lat": 12.9293898,
      "lon": 77.5519618,
      "tags": {
        "addr:city": "Bengaluru",
        "addr:postcode": "560085",
        "addr:street": "Kathriguppe Main Road",
        "amenity": "restaurant",
        "brand": "Adyar Ananda Bhavan",
        "brand:wikidata": "Q15178238",
        "cuisine": "regional",
        "name": "Adyar Ananda Bhavan",
        "name:kn": "ಆದ್ಯಾರ್ ಆನಂದ ಭವನ",
        "phone": "919886823031",
        "shop": "confectionery",
        "website": "https://aabsweets.com"
      }
    },
    {
      "type": "node",
      "id": 5302772311,
      "lat": 12.9306675,
      "lon": 77.5474147,
      "tags": {
        "amenity": "clinic",
        "level": "-1",
        "name": "Shekhar Clinic",
        "opening_hours": "10:00-13:00,18:00-21:00"
      }
    },
    {
      "type": "node",
      "id": 5302772312,
      "lat": 12.9306773,
      "lon": 77.5474666,
      "tags": {
        "amenity": "bank",
        "branch": "Banashankari 3rd Stage",
        "level": "1",
        "name": "Karnataka State Co-Operative Apex Bank Ltd",
        "opening_hours": "Mo-Fr 09:00-13:30,14:00-17:00",
        "short_name": "Apex Bank"
      }
    },
    {
      "type": "node",
      "id": 5302772313,
      "lat": 12.9306492,
      "lon": 77.547441,
      "tags": {
        "amenity": "pharmacy",
        "brand": "MedPlus",
        "brand:wikidata": "Q65684234",
        "healthcare": "pharmacy",
        "level": "0",
        "name": "MedPlus"
      }
    },
    {
      "type": "node",
      "id": 5302772314,
      "lat": 12.9306982,
      "lon": 77.5474396,
      "tags": {
        "amenity": "restaurant",
        "level": "-1",
        "name": "Davanagere Bajji Centre"
      }
    },
    {
      "type": "node",
      "id": 6938675648,
      "lat": 12.9244632,
      "lon": 77.5535296,
      "tags": {
        "addr:district": "Bengaluru Urban",
        "addr:full": "# 244,7Th Cross Vi Block.Iii Phase Iii Block, Banashankari",
        "addr:postcode": "560085",
        "addr:state": "Karnataka",
        "amenity": "clinic",
        "email": "adityanetralaya@gmail.com",
        "name": "Aditya Netralaya",
        "operator:type": "private",
        "source": "OpenGovernmentData",
        "website": "https://adityanetralaya.com/"
      }
    },
    {
      "type": "node",
      "id": 6938777925,
      "lat": 12.9291283,
      "lon": 77.5461361,
      "tags": {
        "addr:district": "Bengaluru Urban",
        "addr:full": "No.160, 1st Floor,Rashi Complex,2nd Stage,2nd Block,Near Bda Complex, Nagarabhavi",
        "addr:postcode": "560072",
        "addr:state": "Karnataka",
        "amenity": "hospital",
        "name": "Netraspandana Healthcare and Research Pvt. Ltd",
        "source": "OpenGovernmentData"
      }
    },
    {
      "type": "node",
      "id": 6938783140,
      "lat": 12.9278657,
      "lon": 77.5519297,
      "tags": {
        "addr:district": "Bengaluru Urban",
        "addr:full": "#129, 1 Main Road, Kattriguppe, Banashankari Iii Stage",
        "addr:postcode": "560085",
        "addr:state": "Karnataka",
        "amenity": "hospital",
        "name": "Ring Road Hospital",
        "source": "OpenGovernmentData"
      }
    },
    {
      "type": "node",
      "id": 7059472363,
      "lat": 12.9275729,
      "lon": 77.5470424,
      "tags": {
        "addr:city": "Bangalore",
        "addr:postcode": "560085",
        "name": "Curtains N More",
        "opening_hours": "10:30-21:00",
        "shop": "furniture",
        "source": "survey;local knowledge;gps"
      }
    },
    {
      "type": "node",
      "id": 7579924747,
      "lat": 12.9278507,
      "lon": 77.5506292,
      "tags": {
        "addr:district": "Bengaluru Urban",
        "addr:full": "Kathreguppe, Banashankari, Bengaluru",
        "addr:postcode": "560085",
        "addr:state": "Karnataka",
        "amenity": "clinic",
        "name": "Anand Kids",
        "source": "Local Knowledge"
      }
    },
    {
      "type": "node",
      "id": 11279447619,
      "lat": 12.9250501,
      "lon": 77.551074,
      "tags": {
        "amenity": "bar",
        "name": "GULP",
        "name:kn": "ಸರ್ಕಾರಿ ಉರ್ದು ಪ್ರಾಥಮಿಕ ಶಾಲೆ"
      }
    },
    {
      "type": "node",
      "id": 11279634293,
      "lat": 12.9238149,
      "lon": 77.5541143,
      "tags": {
        "amenity": "shelter",
        "bench": "yes",
        "covered": "yes",
        "shelter": "yes",
        "shelter_type": "public_transport"
      }
    },
    {
      "type": "node",
      "id": 12862846460,
      "lat": 12.9271408,
      "lon": 77.5479307,
      "tags": {
        "amenity": "fast_food",
        "cuisine": "burger",
        "delivery": "yes",
        "name": "Easy Bites by Empire",
        "takeaway": "yes"
      }
    },
    {
      "type": "way",
      "id": 132924556,
      "center": {
        "lat": 12.9296424,
        "lon": 77.5479735
      },
      "tags": {
        "designation": "BBMP Park - mysore mallige KS narasimhaswamy park",
        "leisure": "park"
      }
    },
    {
      "type": "way",
      "id": 132924564,
      "center": {
        "lat": 12.9295491,
        "lon": 77.5507012
      },
      "tags": {
        "leisure": "pitch",
        "name": "Rama Rao Layout BBMP Sports Ground",
        "note": "'playground' in OSM is a children's playground with swings et.c."
      }
    },
    {
      "type": "way",
      "id": 133145563,
      "center": {
        "lat": 12.9275531,
        "lon": 77.5552342
      },
      "tags": {
        "leisure": "stadium",
        "name": "Basket ball, shuttle court"
      }
    },
    {
      "type": "way",
      "id": 133145605,
      "center": {
        "lat": 12.9268596,
        "lon": 77.5542156
      },
      "tags": {
        "leisure": "park",
        "name": "Chenamma Kere Park"
      }
    },
    {
      "type": "way",
      "id": 244032263,
      "center": {
        "lat": 12.9257536,
        "lon": 77.554778
      },
      "tags": {
        "amenity": "community_centre",
        "building": "yes",
        "name": "Venkatadri Kalyana Mantapa",
        "name:kn": "ವೆಂಕಟಾದ್ರಿ ಕಲ್ಯಾಣ ಮಂಟಪ"
      }
    },
    {
      "type": "way",
      "id": 244032543,
      "center": {
        "lat": 12.9256691,
        "lon": 77.5535484
      },
      "tags": {
        "leisure": "park",
        "name": "Chennamma Kere Achukattu Park",
        "name:kn": "ಚೆನ್ನಮ್ಮನ ಕೆರೆ ಅಚ್ಚುಕಟ್ಟು ಉದ್ಯಾನವನ"
      }
    },
    {
      "type": "way",
      "id": 350509765,
      "center": {
        "lat": 12.927045,
        "lon": 77.5559702
      },
      "tags": {
        "amenity": "school",
        "building": "yes",
        "name": "Sri Saraswati Vidya Mandira School"
      }
    },
    {
      "type": "way",
      "id": 362894271,
      "center": {
        "lat": 12.9322491,
        "lon": 77.5490336
      },
      "tags": {
        "leisure": "park"
      }
    },
    {
      "type": "way",
      "id": 737361889,
      "center": {
        "lat": 12.9344285,
        "lon": 77.5507627
      },
      "tags": {
        "leisure": "park",
        "name": "Banni Mantapa",
        "name:kn": "ಬನ್ನಿ ಮಂಟಪ"
      }
    },
    {
      "type": "way",
      "id": 1302188264,
      "center": {
        "lat": 12.9267397,
        "lon": 77.5483957
      },
      "tags": {
        "amenity": "parking"
      }
    }
  ]
}