{
  "area_name": "Kaverappa Layout",
  "osm_id": 3771990412,
  "osm_type": "node",
  "place_type": "neighbourhood",
  "amenity_count": 235,
  "amenities": [
    {
      "type": "node",
      "id": 2098484752,
      "lat": 12.9420712,
      "lon": 77.6979277,
      "tags": {
        "leisure": "swimming_pool",
        "sport": "swimming"
      }
    },
    {
      "type": "node",
      "id": 2098484831,
      "lat": 12.9421287,
      "lon": 77.6977454,
      "tags": {
        "amenity": "pub",
        "name": "Tropika Brewing Co"
      }
    },
    {
      "type": "node",
      "id": 2413350412,
      "lat": 12.9406602,
      "lon": 77.6936066,
      "tags": {
        "leisure": "swimming_pool",
        "sport": "swimming"
      }
    },
    {
      "type": "node",
      "id": 2413361199,
      "lat": 12.9394473,
      "lon": 77.6922736,
      "tags": {
        "leisure": "swimming_pool",
        "sport": "swimming"
      }
    },
    {
      "type": "node",
      "id": 2417827937,
      "lat": 12.935016,
      "lon": 77.6947265,
      "tags": {
        "amenity": "atm",
        "brand": "HDFC Bank",
        "brand:wikidata": "Q631047",
        "cash_in": "no",
        "name": "HDFC Bank",
        "operator": "HDFC Bank",
        "operator:wikidata": "Q631047",
        "short_name": "HDFC"
      }
    },
    {
      "type": "node",
      "id": 2417865360,
      "lat": 12.9356128,
      "lon": 77.6951527,
      "tags": {
        "access": "customers",
        "amenity": "parking",
        "fee": "no",
        "name": "Cisco Visitor's Parking",
        "parking": "surface"
      }
    },
    {
      "type": "node",
      "id": 2417865362,
      "lat": 12.9357853,
      "lon": 77.6951635,
      "tags": {
        "amenity": "bicycle_parking",
        "bicycle_parking": "informal",
        "covered": "no",
        "name": "Cisco Visitor's Parking"
      }
    },
    {
      "type": "node",
      "id": 2432309201,
      "lat": 12.9357533,
      "lon": 77.6962873,
      "tags": {
        "addr:city": "Bengaluru",
        "addr:housenumber": "BGL-12",
        "addr:postcode": "560103",
        "addr:street": "Cessna Business Park",
        "amenity": "cafe",
        "internet_access": "wlan",
        "name": "Clubhouse Cafe",
        "outdoor_seating": "yes"
      }
    },
    {
      "type": "node",
      "id": 2738839665,
      "lat": 12.9392013,
      "lon": 77.695393,
      "tags": {
        "addr:housenumber": "20/5 Narayanaswamy Building",
        "addr:street": "Outer Ring Road",
        "amenity": "restaurant"
      }
    },
    {
      "type": "node",
      "id": 3233872833,
      "lat": 12.9353684,
      "lon": 77.7054349,
      "tags": {
        "amenity": "post_office",
        "name": "Panathuru Post Office",
        "name:kn": "ಪಣತೂರು ಅಂಚೆ ಕಛೇರಿ"
      }
    },
    {
      "type": "node",
      "id": 3237596895,
      "lat": 12.9398646,
      "lon": 77.6959322,
      "tags": {
        "amenity": "restaurant",
        "cuisine": "regional",
        "indoor_seating": "yes",
        "name": "Bhagini",
        "name:kn": "ಭಗಿನಿ",
        "outdoor_seating": "no"
      }
    },
    {
      "type": "node",
      "id": 3239060994,
      "lat": 12.9389751,
      "lon": 77.6953137,
      "tags": {
        "amenity": "restaurant",
        "brand": "Pizza Hut",
        "brand:wikidata": "Q191615",
        "brand:wikipedia": "en:Pizza Hut",
        "cuisine": "pizza",
        "name": "Pizza Hut",
        "name:kn": "ಪಿಟ್ಸ ಹಟ್",
        "wheelchair": "no"
      }
    },
    {
      "type": "node",
      "id": 3771374125,
      "lat": 12.9353215,
      "lon": 77.6944935,
      "tags": {
        "amenity": "food_court",
        "indoor_seating": "yes",
        "opening_hours": "Jan-Dec: Mo-Su 08:00-22:00",
        "outdoor_seating": "no"
      }
    },
    {
      "type": "node",
      "id": 4217842490,
      "lat": 12.9378825,
      "lon": 77.6991184,
      "tags": {
        "addr:postcode": "560103",
        "addr:street": "Panathur Main Road",
        "amenity": "restaurant",
        "bar": "yes",
        "cuisine": "indian;seafood;chicken;egg;mutton;tandoor",
        "name": "Swathi Deluxe"
      }
    },
    {
      "type": "node",
      "id": 4307445303,
      "lat": 12.9415155,
      "lon": 77.6967808,
      "tags": {
        "check_date": "2023-08-15",
        "indoor_seating": "yes",
        "level": "0",
        "name": "Just Bake",
        "name:kn": "ಜಸ್ಟ್ ಬೇಕ್",
        "outdoor_seating": "no",
        "shop": "bakery",
        "source": "survey"
      }
    },
    {
      "type": "node",
      "id": 4307449561,
      "lat": 12.9414433,
      "lon": 77.6967315,
      "tags": {
        "air_conditioning": "yes",
        "amenity": "fast_food",
        "brand": "Subway",
        "brand:wikidata": "Q244457",
        "check_date": "2025-09-03",
        "check_date:diet:vegetarian": "2024-12-15",
        "check_date:smoking": "2024-12-15",
        "cuisine": "sandwich",
        "diet:vegetarian": "yes",
        "indoor_seating": "yes",
        "level": "0",
        "name": "Subway",
        "outdoor_seating": "no",
        "smoking": "no",
        "source": "survey",
        "takeaway": "yes"
      }
    },
    {
      "type": "node",
      "id": 4307449562,
      "lat": 12.9413826,
      "lon": 77.6967037,
      "tags": {
        "amenity": "restaurant",
        "indoor_seating": "yes",
        "level": "0",
        "outdoor_seating": "no"
      }
    },
    {
      "type": "node",
      "id": 4307449563,
      "lat": 12.9413212,
      "lon": 77.6966738,
      "tags": {
        "amenity": "restaurant",
        "level": "0",
        "name": "Chulha Bhatti"
      }
    },
    {
      "type": "node",
      "id": 4350034890,
      "lat": 12.9431355,
      "lon": 77.6978544,
      "tags": {
        "brand": "Cromā",
        "brand:wikidata": "Q5187683",
        "check_date": "2025-09-03",
        "name": "Cromā",
        "payment:credit_cards": "yes",
        "payment:debit_cards": "yes",
        "shop": "electronics",
        "wheelchair": "yes"
      }
    },
    {
      "type": "node",
      "id": 4441797658,
      "lat": 12.9391292,
      "lon": 77.696313,
      "tags": {
        "addr:city": "Bengaluru",
        "addr:housenumber": "87",
        "addr:postcode": "560087",
        "addr:street": "Panathur Main Road",
        "amenity": "dentist",
        "healthcare": "dentist",
        "name": "Bright Smiles Family dental Care",
        "phone": "+91-78990 10100"
      }
    },
    {
      "type": "node",
      "id": 4444192976,
      "lat": 12.9425467,
      "lon": 77.697942,
      "tags": {
        "addr:city": "Bangalore",
        "addr:postcode": "560037",
        "addr:street": "Opposite Prestige Tech Park, Marathahalli, Outer Ring Road, Kadubisanahalli, Marathahalli, Bangalore",
        "amenity": "restaurant",
        "delivery": "yes",
        "name": "Fenix - Sunray Hotel",
        "opening_hours": "00:00-24:00",
        "phone": "+91 8 971254477",
        "smoking": "no",
        "takeaway": "yes",
        "website": "www.sunrayhotel.com"
      }
    },
    {
      "type": "node",
      "id": 4489848940,
      "lat": 12.9426452,
      "lon": 77.6946752,
      "tags": {
        "addr:city": "Bangalore",
        "addr:postcode": "560103",
        "addr:street": "Service Road",
        "name": "Zela",
        "opening_hours": "6:00-16:00",
        "phone": "8049313333",
        "shop": "beauty",
        "website": "www.zelalife.com"
      }
    },
    {
      "type": "node",
      "id": 4668296373,
      "lat": 12.940448,
      "lon": 77.6938156,
      "tags": {
        "amenity": "place_of_worship",
        "name": "Temple",
        "name:kn": "ದೇವಸ್ಥಾನ"
      }
    },
    {
      "type": "node",
      "id": 4852926150,
      "lat": 12.9440107,
      "lon": 77.6962191,
      "tags": {
        "access": "private",
        "amenity": "parking_entrance",
        "parking": "underground"
      }
    },
    {
      "type": "node",
      "id": 4852926309,
      "lat": 12.9416779,
      "lon": 77.6941135,
      "tags": {
        "access": "private",
        "amenity": "parking_entrance",
        "parking": "underground"
      }
    },
    {
      "type": "node",
      "id": 5309935022,
      "lat": 12.9378559,
      "lon": 77.6990187,
      "tags": {
        "leisure": "fitness_centre",
        "name": "I-BLITZ"
      }
    },
    {
      "type": "node",
      "id": 5309940922,
      "lat": 12.9377615,
      "lon": 77.6994867,
      "tags": {
        "addr:postcode": "560103",
        "check_date": "2025-09-03",
        "name": "Ratnadeep",
        "shop": "department_store"
      }
    },
    {
      "type": "node",
      "id": 5309958621,
      "lat": 12.9379792,
      "lon": 77.6998965,
      "tags": {
        "amenity": "clinic",
        "name": "Maruthi clinic"
      }
    },
    {
      "type": "node",
      "id": 5536129478,
      "lat": 12.9311048,
      "lon": 77.6937955,
      "tags": {
        "amenity": "smoking_area",
        "bench": "yes",
        "bin": "yes",
        "shelter": "yes"
      }
    },
    {
      "type": "node",
      "id": 5698357824,
      "lat": 12.937791,
      "lon": 77.6990276,
      "tags": {
        "leisure": "sports_centre",
        "name": "I-Blitz Badminton Academy",
        "sport": "badminton"
      }
    },
    {
      "type": "node",
      "id": 5698359001,
      "lat": 12.9377969,
      "lon": 77.6993666,
      "tags": {
        "addr:postcode": "560103",
        "addr:street": "Panathur Main Road",
        "check_date": "2025-06-25",
        "level": "0",
        "name": "Nuts Corner",
        "shop": "supermarket"
      }
    },
    {
      "type": "node",
      "id": 5698371204,
      "lat": 12.9377153,
      "lon": 77.6997294,
      "tags": {
        "amenity": "post_office",
        "brand": "Blue Dart Express",
        "brand:short": "Blue Dart",
        "brand:wikidata": "Q54621493",
        "name": "Blue Dart",
        "operator": "Blue Dart Express",
        "operator:short": "Blue Dart",
        "operator:wikidata": "Q54621493",
        "post_office:service_provider": "DHL",
        "post_office:type": "post_annex"
      }
    },
    {
      "type": "node",
      "id": 5817729766,
      "lat": 12.9381615,
      "lon": 77.6991559,
      "tags": {
        "addr:postcode": "560103",
        "addr:street": "Panathur Main Road",
        "amenity": "restaurant",
        "check_date": "2025-09-03",
        "cuisine": "chaats;indian;juice",
        "diet:vegetarian": "yes",
        "level": "0",
        "name": "Sri Vishnu Grand",
        "name:kn": "ಶ್ರೀ ವಿಷ್ಣು"
      }
    },
    {
      "type": "node",
      "id": 5817729767,
      "lat": 12.9381311,
      "lon": 77.6995285,
      "tags": {
        "shop": "medical_supply"
      }
    },
    {
      "type": "node",
      "id": 5970468024,
      "lat": 12.9334937,
      "lon": 77.7057784,
      "tags": {
        "amenity": "place_of_worship",
        "name": "Shiva Temple",
        "name:kn": "ಶಿವ ದೇವಸ್ಥಾನ",
        "religion": "hindu"
      }
    },
    {
      "type": "node",
      "id": 6613030600,
      "lat": 12.9392131,
      "lon": 77.6947005,
      "tags": {
        "amenity": "restaurant",
        "name": "The Black Pearl"
      }
    },
    {
      "type": "node",
      "id": 8632176210,
      "lat": 12.9421555,
      "lon": 77.6973034,
      "tags": {
        "addr:city": "Bangalore",
        "addr:housenumber": "36/1, 2nd floor, Outer Ring Rd, opposite Prestige Tech Park, next to indiqube gamma, Kadubeesanahalli, Bengaluru, Karnataka 560103",
        "addr:postcode": "560103",
        "addr:street": "Sevice Road",
        "amenity": "dentist",
        "description": "Dental Zone is a multispecialty clinic in Bangalore. Dental Zone stronghold a list of dedicated dentists whose experience in dental practices has accomplished  all variants and complications of dental treatment. Dental Zone is a long-established practice",
        "email": "info@dentalzone.co.in",
        "healthcare": "dentist",
        "healthcare:speciality": "general;paediatrics;orthodontics;dentist",
        "image": "https://dentalzone.co.in/wp-content/uploads/2021/02/DentalZone_logo-1-1.png",
        "name": "Dental Zone- Dentist in Bangalore",
        "opening_hours": "Mo-Sa 9:00-20:00",
        "opening_hours:covid19": "Mo-Sa 11:00-19:00",
        "operator": "Sr Dental Zone Pvt Limited",
        "payment:american_express": "yes",
        "payment:cash": "yes",
        "payment:contactless": "yes",
        "payment:credit_cards": "yes",
        "payment:debit_cards": "yes",
        "payment:electronic_purses": "yes",
        "payment:maestro": "yes",
        "payment:mastercard": "yes",
        "payment:visa": "yes",
        "payment:visa_debit": "yes",
        "phone": "+918050808811",
        "website": "https://dentalzone.co.in/"
      }
    },
    {
      "type": "node",
      "id": 9318037105,
      "lat": 12.9378098,
      "lon": 77.6990705,
      "tags": {
        "building": "commercial",
        "fee": "yes",
        "leisure": "sports_centre",
        "name": "I-BLITZ",
        "payment:upi": "yes",
        "sport": "swimming"
      }
    },
    {
      "type": "node",
      "id": 9318131821,
      "lat": 12.938169,
      "lon": 77.6992075,
      "tags": {
        "amenity": "atm",
        "brand": "State Bank of India",
        "brand:wikidata": "Q1340361",
        "brand:wikipedia": "en:State Bank of India",
        "check_date": "2025-06-25",
        "currency:INR": "yes",
        "level": "1",
        "name": "State Bank of India",
        "name:kn": "ಎಸ್ ಬಿ ಐ",
        "operator": "State Bank of India",
        "operator:wikidata": "Q1340361",
        "operator:wikipedia": "en:State Bank of India",
        "short_name": "SBI"
      }
    },
    {
      "type": "node",
      "id": 9318131826,
      "lat": 12.93794,
      "lon": 77.7001931,
      "tags": {
        "addr:postcode": "560103",
        "addr:street": "Panathur Main Road",
        "amenity": "vehicle_inspection",
        "level": "0",
        "name": "VP Park Emission Testing Center"
      }
    },
    {
      "type": "node",
      "id": 9318131831,
      "lat": 12.9377334,
      "lon": 77.6996282,
      "tags": {
        "addr:postcode": "560103",
        "addr:street": "Panathur Main Road",
        "amenity": "ice_cream",
        "delivery": "yes",
        "indoor_seating": "yes",
        "level": "0",
        "name": "Kelvin Scale",
        "outdoor_seating": "no",
        "takeaway": "yes",
        "website": "https://order.kelvinscale.in"
      }
    },
    {
      "type": "node",
      "id": 9318131832,
      "lat": 12.938226,
      "lon": 77.6991542,
      "tags": {
        "addr:postcode": "560103",
        "addr:street": "Panathur Main Road",
        "level": "1",
        "name": "Naturals Salon and Spa",
        "operator": "Naturals",
        "shop": "hairdresser"
      }
    },
    {
      "type": "node",
      "id": 9318156172,
      "lat": 12.9388351,
      "lon": 77.6952036,
      "tags": {
        "addr:city": "Bengaluru",
        "addr:postcode": "560103",
        "addr:street": "Outer Ring Road",
        "amenity": "restaurant",
        "name": "Float Rooftop Restaurant"
      }
    },
    {
      "type": "node",
      "id": 9318156173,
      "lat": 12.9388878,
      "lon": 77.6952654,
      "tags": {
        "addr:city": "Bengaluru",
        "addr:postcode": "560103",
        "addr:street": "Outer Ring Road",
        "amenity": "restaurant",
        "name": "Jalsa Gold Restaurant"
      }
    },
    {
      "type": "node",
      "id": 9318453202,
      "lat": 12.9383625,
      "lon": 77.6980761,
      "tags": {
        "addr:city": "Bengaluru",
        "addr:postcode": "560103",
        "addr:street": "Panathur Main Road",
        "level": "0",
        "name": "Najma Florist",
        "opening_hours": "Mo-Su 08:00-21:00",
        "payment:cash": "yes",
        "payment:upi": "yes",
        "shop": "florist"
      }
    },
    {
      "type": "node",
      "id": 9318453203,
      "lat": 12.9386526,
      "lon": 77.6973755,
      "tags": {
        "addr:city": "Bengaluru",
        "addr:postcode": "560103",
        "addr:street": "Panathur Main Road",
        "air_conditioning": "no",
        "amenity": "restaurant",
        "check_date": "2025-09-03",
        "cuisine": "regional;coffee;tea",
        "diet:vegetarian": "only",
        "indoor_seating": "yes",
        "name": "Sri Vishnu",
        "outdoor_seating": "yes",
        "smoking": "no",
        "wheelchair": "limited"
      }
    },
    {
      "type": "node",
      "id": 9318453204,
      "lat": 12.9386461,
      "lon": 77.6969023,
      "tags": {
        "addr:city": "Bengaluru",
        "addr:postcode": "560103",
        "addr:street": "Panathur Main Road",
        "check_date": "2025-09-03",
        "indoor_seating": "no",
        "level": "0",
        "name": "Cake Land Bakery and Sweets",
        "outdoor_seating": "no",
        "payment:cash": "yes",
        "payment:upi": "yes",
        "shop": "bakery",
        "takeaway": "only"
      }
    },
    {
      "type": "node",
      "id": 9318453205,
      "lat": 12.9386778,
      "lon": 77.6967695,
      "tags": {
        "addr:city": "Bengaluru",
        "addr:postcode": "560103",
        "addr:street": "Panathur Main Road",
        "check_date": "2025-09-03",
        "level": "0",
        "name": "Sowbhagya Medicals",
        "payment:cash": "yes",
        "payment:upi": "yes",
        "shop": "chemist"
      }
    },
    {
      "type": "node",
      "id": 9318453206,
      "lat": 12.9385855,
      "lon": 77.6969785,
      "tags": {
        "addr:city": "Bengaluru",
        "addr:postcode": "560103",
        "addr:street": "Panathur Main Road",
        "level": "0",
        "name": "Bangalore Horticulture",
        "payment:cash": "yes",
        "payment:upi": "yes",
        "shop": "greengrocer"
      }
    },
    {
      "type": "node",
      "id": 9318453207,
      "lat": 12.9386635,
      "lon": 77.6968558,
      "tags": {
        "addr:city": "Bengaluru",
        "addr:street": "Panathur Main Road",
        "shop": "supermarket"
      }
    },
    {
      "type": "node",
      "id": 9318844964,
      "lat": 12.9386058,
      "lon": 77.6941216,
      "tags": {
        "addr:city": "Bengaluru",
        "addr:postcode": "560103",
        "addr:street": "Outer Ring Road",
        "amenity": "bank",
        "atm": "yes",
        "brand": "Axis Bank",
        "brand:wikidata": "Q2003549",
        "brand:wikipedia": "en:Axis Bank",
        "drive_through": "no",
        "level": "0",
        "name": "Axis Bank"
      }
    },
    {
      "type": "node",
      "id": 9318844966,
      "lat": 12.9392395,
      "lon": 77.6947632,
      "tags": {
        "addr:city": "Bengaluru",
        "addr:postcode": "560103",
        "addr:street": "Outer Ring Road",
        "brand": "Kia",
        "brand:wikidata": "Q35349",
        "brand:wikipedia": "en:Kia",
        "name": "Kia",
        "shop": "car"
      }
    },
    {
      "type": "node",
      "id": 9318844969,
      "lat": 12.9396833,
      "lon": 77.6951038,
      "tags": {
        "addr:city": "Bengaluru",
        "addr:postcode": "560103",
        "addr:street": "Outer Ring Road",
        "name": "Sangeeta Mobiles",
        "payment:credit_cards": "yes",
        "payment:debit_cards": "yes",
        "shop": "electronics",
        "wheelchair": "yes"
      }
    },
    {
      "type": "node",
      "id": 9318844970,
      "lat": 12.9392494,
      "lon": 77.6964176,
      "tags": {
        "name": "Iron Shop",
        "opening_hours": "Mo-Su 09:00-20:00",
        "payment:cash": "yes",
        "payment:upi": "yes",
        "shop": "dry_cleaning"
      }
    },
    {
      "type": "node",
      "id": 9341700062,
      "lat": 12.9385877,
      "lon": 77.6970018,
      "tags": {
        "name": "Fish Shop",
        "shop": "seafood"
      }
    },
    {
      "type": "node",
      "id": 9341700063,
      "lat": 12.9386583,
      "lon": 77.6968715,
      "tags": {
        "addr:city": "Bengaluru",
        "addr:postcode": "560103",
        "addr:street": "Panathur Main Road",
        "amenity": "pharmacy",
        "check_date": "2024-01-21",
        "dispensing": "yes",
        "drive_through": "no",
        "healthcare": "pharmacy",
        "level": "0",
        "name": "Janani Clinic",
        "source": "survey",
        "wheelchair": "no"
      }
    },
    {
      "type": "node",
      "id": 9341700065,
      "lat": 12.9386254,
      "lon": 77.6968501,
      "tags": {
        "addr:city": "Bengaluru",
        "addr:postcode": "560103",
        "addr:street": "Panathur Main Road",
        "amenity": "internet_cafe",
        "internet_access": "terminal",
        "internet_access:fee": "yes",
        "level": "1",
        "name": "Shilpa Enterprises Xerox and Cyber",
        "payment:cash": "yes",
        "payment:upi": "yes"
      }
    },
    {
      "type": "node",
      "id": 9341700066,
      "lat": 12.9386194,
      "lon": 77.6968704,
      "tags": {
        "addr:city": "Bengaluru",
        "addr:postcode": "560103",
        "addr:street": "Panathur Main Road",
        "gender_segregated": "women",
        "level": "1",
        "name": "Classic Beauty and Bridal Care Salon",
        "payment:cash": "yes",
        "payment:upi": "yes",
        "shop": "beauty"
      }
    },
    {
      "type": "node",
      "id": 9341700067,
      "lat": 12.9386521,
      "lon": 77.6968879,
      "tags": {
        "addr:city": "Bengaluru",
        "addr:postcode": "560103",
        "addr:street": "Panathur Main Road",
        "level": "0",
        "name": "Padmavathi Home Appliances",
        "payment:cash": "yes",
        "payment:upi": "yes",
        "shop": "appliance"
      }
    },
    {
      "type": "node",
      "id": 9341700068,
      "lat": 12.9386718,
      "lon": 77.696836,
      "tags": {
        "addr:city": "Bengaluru",
        "addr:postcode": "560103",
        "addr:street": "Panathur Main Road",
        "check_date": "2025-09-03",
        "clothes": "children;women;men;underwear",
        "level": "0",
        "name": "Laxmi Textile",
        "shop": "clothes"
      }
    },
    {
      "type": "node",
      "id": 9341700069,
      "lat": 12.9386352,
      "lon": 77.6968289,
      "tags": {
        "addr:city": "Bengaluru",
        "addr:postcode": "560103",
        "addr:street": "Panathur Main Road",
        "level": "1",
        "name": "Sri Lakshmi Lightings",
        "shop": "lighting"
      }
    },
    {
      "type": "node",
      "id": 9759551595,
      "lat": 12.9335397,
      "lon": 77.6968456,
      "tags": {
        "amenity": "restaurant",
        "check_date": "2025-06-21",
        "indoor_seating": "yes",
        "level": "0",
        "name": "Shanti Sagar",
        "outdoor_seating": "yes"
      }
    },
    {
      "type": "node",
      "id": 9772636711,
      "lat": 12.9317951,
      "lon": 77.6962703,
      "tags": {
        "amenity": "fountain"
      }
    },
    {
      "type": "node",
      "id": 9794036386,
      "lat": 12.940788,
      "lon": 77.6963373,
      "tags": {
        "amenity": "post_office",
        "brand": "Desk to Desk Courier & Cargo",
        "brand:short": "DTDC",
        "brand:wikidata": "Q55608802",
        "check_date": "2025-09-03",
        "name": "DTDC",
        "operator": "Desk to Desk Courier & Cargo",
        "operator:short": "DTDC",
        "operator:wikidata": "Q55608802",
        "post_office": "post_annex",
        "post_office:service_provider": "DTDC",
        "source": "survey"
      }
    },
    {
      "type": "node",
      "id": 9795107206,
      "lat": 12.9334046,
      "lon": 77.6968406,
      "tags": {
        "name": "Sansar",
        "opening_hours": "Mo-Su 7:30-22:00",
        "shop": "supermarket"
      }
    },
    {
      "type": "node",
      "id": 9795107207,
      "lat": 12.9335444,
      "lon": 77.6968996,
      "tags": {
        "level": "1",
        "name": "Style Wavz",
        "shop": "hairdresser"
      }
    },
    {
      "type": "node",
      "id": 9795107214,
      "lat": 12.9343959,
      "lon": 77.6970325,
      "tags": {
        "amenity": "clinic",
        "check_date": "2025-06-21",
        "healthcare": "clinic",
        "level": "0",
        "name": "Nurture"
      }
    },
    {
      "type": "node",
      "id": 9795107216,
      "lat": 12.9386666,
      "lon": 77.6973459,
      "tags": {
        "dance:style": "bharatnatyam",
        "dance:teaching": "yes",
        "leisure": "dance",
        "name": "Art Storm"
      }
    },
    {
      "type": "node",
      "id": 9795117735,
      "lat": 12.9385651,
      "lon": 77.6941041,
      "tags": {
        "level": "1",
        "name": "Pepperfry",
        "shop": "furniture"
      }
    },
    {
      "type": "node",
      "id": 9795117736,
      "lat": 12.9386084,
      "lon": 77.6941557,
      "tags": {
        "leisure": "spa",
        "level": "2",
        "name": "Serenity Spa"
      }
    },
    {
      "type": "node",
      "id": 9798012407,
      "lat": 12.9318908,
      "lon": 77.6970976,
      "tags": {
        "access": "private",
        "amenity": "parking_entrance",
        "parking": "underground"
      }
    },
    {
      "type": "node",
      "id": 9812418518,
      "lat": 12.9344448,
      "lon": 77.6970847,
      "tags": {
        "level": "1",
        "name": "Lakme",
        "shop": "beauty"
      }
    },
    {
      "type": "node",
      "id": 9812418519,
      "lat": 12.9383652,
      "lon": 77.6983376,
      "tags": {
        "name": "Urban Vision",
        "shop": "optician"
      }
    },
    {
      "type": "node",
      "id": 9812418520,
      "lat": 12.9381453,
      "lon": 77.6993207,
      "tags": {
        "name": "Mamta Provisions Store",
        "shop": "general"
      }
    },
    {
      "type": "node",
      "id": 9812418541,
      "lat": 12.9384557,
      "lon": 77.69786,
      "tags": {
        "air_conditioning": "no",
        "amenity": "restaurant",
        "indoor_seating": "yes",
        "name": "Mandya",
        "outdoor_seating": "yes"
      }
    },
    {
      "type": "node",
      "id": 9819692854,
      "lat": 12.9380879,
      "lon": 77.6985118,
      "tags": {
        "amenity": "restaurant",
        "check_date": "2025-06-25",
        "name": "Dine Bell"
      }
    },
    {
      "type": "node",
      "id": 9819692863,
      "lat": 12.9375213,
      "lon": 77.701662,
      "tags": {
        "name": "Tansi Honda",
        "operator": "Hero",
        "shop": "motorcycle_repair"
      }
    },
    {
      "type": "node",
      "id": 9819692897,
      "lat": 12.9308468,
      "lon": 77.7031514,
      "tags": {
        "name": "Bakes and Drinks",
        "shop": "bakery"
      }
    },
    {
      "type": "node",
      "id": 9819701589,
      "lat": 12.9364429,
      "lon": 77.703849,
      "tags": {
        "amenity": "fast_food",
        "name": "Bombay Vadapav"
      }
    },
    {
      "type": "node",
      "id": 9819701594,
      "lat": 12.9365809,
      "lon": 77.7033198,
      "tags": {
        "amenity": "clinic",
        "healthcare": "clinic",
        "name": "Sai Clinic"
      }
    },
    {
      "type": "node",
      "id": 9819701603,
      "lat": 12.9367353,
      "lon": 77.7030231,
      "tags": {
        "name": "Cycle World",
        "shop": "bicycle"
      }
    },
    {
      "type": "node",
      "id": 9819701609,
      "lat": 12.9369686,
      "lon": 77.702563,
      "tags": {
        "name": "Cake Land",
        "shop": "pastry"
      }
    },
    {
      "type": "node",
      "id": 9819701614,
      "lat": 12.9371245,
      "lon": 77.7021252,
      "tags": {
        "name": "O&O Optician",
        "shop": "optician"
      }
    },
    {
      "type": "node",
      "id": 9819701619,
      "lat": 12.9370181,
      "lon": 77.7028512,
      "tags": {
        "name": "Bangalore Horticulture",
        "shop": "greengrocer"
      }
    },
    {
      "type": "node",
      "id": 9819701620,
      "lat": 12.9369716,
      "lon": 77.7029443,
      "tags": {
        "amenity": "post_office",
        "brand": "Desk to Desk Courier & Cargo",
        "brand:short": "DTDC",
        "brand:wikidata": "Q55608802",
        "name": "DTDC",
        "operator": "Desk to Desk Courier & Cargo",
        "operator:short": "DTDC",
        "operator:wikidata": "Q55608802",
        "post_office": "post_annex",
        "post_office:brand": "DTDC"
      }
    },
    {
      "type": "node",
      "id": 9830781726,
      "lat": 12.9365283,
      "lon": 77.7046741,
      "tags": {
        "amenity": "hospital",
        "name": "Maya Hospital"
      }
    },
    {
      "type": "node",
      "id": 9840902127,
      "lat": 12.9343858,
      "lon": 77.6973253,
      "tags": {
        "name": "Beany Bread",
        "shop": "bakery"
      }
    },
    {
      "type": "node",
      "id": 9843123491,
      "lat": 12.9385622,
      "lon": 77.6975519,
      "tags": {
        "amenity": "restaurant",
        "check_date": "2025-09-03",
        "indoor_seating": "yes",
        "name": "Ambur Biryani",
        "name:kn": "ಅಂಬುರ್ ಬಿರಿಯಾನಿ",
        "outdoor_seating": "no"
      }
    },
    {
      "type": "node",
      "id": 9844483238,
      "lat": 12.9352024,
      "lon": 77.69745,
      "tags": {
        "access": "private",
        "amenity": "parking_entrance",
        "parking": "underground"
      }
    },
    {
      "type": "node",
      "id": 9844483243,
      "lat": 12.9356773,
      "lon": 77.697517,
      "tags": {
        "access": "permissive",
        "amenity": "parking_entrance",
        "parking": "underground"
      }
    },
    {
      "type": "node",
      "id": 9844483246,
      "lat": 12.9351037,
      "lon": 77.6972547,
      "tags": {
        "access": "private",
        "amenity": "parking_entrance",
        "parking": "underground"
      }
    },
    {
      "type": "node",
      "id": 9854961738,
      "lat": 12.9385536,
      "lon": 77.6970795,
      "tags": {
        "amenity": "clinic",
        "check_date": "2025-09-03",
        "healthcare": "clinic",
        "name": "Janani Clinic"
      }
    },
    {
      "type": "node",
      "id": 9854961739,
      "lat": 12.9388095,
      "lon": 77.6970295,
      "tags": {
        "amenity": "fast_food",
        "cuisine": "juice",
        "name": "Oye Lassi"
      }
    },
    {
      "type": "node",
      "id": 9854961744,
      "lat": 12.9384917,
      "lon": 77.697767,
      "tags": {
        "name": "Kailash Enterprises",
        "shop": "mobile_phone"
      }
    },
    {
      "type": "node",
      "id": 9854961745,
      "lat": 12.9384007,
      "lon": 77.6979761,
      "tags": {
        "name": "Khaleda Stationary",
        "shop": "stationery"
      }
    },
    {
      "type": "node",
      "id": 9854961746,
      "lat": 12.9380817,
      "lon": 77.6985611,
      "tags": {
        "amenity": "fast_food",
        "check_date": "2025-06-25",
        "cuisine": "juice",
        "indoor_seating": "no",
        "name": "Sri Ganesh Juice Center",
        "outdoor_seating": "no",
        "takeaway": "only"
      }
    },
    {
      "type": "node",
      "id": 9854961749,
      "lat": 12.9376768,
      "lon": 77.6997023,
      "tags": {
        "amenity": "childcare"
      }
    },
    {
      "type": "node",
      "id": 9854961750,
      "lat": 12.9377472,
      "lon": 77.7009815,
      "tags": {
        "amenity": "fast_food",
        "cuisine": "chicken",
        "name": "5 Star Chicken"
      }
    },
    {
      "type": "node",
      "id": 9861604605,
      "lat": 12.9417827,
      "lon": 77.6970843,
      "tags": {
        "air_conditioning": "yes",
        "amenity": "fast_food",
        "brand": "Domino's",
        "brand:wikidata": "Q839466",
        "check_date": "2025-09-03",
        "cuisine": "pizza",
        "diet:vegetarian": "yes",
        "indoor_seating": "yes",
        "name": "Domino's",
        "name:kn": "ಡಾಮಿನೋಸ್",
        "outdoor_seating": "no",
        "smoking": "no",
        "takeaway": "yes",
        "wheelchair": "no"
      }
    },
    {
      "type": "node",
      "id": 9861604606,
      "lat": 12.9411548,
      "lon": 77.6966167,
      "tags": {
        "amenity": "restaurant",
        "name": "Udupi Vaibhav"
      }
    },
    {
      "type": "node",
      "id": 9862571099,
      "lat": 12.9352256,
      "lon": 77.7026481,
      "tags": {
        "name": "AZ Home Needs",
        "shop": "supermarket"
      }
    },
    {
      "type": "node",
      "id": 9868535154,
      "lat": 12.9362922,
      "lon": 77.705201,
      "tags": {
        "amenity": "atm",
        "brand": "HDFC Bank",
        "brand:wikidata": "Q631047",
        "cash_in": "no",
        "check_date": "2025-06-21",
        "name": "HDFC Bank",
        "operator": "HDFC Bank",
        "operator:wikidata": "Q631047",
        "short_name": "HDFC"
      }
    },
    {
      "type": "node",
      "id": 10946873740,
      "lat": 12.9420984,
      "lon": 77.6945226,
      "tags": {
        "addr:city": "Bengaluru",
        "addr:country": "IN",
        "addr:street": "Outer Ring Road",
        "addr:suburb": "Marathahalli",
        "amenity": "coworking_space",
        "branch": "Prestige Tech Park",
        "brand": "WeWork",
        "brand:wikidata": "Q19995004",
        "fee": "yes",
        "name": "WeWork",
        "office": "coworking",
        "opening_hours": "24/7",
        "operator": "WeWork"
      }
    },
    {
      "type": "node",
      "id": 11164787811,
      "lat": 12.9418247,
      "lon": 77.697192,
      "tags": {
        "addr:floor": "5",
        "amenity": "restaurant",
        "bar": "yes",
        "check_date": "2023-09-03",
        "highchair": "yes",
        "indoor_seating": "yes",
        "internet_access": "no",
        "level": "5",
        "name": "TBC Sky Lounge",
        "outdoor_seating": "yes",
        "payment:credit_cards": "yes",
        "payment:debit_cards": "yes",
        "reservation": "yes",
        "smoking": "separated",
        "source": "survey",
        "takeaway": "yes",
        "toilets": "yes"
      }
    },
    {
      "type": "node",
      "id": 11164787812,
      "lat": 12.942178,
      "lon": 77.6973674,
      "tags": {
        "air_conditioning": "yes",
        "check_date": "2025-09-03",
        "internet_access": "no",
        "level": "0",
        "name": "Wakefit",
        "payment:credit_cards": "yes",
        "payment:debit_cards": "yes",
        "second_hand": "no",
        "shop": "furniture",
        "stroller": "no",
        "toilets": "yes",
        "toilets:wheelchair": "no",
        "wheelchair": "no"
      }
    },
    {
      "type": "node",
      "id": 11451758780,
      "lat": 12.9423131,
      "lon": 77.6973368,
      "tags": {
        "check_date": "2023-12-25",
        "name": "Duroflex",
        "shop": "bed"
      }
    },
    {
      "type": "node",
      "id": 11451758781,
      "lat": 12.9424297,
      "lon": 77.6974177,
      "tags": {
        "check_date": "2025-09-03",
        "name": "Royal Oak",
        "shop": "furniture"
      }
    },
    {
      "type": "node",
      "id": 11451758782,
      "lat": 12.9421115,
      "lon": 77.697378,
      "tags": {
        "check_date": "2023-12-25",
        "name": "Bosq",
        "shop": "furniture"
      }
    },
    {
      "type": "node",
      "id": 11463129245,
      "lat": 12.9422501,
      "lon": 77.697291,
      "tags": {
        "amenity": "parking_entrance",
        "parking": "underground"
      }
    },
    {
      "type": "node",
      "id": 11505214391,
      "lat": 12.9434872,
      "lon": 77.6955308,
      "tags": {
        "access": "private",
        "amenity": "parking_entrance",
        "parking": "underground"
      }
    },
    {
      "type": "node",
      "id": 11535639642,
      "lat": 12.9410004,
      "lon": 77.6958172,
      "tags": {
        "amenity": "bank",
        "brand": "State Bank of India",
        "brand:wikidata": "Q1340361",
        "check_date": "2024-01-21",
        "name": "State Bank of India",
        "name:kn": "ಎಸ್ ಬಿ ಐ",
        "short_name": "SBI",
        "source": "survey"
      }
    },
    {
      "type": "node",
      "id": 11535639643,
      "lat": 12.9409367,
      "lon": 77.6958029,
      "tags": {
        "amenity": "atm",
        "brand": "State Bank of India",
        "brand:wikidata": "Q1340361",
        "check_date": "2024-01-21",
        "opening_hours": "24/7",
        "operator": "State Bank of India",
        "operator:wikidata": "Q1340361",
        "short_name": "SBI",
        "source": "survey"
      }
    },
    {
      "type": "node",
      "id": 11535639644,
      "lat": 12.9408887,
      "lon": 77.6957776,
      "tags": {
        "amenity": "bank",
        "brand": "HDFC Bank",
        "brand:wikidata": "Q631047",
        "check_date": "2024-01-21",
        "name": "HDFC Bank",
        "short_name": "HDFC",
        "source": "survey"
      }
    },
    {
      "type": "node",
      "id": 11535639645,
      "lat": 12.9408432,
      "lon": 77.6957542,
      "tags": {
        "amenity": "atm",
        "brand": "HDFC Bank",
        "brand:wikidata": "Q631047",
        "check_date": "2024-01-21",
        "opening_hours": "24/7",
        "operator": "HDFC Bank",
        "operator:wikidata": "Q631047",
        "short_name": "HDFC",
        "source": "survey"
      }
    },
    {
      "type": "node",
      "id": 11535944287,
      "lat": 12.9322271,
      "lon": 77.6940849,
      "tags": {
        "amenity": "parking_entrance",
        "maxheight": "2.5",
        "parking": "underground"
      }
    },
    {
      "type": "node",
      "id": 11535944291,
      "lat": 12.9322018,
      "lon": 77.6944201,
      "tags": {
        "amenity": "parking_entrance",
        "maxheight": "2.5",
        "parking": "underground"
      }
    },
    {
      "type": "node",
      "id": 11608339729,
      "lat": 12.938138,
      "lon": 77.6963934,
      "tags": {
        "access": "private",
        "amenity": "parking_entrance",
        "parking": "underground"
      }
    },
    {
      "type": "node",
      "id": 11608339736,
      "lat": 12.9370663,
      "lon": 77.696663,
      "tags": {
        "access": "private",
        "amenity": "parking_entrance",
        "parking": "underground"
      }
    },
    {
      "type": "node",
      "id": 11703586228,
      "lat": 12.9327773,
      "lon": 77.6983153,
      "tags": {
        "amenity": "parking_entrance",
        "parking": "underground"
      }
    },
    {
      "type": "node",
      "id": 11703586232,
      "lat": 12.9333482,
      "lon": 77.6981325,
      "tags": {
        "access": "private",
        "amenity": "parking_entrance",
        "parking": "underground"
      }
    },
    {
      "type": "node",
      "id": 11818030769,
      "lat": 12.9377463,
      "lon": 77.6996346,
      "tags": {
        "brand": "Toni & Guy",
        "brand:wikidata": "Q324784",
        "name": "Toni & Guy",
        "shop": "hairdresser"
      }
    },
    {
      "type": "node",
      "id": 12057058306,
      "lat": 12.9377734,
      "lon": 77.6946701,
      "tags": {
        "addr:city": "Bangalore",
        "addr:country": "IN",
        "addr:hamlet": "Kaverappa Layout",
        "addr:postcode": "560103",
        "addr:street": "Outer Ring Road",
        "addr:suburb": "Kadubeesanahalli",
        "air_conditioning": "yes",
        "amenity": "restaurant",
        "cuisine": "american",
        "delivery": "yes",
        "diet:vegetarian": "yes",
        "indoor_seating": "yes",
        "name": "Bellandur Social",
        "outdoor_seating": "no",
        "payment:credit_cards": "yes",
        "payment:debit_cards": "yes",
        "smoking": "separated",
        "takeaway": "yes",
        "wheelchair": "no"
      }
    },
    {
      "type": "node",
      "id": 12196430037,
      "lat": 12.9434934,
      "lon": 77.6982646,
      "tags": {
        "amenity": "parking_entrance"
      }
    },
    {
      "type": "node",
      "id": 12435048098,
      "lat": 12.9338218,
      "lon": 77.7001299,
      "tags": {
        "amenity": "parking_entrance",
        "level": "-1"
      }
    },
    {
      "type": "node",
      "id": 12435048099,
      "lat": 12.9335609,
      "lon": 77.7006077,
      "tags": {
        "amenity": "parking_entrance",
        "level": "-1"
      }
    },
    {
      "type": "node",
      "id": 12460935514,
      "lat": 12.9322938,
      "lon": 77.6966227,
      "tags": {
        "addr:floor": "G;1;2",
        "air_conditioning": "yes",
        "brand": "Zudio",
        "brand:wikidata": "Q123375926",
        "check_date": "2024-12-29",
        "clothes": "women;men;children;accessories",
        "level": "0;1;2",
        "name": "Zudio",
        "opening_hours": "11:00-21:00",
        "payment:cash": "yes",
        "payment:credit_cards": "yes",
        "payment:debit_cards": "yes",
        "second_hand": "no",
        "shop": "clothes",
        "source": "survey",
        "wheelchair": "limited"
      }
    },
    {
      "type": "node",
      "id": 12497560756,
      "lat": 12.937249,
      "lon": 77.7025455,
      "tags": {
        "addr:city": "Bengaluru",
        "addr:postcode": "560103",
        "addr:street": "Panathur Main Road,Varthur Hobli, Panathur",
        "name": "All Session Super Market",
        "shop": "supermarket"
      }
    },
    {
      "type": "node",
      "id": 12541961991,
      "lat": 12.938951,
      "lon": 77.696903,
      "tags": {
        "addr:city": "Bengaluru",
        "addr:postcode": "560103",
        "addr:street": "Panathur Main Road",
        "brand": "Vishal Mega Mart",
        "brand:wikidata": "Q126895037",
        "check_date": "2025-09-03",
        "name": "Vishal Mega Mart",
        "shop": "supermarket"
      }
    },
    {
      "type": "node",
      "id": 12621960399,
      "lat": 12.9426393,
      "lon": 77.6977029,
      "tags": {
        "brand": "Shell",
        "brand:wikidata": "Q110716465",
        "check_date": "2025-02-26",
        "name": "Shell",
        "payment:cash": "yes",
        "payment:credit_cards": "yes",
        "payment:debit_cards": "yes",
        "shop": "convenience",
        "source": "survey"
      }
    },
    {
      "type": "node",
      "id": 12632035832,
      "lat": 12.9367343,
      "lon": 77.7036582,
      "tags": {
        "amenity": "bar",
        "check_date": "2025-06-21",
        "name": "BLR Chakna Bar"
      }
    },
    {
      "type": "node",
      "id": 12632035874,
      "lat": 12.9379263,
      "lon": 77.6989643,
      "tags": {
        "amenity": "pub",
        "name": "D Square Pub"
      }
    },
    {
      "type": "node",
      "id": 12942152839,
      "lat": 12.9370203,
      "lon": 77.7028286,
      "tags": {
        "amenity": "ice_cream",
        "brand": "Polar Bear",
        "brand:wikidata": "Q124374249",
        "check_date": "2025-06-21",
        "delivery": "yes",
        "name": "Polar Bear",
        "takeaway": "yes"
      }
    },
    {
      "type": "node",
      "id": 12942152840,
      "lat": 12.9369817,
      "lon": 77.7028951,
      "tags": {
        "amenity": "fast_food",
        "check_date": "2025-09-03",
        "cuisine": "pizza",
        "name": "Go Pizza"
      }
    },
    {
      "type": "node",
      "id": 12942152841,
      "lat": 12.9381641,
      "lon": 77.6991403,
      "tags": {
        "amenity": "restaurant",
        "brand": "Pizza Hut",
        "brand:wikidata": "Q191615",
        "check_date": "2025-06-21",
        "cuisine": "pizza",
        "name": "Pizza Hut"
      }
    },
    {
      "type": "node",
      "id": 13013584283,
      "lat": 12.9412292,
      "lon": 77.6966422,
      "tags": {
        "amenity": "pub",
        "name": "Chin Lung"
      }
    },
    {
      "type": "node",
      "id": 13013792936,
      "lat": 12.9373878,
      "lon": 77.7025907,
      "tags": {
        "amenity": "fast_food",
        "cuisine": "mexican",
        "name": "Maiz Mexican Kitchen"
      }
    },
    {
      "type": "node",
      "id": 13013792941,
      "lat": 12.9374597,
      "lon": 77.7026162,
      "tags": {
        "amenity": "fast_food",
        "name": "Harvest Salad Co"
      }
    },
    {
      "type": "node",
      "id": 13086275913,
      "lat": 12.9356585,
      "lon": 77.698271,
      "tags": {
        "amenity": "cafe",
        "cuisine": "coffee_shop",
        "name": "Coffee Mechanics",
        "website": "https://www.coffeemechanics.co.in/"
      }
    },
    {
      "type": "node",
      "id": 13116636494,
      "lat": 12.9377979,
      "lon": 77.7008602,
      "tags": {
        "check_date": "2025-09-03",
        "name": "Cake",
        "shop": "pastry"
      }
    },
    {
      "type": "node",
      "id": 13295879973,
      "lat": 12.9364209,
      "lon": 77.7025524,
      "tags": {
        "addr:city": "Bengaluru",
        "addr:housenumber": "3rd Floor Above Maya Hospital",
        "addr:postcode": "560103",
        "addr:street": "Panathur Main Road",
        "amenity": "clinic",
        "healthcare": "clinic",
        "healthcare:speciality": "dermatology",
        "name": "Dr Swarna Skin Hair & Laser Clinic",
        "opening_hours": "Mon-Sat 10:00-14:00",
        "operator": "Dr Swarna Skin Hair & Laser Clinic",
        "operator:type": "private"
      }
    },
    {
      "type": "node",
      "id": 13324224982,
      "lat": 12.9358146,
      "lon": 77.6919227,
      "tags": {
        "name": "puncture",
        "shop": "tyres"
      }
    },
    {
      "type": "node",
      "id": 13342712902,
      "lat": 12.9427297,
      "lon": 77.6948056,
      "tags": {
        "amenity": "fast_food",
        "brand": "Domino's",
        "brand:wikidata": "Q839466",
        "cuisine": "pizza",
        "name": "Domino's",
        "takeaway": "yes"
      }
    },
    {
      "type": "node",
      "id": 13342712903,
      "lat": 12.942301,
      "lon": 77.6946741,
      "tags": {
        "alt_name": "Dunkin' Donuts",
        "amenity": "fast_food",
        "brand": "Dunkin'",
        "brand:wikidata": "Q847743",
        "cuisine": "donut;coffee_shop",
        "name": "Dunkin'",
        "takeaway": "yes"
      }
    },
    {
      "type": "node",
      "id": 13342712904,
      "lat": 12.9423428,
      "lon": 77.6947814,
      "tags": {
        "amenity": "fast_food",
        "brand": "Wow! Momo",
        "brand:wikidata": "Q8037446",
        "cuisine": "momo",
        "name": "Wow! Momo",
        "takeaway": "yes"
      }
    },
    {
      "type": "node",
      "id": 13342712905,
      "lat": 12.9424029,
      "lon": 77.694878,
      "tags": {
        "amenity": "fast_food",
        "brand": "McDonald's",
        "brand:wikidata": "Q38076",
        "cuisine": "burger",
        "name": "McDonald's",
        "takeaway": "yes"
      }
    },
    {
      "type": "way",
      "id": 125173712,
      "center": {
        "lat": 12.936176,
        "lon": 77.6965967
      },
      "tags": {
        "amenity": "parking",
        "building": "yes",
        "parking": "multi-storey"
      }
    },
    {
      "type": "way",
      "id": 345966914,
      "center": {
        "lat": 12.9388233,
        "lon": 77.6964281
      },
      "tags": {
        "addr:city": "Bengaluru",
        "addr:postcode": "560103",
        "addr:street": "Panathur Main Road",
        "building": "commercial",
        "building:levels": "2",
        "check_date": "2023-06-11",
        "drive_through": "no",
        "name": "Mayuri Wines",
        "payment:cards": "yes",
        "payment:cash": "yes",
        "payment:upi": "yes",
        "shop": "alcohol",
        "source": "survey",
        "wheelchair": "no"
      }
    },
    {
      "type": "way",
      "id": 347475288,
      "center": {
        "lat": 12.9326524,
        "lon": 77.6967852
      },
      "tags": {
        "air_conditioning": "yes",
        "amenity": "pub",
        "building": "retail",
        "check_date": "2025-06-21",
        "indoor_seating": "yes",
        "name": "Deck of Brews",
        "outdoor_seating": "yes",
        "payment:mastercard": "yes",
        "payment:visa": "yes",
        "real_fire": "no",
        "smoking": "separated",
        "source": "survey",
        "toilets": "yes"
      }
    },
    {
      "type": "way",
      "id": 348080129,
      "center": {
        "lat": 12.934563,
        "lon": 77.6935579
      },
      "tags": {
        "amenity": "restaurant",
        "building": "yes",
        "name": "Fidelis Food Court"
      }
    },
    {
      "type": "way",
      "id": 348082938,
      "center": {
        "lat": 12.9358239,
        "lon": 77.6968998
      },
      "tags": {
        "leisure": "pitch",
        "lit": "yes",
        "sport": "cricket",
        "surface": "compacted"
      }
    },
    {
      "type": "way",
      "id": 405432275,
      "center": {
        "lat": 12.9434024,
        "lon": 77.7001848
      },
      "tags": {
        "fee": "yes",
        "leisure": "sports_centre",
        "name": "Active Arena",
        "payment:cash": "yes",
        "payment:upi": "yes",
        "sport": "soccer;badminton;cricket;shooting_range;archery"
      }
    },
    {
      "type": "way",
      "id": 472629012,
      "center": {
        "lat": 12.9403075,
        "lon": 77.694014
      },
      "tags": {
        "leisure": "park"
      }
    },
    {
      "type": "way",
      "id": 472629013,
      "center": {
        "lat": 12.940351,
        "lon": 77.6943279
      },
      "tags": {
        "leisure": "park"
      }
    },
    {
      "type": "way",
      "id": 577508428,
      "center": {
        "lat": 12.9352465,
        "lon": 77.6961715
      },
      "tags": {
        "leisure": "pitch",
        "lit": "yes",
        "sport": "basketball",
        "surface": "compacted"
      }
    },
    {
      "type": "way",
      "id": 631581276,
      "center": {
        "lat": 12.941168,
        "lon": 77.6957709
      },
      "tags": {
        "amenity": "fuel",
        "brand": "Indian Oil",
        "brand:wikidata": "Q1289348",
        "compressed_air": "yes",
        "fuel:diesel": "yes",
        "fuel:petrol": "yes",
        "name": "Indian Oil",
        "operator": "Indian Oil Corporation"
      }
    },
    {
      "type": "way",
      "id": 631581277,
      "center": {
        "lat": 12.9411933,
        "lon": 77.6957224
      },
      "tags": {
        "building": "yes",
        "shop": "convenience"
      }
    },
    {
      "type": "way",
      "id": 632313640,
      "center": {
        "lat": 12.9331522,
        "lon": 77.7058809
      },
      "tags": {
        "leisure": "park",
        "name": "Skanda Nirvana Children's Park"
      }
    },
    {
      "type": "way",
      "id": 647218070,
      "center": {
        "lat": 12.9350558,
        "lon": 77.6982612
      },
      "tags": {
        "leisure": "swimming_pool"
      }
    },
    {
      "type": "way",
      "id": 647312315,
      "center": {
        "lat": 12.9350768,
        "lon": 77.6985676
      },
      "tags": {
        "leisure": "garden"
      }
    },
    {
      "type": "way",
      "id": 647312331,
      "center": {
        "lat": 12.9374727,
        "lon": 77.6981535
      },
      "tags": {
        "leisure": "swimming_pool"
      }
    },
    {
      "type": "way",
      "id": 672510752,
      "center": {
        "lat": 12.9343125,
        "lon": 77.6929688
      },
      "tags": {
        "leisure": "pitch",
        "name": "Basket Ball Court",
        "name:kn": "ಬಾಸ್ಕೆಟ್ ಬಾಲ್ ಅಂಕಣ",
        "sport": "basketball"
      }
    },
    {
      "type": "way",
      "id": 672512845,
      "center": {
        "lat": 12.9343765,
        "lon": 77.6921961
      },
      "tags": {
        "amenity": "university",
        "name": "New Horizon College of Engineering"
      }
    },
    {
      "type": "way",
      "id": 672517239,
      "center": {
        "lat": 12.9334526,
        "lon": 77.6925273
      },
      "tags": {
        "amenity": "library",
        "building": "yes",
        "name": "Library and information center"
      }
    },
    {
      "type": "way",
      "id": 688590269,
      "center": {
        "lat": 12.9413245,
        "lon": 77.6959629
      },
      "tags": {
        "leisure": "park",
        "name": "Park#1"
      }
    },
    {
      "type": "way",
      "id": 688590270,
      "center": {
        "lat": 12.9419271,
        "lon": 77.6963953
      },
      "tags": {
        "leisure": "park",
        "name": "Park#2"
      }
    },
    {
      "type": "way",
      "id": 1009913915,
      "center": {
        "lat": 12.9381328,
        "lon": 77.7001208
      },
      "tags": {
        "addr:postcode": "560103",
        "addr:street": "Panathur Main Road",
        "amenity": "fuel",
        "brand": "Bharat Petroleum",
        "brand:wikidata": "Q854826",
        "brand:wikipedia": "en:Bharat Petroleum",
        "check_date": "2025-06-21",
        "compressed_air": "yes",
        "fuel:diesel": "yes",
        "fuel:petrol": "yes",
        "name": "VP Fuel Park",
        "operator": "Bharat Petroleum",
        "payment:cash": "yes",
        "payment:credit_cards": "yes",
        "payment:upi": "yes",
        "self_service": "no"
      }
    },
    {
      "type": "way",
      "id": 1009943143,
      "center": {
        "lat": 12.9431391,
        "lon": 77.6998145
      },
      "tags": {
        "access": "customers",
        "amenity": "parking",
        "capacity": "10",
        "covered": "no",
        "fee": "no",
        "parking": "surface",
        "surface": "concrete"
      }
    },
    {
      "type": "way",
      "id": 1060953963,
      "center": {
        "lat": 12.9313879,
        "lon": 77.6966405
      },
      "tags": {
        "access": "private",
        "leisure": "pitch",
        "sport": "tennis"
      }
    },
    {
      "type": "way",
      "id": 1060953989,
      "center": {
        "lat": 12.9291473,
        "lon": 77.6957561
      },
      "tags": {
        "leisure": "pitch",
        "sport": "soccer"
      }
    },
    {
      "type": "way",
      "id": 1061038559,
      "center": {
        "lat": 12.9338818,
        "lon": 77.6975708
      },
      "tags": {
        "amenity": "school",
        "check_date": "2023-04-05",
        "email": "principal@newhorizongurukul.in",
        "name": "New Horizon Gurukul",
        "opening_hours": "Mo-Sa 08:15-16:00; Su,PH off",
        "phone": "+91 80 4814 7031; +91 96633 97146",
        "source": "survey",
        "website": "https://newhorizongurukul.in",
        "wheelchair": "no"
      }
    },
    {
      "type": "way",
      "id": 1061038565,
      "center": {
        "lat": 12.9356402,
        "lon": 77.6984571
      },
      "tags": {
        "addr:city": "Kadubeesinhalli",
        "addr:housenumber": "77/7,Panathur VillageRoad, Kadabisanahalli,, Behind Cessna Business Park,, Kaverappa Layout",
        "addr:postcode": "560103",
        "addr:street": "Panathur Main Road",
        "amenity": "school",
        "check_date": "2025-06-21",
        "name": "Geetanjali Olympiad School",
        "name:kn": "ಗೀತಾಂಜಲಿ ಒಲಿಂಪಿಯಾಡ್ ಸ್ಕೂಲ್"
      }
    },
    {
      "type": "way",
      "id": 1061038569,
      "center": {
        "lat": 12.9381431,
        "lon": 77.7015238
      },
      "tags": {
        "addr:postcode": "560103",
        "addr:street": "Panathur Main Rd, Munnireddy Layout",
        "amenity": "school",
        "check_date": "2025-09-03",
        "email": "communications.oisptr@orchids.edu.in",
        "name": "Orchids The International School, Panathur",
        "opening_hours": "Mo-Su 09:00-18:30",
        "operator": "Orchids International School",
        "phone": "+91 88888 88999",
        "school:gender": "mixed",
        "website": "https://www.orchidsinternationalschool.com/bangalore-branches/panathur-road/"
      }
    },
    {
      "type": "way",
      "id": 1061041084,
      "center": {
        "lat": 12.9318492,
        "lon": 77.6940216
      },
      "tags": {
        "access": "customers",
        "amenity": "parking",
        "building": "yes",
        "fee": "no",
        "parking": "multi-storey"
      }
    },
    {
      "type": "way",
      "id": 1061283230,
      "center": {
        "lat": 12.937533,
        "lon": 77.7001905
      },
      "tags": {
        "addr:city": "Bengaluru",
        "addr:postcode": "560103",
        "addr:street": "Panathur Main Road",
        "amenity": "school",
        "name": "Vibgyor Roots And Rise School",
        "religion": "none"
      }
    },
    {
      "type": "way",
      "id": 1064020744,
      "center": {
        "lat": 12.9314893,
        "lon": 77.6955671
      },
      "tags": {
        "access": "private",
        "leisure": "swimming_pool"
      }
    },
    {
      "type": "way",
      "id": 1064573623,
      "center": {
        "lat": 12.9346321,
        "lon": 77.6979833
      },
      "tags": {
        "leisure": "swimming_pool"
      }
    },
    {
      "type": "way",
      "id": 1064573624,
      "center": {
        "lat": 12.9329712,
        "lon": 77.6977417
      },
      "tags": {
        "leisure": "swimming_pool"
      }
    },
    {
      "type": "way",
      "id": 1064821055,
      "center": {
        "lat": 12.9377945,
        "lon": 77.6998826
      },
      "tags": {
        "amenity": "place_of_worship",
        "building": "yes",
        "name": "Bhakta Anjaneya Swamy Temple",
        "name:kn": "ಭಕ್ತ ಆಂಜನೇಯ ಸ್ವಾಮಿ",
        "religion": "hindu",
        "wheelchair": "no"
      }
    },
    {
      "type": "way",
      "id": 1065090523,
      "center": {
        "lat": 12.9338419,
        "lon": 77.6977894
      },
      "tags": {
        "hoops": "4",
        "leisure": "pitch",
        "sport": "basketball"
      }
    },
    {
      "type": "way",
      "id": 1066506639,
      "center": {
        "lat": 12.9427702,
        "lon": 77.6976742
      },
      "tags": {
        "amenity": "fuel",
        "brand": "Shell",
        "brand:wikidata": "Q110716465",
        "compressed_air": "yes",
        "landuse": "commercial",
        "name": "Shell",
        "name:kn": "ಶೆಲ್"
      }
    },
    {
      "type": "way",
      "id": 1066848432,
      "center": {
        "lat": 12.931011,
        "lon": 77.6956947
      },
      "tags": {
        "leisure": "park"
      }
    },
    {
      "type": "way",
      "id": 1066921712,
      "center": {
        "lat": 12.9387426,
        "lon": 77.6965825
      },
      "tags": {
        "amenity": "restaurant",
        "building": "yes",
        "name": "Biryani & Kabab Corner"
      }
    },
    {
      "type": "way",
      "id": 1070105446,
      "center": {
        "lat": 12.9369065,
        "lon": 77.69523
      },
      "tags": {
        "leisure": "swimming_pool"
      }
    },
    {
      "type": "way",
      "id": 1070105448,
      "center": {
        "lat": 12.9377021,
        "lon": 77.6952719
      },
      "tags": {
        "access": "private",
        "amenity": "parking",
        "parking": "surface"
      }
    },
    {
      "type": "way",
      "id": 1070107460,
      "center": {
        "lat": 12.9330702,
        "lon": 77.6930034
      },
      "tags": {
        "leisure": "pitch",
        "lit": "yes",
        "sport": "tennis"
      }
    },
    {
      "type": "way",
      "id": 1070509114,
      "center": {
        "lat": 12.9340083,
        "lon": 77.6998931
      },
      "tags": {
        "leisure": "pitch",
        "sport": "tennis"
      }
    },
    {
      "type": "way",
      "id": 1070509115,
      "center": {
        "lat": 12.933976,
        "lon": 77.7002748
      },
      "tags": {
        "access": "private",
        "leisure": "swimming_pool",
        "location": "outdoor",
        "swimming_pool": "outdoor"
      }
    },
    {
      "type": "way",
      "id": 1072738477,
      "center": {
        "lat": 12.9291113,
        "lon": 77.6953745
      },
      "tags": {
        "leisure": "sports_centre",
        "name": "Kalavedhi Sports Academy"
      }
    },
    {
      "type": "way",
      "id": 1073091164,
      "center": {
        "lat": 12.9367356,
        "lon": 77.6980006
      },
      "tags": {
        "leisure": "swimming_pool"
      }
    },
    {
      "type": "way",
      "id": 1075250963,
      "center": {
        "lat": 12.9432957,
        "lon": 77.697826
      },
      "tags": {
        "access": "customers",
        "amenity": "parking",
        "fee": "no",
        "parking": "surface"
      }
    },
    {
      "type": "way",
      "id": 1075372138,
      "center": {
        "lat": 12.9362619,
        "lon": 77.6996131
      },
      "tags": {
        "amenity": "school",
        "building": "school",
        "building:levels": "1",
        "name": "Sri Sri Ravishankar Balmandir"
      }
    },
    {
      "type": "way",
      "id": 1075464261,
      "center": {
        "lat": 12.9342842,
        "lon": 77.6977305
      },
      "tags": {
        "amenity": "kindergarten",
        "name": "Little Elly's Preschool"
      }
    },
    {
      "type": "way",
      "id": 1075542786,
      "center": {
        "lat": 12.9333648,
        "lon": 77.697485
      },
      "tags": {
        "access": "customers",
        "amenity": "parking",
        "fee": "yes",
        "parking": "surface"
      }
    },
    {
      "type": "way",
      "id": 1076111824,
      "center": {
        "lat": 12.9368899,
        "lon": 77.7047991
      },
      "tags": {
        "amenity": "school",
        "check_date": "2025-08-08",
        "operator:type": "government"
      }
    },
    {
      "type": "way",
      "id": 1206567700,
      "center": {
        "lat": 12.9356924,
        "lon": 77.6980992
      },
      "tags": {
        "leisure": "sports_centre",
        "name": "11point club",
        "sport": "pickleball"
      }
    },
    {
      "type": "way",
      "id": 1212112578,
      "center": {
        "lat": 12.9349373,
        "lon": 77.6925847
      },
      "tags": {
        "landuse": "recreation_ground",
        "leisure": "pitch"
      }
    },
    {
      "type": "way",
      "id": 1218429243,
      "center": {
        "lat": 12.9428918,
        "lon": 77.7004157
      },
      "tags": {
        "amenity": "school",
        "name": "Insight Academy School"
      }
    },
    {
      "type": "way",
      "id": 1234946462,
      "center": {
        "lat": 12.9422334,
        "lon": 77.69724
      },
      "tags": {
        "access": "customers",
        "amenity": "parking",
        "fee": "no",
        "parking": "surface",
        "surface": "paving_stones"
      }
    },
    {
      "type": "way",
      "id": 1239811143,
      "center": {
        "lat": 12.9434636,
        "lon": 77.6954835
      },
      "tags": {
        "leisure": "garden"
      }
    },
    {
      "type": "way",
      "id": 1239811146,
      "center": {
        "lat": 12.9440772,
        "lon": 77.6954264
      },
      "tags": {
        "leisure": "garden"
      }
    },
    {
      "type": "way",
      "id": 1239811151,
      "center": {
        "lat": 12.9426211,
        "lon": 77.6941664
      },
      "tags": {
        "access": "private",
        "leisure": "pitch",
        "sport": "basketball"
      }
    },
    {
      "type": "way",
      "id": 1248868616,
      "center": {
        "lat": 12.9438338,
        "lon": 77.6952552
      },
      "tags": {
        "leisure": "pitch",
        "sport": "basketball"
      }
    },
    {
      "type": "way",
      "id": 1248868626,
      "center": {
        "lat": 12.9408436,
        "lon": 77.6930493
      },
      "tags": {
        "leisure": "park"
      }
    },
    {
      "type": "way",
      "id": 1248868627,
      "center": {
        "lat": 12.9404911,
        "lon": 77.6931158
      },
      "tags": {
        "leisure": "pitch",
        "sport": "basketball"
      }
    },
    {
      "type": "way",
      "id": 1248881534,
      "center": {
        "lat": 12.9374087,
        "lon": 77.6952803
      },
      "tags": {
        "access": "private",
        "amenity": "parking",
        "parking": "surface"
      }
    },
    {
      "type": "way",
      "id": 1248881535,
      "center": {
        "lat": 12.9367975,
        "lon": 77.6958529
      },
      "tags": {
        "access": "private",
        "amenity": "parking",
        "parking": "surface"
      }
    },
    {
      "type": "way",
      "id": 1248881539,
      "center": {
        "lat": 12.9376323,
        "lon": 77.6954379
      },
      "tags": {
        "access": "private",
        "amenity": "parking",
        "parking": "surface"
      }
    },
    {
      "type": "way",
      "id": 1248881540,
      "center": {
        "lat": 12.9374765,
        "lon": 77.6956403
      },
      "tags": {
        "access": "private",
        "amenity": "parking",
        "parking": "surface"
      }
    },
    {
      "type": "way",
      "id": 1248881541,
      "center": {
        "lat": 12.9375317,
        "lon": 77.6958318
      },
      "tags": {
        "access": "private",
        "amenity": "parking",
        "parking": "surface"
      }
    },
    {
      "type": "way",
      "id": 1248881542,
      "center": {
        "lat": 12.9371446,
        "lon": 77.6965077
      },
      "tags": {
        "access": "private",
        "amenity": "parking",
        "parking": "surface"
      }
    },
    {
      "type": "way",
      "id": 1248881543,
      "center": {
        "lat": 12.9372865,
        "lon": 77.6965469
      },
      "tags": {
        "access": "private",
        "amenity": "parking",
        "parking": "surface"
      }
    },
    {
      "type": "way",
      "id": 1257687997,
      "center": {
        "lat": 12.9362461,
        "lon": 77.6941779
      },
      "tags": {
        "amenity": "parking",
        "parking": "surface"
      }
    },
    {
      "type": "way",
      "id": 1257687998,
      "center": {
        "lat": 12.9364657,
        "lon": 77.6938996
      },
      "tags": {
        "amenity": "parking",
        "parking": "surface"
      }
    },
    {
      "type": "way",
      "id": 1257687999,
      "center": {
        "lat": 12.9362795,
        "lon": 77.6938626
      },
      "tags": {
        "amenity": "parking",
        "parking": "surface"
      }
    },
    {
      "type": "way",
      "id": 1261923156,
      "center": {
        "lat": 12.9313608,
        "lon": 77.7024498
      },
      "tags": {
        "leisure": "pitch",
        "sport": "soccer"
      }
    },
    {
      "type": "way",
      "id": 1292678252,
      "center": {
        "lat": 12.9317837,
        "lon": 77.7069125
      },
      "tags": {
        "leisure": "park"
      }
    },
    {
      "type": "way",
      "id": 1304783394,
      "center": {
        "lat": 12.9362801,
        "lon": 77.7022956
      },
      "tags": {
        "leisure": "pitch"
      }
    },
    {
      "type": "way",
      "id": 1304783395,
      "center": {
        "lat": 12.9385367,
        "lon": 77.7018799
      },
      "tags": {
        "access": "private",
        "leisure": "swimming_pool"
      }
    },
    {
      "type": "way",
      "id": 1304783396,
      "center": {
        "lat": 12.9382804,
        "lon": 77.7017521
      },
      "tags": {
        "leisure": "pitch"
      }
    },
    {
      "type": "way",
      "id": 1311554394,
      "center": {
        "lat": 12.9292503,
        "lon": 77.7034837
      },
      "tags": {
        "leisure": "sports_centre",
        "name": "Fisto Panathur PK Sports"
      }
    },
    {
      "type": "way",
      "id": 1324951969,
      "center": {
        "lat": 12.9280008,
        "lon": 77.6991807
      },
      "tags": {
        "amenity": "parking_space"
      }
    },
    {
      "type": "way",
      "id": 1324951970,
      "center": {
        "lat": 12.9282027,
        "lon": 77.6982848
      },
      "tags": {
        "amenity": "parking_space"
      }
    },
    {
      "type": "way",
      "id": 1341445839,
      "center": {
        "lat": 12.9295186,
        "lon": 77.703653
      },
      "tags": {
        "access": "private",
        "leisure": "swimming_pool"
      }
    },
    {
      "type": "way",
      "id": 1411938469,
      "center": {
        "lat": 12.9348239,
        "lon": 77.6921358
      },
      "tags": {
        "access": "private",
        "amenity": "parking",
        "parking": "surface"
      }
    },
    {
      "type": "way",
      "id": 1411938470,
      "center": {
        "lat": 12.9351044,
        "lon": 77.6919084
      },
      "tags": {
        "access": "private",
        "amenity": "motorcycle_parking",
        "parking": "surface"
      }
    },
    {
      "type": "way",
      "id": 1411938471,
      "center": {
        "lat": 12.9356494,
        "lon": 77.6930573
      },
      "tags": {
        "access": "private",
        "amenity": "motorcycle_parking",
        "parking": "surface"
      }
    },
    {
      "type": "way",
      "id": 1423812601,
      "center": {
        "lat": 12.9358089,
        "lon": 77.6987525
      },
      "tags": {
        "access": "private",
        "leisure": "swimming_pool"
      }
    },
    {
      "type": "way",
      "id": 1423812603,
      "center": {
        "lat": 12.9357387,
        "lon": 77.6978486
      },
      "tags": {
        "leisure": "pitch",
        "sport": "pickleball"
      }
    },
    {
      "type": "way",
      "id": 1454919867,
      "center": {
        "lat": 12.9314622,
        "lon": 77.7087049
      },
      "tags": {
        "leisure": "park"
      }
    },
    {
      "type": "way",
      "id": 1454919868,
      "center": {
        "lat": 12.9334574,
        "lon": 77.7066395
      },
      "tags": {
        "access": "private",
        "leisure": "swimming_pool"
      }
    },
    {
      "type": "way",
      "id": 1454927469,
      "center": {
        "lat": 12.9442881,
        "lon": 77.6963568
      },
      "tags": {
        "amenity": "place_of_worship",
        "building": "yes",
        "name": "Shri Prasanna Anjaneya Temple",
        "religion": "hindu"
      }
    },
    {
      "type": "way",
      "id": 1454927474,
      "center": {
        "lat": 12.9443751,
        "lon": 77.6992373
      },
      "tags": {
        "access": "private",
        "leisure": "sports_centre"
      }
    },
    {
      "type": "way",
      "id": 1454927475,
      "center": {
        "lat": 12.9440721,
        "lon": 77.6991235
      },
      "tags": {
        "access": "private",
        "amenity": "parking",
        "parking": "surface"
      }
    },
    {
      "type": "way",
      "id": 1455374733,
      "center": {
        "lat": 12.9394835,
        "lon": 77.7042665
      },
      "tags": {
        "access": "private",
        "leisure": "swimming_pool"
      }
    },
    {
      "type": "way",
      "id": 1455374734,
      "center": {
        "lat": 12.939698,
        "lon": 77.7043172
      },
      "tags": {
        "access": "private",
        "leisure": "playground"
      }
    }
  ]
}