{
  "area_name": "Kaveripura",
  "osm_id": 19883346,
  "osm_type": "relation",
  "place_type": "administrative",
  "amenity_count": 18,
  "amenities": [
    {
      "type": "node",
      "id": 2279531857,
      "lat": 12.9850923,
      "lon": 77.5232649,
      "tags": {
        "amenity": "fuel",
        "brand": "Indane Oil",
        "name": "Indo Petrol / Gas Station",
        "operator": "Indane Oil"
      }
    },
    {
      "type": "node",
      "id": 4518518892,
      "lat": 12.982076,
      "lon": 77.5313241,
      "tags": {
        "addr:street": "Magadi Road",
        "amenity": "bank",
        "brand": "State Bank of India",
        "brand:wikidata": "Q1340361",
        "brand:wikipedia": "en:State Bank of India",
        "name": "State Bank of India",
        "name:en": "State bank of India",
        "name:kn": "ಭಾರತೀಯ ಸ್ಟೇಟ್ ಬ್ಯಾಂಕ್",
        "short_name": "SBI"
      }
    },
    {
      "type": "node",
      "id": 6938777957,
      "lat": 12.9817311,
      "lon": 77.5333714,
      "tags": {
        "addr:district": "Bengaluru Urban",
        "addr:full": "67/1, H V R Complex Magadi Main Road Kanakapura",
        "addr:postcode": "560079",
        "addr:state": "Karnataka",
        "amenity": "hospital",
        "name": "Padmavathi Hospital, Bengaluru Urban",
        "source": "OpenGovernmentData"
      }
    },
    {
      "type": "node",
      "id": 7572526693,
      "lat": 12.9835824,
      "lon": 77.5289448,
      "tags": {
        "addr:district": "Bengaluru Urban",
        "addr:full": "Govindaraja Nagar Ward, Priyadarshini Layout, Kamakshipalya, Bengaluru",
        "addr:postcode": "560079",
        "addr:state": "Karnataka",
        "amenity": "hospital",
        "name": "Benaka Hospital",
        "source": "Local Knowledge"
      }
    },
    {
      "type": "node",
      "id": 9775574200,
      "lat": 12.9827335,
      "lon": 77.5189304,
      "tags": {
        "amenity": "bench"
      }
    },
    {
      "type": "node",
      "id": 9775574219,
      "lat": 12.9826171,
      "lon": 77.5189331,
      "tags": {
        "amenity": "fountain"
      }
    },
    {
      "type": "node",
      "id": 11388846369,
      "lat": 12.9819185,
      "lon": 77.5323018,
      "tags": {
        "addr:housenumber": "16/1",
        "addr:postcode": "560079",
        "addr:street": "Magadi Road",
        "name": "Anant Bajaj",
        "opening_hours": "Mo-Sa 09:00-20:00; Su 09:00-18:00",
        "shop": "motorcycle",
        "website": "https://www.bajajauto.com/"
      }
    },
    {
      "type": "way",
      "id": 1064304010,
      "center": {
        "lat": 12.9823154,
        "lon": 77.5199722
      },
      "tags": {
        "access": "private",
        "leisure": "swimming_pool"
      }
    },
    {
      "type": "way",
      "id": 1064304011,
      "center": {
        "lat": 12.9822533,
        "lon": 77.5189366
      },
      "tags": {
        "access": "private",
        "amenity": "theatre",
        "theatre:type": "amphi"
      }
    },
    {
      "type": "way",
      "id": 1064304014,
      "center": {
        "lat": 12.9824282,
        "lon": 77.5196482
      },
      "tags": {
        "access": "private",
        "leisure": "playground"
      }
    },
    {
      "type": "way",
      "id": 1064408562,
      "center": {
        "lat": 12.9829168,
        "lon": 77.5190731
      },
      "tags": {
        "leisure": "playground"
      }
    },
    {
      "type": "way",
      "id": 1064408563,
      "center": {
        "lat": 12.9822114,
        "lon": 77.5187444
      },
      "tags": {
        "leisure": "garden"
      }
    },
    {
      "type": "way",
      "id": 1064408584,
      "center": {
        "lat": 12.983183,
        "lon": 77.5192422
      },
      "tags": {
        "access": "private",
        "leisure": "playground"
      }
    },
    {
      "type": "way",
      "id": 1064408585,
      "center": {
        "lat": 12.983129,
        "lon": 77.5194681
      },
      "tags": {
        "access": "private",
        "leisure": "pitch",
        "sport": "tennis"
      }
    },
    {
      "type": "way",
      "id": 1064408586,
      "center": {
        "lat": 12.9822354,
        "lon": 77.5202087
      },
      "tags": {
        "access": "private",
        "amenity": "parking",
        "parking": "surface"
      }
    },
    {
      "type": "way",
      "id": 1064408593,
      "center": {
        "lat": 12.9821523,
        "lon": 77.5203856
      },
      "tags": {
        "amenity": "community_centre",
        "building": "yes",
        "community_centre": "club_home",
        "name": "Clubhouse"
      }
    },
    {
      "type": "way",
      "id": 1064408594,
      "center": {
        "lat": 12.9826148,
        "lon": 77.5189265
      },
      "tags": {
        "leisure": "garden"
      }
    },
    {
      "type": "way",
      "id": 1064408601,
      "center": {
        "lat": 12.9826785,
        "lon": 77.5192301
      },
      "tags": {
        "leisure": "garden"
      }
    }
  ]
}