{
  "area_name": "Kenchenahalli",
  "osm_id": 10983994603,
  "osm_type": "node",
  "place_type": "neighbourhood",
  "amenity_count": 86,
  "amenities": [
    {
      "type": "node",
      "id": 4997735501,
      "lat": 13.1155339,
      "lon": 77.5770221,
      "tags": {
        "addr:city": "bangalore",
        "addr:postcode": "560064",
        "addr:street": "susheelamma layout",
        "amenity": "place_of_worship",
        "denomination": "hindu",
        "name": "Ganesha Shrine",
        "name:kn": "ಗಣೇಶ ಗುಡಿ",
        "religion": "hindu"
      }
    },
    {
      "type": "node",
      "id": 5000226091,
      "lat": 13.1143086,
      "lon": 77.5791243,
      "tags": {
        "addr:city": "bangalore",
        "addr:housenumber": "SH-9",
        "addr:postcode": "560064",
        "addr:street": "Doddaballapur Road",
        "amenity": "place_of_worship",
        "denomination": "hindu",
        "name": "Shri Anjaneya shrine",
        "name:kn": "ಅಂಜನೆಯ ಗುಡಿ",
        "religion": "hindu"
      }
    },
    {
      "type": "node",
      "id": 5964485859,
      "lat": 13.1214753,
      "lon": 77.5764289,
      "tags": {
        "name": "Nice Mart",
        "shop": "supermarket"
      }
    },
    {
      "type": "node",
      "id": 7230029017,
      "lat": 13.1192444,
      "lon": 77.5803637,
      "tags": {
        "amenity": "parking"
      }
    },
    {
      "type": "node",
      "id": 7230029018,
      "lat": 13.1199262,
      "lon": 77.5796905,
      "tags": {
        "amenity": "parking"
      }
    },
    {
      "type": "node",
      "id": 7230029034,
      "lat": 13.116341,
      "lon": 77.5781161,
      "tags": {
        "amenity": "restaurant",
        "name": "3 Peg Bar and Restaurant",
        "name:kn": "3 ಪೆಗ್ ಬಾರ್ ಮತ್ತು ರೆಸ್ಟೋರೆಂಟ್",
        "wheelchair": "limited"
      }
    },
    {
      "type": "node",
      "id": 7230029088,
      "lat": 13.1143831,
      "lon": 77.5789408,
      "tags": {
        "name": "Just Bake",
        "shop": "bakery"
      }
    },
    {
      "type": "node",
      "id": 7230029089,
      "lat": 13.1140618,
      "lon": 77.5789194,
      "tags": {
        "name": "Royal Mart",
        "shop": "supermarket"
      }
    },
    {
      "type": "node",
      "id": 10607698706,
      "lat": 13.1264723,
      "lon": 77.5888449,
      "tags": {
        "amenity": "library",
        "name": "MAHE Library"
      }
    },
    {
      "type": "node",
      "id": 10608574574,
      "lat": 13.1265925,
      "lon": 77.5898427,
      "tags": {
        "amenity": "college",
        "name": "Manipal Law School, Bengaluru"
      }
    },
    {
      "type": "node",
      "id": 10608574575,
      "lat": 13.1251819,
      "lon": 77.5905025,
      "tags": {
        "amenity": "college",
        "name": "Department of Public Policy, MAHE"
      }
    },
    {
      "type": "node",
      "id": 10608574576,
      "lat": 13.1254954,
      "lon": 77.5904596,
      "tags": {
        "amenity": "college",
        "name": "Department of Liberal Arts, Humanities and Social Sciences, MAHE",
        "short_name": "DLHS, Bengaluru"
      }
    },
    {
      "type": "node",
      "id": 10608574577,
      "lat": 13.1264958,
      "lon": 77.5904864,
      "tags": {
        "amenity": "college",
        "name": "Manipal Institute of Technology, Bengaluru",
        "short_name": "MIT, Bengaluru"
      }
    },
    {
      "type": "node",
      "id": 11372661007,
      "lat": 13.1275067,
      "lon": 77.5891761,
      "tags": {
        "amenity": "food_court",
        "name": "MAHE Food Court",
        "operator": "MAHE",
        "start_date": "25-10-2023"
      }
    },
    {
      "type": "node",
      "id": 11372661008,
      "lat": 13.1275119,
      "lon": 77.5888999,
      "tags": {
        "alt_name": "Ramdas Pai Convention Centre",
        "amenity": "events_venue",
        "name": "Dr. Ramdas M Pai Convention Hall",
        "operator": "MAHE",
        "start_date": "25-10-2023"
      }
    },
    {
      "type": "node",
      "id": 11455413717,
      "lat": 13.1262291,
      "lon": 77.5911096,
      "tags": {
        "amenity": "toilets"
      }
    },
    {
      "type": "node",
      "id": 11455413718,
      "lat": 13.1264371,
      "lon": 77.5912096,
      "tags": {
        "amenity": "toilets"
      }
    },
    {
      "type": "node",
      "id": 11455413719,
      "lat": 13.1260038,
      "lon": 77.5912424,
      "tags": {
        "amenity": "toilets"
      }
    },
    {
      "type": "node",
      "id": 11455413720,
      "lat": 13.1260029,
      "lon": 77.591011,
      "tags": {
        "amenity": "toilets"
      }
    },
    {
      "type": "node",
      "id": 11455413721,
      "lat": 13.125561,
      "lon": 77.5910269,
      "tags": {
        "amenity": "toilets"
      }
    },
    {
      "type": "node",
      "id": 11455413722,
      "lat": 13.1255615,
      "lon": 77.5912475,
      "tags": {
        "amenity": "toilets"
      }
    },
    {
      "type": "node",
      "id": 11455413723,
      "lat": 13.1259046,
      "lon": 77.5917583,
      "tags": {
        "amenity": "toilets"
      }
    },
    {
      "type": "node",
      "id": 11455413724,
      "lat": 13.125673,
      "lon": 77.5914377,
      "tags": {
        "amenity": "toilets"
      }
    },
    {
      "type": "node",
      "id": 11455413725,
      "lat": 13.1255701,
      "lon": 77.5916153,
      "tags": {
        "amenity": "toilets"
      }
    },
    {
      "type": "node",
      "id": 11455413726,
      "lat": 13.1253278,
      "lon": 77.5913359,
      "tags": {
        "amenity": "toilets"
      }
    },
    {
      "type": "node",
      "id": 11455413727,
      "lat": 13.1251838,
      "lon": 77.5912834,
      "tags": {
        "amenity": "toilets"
      }
    },
    {
      "type": "node",
      "id": 11860460476,
      "lat": 13.1283358,
      "lon": 77.5879577,
      "tags": {
        "amenity": "atm",
        "atm": "yes",
        "brand": "Union Bank of India",
        "brand:wikidata": "Q2004078",
        "operator": "Union Bank of India",
        "operator:wikidata": "Q2004078"
      }
    },
    {
      "type": "node",
      "id": 11860460477,
      "lat": 13.1283341,
      "lon": 77.5879964,
      "tags": {
        "amenity": "fast_food",
        "name": "Maggi Station"
      }
    },
    {
      "type": "node",
      "id": 11860460517,
      "lat": 13.1285502,
      "lon": 77.5867957,
      "tags": {
        "amenity": "college",
        "name": "Management Studies Department"
      }
    },
    {
      "type": "node",
      "id": 11860460518,
      "lat": 13.1284405,
      "lon": 77.5877371,
      "tags": {
        "amenity": "college",
        "name": "EEE Department"
      }
    },
    {
      "type": "node",
      "id": 11860460519,
      "lat": 13.1284784,
      "lon": 77.5870505,
      "tags": {
        "amenity": "college",
        "name": "ECE Department"
      }
    },
    {
      "type": "node",
      "id": 11860460520,
      "lat": 13.1284562,
      "lon": 77.5872771,
      "tags": {
        "amenity": "college",
        "name": "CSE Department"
      }
    },
    {
      "type": "node",
      "id": 11860460608,
      "lat": 13.1287057,
      "lon": 77.5868145,
      "tags": {
        "amenity": "college",
        "name": "MCA Department"
      }
    },
    {
      "type": "node",
      "id": 11860460609,
      "lat": 13.1284549,
      "lon": 77.5875024,
      "tags": {
        "amenity": "college",
        "name": "ISE Department"
      }
    },
    {
      "type": "node",
      "id": 11860460614,
      "lat": 13.1275145,
      "lon": 77.587882,
      "tags": {
        "amenity": "theatre",
        "name": "New Auditorium"
      }
    },
    {
      "type": "node",
      "id": 11860460615,
      "lat": 13.1273816,
      "lon": 77.5878558,
      "tags": {
        "amenity": "fast_food",
        "fast_food": "cafeteria",
        "name": "NMIT Canteen"
      }
    },
    {
      "type": "node",
      "id": 11860460691,
      "lat": 13.1274479,
      "lon": 77.5861976,
      "tags": {
        "amenity": "college",
        "name": "NMIT Polytechnic"
      }
    },
    {
      "type": "node",
      "id": 11860460693,
      "lat": 13.1277797,
      "lon": 77.5863504,
      "tags": {
        "amenity": "college",
        "name": "Nitte School of Architecture Planning & Design"
      }
    },
    {
      "type": "node",
      "id": 11860460733,
      "lat": 13.1286482,
      "lon": 77.5864591,
      "tags": {
        "amenity": "college",
        "name": "Aeronautical Department"
      }
    },
    {
      "type": "node",
      "id": 11860460734,
      "lat": 13.1288493,
      "lon": 77.5864604,
      "tags": {
        "amenity": "college",
        "name": "Mechanical Department"
      }
    },
    {
      "type": "node",
      "id": 11921193978,
      "lat": 13.1165088,
      "lon": 77.5769527,
      "tags": {
        "access": "private",
        "amenity": "parking_entrance",
        "parking": "underground"
      }
    },
    {
      "type": "node",
      "id": 11932427984,
      "lat": 13.126186,
      "lon": 77.5914442,
      "tags": {
        "amenity": "cafe",
        "check_date": "2024-05-25",
        "level": "2",
        "name": "Dolcé Café"
      }
    },
    {
      "type": "node",
      "id": 12260569913,
      "lat": 13.1145947,
      "lon": 77.5778291,
      "tags": {
        "amenity": "restaurant",
        "name": "Aangan"
      }
    },
    {
      "type": "node",
      "id": 12500766593,
      "lat": 13.1283491,
      "lon": 77.5878518,
      "tags": {
        "name": "Kateel Bakery",
        "shop": "bakery"
      }
    },
    {
      "type": "node",
      "id": 12500766594,
      "lat": 13.1283436,
      "lon": 77.5881109,
      "tags": {
        "amenity": "fast_food",
        "name": "NMIT Siri"
      }
    },
    {
      "type": "node",
      "id": 12500796328,
      "lat": 13.1283379,
      "lon": 77.587672,
      "tags": {
        "amenity": "ice_cream",
        "name": "La Casa"
      }
    },
    {
      "type": "way",
      "id": 117313803,
      "center": {
        "lat": 13.119396,
        "lon": 77.5942252
      },
      "tags": {
        "addr:city": "Yelahanka, Bangalore",
        "addr:housenumber": "4",
        "addr:postcode": "560 064",
        "amenity": "school",
        "email": "k-12principal@cisb.org.in",
        "name": "Canadian International School",
        "phone": "+91-80-42494444;+91-80-64514001;+91-80-28564951",
        "website": "https://www.canadianinternationalschool.com/",
        "wikidata": "Q5030205",
        "wikipedia": "en:Canadian International School (Bangalore)"
      }
    },
    {
      "type": "way",
      "id": 133125287,
      "center": {
        "lat": 13.1184672,
        "lon": 77.575678
      },
      "tags": {
        "addr:street": "Doddaballapur Road",
        "amenity": "school",
        "name": "Kendriya Vidyalaya CRPF",
        "name:kn": "ಕೇಂದ್ರಿಯ ವಿದ್ಯಾಲಯ"
      }
    },
    {
      "type": "way",
      "id": 487587789,
      "center": {
        "lat": 13.1293899,
        "lon": 77.5879044
      },
      "tags": {
        "amenity": "college",
        "barrier": "wall",
        "name": "Nitte Meenakshi Institute of Technology",
        "name:kn": "ನಿಟ್ಟೆ ಮೀನಾಕ್ಷಿ ತಾಂತ್ರಿಕ ಮಹಾವಿದ್ಯಾಲಯ",
        "short_name": "NMIT",
        "website": "https://www.nmit.ac.in/",
        "wikidata": "Q15719138",
        "wikipedia": "en:Nitte Meenakshi Institute of Technology"
      }
    },
    {
      "type": "way",
      "id": 628258488,
      "center": {
        "lat": 13.1172702,
        "lon": 77.5761464
      },
      "tags": {
        "leisure": "swimming_pool"
      }
    },
    {
      "type": "way",
      "id": 766720031,
      "center": {
        "lat": 13.1189023,
        "lon": 77.5793208
      },
      "tags": {
        "leisure": "swimming_pool"
      }
    },
    {
      "type": "way",
      "id": 774954546,
      "center": {
        "lat": 13.1217871,
        "lon": 77.5771072
      },
      "tags": {
        "access": "permissive",
        "leisure": "swimming_pool"
      }
    },
    {
      "type": "way",
      "id": 774954554,
      "center": {
        "lat": 13.1193345,
        "lon": 77.579716
      },
      "tags": {
        "leisure": "garden"
      }
    },
    {
      "type": "way",
      "id": 774954555,
      "center": {
        "lat": 13.119537,
        "lon": 77.5796718
      },
      "tags": {
        "leisure": "garden"
      }
    },
    {
      "type": "way",
      "id": 774954563,
      "center": {
        "lat": 13.1145189,
        "lon": 77.5783112
      },
      "tags": {
        "leisure": "garden"
      }
    },
    {
      "type": "way",
      "id": 774954564,
      "center": {
        "lat": 13.1144598,
        "lon": 77.5778666
      },
      "tags": {
        "access": "customers",
        "leisure": "swimming_pool"
      }
    },
    {
      "type": "way",
      "id": 774954565,
      "center": {
        "lat": 13.1145392,
        "lon": 77.5779081
      },
      "tags": {
        "amenity": "community_centre",
        "landuse": "commercial",
        "leisure": "resort",
        "name": "Ramanashree California Resort",
        "website": "https://www.ramanashree.com/"
      }
    },
    {
      "type": "way",
      "id": 1051016647,
      "center": {
        "lat": 13.1190184,
        "lon": 77.5942559
      },
      "tags": {
        "leisure": "pitch",
        "sport": "soccer"
      }
    },
    {
      "type": "way",
      "id": 1051016648,
      "center": {
        "lat": 13.1194117,
        "lon": 77.5933657
      },
      "tags": {
        "leisure": "pitch",
        "sport": "basketball"
      }
    },
    {
      "type": "way",
      "id": 1051016649,
      "center": {
        "lat": 13.1193736,
        "lon": 77.5936061
      },
      "tags": {
        "leisure": "pitch",
        "sport": "basketball"
      }
    },
    {
      "type": "way",
      "id": 1079506842,
      "center": {
        "lat": 13.1264517,
        "lon": 77.5890594
      },
      "tags": {
        "addr:city": "Bengaluru",
        "addr:hamlet": "Govindapura",
        "addr:postcode": "560064",
        "addr:suburb": "Yelahanka",
        "amenity": "university",
        "name": "Manipal Academy of Higher Education, Bengaluru",
        "operator": "Manipal Academy of Higher Education",
        "short_name": "MAHE Bengaluru",
        "website": "https://manipal.edu/mu/campuses/mahe-bengaluru.html"
      }
    },
    {
      "type": "way",
      "id": 1137979857,
      "center": {
        "lat": 13.1255659,
        "lon": 77.5886759
      },
      "tags": {
        "leisure": "garden"
      }
    },
    {
      "type": "way",
      "id": 1137979864,
      "center": {
        "lat": 13.1258362,
        "lon": 77.5901095
      },
      "tags": {
        "leisure": "garden"
      }
    },
    {
      "type": "way",
      "id": 1137979880,
      "center": {
        "lat": 13.1261316,
        "lon": 77.5889832
      },
      "tags": {
        "leisure": "garden"
      }
    },
    {
      "type": "way",
      "id": 1137979901,
      "center": {
        "lat": 13.1246841,
        "lon": 77.5887587
      },
      "tags": {
        "leisure": "garden"
      }
    },
    {
      "type": "way",
      "id": 1137980473,
      "center": {
        "lat": 13.1267494,
        "lon": 77.5869498
      },
      "tags": {
        "access": "permissive",
        "amenity": "parking",
        "building": "parking",
        "building:levels": "12",
        "name": "MLCP",
        "parking": "multi-storey"
      }
    },
    {
      "type": "way",
      "id": 1138000902,
      "center": {
        "lat": 13.1258872,
        "lon": 77.5915567
      },
      "tags": {
        "addr:city": "Bengaluru",
        "addr:hamlet": "Govindapura",
        "addr:housename": "MAHE Bengaluru Campus",
        "addr:postcode": "560064",
        "addr:suburb": "Yelahanka",
        "amenity": "college",
        "mobile": "+91 9071784747",
        "name": "Srishti Manipal Institute of Art, Design and Technology",
        "operator": "Manipal Academy of Higher Education",
        "phone": "+91 80 49000800",
        "website": "https://srishtimanipalinstitute.in"
      }
    },
    {
      "type": "way",
      "id": 1182392564,
      "center": {
        "lat": 13.1230525,
        "lon": 77.591141
      },
      "tags": {
        "access": "permissive",
        "amenity": "parking",
        "parking": "surface"
      }
    },
    {
      "type": "way",
      "id": 1182880586,
      "center": {
        "lat": 13.1166792,
        "lon": 77.5800714
      },
      "tags": {
        "amenity": "hospital",
        "name": "KPTCL Hospital Yelahanka"
      }
    },
    {
      "type": "way",
      "id": 1191456535,
      "center": {
        "lat": 13.1196619,
        "lon": 77.5867606
      },
      "tags": {
        "amenity": "shelter",
        "building": "yes",
        "shelter_type": "gazebo"
      }
    },
    {
      "type": "way",
      "id": 1191456536,
      "center": {
        "lat": 13.1170333,
        "lon": 77.5934445
      },
      "tags": {
        "amenity": "shelter",
        "building": "yes",
        "shelter_type": "gazebo"
      }
    },
    {
      "type": "way",
      "id": 1191456545,
      "center": {
        "lat": 13.1127538,
        "lon": 77.590038
      },
      "tags": {
        "amenity": "place_of_worship",
        "building": "yes",
        "religion": "hindu"
      }
    },
    {
      "type": "way",
      "id": 1191456546,
      "center": {
        "lat": 13.1128294,
        "lon": 77.5893182
      },
      "tags": {
        "amenity": "shelter",
        "building": "yes",
        "shelter_type": "gazebo"
      }
    },
    {
      "type": "way",
      "id": 1209130535,
      "center": {
        "lat": 13.1201176,
        "lon": 77.5933021
      },
      "tags": {
        "access": "private",
        "leisure": "swimming_pool"
      }
    },
    {
      "type": "way",
      "id": 1209130538,
      "center": {
        "lat": 13.1190501,
        "lon": 77.5934693
      },
      "tags": {
        "leisure": "pitch",
        "sport": "tennis"
      }
    },
    {
      "type": "way",
      "id": 1233840281,
      "center": {
        "lat": 13.1247976,
        "lon": 77.5906244
      },
      "tags": {
        "leisure": "garden"
      }
    },
    {
      "type": "way",
      "id": 1253477223,
      "center": {
        "lat": 13.1187138,
        "lon": 77.5790869
      },
      "tags": {
        "leisure": "pitch",
        "sport": "tennis"
      }
    },
    {
      "type": "way",
      "id": 1277628873,
      "center": {
        "lat": 13.1286711,
        "lon": 77.5882699
      },
      "tags": {
        "access": "permissive",
        "amenity": "motorcycle_parking",
        "parking": "surface"
      }
    },
    {
      "type": "way",
      "id": 1277628895,
      "center": {
        "lat": 13.1282375,
        "lon": 77.5870932
      },
      "tags": {
        "access": "permissive",
        "amenity": "parking",
        "parking": "surface"
      }
    },
    {
      "type": "way",
      "id": 1277628896,
      "center": {
        "lat": 13.1282522,
        "lon": 77.5864453
      },
      "tags": {
        "access": "permissive",
        "amenity": "parking",
        "parking": "surface"
      }
    },
    {
      "type": "way",
      "id": 1277628905,
      "center": {
        "lat": 13.1281914,
        "lon": 77.5860291
      },
      "tags": {
        "access": "permissive",
        "amenity": "parking",
        "parking": "surface"
      }
    },
    {
      "type": "way",
      "id": 1285043072,
      "center": {
        "lat": 13.1181849,
        "lon": 77.5766007
      },
      "tags": {
        "access": "permissive",
        "amenity": "parking",
        "parking": "surface"
      }
    },
    {
      "type": "way",
      "id": 1285043073,
      "center": {
        "lat": 13.1177446,
        "lon": 77.5769259
      },
      "tags": {
        "leisure": "pitch",
        "sport": "basketball"
      }
    },
    {
      "type": "way",
      "id": 1285043177,
      "center": {
        "lat": 13.1165088,
        "lon": 77.5767897
      },
      "tags": {
        "access": "permissive",
        "amenity": "parking",
        "parking": "surface"
      }
    },
    {
      "type": "way",
      "id": 1418331267,
      "center": {
        "lat": 13.1238517,
        "lon": 77.5937433
      },
      "tags": {
        "leisure": "park"
      }
    },
    {
      "type": "way",
      "id": 1418331268,
      "center": {
        "lat": 13.1245758,
        "lon": 77.5921189
      },
      "tags": {
        "leisure": "park"
      }
    }
  ]
}