{
  "area_name": "Kengeri Satelite Town",
  "osm_id": 7289130016,
  "osm_type": "node",
  "place_type": "neighbourhood",
  "amenity_count": 90,
  "amenities": [
    {
      "type": "node",
      "id": 1794110629,
      "lat": 12.9263122,
      "lon": 77.4945152,
      "tags": {
        "amenity": "school",
        "name": "Gnanabodhini English Pre-Primary School",
        "name:kn": "ಜ್ಞಾನ ಬೋಧಿನಿ ಶಾಲೆ"
      }
    },
    {
      "type": "node",
      "id": 1794124404,
      "lat": 12.9294415,
      "lon": 77.4915138,
      "tags": {
        "amenity": "place_of_worship",
        "name": "Hatti Lakkamma Temple",
        "name:kn": "ಹಟ್ಟಿಲಕ್ಕಮ್ಮ ದೇವಸ್ಥಾನ",
        "religion": "hindu"
      }
    },
    {
      "type": "node",
      "id": 4487927621,
      "lat": 12.9243833,
      "lon": 77.4867217,
      "tags": {
        "addr:city": "banglore",
        "addr:postcode": "560060",
        "addr:street": "No.19/1, 80 Feet Road, Kengeri",
        "amenity": "pharmacy",
        "name": "Bangalore Fine Chemicals",
        "phone": "(91)-80-33569025"
      }
    },
    {
      "type": "node",
      "id": 4791320695,
      "lat": 12.9233976,
      "lon": 77.4835478,
      "tags": {
        "addr:city": "Bengaluru",
        "addr:postcode": "೫೬೦೦೬೦",
        "addr:street": "7th Cross Road",
        "amenity": "place_of_worship",
        "name": "Sri Raghavendra Swamy Mutt",
        "name:kn": "ಶ್ರೀ ರಾಘವೇಂದ್ರ ಸ್ವಾಮಿ ಮಠ",
        "religion": "hindu"
      }
    },
    {
      "type": "node",
      "id": 5075573721,
      "lat": 12.9220858,
      "lon": 77.4953504,
      "tags": {
        "addr:housenumber": "#749/1",
        "addr:postcode": "560059",
        "addr:street": "Bangalore-Mysore Road",
        "amenity": "restaurant",
        "cuisine": "fine_dining",
        "diet:vegetarian": "yes",
        "email": "raihospitality24@gmail.com",
        "internet_access": "wlan",
        "name": "royal andaaz",
        "name:en": "royal andaaz",
        "name:hi": "रॉयल अन्दाज़",
        "opening_hours": "Mo-Su 07:30-17:00, 18:00-23:00",
        "operator": "Nikita rai;Rai hospitality",
        "phone": "+91 90714 20001"
      }
    },
    {
      "type": "node",
      "id": 5808500942,
      "lat": 12.9291704,
      "lon": 77.4861924,
      "tags": {
        "addr:city": "Kengeri Satellite Town",
        "addr:postcode": "560060",
        "addr:street": "Near Bethesda School",
        "name": "Sadaran Bakers/Anushree Bakery/Sai Bake Palace",
        "shop": "bakery"
      }
    },
    {
      "type": "node",
      "id": 6944095844,
      "lat": 12.9215104,
      "lon": 77.4832503,
      "tags": {
        "addr:district": "Bengaluru Rural",
        "addr:full": "No 73, 3Road Main Road, Kengeri Satellite Town, Kengeri",
        "addr:postcode": "560060",
        "addr:state": "Karnataka",
        "amenity": "hospital",
        "name": "Shreya Hospital, Bengaluru Rural",
        "source": "OpenGovernmentData"
      }
    },
    {
      "type": "node",
      "id": 6944096856,
      "lat": 12.9255704,
      "lon": 77.4857756,
      "tags": {
        "addr:district": "Bengaluru Rural",
        "addr:full": "80 Ft. Road",
        "addr:postcode": "560060",
        "addr:state": "Karnataka",
        "amenity": "hospital",
        "name": "Sri Annapoorneshwari Hospital",
        "source": "OpenGovernmentData"
      }
    },
    {
      "type": "node",
      "id": 6950185742,
      "lat": 12.9220606,
      "lon": 77.4846642,
      "tags": {
        "addr:district": "Bengaluru Rural",
        "addr:full": "1st Main,Kangeri Satellite Town",
        "addr:postcode": "560060",
        "addr:state": "Karnataka",
        "amenity": "clinic",
        "name": "Adishesha Netralaya",
        "source": "OpenGovernmentData"
      }
    },
    {
      "type": "node",
      "id": 7289130005,
      "lat": 12.9193249,
      "lon": 77.4831524,
      "tags": {
        "amenity": "bank",
        "atm": "yes",
        "brand": "HDFC Bank",
        "brand:wikidata": "Q631047",
        "name": "HDFC Bank",
        "name:kn": "ಎಚ್ ಡಿ ಎಫ್ ಸಿ",
        "operator": "HDFC Bank",
        "short_name": "HDFC"
      }
    },
    {
      "type": "node",
      "id": 7289130010,
      "lat": 12.9201784,
      "lon": 77.4837627,
      "tags": {
        "amenity": "fast_food",
        "brand": "Domino's",
        "brand:ks": "ڈومینوز",
        "brand:pa": "ਡੋਮੀਨੋਜ਼",
        "brand:ur": "ڈومینوز",
        "brand:wikidata": "Q839466",
        "brand:wikipedia": "en:Domino's Pizza",
        "cuisine": "pizza",
        "name": "Domino's",
        "name:kn": "ಡಾಮಿನೋಸ್",
        "name:ks": "ڈومینوز",
        "name:pa": "ਡੋਮੀਨੋਜ਼",
        "name:ur": "ڈومینوز"
      }
    },
    {
      "type": "node",
      "id": 7289130013,
      "lat": 12.921534,
      "lon": 77.4842736,
      "tags": {
        "amenity": "bank",
        "atm": "yes",
        "brand": "Canara Bank",
        "brand:pa": "ਕੇਨਰਾ ਬੈਂਕ",
        "brand:ur": "کینرا بینک",
        "brand:wikidata": "Q2003777",
        "brand:wikipedia": "en:Canara Bank",
        "brand:wikipedia:pa": "ਕੇਨਰਾ ਬੈਂਕ",
        "name": "Canara Bank",
        "name:kn": "ಕೆನರಾ ಬ್ಯಾಂಕ್",
        "name:pa": "ਕੇਨਰਾ ਬੈਂਕ",
        "name:ur": "کینرا بینک"
      }
    },
    {
      "type": "node",
      "id": 7289130015,
      "lat": 12.9237561,
      "lon": 77.4847363,
      "tags": {
        "amenity": "bank",
        "atm": "yes",
        "brand": "Axis Bank",
        "brand:wikidata": "Q2003549",
        "name": "Axis Bank",
        "operator": "Axis Bank"
      }
    },
    {
      "type": "node",
      "id": 7289130131,
      "lat": 12.9221378,
      "lon": 77.4924543,
      "tags": {
        "access": "permissive",
        "amenity": "parking",
        "parking": "surface"
      }
    },
    {
      "type": "node",
      "id": 7289130132,
      "lat": 12.9213666,
      "lon": 77.4923176,
      "tags": {
        "leisure": "sports_centre"
      }
    },
    {
      "type": "node",
      "id": 7289130133,
      "lat": 12.9214777,
      "lon": 77.4925268,
      "tags": {
        "access": "private",
        "leisure": "swimming_pool"
      }
    },
    {
      "type": "node",
      "id": 9182325482,
      "lat": 12.9294702,
      "lon": 77.4868321,
      "tags": {
        "amenity": "parking",
        "fee": "no",
        "operator": "Green House"
      }
    },
    {
      "type": "node",
      "id": 9187060177,
      "lat": 12.9299385,
      "lon": 77.4870761,
      "tags": {
        "amenity": "atm",
        "brand": "State Bank of India",
        "brand:wikidata": "Q1340361",
        "brand:wikipedia": "en:State Bank of India",
        "currency:INR": "yes",
        "name": "State Bank of India",
        "operator": "State Bank of India",
        "operator:wikidata": "Q1340361",
        "operator:wikipedia": "en:State Bank of India",
        "short_name": "SBI"
      }
    },
    {
      "type": "node",
      "id": 9187127730,
      "lat": 12.928684,
      "lon": 77.4868389,
      "tags": {
        "amenity": "atm",
        "brand": "ICICI Bank",
        "brand:wikidata": "Q1653258",
        "brand:wikipedia": "en:ICICI Bank",
        "currency:INR": "yes",
        "name": "ICICI Bank",
        "operator": "ICICI Bank",
        "operator:wikidata": "Q1653258",
        "operator:wikipedia": "en:ICICI Bank",
        "short_name": "ICICI"
      }
    },
    {
      "type": "node",
      "id": 9192964456,
      "lat": 12.9202888,
      "lon": 77.4838533,
      "tags": {
        "addr:city": "Bengaluru",
        "addr:housenumber": "No.34",
        "addr:postcode": "560060",
        "addr:street": "1st Main, 6th Cross, Opp. Kabir Ashram, Kengeri Satellite Town",
        "brand": "Multi Brand",
        "currency:INR": "yes",
        "name": "Maruthi motors",
        "payment:cash": "yes",
        "phone": "9886603300",
        "service:vehicle:body_repair": "yes",
        "service:vehicle:brakes": "yes",
        "service:vehicle:car_repair": "yes",
        "service:vehicle:electrical": "yes",
        "service:vehicle:oil_change": "yes",
        "service:vehicle:painting": "yes",
        "shop": "car_repair"
      }
    },
    {
      "type": "node",
      "id": 9192964457,
      "lat": 12.9201996,
      "lon": 77.4856137,
      "tags": {
        "amenity": "fuel",
        "brand": "Nayara",
        "brand:wikidata": "Q1360409",
        "compressed_air": "yes",
        "name": "Nayara"
      }
    },
    {
      "type": "node",
      "id": 9192967331,
      "lat": 12.9208444,
      "lon": 77.4847891,
      "tags": {
        "amenity": "hospital",
        "name": "Adarsh Hospital",
        "name:kn": "ಆದರ್ಶ ಆಸ್ಪತ್ರೆ"
      }
    },
    {
      "type": "node",
      "id": 9195745509,
      "lat": 12.9261822,
      "lon": 77.4856678,
      "tags": {
        "amenity": "atm",
        "brand": "Axis Bank",
        "brand:wikidata": "Q2003549",
        "brand:wikipedia": "en:Axis Bank",
        "currency:INR": "yes",
        "name": "Axis Bank",
        "name:kn": "ಆಕ್ಸಿಸ್ ಬ್ಯಾಂಕ್",
        "operator": "Axis Bank",
        "operator:wikidata": "Q2003549",
        "operator:wikipedia": "en:Axis Bank"
      }
    },
    {
      "type": "node",
      "id": 9204433034,
      "lat": 12.9297951,
      "lon": 77.4869553,
      "tags": {
        "name": "Green House",
        "operator": "Vegitable vendor",
        "shop": "greengrocer"
      }
    },
    {
      "type": "node",
      "id": 9204433035,
      "lat": 12.9295796,
      "lon": 77.4868691,
      "tags": {
        "amenity": "weighbridge"
      }
    },
    {
      "type": "node",
      "id": 9600130116,
      "lat": 12.9293093,
      "lon": 77.4837912,
      "tags": {
        "addr:street": "Rajkumar Main Road, Gandhi Nagar, Kengeri Satellite Town",
        "amenity": "place_of_worship",
        "name": "Aathi Sakthi Maramma Temple",
        "religion": "hindu"
      }
    },
    {
      "type": "node",
      "id": 9654252408,
      "lat": 12.9230032,
      "lon": 77.4844748,
      "tags": {
        "amenity": "pharmacy",
        "brand": "Apollo Pharmacy",
        "brand:wikidata": "Q62562612",
        "healthcare": "pharmacy",
        "name": "Apollo Pharmacy"
      }
    },
    {
      "type": "node",
      "id": 9654252409,
      "lat": 12.9218163,
      "lon": 77.484055,
      "tags": {
        "name": "Kanti Sweets",
        "shop": "confectionery"
      }
    },
    {
      "type": "node",
      "id": 9654252410,
      "lat": 12.9204516,
      "lon": 77.4838901,
      "tags": {
        "amenity": "ice_cream",
        "name": "Polar Bear"
      }
    },
    {
      "type": "node",
      "id": 9654252411,
      "lat": 12.9212987,
      "lon": 77.4838579,
      "tags": {
        "amenity": "cafe",
        "name": "TEAGO Cafe"
      }
    },
    {
      "type": "node",
      "id": 9654252412,
      "lat": 12.9202922,
      "lon": 77.4835119,
      "tags": {
        "amenity": "place_of_worship",
        "religion": "hindu"
      }
    },
    {
      "type": "node",
      "id": 9654252413,
      "lat": 12.9195994,
      "lon": 77.4832624,
      "tags": {
        "amenity": "fast_food",
        "cuisine": "pizza",
        "name": "Pizza Hut"
      }
    },
    {
      "type": "node",
      "id": 9654352373,
      "lat": 12.9235809,
      "lon": 77.4847041,
      "tags": {
        "amenity": "restaurant",
        "cuisine": "japanese",
        "name": "Sarasa Japanese Kitchen"
      }
    },
    {
      "type": "node",
      "id": 9937275997,
      "lat": 12.9257647,
      "lon": 77.4857621,
      "tags": {
        "addr:housenumber": "#4&5, 1st Floor, Mahantesh Building",
        "addr:street": "11th Cross, 1st Main, Kengeri Satellite Town, Bengaluru 560060.",
        "amenity": "dentist",
        "name": "Mandahaasa",
        "phone": "+918618204213",
        "website": "https://mandahaasadentalcare.com/"
      }
    },
    {
      "type": "node",
      "id": 9947963010,
      "lat": 12.9301033,
      "lon": 77.4872589,
      "tags": {
        "addr:street": "Kengeri, Bangalore",
        "amenity": "community_centre",
        "name": "Devi Party Hall"
      }
    },
    {
      "type": "node",
      "id": 9959160252,
      "lat": 12.9214381,
      "lon": 77.483471,
      "tags": {
        "amenity": "atm",
        "brand": "Canara Bank",
        "brand:en": "Canara Bank",
        "brand:hi": "केनरा बैंक",
        "brand:kn": "ಕೆನರಾ ಬ್ಯಾಂಕ್",
        "brand:pa": "ਕੇਨਰਾ ਬੈਂਕ",
        "brand:pnb": "کینرا بینک",
        "brand:ur": "کینرا بینک",
        "brand:wikidata": "Q2003777",
        "name": "Canara bank",
        "name:en": "Canara Bank",
        "name:hi": "केनरा बैंक",
        "name:kn": "ಕೆನರಾ ಬ್ಯಾಂಕ್",
        "name:pa": "ਕੇਨਰਾ ਬੈਂਕ",
        "name:pnb": "کینرا بینک",
        "name:ur": "کینرا بینک",
        "operator": "Canara Bank",
        "operator:wikidata": "Q2003777"
      }
    },
    {
      "type": "node",
      "id": 10588737906,
      "lat": 12.9245385,
      "lon": 77.4850731,
      "tags": {
        "amenity": "restaurant",
        "name": "Hoysala Darshini (veg)"
      }
    },
    {
      "type": "node",
      "id": 10752508654,
      "lat": 12.9266736,
      "lon": 77.4943694,
      "tags": {
        "amenity": "school",
        "name": "Gnanabodhini Kannada Higher Primary School",
        "name:kn": "ಜ್ಞಾನ ಬೋಧಿನಿ ಶಾಲೆ"
      }
    },
    {
      "type": "node",
      "id": 10752508655,
      "lat": 12.9264043,
      "lon": 77.4942917,
      "tags": {
        "amenity": "school",
        "name": "Gnanabodhini English Higher Primary School",
        "name:kn": "ಜ್ಞಾನ ಬೋಧಿನಿ ಶಾಲೆ"
      }
    },
    {
      "type": "node",
      "id": 11145402633,
      "lat": 12.9206492,
      "lon": 77.4837747,
      "tags": {
        "amenity": "atm",
        "name": "ICICI Bank",
        "name:kn": "ಐಸಿಐಸಿಐ ಬ್ಯಾಂಕು"
      }
    },
    {
      "type": "node",
      "id": 12528738371,
      "lat": 12.9289537,
      "lon": 77.486678,
      "tags": {
        "addr:city": "Bengaluru",
        "addr:postcode": "560060",
        "addr:street": "80 Feet Rd, Valagerahalli, Kengeri Satellite Town",
        "name": "Smart Point",
        "shop": "supermarket"
      }
    },
    {
      "type": "node",
      "id": 12539035053,
      "lat": 12.9245345,
      "lon": 77.4854041,
      "tags": {
        "addr:city": "Bengaluru",
        "addr:district": "Bengaluru Rural",
        "addr:housenumber": "1251",
        "addr:postcode": "560060",
        "addr:street": "Outer Ring Rd, Valagerahalli, Stage II, Kengeri Satellite Town",
        "name": "Shopers Shope",
        "shop": "supermarket"
      }
    },
    {
      "type": "node",
      "id": 12762416666,
      "lat": 12.9174925,
      "lon": 77.4854264,
      "tags": {
        "amenity": "parking"
      }
    },
    {
      "type": "node",
      "id": 12762522951,
      "lat": 12.9236248,
      "lon": 77.492989,
      "tags": {
        "amenity": "shelter"
      }
    },
    {
      "type": "node",
      "id": 12762523148,
      "lat": 12.9258574,
      "lon": 77.4924751,
      "tags": {
        "amenity": "shelter"
      }
    },
    {
      "type": "way",
      "id": 344935468,
      "center": {
        "lat": 12.9225765,
        "lon": 77.4832987
      },
      "tags": {
        "leisure": "park"
      }
    },
    {
      "type": "way",
      "id": 348194473,
      "center": {
        "lat": 12.9263804,
        "lon": 77.4936052
      },
      "tags": {
        "amenity": "monastery",
        "building": "yes",
        "community:gender": "female",
        "denomination": "catholic",
        "name": "Holy Family Convent Ursuline Franciscan Sisters",
        "religion": "christian"
      }
    },
    {
      "type": "way",
      "id": 348298855,
      "center": {
        "lat": 12.928666,
        "lon": 77.4862187
      },
      "tags": {
        "amenity": "place_of_worship",
        "building": "yes",
        "name": "St. Francis of Assisi Church",
        "religion": "christian"
      }
    },
    {
      "type": "way",
      "id": 362880375,
      "center": {
        "lat": 12.9177032,
        "lon": 77.4815343
      },
      "tags": {
        "leisure": "park"
      }
    },
    {
      "type": "way",
      "id": 362880376,
      "center": {
        "lat": 12.9189066,
        "lon": 77.4819706
      },
      "tags": {
        "leisure": "park",
        "name": "Kids Playground"
      }
    },
    {
      "type": "way",
      "id": 362880377,
      "center": {
        "lat": 12.9201481,
        "lon": 77.4824172
      },
      "tags": {
        "leisure": "park"
      }
    },
    {
      "type": "way",
      "id": 362880378,
      "center": {
        "lat": 12.9211121,
        "lon": 77.4827536
      },
      "tags": {
        "leisure": "park"
      }
    },
    {
      "type": "way",
      "id": 362915043,
      "center": {
        "lat": 12.9161686,
        "lon": 77.4809949
      },
      "tags": {
        "leisure": "park"
      }
    },
    {
      "type": "way",
      "id": 437563237,
      "center": {
        "lat": 12.9224218,
        "lon": 77.4889292
      },
      "tags": {
        "amenity": "school",
        "name": "National Public School Kengeri",
        "name:kn": "ರಾಷ್ಟ್ರೀಯ ಸಾರ್ವಜನಿಕ ಶಾಲೆ ಕೆಂಗೆರಿ"
      }
    },
    {
      "type": "way",
      "id": 614224625,
      "center": {
        "lat": 12.9282501,
        "lon": 77.4855451
      },
      "tags": {
        "amenity": "school",
        "name": "Bethesda International School"
      }
    },
    {
      "type": "way",
      "id": 695545677,
      "center": {
        "lat": 12.9241653,
        "lon": 77.4928037
      },
      "tags": {
        "amenity": "parking"
      }
    },
    {
      "type": "way",
      "id": 695545719,
      "center": {
        "lat": 12.9244411,
        "lon": 77.4968578
      },
      "tags": {
        "amenity": "college",
        "name": "Bangalore Integrated Management Academy"
      }
    },
    {
      "type": "way",
      "id": 726382792,
      "center": {
        "lat": 12.9201193,
        "lon": 77.4883303
      },
      "tags": {
        "access": "private",
        "leisure": "pitch",
        "name": "Volleyball Court",
        "name:kn": "ವಾಲಿಬಾಲ್ ಅಂಗಣ",
        "sport": "volleyball"
      }
    },
    {
      "type": "way",
      "id": 726411363,
      "center": {
        "lat": 12.9219676,
        "lon": 77.4885539
      },
      "tags": {
        "leisure": "park"
      }
    },
    {
      "type": "way",
      "id": 726464577,
      "center": {
        "lat": 12.9199516,
        "lon": 77.4887636
      },
      "tags": {
        "building": "yes",
        "layer": "1",
        "name": "Nandini Milk Parlor",
        "name:kn": "ನಂದಿನಿ ಹಾಲಿನ ಅಂಗಡಿ",
        "shop": "bakery"
      }
    },
    {
      "type": "way",
      "id": 726476899,
      "center": {
        "lat": 12.9191609,
        "lon": 77.4909124
      },
      "tags": {
        "building": "yes",
        "shop": "yes"
      }
    },
    {
      "type": "way",
      "id": 726511114,
      "center": {
        "lat": 12.9193183,
        "lon": 77.490068
      },
      "tags": {
        "building": "yes",
        "name": "Nandini Milk Parlor",
        "name:kn": "ನಂದಿನಿ ಹಾಲಿನ ಅಂಗಡಿ",
        "shop": "dairy"
      }
    },
    {
      "type": "way",
      "id": 726511404,
      "center": {
        "lat": 12.9192243,
        "lon": 77.4900843
      },
      "tags": {
        "amenity": "place_of_worship",
        "building": "yes",
        "name": "Ganapathy Temple",
        "name:kn": "ಗಣಪತಿ ದೇವಸ್ಥಾನ",
        "religion": "hindu"
      }
    },
    {
      "type": "way",
      "id": 726511541,
      "center": {
        "lat": 12.9196133,
        "lon": 77.4910425
      },
      "tags": {
        "leisure": "park"
      }
    },
    {
      "type": "way",
      "id": 726511875,
      "center": {
        "lat": 12.9204091,
        "lon": 77.4907494
      },
      "tags": {
        "leisure": "park"
      }
    },
    {
      "type": "way",
      "id": 726512742,
      "center": {
        "lat": 12.9200929,
        "lon": 77.48844
      },
      "tags": {
        "leisure": "pitch",
        "name": "Tennis Bda",
        "sport": "tennis"
      }
    },
    {
      "type": "way",
      "id": 780585935,
      "center": {
        "lat": 12.9225718,
        "lon": 77.4891291
      },
      "tags": {
        "leisure": "park"
      }
    },
    {
      "type": "way",
      "id": 780585936,
      "center": {
        "lat": 12.9239461,
        "lon": 77.4874947
      },
      "tags": {
        "leisure": "park"
      }
    },
    {
      "type": "way",
      "id": 780585937,
      "center": {
        "lat": 12.9244536,
        "lon": 77.4860231
      },
      "tags": {
        "leisure": "park"
      }
    },
    {
      "type": "way",
      "id": 780585944,
      "center": {
        "lat": 12.922894,
        "lon": 77.4887549
      },
      "tags": {
        "leisure": "park"
      }
    },
    {
      "type": "way",
      "id": 780585948,
      "center": {
        "lat": 12.9231535,
        "lon": 77.489982
      },
      "tags": {
        "leisure": "park"
      }
    },
    {
      "type": "way",
      "id": 780585949,
      "center": {
        "lat": 12.925473,
        "lon": 77.4917391
      },
      "tags": {
        "leisure": "park",
        "name": "Balmuri Ganesh Temple Children's Park"
      }
    },
    {
      "type": "way",
      "id": 781766935,
      "center": {
        "lat": 12.9162491,
        "lon": 77.4825373
      },
      "tags": {
        "addr:city": "Kengeri Satellite Town",
        "addr:postcode": "560060",
        "amenity": "bus_station",
        "building": "yes",
        "bus": "yes",
        "name": "Kengeri Uppanagara Bus Stand",
        "name:kn": "ಕೆಂಗೇರಿ ಉಪನಗರ",
        "public_transport": "station"
      }
    },
    {
      "type": "way",
      "id": 816978768,
      "center": {
        "lat": 12.9230141,
        "lon": 77.4959523
      },
      "tags": {
        "addr:housenumber": "Duvasapalya, Stage II, Kengeri Satellite Town, Bengaluru, Karnataka",
        "addr:postcode": "560059",
        "addr:street": "Bangalore-Mysore Road",
        "amenity": "restaurant",
        "building": "yes",
        "cuisine": "regional;north_indian",
        "name": "Chetan Dhaba"
      }
    },
    {
      "type": "way",
      "id": 955012033,
      "center": {
        "lat": 12.9289906,
        "lon": 77.4869934
      },
      "tags": {
        "addr:city": "Kengeri Satellite Town",
        "addr:postcode": "560060",
        "amenity": "car_wash",
        "building": "yes",
        "name": "Surya Chandra Service Station"
      }
    },
    {
      "type": "way",
      "id": 955012326,
      "center": {
        "lat": 12.9291414,
        "lon": 77.4870493
      },
      "tags": {
        "addr:city": "Kengeri Satellite Town",
        "addr:postcode": "560060",
        "building": "yes",
        "name": "Wine House",
        "operator": "MSIL",
        "shop": "wine"
      }
    },
    {
      "type": "way",
      "id": 1050578231,
      "center": {
        "lat": 12.9233464,
        "lon": 77.4835516
      },
      "tags": {
        "amenity": "place_of_worship",
        "religion": "hindu"
      }
    },
    {
      "type": "way",
      "id": 1050584162,
      "center": {
        "lat": 12.9230209,
        "lon": 77.4954283
      },
      "tags": {
        "addr:city": "Bengaluru",
        "addr:housenumber": "78/2",
        "addr:postcode": "560059",
        "addr:street": "Bangalore-Mysore Road, Near RV College of Engineering, Valagerahalli",
        "brand": "Kia",
        "name": "PPS Kia Showroom Mysore Road",
        "not:brand:wikidata": "Q35349",
        "opening_hours": "Mo-Su 09:30-19:30",
        "phone": "06309990010",
        "shop": "car"
      }
    },
    {
      "type": "way",
      "id": 1156224671,
      "center": {
        "lat": 12.926331,
        "lon": 77.493935
      },
      "tags": {
        "amenity": "school",
        "name": "Gnanabodhini School",
        "name:kn": "ಜ್ಞಾನಬೋಧಿನಿ ಶಾಲೆ"
      }
    },
    {
      "type": "way",
      "id": 1156224674,
      "center": {
        "lat": 12.9251098,
        "lon": 77.4952131
      },
      "tags": {
        "alt_name": "Capuchin Theology House",
        "amenity": "monastery",
        "denomination": "catholic",
        "landuse": "religious",
        "name": "Deena Seva Ashram",
        "official_name": "Darshan Theologate",
        "religion": "christian"
      }
    },
    {
      "type": "way",
      "id": 1157248001,
      "center": {
        "lat": 12.922681,
        "lon": 77.4927976
      },
      "tags": {
        "leisure": "park"
      }
    },
    {
      "type": "way",
      "id": 1378346181,
      "center": {
        "lat": 12.9242442,
        "lon": 77.4925895
      },
      "tags": {
        "amenity": "parking"
      }
    },
    {
      "type": "way",
      "id": 1378346182,
      "center": {
        "lat": 12.924264,
        "lon": 77.4924683
      },
      "tags": {
        "amenity": "parking"
      }
    },
    {
      "type": "way",
      "id": 1378346183,
      "center": {
        "lat": 12.9242514,
        "lon": 77.4923105
      },
      "tags": {
        "amenity": "parking"
      }
    },
    {
      "type": "way",
      "id": 1378346184,
      "center": {
        "lat": 12.9243377,
        "lon": 77.4931663
      },
      "tags": {
        "amenity": "parking"
      }
    },
    {
      "type": "way",
      "id": 1378346185,
      "center": {
        "lat": 12.9242368,
        "lon": 77.4931705
      },
      "tags": {
        "amenity": "parking"
      }
    },
    {
      "type": "way",
      "id": 1378346186,
      "center": {
        "lat": 12.9241077,
        "lon": 77.4931785
      },
      "tags": {
        "amenity": "parking"
      }
    },
    {
      "type": "way",
      "id": 1378346187,
      "center": {
        "lat": 12.9239942,
        "lon": 77.4931571
      },
      "tags": {
        "amenity": "parking"
      }
    },
    {
      "type": "way",
      "id": 1378353256,
      "center": {
        "lat": 12.9235914,
        "lon": 77.4929149
      },
      "tags": {
        "amenity": "shelter",
        "building": "yes"
      }
    },
    {
      "type": "way",
      "id": 1378353257,
      "center": {
        "lat": 12.9236687,
        "lon": 77.4930336
      },
      "tags": {
        "amenity": "shelter",
        "building": "yes"
      }
    }
  ]
}