{
  "area_name": "Kethamaranahalli",
  "osm_id": 19883348,
  "osm_type": "relation",
  "place_type": "administrative",
  "amenity_count": 496,
  "amenities": [
    {
      "type": "node",
      "id": 519549595,
      "lat": 12.9981215,
      "lon": 77.5404836,
      "tags": {
        "addr:city": "Basaveshwara Nagar, Bangalore",
        "addr:district": "Bengaluru Urban",
        "addr:full": "#100/101, Lic Colony West Of Chord, Basaveshwaranagar",
        "addr:housenumber": "100",
        "addr:postcode": "560079",
        "addr:state": "Karnataka",
        "addr:street": "West of Chord Road (LIC Colony)",
        "amenity": "hospital",
        "email": "chordroadhospital100@yahoo.co.in",
        "healthcare:speciality": "multi speciality",
        "name": "Chord Road Hospital Pvt Ltd",
        "name:kn": "ಕೊರ್ಡ್ ರಸ್ತೆ ಆಸ್ಪತ್ರೆ",
        "operator:type": "private",
        "phone": "+91-80-23225858;+91-80-23225868;+91-80-23225878",
        "source": "OpenGovernmentData",
        "website": "http://www.chordroadhospitalent.com/",
        "wheelchair": "yes"
      }
    },
    {
      "type": "node",
      "id": 519549718,
      "lat": 12.9966627,
      "lon": 77.5400464,
      "tags": {
        "addr:street": "WOC Road",
        "amenity": "fuel",
        "brand": "Bharat Petroleum",
        "brand:wikidata": "Q854826",
        "name": "Bharat Petroleum",
        "operator": "Bharat Petroleum",
        "wheelchair": "yes"
      }
    },
    {
      "type": "node",
      "id": 519549759,
      "lat": 12.9918012,
      "lon": 77.5379737,
      "tags": {
        "addr:city": "Basaveshwara Nagar, Bangalore",
        "amenity": "atm",
        "brand": "State Bank of India",
        "brand:wikidata": "Q1340361",
        "name": "State Bank of India",
        "name:kn": "ಭಾರತೀಯ ಸ್ಟೇಟ್ ಬ್ಯಾಂಕ್",
        "operator": "State Bank of India",
        "operator:wikidata": "Q1340361",
        "short_name": "SBI"
      }
    },
    {
      "type": "node",
      "id": 519549868,
      "lat": 12.9938216,
      "lon": 77.5387868,
      "tags": {
        "addr:city": "Basaveshwara Nagar, Bangalore",
        "addr:postcode": "560079",
        "amenity": "place_of_worship",
        "name": "Shiva Temple",
        "name:kn": "ಶಿವ ದೇವಸ್ಥಾನ",
        "religion": "hindu",
        "wheelchair": "no"
      }
    },
    {
      "type": "node",
      "id": 519549869,
      "lat": 12.9951833,
      "lon": 77.5396211,
      "tags": {
        "addr:city": "Basaveshwara Nagar, Bangalore",
        "addr:street": "WOC Road",
        "amenity": "restaurant",
        "name": "Guru Sagar Hotel",
        "name:kn": "ಗುರು ಸಾಗರ"
      }
    },
    {
      "type": "node",
      "id": 519550433,
      "lat": 12.9974545,
      "lon": 77.5403023,
      "tags": {
        "addr:city": "Basaveshwara Nagar, Bangalore",
        "name": "Fresh@Heritage",
        "shop": "convenience"
      }
    },
    {
      "type": "node",
      "id": 530721052,
      "lat": 12.9993286,
      "lon": 77.5408919,
      "tags": {
        "addr:city": "Basaveshwara Nagar, Bangalore",
        "name": "Photo Studio",
        "shop": "photo_studio"
      }
    },
    {
      "type": "node",
      "id": 863827219,
      "lat": 13.0097345,
      "lon": 77.5515655,
      "tags": {
        "amenity": "parking",
        "fee": "yes",
        "parking": "multi-storey"
      }
    },
    {
      "type": "node",
      "id": 1036698401,
      "lat": 12.9995896,
      "lon": 77.5409326,
      "tags": {
        "amenity": "place_of_worship",
        "name": "Shri Avani Shankara Matha",
        "name:kn": "ಶ್ರೀ ಆವನಿ ಶಂಕರ ಮಠ",
        "religion": "hindu",
        "wheelchair": "no"
      }
    },
    {
      "type": "node",
      "id": 1465059607,
      "lat": 13.0061311,
      "lon": 77.5536439,
      "tags": {
        "amenity": "pharmacy",
        "dispensing": "yes",
        "name": "St Theresa Pharmacy"
      }
    },
    {
      "type": "node",
      "id": 1467501580,
      "lat": 12.9973265,
      "lon": 77.5403657,
      "tags": {
        "amenity": "cafe",
        "brand": "Cafe Coffee Day",
        "brand:wikidata": "Q5017235",
        "cuisine": "coffee_shop",
        "name": "Cafe Coffee Day",
        "name:kn": "ಕಫೆ ಕಾಫಿ ಡೇ",
        "operator": "Cafe Coffee Day",
        "takeaway": "yes"
      }
    },
    {
      "type": "node",
      "id": 1467501727,
      "lat": 12.9972063,
      "lon": 77.5402705,
      "tags": {
        "amenity": "atm",
        "brand": "HDFC Bank",
        "brand:wikidata": "Q631047",
        "name": "HDFC Bank",
        "operator": "HDFC Bank",
        "operator:wikidata": "Q631047",
        "short_name": "HDFC"
      }
    },
    {
      "type": "node",
      "id": 1467779070,
      "lat": 13.0042469,
      "lon": 77.550715,
      "tags": {
        "amenity": "fast_food",
        "name": "New Sagar Fast Food"
      }
    },
    {
      "type": "node",
      "id": 1471781028,
      "lat": 13.0037682,
      "lon": 77.5498337,
      "tags": {
        "addr:district": "Bengaluru Urban",
        "addr:full": "359 / 360, 19Th Main 1 St Block Rajajinagar Near Indian Bank",
        "addr:postcode": "560010",
        "addr:state": "Karnataka",
        "amenity": "hospital",
        "healthcare": "hospital",
        "name": "Diacon Hospital",
        "source": "OpenGovernmentData",
        "wheelchair": "yes"
      }
    },
    {
      "type": "node",
      "id": 1471781252,
      "lat": 13.0034363,
      "lon": 77.5499517,
      "tags": {
        "addr:city": "Bengaluru",
        "addr:country": "IN",
        "addr:housenumber": "363",
        "addr:postcode": "560010",
        "addr:street": "19th Main Road",
        "addr:suburb": "Rajajinagar",
        "amenity": "cafe",
        "name": "Cafe 363",
        "website": "https://www.cafe363.in/"
      }
    },
    {
      "type": "node",
      "id": 1471851161,
      "lat": 13.0042683,
      "lon": 77.5512142,
      "tags": {
        "name": "Cake Palace",
        "name:kn": "ಕೇಕ್ ಪ್ಯಾಲೇಸ್",
        "shop": "bakery"
      }
    },
    {
      "type": "node",
      "id": 1471851171,
      "lat": 13.0045087,
      "lon": 77.5525527,
      "tags": {
        "amenity": "place_of_worship",
        "name": "Punyadhaama Raghavendra Mutt",
        "name:kn": "ಪುಣ್ಯಧಾಮ ರಾಘವೇಂದ್ರ ಮಠ",
        "religion": "hindu"
      }
    },
    {
      "type": "node",
      "id": 1472178430,
      "lat": 13.0096385,
      "lon": 77.5486843,
      "tags": {
        "name": "Abaran Jewellers",
        "shop": "jewelry"
      }
    },
    {
      "type": "node",
      "id": 1472808787,
      "lat": 13.0092391,
      "lon": 77.5478152,
      "tags": {
        "amenity": "school",
        "name": "Little Lilly's English School"
      }
    },
    {
      "type": "node",
      "id": 1472808790,
      "lat": 13.004565,
      "lon": 77.549383,
      "tags": {
        "amenity": "kindergarten",
        "name": "Blossom Prenursery"
      }
    },
    {
      "type": "node",
      "id": 1472858745,
      "lat": 13.0043509,
      "lon": 77.5522566,
      "tags": {
        "name": "Sony Showroom",
        "name:kn": "ಸೋನಿ ಶೋ ರೂಮ್",
        "shop": "electronics"
      }
    },
    {
      "type": "node",
      "id": 1472858747,
      "lat": 13.0039955,
      "lon": 77.551299,
      "tags": {
        "name": "Mahalakshmi Liquor Shop",
        "shop": "alcohol"
      }
    },
    {
      "type": "node",
      "id": 1472858748,
      "lat": 13.0045496,
      "lon": 77.5532355,
      "tags": {
        "name": "Shubham Electronics",
        "shop": "electronics"
      }
    },
    {
      "type": "node",
      "id": 1472858749,
      "lat": 13.0044766,
      "lon": 77.5534808,
      "tags": {
        "amenity": "atm",
        "operator": "ABM AMRO ATM"
      }
    },
    {
      "type": "node",
      "id": 1472858753,
      "lat": 13.0042778,
      "lon": 77.551637,
      "tags": {
        "amenity": "marketplace",
        "name": "Philips Arena Showroom"
      }
    },
    {
      "type": "node",
      "id": 1472858755,
      "lat": 13.0039772,
      "lon": 77.5509235,
      "tags": {
        "amenity": "restaurant",
        "name": "Cane Crush",
        "name:kn": "ಕೇನ್ ಕ್ರಶ್"
      }
    },
    {
      "type": "node",
      "id": 1474058047,
      "lat": 12.9997052,
      "lon": 77.54097,
      "tags": {
        "amenity": "place_of_worship",
        "name": "Sri Avani Shankar Mutt"
      }
    },
    {
      "type": "node",
      "id": 1474058074,
      "lat": 13.001119,
      "lon": 77.5411129,
      "tags": {
        "amenity": "school",
        "name": "Gautham College of Nursing"
      }
    },
    {
      "type": "node",
      "id": 1474058080,
      "lat": 13.00091,
      "lon": 77.5412684,
      "tags": {
        "amenity": "restaurant",
        "name": "Hamsa Sagar",
        "name:kn": "ಹಂಸ ಸಾಗರ್"
      }
    },
    {
      "type": "node",
      "id": 1474058087,
      "lat": 13.0000789,
      "lon": 77.5409358,
      "tags": {
        "amenity": "school",
        "name": "Anupama English School"
      }
    },
    {
      "type": "node",
      "id": 1474819884,
      "lat": 12.997825,
      "lon": 77.5499844,
      "tags": {
        "addr:city": "Bangalore",
        "addr:housenumber": "5",
        "addr:postcode": "560010",
        "addr:street": "Modi Hospital Main Road",
        "amenity": "restaurant",
        "cuisine": "regional",
        "delivery": "yes",
        "name": "Swati Deluxe",
        "name:kn": "ಸ್ವಾತಿ ಡಿಲಕ್ಸ್",
        "opening_hours": "11:30-16:00,18:30-21:00",
        "phone": "+(91)-80-23595565",
        "phone_1": "23597075",
        "phone_2": "23498074"
      }
    },
    {
      "type": "node",
      "id": 1474819888,
      "lat": 12.998275,
      "lon": 77.550863,
      "tags": {
        "addr:city": "Bangalore",
        "addr:housenumber": "399/34",
        "addr:postcode": "560010",
        "addr:street": "19th Main (Goorur Ramaswamy Iyengar Road)",
        "air_conditioning": "no",
        "alt_name": "Udipi Brahmin's Cafe",
        "amenity": "restaurant",
        "cuisine": "regional",
        "delivery": "yes",
        "diet:halal": "no",
        "diet:vegan": "yes",
        "diet:vegetarian": "only",
        "indoor_seating": "yes",
        "name": "Gokul Vegetarian",
        "name:kn": "ಗೋಕುಲ್ ವೆಜಿಟೆರಿಯನ್",
        "opening_hours": "11:00-22:30",
        "outdoor_seating": "no",
        "payment:credit_cards": "yes",
        "payment:debit_cards": "yes",
        "phone": "+91 80 2342 3955",
        "phone_1": "+91 9741116699",
        "smoking": "no",
        "wheelchair": "no"
      }
    },
    {
      "type": "node",
      "id": 1474819889,
      "lat": 12.9980255,
      "lon": 77.5499457,
      "tags": {
        "name": "My Looks",
        "shop": "clothes"
      }
    },
    {
      "type": "node",
      "id": 1474819897,
      "lat": 12.9995223,
      "lon": 77.5505328,
      "tags": {
        "addr:city": "Bengaluru",
        "addr:country": "IN",
        "addr:district": "Bengaluru Urban",
        "addr:full": "Old 389, New 46, 19th Main, 1st Block, Rajaji Nagar",
        "addr:hamlet": "Rajajinagar 1st Block",
        "addr:housenumber": "46",
        "addr:postcode": "560010",
        "addr:state": "Karnataka",
        "addr:street": "19th Cross Road",
        "amenity": "hospital",
        "healthcare": "hospital",
        "name": "Vasan Eye Care Hospital, Rajaji Nagar",
        "source": "OpenGovernmentData",
        "wheelchair": "no"
      }
    },
    {
      "type": "node",
      "id": 1474819898,
      "lat": 12.9998205,
      "lon": 77.55045,
      "tags": {
        "addr:district": "Bengaluru Urban",
        "addr:full": "No.389/44, 19th Main, 1st Block, Rajajinagar",
        "addr:postcode": "560010",
        "addr:state": "Karnataka",
        "amenity": "hospital",
        "contact:email": "enquiries@ananyahospital.org",
        "emergency_telephone_code": "080 23527411;09980783835",
        "healthcare": "hospital",
        "healthcare:speciality": "Cardiology;Cosmetology;Dermatology;Diabetology;Emergency Medicine;ENT;Gastroenterology;General Medicine;General Surgery;Internal Medicine;Laparoscopic Surgery;Medical Oncology;Nephrology;Obesity;Obstetricsand Gynaecology",
        "medical_system": "Allopathic",
        "name": "Ananya Hospital",
        "name:kn": "ಅನನ್ಯ ಆಸ್ಪತ್ರೆ",
        "operator:type": "private",
        "source": "https://data.gov.in",
        "website": "www.ananyahospital.org"
      }
    },
    {
      "type": "node",
      "id": 1474819899,
      "lat": 12.998911,
      "lon": 77.5484169,
      "tags": {
        "amenity": "community_centre",
        "name": "Akkamahadevi Kalyana Mantapa",
        "name:kn": "ಅಕ್ಕಮಹಾದೇವಿ ಕಲ್ಯಾಣ ಮಂಟಪ"
      }
    },
    {
      "type": "node",
      "id": 1796500621,
      "lat": 13.0030523,
      "lon": 77.5524729,
      "tags": {
        "amenity": "place_of_worship",
        "name": "Ganesha Temple",
        "name:kn": "ಗಣೇಶ ದೇವಸ್ಥಾನ",
        "religion": "hindu"
      }
    },
    {
      "type": "node",
      "id": 1808814311,
      "lat": 12.9976921,
      "lon": 77.5475818,
      "tags": {
        "amenity": "restaurant",
        "cuisine": "indian",
        "name": "Kadamba Veg",
        "name:kn": "ಕದಂಬ ವೆಜ್"
      }
    },
    {
      "type": "node",
      "id": 1813501242,
      "lat": 12.9989198,
      "lon": 77.552547,
      "tags": {
        "addr:city": "bangalore",
        "addr:housenumber": "5 & 6",
        "addr:postcode": "560010",
        "addr:street": "Dr. Rajkumar Road",
        "amenity": "restaurant",
        "cuisine": "regional",
        "delivery": "yes",
        "name": "Jalpaan",
        "name:kn": "ಜಪ್ಲಾನ್",
        "opening_hours": "12:00-15:30,19:00-23:00",
        "phone": "+91 9591996822",
        "phone_1": "080 41701550",
        "wheelchair": "no"
      }
    },
    {
      "type": "node",
      "id": 1813502850,
      "lat": 12.9993994,
      "lon": 77.5525068,
      "tags": {
        "amenity": "bank",
        "atm": "yes",
        "branch": "Rajajinagar",
        "brand": "Axis Bank",
        "brand:wikidata": "Q2003549",
        "check_date": "2023-01-02",
        "designation": "Axis Bank",
        "fee": "no",
        "name": "Axis Bank",
        "name:kn": "ಆಕ್ಸಿಸ್ ಬ್ಯಾಂಕ್",
        "operator": "Axis Bank",
        "source": "Survey",
        "wheelchair": "no"
      }
    },
    {
      "type": "node",
      "id": 2245719955,
      "lat": 12.9982959,
      "lon": 77.5406241,
      "tags": {
        "name": "Reliance Autozone",
        "shop": "car_parts"
      }
    },
    {
      "type": "node",
      "id": 2268405950,
      "lat": 12.9951284,
      "lon": 77.5386071,
      "tags": {
        "amenity": "place_of_worship",
        "name": "Ganapati Temple",
        "name:kn": "ಗಣಪತಿ ದೇವಸ್ಥಾನ",
        "religion": "hindu"
      }
    },
    {
      "type": "node",
      "id": 2296631913,
      "lat": 12.9977544,
      "lon": 77.5472561,
      "tags": {
        "amenity": "restaurant",
        "cuisine": "indian",
        "name": "New Shanti Sagar"
      }
    },
    {
      "type": "node",
      "id": 2296632108,
      "lat": 12.9985489,
      "lon": 77.5430189,
      "tags": {
        "amenity": "bank",
        "atm": "yes",
        "brand": "Punjab National Bank",
        "brand:wikidata": "Q2743499",
        "brand:wikipedia": "en:Punjab National Bank",
        "name": "Punjab National Bank",
        "name:en": "Punjab National Bank",
        "name:kn": "ಪಂಜಾಬ ರಾಷ್ಟ್ರೀಯ ಬ್ಯಾಂಕ್",
        "short_name": "PNB",
        "website": "https://www.pnbindia.in"
      }
    },
    {
      "type": "node",
      "id": 2296638505,
      "lat": 13.000431,
      "lon": 77.5411664,
      "tags": {
        "amenity": "hospital",
        "emergency": "no",
        "healthcare": "hospital",
        "name": "Krupa Medical center"
      }
    },
    {
      "type": "node",
      "id": 2312659536,
      "lat": 12.9937373,
      "lon": 77.5387345,
      "tags": {
        "name": "KMF - Nandini Milk Parlour",
        "shop": "dairy"
      }
    },
    {
      "type": "node",
      "id": 2504573699,
      "lat": 12.9933829,
      "lon": 77.5389467,
      "tags": {
        "addr:city": "Bangalore",
        "addr:housename": "Basaveshwara Nagar",
        "addr:street": "Siddhaiah Puranik Road",
        "name": "The Planet Fashion",
        "shop": "clothes"
      }
    },
    {
      "type": "node",
      "id": 2504573700,
      "lat": 12.9932739,
      "lon": 77.5388099,
      "tags": {
        "addr:city": "Bangalore",
        "addr:housename": "Basaveshwara Nagar",
        "addr:street": "Siddhaiah Puranik Road",
        "name": "The Raymond Shop",
        "shop": "clothes"
      }
    },
    {
      "type": "node",
      "id": 2504573701,
      "lat": 12.9922983,
      "lon": 77.5384739,
      "tags": {
        "addr:city": "Bangalore",
        "addr:housename": "Near 8th Main, Basaveshwara Nagar",
        "addr:street": "Siddhaiah Puranik Road",
        "name": "World of Titan",
        "shop": "watches"
      }
    },
    {
      "type": "node",
      "id": 2504573702,
      "lat": 12.9917539,
      "lon": 77.5383401,
      "tags": {
        "addr:city": "Bangalore",
        "addr:housename": "Near 8th Main, Basaveshwara Nagar",
        "addr:street": "Siddhaiah Puranik Road",
        "name": "Titan Eye+",
        "shop": "eye_care"
      }
    },
    {
      "type": "node",
      "id": 2504573703,
      "lat": 12.9923206,
      "lon": 77.5384859,
      "tags": {
        "addr:city": "Bangalore",
        "addr:housename": "Above World of Titan, Basaveshwara Nagar",
        "addr:postcode": "560079",
        "addr:street": "Siddhaiah Puranik Road",
        "brand": "Gold's Gym",
        "brand:wikidata": "Q1536234",
        "leisure": "fitness_centre",
        "name": "Gold's Gym",
        "name:kn": "ಗೊಲ್ಡ್ಸ್ ಜಿಮ್"
      }
    },
    {
      "type": "node",
      "id": 2504573704,
      "lat": 12.9919077,
      "lon": 77.5384055,
      "tags": {
        "addr:city": "Bangalore",
        "addr:housename": "Near 8th Main, Basaveshwara Nagar",
        "addr:postcode": "560079",
        "addr:street": "Siddhaiah Puranik Road",
        "name": "Wrangler Jeans",
        "shop": "clothes"
      }
    },
    {
      "type": "node",
      "id": 2504573705,
      "lat": 12.9919338,
      "lon": 77.5384148,
      "tags": {
        "addr:city": "Bangalore",
        "addr:housename": "Near 8th Main, Basaveshwara Nagar",
        "addr:postcode": "560079",
        "addr:street": "Siddhaiah Puranik Road",
        "name": "Lee Jeans",
        "shop": "clothes"
      }
    },
    {
      "type": "node",
      "id": 2505742912,
      "lat": 12.9927023,
      "lon": 77.5386456,
      "tags": {
        "addr:city": "Bangalore",
        "addr:housename": "Near Panacea Hospital, Basaweshwara Nagar",
        "addr:postcode": "560079",
        "addr:street": "Siddhaiah Puranik Road",
        "clothes": "women;children;underwear;lingerie;babies",
        "name": "Datta Garments",
        "shop": "clothes"
      }
    },
    {
      "type": "node",
      "id": 2531808714,
      "lat": 12.9985477,
      "lon": 77.5510414,
      "tags": {
        "amenity": "restaurant",
        "cuisine": "regional",
        "name": "New Prashanth Hotel",
        "name:kn": "ಪ್ರಶಾಂತ್ ಹೋಟೆಲ್",
        "user_defined": "Restaurant",
        "wheelchair": "no"
      }
    },
    {
      "type": "node",
      "id": 3391133322,
      "lat": 13.0041482,
      "lon": 77.5498362,
      "tags": {
        "name": "Eshwari Matching Center",
        "shop": "clothes"
      }
    },
    {
      "type": "node",
      "id": 4007480961,
      "lat": 12.991837,
      "lon": 77.5376289,
      "tags": {
        "air_conditioning": "yes",
        "amenity": "fast_food",
        "brand": "Domino's",
        "brand:ks": "ڈومینوز",
        "brand:pa": "ਡੋਮੀਨੋਜ਼",
        "brand:ur": "ڈومینوز",
        "brand:wikidata": "Q839466",
        "brand:wikipedia": "en:Domino's Pizza",
        "cuisine": "pizza",
        "delivery": "yes",
        "internet_access": "no",
        "name": "Domino's",
        "name:kn": "ಡಾಮಿನೋಸ್",
        "name:ks": "ڈومینوز",
        "name:pa": "ਡੋਮੀਨੋਜ਼",
        "name:ur": "ڈومینوز",
        "opening_hours": "Mo-Su 10:00-01:00",
        "outdoor_seating": "no",
        "smoking": "no",
        "takeaway": "yes",
        "wheelchair": "no"
      }
    },
    {
      "type": "node",
      "id": 4007498897,
      "lat": 12.9918631,
      "lon": 77.5375645,
      "tags": {
        "leisure": "sports_centre",
        "name": "Talwarkars",
        "sport": "fitness"
      }
    },
    {
      "type": "node",
      "id": 4073175527,
      "lat": 12.9919453,
      "lon": 77.5372687,
      "tags": {
        "amenity": "bank",
        "atm": "yes",
        "brand": "Canara Bank",
        "brand:en": "Canara Bank",
        "brand:hi": "केनरा बैंक",
        "brand:kn": "ಕೆನರಾ ಬ್ಯಾಂಕ್",
        "brand:pa": "ਕੇਨਰਾ ਬੈਂਕ",
        "brand:pnb": "کینرا بینک",
        "brand:ur": "کینرا بینک",
        "brand:wikidata": "Q2003777",
        "brand:wikipedia": "en:Canara Bank",
        "brand:wikipedia:pa": "ਕੇਨਰਾ ਬੈਂਕ",
        "name": "Canara Bank",
        "name:en": "Canara Bank",
        "name:hi": "केनरा बैंक",
        "name:kn": "ಕೆನರಾ ಬ್ಯಾಂಕ್",
        "name:pa": "ਕੇਨਰਾ ਬੈਂਕ",
        "name:pnb": "کینرا بینک",
        "name:ur": "کینرا بینک",
        "website": "https://www.canarabank.com/"
      }
    },
    {
      "type": "node",
      "id": 4073175530,
      "lat": 12.9936274,
      "lon": 77.5390358,
      "tags": {
        "name": "Levi Jeans",
        "shop": "clothes"
      }
    },
    {
      "type": "node",
      "id": 4073175531,
      "lat": 12.9934693,
      "lon": 77.538962,
      "tags": {
        "addr:city": "Bangalore",
        "addr:housename": "3rd Stage, 4th Block, Basaveshwaranagar",
        "addr:housenumber": "338",
        "addr:postcode": "79",
        "addr:street": "1st Cross Road",
        "brand": "Manyavar",
        "brand:wikidata": "Q24906783",
        "name": "Manyavar",
        "name:kn": "ಮಾನ್ಯವಾರ್",
        "phone": "+91 80 41211180",
        "shop": "clothes",
        "website": "https://www.manyavar.com/"
      }
    },
    {
      "type": "node",
      "id": 4194066092,
      "lat": 13.0042893,
      "lon": 77.5513853,
      "tags": {
        "addr:housenumber": "No 14, 10th",
        "addr:street": "Vidhya Vardhaka Sangha Road",
        "email": "rjnpremium@adishwarindia.com",
        "internet_access": "wlan",
        "name": "Adishwar India Limited",
        "name:kn": "ಅದಿಶ್ವರ್ ಇಂಡಿಯಾ ಲಿಮಿಟೆಡ್",
        "opening_hours": "Mo-Su 10:00-22:00",
        "phone": "080-41610910",
        "shop": "electronics",
        "website": "https://www.adishwarestore.com/"
      }
    },
    {
      "type": "node",
      "id": 4382905015,
      "lat": 12.9989255,
      "lon": 77.5489709,
      "tags": {
        "amenity": "fast_food",
        "cuisine": "indian",
        "name": "Appu's Kitchen",
        "opening_hours": "8:00-3:00"
      }
    },
    {
      "type": "node",
      "id": 4382905016,
      "lat": 12.9992855,
      "lon": 77.5495195,
      "tags": {
        "amenity": "restaurant",
        "name": "Sarayu Fine Dine"
      }
    },
    {
      "type": "node",
      "id": 4382905017,
      "lat": 12.9992349,
      "lon": 77.5495341,
      "tags": {
        "addr:city": "Bangalore",
        "addr:housenumber": "46",
        "addr:postcode": "560010",
        "addr:street": "Chord Road",
        "brand": "Snap Fitness",
        "brand:wikidata": "Q7547254",
        "brand:wikipedia": "en:Snap Fitness",
        "leisure": "fitness_centre",
        "name": "Snap Fitness",
        "opening_hours": "6:00-21:00",
        "phone": "8065651050",
        "website": "www.snapfitnessindia.com"
      }
    },
    {
      "type": "node",
      "id": 4382905021,
      "lat": 13.0016723,
      "lon": 77.5506179,
      "tags": {
        "addr:floor": "0",
        "addr:housenumber": "144/39",
        "addr:postcode": "560010",
        "addr:street": "11th Cross Road",
        "air_conditioning": "no",
        "building:levels": "0",
        "check_date": "2025-01-05",
        "currency:INR": "yes",
        "diet:dairy": "yes",
        "diet:ovo_vegetarian": "yes",
        "diet:vegan": "yes",
        "diet:vegetarian": "yes",
        "internet_access": "no",
        "level": "0",
        "name": "New Akshaya Mini Bazaar",
        "opening_hours": "Mo-Su 08:00-22:00",
        "organic": "yes",
        "payment:cash": "yes",
        "payment:credit_cards": "yes",
        "payment:debit_cards": "yes",
        "phone": "+91 87620 59892",
        "second_hand": "no",
        "shop": "supermarket",
        "source": "local knowledge",
        "stroller": "limited",
        "toilets": "no",
        "toilets:wheelchair": "no",
        "wheelchair": "limited"
      }
    },
    {
      "type": "node",
      "id": 4382905023,
      "lat": 13.0038504,
      "lon": 77.5534613,
      "tags": {
        "amenity": "fast_food",
        "brand": "Domino's",
        "brand:ks": "ڈومینوز",
        "brand:pa": "ਡੋਮੀਨੋਜ਼",
        "brand:ur": "ڈومینوز",
        "brand:wikidata": "Q839466",
        "brand:wikipedia": "en:Domino's Pizza",
        "cuisine": "pizza",
        "name": "Domino's",
        "name:kn": "ಡಾಮಿನೋಸ್",
        "name:ks": "ڈومینوز",
        "name:pa": "ਡੋਮੀਨੋਜ਼",
        "name:ur": "ڈومینوز",
        "takeaway": "yes"
      }
    },
    {
      "type": "node",
      "id": 4383592315,
      "lat": 12.9977051,
      "lon": 77.5495154,
      "tags": {
        "addr:city": "Bangalore",
        "addr:housenumber": "16",
        "addr:postcode": "560086",
        "addr:street": "Modi Hospital Main Road",
        "name": "Parmar",
        "phone": "+(91)-80-23496604",
        "phone_1": "+(91)-9448492269",
        "shop": "stationery"
      }
    },
    {
      "type": "node",
      "id": 4383686517,
      "lat": 12.9988718,
      "lon": 77.5498125,
      "tags": {
        "amenity": "pharmacy",
        "healthcare": "pharmacy",
        "name": "Universal Pharma"
      }
    },
    {
      "type": "node",
      "id": 4383686518,
      "lat": 12.9993009,
      "lon": 77.54958,
      "tags": {
        "brand": "Tata",
        "brand:wikidata": "Q188514",
        "name": "Tata",
        "shop": "car"
      }
    },
    {
      "type": "node",
      "id": 4383686519,
      "lat": 13.0038472,
      "lon": 77.5495336,
      "tags": {
        "addr:floor": "2",
        "addr:postcode": "560010",
        "air_conditioning": "yes",
        "check_date": "2024-01-10",
        "currency:INR": "yes",
        "internet_access": "no",
        "level": "2",
        "name": "Malabar Jewellers",
        "payment:cash": "yes",
        "payment:credit_cards": "yes",
        "payment:debit_cards": "yes",
        "second_hand": "no",
        "shop": "jewelry",
        "source": "local knowledge",
        "stroller": "limited",
        "wheelchair": "no"
      }
    },
    {
      "type": "node",
      "id": 4388957776,
      "lat": 13.0122683,
      "lon": 77.5534545,
      "tags": {
        "name": "Reliance Smart Bazaar",
        "name:kn": "ಬಿಗ್ ಬಜಾರ್",
        "shop": "supermarket"
      }
    },
    {
      "type": "node",
      "id": 4391574432,
      "lat": 13.0022573,
      "lon": 77.5531469,
      "tags": {
        "name": "Sugama Tourism",
        "shop": "travel_agency"
      }
    },
    {
      "type": "node",
      "id": 4446256785,
      "lat": 13.0044548,
      "lon": 77.5493716,
      "tags": {
        "addr:city": "bangalore",
        "addr:postcode": "560010",
        "addr:street": "19th Main, 9th Cross, 1st Block,Rajajinagar,",
        "amenity": "restaurant",
        "cuisine": "regional",
        "diet:vegetarian": "yes",
        "name": "Aramane Hotel",
        "opening_hours": "07:00-22:00",
        "phone": "+91 9986626663"
      }
    },
    {
      "type": "node",
      "id": 4446314013,
      "lat": 12.999247,
      "lon": 77.5495939,
      "tags": {
        "addr:city": "Bengaluru",
        "addr:housenumber": "46",
        "addr:postcode": "560086",
        "addr:street": "10th Cross Road",
        "addr:suburb": "Rajajinagar",
        "amenity": "restaurant",
        "delivery": "no",
        "name": "Dwinks Gastropub",
        "reservation": "recommended",
        "takeaway": "yes"
      }
    },
    {
      "type": "node",
      "id": 4446987473,
      "lat": 12.9985585,
      "lon": 77.5476618,
      "tags": {
        "addr:city": "bangalore",
        "addr:housenumber": "2941/5,",
        "addr:postcode": "560010",
        "addr:street": "Mahakavi Kuvempu Road, 2nd Stage, Rajajinagar",
        "amenity": "pharmacy",
        "healthcare": "pharmacy",
        "name": "Health Shopee by Manjushree Medicals",
        "phone": "+91 98861 14333",
        "source": "www.justdial.com"
      }
    },
    {
      "type": "node",
      "id": 4447009524,
      "lat": 12.9984229,
      "lon": 77.5403887,
      "tags": {
        "addr:city": "Bangalore",
        "addr:housenumber": "877",
        "addr:postcode": "560010",
        "addr:street": "Dr. Modi Hospital Road, 2nd stage extension",
        "amenity": "hospital",
        "name": "Pristine Hospital",
        "name:kn": "ಪ್ರಿಸ್ಟೀನ್ ಆಸ್ಪತ್ರೆ",
        "phone": "+9180 4135 4444",
        "source": "www.justdial.com",
        "website": "pristinehospitals.com"
      }
    },
    {
      "type": "node",
      "id": 4447018781,
      "lat": 13.0064642,
      "lon": 77.5488867,
      "tags": {
        "addr:city": "bangalore",
        "addr:postcode": "560010",
        "addr:street": "1st 'R' Block, Near Mahalakshmi Layout Entrance",
        "amenity": "pharmacy",
        "name": "Pathocon Diagnostics",
        "phone": "+9180 2347 6990",
        "source": "www.justdial.com",
        "website": "https://www.pathocondiagnostics.com"
      }
    },
    {
      "type": "node",
      "id": 4447073029,
      "lat": 13.0029689,
      "lon": 77.5526666,
      "tags": {
        "addr:city": "bangalore",
        "addr:postcode": "560010",
        "addr:street": "10A Crossroad",
        "amenity": "hospital",
        "healthcare": "hospital",
        "name": "The Family Doctor Malleswaram",
        "phone": "+9180 2337 6262",
        "source": "www.yellowpages.co.in",
        "website": "https://thefamilydoctor.co.in/"
      }
    },
    {
      "type": "node",
      "id": 4447076789,
      "lat": 12.9985137,
      "lon": 77.5523235,
      "tags": {
        "addr:city": "bangalore",
        "addr:housenumber": "28",
        "addr:postcode": "560010",
        "addr:street": "12th Main, Near Navarang Theatre, Rajajinagar, Bengaluru",
        "amenity": "restaurant",
        "cuisine": "regional",
        "indoor_seating": "yes",
        "name": "Hotel Nalapaka",
        "name:kn": "ನಳಪಾಕ",
        "opening_hours": "07:30-15:30,17:00-22:30",
        "outdoor_seating": "yes",
        "phone": "080 2352 3108",
        "phone_1": "+91 9740381399"
      }
    },
    {
      "type": "node",
      "id": 4448781935,
      "lat": 12.998169,
      "lon": 77.5496373,
      "tags": {
        "addr:city": "Bangalore",
        "addr:housenumber": "12",
        "addr:postcode": "560086",
        "addr:street": "1st Main Road",
        "amenity": "bank",
        "brand": "Bank of Baroda",
        "brand:wikidata": "Q2003797",
        "brand:wikipedia": "en:Vijaya Bank",
        "name": "Bank of Baroda",
        "name:kn": "ವಿಜಯ ಬ್ಯಾಂಕು",
        "phone": "+91 80 25584066"
      }
    },
    {
      "type": "node",
      "id": 4453499060,
      "lat": 12.9977215,
      "lon": 77.5488179,
      "tags": {
        "name": "Patel Fancy Store",
        "shop": "stationery"
      }
    },
    {
      "type": "node",
      "id": 4477083305,
      "lat": 12.9977967,
      "lon": 77.5474478,
      "tags": {
        "addr:city": "bangalore",
        "addr:housenumber": "706",
        "addr:postcode": "560086",
        "addr:street": "Modi Hospital Main Road",
        "amenity": "restaurant",
        "cuisine": "italian",
        "delivery": "yes",
        "level": "3",
        "name": "Onesta",
        "phone": "7760714154",
        "takeaway": "yes",
        "website": "https://www.onestalove.com/"
      }
    },
    {
      "type": "node",
      "id": 4484938760,
      "lat": 12.9978014,
      "lon": 77.5491399,
      "tags": {
        "amenity": "toilets"
      }
    },
    {
      "type": "node",
      "id": 4484938761,
      "lat": 13.0042698,
      "lon": 77.5500123,
      "tags": {
        "amenity": "toilets",
        "check_date": "2024-01-27",
        "fee": "yes",
        "wheelchair": "no"
      }
    },
    {
      "type": "node",
      "id": 4484938762,
      "lat": 13.005121,
      "lon": 77.5538043,
      "tags": {
        "amenity": "toilets"
      }
    },
    {
      "type": "node",
      "id": 4484938763,
      "lat": 13.0043687,
      "lon": 77.5524019,
      "tags": {
        "brand": "Samsung",
        "brand:wikidata": "Q20718",
        "brand:wikipedia": "en:Samsung Electronics",
        "name": "Samsung",
        "name:kn": "ಸ್ಯಾಮ್‌ಸಂಗ್",
        "shop": "electronics"
      }
    },
    {
      "type": "node",
      "id": 4484938764,
      "lat": 13.0044499,
      "lon": 77.5530755,
      "tags": {
        "addr:city": "bangalore",
        "addr:housenumber": "34/3",
        "addr:postcode": "560010",
        "addr:street": "Vidhya Vardhaka Sangha Road",
        "amenity": "hospital",
        "healthcare": "hospital",
        "name": "Tamara Hospital & IVF Centre",
        "phone": "+91 80 2337 0780",
        "website": "https://tamarahealthcare.com/"
      }
    },
    {
      "type": "node",
      "id": 4484938765,
      "lat": 13.004338,
      "lon": 77.5520754,
      "tags": {
        "brand": "LG",
        "brand:wikidata": "Q162345",
        "brand:wikipedia": "en:LG Electronics",
        "name": "LG",
        "name:kn": "ಎಲ್ಜಿ ಎಲೆಕ್ಟ್ರಾನಿಕ್ಸ್",
        "shop": "electronics"
      }
    },
    {
      "type": "node",
      "id": 4484938766,
      "lat": 13.0040428,
      "lon": 77.5519822,
      "tags": {
        "brand": "Cromā",
        "brand:wikidata": "Q5187683",
        "name": "Cromā",
        "name:kn": "ಕ್ರೋಮ",
        "shop": "electronics"
      }
    },
    {
      "type": "node",
      "id": 4488058690,
      "lat": 13.0041656,
      "lon": 77.5533333,
      "tags": {
        "addr:city": "bangalore",
        "addr:housenumber": "60/A",
        "addr:postcode": "560010",
        "addr:street": "Ground Floor, 1st & 2nd Shop, Dr Rajkumar Road, 1st 'N' Block, Rajajinagar, 1st Block, Rajaji Nagar",
        "name": "Sri Kadamba Sports And Fittness",
        "opening_hours": "10:00-21:30",
        "phone": "+9178291 33583",
        "shop": "sports"
      }
    },
    {
      "type": "node",
      "id": 4488432291,
      "lat": 12.9925827,
      "lon": 77.5372971,
      "tags": {
        "addr:city": "Bangalore",
        "addr:housenumber": "354/355",
        "addr:postcode": "560079",
        "addr:street": "Kamla Nehru Nagar Main Road, West of Court Road, 4th Stage, 8th Main, 4th Block, Near Dominos,, Bhadrappa Layout, Basaveshwar Nagar",
        "branch": "Better Value Fitness Ltd",
        "brand": "Talkwalkars",
        "brand:wikidata": "Q7680402",
        "leisure": "fitness_centre",
        "name": "Talwalkars",
        "opening_hours": "5:30-22:00",
        "phone": "080 4206 0686",
        "sport": "gymnastics"
      }
    },
    {
      "type": "node",
      "id": 4489232255,
      "lat": 13.0042886,
      "lon": 77.5536072,
      "tags": {
        "addr:city": "bangalore",
        "addr:housenumber": "60/A",
        "addr:postcode": "560010",
        "addr:street": "Ground Floor, 1st & 2nd Shop, Dr Rajkumar Road, 1st 'N' Block, Rajajinagar, 1st Block, Rajaji Nagar",
        "name": "Kadamba Sports & Fitness",
        "opening_hours": "10:30-21:00",
        "phone": "+917829133583",
        "shop": "sports"
      }
    },
    {
      "type": "node",
      "id": 4489849129,
      "lat": 12.9980214,
      "lon": 77.5495463,
      "tags": {
        "addr:city": "Bangalore",
        "addr:housenumber": "Sri Gururagavendra Complex, Rajajinaga",
        "addr:postcode": "560010",
        "addr:street": "Modi Hospital Main Road",
        "leisure": "sports_centre",
        "name": "Magic Feel Beauty",
        "opening_hours": "10:00-21:30",
        "phone": "91)-80-23119993"
      }
    },
    {
      "type": "node",
      "id": 4490247190,
      "lat": 13.0021514,
      "lon": 77.5530417,
      "tags": {
        "addr:city": "bangalore",
        "addr:housenumber": "No. 2nd Floor",
        "addr:postcode": "560010",
        "addr:street": "Above Kadamba Sports, Bangalore 560010, 140, Dr Rajkumar Rd, 1st Block, Rajaji Nagar, Bengaluru, Karnataka",
        "leisure": "sports_centre",
        "name": "Quadz Fitness",
        "opening_hours": "5:00-21:00",
        "phone": "8884673332"
      }
    },
    {
      "type": "node",
      "id": 4490315583,
      "lat": 12.9920853,
      "lon": 77.5375849,
      "tags": {
        "addr:city": "Bangalore",
        "addr:housenumber": "No,461/A,",
        "addr:postcode": "560079",
        "addr:street": "Basaveshvanagar Main Road, Basaveshwara Nagar,",
        "name": "Shobas Herbal Beauty Parlour",
        "opening_hours": "10:00-20:00",
        "phone": "91)-80-33761193",
        "shop": "beauty"
      }
    },
    {
      "type": "node",
      "id": 4509818407,
      "lat": 12.9957925,
      "lon": 77.5356897,
      "tags": {
        "amenity": "car_wash",
        "name": "Quicky Clean Car Wash"
      }
    },
    {
      "type": "node",
      "id": 4528688849,
      "lat": 12.9978601,
      "lon": 77.5495201,
      "tags": {
        "amenity": "atm"
      }
    },
    {
      "type": "node",
      "id": 4528688850,
      "lat": 12.9981241,
      "lon": 77.5495926,
      "tags": {
        "amenity": "atm"
      }
    },
    {
      "type": "node",
      "id": 4559831520,
      "lat": 12.9977049,
      "lon": 77.5482864,
      "tags": {
        "addr:city": "Bangalore",
        "addr:housenumber": "712",
        "addr:postcode": "560086",
        "addr:street": "Modi Hospital Main Road",
        "name": "Shree Venkateshwara Traders",
        "phone": "9036092531",
        "shop": "hardware"
      }
    },
    {
      "type": "node",
      "id": 4577564293,
      "lat": 12.9921093,
      "lon": 77.5380224,
      "tags": {
        "amenity": "doctors",
        "name": "Shastra",
        "name:en": "Shastra"
      }
    },
    {
      "type": "node",
      "id": 4581424990,
      "lat": 12.9988676,
      "lon": 77.5502861,
      "tags": {
        "addr:city": "Bangalore",
        "addr:housenumber": "68",
        "addr:postcode": "560010",
        "addr:street": "Chord Road",
        "name": "Damro Furniture",
        "opening_hours": "9:30-21:00",
        "phone": "+91 80 6999 9300",
        "shop": "furniture",
        "website": "https://damroindia.com"
      }
    },
    {
      "type": "node",
      "id": 4590779232,
      "lat": 13.0011521,
      "lon": 77.5502895,
      "tags": {
        "addr:city": "bangalore",
        "addr:housenumber": "382",
        "addr:postcode": "560010",
        "addr:street": "19th Main (Goorur Ramaswamy Iyengar Road)",
        "name": "Dhanlakshmi Kitchen World",
        "opening_hours": "10:30 - 21:00",
        "phone": "080 4128 5801",
        "shop": "houseware"
      }
    },
    {
      "type": "node",
      "id": 4590779233,
      "lat": 13.001507,
      "lon": 77.5502669,
      "tags": {
        "name": "Manish Tailors",
        "shop": "tailor"
      }
    },
    {
      "type": "node",
      "id": 4595634973,
      "lat": 13.0037755,
      "lon": 77.5492444,
      "tags": {
        "amenity": "toilets"
      }
    },
    {
      "type": "node",
      "id": 4597818303,
      "lat": 12.9982685,
      "lon": 77.5476352,
      "tags": {
        "addr:city": "Bangalore",
        "addr:postcode": "560086",
        "addr:street": "9th A Cross Road",
        "amenity": "kindergarten",
        "name": "Kangaroo Kids Preschool"
      }
    },
    {
      "type": "node",
      "id": 4597818305,
      "lat": 12.9979863,
      "lon": 77.546329,
      "tags": {
        "name": "Raagam Digital Photo Studio",
        "shop": "photo"
      }
    },
    {
      "type": "node",
      "id": 4597818306,
      "lat": 12.9979157,
      "lon": 77.5464283,
      "tags": {
        "shop": "copyshop"
      }
    },
    {
      "type": "node",
      "id": 4597818307,
      "lat": 12.9981587,
      "lon": 77.5465007,
      "tags": {
        "amenity": "bank",
        "name": "Janatha Co-Operative Bank"
      }
    },
    {
      "type": "node",
      "id": 4597818308,
      "lat": 12.9992093,
      "lon": 77.5463437,
      "tags": {
        "amenity": "toilets"
      }
    },
    {
      "type": "node",
      "id": 4597831686,
      "lat": 13.0016695,
      "lon": 77.5504554,
      "tags": {
        "addr:postcode": "560010",
        "air_conditioning": "no",
        "brand": "Nandini",
        "building:levels": "0",
        "check_date": "2023-12-23",
        "currency:INR": "yes",
        "internet_access": "no",
        "name": "Thengu Mane",
        "operator": "Nandini",
        "payment:cash": "yes",
        "payment:credit_cards": "yes",
        "payment:debit_cards": "yes",
        "second_hand": "no",
        "shop": "dairy",
        "source": "local knowledge",
        "stroller": "limited",
        "toilets": "no",
        "toilets:wheelchair": "no",
        "wheelchair": "limited"
      }
    },
    {
      "type": "node",
      "id": 4597831687,
      "lat": 13.0022575,
      "lon": 77.5521631,
      "tags": {
        "alt_name": "Goli Vada Pav No.1",
        "amenity": "fast_food",
        "brand": "Goli Vada Pav",
        "brand:wikidata": "Q5580697",
        "cuisine": "indian",
        "name": "Goli Vada Pav",
        "takeaway": "yes"
      }
    },
    {
      "type": "node",
      "id": 4597833389,
      "lat": 12.9984887,
      "lon": 77.5504219,
      "tags": {
        "addr:district": "Bengaluru Urban",
        "addr:full": "No. 408, 20Th Main, 1st Block,Opp Swathi Hotel, Woc Road, Rajajinagar",
        "addr:postcode": "560010",
        "addr:state": "Karnataka",
        "amenity": "hospital",
        "healthcare": "hospital",
        "healthcare:speciality": "orthopaedics",
        "name": "Cauvery Orthopaedic Centre",
        "source": "OpenGovernmentData"
      }
    },
    {
      "type": "node",
      "id": 4599733255,
      "lat": 13.0017154,
      "lon": 77.5507797,
      "tags": {
        "addr:city": "Bengaluru",
        "addr:country": "IN",
        "addr:district": "Bengaluru Urban",
        "addr:floor": "0",
        "addr:hamlet": "Rajajinagar 1st Block",
        "addr:housenumber": "38",
        "addr:postcode": "560010",
        "addr:street": "11th Cross Road",
        "amenity": "pharmacy",
        "check_date": "2023-12-23",
        "dispensing": "no",
        "drive_through": "no",
        "healthcare": "pharmacy",
        "internet_access": "no",
        "level": "0",
        "name": "SS Pharma & Surgicals",
        "opening_hours": "Mo-Su 09:00-22:30",
        "payment:cash": "yes",
        "payment:credit_cards": "yes",
        "payment:debit_cards": "yes",
        "source": "local knowledge",
        "wheelchair": "no"
      }
    },
    {
      "type": "node",
      "id": 4599733256,
      "lat": 13.0017261,
      "lon": 77.5508671,
      "tags": {
        "addr:floor": "0",
        "amenity": "bank",
        "atm": "yes",
        "brand": "Punjab National Bank",
        "brand:wikidata": "Q2743499",
        "brand:wikipedia": "en:Punjab National Bank",
        "check_date": "2024-02-04",
        "currency:INR": "yes",
        "drive_through": "no",
        "internet_access": "no",
        "level": "0",
        "name": "Punjab National Bank",
        "name:en": "Punjab National Bank",
        "name:kn": "ಪಂಜಾಬ ರಾಷ್ಟ್ರೀಯ ಬ್ಯಾಂಕ್",
        "short_name": "PNB",
        "source": "local knowledge",
        "website": "https://www.pnbindia.in/",
        "wheelchair": "no"
      }
    },
    {
      "type": "node",
      "id": 4599733258,
      "lat": 13.0023588,
      "lon": 77.5528147,
      "tags": {
        "amenity": "fast_food",
        "cuisine": "indian"
      }
    },
    {
      "type": "node",
      "id": 4599733259,
      "lat": 13.0038982,
      "lon": 77.5534338,
      "tags": {
        "amenity": "dentist",
        "healthcare": "dentist",
        "name": "Braces and Faces"
      }
    },
    {
      "type": "node",
      "id": 4716286889,
      "lat": 12.9989452,
      "lon": 77.5497945,
      "tags": {
        "amenity": "clinic",
        "healthcare": "clinic",
        "name": "Sree Clinic and Laboratory"
      }
    },
    {
      "type": "node",
      "id": 4763212134,
      "lat": 13.008043,
      "lon": 77.548444,
      "tags": {
        "amenity": "atm",
        "brand": "Canara Bank",
        "brand:en": "Canara Bank",
        "brand:hi": "केनरा बैंक",
        "brand:kn": "ಕೆನರಾ ಬ್ಯಾಂಕ್",
        "brand:pa": "ਕੇਨਰਾ ਬੈਂਕ",
        "brand:pnb": "کینرا بینک",
        "brand:ur": "کینرا بینک",
        "brand:wikidata": "Q2003777",
        "brand:wikipedia": "en:Canara Bank",
        "brand:wikipedia:pa": "ਕੇਨਰਾ ਬੈਂਕ",
        "name": "Canara Bank",
        "name:en": "Canara Bank",
        "name:hi": "केनरा बैंक",
        "name:kn": "ಕೆನರಾ ಬ್ಯಾಂಕ್",
        "name:pa": "ਕੇਨਰਾ ਬੈਂਕ",
        "name:pnb": "کینرا بینک",
        "name:ur": "کینرا بینک",
        "operator": "Canara Bank",
        "operator:wikidata": "Q2003777"
      }
    },
    {
      "type": "node",
      "id": 4975005036,
      "lat": 12.9977103,
      "lon": 77.5483913,
      "tags": {
        "name": "Aruna Silks",
        "shop": "clothes"
      }
    },
    {
      "type": "node",
      "id": 4975005042,
      "lat": 12.9977093,
      "lon": 77.5495591,
      "tags": {
        "name": "New Feet Fashion",
        "shop": "shoes"
      }
    },
    {
      "type": "node",
      "id": 4975005043,
      "lat": 12.9983605,
      "lon": 77.5491093,
      "tags": {
        "amenity": "fast_food",
        "name": "Manjunath Gobi Corner"
      }
    },
    {
      "type": "node",
      "id": 4975005044,
      "lat": 12.9993056,
      "lon": 77.5494692,
      "tags": {
        "amenity": "juice_bar",
        "cuisine": "juice",
        "name": "Juice Adda",
        "name:kn": "ಜೂಸ್ ಅಡ್ಡ"
      }
    },
    {
      "type": "node",
      "id": 5036023484,
      "lat": 13.0022241,
      "lon": 77.5503743,
      "tags": {
        "name": "Pavan Fancy Store",
        "shop": "clothes"
      }
    },
    {
      "type": "node",
      "id": 5061380651,
      "lat": 12.9982067,
      "lon": 77.5499224,
      "tags": {
        "amenity": "bank",
        "brand": "United Bank of India",
        "brand:wikidata": "Q2003237",
        "name": "United Bank of India"
      }
    },
    {
      "type": "node",
      "id": 5061380652,
      "lat": 12.9977674,
      "lon": 77.5499952,
      "tags": {
        "amenity": "ice_cream",
        "name": "Cream House"
      }
    },
    {
      "type": "node",
      "id": 5076442467,
      "lat": 13.0018615,
      "lon": 77.5506272,
      "tags": {
        "name": "V Stitch",
        "shop": "clothes"
      }
    },
    {
      "type": "node",
      "id": 5076442468,
      "lat": 13.0016822,
      "lon": 77.550534,
      "tags": {
        "name": "Lahari Boutiques",
        "shop": "clothes"
      }
    },
    {
      "type": "node",
      "id": 5076490520,
      "lat": 13.0016786,
      "lon": 77.5503911,
      "tags": {
        "name": "Nandini Milk Booth",
        "name:kn": "ನಂದಿನಿ ಹಾಲಿನ ಅಂಗಡಿ",
        "shop": "dairy"
      }
    },
    {
      "type": "node",
      "id": 5076491222,
      "lat": 13.0005913,
      "lon": 77.5506192,
      "tags": {
        "name": "Mobile Aramane",
        "shop": "mobile_phone"
      }
    },
    {
      "type": "node",
      "id": 5076791290,
      "lat": 12.9977034,
      "lon": 77.5486648,
      "tags": {
        "name": "Navkar Jewels and Diamonds",
        "phone": "80-23190002",
        "shop": "jewelry"
      }
    },
    {
      "type": "node",
      "id": 5076791291,
      "lat": 12.997702,
      "lon": 77.5485734,
      "tags": {
        "name": "Grand Bell Dry Cleaner",
        "phone": "9900901141",
        "shop": "dry_cleaning"
      }
    },
    {
      "type": "node",
      "id": 5076861311,
      "lat": 12.9976818,
      "lon": 77.5468391,
      "tags": {
        "brand": "Kanti Sweets",
        "craft": "confectionery",
        "name": "Kanti Sweets",
        "shop": "confectionery"
      }
    },
    {
      "type": "node",
      "id": 5091022372,
      "lat": 12.9995779,
      "lon": 77.5501734,
      "tags": {
        "name": "IFB Point",
        "shop": "appliance"
      }
    },
    {
      "type": "node",
      "id": 5091022373,
      "lat": 12.9977114,
      "lon": 77.5497952,
      "tags": {
        "name": "Bharathi Garments",
        "shop": "clothes"
      }
    },
    {
      "type": "node",
      "id": 5091022374,
      "lat": 12.997704,
      "lon": 77.5494434,
      "tags": {
        "amenity": "fast_food",
        "name": "Nandini Grand"
      }
    },
    {
      "type": "node",
      "id": 5109189323,
      "lat": 13.0039067,
      "lon": 77.5500713,
      "tags": {
        "addr:postcode": "560010",
        "air_conditioning": "no",
        "branch": "Rajajinagar",
        "brand": "Just Bake",
        "building:levels": "0",
        "check_date": "2024-01-10",
        "currency:INR": "yes",
        "internet_access": "no",
        "name": "Just Bake",
        "name:kn": "ಜಸ್ಟ್ ಬೇಕ್",
        "payment:cash": "yes",
        "payment:credit_cards": "yes",
        "payment:debit_cards": "yes",
        "second_hand": "no",
        "shop": "bakery",
        "source": "local knowledge",
        "stroller": "limited",
        "toilets": "no",
        "toilets:wheelchair": "no",
        "wheelchair": "limited"
      }
    },
    {
      "type": "node",
      "id": 5168325353,
      "lat": 13.0014727,
      "lon": 77.5504372,
      "tags": {
        "name": "Motorola Mobile Cafe",
        "shop": "mobile_phone"
      }
    },
    {
      "type": "node",
      "id": 5174994724,
      "lat": 13.0120907,
      "lon": 77.5530866,
      "tags": {
        "name": "Maruti Suzuki Nexa",
        "shop": "car"
      }
    },
    {
      "type": "node",
      "id": 5174994725,
      "lat": 13.011845,
      "lon": 77.5526061,
      "tags": {
        "amenity": "hospital",
        "healthcare": "hospital",
        "name": "NU Hospitals"
      }
    },
    {
      "type": "node",
      "id": 5174994726,
      "lat": 13.0107514,
      "lon": 77.5504102,
      "tags": {
        "name": "Cotton Zone",
        "shop": "clothes"
      }
    },
    {
      "type": "node",
      "id": 5227399588,
      "lat": 12.9982738,
      "lon": 77.5526311,
      "tags": {
        "amenity": "clinic",
        "healthcare": "clinic",
        "name": "Dr. Shetty's Cosmetic Centre"
      }
    },
    {
      "type": "node",
      "id": 5227399589,
      "lat": 12.9983619,
      "lon": 77.5528438,
      "tags": {
        "amenity": "fast_food",
        "check_date": "2024-08-11",
        "name": "Al Ambur Dum Biryani"
      }
    },
    {
      "type": "node",
      "id": 5269220021,
      "lat": 13.0041302,
      "lon": 77.5494448,
      "tags": {
        "name": "Sri Ganesha Medicals",
        "shop": "medical_supply"
      }
    },
    {
      "type": "node",
      "id": 5269220022,
      "lat": 13.0066416,
      "lon": 77.5488104,
      "tags": {
        "amenity": "atm",
        "brand": "ICICI Bank",
        "brand:wikidata": "Q1653258",
        "name": "ICICI Bank",
        "operator": "ICICI Bank",
        "operator:wikidata": "Q1653258",
        "short_name": "ICICI"
      }
    },
    {
      "type": "node",
      "id": 5269220023,
      "lat": 13.0074466,
      "lon": 77.5488708,
      "tags": {
        "amenity": "atm",
        "brand": "Indian Overseas Bank",
        "brand:wikidata": "Q2003611",
        "name": "Indian Overseas Bank",
        "operator": "Indian Overseas Bank",
        "operator:wikidata": "Q2003611"
      }
    },
    {
      "type": "node",
      "id": 5269220024,
      "lat": 13.007491,
      "lon": 77.5488788,
      "tags": {
        "amenity": "atm",
        "brand": "Yes Bank",
        "brand:wikidata": "Q2040394",
        "name": "Yes Bank",
        "name:kn": "ಯಸ್ ಬ್ಯಾಂಕ್",
        "operator": "Yes Bank",
        "operator:wikidata": "Q2040394"
      }
    },
    {
      "type": "node",
      "id": 5269220025,
      "lat": 13.0081104,
      "lon": 77.5490585,
      "tags": {
        "amenity": "atm",
        "brand": "HDFC Bank",
        "brand:wikidata": "Q631047",
        "name": "HDFC Bank",
        "name:kn": "ಎಚ್ ಡಿ ಎಫ್ ಸಿ",
        "operator": "HDFC Bank",
        "operator:wikidata": "Q631047",
        "short_name": "HDFC"
      }
    },
    {
      "type": "node",
      "id": 5269220026,
      "lat": 13.0087675,
      "lon": 77.5491545,
      "tags": {
        "amenity": "atm",
        "brand": "State Bank of India",
        "brand:wikidata": "Q1340361",
        "cash_in": "no",
        "name": "State Bank of India",
        "operator": "State Bank of India",
        "operator:wikidata": "Q1340361",
        "short_name": "SBI"
      }
    },
    {
      "type": "node",
      "id": 5269220028,
      "lat": 13.0118027,
      "lon": 77.5522468,
      "tags": {
        "name": "Mahindra",
        "name:kn": "ಮಹಿಂದ್ರ",
        "shop": "motorcycle"
      }
    },
    {
      "type": "node",
      "id": 5274915541,
      "lat": 12.9978121,
      "lon": 77.5505122,
      "tags": {
        "amenity": "fast_food",
        "brand": "Indira Canteen",
        "brand:wikidata": "Q36164828",
        "cuisine": "south_indian",
        "delivery": "no",
        "drive_through": "no",
        "name": "Indira Canteen",
        "operator": "BBMP",
        "takeaway": "no"
      }
    },
    {
      "type": "node",
      "id": 5274915550,
      "lat": 13.0021777,
      "lon": 77.5528331,
      "tags": {
        "amenity": "fast_food",
        "cuisine": "regional",
        "drive_through": "no",
        "name": "Big Mishra Pedha"
      }
    },
    {
      "type": "node",
      "id": 5277355069,
      "lat": 12.9978198,
      "lon": 77.5488214,
      "tags": {
        "name": "Sri Ranga Silks",
        "shop": "clothes"
      }
    },
    {
      "type": "node",
      "id": 5277355070,
      "lat": 12.997882,
      "lon": 77.5488237,
      "tags": {
        "name": "Marshall Tours n Travels",
        "shop": "travel_agency"
      }
    },
    {
      "type": "node",
      "id": 5277355071,
      "lat": 12.9977063,
      "lon": 77.5486255,
      "tags": {
        "craft": "watchmaker",
        "name": "Timex",
        "shop": "watches"
      }
    },
    {
      "type": "node",
      "id": 5277355077,
      "lat": 12.9982228,
      "lon": 77.5491431,
      "tags": {
        "shop": "dairy"
      }
    },
    {
      "type": "node",
      "id": 5295212532,
      "lat": 13.0101501,
      "lon": 77.549804,
      "tags": {
        "name": "Head and Heels",
        "shop": "hairdresser"
      }
    },
    {
      "type": "node",
      "id": 5295212533,
      "lat": 13.012085,
      "lon": 77.5527865,
      "tags": {
        "name": "Fashion Factory",
        "shop": "clothes"
      }
    },
    {
      "type": "node",
      "id": 5295212534,
      "lat": 13.0121353,
      "lon": 77.5528773,
      "tags": {
        "name": "Enamor",
        "shop": "fashion"
      }
    },
    {
      "type": "node",
      "id": 5351138597,
      "lat": 13.0030661,
      "lon": 77.5518492,
      "tags": {
        "brand": "HOPCOMS",
        "brand:wikidata": "Q22908959",
        "name": "HOPCOMS",
        "name:kn": "ಹಾಪ್ ಕಾಮ್ಸ್",
        "shop": "greengrocer"
      }
    },
    {
      "type": "node",
      "id": 5402224029,
      "lat": 12.9985202,
      "lon": 77.5527956,
      "tags": {
        "amenity": "dentist",
        "healthcare": "dentist"
      }
    },
    {
      "type": "node",
      "id": 5402307932,
      "lat": 13.0046959,
      "lon": 77.5536477,
      "tags": {
        "name": "Aditya",
        "name:kn": "ಅದಿತ್ಯ",
        "shop": "car_parts"
      }
    },
    {
      "type": "node",
      "id": 5412616124,
      "lat": 12.9978134,
      "lon": 77.5464292,
      "tags": {
        "shop": "copyshop"
      }
    },
    {
      "type": "node",
      "id": 5412616125,
      "lat": 12.9976813,
      "lon": 77.546322,
      "tags": {
        "shop": "jewelry"
      }
    },
    {
      "type": "node",
      "id": 5602313540,
      "lat": 13.0019458,
      "lon": 77.5518071,
      "tags": {
        "shop": "jewelry"
      }
    },
    {
      "type": "node",
      "id": 5602313541,
      "lat": 13.0021577,
      "lon": 77.5526639,
      "tags": {
        "amenity": "pharmacy",
        "dispensing": "yes",
        "healthcare": "pharmacy",
        "name": "Sri Banashankari Medicals"
      }
    },
    {
      "type": "node",
      "id": 5602313542,
      "lat": 13.0020532,
      "lon": 77.5523063,
      "tags": {
        "shop": "greengrocer"
      }
    },
    {
      "type": "node",
      "id": 5602313543,
      "lat": 13.0020126,
      "lon": 77.5521886,
      "tags": {
        "amenity": "clinic",
        "healthcare": "clinic"
      }
    },
    {
      "type": "node",
      "id": 5611358757,
      "lat": 12.9976787,
      "lon": 77.5493004,
      "tags": {
        "addr:city": "Bangalore",
        "addr:housenumber": "27",
        "addr:postcode": "560086",
        "addr:street": "Modi Hospital Main Road",
        "brand": "Jockey",
        "brand:wikidata": "Q534235",
        "brand:wikipedia": "en:Jockey International",
        "email": "jockey.B60@pageind.com",
        "name": "Jockey",
        "phone": "+918043006571",
        "shop": "clothes",
        "website": "https://www.jockeyindia.com"
      }
    },
    {
      "type": "node",
      "id": 5825290749,
      "lat": 12.9935806,
      "lon": 77.5390065,
      "tags": {
        "name": "Kushal's Fashion Jewellery",
        "shop": "jewelry"
      }
    },
    {
      "type": "node",
      "id": 5825292845,
      "lat": 12.9939752,
      "lon": 77.5391801,
      "tags": {
        "addr:district": "Bengaluru Urban",
        "addr:full": "565 Iii Stage 4Th Block",
        "addr:postcode": "560079",
        "addr:state": "Karnataka",
        "amenity": "hospital",
        "healthcare": "hospital",
        "healthcare:speciality": "gynaecology",
        "name": "Vathsalya Speciality Hospital",
        "source": "OpenGovernmentData"
      }
    },
    {
      "type": "node",
      "id": 5825297254,
      "lat": 12.9952836,
      "lon": 77.5389682,
      "tags": {
        "level": "-1",
        "name": "Karnataka Medical Store",
        "shop": "medical_supply"
      }
    },
    {
      "type": "node",
      "id": 5825297255,
      "lat": 12.9952954,
      "lon": 77.5391057,
      "tags": {
        "description": "Good quality medicines with discount are available",
        "name": "Medplus",
        "name:kn": "ಮೆಡ್‍ಪ್ಲಸ್",
        "payment:cash": "yes",
        "payment:coins": "yes",
        "payment:credit_cards": "yes",
        "payment:debit_cards": "yes",
        "shop": "medical_supply"
      }
    },
    {
      "type": "node",
      "id": 5825299920,
      "lat": 12.9952764,
      "lon": 77.5390017,
      "tags": {
        "level": "-1",
        "name": "Keerthi Jewellers",
        "shop": "jewelry"
      }
    },
    {
      "type": "node",
      "id": 5825311129,
      "lat": 12.9951449,
      "lon": 77.5396001,
      "tags": {
        "brand": "Peter England",
        "brand:wikidata": "Q19573665",
        "clothes": "men",
        "name": "Peter England",
        "name:kn": "ಪೀಟರ್ ಇಂಗ್ಲೆಂಡ್",
        "shop": "clothes"
      }
    },
    {
      "type": "node",
      "id": 5825318249,
      "lat": 12.9925175,
      "lon": 77.5386168,
      "tags": {
        "brand": "Puma",
        "brand:wikidata": "Q157064",
        "clothes": "women;men;children;sports",
        "level": "0",
        "name": "Puma",
        "name:kn": "ಪೂಮ",
        "payment:cash": "yes",
        "payment:debit_cards": "yes",
        "shop": "clothes"
      }
    },
    {
      "type": "node",
      "id": 5846720763,
      "lat": 12.9918166,
      "lon": 77.5375888,
      "tags": {
        "amenity": "bank",
        "atm": "yes",
        "brand": "Allahabad Bank",
        "brand:wikidata": "Q2018840",
        "name": "Allahabad Bank",
        "name:kn": "ಅಲ್ಲಹಾಬಾದ್ ಬ್ಯಾಂಕ್"
      }
    },
    {
      "type": "node",
      "id": 5846722872,
      "lat": 12.9952391,
      "lon": 77.5388279,
      "tags": {
        "amenity": "atm",
        "operator": "Axis Bank ATM"
      }
    },
    {
      "type": "node",
      "id": 5846740873,
      "lat": 12.995652,
      "lon": 77.5397922,
      "tags": {
        "name": "Mahalakshmi Sweet Center",
        "payment:cash": "yes",
        "payment:coins": "yes",
        "payment:debit_cards": "yes",
        "shop": "bakery"
      }
    },
    {
      "type": "node",
      "id": 5954688579,
      "lat": 13.0000437,
      "lon": 77.550093,
      "tags": {
        "amenity": "fast_food",
        "check_date": "2025-03-18",
        "cuisine": "regional",
        "name": "Sogadu Heritage"
      }
    },
    {
      "type": "node",
      "id": 6001786873,
      "lat": 13.0016761,
      "lon": 77.550501,
      "tags": {
        "name": "Dhanam Creations",
        "shop": "tailor"
      }
    },
    {
      "type": "node",
      "id": 6017445197,
      "lat": 13.0001169,
      "lon": 77.5499562,
      "tags": {
        "amenity": "atm",
        "brand": "State Bank of India",
        "brand:wikidata": "Q1340361",
        "cash_in": "no",
        "layer": "1",
        "level": "1",
        "name": "State Bank of India",
        "operator": "State Bank of India",
        "operator:wikidata": "Q1340361",
        "short_name": "SBI"
      }
    },
    {
      "type": "node",
      "id": 6017445199,
      "lat": 12.9977118,
      "lon": 77.5467135,
      "tags": {
        "amenity": "restaurant",
        "brand": "Empire",
        "cuisine": "indian",
        "delivery": "yes",
        "name": "Empire",
        "name:kn": "ಎಂಪೈರ್",
        "takeaway": "yes"
      }
    },
    {
      "type": "node",
      "id": 6017490877,
      "lat": 12.998341,
      "lon": 77.5488936,
      "tags": {
        "amenity": "bench",
        "backrest": "no",
        "material": "stone",
        "seats": "2"
      }
    },
    {
      "type": "node",
      "id": 6017490878,
      "lat": 12.9983365,
      "lon": 77.5488747,
      "tags": {
        "amenity": "bench",
        "backrest": "no",
        "material": "stone",
        "seats": "2"
      }
    },
    {
      "type": "node",
      "id": 6017490879,
      "lat": 12.9983307,
      "lon": 77.5488551,
      "tags": {
        "amenity": "bench",
        "seats": "2"
      }
    },
    {
      "type": "node",
      "id": 6017490880,
      "lat": 12.998326,
      "lon": 77.5488359,
      "tags": {
        "amenity": "bench",
        "seats": "2"
      }
    },
    {
      "type": "node",
      "id": 6017490881,
      "lat": 12.9983224,
      "lon": 77.548819,
      "tags": {
        "amenity": "bench",
        "backrest": "no",
        "material": "stone",
        "seats": "2"
      }
    },
    {
      "type": "node",
      "id": 6209420987,
      "lat": 12.9976496,
      "lon": 77.5474572,
      "tags": {
        "brand": "Lenskart",
        "brand:wikidata": "Q17068753",
        "level": "0",
        "name": "Lenskart",
        "shop": "optician"
      }
    },
    {
      "type": "node",
      "id": 6284075469,
      "lat": 13.0002762,
      "lon": 77.5500211,
      "tags": {
        "amenity": "restaurant",
        "indoor_seating": "yes",
        "outdoor_seating": "no"
      }
    },
    {
      "type": "node",
      "id": 6508610155,
      "lat": 12.9983548,
      "lon": 77.5489481,
      "tags": {
        "amenity": "bench",
        "backrest": "no",
        "material": "stone",
        "seats": "2"
      }
    },
    {
      "type": "node",
      "id": 6508610156,
      "lat": 12.9983497,
      "lon": 77.5489277,
      "tags": {
        "amenity": "bench",
        "backrest": "no",
        "material": "stone",
        "seats": "2"
      }
    },
    {
      "type": "node",
      "id": 6508610157,
      "lat": 12.9983454,
      "lon": 77.5489095,
      "tags": {
        "amenity": "bench",
        "backrest": "no",
        "material": "stone",
        "seats": "2"
      }
    },
    {
      "type": "node",
      "id": 6508610158,
      "lat": 12.9976732,
      "lon": 77.5490208,
      "tags": {
        "name": "Nandini Milk Parlour",
        "name:kn": "ನಂದಿನಿ ಹಾಲಿನ ಅಂಗಡಿ",
        "shop": "dairy"
      }
    },
    {
      "type": "node",
      "id": 6546848142,
      "lat": 12.9976981,
      "lon": 77.5493842,
      "tags": {
        "name": "Khadim's",
        "shop": "shoes",
        "website": "https://www.khadims.com/"
      }
    },
    {
      "type": "node",
      "id": 6546848143,
      "lat": 12.997802,
      "lon": 77.5492702,
      "tags": {
        "amenity": "bank",
        "atm": "yes",
        "brand": "ICICI Bank",
        "brand:wikidata": "Q1653258",
        "level": "2",
        "name": "ICICI Bank",
        "name:kn": "ಐಸಿಐಸಿಐ ಬ್ಯಾಂಕು",
        "short_name": "ICICI"
      }
    },
    {
      "type": "node",
      "id": 6546848148,
      "lat": 12.9977484,
      "lon": 77.5473746,
      "tags": {
        "amenity": "restaurant",
        "level": "2",
        "name": "Hotel Akshaya Non Veg"
      }
    },
    {
      "type": "node",
      "id": 6546848149,
      "lat": 12.9976458,
      "lon": 77.547388,
      "tags": {
        "level": "0",
        "name": "Poorvika",
        "shop": "electronics"
      }
    },
    {
      "type": "node",
      "id": 6546848150,
      "lat": 12.9976327,
      "lon": 77.5472526,
      "tags": {
        "name": "Choice Footwear",
        "shop": "shoes"
      }
    },
    {
      "type": "node",
      "id": 6546848151,
      "lat": 12.9976373,
      "lon": 77.547335,
      "tags": {
        "level": "0",
        "name": "Padam Book House",
        "shop": "stationery"
      }
    },
    {
      "type": "node",
      "id": 6546848152,
      "lat": 12.9976164,
      "lon": 77.5470883,
      "tags": {
        "name": "Meghapriya Travels",
        "shop": "travel_agency"
      }
    },
    {
      "type": "node",
      "id": 6546848153,
      "lat": 12.9976158,
      "lon": 77.5471801,
      "tags": {
        "name": "My 9 Fashion Footwear",
        "shop": "shoes"
      }
    },
    {
      "type": "node",
      "id": 6546848154,
      "lat": 12.9976288,
      "lon": 77.546993,
      "tags": {
        "amenity": "dentist",
        "name": "RNP Dental Orthodontic Care Centre"
      }
    },
    {
      "type": "node",
      "id": 6570421952,
      "lat": 13.0078107,
      "lon": 77.5484819,
      "tags": {
        "amenity": "pharmacy",
        "name": "Nayan Drugs and Opticals"
      }
    },
    {
      "type": "node",
      "id": 6575118684,
      "lat": 13.0109906,
      "lon": 77.5505349,
      "tags": {
        "access": "yes",
        "amenity": "toilets",
        "fee": "yes",
        "name": "eToilet",
        "toilets:disposal": "pitlatrine",
        "unisex": "yes"
      }
    },
    {
      "type": "node",
      "id": 6645712418,
      "lat": 13.0020685,
      "lon": 77.5518841,
      "tags": {
        "amenity": "drinking_water",
        "man_made": "water_tap"
      }
    },
    {
      "type": "node",
      "id": 6657262760,
      "lat": 13.0000703,
      "lon": 77.5500545,
      "tags": {
        "amenity": "waste_basket"
      }
    },
    {
      "type": "node",
      "id": 6657262761,
      "lat": 12.9992963,
      "lon": 77.5494391,
      "tags": {
        "shop": "copyshop"
      }
    },
    {
      "type": "node",
      "id": 6657262766,
      "lat": 13.0013914,
      "lon": 77.5502892,
      "tags": {
        "male": "yes",
        "shop": "hairdresser"
      }
    },
    {
      "type": "node",
      "id": 6699732224,
      "lat": 13.0022958,
      "lon": 77.5524111,
      "tags": {
        "male": "yes",
        "shop": "hairdresser"
      }
    },
    {
      "type": "node",
      "id": 6711246907,
      "lat": 12.9993177,
      "lon": 77.5502049,
      "tags": {
        "amenity": "pharmacy",
        "healthcare": "pharmacy",
        "name": "Homoeo Mart"
      }
    },
    {
      "type": "node",
      "id": 6720274156,
      "lat": 12.9989861,
      "lon": 77.550271,
      "tags": {
        "name": "Orix Spa",
        "shop": "massage"
      }
    },
    {
      "type": "node",
      "id": 6780250610,
      "lat": 12.9970563,
      "lon": 77.5402485,
      "tags": {
        "addr:city": "Bengaluru",
        "addr:country": "IN",
        "addr:housenumber": "103",
        "addr:postcode": "560079",
        "addr:street": "Siddhaiah Puranik Road",
        "email": "orders@chefbakers.in",
        "name": "Chef Baker's",
        "shop": "bakery",
        "website": "https://www.chefbakers.com"
      }
    },
    {
      "type": "node",
      "id": 6794772633,
      "lat": 13.0068889,
      "lon": 77.5488656,
      "tags": {
        "amenity": "bank",
        "atm": "yes",
        "brand": "Axis Bank",
        "brand:wikidata": "Q2003549",
        "name": "Axis Bank",
        "name:kn": "ಆಕ್ಸಿಸ್ ಬ್ಯಾಂಕ್",
        "operator": "Axis Bank"
      }
    },
    {
      "type": "node",
      "id": 6794780737,
      "lat": 13.010724,
      "lon": 77.5502667,
      "tags": {
        "amenity": "restaurant",
        "cuisine": "regional",
        "name": "Hotel Vande Matharam"
      }
    },
    {
      "type": "node",
      "id": 6794798811,
      "lat": 13.0122579,
      "lon": 77.5541209,
      "tags": {
        "amenity": "pub",
        "name": "Jetlag"
      }
    },
    {
      "type": "node",
      "id": 6807501871,
      "lat": 13.0039628,
      "lon": 77.5507974,
      "tags": {
        "amenity": "restaurant",
        "name": "Hassan Iyenger Bakery"
      }
    },
    {
      "type": "node",
      "id": 6808228304,
      "lat": 13.0080788,
      "lon": 77.5489767,
      "tags": {
        "amenity": "restaurant",
        "cuisine": "chicken",
        "name": "stories"
      }
    },
    {
      "type": "node",
      "id": 6854592450,
      "lat": 13.0041919,
      "lon": 77.5509828,
      "tags": {
        "name": "Nandini Milk Booth",
        "name:kn": "ನಂದಿನಿ ಹಾಲಿನ ಅಂಗಡಿ",
        "shop": "dairy"
      }
    },
    {
      "type": "node",
      "id": 6854592451,
      "lat": 13.0049733,
      "lon": 77.553767,
      "tags": {
        "name": "Nandini Milk Booth",
        "name:kn": "ನಂದಿನಿ ಹಾಲಿನ ಅಂಗಡಿ",
        "shop": "dairy"
      }
    },
    {
      "type": "node",
      "id": 6855409790,
      "lat": 13.0103991,
      "lon": 77.5500308,
      "tags": {
        "name": "Nandini Milk Booth",
        "name:kn": "ನಂದಿನಿ ಹಾಲಿನ ಅಂಗಡಿ",
        "shop": "dairy"
      }
    },
    {
      "type": "node",
      "id": 6855409791,
      "lat": 13.0084764,
      "lon": 77.549127,
      "tags": {
        "brand": "cult.fit",
        "brand:wikidata": "Q121289250",
        "leisure": "fitness_centre",
        "name": "cult.fit",
        "sport": "fitness;dancing;boxing"
      }
    },
    {
      "type": "node",
      "id": 6855409792,
      "lat": 13.0010474,
      "lon": 77.5499307,
      "tags": {
        "name": "Bhima Jewellers",
        "shop": "jewelry"
      }
    },
    {
      "type": "node",
      "id": 6855409793,
      "lat": 12.9998982,
      "lon": 77.5501121,
      "tags": {
        "addr:district": "Bengaluru Urban",
        "addr:full": "Laxmi, No.20, Shankarmutt Main Road",
        "addr:postcode": "560004",
        "addr:state": "Karnataka",
        "amenity": "hospital",
        "healthcare": "hospital",
        "name": "Dr. Agrawal's Eye Hospital",
        "source": "OpenGovernmentData"
      }
    },
    {
      "type": "node",
      "id": 6855409795,
      "lat": 12.9992623,
      "lon": 77.5496684,
      "tags": {
        "addr:city": "Bengaluru",
        "addr:country": "IN",
        "addr:housenumber": "46",
        "addr:postcode": "560086",
        "addr:street": "10th Cross Road",
        "addr:suburb": "Rajajinagar",
        "amenity": "coworking_space",
        "email": "info@urbandesk.in",
        "fee": "yes",
        "name": "UrbanDesk",
        "office": "coworking",
        "operator": "UrbanDesk",
        "phone": "+91 78998 00771",
        "website": "https://urbandesk.in/"
      }
    },
    {
      "type": "node",
      "id": 6886594813,
      "lat": 12.998505,
      "lon": 77.5527035,
      "tags": {
        "addr:city": "Bengaluru",
        "addr:district": "BENGALURU URBAN",
        "addr:full": "No. 2953, Ist Floor, Near Navarang Circle, M. K. K. Road, Rajaji Nagar",
        "addr:postcode": "560010",
        "addr:state": "Karnataka",
        "amenity": "blood_bank",
        "contact:mobile": "9844111233",
        "contact:phone": "8023521233",
        "name": "Navarang Blood Bank",
        "opening_hours": "24/7",
        "operator:type": "private",
        "source": "OpenGovernmentData"
      }
    },
    {
      "type": "node",
      "id": 6938690627,
      "lat": 12.998769,
      "lon": 77.5465317,
      "tags": {
        "addr:district": "Bengaluru Urban",
        "addr:full": "No. 674/A, 10Th Cross, 5Th Main, W O C Road 2nd Stage, Mahalakshmi Puram",
        "addr:postcode": "560086",
        "addr:state": "Karnataka",
        "amenity": "social_facility",
        "name": "Pragathi Nursing Home",
        "social_facility": "nursing_home",
        "social_facility:for": "senior",
        "source": "OpenGovernmentData"
      }
    },
    {
      "type": "node",
      "id": 6938695148,
      "lat": 12.9992083,
      "lon": 77.550269,
      "tags": {
        "addr:district": "Bengaluru Urban",
        "addr:full": "No. 414/65, 20th Main, West of Chord road, 1st Block, Rajajinagar, Bangalore",
        "addr:postcode": "560010",
        "addr:state": "Karnataka",
        "amenity": "hospital",
        "contact:email": "info@chanrericr.com",
        "contact:phone": "080 - 42516699",
        "healthcare": "hospital",
        "name": "ChanRe Rheumatology and Immunology Center and Research",
        "source": "OpenGovernmentData",
        "website": "https://www.chanrericr.com/"
      }
    },
    {
      "type": "node",
      "id": 6947707788,
      "lat": 13.0105038,
      "lon": 77.5502452,
      "tags": {
        "addr:district": "Bengaluru Urban",
        "addr:full": "Bengaluru Urban",
        "addr:postcode": "560002",
        "addr:state": "Karnataka",
        "amenity": "hospital",
        "name": "Aaroyha Mandir Hospital",
        "source": "OpenGovernmentData"
      }
    },
    {
      "type": "node",
      "id": 6948030294,
      "lat": 12.9986239,
      "lon": 77.542782,
      "tags": {
        "addr:district": "Bengaluru Urban",
        "addr:full": "1078 11Th Main 9Th Cross Above Punjab National Bank Mahalakshmipura",
        "addr:postcode": "560086",
        "addr:state": "Karnataka",
        "amenity": "hospital",
        "healthcare": "hospital",
        "name": "Sri Ranga Arogyadhama",
        "source": "OpenGovernmentData"
      }
    },
    {
      "type": "node",
      "id": 7007284989,
      "lat": 13.0078775,
      "lon": 77.548578,
      "tags": {
        "name": "Nandini Milk Parlour",
        "shop": "dairy"
      }
    },
    {
      "type": "node",
      "id": 7043906785,
      "lat": 13.0082145,
      "lon": 77.5490831,
      "tags": {
        "name": "Akash Auto Consultants",
        "shop": "car"
      }
    },
    {
      "type": "node",
      "id": 7087593320,
      "lat": 13.0080669,
      "lon": 77.5486258,
      "tags": {
        "name": "Agriplex India",
        "shop": "agrarian"
      }
    },
    {
      "type": "node",
      "id": 7104329285,
      "lat": 13.004793,
      "lon": 77.553319,
      "tags": {
        "amenity": "school",
        "name": "Sri Vani Girls High School"
      }
    },
    {
      "type": "node",
      "id": 7108955185,
      "lat": 12.994289,
      "lon": 77.5392712,
      "tags": {
        "brand": "Naturals",
        "brand:wikidata": "Q125728261",
        "name": "Naturals",
        "shop": "beauty"
      }
    },
    {
      "type": "node",
      "id": 7159760429,
      "lat": 12.9986585,
      "lon": 77.5508011,
      "tags": {
        "addr:city": "Bengaluru",
        "addr:postcode": "560010",
        "addr:street": "19th Main (Goorur Ramaswamy Iyengar Road)",
        "addr:suburb": "Rajajinagar",
        "name": "Coffee Day Essentials",
        "shop": "convenience",
        "website": "http://www.coffeedayessentials.com/"
      }
    },
    {
      "type": "node",
      "id": 7201051903,
      "lat": 13.0031491,
      "lon": 77.5518425,
      "tags": {
        "name": "Nandini Parlour",
        "shop": "dairy"
      }
    },
    {
      "type": "node",
      "id": 7201051930,
      "lat": 13.0051458,
      "lon": 77.5533056,
      "tags": {
        "name": "SFS Publications",
        "shop": "books"
      }
    },
    {
      "type": "node",
      "id": 7201052013,
      "lat": 13.0059362,
      "lon": 77.5538511,
      "tags": {
        "amenity": "parking",
        "name": "BBMP Parking",
        "operator": "BBMP"
      }
    },
    {
      "type": "node",
      "id": 7201052033,
      "lat": 13.004052,
      "lon": 77.5512927,
      "tags": {
        "name": "Asha Sweet Center",
        "shop": "confectionery"
      }
    },
    {
      "type": "node",
      "id": 7201052034,
      "lat": 13.0042121,
      "lon": 77.5508621,
      "tags": {
        "amenity": "bank",
        "brand": "RBL Bank",
        "brand:wikidata": "Q13120398",
        "name": "RBL Bank"
      }
    },
    {
      "type": "node",
      "id": 7201052035,
      "lat": 13.0039148,
      "lon": 77.5501332,
      "tags": {
        "amenity": "fast_food",
        "cuisine": "juice",
        "name": "Lassi Shop"
      }
    },
    {
      "type": "node",
      "id": 7215440234,
      "lat": 13.000224,
      "lon": 77.5507146,
      "tags": {
        "amenity": "atm",
        "brand": "ICICI Bank",
        "brand:wikidata": "Q1653258",
        "name": "ICICI Bank",
        "name:kn": "ಐಸಿಐಸಿಐ ಬ್ಯಾಂಕು",
        "operator": "ICICI Bank",
        "operator:wikidata": "Q1653258",
        "short_name": "ICICI"
      }
    },
    {
      "type": "node",
      "id": 7215440235,
      "lat": 13.0001672,
      "lon": 77.5507253,
      "tags": {
        "name": "Goutham Electronics",
        "shop": "electronics"
      }
    },
    {
      "type": "node",
      "id": 7215440236,
      "lat": 12.9997281,
      "lon": 77.5507924,
      "tags": {
        "name": "Probe Tailors",
        "shop": "tailor"
      }
    },
    {
      "type": "node",
      "id": 7215440237,
      "lat": 12.9995804,
      "lon": 77.550832,
      "tags": {
        "addr:city": "Bengaluru",
        "addr:country": "IN",
        "addr:hamlet": "Rajajinagar 1st Block",
        "addr:housenumber": "14",
        "addr:postcode": "560010",
        "addr:street": "15th Cross Road",
        "email": "info@decorbengaluru.com",
        "name": "Decor Bengaluru",
        "phone": "0802966826",
        "shop": "interior_decoration",
        "website": "http://www.decorbengaluru.com"
      }
    },
    {
      "type": "node",
      "id": 7215440242,
      "lat": 12.999403,
      "lon": 77.5508739,
      "tags": {
        "name": "Samsung SmartCafe",
        "shop": "electronics"
      }
    },
    {
      "type": "node",
      "id": 7215440243,
      "lat": 12.9992657,
      "lon": 77.5509184,
      "tags": {
        "female": "no",
        "male": "yes",
        "name": "Dreams Mens Salon",
        "shop": "hairdresser"
      }
    },
    {
      "type": "node",
      "id": 7215440244,
      "lat": 12.9991338,
      "lon": 77.5509354,
      "tags": {
        "amenity": "fast_food",
        "indoor_seating": "no",
        "name": "Sree Gajendra Juice and Chaats Center",
        "outdoor_seating": "yes"
      }
    },
    {
      "type": "node",
      "id": 7215440245,
      "lat": 12.9989923,
      "lon": 77.5510234,
      "tags": {
        "amenity": "clinic",
        "healthcare": "clinic",
        "healthcare:speciality": "urology",
        "name": "Sanjay Urology and Andrology Center"
      }
    },
    {
      "type": "node",
      "id": 7215440246,
      "lat": 12.9989365,
      "lon": 77.5507306,
      "tags": {
        "name": "Galaxy Opticals",
        "shop": "optician"
      }
    },
    {
      "type": "node",
      "id": 7215440247,
      "lat": 12.9987812,
      "lon": 77.5507637,
      "tags": {
        "name": "Cake and Pastries",
        "phone": "080 4157 1512",
        "shop": "bakery"
      }
    },
    {
      "type": "node",
      "id": 7215440248,
      "lat": 12.9987641,
      "lon": 77.5509847,
      "tags": {
        "shop": "greengrocer"
      }
    },
    {
      "type": "node",
      "id": 7215440249,
      "lat": 12.9986599,
      "lon": 77.5510126,
      "tags": {
        "name": "Wildcraft",
        "shop": "outdoor"
      }
    },
    {
      "type": "node",
      "id": 7215440250,
      "lat": 12.9983967,
      "lon": 77.5510859,
      "tags": {
        "name": "Titan",
        "shop": "watches"
      }
    },
    {
      "type": "node",
      "id": 7215440251,
      "lat": 12.9982589,
      "lon": 77.5511091,
      "tags": {
        "name": "Krishna Fancy and Gift Center",
        "shop": "gift"
      }
    },
    {
      "type": "node",
      "id": 7215550060,
      "lat": 13.0099126,
      "lon": 77.5495425,
      "tags": {
        "amenity": "place_of_worship",
        "religion": "hindu"
      }
    },
    {
      "type": "node",
      "id": 7236205679,
      "lat": 12.9992734,
      "lon": 77.5493702,
      "tags": {
        "amenity": "fast_food",
        "cuisine": "regional",
        "name": "Antarastriya",
        "name:kn": "ಅಂತರಾಷ್ಟಿಯ"
      }
    },
    {
      "type": "node",
      "id": 7255294906,
      "lat": 12.9988434,
      "lon": 77.5507481,
      "tags": {
        "name": "Akshaya Magazine Center",
        "shop": "kiosk"
      }
    },
    {
      "type": "node",
      "id": 7255294907,
      "lat": 12.9987729,
      "lon": 77.5522368,
      "tags": {
        "amenity": "bank",
        "atm": "yes",
        "brand": "Bank of India",
        "brand:wikidata": "Q2004439",
        "brand:wikipedia": "en:Bank of India",
        "name": "Bank of India",
        "name:kn": "ಬ್ಯಾಂಕ್ ಅಫ್ ಇಂಡಿಯ",
        "operator": "Bank of India"
      }
    },
    {
      "type": "node",
      "id": 7255294908,
      "lat": 12.9989715,
      "lon": 77.5521791,
      "tags": {
        "amenity": "restaurant",
        "cuisine": "regional",
        "name": "Rajbhog"
      }
    },
    {
      "type": "node",
      "id": 7255294909,
      "lat": 12.9998157,
      "lon": 77.5518975,
      "tags": {
        "amenity": "clinic",
        "healthcare": "clinic",
        "name": "Cauvery Clinic and Laboratory"
      }
    },
    {
      "type": "node",
      "id": 7255294910,
      "lat": 13.0000077,
      "lon": 77.552163,
      "tags": {
        "amenity": "bank",
        "atm": "yes",
        "brand": "State Bank of India",
        "brand:wikidata": "Q1340361",
        "brand:wikipedia": "en:State Bank of India",
        "name": "State Bank of India",
        "name:kn": "ಎಸ್ ಬಿ ಐ",
        "operator": "State Bank of India",
        "short_name": "SBI"
      }
    },
    {
      "type": "node",
      "id": 7255294912,
      "lat": 13.0002247,
      "lon": 77.5519605,
      "tags": {
        "amenity": "fast_food",
        "cuisine": "regional",
        "diet:vegetarian": "only",
        "name": "Udupi Veg"
      }
    },
    {
      "type": "node",
      "id": 7255294913,
      "lat": 12.9999163,
      "lon": 77.5517097,
      "tags": {
        "name": "Akshaya Tailors",
        "shop": "tailor"
      }
    },
    {
      "type": "node",
      "id": 7255294952,
      "lat": 13.001255,
      "lon": 77.5506945,
      "tags": {
        "addr:city": "Bengaluru",
        "addr:country": "IN",
        "addr:district": "Bengaluru Urban",
        "addr:hamlet": "Rajajinagar 1st Block",
        "addr:housenumber": "149",
        "addr:postcode": "560010",
        "addr:street": "19C Main Road",
        "air_conditioning": "no",
        "check_date": "2023-12-22",
        "internet_access": "no",
        "name": "Ram Tailors",
        "name:hi": "राम टेलर",
        "opening_hours": "Mo-Su 18:00-21:00",
        "payment:credit_cards": "no",
        "payment:debit_cards": "no",
        "shop": "tailor",
        "wheelchair": "no"
      }
    },
    {
      "type": "node",
      "id": 7255294960,
      "lat": 12.9991492,
      "lon": 77.5518914,
      "tags": {
        "shop": "convenience"
      }
    },
    {
      "type": "node",
      "id": 7291611542,
      "lat": 13.0038587,
      "lon": 77.5496592,
      "tags": {
        "leisure": "fitness_centre",
        "name": "Bodysculpt Gym"
      }
    },
    {
      "type": "node",
      "id": 7291611543,
      "lat": 13.0042219,
      "lon": 77.5494312,
      "tags": {
        "name": "Konica Photo Express",
        "shop": "photo"
      }
    },
    {
      "type": "node",
      "id": 7291611548,
      "lat": 13.006736,
      "lon": 77.5488733,
      "tags": {
        "name": "Prestige Xclusive",
        "shop": "kitchen",
        "website": "https://www.prestigexclusive.in"
      }
    },
    {
      "type": "node",
      "id": 7291611553,
      "lat": 13.0083615,
      "lon": 77.5491026,
      "tags": {
        "amenity": "clinic",
        "name": "Ista Ayurvedic"
      }
    },
    {
      "type": "node",
      "id": 7291611554,
      "lat": 13.0089548,
      "lon": 77.5491321,
      "tags": {
        "name": "Breads and Co.",
        "shop": "bakery"
      }
    },
    {
      "type": "node",
      "id": 7291611577,
      "lat": 13.0117027,
      "lon": 77.5520208,
      "tags": {
        "amenity": "cafe",
        "brand": "Cafe Coffee Day",
        "brand:wikidata": "Q5017235",
        "cuisine": "coffee_shop",
        "name": "Cafe Coffee Day",
        "name:kn": "ಕಫೆ ಕಾಫಿ ಡೇ",
        "takeaway": "yes"
      }
    },
    {
      "type": "node",
      "id": 7291611578,
      "lat": 13.0118151,
      "lon": 77.552328,
      "tags": {
        "name": "Boycott Clothing",
        "shop": "clothes"
      }
    },
    {
      "type": "node",
      "id": 7291611579,
      "lat": 13.0118399,
      "lon": 77.5523843,
      "tags": {
        "brand": "Nike Factory Store",
        "brand:wikidata": "Q483915",
        "name": "Nike Factory Store",
        "shop": "clothes"
      }
    },
    {
      "type": "node",
      "id": 7890840024,
      "lat": 13.0007712,
      "lon": 77.5518249,
      "tags": {
        "amenity": "place_of_worship",
        "name": "Marammadevi Temple",
        "religion": "hindu"
      }
    },
    {
      "type": "node",
      "id": 8187986356,
      "lat": 12.9986082,
      "lon": 77.5425992,
      "tags": {
        "addr:full": "2nd Stage, Mahalakshmi Puram, Near Punjab National Bank, Dr MC Modi Hospital Rd, West of Chord Road 2nd Stage, West of Chord Road, Stage 2, Nagapura, Bengaluru, Karnataka",
        "addr:state": "Karnataka",
        "amenity": "clinic",
        "healthcare": "clinic",
        "name": "Shilpa Clinic"
      }
    },
    {
      "type": "node",
      "id": 8188038705,
      "lat": 12.998238,
      "lon": 77.551173,
      "tags": {
        "addr:full": "69/26, 19th Main, 19th Cross, Rajajinagar 1st Block, 1st Block, Rajajinagar, Bengaluru, Karnataka",
        "addr:state": "Karnataka",
        "amenity": "hospital",
        "healthcare": "hospital",
        "name": "Poornayu Ayurveda Hospital"
      }
    },
    {
      "type": "node",
      "id": 8188058140,
      "lat": 13.0102358,
      "lon": 77.5516049,
      "tags": {
        "addr:full": "ISKCON Temple, H K Hill Chord Road 1st R Block, Rajaji Nagar, Rajajinagar, Bengaluru, Karnataka",
        "addr:state": "Karnataka",
        "amenity": "restaurant",
        "name": "Annakuta Prasadam Restaurant"
      }
    },
    {
      "type": "node",
      "id": 8240881794,
      "lat": 12.9996588,
      "lon": 77.5407482,
      "tags": {
        "name": "Exclusive Mobile Phone Center",
        "shop": "mobile_phone"
      }
    },
    {
      "type": "node",
      "id": 8240881795,
      "lat": 12.9999437,
      "lon": 77.5402124,
      "tags": {
        "name": "Miami Day Bakery",
        "shop": "bakery"
      }
    },
    {
      "type": "node",
      "id": 8240881800,
      "lat": 13.0006827,
      "lon": 77.5368362,
      "tags": {
        "name": "Bherav Jewellers",
        "shop": "jewelry"
      }
    },
    {
      "type": "node",
      "id": 8240881801,
      "lat": 13.0007003,
      "lon": 77.5365438,
      "tags": {
        "name": "Anand Jewelers",
        "shop": "jewelry"
      }
    },
    {
      "type": "node",
      "id": 8442182837,
      "lat": 12.9982005,
      "lon": 77.5406416,
      "tags": {
        "amenity": "ice_cream",
        "name": "Iceberg"
      }
    },
    {
      "type": "node",
      "id": 8442182838,
      "lat": 12.9981626,
      "lon": 77.5406349,
      "tags": {
        "name": "The Tea Planet",
        "shop": "tea"
      }
    },
    {
      "type": "node",
      "id": 8442182839,
      "lat": 12.9981123,
      "lon": 77.5406402,
      "tags": {
        "amenity": "pharmacy"
      }
    },
    {
      "type": "node",
      "id": 8442182847,
      "lat": 12.9975877,
      "lon": 77.5404263,
      "tags": {
        "shop": "tattoo"
      }
    },
    {
      "type": "node",
      "id": 8442182848,
      "lat": 12.9976504,
      "lon": 77.5404578,
      "tags": {
        "amenity": "fast_food",
        "cuisine": "sandwich",
        "name": "Sandwich Station"
      }
    },
    {
      "type": "node",
      "id": 8442182849,
      "lat": 12.9976327,
      "lon": 77.5404827,
      "tags": {
        "alt_name": "Goli Vada Pav No.1",
        "amenity": "fast_food",
        "brand": "Goli Vada Pav",
        "brand:wikidata": "Q5580697",
        "cuisine": "indian",
        "name": "Goli Vada Pav",
        "takeaway": "yes"
      }
    },
    {
      "type": "node",
      "id": 8442182850,
      "lat": 12.9975844,
      "lon": 77.5404666,
      "tags": {
        "amenity": "pharmacy",
        "name": "People Pharmacy"
      }
    },
    {
      "type": "node",
      "id": 8442191515,
      "lat": 13.0124577,
      "lon": 77.5536841,
      "tags": {
        "brand": "Shell Select",
        "brand:wikidata": "Q124359752",
        "name": "Shell Select",
        "shop": "convenience"
      }
    },
    {
      "type": "node",
      "id": 8442228918,
      "lat": 13.0123861,
      "lon": 77.5536456,
      "tags": {
        "access": "yes",
        "amenity": "toilets"
      }
    },
    {
      "type": "node",
      "id": 9171580315,
      "lat": 12.9983064,
      "lon": 77.5498825,
      "tags": {
        "amenity": "restaurant",
        "check_date": "2024-07-28",
        "delivery": "yes",
        "name": "Aum Zone",
        "website": "https://www.mamaketo.co.in/"
      }
    },
    {
      "type": "node",
      "id": 9197307514,
      "lat": 13.0082858,
      "lon": 77.5490932,
      "tags": {
        "amenity": "fast_food",
        "name": "Coco Cane"
      }
    },
    {
      "type": "node",
      "id": 9197316217,
      "lat": 13.0061075,
      "lon": 77.5489651,
      "tags": {
        "name": "Prabhu Sweets",
        "shop": "confectionery"
      }
    },
    {
      "type": "node",
      "id": 9197316218,
      "lat": 13.0040808,
      "lon": 77.5494453,
      "tags": {
        "addr:city": "Bangalore",
        "addr:country": "IN",
        "addr:postcode": "560010",
        "art": "religious",
        "artwork_type": "sculpture",
        "name": "Pandey Moorti Bhandar",
        "operator": "Pandey Moorti",
        "shop": "art"
      }
    },
    {
      "type": "node",
      "id": 9214185089,
      "lat": 12.9983978,
      "lon": 77.5527249,
      "tags": {
        "name": "Inkspiration Tattoo",
        "shop": "tattoo"
      }
    },
    {
      "type": "node",
      "id": 9257406457,
      "lat": 12.9989516,
      "lon": 77.5497464,
      "tags": {
        "amenity": "fast_food",
        "cuisine": "burger",
        "delivery": "yes",
        "name": "Burger Elite",
        "takeaway": "yes"
      }
    },
    {
      "type": "node",
      "id": 9270966239,
      "lat": 13.0024676,
      "lon": 77.5503413,
      "tags": {
        "name": "The Baker's Dozen",
        "shop": "bakery"
      }
    },
    {
      "type": "node",
      "id": 9270966240,
      "lat": 13.0026676,
      "lon": 77.5503083,
      "tags": {
        "name": "NS Varier Bakery",
        "note": "This is not the original Variar Bakery",
        "shop": "bakery"
      }
    },
    {
      "type": "node",
      "id": 9350054873,
      "lat": 13.0023102,
      "lon": 77.552568,
      "tags": {
        "amenity": "pharmacy",
        "name": "Aster Pharmacy",
        "name:kn": "ಆಸ್ಟರ್ ಫಾರ್ಮಸಿ"
      }
    },
    {
      "type": "node",
      "id": 9667590484,
      "lat": 13.0121888,
      "lon": 77.5541385,
      "tags": {
        "name": "Mansionz",
        "shop": "wine"
      }
    },
    {
      "type": "node",
      "id": 9811397032,
      "lat": 13.01272,
      "lon": 77.5536791,
      "tags": {
        "amenity": "bench"
      }
    },
    {
      "type": "node",
      "id": 9811397086,
      "lat": 12.9997549,
      "lon": 77.5525097,
      "tags": {
        "amenity": "bank",
        "atm": "yes",
        "brand": "HDFC Bank",
        "brand:wikidata": "Q631047",
        "check_date": "2023-01-02",
        "name": "HDFC Bank",
        "name:kn": "ಎಚ್ ಡಿ ಎಫ್ ಸಿ",
        "operator": "HDFC Bank",
        "short_name": "HDFC",
        "wheelchair": "no"
      }
    },
    {
      "type": "node",
      "id": 9814594015,
      "lat": 13.0024187,
      "lon": 77.5529905,
      "tags": {
        "male": "yes",
        "name": "Top Scissor Saloon",
        "shop": "hairdresser"
      }
    },
    {
      "type": "node",
      "id": 9830156880,
      "lat": 13.0022573,
      "lon": 77.5531226,
      "tags": {
        "amenity": "fast_food",
        "check_date": "2024-02-10",
        "indoor_seating": "no",
        "name": "Uru Coffee",
        "outdoor_seating": "yes"
      }
    },
    {
      "type": "node",
      "id": 9870845392,
      "lat": 12.9977582,
      "lon": 77.5482101,
      "tags": {
        "amenity": "fast_food",
        "brand": "Domino's",
        "brand:ks": "ڈومینوز",
        "brand:pa": "ਡੋਮੀਨੋਜ਼",
        "brand:ur": "ڈومینوز",
        "brand:wikidata": "Q839466",
        "brand:wikipedia": "en:Domino's Pizza",
        "cuisine": "pizza",
        "delivery": "yes",
        "name": "Domino's",
        "name:kn": "ಡಾಮಿನೋಸ್",
        "name:ks": "ڈومینوز",
        "name:pa": "ਡੋਮੀਨੋਜ਼",
        "name:ur": "ڈومینوز",
        "takeaway": "yes"
      }
    },
    {
      "type": "node",
      "id": 9870845396,
      "lat": 12.9982737,
      "lon": 77.5464942,
      "tags": {
        "amenity": "fast_food",
        "cuisine": "regional",
        "name": "Mangalore Lunch Home"
      }
    },
    {
      "type": "node",
      "id": 9895563364,
      "lat": 12.9979395,
      "lon": 77.5499441,
      "tags": {
        "male": "yes",
        "name": "Le-Studio",
        "shop": "hairdresser"
      }
    },
    {
      "type": "node",
      "id": 9910000932,
      "lat": 12.9977366,
      "lon": 77.5493745,
      "tags": {
        "amenity": "cafe",
        "name": "Kaappi Ready"
      }
    },
    {
      "type": "node",
      "id": 9910000933,
      "lat": 12.998899,
      "lon": 77.5489765,
      "tags": {
        "amenity": "fast_food",
        "cuisine": "asian",
        "name": "Maitey Momos",
        "opening_hours": "17:00-21:00",
        "takeaway": "yes"
      }
    },
    {
      "type": "node",
      "id": 9911735811,
      "lat": 12.9918233,
      "lon": 77.5377992,
      "tags": {
        "addr:city": "Bangalore",
        "addr:country": "IN",
        "addr:housenumber": "353",
        "addr:postcode": "560079",
        "addr:street": "8th Main Road",
        "addr:suburb": "Basaveshwarnagar",
        "board_games": "yes",
        "contact:instagram": "boardgamesbazaar",
        "email": "hello@boardgamesbazaar.com",
        "name": "Board Games Bazaar",
        "shop": "games",
        "website": "https://boardgamesbazaar.com"
      }
    },
    {
      "type": "node",
      "id": 9936582837,
      "lat": 13.0062689,
      "lon": 77.5493014,
      "tags": {
        "access": "private",
        "amenity": "toilets"
      }
    },
    {
      "type": "node",
      "id": 9936582860,
      "lat": 13.005053,
      "lon": 77.5497289,
      "tags": {
        "amenity": "pharmacy",
        "name": "Bhoomi Medicals"
      }
    },
    {
      "type": "node",
      "id": 9936582868,
      "lat": 13.0031177,
      "lon": 77.5514958,
      "tags": {
        "access": "yes",
        "amenity": "toilets",
        "fee": "yes",
        "operator": "BBMP",
        "wheelchair": "limited"
      }
    },
    {
      "type": "node",
      "id": 10032901881,
      "lat": 12.9982887,
      "lon": 77.5491294,
      "tags": {
        "amenity": "fast_food",
        "name": "Raj Lakshmi Momos Corner"
      }
    },
    {
      "type": "node",
      "id": 10124399239,
      "lat": 13.005658,
      "lon": 77.5490892,
      "tags": {
        "amenity": "shelter",
        "shelter_type": "gazebo"
      }
    },
    {
      "type": "node",
      "id": 10138042330,
      "lat": 12.9986069,
      "lon": 77.5503404,
      "tags": {
        "amenity": "fast_food",
        "cuisine": "regional",
        "name": "Vaibhav Biryani"
      }
    },
    {
      "type": "node",
      "id": 10162630528,
      "lat": 13.0088908,
      "lon": 77.5491321,
      "tags": {
        "amenity": "fast_food",
        "cuisine": "regional",
        "name": "Samosa Party"
      }
    },
    {
      "type": "node",
      "id": 10220834879,
      "lat": 13.0018342,
      "lon": 77.5513714,
      "tags": {
        "name": "Praveen Jewels",
        "shop": "jewelry"
      }
    },
    {
      "type": "node",
      "id": 10276162816,
      "lat": 12.9990996,
      "lon": 77.5502801,
      "tags": {
        "amenity": "college",
        "name": "Sri Aurobindo College"
      }
    },
    {
      "type": "node",
      "id": 10276162817,
      "lat": 13.0003233,
      "lon": 77.550144,
      "tags": {
        "name": "Dreamzee",
        "shop": "furniture"
      }
    },
    {
      "type": "node",
      "id": 10276162818,
      "lat": 13.0008166,
      "lon": 77.5505845,
      "tags": {
        "addr:floor": "0",
        "check_date": "2023-12-27",
        "internet_access": "no",
        "level": "0",
        "name": "Bhavan Novelties and Gift Center",
        "payment:cash": "yes",
        "payment:credit_cards": "yes",
        "payment:debit_cards": "yes",
        "shop": "gift",
        "wheelchair": "no"
      }
    },
    {
      "type": "node",
      "id": 10276162819,
      "lat": 13.0010747,
      "lon": 77.5505476,
      "tags": {
        "addr:floor": "0",
        "addr:postcode": "560010",
        "amenity": "pharmacy",
        "check_date": "2023-12-23",
        "dispensing": "no",
        "drive_through": "no",
        "internet_access": "no",
        "level": "0",
        "name": "Sri Reddy Pharma",
        "payment:cash": "yes",
        "payment:credit_cards": "yes",
        "payment:debit_cards": "yes",
        "source": "local knowledge",
        "wheelchair": "no"
      }
    },
    {
      "type": "node",
      "id": 10276162820,
      "lat": 13.0027891,
      "lon": 77.5502811,
      "tags": {
        "name": "Organic Bharat",
        "organic": "yes",
        "shop": "supermarket"
      }
    },
    {
      "type": "node",
      "id": 10276162821,
      "lat": 13.0028208,
      "lon": 77.5502777,
      "tags": {
        "amenity": "cafe",
        "name": "Connectivitea",
        "outdoor_seating": "yes",
        "takeaway": "yes"
      }
    },
    {
      "type": "node",
      "id": 10276162822,
      "lat": 13.0028629,
      "lon": 77.5502707,
      "tags": {
        "name": "Chord Road Wines and Spirits",
        "shop": "alcohol"
      }
    },
    {
      "type": "node",
      "id": 10276162823,
      "lat": 13.0028806,
      "lon": 77.5502687,
      "tags": {
        "amenity": "dentist",
        "name": "Delta Dental Care"
      }
    },
    {
      "type": "node",
      "id": 10276162831,
      "lat": 13.0029851,
      "lon": 77.5500521,
      "tags": {
        "amenity": "fast_food",
        "check_date": "2024-02-25",
        "name": "Sri Krishna Vaibhava"
      }
    },
    {
      "type": "node",
      "id": 10276162832,
      "lat": 13.0031908,
      "lon": 77.5500208,
      "tags": {
        "check_date": "2024-02-25",
        "name": "Rajesh Electronics",
        "shop": "electronics",
        "wheelchair": "yes"
      }
    },
    {
      "type": "node",
      "id": 10276162833,
      "lat": 13.003162,
      "lon": 77.5500234,
      "tags": {
        "check_date": "2024-02-25",
        "name": "Rajesh Home Appliances",
        "shop": "kitchen"
      }
    },
    {
      "type": "node",
      "id": 10276162836,
      "lat": 13.003728,
      "lon": 77.5501748,
      "tags": {
        "name": "Adishwar",
        "name:kn": "ಅದಿಶ್ವರ್",
        "shop": "electronics"
      }
    },
    {
      "type": "node",
      "id": 10276162837,
      "lat": 13.0039815,
      "lon": 77.5504437,
      "tags": {
        "name": "Hasan Iyengar's Bakery",
        "shop": "bakery"
      }
    },
    {
      "type": "node",
      "id": 10276162838,
      "lat": 13.0040762,
      "lon": 77.5514536,
      "tags": {
        "name": "Titan",
        "shop": "watches"
      }
    },
    {
      "type": "node",
      "id": 10276162839,
      "lat": 13.0040984,
      "lon": 77.5516782,
      "tags": {
        "name": "Padmashri Silk",
        "shop": "clothes"
      }
    },
    {
      "type": "node",
      "id": 10276162840,
      "lat": 13.0041233,
      "lon": 77.552102,
      "tags": {
        "amenity": "fast_food",
        "name": "Sugar Cane and Ice Cream"
      }
    },
    {
      "type": "node",
      "id": 10276162848,
      "lat": 13.0041893,
      "lon": 77.5529784,
      "tags": {
        "name": "TCL",
        "shop": "electronics"
      }
    },
    {
      "type": "node",
      "id": 10298704408,
      "lat": 12.999059,
      "lon": 77.5495592,
      "tags": {
        "name": "Jaya's Skin Essentia",
        "shop": "beauty"
      }
    },
    {
      "type": "node",
      "id": 10302703779,
      "lat": 12.993112,
      "lon": 77.5387922,
      "tags": {
        "amenity": "fast_food",
        "brand": "Popeyes",
        "brand:wikidata": "Q1330910",
        "brand:wikipedia": "en:Popeyes",
        "cuisine": "chicken",
        "delivery": "yes",
        "name": "Popeyes",
        "official_name": "Popeyes Louisiana Kitchen",
        "takeaway": "yes",
        "website": "https://www.popeyes.in/"
      }
    },
    {
      "type": "node",
      "id": 10303872102,
      "lat": 12.9999811,
      "lon": 77.552513,
      "tags": {
        "amenity": "bank",
        "atm": "yes",
        "brand": "IndusInd Bank",
        "brand:wikidata": "Q2040323",
        "check_date": "2023-01-02",
        "name": "IndusInd Bank",
        "source": "survey",
        "wheelchair": "no"
      }
    },
    {
      "type": "node",
      "id": 10303872105,
      "lat": 13.0013181,
      "lon": 77.553043,
      "tags": {
        "amenity": "restaurant",
        "check_date": "2023-01-02",
        "name": "Pratidinam",
        "source": "survey",
        "wheelchair": "limited"
      }
    },
    {
      "type": "node",
      "id": 10303872106,
      "lat": 13.0013891,
      "lon": 77.5530397,
      "tags": {
        "check_date": "2023-01-02",
        "email": "sairayrosewoodemporium@gmail.com",
        "name": "Sairay Rosewood Emporium",
        "phone": "+91 99807 18556; +91 98453 83191; +91 80 4513 3609",
        "shop": "furniture",
        "website": "https://www.sairayrosewoodemporium.com",
        "wheelchair": "no"
      }
    },
    {
      "type": "node",
      "id": 10303927109,
      "lat": 13.0015059,
      "lon": 77.5530553,
      "tags": {
        "amenity": "bank",
        "atm": "yes",
        "branch": "Rajajinagar",
        "brand": "Indian Bank",
        "brand:wikidata": "Q2003789",
        "check_date": "2023-01-02",
        "name": "Indian Bank",
        "source": "survey",
        "wheelchair": "no"
      }
    },
    {
      "type": "node",
      "id": 10303927110,
      "lat": 12.9991903,
      "lon": 77.5525312,
      "tags": {
        "amenity": "bank",
        "atm": "yes",
        "branch": "Rajajinagar",
        "brand": "Canara Bank",
        "brand:en": "Canara Bank",
        "brand:hi": "केनरा बैंक",
        "brand:kn": "ಕೆನರಾ ಬ್ಯಾಂಕ್",
        "brand:pa": "ਕੇਨਰਾ ਬੈਂਕ",
        "brand:pnb": "کینرا بینک",
        "brand:ur": "کینرا بینک",
        "brand:wikidata": "Q2003777",
        "check_date": "2023-01-02",
        "name": "Canara Bank",
        "name:en": "Canara Bank",
        "name:hi": "केनरा बैंक",
        "name:kn": "ಕೆನರಾ ಬ್ಯಾಂಕ್",
        "name:pa": "ਕੇਨਰਾ ਬੈਂਕ",
        "name:pnb": "کینرا بینک",
        "name:ur": "کینرا بینک",
        "source": "survey"
      }
    },
    {
      "type": "node",
      "id": 10559161342,
      "lat": 13.0003625,
      "lon": 77.5504283,
      "tags": {
        "brand": "Lenskart",
        "brand:wikidata": "Q17068753",
        "name": "Lenskart",
        "shop": "optician"
      }
    },
    {
      "type": "node",
      "id": 10574648841,
      "lat": 13.0097806,
      "lon": 77.5488183,
      "tags": {
        "name": "DeBeers Forevermark",
        "shop": "jewelry",
        "website": "https://www.forevermark.com/en-in/"
      }
    },
    {
      "type": "node",
      "id": 10731092770,
      "lat": 13.0073619,
      "lon": 77.5489061,
      "tags": {
        "brand": "Škoda",
        "brand:wikidata": "Q29637",
        "name": "Skoda",
        "shop": "car"
      }
    },
    {
      "type": "node",
      "id": 10819136563,
      "lat": 13.0057384,
      "lon": 77.5498342,
      "tags": {
        "name": "Guruprasada Diamonds",
        "shop": "jewelry"
      }
    },
    {
      "type": "node",
      "id": 10895937219,
      "lat": 13.0045271,
      "lon": 77.5533373,
      "tags": {
        "amenity": "restaurant",
        "cuisine": "regional",
        "name": "Cariappa Curry Company"
      }
    },
    {
      "type": "node",
      "id": 11025051044,
      "lat": 12.9982515,
      "lon": 77.5489122,
      "tags": {
        "amenity": "shelter",
        "shelter_type": "gazebo"
      }
    },
    {
      "type": "node",
      "id": 11025051045,
      "lat": 12.9986997,
      "lon": 77.5487848,
      "tags": {
        "amenity": "shelter",
        "shelter_type": "gazebo"
      }
    },
    {
      "type": "node",
      "id": 11025051050,
      "lat": 13.0002965,
      "lon": 77.5500266,
      "tags": {
        "amenity": "restaurant",
        "check_date": "2025-10-24",
        "cuisine": "regional",
        "diet:vegetarian": "yes",
        "indoor_seating": "yes",
        "name": "Sai Sogadu",
        "outdoor_seating": "no"
      }
    },
    {
      "type": "node",
      "id": 11132159740,
      "lat": 13.0023309,
      "lon": 77.5526894,
      "tags": {
        "amenity": "restaurant",
        "check_date": "2023-08-20",
        "cuisine": "regional",
        "name": "The Delhi Ritual"
      }
    },
    {
      "type": "node",
      "id": 11174397913,
      "lat": 13.0064368,
      "lon": 77.5541985,
      "tags": {
        "amenity": "post_box",
        "operator": "India Post",
        "operator:wikidata": "Q3519720"
      }
    },
    {
      "type": "node",
      "id": 11458804902,
      "lat": 13.0004228,
      "lon": 77.5504465,
      "tags": {
        "access": "yes",
        "amenity": "motorcycle_parking",
        "capacity": "10",
        "covered": "no",
        "source": "local knowledge"
      }
    },
    {
      "type": "node",
      "id": 11458804903,
      "lat": 13.0007963,
      "lon": 77.5503856,
      "tags": {
        "access": "yes",
        "amenity": "motorcycle_parking",
        "capacity": "30",
        "covered": "no",
        "description": "Road side parking in entire stretch",
        "source": "local knowledge"
      }
    },
    {
      "type": "node",
      "id": 11583339086,
      "lat": 13.0029761,
      "lon": 77.5532144,
      "tags": {
        "check_date": "2024-02-04",
        "name": "Vijayanand Travels",
        "shop": "travel_agency"
      }
    },
    {
      "type": "node",
      "id": 11583339088,
      "lat": 13.0016782,
      "lon": 77.5507667,
      "tags": {
        "addr:floor": "0",
        "check_date": "2024-02-04",
        "level": "0",
        "name": "Vidha",
        "phone": "+91 94482 35097",
        "shop": "tailor"
      }
    },
    {
      "type": "node",
      "id": 11583339089,
      "lat": 13.0017254,
      "lon": 77.5506484,
      "tags": {
        "check_date": "2024-02-04",
        "name:signed": "no",
        "shop": "greengrocer"
      }
    },
    {
      "type": "node",
      "id": 11583339090,
      "lat": 13.0018803,
      "lon": 77.5505913,
      "tags": {
        "check_date": "2024-02-04",
        "name": "VStitch",
        "shop": "tailor"
      }
    },
    {
      "type": "node",
      "id": 11633134629,
      "lat": 13.0003314,
      "lon": 77.5500159,
      "tags": {
        "access": "yes",
        "amenity": "motorcycle_parking",
        "capacity": "8",
        "covered": "no"
      }
    },
    {
      "type": "node",
      "id": 11642288809,
      "lat": 13.009492,
      "lon": 77.5529372,
      "tags": {
        "name": "DailyBasket",
        "shop": "convenience"
      }
    },
    {
      "type": "node",
      "id": 11642307874,
      "lat": 13.0094685,
      "lon": 77.5531501,
      "tags": {
        "amenity": "clinic",
        "healthcare": "clinic",
        "name": "Apollo Clinic"
      }
    },
    {
      "type": "node",
      "id": 11642307875,
      "lat": 13.0096311,
      "lon": 77.552261,
      "tags": {
        "addr:street": "Basement Level 1",
        "shop": "greengrocer"
      }
    },
    {
      "type": "node",
      "id": 11662082260,
      "lat": 13.0046224,
      "lon": 77.5536585,
      "tags": {
        "check_date": "2024-02-25",
        "name": "Brahmasri Condiments",
        "shop": "kiosk"
      }
    },
    {
      "type": "node",
      "id": 11662082261,
      "lat": 13.004532,
      "lon": 77.5536604,
      "tags": {
        "check_date": "2024-02-25",
        "name": "Shahin New Fashion",
        "shop": "tailor"
      }
    },
    {
      "type": "node",
      "id": 11662082263,
      "lat": 13.0040532,
      "lon": 77.5510927,
      "tags": {
        "check_date": "2024-02-25",
        "name": "Sri Ganesh Diamonds & Jewels",
        "shop": "jewelry"
      }
    },
    {
      "type": "node",
      "id": 11662082264,
      "lat": 13.0034629,
      "lon": 77.5502026,
      "tags": {
        "check_date": "2024-02-25",
        "name": "Salon Perimeter",
        "shop": "hairdresser"
      }
    },
    {
      "type": "node",
      "id": 11662113631,
      "lat": 13.0092527,
      "lon": 77.5486022,
      "tags": {
        "check_date": "2024-02-25",
        "name": "Turnkey Holidays",
        "shop": "travel_agency"
      }
    },
    {
      "type": "node",
      "id": 11715597225,
      "lat": 13.0104295,
      "lon": 77.5518816,
      "tags": {
        "amenity": "toilets"
      }
    },
    {
      "type": "node",
      "id": 11715597228,
      "lat": 13.0100141,
      "lon": 77.5515588,
      "tags": {
        "amenity": "fountain"
      }
    },
    {
      "type": "node",
      "id": 11982389393,
      "lat": 12.9977266,
      "lon": 77.5496662,
      "tags": {
        "amenity": "fast_food",
        "check_date": "2024-06-15",
        "name": "Ganapa Thatte Idli"
      }
    },
    {
      "type": "node",
      "id": 11984546385,
      "lat": 13.0016657,
      "lon": 77.5504793,
      "tags": {
        "check_date": "2024-06-16",
        "shop": "tailor"
      }
    },
    {
      "type": "node",
      "id": 11993660916,
      "lat": 13.0121339,
      "lon": 77.5541881,
      "tags": {
        "amenity": "restaurant",
        "name": "Chulha Chauka Da Dhaba"
      }
    },
    {
      "type": "node",
      "id": 12017378417,
      "lat": 13.0041207,
      "lon": 77.5521581,
      "tags": {
        "check_date": "2024-06-28",
        "name": "Sri Ganesh Chaats and Foods",
        "shop": "kiosk"
      }
    },
    {
      "type": "node",
      "id": 12017378418,
      "lat": 13.0042952,
      "lon": 77.5522146,
      "tags": {
        "amenity": "post_box"
      }
    },
    {
      "type": "node",
      "id": 12017494178,
      "lat": 13.0043827,
      "lon": 77.5520732,
      "tags": {
        "check_date": "2024-06-28",
        "name": "Jai Durga Electro World",
        "shop": "electronics"
      }
    },
    {
      "type": "node",
      "id": 12100028686,
      "lat": 13.0000143,
      "lon": 77.5499059,
      "tags": {
        "amenity": "charging_station",
        "charging_station:battery_swapping": "yes",
        "fee": "yes",
        "level": "0",
        "motorcar": "no",
        "motorcycle": "yes",
        "name": "Honda e:swap",
        "operator": "Honda e:swap"
      }
    },
    {
      "type": "node",
      "id": 12103684983,
      "lat": 13.0008219,
      "lon": 77.5506281,
      "tags": {
        "amenity": "dentist",
        "check_date": "2024-08-11",
        "healthcare": "dentist",
        "name": "Vinayaka Dental Clinic"
      }
    },
    {
      "type": "node",
      "id": 12103684984,
      "lat": 12.9993937,
      "lon": 77.5501824,
      "tags": {
        "check_date": "2024-08-11",
        "name": "Cee Jay School Supplies",
        "shop": "stationery"
      }
    },
    {
      "type": "node",
      "id": 12103684985,
      "lat": 12.9993248,
      "lon": 77.5497135,
      "tags": {
        "access": "private",
        "amenity": "motorcycle_parking",
        "capacity": "10",
        "covered": "no"
      }
    },
    {
      "type": "node",
      "id": 12103825747,
      "lat": 12.9983088,
      "lon": 77.5528285,
      "tags": {
        "check_date": "2024-08-11",
        "name": "Ramya Tours & Travels",
        "shop": "travel_agency"
      }
    },
    {
      "type": "node",
      "id": 12103825749,
      "lat": 12.9990155,
      "lon": 77.5487839,
      "tags": {
        "amenity": "bench",
        "backrest": "yes",
        "seats": "2"
      }
    },
    {
      "type": "node",
      "id": 12103825750,
      "lat": 12.9988783,
      "lon": 77.5488185,
      "tags": {
        "amenity": "bench",
        "backrest": "yes",
        "seats": "2"
      }
    },
    {
      "type": "node",
      "id": 12103825766,
      "lat": 12.9982841,
      "lon": 77.552708,
      "tags": {
        "check_date": "2024-08-11",
        "name": "Mataji Mobile and Accessories",
        "shop": "mobile_phone"
      }
    },
    {
      "type": "node",
      "id": 12103825768,
      "lat": 12.9983224,
      "lon": 77.5528804,
      "tags": {
        "check_date": "2024-08-11",
        "shop": "mobile_phone"
      }
    },
    {
      "type": "node",
      "id": 12103825769,
      "lat": 12.9983131,
      "lon": 77.5527368,
      "tags": {
        "check_date": "2024-08-11",
        "name": "Mahalakshmi Tours & Travels",
        "shop": "travel_agency"
      }
    },
    {
      "type": "node",
      "id": 12103825773,
      "lat": 12.9981375,
      "lon": 77.5519794,
      "tags": {
        "amenity": "fast_food",
        "check_date": "2024-08-11",
        "name": "New Shetty Lunch Home"
      }
    },
    {
      "type": "node",
      "id": 12107774263,
      "lat": 13.0084726,
      "lon": 77.5521603,
      "tags": {
        "access": "private",
        "amenity": "parking_entrance",
        "parking": "underground"
      }
    },
    {
      "type": "node",
      "id": 12108082018,
      "lat": 13.0106228,
      "lon": 77.5535866,
      "tags": {
        "access": "private",
        "amenity": "parking_entrance",
        "parking": "underground"
      }
    },
    {
      "type": "node",
      "id": 12108082020,
      "lat": 13.0106077,
      "lon": 77.5531957,
      "tags": {
        "access": "private",
        "amenity": "parking_entrance",
        "parking": "underground"
      }
    },
    {
      "type": "node",
      "id": 12108082049,
      "lat": 13.0094467,
      "lon": 77.5520349,
      "tags": {
        "access": "private",
        "amenity": "parking_entrance",
        "parking": "underground"
      }
    },
    {
      "type": "node",
      "id": 12108082122,
      "lat": 13.0085843,
      "lon": 77.5536805,
      "tags": {
        "access": "private",
        "amenity": "parking_entrance",
        "parking": "underground"
      }
    },
    {
      "type": "node",
      "id": 12108082139,
      "lat": 13.0084471,
      "lon": 77.5535108,
      "tags": {
        "access": "private",
        "amenity": "parking_entrance",
        "parking": "underground"
      }
    },
    {
      "type": "node",
      "id": 12108082206,
      "lat": 13.0096715,
      "lon": 77.551992,
      "tags": {
        "access": "private",
        "amenity": "parking_entrance",
        "parking": "underground"
      }
    },
    {
      "type": "node",
      "id": 12108197223,
      "lat": 13.009273,
      "lon": 77.5525338,
      "tags": {
        "access": "private",
        "amenity": "parking_entrance",
        "parking": "underground"
      }
    },
    {
      "type": "node",
      "id": 12252320934,
      "lat": 12.9987184,
      "lon": 77.552661,
      "tags": {
        "addr:city": "Bengaluru",
        "addr:district": "BENGALURU URBAN",
        "addr:housenumber": "2nd & 3rd Floor, No. 4/110, 1st Main Rd, 1st Block,",
        "addr:postcode": "560010",
        "addr:street": "Dr. Rajkumar Road",
        "amenity": "clinic",
        "healthcare": "clinic",
        "healthcare:speciality": "fertility",
        "name": "Shishu Ivf Fertility Centre Pvt Ltd",
        "opening_hours": "Mo-Su 09:00-19:00",
        "operator": "Fertility Centre",
        "operator:type": "private",
        "short_name": "SHISHU IVF FERTILITY CENTRE"
      }
    },
    {
      "type": "node",
      "id": 12260569980,
      "lat": 12.998931,
      "lon": 77.5503123,
      "tags": {
        "name": "Vanillaa Bakery and Cafe",
        "shop": "bakery",
        "website": "https://vanillaablr.com/"
      }
    },
    {
      "type": "node",
      "id": 12441118643,
      "lat": 12.9991427,
      "lon": 77.5453891,
      "tags": {
        "amenity": "toilets",
        "male": "yes"
      }
    },
    {
      "type": "node",
      "id": 12441118644,
      "lat": 12.9991479,
      "lon": 77.5455681,
      "tags": {
        "amenity": "toilets",
        "female": "yes"
      }
    },
    {
      "type": "node",
      "id": 12517695086,
      "lat": 12.9987935,
      "lon": 77.54079,
      "tags": {
        "addr:city": "Basaveshwara Nagar, Bangalore",
        "addr:postcode": "560079",
        "addr:street": "Siddhaiah Puranik Road",
        "air_conditioning": "yes",
        "amenity": "bank",
        "atm": "yes",
        "brand": "Canara Bank",
        "brand:en": "Canara Bank",
        "brand:hi": "केनरा बैंक",
        "brand:kn": "ಕೆನರಾ ಬ್ಯಾಂಕ್",
        "brand:pa": "ਕੇਨਰਾ ਬੈਂਕ",
        "brand:pnb": "کینرا بینک",
        "brand:ur": "کینرا بینک",
        "brand:wikidata": "Q2003777",
        "brand:wikipedia": "en:Canara Bank",
        "brand:wikipedia:pa": "ਕੇਨਰਾ ਬੈਂਕ",
        "building": "yes",
        "currency:INR": "yes",
        "name": "Canara Bank",
        "name:en": "Canara Bank",
        "name:hi": "केनरा बैंक",
        "name:kn": "ಕೆನರಾ ಬ್ಯಾಂಕ್",
        "name:pa": "ਕੇਨਰਾ ਬੈਂਕ",
        "name:pnb": "کینرا بینک",
        "name:ur": "کینرا بینک",
        "old_name": "Syndicate Bank"
      }
    },
    {
      "type": "node",
      "id": 12529178824,
      "lat": 12.9986003,
      "lon": 77.5427169,
      "tags": {
        "addr:city": "Bengaluru",
        "addr:postcode": "560086",
        "addr:street": "Dr MC Modi Hospital Rd, West of Chord Road 2nd Stage,Mahalakshmipuram",
        "amenity": "bank",
        "brand": "Punjab National Bank",
        "brand:wikidata": "Q2743499",
        "name": "Punjab National Bank",
        "operator": "Punjab National Bank"
      }
    },
    {
      "type": "node",
      "id": 12676261328,
      "lat": 13.000323,
      "lon": 77.5503429,
      "tags": {
        "brand": "Toni & Guy",
        "brand:wikidata": "Q324784",
        "check_date": "2025-03-18",
        "name": "Toni & Guy",
        "shop": "hairdresser"
      }
    },
    {
      "type": "node",
      "id": 12676261357,
      "lat": 12.9984626,
      "lon": 77.5527166,
      "tags": {
        "check_date": "2025-03-18",
        "name": "Chinnu Photo Books",
        "shop": "books"
      }
    },
    {
      "type": "node",
      "id": 12676261358,
      "lat": 13.0019355,
      "lon": 77.553083,
      "tags": {
        "check_date": "2025-03-18",
        "name": "Madhuloka",
        "shop": "alcohol"
      }
    },
    {
      "type": "node",
      "id": 12676261359,
      "lat": 13.0030873,
      "lon": 77.5532509,
      "tags": {
        "check_date": "2025-03-18",
        "name": "Babyhug",
        "shop": "baby_goods"
      }
    },
    {
      "type": "node",
      "id": 12676261360,
      "lat": 13.0044903,
      "lon": 77.5536452,
      "tags": {
        "amenity": "pharmacy",
        "check_date": "2025-03-18",
        "healthcare": "pharmacy",
        "name": "Sri Balaji Medical and General Store"
      }
    },
    {
      "type": "node",
      "id": 12901334776,
      "lat": 13.0007892,
      "lon": 77.5527658,
      "tags": {
        "addr:city": "Bengaluru",
        "addr:hamlet": "Rajajinagar 1st Block",
        "addr:housenumber": "125",
        "addr:postcode": "560010",
        "addr:street": "Dr. Rajkumar Road",
        "addr:suburb": "Rajajinagar",
        "amenity": "cafe",
        "name": "Screws and Brews"
      }
    },
    {
      "type": "node",
      "id": 12985437778,
      "lat": 13.000092,
      "lon": 77.5500622,
      "tags": {
        "amenity": "bicycle_repair_station",
        "brand": "Trin Trin",
        "operator": "DULT",
        "service:bicycle:pump": "yes",
        "service:bicycle:stand": "yes",
        "service:bicycle:tools": "yes"
      }
    },
    {
      "type": "node",
      "id": 12985437779,
      "lat": 13.0000914,
      "lon": 77.5500488,
      "tags": {
        "amenity": "bicycle_parking",
        "bicycle_parking": "stands"
      }
    },
    {
      "type": "node",
      "id": 13183293848,
      "lat": 13.0108187,
      "lon": 77.5505626,
      "tags": {
        "check_date": "2025-09-30",
        "name": "Blum",
        "shop": "appliance"
      }
    },
    {
      "type": "way",
      "id": 29459362,
      "center": {
        "lat": 13.01008,
        "lon": 77.5511324
      },
      "tags": {
        "addr:street": "Chord Road",
        "alt_name": "ISKCON Bengaluru",
        "amenity": "place_of_worship",
        "full_name": "Sri Radha Krishna-chandra Temple",
        "landuse": "religious",
        "name": "ISKCON Sri Radha Krishna-Chandra Temple",
        "name:en": "ISKCON Sri Radha Krishna-Chandra Temple",
        "name:kn": "ಶ್ರೀ ರಾಧಾ ಕೃಷ್ಣಚಂದ್ರ ದೇವಾಲಯ",
        "name:ml": "ഇസ്‌കോൺ ശ്രീ രാധാ കൃഷ്ണ-ചന്ദ്ര ക്ഷേത്രം",
        "religion": "hindu",
        "start_date": "1997-05-01",
        "wikidata": "Q4500903",
        "wikimedia_commons": "Category:ISKCON Temple, Bangalore",
        "wikipedia": "en:ISKCON Temple, Bangalore"
      }
    },
    {
      "type": "way",
      "id": 41749089,
      "center": {
        "lat": 12.9994423,
        "lon": 77.5416585
      },
      "tags": {
        "alt_name": "Shankar Mutt Park",
        "leisure": "park",
        "name": "Swamy Vivekananda Park",
        "name:etymology:wikidata": "Q47478",
        "name:kn": "ಸ್ವಾಮಿ ವಿವೇಕನಂದ ಉದ್ಯಾನವನ"
      }
    },
    {
      "type": "way",
      "id": 42445598,
      "center": {
        "lat": 12.9993472,
        "lon": 77.5422719
      },
      "tags": {
        "alt_name": "Shankar Mutt Grounds",
        "leisure": "pitch",
        "name": "Vivekananda Grounds",
        "name:kn": "ವಿವೇಕಾನಂದ ಮೈದಾನ"
      }
    },
    {
      "type": "way",
      "id": 133117380,
      "center": {
        "lat": 13.0115204,
        "lon": 77.5521069
      },
      "tags": {
        "addr:district": "Bengaluru Urban",
        "addr:full": "#121/C, Chord Road , 1st R Block, Rajajinagar, , B.N",
        "addr:postcode": "560010",
        "addr:state": "Karnataka",
        "amenity": "clinic",
        "name": "Narayana Nethralaya",
        "name:kn": "ನಾರಾಯಣ ನೇತ್ರಾಲಯ",
        "source": "OpenGovernmentData",
        "wheelchair": "yes"
      }
    },
    {
      "type": "way",
      "id": 133720139,
      "center": {
        "lat": 13.0079076,
        "lon": 77.5481009
      },
      "tags": {
        "amenity": "community_centre",
        "building": "yes",
        "name": "Sapthagiri Kalyana Mantapa",
        "name:kn": "ಸಪ್ತಗಿರಿ ಕಲ್ಯಾಣ ಮಂಟಪ"
      }
    },
    {
      "type": "way",
      "id": 138905256,
      "center": {
        "lat": 13.0026042,
        "lon": 77.55172
      },
      "tags": {
        "leisure": "park",
        "name": "Kala Kesari Udayakumar",
        "name:etymology:wikidata": "Q7877031"
      }
    },
    {
      "type": "way",
      "id": 149418901,
      "center": {
        "lat": 13.0129604,
        "lon": 77.5540663
      },
      "tags": {
        "leisure": "park",
        "name": "Basava Dhama Park",
        "name:kn": "ಬಸವ ಧಾಮ"
      }
    },
    {
      "type": "way",
      "id": 168384742,
      "center": {
        "lat": 13.0093859,
        "lon": 77.5493192
      },
      "tags": {
        "amenity": "community_centre",
        "landuse": "commercial",
        "name": "Sharana Seva Samaja",
        "name:kn": "ಶರಣ ಸೇವ ಸಮಾಜ"
      }
    },
    {
      "type": "way",
      "id": 192047505,
      "center": {
        "lat": 13.0122259,
        "lon": 77.5539301
      },
      "tags": {
        "name": "@home",
        "shop": "mall"
      }
    },
    {
      "type": "way",
      "id": 192184216,
      "center": {
        "lat": 12.9983963,
        "lon": 77.5488518
      },
      "tags": {
        "leisure": "park",
        "name": "Line Park"
      }
    },
    {
      "type": "way",
      "id": 220190602,
      "center": {
        "lat": 13.0019567,
        "lon": 77.5519554
      },
      "tags": {
        "amenity": "place_of_worship",
        "name": "Hanuman Temple",
        "name:kn": "ಹನುಮಂತ ದೇವಸ್ಥಾನ",
        "religion": "hindu"
      }
    },
    {
      "type": "way",
      "id": 220553492,
      "center": {
        "lat": 12.9999825,
        "lon": 77.5421478
      },
      "tags": {
        "amenity": "school",
        "building": "yes",
        "name": "Hamsalekha Music school"
      }
    },
    {
      "type": "way",
      "id": 337520260,
      "center": {
        "lat": 13.0055626,
        "lon": 77.5491087
      },
      "tags": {
        "leisure": "park",
        "name": "Hare Krishna Park",
        "name:kn": "ಹರೇಕೃಷ್ಣ ಉದ್ಯಾನವನ"
      }
    },
    {
      "type": "way",
      "id": 347127623,
      "center": {
        "lat": 13.001221,
        "lon": 77.5505581
      },
      "tags": {
        "addr:city": "Bengaluru",
        "addr:floor": "0",
        "addr:housenumber": "PRAKASH JEWELLERS, NO1113",
        "addr:postcode": "560010",
        "addr:street": "19th Main Road, 1ST BLOCK, RAJAJINAGAR",
        "air_conditioning": "yes",
        "building": "office",
        "check_date": "2023-12-23",
        "currency:INR": "yes",
        "description": "Since 1989, Prakash Jewellers has offered masterpieces. We specialise in Gold, Silver, Diamond, Precious Gem Stones, Corporate gifting, Platinum All of which is an ode to the deity in every woman.Since 1989, Prakash Jewellers has offe",
        "email": "PRAKASHJEWELLERS@YAHOO.COM",
        "internet_access": "no",
        "level": "0",
        "name": "Prakash Jewellers",
        "opening_hours": "Mo-Su 10:00-20:30",
        "operator": "PRAKASH JEWELLERS",
        "payment:american_express": "yes",
        "payment:cash": "yes",
        "payment:contactless": "yes",
        "payment:credit_cards": "yes",
        "payment:debit_cards": "yes",
        "payment:mastercard": "yes",
        "payment:visa": "yes",
        "second_hand": "no",
        "shop": "jewelry",
        "source": "local knowledge",
        "stroller": "limited",
        "website": "WWW.PRAKASHJEWELLERS.COM",
        "wheelchair": "no"
      }
    },
    {
      "type": "way",
      "id": 347497660,
      "center": {
        "lat": 12.992849,
        "lon": 77.5386619
      },
      "tags": {
        "addr:district": "Bengaluru Urban",
        "addr:full": "334, 3rd Stage, 4th Block, Basaveshwaranagar",
        "addr:postcode": "560079",
        "addr:state": "Karnataka",
        "amenity": "hospital",
        "building": "hospital",
        "healthcare": "hospital",
        "name": "Supra Hospital",
        "operator:type": "private",
        "website": "http://www.panaceahospital.com/"
      }
    },
    {
      "type": "way",
      "id": 347497848,
      "center": {
        "lat": 12.9929909,
        "lon": 77.5387177
      },
      "tags": {
        "addr:city": "Basaveshwara Nagar, Bangalore",
        "addr:housenumber": "334",
        "addr:postcode": "560079",
        "addr:street": "8th Main, 3rd Stage",
        "amenity": "hospital",
        "building": "yes",
        "emergency": "yes",
        "healthcare": "hospital",
        "name": "GM Hospital",
        "wheelchair": "yes"
      }
    },
    {
      "type": "way",
      "id": 349044761,
      "center": {
        "lat": 12.9937772,
        "lon": 77.5390039
      },
      "tags": {
        "addr:postcode": "560079",
        "amenity": "post_office",
        "building": "yes",
        "name": "Basaveshwara Nagar Post Office",
        "name:kn": "ಬಸವೇಶ್ವರನಗರ ಅಂಚೆ ಕಛೇರಿ"
      }
    },
    {
      "type": "way",
      "id": 353763592,
      "center": {
        "lat": 13.0053355,
        "lon": 77.5533687
      },
      "tags": {
        "leisure": "garden"
      }
    },
    {
      "type": "way",
      "id": 363069942,
      "center": {
        "lat": 12.9988269,
        "lon": 77.5387661
      },
      "tags": {
        "leisure": "park"
      }
    },
    {
      "type": "way",
      "id": 363069963,
      "center": {
        "lat": 12.9976289,
        "lon": 77.5375677
      },
      "tags": {
        "leisure": "park"
      }
    },
    {
      "type": "way",
      "id": 412935366,
      "center": {
        "lat": 13.0010146,
        "lon": 77.5360114
      },
      "tags": {
        "leisure": "playground"
      }
    },
    {
      "type": "way",
      "id": 412935370,
      "center": {
        "lat": 13.0013543,
        "lon": 77.5374954
      },
      "tags": {
        "leisure": "park"
      }
    },
    {
      "type": "way",
      "id": 412935374,
      "center": {
        "lat": 13.0019286,
        "lon": 77.5394486
      },
      "tags": {
        "leisure": "park"
      }
    },
    {
      "type": "way",
      "id": 454420332,
      "center": {
        "lat": 12.9967265,
        "lon": 77.5354857
      },
      "tags": {
        "amenity": "place_of_worship",
        "building": "yes",
        "name": "Shani Mahatma Temple",
        "name:kn": "ಶನಿ ಮಹಾತ್ಮ ದೇವಸ್ಥಾನ",
        "religion": "hindu"
      }
    },
    {
      "type": "way",
      "id": 509635906,
      "center": {
        "lat": 13.0058595,
        "lon": 77.5509092
      },
      "tags": {
        "leisure": "playground"
      }
    },
    {
      "type": "way",
      "id": 513532062,
      "center": {
        "lat": 13.0067504,
        "lon": 77.5529489
      },
      "tags": {
        "addr:district": "Bengaluru Urban",
        "addr:full": "#1, Dr. Rajkumar Road, I Block,Rajajinagar,Near Vivekananda College",
        "addr:postcode": "560010",
        "addr:state": "Karnataka",
        "addr:street": "Dr Rajkumar Road",
        "alt_name": "Gudde Hospital",
        "amenity": "hospital",
        "healthcare": "hospital",
        "name": "St. Theresa's Hospital",
        "name:kn": "ಸೈಂಟ್ ತೆರೇಸ ಆಸ್ಪತ್ರೆ",
        "old_name": "St Theresa's Tuberculosis Sanatorium",
        "source": "OpenGovernmentData"
      }
    },
    {
      "type": "way",
      "id": 545806415,
      "center": {
        "lat": 12.9979566,
        "lon": 77.5506802
      },
      "tags": {
        "access": "yes",
        "amenity": "parking",
        "fee": "yes",
        "name": "Rajajinagar Metro Parking",
        "parking": "surface"
      }
    },
    {
      "type": "way",
      "id": 545806416,
      "center": {
        "lat": 13.0035496,
        "lon": 77.5525528
      },
      "tags": {
        "leisure": "park",
        "name": "BBMP Playground",
        "name:kn": "ಬೃ. ಬೆ. ಮ. ಪಾ. ಉದ್ಯಾನವನ",
        "operator": "ಬೃಹತ್ ಬೆಂಗಳೂರು ಮಹಾನಗರ ಪಾಲಿಕೆ",
        "operator:en": "Bruhat Bengaluru Mahanagara Palike",
        "operator:ka": "ಬೃಹತ್ ಬೆಂಗಳೂರು ಮಹಾನಗರ ಪಾಲಿಕೆ",
        "operator:short": "BBMP",
        "operator:type": "government",
        "operator:wikidata": "Q4978693"
      }
    },
    {
      "type": "way",
      "id": 545806417,
      "center": {
        "lat": 13.0039765,
        "lon": 77.5525746
      },
      "tags": {
        "alt_name": "Vidya Vardhaka Sangha",
        "amenity": "school",
        "name": "VVS Sardar Patel High School",
        "name:kn": "ಸರ್ದಾರ್ ಪಟೇಲ್ ಪ್ರೌಡಶಾಲೆ"
      }
    },
    {
      "type": "way",
      "id": 690210884,
      "center": {
        "lat": 13.0091022,
        "lon": 77.5527358
      },
      "tags": {
        "leisure": "swimming_pool",
        "location": "outdoor",
        "name": "Kids Pool"
      }
    },
    {
      "type": "way",
      "id": 690210885,
      "center": {
        "lat": 13.0090087,
        "lon": 77.5527795
      },
      "tags": {
        "leisure": "swimming_pool",
        "name": "Wading Pool"
      }
    },
    {
      "type": "way",
      "id": 690210886,
      "center": {
        "lat": 13.0090312,
        "lon": 77.5529456
      },
      "tags": {
        "leisure": "swimming_pool",
        "name": "Swimmers Pool"
      }
    },
    {
      "type": "way",
      "id": 690210907,
      "center": {
        "lat": 13.0095713,
        "lon": 77.5528602
      },
      "tags": {
        "access": "permissive",
        "amenity": "parking",
        "operator": "Visitor Parking",
        "parking": "surface"
      }
    },
    {
      "type": "way",
      "id": 690213364,
      "center": {
        "lat": 13.0093779,
        "lon": 77.5527652
      },
      "tags": {
        "leisure": "playground"
      }
    },
    {
      "type": "way",
      "id": 691136416,
      "center": {
        "lat": 13.0101633,
        "lon": 77.55268
      },
      "tags": {
        "access": "private",
        "leisure": "pitch",
        "lit": "yes",
        "name": "Club One Tennis Court",
        "name:kn": "ಟೆನಿಸ್ ಅಂಕಣ",
        "sport": "tennis",
        "surface": "artificial_turf"
      }
    },
    {
      "type": "way",
      "id": 691137056,
      "center": {
        "lat": 13.0090674,
        "lon": 77.5526627
      },
      "tags": {
        "amenity": "shelter",
        "building": "yes",
        "shelter_type": "gazebo"
      }
    },
    {
      "type": "way",
      "id": 691137058,
      "center": {
        "lat": 13.0089522,
        "lon": 77.5527112
      },
      "tags": {
        "amenity": "shelter",
        "building": "yes",
        "shelter_type": "gazebo"
      }
    },
    {
      "type": "way",
      "id": 697081723,
      "center": {
        "lat": 12.9980069,
        "lon": 77.5459005
      },
      "tags": {
        "addr:district": "Bengaluru Urban",
        "addr:full": "Modi Hospital Road, Mahalakshmipuram",
        "addr:postcode": "560086",
        "addr:state": "Karnataka",
        "amenity": "hospital",
        "email": "modihospital@hotmail.com",
        "healthcare": "hospital",
        "name": "M C Modi Eye Hospital",
        "name:etymology:wikidata": "Q1880759",
        "name:kn": "ಮೋದಿ ಕಣ್ಣಿನ ಆಸ್ಪತ್ರೆ",
        "operator:type": "private",
        "source": "OpenGovernmentData",
        "website": "http://www.modieyehospital.com/",
        "wheelchair": "yes"
      }
    },
    {
      "type": "way",
      "id": 700172529,
      "center": {
        "lat": 12.9978595,
        "lon": 77.5501287
      },
      "tags": {
        "leisure": "garden"
      }
    },
    {
      "type": "way",
      "id": 714976204,
      "center": {
        "lat": 13.0055025,
        "lon": 77.5521133
      },
      "tags": {
        "leisure": "park"
      }
    },
    {
      "type": "way",
      "id": 771371487,
      "center": {
        "lat": 13.0068414,
        "lon": 77.5499952
      },
      "tags": {
        "leisure": "park"
      }
    },
    {
      "type": "way",
      "id": 771371488,
      "center": {
        "lat": 13.0045479,
        "lon": 77.5503331
      },
      "tags": {
        "alt_name": "Vidya Vardhaka Sangha",
        "amenity": "school",
        "name": "VVS School and College"
      }
    },
    {
      "type": "way",
      "id": 771371489,
      "center": {
        "lat": 13.0047302,
        "lon": 77.5501352
      },
      "tags": {
        "amenity": "school",
        "name": "PVP School"
      }
    },
    {
      "type": "way",
      "id": 771371501,
      "center": {
        "lat": 13.0070621,
        "lon": 77.5541998
      },
      "tags": {
        "leisure": "garden"
      }
    },
    {
      "type": "way",
      "id": 771371502,
      "center": {
        "lat": 13.006949,
        "lon": 77.5538286
      },
      "tags": {
        "leisure": "garden"
      }
    },
    {
      "type": "way",
      "id": 771371516,
      "center": {
        "lat": 13.005314,
        "lon": 77.5533932
      },
      "tags": {
        "amenity": "college",
        "denomination": "catholic",
        "landuse": "religious",
        "name": "Indian Institute of Spirituality",
        "religion": "christian",
        "website": "https://www.iispirituality.org/"
      }
    },
    {
      "type": "way",
      "id": 777476399,
      "center": {
        "lat": 13.002241,
        "lon": 77.5517741
      },
      "tags": {
        "access": "yes",
        "leisure": "playground"
      }
    },
    {
      "type": "way",
      "id": 792799065,
      "center": {
        "lat": 12.9986489,
        "lon": 77.545599
      },
      "tags": {
        "amenity": "school",
        "name": "Sri Aurobindo Vidya Mandir",
        "name:etymology:wikidata": "Q192207"
      }
    },
    {
      "type": "way",
      "id": 886251287,
      "center": {
        "lat": 13.0001456,
        "lon": 77.5394506
      },
      "tags": {
        "amenity": "place_of_worship",
        "religion": "hindu"
      }
    },
    {
      "type": "way",
      "id": 996044801,
      "center": {
        "lat": 13.0088868,
        "lon": 77.5530722
      },
      "tags": {
        "leisure": "garden"
      }
    },
    {
      "type": "way",
      "id": 1034860583,
      "center": {
        "lat": 13.0083382,
        "lon": 77.5486182
      },
      "tags": {
        "access": "customers",
        "amenity": "motorcycle_parking",
        "capacity": "40",
        "covered": "yes",
        "parking": "surface"
      }
    },
    {
      "type": "way",
      "id": 1039760096,
      "center": {
        "lat": 13.0037724,
        "lon": 77.5498285
      },
      "tags": {
        "addr:district": "Bengaluru Urban",
        "addr:full": "359 / 360, 19Th Main 1 St Block Rajajinagar Near Indian Bank",
        "addr:postcode": "560010",
        "addr:state": "Karnataka",
        "amenity": "hospital",
        "healthcare": "hospital",
        "name": "Diacon Hospital",
        "source": "OpenGovernmentData",
        "wheelchair": "yes"
      }
    },
    {
      "type": "way",
      "id": 1052008917,
      "center": {
        "lat": 13.0104348,
        "lon": 77.5533894
      },
      "tags": {
        "leisure": "garden"
      }
    },
    {
      "type": "way",
      "id": 1052008919,
      "center": {
        "lat": 13.0113906,
        "lon": 77.5542501
      },
      "tags": {
        "amenity": "place_of_worship",
        "religion": "hindu"
      }
    },
    {
      "type": "way",
      "id": 1068852042,
      "center": {
        "lat": 13.0076129,
        "lon": 77.5540261
      },
      "tags": {
        "amenity": "place_of_worship",
        "landuse": "religious",
        "name": "Sadbhavana",
        "name:kn": "ಸದ್ಭವನ",
        "religion": "christian"
      }
    },
    {
      "type": "way",
      "id": 1068852043,
      "center": {
        "lat": 13.008106,
        "lon": 77.5539972
      },
      "tags": {
        "amenity": "place_of_worship",
        "landuse": "religious",
        "name": "Saccidananda",
        "name:kn": "ಸಚ್ಚಿದಾನಂದ",
        "religion": "christian"
      }
    },
    {
      "type": "way",
      "id": 1071184196,
      "center": {
        "lat": 13.004501,
        "lon": 77.5525956
      },
      "tags": {
        "amenity": "place_of_worship",
        "landuse": "religious",
        "religion": "hindu"
      }
    },
    {
      "type": "way",
      "id": 1084353639,
      "center": {
        "lat": 13.0062026,
        "lon": 77.5493497
      },
      "tags": {
        "amenity": "kindergarten",
        "name": "NPS Global Montessori Centre"
      }
    },
    {
      "type": "way",
      "id": 1084353641,
      "center": {
        "lat": 13.0025025,
        "lon": 77.5516011
      },
      "tags": {
        "amenity": "place_of_worship",
        "religion": "hindu"
      }
    },
    {
      "type": "way",
      "id": 1084356330,
      "center": {
        "lat": 13.0058301,
        "lon": 77.5512891
      },
      "tags": {
        "amenity": "community_centre",
        "name": "Vigneshwara Seva Samiti",
        "name:kn": "ವಿಘ್ನೇಶ್ವರ ಸೇವಾ ಸಮಿತಿ"
      }
    },
    {
      "type": "way",
      "id": 1084356331,
      "center": {
        "lat": 13.0058534,
        "lon": 77.5513311
      },
      "tags": {
        "amenity": "place_of_worship",
        "religion": "hindu"
      }
    },
    {
      "type": "way",
      "id": 1084356335,
      "center": {
        "lat": 13.0065312,
        "lon": 77.5506788
      },
      "tags": {
        "leisure": "park"
      }
    },
    {
      "type": "way",
      "id": 1084356337,
      "center": {
        "lat": 13.0070617,
        "lon": 77.5497316
      },
      "tags": {
        "leisure": "park"
      }
    },
    {
      "type": "way",
      "id": 1095561530,
      "center": {
        "lat": 13.0056112,
        "lon": 77.5537536
      },
      "tags": {
        "leisure": "pitch",
        "sport": "tennis"
      }
    },
    {
      "type": "way",
      "id": 1095561532,
      "center": {
        "lat": 13.0056865,
        "lon": 77.5532269
      },
      "tags": {
        "access": "permissive",
        "amenity": "parking",
        "parking": "surface"
      }
    },
    {
      "type": "way",
      "id": 1095561533,
      "center": {
        "lat": 13.0059032,
        "lon": 77.553589
      },
      "tags": {
        "amenity": "monastery",
        "community:gender": "female",
        "denomination": "catholic",
        "landuse": "religious",
        "monastery:type": "convent",
        "name": "Sisters of Sacred Science",
        "religion": "christian"
      }
    },
    {
      "type": "way",
      "id": 1106402219,
      "center": {
        "lat": 13.0099112,
        "lon": 77.5495432
      },
      "tags": {
        "amenity": "place_of_worship",
        "landuse": "religious",
        "religion": "hindu"
      }
    },
    {
      "type": "way",
      "id": 1187216975,
      "center": {
        "lat": 12.9985317,
        "lon": 77.5474197
      },
      "tags": {
        "access": "private",
        "leisure": "swimming_pool"
      }
    },
    {
      "type": "way",
      "id": 1206776944,
      "center": {
        "lat": 12.9934577,
        "lon": 77.5383785
      },
      "tags": {
        "amenity": "community_centre"
      }
    },
    {
      "type": "way",
      "id": 1217525766,
      "center": {
        "lat": 13.0111729,
        "lon": 77.5521903
      },
      "tags": {
        "landuse": "industrial",
        "name": "Dhobi Ghat",
        "name:kn": "ಧೋಬಿ ಘಾಟ್",
        "shop": "laundry"
      }
    },
    {
      "type": "way",
      "id": 1217525767,
      "center": {
        "lat": 13.0105757,
        "lon": 77.553401
      },
      "tags": {
        "access": "private",
        "leisure": "swimming_pool"
      }
    },
    {
      "type": "way",
      "id": 1219879687,
      "center": {
        "lat": 13.0008676,
        "lon": 77.5504528
      },
      "tags": {
        "access": "yes",
        "amenity": "motorcycle_parking",
        "capacity": "30",
        "covered": "no"
      }
    },
    {
      "type": "way",
      "id": 1219879688,
      "center": {
        "lat": 13.0014154,
        "lon": 77.5503491
      },
      "tags": {
        "amenity": "motorcycle_parking",
        "capacity": "20",
        "covered": "no"
      }
    },
    {
      "type": "way",
      "id": 1252533778,
      "center": {
        "lat": 13.0098601,
        "lon": 77.5527805
      },
      "tags": {
        "leisure": "bleachers",
        "name": "Tennis Viewing Area"
      }
    },
    {
      "type": "way",
      "id": 1252533784,
      "center": {
        "lat": 13.0098651,
        "lon": 77.5531153
      },
      "tags": {
        "amenity": "fountain"
      }
    },
    {
      "type": "way",
      "id": 1252538848,
      "center": {
        "lat": 13.0091992,
        "lon": 77.553276
      },
      "tags": {
        "access": "private",
        "leisure": "pitch",
        "lit": "yes",
        "name": "Cricket Nets",
        "sport": "cricket",
        "surface": "artificial_turf"
      }
    },
    {
      "type": "way",
      "id": 1270680418,
      "center": {
        "lat": 13.0028282,
        "lon": 77.5517083
      },
      "tags": {
        "amenity": "shelter",
        "building": "yes",
        "shelter_type": "gazebo"
      }
    },
    {
      "type": "way",
      "id": 1297586915,
      "center": {
        "lat": 13.0123161,
        "lon": 77.5537226
      },
      "tags": {
        "amenity": "fuel",
        "brand": "Shell",
        "brand:wikidata": "Q110716465",
        "fuel:diesel": "yes",
        "fuel:octane_91": "yes",
        "landuse": "retail",
        "name": "Shell",
        "name:kn": "ಶೆಲ್"
      }
    },
    {
      "type": "way",
      "id": 1307410637,
      "center": {
        "lat": 13.0067906,
        "lon": 77.5541649
      },
      "tags": {
        "access": "customers",
        "amenity": "parking",
        "parking": "surface"
      }
    },
    {
      "type": "way",
      "id": 1307431272,
      "center": {
        "lat": 13.0092625,
        "lon": 77.5516435
      },
      "tags": {
        "amenity": "parking",
        "fee": "yes",
        "name": "ISKCON Temple Parking",
        "parking": "surface"
      }
    },
    {
      "type": "way",
      "id": 1307470629,
      "center": {
        "lat": 13.009779,
        "lon": 77.5519575
      },
      "tags": {
        "access": "permissive",
        "amenity": "parking",
        "parking": "surface"
      }
    },
    {
      "type": "way",
      "id": 1307470630,
      "center": {
        "lat": 13.0093651,
        "lon": 77.5520259
      },
      "tags": {
        "access": "permissive",
        "amenity": "parking",
        "parking": "surface"
      }
    },
    {
      "type": "way",
      "id": 1307470631,
      "center": {
        "lat": 13.0088961,
        "lon": 77.551979
      },
      "tags": {
        "access": "permissive",
        "amenity": "parking",
        "parking": "surface"
      }
    },
    {
      "type": "way",
      "id": 1352955735,
      "center": {
        "lat": 13.012409,
        "lon": 77.5543198
      },
      "tags": {
        "amenity": "motorcycle_parking"
      }
    },
    {
      "type": "way",
      "id": 1444555977,
      "center": {
        "lat": 12.9992902,
        "lon": 77.5379424
      },
      "tags": {
        "amenity": "community_centre",
        "building": "outbuilding",
        "community_centre": "events_place",
        "name": "BBMP Yoga Center",
        "operator": "BBMP",
        "operator:type": "public/government"
      }
    }
  ]
}