{
  "area_name": "KFSC Layout",
  "osm_id": 12630280575,
  "osm_type": "node",
  "place_type": "neighbourhood",
  "amenity_count": 106,
  "amenities": [
    {
      "type": "node",
      "id": 454141779,
      "lat": 13.0197391,
      "lon": 77.6368364,
      "tags": {
        "name": "Sabari Vegetables and Fruits",
        "shop": "greengrocer"
      }
    },
    {
      "type": "node",
      "id": 454141780,
      "lat": 13.019526,
      "lon": 77.6367557,
      "tags": {
        "name": "Sansar Collections",
        "shop": "clothes"
      }
    },
    {
      "type": "node",
      "id": 454141789,
      "lat": 13.0192548,
      "lon": 77.6366323,
      "tags": {
        "amenity": "dentist",
        "name": "Dental and Orthodontic Clinic"
      }
    },
    {
      "type": "node",
      "id": 454142398,
      "lat": 13.0185503,
      "lon": 77.6364728,
      "tags": {
        "amenity": "hospital",
        "name": "Sathya Hospital",
        "name:kn": "ಸತ್ಯ ಆಸ್ಪತ್ರೆ"
      }
    },
    {
      "type": "node",
      "id": 454142399,
      "lat": 13.0183245,
      "lon": 77.6364269,
      "tags": {
        "amenity": "pharmacy",
        "dispensing": "yes",
        "name": "Sathya Medicals"
      }
    },
    {
      "type": "node",
      "id": 454143804,
      "lat": 13.0196337,
      "lon": 77.6342441,
      "tags": {
        "amenity": "kindergarten",
        "name": "Small World"
      }
    },
    {
      "type": "node",
      "id": 454148293,
      "lat": 13.0203163,
      "lon": 77.6325425,
      "tags": {
        "amenity": "place_of_worship",
        "name": "India Evangelical Church",
        "religion": "christian"
      }
    },
    {
      "type": "node",
      "id": 454148310,
      "lat": 13.0194729,
      "lon": 77.6312833,
      "tags": {
        "amenity": "place_of_worship",
        "name": "Sri Durgadevi Temple",
        "name:kn": "ಶ್ರೀ ದುರ್ಗಾದೇವಿ ದೇವಸ್ಥಾನ",
        "religion": "hindu"
      }
    },
    {
      "type": "node",
      "id": 454148315,
      "lat": 13.0194682,
      "lon": 77.6332105,
      "tags": {
        "amenity": "cafe",
        "internet_access": "terminal",
        "name": "Thambis's Inetcafé"
      }
    },
    {
      "type": "node",
      "id": 454150068,
      "lat": 13.0201083,
      "lon": 77.6304232,
      "tags": {
        "amenity": "place_of_worship",
        "name": "Masjid-E-Noorani",
        "religion": "muslim"
      }
    },
    {
      "type": "node",
      "id": 454160729,
      "lat": 13.017623,
      "lon": 77.6341168,
      "tags": {
        "amenity": "kindergarten",
        "name": "Orchid Academy"
      }
    },
    {
      "type": "node",
      "id": 1474877583,
      "lat": 13.0188908,
      "lon": 77.6276297,
      "tags": {
        "amenity": "place_of_worship",
        "name": "Sri Rama Temple",
        "name:kn": "ಶ್ರೀರಾಮ ದೇವಸ್ಥಾನ",
        "religion": "hindu"
      }
    },
    {
      "type": "node",
      "id": 2211056425,
      "lat": 13.0145004,
      "lon": 77.635717,
      "tags": {
        "amenity": "restaurant",
        "cuisine": "indian",
        "name": "Empire Restaurant"
      }
    },
    {
      "type": "node",
      "id": 2211056431,
      "lat": 13.0144977,
      "lon": 77.6357519,
      "tags": {
        "name": "Bakey and Joy",
        "shop": "bakery"
      }
    },
    {
      "type": "node",
      "id": 2470763135,
      "lat": 13.0178488,
      "lon": 77.6364588,
      "tags": {
        "amenity": "fast_food",
        "local_ref": "KAMAANAHALLI",
        "name": "Kammanahalli",
        "name:en": "Kammanahalli",
        "name:kn": "ಕಮ್ಮನಹಳ್ಳಿ",
        "network": "BMTC",
        "operator": "BMTC"
      }
    },
    {
      "type": "node",
      "id": 3742215036,
      "lat": 13.0194557,
      "lon": 77.6280049,
      "tags": {
        "addr:city": "Bangalore",
        "addr:street": "5th Main",
        "amenity": "place_of_worship",
        "name": "Sai Baba Temple",
        "name:kn": "ಸಾಯಿಬಾಬಾ ದೇವಸ್ಥಾನ",
        "religion": "hindu"
      }
    },
    {
      "type": "node",
      "id": 3742218415,
      "lat": 13.0188187,
      "lon": 77.6270726,
      "tags": {
        "addr:city": "Bangalore",
        "addr:street": "5th Main",
        "amenity": "place_of_worship",
        "name": "Lakshmi Narasimha Swamy Temple",
        "name:kn": "ಲಕ್ಷ್ಮಿ ನರಸಿಂಹ ಸ್ವಾಮಿ ದೇವಸ್ಥಾನ",
        "religion": "hindu"
      }
    },
    {
      "type": "node",
      "id": 3918664256,
      "lat": 13.0195687,
      "lon": 77.6371797,
      "tags": {
        "amenity": "restaurant",
        "cuisine": "korean",
        "name": "Arirang Korean Restaurant"
      }
    },
    {
      "type": "node",
      "id": 4263311302,
      "lat": 13.0148535,
      "lon": 77.6336331,
      "tags": {
        "name": "Maha Bazar",
        "shop": "supermarket"
      }
    },
    {
      "type": "node",
      "id": 4263313808,
      "lat": 13.0147612,
      "lon": 77.6335463,
      "tags": {
        "amenity": "hospital",
        "name": "Dianova Diabetes Center and Hospital"
      }
    },
    {
      "type": "node",
      "id": 4349391290,
      "lat": 13.0047906,
      "lon": 77.636936,
      "tags": {
        "amenity": "fuel",
        "brand": "Indian Oil",
        "brand:wikidata": "Q1289348",
        "brand:wikipedia": "en:Indian Oil Corporation",
        "name": "Indianoil"
      }
    },
    {
      "type": "node",
      "id": 4349396789,
      "lat": 13.0042413,
      "lon": 77.6358455,
      "tags": {
        "amenity": "place_of_worship",
        "name": "Temple",
        "name:kn": "ದೇವಸ್ಥಾನ",
        "religion": "hindu"
      }
    },
    {
      "type": "node",
      "id": 4426126391,
      "lat": 13.0155316,
      "lon": 77.6394955,
      "tags": {
        "amenity": "cafe",
        "name": "Al Amanah Cafe",
        "name:en": "Al amanah cafe"
      }
    },
    {
      "type": "node",
      "id": 4446897124,
      "lat": 13.013929,
      "lon": 77.6389286,
      "tags": {
        "addr:city": "bangalore",
        "addr:housenumber": "8",
        "addr:postcode": "560033",
        "addr:street": "Nehru Road, Kullappa Road, Near-Kullapa Circle, Kammanahalli, PNS Layout, Subbayianiah Palyam, Banswadi",
        "amenity": "pharmacy",
        "name": "Royal Medicals",
        "phone": "08033792698"
      }
    },
    {
      "type": "node",
      "id": 4446912425,
      "lat": 13.0120076,
      "lon": 77.629801,
      "tags": {
        "addr:city": "bengaluru",
        "addr:postcode": "560066",
        "addr:street": "Immadihalli Main Rd, Vinayaka Layout, Whitefield",
        "amenity": "pharmacy",
        "drive_through": "no",
        "name": "Sri Durga Medicals",
        "phone": "+9198456 19107",
        "source": "http://www.bangalorean.co.in/"
      }
    },
    {
      "type": "node",
      "id": 4446981238,
      "lat": 13.0155944,
      "lon": 77.6397049,
      "tags": {
        "addr:city": "bangalore",
        "addr:housenumber": "20, 5th Avenue",
        "addr:postcode": "560043",
        "addr:street": "PNS Layout, Kalyan Nagar,",
        "amenity": "restaurant",
        "cuisine": "regional",
        "delivery": "yes",
        "name": "Al Amanah Cafe",
        "opening_hours": "16:00-23:30",
        "smoking": "no",
        "takeaway": "yes"
      }
    },
    {
      "type": "node",
      "id": 4489336845,
      "lat": 13.0142127,
      "lon": 77.6361981,
      "tags": {
        "addr:city": "bengalore",
        "addr:housenumber": "48, 49",
        "addr:postcode": "560084",
        "addr:street": "3rd Main Nehru Rd, MEG Layout, A Narayanapura, Kammanahalli,",
        "name": "Falcon Sports",
        "opening_hours": "10:30-22:30",
        "phone": "+919901541131",
        "shop": "sports"
      }
    },
    {
      "type": "node",
      "id": 4489749852,
      "lat": 13.0151194,
      "lon": 77.6368067,
      "tags": {
        "addr:city": "bangalore",
        "addr:housenumber": "218",
        "addr:postcode": "560043",
        "addr:street": "Sunshine Complex, 3rd Floor, Kammanahalli Main Road, Kalyan Nagar Post, HRBR Layout",
        "name": "Hair Do Salon And Spa",
        "opening_hours": "09:00-21:30",
        "phone": "080-25448677",
        "shop": "beauty"
      }
    },
    {
      "type": "node",
      "id": 4489754229,
      "lat": 13.0133693,
      "lon": 77.6355793,
      "tags": {
        "addr:city": "bangalore",
        "addr:housenumber": "36",
        "addr:postcode": "560084",
        "addr:street": "1st Floor, Kammanahalli Main Road, Kammanahalli",
        "leisure": "sports_centre",
        "name": "Leon Maestro De Fitness",
        "opening_hours": "05:00-23:00",
        "phone": "(91)-80-33537002",
        "sport": "gymnastics",
        "website": "https://www.fitternity.com/"
      }
    },
    {
      "type": "node",
      "id": 4489844854,
      "lat": 13.0195645,
      "lon": 77.6372622,
      "tags": {
        "addr:city": "bangalore",
        "addr:housenumber": "43",
        "addr:postcode": "560043",
        "addr:street": "1st Floor, Horamavu Main Road, Horamavu",
        "name": "Shaakya Body Spa",
        "opening_hours": "09:00-21:30",
        "phone": "9886440056",
        "shop": "beauty",
        "website": "https://www.shaakyaspa.com/"
      }
    },
    {
      "type": "node",
      "id": 4489877531,
      "lat": 13.0155509,
      "lon": 77.6323859,
      "tags": {
        "addr:city": "bangalore",
        "addr:housenumber": "317",
        "addr:postcode": "560084",
        "addr:street": "3rd Block,3rd D Main, Kammanahalli",
        "name": "Parker Spa And Salon",
        "opening_hours": "09:00-21:00",
        "phone": "9611354523",
        "shop": "beauty"
      }
    },
    {
      "type": "node",
      "id": 4489887189,
      "lat": 13.0106898,
      "lon": 77.6367534,
      "tags": {
        "addr:city": "bangalore",
        "addr:housenumber": "44",
        "addr:postcode": "560084",
        "addr:street": "Kammanahalli Main Road",
        "name": "Sensia Salon And Spa",
        "opening_hours": "09:00-21:00",
        "phone": "9611995786",
        "shop": "beauty"
      }
    },
    {
      "type": "node",
      "id": 4489894388,
      "lat": 13.0153602,
      "lon": 77.6307515,
      "tags": {
        "addr:city": "bangalore",
        "addr:housenumber": "1987",
        "addr:postcode": "560084",
        "addr:street": "kammahalli road",
        "name": "Ebony Blonde",
        "opening_hours": "09:00-21:30",
        "phone": "9980836102",
        "shop": "beauty"
      }
    },
    {
      "type": "node",
      "id": 4490414160,
      "lat": 13.0157441,
      "lon": 77.6304813,
      "tags": {
        "addr:city": "bangalore",
        "addr:housenumber": "No.1987/1, Nehru Road",
        "addr:postcode": "560084",
        "addr:street": "2nd Cross Road",
        "name": "Ebony Blonde",
        "opening_hours": "10:00 - 20:00",
        "phone": "(91)-80-41125267",
        "shop": "beauty"
      }
    },
    {
      "type": "node",
      "id": 4583513490,
      "lat": 13.0193646,
      "lon": 77.6336294,
      "tags": {
        "amenity": "drinking_water"
      }
    },
    {
      "type": "node",
      "id": 4583523289,
      "lat": 13.0192963,
      "lon": 77.633699,
      "tags": {
        "addr:housenumber": "3",
        "addr:postcode": "560084",
        "addr:street": "2nd A main",
        "amenity": "veterinary",
        "name": "Anu Pet Clinic",
        "name:en": "Anu Pet Clinic",
        "phone": "+91 98440 04905"
      }
    },
    {
      "type": "node",
      "id": 4844863326,
      "lat": 13.00594,
      "lon": 77.6386489,
      "tags": {
        "amenity": "atm",
        "brand": "Axis Bank",
        "brand:wikidata": "Q2003549",
        "name": "Axis Bank",
        "name:kn": "ಆಕ್ಸಿಸ್ ಬ್ಯಾಂಕ್",
        "operator": "Axis Bank",
        "operator:wikidata": "Q2003549"
      }
    },
    {
      "type": "node",
      "id": 4844863377,
      "lat": 13.0050546,
      "lon": 77.6372707,
      "tags": {
        "name": "Hi speed printing",
        "name:en": "Hi speed printing",
        "shop": "computer"
      }
    },
    {
      "type": "node",
      "id": 4844863380,
      "lat": 13.0140839,
      "lon": 77.6406622,
      "tags": {
        "name": "Kamakshi",
        "name:en": "Kamakshi",
        "name:kn": "ಕಾಮಾಕ್ಷಿ",
        "shop": "clothes"
      }
    },
    {
      "type": "node",
      "id": 4844863382,
      "lat": 13.0143953,
      "lon": 77.6363195,
      "tags": {
        "name": "Vivo",
        "name:en": "Vivo",
        "shop": "mobile_phone"
      }
    },
    {
      "type": "node",
      "id": 4844863383,
      "lat": 13.0143717,
      "lon": 77.6363708,
      "tags": {
        "shop": "optician"
      }
    },
    {
      "type": "node",
      "id": 4844863384,
      "lat": 13.015025,
      "lon": 77.6358463,
      "tags": {
        "amenity": "restaurant",
        "name": "Nandana Palace",
        "name:en": "Nandana Palace"
      }
    },
    {
      "type": "node",
      "id": 4844865026,
      "lat": 13.0076445,
      "lon": 77.6407572,
      "tags": {
        "name": "China bazaar",
        "name:en": "China bazaar",
        "shop": "supermarket"
      }
    },
    {
      "type": "node",
      "id": 4844865049,
      "lat": 13.0057651,
      "lon": 77.6383622,
      "tags": {
        "name": "My fashion shoes",
        "name:en": "My fashion shoes",
        "shop": "shoes"
      }
    },
    {
      "type": "node",
      "id": 4844865050,
      "lat": 13.0072315,
      "lon": 77.6403015,
      "tags": {
        "amenity": "pharmacy",
        "name": "Manjunatha",
        "name:en": "Manjunatha"
      }
    },
    {
      "type": "node",
      "id": 4844865054,
      "lat": 13.0140126,
      "lon": 77.6395774,
      "tags": {
        "name": "Ty engar",
        "name:en": "Ty engar",
        "shop": "bakery"
      }
    },
    {
      "type": "node",
      "id": 4844865056,
      "lat": 13.0142154,
      "lon": 77.6363852,
      "tags": {
        "amenity": "restaurant",
        "name": "Kairali",
        "name:en": "Kairali",
        "name:kn": "ಕೈರಲಿ"
      }
    },
    {
      "type": "node",
      "id": 4844865057,
      "lat": 13.014746,
      "lon": 77.6357881,
      "tags": {
        "amenity": "hospital",
        "name": "Doctor's diagnostics Centre",
        "name:en": "Doctor's diagnostics Centre"
      }
    },
    {
      "type": "node",
      "id": 4844867424,
      "lat": 13.0069226,
      "lon": 77.6399189,
      "tags": {
        "amenity": "bank",
        "brand": "Canara Bank",
        "brand:pa": "ਕੇਨਰਾ ਬੈਂਕ",
        "brand:ur": "کینرا بینک",
        "brand:wikidata": "Q2003777",
        "brand:wikipedia": "en:Canara Bank",
        "brand:wikipedia:pa": "ਕੇਨਰਾ ਬੈਂਕ",
        "name": "Canara Bank",
        "name:kn": "ಕೆನರಾ ಬ್ಯಾಂಕ್",
        "name:pa": "ਕੇਨਰਾ ਬੈਂਕ",
        "name:ur": "کینرا بینک",
        "website": "https://www.canarabank.com/"
      }
    },
    {
      "type": "node",
      "id": 4844867425,
      "lat": 13.0139843,
      "lon": 77.642086,
      "tags": {
        "name": "Regal furniture",
        "name:en": "Regal furniture",
        "shop": "furniture"
      }
    },
    {
      "type": "node",
      "id": 4844867426,
      "lat": 13.0141702,
      "lon": 77.6362532,
      "tags": {
        "name": "IPhone Final desicion",
        "name:en": "IPhone Final desicion",
        "shop": "mobile_phone"
      }
    },
    {
      "type": "node",
      "id": 5234720625,
      "lat": 13.0034433,
      "lon": 77.6323983,
      "tags": {
        "shop": "convenience"
      }
    },
    {
      "type": "node",
      "id": 5283145302,
      "lat": 13.0040113,
      "lon": 77.6296845,
      "tags": {
        "addr:city": "Bengaluru",
        "addr:housenumber": "24",
        "addr:postcode": "560033",
        "addr:street": "2nd Cross Road",
        "name": "Vigneshwara Dry Cleaners",
        "shop": "dry_cleaning"
      }
    },
    {
      "type": "node",
      "id": 5283145303,
      "lat": 13.0047307,
      "lon": 77.6286191,
      "tags": {
        "addr:city": "Bengaluru",
        "addr:housenumber": "25",
        "addr:postcode": "560033",
        "addr:street": "3rd Cross Road",
        "addr:unit": "Vivekananda Nagar",
        "amenity": "place_of_worship",
        "name": "Christ Union Church of God",
        "religion": "christian"
      }
    },
    {
      "type": "node",
      "id": 6915514224,
      "lat": 13.0148336,
      "lon": 77.6327095,
      "tags": {
        "name": "Expert Optics",
        "shop": "optician"
      }
    },
    {
      "type": "node",
      "id": 6944525274,
      "lat": 13.0138123,
      "lon": 77.6354731,
      "tags": {
        "addr:district": "Bengaluru Urban",
        "addr:full": "No. 31, Kammanahalli Main Road Near Venkateswara Ent",
        "addr:postcode": "560084",
        "addr:state": "Karnataka",
        "amenity": "hospital",
        "name": "R K Hospital, Bengaluru Urban",
        "source": "OpenGovernmentData"
      }
    },
    {
      "type": "node",
      "id": 6944699915,
      "lat": 13.019851,
      "lon": 77.6339757,
      "tags": {
        "addr:district": "Bengaluru Urban",
        "addr:full": "Kammanahalli",
        "addr:postcode": "560084",
        "addr:state": "Karnataka",
        "amenity": "clinic",
        "name": "J.H.Poly Clinic",
        "source": "OpenGovernmentData"
      }
    },
    {
      "type": "node",
      "id": 6947526185,
      "lat": 13.0139391,
      "lon": 77.6388192,
      "tags": {
        "addr:housenumber": "2nd floor",
        "addr:street": "Nehru Road",
        "amenity": "bureau_de_change",
        "name": "Currency Exchange",
        "opening_hours": "Mo-Su 09:00-18:00"
      }
    },
    {
      "type": "node",
      "id": 6947678585,
      "lat": 13.0149675,
      "lon": 77.6354957,
      "tags": {
        "addr:district": "Bengaluru Urban",
        "addr:full": "No.1, 1 Cross Rananurthy Road",
        "addr:postcode": "560084",
        "addr:state": "Karnataka",
        "amenity": "hospital",
        "email": "info@zionhospitals.com",
        "name": "Zion Hospital And Research Centre Pvt.Ltd.",
        "operator:type": "private",
        "source": "OpenGovernmentData",
        "website": "http://zionhospitals.com/"
      }
    },
    {
      "type": "node",
      "id": 6951469585,
      "lat": 13.0169825,
      "lon": 77.6361692,
      "tags": {
        "addr:street": "Kammanahalli Main Road",
        "amenity": "bureau_de_change",
        "name": "Currency Exchange"
      }
    },
    {
      "type": "node",
      "id": 6956587093,
      "lat": 13.0196087,
      "lon": 77.6369532,
      "tags": {
        "name": "Feet Fair",
        "note": "“Feet Fair” Shoe Store",
        "shop": "shoes"
      }
    },
    {
      "type": "node",
      "id": 6956587094,
      "lat": 13.0194926,
      "lon": 77.6369287,
      "tags": {
        "amenity": "restaurant",
        "name": "Thalassery",
        "note": "“Thalassery” Restaurant"
      }
    },
    {
      "type": "node",
      "id": 6956588689,
      "lat": 13.0189238,
      "lon": 77.6367836,
      "tags": {
        "amenity": "restaurant",
        "name": "Moriz",
        "note": "“Moriz” Restaurant"
      }
    },
    {
      "type": "node",
      "id": 6956595085,
      "lat": 13.0204419,
      "lon": 77.6367354,
      "tags": {
        "name": "7 Days",
        "note": "“7 Days” Supermarket",
        "shop": "supermarket"
      }
    },
    {
      "type": "node",
      "id": 6960201789,
      "lat": 13.0207823,
      "lon": 77.636101,
      "tags": {
        "amenity": "bureau_de_change",
        "name": "Currency Exchange, Western Union"
      }
    },
    {
      "type": "node",
      "id": 8627296822,
      "lat": 13.0188427,
      "lon": 77.636598,
      "tags": {
        "amenity": "restaurant",
        "cuisine": "kebab",
        "diet:meat": "yes",
        "name": "Raidan Restaurant"
      }
    },
    {
      "type": "node",
      "id": 8627305175,
      "lat": 13.0188904,
      "lon": 77.636681,
      "tags": {
        "name": "Kwality",
        "shop": "supermarket"
      }
    },
    {
      "type": "node",
      "id": 11173721905,
      "lat": 13.0055606,
      "lon": 77.6271965,
      "tags": {
        "name": "Moosa Stores",
        "shop": "convenience"
      }
    },
    {
      "type": "node",
      "id": 11500714575,
      "lat": 13.0149527,
      "lon": 77.6321133,
      "tags": {
        "addr:city": "Bangalore",
        "addr:district": "Bangalore",
        "addr:housenumber": "Doner Club",
        "addr:postcode": "560084",
        "addr:street": "Yadava Street, Nehru Road",
        "air_conditioning": "yes",
        "amenity": "restaurant",
        "cuisine": "turkish;mediterranean;arab",
        "delivery": "yes",
        "diet:healthy": "yes",
        "diet:non-vegetarian": "yes",
        "name": "Doner Club",
        "opening_hours": "Mo-Su 13:30-23:30",
        "website": "https://www.donerclub.in/"
      }
    },
    {
      "type": "node",
      "id": 11653355869,
      "lat": 13.02084,
      "lon": 77.63612,
      "tags": {
        "amenity": "atm"
      }
    },
    {
      "type": "node",
      "id": 11917222394,
      "lat": 13.0082869,
      "lon": 77.6272517,
      "tags": {
        "amenity": "place_of_worship",
        "check_date": "2024-05-19",
        "religion": "hindu"
      }
    },
    {
      "type": "node",
      "id": 11917222395,
      "lat": 13.0087275,
      "lon": 77.6270271,
      "tags": {
        "check_date": "2024-05-19",
        "name": "Vignesh Fashions",
        "shop": "tailor"
      }
    },
    {
      "type": "node",
      "id": 11917222396,
      "lat": 13.0087274,
      "lon": 77.625714,
      "tags": {
        "check_date": "2024-05-19",
        "name": "AS Ladies Tailors",
        "shop": "tailor"
      }
    },
    {
      "type": "node",
      "id": 11917222397,
      "lat": 13.0082013,
      "lon": 77.625755,
      "tags": {
        "amenity": "kindergarten",
        "check_date": "2024-05-19",
        "name": "Little Ville"
      }
    },
    {
      "type": "node",
      "id": 11962917596,
      "lat": 13.0208962,
      "lon": 77.633496,
      "tags": {
        "addr:city": "Bangalore",
        "addr:district": "Bengaluru Urban",
        "name": "Delhi Garage Performance Racing",
        "operator": "Salman Khan",
        "phone": "+91-9901188786",
        "shop": "motorcycle_repair"
      }
    },
    {
      "type": "node",
      "id": 12294001133,
      "lat": 13.0182255,
      "lon": 77.6363763,
      "tags": {
        "amenity": "fast_food",
        "contact:instagram": "goodflippin",
        "cuisine": "burger",
        "delivery": "yes",
        "name": "Good Flippin' Burgers",
        "takeaway": "yes",
        "website": "https://goodflippin.com/"
      }
    },
    {
      "type": "node",
      "id": 12862846433,
      "lat": 13.016659,
      "lon": 77.629651,
      "tags": {
        "amenity": "restaurant",
        "cuisine": "burger",
        "delivery": "yes",
        "name": "Sanky's Burger House",
        "takeaway": "yes"
      }
    },
    {
      "type": "node",
      "id": 12862846435,
      "lat": 13.0182719,
      "lon": 77.6355845,
      "tags": {
        "amenity": "restaurant",
        "cuisine": "burger",
        "delivery": "yes",
        "name": "Simon Burgers",
        "takeaway": "yes"
      }
    },
    {
      "type": "node",
      "id": 13168786889,
      "lat": 13.0155835,
      "lon": 77.6403473,
      "tags": {
        "contact:instagram": "luxemisu",
        "name": "Luxemisu",
        "shop": "pastry"
      }
    },
    {
      "type": "way",
      "id": 38420953,
      "center": {
        "lat": 13.0176721,
        "lon": 77.631817
      },
      "tags": {
        "leisure": "park",
        "wheelchair": "limited"
      }
    },
    {
      "type": "way",
      "id": 38421704,
      "center": {
        "lat": 13.0179378,
        "lon": 77.6369821
      },
      "tags": {
        "amenity": "school",
        "name": "Saint Charles High School"
      }
    },
    {
      "type": "way",
      "id": 168712748,
      "center": {
        "lat": 13.0163415,
        "lon": 77.6407229
      },
      "tags": {
        "leisure": "park",
        "name": "Dr. Rajkumar Park",
        "name:etymology:wikidata": "Q984634",
        "name:kn": "ರಾಜ್ಕುಮಾರ್ ಉದ್ಯಾನ"
      }
    },
    {
      "type": "way",
      "id": 175063893,
      "center": {
        "lat": 13.0097626,
        "lon": 77.6402272
      },
      "tags": {
        "amenity": "school"
      }
    },
    {
      "type": "way",
      "id": 175068138,
      "center": {
        "lat": 13.0158334,
        "lon": 77.6310206
      },
      "tags": {
        "addr:postcode": "540045",
        "addr:street": "Hennur Main Rd, Saint Thomas Town, Kacharakana Halli",
        "amenity": "school",
        "name": "Jyothi High School",
        "name:kn": "ಜ್ಯೋತಿ ಪ್ರೌಡಶಾಲೆ"
      }
    },
    {
      "type": "way",
      "id": 197731598,
      "center": {
        "lat": 13.0121889,
        "lon": 77.6290254
      },
      "tags": {
        "leisure": "park",
        "wheelchair": "limited"
      }
    },
    {
      "type": "way",
      "id": 213349498,
      "center": {
        "lat": 13.0074665,
        "lon": 77.6409907
      },
      "tags": {
        "amenity": "place_of_worship",
        "check_date": "2025-08-17",
        "name": "Ayyappa Temple",
        "name:kn": "ಅಯ್ಯಪ್ಪ ದೇವಸ್ಥಾನ",
        "religion": "hindu",
        "toilets:wheelchair": "no",
        "wheelchair": "no"
      }
    },
    {
      "type": "way",
      "id": 335526663,
      "center": {
        "lat": 13.0170276,
        "lon": 77.6331507
      },
      "tags": {
        "leisure": "park"
      }
    },
    {
      "type": "way",
      "id": 347026579,
      "center": {
        "lat": 13.0149703,
        "lon": 77.6278217
      },
      "tags": {
        "amenity": "fuel",
        "brand": "Essar",
        "brand:wikidata": "Q5399372",
        "name": "Essar"
      }
    },
    {
      "type": "way",
      "id": 348631787,
      "center": {
        "lat": 13.01372,
        "lon": 77.635789
      },
      "tags": {
        "addr:city": "bangalore",
        "addr:district": "Bengaluru Urban",
        "addr:housenumber": "36",
        "addr:postcode": "560084",
        "addr:street": "Kammanahalli Main Road",
        "alt_name": "Mohan Stores",
        "amenity": "bank",
        "brand": "HDFC Bank",
        "brand:wikidata": "Q631047",
        "building": "yes",
        "name": "HDFC Bank",
        "short_name": "HDFC"
      }
    },
    {
      "type": "way",
      "id": 351857536,
      "center": {
        "lat": 13.0194816,
        "lon": 77.6280203
      },
      "tags": {
        "addr:city": "Bangalore",
        "addr:street": "5th Main",
        "amenity": "place_of_worship",
        "building": "yes",
        "name": "Sri Shiradi Saibaba Devasthana",
        "name:kn": "ಶ್ರೀ ಶಿರಡಿ ಸಾಯಿಬಾಬಾ ದೇವಾಲಯ",
        "religion": "hindu"
      }
    },
    {
      "type": "way",
      "id": 370528816,
      "center": {
        "lat": 13.0203116,
        "lon": 77.6272125
      },
      "tags": {
        "leisure": "park"
      }
    },
    {
      "type": "way",
      "id": 675933723,
      "center": {
        "lat": 13.0082525,
        "lon": 77.6381999
      },
      "tags": {
        "leisure": "park"
      }
    },
    {
      "type": "way",
      "id": 675933724,
      "center": {
        "lat": 13.0084618,
        "lon": 77.6373261
      },
      "tags": {
        "leisure": "playground"
      }
    },
    {
      "type": "way",
      "id": 675933725,
      "center": {
        "lat": 13.0082593,
        "lon": 77.6377878
      },
      "tags": {
        "leisure": "park"
      }
    },
    {
      "type": "way",
      "id": 743353828,
      "center": {
        "lat": 13.0165401,
        "lon": 77.6364124
      },
      "tags": {
        "access": "customers",
        "amenity": "parking",
        "parking": "surface"
      }
    },
    {
      "type": "way",
      "id": 1237551406,
      "center": {
        "lat": 13.0131322,
        "lon": 77.6267009
      },
      "tags": {
        "amenity": "social_facility",
        "name": "United Christian Fellowship",
        "social_facility": "assisted_living",
        "social_facility:for": "senior",
        "website": "https://www.ucfhome.org/",
        "wheelchair": "limited"
      }
    },
    {
      "type": "way",
      "id": 1363504984,
      "center": {
        "lat": 13.020339,
        "lon": 77.6355461
      },
      "tags": {
        "amenity": "monastery",
        "community:gender": "female",
        "denomination": "catholic",
        "landuse": "religious",
        "name": "Sisters of St. Joseph of Tarbes",
        "religion": "christian"
      }
    },
    {
      "type": "way",
      "id": 1363505233,
      "center": {
        "lat": 13.0156318,
        "lon": 77.6334279
      },
      "tags": {
        "leisure": "park"
      }
    },
    {
      "type": "way",
      "id": 1363505236,
      "center": {
        "lat": 13.0149014,
        "lon": 77.6290147
      },
      "tags": {
        "amenity": "place_of_worship",
        "building": "yes",
        "name": "St. Francis of Assisi Church",
        "religion": "christian"
      }
    },
    {
      "type": "way",
      "id": 1363505237,
      "center": {
        "lat": 13.0154013,
        "lon": 77.6270993
      },
      "tags": {
        "amenity": "place_of_worship",
        "religion": "hindu"
      }
    },
    {
      "type": "way",
      "id": 1363505241,
      "center": {
        "lat": 13.0149462,
        "lon": 77.6280785
      },
      "tags": {
        "amenity": "fuel",
        "brand": "Shell",
        "brand:wikidata": "Q110716465",
        "check_date": "2024-05-19",
        "name": "Shell",
        "wheelchair": "yes"
      }
    },
    {
      "type": "way",
      "id": 1363623616,
      "center": {
        "lat": 13.0170434,
        "lon": 77.6349303
      },
      "tags": {
        "amenity": "college",
        "name": "St. Paul PU College"
      }
    },
    {
      "type": "way",
      "id": 1364670944,
      "center": {
        "lat": 13.0132839,
        "lon": 77.6356805
      },
      "tags": {
        "amenity": "fuel"
      }
    },
    {
      "type": "way",
      "id": 1365966052,
      "center": {
        "lat": 13.0087166,
        "lon": 77.6372472
      },
      "tags": {
        "leisure": "pitch"
      }
    },
    {
      "type": "way",
      "id": 1411165790,
      "center": {
        "lat": 13.0108089,
        "lon": 77.6257491
      },
      "tags": {
        "amenity": "school",
        "landuse": "education",
        "name": "Divya Shanthi School",
        "website": "https://divyashanthischool.org/"
      }
    },
    {
      "type": "way",
      "id": 1432471479,
      "center": {
        "lat": 13.0055679,
        "lon": 77.6280728
      },
      "tags": {
        "access": "permissive",
        "amenity": "parking",
        "parking": "surface"
      }
    }
  ]
}