{
  "area_name": "Kirloskar Colony",
  "osm_id": 11218370406,
  "osm_type": "node",
  "place_type": "neighbourhood",
  "amenity_count": 58,
  "amenities": [
    {
      "type": "node",
      "id": 1473930474,
      "lat": 13.0004716,
      "lon": 77.5346306,
      "tags": {
        "amenity": "school"
      }
    },
    {
      "type": "node",
      "id": 1474001855,
      "lat": 13.0011459,
      "lon": 77.5359798,
      "tags": {
        "amenity": "hospital",
        "emergency": "yes",
        "healthcare": "hospital",
        "name": "Punya Hospital"
      }
    },
    {
      "type": "node",
      "id": 2249037241,
      "lat": 12.9944698,
      "lon": 77.5330067,
      "tags": {
        "landuse": "recreation_ground",
        "leisure": "sports_centre",
        "name": "Karnataka Engineers Association"
      }
    },
    {
      "type": "node",
      "id": 2249037328,
      "lat": 12.9948879,
      "lon": 77.5331783,
      "tags": {
        "amenity": "place_of_worship",
        "name": "Ganapathi Temple",
        "name:kn": "ಗಣಪತಿ ದೇವಸ್ಥಾನ",
        "religion": "hindu"
      }
    },
    {
      "type": "node",
      "id": 4209389014,
      "lat": 12.9929929,
      "lon": 77.5292643,
      "tags": {
        "addr:postcode": "560079",
        "addr:street": "BEML Layout, Kamala Nagar, Bengaluru, Karnataka",
        "amenity": "theatre",
        "name": "Veerabhadreshwara Theatre",
        "name:kn": "ವೀರಭದ್ರೇಶ್ವರ ಚಿತ್ರಮಂದಿರ",
        "opening_hours": "Mo-Su 10:00-23:00",
        "phone": "080-23230923"
      }
    },
    {
      "type": "node",
      "id": 4221615261,
      "lat": 12.9928196,
      "lon": 77.5306777,
      "tags": {
        "amenity": "atm",
        "opening_hours": "24/7",
        "operator": "Canara bank ATM"
      }
    },
    {
      "type": "node",
      "id": 4226905471,
      "lat": 12.9887296,
      "lon": 77.5319585,
      "tags": {
        "name": "Skanda",
        "shop": "clothes"
      }
    },
    {
      "type": "node",
      "id": 4488432291,
      "lat": 12.9925827,
      "lon": 77.5372971,
      "tags": {
        "addr:city": "Bangalore",
        "addr:housenumber": "354/355",
        "addr:postcode": "560079",
        "addr:street": "Kamla Nehru Nagar Main Road, West of Court Road, 4th Stage, 8th Main, 4th Block, Near Dominos,, Bhadrappa Layout, Basaveshwar Nagar",
        "branch": "Better Value Fitness Ltd",
        "brand": "Talkwalkars",
        "brand:wikidata": "Q7680402",
        "leisure": "fitness_centre",
        "name": "Talwalkars",
        "opening_hours": "5:30-22:00",
        "phone": "080 4206 0686",
        "sport": "gymnastics"
      }
    },
    {
      "type": "node",
      "id": 4509817152,
      "lat": 12.995573,
      "lon": 77.5354215,
      "tags": {
        "amenity": "hospital",
        "healthcare": "hospital",
        "name": "ChanRe Rheumatology and Immunology Center and Research",
        "name_1": "Chan re hospital",
        "name_2": "Chanre hospital"
      }
    },
    {
      "type": "node",
      "id": 4509818407,
      "lat": 12.9957925,
      "lon": 77.5356897,
      "tags": {
        "amenity": "car_wash",
        "name": "Quicky Clean Car Wash"
      }
    },
    {
      "type": "node",
      "id": 6937748988,
      "lat": 12.9948905,
      "lon": 77.5347984,
      "tags": {
        "addr:district": "Bengaluru Urban",
        "addr:full": "No.65,N.H.C.S. Layout,3Road Stage,4Th Block,Basaveshwar Nagar,Kamalanagar Main Road",
        "addr:postcode": "560079",
        "addr:state": "Karnataka",
        "amenity": "hospital",
        "healthcare": "hospital",
        "name": "Ashok Hospital",
        "source": "OpenGovernmentData"
      }
    },
    {
      "type": "node",
      "id": 8187962395,
      "lat": 13.0012148,
      "lon": 77.5358056,
      "tags": {
        "addr:full": "Pipeline Rd, Rajkumar statue, JC Nagar, Kurubarahalli, Basaweshwara Nagar, Bengaluru, Karnataka",
        "addr:state": "Karnataka",
        "amenity": "bank",
        "brand": "Canara Bank",
        "brand:en": "Canara Bank",
        "brand:hi": "केनरा बैंक",
        "brand:kn": "ಕೆನರಾ ಬ್ಯಾಂಕ್",
        "brand:pa": "ਕੇਨਰਾ ਬੈਂਕ",
        "brand:pnb": "کینرا بینک",
        "brand:ur": "کینرا بینک",
        "brand:wikidata": "Q2003777",
        "brand:wikipedia": "en:Canara Bank",
        "brand:wikipedia:pa": "ਕੇਨਰਾ ਬੈਂਕ",
        "name": "Canara Bank",
        "name:en": "Canara Bank",
        "name:hi": "केनरा बैंक",
        "name:kn": "ಕೆನರಾ ಬ್ಯಾಂಕ್",
        "name:pa": "ਕੇਨਰਾ ਬੈਂਕ",
        "name:pnb": "کینرا بینک",
        "name:ur": "کینرا بینک"
      }
    },
    {
      "type": "node",
      "id": 8187962407,
      "lat": 13.0000414,
      "lon": 77.5330938,
      "tags": {
        "addr:full": "34, Pipeline Rd, KHBS Layout, Basaveshwar Nagar, Bengaluru, Karnataka",
        "addr:state": "Karnataka",
        "amenity": "bank",
        "brand": "State Bank of India",
        "brand:wikidata": "Q1340361",
        "brand:wikipedia": "en:State Bank of India",
        "name": "State Bank of India",
        "name:kn": "ಎಸ್ ಬಿ ಐ",
        "short_name": "SBI"
      }
    },
    {
      "type": "node",
      "id": 8187986355,
      "lat": 13.0000365,
      "lon": 77.5349821,
      "tags": {
        "addr:full": "1st Main Road, Kurubarahalli, 154-140, 1st Cross Rd, Rajkumar statue, KHBS Layout, Bengaluru, Karnataka",
        "addr:state": "Karnataka",
        "amenity": "clinic",
        "healthcare": "clinic",
        "name": "Manjunatha maternity clinic"
      }
    },
    {
      "type": "node",
      "id": 8240244514,
      "lat": 12.9990055,
      "lon": 77.5251143,
      "tags": {
        "amenity": "pharmacy"
      }
    },
    {
      "type": "node",
      "id": 8240257724,
      "lat": 12.9961764,
      "lon": 77.5224254,
      "tags": {
        "name": "Royal Oak",
        "shop": "furniture"
      }
    },
    {
      "type": "node",
      "id": 8240257727,
      "lat": 12.9951873,
      "lon": 77.5219448,
      "tags": {
        "amenity": "fuel",
        "brand": "Bharat Petroleum",
        "brand:wikidata": "Q854826",
        "check_date": "2023-03-16",
        "fuel:diesel": "yes",
        "fuel:petrol": "yes",
        "name": "Bharat Petroleum",
        "name:kn": "ಭಾರತ್ ಪೆಟ್ರೋಲಿಯಂ",
        "operator": "Bharat Petroleum",
        "self_service": "no"
      }
    },
    {
      "type": "node",
      "id": 8240881800,
      "lat": 13.0006827,
      "lon": 77.5368362,
      "tags": {
        "name": "Bherav Jewellers",
        "shop": "jewelry"
      }
    },
    {
      "type": "node",
      "id": 8240881801,
      "lat": 13.0007003,
      "lon": 77.5365438,
      "tags": {
        "name": "Anand Jewelers",
        "shop": "jewelry"
      }
    },
    {
      "type": "node",
      "id": 8240881804,
      "lat": 13.0003344,
      "lon": 77.5342458,
      "tags": {
        "amenity": "atm",
        "brand": "Axis Bank",
        "brand:wikidata": "Q2003549",
        "name": "Axis Bank",
        "name:kn": "ಆಕ್ಸಿಸ್ ಬ್ಯಾಂಕ್",
        "operator": "Axis Bank",
        "operator:wikidata": "Q2003549"
      }
    },
    {
      "type": "node",
      "id": 8240881806,
      "lat": 12.9998836,
      "lon": 77.5315113,
      "tags": {
        "access": "yes",
        "amenity": "toilets"
      }
    },
    {
      "type": "node",
      "id": 8240881807,
      "lat": 12.9997124,
      "lon": 77.529906,
      "tags": {
        "name": "Mangalore Fish Center",
        "shop": "seafood"
      }
    },
    {
      "type": "node",
      "id": 8442476343,
      "lat": 12.9993269,
      "lon": 77.5251746,
      "tags": {
        "name": "Family Provision Store",
        "shop": "convenience"
      }
    },
    {
      "type": "node",
      "id": 8754940344,
      "lat": 13.0011186,
      "lon": 77.5255326,
      "tags": {
        "name": "Vagmi Pet products",
        "shop": "wholesale"
      }
    },
    {
      "type": "node",
      "id": 9654252350,
      "lat": 12.9958863,
      "lon": 77.5228518,
      "tags": {
        "amenity": "bank",
        "atm": "yes",
        "brand": "Canara Bank",
        "brand:en": "Canara Bank",
        "brand:hi": "केनरा बैंक",
        "brand:kn": "ಕೆನರಾ ಬ್ಯಾಂಕ್",
        "brand:pa": "ਕੇਨਰਾ ਬੈਂਕ",
        "brand:pnb": "کینرا بینک",
        "brand:ur": "کینرا بینک",
        "brand:wikidata": "Q2003777",
        "name": "Canara Bank",
        "name:en": "Canara Bank",
        "name:hi": "केनरा बैंक",
        "name:kn": "ಕೆನರಾ ಬ್ಯಾಂಕ್",
        "name:pa": "ਕੇਨਰਾ ਬੈਂਕ",
        "name:pnb": "کینرا بینک",
        "name:ur": "کینرا بینک",
        "operator": "Canara Bank"
      }
    },
    {
      "type": "node",
      "id": 10676078872,
      "lat": 12.995097,
      "lon": 77.5349191,
      "tags": {
        "amenity": "place_of_worship",
        "religion": "hindu"
      }
    },
    {
      "type": "node",
      "id": 10738598991,
      "lat": 12.9946331,
      "lon": 77.5225363,
      "tags": {
        "amenity": "fuel",
        "brand": "Indian Oil",
        "brand:wikidata": "Q1289348",
        "check_date": "2023-03-16",
        "name": "Indian Oil"
      }
    },
    {
      "type": "way",
      "id": 133756195,
      "center": {
        "lat": 12.9911963,
        "lon": 77.5341081
      },
      "tags": {
        "leisure": "park",
        "name": "SBI officers colony park"
      }
    },
    {
      "type": "way",
      "id": 133946174,
      "center": {
        "lat": 13.0008297,
        "lon": 77.5352069
      },
      "tags": {
        "leisure": "park"
      }
    },
    {
      "type": "way",
      "id": 133946305,
      "center": {
        "lat": 13.0006134,
        "lon": 77.534341
      },
      "tags": {
        "leisure": "park"
      }
    },
    {
      "type": "way",
      "id": 133952209,
      "center": {
        "lat": 13.0002469,
        "lon": 77.5328793
      },
      "tags": {
        "leisure": "park"
      }
    },
    {
      "type": "way",
      "id": 133952210,
      "center": {
        "lat": 12.9999013,
        "lon": 77.5313317
      },
      "tags": {
        "leisure": "park"
      }
    },
    {
      "type": "way",
      "id": 141508010,
      "center": {
        "lat": 12.9931166,
        "lon": 77.5319509
      },
      "tags": {
        "leisure": "park"
      }
    },
    {
      "type": "way",
      "id": 141508066,
      "center": {
        "lat": 12.9921312,
        "lon": 77.5294014
      },
      "tags": {
        "leisure": "park"
      }
    },
    {
      "type": "way",
      "id": 141744176,
      "center": {
        "lat": 12.993726,
        "lon": 77.536518
      },
      "tags": {
        "leisure": "park"
      }
    },
    {
      "type": "way",
      "id": 219384062,
      "center": {
        "lat": 12.9929068,
        "lon": 77.5330173
      },
      "tags": {
        "amenity": "place_of_worship",
        "name": "Huttada Venkataramana Temple",
        "name:kn": "ಹುತ್ತದ ವೆಂಕಟರಮಣ ಸ್ವಾಮಿ ದೇವಸ್ಥಾನ",
        "religion": "hindu"
      }
    },
    {
      "type": "way",
      "id": 222278954,
      "center": {
        "lat": 12.9940136,
        "lon": 77.5319539
      },
      "tags": {
        "amenity": "school",
        "name": "Max Muller School",
        "name:kn": "ಮಾಕ್ಸ್ ಮುಲ್ಲರ್ ಶಾಲೆ"
      }
    },
    {
      "type": "way",
      "id": 252711787,
      "center": {
        "lat": 12.9934335,
        "lon": 77.5292704
      },
      "tags": {
        "amenity": "place_of_worship",
        "building": "yes",
        "name": "Om Shakti Temple",
        "name:kn": "ಓಂ ಶಕ್ತಿ ದೇವಸ್ಥಾನ",
        "religion": "hindu"
      }
    },
    {
      "type": "way",
      "id": 354497944,
      "center": {
        "lat": 12.9955667,
        "lon": 77.5354224
      },
      "tags": {
        "amenity": "hospital",
        "healthcare": "hospital",
        "name": "ChanRe Rheumatology And Immunology Center And Research"
      }
    },
    {
      "type": "way",
      "id": 354557129,
      "center": {
        "lat": 12.9914025,
        "lon": 77.5357164
      },
      "tags": {
        "addr:city": "Bangalore",
        "addr:postcode": "560079",
        "addr:street": "6 main Basaveshwarnagar",
        "amenity": "school",
        "building": "school",
        "name": "VLS International School"
      }
    },
    {
      "type": "way",
      "id": 363069942,
      "center": {
        "lat": 12.9988269,
        "lon": 77.5387661
      },
      "tags": {
        "leisure": "park"
      }
    },
    {
      "type": "way",
      "id": 363069963,
      "center": {
        "lat": 12.9976289,
        "lon": 77.5375677
      },
      "tags": {
        "leisure": "park"
      }
    },
    {
      "type": "way",
      "id": 405079331,
      "center": {
        "lat": 12.9920019,
        "lon": 77.5342419
      },
      "tags": {
        "amenity": "public_building",
        "building": "yes",
        "name": "Municipal Corporation Office",
        "name:kn": "ಬೃ ಬೆಂ ಮ ಪಾ ಕಛೇರಿ"
      }
    },
    {
      "type": "way",
      "id": 405079334,
      "center": {
        "lat": 12.9910814,
        "lon": 77.5355729
      },
      "tags": {
        "amenity": "school",
        "leisure": "pitch",
        "name": "VLS International School grounds"
      }
    },
    {
      "type": "way",
      "id": 412935364,
      "center": {
        "lat": 12.9988695,
        "lon": 77.5267772
      },
      "tags": {
        "leisure": "park"
      }
    },
    {
      "type": "way",
      "id": 412935366,
      "center": {
        "lat": 13.0010146,
        "lon": 77.5360114
      },
      "tags": {
        "leisure": "playground"
      }
    },
    {
      "type": "way",
      "id": 412935370,
      "center": {
        "lat": 13.0013543,
        "lon": 77.5374954
      },
      "tags": {
        "leisure": "park"
      }
    },
    {
      "type": "way",
      "id": 412935372,
      "center": {
        "lat": 12.9976804,
        "lon": 77.5357264
      },
      "tags": {
        "leisure": "pitch",
        "name": "Kurubarahalli Playground"
      }
    },
    {
      "type": "way",
      "id": 412935376,
      "center": {
        "lat": 12.9994536,
        "lon": 77.5294902
      },
      "tags": {
        "leisure": "park"
      }
    },
    {
      "type": "way",
      "id": 412935378,
      "center": {
        "lat": 12.9976869,
        "lon": 77.5363178
      },
      "tags": {
        "leisure": "park",
        "name": "Kempegowda Park",
        "name:etymology:wikidata": "Q6387049",
        "name:kn": "ಕೆಂಪೆಗೌಡ ಉದ್ಯಾನವನ"
      }
    },
    {
      "type": "way",
      "id": 422974248,
      "center": {
        "lat": 12.9915349,
        "lon": 77.5347453
      },
      "tags": {
        "leisure": "park"
      }
    },
    {
      "type": "way",
      "id": 454420332,
      "center": {
        "lat": 12.9967265,
        "lon": 77.5354857
      },
      "tags": {
        "amenity": "place_of_worship",
        "building": "yes",
        "name": "Shani Mahatma Temple",
        "name:kn": "ಶನಿ ಮಹಾತ್ಮ ದೇವಸ್ಥಾನ",
        "religion": "hindu"
      }
    },
    {
      "type": "way",
      "id": 454420712,
      "center": {
        "lat": 12.9963126,
        "lon": 77.5345779
      },
      "tags": {
        "leisure": "park"
      }
    },
    {
      "type": "way",
      "id": 886184252,
      "center": {
        "lat": 12.9961678,
        "lon": 77.5213994
      },
      "tags": {
        "shop": "laundry"
      }
    },
    {
      "type": "way",
      "id": 1047034049,
      "center": {
        "lat": 13.0020215,
        "lon": 77.5366089
      },
      "tags": {
        "description": "Temple playground",
        "leisure": "playground"
      }
    },
    {
      "type": "way",
      "id": 1147338815,
      "center": {
        "lat": 12.9950965,
        "lon": 77.5352933
      },
      "tags": {
        "leisure": "park"
      }
    },
    {
      "type": "way",
      "id": 1147338817,
      "center": {
        "lat": 12.9951618,
        "lon": 77.5381263
      },
      "tags": {
        "amenity": "fast_food",
        "brand": "Indira Canteen",
        "brand:wikidata": "Q36164828",
        "cuisine": "south_indian",
        "name": "Indira Canteen",
        "operator": "BBMP",
        "takeaway": "yes"
      }
    },
    {
      "type": "way",
      "id": 1444555977,
      "center": {
        "lat": 12.9992902,
        "lon": 77.5379424
      },
      "tags": {
        "amenity": "community_centre",
        "building": "outbuilding",
        "community_centre": "events_place",
        "name": "BBMP Yoga Center",
        "operator": "BBMP",
        "operator:type": "public/government"
      }
    }
  ]
}