{
  "area_name": "Kodati",
  "osm_id": 833668150,
  "osm_type": "node",
  "place_type": "suburb",
  "amenity_count": 15,
  "amenities": [
    {
      "type": "node",
      "id": 11162455199,
      "lat": 12.8927702,
      "lon": 77.7097592,
      "tags": {
        "amenity": "parking_entrance",
        "parking": "underground"
      }
    },
    {
      "type": "node",
      "id": 11162455200,
      "lat": 12.8929153,
      "lon": 77.709443,
      "tags": {
        "amenity": "parking_entrance",
        "parking": "underground"
      }
    },
    {
      "type": "way",
      "id": 316008898,
      "center": {
        "lat": 12.8852752,
        "lon": 77.72484
      },
      "tags": {
        "amenity": "school",
        "name": "Delhi Public School Bangalore East"
      }
    },
    {
      "type": "way",
      "id": 473064249,
      "center": {
        "lat": 12.8842987,
        "lon": 77.7099942
      },
      "tags": {
        "addr:city": "Bangalore",
        "addr:postcode": "560035",
        "amenity": "school",
        "name": "Harvest International School"
      }
    },
    {
      "type": "way",
      "id": 541927202,
      "center": {
        "lat": 12.8930983,
        "lon": 77.7106714
      },
      "tags": {
        "leisure": "pitch",
        "sport": "tennis",
        "surface": "grass"
      }
    },
    {
      "type": "way",
      "id": 541927565,
      "center": {
        "lat": 12.8913919,
        "lon": 77.709683
      },
      "tags": {
        "leisure": "pitch",
        "sport": "tennis"
      }
    },
    {
      "type": "way",
      "id": 773062400,
      "center": {
        "lat": 12.8838526,
        "lon": 77.7236858
      },
      "tags": {
        "leisure": "pitch",
        "sport": "basketball"
      }
    },
    {
      "type": "way",
      "id": 773062401,
      "center": {
        "lat": 12.8841984,
        "lon": 77.7242691
      },
      "tags": {
        "leisure": "track",
        "sport": "running"
      }
    },
    {
      "type": "way",
      "id": 1204360152,
      "center": {
        "lat": 12.8912111,
        "lon": 77.709831
      },
      "tags": {
        "access": "private",
        "leisure": "swimming_pool",
        "location": "outdoor",
        "swimming_pool": "outdoor"
      }
    },
    {
      "type": "way",
      "id": 1204360167,
      "center": {
        "lat": 12.8936601,
        "lon": 77.7101622
      },
      "tags": {
        "access": "private",
        "leisure": "swimming_pool"
      }
    },
    {
      "type": "way",
      "id": 1204360262,
      "center": {
        "lat": 12.8924284,
        "lon": 77.7082253
      },
      "tags": {
        "access": "private",
        "leisure": "pitch",
        "sport": "basketball"
      }
    },
    {
      "type": "way",
      "id": 1268933947,
      "center": {
        "lat": 12.8853084,
        "lon": 77.72398
      },
      "tags": {
        "leisure": "pitch",
        "sport": "basketball"
      }
    },
    {
      "type": "way",
      "id": 1268933948,
      "center": {
        "lat": 12.8852458,
        "lon": 77.7244316
      },
      "tags": {
        "leisure": "pitch",
        "sport": "tennis"
      }
    },
    {
      "type": "way",
      "id": 1291975990,
      "center": {
        "lat": 12.8792671,
        "lon": 77.7170749
      },
      "tags": {
        "amenity": "school"
      }
    },
    {
      "type": "way",
      "id": 1420117319,
      "center": {
        "lat": 12.8910878,
        "lon": 77.7069316
      },
      "tags": {
        "leisure": "garden"
      }
    }
  ]
}