{
  "area_name": "Kodihalli",
  "osm_id": 19884581,
  "osm_type": "relation",
  "place_type": "administrative",
  "amenity_count": 329,
  "amenities": [
    {
      "type": "node",
      "id": 312508904,
      "lat": 12.9619513,
      "lon": 77.6419064,
      "tags": {
        "addr:street": "100 Feet Road",
        "amenity": "restaurant",
        "name": "Nandhini",
        "name:kn": "ನಂದಿನಿ",
        "wheelchair": "no"
      }
    },
    {
      "type": "node",
      "id": 312509585,
      "lat": 12.9601353,
      "lon": 77.6431187,
      "tags": {
        "addr:street": "HAL Airport Road",
        "amenity": "atm",
        "brand": "Axis Bank",
        "brand:wikidata": "Q2003549",
        "name": "Axis Bank",
        "opening_hours": "24/7",
        "operator": "Axis Bank",
        "operator:wikidata": "Q2003549"
      }
    },
    {
      "type": "node",
      "id": 316993744,
      "lat": 12.9600367,
      "lon": 77.6452495,
      "tags": {
        "addr:street": "HAL Airport Road",
        "amenity": "atm",
        "brand": "Kotak Mahindra Bank",
        "brand:wikidata": "Q2040404",
        "check_date": "2022-07-30",
        "name": "Kotak Mahindra Bank",
        "operator": "Kotak Mahindra Bank",
        "operator:wikidata": "Q2040404"
      }
    },
    {
      "type": "node",
      "id": 316993745,
      "lat": 12.9600398,
      "lon": 77.6452145,
      "tags": {
        "addr:street": "HAL Airport Road",
        "amenity": "atm",
        "brand": "Citibank",
        "brand:wikidata": "Q857063",
        "name": "Citibank",
        "opening_hours": "24/7",
        "operator": "Citibank",
        "operator:wikidata": "Q857063",
        "short_name": "Citi"
      }
    },
    {
      "type": "node",
      "id": 316993808,
      "lat": 12.9600641,
      "lon": 77.6454368,
      "tags": {
        "amenity": "parking",
        "created_by": "Potlatch 0.10f",
        "parking": "street_side"
      }
    },
    {
      "type": "node",
      "id": 316995046,
      "lat": 12.9600171,
      "lon": 77.6454021,
      "tags": {
        "addr:street": "HAL Airport Road",
        "amenity": "pharmacy",
        "name": "Ashwin Pharma"
      }
    },
    {
      "type": "node",
      "id": 316999477,
      "lat": 12.9686175,
      "lon": 77.6489441,
      "tags": {
        "amenity": "pharmacy",
        "brand": "Apollo Pharmacy",
        "brand:wikidata": "Q62562612",
        "healthcare": "pharmacy",
        "name": "Apollo Pharmacy",
        "name:kn": "ಅಪೊಲೋ ಫಾರ್ಮಸಿ"
      }
    },
    {
      "type": "node",
      "id": 486969025,
      "lat": 12.9701849,
      "lon": 77.6438014,
      "tags": {
        "addr:street": "12th Main Road",
        "name": "Mothercare",
        "shop": "motherhood"
      }
    },
    {
      "type": "node",
      "id": 844434365,
      "lat": 12.960424,
      "lon": 77.646233,
      "tags": {
        "addr:street": "Kodihalli Main Road",
        "amenity": "pharmacy"
      }
    },
    {
      "type": "node",
      "id": 844434369,
      "lat": 12.9622433,
      "lon": 77.6470269,
      "tags": {
        "addr:street": "Kodihalli Main Road",
        "amenity": "pharmacy"
      }
    },
    {
      "type": "node",
      "id": 945711483,
      "lat": 12.9699613,
      "lon": 77.6473796,
      "tags": {
        "addr:street": "80 Feet Road(Sir C.V. Raman Hospital Road)",
        "amenity": "restaurant",
        "brand": "Empire",
        "cuisine": "indian",
        "delivery": "yes",
        "diet:vegetarian": "yes",
        "name": "Empire",
        "name:kn": "ಎಂಪೈರ್",
        "takeaway": "yes"
      }
    },
    {
      "type": "node",
      "id": 1091414246,
      "lat": 12.9594188,
      "lon": 77.6486258,
      "tags": {
        "amenity": "restaurant",
        "name": "Matthan",
        "name:kn": "ಮತ್ತನ್"
      }
    },
    {
      "type": "node",
      "id": 1328613153,
      "lat": 12.9623163,
      "lon": 77.6418447,
      "tags": {
        "shop": "gift"
      }
    },
    {
      "type": "node",
      "id": 1328613155,
      "lat": 12.9621543,
      "lon": 77.6418716,
      "tags": {
        "amenity": "restaurant",
        "name": "Mainland China",
        "name:kn": "ಮೇನ್‌ಲ್ಯಾಂಡ್ ಚೈನಾ",
        "wheelchair": "limited"
      }
    },
    {
      "type": "node",
      "id": 1339408103,
      "lat": 12.9685208,
      "lon": 77.6495717,
      "tags": {
        "amenity": "toilets",
        "operator": "Nirmala"
      }
    },
    {
      "type": "node",
      "id": 1420058894,
      "lat": 12.9643071,
      "lon": 77.6437722,
      "tags": {
        "amenity": "restaurant",
        "name": "Sethji's",
        "name:kn": "ಸೇತ್‌ಜೀಸ್"
      }
    },
    {
      "type": "node",
      "id": 1420066592,
      "lat": 12.9671898,
      "lon": 77.6422595,
      "tags": {
        "addr:city": "Bangalore",
        "addr:housenumber": "2286",
        "addr:street": ", 14th A Main Road, 1st Cross",
        "amenity": "cafe",
        "name": "The Ants Cafe",
        "name:kn": "ಆನ್ಟ್ಸ್ ಕಫೆ",
        "opening_hours": "09:00-20:00",
        "website": "http://theantsstore.com/primary-pages/ants-cafe"
      }
    },
    {
      "type": "node",
      "id": 1472937714,
      "lat": 12.9603151,
      "lon": 77.6458853,
      "tags": {
        "amenity": "restaurant",
        "cuisine": "indian",
        "name": "Raham's Families International (Richies) Restaurant",
        "name:kn": "ರಿಚೀಸ್",
        "wheelchair": "no"
      }
    },
    {
      "type": "node",
      "id": 1474220566,
      "lat": 12.9689232,
      "lon": 77.641585,
      "tags": {
        "addr:street": "100 Feet Road",
        "name": "Staples",
        "name:kn": "ಸ್ಟ್ಯಾಪ್ಲ್ಸ್",
        "shop": "hifi"
      }
    },
    {
      "type": "node",
      "id": 1474220586,
      "lat": 12.9689844,
      "lon": 77.6415777,
      "tags": {
        "addr:street": "100 Feet Road",
        "amenity": "atm",
        "brand": "Citibank",
        "brand:wikidata": "Q857063",
        "name": "Citibank",
        "operator": "Citibank",
        "operator:wikidata": "Q857063",
        "short_name": "Citi"
      }
    },
    {
      "type": "node",
      "id": 1474254693,
      "lat": 12.9695059,
      "lon": 77.6415616,
      "tags": {
        "name": "Viveks",
        "name:kn": "ವಿವೇಕ್ಸ್",
        "shop": "hifi"
      }
    },
    {
      "type": "node",
      "id": 1474254702,
      "lat": 12.9689476,
      "lon": 77.6416265,
      "tags": {
        "addr:street": "100 Feet Road",
        "name": "Arrow",
        "name:kn": "ಅರ್ರೊ",
        "shop": "clothes"
      }
    },
    {
      "type": "node",
      "id": 1474254711,
      "lat": 12.968363,
      "lon": 77.6416279,
      "tags": {
        "amenity": "place_of_worship",
        "check_date": "2023-10-08",
        "name": "Methodist Church",
        "name:kn": "ಮೆತೊಡಿಸ್ಟ್‌ ಚರ್ಚ್",
        "religion": "christian"
      }
    },
    {
      "type": "node",
      "id": 1654513480,
      "lat": 12.9607214,
      "lon": 77.6458388,
      "tags": {
        "addr:street": "Manipal Motors Road",
        "amenity": "fast_food",
        "cuisine": "indian",
        "name": "Madurai Style Idli Vada Dosa",
        "name:kn": "ಮಧುರೈ ಶೈಲಿಯ ಇಡ್ಲಿ ವಡಾ ದೋಸೆ",
        "wheelchair": "no"
      }
    },
    {
      "type": "node",
      "id": 1758038053,
      "lat": 12.9683052,
      "lon": 77.6504678,
      "tags": {
        "addr:postcode": "560008",
        "addr:street": "Jeevan Bhima Nagar Main road,",
        "amenity": "restaurant",
        "name": "Kaayal",
        "name:kn": "ಕಾಯಲ್",
        "website": "http://kaayal.in/"
      }
    },
    {
      "type": "node",
      "id": 1758230687,
      "lat": 12.968071,
      "lon": 77.650435,
      "tags": {
        "male": "yes",
        "name": "Select Hair Dressers",
        "shop": "hairdresser"
      }
    },
    {
      "type": "node",
      "id": 1758230692,
      "lat": 12.9679728,
      "lon": 77.6517588,
      "tags": {
        "name": "Top in Town",
        "shop": "supermarket"
      }
    },
    {
      "type": "node",
      "id": 1760015498,
      "lat": 12.9673986,
      "lon": 77.6502082,
      "tags": {
        "name": "Fresh and Green",
        "shop": "greengrocer"
      }
    },
    {
      "type": "node",
      "id": 1760015499,
      "lat": 12.968117,
      "lon": 77.6504466,
      "tags": {
        "amenity": "pharmacy",
        "brand": "MedPlus",
        "brand:wikidata": "Q65684234",
        "brand:wikipedia": "en:MedPlus",
        "healthcare": "pharmacy",
        "name": "MedPlus",
        "name:kn": "ಮೆಡ್ ಪ್ಲಸ್"
      }
    },
    {
      "type": "node",
      "id": 1760015500,
      "lat": 12.9662704,
      "lon": 77.6497422,
      "tags": {
        "addr:housenumber": "579",
        "addr:street": "6th Cross",
        "name": "Z Shoppe",
        "phone": "+91 80 252171841",
        "shop": "supermarket"
      }
    },
    {
      "type": "node",
      "id": 1760015504,
      "lat": 12.9661486,
      "lon": 77.6497036,
      "tags": {
        "shop": "kitchen"
      }
    },
    {
      "type": "node",
      "id": 1760015506,
      "lat": 12.9662438,
      "lon": 77.649815,
      "tags": {
        "amenity": "pharmacy",
        "healthcare": "pharmacy"
      }
    },
    {
      "type": "node",
      "id": 1760015509,
      "lat": 12.9663491,
      "lon": 77.6497843,
      "tags": {
        "shop": "tailor"
      }
    },
    {
      "type": "node",
      "id": 1760015512,
      "lat": 12.9663974,
      "lon": 77.649817,
      "tags": {
        "shop": "hardware"
      }
    },
    {
      "type": "node",
      "id": 1760015514,
      "lat": 12.9668422,
      "lon": 77.6499995,
      "tags": {
        "shop": "butcher"
      }
    },
    {
      "type": "node",
      "id": 1760618743,
      "lat": 12.9598393,
      "lon": 77.6500954,
      "tags": {
        "addr:postcode": "560017",
        "addr:street": "Old Airport Road",
        "amenity": "post_office",
        "name": "NAL Sub Office",
        "name:kn": "ಎನ್ ಎ ಎಲ್ ಉಪ ಅಂಚೆ ಕಛೇರಿ",
        "website": "https://www.indiapost.gov.in/"
      }
    },
    {
      "type": "node",
      "id": 1761893916,
      "lat": 12.9598393,
      "lon": 77.6500954,
      "tags": {
        "addr:postcode": "560017",
        "amenity": "post_office",
        "name": "NAL Sub Office",
        "name:kn": "ಎನ್ ಎ ಎಲ್ ಉಪ ಅಂಚೆ ಕಛೇರಿ",
        "wheelchair": "limited"
      }
    },
    {
      "type": "node",
      "id": 1763379673,
      "lat": 12.9632938,
      "lon": 77.6460906,
      "tags": {
        "name": "Manipal Motors",
        "shop": "car_repair"
      }
    },
    {
      "type": "node",
      "id": 1892722512,
      "lat": 12.9643634,
      "lon": 77.6493007,
      "tags": {
        "amenity": "place_of_worship",
        "religion": "hindu"
      }
    },
    {
      "type": "node",
      "id": 2127083897,
      "lat": 12.9605462,
      "lon": 77.6483282,
      "tags": {
        "leisure": "sports_centre",
        "name": "Ameoba Bowling Alley",
        "sport": "9pin"
      }
    },
    {
      "type": "node",
      "id": 2653235044,
      "lat": 12.9681151,
      "lon": 77.6457925,
      "tags": {
        "addr:city": "Bangalore",
        "addr:housename": "Officespac.es",
        "addr:housenumber": "4164",
        "addr:postcode": "560008",
        "addr:street": "13th A Main",
        "amenity": "studio",
        "name": "Saneef Design Office",
        "phone": "+919035066966",
        "source": "Knowledge",
        "type": "design",
        "website": "https://saneef.com/"
      }
    },
    {
      "type": "node",
      "id": 2901507966,
      "lat": 12.9619603,
      "lon": 77.6420069,
      "tags": {
        "amenity": "pub",
        "smoking": "outside"
      }
    },
    {
      "type": "node",
      "id": 3023136405,
      "lat": 12.9654449,
      "lon": 77.6492,
      "tags": {
        "name": "Paris Bakery",
        "shop": "bakery"
      }
    },
    {
      "type": "node",
      "id": 3304100395,
      "lat": 12.9598738,
      "lon": 77.6497781,
      "tags": {
        "name": "Rehabilitation Aids Workshop by Women with Disabilities - RAWWD",
        "shop": "medical_supply",
        "website": "https://www.ddpuk.org/rawwd.html"
      }
    },
    {
      "type": "node",
      "id": 3304100396,
      "lat": 12.9607933,
      "lon": 77.64587,
      "tags": {
        "amenity": "restaurant",
        "name": "Srinidhi Sagar",
        "name:kn": "ಶ್ರೀನಿಧಿ ಸಾಗರ"
      }
    },
    {
      "type": "node",
      "id": 3305353529,
      "lat": 12.9636358,
      "lon": 77.6438548,
      "tags": {
        "addr:street": "2nd Cross",
        "name": "Top in Town Departmental Store",
        "name:kn": "ಟಾಪ್ ಇನ್ ಟೌನ್ ಕಿರಾಣಿ ಆಂಗಡಿ",
        "shop": "department_store"
      }
    },
    {
      "type": "node",
      "id": 3305353530,
      "lat": 12.9637926,
      "lon": 77.6439017,
      "tags": {
        "addr:street": "2nd Cross",
        "name": "Top in Town Vegetable Shop",
        "name:kn": "ಟಾಪ್ ಇನ್ ಟೌನ್ ತರಕಾರಿ ಆಂಗಡಿ",
        "shop": "greengrocer"
      }
    },
    {
      "type": "node",
      "id": 3305353531,
      "lat": 12.9648434,
      "lon": 77.6439312,
      "tags": {
        "name": "Bharath Gas Office",
        "shop": "gas"
      }
    },
    {
      "type": "node",
      "id": 3305353532,
      "lat": 12.9650864,
      "lon": 77.6441914,
      "tags": {
        "amenity": "atm",
        "brand": "Corporation Bank",
        "brand:wikidata": "Q2003387",
        "name": "Corporation Bank",
        "name:kn": "ಕಾರ್ಪರೇಷನ್ ಬ್ಯಾಂಕ್",
        "operator": "Corporation Bank",
        "operator:wikidata": "Q2003387"
      }
    },
    {
      "type": "node",
      "id": 3305353533,
      "lat": 12.9650322,
      "lon": 77.644204,
      "tags": {
        "shop": "medical_supply"
      }
    },
    {
      "type": "node",
      "id": 3305353534,
      "lat": 12.9652093,
      "lon": 77.6442295,
      "tags": {
        "shop": "department_store"
      }
    },
    {
      "type": "node",
      "id": 3305353535,
      "lat": 12.9651936,
      "lon": 77.6442973,
      "tags": {
        "shop": "bakery"
      }
    },
    {
      "type": "node",
      "id": 3355272069,
      "lat": 12.96257,
      "lon": 77.6432823,
      "tags": {
        "addr:city": "Bengaluru",
        "addr:postcode": "570008",
        "addr:street": "17th B Main",
        "amenity": "restaurant",
        "capacity": "10",
        "delivery": "yes",
        "name": "Big Mummy",
        "takeaway": "yes"
      }
    },
    {
      "type": "node",
      "id": 3355272070,
      "lat": 12.9627703,
      "lon": 77.6424953,
      "tags": {
        "addr:city": "Bengaluru",
        "addr:postcode": "570008",
        "addr:street": "17th B Main",
        "amenity": "restaurant",
        "capacity": "10",
        "cuisine": "hyderabadi",
        "name": "Nandu Biryani Corner",
        "takeaway": "yes"
      }
    },
    {
      "type": "node",
      "id": 3355277904,
      "lat": 12.9625363,
      "lon": 77.6432991,
      "tags": {
        "addr:city": "Bengaluru",
        "addr:postcode": "570008",
        "addr:street": "18th Main",
        "name": "Bangalore Horticulture",
        "shop": "greengrocer"
      }
    },
    {
      "type": "node",
      "id": 3362040051,
      "lat": 12.9666917,
      "lon": 77.6426424,
      "tags": {
        "amenity": "place_of_worship",
        "denomination": "shaktism",
        "name": "Buvaneshwari Devi Temple",
        "religion": "hindu"
      }
    },
    {
      "type": "node",
      "id": 3362040053,
      "lat": 12.9673907,
      "lon": 77.6420498,
      "tags": {
        "amenity": "dentist",
        "healthcare": "dentist",
        "name": "Dr.Paul's Dental Healthcare"
      }
    },
    {
      "type": "node",
      "id": 3362040054,
      "lat": 12.9633105,
      "lon": 77.6422202,
      "tags": {
        "addr:housenumber": "13",
        "addr:street": "17th Main",
        "amenity": "clinic",
        "name": "Homeocare International",
        "operator": "Private"
      }
    },
    {
      "type": "node",
      "id": 3362040055,
      "lat": 12.9676644,
      "lon": 77.6429248,
      "tags": {
        "amenity": "clinic",
        "healthcare": "clinic",
        "name": "Indiranagar Specialist Center",
        "operator": "Private"
      }
    },
    {
      "type": "node",
      "id": 3396324855,
      "lat": 12.9625591,
      "lon": 77.6430964,
      "tags": {
        "addr:street": "18th Main Road",
        "amenity": "pharmacy",
        "brand": "MedPlus",
        "brand:wikidata": "Q65684234",
        "healthcare": "pharmacy",
        "name": "MedPlus",
        "name:kn": "ಮೆಡ್ ಪ್ಲಸ್",
        "website": "https://medplus.com/"
      }
    },
    {
      "type": "node",
      "id": 3396334741,
      "lat": 12.9625376,
      "lon": 77.6432147,
      "tags": {
        "amenity": "bank",
        "atm": "yes",
        "brand": "Tamilnad Mercantile Bank Limited",
        "brand:wikidata": "Q2044991",
        "name": "Tamilnad Mercantile Bank Limited",
        "opening_hours": "24/7"
      }
    },
    {
      "type": "node",
      "id": 3401252353,
      "lat": 12.9614096,
      "lon": 77.6435604,
      "tags": {
        "amenity": "animal_shelter",
        "name": "The voice of stray dogs"
      }
    },
    {
      "type": "node",
      "id": 3506424470,
      "lat": 12.9659059,
      "lon": 77.6495491,
      "tags": {
        "shop": "kitchen"
      }
    },
    {
      "type": "node",
      "id": 3542140648,
      "lat": 12.9637285,
      "lon": 77.6432716,
      "tags": {
        "leisure": "playground",
        "opening_hours": "06:00-09:30,17:30-20:00",
        "wheelchair": "yes"
      }
    },
    {
      "type": "node",
      "id": 3660570661,
      "lat": 12.9638052,
      "lon": 77.6423007,
      "tags": {
        "addr:street": "1st Cross",
        "brand": "HOPCOMS",
        "brand:wikidata": "Q22908959",
        "name": "HOPCOMS",
        "name:kn": "ಹಾಪ್ ಕಾಮ್ಸ್",
        "shop": "greengrocer"
      }
    },
    {
      "type": "node",
      "id": 3660570662,
      "lat": 12.9637778,
      "lon": 77.6423423,
      "tags": {
        "amenity": "bench"
      }
    },
    {
      "type": "node",
      "id": 3660570663,
      "lat": 12.9638699,
      "lon": 77.6423376,
      "tags": {
        "amenity": "bench"
      }
    },
    {
      "type": "node",
      "id": 3660570664,
      "lat": 12.9639156,
      "lon": 77.6423423,
      "tags": {
        "amenity": "bench"
      }
    },
    {
      "type": "node",
      "id": 3660570665,
      "lat": 12.9639137,
      "lon": 77.6426138,
      "tags": {
        "amenity": "bench"
      }
    },
    {
      "type": "node",
      "id": 3660586040,
      "lat": 12.9639111,
      "lon": 77.642752,
      "tags": {
        "amenity": "bench"
      }
    },
    {
      "type": "node",
      "id": 3660586041,
      "lat": 12.9639098,
      "lon": 77.6427862,
      "tags": {
        "amenity": "bench"
      }
    },
    {
      "type": "node",
      "id": 3660586042,
      "lat": 12.9638993,
      "lon": 77.6428231,
      "tags": {
        "amenity": "bench"
      }
    },
    {
      "type": "node",
      "id": 3660591734,
      "lat": 12.9638451,
      "lon": 77.6432167,
      "tags": {
        "amenity": "bench"
      }
    },
    {
      "type": "node",
      "id": 3660591735,
      "lat": 12.9638379,
      "lon": 77.6432616,
      "tags": {
        "amenity": "bench"
      }
    },
    {
      "type": "node",
      "id": 3660591736,
      "lat": 12.9638353,
      "lon": 77.6433173,
      "tags": {
        "amenity": "bench"
      }
    },
    {
      "type": "node",
      "id": 3660594851,
      "lat": 12.9638359,
      "lon": 77.6424596,
      "tags": {
        "leisure": "fitness_station"
      }
    },
    {
      "type": "node",
      "id": 3725675417,
      "lat": 12.9670134,
      "lon": 77.6416348,
      "tags": {
        "addr:street": "100 Feet Road(S K Karim Khan Road)",
        "brand": "Clarks",
        "brand:wikidata": "Q1095857",
        "name": "Clarks",
        "name:kn": "ಕ್ಲಾರ್ಕ್ಸ್",
        "shop": "shoes",
        "wheelchair": "limited"
      }
    },
    {
      "type": "node",
      "id": 3725710392,
      "lat": 12.964384,
      "lon": 77.6417958,
      "tags": {
        "name": "Celeste Karishma Home and Bath boutique",
        "shop": "interior_decoration"
      }
    },
    {
      "type": "node",
      "id": 3725710393,
      "lat": 12.9643581,
      "lon": 77.6417794,
      "tags": {
        "addr:street": "100 Feet Road(S K Karim Khan Road)",
        "brand": "Celio",
        "brand:wikidata": "Q2672003",
        "name": "Celio",
        "shop": "clothes",
        "wheelchair": "limited"
      }
    },
    {
      "type": "node",
      "id": 3725710394,
      "lat": 12.9647407,
      "lon": 77.641787,
      "tags": {
        "amenity": "atm",
        "brand": "Citibank",
        "brand:wikidata": "Q857063",
        "name": "Citibank",
        "name:kn": "ಸಿಟಿಬ್ಯಾಂಕ್",
        "opening_hours": "24/7",
        "operator": "Citibank",
        "operator:wikidata": "Q857063",
        "short_name": "Citi"
      }
    },
    {
      "type": "node",
      "id": 3725710396,
      "lat": 12.964004,
      "lon": 77.6418156,
      "tags": {
        "addr:street": "100 Feet Road(S K Karim Khan Road)",
        "name": "Docomo store",
        "shop": "yes"
      }
    },
    {
      "type": "node",
      "id": 3725710398,
      "lat": 12.9646378,
      "lon": 77.6417391,
      "tags": {
        "amenity": "fast_food",
        "brand": "Five Star Chicken",
        "cuisine": "chicken",
        "delivery": "yes",
        "name": "Five Star Chicken",
        "takeaway": "yes"
      }
    },
    {
      "type": "node",
      "id": 3725710399,
      "lat": 12.9640635,
      "lon": 77.6418154,
      "tags": {
        "name": "Flight shop",
        "shop": "travel_agency"
      }
    },
    {
      "type": "node",
      "id": 3725710400,
      "lat": 12.962951,
      "lon": 77.6418711,
      "tags": {
        "amenity": "hospital",
        "name": "Gift IVF center"
      }
    },
    {
      "type": "node",
      "id": 3725710401,
      "lat": 12.9620032,
      "lon": 77.6419066,
      "tags": {
        "addr:street": "100 Feet Road",
        "amenity": "pub",
        "name": "H3O"
      }
    },
    {
      "type": "node",
      "id": 3725710402,
      "lat": 12.9644935,
      "lon": 77.6418016,
      "tags": {
        "addr:street": "100 Feet Road(S K Karim Khan Road)",
        "shop": "clothes"
      }
    },
    {
      "type": "node",
      "id": 3725710403,
      "lat": 12.9629933,
      "lon": 77.6418677,
      "tags": {
        "name": "Kushal Decors",
        "shop": "interior_decoration"
      }
    },
    {
      "type": "node",
      "id": 3725719374,
      "lat": 12.9654532,
      "lon": 77.6417318,
      "tags": {
        "addr:street": "100 Feet Road(S K Karim Khan Road)",
        "amenity": "pharmacy",
        "healthcare": "pharmacy",
        "name": "Apollo Clinic",
        "roof:shape": "flat"
      }
    },
    {
      "type": "node",
      "id": 3725719375,
      "lat": 12.9654233,
      "lon": 77.6418908,
      "tags": {
        "addr:street": "100 Feet Road(S K Karim Khan Road)",
        "leisure": "fitness_centre",
        "name": "Bend Body Studio",
        "name:en": "One Up fitness"
      }
    },
    {
      "type": "node",
      "id": 3725719378,
      "lat": 12.9659243,
      "lon": 77.6416907,
      "tags": {
        "addr:street": "100 Feet Road(S K Karim Khan Road)",
        "name": "Neeru's",
        "shop": "clothes"
      }
    },
    {
      "type": "node",
      "id": 3725719379,
      "lat": 12.9657866,
      "lon": 77.6417312,
      "tags": {
        "addr:city": "Bangalore",
        "addr:housenumber": "2014",
        "addr:postcode": "560008",
        "addr:street": "100 Feet Road(S K Karim Khan Road)",
        "brand": "Nike",
        "brand:wikidata": "Q483915",
        "brand:wikipedia": "en:Nike, Inc.",
        "check_date": "2023-10-08",
        "name": "Nike",
        "name:kn": "ನೈಕ್",
        "opening_hours": "10:00-21:30",
        "phone": "080 4096 3602",
        "shop": "clothes"
      }
    },
    {
      "type": "node",
      "id": 3725719381,
      "lat": 12.9653878,
      "lon": 77.6417316,
      "tags": {
        "brand": "Payless ShoeSource",
        "brand:wikidata": "Q7156755",
        "brand:wikipedia": "en:Payless ShoeSource",
        "check_date": "2023-10-08",
        "name": "Payless ShoeSource",
        "shop": "shoes"
      }
    },
    {
      "type": "node",
      "id": 3725719382,
      "lat": 12.9662002,
      "lon": 77.6416839,
      "tags": {
        "addr:street": "100 Feet Road(S K Karim Khan Road)",
        "brand": "Reebok",
        "brand:wikidata": "Q466183",
        "check_date": "2024-09-18",
        "name": "Reebok",
        "name:kn": "ರೀಬಾಕ್",
        "payment:cash": "yes",
        "payment:credit_cards": "yes",
        "payment:debit_cards": "yes",
        "shop": "clothes"
      }
    },
    {
      "type": "node",
      "id": 3725719383,
      "lat": 12.9654204,
      "lon": 77.641732,
      "tags": {
        "addr:street": "100 Feet Road(S K Karim Khan Road)",
        "brand": "Vision Express",
        "brand:wikidata": "Q7936150",
        "name": "Vision Express",
        "shop": "optician"
      }
    },
    {
      "type": "node",
      "id": 3725742979,
      "lat": 12.9697562,
      "lon": 77.6415706,
      "tags": {
        "addr:street": "100 Feet Road",
        "name": "Aurelia",
        "name:kn": "ಅರೆಲಿಯ",
        "shop": "clothes"
      }
    },
    {
      "type": "node",
      "id": 3725742980,
      "lat": 12.9698116,
      "lon": 77.6415504,
      "tags": {
        "name": "Furn Decor",
        "name:kn": "ಫನ್ ಡೆಕೊರ್",
        "shop": "furniture"
      }
    },
    {
      "type": "node",
      "id": 3725742981,
      "lat": 12.9696,
      "lon": 77.6415955,
      "tags": {
        "name": "Mufti",
        "shop": "yes"
      }
    },
    {
      "type": "node",
      "id": 3725742982,
      "lat": 12.9697991,
      "lon": 77.6416332,
      "tags": {
        "brand": "Pepe Jeans",
        "brand:wikidata": "Q426992",
        "name": "Pepe Jeans",
        "name:kn": "ಪೆಪೀ ಜೀನ್ಸ್",
        "shop": "clothes"
      }
    },
    {
      "type": "node",
      "id": 3725742983,
      "lat": 12.9696312,
      "lon": 77.641609,
      "tags": {
        "addr:street": "100 Feet Road",
        "name": "Poorika Mobile World",
        "name:kn": "ಪೂರಿಕ ಮೊಬೈಲ್ ವರ್ಲ್ಡ್",
        "shop": "mobile_phone"
      }
    },
    {
      "type": "node",
      "id": 3725742984,
      "lat": 12.9696602,
      "lon": 77.6415629,
      "tags": {
        "addr:street": "100 Feet Road",
        "name": "Ruosh",
        "shop": "yes"
      }
    },
    {
      "type": "node",
      "id": 3725742985,
      "lat": 12.9696945,
      "lon": 77.6415941,
      "tags": {
        "addr:street": "100 Feet Road",
        "name": "Safari",
        "shop": "yes"
      }
    },
    {
      "type": "node",
      "id": 3725752592,
      "lat": 12.9637055,
      "lon": 77.6418794,
      "tags": {
        "name": "House of Johnson",
        "shop": "yes"
      }
    },
    {
      "type": "node",
      "id": 3725752594,
      "lat": 12.963873,
      "lon": 77.6418506,
      "tags": {
        "addr:street": "100 Feet Road(S K Karim Khan Road)",
        "amenity": "restaurant",
        "name": "Rajdhani",
        "name:kn": "ರಾಜಧಾನಿ"
      }
    },
    {
      "type": "node",
      "id": 3725752595,
      "lat": 12.963753,
      "lon": 77.6419024,
      "tags": {
        "addr:street": "100 Feet Road(S K Karim Khan Road)",
        "amenity": "restaurant",
        "name": "The Rock"
      }
    },
    {
      "type": "node",
      "id": 3725752596,
      "lat": 12.9638338,
      "lon": 77.6418506,
      "tags": {
        "brand": "5àsec",
        "brand:wikidata": "Q2817899",
        "name": "5àsec",
        "shop": "dry_cleaning"
      }
    },
    {
      "type": "node",
      "id": 3726039620,
      "lat": 12.9694583,
      "lon": 77.6415886,
      "tags": {
        "addr:street": "100 Feet Road",
        "amenity": "restaurant",
        "name": "The Biriyani World"
      }
    },
    {
      "type": "node",
      "id": 3726039621,
      "lat": 12.9694598,
      "lon": 77.6416844,
      "tags": {
        "addr:street": "100 Feet Road",
        "amenity": "food_court",
        "name": "Unibic Foods"
      }
    },
    {
      "type": "node",
      "id": 3726063801,
      "lat": 12.9689167,
      "lon": 77.6416692,
      "tags": {
        "addr:street": "100 Feet Road",
        "name": "EdHardy",
        "name:kn": "ಎಢ್ಹಾರ್ಡಿ",
        "shop": "clothes"
      }
    },
    {
      "type": "node",
      "id": 3726063802,
      "lat": 12.9689861,
      "lon": 77.6417056,
      "tags": {
        "addr:street": "100 Feet Road",
        "brand": "IZOD",
        "brand:wikidata": "Q17152556",
        "clothes": "men",
        "name": "IZOD",
        "name:kn": "ಈಜೋಡ್",
        "shop": "clothes"
      }
    },
    {
      "type": "node",
      "id": 3756794098,
      "lat": 12.9685272,
      "lon": 77.6426049,
      "tags": {
        "amenity": "post_office",
        "branch": "Indiranagar",
        "name": "Indiranagar Post Office",
        "name:en": "Indiranagar Post Office",
        "name:kn": "ಇಂದಿರಾನಗರ ಅಂಚೆ ಕಛೇರಿ",
        "opening_hours": "Mo-Sa 09:30-17:30",
        "operator": "India Post",
        "operator:wikidata": "Q3519720"
      }
    },
    {
      "type": "node",
      "id": 3761239273,
      "lat": 12.9597633,
      "lon": 77.6470458,
      "tags": {
        "addr:street": "Old Airport Road",
        "amenity": "restaurant",
        "indoor_seating": "yes",
        "level": "0",
        "name": "Zaitoon",
        "outdoor_seating": "no"
      }
    },
    {
      "type": "node",
      "id": 3761373128,
      "lat": 12.9600073,
      "lon": 77.6454571,
      "tags": {
        "amenity": "fast_food",
        "level": "0",
        "name": "Mac Fast Food"
      }
    },
    {
      "type": "node",
      "id": 3761373131,
      "lat": 12.9600501,
      "lon": 77.6451721,
      "tags": {
        "amenity": "fast_food",
        "level": "0",
        "name": "Anand"
      }
    },
    {
      "type": "node",
      "id": 3761373132,
      "lat": 12.9600581,
      "lon": 77.6451404,
      "tags": {
        "addr:street": "Old Airport Road",
        "amenity": "restaurant",
        "level": "0",
        "name": "Cheeni Kum"
      }
    },
    {
      "type": "node",
      "id": 3761373133,
      "lat": 12.9600613,
      "lon": 77.6451094,
      "tags": {
        "level": "0",
        "name": "Siri's Corner",
        "shop": "dairy"
      }
    },
    {
      "type": "node",
      "id": 3761382502,
      "lat": 12.9600708,
      "lon": 77.6450117,
      "tags": {
        "addr:street": "Old Airport Road",
        "level": "0",
        "name": "Faber-Franke",
        "shop": "hardware"
      }
    },
    {
      "type": "node",
      "id": 3761384035,
      "lat": 12.9600729,
      "lon": 77.644947,
      "tags": {
        "level": "0",
        "name": "Just Bake",
        "shop": "bakery"
      }
    },
    {
      "type": "node",
      "id": 3761384036,
      "lat": 12.9600853,
      "lon": 77.6449886,
      "tags": {
        "level": "-1",
        "name": "Fenesta Windows",
        "shop": "hardware"
      }
    },
    {
      "type": "node",
      "id": 3761385392,
      "lat": 12.9600493,
      "lon": 77.6449336,
      "tags": {
        "addr:street": "Old Airport Road",
        "amenity": "restaurant",
        "level": "1",
        "name": "Mast Kalandar",
        "name:kn": "ಮಸ್ತ್ ಕಲಂದರ್"
      }
    },
    {
      "type": "node",
      "id": 3761385393,
      "lat": 12.9600755,
      "lon": 77.6448826,
      "tags": {
        "amenity": "cafe",
        "brand": "Chai Point",
        "brand:wikidata": "Q28173415",
        "cuisine": "coffee_shop",
        "indoor_seating": "yes",
        "level": "0",
        "name": "Chai Point",
        "outdoor_seating": "no",
        "takeaway": "yes"
      }
    },
    {
      "type": "node",
      "id": 3761386469,
      "lat": 12.9600702,
      "lon": 77.6448451,
      "tags": {
        "addr:street": "Old Airport Road",
        "level": "0",
        "name": "Reliance Mobile Store",
        "shop": "mobile_phone"
      }
    },
    {
      "type": "node",
      "id": 3761392714,
      "lat": 12.9600127,
      "lon": 77.6451616,
      "tags": {
        "amenity": "bank",
        "level": "1",
        "name": "ICICI Direct",
        "note": "Note: Actually this is a stockbroker, but I cannot find the proper tag. Please help me tag this!"
      }
    },
    {
      "type": "node",
      "id": 3761395482,
      "lat": 12.9600676,
      "lon": 77.6447244,
      "tags": {
        "amenity": "bank",
        "atm": "yes",
        "brand:wikidata": "Q3595747",
        "brand:wikipedia": "en:Dena Bank",
        "level": "0",
        "name": "Dena Bank",
        "name:en": "Dena Bank",
        "name:kn": "ದೇನ ಬ್ಯಾಂಕ್",
        "website": "http://www.denabank.com"
      }
    },
    {
      "type": "node",
      "id": 3761402765,
      "lat": 12.9600964,
      "lon": 77.6445634,
      "tags": {
        "level": "0",
        "name": "Excide Batteries",
        "note": "Help me tag this: This is a battery sale-cum-recharging shop. But I could not find a proper tag for it.",
        "shop": "car_parts"
      }
    },
    {
      "type": "node",
      "id": 3761406785,
      "lat": 12.9601577,
      "lon": 77.6443247,
      "tags": {
        "addr:street": "Old Airport Road",
        "amenity": "restaurant",
        "level": "0",
        "name": "Desi Bytes"
      }
    },
    {
      "type": "node",
      "id": 3761418961,
      "lat": 12.9600667,
      "lon": 77.6450929,
      "tags": {
        "amenity": "atm",
        "brand": "HDFC Bank",
        "brand:wikidata": "Q631047",
        "level": "-1",
        "name": "HDFC Bank",
        "name:kn": "ಎಚ್. ಡಿ. ಎಫ್. ಸಿ. ಬ್ಯಾಂಕ್",
        "operator": "HDFC Bank",
        "operator:wikidata": "Q631047",
        "short_name": "HDFC"
      }
    },
    {
      "type": "node",
      "id": 3780939335,
      "lat": 12.961357,
      "lon": 77.6459596,
      "tags": {
        "name": "Karthik's delicious Parlour",
        "shop": "dairy"
      }
    },
    {
      "type": "node",
      "id": 3780939336,
      "lat": 12.9613296,
      "lon": 77.6459542,
      "tags": {
        "clothes": "children",
        "name": "Tiny Bees",
        "shop": "clothes"
      }
    },
    {
      "type": "node",
      "id": 3780945462,
      "lat": 12.9620198,
      "lon": 77.6459775,
      "tags": {
        "amenity": "car_rental",
        "level": "0",
        "name": "India Cabs"
      }
    },
    {
      "type": "node",
      "id": 3780945463,
      "lat": 12.9619969,
      "lon": 77.6459729,
      "tags": {
        "level": "0",
        "name": "TyreTec",
        "shop": "tyres"
      }
    },
    {
      "type": "node",
      "id": 3781001372,
      "lat": 12.960637,
      "lon": 77.6458408,
      "tags": {
        "name": "India Motors",
        "shop": "car"
      }
    },
    {
      "type": "node",
      "id": 3783556814,
      "lat": 12.9594395,
      "lon": 77.6436156,
      "tags": {
        "amenity": "restaurant",
        "delivery": "no",
        "level": "-1",
        "name": "Clubhouse"
      }
    },
    {
      "type": "node",
      "id": 3803144668,
      "lat": 12.9596851,
      "lon": 77.6469989,
      "tags": {
        "amenity": "Party Hall",
        "name": "Khayal Banquet Hall"
      }
    },
    {
      "type": "node",
      "id": 3804506763,
      "lat": 12.959884,
      "lon": 77.649722,
      "tags": {
        "level": "0",
        "name": "Cheshire Homes Crafts",
        "shop": "craft"
      }
    },
    {
      "type": "node",
      "id": 3837270531,
      "lat": 12.9656704,
      "lon": 77.6492943,
      "tags": {
        "amenity": "restaurant",
        "cuisine": "korean",
        "delivery": "no",
        "name": "Soo Ra Sang Korean Cuisine",
        "opening_hours": "Mo-Su 12:00-23:00"
      }
    },
    {
      "type": "node",
      "id": 3851560766,
      "lat": 12.9700666,
      "lon": 77.6473898,
      "tags": {
        "addr:street": "80 Feet Road(Sir C.V. Raman Hospital Road)",
        "level": "0",
        "name": "Gift Shop",
        "shop": "gift"
      }
    },
    {
      "type": "node",
      "id": 3851565598,
      "lat": 12.9699191,
      "lon": 77.646059,
      "tags": {
        "amenity": "bank",
        "atm": "yes",
        "level": "0"
      }
    },
    {
      "type": "node",
      "id": 3851665171,
      "lat": 12.970301,
      "lon": 77.6473523,
      "tags": {
        "addr:street": "80 Feet Road(Sir C.V. Raman Hospital Road)",
        "level": "0,1",
        "name": "Kay Clinic",
        "shop": "beauty"
      }
    },
    {
      "type": "node",
      "id": 3851739908,
      "lat": 12.9702623,
      "lon": 77.6466852,
      "tags": {
        "addr:street": "12th Main Road",
        "amenity": "clinic",
        "healthcare:speciality": "ophthalmology",
        "name": "Kapila Eye Clinic"
      }
    },
    {
      "type": "node",
      "id": 3851803066,
      "lat": 12.970245,
      "lon": 77.6461947,
      "tags": {
        "addr:street": "12th Main Road",
        "level": "0,1",
        "name": "Hoodi Center",
        "shop": "kitchen"
      }
    },
    {
      "type": "node",
      "id": 3851816972,
      "lat": 12.9702305,
      "lon": 77.6460321,
      "tags": {
        "addr:street": "12th Main Road",
        "name": "Incaa Studio",
        "shop": "kitchen"
      }
    },
    {
      "type": "node",
      "id": 3851880602,
      "lat": 12.9702611,
      "lon": 77.6450652,
      "tags": {
        "amenity": "bank",
        "atm": "yes",
        "brand": "State Bank of India",
        "brand:wikidata": "Q1340361",
        "brand:wikipedia": "en:State Bank of India",
        "check_date": "2023-10-08",
        "level": "0,1",
        "name": "State Bank of India",
        "name:kn": "ಭಾರತೀಯ ಸ್ಟೇಟ್ ಬ್ಯಾಂಕ್",
        "opening_hours": "Tu-Su 10:00-16:00",
        "short_name": "SBI"
      }
    },
    {
      "type": "node",
      "id": 3851884224,
      "lat": 12.9702598,
      "lon": 77.6451261,
      "tags": {
        "addr:street": "12th Main Road",
        "amenity": "bank",
        "atm": "no",
        "branch": "NRI Branch",
        "brand": "State Bank of India",
        "brand:wikidata": "Q1340361",
        "brand:wikipedia": "en:State Bank of India",
        "level": "2",
        "name": "State Bank of India",
        "short_name": "SBI",
        "website": "https://sbi.co.in/"
      }
    },
    {
      "type": "node",
      "id": 3851909916,
      "lat": 12.9702415,
      "lon": 77.6446226,
      "tags": {
        "addr:street": "12th Main Road",
        "amenity": "post_office",
        "level": "0",
        "name": "Blue Dart- DHL",
        "operator": "Blue Dart - DHL"
      }
    },
    {
      "type": "node",
      "id": 3851909917,
      "lat": 12.970235,
      "lon": 77.6445368,
      "tags": {
        "addr:street": "12th Main Road",
        "amenity": "ice_cream",
        "brand": "Naturals",
        "brand:wikidata": "Q24439154",
        "cuisine": "ice_cream",
        "indoor_seating": "yes",
        "name": "Naturals",
        "outdoor_seating": "yes"
      }
    },
    {
      "type": "node",
      "id": 3851937460,
      "lat": 12.9702094,
      "lon": 77.6440181,
      "tags": {
        "addr:street": "12th Main Road",
        "air_conditioning": "yes",
        "amenity": "cafe",
        "brand": "Theobroma",
        "check_date": "2024-09-18",
        "delivery": "yes",
        "indoor_seating": "yes",
        "level": "0",
        "name": "Theobroma",
        "outdoor_seating": "no",
        "payment:credit_cards": "yes",
        "payment:debit_cards": "yes",
        "shop": "pastry",
        "smoking": "no",
        "source": "survey",
        "takeaway": "yes",
        "website": "https://theobroma.in/",
        "wheelchair": "yes"
      }
    },
    {
      "type": "node",
      "id": 3851937461,
      "lat": 12.970241,
      "lon": 77.6439739,
      "tags": {
        "brand": "Toni & Guy",
        "brand:wikidata": "Q324784",
        "female": "yes",
        "level": "0",
        "male": "yes",
        "name": "Toni & Guy",
        "shop": "hairdresser"
      }
    },
    {
      "type": "node",
      "id": 3851937462,
      "lat": 12.9702462,
      "lon": 77.6439297,
      "tags": {
        "addr:street": "12th Main Road",
        "name": "Virginia",
        "shop": "yes"
      }
    },
    {
      "type": "node",
      "id": 4005167691,
      "lat": 12.9611115,
      "lon": 77.6457339,
      "tags": {
        "amenity": "bicycle_parking",
        "natural": "tree",
        "operator": "Yulu Cycle Stand"
      }
    },
    {
      "type": "node",
      "id": 4005181106,
      "lat": 12.9622425,
      "lon": 77.6448007,
      "tags": {
        "amenity": "restaurant",
        "name": "Little Orissa"
      }
    },
    {
      "type": "node",
      "id": 4005718301,
      "lat": 12.9622101,
      "lon": 77.6444944,
      "tags": {
        "amenity": "recycling",
        "recycling:paper": "yes",
        "recycling:plastic_bottles": "yes",
        "recycling:small_appliances": "yes",
        "recycling_type": "centre"
      }
    },
    {
      "type": "node",
      "id": 4030173905,
      "lat": 12.9614706,
      "lon": 77.6443101,
      "tags": {
        "access": "permissive",
        "amenity": "bicycle_parking",
        "bicycle_parking": "stands",
        "capacity": "4",
        "lit": "yes",
        "name": "Hasgeek Cycle Stands",
        "operator": "Hasgeek",
        "supervised": "no"
      }
    },
    {
      "type": "node",
      "id": 4155280389,
      "lat": 12.9624957,
      "lon": 77.6432784,
      "tags": {
        "addr:street": "18th Main Road",
        "brand": "HOPCOMS",
        "brand:wikidata": "Q22908959",
        "name": "HOPCOMS",
        "name:kn": "ಹಾಪ್ ಕಾಮ್ಸ್",
        "opening_hours": "Mo-Su 10:00-21:00",
        "shop": "greengrocer"
      }
    },
    {
      "type": "node",
      "id": 4163604717,
      "lat": 12.9637461,
      "lon": 77.6423898,
      "tags": {
        "amenity": "bench"
      }
    },
    {
      "type": "node",
      "id": 4163653089,
      "lat": 12.9637946,
      "lon": 77.6423264,
      "tags": {
        "amenity": "bench"
      }
    },
    {
      "type": "node",
      "id": 4211875404,
      "lat": 12.96957,
      "lon": 77.6456626,
      "tags": {
        "amenity": "bench",
        "backrest": "no"
      }
    },
    {
      "type": "node",
      "id": 4211875405,
      "lat": 12.9695741,
      "lon": 77.6459441,
      "tags": {
        "amenity": "fast_food",
        "name": "Tiffin"
      }
    },
    {
      "type": "node",
      "id": 4310563609,
      "lat": 12.9598531,
      "lon": 77.6429762,
      "tags": {
        "amenity": "bank",
        "atm": "yes",
        "brand": "Corporation Bank",
        "brand:wikidata": "Q2003387",
        "brand:wikipedia": "en:Corporation Bank",
        "name": "Corporation Bank",
        "name:en": "Corporation Bank",
        "name:kn": "ಕಾರ್ಪರೇಷನ್ ಬ್ಯಾಂಕ್",
        "website": "https://corpbank.com/"
      }
    },
    {
      "type": "node",
      "id": 4314330394,
      "lat": 12.9701903,
      "lon": 77.6433281,
      "tags": {
        "amenity": "clinic",
        "healthcare": "clinic",
        "name": "Sagar Clinic"
      }
    },
    {
      "type": "node",
      "id": 4315678618,
      "lat": 12.9703177,
      "lon": 77.6473535,
      "tags": {
        "name": "H K Hearing Wellness Clinic",
        "shop": "beauty"
      }
    },
    {
      "type": "node",
      "id": 4445276361,
      "lat": 12.970248,
      "lon": 77.6470414,
      "tags": {
        "addr:city": "Bangalore",
        "addr:postcode": "560008",
        "addr:street": "80 feet Road, 12th Main Road, HAL 2nd Stage, Indiranagar, 80 Feet Road(Sir C.V. Raman Hospital Road)",
        "amenity": "clinic",
        "healthcare": "clinic",
        "name": "Kaya Skin Clinic",
        "phone": "080 6567 4475",
        "website": "https://www.kaya.in/"
      }
    },
    {
      "type": "node",
      "id": 4445603184,
      "lat": 12.9627947,
      "lon": 77.6419191,
      "tags": {
        "addr:city": "Bengaluru",
        "addr:housenumber": "124",
        "addr:postcode": "570008",
        "addr:street": "HAL II Stage, 18th Main Road, Indira Nagar, Kodihalli,",
        "amenity": "pharmacy",
        "drive_through": "no",
        "name": "Deseeya Ayurvedic Pharmacy",
        "phone": "080 2520 1188",
        "website": "deseeya.com"
      }
    },
    {
      "type": "node",
      "id": 4446268170,
      "lat": 12.9702741,
      "lon": 77.6468603,
      "tags": {
        "addr:city": "Bangalore",
        "addr:housenumber": "2989/1A",
        "addr:postcode": "560038",
        "addr:street": "12th Main, HAL II Stage, Indiranagar",
        "amenity": "hospital",
        "healthcare": "hospital",
        "phone": "080 4530 0300",
        "website": "https://www.nightingales.in/"
      }
    },
    {
      "type": "node",
      "id": 4446475362,
      "lat": 12.9679122,
      "lon": 77.6517504,
      "tags": {
        "addr:city": "Bangalore",
        "addr:housenumber": "17",
        "addr:postcode": "560075",
        "addr:street": "10th Main, HAL 3rd Stage, Jeevan Bima Nagar Main Rd, DOS Colony, Jeevanbheemanagar",
        "amenity": "pharmacy",
        "healthcare": "pharmacy",
        "name": "Sri Vidhya Medicals General Store",
        "phone": "+91 94481 67969"
      }
    },
    {
      "type": "node",
      "id": 4474681187,
      "lat": 12.9643464,
      "lon": 77.6493193,
      "tags": {
        "amenity": "place_of_worship",
        "natural": "tree",
        "religion": "hindu"
      }
    },
    {
      "type": "node",
      "id": 4489280310,
      "lat": 12.9647321,
      "lon": 77.6419068,
      "tags": {
        "addr:city": "Bangalore",
        "addr:housenumber": "# 2008",
        "addr:postcode": "560008",
        "addr:street": ",Near Vodafone, 100 Feet Rd, Bhadrappa Layout, HAL 2nd Stage, Indiranagar",
        "branch": "Exclusive Store",
        "brand": "Adidas",
        "brand:wikidata": "Q3895",
        "name": "Adidas",
        "name:kn": "ಅಡಿಡಾಸ್",
        "opening_hours": "10:00-21:30",
        "phone": "08049542553",
        "shop": "sports",
        "website": "https://www.adidas.co.in/"
      }
    },
    {
      "type": "node",
      "id": 4489287876,
      "lat": 12.9586276,
      "lon": 77.6452883,
      "tags": {
        "addr:city": "bangalore",
        "addr:housenumber": "# 617",
        "addr:postcode": "560008",
        "addr:street": "Karnataka Golf Association Road, HAL Old Airport Rd, Kodihalli",
        "name": "Evergreen Golf Shop",
        "opening_hours": "10:00-20:00",
        "phone": "08025200250",
        "shop": "sports",
        "website": "https://www.evergreengolfindia.com/"
      }
    },
    {
      "type": "node",
      "id": 4489795945,
      "lat": 12.965423,
      "lon": 77.6419072,
      "tags": {
        "addr:city": "Bangalore",
        "addr:housenumber": "No. 2012",
        "addr:postcode": "560038",
        "addr:street": "Shreyas Plaza, 100 Feet Road, Indira Nagar, Bhadrappa Layout, HAL 2nd Stage, Indiranagar,",
        "leisure": "sports_centre",
        "name": "Ben Body Studio",
        "opening_hours": "05:00-23:00",
        "phone": "8025213660",
        "sport": "gymnastics",
        "website": "helios-wellness.com"
      }
    },
    {
      "type": "node",
      "id": 4489906459,
      "lat": 12.9700431,
      "lon": 77.6414698,
      "tags": {
        "addr:city": "Bangalore",
        "addr:housenumber": "613",
        "addr:postcode": "560038",
        "addr:street": "2nd Main,1st Stage, Indiranagar",
        "name": "The Edelweiss",
        "opening_hours": "09:00-21:00",
        "phone": "080-33673623",
        "shop": "beauty"
      }
    },
    {
      "type": "node",
      "id": 4512028991,
      "lat": 12.9639402,
      "lon": 77.6476896,
      "tags": {
        "name": "Bismillah Chicken Centre",
        "name:en": "Bismillah Chicken Centre",
        "shop": "butcher"
      }
    },
    {
      "type": "node",
      "id": 4512030091,
      "lat": 12.9631443,
      "lon": 77.6474366,
      "tags": {
        "amenity": "place_of_worship",
        "religion": "hindu"
      }
    },
    {
      "type": "node",
      "id": 4512052990,
      "lat": 12.9624108,
      "lon": 77.6481803,
      "tags": {
        "amenity": "school",
        "name": "Dr Ambedkar Nursery Primary & High School",
        "name:en": "Dr Ambedkar Nursery Primary & High School"
      }
    },
    {
      "type": "node",
      "id": 4512078489,
      "lat": 12.964049,
      "lon": 77.6476596,
      "tags": {
        "name": "Nitin Pork Stall",
        "name:en": "Nitin Pork Stall",
        "shop": "butcher"
      }
    },
    {
      "type": "node",
      "id": 4512081090,
      "lat": 12.9641893,
      "lon": 77.6474015,
      "tags": {
        "name": "AR Stores",
        "name:en": "AR Stores",
        "shop": "convenience"
      }
    },
    {
      "type": "node",
      "id": 4512083491,
      "lat": 12.967598,
      "lon": 77.6479558,
      "tags": {
        "name": "ADA Aqua Design Amano",
        "name:en": "ADA Aqua Design Amano",
        "shop": "pet"
      }
    },
    {
      "type": "node",
      "id": 4512358072,
      "lat": 12.9621711,
      "lon": 77.6492415,
      "tags": {
        "amenity": "restaurant",
        "name": "UdipiPark"
      }
    },
    {
      "type": "node",
      "id": 4558661992,
      "lat": 12.9596296,
      "lon": 77.6462357,
      "tags": {
        "amenity": "bank",
        "brand": "State Bank of India",
        "brand:wikidata": "Q1340361",
        "brand:wikipedia": "en:State Bank of India",
        "name": "State Bank of India",
        "name:kn": "ಭಾರತೀಯ ಸ್ಟೇಟ್ ಬ್ಯಾಂಕ್",
        "short_name": "SBI",
        "website": "https://www.sbi.co.in"
      }
    },
    {
      "type": "node",
      "id": 4558683789,
      "lat": 12.9596889,
      "lon": 77.6461552,
      "tags": {
        "amenity": "atm",
        "operator": "SBH"
      }
    },
    {
      "type": "node",
      "id": 4558992341,
      "lat": 12.9587913,
      "lon": 77.6466804,
      "tags": {
        "amenity": "place_of_worship",
        "religion": "hindu"
      }
    },
    {
      "type": "node",
      "id": 4567056489,
      "lat": 12.9685976,
      "lon": 77.6435396,
      "tags": {
        "name": "V. P. Bakery",
        "name:en": "V. P. Bakery",
        "shop": "bakery"
      }
    },
    {
      "type": "node",
      "id": 4568287590,
      "lat": 12.9685455,
      "lon": 77.6434457,
      "tags": {
        "opening_hours": "Mo-Su 10:30-19:00",
        "shop": "mobile_phone"
      }
    },
    {
      "type": "node",
      "id": 4571188089,
      "lat": 12.9700017,
      "lon": 77.6474062,
      "tags": {
        "amenity": "fast_food",
        "cuisine": "arab",
        "name": "Alfaham Grilled Chicken and Shawarma",
        "name:en": "Alfaham Grilled Chicken and Shawarma"
      }
    },
    {
      "type": "node",
      "id": 4571188289,
      "lat": 12.9699254,
      "lon": 77.6474241,
      "tags": {
        "amenity": "fast_food",
        "cuisine": "arab",
        "name": "Empire Juice & Dosa Chicken",
        "name:en": "Empire Juice & Dosa Chicken",
        "payment:credit_cards": "yes",
        "payment:debit_cards": "yes"
      }
    },
    {
      "type": "node",
      "id": 4621845493,
      "lat": 12.958119,
      "lon": 77.6442446,
      "tags": {
        "amenity": "restaurant",
        "cuisine": "indian;burger",
        "name": "Java",
        "name:en": "Java",
        "name:kn": "ಜಾವ"
      }
    },
    {
      "type": "node",
      "id": 4661786900,
      "lat": 12.9640021,
      "lon": 77.6418891,
      "tags": {
        "addr:street": "100 Feet Road(S K Karim Khan Road)",
        "name": "Xiami MI Service Centre",
        "name:en": "Xiami MI Service Centre",
        "opening_hours": "Mo-Sa 10:00-18:30",
        "shop": "mobile_phone"
      }
    },
    {
      "type": "node",
      "id": 4791785144,
      "lat": 12.96814,
      "lon": 77.6511259,
      "tags": {
        "brand": "Naturals",
        "brand:wikidata": "Q125728261",
        "name": "Naturals",
        "shop": "beauty"
      }
    },
    {
      "type": "node",
      "id": 4983426602,
      "lat": 12.9668794,
      "lon": 77.6500387,
      "tags": {
        "name": "Amanda computers",
        "shop": "computer"
      }
    },
    {
      "type": "node",
      "id": 5003290033,
      "lat": 12.9685563,
      "lon": 77.6495171,
      "tags": {
        "amenity": "restaurant",
        "name": "Banarasi Tadka"
      }
    },
    {
      "type": "node",
      "id": 5104461623,
      "lat": 12.9625369,
      "lon": 77.6422561,
      "tags": {
        "amenity": "pharmacy",
        "name": "Homeoplus pharmecy",
        "name:en": "Homeoplus pharmecy"
      }
    },
    {
      "type": "node",
      "id": 5524162718,
      "lat": 12.965668,
      "lon": 77.649551,
      "tags": {
        "amenity": "bicycle_rental",
        "description": "Bike rental available here.  Only bikes",
        "name": "DVK biking"
      }
    },
    {
      "type": "node",
      "id": 5524163945,
      "lat": 12.9657658,
      "lon": 77.6495401,
      "tags": {
        "amenity": "fast_food",
        "name": "Fast food joint",
        "opening_hours": "Mo-Su 11:00-23:00"
      }
    },
    {
      "type": "node",
      "id": 5555282740,
      "lat": 12.9589144,
      "lon": 77.6470245,
      "tags": {
        "addr:city": "Bangalore",
        "addr:housenumber": "B-36, Oxford Towers",
        "addr:postcode": "560008",
        "addr:street": "Kodihalli",
        "name": "Carista",
        "opening_hours": "Mo-Su 10:00-18:00",
        "payment:credit_cards": "yes",
        "payment:debit_cards": "yes",
        "phone": "+919019123124",
        "service:vehicle:car_repair": "yes",
        "service:vehicle:oil_change": "yes",
        "shop": "car_repair",
        "website": "https://carista.in"
      }
    },
    {
      "type": "node",
      "id": 5863637590,
      "lat": 12.9678992,
      "lon": 77.6504368,
      "tags": {
        "amenity": "atm",
        "operator": "State Bank of India (SBI)"
      }
    },
    {
      "type": "node",
      "id": 6393878845,
      "lat": 12.9699627,
      "lon": 77.6415269,
      "tags": {
        "addr:city": "Bangalore",
        "addr:housenumber": "1311",
        "addr:postcode": "560038",
        "addr:street": "100 Feet Road",
        "air_conditioning": "yes",
        "amenity": "restaurant",
        "bar": "yes",
        "cuisine": "pizza",
        "indoor_seating": "yes",
        "level": "1-3",
        "name": "1311 Restaurant",
        "outdoor_seating": "no",
        "smoking": "isolated"
      }
    },
    {
      "type": "node",
      "id": 6393878846,
      "lat": 12.9699333,
      "lon": 77.6415235,
      "tags": {
        "addr:city": "Bangalore",
        "addr:housenumber": "1311",
        "addr:postcode": "560038",
        "addr:street": "100 Feet Road",
        "check_date": "2024-09-18",
        "level": "0",
        "name": "Smoor",
        "payment:cash": "yes",
        "payment:credit_cards": "yes",
        "payment:debit_cards": "yes",
        "shop": "pastry",
        "source": "survey"
      }
    },
    {
      "type": "node",
      "id": 6422270649,
      "lat": 12.9687908,
      "lon": 77.6482669,
      "tags": {
        "amenity": "waste_disposal",
        "operator": "BBMP"
      }
    },
    {
      "type": "node",
      "id": 6497017194,
      "lat": 12.9686909,
      "lon": 77.6486916,
      "tags": {
        "amenity": "restaurant",
        "name": "Savoury Express"
      }
    },
    {
      "type": "node",
      "id": 6497020524,
      "lat": 12.9685789,
      "lon": 77.6457822,
      "tags": {
        "amenity": "clinic",
        "healthcare": "clinic",
        "name": "Arth Ayurvedic Health Centre"
      }
    },
    {
      "type": "node",
      "id": 6497030213,
      "lat": 12.9684178,
      "lon": 77.6422703,
      "tags": {
        "amenity": "place_of_worship",
        "name": "Sai Dharshan"
      }
    },
    {
      "type": "node",
      "id": 6497032492,
      "lat": 12.9687696,
      "lon": 77.6416126,
      "tags": {
        "air_conditioning": "yes",
        "amenity": "restaurant",
        "indoor_seating": "yes",
        "name": "Bharatiya Jalpan",
        "outdoor_seating": "yes",
        "payment:credit_cards": "yes",
        "payment:debit_cards": "yes",
        "smoking": "no"
      }
    },
    {
      "type": "node",
      "id": 6815321885,
      "lat": 12.9672282,
      "lon": 77.6482951,
      "tags": {
        "addr:housenumber": "2219",
        "addr:street": "80 Feet Rd, HAL 3rd Stage, Kodihalli",
        "name": "City Food Point",
        "name:en": "City Food Point",
        "opening_hours": "Mo-Su 09:00-10:00",
        "phone": "+918762137942",
        "shop": "convenience"
      }
    },
    {
      "type": "node",
      "id": 6834046786,
      "lat": 12.9686515,
      "lon": 77.6489876,
      "tags": {
        "addr:street": "Jeevan Bheema Nagar Main Road",
        "name": "Just Bake",
        "name:kn": "ಜಸ್ಟ್ ಬೇಕ್",
        "shop": "bakery"
      }
    },
    {
      "type": "node",
      "id": 6834054685,
      "lat": 12.9686318,
      "lon": 77.6490776,
      "tags": {
        "addr:street": "Jeevan Bheema Nagar Main Road",
        "amenity": "restaurant",
        "cuisine": "indian",
        "name": "C2B - Chandni Chowk 2 Bangalore"
      }
    },
    {
      "type": "node",
      "id": 7074561086,
      "lat": 12.9702706,
      "lon": 77.6446231,
      "tags": {
        "addr:street": "12th Main Road",
        "amenity": "restaurant",
        "brand": "Paris Panini",
        "brand:wikidata": "Q124374583",
        "cuisine": "panini",
        "delivery": "yes",
        "indoor_seating": "yes",
        "name": "Paris Panini",
        "outdoor_seating": "no",
        "payment:credit_cards": "yes",
        "payment:debit_cards": "yes",
        "takeaway": "yes"
      }
    },
    {
      "type": "node",
      "id": 7299776434,
      "lat": 12.9684861,
      "lon": 77.6483457,
      "tags": {
        "amenity": "school",
        "name": "Kiara Music Academy"
      }
    },
    {
      "type": "node",
      "id": 7572526687,
      "lat": 12.9688989,
      "lon": 77.6422131,
      "tags": {
        "addr:district": "Bengaluru Urban",
        "addr:full": "Indiranagar, Bengaluru",
        "addr:postcode": "560008",
        "addr:state": "Karnataka",
        "amenity": "hospital",
        "healthcare": "hospital",
        "name": "Dr. Rajesh Hospitals Eye and Dental",
        "source": "Local Knowledge"
      }
    },
    {
      "type": "node",
      "id": 7572526706,
      "lat": 12.9605494,
      "lon": 77.6493794,
      "tags": {
        "addr:district": "Bengaluru Urban",
        "addr:full": "BDA Layout, HAL, Bengaluru",
        "addr:postcode": "560008",
        "addr:state": "Karnataka",
        "amenity": "dentist",
        "name": "Pari's Dental Clinic",
        "source": "Local Knowledge"
      }
    },
    {
      "type": "node",
      "id": 7572526719,
      "lat": 12.9649324,
      "lon": 77.6442492,
      "tags": {
        "addr:district": "Bengaluru Urban",
        "addr:full": "Indiranagar, Bengaluru",
        "addr:postcode": "560008",
        "addr:state": "Karnataka",
        "amenity": "clinic",
        "name": "Orthopaedic & Skin Clinic",
        "source": "Local Knowledge"
      }
    },
    {
      "type": "node",
      "id": 7572526750,
      "lat": 12.9673428,
      "lon": 77.6424996,
      "tags": {
        "addr:district": "Bengaluru Urban",
        "addr:full": "Indiranagar, Bengaluru",
        "addr:postcode": "560008",
        "addr:state": "Karnataka",
        "amenity": "hospital",
        "healthcare": "hospital",
        "name": "Athoz Hospitals",
        "source": "Local Knowledge"
      }
    },
    {
      "type": "node",
      "id": 7572526768,
      "lat": 12.9685528,
      "lon": 77.6453841,
      "tags": {
        "addr:district": "Bengaluru Urban",
        "addr:full": "Indiranagar, Bengaluru",
        "addr:postcode": "560008",
        "addr:state": "Karnataka",
        "amenity": "clinic",
        "healthcare": "clinic",
        "name": "Shivjyoti Clinic",
        "source": "Local Knowledge"
      }
    },
    {
      "type": "node",
      "id": 7572526774,
      "lat": 12.9639906,
      "lon": 77.6482018,
      "tags": {
        "addr:district": "Bengaluru Urban",
        "addr:full": "Kodihalli, Bengaluru",
        "addr:postcode": "560008",
        "addr:state": "Karnataka",
        "amenity": "dentist",
        "name": "Ayurvedic Dental Clinic",
        "source": "Local Knowledge"
      }
    },
    {
      "type": "node",
      "id": 7572526782,
      "lat": 12.963951,
      "lon": 77.64308,
      "tags": {
        "addr:district": "Bengaluru Urban",
        "addr:full": "Kodihalli, Bengaluru",
        "addr:postcode": "560008",
        "addr:state": "Karnataka",
        "amenity": "hospital",
        "name": "Lohitha Hospital",
        "source": "Local Knowledge"
      }
    },
    {
      "type": "node",
      "id": 7572526806,
      "lat": 12.962918,
      "lon": 77.6428502,
      "tags": {
        "addr:district": "Bengaluru Urban",
        "addr:full": "Indiranagar, Bengaluru",
        "addr:postcode": "560008",
        "addr:state": "Karnataka",
        "amenity": "dentist",
        "name": "Star Dental Clinic",
        "source": "Local Knowledge"
      }
    },
    {
      "type": "node",
      "id": 9007969017,
      "lat": 12.9702024,
      "lon": 77.6447081,
      "tags": {
        "amenity": "restaurant",
        "brand": "The Pizza Bakery",
        "brand:wikidata": "Q124374570",
        "check_date": "2023-10-10",
        "cuisine": "pizza",
        "delivery": "yes",
        "name": "The Pizza Bakery",
        "opening_hours": "Su-Th 12:00-23:00; Fr-Sa 12:00-23:45",
        "payment:credit_cards": "yes",
        "payment:debit_cards": "yes",
        "phone": "+91 80 2520 2225",
        "takeaway": "yes",
        "website": "https://www.thepizzabakery.in"
      }
    },
    {
      "type": "node",
      "id": 9545465488,
      "lat": 12.9702302,
      "lon": 77.6458988,
      "tags": {
        "amenity": "restaurant",
        "cuisine": "regional",
        "name": "Bombay Brasserie"
      }
    },
    {
      "type": "node",
      "id": 9545465490,
      "lat": 12.9701641,
      "lon": 77.6431704,
      "tags": {
        "amenity": "cafe",
        "name": "Blue Tokai",
        "payment:credit_cards": "yes",
        "payment:debit_cards": "yes"
      }
    },
    {
      "type": "node",
      "id": 9689539839,
      "lat": 12.9685344,
      "lon": 77.6432642,
      "tags": {
        "amenity": "bank",
        "atm": "yes",
        "brand": "HDFC Bank",
        "brand:wikidata": "Q631047",
        "name": "HDFC Bank",
        "operator": "HDFC Bank",
        "short_name": "HDFC"
      }
    },
    {
      "type": "node",
      "id": 9689539840,
      "lat": 12.9653338,
      "lon": 77.6417575,
      "tags": {
        "amenity": "restaurant",
        "name": "Mahesh Lunch Home"
      }
    },
    {
      "type": "node",
      "id": 9689539841,
      "lat": 12.9648581,
      "lon": 77.6418132,
      "tags": {
        "amenity": "pub",
        "name": "Tipsy Bull"
      }
    },
    {
      "type": "node",
      "id": 9689539842,
      "lat": 12.9664617,
      "lon": 77.6417179,
      "tags": {
        "amenity": "cafe",
        "bar": "no",
        "check_date": "2024-09-18",
        "name": "Chai Days",
        "outdoor_seating": "yes",
        "payment:cash": "yes",
        "payment:credit_cards": "yes",
        "payment:debit_cards": "yes"
      }
    },
    {
      "type": "node",
      "id": 9739850130,
      "lat": 12.9701354,
      "lon": 77.6433688,
      "tags": {
        "name": "Labonel Fine Baking",
        "payment:credit_cards": "yes",
        "payment:debit_cards": "yes",
        "shop": "bakery",
        "website": "https://www.labonelfinebaking.shop/"
      }
    },
    {
      "type": "node",
      "id": 9881382971,
      "lat": 12.9673876,
      "lon": 77.6416422,
      "tags": {
        "brand": "Columbia",
        "brand:wikidata": "Q1112588",
        "clothes": "outdoor",
        "name": "Columbia",
        "official_name": "Columbia Sportswear",
        "shop": "clothes",
        "website": "https://columbiasportswear.co.in/"
      }
    },
    {
      "type": "node",
      "id": 9930197125,
      "lat": 12.9636557,
      "lon": 77.6418494,
      "tags": {
        "brand": "cult.fit",
        "brand:wikidata": "Q121289250",
        "leisure": "fitness_centre",
        "name": "cult.fit"
      }
    },
    {
      "type": "node",
      "id": 10012574394,
      "lat": 12.965607,
      "lon": 77.6418266,
      "tags": {
        "brand": "Birkenstock",
        "brand:wikidata": "Q648458",
        "name": "Birkenstock",
        "shop": "shoes"
      }
    },
    {
      "type": "node",
      "id": 10032026859,
      "lat": 12.9702291,
      "lon": 77.6458147,
      "tags": {
        "amenity": "restaurant",
        "contact:instagram": "travellersbungalow.in",
        "name": "Travellers Bungalow"
      }
    },
    {
      "type": "node",
      "id": 10219947375,
      "lat": 12.9607094,
      "lon": 77.6460665,
      "tags": {
        "name": "Shivam Computer & Stationers",
        "shop": "stationery"
      }
    },
    {
      "type": "node",
      "id": 10219950709,
      "lat": 12.9607807,
      "lon": 77.6462384,
      "tags": {
        "name": "Pastry Land",
        "shop": "bakery"
      }
    },
    {
      "type": "node",
      "id": 10219952453,
      "lat": 12.9609532,
      "lon": 77.6461864,
      "tags": {
        "name": "Super Choice Bake & Sweets",
        "shop": "bakery"
      }
    },
    {
      "type": "node",
      "id": 10219952454,
      "lat": 12.9608679,
      "lon": 77.6461779,
      "tags": {
        "name": "All India Medical Tourism",
        "shop": "travel_agency"
      }
    },
    {
      "type": "node",
      "id": 10219952455,
      "lat": 12.9608684,
      "lon": 77.6462679,
      "tags": {
        "name": "Balaji Travels",
        "shop": "travel_agency"
      }
    },
    {
      "type": "node",
      "id": 10591420583,
      "lat": 12.9696673,
      "lon": 77.6416775,
      "tags": {
        "leisure": "escape_game",
        "level": "2",
        "name": "Mystery Rooms",
        "website": "https://www.mysteryrooms.in/bangalore/"
      }
    },
    {
      "type": "node",
      "id": 10651903499,
      "lat": 12.9598179,
      "lon": 77.6502474,
      "tags": {
        "amenity": "atm",
        "brand": "State Bank of India",
        "brand:wikidata": "Q1340361",
        "name": "SBI ATM",
        "name:kn": "ಎಸ್ ಬಿ ಐ",
        "operator": "State Bank of India",
        "operator:wikidata": "Q1340361",
        "short_name": "SBI"
      }
    },
    {
      "type": "node",
      "id": 10967712205,
      "lat": 12.9606019,
      "lon": 77.6493201,
      "tags": {
        "amenity": "bank",
        "brand": "Axis Bank",
        "brand:wikidata": "Q2003549",
        "brand:wikipedia": "en:Axis Bank",
        "name": "Axis Bank",
        "name:kn": "ಆಕ್ಸಿಸ್ ಬ್ಯಾಂಕ್",
        "survey:date": "2023-06-10"
      }
    },
    {
      "type": "node",
      "id": 11131430540,
      "lat": 12.9673507,
      "lon": 77.6416943,
      "tags": {
        "name": "Wildcraft",
        "shop": "outdoor"
      }
    },
    {
      "type": "node",
      "id": 11131430545,
      "lat": 12.96331,
      "lon": 77.6418665,
      "tags": {
        "amenity": "bank",
        "brand": "ICICI Bank",
        "brand:wikidata": "Q1653258",
        "name": "ICICI Bank",
        "short_name": "ICICI"
      }
    },
    {
      "type": "node",
      "id": 11212375968,
      "lat": 12.9702298,
      "lon": 77.6439459,
      "tags": {
        "amenity": "atm",
        "brand": "Standard Chartered",
        "brand:wikidata": "Q548278",
        "cash_in": "no",
        "check_date": "2024-09-18",
        "operator": "Standard Chartered",
        "operator:wikidata": "Q548278",
        "source": "survey",
        "wheelchair": "yes"
      }
    },
    {
      "type": "node",
      "id": 11212375969,
      "lat": 12.9701767,
      "lon": 77.6439752,
      "tags": {
        "amenity": "bank",
        "brand": "Standard Chartered",
        "brand:wikidata": "Q548278",
        "check_date": "2023-09-23",
        "name": "Standard Chartered"
      }
    },
    {
      "type": "node",
      "id": 11277885675,
      "lat": 12.9666564,
      "lon": 77.6417126,
      "tags": {
        "amenity": "ice_cream",
        "contact:instagram": "swirlyo_",
        "name": "Swirlyo"
      }
    },
    {
      "type": "node",
      "id": 11359597639,
      "lat": 12.9677108,
      "lon": 77.6426444,
      "tags": {
        "amenity": "events_venue",
        "name": "HAEA Bhavan"
      }
    },
    {
      "type": "node",
      "id": 11359597641,
      "lat": 12.9677106,
      "lon": 77.644613,
      "tags": {
        "addr:city": "Bengaluru",
        "addr:country": "IN",
        "amenity": "coworking_space",
        "name": "Beginest",
        "office": "coworking"
      }
    },
    {
      "type": "node",
      "id": 11407673604,
      "lat": 12.9600104,
      "lon": 77.6454019,
      "tags": {
        "amenity": "dentist",
        "healthcare": "dentist",
        "name": "Meenakshi's Dental Clinic",
        "phone": "+91-80-41133122"
      }
    },
    {
      "type": "node",
      "id": 11463203511,
      "lat": 12.965194,
      "lon": 77.6417769,
      "tags": {
        "amenity": "pub",
        "name": "Jamming Goat 3.0"
      }
    },
    {
      "type": "node",
      "id": 11534808272,
      "lat": 12.9603913,
      "lon": 77.6479068,
      "tags": {
        "amenity": "restaurant",
        "check_date": "2024-01-21",
        "contact:instagram": "https://www.instagram.com/kokorestaurants",
        "cuisine": "asian",
        "name": "KOKO",
        "phone": "+91 98441 94747",
        "website": "https://www.kokorestaurants.com/"
      }
    },
    {
      "type": "node",
      "id": 12080146464,
      "lat": 12.9609648,
      "lon": 77.6478475,
      "tags": {
        "access": "private",
        "amenity": "parking_entrance",
        "parking": "underground"
      }
    },
    {
      "type": "node",
      "id": 12080146484,
      "lat": 12.9602525,
      "lon": 77.6471427,
      "tags": {
        "access": "private",
        "amenity": "parking_entrance",
        "parking": "underground"
      }
    },
    {
      "type": "node",
      "id": 12102958394,
      "lat": 12.966625,
      "lon": 77.6483403,
      "tags": {
        "amenity": "cafe",
        "contact:instagram": "delcakes.in",
        "name": "Deliciae",
        "website": "https://orders.delcakes.in/blr_catalog"
      }
    },
    {
      "type": "node",
      "id": 12119612607,
      "lat": 12.9702072,
      "lon": 77.6448025,
      "tags": {
        "addr:city": "Bengaluru",
        "addr:floor": "G",
        "addr:hamlet": "HAL 2nd Stage",
        "addr:housenumber": "2985",
        "addr:postcode": "560038",
        "addr:street": "12th Main Road",
        "addr:suburb": "Indiranagar",
        "amenity": "cafe",
        "check_date": "2024-09-18",
        "contact:facebook": "thekindindia",
        "contact:instagram": "thekind.india",
        "delivery": "yes",
        "email": "thekindindia@gmail.com",
        "full_name": "The Kind Roastery and Brew Room",
        "internet_access": "yes",
        "level": "0",
        "name": "The Kind",
        "opening_hours": "08:00-23:00",
        "phone": "+91 9035045328",
        "source": "survey",
        "takeaway": "yes",
        "toilets": "yes",
        "website": "https://thekindindia.com/",
        "wheelchair": "limited"
      }
    },
    {
      "type": "node",
      "id": 12145301149,
      "lat": 12.9692698,
      "lon": 77.6416694,
      "tags": {
        "amenity": "pub",
        "name": "Chin Lung Brewery"
      }
    },
    {
      "type": "node",
      "id": 12366562184,
      "lat": 12.9684107,
      "lon": 77.6501156,
      "tags": {
        "amenity": "restaurant",
        "check_date": "2024-11-23",
        "name": "Biryani Bhojana"
      }
    },
    {
      "type": "node",
      "id": 12366562185,
      "lat": 12.9683648,
      "lon": 77.6500847,
      "tags": {
        "amenity": "cafe",
        "check_date": "2024-11-23",
        "name": "Cafe Amudham"
      }
    },
    {
      "type": "node",
      "id": 12461000335,
      "lat": 12.9671434,
      "lon": 77.6416627,
      "tags": {
        "amenity": "restaurant",
        "contact:facebook": "pastastreet",
        "contact:instagram": "pasta.street",
        "cuisine": "pasta",
        "email": "info@pastastreet.co.in",
        "name": "Pasta Street",
        "phone": "+91 9266844026",
        "website": "https://pastastreet.co.in/"
      }
    },
    {
      "type": "node",
      "id": 12487640712,
      "lat": 12.9650368,
      "lon": 77.641796,
      "tags": {
        "addr:city": "Bengaluru",
        "addr:postcode": "560008",
        "addr:street": "100 Feet Rd, HAL 2nd Stage, Indiranagar",
        "name": "The Raymond",
        "shop": "clothes"
      }
    },
    {
      "type": "node",
      "id": 12511417185,
      "lat": 12.9617724,
      "lon": 77.6488084,
      "tags": {
        "amenity": "bar",
        "contact:instagram": "zlb23.in",
        "name": "ZLB23",
        "toilets": "yes"
      }
    },
    {
      "type": "node",
      "id": 12512224859,
      "lat": 12.9670968,
      "lon": 77.6481231,
      "tags": {
        "amenity": "cafe",
        "name": "Ethic Attic Cafe"
      }
    },
    {
      "type": "node",
      "id": 12560755497,
      "lat": 12.9600064,
      "lon": 77.6457581,
      "tags": {
        "addr:city": "Bengaluru, Karnataka",
        "addr:district": "Bangalore",
        "addr:postcode": "560008",
        "addr:street": "HAL Old Airport Road",
        "amenity": "fuel",
        "brand": "Indian Oil",
        "brand:wikidata": "Q1289348",
        "compressed_air": "yes",
        "name": "Indian Oil"
      }
    },
    {
      "type": "node",
      "id": 13256172751,
      "lat": 12.9608524,
      "lon": 77.6437363,
      "tags": {
        "amenity": "restaurant",
        "cuisine": "pizza",
        "name": "Rosmarino"
      }
    },
    {
      "type": "node",
      "id": 13288585556,
      "lat": 12.9613387,
      "lon": 77.6456585,
      "tags": {
        "amenity": "cafe",
        "cuisine": "coffee_shop",
        "name": "Still Coffee"
      }
    },
    {
      "type": "node",
      "id": 13288585573,
      "lat": 12.9662859,
      "lon": 77.6416965,
      "tags": {
        "amenity": "cafe",
        "name": "Acai Theory"
      }
    },
    {
      "type": "node",
      "id": 13288585574,
      "lat": 12.9664937,
      "lon": 77.6417166,
      "tags": {
        "name": "Tutto Benne",
        "shop": "pastry"
      }
    },
    {
      "type": "node",
      "id": 13288585575,
      "lat": 12.966529,
      "lon": 77.641722,
      "tags": {
        "amenity": "restaurant",
        "name": "Vesparo"
      }
    },
    {
      "type": "node",
      "id": 13315911038,
      "lat": 12.9604562,
      "lon": 77.644626,
      "tags": {
        "addr:floor": "G",
        "amenity": "bar",
        "check_date": "2025-11-19",
        "level": "0",
        "name": "G. D. Bar And Restaurant",
        "name:en": "G. D. Bar And Restaurant"
      }
    },
    {
      "type": "way",
      "id": 28452979,
      "center": {
        "lat": 12.9517345,
        "lon": 77.6473911
      },
      "tags": {
        "alt_name": "KGA Golf Course",
        "golf:course": "18_hole",
        "leisure": "golf_course",
        "name": "Karnataka Golf Association Golf Course",
        "short_name": "KGA",
        "start_date": "1986-12-28",
        "website": "https://kga.in"
      }
    },
    {
      "type": "way",
      "id": 128510776,
      "center": {
        "lat": 12.9692958,
        "lon": 77.646885
      },
      "tags": {
        "addr:city": "Bangalore",
        "addr:street": "Indiranagar",
        "amenity": "school",
        "email": "info@npsinr.com",
        "grades": "1-12",
        "name": "National Public School Indiranagar",
        "name:kn": "ರಾಷ್ಟ್ರೀಯ ಸಾರ್ವಜನಿಕ ಶಾಲೆ",
        "operator": "National Public School",
        "operator:type": "private",
        "phone": "+91 80 2528 0611",
        "school:gender": "mixed",
        "short_name": "NPS Indiranagar",
        "website": "https://www.npsinr.com/",
        "wikidata": "Q6975124",
        "wikimedia_commons": "Category:National Public School, Indiranagar",
        "wikipedia": "en:National Public School, Indiranagar"
      }
    },
    {
      "type": "way",
      "id": 133061662,
      "center": {
        "lat": 12.9581916,
        "lon": 77.6481504
      },
      "tags": {
        "access": "private",
        "amenity": "parking",
        "name": "Parking for Doctors and Staff",
        "parking": "surface"
      }
    },
    {
      "type": "way",
      "id": 133061665,
      "center": {
        "lat": 12.9578573,
        "lon": 77.6477536
      },
      "tags": {
        "access": "customers",
        "amenity": "parking",
        "name": "Visitors' Parking",
        "name:kn": "ವಿಮಾನ ನಿಲ್ದಾಣ",
        "parking": "surface"
      }
    },
    {
      "type": "way",
      "id": 135262255,
      "center": {
        "lat": 12.9585777,
        "lon": 77.6481409
      },
      "tags": {
        "amenity": "hospital",
        "healthcare": "hospital",
        "name": "Manipal Hospital",
        "name:kn": "ಮಣಿಪಾಲ ಆಸ್ಪತ್ರೆ",
        "start_date": "1991",
        "wheelchair": "yes"
      }
    },
    {
      "type": "way",
      "id": 164140321,
      "center": {
        "lat": 12.9624144,
        "lon": 77.6496857
      },
      "tags": {
        "leisure": "park"
      }
    },
    {
      "type": "way",
      "id": 164140324,
      "center": {
        "lat": 12.9636986,
        "lon": 77.6488565
      },
      "tags": {
        "addr:city": "Bengaluru",
        "addr:postcode": "560008",
        "addr:street": "9th Cross Rd, HAL 3rd Stage, Kodihalli",
        "building": "yes",
        "name": "L'Atelier Citroen",
        "opening_hours": "09:00-20:00",
        "shop": "car_repair"
      }
    },
    {
      "type": "way",
      "id": 164141899,
      "center": {
        "lat": 12.9651062,
        "lon": 77.6490235
      },
      "tags": {
        "amenity": "place_of_worship",
        "building": "mosque",
        "name": "Masjid-E-Farooqi",
        "name:kn": "ಮಸ್ಜಿದ್-ಎ-ಫರೂಕಿ",
        "religion": "muslim"
      }
    },
    {
      "type": "way",
      "id": 217565212,
      "center": {
        "lat": 12.9611902,
        "lon": 77.6413946
      },
      "tags": {
        "leisure": "park",
        "name": "Kanakadasa Park",
        "name:kn": "ಕನಕದಾಸ ಉದ್ಯಾನವನ"
      }
    },
    {
      "type": "way",
      "id": 296602327,
      "center": {
        "lat": 12.9609722,
        "lon": 77.6419534
      },
      "tags": {
        "amenity": "recycling",
        "building": "yes",
        "name": "BBMP Dry Waste Segregation Center",
        "recycling_type": "centre"
      }
    },
    {
      "type": "way",
      "id": 323104302,
      "center": {
        "lat": 12.9599425,
        "lon": 77.64573
      },
      "tags": {
        "addr:street": "HAL Airport Road",
        "amenity": "fuel",
        "brand": "Indian Oil",
        "brand:wikidata": "Q1289348",
        "brand:wikipedia": "en:Indian Oil Corporation",
        "compressed_air": "yes",
        "name": "Indian Oil",
        "name:kn": "ಇಂಡಿಯನ್ ಆಯಿಲ್"
      }
    },
    {
      "type": "way",
      "id": 323120612,
      "center": {
        "lat": 12.9574386,
        "lon": 77.6485324
      },
      "tags": {
        "amenity": "school",
        "email": "secretary.deafaidsociety@gmail.com",
        "landuse": "education",
        "name": "Sheila Kothavala Institute for the Deaf",
        "phone": "+91 080 2526 2274",
        "short_name": "SKID",
        "start_date": "1966",
        "website": "https://deafaidsociety.in/"
      }
    },
    {
      "type": "way",
      "id": 329335815,
      "center": {
        "lat": 12.9680965,
        "lon": 77.6425562
      },
      "tags": {
        "amenity": "library",
        "building": "yes",
        "is_in": "Indiranagar",
        "name": "City Central Library, South Division",
        "name:kn": "ಕೇಂದ್ರಿಯ ಗ್ರಂಥಾಲಯ",
        "opening_hours": "08:30-12:30,15:30-20:00",
        "operator": "Government"
      }
    },
    {
      "type": "way",
      "id": 340081776,
      "center": {
        "lat": 12.9615833,
        "lon": 77.6439264
      },
      "tags": {
        "amenity": "place_of_worship",
        "building": "yes",
        "religion": "hindu"
      }
    },
    {
      "type": "way",
      "id": 343609194,
      "center": {
        "lat": 12.9646605,
        "lon": 77.6418412
      },
      "tags": {
        "building": "yes",
        "building:levels": "2",
        "name": "Vodafone store",
        "shop": "mobile_phone"
      }
    },
    {
      "type": "way",
      "id": 345964025,
      "center": {
        "lat": 12.9685282,
        "lon": 77.6457748
      },
      "tags": {
        "addr:city": "Bangalore",
        "addr:district": "Bengaluru Urban",
        "addr:housenumber": "3367/A",
        "addr:neighborhood": "HAL 2nd Stage",
        "addr:postcode": "560008",
        "addr:street": "13th Main Road",
        "amenity": "hospital",
        "building": "yes",
        "building:levels": "3",
        "healthcare": "alternative",
        "healthcare:speciality": "ayurveda",
        "image": "https://arthayurvedaworld.com/cdn/shop/files/Arth_Ayurveda.jpg?v=1679538247&width=750",
        "name": "Arth Ayurveda World",
        "operator": "Private"
      }
    },
    {
      "type": "way",
      "id": 346520715,
      "center": {
        "lat": 12.959544,
        "lon": 77.6435143
      },
      "tags": {
        "building": "yes",
        "leisure": "sports_centre",
        "level": "0,_-1,_-2",
        "name": "Clubhouse",
        "sport": "tennis"
      }
    },
    {
      "type": "way",
      "id": 346528648,
      "center": {
        "lat": 12.9587303,
        "lon": 77.6442261
      },
      "tags": {
        "access": "private",
        "leisure": "park"
      }
    },
    {
      "type": "way",
      "id": 346531134,
      "center": {
        "lat": 12.957499,
        "lon": 77.6437764
      },
      "tags": {
        "layer": "1",
        "leisure": "swimming_pool"
      }
    },
    {
      "type": "way",
      "id": 346533688,
      "center": {
        "lat": 12.9577804,
        "lon": 77.6442655
      },
      "tags": {
        "access": "customers",
        "amenity": "parking",
        "parking": "surface"
      }
    },
    {
      "type": "way",
      "id": 346745629,
      "center": {
        "lat": 12.9602378,
        "lon": 77.6468937
      },
      "tags": {
        "air_conditioning": "yes",
        "amenity": "pub",
        "building": "yes",
        "indoor_seating": "yes",
        "microbrewery": "yes",
        "name": "Big Pitcher",
        "outdoor_seating": "no",
        "wheelchair": "limited"
      }
    },
    {
      "type": "way",
      "id": 347990397,
      "center": {
        "lat": 12.9637364,
        "lon": 77.6429921
      },
      "tags": {
        "barrier": "fence",
        "leisure": "park",
        "name": "Dr. Vishnuvardhan Park",
        "name:kn": "ಡಾ. ವಿಷ್ಣುವರ್ಧನ ಉದ್ಯಾನವನ",
        "opening_hours": "06:00-10:00,16:00-19:00"
      }
    },
    {
      "type": "way",
      "id": 348546051,
      "center": {
        "lat": 12.96273,
        "lon": 77.6418983
      },
      "tags": {
        "building": "yes",
        "name": "Floating wall furnishings",
        "shop": "interior_decoration"
      }
    },
    {
      "type": "way",
      "id": 348546066,
      "center": {
        "lat": 12.9628469,
        "lon": 77.6418909
      },
      "tags": {
        "addr:city": "Bengaluru",
        "addr:housenumber": "Shop No 5, Ground Floor, 106",
        "addr:postcode": "560038",
        "addr:street": "Main Road, opposite Barbeque Nation, Indiranagar",
        "building": "yes",
        "name": "Faber Platinum Studio",
        "shop": "appliance"
      }
    },
    {
      "type": "way",
      "id": 350015269,
      "center": {
        "lat": 12.9644534,
        "lon": 77.6440857
      },
      "tags": {
        "amenity": "place_of_worship",
        "building": "yes"
      }
    },
    {
      "type": "way",
      "id": 362931827,
      "center": {
        "lat": 12.9607435,
        "lon": 77.6487378
      },
      "tags": {
        "leisure": "park"
      }
    },
    {
      "type": "way",
      "id": 368763184,
      "center": {
        "lat": 12.969238,
        "lon": 77.6416349
      },
      "tags": {
        "addr:city": "Indira Nagar, Bangalore",
        "addr:housenumber": "1135",
        "addr:postcode": "560008",
        "addr:street": "100 Feet Rd, HAL 2nd Stage",
        "air_conditioning": "yes",
        "amenity": "pub",
        "building": "yes",
        "indoor_seating": "yes",
        "microbrewery": "yes",
        "name": "Bumblebee Brauhaus",
        "operational_status": "closed",
        "outdoor_seating": "yes",
        "payment:credit_cards": "yes",
        "payment:debit_cards": "yes"
      }
    },
    {
      "type": "way",
      "id": 372545827,
      "center": {
        "lat": 12.9591543,
        "lon": 77.6464476
      },
      "tags": {
        "amenity": "hospital",
        "name": "BBMP Primary Health Center",
        "name:kn": "ಪ್ರಾಥಮಿಕ ಆರೋಗ್ಯ ಕೇಂದ್ರ"
      }
    },
    {
      "type": "way",
      "id": 372545828,
      "center": {
        "lat": 12.9594784,
        "lon": 77.646444
      },
      "tags": {
        "amenity": "place_of_worship",
        "building": "yes",
        "name": "Ganesha Temple",
        "name:kn": "ಗಣೇಶ ದೇವಸ್ಥಾನ",
        "religion": "hindu",
        "wheelchair": "no"
      }
    },
    {
      "type": "way",
      "id": 374694443,
      "center": {
        "lat": 12.9636749,
        "lon": 77.6472693
      },
      "tags": {
        "amenity": "place_of_worship",
        "religion": "hindu",
        "wheelchair": "no"
      }
    },
    {
      "type": "way",
      "id": 374694446,
      "center": {
        "lat": 12.9644861,
        "lon": 77.6446189
      },
      "tags": {
        "amenity": "college",
        "name": "PU Cauvery College"
      }
    },
    {
      "type": "way",
      "id": 374694453,
      "center": {
        "lat": 12.9644545,
        "lon": 77.6440915
      },
      "tags": {
        "amenity": "place_of_worship",
        "name": "Balamuri Ganapathy Temple",
        "name:kn": "ಬಲಮುರಿ ಗಣಪತಿ ದೇವಸ್ತಾನ",
        "religion": "hindu"
      }
    },
    {
      "type": "way",
      "id": 374973873,
      "center": {
        "lat": 12.9587677,
        "lon": 77.6439053
      },
      "tags": {
        "access": "private",
        "leisure": "swimming_pool"
      }
    },
    {
      "type": "way",
      "id": 374973874,
      "center": {
        "lat": 12.95876,
        "lon": 77.6445515
      },
      "tags": {
        "access": "private",
        "leisure": "pitch",
        "lit": "yes",
        "sport": "basketball",
        "surface": "grass"
      }
    },
    {
      "type": "way",
      "id": 380094757,
      "center": {
        "lat": 12.9686274,
        "lon": 77.6487542
      },
      "tags": {
        "amenity": "fast_food",
        "building": "retail",
        "building:levels": "2",
        "cuisine": "indian",
        "delivery": "yes",
        "diet:vegetarian": "yes",
        "name": "Cafe Grill",
        "opening_hours": "Mo-Su 12:00-23:30",
        "smoking": "no",
        "takeaway": "yes",
        "wheelchair": "yes"
      }
    },
    {
      "type": "way",
      "id": 381954102,
      "center": {
        "lat": 12.9696495,
        "lon": 77.6457176
      },
      "tags": {
        "brand": "HOPCOMS",
        "brand:wikidata": "Q22908959",
        "building": "yes",
        "level": "0",
        "name": "HOPCOMS",
        "name:kn": "ಹಾಪ್ ಕಾಮ್ಸ್",
        "shop": "greengrocer"
      }
    },
    {
      "type": "way",
      "id": 381954103,
      "center": {
        "lat": 12.9693786,
        "lon": 77.645737
      },
      "tags": {
        "amenity": "place_of_worship",
        "building": "yes",
        "layer": "-1",
        "level": "0",
        "name": "Bilvapatre Balamuri Varasiddi Vinayaka Swami Devasthana",
        "name:kn": "ಬಿಲ್ವಪತ್ರೆ ಬಲಮುರಿ ವರಸಿದ್ಧಿ ವಿನಾಯಕ ಸ್ವಾಮಿ ದೇವಸ್ಥಾನ",
        "religion": "hindu"
      }
    },
    {
      "type": "way",
      "id": 397522063,
      "center": {
        "lat": 12.9618905,
        "lon": 77.6484597
      },
      "tags": {
        "access": "private",
        "leisure": "swimming_pool"
      }
    },
    {
      "type": "way",
      "id": 397737944,
      "center": {
        "lat": 12.9633497,
        "lon": 77.6451765
      },
      "tags": {
        "amenity": "school",
        "name": "Bangalore Public School",
        "name:kn": "ಬೆಂಗಳೂರು ಸಾರ್ವಜನಿಕ ಶಾಲೆ"
      }
    },
    {
      "type": "way",
      "id": 397788973,
      "center": {
        "lat": 12.9633767,
        "lon": 77.6454442
      },
      "tags": {
        "leisure": "common",
        "name": "BDA Land"
      }
    },
    {
      "type": "way",
      "id": 411039957,
      "center": {
        "lat": 12.9597739,
        "lon": 77.6465069
      },
      "tags": {
        "amenity": "recycling",
        "recycling_type": "centre"
      }
    },
    {
      "type": "way",
      "id": 450547670,
      "center": {
        "lat": 12.9651259,
        "lon": 77.6500454
      },
      "tags": {
        "leisure": "park"
      }
    },
    {
      "type": "way",
      "id": 454700249,
      "center": {
        "lat": 12.9643086,
        "lon": 77.6470835
      },
      "tags": {
        "addr:street": "Kodihalli Main Road",
        "amenity": "school",
        "name": "Kodihalli Public School",
        "name:kn": "ಕೋಡಿಹಳ್ಳಿ ಪಬ್ಲಿಕ್ ಶಾಲೆ"
      }
    },
    {
      "type": "way",
      "id": 454700251,
      "center": {
        "lat": 12.9639034,
        "lon": 77.6474813
      },
      "tags": {
        "amenity": "place_of_worship",
        "landuse": "religious",
        "religion": "hindu"
      }
    },
    {
      "type": "way",
      "id": 454700254,
      "center": {
        "lat": 12.9638104,
        "lon": 77.6465275
      },
      "tags": {
        "amenity": "place_of_worship",
        "landuse": "religious",
        "religion": "hindu"
      }
    },
    {
      "type": "way",
      "id": 454700255,
      "center": {
        "lat": 12.9655984,
        "lon": 77.6456561
      },
      "tags": {
        "leisure": "park"
      }
    },
    {
      "type": "way",
      "id": 454700256,
      "center": {
        "lat": 12.9642203,
        "lon": 77.6466888
      },
      "tags": {
        "access": "private",
        "leisure": "swimming_pool"
      }
    },
    {
      "type": "way",
      "id": 454700260,
      "center": {
        "lat": 12.963521,
        "lon": 77.64915
      },
      "tags": {
        "amenity": "place_of_worship",
        "name": "Ayyappa Temple",
        "name:en": "Ayyappa Temple",
        "name:kn": "ಅಯ್ಯಪ್ಪ ದೇವಸ್ಥಾನ",
        "religion": "hindu"
      }
    },
    {
      "type": "way",
      "id": 454700261,
      "center": {
        "lat": 12.9634054,
        "lon": 77.6489198
      },
      "tags": {
        "amenity": "place_of_worship",
        "religion": "hindu"
      }
    },
    {
      "type": "way",
      "id": 454700264,
      "center": {
        "lat": 12.9633953,
        "lon": 77.6472188
      },
      "tags": {
        "amenity": "place_of_worship",
        "religion": "hindu",
        "wheelchair": "no"
      }
    },
    {
      "type": "way",
      "id": 454700265,
      "center": {
        "lat": 12.9635083,
        "lon": 77.6472318
      },
      "tags": {
        "amenity": "place_of_worship",
        "name": "Shree Venugopalaswamy Temple",
        "name:en": "Shree Venugopalaswamy Temple",
        "name:kn": "ವೇಣುಗೋಪಾಲ ಸ್ವಾಮಿ ದೇವಸ್ಥಾನ",
        "religion": "hindu",
        "wheelchair": "no"
      }
    },
    {
      "type": "way",
      "id": 454704215,
      "center": {
        "lat": 12.9640556,
        "lon": 77.6480969
      },
      "tags": {
        "amenity": "place_of_worship",
        "name": "Shree Lakshmi Venkateshwara Swamy Temple",
        "name:en": "Shree Lakshmi Venkateshwara Swamy Temple",
        "name:kn": "ಲಕ್ಷ್ಮಿ ವೆಂಕಟೇಶ್ವರ ದೇವಸ್ಥಾನ",
        "religion": "hindu"
      }
    },
    {
      "type": "way",
      "id": 460225726,
      "center": {
        "lat": 12.9599472,
        "lon": 77.6495855
      },
      "tags": {
        "addr:city": "Kodihalli, Bangalore",
        "addr:street": "HAL Airport Road",
        "amenity": "fuel",
        "brand": "Bharat Petroleum",
        "brand:wikidata": "Q854826",
        "check_date": "2024-12-17",
        "compressed_air": "yes",
        "fuel:diesel": "yes",
        "landuse": "retail",
        "name": "Bharat Petroleum",
        "name:kn": "ಭಾರತ್ ಪೆಟ್ರೋಲಿಯಂ",
        "wheelchair": "yes"
      }
    },
    {
      "type": "way",
      "id": 460225728,
      "center": {
        "lat": 12.9599956,
        "lon": 77.649864
      },
      "tags": {
        "amenity": "social_facility",
        "building": "apartments",
        "name": "Cheshire Homes",
        "social_facility": "group_home"
      }
    },
    {
      "type": "way",
      "id": 460225760,
      "center": {
        "lat": 12.9588971,
        "lon": 77.6461063
      },
      "tags": {
        "leisure": "common",
        "natural": "scrub"
      }
    },
    {
      "type": "way",
      "id": 460225764,
      "center": {
        "lat": 12.9585638,
        "lon": 77.6463925
      },
      "tags": {
        "amenity": "place_of_worship",
        "building": "yes",
        "name": "Abhaya Anjaneya Swamy Temple",
        "name:en": "Abhaya Anjaneya Swamy Temple",
        "name:kn": "ಅಭಯ ಅಂಜನೇಯ ದೇವಸ್ಥಾನ",
        "religion": "hindu"
      }
    },
    {
      "type": "way",
      "id": 685235289,
      "center": {
        "lat": 12.961514,
        "lon": 77.643682
      },
      "tags": {
        "building": "yes",
        "shop": "florist"
      }
    },
    {
      "type": "way",
      "id": 690849439,
      "center": {
        "lat": 12.9667264,
        "lon": 77.6482411
      },
      "tags": {
        "addr:street": "80 Feet Road",
        "amenity": "arts_centre",
        "building": "yes",
        "name": "Lahe Lahe"
      }
    },
    {
      "type": "way",
      "id": 1036043470,
      "center": {
        "lat": 12.9677664,
        "lon": 77.6420023
      },
      "tags": {
        "addr:street": "100 Feet Road",
        "amenity": "school",
        "check_date": "2024-09-18",
        "fee": "yes",
        "name": "New Horizon Public School",
        "operator:type": "private",
        "source": "survey",
        "website": "https://nhps.in/",
        "wikidata": "Q17079133",
        "wikipedia": "en:New Horizon Public School"
      }
    },
    {
      "type": "way",
      "id": 1263618604,
      "center": {
        "lat": 12.9595538,
        "lon": 77.6466386
      },
      "tags": {
        "amenity": "parking",
        "parking": "surface"
      }
    },
    {
      "type": "way",
      "id": 1304449374,
      "center": {
        "lat": 12.9584949,
        "lon": 77.6469696
      },
      "tags": {
        "access": "customers",
        "amenity": "parking",
        "name": "Visitors' Parking",
        "name:kn": "ವಿಮಾನ ನಿಲ್ದಾಣ",
        "parking": "surface"
      }
    },
    {
      "type": "way",
      "id": 1304449377,
      "center": {
        "lat": 12.9598015,
        "lon": 77.6472637
      },
      "tags": {
        "access": "private",
        "amenity": "parking",
        "parking": "surface"
      }
    },
    {
      "type": "way",
      "id": 1304449414,
      "center": {
        "lat": 12.9607285,
        "lon": 77.6474104
      },
      "tags": {
        "access": "private",
        "leisure": "swimming_pool"
      }
    },
    {
      "type": "way",
      "id": 1342953354,
      "center": {
        "lat": 12.9650128,
        "lon": 77.6432703
      },
      "tags": {
        "amenity": "school",
        "name": "Little Flower English high School"
      }
    },
    {
      "type": "way",
      "id": 1342953365,
      "center": {
        "lat": 12.9689716,
        "lon": 77.6469469
      },
      "tags": {
        "leisure": "pitch",
        "sport": "basketball"
      }
    },
    {
      "type": "way",
      "id": 1342953366,
      "center": {
        "lat": 12.968639,
        "lon": 77.6473518
      },
      "tags": {
        "amenity": "school",
        "name": "Neev"
      }
    },
    {
      "type": "way",
      "id": 1342953368,
      "center": {
        "lat": 12.9686203,
        "lon": 77.6470105
      },
      "tags": {
        "amenity": "kindergarten",
        "name": "Global Montessori Centre, Indiranagar"
      }
    },
    {
      "type": "way",
      "id": 1342953369,
      "center": {
        "lat": 12.9693235,
        "lon": 77.6457243
      },
      "tags": {
        "amenity": "place_of_worship",
        "landuse": "religious",
        "religion": "hindu"
      }
    }
  ]
}