{
  "area_name": "Konappana Agrahara",
  "osm_id": 459510391,
  "osm_type": "node",
  "place_type": "neighbourhood",
  "amenity_count": 138,
  "amenities": [
    {
      "type": "node",
      "id": 266740082,
      "lat": 12.8550625,
      "lon": 77.6642727,
      "tags": {
        "amenity": "hospital",
        "created_by": "JOSM",
        "name": "Swamy Hospital",
        "name:kn": "ಸ್ವಾಮಿ ಆಸ್ಪತ್ರೆ"
      }
    },
    {
      "type": "node",
      "id": 459464849,
      "lat": 12.8496608,
      "lon": 77.6638059,
      "tags": {
        "amenity": "ice_cream",
        "brand": "Baskin-Robbins",
        "brand:wikidata": "Q584601",
        "cuisine": "ice_cream",
        "name": "Baskin-Robbins",
        "website": "https://www.baskinrobbinsindia.com/"
      }
    },
    {
      "type": "node",
      "id": 459464856,
      "lat": 12.8454224,
      "lon": 77.6639145,
      "tags": {
        "amenity": "atm",
        "brand": "Indian Bank",
        "brand:wikidata": "Q2003789",
        "description": "Outside IIIT Bangalore campus",
        "name": "Indian Bank",
        "operator": "Indian Bank",
        "operator:wikidata": "Q2003789"
      }
    },
    {
      "type": "node",
      "id": 459464857,
      "lat": 12.8500655,
      "lon": 77.6624706,
      "tags": {
        "amenity": "hospital",
        "emergency": "yes",
        "name": "Ramakrishna Hospital",
        "name:kn": "ರಾಮಕೃಷ್ಣ ಆಸ್ಪತ್ರೆ",
        "phone": "+918040800300",
        "website": "http://rkhealth.com/",
        "wheelchair": "yes"
      }
    },
    {
      "type": "node",
      "id": 459464858,
      "lat": 12.8500125,
      "lon": 77.6627342,
      "tags": {
        "amenity": "bank",
        "atm": "yes",
        "brand": "ICICI Bank",
        "brand:wikidata": "Q1653258",
        "name": "ICICI Bank",
        "name:en": "ICICI Bank",
        "name:kn": "ಐಸಿಐಸಿಐ ಬ್ಯಾಂಕು",
        "short_name": "ICICI",
        "website": "https://www.icicibank.com"
      }
    },
    {
      "type": "node",
      "id": 1152801237,
      "lat": 12.8452765,
      "lon": 77.6649125,
      "tags": {
        "amenity": "bank",
        "atm": "yes",
        "brand": "State Bank of India",
        "brand:wikidata": "Q1340361",
        "brand:wikipedia": "en:State Bank of India",
        "name": "State Bank of India",
        "name:kn": "ಭಾರತೀಯ ಸ್ಟೇಟ್ ಬ್ಯಾಂಕ್",
        "short_name": "SBI"
      }
    },
    {
      "type": "node",
      "id": 1311759558,
      "lat": 12.8482581,
      "lon": 77.6625319,
      "tags": {
        "addr:city": "Electronic City, Bangalore",
        "amenity": "restaurant",
        "cuisine": "indian",
        "name": "Pallavi Grand"
      }
    },
    {
      "type": "node",
      "id": 1474106961,
      "lat": 12.8517246,
      "lon": 77.6681472,
      "tags": {
        "amenity": "hospital",
        "name": "Apollo Clinic",
        "name:kn": "ಅಪೊಲೊ ಕ್ಲಿನಿಕ್"
      }
    },
    {
      "type": "node",
      "id": 1586948311,
      "lat": 12.8482017,
      "lon": 77.6625122,
      "tags": {
        "amenity": "cafe",
        "brand": "Cafe Coffee Day",
        "brand:wikidata": "Q5017235",
        "cuisine": "coffee_shop",
        "name": "Cafe Coffee Day",
        "name:kn": "ಕಫೆ ಕಾಫಿ ಡೇ",
        "takeaway": "yes"
      }
    },
    {
      "type": "node",
      "id": 1586948315,
      "lat": 12.8448975,
      "lon": 77.6656501,
      "tags": {
        "name": "Printo",
        "shop": "copyshop",
        "website": "https://printo.in/"
      }
    },
    {
      "type": "node",
      "id": 1596076556,
      "lat": 12.844955,
      "lon": 77.6656526,
      "tags": {
        "amenity": "atm",
        "brand": "HDFC Bank",
        "brand:wikidata": "Q631047",
        "currency:INR": "yes",
        "drive_through": "no",
        "name": "HDFC Bank",
        "name:kn": "ಎಚ್. ಡಿ. ಎಫ್. ಸಿ..",
        "operator": "HDFC Bank",
        "operator:wikidata": "Q631047",
        "short_name": "HDFC"
      }
    },
    {
      "type": "node",
      "id": 1603379607,
      "lat": 12.8498474,
      "lon": 77.6628201,
      "tags": {
        "amenity": "bank",
        "atm": "no",
        "brand": "Indian Bank",
        "brand:wikidata": "Q2003789",
        "brand:wikipedia": "en:Indian Bank",
        "name": "Indian Bank",
        "name:en": "Indian Bank",
        "website": "https://www.indianbank.in/"
      }
    },
    {
      "type": "node",
      "id": 1603379637,
      "lat": 12.8487517,
      "lon": 77.6621693,
      "tags": {
        "amenity": "parking",
        "name": "Infosys Parking Lot"
      }
    },
    {
      "type": "node",
      "id": 1724276927,
      "lat": 12.8483294,
      "lon": 77.6625545,
      "tags": {
        "amenity": "kindergarten",
        "name": "Your Kids Are Our Kids"
      }
    },
    {
      "type": "node",
      "id": 2577010129,
      "lat": 12.8552741,
      "lon": 77.6646183,
      "tags": {
        "name": "Computerised Keys Locksmith",
        "phone": "+91-9036364846",
        "shop": "doityourself"
      }
    },
    {
      "type": "node",
      "id": 2697715021,
      "lat": 12.8480187,
      "lon": 77.6624513,
      "tags": {
        "name": "Titan Eye Plus",
        "shop": "optician"
      }
    },
    {
      "type": "node",
      "id": 3153843550,
      "lat": 12.8502327,
      "lon": 77.6626971,
      "tags": {
        "amenity": "recycling",
        "name": "E-Waste Disposal Kiosk",
        "operator": "ELCIA",
        "recycling:clothes": "no",
        "recycling_type": "centre"
      }
    },
    {
      "type": "node",
      "id": 3535846365,
      "lat": 12.8523822,
      "lon": 77.6676896,
      "tags": {
        "amenity": "atm",
        "brand": "ICICI Bank",
        "brand:wikidata": "Q1653258",
        "name": "ICICI Bank",
        "opening_hours": "24/7",
        "operator": "ICICI Bank",
        "operator:wikidata": "Q1653258",
        "short_name": "ICICI"
      }
    },
    {
      "type": "node",
      "id": 3633415011,
      "lat": 12.8504319,
      "lon": 77.6601401,
      "tags": {
        "amenity": "restaurant",
        "cuisine": "asian",
        "internet_access": "wlan",
        "name": "East",
        "name:kn": "ಈಸ್ಟ್",
        "opening_hours": "Mo-Su 18:30-23:00",
        "phone": "+918030030303"
      }
    },
    {
      "type": "node",
      "id": 3936088379,
      "lat": 12.8522559,
      "lon": 77.6678162,
      "tags": {
        "name": "Amba Bajaj",
        "shop": "motorcycle"
      }
    },
    {
      "type": "node",
      "id": 4270227693,
      "lat": 12.8562374,
      "lon": 77.6647742,
      "tags": {
        "addr:street": "Hosur Road",
        "amenity": "bar",
        "name": "RR bar",
        "name:kn": "ಆರ್ ಆರ್ ಬಾರ್"
      }
    },
    {
      "type": "node",
      "id": 4445882866,
      "lat": 12.8478836,
      "lon": 77.6635585,
      "tags": {
        "addr:city": "Bangalore",
        "addr:housenumber": "260",
        "addr:postcode": "560100",
        "addr:street": "Opposite Indus Ind Bank,Near Narayana Hrudayalaya Hospital, Bommasandra, Electronic City",
        "amenity": "restaurant",
        "cuisine": "regional",
        "delivery": "yes",
        "name": "Biriyani Paradise",
        "opening_hours": "07:00-23:00",
        "phone": "+91 9448524352 +919945226953",
        "smoking": "no",
        "takeaway": "yes"
      }
    },
    {
      "type": "node",
      "id": 4445954350,
      "lat": 12.8499207,
      "lon": 77.664001,
      "tags": {
        "addr:city": "Electronic City, Bangalore",
        "addr:housenumber": "4",
        "addr:postcode": "560100",
        "addr:street": "S.R.T Alphines Luxurious Hotel, Narayana Hrudayalaya Hospital Road, Kithaganahali, Bommasandra, Electronic Cit",
        "amenity": "restaurant",
        "cuisine": "regional",
        "delivery": "yes",
        "name": "Royal South Restaurent Electronic City",
        "opening_hours": "07:00-22:30,12:00-15:30,18:30-23:00",
        "phone": "080 27831414 08027831515",
        "smoking": "no",
        "takeaway": "yes"
      }
    },
    {
      "type": "node",
      "id": 4446055702,
      "lat": 12.8558455,
      "lon": 77.6650008,
      "tags": {
        "addr:city": "Bangalore",
        "addr:housenumber": "145",
        "addr:postcode": "560100",
        "addr:street": "Priyadarshini Petrol Bunk Complex, Near narayana Hrudayalaua Hospital, Hosur Road, Bommasandra Indl Area, Electronic City",
        "amenity": "restaurant",
        "cuisine": "regional",
        "delivery": "yes",
        "name": "Suchi Sagar Electronic City",
        "opening_hours": "06:30-22:30",
        "phone": "+91 8971965729 +919986686287",
        "smoking": "no",
        "takeaway": "yes"
      }
    },
    {
      "type": "node",
      "id": 4446130267,
      "lat": 12.8532595,
      "lon": 77.6661308,
      "tags": {
        "addr:city": "Bangalore",
        "addr:housenumber": "177/90",
        "addr:postcode": "560100",
        "addr:street": "Velankani Tech park, Velankani Road, Dodda Thogur, Phase 1, Electronic City",
        "amenity": "restaurant",
        "cuisine": "regional",
        "delivery": "yes",
        "name": "Fresh meanu",
        "opening_hours": "11:30-22:30",
        "phone": "+91 9019245000",
        "smoking": "no",
        "takeaway": "yes"
      }
    },
    {
      "type": "node",
      "id": 4446202212,
      "lat": 12.8475923,
      "lon": 77.6715489,
      "tags": {
        "addr:city": "Bangalore",
        "addr:postcode": "560100",
        "addr:street": "Service Road r BMTC Bus Stop, Electronic City",
        "amenity": "restaurant",
        "check_date": "2025-03-11",
        "cuisine": "regional",
        "delivery": "yes",
        "name": "Seasons Electronic City",
        "opening_hours": "11:00-23:00",
        "phone": "+91 7411598598 080 28521155",
        "smoking": "no",
        "takeaway": "yes"
      }
    },
    {
      "type": "node",
      "id": 4446217743,
      "lat": 12.8500948,
      "lon": 77.6602787,
      "tags": {
        "addr:city": "Bengaluru",
        "addr:postcode": "560100",
        "addr:street": "Velankani Drive",
        "amenity": "restaurant",
        "check_date:opening_hours": "2025-01-13",
        "cuisine": "regional",
        "delivery": "yes",
        "name": "The Oterra",
        "note": "This is marked as restaurant ? Otera has  couple, popular one is Ahara.",
        "opening_hours": "06:30-10:30,12:00-15:00,19:00-23:00",
        "phone": "080 30030303",
        "smoking": "separated",
        "takeaway": "yes",
        "website": "https://theoterra.com/dining/",
        "wheelchair": "limited"
      }
    },
    {
      "type": "node",
      "id": 4446889930,
      "lat": 12.8526731,
      "lon": 77.6676459,
      "tags": {
        "addr:city": "Bangalore",
        "addr:district": "Bengaluru Urban",
        "addr:full": "No. 60/3, Konappana Agrahara, OppositeInfosys Convention Centre",
        "addr:housenumber": "60/3",
        "addr:postcode": "560100",
        "addr:state": "Karnataka",
        "addr:street": "Konappana Agrahara, Electronic City, Opp. Infosys Convention Centre, Hosur Main Road",
        "amenity": "hospital",
        "name": "Spring Leaf Health Care Pvt Ltd",
        "phone": "080673 45000",
        "source": "OpenGovernmentData",
        "website": "https://www.springleaf-healthcare.com/"
      }
    },
    {
      "type": "node",
      "id": 4447308983,
      "lat": 12.8584183,
      "lon": 77.6653346,
      "tags": {
        "addr:city": "bangalore",
        "addr:postcode": "560078",
        "addr:street": "Mnr Arcade, Saraki Gate, Kanakapura Road, Saraki Gate,",
        "amenity": "hospital",
        "name": "Oxford Hospital",
        "phone": "080 2245 2500"
      }
    },
    {
      "type": "node",
      "id": 4447985903,
      "lat": 12.853228,
      "lon": 77.6653506,
      "tags": {
        "addr:city": "Bangalore",
        "addr:housenumber": "60/3",
        "addr:postcode": "560100",
        "addr:street": "Konappana Agrahara, Electronic City, Opp. Infosys Convention Centre, Hosur Main Road",
        "amenity": "hospital",
        "emergency": "yes",
        "name": "Springleaf Hospital",
        "phone": "080673 45000",
        "source": "http://bestofhealthindia.com/",
        "website": "https://www.springleaf-healthcare.com/"
      }
    },
    {
      "type": "node",
      "id": 4449319091,
      "lat": 12.8525505,
      "lon": 77.6676337,
      "tags": {
        "addr:housenumber": "60/4",
        "addr:postcode": "560100",
        "addr:street": "Hosur Road",
        "amenity": "bank",
        "brand": "Andhra Bank",
        "brand:wikidata": "Q2003476",
        "brand:wikipedia": "en:Andhra Bank",
        "name": "Andhra Bank",
        "name:en": "Andhra Bank",
        "name:kn": "ಆಂಧ್ರ ಬ್ಯಾಂಕ್",
        "website": "https://www.andhrabank.in"
      }
    },
    {
      "type": "node",
      "id": 4449337790,
      "lat": 12.8452422,
      "lon": 77.6653606,
      "tags": {
        "amenity": "bank",
        "brand": "State Bank of India",
        "brand:wikidata": "Q1340361",
        "brand:wikipedia": "en:State Bank of India",
        "name": "State Bank of India",
        "name:kn": "ಭಾರತೀಯ ಸ್ಟೇಟ್ ಬ್ಯಾಂಕ್",
        "short_name": "SBI",
        "website": "https://www.sbi.co.in"
      }
    },
    {
      "type": "node",
      "id": 4488188427,
      "lat": 12.8545053,
      "lon": 77.6651751,
      "tags": {
        "addr:city": "Bangalore",
        "addr:housenumber": "78/2",
        "addr:postcode": "560068",
        "addr:street": "Hosur Road",
        "name": "Action One Shop",
        "phone": "09535656325",
        "shop": "sports"
      }
    },
    {
      "type": "node",
      "id": 4489832975,
      "lat": 12.8504031,
      "lon": 77.6725469,
      "tags": {
        "addr:city": "bangalore",
        "addr:housenumber": "#34/1,A5",
        "addr:postcode": "560100,",
        "addr:street": "4th Main, 2nd Cross, Thimma Reddy Building, Behind Season's Hotel,, Electronic City, Hosur Main Road,",
        "fixme": "Survey opening and closing time, current range does not make sense.",
        "leisure": "sports_centre",
        "name": "Vini's Fitness Adda",
        "opening_hours": "06:00-22:00,16:00-21:30",
        "phone": "9986389555",
        "sport": "gymnastics",
        "website": "vinisfitnessadda.com"
      }
    },
    {
      "type": "node",
      "id": 4715001411,
      "lat": 12.8478444,
      "lon": 77.6632424,
      "tags": {
        "amenity": "parking_space"
      }
    },
    {
      "type": "node",
      "id": 4716441684,
      "lat": 12.8452877,
      "lon": 77.6657653,
      "tags": {
        "amenity": "fast_food",
        "description": "Quick eats/ juices, where you can stand and smoke."
      }
    },
    {
      "type": "node",
      "id": 4716441685,
      "lat": 12.8446771,
      "lon": 77.6656057,
      "tags": {
        "amenity": "restaurant",
        "capacity": "20",
        "cuisine": "Bengali",
        "delivery": "yes",
        "description": "Easy on the pocket, Bengali food. Friendly proprietor.",
        "level": "0",
        "name": "Calcutta Cabin",
        "opening_hours": "12:30-22:30",
        "outdoor_seating": "no",
        "smoking": "no",
        "takeaway": "yes"
      }
    },
    {
      "type": "node",
      "id": 4716441686,
      "lat": 12.8446457,
      "lon": 77.6656044,
      "tags": {
        "amenity": "fast_food",
        "cuisine": "fast_food,_juices",
        "description": "Fresh fruit juice, rolls and sandwiches.",
        "drive_through": "no",
        "ele": "0",
        "name": "Juicy",
        "smoking": "no",
        "takeaway": "yes"
      }
    },
    {
      "type": "node",
      "id": 5071611839,
      "lat": 12.8609956,
      "lon": 77.6651798,
      "tags": {
        "amenity": "parking_entrance"
      }
    },
    {
      "type": "node",
      "id": 5226590624,
      "lat": 12.8531236,
      "lon": 77.6718789,
      "tags": {
        "addr:postcode": "560100",
        "addr:street": "Doddanagmangala",
        "amenity": "fuel",
        "email": "mateshwary@gmail.com",
        "internet_access": "wlan",
        "name": "Ram Gas agency & Home Appliances",
        "opening_hours": "Mo-Su 07:30-21:00",
        "operator": "Lakshman Singh",
        "phone": "9036611523",
        "website": "http://mygas.co.in"
      }
    },
    {
      "type": "node",
      "id": 5381881835,
      "lat": 12.8445159,
      "lon": 77.6656515,
      "tags": {
        "amenity": "fast_food",
        "name": "Juicy"
      }
    },
    {
      "type": "node",
      "id": 5402307925,
      "lat": 12.8468502,
      "lon": 77.6722082,
      "tags": {
        "amenity": "restaurant",
        "check_date": "2025-07-04",
        "indoor_seating": "yes",
        "name": "Udupi Upahara",
        "outdoor_seating": "no"
      }
    },
    {
      "type": "node",
      "id": 5503695117,
      "lat": 12.8486726,
      "lon": 77.67046,
      "tags": {
        "amenity": "restaurant",
        "internet_access": "no",
        "name": "Salt 'N Pepper",
        "wheelchair": "limited"
      }
    },
    {
      "type": "node",
      "id": 5922673595,
      "lat": 12.8487613,
      "lon": 77.6724791,
      "tags": {
        "amenity": "atm",
        "brand": "HDFC Bank",
        "brand:wikidata": "Q631047",
        "currency:INR": "yes",
        "name": "HDFC Bank",
        "operator": "HDFC Bank",
        "operator:wikidata": "Q631047",
        "short_name": "HDFC"
      }
    },
    {
      "type": "node",
      "id": 5922673596,
      "lat": 12.8487506,
      "lon": 77.6724975,
      "tags": {
        "amenity": "atm",
        "brand": "State Bank of India",
        "brand:wikidata": "Q1340361",
        "currency:INR": "yes",
        "name": "State Bank of India",
        "operator": "State Bank of India",
        "operator:wikidata": "Q1340361",
        "short_name": "SBI"
      }
    },
    {
      "type": "node",
      "id": 5922673597,
      "lat": 12.8487427,
      "lon": 77.6725158,
      "tags": {
        "amenity": "atm",
        "brand": "ICICI Bank",
        "brand:wikidata": "Q1653258",
        "currency:INR": "yes",
        "name": "ICICI Bank",
        "operator": "ICICI Bank",
        "operator:wikidata": "Q1653258",
        "short_name": "ICICI"
      }
    },
    {
      "type": "node",
      "id": 5922673598,
      "lat": 12.8487492,
      "lon": 77.6725375,
      "tags": {
        "amenity": "atm",
        "brand": "Karur Vysya Bank",
        "brand:wikidata": "Q6373724",
        "currency:INR": "yes",
        "name": "Karur Vysya Bank",
        "operator": "Karur Vysya Bank",
        "operator:wikidata": "Q6373724"
      }
    },
    {
      "type": "node",
      "id": 5922673599,
      "lat": 12.8493564,
      "lon": 77.673205,
      "tags": {
        "amenity": "atm",
        "currency:INR": "yes",
        "operator": "Canera Bank"
      }
    },
    {
      "type": "node",
      "id": 5922688921,
      "lat": 12.8488705,
      "lon": 77.6727328,
      "tags": {
        "amenity": "restaurant",
        "capacity": "20",
        "name": "Thalassery",
        "name:kn": "ತಲಸ್ಸೆರಿ",
        "smoking": "no"
      }
    },
    {
      "type": "node",
      "id": 5922688922,
      "lat": 12.8494228,
      "lon": 77.6732992,
      "tags": {
        "amenity": "restaurant",
        "name": "Andhra Spicy"
      }
    },
    {
      "type": "node",
      "id": 5922688923,
      "lat": 12.8493307,
      "lon": 77.6733741,
      "tags": {
        "amenity": "restaurant",
        "name": "Thalassery Grand Cafe"
      }
    },
    {
      "type": "node",
      "id": 5922688924,
      "lat": 12.8479035,
      "lon": 77.6716109,
      "tags": {
        "amenity": "cafe",
        "ele": "0",
        "internet_access": "no",
        "level": "0",
        "name": "Malabar",
        "outdoor_seating": "no",
        "payment:cash": "yes",
        "payment:electronic_purses": "yes"
      }
    },
    {
      "type": "node",
      "id": 5922688925,
      "lat": 12.8478795,
      "lon": 77.6716282,
      "tags": {
        "amenity": "restaurant",
        "capacity": "36",
        "cuisine": "Kerala",
        "ele": "1",
        "level": "1",
        "name": "Malabar",
        "name:kn": "ಮಲಬಾರ್",
        "outdoor_seating": "no",
        "payment:cash": "yes",
        "payment:electronic_purses": "yes",
        "smoking": "no"
      }
    },
    {
      "type": "node",
      "id": 5922688926,
      "lat": 12.8476862,
      "lon": 77.6713708,
      "tags": {
        "amenity": "restaurant",
        "capacity": "28",
        "name": "Ruchi Sagar",
        "outdoor_seating": "yes",
        "smoking": "no",
        "takeaway": "yes"
      }
    },
    {
      "type": "node",
      "id": 5922688927,
      "lat": 12.8477518,
      "lon": 77.6712971,
      "tags": {
        "amenity": "restaurant",
        "name": "Bismillah Dum Biryani"
      }
    },
    {
      "type": "node",
      "id": 6364133318,
      "lat": 12.8539353,
      "lon": 77.6717128,
      "tags": {
        "addr:place": "ಗೋವಿಂದಶೆಟ್ಟಿ ಪಾಳ್ಯ",
        "amenity": "school",
        "isced:level": "2",
        "name": "GHPS Govindashetty Palya",
        "name:kn": "ಸರ್ಕಾರಿ ಹಿರಿಯ ಪ್ರಾಥಮಿಕ ಶಾಲೆ ಗೋವಿಂದಶೆಟ್ಟಿ ಪಾಳ್ಯ",
        "operator": "Department of Primary and Secondary Education",
        "operator:type": "government",
        "operator:wikidata": "Q111467381",
        "school": "primary"
      }
    },
    {
      "type": "node",
      "id": 6407792892,
      "lat": 12.8538531,
      "lon": 77.6635259,
      "tags": {
        "leisure": "park"
      }
    },
    {
      "type": "node",
      "id": 6469096365,
      "lat": 12.854687,
      "lon": 77.6592678,
      "tags": {
        "addr:place": "Doddathoru",
        "amenity": "school",
        "isced:level": "3",
        "name": "Mme Sch Konnappana Agrahara",
        "name:kn": "ಎಂ.ಎಂ.ಇ. ಎಸ್.ಸಿ.ಎಚ್. ಕೊನ್ನಪ್ಪನ ಅಗ್ರಹಾರ",
        "operator": "Private Un-Aided",
        "school": "Higher Secondary"
      }
    },
    {
      "type": "node",
      "id": 6494646365,
      "lat": 12.8523461,
      "lon": 77.6709539,
      "tags": {
        "addr:place": "Ellikunate",
        "amenity": "school",
        "isced:level": "2",
        "name": "Infont Pub Sch",
        "name:kn": "ಇನ್ಫೋಂಟ್ ಪಬ್ಲಿಕ್ ಶಾಲೆ,ಎಳ್ಳುಕುಂಟೆ",
        "operator": "Private Un-Aided",
        "school": "Higher Primary"
      }
    },
    {
      "type": "node",
      "id": 6496843480,
      "lat": 12.8552691,
      "lon": 77.6701683,
      "tags": {
        "addr:place": "Govindashetty Palya",
        "amenity": "school",
        "isced:level": "3",
        "name": "Sham's LPS Govindashetty Palya",
        "name:kn": "ಶಾಮ್ಸ್ ಕಿರಿಯ ಪ್ರಾಥಮಿಕ ಶಾಲೆ ಗೋವಿಂದಶೆಟ್ಟಿ ಪಾಳ್ಯ",
        "operator": "Private Un-Aided",
        "school": "Higher Secondary"
      }
    },
    {
      "type": "node",
      "id": 6536665928,
      "lat": 12.8507016,
      "lon": 77.6709723,
      "tags": {
        "addr:place": "Konappana Agrahara",
        "amenity": "school",
        "isced:level": "3",
        "name": "Silicon Valley School, Konappana Agrahara",
        "name:kn": "ಸಿಲಿಕಾನ್ ವ್ಯಾಲಿ ಶಾಲೆ, ಕೊನಾಪ್ಪನಾ ಅಗ್ರಹಾರ",
        "operator": "Private Un-Aided",
        "school": "Higher Secondary"
      }
    },
    {
      "type": "node",
      "id": 6536695625,
      "lat": 12.8517345,
      "lon": 77.668652,
      "tags": {
        "addr:place": "Konappana Agrahara",
        "amenity": "school",
        "isced:level": "2",
        "name": "Arunodaya Vidya Samsthe, Konappana Agrahara",
        "name:kn": "ಅರುನೊದಯ ವಿದ್ಯಾ ಸಂಸ್ಥೆ, ಕೊನಾಪ್ಪ ಅಗ್ರಹಾರ",
        "operator": "Private Un-Aided",
        "school": "Higher Primary"
      }
    },
    {
      "type": "node",
      "id": 6944574932,
      "lat": 12.8548947,
      "lon": 77.6681162,
      "tags": {
        "addr:district": "Bengaluru Urban",
        "addr:full": "55/3A Govindana Settypalya Road Konappana Agrahara, Electronicity, Infosis South Taluk",
        "addr:postcode": "560100",
        "addr:state": "Karnataka",
        "amenity": "hospital",
        "name": "Anugrahaa Hospital",
        "source": "OpenGovernmentData"
      }
    },
    {
      "type": "node",
      "id": 7179096793,
      "lat": 12.855574,
      "lon": 77.6639898,
      "tags": {
        "amenity": "bicycle_rental",
        "network": "Yulu",
        "website": "https://www.yulu.bike"
      }
    },
    {
      "type": "node",
      "id": 7179096799,
      "lat": 12.8541208,
      "lon": 77.6624811,
      "tags": {
        "addr:city": "Bangalore",
        "addr:street": "Hewlett Packard Avenue",
        "amenity": "hospital",
        "emergency": "yes",
        "healthcare": "hospital",
        "name": "Ramakrishna Hospital",
        "operator": "Ramakrishna",
        "website": "http://rkhealth.com"
      }
    },
    {
      "type": "node",
      "id": 7572669024,
      "lat": 12.852699,
      "lon": 77.667688,
      "tags": {
        "addr:district": "Bengaluru Urban",
        "addr:full": "Hosur Main Road, Bengaluru",
        "addr:postcode": "560100",
        "addr:state": "Karnataka",
        "amenity": "hospital",
        "name": "Springleaf Hospital",
        "source": "Local Knowledge"
      }
    },
    {
      "type": "node",
      "id": 9528908058,
      "lat": 12.8536938,
      "lon": 77.6660164,
      "tags": {
        "addr:city": "Bengaluru",
        "addr:postcode": "560099",
        "addr:street": "29/P2, The Health City, Hosur Rd, Bommasandra Industrial Area, Bommasandra Industrial Area, Bengaluru- 560099,Karnataka, India",
        "amenity": "clinic",
        "healthcare": "clinic",
        "healthcare:speciality": "spine",
        "name": "Dr. Naveen Tahasildar",
        "opening_hours": "Mo-Sa 10:00-13:30,14:30-15:00",
        "operator": "novosalus",
        "operator:type": "private",
        "website": "https://www.naveenspine.com/"
      }
    },
    {
      "type": "node",
      "id": 12144442644,
      "lat": 12.8463388,
      "lon": 77.6724425,
      "tags": {
        "amenity": "toilets",
        "check_date": "2024-08-29",
        "source": "survey"
      }
    },
    {
      "type": "node",
      "id": 12153126731,
      "lat": 12.8609323,
      "lon": 77.6652121,
      "tags": {
        "amenity": "parking_entrance"
      }
    },
    {
      "type": "node",
      "id": 12686750594,
      "lat": 12.8543245,
      "lon": 77.6662026,
      "tags": {
        "addr:full": "2nd floor, Western silicon hotel Building, bus stop, 62/3, Hosur Rd, behind konappana agrahara, Konappana Agrahara, Electronic City, Bengaluru, Karnataka 560100",
        "beauty": "spa",
        "name": "Felicity Spa",
        "opening_hours": "Mo-Su 10:00-21:00",
        "operator": "Felicity",
        "phone": "+91 9886469009",
        "shop": "beauty"
      }
    },
    {
      "type": "node",
      "id": 12876472298,
      "lat": 12.8543918,
      "lon": 77.6661871,
      "tags": {
        "amenity": "bank",
        "brand": "Axis Bank",
        "brand:wikidata": "Q2003549",
        "check_date": "2025-05-31",
        "name": "Axis Bank",
        "source": "survey"
      }
    },
    {
      "type": "node",
      "id": 12977371115,
      "lat": 12.8543999,
      "lon": 77.6662466,
      "tags": {
        "amenity": "atm",
        "brand": "Axis Bank",
        "brand:wikidata": "Q2003549",
        "check_date": "2025-07-04",
        "operator": "Axis Bank",
        "operator:wikidata": "Q2003549"
      }
    },
    {
      "type": "node",
      "id": 13070296267,
      "lat": 12.8565448,
      "lon": 77.6635659,
      "tags": {
        "access": "yes",
        "amenity": "motorcycle_parking",
        "capacity": "980",
        "fee": "yes",
        "name": "Electronic City Metro Parking",
        "operator": "BMRCL",
        "parking": "surface"
      }
    },
    {
      "type": "node",
      "id": 13070296268,
      "lat": 12.846446,
      "lon": 77.6712335,
      "tags": {
        "access": "yes",
        "amenity": "motorcycle_parking",
        "capacity": "77",
        "fee": "yes",
        "name": "Konappana Agrahara Metro Parking",
        "operator": "BMRCL",
        "parking": "surface"
      }
    },
    {
      "type": "node",
      "id": 13072783964,
      "lat": 12.8555274,
      "lon": 77.6628173,
      "tags": {
        "amenity": "bench",
        "backrest": "yes",
        "material": "stone",
        "seats": "2"
      }
    },
    {
      "type": "node",
      "id": 13072783965,
      "lat": 12.8555298,
      "lon": 77.662924,
      "tags": {
        "leisure": "fitness_station"
      }
    },
    {
      "type": "node",
      "id": 13072783972,
      "lat": 12.8555646,
      "lon": 77.6628284,
      "tags": {
        "amenity": "bench",
        "backrest": "yes",
        "material": "stone",
        "seats": "2"
      }
    },
    {
      "type": "node",
      "id": 13072783973,
      "lat": 12.8554576,
      "lon": 77.6628306,
      "tags": {
        "amenity": "bench",
        "backrest": "yes",
        "material": "stone",
        "seats": "2"
      }
    },
    {
      "type": "node",
      "id": 13072783974,
      "lat": 12.8554567,
      "lon": 77.6623678,
      "tags": {
        "amenity": "waste_basket"
      }
    },
    {
      "type": "node",
      "id": 13077942501,
      "lat": 12.8594067,
      "lon": 77.6733415,
      "tags": {
        "addr:street": "4th main road",
        "amenity": "community_centre",
        "name": "Lohitha ilam"
      }
    },
    {
      "type": "node",
      "id": 13086260021,
      "lat": 12.8452017,
      "lon": 77.6650283,
      "tags": {
        "addr:city": "Bangalore",
        "addr:postcode": "560100",
        "addr:street": "Infosys Avenue",
        "name": "Livspace Showroom - Electronic City",
        "shop": "interior_decoration"
      }
    },
    {
      "type": "node",
      "id": 13189151834,
      "lat": 12.8493797,
      "lon": 77.6709379,
      "tags": {
        "access": "private",
        "amenity": "parking_entrance",
        "parking": "underground"
      }
    },
    {
      "type": "node",
      "id": 13189151839,
      "lat": 12.850644,
      "lon": 77.670718,
      "tags": {
        "access": "private",
        "amenity": "parking_entrance",
        "parking": "underground"
      }
    },
    {
      "type": "way",
      "id": 126582879,
      "center": {
        "lat": 12.8451651,
        "lon": 77.6632369
      },
      "tags": {
        "designation": "Lawn",
        "leisure": "garden"
      }
    },
    {
      "type": "way",
      "id": 131685535,
      "center": {
        "lat": 12.8484235,
        "lon": 77.6720288
      },
      "tags": {
        "amenity": "place_of_worship",
        "religion": "muslim"
      }
    },
    {
      "type": "way",
      "id": 169987366,
      "center": {
        "lat": 12.8482756,
        "lon": 77.6748978
      },
      "tags": {
        "alt_name": "XIME",
        "amenity": "university",
        "name": "Xavier Institute of Management and Entrepreneurship",
        "website": "https://xime.org/",
        "wikidata": "Q8043260",
        "wikipedia": "en:Xavier Institute of Management and Entrepreneurship"
      }
    },
    {
      "type": "way",
      "id": 188315534,
      "center": {
        "lat": 12.8493122,
        "lon": 77.6672497
      },
      "tags": {
        "amenity": "food_court",
        "building": "yes",
        "name": "Terminal Food Court"
      }
    },
    {
      "type": "way",
      "id": 230401366,
      "center": {
        "lat": 12.8603696,
        "lon": 77.6643603
      },
      "tags": {
        "leisure": "pitch",
        "name": "PES Cricket Ground",
        "sport": "cricket"
      }
    },
    {
      "type": "way",
      "id": 231419708,
      "center": {
        "lat": 12.8502435,
        "lon": 77.6663778
      },
      "tags": {
        "addr:city": "Bengaluru",
        "addr:postcode": "560100",
        "addr:street": "Infosys Limited, Electronic City Phase 1",
        "leisure": "park",
        "name": "infosys - fountain park",
        "opening_hours": "24/7",
        "operator": "Infosys"
      }
    },
    {
      "type": "way",
      "id": 231526588,
      "center": {
        "lat": 12.8486955,
        "lon": 77.6621818
      },
      "tags": {
        "amenity": "parking",
        "capacity": "50",
        "name": "Infosys Car Parking",
        "parking": "surface",
        "wheelchair": "yes"
      }
    },
    {
      "type": "way",
      "id": 231526698,
      "center": {
        "lat": 12.8507225,
        "lon": 77.6632779
      },
      "tags": {
        "amenity": "parking",
        "parking": "multi-storey"
      }
    },
    {
      "type": "way",
      "id": 231559501,
      "center": {
        "lat": 12.8442717,
        "lon": 77.6632889
      },
      "tags": {
        "addr:city": "Bangalore",
        "addr:housenumber": "26/C Opposite Infosys Gate",
        "addr:postcode": "560100",
        "addr:street": "1st Cross Road",
        "alt_name": "IIIT",
        "amenity": "university",
        "check_date": "2025-08-07",
        "internet_access": "wlan",
        "name": "International Institute of Information Technology Bangalore",
        "website": "https://www.iiitb.ac.in"
      }
    },
    {
      "type": "way",
      "id": 231567151,
      "center": {
        "lat": 12.8502416,
        "lon": 77.6663792
      },
      "tags": {
        "leisure": "park",
        "name": "Infosys Fountain"
      }
    },
    {
      "type": "way",
      "id": 231570421,
      "center": {
        "lat": 12.8469634,
        "lon": 77.6633763
      },
      "tags": {
        "amenity": "theatre"
      }
    },
    {
      "type": "way",
      "id": 231570422,
      "center": {
        "lat": 12.8471622,
        "lon": 77.663209
      },
      "tags": {
        "leisure": "stadium"
      }
    },
    {
      "type": "way",
      "id": 231602083,
      "center": {
        "lat": 12.8485594,
        "lon": 77.6640813
      },
      "tags": {
        "leisure": "pitch",
        "sport": "tennis"
      }
    },
    {
      "type": "way",
      "id": 232401501,
      "center": {
        "lat": 12.847096,
        "lon": 77.6690976
      },
      "tags": {
        "alt_name": "NTTF Electronics City",
        "amenity": "university",
        "int_name": "NEC",
        "landuse": "education",
        "name": "NTTF",
        "website": "https://www.nttftrg.com/"
      }
    },
    {
      "type": "way",
      "id": 232401537,
      "center": {
        "lat": 12.8467297,
        "lon": 77.6681279
      },
      "tags": {
        "leisure": "pitch",
        "sport": "cricket"
      }
    },
    {
      "type": "way",
      "id": 257478113,
      "center": {
        "lat": 12.8485396,
        "lon": 77.6669229
      },
      "tags": {
        "amenity": "food_court",
        "building": "yes",
        "cuisine": "regional",
        "name": "Lotus Food Court"
      }
    },
    {
      "type": "way",
      "id": 257478114,
      "center": {
        "lat": 12.8482708,
        "lon": 77.6668939
      },
      "tags": {
        "amenity": "food_court",
        "building": "yes",
        "cuisine": "regional",
        "name": "Lotus Food Court"
      }
    },
    {
      "type": "way",
      "id": 257478115,
      "center": {
        "lat": 12.847992,
        "lon": 77.666871
      },
      "tags": {
        "amenity": "food_court",
        "building": "yes",
        "cuisine": "regional",
        "name": "Lotus Food Court"
      }
    },
    {
      "type": "way",
      "id": 259362414,
      "center": {
        "lat": 12.8494542,
        "lon": 77.6624983
      },
      "tags": {
        "amenity": "college",
        "name": "IFIM Business School",
        "website": "https://www.ifimbschool.com/",
        "wheelchair": "yes"
      }
    },
    {
      "type": "way",
      "id": 264102750,
      "center": {
        "lat": 12.8503685,
        "lon": 77.660539
      },
      "tags": {
        "layer": "1",
        "leisure": "swimming_pool",
        "operator": "Oterra",
        "wheelchair": "no"
      }
    },
    {
      "type": "way",
      "id": 264102806,
      "center": {
        "lat": 12.8446668,
        "lon": 77.6656445
      },
      "tags": {
        "addr:city": "Bangalore",
        "addr:postcode": "560100",
        "addr:street": "Electronic city phase 1",
        "amenity": "restaurant",
        "building": "yes",
        "cuisine": "indian",
        "name": "Punjabi restaurant",
        "rastorant": "0 miles"
      }
    },
    {
      "type": "way",
      "id": 264102958,
      "center": {
        "lat": 12.8442985,
        "lon": 77.6656336
      },
      "tags": {
        "building": "yes",
        "building:levels": "2",
        "name": "Olive beauty parlour",
        "parlour": "olive",
        "shop": "stationery"
      }
    },
    {
      "type": "way",
      "id": 347413110,
      "center": {
        "lat": 12.8552066,
        "lon": 77.669072
      },
      "tags": {
        "addr:city": "Bengaluru",
        "addr:district": "Bengaluru Urban",
        "addr:full": "Govinda Shetty Palya, Hosur Main Road, near Electronic City, Bengaluru-560100",
        "addr:postcode": "560100",
        "becknified": "true",
        "building": "commercial",
        "name": "Kiran General and Rice Store",
        "opening_hours": "9:00-21:00",
        "operator": "Plotch BPP App",
        "payment:cash": "yes",
        "phone": "+919880241365",
        "providerId": "amsterdam-bpp-app.plotch.store",
        "shop": "supermarket"
      }
    },
    {
      "type": "way",
      "id": 359626598,
      "center": {
        "lat": 12.861641,
        "lon": 77.6654393
      },
      "tags": {
        "alt_name": "PESU EC",
        "amenity": "university",
        "name": "PESU Electronic City Campus",
        "short_name": "PESU",
        "website": "https://www.pes.edu/"
      }
    },
    {
      "type": "way",
      "id": 362976258,
      "center": {
        "lat": 12.8538132,
        "lon": 77.6593246
      },
      "tags": {
        "amenity": "parking",
        "parking": "surface"
      }
    },
    {
      "type": "way",
      "id": 364870960,
      "center": {
        "lat": 12.8453387,
        "lon": 77.6632417
      },
      "tags": {
        "access": "private",
        "amenity": "parking",
        "name": "Car/Bike Parking",
        "parking": "surface"
      }
    },
    {
      "type": "way",
      "id": 520321678,
      "center": {
        "lat": 12.8615858,
        "lon": 77.6653681
      },
      "tags": {
        "amenity": "parking"
      }
    },
    {
      "type": "way",
      "id": 520321679,
      "center": {
        "lat": 12.860753,
        "lon": 77.6652424
      },
      "tags": {
        "amenity": "motorcycle_parking"
      }
    },
    {
      "type": "way",
      "id": 520321692,
      "center": {
        "lat": 12.859711,
        "lon": 77.6630077
      },
      "tags": {
        "leisure": "park"
      }
    },
    {
      "type": "way",
      "id": 520321693,
      "center": {
        "lat": 12.8591867,
        "lon": 77.6635107
      },
      "tags": {
        "amenity": "parking"
      }
    },
    {
      "type": "way",
      "id": 627811590,
      "center": {
        "lat": 12.8539155,
        "lon": 77.6623059
      },
      "tags": {
        "description": "Private park within a commercial space",
        "leisure": "park",
        "name": "Hipower hangout"
      }
    },
    {
      "type": "way",
      "id": 1091003955,
      "center": {
        "lat": 12.8472785,
        "lon": 77.6726803
      },
      "tags": {
        "amenity": "bus_station",
        "building": "yes",
        "bus": "yes",
        "public_transport": "station",
        "source": "microsoft/BuildingFootprints"
      }
    },
    {
      "type": "way",
      "id": 1287599709,
      "center": {
        "lat": 12.8533014,
        "lon": 77.6672068
      },
      "tags": {
        "amenity": "fuel",
        "brand": "Bharat Petroleum",
        "brand:wikidata": "Q854826",
        "compressed_air": "yes",
        "name": "Bharat Petroleum"
      }
    },
    {
      "type": "way",
      "id": 1287763838,
      "center": {
        "lat": 12.860096,
        "lon": 77.662414
      },
      "tags": {
        "amenity": "parking",
        "parking": "surface"
      }
    },
    {
      "type": "way",
      "id": 1298939999,
      "center": {
        "lat": 12.8493418,
        "lon": 77.663187
      },
      "tags": {
        "access": "permissive",
        "amenity": "parking",
        "parking": "surface"
      }
    },
    {
      "type": "way",
      "id": 1298940000,
      "center": {
        "lat": 12.8499092,
        "lon": 77.661923
      },
      "tags": {
        "access": "permissive",
        "amenity": "parking",
        "parking": "surface"
      }
    },
    {
      "type": "way",
      "id": 1298940001,
      "center": {
        "lat": 12.8508997,
        "lon": 77.6611575
      },
      "tags": {
        "access": "permissive",
        "amenity": "parking",
        "parking": "surface"
      }
    },
    {
      "type": "way",
      "id": 1307630853,
      "center": {
        "lat": 12.8450418,
        "lon": 77.6675914
      },
      "tags": {
        "access": "private",
        "amenity": "parking",
        "parking": "surface"
      }
    },
    {
      "type": "way",
      "id": 1307630873,
      "center": {
        "lat": 12.8568689,
        "lon": 77.6744145
      },
      "tags": {
        "leisure": "pitch",
        "sport": "tennis"
      }
    },
    {
      "type": "way",
      "id": 1307630875,
      "center": {
        "lat": 12.8548731,
        "lon": 77.6748714
      },
      "tags": {
        "access": "private",
        "amenity": "parking",
        "parking": "surface"
      }
    },
    {
      "type": "way",
      "id": 1307630887,
      "center": {
        "lat": 12.8498425,
        "lon": 77.6768093
      },
      "tags": {
        "access": "private",
        "amenity": "parking",
        "parking": "surface"
      }
    },
    {
      "type": "way",
      "id": 1312163707,
      "center": {
        "lat": 12.8499772,
        "lon": 77.6648388
      },
      "tags": {
        "leisure": "sports_centre"
      }
    },
    {
      "type": "way",
      "id": 1312163712,
      "center": {
        "lat": 12.8462356,
        "lon": 77.6640808
      },
      "tags": {
        "access": "permissive",
        "amenity": "parking",
        "parking": "surface"
      }
    },
    {
      "type": "way",
      "id": 1312163716,
      "center": {
        "lat": 12.8463849,
        "lon": 77.6631178
      },
      "tags": {
        "leisure": "miniature_golf"
      }
    },
    {
      "type": "way",
      "id": 1346135036,
      "center": {
        "lat": 12.849145,
        "lon": 77.6615812
      },
      "tags": {
        "leisure": "sports_centre",
        "wheelchair": "yes"
      }
    },
    {
      "type": "way",
      "id": 1346135038,
      "center": {
        "lat": 12.8479878,
        "lon": 77.6622948
      },
      "tags": {
        "amenity": "parking",
        "capacity": "50",
        "name": "Infosys Car Parking",
        "parking": "surface",
        "wheelchair": "yes"
      }
    },
    {
      "type": "way",
      "id": 1346135040,
      "center": {
        "lat": 12.8500623,
        "lon": 77.6632321
      },
      "tags": {
        "amenity": "bus_station",
        "name": "Infosys Bus Station",
        "name:kn": "ಬಸ್ ನಿಲ್ದಾನ",
        "operator": "BMTC"
      }
    },
    {
      "type": "way",
      "id": 1349913928,
      "center": {
        "lat": 12.8590499,
        "lon": 77.6608099
      },
      "tags": {
        "addr:street": "NICE Peripheral Ring Road",
        "amenity": "events_venue",
        "check_date": "2024-04-03",
        "landuse": "commercial",
        "name": "White Feather Wedding Hall",
        "source": "survey"
      }
    },
    {
      "type": "way",
      "id": 1349913933,
      "center": {
        "lat": 12.8609987,
        "lon": 77.6718878
      },
      "tags": {
        "amenity": "school"
      }
    },
    {
      "type": "way",
      "id": 1422502689,
      "center": {
        "lat": 12.8555674,
        "lon": 77.6629008
      },
      "tags": {
        "amenity": "shelter",
        "building": "roof",
        "shelter_type": "gazebo"
      }
    },
    {
      "type": "way",
      "id": 1422502690,
      "center": {
        "lat": 12.8554881,
        "lon": 77.6621231
      },
      "tags": {
        "leisure": "playground"
      }
    },
    {
      "type": "way",
      "id": 1422502698,
      "center": {
        "lat": 12.8554605,
        "lon": 77.6635778
      },
      "tags": {
        "addr:street": "Hewlett Packard Avenue",
        "amenity": "fuel",
        "brand": "Indian Oil",
        "brand:wikidata": "Q1289348",
        "name": "Indian Oil"
      }
    },
    {
      "type": "way",
      "id": 1434903994,
      "center": {
        "lat": 12.8496924,
        "lon": 77.6708923
      },
      "tags": {
        "access": "private",
        "leisure": "swimming_pool"
      }
    },
    {
      "type": "way",
      "id": 1434903995,
      "center": {
        "lat": 12.8503568,
        "lon": 77.6711324
      },
      "tags": {
        "access": "private",
        "leisure": "pitch",
        "sport": "tennis"
      }
    },
    {
      "type": "way",
      "id": 1434903996,
      "center": {
        "lat": 12.8501176,
        "lon": 77.671076
      },
      "tags": {
        "access": "private",
        "leisure": "pitch",
        "sport": "basketball"
      }
    }
  ]
}