{
  "area_name": "Kotthur",
  "osm_id": 19884603,
  "osm_type": "relation",
  "place_type": "administrative",
  "amenity_count": 19,
  "amenities": [
    {
      "type": "node",
      "id": 1761868084,
      "lat": 13.0114049,
      "lon": 77.6730608,
      "tags": {
        "name": "Heritage Fresh",
        "shop": "supermarket"
      }
    },
    {
      "type": "node",
      "id": 4489938100,
      "lat": 13.0116909,
      "lon": 77.6702315,
      "tags": {
        "addr:city": "Bengaluru,",
        "addr:postcode": "560016",
        "addr:street": "Near Manipal Hospital, Ramamurthy Nagar Main Road, Bangalore, Dasappa Layout, Ramamurthy Nagar, Karnataka",
        "leisure": "sports_centre",
        "name": "Pulse Fitness",
        "opening_hours": "5:30-22:00",
        "phone": "089713 17117"
      }
    },
    {
      "type": "node",
      "id": 6944239595,
      "lat": 13.0115263,
      "lon": 77.6700582,
      "tags": {
        "addr:district": "Bengaluru Urban",
        "addr:full": "No.251, R.M.Nagar, Main Road, Gurumurthy Reddy Layout",
        "addr:postcode": "560016",
        "addr:state": "Karnataka",
        "amenity": "clinic",
        "name": "Manipal Polyclinic and Nursing Home",
        "source": "OpenGovernmentData"
      }
    },
    {
      "type": "node",
      "id": 6945724749,
      "lat": 13.0112166,
      "lon": 77.6743939,
      "tags": {
        "addr:district": "Bengaluru Urban",
        "addr:full": "Ramamurthynagar",
        "addr:postcode": "560016",
        "addr:state": "Karnataka",
        "amenity": "hospital",
        "name": "Spandana Hospital And Medical Centre",
        "source": "OpenGovernmentData",
        "wheelchair": "yes"
      }
    },
    {
      "type": "node",
      "id": 6950124287,
      "lat": 13.0113204,
      "lon": 77.6771966,
      "tags": {
        "addr:district": "Bengaluru Urban",
        "addr:full": "No. 101, Tc Palya Road,Raghavendra Nagar,Ram Murthy Nagar Extension",
        "addr:postcode": "560016",
        "addr:state": "Karnataka",
        "addr:street": "Opposite to bus stop",
        "amenity": "hospital",
        "name": "Little Flower Hospital",
        "source": "OpenGovernmentData"
      }
    },
    {
      "type": "node",
      "id": 6991352800,
      "lat": 13.0090628,
      "lon": 77.6720657,
      "tags": {
        "addr:street": "9th Cross, Bhavani Street",
        "amenity": "school",
        "name": "Sri Kumaran's English School"
      }
    },
    {
      "type": "node",
      "id": 6991385392,
      "lat": 13.0078125,
      "lon": 77.6831894,
      "tags": {
        "addr:street": "Ramamurthy Nagar Main Road",
        "amenity": "post_office",
        "name": "Doorvani Nagar Post Office"
      }
    },
    {
      "type": "node",
      "id": 6991466205,
      "lat": 13.0114374,
      "lon": 77.6795654,
      "tags": {
        "addr:street": "12, A Main Road",
        "amenity": "bank",
        "brand": "HDFC Bank",
        "brand:wikidata": "Q631047",
        "name": "HDFC Bank",
        "name:kn": "ಎಚ್ ಡಿ ಎಫ್ ಸಿ",
        "opening_hours": "Mo-Sa 10:00-16:00",
        "short_name": "HDFC"
      }
    },
    {
      "type": "node",
      "id": 6991490038,
      "lat": 13.0114374,
      "lon": 77.6768112,
      "tags": {
        "addr:street": "Narayanappa Building, Ramamurthy Nagar Main Road",
        "amenity": "bank",
        "brand": "UCO Bank",
        "brand:wikidata": "Q2005310",
        "name": "UCO Bank",
        "name:kn": "ಯೂಕೊ ಬ್ಯಾಂಕ್",
        "opening_hours": "Mo-Fr 09:30-15:30"
      }
    },
    {
      "type": "node",
      "id": 6991519153,
      "lat": 13.0115623,
      "lon": 77.6710663,
      "tags": {
        "amenity": "pharmacy",
        "brand": "MedPlus",
        "brand:wikidata": "Q65684234",
        "healthcare": "pharmacy",
        "name": "MedPlus",
        "wheelchair": "no"
      }
    },
    {
      "type": "node",
      "id": 6991535449,
      "lat": 13.0035629,
      "lon": 77.6788101,
      "tags": {
        "amenity": "fire_station",
        "name": "ITI Fire Station"
      }
    },
    {
      "type": "node",
      "id": 6991725953,
      "lat": 13.0115623,
      "lon": 77.6700592,
      "tags": {
        "addr:street": "Bus stop, 253-1, 1st Floor",
        "amenity": "clinic",
        "name": "Manipal Poly Clinic And Nursing Home"
      }
    },
    {
      "type": "node",
      "id": 7931315365,
      "lat": 13.0116487,
      "lon": 77.6780147,
      "tags": {
        "name": "Doroavani Medicals",
        "shop": "medical_supply"
      }
    },
    {
      "type": "way",
      "id": 188334996,
      "center": {
        "lat": 13.0062746,
        "lon": 77.6824593
      },
      "tags": {
        "leisure": "park"
      }
    },
    {
      "type": "way",
      "id": 796370470,
      "center": {
        "lat": 13.0047577,
        "lon": 77.6822863
      },
      "tags": {
        "amenity": "hospital",
        "name": "ITI General Hospital"
      }
    },
    {
      "type": "way",
      "id": 1245298058,
      "center": {
        "lat": 13.0030243,
        "lon": 77.682296
      },
      "tags": {
        "amenity": "fuel",
        "brand": "Indian Oil",
        "brand:wikidata": "Q1289348",
        "coco": "yes",
        "name": "Indian Oil"
      }
    },
    {
      "type": "way",
      "id": 1395880704,
      "center": {
        "lat": 13.010457,
        "lon": 77.6696582
      },
      "tags": {
        "addr:city": "Bengaluru",
        "addr:postcode": "560016",
        "addr:street": "Main road, Ramamurthy Nagar",
        "amenity": "school",
        "name": "Jaigopal Garodia Rashtrotthana Vidya Kendra",
        "website": "https://rvkcbse.in/rm-nagar/index.html"
      }
    },
    {
      "type": "way",
      "id": 1410389136,
      "center": {
        "lat": 13.0103139,
        "lon": 77.6738959
      },
      "tags": {
        "addr:street": "Lakshmi Theatre Road",
        "amenity": "cinema",
        "name": "Shree Lakshmi Theater"
      }
    },
    {
      "type": "way",
      "id": 1410389161,
      "center": {
        "lat": 13.0102981,
        "lon": 77.6811167
      },
      "tags": {
        "amenity": "fuel",
        "brand": "GAIL",
        "name": "GAIL Gas",
        "operator": "GAIL",
        "self_service": "no"
      }
    }
  ]
}