{
  "area_name": "KPC Layout",
  "osm_id": 13070773912,
  "osm_type": "node",
  "place_type": "neighbourhood",
  "amenity_count": 223,
  "amenities": [
    {
      "type": "node",
      "id": 1169430891,
      "lat": 12.9118577,
      "lon": 77.682346,
      "tags": {
        "name": "car accesories",
        "shop": "car_parts"
      }
    },
    {
      "type": "node",
      "id": 1891043819,
      "lat": 12.9122176,
      "lon": 77.6817453,
      "tags": {
        "amenity": "cafe",
        "name": "Cuppa Coffee"
      }
    },
    {
      "type": "node",
      "id": 2343560266,
      "lat": 12.9124334,
      "lon": 77.6812577,
      "tags": {
        "name": "Foodworld",
        "shop": "department_store"
      }
    },
    {
      "type": "node",
      "id": 3199513533,
      "lat": 12.9127254,
      "lon": 77.6798404,
      "tags": {
        "amenity": "clinic",
        "healthcare": "clinic",
        "healthcare:speciality": "general",
        "level": "1",
        "name": "Apollo Clinic",
        "name:kn": "ಅಪೊಲೊ ಕ್ಲಿನಿಕ್",
        "operator": "Apollo",
        "operator:type": "private",
        "source": "GPS;local knowledge"
      }
    },
    {
      "type": "node",
      "id": 3217667994,
      "lat": 12.9127433,
      "lon": 77.6798026,
      "tags": {
        "level": "0",
        "name": "Pai International",
        "shop": "electronics",
        "source": "survey"
      }
    },
    {
      "type": "node",
      "id": 3217667995,
      "lat": 12.9117609,
      "lon": 77.6816564,
      "tags": {
        "amenity": "restaurant",
        "brand": "Pizza Hut",
        "brand:wikidata": "Q191615",
        "cuisine": "pizza",
        "name": "Pizza Hut",
        "name:kn": "ಪಿಟ್ಸ ಹಟ್",
        "source": "survey"
      }
    },
    {
      "type": "node",
      "id": 3217667996,
      "lat": 12.9124842,
      "lon": 77.6804597,
      "tags": {
        "name": "Sangeetha",
        "name:kn": "ಸಂಗೀತ",
        "shop": "mobile_phone",
        "source": "survey"
      }
    },
    {
      "type": "node",
      "id": 3220549889,
      "lat": 12.9117097,
      "lon": 77.6817923,
      "tags": {
        "name": "Health & Glow",
        "shop": "cosmetics"
      }
    },
    {
      "type": "node",
      "id": 3632677613,
      "lat": 12.9111259,
      "lon": 77.6760122,
      "tags": {
        "amenity": "toilets"
      }
    },
    {
      "type": "node",
      "id": 3632677622,
      "lat": 12.911144,
      "lon": 77.6761815,
      "tags": {
        "amenity": "pub",
        "name": "Xtreme Sports Bar"
      }
    },
    {
      "type": "node",
      "id": 3632677649,
      "lat": 12.9116566,
      "lon": 77.6753202,
      "tags": {
        "leisure": "sports_centre",
        "name": "Rock Climbing",
        "sport": "climbing"
      }
    },
    {
      "type": "node",
      "id": 4113451944,
      "lat": 12.9112304,
      "lon": 77.6760618,
      "tags": {
        "amenity": "restaurant"
      }
    },
    {
      "type": "node",
      "id": 4440829279,
      "lat": 12.911533,
      "lon": 77.6764094,
      "tags": {
        "addr:city": "Bangalore",
        "addr:postcode": "560035",
        "addr:street": "Kasvanahalli Road, Behind State Bank of Mysore, Sarjapur Road, Kaikondrahalli",
        "amenity": "hospital",
        "emergency": "yes",
        "healthcare": "hospital",
        "name": "Stanford Speciality Hospital",
        "phone": "080 6566 6689"
      }
    },
    {
      "type": "node",
      "id": 4440931106,
      "lat": 12.9124371,
      "lon": 77.6813917,
      "tags": {
        "addr:city": "Bangalore",
        "addr:housenumber": "No.7/1",
        "addr:postcode": "560035",
        "addr:street": "Sarjapur Road",
        "amenity": "hospital",
        "emergency": "yes",
        "name": "Dr Mohan Nursing Home",
        "phone": "+91-80-42119084"
      }
    },
    {
      "type": "node",
      "id": 4440939217,
      "lat": 12.9072384,
      "lon": 77.6755805,
      "tags": {
        "addr:city": "Bengaluru",
        "addr:housenumber": "4/21",
        "addr:postcode": "560035",
        "addr:street": "Kasavanahalli Road",
        "amenity": "hospital",
        "healthcare": "hospital",
        "name": "Sparsh Clinic",
        "phone": "+91-99000 19567"
      }
    },
    {
      "type": "node",
      "id": 4440946384,
      "lat": 12.9041502,
      "lon": 77.6741043,
      "tags": {
        "addr:city": "Bangalore",
        "addr:housenumber": "9 IAS layout",
        "addr:postcode": "560035",
        "addr:street": "Lake Shore HomesRoad, Amrita college road, off sarjapur road, Kasavanahalli",
        "amenity": "hospital",
        "healthcare": "hospital",
        "name": "Raksha Orthopaedic And Multi Speciality Centre",
        "phone": "+91-74115 27777"
      }
    },
    {
      "type": "node",
      "id": 4440954583,
      "lat": 12.9067775,
      "lon": 77.6837164,
      "tags": {
        "addr:city": "Bangalore",
        "addr:postcode": "560035",
        "addr:street": "Rainbow Residency,  Junnasandra",
        "amenity": "clinic",
        "name": "Sai Clinic",
        "phone": "+91-80 6608 5255"
      }
    },
    {
      "type": "node",
      "id": 4441670838,
      "lat": 12.9121008,
      "lon": 77.6820003,
      "tags": {
        "addr:city": "Bangalore",
        "addr:housenumber": "No. 65/1, 1st Floor",
        "addr:postcode": "560035",
        "addr:street": "Doddakannelli, Sarjapur Road",
        "amenity": "hospital",
        "healthcare:speciality": "general;dermatology;clinic",
        "name": "Naadi Ayurveda Center",
        "operator": "Kotakkal Arya Vaidyashala",
        "phone": "+91-9980016089"
      }
    },
    {
      "type": "node",
      "id": 4441820056,
      "lat": 12.9055322,
      "lon": 77.6757546,
      "tags": {
        "addr:city": "Bengaluru",
        "addr:housenumber": "No.01",
        "addr:postcode": "560034",
        "addr:street": "Mathrusree Plaza, Tulsi Lyt, Kasavanahalli Main Road",
        "amenity": "dentist",
        "healthcare": "dentist",
        "name": "The Smile Kraftz Speciality Clinic",
        "phone": "+91-9738123415"
      }
    },
    {
      "type": "node",
      "id": 4441853154,
      "lat": 12.9058599,
      "lon": 77.6756805,
      "tags": {
        "addr:city": "Bengaluru",
        "addr:housenumber": "8",
        "addr:postcode": "560035",
        "addr:street": "Amruth College Main Road, Varthur Hobli, Kasavanahalli",
        "amenity": "pharmacy",
        "healthcare": "pharmacy",
        "name": "Banashankari Medicals",
        "phone": "+91-9535509099"
      }
    },
    {
      "type": "node",
      "id": 4441894194,
      "lat": 12.9079549,
      "lon": 77.6758087,
      "tags": {
        "addr:city": "Bangalore",
        "addr:housenumber": "70",
        "addr:postcode": "560034",
        "addr:street": "CSB Layout, Kasavanahalli, Sarjapur Road",
        "amenity": "pharmacy",
        "drive_through": "no",
        "healthcare": "pharmacy",
        "name": "Krishna Medical & General Stores",
        "phone": "+91-9980276727"
      }
    },
    {
      "type": "node",
      "id": 4441938603,
      "lat": 12.9122002,
      "lon": 77.6818637,
      "tags": {
        "addr:city": "bangaluru",
        "addr:housenumber": "65",
        "addr:postcode": "560035",
        "addr:street": "Sarjapur Main Rd, Kaikondrahalli",
        "amenity": "hospital",
        "name": "The Family Doctor & The Family Pharma",
        "phone": "+91-80 2574 6204",
        "website": "https://www.thefamilydoctor.co.in/"
      }
    },
    {
      "type": "node",
      "id": 4442637795,
      "lat": 12.9080736,
      "lon": 77.6758988,
      "tags": {
        "addr:city": "Bangalore",
        "addr:housenumber": "177",
        "addr:postcode": "560035",
        "addr:street": "Kasavanahalli main road, sarjapur road",
        "amenity": "clinic",
        "healthcare": "clinic",
        "name": "Alpha Clinics",
        "phone": "+91-080 4171 7070"
      }
    },
    {
      "type": "node",
      "id": 4442645351,
      "lat": 12.9001458,
      "lon": 77.6753736,
      "tags": {
        "addr:city": "Bangalore",
        "addr:postcode": "560035",
        "addr:street": "Kristal Jasper Commercial Complex, Kasavanahalli Main Road, Sarjapur Road",
        "amenity": "clinic",
        "name": "Esthetix Orthodontic and Cosmetic Dental Clinic",
        "phone": "+91-9986003860"
      }
    },
    {
      "type": "node",
      "id": 4489764690,
      "lat": 12.9130513,
      "lon": 77.6794293,
      "tags": {
        "addr:city": "Bangalore",
        "addr:housenumber": "4c",
        "addr:postcode": "560035",
        "addr:street": "Sarjapur Road",
        "name": "Studio Nine Salon And Spa",
        "opening_hours": "9:00-22:00",
        "phone": "9902907777",
        "shop": "beauty",
        "website": "www.studio9salon.in"
      }
    },
    {
      "type": "node",
      "id": 4489868917,
      "lat": 12.9084163,
      "lon": 77.6764616,
      "tags": {
        "addr:city": "Bangalore",
        "addr:housenumber": "No.108/109,",
        "addr:postcode": "560034",
        "addr:street": "HosaRoad,Kasvanahalli, Sarjapur Road,",
        "name": "Stop & Shop Supermarket",
        "phone": "80-33568467",
        "shop": "supermarket",
        "website": "https://stopandshop.com/"
      }
    },
    {
      "type": "node",
      "id": 4489919010,
      "lat": 12.9044744,
      "lon": 77.6761437,
      "tags": {
        "addr:city": "Bengaluru,",
        "addr:housenumber": "No. 58/4,",
        "addr:postcode": "560035",
        "addr:street": "G.R. Arcade, Amruta Engineering College Road, Kasavanahalli Main Road, Kasavanahalli,  Karnataka",
        "leisure": "sports_centre",
        "name": "New U Fitness",
        "phone": "090089 08080",
        "website": "newufitness.in"
      }
    },
    {
      "type": "node",
      "id": 4646727789,
      "lat": 12.9124073,
      "lon": 77.6806492,
      "tags": {
        "name": "Crystal Clean Laundry",
        "name:en": "Crystal Clean Laundry",
        "shop": "laundry"
      }
    },
    {
      "type": "node",
      "id": 4981641424,
      "lat": 12.9048267,
      "lon": 77.6759353,
      "tags": {
        "addr:city": "Bengaluru",
        "addr:housenumber": "SURVEY NO: 15/2, 15/1",
        "addr:postcode": "560035",
        "addr:street": "Central Jail Road",
        "amenity": "ice_cream",
        "name": "Polar bear",
        "outdoor_seating": "yes",
        "phone": "9986083006",
        "source": "http://www.polarbear.co.in/storelocator.html",
        "takeaway": "yes",
        "website": "https://polarbear.co.in/"
      }
    },
    {
      "type": "node",
      "id": 4993974829,
      "lat": 12.9050375,
      "lon": 77.675952,
      "tags": {
        "addr:city": "Bengaluru",
        "addr:housenumber": "166, IAS Officers Layout,",
        "addr:postcode": "560035",
        "addr:street": "Central Jail Road",
        "name": "Just Bake",
        "operator": "Just Bake",
        "phone": "8050022055",
        "shop": "bakery",
        "source": "https://www.justbake.in/bangalore/3-kasavanahalli-110",
        "website": "https://www.justbake.in/"
      }
    },
    {
      "type": "node",
      "id": 5004546590,
      "lat": 12.8996788,
      "lon": 77.6753159,
      "tags": {
        "addr:city": "Bangalore",
        "addr:housenumber": "Shell Heights, Hosa Road, Opp.Owners court, Kasavanahalli",
        "addr:postcode": "560035",
        "addr:street": "Central Jail Road",
        "brand": "Reliance Fresh",
        "brand:wikidata": "Q7311014",
        "name": "Reliance Fresh",
        "name:kn": "ರಿಲಾಯನ್ಸ್ ಫ್ರೆಶ್",
        "shop": "supermarket",
        "source": "http://www.reliancefresh.co.in/storeadd377c.php"
      }
    },
    {
      "type": "node",
      "id": 5004555635,
      "lat": 12.9047595,
      "lon": 77.6759172,
      "tags": {
        "addr:city": "Bengaluru",
        "addr:housenumber": "No-34/5, Aadeshwar Chambers, Kasavanhalli Main Road",
        "addr:postcode": "560035",
        "addr:street": "Central Jail Road",
        "amenity": "bank",
        "atm": "yes",
        "brand": "ICICI Bank",
        "brand:wikidata": "Q1653258",
        "brand:wikipedia": "en:ICICI Bank",
        "name": "ICICI Bank",
        "name:kn": "ಐಸಿಐಸಿಐ ಬ್ಯಾಂಕು",
        "short_name": "ICICI",
        "source": "http://maps.icicibank.com/mobile/"
      }
    },
    {
      "type": "node",
      "id": 5016060839,
      "lat": 12.9109725,
      "lon": 77.6764471,
      "tags": {
        "addr:city": "Bangalore",
        "addr:postcode": "560035",
        "addr:street": "Central Jail Road",
        "amenity": "bank",
        "atm": "yes",
        "brand": "Karnataka Bank",
        "brand:wikidata": "Q2042632",
        "brand:wikipedia": "en:Karnataka Bank",
        "drive_through": "no",
        "name": "Karnataka Bank",
        "name:kn": "ಕರ್ನಾಟಕ ಬ್ಯಾಂಕ್"
      }
    },
    {
      "type": "node",
      "id": 5018934517,
      "lat": 12.9074809,
      "lon": 77.6758423,
      "tags": {
        "amenity": "atm",
        "brand": "State Bank of India",
        "brand:wikidata": "Q1340361",
        "brand:wikipedia": "en:State Bank of India",
        "check_date": "2024-12-15",
        "currency:others": "yes",
        "name": "State Bank of India",
        "name:kn": "ಭಾರತೀಯ ಸ್ಟೇಟ್ ಬ್ಯಾಂಕ್",
        "operator": "State Bank of India",
        "operator:wikidata": "Q1340361",
        "operator:wikipedia": "en:State Bank of India",
        "short_name": "SBI"
      }
    },
    {
      "type": "node",
      "id": 5018934518,
      "lat": 12.9079175,
      "lon": 77.6760059,
      "tags": {
        "addr:city": "Bangalore",
        "addr:postcode": "560035",
        "addr:street": "Central Jail Road",
        "amenity": "bank",
        "atm": "yes",
        "brand": "HDFC Bank",
        "brand:wikidata": "Q631047",
        "brand:wikipedia": "en:HDFC Bank",
        "name": "HDFC Bank",
        "name:kn": "ಎಚ್ ಡಿ ಎಫ್ ಸಿ",
        "operator": "HDFC Bank",
        "short_name": "HDFC",
        "source": "https://www.hdfcbank.com/branch-atm-locator/hdfc-bank-banks-kasavanahalli-bangalore-9668/Home"
      }
    },
    {
      "type": "node",
      "id": 5018940970,
      "lat": 12.9081267,
      "lon": 77.6761051,
      "tags": {
        "addr:city": "Bangalore",
        "addr:postcode": "560035",
        "addr:street": "Central Jail Road",
        "amenity": "restaurant",
        "capacity": "50",
        "delivery": "yes",
        "name": "Amrutha multicuisine restaurant",
        "outdoor_seating": "no",
        "smoking": "no",
        "takeaway": "yes"
      }
    },
    {
      "type": "node",
      "id": 5022201026,
      "lat": 12.9082508,
      "lon": 77.6762029,
      "tags": {
        "addr:city": "Bangalore",
        "addr:housenumber": "D.NO.9/1 A ,",
        "addr:postcode": "560035",
        "addr:street": "Central Jail Road",
        "amenity": "bank",
        "atm": "yes",
        "brand": "Andhra Bank",
        "brand:wikidata": "Q2003476",
        "brand:wikipedia": "en:Andhra Bank",
        "name": "Andhra Bank",
        "name:kn": "ಆಂಧ್ರ ಬ್ಯಾಂಕ್",
        "phone": "+91-80-25746479",
        "source": "https://www.andhrabank.in/English/BranchLocator.aspx"
      }
    },
    {
      "type": "node",
      "id": 5040650648,
      "lat": 12.9080258,
      "lon": 77.6760408,
      "tags": {
        "brand": "Van Heusen",
        "brand:wikidata": "Q1132272",
        "brand:wikipedia": "en:Van Heusen",
        "clothes": "men",
        "name": "Van Heusen",
        "name:kn": "ವ್ಯಾನ್ ಹುಸೇನ್",
        "shop": "clothes"
      }
    },
    {
      "type": "node",
      "id": 5040650649,
      "lat": 12.908001,
      "lon": 77.6760502,
      "tags": {
        "addr:city": "Bangalore",
        "addr:housenumber": "First Floor, Khatha no 1403/3,",
        "addr:postcode": "560035",
        "addr:street": "Central Jail Road",
        "ele": "1",
        "name": "Naturals Salon",
        "phone": "+91-80-42015210 / 7348800281",
        "shop": "beauty",
        "source": "http://www.naturals.in/our-salons/"
      }
    },
    {
      "type": "node",
      "id": 5239910787,
      "lat": 12.9124446,
      "lon": 77.6811861,
      "tags": {
        "amenity": "atm",
        "brand": "State Bank of India",
        "brand:wikidata": "Q1340361",
        "check_date": "2022-06-30",
        "currency:INR": "yes",
        "drive_through": "no",
        "operator": "State Bank of India",
        "operator:wikidata": "Q1340361",
        "short_name": "SBI"
      }
    },
    {
      "type": "node",
      "id": 5776596059,
      "lat": 12.9121959,
      "lon": 77.6810292,
      "tags": {
        "brand": "Bata",
        "brand:wikidata": "Q688082",
        "name": "Bata",
        "name:kn": "ಬಾಟಾ",
        "payment:cash": "yes",
        "payment:credit_cards": "yes",
        "shop": "shoes"
      }
    },
    {
      "type": "node",
      "id": 5777147351,
      "lat": 12.9057347,
      "lon": 77.6841136,
      "tags": {
        "amenity": "place_of_worship",
        "fixme": "Locate the actual structure",
        "name": "Pelekamma Temple",
        "name:kn": "ಪಿಳೇಕಮ್ಮ",
        "religion": "hindu"
      }
    },
    {
      "type": "node",
      "id": 5780776745,
      "lat": 12.9064689,
      "lon": 77.6822952,
      "tags": {
        "amenity": "bench",
        "backrest": "yes"
      }
    },
    {
      "type": "node",
      "id": 5780776746,
      "lat": 12.9065787,
      "lon": 77.6822926,
      "tags": {
        "amenity": "bench",
        "backrest": "yes"
      }
    },
    {
      "type": "node",
      "id": 5780776747,
      "lat": 12.9086532,
      "lon": 77.6827693,
      "tags": {
        "amenity": "bench",
        "backrest": "yes"
      }
    },
    {
      "type": "node",
      "id": 5780776748,
      "lat": 12.9086408,
      "lon": 77.682778,
      "tags": {
        "amenity": "bench",
        "backrest": "yes"
      }
    },
    {
      "type": "node",
      "id": 5780776749,
      "lat": 12.9086382,
      "lon": 77.682766,
      "tags": {
        "amenity": "bench",
        "backrest": "yes"
      }
    },
    {
      "type": "node",
      "id": 5804561676,
      "lat": 12.9119288,
      "lon": 77.6823373,
      "tags": {
        "amenity": "restaurant",
        "brand": "California Burrito",
        "brand:wikidata": "Q124374596",
        "cuisine": "mexican",
        "name": "California Burrito"
      }
    },
    {
      "type": "node",
      "id": 5807148408,
      "lat": 12.9129311,
      "lon": 77.6796119,
      "tags": {
        "amenity": "pharmacy",
        "brand": "Apollo Pharmacy",
        "brand:wikidata": "Q62562612",
        "dispensing": "yes",
        "drive_through": "no",
        "healthcare": "pharmacy",
        "name": "Apollo Pharmacy",
        "name:kn": "ಅಪೋಲೋ ಫಾರ್ಮಸಿ"
      }
    },
    {
      "type": "node",
      "id": 5841544304,
      "lat": 12.9084093,
      "lon": 77.6836074,
      "tags": {
        "name": "Aiswarya Fresh",
        "shop": "convenience"
      }
    },
    {
      "type": "node",
      "id": 5841544305,
      "lat": 12.908506,
      "lon": 77.6836249,
      "tags": {
        "amenity": "pharmacy",
        "dispensing": "yes",
        "drive_through": "no",
        "healthcare": "pharmacy",
        "name": "Brothers Chemists"
      }
    },
    {
      "type": "node",
      "id": 5983526474,
      "lat": 12.9084069,
      "lon": 77.6837867,
      "tags": {
        "amenity": "cafe",
        "name": "Cafe 916"
      }
    },
    {
      "type": "node",
      "id": 6137587909,
      "lat": 12.9084373,
      "lon": 77.6837921,
      "tags": {
        "name": "Picket-43",
        "shop": "clothes"
      }
    },
    {
      "type": "node",
      "id": 6137599746,
      "lat": 12.9083823,
      "lon": 77.6837777,
      "tags": {
        "addr:street": "Junnasandra",
        "name": "Bangalore Horticulture",
        "shop": "greengrocer"
      }
    },
    {
      "type": "node",
      "id": 6137600493,
      "lat": 12.9083475,
      "lon": 77.6837713,
      "tags": {
        "name": "Green and Co Bakery",
        "shop": "bakery"
      }
    },
    {
      "type": "node",
      "id": 6342461468,
      "lat": 12.9088158,
      "lon": 77.684108,
      "tags": {
        "amenity": "parking_entrance"
      }
    },
    {
      "type": "node",
      "id": 6460998295,
      "lat": 12.9087815,
      "lon": 77.6837614,
      "tags": {
        "amenity": "bicycle_rental",
        "brand": "Yulu",
        "brand:wikidata": "Q104871276",
        "network": "Yulu",
        "network:wikidata": "Q104871276",
        "operator": "Yulu"
      }
    },
    {
      "type": "node",
      "id": 6749776309,
      "lat": 12.9028489,
      "lon": 77.6694198,
      "tags": {
        "access": "private",
        "amenity": "parking_entrance",
        "parking": "underground"
      }
    },
    {
      "type": "node",
      "id": 6801839054,
      "lat": 12.9069485,
      "lon": 77.6755708,
      "tags": {
        "amenity": "pharmacy",
        "dispensing": "yes",
        "healthcare": "pharmacy",
        "name": "Ramdev Medicals"
      }
    },
    {
      "type": "node",
      "id": 6801884242,
      "lat": 12.8985491,
      "lon": 77.6753954,
      "tags": {
        "name": "Just Bake",
        "shop": "bakery"
      }
    },
    {
      "type": "node",
      "id": 9459434782,
      "lat": 12.9089895,
      "lon": 77.6812944,
      "tags": {
        "amenity": "cafe",
        "name": "Cafe 35"
      }
    },
    {
      "type": "node",
      "id": 9459434783,
      "lat": 12.9089764,
      "lon": 77.6811106,
      "tags": {
        "name": "Heavenly Desserts",
        "shop": "bakery"
      }
    },
    {
      "type": "node",
      "id": 9830902329,
      "lat": 12.904414,
      "lon": 77.6760495,
      "tags": {
        "alt_name": "Kentucky Fried Chicken",
        "alt_name:en": "Kentucky Fried Chicken",
        "alt_name:hi": "केंटुकी फ्राइड चिकन",
        "alt_name:pa": "ਕੈਂਟੁਕੀ ਫ੍ਰਾਈਡ ਚਿਕਨ",
        "alt_name:pnb": "کینٹکی فرائیڈ چکن",
        "alt_name:ur": "کینٹکی فرائیڈ چکن",
        "amenity": "fast_food",
        "brand": "KFC",
        "brand:en": "KFC",
        "brand:hi": "केएफसी",
        "brand:pa": "ਕੇਐਫਸੀ",
        "brand:pnb": "کے ایف سی",
        "brand:ur": "کے ایف سی",
        "brand:wikidata": "Q524757",
        "cuisine": "chicken",
        "indoor_seating": "yes",
        "name": "KFC",
        "name:en": "KFC",
        "name:hi": "केएफसी",
        "name:pa": "ਕੇਐਫਸੀ",
        "name:pnb": "کے ایف سی",
        "name:ur": "کے ایف سی",
        "outdoor_seating": "no",
        "takeaway": "yes"
      }
    },
    {
      "type": "node",
      "id": 9830902330,
      "lat": 12.90268,
      "lon": 77.6758874,
      "tags": {
        "name": "Reliance Trends",
        "shop": "clothes"
      }
    },
    {
      "type": "node",
      "id": 9830902335,
      "lat": 12.9015659,
      "lon": 77.6758023,
      "tags": {
        "name": "Vishal Mega Mart",
        "opening_hours": "PH,Mo-Su 10:00-23:00",
        "shop": "supermarket"
      }
    },
    {
      "type": "node",
      "id": 10006378715,
      "lat": 12.9063129,
      "lon": 77.6715473,
      "tags": {
        "amenity": "parking_entrance"
      }
    },
    {
      "type": "node",
      "id": 10174066547,
      "lat": 12.908745,
      "lon": 77.6839192,
      "tags": {
        "name": "New Classic Men's Salon",
        "shop": "hairdresser"
      }
    },
    {
      "type": "node",
      "id": 10196255914,
      "lat": 12.9095202,
      "lon": 77.684369,
      "tags": {
        "amenity": "parking_entrance"
      }
    },
    {
      "type": "node",
      "id": 11016534412,
      "lat": 12.9077084,
      "lon": 77.6721872,
      "tags": {
        "amenity": "parking_entrance"
      }
    },
    {
      "type": "node",
      "id": 11220660965,
      "lat": 12.9098542,
      "lon": 77.6801876,
      "tags": {
        "amenity": "parking_entrance",
        "parking": "underground"
      }
    },
    {
      "type": "node",
      "id": 11220660969,
      "lat": 12.9091713,
      "lon": 77.6803871,
      "tags": {
        "amenity": "parking_entrance",
        "parking": "underground"
      }
    },
    {
      "type": "node",
      "id": 11371512496,
      "lat": 12.9117602,
      "lon": 77.6766993,
      "tags": {
        "check_date": "2024-10-20",
        "name": "Any Time Cakes",
        "shop": "bakery",
        "source": "survey",
        "wheelchair": "yes"
      }
    },
    {
      "type": "node",
      "id": 11371512630,
      "lat": 12.9111236,
      "lon": 77.6775281,
      "tags": {
        "access": "private",
        "amenity": "parking_entrance",
        "parking": "underground"
      }
    },
    {
      "type": "node",
      "id": 11371512631,
      "lat": 12.911108,
      "lon": 77.6768911,
      "tags": {
        "amenity": "parking_entrance",
        "parking": "underground"
      }
    },
    {
      "type": "node",
      "id": 11657341574,
      "lat": 12.899526,
      "lon": 77.6752508,
      "tags": {
        "amenity": "bar",
        "name": "Budweiser"
      }
    },
    {
      "type": "node",
      "id": 11662741917,
      "lat": 12.899519,
      "lon": 77.6752339,
      "tags": {
        "leisure": "fitness_centre",
        "name": "Body Forge",
        "phone": "07618705096",
        "sport": "fitness"
      }
    },
    {
      "type": "node",
      "id": 11662768862,
      "lat": 12.899593,
      "lon": 77.6755634,
      "tags": {
        "amenity": "restaurant",
        "cuisine": "kebab;shawarma",
        "name": "Rotana Cafe"
      }
    },
    {
      "type": "node",
      "id": 11662768863,
      "lat": 12.8991427,
      "lon": 77.6755711,
      "tags": {
        "male": "yes",
        "name": "Infinity Men's parlour",
        "shop": "hairdresser"
      }
    },
    {
      "type": "node",
      "id": 11662768864,
      "lat": 12.8993376,
      "lon": 77.6755636,
      "tags": {
        "air_conditioning": "no",
        "amenity": "restaurant",
        "cuisine": "biriyani",
        "diet:halal": "yes",
        "indoor_seating": "yes",
        "name": "Indian Dum Biriyani",
        "outdoor_seating": "no"
      }
    },
    {
      "type": "node",
      "id": 11662768865,
      "lat": 12.8998435,
      "lon": 77.675559,
      "tags": {
        "amenity": "restaurant",
        "indoor_seating": "yes",
        "name": "Ambur Dum Biriyani",
        "outdoor_seating": "no"
      }
    },
    {
      "type": "node",
      "id": 11662811567,
      "lat": 12.8985354,
      "lon": 77.6753954,
      "tags": {
        "amenity": "cafe",
        "name": "Chai Kada"
      }
    },
    {
      "type": "node",
      "id": 11662811568,
      "lat": 12.8985408,
      "lon": 77.6753792,
      "tags": {
        "amenity": "dentist",
        "healthcare": "dentist",
        "name": "Supra Dental Care"
      }
    },
    {
      "type": "node",
      "id": 11662811969,
      "lat": 12.8984117,
      "lon": 77.6753647,
      "tags": {
        "name": "Mobicom",
        "phone": "07899256949",
        "shop": "mobile_phone"
      }
    },
    {
      "type": "node",
      "id": 11664019648,
      "lat": 12.8989754,
      "lon": 77.6761562,
      "tags": {
        "amenity": "restaurant",
        "name": "Pita Pocket Factory"
      }
    },
    {
      "type": "node",
      "id": 11664019649,
      "lat": 12.8989725,
      "lon": 77.6763124,
      "tags": {
        "amenity": "dentist",
        "healthcare": "dentist",
        "name": "RCT Dental Inn"
      }
    },
    {
      "type": "node",
      "id": 11680911320,
      "lat": 12.8995858,
      "lon": 77.6782177,
      "tags": {
        "leisure": "pitch",
        "name": "Tennis Gurukul",
        "sport": "tennis"
      }
    },
    {
      "type": "node",
      "id": 11740693081,
      "lat": 12.9018889,
      "lon": 77.6760323,
      "tags": {
        "addr:city": "Bangalore",
        "addr:housenumber": "2nd floor, KPCL LAYOUT",
        "addr:postcode": "560035",
        "addr:street": "Central Jail Road",
        "female": "yes",
        "male": "yes",
        "name": "Naturals Signature",
        "operator": "Naturals",
        "shop": "hairdresser"
      }
    },
    {
      "type": "node",
      "id": 12190254272,
      "lat": 12.9084945,
      "lon": 77.6794413,
      "tags": {
        "amenity": "parking_entrance"
      }
    },
    {
      "type": "node",
      "id": 12270747464,
      "lat": 12.9128889,
      "lon": 77.6767556,
      "tags": {
        "amenity": "bank",
        "brand": "Indian Bank",
        "brand:wikidata": "Q2003789",
        "check_date": "2024-10-20",
        "name": "Indian Bank"
      }
    },
    {
      "type": "node",
      "id": 12270747465,
      "lat": 12.9129531,
      "lon": 77.6767927,
      "tags": {
        "amenity": "atm",
        "brand": "Indian Bank",
        "brand:wikidata": "Q2003789",
        "check_date": "2024-10-20",
        "operator": "Indian Bank",
        "operator:wikidata": "Q2003789"
      }
    },
    {
      "type": "node",
      "id": 12862846453,
      "lat": 12.9013282,
      "lon": 77.6757897,
      "tags": {
        "amenity": "fast_food",
        "cuisine": "burger;wings;chicken",
        "delivery": "yes",
        "name": "Big Guys: Wings & More",
        "takeaway": "yes"
      }
    },
    {
      "type": "node",
      "id": 13103135473,
      "lat": 12.9017823,
      "lon": 77.6779575,
      "tags": {
        "addr:city": "Bengaluru",
        "addr:district": "Bangalore Urban",
        "addr:housenumber": "341",
        "addr:postcode": "560035",
        "addr:street": "2nd Main Road",
        "amenity": "dentist",
        "healthcare": "dentist",
        "healthcare:speciality": "orthodontics;endodontics;dental_oral_maxillo_facial_surgery;prosthodontics;oral_surgery;oral_medecine;dentist",
        "level": "1",
        "mobile": "+917483805407",
        "name": "AlignBy Orthodontic & Multi-Speciality Clinic",
        "opening_hours": "Mo-Sa 10:30-20:30",
        "operator": "Dr Ranjitha",
        "operator:type": "business",
        "website": "https://alignby.com/"
      }
    },
    {
      "type": "node",
      "id": 13139144592,
      "lat": 12.9066242,
      "lon": 77.67635,
      "tags": {
        "access": "private",
        "amenity": "parking_entrance",
        "parking": "underground"
      }
    },
    {
      "type": "node",
      "id": 13139144743,
      "lat": 12.9006077,
      "lon": 77.6751912,
      "tags": {
        "access": "private",
        "amenity": "parking_entrance",
        "parking": "underground"
      }
    },
    {
      "type": "node",
      "id": 13139144747,
      "lat": 12.9003214,
      "lon": 77.6751463,
      "tags": {
        "access": "private",
        "amenity": "parking_entrance",
        "parking": "underground"
      }
    },
    {
      "type": "node",
      "id": 13140374195,
      "lat": 12.9036692,
      "lon": 77.6704276,
      "tags": {
        "access": "private",
        "amenity": "parking_entrance",
        "parking": "underground"
      }
    },
    {
      "type": "node",
      "id": 13140374414,
      "lat": 12.9020927,
      "lon": 77.6755413,
      "tags": {
        "access": "private",
        "amenity": "parking_entrance",
        "parking": "underground"
      }
    },
    {
      "type": "node",
      "id": 13173681439,
      "lat": 12.9003224,
      "lon": 77.6756632,
      "tags": {
        "name": "Naya",
        "shop": "confectionery"
      }
    },
    {
      "type": "way",
      "id": 130279645,
      "center": {
        "lat": 12.9068445,
        "lon": 77.6827691
      },
      "tags": {
        "access": "private",
        "leisure": "swimming_pool",
        "operator": "Rainbow Residency"
      }
    },
    {
      "type": "way",
      "id": 170583173,
      "center": {
        "lat": 12.8997614,
        "lon": 77.6845015
      },
      "tags": {
        "amenity": "clubhouse",
        "leisure": "sports_centre",
        "name": "Green Villa Club"
      }
    },
    {
      "type": "way",
      "id": 358330820,
      "center": {
        "lat": 12.911767,
        "lon": 77.6755152
      },
      "tags": {
        "access": "customers",
        "leisure": "pitch",
        "sport": "roller_skating"
      }
    },
    {
      "type": "way",
      "id": 358330822,
      "center": {
        "lat": 12.9115596,
        "lon": 77.6759224
      },
      "tags": {
        "access": "customers",
        "leisure": "pitch",
        "sport": "soccer"
      }
    },
    {
      "type": "way",
      "id": 358330826,
      "center": {
        "lat": 12.9122056,
        "lon": 77.6750524
      },
      "tags": {
        "leisure": "pitch",
        "name": "National Paintball League",
        "sport": "paintball"
      }
    },
    {
      "type": "way",
      "id": 358330829,
      "center": {
        "lat": 12.9111712,
        "lon": 77.6763976
      },
      "tags": {
        "access": "customers",
        "amenity": "parking",
        "fee": "no",
        "parking": "surface",
        "surface": "paving_stones"
      }
    },
    {
      "type": "way",
      "id": 409421949,
      "center": {
        "lat": 12.9116668,
        "lon": 77.6763986
      },
      "tags": {
        "leisure": "swimming_pool"
      }
    },
    {
      "type": "way",
      "id": 603164689,
      "center": {
        "lat": 12.906379,
        "lon": 77.6825783
      },
      "tags": {
        "amenity": "community_centre",
        "name": "Rainbow Residency Club House"
      }
    },
    {
      "type": "way",
      "id": 603174682,
      "center": {
        "lat": 12.9060272,
        "lon": 77.6824744
      },
      "tags": {
        "access": "private",
        "leisure": "playground",
        "max_age": "12",
        "min_age": "3",
        "name": "Rainbow Residency Playground",
        "playground:theme": "playground",
        "surface": "dirt"
      }
    },
    {
      "type": "way",
      "id": 609257700,
      "center": {
        "lat": 12.9060974,
        "lon": 77.6823059
      },
      "tags": {
        "access": "private",
        "leisure": "pitch",
        "lit": "yes",
        "sport": "tennis"
      }
    },
    {
      "type": "way",
      "id": 609547702,
      "center": {
        "lat": 12.9099731,
        "lon": 77.6839114
      },
      "tags": {
        "access": "private",
        "leisure": "pitch",
        "lit": "yes",
        "sport": "tennis"
      }
    },
    {
      "type": "way",
      "id": 609547704,
      "center": {
        "lat": 12.9098433,
        "lon": 77.6838693
      },
      "tags": {
        "access": "private",
        "hoops": "1",
        "leisure": "pitch",
        "lit": "yes",
        "sport": "basketball"
      }
    },
    {
      "type": "way",
      "id": 609897631,
      "center": {
        "lat": 12.9071971,
        "lon": 77.6791739
      },
      "tags": {
        "access": "private",
        "leisure": "swimming_pool"
      }
    },
    {
      "type": "way",
      "id": 609897636,
      "center": {
        "lat": 12.906796,
        "lon": 77.6764651
      },
      "tags": {
        "access": "private",
        "leisure": "swimming_pool"
      }
    },
    {
      "type": "way",
      "id": 609903148,
      "center": {
        "lat": 12.9107968,
        "lon": 77.6819841
      },
      "tags": {
        "access": "private",
        "leisure": "swimming_pool"
      }
    },
    {
      "type": "way",
      "id": 609903166,
      "center": {
        "lat": 12.9120081,
        "lon": 77.682081
      },
      "tags": {
        "amenity": "parking",
        "parking": "lane"
      }
    },
    {
      "type": "way",
      "id": 609928676,
      "center": {
        "lat": 12.911792,
        "lon": 77.6825845
      },
      "tags": {
        "amenity": "parking",
        "parking": "street_side"
      }
    },
    {
      "type": "way",
      "id": 609934582,
      "center": {
        "lat": 12.9068664,
        "lon": 77.6823931
      },
      "tags": {
        "hoops": "2",
        "leisure": "pitch",
        "lit": "no",
        "sport": "basketball",
        "surface": "ground"
      }
    },
    {
      "type": "way",
      "id": 609934583,
      "center": {
        "lat": 12.9064664,
        "lon": 77.6827251
      },
      "tags": {
        "access": "private",
        "leisure": "garden"
      }
    },
    {
      "type": "way",
      "id": 609934588,
      "center": {
        "lat": 12.908597,
        "lon": 77.6834454
      },
      "tags": {
        "amenity": "bicycle_parking",
        "bicycle_parking": "rack",
        "capacity": "10",
        "covered": "no"
      }
    },
    {
      "type": "way",
      "id": 609974385,
      "center": {
        "lat": 12.9022327,
        "lon": 77.6862629
      },
      "tags": {
        "amenity": "parking",
        "parking": "surface",
        "surface": "asphalt"
      }
    },
    {
      "type": "way",
      "id": 609986141,
      "center": {
        "lat": 12.9021856,
        "lon": 77.6869161
      },
      "tags": {
        "leisure": "pitch",
        "name": "Nimritha J Arun Kumar",
        "sport": "cricket"
      }
    },
    {
      "type": "way",
      "id": 610094122,
      "center": {
        "lat": 12.9133958,
        "lon": 77.6727771
      },
      "tags": {
        "leisure": "park",
        "name": "Kaikondrahalli Lake Park",
        "name:kn": "ಕೈಕೊಂಡ್ರಹಳ್ಳಿ ಕೆರೆ",
        "opening_hours": "Mo-Su 5:30-10:00,16:00-18:30"
      }
    },
    {
      "type": "way",
      "id": 611487121,
      "center": {
        "lat": 12.9074685,
        "lon": 77.6823366
      },
      "tags": {
        "access": "no",
        "leisure": "garden"
      }
    },
    {
      "type": "way",
      "id": 611487126,
      "center": {
        "lat": 12.9080902,
        "lon": 77.6825302
      },
      "tags": {
        "leisure": "garden"
      }
    },
    {
      "type": "way",
      "id": 611487138,
      "center": {
        "lat": 12.9089821,
        "lon": 77.6828618
      },
      "tags": {
        "access": "permissive",
        "leisure": "garden"
      }
    },
    {
      "type": "way",
      "id": 611510350,
      "center": {
        "lat": 12.9126859,
        "lon": 77.6807906
      },
      "tags": {
        "access": "customers",
        "amenity": "parking",
        "parking": "surface",
        "supervised": "no",
        "surface": "asphalt"
      }
    },
    {
      "type": "way",
      "id": 613400105,
      "center": {
        "lat": 12.9118096,
        "lon": 77.6817858
      },
      "tags": {
        "amenity": "parking",
        "parking": "street_side"
      }
    },
    {
      "type": "way",
      "id": 617989514,
      "center": {
        "lat": 12.9084545,
        "lon": 77.6836799
      },
      "tags": {
        "access": "customers",
        "amenity": "parking",
        "fee": "no",
        "parking": "surface",
        "supervised": "no",
        "surface": "paving_stones"
      }
    },
    {
      "type": "way",
      "id": 617989515,
      "center": {
        "lat": 12.9084665,
        "lon": 77.6835746
      },
      "tags": {
        "access": "customers",
        "amenity": "parking",
        "layer": "-1",
        "level": "-1",
        "parking": "underground",
        "surface": "cement"
      }
    },
    {
      "type": "way",
      "id": 627130923,
      "center": {
        "lat": 12.9055049,
        "lon": 77.6750217
      },
      "tags": {
        "leisure": "pitch",
        "lit": "yes",
        "sport": "basketball"
      }
    },
    {
      "type": "way",
      "id": 631285389,
      "center": {
        "lat": 12.9118717,
        "lon": 77.6823938
      },
      "tags": {
        "amenity": "fast_food",
        "building": "yes",
        "name": "The Milkshake Theory"
      }
    },
    {
      "type": "way",
      "id": 655045231,
      "center": {
        "lat": 12.9086483,
        "lon": 77.683903
      },
      "tags": {
        "amenity": "place_of_worship",
        "building": "yes",
        "religion": "hindu"
      }
    },
    {
      "type": "way",
      "id": 705755078,
      "center": {
        "lat": 12.896195,
        "lon": 77.6777571
      },
      "tags": {
        "leisure": "swimming_pool"
      }
    },
    {
      "type": "way",
      "id": 705855923,
      "center": {
        "lat": 12.9071293,
        "lon": 77.6770865
      },
      "tags": {
        "access": "private",
        "leisure": "swimming_pool"
      }
    },
    {
      "type": "way",
      "id": 725334740,
      "center": {
        "lat": 12.9099777,
        "lon": 77.6771238
      },
      "tags": {
        "amenity": "place_of_worship",
        "building": "yes",
        "name": "Nobert Church",
        "religion": "christian"
      }
    },
    {
      "type": "way",
      "id": 792032968,
      "center": {
        "lat": 12.9046679,
        "lon": 77.684431
      },
      "tags": {
        "alt_name": "Sri Ayyappa Swamy Temple",
        "amenity": "place_of_worship",
        "building": "yes",
        "name": "Ayyappa Temple Junnasandra",
        "name:kn": "ಅಯ್ಯಪ್ಪ ದೇವಸ್ಥಾನ ಜುನ್ನಸಂದ್ರ",
        "religion": "hindu"
      }
    },
    {
      "type": "way",
      "id": 856525625,
      "center": {
        "lat": 12.9094597,
        "lon": 77.6758634
      },
      "tags": {
        "addr:city": "Bengaluru",
        "addr:postcode": "560035",
        "addr:street": "C S B Layout, Valliyamma Layout, Kasavanahalli",
        "amenity": "place_of_worship",
        "name": "Shri Mahalingeshwara Swamy Temple",
        "religion": "hindu"
      }
    },
    {
      "type": "way",
      "id": 902970378,
      "center": {
        "lat": 12.8958024,
        "lon": 77.6789688
      },
      "tags": {
        "amenity": "school",
        "name": "Narayana CO-Kaveri Bhavan",
        "operator": "Narayana",
        "operator:type": "private",
        "phone": "1800 102 3344",
        "website": "https://narayanaschools.in"
      }
    },
    {
      "type": "way",
      "id": 902970380,
      "center": {
        "lat": 12.8958223,
        "lon": 77.6792509
      },
      "tags": {
        "leisure": "pitch",
        "sport": "basketball"
      }
    },
    {
      "type": "way",
      "id": 902970381,
      "center": {
        "lat": 12.8957321,
        "lon": 77.6791209
      },
      "tags": {
        "leisure": "pitch",
        "sport": "tennis"
      }
    },
    {
      "type": "way",
      "id": 907621380,
      "center": {
        "lat": 12.8977399,
        "lon": 77.6847952
      },
      "tags": {
        "amenity": "school",
        "name": "Glentree Academy"
      }
    },
    {
      "type": "way",
      "id": 907621385,
      "center": {
        "lat": 12.8972738,
        "lon": 77.6833476
      },
      "tags": {
        "amenity": "school",
        "name": "Government School"
      }
    },
    {
      "type": "way",
      "id": 922840254,
      "center": {
        "lat": 12.8960717,
        "lon": 77.6726794
      },
      "tags": {
        "amenity": "school",
        "name": "Amatra Academy"
      }
    },
    {
      "type": "way",
      "id": 1025994398,
      "center": {
        "lat": 12.9090058,
        "lon": 77.6813466
      },
      "tags": {
        "amenity": "arts_centre",
        "building": "yes",
        "name": "Kala Graham"
      }
    },
    {
      "type": "way",
      "id": 1065395456,
      "center": {
        "lat": 12.9042849,
        "lon": 77.675782
      },
      "tags": {
        "amenity": "pub",
        "building": "yes",
        "cuisine": "north_indian;spanish",
        "diet:non-vegetarian": "yes",
        "diet:vegetarian": "yes",
        "microbrewery": "yes",
        "name": "La Casa",
        "name:kn": "ಲಾ ಕಾಸಾ",
        "smoking": "isolated",
        "source": "microsoft/BuildingFootprints"
      }
    },
    {
      "type": "way",
      "id": 1070818619,
      "center": {
        "lat": 12.9115844,
        "lon": 77.677239
      },
      "tags": {
        "covered": "no",
        "leisure": "swimming_pool",
        "sport": "swimming"
      }
    },
    {
      "type": "way",
      "id": 1070970723,
      "center": {
        "lat": 12.9046396,
        "lon": 77.6761288
      },
      "tags": {
        "building": "yes",
        "name": "Aishwarya Value Mart",
        "shop": "convenience"
      }
    },
    {
      "type": "way",
      "id": 1071257248,
      "center": {
        "lat": 12.9124863,
        "lon": 77.6765573
      },
      "tags": {
        "amenity": "hospital",
        "healthcare": "hospital",
        "name": "BN Specialty Hospital"
      }
    },
    {
      "type": "way",
      "id": 1112087818,
      "center": {
        "lat": 12.9108522,
        "lon": 77.6832428
      },
      "tags": {
        "amenity": "fuel",
        "brand": "Shell",
        "brand:wikidata": "Q110716465",
        "compressed_air": "yes",
        "landuse": "commercial",
        "name": "Shell",
        "name:kn": "ಶೆಲ್",
        "wheelchair": "yes"
      }
    },
    {
      "type": "way",
      "id": 1114800454,
      "center": {
        "lat": 12.9093523,
        "lon": 77.6845282
      },
      "tags": {
        "leisure": "swimming_pool"
      }
    },
    {
      "type": "way",
      "id": 1186042582,
      "center": {
        "lat": 12.9121529,
        "lon": 77.6800172
      },
      "tags": {
        "access": "private",
        "leisure": "pitch"
      }
    },
    {
      "type": "way",
      "id": 1186042584,
      "center": {
        "lat": 12.9123285,
        "lon": 77.6804343
      },
      "tags": {
        "amenity": "parking"
      }
    },
    {
      "type": "way",
      "id": 1186050624,
      "center": {
        "lat": 12.9087564,
        "lon": 77.6703466
      },
      "tags": {
        "access": "private",
        "leisure": "swimming_pool",
        "location": "outdoor",
        "swimming_pool": "outdoor"
      }
    },
    {
      "type": "way",
      "id": 1186050627,
      "center": {
        "lat": 12.9063346,
        "lon": 77.6710662
      },
      "tags": {
        "access": "private",
        "leisure": "pitch",
        "sport": "basketball"
      }
    },
    {
      "type": "way",
      "id": 1186050630,
      "center": {
        "lat": 12.9071542,
        "lon": 77.6729049
      },
      "tags": {
        "access": "private",
        "leisure": "pitch",
        "sport": "tennis"
      }
    },
    {
      "type": "way",
      "id": 1186361827,
      "center": {
        "lat": 12.9105591,
        "lon": 77.6750275
      },
      "tags": {
        "leisure": "pitch",
        "sport": "soccer"
      }
    },
    {
      "type": "way",
      "id": 1186361828,
      "center": {
        "lat": 12.9111449,
        "lon": 77.6753823
      },
      "tags": {
        "leisure": "pitch"
      }
    },
    {
      "type": "way",
      "id": 1186361836,
      "center": {
        "lat": 12.9104132,
        "lon": 77.67621
      },
      "tags": {
        "leisure": "swimming_pool"
      }
    },
    {
      "type": "way",
      "id": 1211056435,
      "center": {
        "lat": 12.909476,
        "lon": 77.6807678
      },
      "tags": {
        "amenity": "parking",
        "parking": "street_side"
      }
    },
    {
      "type": "way",
      "id": 1226234878,
      "center": {
        "lat": 12.9116083,
        "lon": 77.6748999
      },
      "tags": {
        "access": "customers",
        "amenity": "parking",
        "fee": "no",
        "parking": "surface",
        "surface": "ground"
      }
    },
    {
      "type": "way",
      "id": 1254114731,
      "center": {
        "lat": 12.8990834,
        "lon": 77.6751555
      },
      "tags": {
        "brand": "Max",
        "brand:wikidata": "Q24939079",
        "building": "yes",
        "clothes": "men;women;children",
        "name": "Max",
        "operator": "Max",
        "shop": "clothes"
      }
    },
    {
      "type": "way",
      "id": 1256466794,
      "center": {
        "lat": 12.899699,
        "lon": 77.678446
      },
      "tags": {
        "leisure": "pitch",
        "name": "Tennis Gurukul",
        "sport": "tennis"
      }
    },
    {
      "type": "way",
      "id": 1256466795,
      "center": {
        "lat": 12.9000363,
        "lon": 77.67849
      },
      "tags": {
        "leisure": "pitch",
        "name": "Tennis Gurukul",
        "sport": "tennis"
      }
    },
    {
      "type": "way",
      "id": 1270617935,
      "center": {
        "lat": 12.9079256,
        "lon": 77.671176
      },
      "tags": {
        "leisure": "sports_centre"
      }
    },
    {
      "type": "way",
      "id": 1270617936,
      "center": {
        "lat": 12.9066207,
        "lon": 77.67077
      },
      "tags": {
        "leisure": "park"
      }
    },
    {
      "type": "way",
      "id": 1285046617,
      "center": {
        "lat": 12.9074553,
        "lon": 77.671538
      },
      "tags": {
        "access": "permissive",
        "amenity": "parking",
        "parking": "street_side"
      }
    },
    {
      "type": "way",
      "id": 1285046619,
      "center": {
        "lat": 12.9061246,
        "lon": 77.6709598
      },
      "tags": {
        "leisure": "playground"
      }
    },
    {
      "type": "way",
      "id": 1285046624,
      "center": {
        "lat": 12.9076428,
        "lon": 77.6713405
      },
      "tags": {
        "leisure": "pitch"
      }
    },
    {
      "type": "way",
      "id": 1285046625,
      "center": {
        "lat": 12.9080602,
        "lon": 77.6714556
      },
      "tags": {
        "leisure": "playground"
      }
    },
    {
      "type": "way",
      "id": 1285046626,
      "center": {
        "lat": 12.9080235,
        "lon": 77.671628
      },
      "tags": {
        "leisure": "pitch",
        "sport": "basketball"
      }
    },
    {
      "type": "way",
      "id": 1285046629,
      "center": {
        "lat": 12.9082419,
        "lon": 77.6701661
      },
      "tags": {
        "leisure": "park"
      }
    },
    {
      "type": "way",
      "id": 1285046630,
      "center": {
        "lat": 12.9078602,
        "lon": 77.6696945
      },
      "tags": {
        "access": "permissive",
        "amenity": "parking",
        "parking": "surface"
      }
    },
    {
      "type": "way",
      "id": 1285046633,
      "center": {
        "lat": 12.9091131,
        "lon": 77.6705127
      },
      "tags": {
        "access": "permissive",
        "amenity": "parking",
        "parking": "surface"
      }
    },
    {
      "type": "way",
      "id": 1285046635,
      "center": {
        "lat": 12.9085056,
        "lon": 77.669517
      },
      "tags": {
        "leisure": "park"
      }
    },
    {
      "type": "way",
      "id": 1312726768,
      "center": {
        "lat": 12.8981117,
        "lon": 77.6713276
      },
      "tags": {
        "leisure": "park",
        "name": "Janaki Ammal Park",
        "name:etymology:wikidata": "Q4794782",
        "name:etymology:wikipedia": "en:Janaki Ammal"
      }
    },
    {
      "type": "way",
      "id": 1312726770,
      "center": {
        "lat": 12.8986659,
        "lon": 77.6714073
      },
      "tags": {
        "access": "private",
        "leisure": "swimming_pool"
      }
    },
    {
      "type": "way",
      "id": 1318181935,
      "center": {
        "lat": 12.9120282,
        "lon": 77.6757853
      },
      "tags": {
        "leisure": "sports_centre",
        "name": "Play Arena Go Karting",
        "sport": "karting"
      }
    },
    {
      "type": "way",
      "id": 1363260016,
      "center": {
        "lat": 12.9065711,
        "lon": 77.6780519
      },
      "tags": {
        "access": "private",
        "leisure": "pitch",
        "sport": "tennis"
      }
    },
    {
      "type": "way",
      "id": 1363265481,
      "center": {
        "lat": 12.9072072,
        "lon": 77.6717255
      },
      "tags": {
        "access": "private",
        "amenity": "parking",
        "parking": "surface"
      }
    },
    {
      "type": "way",
      "id": 1363512459,
      "center": {
        "lat": 12.8955025,
        "lon": 77.6796803
      },
      "tags": {
        "addr:city": "Bangalore",
        "addr:postcode": "560035",
        "addr:street": "15th Main Road",
        "amenity": "school",
        "name": "Narayana",
        "roof:colour": "#f8f7f7"
      }
    },
    {
      "type": "way",
      "id": 1363512461,
      "center": {
        "lat": 12.8954126,
        "lon": 77.6798388
      },
      "tags": {
        "leisure": "pitch",
        "sport": "basketball"
      }
    },
    {
      "type": "way",
      "id": 1363512462,
      "center": {
        "lat": 12.8954628,
        "lon": 77.6797301
      },
      "tags": {
        "leisure": "pitch",
        "sport": "volleyball"
      }
    },
    {
      "type": "way",
      "id": 1420117184,
      "center": {
        "lat": 12.8957568,
        "lon": 77.6740463
      },
      "tags": {
        "amenity": "college",
        "name": "Karnataka Reddyjana Sangha Medical College"
      }
    },
    {
      "type": "way",
      "id": 1422822846,
      "center": {
        "lat": 12.9001784,
        "lon": 77.6744207
      },
      "tags": {
        "access": "private",
        "leisure": "swimming_pool"
      }
    },
    {
      "type": "way",
      "id": 1422822847,
      "center": {
        "lat": 12.9010893,
        "lon": 77.674632
      },
      "tags": {
        "access": "private",
        "leisure": "swimming_pool"
      }
    },
    {
      "type": "way",
      "id": 1422822894,
      "center": {
        "lat": 12.9026051,
        "lon": 77.6753184
      },
      "tags": {
        "access": "private",
        "leisure": "swimming_pool"
      }
    },
    {
      "type": "way",
      "id": 1422822895,
      "center": {
        "lat": 12.9030836,
        "lon": 77.6756448
      },
      "tags": {
        "leisure": "pitch",
        "sport": "tennis"
      }
    },
    {
      "type": "way",
      "id": 1428921175,
      "center": {
        "lat": 12.9115017,
        "lon": 77.6786791
      },
      "tags": {
        "access": "private",
        "leisure": "swimming_pool"
      }
    },
    {
      "type": "way",
      "id": 1428921257,
      "center": {
        "lat": 12.9112251,
        "lon": 77.6749862
      },
      "tags": {
        "access": "private",
        "leisure": "swimming_pool"
      }
    },
    {
      "type": "way",
      "id": 1428921277,
      "center": {
        "lat": 12.9113998,
        "lon": 77.6772492
      },
      "tags": {
        "access": "private",
        "leisure": "playground"
      }
    },
    {
      "type": "way",
      "id": 1428978959,
      "center": {
        "lat": 12.9027376,
        "lon": 77.6863022
      },
      "tags": {
        "access": "customers",
        "leisure": "pitch",
        "sport": "soccer"
      }
    },
    {
      "type": "way",
      "id": 1429153347,
      "center": {
        "lat": 12.8971376,
        "lon": 77.677667
      },
      "tags": {
        "access": "private",
        "leisure": "swimming_pool"
      }
    },
    {
      "type": "way",
      "id": 1429319223,
      "center": {
        "lat": 12.9074392,
        "lon": 77.6805789
      },
      "tags": {
        "access": "private",
        "leisure": "playground"
      }
    },
    {
      "type": "way",
      "id": 1429319224,
      "center": {
        "lat": 12.9074005,
        "lon": 77.680692
      },
      "tags": {
        "access": "private",
        "leisure": "swimming_pool"
      }
    },
    {
      "type": "way",
      "id": 1429319246,
      "center": {
        "lat": 12.9076246,
        "lon": 77.6793948
      },
      "tags": {
        "access": "private",
        "leisure": "playground"
      }
    },
    {
      "type": "way",
      "id": 1429319292,
      "center": {
        "lat": 12.9064979,
        "lon": 77.6796449
      },
      "tags": {
        "access": "private",
        "leisure": "pitch",
        "sport": "basketball"
      }
    },
    {
      "type": "way",
      "id": 1429319293,
      "center": {
        "lat": 12.9065474,
        "lon": 77.6794268
      },
      "tags": {
        "access": "private",
        "leisure": "swimming_pool"
      }
    },
    {
      "type": "way",
      "id": 1429319295,
      "center": {
        "lat": 12.9064675,
        "lon": 77.6778027
      },
      "tags": {
        "access": "private",
        "leisure": "playground"
      }
    },
    {
      "type": "way",
      "id": 1429319297,
      "center": {
        "lat": 12.9066502,
        "lon": 77.6764575
      },
      "tags": {
        "access": "private",
        "leisure": "playground"
      }
    },
    {
      "type": "way",
      "id": 1429319304,
      "center": {
        "lat": 12.9057706,
        "lon": 77.6751095
      },
      "tags": {
        "leisure": "pitch",
        "sport": "soccer"
      }
    },
    {
      "type": "way",
      "id": 1429319305,
      "center": {
        "lat": 12.9063196,
        "lon": 77.67498
      },
      "tags": {
        "access": "private",
        "leisure": "swimming_pool"
      }
    },
    {
      "type": "way",
      "id": 1429319310,
      "center": {
        "lat": 12.9025574,
        "lon": 77.6755309
      },
      "tags": {
        "access": "private",
        "leisure": "playground"
      }
    },
    {
      "type": "way",
      "id": 1429319316,
      "center": {
        "lat": 12.9004992,
        "lon": 77.674835
      },
      "tags": {
        "access": "private",
        "leisure": "swimming_pool"
      }
    },
    {
      "type": "way",
      "id": 1429319320,
      "center": {
        "lat": 12.9006628,
        "lon": 77.6747232
      },
      "tags": {
        "access": "private",
        "leisure": "playground"
      }
    },
    {
      "type": "way",
      "id": 1429442334,
      "center": {
        "lat": 12.9081573,
        "lon": 77.6767701
      },
      "tags": {
        "access": "private",
        "leisure": "swimming_pool"
      }
    },
    {
      "type": "way",
      "id": 1429442344,
      "center": {
        "lat": 12.9095063,
        "lon": 77.6749539
      },
      "tags": {
        "access": "private",
        "leisure": "swimming_pool"
      }
    },
    {
      "type": "way",
      "id": 1429442345,
      "center": {
        "lat": 12.9091939,
        "lon": 77.674108
      },
      "tags": {
        "access": "private",
        "leisure": "park"
      }
    },
    {
      "type": "way",
      "id": 1429442388,
      "center": {
        "lat": 12.9104466,
        "lon": 77.6761254
      },
      "tags": {
        "access": "private",
        "leisure": "playground"
      }
    },
    {
      "type": "way",
      "id": 1429442389,
      "center": {
        "lat": 12.9112861,
        "lon": 77.6784126
      },
      "tags": {
        "access": "private",
        "leisure": "playground"
      }
    },
    {
      "type": "way",
      "id": 1429442391,
      "center": {
        "lat": 12.9112851,
        "lon": 77.6817968
      },
      "tags": {
        "access": "private",
        "leisure": "playground"
      }
    },
    {
      "type": "way",
      "id": 1429442392,
      "center": {
        "lat": 12.9116197,
        "lon": 77.6812762
      },
      "tags": {
        "access": "private",
        "leisure": "pitch",
        "sport": "basketball"
      }
    },
    {
      "type": "way",
      "id": 1429442393,
      "center": {
        "lat": 12.9117173,
        "lon": 77.681324
      },
      "tags": {
        "access": "private",
        "leisure": "pitch",
        "sport": "tennis"
      }
    },
    {
      "type": "way",
      "id": 1429442426,
      "center": {
        "lat": 12.9090593,
        "lon": 77.6802084
      },
      "tags": {
        "access": "private",
        "leisure": "playground"
      }
    },
    {
      "type": "way",
      "id": 1429442429,
      "center": {
        "lat": 12.9084874,
        "lon": 77.6788513
      },
      "tags": {
        "access": "private",
        "leisure": "swimming_pool"
      }
    },
    {
      "type": "way",
      "id": 1429442441,
      "center": {
        "lat": 12.9030494,
        "lon": 77.6696942
      },
      "tags": {
        "access": "private",
        "leisure": "playground"
      }
    },
    {
      "type": "way",
      "id": 1429442443,
      "center": {
        "lat": 12.9033449,
        "lon": 77.6698198
      },
      "tags": {
        "access": "private",
        "leisure": "pitch",
        "sport": "tennis"
      }
    },
    {
      "type": "way",
      "id": 1429442444,
      "center": {
        "lat": 12.9028566,
        "lon": 77.6695816
      },
      "tags": {
        "access": "private",
        "leisure": "swimming_pool"
      }
    },
    {
      "type": "way",
      "id": 1429442448,
      "center": {
        "lat": 12.902244,
        "lon": 77.6694952
      },
      "tags": {
        "access": "private",
        "amenity": "theatre",
        "theatre:type": "amphi"
      }
    },
    {
      "type": "way",
      "id": 1429442450,
      "center": {
        "lat": 12.9016982,
        "lon": 77.670861
      },
      "tags": {
        "access": "private",
        "leisure": "swimming_pool"
      }
    },
    {
      "type": "way",
      "id": 1429442459,
      "center": {
        "lat": 12.9024358,
        "lon": 77.6752241
      },
      "tags": {
        "leisure": "garden"
      }
    },
    {
      "type": "way",
      "id": 1429442460,
      "center": {
        "lat": 12.9025348,
        "lon": 77.675326
      },
      "tags": {
        "access": "private",
        "leisure": "park"
      }
    },
    {
      "type": "way",
      "id": 1429442461,
      "center": {
        "lat": 12.9024151,
        "lon": 77.674885
      },
      "tags": {
        "access": "private",
        "leisure": "pitch",
        "sport": "cricket_nets"
      }
    },
    {
      "type": "way",
      "id": 1429442473,
      "center": {
        "lat": 12.9006686,
        "lon": 77.6757951
      },
      "tags": {
        "access": "customers",
        "amenity": "parking",
        "parking": "surface"
      }
    },
    {
      "type": "way",
      "id": 1433363981,
      "center": {
        "lat": 12.9005656,
        "lon": 77.6757868
      },
      "tags": {
        "amenity": "hospital",
        "healthcare": "hospital",
        "name": "Aarogya Hastha Hospital"
      }
    }
  ]
}