{
  "area_name": "Krishnadevaraya ward",
  "osm_id": 19883439,
  "osm_type": "relation",
  "place_type": "administrative",
  "amenity_count": 21,
  "amenities": [
    {
      "type": "node",
      "id": 1778947641,
      "lat": 12.9645291,
      "lon": 77.5387819,
      "tags": {
        "amenity": "place_of_worship",
        "name": "Ganesha Temple (RPC Layout)",
        "name:kn": "ಗಣೇಶ ದೇವಸ್ಥಾನ",
        "religion": "hindu"
      }
    },
    {
      "type": "node",
      "id": 2914229342,
      "lat": 12.9651023,
      "lon": 77.5380182,
      "tags": {
        "addr:city": "Bangalore",
        "addr:postcode": "560040",
        "amenity": "post_office",
        "name": "Hampi Nagar Post Office",
        "operator": "India Post",
        "operator:wikidata": "Q3519720"
      }
    },
    {
      "type": "node",
      "id": 2914384312,
      "lat": 12.9642991,
      "lon": 77.5406633,
      "tags": {
        "addr:city": "Bangalore",
        "addr:postcode": "560040",
        "addr:street": "vijayanagar",
        "name": "Butter Sponge",
        "shop": "bakery"
      }
    },
    {
      "type": "node",
      "id": 4101094994,
      "lat": 12.9574368,
      "lon": 77.5418657,
      "tags": {
        "addr:street": "Mysore Road",
        "amenity": "place_of_worship",
        "building": "mosque",
        "name": "Masjid e Hira",
        "name:kn": "ಮಸ್ಜಿದ್-ಎ-ಹೀರ",
        "religion": "muslim"
      }
    },
    {
      "type": "node",
      "id": 4446374048,
      "lat": 12.9643262,
      "lon": 77.5404059,
      "tags": {
        "addr:city": "Bangalore",
        "addr:housenumber": "15",
        "addr:postcode": "560040",
        "addr:street": "5th Main Road Rpc Layout, Vijayanagar",
        "amenity": "restaurant",
        "cuisine": "regional",
        "name": "Sai Prasadam",
        "opening_hours": "10:00-22:00",
        "phone": "80-23200916"
      }
    },
    {
      "type": "node",
      "id": 4533766192,
      "lat": 12.964348,
      "lon": 77.5402052,
      "tags": {
        "amenity": "atm",
        "brand": "State Bank of India",
        "brand:wikidata": "Q1340361",
        "name": "State Bank of India",
        "operator": "State Bank of India",
        "operator:wikidata": "Q1340361",
        "short_name": "SBI"
      }
    },
    {
      "type": "node",
      "id": 5342668560,
      "lat": 12.9651565,
      "lon": 77.5379718,
      "tags": {
        "amenity": "atm",
        "brand": "India Post Payments Bank",
        "brand:en": "India Post Payments Bank",
        "brand:hi": "भारतीय डाक भुगतान बैंक",
        "brand:wikidata": "Q2003302",
        "name": "India Post Payments Bank",
        "name:en": "India Post Payments Bank",
        "name:hi": "भारतीय डाक भुगतान बैंक",
        "operator": "India Post Payments Bank",
        "operator:wikidata": "Q2003302"
      }
    },
    {
      "type": "node",
      "id": 5412441733,
      "lat": 12.9635234,
      "lon": 77.5378026,
      "tags": {
        "amenity": "toilets"
      }
    },
    {
      "type": "node",
      "id": 6209428549,
      "lat": 12.9585898,
      "lon": 77.5392625,
      "tags": {
        "amenity": "restaurant",
        "name": "New Sagar Hotel"
      }
    },
    {
      "type": "node",
      "id": 6209440473,
      "lat": 12.9592702,
      "lon": 77.539807,
      "tags": {
        "amenity": "place_of_worship",
        "name": "Devi Maramma",
        "religion": "hindu"
      }
    },
    {
      "type": "node",
      "id": 6209457584,
      "lat": 12.9615935,
      "lon": 77.5403059,
      "tags": {
        "amenity": "fast_food",
        "name": "condiments"
      }
    },
    {
      "type": "node",
      "id": 11922269794,
      "lat": 12.9651237,
      "lon": 77.5378104,
      "tags": {
        "amenity": "dentist",
        "check_date": "2024-05-21",
        "healthcare": "dentist",
        "name": "Harish Dental Clinic"
      }
    },
    {
      "type": "node",
      "id": 11922269802,
      "lat": 12.9646622,
      "lon": 77.5392138,
      "tags": {
        "amenity": "atm",
        "brand": "Karnataka Bank",
        "brand:wikidata": "Q2042632",
        "check_date": "2024-05-21",
        "operator": "Karnataka Bank",
        "operator:wikidata": "Q2042632"
      }
    },
    {
      "type": "way",
      "id": 54147956,
      "center": {
        "lat": 12.9646102,
        "lon": 77.5387904
      },
      "tags": {
        "amenity": "place_of_worship",
        "building": "yes",
        "name": "Sankashta Hara Ganapati Temple",
        "name:kn": "ಸಂಕಷ್ಟ ಹರ ಗಣಪತಿ ದೇವಸ್ಥಾನ",
        "religion": "hindu"
      }
    },
    {
      "type": "way",
      "id": 54148046,
      "center": {
        "lat": 12.9647097,
        "lon": 77.5383618
      },
      "tags": {
        "addr:city": "Bangalore",
        "addr:postcode": "560040",
        "addr:street": "5th Main Vijaynagar",
        "leisure": "playground"
      }
    },
    {
      "type": "way",
      "id": 1227284662,
      "center": {
        "lat": 12.9553668,
        "lon": 77.5402629
      },
      "tags": {
        "addr:housenumber": "2A",
        "addr:street": "2nd Main Road",
        "addr:unit": "2",
        "building": "residential",
        "building:levels": "1",
        "check_date": "2025-01-18",
        "name": "Sri Sai Enterprises",
        "shop": "copyshop"
      }
    },
    {
      "type": "way",
      "id": 1227284856,
      "center": {
        "lat": 12.9551125,
        "lon": 77.5403067
      },
      "tags": {
        "amenity": "place_of_worship",
        "building": "yes",
        "name": "Ganesha Ayyappa Swamy Temple",
        "name:kn": "ಗಣೇಶ ಅಯ್ಯಪ್ಪ ಸ್ವಾಮಿ ದೇವಸ್ಥಾನ",
        "religion": "hindu"
      }
    },
    {
      "type": "way",
      "id": 1238631225,
      "center": {
        "lat": 12.9606449,
        "lon": 77.5408253
      },
      "tags": {
        "amenity": "police",
        "name": "Vijayanagara Traffic Police Station",
        "name:kn": "ವಿಜಯನಗರ ಸಂಚಾರ ಆರಕ್ಷಕ ಠಾಣೆ"
      }
    },
    {
      "type": "way",
      "id": 1238631229,
      "center": {
        "lat": 12.961117,
        "lon": 77.5409245
      },
      "tags": {
        "leisure": "sports_centre",
        "name": "Hampinagar Sports Club"
      }
    },
    {
      "type": "way",
      "id": 1283097923,
      "center": {
        "lat": 12.9599035,
        "lon": 77.5406171
      },
      "tags": {
        "addr:city": "Bengaluru",
        "addr:postcode": "560104",
        "addr:street": "Railway Parallel Rd, Chowdappa Layout, RPC Layout, Bapuji Nagar",
        "amenity": "place_of_worship",
        "building": "yes",
        "name": "Shri Bhuneela Venkateshwara Swami Temple",
        "religion": "hindu"
      }
    },
    {
      "type": "way",
      "id": 1283097924,
      "center": {
        "lat": 12.9587754,
        "lon": 77.5396655
      },
      "tags": {
        "addr:city": "Bengaluru",
        "addr:postcode": "560104",
        "addr:street": "Railway Parallel Rd, Chowdappa Layout, Vijaya Nagar II Stage",
        "amenity": "place_of_worship",
        "building": "yes",
        "internet_access": "no",
        "name": "Sri Siddhivinayak Temple",
        "network": "IR",
        "operator": "SWR",
        "public_transport": "halt",
        "ref": "KNDV",
        "religion": "hindu",
        "train": "yes"
      }
    }
  ]
}