{
  "area_name": "Kumara Park West",
  "osm_id": 10253179995,
  "osm_type": "node",
  "place_type": "neighbourhood",
  "amenity_count": 540,
  "amenities": [
    {
      "type": "node",
      "id": 456029893,
      "lat": 12.9955258,
      "lon": 77.5717703,
      "tags": {
        "amenity": "restaurant",
        "name": "Hallimane",
        "name:kn": "ಹಳ್ಳಿಮನೆ"
      }
    },
    {
      "type": "node",
      "id": 456039716,
      "lat": 12.9931208,
      "lon": 77.5710734,
      "tags": {
        "addr:street": "Sampige Road",
        "amenity": "cinema",
        "name": "Sampige Theatre",
        "name:kn": "ಸಂಪಿಗೆ"
      }
    },
    {
      "type": "node",
      "id": 577020540,
      "lat": 12.9901236,
      "lon": 77.5722985,
      "tags": {
        "amenity": "restaurant",
        "name": "Vishnu Sagar",
        "name:kn": "ವಿಷ್ಣು ಸಾಗರ"
      }
    },
    {
      "type": "node",
      "id": 577020638,
      "lat": 12.9898878,
      "lon": 77.5726957,
      "tags": {
        "amenity": "bar",
        "name": "Sangeeth Bar and Restaurant"
      }
    },
    {
      "type": "node",
      "id": 577026690,
      "lat": 12.9940976,
      "lon": 77.571267,
      "tags": {
        "addr:street": "Sampige Road",
        "amenity": "atm",
        "brand": "ICICI Bank",
        "brand:wikidata": "Q1653258",
        "name": "ICICI Bank",
        "name:kn": "ಐಸಿಐಸಿಐ",
        "operator": "ICICI Bank",
        "operator:wikidata": "Q1653258",
        "short_name": "ICICI"
      }
    },
    {
      "type": "node",
      "id": 577027598,
      "lat": 12.9933312,
      "lon": 77.57187,
      "tags": {
        "addr:street": "Sampige Road",
        "amenity": "bank",
        "atm": "yes",
        "brand": "Corporation Bank",
        "brand:wikidata": "Q2003387",
        "brand:wikipedia": "en:Corporation Bank",
        "name": "Corporation Bank",
        "name:en": "Corporation Bank",
        "name:kn": "ಕಾರ್ಪರೇಷನ್ ಬ್ಯಾಂಕ್",
        "website": "https://corpbank.com/"
      }
    },
    {
      "type": "node",
      "id": 577028441,
      "lat": 12.9953279,
      "lon": 77.5712934,
      "tags": {
        "addr:street": "Sampige Road",
        "amenity": "fast_food",
        "name": "Kolkata Chaat"
      }
    },
    {
      "type": "node",
      "id": 650621057,
      "lat": 12.994359,
      "lon": 77.5711764,
      "tags": {
        "addr:street": "Sampige Road",
        "amenity": "restaurant",
        "name": "Rasa",
        "name:kn": "ರಸ"
      }
    },
    {
      "type": "node",
      "id": 663604676,
      "lat": 12.9857544,
      "lon": 77.570503,
      "tags": {
        "amenity": "place_of_worship",
        "name:kn": "ಚರ್ಚ್",
        "religion": "christian",
        "ups_other": "church"
      }
    },
    {
      "type": "node",
      "id": 663604681,
      "lat": 12.9862367,
      "lon": 77.5707724,
      "tags": {
        "amenity": "community_centre",
        "name": "Dr.b R Ambedkar Samudaya Bavan(bbmp)",
        "ups_community": "community_centre"
      }
    },
    {
      "type": "node",
      "id": 663604682,
      "lat": 12.9861118,
      "lon": 77.570748,
      "tags": {
        "amenity": "community_centre",
        "name": "Youth welfare association",
        "ups_community": "youth club"
      }
    },
    {
      "type": "node",
      "id": 663604683,
      "lat": 12.9863991,
      "lon": 77.5707542,
      "tags": {
        "amenity": "place_of_worship",
        "religion": "christian",
        "ups_other": "church"
      }
    },
    {
      "type": "node",
      "id": 663604685,
      "lat": 12.9884301,
      "lon": 77.5713911,
      "tags": {
        "amenity": "place_of_worship",
        "name": "Mariyamma temple",
        "name:kn": "ಮಾರಿಯಮ್ಮ ದೇವಸ್ಥಾನ",
        "religion": "hindu",
        "ups_other": "temple"
      }
    },
    {
      "type": "node",
      "id": 663604686,
      "lat": 12.9885784,
      "lon": 77.5705925,
      "tags": {
        "name": "sri lakshmi venkteshwara flower decoraters",
        "shop": "garden_centre",
        "ups_other": "shop"
      }
    },
    {
      "type": "node",
      "id": 663604690,
      "lat": 12.9887069,
      "lon": 77.5708345,
      "tags": {
        "amenity": "place_of_worship",
        "name": "Temple",
        "religion": "hindu",
        "ups_other": "temple"
      }
    },
    {
      "type": "node",
      "id": 663604691,
      "lat": 12.9895905,
      "lon": 77.5708543,
      "tags": {
        "amenity": "place_of_worship",
        "name": "Sri Jada Muneshwara Swamy Temple",
        "religion": "hindu",
        "ups_other": "temple"
      }
    },
    {
      "type": "node",
      "id": 663604692,
      "lat": 12.9908918,
      "lon": 77.5696342,
      "tags": {
        "amenity": "place_of_worship",
        "name": "Muttumariyamma temple",
        "name:kn": "ಮುತ್ತುಮಾರಿಯಮ್ಮ ದೇವಸ್ಥಾನ",
        "religion": "hindu",
        "ups_other": "temple"
      }
    },
    {
      "type": "node",
      "id": 663604700,
      "lat": 12.9921317,
      "lon": 77.569768,
      "tags": {
        "amenity": "place_of_worship",
        "name": "Om Sakthi Temple",
        "name:kn": "ಓಂ ಶಕ್ತಿ ದೇವಸ್ಥಾನ",
        "religion": "hindu",
        "ups_other": "temple"
      }
    },
    {
      "type": "node",
      "id": 663604701,
      "lat": 12.9919371,
      "lon": 77.5696913,
      "tags": {
        "amenity": "toilets",
        "name": "Public Toilet",
        "name:kn": "ಸಾರ್ವಜನಿಕ ಶೌಚಾಲಯ",
        "ups_other": "toilet"
      }
    },
    {
      "type": "node",
      "id": 673377213,
      "lat": 12.9853914,
      "lon": 77.5795059,
      "tags": {
        "amenity": "restaurant",
        "cuisine": "indian",
        "name": "Sana Di Ge",
        "name:kn": "ಸನ ದಿ ಗೆ"
      }
    },
    {
      "type": "node",
      "id": 1006462338,
      "lat": 12.985247,
      "lon": 77.5803846,
      "tags": {
        "addr:city": "Bangalore",
        "addr:housenumber": "31/32",
        "addr:postcode": "560001",
        "addr:street": "Crescent Rd,Nehru Nagar,Gandhi Nagar",
        "amenity": "hospital",
        "name": "Mallige Medical Centre",
        "phone": "080 2220 3333",
        "website": "https://www.mallige.com/"
      }
    },
    {
      "type": "node",
      "id": 1026508950,
      "lat": 12.9881279,
      "lon": 77.5744324,
      "tags": {
        "amenity": "police",
        "check_date": "2024-03-02",
        "name": "Seshadripuram Police Station",
        "name:kn": "ಶೇಶಾದ್ರಿಪುರಮ್ ಆರಕ್ಷಕ ಠಾಣೆ",
        "wheelchair": "no"
      }
    },
    {
      "type": "node",
      "id": 1101607728,
      "lat": 12.9856254,
      "lon": 77.5788885,
      "tags": {
        "addr:street": "Kumara Krupa Road",
        "amenity": "restaurant",
        "check_date": "2024-12-22",
        "name": "Hotel Janardhana",
        "name:kn": "ಜನಾರ್ಧನ್"
      }
    },
    {
      "type": "node",
      "id": 1101617173,
      "lat": 12.9910826,
      "lon": 77.5789046,
      "tags": {
        "amenity": "school",
        "name": "Gandhi Nagar High School",
        "name:kn": "ಗಾಂಧಿನಗರ ಪೌಡಶಾಲೆ"
      }
    },
    {
      "type": "node",
      "id": 1101622501,
      "lat": 12.9988604,
      "lon": 77.5817424,
      "tags": {
        "amenity": "hospital",
        "name": "Government Maternity Hospital",
        "name:kn": "ಸರಕಾರಿ ಹೆರಿಗೆ ಆಸ್ಪತ್ರೆ"
      }
    },
    {
      "type": "node",
      "id": 1116484556,
      "lat": 12.9853569,
      "lon": 77.5792692,
      "tags": {
        "addr:housenumber": "32/3",
        "addr:street": "Crescent Road",
        "amenity": "restaurant",
        "cuisine": "indian",
        "fax": "+91-80-41138488",
        "name": "Kabab Studio",
        "name:kn": "ಕಬಾಬ್ ಸ್ಟುಡಿಯೊ",
        "phone": "+91-80-41291300",
        "website": "https://www.goldfinchhotels.com/"
      }
    },
    {
      "type": "node",
      "id": 1459879075,
      "lat": 12.9971262,
      "lon": 77.5715091,
      "tags": {
        "addr:city": "Malleswaram, Bangalore",
        "addr:street": "5th Cross",
        "amenity": "clinic",
        "healthcare": "clinic",
        "name": "The Apollo Clinic"
      }
    },
    {
      "type": "node",
      "id": 1474820319,
      "lat": 12.9966873,
      "lon": 77.5723319,
      "tags": {
        "amenity": "fast_food",
        "brand": "Domino's",
        "brand:ks": "ڈومینوز",
        "brand:pa": "ਡੋਮੀਨੋਜ਼",
        "brand:ur": "ڈومینوز",
        "brand:wikidata": "Q839466",
        "brand:wikipedia": "en:Domino's Pizza",
        "cuisine": "pizza",
        "name": "Domino's",
        "name:kn": "ಡಾಮಿನೋಸ್",
        "name:ks": "ڈومینوز",
        "name:pa": "ਡੋਮੀਨੋਜ਼",
        "name:ur": "ڈومینوز",
        "takeaway": "yes"
      }
    },
    {
      "type": "node",
      "id": 1474820320,
      "lat": 12.9950177,
      "lon": 77.5716418,
      "tags": {
        "amenity": "bank",
        "brand": "State Bank of India",
        "brand:wikidata": "Q1340361",
        "brand:wikipedia": "en:State Bank of India",
        "name": "State Bank of India",
        "name:kn": "ಭಾರತೀಯ ಸ್ಟೇಟ್ ಬ್ಯಾಂಕ್",
        "short_name": "SBI",
        "website": "https://www.sbi.co.in"
      }
    },
    {
      "type": "node",
      "id": 1474820321,
      "lat": 12.9970915,
      "lon": 77.5719766,
      "tags": {
        "amenity": "hospital",
        "healthcare": "hospital",
        "name": "Baptist"
      }
    },
    {
      "type": "node",
      "id": 1474820322,
      "lat": 12.9970758,
      "lon": 77.5721536,
      "tags": {
        "amenity": "clinic",
        "healthcare": "clinic",
        "name": "Supra's Diagnostic Centre"
      }
    },
    {
      "type": "node",
      "id": 1614268180,
      "lat": 12.9873383,
      "lon": 77.5805314,
      "tags": {
        "amenity": "school",
        "name": "Bharat Seva Dal",
        "name:kn": "ಭಾರತ ಸೇವಾದಳ",
        "wheelchair": "no"
      }
    },
    {
      "type": "node",
      "id": 1614268185,
      "lat": 12.9869904,
      "lon": 77.5786112,
      "tags": {
        "amenity": "bank",
        "atm": "yes",
        "brand": "Canara Bank",
        "brand:en": "Canara Bank",
        "brand:hi": "केनरा बैंक",
        "brand:kn": "ಕೆನರಾ ಬ್ಯಾಂಕ್",
        "brand:pa": "ਕੇਨਰਾ ਬੈਂਕ",
        "brand:pnb": "کینرا بینک",
        "brand:ur": "کینرا بینک",
        "brand:wikidata": "Q2003777",
        "brand:wikipedia": "en:Canara Bank",
        "brand:wikipedia:pa": "ਕੇਨਰਾ ਬੈਂਕ",
        "name": "Canara Bank",
        "name:en": "Canara Bank",
        "name:hi": "केनरा बैंक",
        "name:kn": "ಕೆನರಾ ಬ್ಯಾಂಕ್",
        "name:pa": "ਕੇਨਰਾ ਬੈਂਕ",
        "name:pnb": "کینرا بینک",
        "name:ur": "کینرا بینک",
        "website": "https://www.canarabank.com/",
        "wheelchair": "no"
      }
    },
    {
      "type": "node",
      "id": 1614268190,
      "lat": 12.9876512,
      "lon": 77.5799188,
      "tags": {
        "amenity": "bank",
        "atm": "yes",
        "brand": "ICICI Bank",
        "brand:wikidata": "Q1653258",
        "name": "ICICI Bank",
        "name:en": "ICICI Bank",
        "name:kn": "ಐಸಿಐಸಿಐ ಬ್ಯಾಂಕು",
        "short_name": "ICICI",
        "website": "https://www.icicibank.com",
        "wheelchair": "no"
      }
    },
    {
      "type": "node",
      "id": 1614268192,
      "lat": 12.9868232,
      "lon": 77.5800176,
      "tags": {
        "amenity": "restaurant",
        "name": "Richie-Rich",
        "name:kn": "ರಿಚೀ-ರಿಚ್"
      }
    },
    {
      "type": "node",
      "id": 1614268199,
      "lat": 12.9867564,
      "lon": 77.5795592,
      "tags": {
        "addr:housename": "Shivananda General Stores Complex",
        "addr:street": "Kumarakripa East",
        "name": "Shivananda Stores",
        "shop": "convenience"
      }
    },
    {
      "type": "node",
      "id": 1614366545,
      "lat": 12.9885341,
      "lon": 77.5770137,
      "tags": {
        "amenity": "cafe",
        "brand": "Cafe Coffee Day",
        "brand:wikidata": "Q5017235",
        "cuisine": "coffee_shop",
        "name": "Cafe Coffee Day",
        "name:kn": "ಕಫೆ ಕಾಫಿ ಡೇ",
        "takeaway": "yes",
        "website": "https://www.cafecoffeeday.com/",
        "wheelchair": "no"
      }
    },
    {
      "type": "node",
      "id": 1614366547,
      "lat": 12.9883033,
      "lon": 77.5774436,
      "tags": {
        "amenity": "fuel",
        "brand": "Bharat Petroleum",
        "brand:wikidata": "Q854826",
        "name": "Bharat Petroleum",
        "name:kn": "ಭಾರತ್ ಪೆಟ್ರೋಲಿಯಂ",
        "wheelchair": "yes"
      }
    },
    {
      "type": "node",
      "id": 1614366548,
      "lat": 12.9879409,
      "lon": 77.5768491,
      "tags": {
        "amenity": "atm",
        "brand": "Citibank",
        "brand:wikidata": "Q857063",
        "name": "Citibank",
        "operator": "Citibank",
        "operator:wikidata": "Q857063",
        "short_name": "Citi",
        "wheelchair": "no"
      }
    },
    {
      "type": "node",
      "id": 1617398438,
      "lat": 12.9909647,
      "lon": 77.5748146,
      "tags": {
        "amenity": "bank",
        "atm": "yes",
        "brand": "Canara Bank",
        "brand:en": "Canara Bank",
        "brand:hi": "केनरा बैंक",
        "brand:kn": "ಕೆನರಾ ಬ್ಯಾಂಕ್",
        "brand:pa": "ਕੇਨਰਾ ਬੈਂਕ",
        "brand:pnb": "کینرا بینک",
        "brand:ur": "کینرا بینک",
        "brand:wikidata": "Q2003777",
        "brand:wikipedia": "en:Canara Bank",
        "brand:wikipedia:pa": "ਕੇਨਰਾ ਬੈਂਕ",
        "name": "Canara Bank",
        "name:en": "Canara Bank",
        "name:hi": "केनरा बैंक",
        "name:kn": "ಕೆನರಾ ಬ್ಯಾಂಕ್",
        "name:pa": "ਕੇਨਰਾ ਬੈਂਕ",
        "name:pnb": "کینرا بینک",
        "name:ur": "کینرا بینک",
        "website": "https://www.canarabank.com/"
      }
    },
    {
      "type": "node",
      "id": 1617398443,
      "lat": 12.9859821,
      "lon": 77.5767419,
      "tags": {
        "amenity": "place_of_worship",
        "name": "Jain Temple",
        "name:kn": "ಜೈನ ದೇವಸ್ಥಾನ",
        "religion": "jain",
        "wheelchair": "no"
      }
    },
    {
      "type": "node",
      "id": 1617398466,
      "lat": 12.9928414,
      "lon": 77.5753482,
      "tags": {
        "amenity": "social_facility",
        "name": "Lakshmi Nursing Home",
        "social_facility": "nursing_home",
        "social_facility:for": "senior"
      }
    },
    {
      "type": "node",
      "id": 1617398469,
      "lat": 12.9926441,
      "lon": 77.5742046,
      "tags": {
        "addr:city": "bangalore",
        "addr:district": "Bengaluru Urban",
        "addr:full": "No.67,Link Road,Sheshadripuram",
        "addr:housenumber": "67",
        "addr:postcode": "560020",
        "addr:state": "Karnataka",
        "addr:street": "Link Rd, Malleswaram, Jai Bheema Nagar, Seshadripuram",
        "amenity": "hospital",
        "healthcare": "hospital",
        "name": "Sri Maruthi hospital, Sheshadripuram",
        "phone": "080 2344 9632",
        "source": "OpenGovernmentData"
      }
    },
    {
      "type": "node",
      "id": 1617398472,
      "lat": 12.9877001,
      "lon": 77.5782687,
      "tags": {
        "amenity": "restaurant",
        "name": "Park-n-Eat",
        "name:kn": "ಪಾರ್ಕ್-ಎನ್-ಈಟ್",
        "wheelchair": "no"
      }
    },
    {
      "type": "node",
      "id": 1617398477,
      "lat": 12.9865401,
      "lon": 77.5772559,
      "tags": {
        "amenity": "college",
        "name": "Yadava College",
        "name:kn": "ಯಾದವ ಕಾಲೇಜು",
        "wheelchair": "no"
      }
    },
    {
      "type": "node",
      "id": 1737985671,
      "lat": 12.987094,
      "lon": 77.5784442,
      "tags": {
        "amenity": "fast_food",
        "diet:vegetarian": "only",
        "name": "Bangalore Cafe"
      }
    },
    {
      "type": "node",
      "id": 2025970826,
      "lat": 12.9866761,
      "lon": 77.5796529,
      "tags": {
        "addr:housename": "Shivananada General Stores Complex",
        "addr:street": "Kumarakripa East",
        "name": "Sangam Sweets",
        "shop": "confectionery"
      }
    },
    {
      "type": "node",
      "id": 2025970848,
      "lat": 12.9867912,
      "lon": 77.5794891,
      "tags": {
        "addr:housename": "Shivananda Stores Complex",
        "addr:street": "Kumarakripa East",
        "amenity": "restaurant",
        "cuisine": "indian",
        "name": "Coastal Express"
      }
    },
    {
      "type": "node",
      "id": 2026069825,
      "lat": 12.9884699,
      "lon": 77.5769743,
      "tags": {
        "amenity": "ice_cream",
        "brand": "Corner House",
        "delivery": "yes",
        "name": "Corner House",
        "shop": "confectionery",
        "takeaway": "yes"
      }
    },
    {
      "type": "node",
      "id": 2186146149,
      "lat": 12.9920336,
      "lon": 77.5763265,
      "tags": {
        "amenity": "place_of_worship",
        "religion": "hindu"
      }
    },
    {
      "type": "node",
      "id": 2247460568,
      "lat": 12.9971687,
      "lon": 77.5805055,
      "tags": {
        "amenity": "fast_food",
        "check_date": "2024-06-15",
        "name": "Prashanth Grand"
      }
    },
    {
      "type": "node",
      "id": 2319451104,
      "lat": 12.9909704,
      "lon": 77.571384,
      "tags": {
        "amenity": "parking",
        "layer": "-1",
        "parking": "underground"
      }
    },
    {
      "type": "node",
      "id": 2467854906,
      "lat": 12.9873459,
      "lon": 77.5723926,
      "tags": {
        "amenity": "fuel",
        "name": "Vijees Auto Gas"
      }
    },
    {
      "type": "node",
      "id": 2468465645,
      "lat": 12.9921952,
      "lon": 77.5754609,
      "tags": {
        "amenity": "bank",
        "atm": "yes"
      }
    },
    {
      "type": "node",
      "id": 2468465646,
      "lat": 12.9893245,
      "lon": 77.5740161,
      "tags": {
        "amenity": "place_of_worship",
        "name": "Sri Rama Temple",
        "name:kn": "ಶ್ರೀ ರಾಮ ದೇವಸ್ಥಾನ",
        "religion": "hindu"
      }
    },
    {
      "type": "node",
      "id": 2502691757,
      "lat": 12.9984083,
      "lon": 77.5823672,
      "tags": {
        "amenity": "place_of_worship",
        "name": "Shri Anjaneya Swamy Temple",
        "name:kn": "ಅಂಜನೇಯ ಸ್ವಾಮಿ ದೇವಸ್ಥಾನ",
        "religion": "hindu"
      }
    },
    {
      "type": "node",
      "id": 3198615159,
      "lat": 12.9887808,
      "lon": 77.5756802,
      "tags": {
        "name": "Archies",
        "shop": "gift"
      }
    },
    {
      "type": "node",
      "id": 3198615160,
      "lat": 12.9896328,
      "lon": 77.5751613,
      "tags": {
        "amenity": "place_of_worship",
        "denomination": "vaishnavism",
        "name": "Hanuman Temple",
        "name:kn": "ಹನುಮಂತ ದೇವಸ್ಥಾನ",
        "religion": "hindu"
      }
    },
    {
      "type": "node",
      "id": 3198616661,
      "lat": 12.98415,
      "lon": 77.5781517,
      "tags": {
        "amenity": "restaurant",
        "cuisine": "regional",
        "name": "Hotel Sanman"
      }
    },
    {
      "type": "node",
      "id": 3280224336,
      "lat": 12.9962972,
      "lon": 77.5719247,
      "tags": {
        "name": "Sri Mukambika",
        "shop": "bakery",
        "wheelchair": "no"
      }
    },
    {
      "type": "node",
      "id": 3371785036,
      "lat": 12.9891614,
      "lon": 77.5722338,
      "tags": {
        "amenity": "restaurant",
        "diet:vegetarian": "yes",
        "name": "Swathi"
      }
    },
    {
      "type": "node",
      "id": 3371785038,
      "lat": 12.9897351,
      "lon": 77.5720458,
      "tags": {
        "amenity": "atm",
        "brand": "State Bank of India",
        "brand:wikidata": "Q1340361",
        "name": "State Bank of India",
        "operator": "State Bank of India",
        "operator:wikidata": "Q1340361",
        "short_name": "SBI"
      }
    },
    {
      "type": "node",
      "id": 3371785040,
      "lat": 12.9896751,
      "lon": 77.5720525,
      "tags": {
        "amenity": "fast_food",
        "diet:vegetarian": "only",
        "name": "Ganesh Veg"
      }
    },
    {
      "type": "node",
      "id": 3400223540,
      "lat": 12.9873814,
      "lon": 77.5723908,
      "tags": {
        "name": "Vignesh Men's Parlour",
        "shop": "salon"
      }
    },
    {
      "type": "node",
      "id": 3525270784,
      "lat": 12.9916712,
      "lon": 77.5712761,
      "tags": {
        "addr:city": "Bengaluru",
        "addr:postcode": "560003",
        "addr:street": "Sampige Road",
        "air_conditioning": "yes",
        "amenity": "atm",
        "brand": "Citibank",
        "brand:wikidata": "Q857063",
        "name": "Citibank",
        "name:kn": "ಸಿಟಿಬ್ಯಾಂಕ್",
        "operator": "Citibank",
        "operator:wikidata": "Q857063",
        "short_name": "Citi"
      }
    },
    {
      "type": "node",
      "id": 3549082715,
      "lat": 12.9878361,
      "lon": 77.574957,
      "tags": {
        "amenity": "place_of_worship",
        "name": "Sri Krishna Devasthana",
        "name:kn": "ಕೃಷ್ಣ ದೇವಸ್ಥಾನ",
        "religion": "hindu"
      }
    },
    {
      "type": "node",
      "id": 3549082716,
      "lat": 12.9877862,
      "lon": 77.5744684,
      "tags": {
        "amenity": "place_of_worship",
        "check_date": "2024-03-02",
        "name": "Kashi Vishwanatha Temple",
        "name:kn": "ಕಾಶಿ ವಿಶ್ವನಾಥ ದೇವಸ್ಥಾನ",
        "religion": "hindu"
      }
    },
    {
      "type": "node",
      "id": 3549831014,
      "lat": 12.9862102,
      "lon": 77.5741379,
      "tags": {
        "amenity": "restaurant",
        "cuisine": "regional",
        "name": "Bhavani Tiffin Center",
        "opening_hours": "13:00-15:00"
      }
    },
    {
      "type": "node",
      "id": 3664774524,
      "lat": 12.991965,
      "lon": 77.5710415,
      "tags": {
        "addr:city": "Bengaluru",
        "addr:postcode": "560003",
        "addr:street": "Sampige Road",
        "air_conditioning": "yes",
        "leisure": "sports_centre",
        "name": "Amoeba",
        "name:kn": "ಅಮೇಬ",
        "sport": "9pin"
      }
    },
    {
      "type": "node",
      "id": 3664774925,
      "lat": 12.9920489,
      "lon": 77.5706285,
      "tags": {
        "addr:city": "Bengaluru",
        "addr:postcode": "560003",
        "addr:street": "Sampige Road",
        "air_conditioning": "yes",
        "amenity": "cinema",
        "brand": "INOX Leisure",
        "brand:wikidata": "Q5972349",
        "name": "INOX Malleshwaram - Mantri Square",
        "short_name": "INOX"
      }
    },
    {
      "type": "node",
      "id": 3664774926,
      "lat": 12.9921796,
      "lon": 77.5705158,
      "tags": {
        "addr:city": "Bengaluru",
        "addr:postcode": "560003",
        "addr:street": "Sampige Road",
        "air_conditioning": "yes",
        "amenity": "fast_food",
        "cuisine": "ice_cream",
        "name": "Swenson's"
      }
    },
    {
      "type": "node",
      "id": 3674560887,
      "lat": 12.9913252,
      "lon": 77.5713263,
      "tags": {
        "addr:city": "Bengaluru",
        "addr:postcode": "560003",
        "addr:street": "Sampige Road",
        "air_conditioning": "yes",
        "amenity": "atm"
      }
    },
    {
      "type": "node",
      "id": 3806281886,
      "lat": 12.9875847,
      "lon": 77.573008,
      "tags": {
        "amenity": "place_of_worship",
        "religion": "hindu"
      }
    },
    {
      "type": "node",
      "id": 3806281887,
      "lat": 12.9876025,
      "lon": 77.5736105,
      "tags": {
        "amenity": "cafe",
        "name": "Sri Manjunatha Condiments"
      }
    },
    {
      "type": "node",
      "id": 3971246020,
      "lat": 12.9942736,
      "lon": 77.5715823,
      "tags": {
        "addr:street": "Sampige Road",
        "amenity": "restaurant",
        "name": "Al Bek",
        "phone": "08023461077"
      }
    },
    {
      "type": "node",
      "id": 4167273405,
      "lat": 12.9875457,
      "lon": 77.573633,
      "tags": {
        "name": "Capital hair dressers",
        "shop": "hairdresser"
      }
    },
    {
      "type": "node",
      "id": 4430492477,
      "lat": 12.9939183,
      "lon": 77.5854854,
      "tags": {
        "amenity": "restaurant",
        "cuisine": "indian",
        "name": "Royal Afghan"
      }
    },
    {
      "type": "node",
      "id": 4444125315,
      "lat": 12.9972964,
      "lon": 77.5718337,
      "tags": {
        "addr:city": "Malleswaram, Bangalore",
        "addr:housenumber": "59",
        "addr:postcode": "560003",
        "addr:street": "3rd Temple Road",
        "amenity": "restaurant",
        "cuisine": "indian",
        "name": "New Fishland",
        "opening_hours": "11:30-23:00",
        "phone": "+91 8553464945",
        "takeaway": "yes"
      }
    },
    {
      "type": "node",
      "id": 4444460861,
      "lat": 12.9919067,
      "lon": 77.5705078,
      "tags": {
        "addr:city": "Bengaluru",
        "addr:housenumber": "UG 67 & 69",
        "addr:postcode": "560003",
        "addr:street": "Sampige Road",
        "air_conditioning": "yes",
        "brand": "Allen Solly",
        "brand:wikidata": "Q110036995",
        "level": "0",
        "name": "Allen Solly",
        "name:kn": "ಅಲೆನ್ ಸೊಲಿ",
        "opening_hours": "09:00 - 22:00",
        "phone": "080 22667550",
        "shop": "clothes",
        "website": "https://www.allensolly.com/"
      }
    },
    {
      "type": "node",
      "id": 4444783186,
      "lat": 12.9917884,
      "lon": 77.5702636,
      "tags": {
        "addr:city": "Bengaluru",
        "addr:housenumber": "65 & 66",
        "addr:postcode": "560003",
        "addr:street": "Sampige Road",
        "air_conditioning": "yes",
        "level": "2",
        "name": "Baboosh",
        "opening_hours": "10:30 - 22:00",
        "phone": "+(91)-80-22667038",
        "shop": "clothes",
        "website": "http://www.baboosh.co.in/"
      }
    },
    {
      "type": "node",
      "id": 4445089801,
      "lat": 12.9916897,
      "lon": 77.5711243,
      "tags": {
        "addr:city": "Bengaluru",
        "addr:housenumber": "F 78",
        "addr:postcode": "560003",
        "addr:street": "Sampige Road",
        "air_conditioning": "yes",
        "level": "1",
        "name": "Cocopelee",
        "opening_hours": "10:45-20:30",
        "phone": "+91 80 2266 7250",
        "shop": "clothes",
        "website": "http://www.cocopelee.com/"
      }
    },
    {
      "type": "node",
      "id": 4445106810,
      "lat": 12.9914885,
      "lon": 77.5711733,
      "tags": {
        "addr:city": "Bengaluru",
        "addr:housenumber": "F 56",
        "addr:postcode": "560003",
        "addr:street": "Sampige Road",
        "air_conditioning": "yes",
        "level": "1",
        "name": "AND",
        "opening_hours": "11:00-21:30",
        "phone": "+919538899789",
        "shop": "clothes",
        "website": "http://andindia.anitadongre.com/"
      }
    },
    {
      "type": "node",
      "id": 4445114857,
      "lat": 12.9915734,
      "lon": 77.5705023,
      "tags": {
        "addr:city": "Bengaluru",
        "addr:housenumber": "LG-34",
        "addr:postcode": "560003",
        "addr:street": "Sampige Road",
        "air_conditioning": "yes",
        "brand": "Nike",
        "brand:wikidata": "Q483915",
        "brand:wikipedia": "en:Nike, Inc.",
        "name": "Nike",
        "name:kn": "ನೈಕ್",
        "opening_hours": "10:00-21:30",
        "phone": "8030160034",
        "shop": "clothes",
        "website": "www.nike.ssiplgroup.com"
      }
    },
    {
      "type": "node",
      "id": 4445124814,
      "lat": 12.9914832,
      "lon": 77.5710526,
      "tags": {
        "addr:city": "Bengaluru",
        "addr:housenumber": "F 15",
        "addr:postcode": "560003",
        "addr:street": "Sampige Road",
        "air_conditioning": "yes",
        "brand": "Columbia",
        "brand:wikidata": "Q1112588",
        "clothes": "outdoor",
        "level": "1",
        "name": "Columbia",
        "official_name": "Columbia Sportswear",
        "opening_hours": "11:00 - 23:00",
        "phone": "+080 -22667014",
        "shop": "clothes",
        "website": "https://www.columbiasportswear.co.in"
      }
    },
    {
      "type": "node",
      "id": 4445133451,
      "lat": 12.9918688,
      "lon": 77.5705197,
      "tags": {
        "addr:city": "Bengaluru",
        "addr:housenumber": "LG-34",
        "addr:postcode": "560003",
        "addr:street": "Sampige Road",
        "air_conditioning": "yes",
        "brand": "Fila",
        "brand:wikidata": "Q482539",
        "name": "Fila",
        "opening_hours": "10:00-22:00",
        "phone": "+918022667474",
        "shop": "clothes"
      }
    },
    {
      "type": "node",
      "id": 4445151604,
      "lat": 12.9916949,
      "lon": 77.5710365,
      "tags": {
        "addr:city": "Bengaluru",
        "addr:housenumber": "77",
        "addr:postcode": "560003",
        "addr:street": "Sampige Road",
        "air_conditioning": "yes",
        "brand": "Celio",
        "brand:wikidata": "Q2672003",
        "brand:wikipedia": "en:Celio (retailer)",
        "level": "-1",
        "name": "Celio",
        "opening_hours": "11:00 - 22:00",
        "phone": "+(91)-8022667018",
        "shop": "clothes",
        "website": "https://www.celio.in/"
      }
    },
    {
      "type": "node",
      "id": 4445152582,
      "lat": 12.9914309,
      "lon": 77.5705668,
      "tags": {
        "addr:city": "Bengaluru",
        "addr:housenumber": "LG-34",
        "addr:postcode": "560003",
        "addr:street": "Sampige Road",
        "air_conditioning": "yes",
        "brand": "Adidas",
        "brand:wikidata": "Q3895",
        "brand:wikipedia": "en:Adidas",
        "name": "Adidas",
        "name:kn": "ಅಡಿಡಾಸ್",
        "opening_hours": "10:00-21:00",
        "phone": "+918030160034",
        "shop": "sports",
        "website": "https://shop.adidas.co.in/"
      }
    },
    {
      "type": "node",
      "id": 4445164588,
      "lat": 12.9918152,
      "lon": 77.570602,
      "tags": {
        "addr:city": "Bengaluru",
        "addr:housenumber": "F-71",
        "addr:postcode": "560003",
        "addr:street": "Sampige Road",
        "air_conditioning": "yes",
        "level": "1",
        "name": "Cotton world",
        "opening_hours": "10:30 -21:00",
        "phone": "080-22667030 / 31",
        "shop": "clothes",
        "website": "https://cottonworld.net"
      }
    },
    {
      "type": "node",
      "id": 4445192526,
      "lat": 12.999009,
      "lon": 77.5797442,
      "tags": {
        "addr:city": "Bangalore",
        "addr:postcode": "560003",
        "addr:street": "Palace Guttahalli Main Road, No 21 And 22, 2nd Main Road",
        "amenity": "clinic",
        "name": "Bilva Hospital",
        "name:kn": "ಬಿಲ್ವಾ ಆಸ್ಪತ್ರೆ",
        "phone": "+9198444 56346"
      }
    },
    {
      "type": "node",
      "id": 4445266794,
      "lat": 12.9916983,
      "lon": 77.5711798,
      "tags": {
        "addr:city": "Bengaluru",
        "addr:housenumber": "SF 49",
        "addr:postcode": "560003",
        "addr:street": "Sampige Road",
        "air_conditioning": "yes",
        "level": "2",
        "name": "Enamor",
        "opening_hours": "10:30 - 21:00",
        "phone": "080 - 22667433",
        "shop": "clothes",
        "website": "https://enamor.co.in/"
      }
    },
    {
      "type": "node",
      "id": 4445291701,
      "lat": 12.9914701,
      "lon": 77.5706442,
      "tags": {
        "addr:city": "Bengaluru",
        "addr:housenumber": "S-14 & 15",
        "addr:postcode": "560003",
        "addr:street": "Sampige Road",
        "air_conditioning": "yes",
        "brand": "Fabindia",
        "brand:wikidata": "Q5427779",
        "clothes": "women;men",
        "level": "2",
        "name": "Fabindia",
        "name:kn": "ಫಾಬ್ ಇಂಡಿಯ",
        "opening_hours": "10:30 - 21:30",
        "organic": "yes",
        "payment:cash": "yes",
        "payment:debit_cards": "yes",
        "phone": "+91-8088933981",
        "shop": "clothes",
        "website": "https://www.fabindia.com/"
      }
    },
    {
      "type": "node",
      "id": 4445334102,
      "lat": 12.9916022,
      "lon": 77.570586,
      "tags": {
        "addr:city": "Bengaluru",
        "addr:housenumber": "58 & 59",
        "addr:postcode": "560003",
        "addr:street": "Sampige Road",
        "air_conditioning": "yes",
        "level": "1,2",
        "name": "Favourite Shop",
        "opening_hours": "10:30 - 21:30",
        "phone": "+(91)-80-22667042",
        "shop": "clothes",
        "website": "www.favouriteshop.biz"
      }
    },
    {
      "type": "node",
      "id": 4445366547,
      "lat": 12.9917024,
      "lon": 77.5703066,
      "tags": {
        "addr:city": "Bengaluru",
        "addr:housenumber": "LG-34",
        "addr:postcode": "560003",
        "addr:street": "Sampige Road",
        "air_conditioning": "yes",
        "brand": "Puma",
        "brand:wikidata": "Q157064",
        "brand:wikipedia": "en:Puma (brand)",
        "name": "Puma",
        "name:kn": "ಪೂಮ",
        "opening_hours": "09:30 -22:00",
        "phone": "+918030160040",
        "shop": "clothes",
        "website": "www.in.puma.com"
      }
    },
    {
      "type": "node",
      "id": 4445376790,
      "lat": 12.9920289,
      "lon": 77.5712576,
      "tags": {
        "addr:city": "Bengaluru",
        "addr:housenumber": "33 & 34",
        "addr:postcode": "560003",
        "addr:street": "Sampige Road",
        "air_conditioning": "yes",
        "level": "1",
        "name": "Fazals",
        "opening_hours": "10:30 - 21:30",
        "phone": "+(91)-80-30160100",
        "shop": "clothes",
        "website": "https://fazalandsons.com/"
      }
    },
    {
      "type": "node",
      "id": 4445391057,
      "lat": 12.991776,
      "lon": 77.5702127,
      "tags": {
        "addr:city": "Bengaluru",
        "addr:housenumber": "LG-34",
        "addr:postcode": "560003",
        "addr:street": "Sampige Road",
        "air_conditioning": "yes",
        "name": "Planet Sports;Jayant Probikes and Fitness",
        "opening_hours": "10:30-21:00; 10:00-20:30",
        "phone": "+918030160199;+919845401350",
        "shop": "sports;bicycle",
        "website": "https://www.firefoxbikes.com/"
      }
    },
    {
      "type": "node",
      "id": 4445396522,
      "lat": 12.9914706,
      "lon": 77.5707615,
      "tags": {
        "addr:city": "Bengaluru",
        "addr:housenumber": "F 67",
        "addr:postcode": "560003",
        "addr:street": "Sampige Road",
        "air_conditioning": "yes",
        "level": "1",
        "name": "Fusion Beats",
        "opening_hours": "10:00 - 21:30",
        "phone": "+(91)-80-30160109",
        "shop": "clothes",
        "website": "https://fusionbeats.in/"
      }
    },
    {
      "type": "node",
      "id": 4445397516,
      "lat": 12.9951627,
      "lon": 77.5738144,
      "tags": {
        "addr:city": "Bangalore",
        "addr:district": "Bengaluru Urban",
        "addr:full": "No: 2, Sirur Park Road (Behind Natraja Theatre) Seshadripuram",
        "addr:housenumber": "191/1",
        "addr:postcode": "560020",
        "addr:state": "Karnataka",
        "addr:street": ", 2nd cross, Link Road, Malleswaram",
        "amenity": "hospital",
        "name": "Dr Solankis Eye Hospital",
        "phone": "080 2356 2211",
        "source": "OpenGovernmentData"
      }
    },
    {
      "type": "node",
      "id": 4445401477,
      "lat": 12.9918207,
      "lon": 77.5705006,
      "tags": {
        "addr:city": "Bengaluru",
        "addr:housenumber": "LG-34",
        "addr:postcode": "560003",
        "addr:street": "Sampige Road",
        "air_conditioning": "yes",
        "name": "Proline",
        "opening_hours": "10:00-21:00",
        "phone": "+918022667256",
        "shop": "clothes",
        "website": "https://www.prolineindia.com/"
      }
    },
    {
      "type": "node",
      "id": 4445421552,
      "lat": 12.9915868,
      "lon": 77.5703571,
      "tags": {
        "addr:city": "Bengaluru",
        "addr:housenumber": "LG-34",
        "addr:postcode": "560003",
        "addr:street": "Sampige Road",
        "air_conditioning": "yes",
        "name": "Rebook",
        "opening_hours": "10:30-21:30",
        "phone": "+918022667150",
        "shop": "clothes",
        "website": "www.rebook.com"
      }
    },
    {
      "type": "node",
      "id": 4445570843,
      "lat": 12.991248,
      "lon": 77.5707987,
      "tags": {
        "addr:city": "Bengaluru",
        "addr:housenumber": "T-10 & 11, Third Floor",
        "addr:postcode": "560003",
        "addr:street": "Sampige Road",
        "air_conditioning": "yes",
        "name": "Sportxs",
        "phone": "080-65470694,",
        "shop": "sports",
        "website": "www.sportxs.com/"
      }
    },
    {
      "type": "node",
      "id": 4445642736,
      "lat": 12.991691,
      "lon": 77.5707302,
      "tags": {
        "addr:city": "Bengaluru",
        "addr:housenumber": "LG-34",
        "addr:postcode": "560003",
        "addr:street": "Sampige Road",
        "air_conditioning": "yes",
        "branch": "hyper market",
        "brand": "Spar",
        "brand:wikidata": "Q610492",
        "name": "Spar",
        "opening_hours": "10:00-22:00",
        "organic": "yes",
        "phone": "+918039378500",
        "shop": "supermarket",
        "website": "https://www.sparindia.com/"
      }
    },
    {
      "type": "node",
      "id": 4445660392,
      "lat": 12.9915813,
      "lon": 77.5710872,
      "tags": {
        "addr:city": "Bengaluru",
        "addr:housenumber": "LG-34",
        "addr:postcode": "560003",
        "addr:street": "Sampige Road",
        "air_conditioning": "yes",
        "name": "Home town",
        "phone": "+918030160208",
        "shop": "electronics"
      }
    },
    {
      "type": "node",
      "id": 4445679562,
      "lat": 12.9916575,
      "lon": 77.5703119,
      "tags": {
        "addr:city": "Bengaluru",
        "addr:housenumber": "LG-34",
        "addr:postcode": "560003",
        "addr:street": "Sampige Road",
        "air_conditioning": "yes",
        "brand": "Bata",
        "brand:wikidata": "Q688082",
        "name": "Bata",
        "name:kn": "ಬಾಟಾ",
        "opening_hours": "10:00-22:00",
        "phone": "+918022667013",
        "shop": "shoes",
        "website": "https://www.bata.com/"
      }
    },
    {
      "type": "node",
      "id": 4445716765,
      "lat": 12.991754,
      "lon": 77.5711303,
      "tags": {
        "addr:city": "Bengaluru",
        "addr:housenumber": "LG-34",
        "addr:postcode": "560003",
        "addr:street": "Sampige Road",
        "air_conditioning": "yes",
        "amenity": "restaurant",
        "cuisine": "chinese",
        "name": "Oval bar",
        "opening_hours": "10:00-23:30",
        "phone": "+919916375915",
        "smoking": "no"
      }
    },
    {
      "type": "node",
      "id": 4445737805,
      "lat": 12.9916587,
      "lon": 77.5707137,
      "tags": {
        "addr:city": "Bengaluru",
        "addr:housenumber": "LG-34",
        "addr:postcode": "560003",
        "addr:street": "Sampige Road",
        "air_conditioning": "yes",
        "brand": "Hush Puppies",
        "brand:wikidata": "Q1828588",
        "brand:wikipedia": "en:Hush Puppies",
        "name": "Hush Puppies",
        "phone": "+917204238404",
        "shop": "shoes",
        "website": "https://www.hushpuppies.com/"
      }
    },
    {
      "type": "node",
      "id": 4445744014,
      "lat": 12.9916423,
      "lon": 77.5707645,
      "tags": {
        "addr:city": "Bengaluru",
        "addr:housenumber": "LG-34",
        "addr:postcode": "560003",
        "addr:street": "Sampige Road",
        "air_conditioning": "yes",
        "name": "inc.5",
        "opening_hours": "10:00-22:00",
        "phone": "+918030160026",
        "shop": "shoes",
        "website": "www.inc5shoes.co.in"
      }
    },
    {
      "type": "node",
      "id": 4446200980,
      "lat": 12.9921138,
      "lon": 77.5704491,
      "tags": {
        "addr:city": "Bengaluru",
        "addr:housenumber": "LG-34",
        "addr:postcode": "560003",
        "addr:street": "Sampige Road",
        "air_conditioning": "yes",
        "name": "Anu Opticals",
        "opening_hours": "10:00-21:30",
        "phone": "+918030160170",
        "shop": "optician"
      }
    },
    {
      "type": "node",
      "id": 4446221715,
      "lat": 12.9915703,
      "lon": 77.5703356,
      "tags": {
        "addr:city": "Bengaluru",
        "addr:housenumber": "LG-34",
        "addr:postcode": "560003",
        "addr:street": "Sampige Road",
        "air_conditioning": "yes",
        "name": "Mochi",
        "opening_hours": "11:00-22:00",
        "phone": "+918030160098",
        "shop": "shoes"
      }
    },
    {
      "type": "node",
      "id": 4446222059,
      "lat": 12.9916252,
      "lon": 77.5702927,
      "tags": {
        "addr:city": "Bengaluru",
        "addr:housenumber": "LGG-34",
        "addr:postcode": "560003",
        "addr:street": "Sampige Road",
        "air_conditioning": "yes",
        "name": "Rocia",
        "opening_hours": "10:00-22:00",
        "shop": "shoes"
      }
    },
    {
      "type": "node",
      "id": 4446222060,
      "lat": 12.9916252,
      "lon": 77.5702927,
      "tags": {
        "addr:city": "Bengaluru",
        "addr:housenumber": "LG-34",
        "addr:postcode": "560003",
        "addr:street": "Sampige Road",
        "air_conditioning": "yes",
        "name": "Rocia",
        "opening_hours": "10:00-22:00",
        "phone": "+918022667318",
        "shop": "shoes"
      }
    },
    {
      "type": "node",
      "id": 4446250662,
      "lat": 12.9915977,
      "lon": 77.5703852,
      "tags": {
        "addr:city": "Bengaluru",
        "addr:housenumber": "LG-34",
        "addr:postcode": "560003",
        "addr:street": "Sampige Road",
        "air_conditioning": "yes",
        "brand": "Metro",
        "brand:wikidata": "Q16938284",
        "name": "Metro",
        "phone": "8030160099",
        "shop": "shoes",
        "website": "https://www.metroshoes.net/"
      }
    },
    {
      "type": "node",
      "id": 4446256970,
      "lat": 12.9918159,
      "lon": 77.570522,
      "tags": {
        "addr:city": "Bengaluru",
        "addr:housenumber": "LG-34",
        "addr:postcode": "560003",
        "addr:street": "Sampige Road",
        "air_conditioning": "yes",
        "name": "Soles",
        "phone": "+918022667321",
        "shop": "shoes",
        "website": "www.solesshoes.com"
      }
    },
    {
      "type": "node",
      "id": 4446270294,
      "lat": 12.9915402,
      "lon": 77.5712596,
      "tags": {
        "addr:city": "Bengaluru",
        "addr:housenumber": "LG-34",
        "addr:postcode": "560003",
        "addr:street": "Sampige Road",
        "air_conditioning": "yes",
        "brand": "Woodland",
        "brand:wikidata": "Q123068491",
        "name": "Woodland",
        "opening_hours": "10:00-20:00",
        "phone": "+918030160133",
        "shop": "shoes",
        "website": "https://www.woodlandworldwide.com/"
      }
    },
    {
      "type": "node",
      "id": 4446279429,
      "lat": 12.9916343,
      "lon": 77.571041,
      "tags": {
        "addr:city": "Bengaluru",
        "addr:housenumber": "LG-34",
        "addr:postcode": "560003",
        "addr:street": "Sampige Road",
        "air_conditioning": "yes",
        "name": "Canon- camera store",
        "opening_hours": "10:00-21:30",
        "phone": "+918453680010",
        "shop": "photo",
        "website": "www.canon.co.in"
      }
    },
    {
      "type": "node",
      "id": 4446286774,
      "lat": 12.9915154,
      "lon": 77.5707071,
      "tags": {
        "addr:city": "Bengaluru",
        "addr:housenumber": "LG-34",
        "addr:postcode": "560003",
        "addr:street": "Sampige Road",
        "air_conditioning": "yes",
        "brand": "Cromā",
        "brand:wikidata": "Q5187683",
        "name": "Cromā",
        "opening_hours": "11:00-20:30",
        "phone": "+917207666000",
        "shop": "electronics",
        "website": "https://www.croma.com/"
      }
    },
    {
      "type": "node",
      "id": 4446293640,
      "lat": 12.9921112,
      "lon": 77.5707965,
      "tags": {
        "addr:city": "Bengaluru",
        "addr:housenumber": "LG-34",
        "addr:postcode": "560003",
        "addr:street": "Sampige Road",
        "air_conditioning": "yes",
        "name": "Jumbo",
        "phone": "+918022667198",
        "shop": "electronics"
      }
    },
    {
      "type": "node",
      "id": 4446306046,
      "lat": 12.9916189,
      "lon": 77.5704825,
      "tags": {
        "addr:city": "Bengaluru",
        "addr:housenumber": "LG-34",
        "addr:postcode": "560003",
        "addr:street": "Sampige Road",
        "air_conditioning": "yes",
        "name": "Lenovo flagship store",
        "opening_hours": "11:00-21:30",
        "phone": "+919632146439",
        "shop": "computer"
      }
    },
    {
      "type": "node",
      "id": 4446311356,
      "lat": 12.992136,
      "lon": 77.5701139,
      "tags": {
        "addr:city": "Bengaluru",
        "addr:housenumber": "LG-34",
        "addr:postcode": "560003",
        "addr:street": "Sampige Road",
        "air_conditioning": "yes",
        "name": "Relience Digital",
        "opening_hours": "10:00-22:00",
        "phone": "8022667001",
        "shop": "electronics",
        "website": "https://www.reliancedigital.in/"
      }
    },
    {
      "type": "node",
      "id": 4446323836,
      "lat": 12.9917048,
      "lon": 77.5709199,
      "tags": {
        "addr:city": "Bengaluru",
        "addr:housenumber": "LG-34",
        "addr:postcode": "560003",
        "addr:street": "Sampige Road",
        "air_conditioning": "yes",
        "name": "Sangeetha",
        "name:kn": "ಸಂಗೀತ",
        "opening_hours": "10:00-22:00",
        "phone": "+917022004708",
        "shop": "mobile_phone",
        "website": "https://www.sangeethamobiles.com/"
      }
    },
    {
      "type": "node",
      "id": 4446329921,
      "lat": 12.9917975,
      "lon": 77.5705176,
      "tags": {
        "addr:city": "Bengaluru",
        "addr:housenumber": "LG-34",
        "addr:postcode": "560003",
        "addr:street": "Sampige Road",
        "air_conditioning": "yes",
        "name": "Imagine Store- apple Premium Reseller",
        "opening_hours": "10:30-21:30",
        "shop": "electronics",
        "website": "https://imaginestore.org/"
      }
    },
    {
      "type": "node",
      "id": 4446337092,
      "lat": 12.9916198,
      "lon": 77.5711868,
      "tags": {
        "addr:city": "Bengaluru",
        "addr:housenumber": "LG-34",
        "addr:postcode": "560003",
        "addr:street": "Sampige Road",
        "air_conditioning": "yes",
        "name": "Whizz- Camers Store",
        "opening_hours": "10:30-21:30",
        "phone": "+918030160037",
        "shop": "photo",
        "website": "www.whizz.in"
      }
    },
    {
      "type": "node",
      "id": 4446342319,
      "lat": 12.9913781,
      "lon": 77.5711009,
      "tags": {
        "addr:city": "Bengaluru",
        "addr:housenumber": "LG-34",
        "addr:postcode": "560003",
        "addr:street": "Sampige Road",
        "air_conditioning": "yes",
        "name": "The Color Bar",
        "opening_hours": "10:00-21:00",
        "phone": "+918065656633",
        "shop": "cosmetics",
        "website": "https://www.colorbarcosmetics.com/"
      }
    },
    {
      "type": "node",
      "id": 4446350440,
      "lat": 12.9920694,
      "lon": 77.570822,
      "tags": {
        "addr:city": "Bengaluru",
        "addr:housenumber": "LG-34",
        "addr:postcode": "560003",
        "addr:street": "Sampige Road",
        "air_conditioning": "yes",
        "name": "GVC",
        "phone": "+918022667556",
        "shop": "nutrition_supplements",
        "website": "https://www.gnc.com/"
      }
    },
    {
      "type": "node",
      "id": 4446366078,
      "lat": 12.9915558,
      "lon": 77.5709547,
      "tags": {
        "addr:city": "Bengaluru",
        "addr:housenumber": "LG-34",
        "addr:postcode": "560003",
        "addr:street": "Sampige Road",
        "air_conditioning": "yes",
        "name": "Health & Glow",
        "phone": "+91 8032466388",
        "shop": "cosmetics"
      }
    },
    {
      "type": "node",
      "id": 4446378146,
      "lat": 12.9920968,
      "lon": 77.570594,
      "tags": {
        "addr:city": "Bengaluru",
        "addr:housenumber": "LG-34",
        "addr:postcode": "560003",
        "addr:street": "Sampige Road",
        "air_conditioning": "yes",
        "amenity": "clinic",
        "healthcare": "clinic",
        "name": "Kaya Skin Bar",
        "opening_hours": "9:30-21:00",
        "phone": "+918022667211",
        "website": "https://www.kaya.in/"
      }
    },
    {
      "type": "node",
      "id": 4446386426,
      "lat": 12.9915545,
      "lon": 77.5710486,
      "tags": {
        "addr:city": "Bengaluru",
        "addr:housenumber": "LG-34",
        "addr:postcode": "560003",
        "addr:street": "Sampige Road",
        "air_conditioning": "yes",
        "brand": "The Body Shop",
        "brand:wikidata": "Q837851",
        "brand:wikipedia": "en:The Body Shop",
        "name": "The Body Shop",
        "opening_hours": "10:30-21:30",
        "phone": "+918030160120",
        "shop": "cosmetics",
        "website": "https://www.thebodyshop.in/"
      }
    },
    {
      "type": "node",
      "id": 4446474186,
      "lat": 12.9921268,
      "lon": 77.5705256,
      "tags": {
        "addr:city": "Bengaluru",
        "addr:housenumber": "LG-34",
        "addr:postcode": "560003",
        "addr:street": "Sampige Road",
        "air_conditioning": "yes",
        "brand": "Vision Express",
        "brand:wikidata": "Q7936150",
        "brand:wikipedia": "en:Vision Express",
        "name": "Vision Express",
        "opening_hours": "10:00-21:30",
        "phone": "+918022667128",
        "shop": "optician",
        "website": "https://www.visionexpress.in/"
      }
    },
    {
      "type": "node",
      "id": 4446497849,
      "lat": 12.9919478,
      "lon": 77.5708501,
      "tags": {
        "addr:city": "Bengaluru",
        "addr:housenumber": "LG-34",
        "addr:postcode": "560003",
        "addr:street": "Sampige Road",
        "air_conditioning": "yes",
        "amenity": "pharmacy",
        "healthcare": "pharmacy",
        "name": "Trust Pharmacy",
        "opening_hours": "9:30-23:00",
        "phone": "+91 8022667221",
        "website": "https://www.trustpharmacy.co.in/"
      }
    },
    {
      "type": "node",
      "id": 4446504503,
      "lat": 12.9912735,
      "lon": 77.5710821,
      "tags": {
        "addr:city": "Bengaluru",
        "addr:housenumber": "LG-34",
        "addr:postcode": "560003",
        "addr:street": "Sampige Road",
        "air_conditioning": "yes",
        "name": "Relax'N go massage",
        "shop": "massage"
      }
    },
    {
      "type": "node",
      "id": 4446518811,
      "lat": 12.9863736,
      "lon": 77.5793154,
      "tags": {
        "addr:city": "Bangalore",
        "addr:housenumber": "6/6",
        "addr:postcode": "560001",
        "addr:street": "Kumarakrupa Road, High Grounds, Madhava Nagar, Gandhi Nagar",
        "amenity": "hospital",
        "name": "Desai Nursing Home",
        "phone": "+9180 2226 0307"
      }
    },
    {
      "type": "node",
      "id": 4446521799,
      "lat": 12.9917881,
      "lon": 77.5707312,
      "tags": {
        "addr:city": "Bengaluru",
        "addr:housenumber": "LG-34",
        "addr:postcode": "560003",
        "addr:street": "Sampige Road",
        "air_conditioning": "yes",
        "name": "Royal Enfield",
        "opening_hours": "10:00-20:00",
        "phone": "+91 0973807838",
        "shop": "electronics",
        "website": "https://www.royalenfield.com/"
      }
    },
    {
      "type": "node",
      "id": 4446527432,
      "lat": 12.9917126,
      "lon": 77.5708843,
      "tags": {
        "addr:city": "Bengaluru",
        "addr:housenumber": "LG-34",
        "addr:postcode": "560003",
        "addr:street": "Sampige Road",
        "air_conditioning": "yes",
        "amenity": "bank",
        "brand": "State Bank of India",
        "brand:wikidata": "Q1340361",
        "brand:wikipedia": "en:State Bank of India",
        "name": "State Bank of India",
        "name:kn": "ಭಾರತೀಯ ಸ್ಟೇಟ್ ಬ್ಯಾಂಕ್",
        "opening_hours": "10:00-20:00",
        "phone": "+919901998324",
        "short_name": "SBI",
        "website": "https://www.sbi.co.in"
      }
    },
    {
      "type": "node",
      "id": 4446533470,
      "lat": 12.9914643,
      "lon": 77.5712116,
      "tags": {
        "addr:city": "Bengaluru",
        "addr:housenumber": "LG-34",
        "addr:postcode": "560003",
        "addr:street": "Sampige Road",
        "air_conditioning": "yes",
        "name": "Tattoo World",
        "opening_hours": "10:30-21:00",
        "phone": "+919739006199",
        "shop": "tattoo",
        "website": "www.tattooworld.in"
      }
    },
    {
      "type": "node",
      "id": 4446572478,
      "lat": 12.9858304,
      "lon": 77.5708651,
      "tags": {
        "addr:city": "560009",
        "addr:housenumber": "15",
        "addr:street": "Tank Bund Rd, RK Puram, Gandhi Nagar",
        "amenity": "pharmacy",
        "name": "Gururaja Pharma",
        "phone": "+91 80 2235 0038"
      }
    },
    {
      "type": "node",
      "id": 4446599790,
      "lat": 12.9853462,
      "lon": 77.5708101,
      "tags": {
        "addr:city": "bangalore",
        "addr:housenumber": "30",
        "addr:postcode": "560020",
        "addr:street": "1st Main Road, Jai Bheema Nagar, Seshadripuram",
        "amenity": "pharmacy",
        "name": "Brindhavan pharma",
        "phone": "+91 98456 79745"
      }
    },
    {
      "type": "node",
      "id": 4446600481,
      "lat": 12.9918756,
      "lon": 77.5701543,
      "tags": {
        "addr:city": "Bengaluru",
        "addr:postcode": "560003",
        "addr:street": "Sampige Road",
        "air_conditioning": "yes",
        "amenity": "restaurant",
        "cuisine": "regional",
        "name": "Rajhadhani Thali Restaurant",
        "opening_hours": "11:30-15:30,19:30-23:00",
        "phone": "080 22667345"
      }
    },
    {
      "type": "node",
      "id": 4446873919,
      "lat": 12.9916087,
      "lon": 77.5704303,
      "tags": {
        "addr:city": "Bengaluru",
        "addr:housenumber": "23 & 24",
        "addr:postcode": "560003",
        "addr:street": "Sampige Road",
        "air_conditioning": "yes",
        "level": "2",
        "name": "GINI Jony",
        "opening_hours": "10:00 - 21:30",
        "phone": "080-22667257",
        "shop": "clothes",
        "website": "https://www.giniandjony.com/"
      }
    },
    {
      "type": "node",
      "id": 4446877302,
      "lat": 12.9916688,
      "lon": 77.5708192,
      "tags": {
        "addr:city": "Bengaluru",
        "addr:housenumber": "55 & 56",
        "addr:postcode": "560003",
        "addr:street": "Sampige Road",
        "air_conditioning": "yes",
        "level": "1",
        "name": "GlobalDesi",
        "opening_hours": "10:30 - 21:00",
        "phone": "080-30160063",
        "shop": "clothes",
        "website": "https://www.globaldesi.in/"
      }
    },
    {
      "type": "node",
      "id": 4446879588,
      "lat": 12.9915773,
      "lon": 77.5706234,
      "tags": {
        "addr:city": "Bengaluru",
        "addr:housenumber": "55",
        "addr:postcode": "560003",
        "addr:street": "Sampige Road",
        "air_conditioning": "yes",
        "level": "1",
        "name": "Go fashion",
        "opening_hours": "10:30 - 21:00",
        "phone": "08030160000",
        "shop": "clothes",
        "website": "https://www.fashiongo.net/"
      }
    },
    {
      "type": "node",
      "id": 4446882829,
      "lat": 12.9917237,
      "lon": 77.5707817,
      "tags": {
        "addr:city": "Bengaluru",
        "addr:housenumber": "60",
        "addr:postcode": "560003",
        "addr:street": "Sampige Road",
        "air_conditioning": "yes",
        "level": "1",
        "name": "Identity",
        "opening_hours": "10:30 - 21:30",
        "phone": "080-22667130",
        "shop": "clothes",
        "website": "https://identiti.com/"
      }
    },
    {
      "type": "node",
      "id": 4446883934,
      "lat": 12.9916584,
      "lon": 77.5708621,
      "tags": {
        "addr:city": "Bengaluru",
        "addr:housenumber": "76",
        "addr:postcode": "560003",
        "addr:street": "Sampige Road",
        "air_conditioning": "yes",
        "level": "1",
        "name": "Jashn",
        "opening_hours": "10:00 - 21:00",
        "phone": "080-30160082",
        "shop": "clothes",
        "website": "www.jashnonline.com"
      }
    },
    {
      "type": "node",
      "id": 4446887864,
      "lat": 12.991478,
      "lon": 77.5708273,
      "tags": {
        "addr:city": "Bengaluru",
        "addr:housenumber": "68",
        "addr:postcode": "560003",
        "addr:street": "Sampige Road",
        "air_conditioning": "yes",
        "brand": "Jockey",
        "brand:wikidata": "Q534235",
        "brand:wikipedia": "en:Jockey International",
        "level": "0",
        "name": "Jockey",
        "opening_hours": "10:30 - 21:00",
        "phone": "080-41490669",
        "shop": "clothes",
        "website": "https://www.jockeyindia.com/"
      }
    },
    {
      "type": "node",
      "id": 4446889638,
      "lat": 12.9915068,
      "lon": 77.5708648,
      "tags": {
        "addr:city": "Bengaluru",
        "addr:housenumber": "68",
        "addr:postcode": "560003",
        "addr:street": "Sampige Road",
        "air_conditioning": "yes",
        "level": "1",
        "name": "Kalanjali",
        "opening_hours": "10:30 - 21:00",
        "phone": "+91-9739174779",
        "shop": "clothes",
        "website": "https://www.kalanjali.com/"
      }
    },
    {
      "type": "node",
      "id": 4446891792,
      "lat": 12.9914885,
      "lon": 77.5710096,
      "tags": {
        "addr:city": "Bengaluru",
        "addr:housenumber": "58",
        "addr:postcode": "560003",
        "addr:street": "Sampige Road",
        "air_conditioning": "yes",
        "level": "-1",
        "name": "Kushals",
        "opening_hours": "10:00 - 21:00",
        "phone": "0802266 7177",
        "shop": "jewelry",
        "website": "https://www.kushals.com/"
      }
    },
    {
      "type": "node",
      "id": 4446894086,
      "lat": 12.9917812,
      "lon": 77.5705456,
      "tags": {
        "addr:city": "Bengaluru",
        "addr:housenumber": "58",
        "addr:postcode": "560003",
        "addr:street": "Sampige Road",
        "air_conditioning": "yes",
        "level": "2",
        "name": "Lakshitha",
        "opening_hours": "10:00 - 21:00",
        "phone": "080-30160000",
        "shop": "clothes",
        "website": "https://www.lakshitaonline.com/"
      }
    },
    {
      "type": "node",
      "id": 4446895274,
      "lat": 12.9917603,
      "lon": 77.5705724,
      "tags": {
        "addr:city": "Bengaluru",
        "addr:housenumber": "56",
        "addr:postcode": "560003",
        "addr:street": "Sampige Road",
        "air_conditioning": "yes",
        "level": "1",
        "name": "Laven",
        "opening_hours": "10:30 - 21:30",
        "phone": "080-22667307",
        "shop": "clothes",
        "website": "www.lavenfashions.com"
      }
    },
    {
      "type": "node",
      "id": 4446898660,
      "lat": 12.9916281,
      "lon": 77.570791,
      "tags": {
        "addr:city": "Bengaluru",
        "addr:housenumber": "UG19 & 21",
        "addr:postcode": "560003",
        "addr:street": "Sampige Road",
        "air_conditioning": "yes",
        "brand": "Levi's",
        "brand:wikidata": "Q127962",
        "brand:wikipedia": "en:Levi Strauss & Co.",
        "clothes": "denim;men;women",
        "level": "0",
        "name": "Levi's",
        "opening_hours": "10:30 - 21:30",
        "phone": "080-22682071",
        "shop": "clothes",
        "website": "https://www.levi.in/"
      }
    },
    {
      "type": "node",
      "id": 4446899259,
      "lat": 12.9912093,
      "lon": 77.5712013,
      "tags": {
        "addr:city": "Bengaluru",
        "addr:housenumber": "UG 02-06",
        "addr:postcode": "560003",
        "addr:street": "Sampige Road",
        "air_conditioning": "yes",
        "brand": "Lifestyle",
        "brand:wikidata": "Q6545496",
        "level": "-1",
        "name": "Lifestyle",
        "opening_hours": "10:00 - 21:00",
        "phone": "080-22658934",
        "shop": "clothes",
        "website": "https://www.lifestylestores.com/"
      }
    },
    {
      "type": "node",
      "id": 4446902010,
      "lat": 12.9917551,
      "lon": 77.5705993,
      "tags": {
        "addr:city": "Bengaluru",
        "addr:housenumber": "UG 60-64",
        "addr:postcode": "560003",
        "addr:street": "Sampige Road",
        "air_conditioning": "yes",
        "level": "-1",
        "name": "Louis Philippe",
        "name:kn": "ಲೂಯಿ ಫಿಲಿಪ್",
        "opening_hours": "10:00 - 21:00",
        "phone": "080 30160166",
        "shop": "clothes",
        "website": "https://www.louisphilippe.com/"
      }
    },
    {
      "type": "node",
      "id": 4446905193,
      "lat": 12.9914937,
      "lon": 77.5709372,
      "tags": {
        "addr:city": "Bengaluru",
        "addr:housenumber": "UG60-64",
        "addr:postcode": "560003",
        "addr:street": "Sampige Road",
        "air_conditioning": "yes",
        "level": "-1",
        "name": "Madame",
        "opening_hours": "10:00 - 21:00",
        "phone": "080-22667000",
        "shop": "clothes",
        "website": "http://www.madameonline.com/"
      }
    },
    {
      "type": "node",
      "id": 4446907052,
      "lat": 12.9916322,
      "lon": 77.5708648,
      "tags": {
        "addr:city": "Bengaluru",
        "addr:housenumber": "UG 58 & 59",
        "addr:postcode": "560003",
        "addr:street": "Sampige Road",
        "air_conditioning": "yes",
        "brand": "Manyavar",
        "brand:wikidata": "Q24906783",
        "level": "-1",
        "name": "Manyavar",
        "opening_hours": "09:30 - 18:30",
        "phone": "080-33050329",
        "shop": "clothes",
        "website": "https://www.manyavar.com/"
      }
    },
    {
      "type": "node",
      "id": 4446907849,
      "lat": 12.991742,
      "lon": 77.5706315,
      "tags": {
        "addr:city": "Bengaluru",
        "addr:housenumber": "Lg1/ Lg5",
        "addr:postcode": "560003",
        "addr:street": "Sampige Road",
        "air_conditioning": "yes",
        "level": "-2",
        "name": "Marks Spencer",
        "opening_hours": "11:00 - 21:30",
        "phone": "080-22667100",
        "shop": "clothes",
        "website": "https://www.marksandspencer.com/"
      }
    },
    {
      "type": "node",
      "id": 4446908369,
      "lat": 12.9917237,
      "lon": 77.5704196,
      "tags": {
        "addr:city": "Bengaluru",
        "addr:housenumber": "1",
        "addr:postcode": "560003",
        "addr:street": "Sampige Road",
        "air_conditioning": "yes",
        "level": "1",
        "name": "Methiyadi stop",
        "opening_hours": "10:30 - 21:30",
        "phone": "+91-7353397690",
        "shop": "shoes",
        "website": "https://www.themethiyadistop.com/"
      }
    },
    {
      "type": "node",
      "id": 4446909299,
      "lat": 12.9914911,
      "lon": 77.5711143,
      "tags": {
        "addr:city": "Bengaluru",
        "addr:housenumber": "62",
        "addr:postcode": "560003",
        "addr:street": "Sampige Road",
        "air_conditioning": "yes",
        "level": "2",
        "name": "MINC",
        "opening_hours": "10:30 - 21:30",
        "phone": "08022667114",
        "shop": "clothes",
        "website": "https://www.minc-ecofashion.com/"
      }
    },
    {
      "type": "node",
      "id": 4446987680,
      "lat": 12.9917002,
      "lon": 77.5704464,
      "tags": {
        "addr:city": "Bengaluru",
        "addr:housenumber": "44/48",
        "addr:postcode": "560003",
        "addr:street": "Sampige Road",
        "air_conditioning": "yes",
        "level": "-1",
        "name": "Reliance trends",
        "opening_hours": "11:00 - 22:00",
        "phone": "+91-9663436817",
        "shop": "clothes",
        "website": "https://www.ril.com/"
      }
    },
    {
      "type": "node",
      "id": 4447006091,
      "lat": 12.9911729,
      "lon": 77.5709614,
      "tags": {
        "addr:city": "Bengaluru",
        "addr:housenumber": "LG-34",
        "addr:postcode": "560003",
        "addr:street": "Sampige Road",
        "air_conditioning": "yes",
        "name": "CrossWord",
        "phone": "+918022667499",
        "shop": "books",
        "website": "https://www.crossword.in/"
      }
    },
    {
      "type": "node",
      "id": 4447006891,
      "lat": 12.9920092,
      "lon": 77.570885,
      "tags": {
        "addr:city": "Bengaluru",
        "addr:housenumber": "LG-34",
        "addr:postcode": "560003",
        "addr:street": "Sampige Road",
        "air_conditioning": "yes",
        "name": "Sound Glitz",
        "opening_hours": "10:00-21:00",
        "phone": "+918041470284",
        "shop": "music",
        "website": "https://www.soundglitz.com/"
      }
    },
    {
      "type": "node",
      "id": 4447009761,
      "lat": 12.9915349,
      "lon": 77.5709185,
      "tags": {
        "addr:city": "Bengaluru",
        "addr:housenumber": "LG-34",
        "addr:postcode": "560003",
        "addr:street": "Sampige Road",
        "air_conditioning": "yes",
        "name": "O2Spa",
        "opening_hours": "10:00-22:00",
        "phone": "+919036001402",
        "shop": "beauty",
        "website": "https://www.o2spa.org/"
      }
    },
    {
      "type": "node",
      "id": 4447010423,
      "lat": 12.9917263,
      "lon": 77.5706556,
      "tags": {
        "addr:city": "Bengaluru",
        "addr:housenumber": "26 & 29",
        "addr:postcode": "560003",
        "addr:street": "Sampige Road",
        "air_conditioning": "yes",
        "level": "2",
        "name": "Mom & Me",
        "opening_hours": "10:30 - 21:00",
        "phone": "08031900777",
        "shop": "clothes",
        "website": "www.babyoye.com"
      }
    },
    {
      "type": "node",
      "id": 4447010887,
      "lat": 12.9918779,
      "lon": 77.5704357,
      "tags": {
        "addr:city": "Bengaluru",
        "addr:housenumber": "55",
        "addr:postcode": "560003",
        "addr:street": "Sampige Road",
        "air_conditioning": "yes",
        "level": "2",
        "name": "Mufti",
        "opening_hours": "10:30 - 21:30",
        "phone": "08022667123",
        "shop": "clothes",
        "website": "www.mufti.in"
      }
    },
    {
      "type": "node",
      "id": 4447010999,
      "lat": 12.9961953,
      "lon": 77.5715924,
      "tags": {
        "addr:city": "Bangalore",
        "addr:housenumber": "502",
        "addr:postcode": "560003",
        "addr:street": "3rd Cross, Sampige Road, Malleshwaram",
        "amenity": "restaurant",
        "cuisine": "regional",
        "name": "A1 Biryani Restaurant",
        "opening_hours": "11:00-23:00",
        "phone": "+91 7411144480"
      }
    },
    {
      "type": "node",
      "id": 4447011000,
      "lat": 12.9915476,
      "lon": 77.5703926,
      "tags": {
        "addr:city": "Bengaluru",
        "addr:housenumber": "LG-34",
        "addr:postcode": "560003",
        "addr:street": "Sampige Road",
        "air_conditioning": "yes",
        "name": "YLG",
        "opening_hours": "11:00-21:00",
        "phone": "+918030160061",
        "shop": "beauty",
        "website": "https://www.ylgindia.com/"
      }
    },
    {
      "type": "node",
      "id": 4447013045,
      "lat": 12.9915483,
      "lon": 77.5706119,
      "tags": {
        "addr:city": "Bengaluru",
        "addr:housenumber": "LG-34",
        "addr:postcode": "560003",
        "addr:street": "Sampige Road",
        "air_conditioning": "yes",
        "name": "Spa nation",
        "opening_hours": "11:00-21:00",
        "phone": "+918022667488",
        "shop": "beauty",
        "website": "https://www.spanation.net/"
      }
    },
    {
      "type": "node",
      "id": 4447017729,
      "lat": 12.9915963,
      "lon": 77.5710312,
      "tags": {
        "addr:city": "Bengaluru",
        "addr:housenumber": "LG-34",
        "addr:postcode": "560003",
        "addr:street": "Sampige Road",
        "air_conditioning": "yes",
        "name": "Totally Hot stuff",
        "opening_hours": "11:00-21:00",
        "phone": "+919663333304",
        "shop": "gift"
      }
    },
    {
      "type": "node",
      "id": 4447017911,
      "lat": 12.9917943,
      "lon": 77.5703606,
      "tags": {
        "addr:city": "Bengaluru",
        "addr:housenumber": "UG SF 55",
        "addr:postcode": "560003",
        "addr:street": "Sampige Road",
        "air_conditioning": "yes",
        "level": "-2",
        "name": "NatureFirst",
        "opening_hours": "10:30 - 21:30",
        "phone": "08030160000",
        "shop": "herbalist",
        "website": "http://www.naturesfirst.com/"
      }
    },
    {
      "type": "node",
      "id": 4447019663,
      "lat": 12.9916348,
      "lon": 77.5709185,
      "tags": {
        "addr:city": "Bengaluru",
        "addr:housenumber": "02",
        "addr:postcode": "560003",
        "addr:street": "Sampige Road",
        "air_conditioning": "yes",
        "level": "1",
        "name": "Neeru's",
        "opening_hours": "10:00 - 21:00",
        "phone": "080-65460514",
        "shop": "clothes",
        "website": "https://www.neerus.com/"
      }
    },
    {
      "type": "node",
      "id": 4447020027,
      "lat": 12.9917339,
      "lon": 77.5706166,
      "tags": {
        "addr:city": "Bengaluru",
        "addr:housenumber": "LG-34",
        "addr:postcode": "560003",
        "addr:street": "Sampige Road",
        "air_conditioning": "yes",
        "amenity": "restaurant",
        "cuisine": "indian",
        "name": "UP south",
        "opening_hours": "08:00-24:00",
        "phone": "+918022667311",
        "smoking": "no",
        "website": "https://www.upsouth.in/"
      }
    },
    {
      "type": "node",
      "id": 4447039075,
      "lat": 12.9915048,
      "lon": 77.5704974,
      "tags": {
        "addr:city": "Bengaluru",
        "addr:housenumber": "LG-34",
        "addr:postcode": "560003",
        "addr:street": "Sampige Road",
        "air_conditioning": "yes",
        "amenity": "fast_food",
        "brand": "Sbarro",
        "brand:wikidata": "Q2589409",
        "brand:wikipedia": "en:Sbarro",
        "cuisine": "pizza",
        "name": "Sbarro",
        "opening_hours": "08:00-23:00",
        "phone": "+918022667343",
        "smoking": "no",
        "takeaway": "yes",
        "website": "https://www.sbarro.com/"
      }
    },
    {
      "type": "node",
      "id": 4447082034,
      "lat": 12.9917005,
      "lon": 77.5706529,
      "tags": {
        "addr:city": "Bengaluru",
        "addr:postcode": "560003",
        "addr:street": "Sampige Road",
        "air_conditioning": "yes",
        "amenity": "pharmacy",
        "healthcare": "pharmacy",
        "name": "Kaya Skin Bar",
        "phone": "+9180 2266 7211",
        "source": "www.justdial.com",
        "website": "https://kaya.in/"
      }
    },
    {
      "type": "node",
      "id": 4447171840,
      "lat": 12.9947201,
      "lon": 77.5715879,
      "tags": {
        "addr:city": "Bangalore",
        "addr:housenumber": "1",
        "addr:postcode": "560003",
        "addr:street": "2nd Cross Rd, Malleshwaram",
        "amenity": "hospital",
        "name": "The Homoeo World",
        "phone": "080 2346 1995"
      }
    },
    {
      "type": "node",
      "id": 4447352349,
      "lat": 12.9914927,
      "lon": 77.570894,
      "tags": {
        "addr:city": "Bengaluru",
        "addr:housenumber": "61",
        "addr:postcode": "560003",
        "addr:street": "Sampige Road",
        "air_conditioning": "yes",
        "level": "2",
        "name": "Prapti",
        "opening_hours": "09:30 - 18:30",
        "phone": "080-30160160",
        "shop": "clothes",
        "website": "www.praptifashions.com"
      }
    },
    {
      "type": "node",
      "id": 4447358300,
      "lat": 12.9918978,
      "lon": 77.5705614,
      "tags": {
        "addr:city": "Bengaluru",
        "addr:housenumber": "71",
        "addr:postcode": "560003",
        "addr:street": "Sampige Road",
        "air_conditioning": "yes",
        "brand": "Pepe Jeans",
        "brand:wikidata": "Q426992",
        "brand:wikipedia": "en:Pepe Jeans",
        "clothes": "denim",
        "level": "-1",
        "name": "Pepe Jeans",
        "opening_hours": "10:30 - 21:00",
        "phone": "+91-9844117223",
        "shop": "clothes",
        "website": "https://www.pepejeans.com/"
      }
    },
    {
      "type": "node",
      "id": 4447368643,
      "lat": 12.9914326,
      "lon": 77.5709262,
      "tags": {
        "addr:city": "Bengaluru",
        "addr:housenumber": "83",
        "addr:postcode": "560003",
        "addr:street": "Sampige Road",
        "air_conditioning": "yes",
        "level": "2",
        "name": "Peora",
        "opening_hours": "10:30 - 21:00",
        "phone": "080-30160190",
        "shop": "clothes",
        "website": "https://www.peora.in/"
      }
    },
    {
      "type": "node",
      "id": 4447376031,
      "lat": 12.9916416,
      "lon": 77.5709799,
      "tags": {
        "addr:city": "Bengaluru",
        "addr:housenumber": "17",
        "addr:postcode": "560003",
        "addr:street": "Sampige Road",
        "air_conditioning": "yes",
        "level": "1",
        "name": "Spring Summer",
        "opening_hours": "10:30 - 21:00",
        "phone": "08030160000",
        "shop": "clothes",
        "website": "https://springandsummer.lk/"
      }
    },
    {
      "type": "node",
      "id": 4447381189,
      "lat": 12.9914404,
      "lon": 77.571012,
      "tags": {
        "addr:city": "Bengaluru",
        "addr:housenumber": "UG07-09",
        "addr:postcode": "560003",
        "addr:street": "Sampige Road",
        "air_conditioning": "yes",
        "level": "-1",
        "name": "Pantalons",
        "opening_hours": "10:30 - 21:00",
        "phone": "08030160085",
        "shop": "clothes",
        "website": "https://www.pantaloons.com/"
      }
    },
    {
      "type": "node",
      "id": 4447393204,
      "lat": 12.9914378,
      "lon": 77.5708377,
      "tags": {
        "addr:city": "Bengaluru",
        "addr:housenumber": "UG 04, LG44/48",
        "addr:postcode": "560003",
        "addr:street": "Sampige Road",
        "air_conditioning": "yes",
        "level": "-1,-2",
        "name": "Rubans",
        "opening_hours": "10:00 - 21:30",
        "phone": "080 3016 0000",
        "shop": "jewelry",
        "website": "https://www.rubans.in/"
      }
    },
    {
      "type": "node",
      "id": 4447497316,
      "lat": 12.9914091,
      "lon": 77.570968,
      "tags": {
        "addr:city": "Bengaluru",
        "addr:housenumber": "ug41-43",
        "addr:postcode": "560003",
        "addr:street": "Sampige Road",
        "air_conditioning": "yes",
        "level": "-1",
        "name": "Splash Fashion",
        "opening_hours": "10:00 - 21:30",
        "phone": "080 3016 0000",
        "shop": "clothes",
        "website": "https://www.splashfashions.com/"
      }
    },
    {
      "type": "node",
      "id": 4447579590,
      "lat": 12.9919004,
      "lon": 77.5706473,
      "tags": {
        "addr:city": "Bengaluru",
        "addr:housenumber": "73",
        "addr:postcode": "560003",
        "addr:street": "Sampige Road",
        "air_conditioning": "yes",
        "level": "1",
        "name": "Satya Paul",
        "opening_hours": "10:30 - 21:30",
        "phone": "08022667202",
        "shop": "clothes",
        "website": "https://www.satyapaul.com/"
      }
    },
    {
      "type": "node",
      "id": 4447585910,
      "lat": 12.991443,
      "lon": 77.571173,
      "tags": {
        "addr:city": "Bengaluru",
        "addr:housenumber": "64",
        "addr:postcode": "560003",
        "addr:street": "Sampige Road",
        "air_conditioning": "yes",
        "level": "2",
        "name": "Spykar",
        "opening_hours": "11:00 - 21:00",
        "phone": "08022667020",
        "shop": "clothes",
        "website": "https://www.spykar.com/"
      }
    },
    {
      "type": "node",
      "id": 4448577459,
      "lat": 12.9916486,
      "lon": 77.5711196,
      "tags": {
        "addr:city": "Bengaluru",
        "addr:housenumber": "LG 8 & 9",
        "addr:postcode": "560003",
        "addr:street": "Sampige Road",
        "air_conditioning": "yes",
        "level": "-1",
        "name": "show off",
        "opening_hours": "10:30 - 21:30",
        "phone": "080-41460266",
        "shop": "clothes",
        "website": "www.showoffclothes.com"
      }
    },
    {
      "type": "node",
      "id": 4448578750,
      "lat": 12.9917995,
      "lon": 77.5707731,
      "tags": {
        "addr:city": "Bengaluru",
        "addr:housenumber": "74 & 75",
        "addr:postcode": "560003",
        "addr:street": "Sampige Road",
        "air_conditioning": "yes",
        "level": "1",
        "name": "Soch",
        "opening_hours": "11:00 - 21:00",
        "phone": "08022667043",
        "shop": "clothes",
        "website": "www.sochstudio.com"
      }
    },
    {
      "type": "node",
      "id": 4448580773,
      "lat": 12.9914127,
      "lon": 77.570647,
      "tags": {
        "addr:city": "Bengaluru",
        "addr:housenumber": "U75G",
        "addr:postcode": "560003",
        "addr:street": "Sampige Road",
        "air_conditioning": "yes",
        "brand": "U.S. Polo Assn.",
        "brand:wikidata": "Q7863282",
        "level": "-1",
        "name": "U.S. Polo Assn.",
        "opening_hours": "11:00-21:00",
        "phone": "08030160000",
        "shop": "clothes",
        "website": "https://www.uspoloassn.com/"
      }
    },
    {
      "type": "node",
      "id": 4448583534,
      "lat": 12.9914676,
      "lon": 77.5707087,
      "tags": {
        "addr:city": "Bengaluru",
        "addr:housenumber": "55,56",
        "addr:postcode": "560003",
        "addr:street": "Sampige Road",
        "air_conditioning": "yes",
        "level": "-1",
        "name": "United Colour of Benetton",
        "opening_hours": "10:00 - 21:00",
        "phone": "08022667010",
        "shop": "clothes",
        "website": "https://www.benetton.com/"
      }
    },
    {
      "type": "node",
      "id": 4448584188,
      "lat": 12.9919093,
      "lon": 77.5705987,
      "tags": {
        "addr:city": "Bengaluru",
        "addr:housenumber": "ug72",
        "addr:postcode": "560003",
        "addr:street": "Sampige Road",
        "air_conditioning": "yes",
        "level": "-1",
        "name": "V.Dot van heusen",
        "opening_hours": "09:00 - 21:00",
        "phone": "08030160168",
        "shop": "clothes",
        "website": "https://www.vanheusenindia.com/"
      }
    },
    {
      "type": "node",
      "id": 4448584946,
      "lat": 12.991559,
      "lon": 77.5705585,
      "tags": {
        "addr:city": "Bengaluru",
        "addr:housenumber": "77",
        "addr:postcode": "560003",
        "addr:street": "Sampige Road",
        "air_conditioning": "yes",
        "level": "2",
        "name": "Valentine",
        "opening_hours": "11:00-21:30",
        "phone": "08022667475",
        "shop": "clothes",
        "website": "https://www.valentineclothes.com/"
      }
    },
    {
      "type": "node",
      "id": 4448585944,
      "lat": 12.9914519,
      "lon": 77.5711003,
      "tags": {
        "addr:city": "Bengaluru",
        "addr:housenumber": "78",
        "addr:postcode": "560003",
        "addr:street": "Sampige Road",
        "air_conditioning": "yes",
        "level": "1",
        "name": "Vastrra",
        "opening_hours": "10:00 - 21:00",
        "phone": "08030160000",
        "shop": "clothes",
        "website": "http://thevastrafashion.com/"
      }
    },
    {
      "type": "node",
      "id": 4448586763,
      "lat": 12.9914393,
      "lon": 77.5708015,
      "tags": {
        "addr:city": "Bengaluru",
        "addr:housenumber": "43",
        "addr:postcode": "560003",
        "addr:street": "Sampige Road",
        "air_conditioning": "yes",
        "level": "1",
        "name": "Voylla",
        "opening_hours": "10:00 - 21:00",
        "phone": "08030160000",
        "shop": "jewelry",
        "website": "https://www.voylla.com/"
      }
    },
    {
      "type": "node",
      "id": 4448587498,
      "lat": 12.991729,
      "lon": 77.5703768,
      "tags": {
        "addr:city": "Bengaluru",
        "addr:housenumber": "43",
        "addr:postcode": "560003",
        "addr:street": "Sampige Road",
        "air_conditioning": "yes",
        "level": "1",
        "name": "Vijayalakshmi",
        "opening_hours": "10:30 - 21:00",
        "phone": "9590900092",
        "shop": "clothes",
        "website": "https://www.vijayalakshmisilks.com/"
      }
    },
    {
      "type": "node",
      "id": 4448588469,
      "lat": 12.9916854,
      "lon": 77.5707845,
      "tags": {
        "addr:city": "Bengaluru",
        "addr:housenumber": "ug39-40",
        "addr:postcode": "560003",
        "addr:street": "Sampige Road",
        "air_conditioning": "yes",
        "level": "-1",
        "name": "Wills Lifestyle",
        "opening_hours": "10:30 - 21:00",
        "phone": "08030160042",
        "shop": "clothes",
        "website": "https://www.shopwillslifestyle.com/"
      }
    },
    {
      "type": "node",
      "id": 4448590295,
      "lat": 12.991835,
      "lon": 77.5705452,
      "tags": {
        "addr:city": "Bengaluru",
        "addr:housenumber": "UG 67 & 69",
        "addr:postcode": "560003",
        "addr:street": "Sampige Road",
        "air_conditioning": "yes",
        "brand": "Allen Solly",
        "brand:wikidata": "Q110036995",
        "level": "-1",
        "name": "Allen Solly",
        "name:kn": "ಅಲೆನ್ ಸೊಲಿ",
        "opening_hours": "09:00 - 21:00",
        "phone": "080 22667550",
        "shop": "clothes",
        "website": "https://www.allensolly.com/"
      }
    },
    {
      "type": "node",
      "id": 4488035143,
      "lat": 12.9974177,
      "lon": 77.5721787,
      "tags": {
        "addr:city": "Malleswaram, Bangalore",
        "addr:housenumber": "224",
        "addr:postcode": "560003",
        "addr:street": "Sampige Road, Opposite Sai Temple, Sampige Road, Bhadrappa Layout, Malleshwaram",
        "name": "olympic the sports shop",
        "opening_hours": "10:00-21:30",
        "phone": "080 2346 4839",
        "shop": "sports",
        "website": "olympicthesportshop.in"
      }
    },
    {
      "type": "node",
      "id": 4488516241,
      "lat": 12.9993517,
      "lon": 77.5766782,
      "tags": {
        "addr:city": "Bangalore",
        "addr:housenumber": "No23",
        "addr:postcode": "560003",
        "addr:street": "Palace Guttahalli Main Road, Malleswaram",
        "name": "Roots Beauty Clinic",
        "opening_hours": "10:00-21:00",
        "phone": "+91-80-23441974",
        "shop": "beauty",
        "website": "www.rootspa.in"
      }
    },
    {
      "type": "node",
      "id": 4489139931,
      "lat": 12.9915431,
      "lon": 77.5704437,
      "tags": {
        "addr:city": "Bengaluru",
        "addr:housenumber": "F-15",
        "addr:postcode": "560003",
        "addr:street": "Sampige Road",
        "air_conditioning": "yes",
        "branch": "Company",
        "brand": "Columbia",
        "brand:wikidata": "Q1112588",
        "clothes": "outdoor",
        "name": "Columbia",
        "official_name": "Columbia Sportswear",
        "opening_hours": "10:00-21:30",
        "phone": "080 2266 7014",
        "shop": "clothes",
        "website": "https://www.columbiasportswear.co.in/"
      }
    },
    {
      "type": "node",
      "id": 4489177486,
      "lat": 12.9911453,
      "lon": 77.5704056,
      "tags": {
        "addr:city": "bangalore",
        "addr:postcode": "560003",
        "addr:street": "T-10 & 11, Third Floor, Malleswaram, Bhadrappa Layout, Jai Bheema Nagar, Sheshadripuram",
        "name": "SportXS",
        "opening_hours": "10:00-21:30",
        "phone": "080 2266 7227",
        "shop": "sports",
        "website": "sportxs.com"
      }
    },
    {
      "type": "node",
      "id": 4489416586,
      "lat": 12.991824,
      "lon": 77.5701784,
      "tags": {
        "addr:city": "Bengaluru",
        "addr:postcode": "560003",
        "addr:street": "Sampige Road",
        "air_conditioning": "yes",
        "name": "Firfox cycle",
        "opening_hours": "10:00-21:30",
        "phone": "96639 85212",
        "shop": "sports",
        "website": "https://herocycles.com/"
      }
    },
    {
      "type": "node",
      "id": 4489756504,
      "lat": 12.9870391,
      "lon": 77.5744897,
      "tags": {
        "addr:city": "Bengaluru,",
        "addr:postcode": "560020",
        "addr:street": "SC Road, Nehru Nagar, Seshadripuram, Bengaluru, Karnataka SC Road, Nehru Nagar, Seshadripuram, Karnataka",
        "leisure": "sports_centre",
        "name": "Fitness Freak",
        "phone": "088849 31417"
      }
    },
    {
      "type": "node",
      "id": 4489869310,
      "lat": 12.9917364,
      "lon": 77.5705587,
      "tags": {
        "addr:city": "Bengaluru",
        "addr:housenumber": "No.S-19 & S-20,, Mantri Square Mall,",
        "addr:postcode": "560003",
        "addr:street": "Sampige Road",
        "air_conditioning": "yes",
        "name": "YLG Salon & Spa",
        "opening_hours": "10:30-20:30",
        "phone": "91)-80-30160061",
        "shop": "beauty",
        "website": "https://www.ylgindia.com/"
      }
    },
    {
      "type": "node",
      "id": 4489944385,
      "lat": 12.9934119,
      "lon": 77.5724877,
      "tags": {
        "addr:city": "Bangalore",
        "addr:housenumber": "#5",
        "addr:postcode": "560003",
        "addr:street": "sirur park Road ,opp mantri mall, next to krishna bhavan hotel, Bhadrappa Layout, Jai Bheema Nagar, Sampangiram Nagar,",
        "leisure": "sports_centre",
        "level": "1st_&_2nd_floor,",
        "name": "Intensity Fitness Center",
        "opening_hours": "05:00-10:00",
        "phone": "098451 32617",
        "sport": "gymnastics",
        "website": "intensityfitness.in"
      }
    },
    {
      "type": "node",
      "id": 4489987205,
      "lat": 12.9914824,
      "lon": 77.5708676,
      "tags": {
        "addr:city": "Bengaluru",
        "addr:housenumber": "Mantri Square No 1",
        "addr:postcode": "560003",
        "addr:street": "Sampige Road",
        "air_conditioning": "yes",
        "name": "O2 Spa",
        "opening_hours": "10:00 - 22:00",
        "phone": "(91)-9247020202",
        "shop": "beauty"
      }
    },
    {
      "type": "node",
      "id": 4505462591,
      "lat": 12.987183,
      "lon": 77.5784519,
      "tags": {
        "amenity": "fast_food",
        "name": "Super duba Raggi Dosa",
        "name:de": "Super duba Raggi Dosa",
        "name:en": "Super duba Raggi Dosa"
      }
    },
    {
      "type": "node",
      "id": 4623704804,
      "lat": 12.9920129,
      "lon": 77.5753645,
      "tags": {
        "check_date": "2024-01-02",
        "name": "Apoorva Iyengar Bakery",
        "name:en": "Apoorva Iyengar Bakery",
        "shop": "bakery"
      }
    },
    {
      "type": "node",
      "id": 4623723103,
      "lat": 12.9962755,
      "lon": 77.5733477,
      "tags": {
        "amenity": "atm",
        "brand": "HDFC Bank",
        "brand:wikidata": "Q631047",
        "name": "HDFC Bank",
        "operator": "HDFC Bank",
        "operator:wikidata": "Q631047",
        "short_name": "HDFC"
      }
    },
    {
      "type": "node",
      "id": 5061380659,
      "lat": 12.9966687,
      "lon": 77.5728097,
      "tags": {
        "amenity": "bank",
        "brand": "Indian Bank",
        "brand:wikidata": "Q2003789",
        "brand:wikipedia": "en:Indian Bank",
        "name": "Indian Bank",
        "name:kn": "ಇಂಡಿಯನ್ ಬ್ಯಾಂಕ್"
      }
    },
    {
      "type": "node",
      "id": 5061380660,
      "lat": 12.9955482,
      "lon": 77.5737403,
      "tags": {
        "brand": "TVS",
        "brand:wikidata": "Q3300084",
        "name": "TVS",
        "shop": "motorcycle"
      }
    },
    {
      "type": "node",
      "id": 5061380661,
      "lat": 12.9902704,
      "lon": 77.5744146,
      "tags": {
        "amenity": "pharmacy",
        "name": "Brindavan Pharma"
      }
    },
    {
      "type": "node",
      "id": 5061380662,
      "lat": 12.9879742,
      "lon": 77.5764499,
      "tags": {
        "amenity": "atm",
        "brand": "Corporation Bank",
        "brand:wikidata": "Q2003387",
        "name": "Corporation Bank",
        "name:kn": "ಕಾರ್ಪರೇಷನ್ ಬ್ಯಾಂಕ್",
        "operator": "Corporation Bank",
        "operator:wikidata": "Q2003387"
      }
    },
    {
      "type": "node",
      "id": 5174980935,
      "lat": 12.9977029,
      "lon": 77.5828216,
      "tags": {
        "name": "Prasanna Cloth Center",
        "shop": "clothes"
      }
    },
    {
      "type": "node",
      "id": 5174980936,
      "lat": 12.9975545,
      "lon": 77.5821584,
      "tags": {
        "amenity": "atm",
        "brand": "Indian Overseas Bank",
        "brand:wikidata": "Q2003611",
        "name": "Indian Overseas Bank",
        "operator": "Indian Overseas Bank",
        "operator:wikidata": "Q2003611"
      }
    },
    {
      "type": "node",
      "id": 5174980937,
      "lat": 12.9972226,
      "lon": 77.5818843,
      "tags": {
        "name": "Contessa Wines",
        "shop": "alcohol"
      }
    },
    {
      "type": "node",
      "id": 5175027889,
      "lat": 12.9967704,
      "lon": 77.573453,
      "tags": {
        "leisure": "fitness_centre",
        "name": "Fitness World"
      }
    },
    {
      "type": "node",
      "id": 5175027890,
      "lat": 12.9967906,
      "lon": 77.5734927,
      "tags": {
        "amenity": "dentist",
        "healthcare": "dentist",
        "name": "Specialists Dental Clinic"
      }
    },
    {
      "type": "node",
      "id": 5229456535,
      "lat": 12.9966843,
      "lon": 77.57085,
      "tags": {
        "amenity": "bank",
        "brand": "Canara Bank",
        "brand:en": "Canara Bank",
        "brand:hi": "केनरा बैंक",
        "brand:kn": "ಕೆನರಾ ಬ್ಯಾಂಕ್",
        "brand:pa": "ਕੇਨਰਾ ਬੈਂਕ",
        "brand:pnb": "کینرا بینک",
        "brand:ur": "کینرا بینک",
        "brand:wikidata": "Q2003777",
        "brand:wikipedia": "en:Canara Bank",
        "brand:wikipedia:pa": "ਕੇਨਰਾ ਬੈਂਕ",
        "name": "Canara Bank",
        "name:en": "Canara Bank",
        "name:hi": "केनरा बैंक",
        "name:kn": "ಕೆನರಾ ಬ್ಯಾಂಕ್",
        "name:pa": "ਕੇਨਰਾ ਬੈਂਕ",
        "name:pnb": "کینرا بینک",
        "name:ur": "کینرا بینک"
      }
    },
    {
      "type": "node",
      "id": 5229456536,
      "lat": 12.9932869,
      "lon": 77.5741305,
      "tags": {
        "name": "Vinod Motors",
        "shop": "motorcycle"
      }
    },
    {
      "type": "node",
      "id": 5229456537,
      "lat": 12.9922208,
      "lon": 77.5751298,
      "tags": {
        "name": "Maa Ceramics and Sanitary Wares",
        "shop": "yes"
      }
    },
    {
      "type": "node",
      "id": 5229456538,
      "lat": 12.991466,
      "lon": 77.5748902,
      "tags": {
        "brand": "Vodafone",
        "brand:wikidata": "Q122141",
        "name": "Vodafone",
        "shop": "mobile_phone"
      }
    },
    {
      "type": "node",
      "id": 5229456539,
      "lat": 12.9894569,
      "lon": 77.5735286,
      "tags": {
        "amenity": "atm",
        "brand": "Kotak Mahindra Bank",
        "brand:wikidata": "Q2040404",
        "check_date": "2024-03-02",
        "name": "Kotak Mahindra Bank",
        "name:kn": "ಕೋಟಕ್ ಮಹಿಂದ್ರ ಬ್ಯಾಂಕ್",
        "operator": "Kotak Mahindra Bank",
        "operator:wikidata": "Q2040404"
      }
    },
    {
      "type": "node",
      "id": 5229456540,
      "lat": 12.9888505,
      "lon": 77.5747806,
      "tags": {
        "name": "Total Lubricants",
        "shop": "yes"
      }
    },
    {
      "type": "node",
      "id": 5229456541,
      "lat": 12.9884349,
      "lon": 77.5740328,
      "tags": {
        "name": "Hygienic Hair Dressers",
        "shop": "hairdresser"
      }
    },
    {
      "type": "node",
      "id": 5229456542,
      "lat": 12.988504,
      "lon": 77.5740252,
      "tags": {
        "name": "Roop Kala Silk House",
        "shop": "clothes"
      }
    },
    {
      "type": "node",
      "id": 5229456543,
      "lat": 12.9882025,
      "lon": 77.5741117,
      "tags": {
        "name": "Planet Honda",
        "shop": "motorcycle"
      }
    },
    {
      "type": "node",
      "id": 5229456545,
      "lat": 12.989639,
      "lon": 77.5732106,
      "tags": {
        "name": "Brindavan Cake and Bakery",
        "shop": "bakery"
      }
    },
    {
      "type": "node",
      "id": 5229456546,
      "lat": 12.9935528,
      "lon": 77.5712961,
      "tags": {
        "amenity": "restaurant",
        "check_date": "2024-01-02",
        "name": "New Karavali Bar & Restaurant"
      }
    },
    {
      "type": "node",
      "id": 5229456547,
      "lat": 12.9934739,
      "lon": 77.5713892,
      "tags": {
        "amenity": "atm",
        "brand": "Bank of Baroda",
        "brand:wikidata": "Q2003797",
        "check_date": "2024-01-02",
        "operator": "Bank of Baroda",
        "operator:wikidata": "Q2003797"
      }
    },
    {
      "type": "node",
      "id": 5229482741,
      "lat": 12.9879876,
      "lon": 77.5773877,
      "tags": {
        "name": "Airtel Store",
        "name:kn": "ಏರ್ಟೆಲ್",
        "shop": "mobile_phone"
      }
    },
    {
      "type": "node",
      "id": 5229482742,
      "lat": 12.9870483,
      "lon": 77.5785854,
      "tags": {
        "amenity": "clinic",
        "healthcare": "clinic",
        "name": "Pranam Dental and Medical Speciality Clinic"
      }
    },
    {
      "type": "node",
      "id": 5229482743,
      "lat": 12.9867071,
      "lon": 77.5796028,
      "tags": {
        "amenity": "pharmacy",
        "brand": "Apollo Pharmacy",
        "brand:wikidata": "Q62562612",
        "healthcare": "pharmacy",
        "name": "Apollo Pharmacy",
        "name:kn": "ಅಪೊಲೋ ಫಾರ್ಮಸಿ"
      }
    },
    {
      "type": "node",
      "id": 5229482744,
      "lat": 12.9848902,
      "lon": 77.5828907,
      "tags": {
        "amenity": "police",
        "name": "High Grounds Traffic Police Station"
      }
    },
    {
      "type": "node",
      "id": 5292783222,
      "lat": 12.9895036,
      "lon": 77.5721251,
      "tags": {
        "amenity": "bank",
        "atm": "yes",
        "brand": "State Bank of India",
        "brand:wikidata": "Q1340361",
        "name": "State Bank of India",
        "name:kn": "ಭಾರತೀಯ ಸ್ಟೇಟ್ ಬ್ಯಾಂಕ್",
        "operator": "State Bank of India",
        "short_name": "SBI"
      }
    },
    {
      "type": "node",
      "id": 5402224026,
      "lat": 12.9841251,
      "lon": 77.5814938,
      "tags": {
        "brand": "Volvo",
        "brand:wikidata": "Q215293",
        "name": "Volvo",
        "shop": "car"
      }
    },
    {
      "type": "node",
      "id": 5402224027,
      "lat": 12.9866165,
      "lon": 77.579997,
      "tags": {
        "amenity": "restaurant",
        "name": "3 Page"
      }
    },
    {
      "type": "node",
      "id": 5447887277,
      "lat": 12.9867899,
      "lon": 77.5745807,
      "tags": {
        "addr:city": "Bengaluru,",
        "addr:housenumber": "212",
        "addr:postcode": "560020",
        "addr:street": "212, SC Road, Nehru Nagar, Sheshadripuram, Bengaluru, Karnataka 560020",
        "amenity": "restaurant",
        "cuisine": "indian",
        "name": "Hotel Sanman",
        "opening_hours": "Mo-Su 10:00-22:00"
      }
    },
    {
      "type": "node",
      "id": 5905947501,
      "lat": 12.9855047,
      "lon": 77.5792404,
      "tags": {
        "addr:city": "Bengaluru",
        "addr:housenumber": "19/2",
        "addr:postcode": "560001",
        "addr:street": "Crescent Road",
        "amenity": "restaurant",
        "check_date": "2023-02-19",
        "name": "The London Curry House",
        "opening_hours": "Mo-Su 12:00-15:00,19:00-23:00",
        "smoking": "no",
        "website": "https://thelondoncurryhousebanglore.business.site/"
      }
    },
    {
      "type": "node",
      "id": 6440329525,
      "lat": 12.9882645,
      "lon": 77.573415,
      "tags": {
        "addr:full": "#20/7, 2nd Main Road, VV Giri Colony",
        "amenity": "clinic",
        "contact:phone": "8971544066",
        "emergency": "no",
        "health_amenity:type": "laboratory",
        "healthcare": "clinic;doctor",
        "healthcare:speciality": "general;geriatrics;infectious_diseases",
        "name": "PCMH Restore Health",
        "url": "https://www.pcmhrestorehealth.com"
      }
    },
    {
      "type": "node",
      "id": 6681215508,
      "lat": 12.9846479,
      "lon": 77.5717284,
      "tags": {
        "amenity": "clinic",
        "name": "Udaya Clinic"
      }
    },
    {
      "type": "node",
      "id": 6886594854,
      "lat": 12.9843552,
      "lon": 77.5787035,
      "tags": {
        "addr:city": "Bengaluru",
        "addr:district": "BENGALURU URBAN",
        "addr:full": "Red Cross Bhavan, 326, Ist Floor, Race Course Road, Bengaluru",
        "addr:postcode": "560001",
        "addr:state": "Karnataka",
        "amenity": "blood_bank",
        "contact:mobile": "9902859859",
        "contact:phone": "8022268435",
        "name": "Indian Red Cross Society - Karnataka Red Cross Blood Bank",
        "office": "ngo",
        "opening_hours": "24/7",
        "operator:type": "ngo",
        "source": "OpenGovernmentData",
        "website": "https://www.redcrosskarnataka.org/"
      }
    },
    {
      "type": "node",
      "id": 6938690598,
      "lat": 12.9878104,
      "lon": 77.5809833,
      "tags": {
        "addr:district": "Bengaluru Urban",
        "addr:full": "No.6/7, Crescent Road Cross, Kumar Park East",
        "addr:postcode": "560001",
        "addr:state": "Karnataka",
        "amenity": "hospital",
        "healthcare:speciality": "Dornier AlphaLithotripsy Treatment; X-Rays; US Scan; Urologist Consultation",
        "name": "Hitech Kidney Stone Hospital, Bengaluru Urban",
        "operator:type": "private",
        "source": "OpenGovernmentData",
        "website": "http://www.hitechkidneystonehospital.org/"
      }
    },
    {
      "type": "node",
      "id": 6938690626,
      "lat": 12.9932806,
      "lon": 77.580691,
      "tags": {
        "addr:district": "Bengaluru Urban",
        "addr:full": "# 111 Railway Parallel Road, 7 Th Cross, Kumara Park (W)",
        "addr:postcode": "560020",
        "addr:state": "Karnataka",
        "addr:subdistrict": "Kumara Park (W)",
        "amenity": "hospital",
        "email": "info@squinteyehospital.com",
        "name": "Samprathi Eye Hospital And Squint Centre",
        "operator:type": "private",
        "source": "OpenGovernmentData",
        "website": "https://squinteyehospital.com/"
      }
    },
    {
      "type": "node",
      "id": 6938717990,
      "lat": 12.9966677,
      "lon": 77.5716037,
      "tags": {
        "addr:district": "Bengaluru Urban",
        "addr:full": "24/1 5Th Cross Malleswaram",
        "addr:postcode": "560003",
        "addr:state": "Karnataka",
        "amenity": "hospital",
        "healthcare": "hospital",
        "name": "Malleswaram Eye Day Care Hospital - Bengalore",
        "source": "OpenGovernmentData"
      }
    },
    {
      "type": "node",
      "id": 6938717991,
      "lat": 12.9933551,
      "lon": 77.5729595,
      "tags": {
        "addr:district": "Bengaluru Urban",
        "addr:full": "No.02, Sirur Park Road, Seshadripuram",
        "addr:postcode": "560020",
        "addr:state": "Karnataka",
        "amenity": "hospital",
        "healthcare": "hospital",
        "name": "Mahaveer Eye Hospital Private Limited",
        "operator:type": "private",
        "source": "OpenGovernmentData",
        "website": "http://dpal.kar.nic.in/Kanunu%20padakosha%20PDF%20Files/Recognised%20Hospitals.pdf"
      }
    },
    {
      "type": "node",
      "id": 6938717992,
      "lat": 12.99111,
      "lon": 77.5777982,
      "tags": {
        "addr:district": "Bengaluru Urban",
        "addr:full": "No 4, 4Th Cross Kumara Park West",
        "addr:postcode": "560020",
        "addr:state": "Karnataka",
        "amenity": "clinic",
        "name": "Jayashree Nursing Home, Bengaluru Urban",
        "source": "OpenGovernmentData"
      }
    },
    {
      "type": "node",
      "id": 6938717993,
      "lat": 12.9989833,
      "lon": 77.5802015,
      "tags": {
        "addr:district": "Bengaluru Urban",
        "addr:full": "No.21,22,2nd Main Road, Palace Guttahalli",
        "addr:postcode": "560003",
        "addr:state": "Karnataka",
        "amenity": "hospital",
        "name": "Bilva Hospital",
        "name:kn": "ಬಿಲ್ವಾ ಆಸ್ಪತ್ರೆ",
        "source": "OpenGovernmentData"
      }
    },
    {
      "type": "node",
      "id": 6938775802,
      "lat": 12.9989898,
      "lon": 77.5776748,
      "tags": {
        "addr:district": "Bengaluru Urban",
        "addr:full": "No. 2 Muneswara Block, Vinayaka Circle, Palace Guttahalli Main Road",
        "addr:postcode": "560003",
        "addr:state": "Karnataka",
        "amenity": "clinic",
        "name": "Anugraha Nursing Home",
        "source": "OpenGovernmentData"
      }
    },
    {
      "type": "node",
      "id": 6939686660,
      "lat": 12.9878183,
      "lon": 77.5725947,
      "tags": {
        "addr:district": "Bengaluru Urban",
        "addr:full": "Seshadripuram",
        "addr:state": "Karnataka",
        "amenity": "clinic",
        "name": "Bhagavan Mahaveer Jain Nethralaya",
        "name:kn": "ಭಗವಾನ್ ಮಹಾವಿರ ಜೈನ ನೇತ್ರಾಲಯ",
        "operator:type": "private",
        "source": "OpenGovernmentData",
        "website": "http://dpal.kar.nic.in/Kanunu%20padakosha%20PDF%20Files/Recognised%20Hospitals.pdf"
      }
    },
    {
      "type": "node",
      "id": 6939699617,
      "lat": 12.9988238,
      "lon": 77.5819892,
      "tags": {
        "addr:district": "Bengaluru Urban",
        "addr:full": "Near Nti Qtrs, Jataka Stand, P.G.Halli, East",
        "addr:postcode": "560003",
        "addr:state": "Karnataka",
        "amenity": "hospital",
        "name": "Place Guttahalli Maternity Home",
        "source": "OpenGovernmentData"
      }
    },
    {
      "type": "node",
      "id": 7031709761,
      "lat": 12.9920333,
      "lon": 77.5705883,
      "tags": {
        "addr:city": "Bengaluru",
        "addr:postcode": "560003",
        "addr:street": "Sampige Road",
        "air_conditioning": "yes",
        "description": "Our focus is on design innovation and promotion of handcrafted products made by skilled artisans using natural inputs which sustains and preserves the environment. We are dedicated towards preserving rich and vibrant traditional Indian art.",
        "name": "Jute Cottage",
        "note": "Eco-Friendly Store",
        "payment:all": "yes",
        "shop": "gift",
        "source": "survey;local knowledge;gps",
        "website": "https://www.jutecottage.co.in/"
      }
    },
    {
      "type": "node",
      "id": 7087593338,
      "lat": 12.9985638,
      "lon": 77.5730158,
      "tags": {
        "amenity": "place_of_worship",
        "religion": "hindu"
      }
    },
    {
      "type": "node",
      "id": 7087593339,
      "lat": 12.9987859,
      "lon": 77.5735831,
      "tags": {
        "name": "SKR Bicycle Bazar",
        "shop": "bicycle"
      }
    },
    {
      "type": "node",
      "id": 7087593340,
      "lat": 12.9991179,
      "lon": 77.5810423,
      "tags": {
        "amenity": "place_of_worship",
        "religion": "hindu"
      }
    },
    {
      "type": "node",
      "id": 7087593341,
      "lat": 12.9975602,
      "lon": 77.5837594,
      "tags": {
        "amenity": "bank",
        "atm": "yes",
        "brand": "Corporation Bank",
        "brand:wikidata": "Q2003387",
        "name": "Corporation Bank",
        "name:kn": "ಕಾರ್ಪರೇಷನ್ ಬ್ಯಾಂಕ್",
        "operator": "Corporation Bank"
      }
    },
    {
      "type": "node",
      "id": 7202935829,
      "lat": 12.993382,
      "lon": 77.5694167,
      "tags": {
        "addr:district": "Chitradurga",
        "addr:full": "K.C. General Hospital, Srirampura",
        "addr:postcode": "560003",
        "addr:state": "Karnataka",
        "addr:subdistrict": "Hosdurga",
        "amenity": "hospital",
        "contact:phone": "08199-242555",
        "name": "K.C. General Hospital",
        "source": "OpenGovernmentData"
      }
    },
    {
      "type": "node",
      "id": 7220195485,
      "lat": 12.990736,
      "lon": 77.5870219,
      "tags": {
        "name": "Shopwel Mart",
        "shop": "supermarket"
      }
    },
    {
      "type": "node",
      "id": 7276500272,
      "lat": 12.9862919,
      "lon": 77.5724177,
      "tags": {
        "amenity": "fuel",
        "name": "Aegis Auto Gas"
      }
    },
    {
      "type": "node",
      "id": 7276500312,
      "lat": 12.9844624,
      "lon": 77.5831076,
      "tags": {
        "access": "yes",
        "amenity": "toilets",
        "fee": "yes"
      }
    },
    {
      "type": "node",
      "id": 7276500338,
      "lat": 12.9841696,
      "lon": 77.5795363,
      "tags": {
        "addr:city": "Bengaluru",
        "addr:country": "IN",
        "addr:hamlet": "Gandhi Nagar",
        "addr:postcode": "560001",
        "addr:street": "Race Course Road",
        "brand": "Sugama Tourists",
        "name": "Sugama Tourists",
        "shop": "travel_agency",
        "website": "https://www.sugamatourists.com"
      }
    },
    {
      "type": "node",
      "id": 7276500358,
      "lat": 12.9836286,
      "lon": 77.5771867,
      "tags": {
        "access": "yes",
        "amenity": "toilets",
        "fee": "yes",
        "wheelchair": "no"
      }
    },
    {
      "type": "node",
      "id": 7276500361,
      "lat": 12.9846702,
      "lon": 77.5746091,
      "tags": {
        "amenity": "place_of_worship",
        "religion": "hindu"
      }
    },
    {
      "type": "node",
      "id": 7301656874,
      "lat": 12.9872877,
      "lon": 77.5760803,
      "tags": {
        "amenity": "library",
        "name": "Quills Library"
      }
    },
    {
      "type": "node",
      "id": 8187962417,
      "lat": 12.9984609,
      "lon": 77.5730292,
      "tags": {
        "addr:full": "7th Cross Rd, Malleshwaram, Bengaluru, Karnataka",
        "addr:state": "Karnataka",
        "amenity": "bank",
        "brand": "Bank of Baroda",
        "brand:wikidata": "Q2003797",
        "brand:wikipedia": "en:Bank of Baroda",
        "name": "Bank of Baroda",
        "name:kn": "ಬ್ಯಾಂಕ್ ಆಫ್ ಬರೋಡ"
      }
    },
    {
      "type": "node",
      "id": 8187962443,
      "lat": 12.9961075,
      "lon": 77.5794798,
      "tags": {
        "addr:full": "No 161 2nd Cross, Main Road, DN Ramaiah Layout, Seshadripuram, Bengaluru, Karnataka",
        "addr:state": "Karnataka",
        "amenity": "bank",
        "brand": "Axis Bank",
        "brand:wikidata": "Q2003549",
        "name": "Axis Bank",
        "name:kn": "ಆಕ್ಸಿಸ್ ಬ್ಯಾಂಕ್"
      }
    },
    {
      "type": "node",
      "id": 8187962462,
      "lat": 12.9940393,
      "lon": 77.5776887,
      "tags": {
        "addr:full": "No 159, 1st Main Rd, near Bhimas Hotel, Sripuram, Kumara Park West, Seshadripuram, Bengaluru, Karnataka",
        "addr:state": "Karnataka",
        "amenity": "bank",
        "brand": "State Bank of India",
        "brand:wikidata": "Q1340361",
        "brand:wikipedia": "en:State Bank of India",
        "name": "State Bank of India",
        "short_name": "SBI"
      }
    },
    {
      "type": "node",
      "id": 8187962473,
      "lat": 12.9931411,
      "lon": 77.5767129,
      "tags": {
        "addr:full": "162, 1st Main Rd, Near-Priya Jewelers, 4th Block, Kumara Park West, Seshadripuram, Bengaluru, Karnataka",
        "addr:state": "Karnataka",
        "amenity": "bank",
        "brand": "Indian Bank",
        "brand:wikidata": "Q2003789",
        "brand:wikipedia": "en:Indian Bank",
        "name": "Indian Bank",
        "name:kn": "ಇಂಡಿಯನ್ ಬ್ಯಾಂಕ್"
      }
    },
    {
      "type": "node",
      "id": 8188038712,
      "lat": 12.9969996,
      "lon": 77.5730038,
      "tags": {
        "addr:full": "Sangeetha Apts, Malleshwaram, Bengaluru, Karnataka",
        "addr:state": "Karnataka",
        "amenity": "hospital",
        "healthcare": "hospital",
        "name": "Supra Diagnostics Spine Care And Ortho Care Hospital"
      }
    },
    {
      "type": "node",
      "id": 9063471393,
      "lat": 12.9840625,
      "lon": 77.580813,
      "tags": {
        "amenity": "bank",
        "atm": "yes",
        "brand": "State Bank of India",
        "brand:wikidata": "Q1340361",
        "name": "State Bank of India",
        "short_name": "SBI"
      }
    },
    {
      "type": "node",
      "id": 9063471395,
      "lat": 12.984414,
      "lon": 77.578281,
      "tags": {
        "amenity": "bank",
        "atm": "yes",
        "brand": "HDFC Bank",
        "brand:wikidata": "Q631047",
        "name": "HDFC Bank",
        "short_name": "HDFC"
      }
    },
    {
      "type": "node",
      "id": 9063471396,
      "lat": 12.9879515,
      "lon": 77.5774683,
      "tags": {
        "name": "Titan Eye Plus",
        "shop": "optician"
      }
    },
    {
      "type": "node",
      "id": 9063471398,
      "lat": 12.9887173,
      "lon": 77.5779605,
      "tags": {
        "amenity": "fast_food",
        "name": "Umesh Refreshments"
      }
    },
    {
      "type": "node",
      "id": 9063471405,
      "lat": 12.9889048,
      "lon": 77.5775568,
      "tags": {
        "amenity": "fast_food",
        "cuisine": "regional",
        "name": "Umesh Dosa Point",
        "takeaway": "yes"
      }
    },
    {
      "type": "node",
      "id": 9199641839,
      "lat": 12.9942201,
      "lon": 77.5843234,
      "tags": {
        "amenity": "cafe",
        "name": "Water Monkey Cafe",
        "opening_hours": "Mo-Su 11:00-18:30",
        "outdoor_seating": "yes",
        "takeaway": "yes"
      }
    },
    {
      "type": "node",
      "id": 9214166916,
      "lat": 12.986254,
      "lon": 77.5809807,
      "tags": {
        "name": "Navakarnataka Publications",
        "office": "company",
        "shop": "books"
      }
    },
    {
      "type": "node",
      "id": 9214185038,
      "lat": 12.9867313,
      "lon": 77.5797264,
      "tags": {
        "name": "Sapthagiri Xerox",
        "shop": "copyshop"
      }
    },
    {
      "type": "node",
      "id": 9214185039,
      "lat": 12.9867761,
      "lon": 77.5796677,
      "tags": {
        "amenity": "restaurant",
        "name": "Sea Rock Restaurant"
      }
    },
    {
      "type": "node",
      "id": 9214185050,
      "lat": 12.9873315,
      "lon": 77.5788718,
      "tags": {
        "name": "Megha Xerox",
        "shop": "copyshop"
      }
    },
    {
      "type": "node",
      "id": 9214185060,
      "lat": 12.989193,
      "lon": 77.5744736,
      "tags": {
        "amenity": "restaurant",
        "name": "The Rasoi"
      }
    },
    {
      "type": "node",
      "id": 9214185061,
      "lat": 12.9896556,
      "lon": 77.5744213,
      "tags": {
        "name": "Sri Venkateshwara Textiles",
        "shop": "fabric"
      }
    },
    {
      "type": "node",
      "id": 9214185062,
      "lat": 12.9899666,
      "lon": 77.5745326,
      "tags": {
        "amenity": "atm"
      }
    },
    {
      "type": "node",
      "id": 9214185064,
      "lat": 12.9935413,
      "lon": 77.5740867,
      "tags": {
        "name": "Expert Dry Cleaners",
        "shop": "dry_cleaning"
      }
    },
    {
      "type": "node",
      "id": 9214185065,
      "lat": 12.9966677,
      "lon": 77.5729575,
      "tags": {
        "name": "Vijaya Travels",
        "shop": "travel_agency"
      }
    },
    {
      "type": "node",
      "id": 9214185066,
      "lat": 12.99698,
      "lon": 77.5734571,
      "tags": {
        "access": "yes",
        "amenity": "toilets",
        "operator": "BBMP"
      }
    },
    {
      "type": "node",
      "id": 9573432815,
      "lat": 12.9887722,
      "lon": 77.5807865,
      "tags": {
        "covered": "yes",
        "leisure": "picnic_table"
      }
    },
    {
      "type": "node",
      "id": 9573432816,
      "lat": 12.9887585,
      "lon": 77.5807792,
      "tags": {
        "covered": "yes",
        "leisure": "picnic_table"
      }
    },
    {
      "type": "node",
      "id": 9573433517,
      "lat": 12.9887977,
      "lon": 77.5807993,
      "tags": {
        "covered": "yes",
        "leisure": "picnic_table"
      }
    },
    {
      "type": "node",
      "id": 9573433518,
      "lat": 12.9887843,
      "lon": 77.5807929,
      "tags": {
        "covered": "yes",
        "leisure": "picnic_table"
      }
    },
    {
      "type": "node",
      "id": 9573433519,
      "lat": 12.9887533,
      "lon": 77.580814,
      "tags": {
        "covered": "yes",
        "leisure": "picnic_table"
      }
    },
    {
      "type": "node",
      "id": 9573433520,
      "lat": 12.9887395,
      "lon": 77.5808066,
      "tags": {
        "covered": "yes",
        "leisure": "picnic_table"
      }
    },
    {
      "type": "node",
      "id": 9573433521,
      "lat": 12.9887787,
      "lon": 77.5808268,
      "tags": {
        "covered": "yes",
        "leisure": "picnic_table"
      }
    },
    {
      "type": "node",
      "id": 9573433522,
      "lat": 12.9887653,
      "lon": 77.5808204,
      "tags": {
        "covered": "yes",
        "leisure": "picnic_table"
      }
    },
    {
      "type": "node",
      "id": 9573433523,
      "lat": 12.9887631,
      "lon": 77.5808529,
      "tags": {
        "covered": "yes",
        "leisure": "picnic_table"
      }
    },
    {
      "type": "node",
      "id": 9573433524,
      "lat": 12.9887497,
      "lon": 77.5808465,
      "tags": {
        "covered": "yes",
        "leisure": "picnic_table"
      }
    },
    {
      "type": "node",
      "id": 9573433525,
      "lat": 12.9887376,
      "lon": 77.5808402,
      "tags": {
        "covered": "yes",
        "leisure": "picnic_table"
      }
    },
    {
      "type": "node",
      "id": 9573433526,
      "lat": 12.9887239,
      "lon": 77.5808328,
      "tags": {
        "covered": "yes",
        "leisure": "picnic_table"
      }
    },
    {
      "type": "node",
      "id": 9573433528,
      "lat": 12.98829,
      "lon": 77.5798635,
      "tags": {
        "amenity": "drinking_water"
      }
    },
    {
      "type": "node",
      "id": 9573433533,
      "lat": 12.9887062,
      "lon": 77.5808767,
      "tags": {
        "amenity": "waste_basket"
      }
    },
    {
      "type": "node",
      "id": 9573433541,
      "lat": 12.988699,
      "lon": 77.5808117,
      "tags": {
        "amenity": "fast_food",
        "name": "C K P Canteen"
      }
    },
    {
      "type": "node",
      "id": 9573433542,
      "lat": 12.9888545,
      "lon": 77.5808975,
      "tags": {
        "amenity": "toilets"
      }
    },
    {
      "type": "node",
      "id": 9573433543,
      "lat": 12.9935995,
      "lon": 77.5844286,
      "tags": {
        "access": "yes",
        "amenity": "toilets"
      }
    },
    {
      "type": "node",
      "id": 9575201277,
      "lat": 12.9942403,
      "lon": 77.5814707,
      "tags": {
        "amenity": "restaurant",
        "name": "STEGI"
      }
    },
    {
      "type": "node",
      "id": 9575294002,
      "lat": 12.9936332,
      "lon": 77.5809283,
      "tags": {
        "amenity": "restaurant",
        "name": "Restaurent1179"
      }
    },
    {
      "type": "node",
      "id": 9775599294,
      "lat": 12.9961836,
      "lon": 77.5846063,
      "tags": {
        "amenity": "bench",
        "backrest": "no",
        "material": "stone",
        "seats": "3"
      }
    },
    {
      "type": "node",
      "id": 9784639593,
      "lat": 12.9955047,
      "lon": 77.5715809,
      "tags": {
        "amenity": "dentist",
        "name": "Planet Dental"
      }
    },
    {
      "type": "node",
      "id": 9784639594,
      "lat": 12.9953819,
      "lon": 77.5715849,
      "tags": {
        "name": "Prashanti",
        "shop": "clothes"
      }
    },
    {
      "type": "node",
      "id": 9784639595,
      "lat": 12.9951676,
      "lon": 77.5713153,
      "tags": {
        "name": "Janvi Silver",
        "shop": "jewelry"
      }
    },
    {
      "type": "node",
      "id": 9784639597,
      "lat": 12.9945697,
      "lon": 77.5716164,
      "tags": {
        "amenity": "pharmacy"
      }
    },
    {
      "type": "node",
      "id": 9784639598,
      "lat": 12.9946266,
      "lon": 77.5713267,
      "tags": {
        "name": "Hop Salon",
        "shop": "hairdresser"
      }
    },
    {
      "type": "node",
      "id": 9784639599,
      "lat": 12.9944756,
      "lon": 77.5716184,
      "tags": {
        "name": "Rangachari Textiles",
        "shop": "fabric"
      }
    },
    {
      "type": "node",
      "id": 9784639600,
      "lat": 12.9940732,
      "lon": 77.5716097,
      "tags": {
        "shop": "mobile_phone"
      }
    },
    {
      "type": "node",
      "id": 9784639601,
      "lat": 12.9938523,
      "lon": 77.5713777,
      "tags": {
        "amenity": "restaurant",
        "cuisine": "regional",
        "delivery": "yes",
        "name": "Hyderabadi Biryani",
        "takeaway": "yes"
      }
    },
    {
      "type": "node",
      "id": 9784639602,
      "lat": 12.9935681,
      "lon": 77.571371,
      "tags": {
        "name": "Tynimo",
        "shop": "supermarket"
      }
    },
    {
      "type": "node",
      "id": 9784639603,
      "lat": 12.9928075,
      "lon": 77.5712389,
      "tags": {
        "addr:street": "Sampige Road",
        "amenity": "bank",
        "atm": "yes",
        "brand": "Union Bank of India",
        "brand:wikidata": "Q2004078",
        "check_date": "2024-03-02",
        "name": "Union Bank of India"
      }
    },
    {
      "type": "node",
      "id": 9784639614,
      "lat": 12.9933257,
      "lon": 77.571666,
      "tags": {
        "brand": "Malabar Gold and Diamonds",
        "brand:wikidata": "Q60748883",
        "name": "Malabar Gold and Diamonds",
        "shop": "jewelry"
      }
    },
    {
      "type": "node",
      "id": 9786116686,
      "lat": 12.9970579,
      "lon": 77.5716111,
      "tags": {
        "name": "Rajat Jewellers",
        "shop": "jewelry"
      }
    },
    {
      "type": "node",
      "id": 9786116687,
      "lat": 12.9970573,
      "lon": 77.5715481,
      "tags": {
        "name": "Kanchee-Co Swetha Silks",
        "shop": "clothes"
      }
    },
    {
      "type": "node",
      "id": 9786116689,
      "lat": 12.9970928,
      "lon": 77.5715992,
      "tags": {
        "amenity": "bank",
        "atm": "yes",
        "brand": "Indian Overseas Bank",
        "brand:wikidata": "Q2003611",
        "name": "Indian Overseas Bank",
        "operator": "Indian Overseas Bank"
      }
    },
    {
      "type": "node",
      "id": 9786116690,
      "lat": 12.995915,
      "lon": 77.571298,
      "tags": {
        "name": "Lalithaa Jewellery",
        "shop": "jewelry"
      }
    },
    {
      "type": "node",
      "id": 9910012980,
      "lat": 12.9934596,
      "lon": 77.5705549,
      "tags": {
        "amenity": "toilets",
        "fee": "no",
        "operator": "BBMP"
      }
    },
    {
      "type": "node",
      "id": 9910013000,
      "lat": 12.986765,
      "lon": 77.5797482,
      "tags": {
        "name": "Glamour Unisex Beauty Salon",
        "shop": "hairdresser"
      }
    },
    {
      "type": "node",
      "id": 10073419802,
      "lat": 12.9851903,
      "lon": 77.5806709,
      "tags": {
        "addr:floor": "G",
        "air_conditioning": "yes",
        "alt_name": "Nerlu Cafe",
        "amenity": "cafe",
        "check_date": "2025-08-24",
        "cuisine": "coffee_shop",
        "internet_access": "wlan",
        "internet_access:fee": "no",
        "internet_access:ssid": "Nerlu",
        "level": "0",
        "name": "ner.lu",
        "outdoor_seating": "yes",
        "start_date": "2022-07-01"
      }
    },
    {
      "type": "node",
      "id": 10197599049,
      "lat": 12.9932649,
      "lon": 77.5856557,
      "tags": {
        "access": "permissive",
        "amenity": "parking",
        "parking": "surface"
      }
    },
    {
      "type": "node",
      "id": 10228304184,
      "lat": 12.9873323,
      "lon": 77.5801221,
      "tags": {
        "addr:state": "KA",
        "addr:street": "Kumara Krupa Road",
        "amenity": "restaurant",
        "name": "The Noodle Theory"
      }
    },
    {
      "type": "node",
      "id": 10228304185,
      "lat": 12.987145,
      "lon": 77.579938,
      "tags": {
        "name": "Shubh Jewellers",
        "shop": "jewelry"
      }
    },
    {
      "type": "node",
      "id": 10228304186,
      "lat": 12.9886571,
      "lon": 77.5812034,
      "tags": {
        "name": "Cayana",
        "shop": "boutique"
      }
    },
    {
      "type": "node",
      "id": 10228304187,
      "lat": 12.98669,
      "lon": 77.5796975,
      "tags": {
        "amenity": "pharmacy",
        "name": "Panchavati Chemists and Druggists"
      }
    },
    {
      "type": "node",
      "id": 10228304188,
      "lat": 12.9873085,
      "lon": 77.5800797,
      "tags": {
        "name": "Celebration",
        "shop": "mobile_phone"
      }
    },
    {
      "type": "node",
      "id": 10228304189,
      "lat": 12.9870121,
      "lon": 77.5802165,
      "tags": {
        "amenity": "fast_food",
        "brand": "Domino's",
        "brand:wikidata": "Q839466",
        "cuisine": "pizza",
        "name": "Domino's",
        "name:kn": "ಡಾಮಿನೋಸ್",
        "takeaway": "yes"
      }
    },
    {
      "type": "node",
      "id": 10228570993,
      "lat": 12.9876205,
      "lon": 77.5780205,
      "tags": {
        "name": "Aarcee",
        "shop": "clothes"
      }
    },
    {
      "type": "node",
      "id": 10228570994,
      "lat": 12.9876571,
      "lon": 77.57848,
      "tags": {
        "brand": "Suzuki",
        "brand:wikidata": "Q181642",
        "name": "Saptagiri Suzuki",
        "shop": "motorcycle"
      }
    },
    {
      "type": "node",
      "id": 10228570998,
      "lat": 12.9880319,
      "lon": 77.576825,
      "tags": {
        "amenity": "music_school",
        "name": "Saraswati Sangeet Vidyalaya",
        "opening_hours": "Mo-Sa 08:00-13:00,14:00-19:00; PH closed",
        "operator:type": "private"
      }
    },
    {
      "type": "node",
      "id": 10228570999,
      "lat": 12.9861382,
      "lon": 77.5800704,
      "tags": {
        "name": "Excelsior",
        "shop": "travel_agency"
      }
    },
    {
      "type": "node",
      "id": 10228571000,
      "lat": 12.9877704,
      "lon": 77.5781496,
      "tags": {
        "name": "Ahaa!",
        "shop": "furniture"
      }
    },
    {
      "type": "node",
      "id": 10228571001,
      "lat": 12.9871351,
      "lon": 77.578442,
      "tags": {
        "name": "Chalukya",
        "shop": "supermarket"
      }
    },
    {
      "type": "node",
      "id": 10228635178,
      "lat": 12.9899038,
      "lon": 77.5725194,
      "tags": {
        "amenity": "fast_food",
        "diet:lacto_vegetarian": "only",
        "name": "Kaapi Katte",
        "name:kn": "ಕಾಫಿ ಕಟ್ಟೆ"
      }
    },
    {
      "type": "node",
      "id": 10242924683,
      "lat": 12.988047,
      "lon": 77.5797237,
      "tags": {
        "amenity": "recycling",
        "recycling_type": "centre"
      }
    },
    {
      "type": "node",
      "id": 10831664275,
      "lat": 12.9966847,
      "lon": 77.5711946,
      "tags": {
        "name": "Rajarathnam Krishna Jewellers",
        "shop": "jewelry"
      }
    },
    {
      "type": "node",
      "id": 10934276534,
      "lat": 12.9989826,
      "lon": 77.5744743,
      "tags": {
        "name": "HOPCOMS",
        "shop": "greengrocer"
      }
    },
    {
      "type": "node",
      "id": 10944433588,
      "lat": 12.9918609,
      "lon": 77.5703851,
      "tags": {
        "addr:city": "Bengaluru",
        "addr:postcode": "560003",
        "addr:street": "Sampige Road",
        "air_conditioning": "yes",
        "name": "Marie Claire Salon",
        "shop": "beauty"
      }
    },
    {
      "type": "node",
      "id": 11061435985,
      "lat": 12.9847784,
      "lon": 77.5808621,
      "tags": {
        "amenity": "bar",
        "name": "The Burrow"
      }
    },
    {
      "type": "node",
      "id": 11061437781,
      "lat": 12.991763,
      "lon": 77.570977,
      "tags": {
        "addr:city": "Bengaluru",
        "addr:postcode": "560003",
        "addr:street": "Sampige Road",
        "air_conditioning": "yes",
        "name": "imoo",
        "shop": "mobile_phone"
      }
    },
    {
      "type": "node",
      "id": 11096782357,
      "lat": 12.9981862,
      "lon": 77.5814836,
      "tags": {
        "amenity": "bar",
        "name": "North Wind"
      }
    },
    {
      "type": "node",
      "id": 11096782377,
      "lat": 12.9989932,
      "lon": 77.5739639,
      "tags": {
        "access": "yes",
        "amenity": "toilets",
        "check_date": "2024-06-01",
        "fee": "yes",
        "operator": "BBMP"
      }
    },
    {
      "type": "node",
      "id": 11096782379,
      "lat": 12.9969689,
      "lon": 77.5745594,
      "tags": {
        "amenity": "post_office",
        "name": "India Post",
        "operator": "India Post",
        "operator:wikidata": "Q3519720"
      }
    },
    {
      "type": "node",
      "id": 11096802207,
      "lat": 12.997393,
      "lon": 77.5733015,
      "tags": {
        "name": "New Janardhan Bakery",
        "shop": "bakery"
      }
    },
    {
      "type": "node",
      "id": 11214903950,
      "lat": 12.9879489,
      "lon": 77.5780544,
      "tags": {
        "amenity": "place_of_worship",
        "religion": "hindu"
      }
    },
    {
      "type": "node",
      "id": 11214903960,
      "lat": 12.9938464,
      "lon": 77.5735818,
      "tags": {
        "amenity": "fast_food",
        "cuisine": "regional",
        "name": "Sri Raghavendra Upachara"
      }
    },
    {
      "type": "node",
      "id": 11214904084,
      "lat": 12.9938307,
      "lon": 77.5716694,
      "tags": {
        "name": "GRT Jewelers",
        "shop": "jewelry"
      }
    },
    {
      "type": "node",
      "id": 11281283560,
      "lat": 12.9980764,
      "lon": 77.5817987,
      "tags": {
        "amenity": "fast_food",
        "name": "Shakes n Bites"
      }
    },
    {
      "type": "node",
      "id": 11281283561,
      "lat": 12.9980973,
      "lon": 77.5817525,
      "tags": {
        "shop": "tailor"
      }
    },
    {
      "type": "node",
      "id": 11281283562,
      "lat": 12.9981189,
      "lon": 77.5817719,
      "tags": {
        "shop": "hairdresser"
      }
    },
    {
      "type": "node",
      "id": 11281283563,
      "lat": 12.9966141,
      "lon": 77.5804456,
      "tags": {
        "amenity": "bank",
        "atm": "yes",
        "brand": "Bandhan Bank",
        "brand:wikidata": "Q19882235",
        "name": "Bandhan Bank",
        "operator": "Bandhan Bank"
      }
    },
    {
      "type": "node",
      "id": 11281310972,
      "lat": 12.995804,
      "lon": 77.5736421,
      "tags": {
        "name": "Trends Unisex Salon",
        "shop": "hairdresser"
      }
    },
    {
      "type": "node",
      "id": 11478107294,
      "lat": 12.9937126,
      "lon": 77.5731581,
      "tags": {
        "check_date": "2024-01-02",
        "name": "CNU Digital Prints",
        "shop": "copyshop"
      }
    },
    {
      "type": "node",
      "id": 11478107297,
      "lat": 12.989156,
      "lon": 77.5746098,
      "tags": {
        "amenity": "atm",
        "brand": "Bank of India",
        "brand:wikidata": "Q2004439",
        "check_date": "2024-01-02",
        "operator": "Bank of India",
        "operator:wikidata": "Q2004439"
      }
    },
    {
      "type": "node",
      "id": 11478107298,
      "lat": 12.9891037,
      "lon": 77.574818,
      "tags": {
        "check_date": "2024-01-02",
        "name": "Sense of Style",
        "shop": "hairdresser"
      }
    },
    {
      "type": "node",
      "id": 11478107299,
      "lat": 12.989032,
      "lon": 77.5750062,
      "tags": {
        "amenity": "restaurant",
        "check_date": "2024-01-02",
        "name": "Samudra"
      }
    },
    {
      "type": "node",
      "id": 11478107301,
      "lat": 12.98774,
      "lon": 77.5781892,
      "tags": {
        "check_date": "2024-01-02",
        "name": "Light Zone",
        "shop": "lighting"
      }
    },
    {
      "type": "node",
      "id": 11478107302,
      "lat": 12.9877185,
      "lon": 77.5782277,
      "tags": {
        "check_date": "2024-01-02",
        "name": "Chirag Jewelers",
        "shop": "jewelry"
      }
    },
    {
      "type": "node",
      "id": 11565045295,
      "lat": 12.9905027,
      "lon": 77.5868698,
      "tags": {
        "access": "private",
        "amenity": "parking_entrance",
        "parking": "underground"
      }
    },
    {
      "type": "node",
      "id": 11684647127,
      "lat": 12.9874827,
      "lon": 77.5744932,
      "tags": {
        "check_date": "2024-03-02",
        "name": "CM RAM Arts",
        "shop": "art"
      }
    },
    {
      "type": "node",
      "id": 11684647128,
      "lat": 12.9873816,
      "lon": 77.5744969,
      "tags": {
        "check_date": "2024-03-02",
        "name": "Murugan Arts",
        "shop": "art"
      }
    },
    {
      "type": "node",
      "id": 11684647130,
      "lat": 12.9901302,
      "lon": 77.5722123,
      "tags": {
        "check_date": "2024-03-02",
        "name": "Lotus Mobiles",
        "shop": "mobile_phone"
      }
    },
    {
      "type": "node",
      "id": 11684647131,
      "lat": 12.9901802,
      "lon": 77.5721599,
      "tags": {
        "amenity": "restaurant",
        "check_date": "2024-03-02",
        "name": "Royal Biriyani"
      }
    },
    {
      "type": "node",
      "id": 11684647132,
      "lat": 12.9903609,
      "lon": 77.5719554,
      "tags": {
        "amenity": "restaurant",
        "check_date": "2024-03-02",
        "name": "Party Hall Restaurant"
      }
    },
    {
      "type": "node",
      "id": 11684647133,
      "lat": 12.9906494,
      "lon": 77.5718535,
      "tags": {
        "amenity": "atm",
        "brand": "Kotak Mahindra Bank",
        "brand:wikidata": "Q2040404",
        "check_date": "2024-03-02",
        "operator": "Kotak Mahindra Bank",
        "operator:wikidata": "Q2040404"
      }
    },
    {
      "type": "node",
      "id": 11684647134,
      "lat": 12.9935333,
      "lon": 77.5715998,
      "tags": {
        "check_date": "2024-03-02",
        "name": "AVR Swarna Jewelers",
        "shop": "jewelry"
      }
    },
    {
      "type": "node",
      "id": 11687235825,
      "lat": 12.9925805,
      "lon": 77.5745703,
      "tags": {
        "amenity": "fast_food",
        "check_date": "2024-03-03",
        "name": "Vinayaka Tiffin Center"
      }
    },
    {
      "type": "node",
      "id": 11775336500,
      "lat": 12.9892413,
      "lon": 77.5739801,
      "tags": {
        "amenity": "fast_food",
        "cuisine": "regional",
        "name": "The Darshini"
      }
    },
    {
      "type": "node",
      "id": 11882788000,
      "lat": 12.9912832,
      "lon": 77.5706068,
      "tags": {
        "amenity": "vending_machine",
        "check_date": "2024-05-06",
        "drink:bubble_tea": "yes",
        "vending": "drinks"
      }
    },
    {
      "type": "node",
      "id": 11949210770,
      "lat": 12.998839,
      "lon": 77.5763743,
      "tags": {
        "amenity": "pharmacy",
        "check_date": "2024-06-01",
        "healthcare": "pharmacy"
      }
    },
    {
      "type": "node",
      "id": 11949210772,
      "lat": 12.9993431,
      "lon": 77.5780212,
      "tags": {
        "check_date": "2024-06-01",
        "shop": "tailor"
      }
    },
    {
      "type": "node",
      "id": 11949210773,
      "lat": 12.9998483,
      "lon": 77.5781152,
      "tags": {
        "amenity": "drinking_water"
      }
    },
    {
      "type": "node",
      "id": 11949532605,
      "lat": 12.990666,
      "lon": 77.5705972,
      "tags": {
        "addr:floor": "0",
        "amenity": "vending_machine",
        "check_date": "2024-06-01"
      }
    },
    {
      "type": "node",
      "id": 11949532606,
      "lat": 12.9905405,
      "lon": 77.5706858,
      "tags": {
        "addr:floor": "0",
        "check_date": "2024-06-01",
        "name": "Schmitten Chocolates",
        "shop": "chocolate"
      }
    },
    {
      "type": "node",
      "id": 11949532607,
      "lat": 12.9904279,
      "lon": 77.5708406,
      "tags": {
        "addr:floor": "0",
        "check_date": "2024-06-01",
        "name": "Continental Coffee",
        "shop": "kiosk"
      }
    },
    {
      "type": "node",
      "id": 11949532608,
      "lat": 12.9902985,
      "lon": 77.5708444,
      "tags": {
        "addr:floor": "0",
        "check_date": "2024-06-01",
        "name": "Go Desi",
        "shop": "kiosk"
      }
    },
    {
      "type": "node",
      "id": 11951350410,
      "lat": 12.9927709,
      "lon": 77.5743277,
      "tags": {
        "brand": "Nandini",
        "check_date": "2024-06-02",
        "name": "Nandini",
        "shop": "dairy"
      }
    },
    {
      "type": "node",
      "id": 11951350412,
      "lat": 12.984684,
      "lon": 77.5824702,
      "tags": {
        "amenity": "bench"
      }
    },
    {
      "type": "node",
      "id": 11951350413,
      "lat": 12.9846445,
      "lon": 77.5825397,
      "tags": {
        "amenity": "bench"
      }
    },
    {
      "type": "node",
      "id": 11951628564,
      "lat": 12.9932025,
      "lon": 77.5706798,
      "tags": {
        "amenity": "place_of_worship",
        "check_date": "2024-06-02",
        "religion": "hindu"
      }
    },
    {
      "type": "node",
      "id": 11982395421,
      "lat": 12.9954465,
      "lon": 77.5790081,
      "tags": {
        "amenity": "place_of_worship",
        "check_date": "2024-06-15",
        "religion": "hindu"
      }
    },
    {
      "type": "node",
      "id": 11982395422,
      "lat": 12.9973524,
      "lon": 77.5807376,
      "tags": {
        "check_date": "2024-06-15",
        "name": "Pooja Bar",
        "shop": "alcohol"
      }
    },
    {
      "type": "node",
      "id": 11982395423,
      "lat": 12.9982738,
      "lon": 77.5816375,
      "tags": {
        "amenity": "bar",
        "check_date": "2024-06-15"
      }
    },
    {
      "type": "node",
      "id": 11982693081,
      "lat": 12.999271,
      "lon": 77.5784967,
      "tags": {
        "amenity": "place_of_worship",
        "check_date": "2024-06-15",
        "religion": "hindu"
      }
    },
    {
      "type": "node",
      "id": 11982693082,
      "lat": 12.9991289,
      "lon": 77.5783048,
      "tags": {
        "amenity": "fast_food",
        "check_date": "2024-06-15",
        "name": "Ayodhya Sagar"
      }
    },
    {
      "type": "node",
      "id": 11982693085,
      "lat": 12.998304,
      "lon": 77.5732414,
      "tags": {
        "amenity": "place_of_worship",
        "check_date": "2024-06-15",
        "religion": "hindu"
      }
    },
    {
      "type": "node",
      "id": 11982693086,
      "lat": 12.9979879,
      "lon": 77.5732898,
      "tags": {
        "check_date": "2024-06-15",
        "shop": "supermarket"
      }
    },
    {
      "type": "node",
      "id": 11986964427,
      "lat": 12.9924482,
      "lon": 77.5756565,
      "tags": {
        "amenity": "pharmacy",
        "name": "Shanti Medicals"
      }
    },
    {
      "type": "node",
      "id": 11986964436,
      "lat": 12.9937269,
      "lon": 77.5769795,
      "tags": {
        "name": "Save More",
        "shop": "supermarket"
      }
    },
    {
      "type": "node",
      "id": 11986964511,
      "lat": 12.9988056,
      "lon": 77.5821957,
      "tags": {
        "brand": "Nandini",
        "name": "Nandini",
        "name:kn": "ನಂದಿನಿ",
        "shop": "dairy"
      }
    },
    {
      "type": "node",
      "id": 12000326829,
      "lat": 12.984181,
      "lon": 77.5826369,
      "tags": {
        "amenity": "waste_basket"
      }
    },
    {
      "type": "node",
      "id": 12000326830,
      "lat": 12.9846977,
      "lon": 77.5817917,
      "tags": {
        "amenity": "place_of_worship",
        "check_date": "2024-06-22",
        "religion": "hindu"
      }
    },
    {
      "type": "node",
      "id": 12000326832,
      "lat": 12.987324,
      "lon": 77.5783227,
      "tags": {
        "check_date": "2024-06-22",
        "name": "Ravi Handicrafts",
        "shop": "craft"
      }
    },
    {
      "type": "node",
      "id": 12000326833,
      "lat": 12.9880048,
      "lon": 77.5769334,
      "tags": {
        "check_date": "2024-06-22",
        "name": "Tri-Dia",
        "shop": "jewelry"
      }
    },
    {
      "type": "node",
      "id": 12000328232,
      "lat": 12.9932604,
      "lon": 77.571151,
      "tags": {
        "amenity": "pharmacy",
        "check_date": "2024-06-22",
        "healthcare": "pharmacy",
        "name": "NE Pharmacy"
      }
    },
    {
      "type": "node",
      "id": 12103825759,
      "lat": 12.995914,
      "lon": 77.5759975,
      "tags": {
        "check_date": "2024-08-11",
        "name": "Sri Priya Jewellers",
        "shop": "jewelry"
      }
    },
    {
      "type": "node",
      "id": 12103968903,
      "lat": 12.9979195,
      "lon": 77.5732798,
      "tags": {
        "check_date": "2024-08-11",
        "shop": "greengrocer"
      }
    },
    {
      "type": "node",
      "id": 12103968904,
      "lat": 12.9986429,
      "lon": 77.5732028,
      "tags": {
        "amenity": "atm",
        "brand": "State Bank of India",
        "brand:wikidata": "Q1340361",
        "check_date": "2024-08-11",
        "operator": "State Bank of India",
        "operator:wikidata": "Q1340361",
        "short_name": "SBI"
      }
    },
    {
      "type": "node",
      "id": 12103968905,
      "lat": 12.9988873,
      "lon": 77.5753256,
      "tags": {
        "check_date": "2024-08-11",
        "shop": "greengrocer"
      }
    },
    {
      "type": "node",
      "id": 12103968906,
      "lat": 12.9986686,
      "lon": 77.5758144,
      "tags": {
        "amenity": "place_of_worship",
        "check_date": "2024-08-11",
        "religion": "hindu"
      }
    },
    {
      "type": "node",
      "id": 12103968909,
      "lat": 12.9991112,
      "lon": 77.5781651,
      "tags": {
        "amenity": "bar",
        "check_date": "2024-08-11",
        "name": "Srinivasa Bar & Restaurant"
      }
    },
    {
      "type": "node",
      "id": 12103968917,
      "lat": 12.9989667,
      "lon": 77.5800117,
      "tags": {
        "amenity": "pharmacy",
        "check_date": "2024-08-11",
        "healthcare": "pharmacy",
        "name": "The Drug Hut"
      }
    },
    {
      "type": "node",
      "id": 12103968933,
      "lat": 12.9989823,
      "lon": 77.5802854,
      "tags": {
        "amenity": "pharmacy",
        "check_date": "2024-08-11",
        "healthcare": "pharmacy",
        "name": "Bilva Pharmacy"
      }
    },
    {
      "type": "node",
      "id": 12103968934,
      "lat": 12.9982443,
      "lon": 77.5821694,
      "tags": {
        "amenity": "place_of_worship",
        "check_date": "2024-08-11",
        "religion": "hindu"
      }
    },
    {
      "type": "node",
      "id": 12103968935,
      "lat": 12.9988703,
      "lon": 77.5813139,
      "tags": {
        "amenity": "fast_food",
        "check_date": "2024-08-11",
        "name": "Palace Cafe"
      }
    },
    {
      "type": "node",
      "id": 12103968936,
      "lat": 12.9989,
      "lon": 77.5811516,
      "tags": {
        "amenity": "bank",
        "brand": "Central Bank of India",
        "brand:wikidata": "Q2007090",
        "check_date": "2024-08-11",
        "name": "Central Bank of India",
        "name:kn": "ಸೆಂಟ್ರಲ್ ಬ್ಯಾಂಕ್"
      }
    },
    {
      "type": "node",
      "id": 12103968937,
      "lat": 12.9988904,
      "lon": 77.5812055,
      "tags": {
        "check_date": "2024-08-11",
        "name": "NS Enterprises",
        "shop": "hardware"
      }
    },
    {
      "type": "node",
      "id": 12103968938,
      "lat": 12.9989603,
      "lon": 77.5808423,
      "tags": {
        "amenity": "atm",
        "brand": "IDFC First Bank",
        "brand:wikidata": "Q22031467",
        "check_date": "2024-08-11",
        "operator": "IDFC First Bank",
        "operator:wikidata": "Q22031467"
      }
    },
    {
      "type": "node",
      "id": 12103968939,
      "lat": 12.9978791,
      "lon": 77.5825963,
      "tags": {
        "amenity": "dentist",
        "check_date": "2024-08-11",
        "healthcare": "dentist",
        "name": "Goutam Dental Clinic"
      }
    },
    {
      "type": "node",
      "id": 12103981469,
      "lat": 12.9966044,
      "lon": 77.5723384,
      "tags": {
        "amenity": "clinic",
        "check_date": "2024-08-11",
        "healthcare": "clinic",
        "name": "Ray Speciality Clinic"
      }
    },
    {
      "type": "node",
      "id": 12147533852,
      "lat": 12.9910219,
      "lon": 77.5864182,
      "tags": {
        "amenity": "post_box",
        "operator": "India Post"
      }
    },
    {
      "type": "node",
      "id": 12269300829,
      "lat": 12.9882613,
      "lon": 77.580231,
      "tags": {
        "access": "customers",
        "amenity": "toilets"
      }
    },
    {
      "type": "node",
      "id": 12307194976,
      "lat": 12.9943149,
      "lon": 77.58432,
      "tags": {
        "name": "Anokhi",
        "shop": "boutique"
      }
    },
    {
      "type": "node",
      "id": 12414204462,
      "lat": 12.9868225,
      "lon": 77.5852253,
      "tags": {
        "amenity": "place_of_worship",
        "name": "Muneshwara Temple",
        "religion": "hindu"
      }
    },
    {
      "type": "node",
      "id": 12422943857,
      "lat": 12.9919751,
      "lon": 77.5818658,
      "tags": {
        "amenity": "nightclub",
        "name": "Kitty Ko"
      }
    },
    {
      "type": "node",
      "id": 12422943858,
      "lat": 12.9923293,
      "lon": 77.5818202,
      "tags": {
        "amenity": "bar",
        "name": "Sutra"
      }
    },
    {
      "type": "node",
      "id": 12422943859,
      "lat": 12.9920548,
      "lon": 77.5816472,
      "tags": {
        "name": "The Pastry Shop",
        "shop": "bakery"
      }
    },
    {
      "type": "node",
      "id": 12422943862,
      "lat": 12.9923685,
      "lon": 77.5820643,
      "tags": {
        "amenity": "restaurant",
        "name": "24/7"
      }
    },
    {
      "type": "node",
      "id": 12422953303,
      "lat": 12.9922169,
      "lon": 77.5819811,
      "tags": {
        "amenity": "restaurant",
        "cuisine": "asian",
        "name": "OKO"
      }
    },
    {
      "type": "node",
      "id": 12422953304,
      "lat": 12.9925122,
      "lon": 77.5821367,
      "tags": {
        "amenity": "restaurant",
        "cuisine": "indian",
        "name": "Baluchi"
      }
    },
    {
      "type": "node",
      "id": 12425915304,
      "lat": 12.9937367,
      "lon": 77.5851059,
      "tags": {
        "amenity": "fountain"
      }
    },
    {
      "type": "node",
      "id": 12425915428,
      "lat": 12.9921372,
      "lon": 77.5819932,
      "tags": {
        "access": "customers",
        "amenity": "toilets",
        "female": "no",
        "male": "no"
      }
    },
    {
      "type": "node",
      "id": 12426224447,
      "lat": 12.9889016,
      "lon": 77.5743127,
      "tags": {
        "shop": "jewelry"
      }
    },
    {
      "type": "node",
      "id": 12426224469,
      "lat": 12.990458,
      "lon": 77.5719725,
      "tags": {
        "amenity": "restaurant",
        "name": "The Green Path"
      }
    },
    {
      "type": "node",
      "id": 12429035733,
      "lat": 12.9836885,
      "lon": 77.5772591,
      "tags": {
        "branch": "Milk Parlour",
        "brand": "Nandini",
        "brand:wikidata": "Q124374212",
        "name": "Nandini",
        "shop": "dairy"
      }
    },
    {
      "type": "node",
      "id": 12438024630,
      "lat": 12.9855114,
      "lon": 77.5788172,
      "tags": {
        "amenity": "bank",
        "brand": "Canara Bank",
        "brand:en": "Canara Bank",
        "brand:hi": "केनरा बैंक",
        "brand:kn": "ಕೆನರಾ ಬ್ಯಾಂಕ್",
        "brand:pa": "ਕੇਨਰਾ ਬੈਂਕ",
        "brand:pnb": "کینرا بینک",
        "brand:ur": "کینرا بینک",
        "brand:wikidata": "Q2003777",
        "name": "Canara Bank",
        "name:en": "Canara Bank",
        "name:hi": "केनरा बैंक",
        "name:kn": "ಕೆನರಾ ಬ್ಯಾಂಕ್",
        "name:pa": "ਕੇਨਰਾ ਬੈਂਕ",
        "name:pnb": "کینرا بینک",
        "name:ur": "کینرا بینک"
      }
    },
    {
      "type": "node",
      "id": 12441467486,
      "lat": 12.9970464,
      "lon": 77.5842942,
      "tags": {
        "check_date": "2024-12-22",
        "name": "HMG Stone",
        "shop": "flooring"
      }
    },
    {
      "type": "node",
      "id": 12441528412,
      "lat": 12.9873315,
      "lon": 77.5800872,
      "tags": {
        "check_date": "2024-12-22",
        "name": "Cake Basket",
        "shop": "bakery"
      }
    },
    {
      "type": "node",
      "id": 12441556289,
      "lat": 12.9875015,
      "lon": 77.5800593,
      "tags": {
        "amenity": "bank",
        "brand": "IDFC First Bank",
        "brand:wikidata": "Q22031467",
        "check_date": "2024-12-22",
        "name": "IDFC First Bank"
      }
    },
    {
      "type": "node",
      "id": 12441556290,
      "lat": 12.9874735,
      "lon": 77.5801145,
      "tags": {
        "amenity": "atm",
        "brand": "IDFC First Bank",
        "brand:wikidata": "Q22031467",
        "check_date": "2024-12-22",
        "operator": "IDFC First Bank",
        "operator:wikidata": "Q22031467"
      }
    },
    {
      "type": "node",
      "id": 12441822767,
      "lat": 12.9845106,
      "lon": 77.5783868,
      "tags": {
        "brand": "Xiaomi",
        "brand:wikidata": "Q1636958",
        "check_date": "2024-12-22",
        "name": "Xiaomi",
        "shop": "mobile_phone"
      }
    },
    {
      "type": "node",
      "id": 12512224857,
      "lat": 12.9975563,
      "lon": 77.584202,
      "tags": {
        "amenity": "restaurant",
        "contact:instagram": "be.luru",
        "name": "Be Luru"
      }
    },
    {
      "type": "node",
      "id": 12525844603,
      "lat": 12.9905992,
      "lon": 77.5745019,
      "tags": {
        "amenity": "fast_food",
        "check_date": "2025-01-23",
        "name": "Mojo Pizza"
      }
    },
    {
      "type": "node",
      "id": 12525844608,
      "lat": 12.9866607,
      "lon": 77.5742892,
      "tags": {
        "amenity": "restaurant",
        "check_date": "2025-01-23",
        "name": "The Hyderabad Chefs"
      }
    },
    {
      "type": "node",
      "id": 12525844609,
      "lat": 12.9835318,
      "lon": 77.5745101,
      "tags": {
        "amenity": "place_of_worship",
        "check_date": "2025-01-23",
        "religion": "muslim"
      }
    },
    {
      "type": "node",
      "id": 12686350436,
      "lat": 12.989113,
      "lon": 77.5747176,
      "tags": {
        "check_date": "2025-03-21",
        "shop": "copyshop"
      }
    },
    {
      "type": "node",
      "id": 12686350442,
      "lat": 12.9925107,
      "lon": 77.5746316,
      "tags": {
        "check_date": "2025-03-21",
        "shop": "tyres"
      }
    },
    {
      "type": "node",
      "id": 12686350448,
      "lat": 12.9924689,
      "lon": 77.574722,
      "tags": {
        "check_date": "2025-03-21",
        "shop": "tyres"
      }
    },
    {
      "type": "node",
      "id": 12686350450,
      "lat": 12.9912292,
      "lon": 77.574705,
      "tags": {
        "check_date": "2025-03-21",
        "hairdresser": "barber",
        "name": "Life Style Men's Salon",
        "shop": "hairdresser"
      }
    },
    {
      "type": "node",
      "id": 12686350451,
      "lat": 12.9901712,
      "lon": 77.5745755,
      "tags": {
        "check_date": "2025-03-21",
        "name": "Bhagyalakshmi Book Stall",
        "shop": "books"
      }
    },
    {
      "type": "node",
      "id": 12686350452,
      "lat": 12.9892704,
      "lon": 77.5743534,
      "tags": {
        "amenity": "kindergarten",
        "check_date": "2025-03-21",
        "name": "MBN Toddler Home"
      }
    },
    {
      "type": "node",
      "id": 12834564801,
      "lat": 12.9966783,
      "lon": 77.5728746,
      "tags": {
        "addr:housenumber": "35",
        "addr:postcode": "560003",
        "addr:street": "5th Cross Road",
        "amenity": "clinic",
        "name": "Bangalore Endocrinology & Diabetes Research Center (BEDRC)",
        "opening_hours": "Mo-Sa 07:30-19:00",
        "phone": "+918041281998"
      }
    },
    {
      "type": "node",
      "id": 12846419059,
      "lat": 12.988547,
      "lon": 77.5772027,
      "tags": {
        "amenity": "restaurant",
        "check_date": "2025-05-18",
        "name": "Chalukya Samrat"
      }
    },
    {
      "type": "node",
      "id": 13013584280,
      "lat": 12.9921228,
      "lon": 77.5703135,
      "tags": {
        "amenity": "cafe",
        "name": "Kalmane Koffees"
      }
    },
    {
      "type": "node",
      "id": 13062869384,
      "lat": 12.9913578,
      "lon": 77.5711154,
      "tags": {
        "addr:city": "Bengaluru",
        "addr:country": "IN",
        "amenity": "cafe",
        "brand": "Starbucks",
        "brand:wikidata": "Q37158",
        "cuisine": "coffee_shop",
        "name": "Starbucks",
        "official_name": "Starbucks Coffee",
        "takeaway": "yes"
      }
    },
    {
      "type": "node",
      "id": 13086275912,
      "lat": 12.985053,
      "lon": 77.5791058,
      "tags": {
        "amenity": "cafe",
        "contact:instagram": "blancthecoffeeplace_",
        "cuisine": "coffee_shop",
        "name": "Blanc The Coffee Place"
      }
    },
    {
      "type": "node",
      "id": 13093773835,
      "lat": 12.9900277,
      "lon": 77.5713471,
      "tags": {
        "access": "yes",
        "amenity": "bicycle_parking",
        "capacity": "10",
        "covered": "yes",
        "fee": "no",
        "operator": "trin"
      }
    },
    {
      "type": "node",
      "id": 13288585570,
      "lat": 12.9850109,
      "lon": 77.5847599,
      "tags": {
        "amenity": "restaurant",
        "name": "Loya"
      }
    },
    {
      "type": "way",
      "id": 36982901,
      "center": {
        "lat": 12.9898083,
        "lon": 77.5851677
      },
      "tags": {
        "barrier": "fence",
        "golf:course": "18_hole",
        "leisure": "golf_course",
        "name": "Bangalore Golf Course",
        "name:kn": "ಬೆಂಗಳೂರು ಗೋಲ್ಫ್ ಮೈದಾನ",
        "short_name": "BGC",
        "start_date": "1876",
        "website": "http://bgc1876.com/"
      }
    },
    {
      "type": "way",
      "id": 37869985,
      "center": {
        "lat": 12.9823794,
        "lon": 77.5809442
      },
      "tags": {
        "alt_name": "Mysore Race Club",
        "leisure": "sports_centre",
        "name": "Bangalore Race Course",
        "official_name": "Bangalore Turf Club",
        "sport": "horse_racing"
      }
    },
    {
      "type": "way",
      "id": 38536360,
      "center": {
        "lat": 12.9950532,
        "lon": 77.5697431
      },
      "tags": {
        "addr:district": "Bengaluru Urban",
        "addr:full": "Malleswaran",
        "addr:postcode": "560003",
        "addr:state": "Karnataka",
        "amenity": "hospital",
        "healthcare": "hospital",
        "name": "K C General Hospital",
        "name:kn": "ಕೆ ಸಿ ಜನರಲ್ ಆಸ್ಪತ್ರೆ",
        "source": "OpenGovernmentData",
        "wheelchair": "limited"
      }
    },
    {
      "type": "way",
      "id": 38536363,
      "center": {
        "lat": 12.9921466,
        "lon": 77.5721822
      },
      "tags": {
        "leisure": "park",
        "name": "Bashyam Park",
        "name:etymology:wikidata": "Q110279124",
        "name:etymology:wikipedia": "en:K. T. Bhashyam",
        "name:kn": "ಭಾಶ್ಯಂ ಉದ್ಯಾನವನ"
      }
    },
    {
      "type": "way",
      "id": 38870537,
      "center": {
        "lat": 12.9921116,
        "lon": 77.5781507
      },
      "tags": {
        "leisure": "park",
        "name": "Kumara Park West Park"
      }
    },
    {
      "type": "way",
      "id": 38870603,
      "center": {
        "lat": 12.9865923,
        "lon": 77.586909
      },
      "tags": {
        "addr:city": "Bengaluru",
        "addr:country": "IN",
        "addr:housenumber": "70",
        "addr:postcode": "560001",
        "addr:street": "Palace Road",
        "alt_name": "Sophia Girls High School",
        "amenity": "school",
        "landuse": "education",
        "name": "Sophia High School",
        "name:kn": "ಸೋಫಿಯ ಪ್ರೌಡಶಾಲೆ",
        "old_name": "Convent of the Sacred Heart",
        "school:gender": "female",
        "start_date": "1949"
      }
    },
    {
      "type": "way",
      "id": 45375850,
      "center": {
        "lat": 12.9921413,
        "lon": 77.5743798
      },
      "tags": {
        "amenity": "school",
        "name": "Government Girls High School",
        "name:kn": "ಸರ್ಕಾರಿ ಬಾಲಕಿಯರ ಪ್ರೌಡಶಾಲೆ"
      }
    },
    {
      "type": "way",
      "id": 45443117,
      "center": {
        "lat": 12.9883532,
        "lon": 77.5757988
      },
      "tags": {
        "leisure": "park",
        "name": "Nehru Park",
        "name:etymology:wikidata": "Q1047",
        "name:kn": "ನೆಹರು ಉದ್ಯಾನವನ"
      }
    },
    {
      "type": "way",
      "id": 45443161,
      "center": {
        "lat": 12.9876863,
        "lon": 77.5790668
      },
      "tags": {
        "leisure": "park"
      }
    },
    {
      "type": "way",
      "id": 45443657,
      "center": {
        "lat": 12.9891598,
        "lon": 77.5807461
      },
      "tags": {
        "alt_name": "Chitra Kala Parishat",
        "amenity": "college",
        "name": "Karnataka Chitrakala Parishath",
        "name:kn": "ಚಿತ್ರಕಲಾ ಪರಿಷತ್",
        "website": "http://karnatakachitrakalaparishath.com/"
      }
    },
    {
      "type": "way",
      "id": 45443682,
      "center": {
        "lat": 12.9889187,
        "lon": 77.5762497
      },
      "tags": {
        "addr:city": "Bangalore",
        "addr:postcode": "560020",
        "addr:street": "Seshadripuram",
        "amenity": "college",
        "email": "info@set.edu.in",
        "fax": "+91-80-22955351",
        "name": "Sheshadripuram College",
        "name:kn": "ಶೇಶಾದ್ರಿಪುರಂ ಕಾಲೇಜು",
        "phone": "+91-80-22955350",
        "website": "https://www.set.edu.in/"
      }
    },
    {
      "type": "way",
      "id": 101928528,
      "center": {
        "lat": 12.9945118,
        "lon": 77.5707402
      },
      "tags": {
        "leisure": "park"
      }
    },
    {
      "type": "way",
      "id": 113800231,
      "center": {
        "lat": 12.9990337,
        "lon": 77.5705388
      },
      "tags": {
        "amenity": "marketplace",
        "landuse": "retail",
        "name": "Malleshwaram 8th Cross Market",
        "name:kn": "೮ನೇ ಅಡ್ಡರಸ್ತೆ ಮಾರಕಟ್ಟೆ"
      }
    },
    {
      "type": "way",
      "id": 148661098,
      "center": {
        "lat": 12.99118,
        "lon": 77.575137
      },
      "tags": {
        "amenity": "college",
        "building": "yes",
        "check_date": "2024-01-02",
        "name": "Seshadripuram Law College",
        "name:en": "Seshadripuram Law College",
        "name:kn": "ಶೇಷಾದ್ರಿಪುರಂ ಕಾನೂನು ಕಾಲೇಜು"
      }
    },
    {
      "type": "way",
      "id": 148669366,
      "center": {
        "lat": 12.988255,
        "lon": 77.5767046
      },
      "tags": {
        "leisure": "park",
        "name": "Nehru Park",
        "name:etymology:wikidata": "Q1047",
        "name:kn": "ನೆಹರು ಉದ್ಯಾನವನ"
      }
    },
    {
      "type": "way",
      "id": 150797673,
      "center": {
        "lat": 12.9822669,
        "lon": 77.5807312
      },
      "tags": {
        "area": "no",
        "leisure": "track"
      }
    },
    {
      "type": "way",
      "id": 188340338,
      "center": {
        "lat": 12.9935054,
        "lon": 77.5851109
      },
      "tags": {
        "leisure": "garden"
      }
    },
    {
      "type": "way",
      "id": 188340340,
      "center": {
        "lat": 12.9931588,
        "lon": 77.5852067
      },
      "tags": {
        "leisure": "garden"
      }
    },
    {
      "type": "way",
      "id": 192032071,
      "center": {
        "lat": 12.991783,
        "lon": 77.5817632
      },
      "tags": {
        "access": "customers",
        "leisure": "swimming_pool",
        "sport": "swimming"
      }
    },
    {
      "type": "way",
      "id": 192032072,
      "center": {
        "lat": 12.9940804,
        "lon": 77.5854758
      },
      "tags": {
        "access": "customers",
        "leisure": "swimming_pool",
        "sport": "swimming"
      }
    },
    {
      "type": "way",
      "id": 192043993,
      "center": {
        "lat": 12.9907883,
        "lon": 77.5718674
      },
      "tags": {
        "amenity": "fuel",
        "brand": "Indian Oil",
        "brand:wikidata": "Q1289348",
        "check_date": "2024-03-02",
        "name": "Indian Oil",
        "name:kn": "ಇಂಡಿಯನ್ ಆಯಿಲ್",
        "operator": "Indian Oil"
      }
    },
    {
      "type": "way",
      "id": 192049199,
      "center": {
        "lat": 12.9972966,
        "lon": 77.5741453
      },
      "tags": {
        "building": "yes",
        "name": "Brand Factory",
        "shop": "clothes"
      }
    },
    {
      "type": "way",
      "id": 192049201,
      "center": {
        "lat": 12.9972244,
        "lon": 77.5736912
      },
      "tags": {
        "brand": "Big Bazaar",
        "brand:wikidata": "Q3631008",
        "brand:wikipedia": "en:Big Bazaar",
        "building": "yes",
        "name": "Big Bazaar",
        "name:kn": "ಬಿಗ್ ಬಜಾರ್",
        "shop": "supermarket"
      }
    },
    {
      "type": "way",
      "id": 202289066,
      "center": {
        "lat": 12.984553,
        "lon": 77.5832329
      },
      "tags": {
        "access": "customers",
        "amenity": "parking",
        "name": "Bangalore Turf Club Parking",
        "parking": "surface"
      }
    },
    {
      "type": "way",
      "id": 221316384,
      "center": {
        "lat": 12.999056,
        "lon": 77.5746478
      },
      "tags": {
        "amenity": "place_of_worship",
        "building": "yes",
        "name": "Sanskrit Center",
        "religion": "hindu"
      }
    },
    {
      "type": "way",
      "id": 221316386,
      "center": {
        "lat": 12.9992939,
        "lon": 77.5746472
      },
      "tags": {
        "amenity": "place_of_worship",
        "building": "yes",
        "name": "Raghavendra Swamy Mutt",
        "name:kn": "ರಾಘವೇಂದ್ರ ಸ್ವಾಮಿ ಮಠ",
        "religion": "hindu"
      }
    },
    {
      "type": "way",
      "id": 239032655,
      "center": {
        "lat": 12.9893365,
        "lon": 77.5722396
      },
      "tags": {
        "amenity": "place_of_worship",
        "building": "yes",
        "religion": "hindu"
      }
    },
    {
      "type": "way",
      "id": 249661874,
      "center": {
        "lat": 12.9894848,
        "lon": 77.5726484
      },
      "tags": {
        "amenity": "fuel",
        "brand": "Hindustan Petroleum",
        "brand:wikidata": "Q1619375",
        "name": "Hindustan Petroleum",
        "name:kn": "ಹಿಂದುಸ್ತಾನ್ ಪೆಟ್ರೋಲಿಯಂ",
        "official_name": "Hindustan Petroleum",
        "operator": "Hindustan Petroleum"
      }
    },
    {
      "type": "way",
      "id": 291266074,
      "center": {
        "lat": 12.9880279,
        "lon": 77.5803274
      },
      "tags": {
        "amenity": "community_centre",
        "landuse": "commercial",
        "name": "Gandhi Bhavan",
        "name:etymology:wikidata": "Q1001",
        "name:kn": "ಗಾಂಧಿ ಭವನ",
        "office": "ngo"
      }
    },
    {
      "type": "way",
      "id": 313828425,
      "center": {
        "lat": 12.988234,
        "lon": 77.5749312
      },
      "tags": {
        "access": "private",
        "leisure": "swimming_pool",
        "name": "Corporation Swimming Pool",
        "name:kn": "ಕಾರ್ಪೊರೆಷನ್ ಈಜುಕೊಳ"
      }
    },
    {
      "type": "way",
      "id": 313828426,
      "center": {
        "lat": 12.9866534,
        "lon": 77.5788086
      },
      "tags": {
        "leisure": "park",
        "name": "Madhav Rao Park",
        "name:etymology:wikidata": "Q6951710",
        "name:kn": "ಮಾಧವ ರಾವ್ ಉದ್ಯಾನವನ"
      }
    },
    {
      "type": "way",
      "id": 335169243,
      "center": {
        "lat": 12.9965326,
        "lon": 77.5822913
      },
      "tags": {
        "leisure": "playground"
      }
    },
    {
      "type": "way",
      "id": 335169248,
      "center": {
        "lat": 12.9984002,
        "lon": 77.5823983
      },
      "tags": {
        "amenity": "place_of_worship",
        "name": "Shri Anjaneya Swamy Temple",
        "name:kn": "ಅಂಜನೇಯ ಸ್ವಾಮಿ ದೇವಸ್ಥಾನ",
        "religion": "hindu"
      }
    },
    {
      "type": "way",
      "id": 335172719,
      "center": {
        "lat": 12.9908973,
        "lon": 77.5788013
      },
      "tags": {
        "amenity": "school",
        "name": "Gandhi Nagar High School",
        "name:kn": "ಗಾಂಧಿನಗರ ಪೌಡಶಾಲೆ"
      }
    },
    {
      "type": "way",
      "id": 346266426,
      "center": {
        "lat": 12.9990241,
        "lon": 77.5821232
      },
      "tags": {
        "addr:city": "Bangalore",
        "addr:postcode": "560003",
        "addr:street": "Palace Guttahalli Main Road",
        "amenity": "post_office",
        "building": "yes",
        "name": "Palace Guttahalli Post office",
        "name:kn": "ಅಂಚೆ ಕಛೇರಿ"
      }
    },
    {
      "type": "way",
      "id": 346526279,
      "center": {
        "lat": 12.9943024,
        "lon": 77.5843483
      },
      "tags": {
        "building": "yes",
        "name": "RainTree",
        "shop": "mall"
      }
    },
    {
      "type": "way",
      "id": 346806171,
      "center": {
        "lat": 12.9929755,
        "lon": 77.5813803
      },
      "tags": {
        "amenity": "events_venue",
        "building": "yes",
        "name": "Kalinga"
      }
    },
    {
      "type": "way",
      "id": 347485349,
      "center": {
        "lat": 12.9883152,
        "lon": 77.5726942
      },
      "tags": {
        "amenity": "hospital",
        "building": "commercial",
        "building:levels": "5",
        "name": "Apollo Hospital",
        "name:kn": "ಅಪೋಲೋ ಆಸ್ಪತ್ರೆ"
      }
    },
    {
      "type": "way",
      "id": 348381097,
      "center": {
        "lat": 12.9884385,
        "lon": 77.5746494
      },
      "tags": {
        "addr:postcode": "560020",
        "amenity": "post_office",
        "building": "yes",
        "name": "Seshadripuram Post Office",
        "name:kn": "ಶೇಶಾದ್ರಿಪುರಂ ಅಂಚೆ ಕಛೇರಿ"
      }
    },
    {
      "type": "way",
      "id": 348539706,
      "center": {
        "lat": 12.9884136,
        "lon": 77.5742764
      },
      "tags": {
        "addr:place": "Seshadripuram",
        "addr:postcode": "560020",
        "addr:street": "Subedar Chatram Road",
        "addr:suburb": "Seshadripuram",
        "amenity": "place_of_worship",
        "building": "yes",
        "name": "Sri Anjaneya Swamy Sannidhi",
        "name:kn": "ಆಂಜನೇಯ ಸ್ವಾಮಿ ಸನ್ನಿಧಿ",
        "religion": "hindu"
      }
    },
    {
      "type": "way",
      "id": 352191252,
      "center": {
        "lat": 12.9854416,
        "lon": 77.5821636
      },
      "tags": {
        "addr:city": "Bangalore",
        "addr:postcode": "560001",
        "addr:street": "Race Course Road (Devaraj Urs Road)",
        "amenity": "college",
        "name": "Karnataka Judicial Academy",
        "name:kn": "ಕರ್ನಾಟಕ ನ್ಯಾಯಾಂಗ ಅಕಾಡೆಮಿ",
        "phone": "+918022382894/96",
        "smoking": "no",
        "website": "https://kjablr.kar.nic.in/node/1/index.html",
        "wheelchair": "yes"
      }
    },
    {
      "type": "way",
      "id": 403473901,
      "center": {
        "lat": 12.9870893,
        "lon": 77.5850959
      },
      "tags": {
        "leisure": "pitch"
      }
    },
    {
      "type": "way",
      "id": 403473907,
      "center": {
        "lat": 12.9867516,
        "lon": 77.5856698
      },
      "tags": {
        "leisure": "pitch"
      }
    },
    {
      "type": "way",
      "id": 437438963,
      "center": {
        "lat": 12.9915771,
        "lon": 77.5705772
      },
      "tags": {
        "addr:street": "Sampige Road, Malleshwaram",
        "landuse": "retail",
        "name": "Mantri Square",
        "note": "Mall was sealed on 16th March 2024, reopened on 17th March 2024: https://www.deccanherald.com/india/karnataka/bengaluru/mantri-mall-reopens-after-being-sealed-over-tax-dues-2940800",
        "shop": "mall",
        "wheelchair": "yes",
        "wikidata": "Q6752215",
        "wikimedia_commons": "Category:Mantri Square",
        "wikipedia": "en:Mantri Square"
      }
    },
    {
      "type": "way",
      "id": 437536497,
      "center": {
        "lat": 12.9918836,
        "lon": 77.5867661
      },
      "tags": {
        "landuse": "recreation_ground",
        "leisure": "common"
      }
    },
    {
      "type": "way",
      "id": 437538186,
      "center": {
        "lat": 12.9919586,
        "lon": 77.5811238
      },
      "tags": {
        "access": "customers",
        "leisure": "pitch",
        "sport": "tennis"
      }
    },
    {
      "type": "way",
      "id": 437538187,
      "center": {
        "lat": 12.9905743,
        "lon": 77.5833603
      },
      "tags": {
        "access": "private",
        "amenity": "parking",
        "parking": "surface"
      }
    },
    {
      "type": "way",
      "id": 437658830,
      "center": {
        "lat": 12.9822446,
        "lon": 77.5776681
      },
      "tags": {
        "leisure": "track"
      }
    },
    {
      "type": "way",
      "id": 437658831,
      "center": {
        "lat": 12.9829894,
        "lon": 77.5813372
      },
      "tags": {
        "leisure": "track"
      }
    },
    {
      "type": "way",
      "id": 437658834,
      "center": {
        "lat": 12.9831333,
        "lon": 77.5794967
      },
      "tags": {
        "leisure": "track"
      }
    },
    {
      "type": "way",
      "id": 775169697,
      "center": {
        "lat": 12.9845932,
        "lon": 77.5843957
      },
      "tags": {
        "leisure": "garden"
      }
    },
    {
      "type": "way",
      "id": 779282869,
      "center": {
        "lat": 12.9840682,
        "lon": 77.578333
      },
      "tags": {
        "leisure": "park"
      }
    },
    {
      "type": "way",
      "id": 779282870,
      "center": {
        "lat": 12.9818346,
        "lon": 77.5757991
      },
      "tags": {
        "addr:city": "Bengaluru",
        "addr:country": "IN",
        "addr:hamlet": "Gandhi Nagar",
        "addr:housenumber": "9",
        "addr:postcode": "560009",
        "addr:street": "Race Course Road",
        "alt_name": "Sri Jagadguru Renukacharya College of Law",
        "amenity": "college",
        "name": "SJR College of Law",
        "website": "https://www.sjrlawcollege.in/"
      }
    },
    {
      "type": "way",
      "id": 782014105,
      "center": {
        "lat": 12.9902123,
        "lon": 77.5800977
      },
      "tags": {
        "leisure": "garden"
      }
    },
    {
      "type": "way",
      "id": 782014109,
      "center": {
        "lat": 12.9903468,
        "lon": 77.5818819
      },
      "tags": {
        "leisure": "garden"
      }
    },
    {
      "type": "way",
      "id": 986979031,
      "center": {
        "lat": 12.9940269,
        "lon": 77.584796
      },
      "tags": {
        "amenity": "parking"
      }
    },
    {
      "type": "way",
      "id": 997923996,
      "center": {
        "lat": 12.9863583,
        "lon": 77.5792111
      },
      "tags": {
        "addr:district": "Bengaluru Urban",
        "addr:full": "6/6 Kumarakrupa Road OppositeShivananda Circle , High Grounds",
        "addr:postcode": "560001",
        "addr:state": "Karnataka",
        "amenity": "hospital",
        "name": "Dr. P.R. Desai Hospital Pvt Ltd",
        "source": "OpenGovernmentData"
      }
    },
    {
      "type": "way",
      "id": 1064890976,
      "center": {
        "lat": 12.99345,
        "lon": 77.5871464
      },
      "tags": {
        "amenity": "monastery",
        "community:gender": "female",
        "denomination": "catholic",
        "landuse": "religious",
        "monastery:type": "convent",
        "name": "Mount Carmel Convent",
        "religion": "christian"
      }
    },
    {
      "type": "way",
      "id": 1064890977,
      "center": {
        "lat": 12.9940686,
        "lon": 77.5871753
      },
      "tags": {
        "amenity": "school",
        "name": "Mount Carmel Central School"
      }
    },
    {
      "type": "way",
      "id": 1081215223,
      "center": {
        "lat": 12.9939066,
        "lon": 77.5692419
      },
      "tags": {
        "amenity": "place_of_worship",
        "religion": "hindu"
      }
    },
    {
      "type": "way",
      "id": 1081215229,
      "center": {
        "lat": 12.9889353,
        "lon": 77.5740851
      },
      "tags": {
        "leisure": "garden"
      }
    },
    {
      "type": "way",
      "id": 1113050871,
      "center": {
        "lat": 12.9883214,
        "lon": 77.576245
      },
      "tags": {
        "leisure": "sports_centre",
        "name": "Nehru Sports Club",
        "name:etymology:wikidata": "Q1047",
        "name:kn": "ನೆಹರು ಉದ್ಯಾನವನ"
      }
    },
    {
      "type": "way",
      "id": 1113050872,
      "center": {
        "lat": 12.9941812,
        "lon": 77.574021
      },
      "tags": {
        "leisure": "park"
      }
    },
    {
      "type": "way",
      "id": 1113050873,
      "center": {
        "lat": 12.996573,
        "lon": 77.5731253
      },
      "tags": {
        "amenity": "school",
        "name": "Allamandas School"
      }
    },
    {
      "type": "way",
      "id": 1124828967,
      "center": {
        "lat": 12.9847727,
        "lon": 77.5829241
      },
      "tags": {
        "amenity": "police",
        "name": "High Grounds Traffic Police Station"
      }
    },
    {
      "type": "way",
      "id": 1124838493,
      "center": {
        "lat": 12.9873579,
        "lon": 77.5805107
      },
      "tags": {
        "amenity": "school",
        "name": "Bharat Seva Dal",
        "name:kn": "ಭಾರತ ಸೇವಾದಳ",
        "wheelchair": "no"
      }
    },
    {
      "type": "way",
      "id": 1125999710,
      "center": {
        "lat": 12.9962155,
        "lon": 77.5833869
      },
      "tags": {
        "addr:city": "Bangalore",
        "addr:housenumber": "51",
        "addr:street": "Railway Parallel Road",
        "amenity": "school",
        "name": "Bethesda High School"
      }
    },
    {
      "type": "way",
      "id": 1164638921,
      "center": {
        "lat": 12.9991751,
        "lon": 77.574304
      },
      "tags": {
        "leisure": "park",
        "name": "Swimming Pool Extension Park"
      }
    },
    {
      "type": "way",
      "id": 1164850489,
      "center": {
        "lat": 12.9893456,
        "lon": 77.5717545
      },
      "tags": {
        "amenity": "fast_food",
        "brand": "Indira Canteen",
        "brand:wikidata": "Q36164828",
        "cuisine": "south_indian",
        "name": "Indira Canteen",
        "operator": "BBMP",
        "takeaway": "yes"
      }
    },
    {
      "type": "way",
      "id": 1195571013,
      "center": {
        "lat": 12.9990806,
        "lon": 77.5823861
      },
      "tags": {
        "amenity": "place_of_worship",
        "religion": "hindu"
      }
    },
    {
      "type": "way",
      "id": 1195571016,
      "center": {
        "lat": 12.9963142,
        "lon": 77.5802792
      },
      "tags": {
        "amenity": "fuel",
        "brand": "Indian Oil",
        "brand:wikidata": "Q1289348",
        "name": "Indian Oil",
        "name:kn": "ಇಂಡಿಯನ್ ಆಯಿಲ್",
        "operator": "Indian Oil"
      }
    },
    {
      "type": "way",
      "id": 1195571017,
      "center": {
        "lat": 12.9950657,
        "lon": 77.5791434
      },
      "tags": {
        "amenity": "fuel",
        "brand": "Trigaz",
        "name": "Trigaz",
        "operator": "Trigaz"
      }
    },
    {
      "type": "way",
      "id": 1195571024,
      "center": {
        "lat": 12.9971009,
        "lon": 77.5733518
      },
      "tags": {
        "amenity": "place_of_worship",
        "name": "Subramanyeshwara Temple",
        "name:kn": "ಸುಬ್ರಮಣ್ಯೇಶ್ವರ ದೇವಸ್ಥಾನ",
        "religion": "hindu"
      }
    },
    {
      "type": "way",
      "id": 1217527429,
      "center": {
        "lat": 12.9892107,
        "lon": 77.5778284
      },
      "tags": {
        "leisure": "playground"
      }
    },
    {
      "type": "way",
      "id": 1292999612,
      "center": {
        "lat": 12.993966,
        "lon": 77.5771632
      },
      "tags": {
        "amenity": "school",
        "name": "Sri Chaitanya Techno School"
      }
    },
    {
      "type": "way",
      "id": 1297146106,
      "center": {
        "lat": 12.9905792,
        "lon": 77.586795
      },
      "tags": {
        "access": "permissive",
        "amenity": "parking",
        "parking": "surface"
      }
    },
    {
      "type": "way",
      "id": 1297146109,
      "center": {
        "lat": 12.9902984,
        "lon": 77.5868815
      },
      "tags": {
        "access": "permissive",
        "amenity": "parking",
        "parking": "surface"
      }
    },
    {
      "type": "way",
      "id": 1297146110,
      "center": {
        "lat": 12.990488,
        "lon": 77.586411
      },
      "tags": {
        "access": "permissive",
        "amenity": "parking",
        "parking": "surface"
      }
    },
    {
      "type": "way",
      "id": 1299765928,
      "center": {
        "lat": 12.9927882,
        "lon": 77.5858214
      },
      "tags": {
        "access": "private",
        "leisure": "swimming_pool"
      }
    },
    {
      "type": "way",
      "id": 1301288895,
      "center": {
        "lat": 12.9924695,
        "lon": 77.5701281
      },
      "tags": {
        "access": "private",
        "leisure": "swimming_pool"
      }
    },
    {
      "type": "way",
      "id": 1309200350,
      "center": {
        "lat": 12.9836454,
        "lon": 77.5737757
      },
      "tags": {
        "leisure": "pitch",
        "sport": "basketball"
      }
    },
    {
      "type": "way",
      "id": 1338331415,
      "center": {
        "lat": 12.9868665,
        "lon": 77.5720624
      },
      "tags": {
        "amenity": "parking"
      }
    },
    {
      "type": "way",
      "id": 1340207896,
      "center": {
        "lat": 12.9987506,
        "lon": 77.574245
      },
      "tags": {
        "amenity": "place_of_worship",
        "landuse": "religious",
        "name": "Dattatreya Temple",
        "name:kn": "ದತ್ತಾತ್ರೇಯ ದೇವಸ್ಥಾನ",
        "religion": "hindu"
      }
    },
    {
      "type": "way",
      "id": 1342699279,
      "center": {
        "lat": 12.9919346,
        "lon": 77.582268
      },
      "tags": {
        "access": "customers",
        "amenity": "parking",
        "parking": "street_side"
      }
    },
    {
      "type": "way",
      "id": 1342699280,
      "center": {
        "lat": 12.9922548,
        "lon": 77.5825197
      },
      "tags": {
        "access": "customers",
        "amenity": "parking",
        "parking": "street_side"
      }
    },
    {
      "type": "way",
      "id": 1342699282,
      "center": {
        "lat": 12.9924904,
        "lon": 77.5828096
      },
      "tags": {
        "access": "customers",
        "amenity": "parking",
        "parking": "street_side"
      }
    },
    {
      "type": "way",
      "id": 1342699292,
      "center": {
        "lat": 12.9923618,
        "lon": 77.5825112
      },
      "tags": {
        "leisure": "garden"
      }
    },
    {
      "type": "way",
      "id": 1342699293,
      "center": {
        "lat": 12.992018,
        "lon": 77.5824186
      },
      "tags": {
        "leisure": "garden"
      }
    },
    {
      "type": "way",
      "id": 1342976490,
      "center": {
        "lat": 12.9879779,
        "lon": 77.5810303
      },
      "tags": {
        "amenity": "school",
        "name": "Sindhi High School",
        "website": "http://sindhihighschool.org/",
        "wheelchair": "no"
      }
    },
    {
      "type": "way",
      "id": 1342976500,
      "center": {
        "lat": 12.9869669,
        "lon": 77.5763639
      },
      "tags": {
        "leisure": "park"
      }
    },
    {
      "type": "way",
      "id": 1342998608,
      "center": {
        "lat": 12.9920403,
        "lon": 77.5814166
      },
      "tags": {
        "amenity": "shelter",
        "building": "roof",
        "shelter_type": "gazebo"
      }
    },
    {
      "type": "way",
      "id": 1342998611,
      "center": {
        "lat": 12.9929941,
        "lon": 77.5820388
      },
      "tags": {
        "access": "customers",
        "amenity": "parking",
        "parking": "street_side"
      }
    },
    {
      "type": "way",
      "id": 1353661366,
      "center": {
        "lat": 12.989969,
        "lon": 77.5741628
      },
      "tags": {
        "amenity": "fuel",
        "check_date": "2024-02-11"
      }
    },
    {
      "type": "way",
      "id": 1370045550,
      "center": {
        "lat": 12.9906718,
        "lon": 77.5731946
      },
      "tags": {
        "amenity": "theatre",
        "landuse": "commercial",
        "name": "AV Varadachar Kalakshetra"
      }
    },
    {
      "type": "way",
      "id": 1370045556,
      "center": {
        "lat": 12.990094,
        "lon": 77.5767803
      },
      "tags": {
        "amenity": "place_of_worship",
        "landuse": "religious",
        "religion": "hindu"
      }
    },
    {
      "type": "way",
      "id": 1370045558,
      "center": {
        "lat": 12.990054,
        "lon": 77.5772363
      },
      "tags": {
        "amenity": "events_venue",
        "landuse": "commercial",
        "name": "Badaganadu Sangha Convention Hall"
      }
    }
  ]
}