{
  "area_name": "Kushal Nagar",
  "osm_id": 7304873407,
  "osm_type": "node",
  "place_type": "neighbourhood",
  "amenity_count": 31,
  "amenities": [
    {
      "type": "node",
      "id": 1474875685,
      "lat": 13.0248621,
      "lon": 77.6139585,
      "tags": {
        "amenity": "hospital",
        "emergency": "yes",
        "name": "Dr. Ambedkar Medical College Hospital",
        "name:kn": "ಅಂಬೇಡ್ಕರ್ ವೈದ್ಯಕೀಯ ಕಾಲೇಜು ಆಸ್ಪತ್ರೆ"
      }
    },
    {
      "type": "node",
      "id": 4488035144,
      "lat": 13.0235383,
      "lon": 77.6090101,
      "tags": {
        "addr:city": "Bangalore",
        "addr:housenumber": "18",
        "addr:postcode": "560032",
        "addr:street": "Dinnur Main Road,Ambedkar Medical College Road",
        "name": "Ahmeds Retail",
        "phone": "(91)-80-23656566",
        "shop": "supermarket"
      }
    },
    {
      "type": "node",
      "id": 4887964023,
      "lat": 13.0204879,
      "lon": 77.6186105,
      "tags": {
        "amenity": "place_of_worship",
        "name": "Masjid Noor ur Rahman",
        "name:en": "Masjid Noor ur Rahman",
        "religion": "muslim",
        "wheelchair": "yes"
      }
    },
    {
      "type": "node",
      "id": 6886594828,
      "lat": 13.0250774,
      "lon": 77.6140174,
      "tags": {
        "addr:city": "Bengaluru",
        "addr:district": "BENGALURU URBAN",
        "addr:full": "K. G. Halli, Bengaluru",
        "addr:postcode": "560045",
        "addr:state": "Karnataka",
        "amenity": "blood_bank",
        "contact:mobile": "9980155789",
        "contact:phone": "8025463442",
        "name": "Dr. B. R. Ambedkar Medical College Hospital Blood Bank",
        "opening_hours": "24/7",
        "operator:type": "private",
        "source": "OpenGovernmentData",
        "website": "https://www.bramc.org/"
      }
    },
    {
      "type": "node",
      "id": 6886594852,
      "lat": 13.0112036,
      "lon": 77.6161659,
      "tags": {
        "addr:city": "Bengaluru",
        "addr:district": "BENGALURU URBAN",
        "addr:full": "Mediscope Hospital, No. 11, Pillanna Garden, 3rd stage",
        "addr:postcode": "560045",
        "addr:state": "Karnataka",
        "amenity": "blood_bank",
        "contact:mobile": "9945666554",
        "contact:phone": "8025466554",
        "name": "Mediscope Blood Bank",
        "opening_hours": "24/7",
        "operator:type": "private",
        "source": "OpenGovernmentData"
      }
    },
    {
      "type": "node",
      "id": 6939074293,
      "lat": 13.0218188,
      "lon": 77.613084,
      "tags": {
        "addr:district": "Bengaluru Urban",
        "addr:full": "Kadugondanahalli",
        "addr:postcode": "560045",
        "addr:state": "Karnataka",
        "amenity": "hospital",
        "email": "drbramc@rediffmail.com",
        "healthcare:speciality": "multi speciality",
        "name": "Dr Ambedkar Medical College Hospital",
        "operator:type": "private",
        "source": "OpenGovernmentData",
        "website": "http://www.bramc.org/"
      }
    },
    {
      "type": "node",
      "id": 6939076687,
      "lat": 13.0212406,
      "lon": 77.6070739,
      "tags": {
        "addr:district": "Bengaluru Urban",
        "addr:full": "91, Kavalbhyrasandra Dr Amc Road, Rt Nagar Post R T Nagar",
        "addr:postcode": "560032",
        "addr:state": "Karnataka",
        "amenity": "hospital",
        "name": "Manju Sree Hospital",
        "name:kn": "ಮಂಜುಶ್ರೀ ಆಸ್ಪತ್ರೆ",
        "source": "OpenGovernmentData"
      }
    },
    {
      "type": "node",
      "id": 6944587830,
      "lat": 13.0114714,
      "lon": 77.6162986,
      "tags": {
        "addr:district": "Bengaluru Urban",
        "addr:full": "No.9,Pillanna Garden 3Road Stage",
        "addr:postcode": "560045",
        "addr:state": "Karnataka",
        "amenity": "clinic",
        "name": "Mediscon Nursing Home",
        "source": "OpenGovernmentData"
      }
    },
    {
      "type": "node",
      "id": 6950412307,
      "lat": 13.0236062,
      "lon": 77.6196139,
      "tags": {
        "addr:district": "Bengaluru Urban",
        "addr:full": "5, Arabic College Main Road, Banglore",
        "addr:postcode": "560045",
        "addr:state": "Karnataka",
        "amenity": "hospital",
        "name": "Al- Habeeb Hospital",
        "source": "OpenGovernmentData"
      }
    },
    {
      "type": "node",
      "id": 11148749779,
      "lat": 13.0110602,
      "lon": 77.6133335,
      "tags": {
        "amenity": "fast_food",
        "cuisine": "regional",
        "name": "Indira Canteen",
        "operator": "BBMP"
      }
    },
    {
      "type": "node",
      "id": 12265502992,
      "lat": 13.0149829,
      "lon": 77.6173932,
      "tags": {
        "amenity": "internet_cafe",
        "name": "Tawakal Tea Corner"
      }
    },
    {
      "type": "node",
      "id": 12265566064,
      "lat": 13.018365,
      "lon": 77.6187666,
      "tags": {
        "amenity": "fuel",
        "brand": "Hindustan Petroleum"
      }
    },
    {
      "type": "node",
      "id": 12265567522,
      "lat": 13.0213579,
      "lon": 77.6189985,
      "tags": {
        "amenity": "place_of_worship",
        "religion": "hindu"
      }
    },
    {
      "type": "node",
      "id": 12265574592,
      "lat": 13.0227436,
      "lon": 77.6194946,
      "tags": {
        "amenity": "events_venue",
        "name": "Amir Hall"
      }
    },
    {
      "type": "node",
      "id": 12265583302,
      "lat": 13.0180558,
      "lon": 77.6185833,
      "tags": {
        "name": "Taj Chicken Center",
        "shop": "butcher"
      }
    },
    {
      "type": "node",
      "id": 12265584884,
      "lat": 13.0249894,
      "lon": 77.6198504,
      "tags": {
        "amenity": "events_venue",
        "name": "CRA Convention Hall"
      }
    },
    {
      "type": "node",
      "id": 12265589911,
      "lat": 13.0177211,
      "lon": 77.6184624,
      "tags": {
        "name": "A.K. Poultry Traders",
        "shop": "butcher"
      }
    },
    {
      "type": "node",
      "id": 12265591466,
      "lat": 13.0130099,
      "lon": 77.6166361,
      "tags": {
        "name": "Metro Cycle World",
        "shop": "bicycle"
      }
    },
    {
      "type": "node",
      "id": 12265592078,
      "lat": 13.016952,
      "lon": 77.618253,
      "tags": {
        "name": "J.B. Broilers",
        "shop": "butcher"
      }
    },
    {
      "type": "node",
      "id": 12265592079,
      "lat": 13.0230689,
      "lon": 77.619348,
      "tags": {
        "amenity": "pharmacy",
        "name": "Koya Pharma"
      }
    },
    {
      "type": "way",
      "id": 175876882,
      "center": {
        "lat": 13.0241073,
        "lon": 77.6148515
      },
      "tags": {
        "addr:postcode": "560045",
        "alt_name": "Ambedkar Medical College",
        "amenity": "college",
        "landuse": "education",
        "name": "Dr. Ambedkar Medical College",
        "name:etymology:wikidata": "Q231690",
        "name:kn": "ಅಂಬೇಡ್ಕರ್ ವೈದ್ಯಕೀಯ ಕಾಲೇಜು"
      }
    },
    {
      "type": "way",
      "id": 389989913,
      "center": {
        "lat": 13.0218947,
        "lon": 77.6128718
      },
      "tags": {
        "amenity": "parking_space"
      }
    },
    {
      "type": "way",
      "id": 1119315459,
      "center": {
        "lat": 13.0103376,
        "lon": 77.6187878
      },
      "tags": {
        "leisure": "park"
      }
    },
    {
      "type": "way",
      "id": 1119315460,
      "center": {
        "lat": 13.012258,
        "lon": 77.619056
      },
      "tags": {
        "leisure": "park"
      }
    },
    {
      "type": "way",
      "id": 1202598201,
      "center": {
        "lat": 13.0245659,
        "lon": 77.6190841
      },
      "tags": {
        "amenity": "events_venue",
        "landuse": "commercial",
        "name": "CMA Grand Convention & Wedding Hall"
      }
    },
    {
      "type": "way",
      "id": 1202598203,
      "center": {
        "lat": 13.0210609,
        "lon": 77.618726
      },
      "tags": {
        "amenity": "clinic",
        "name": "UPHC",
        "name:kn": "ಗ್ರಾಮಾಂತರ ಪ್ರಾಥಮಿಕ ಆರೋಗ್ಯ ಕೇಂದ್ರ",
        "operator": "BBMP"
      }
    },
    {
      "type": "way",
      "id": 1202598212,
      "center": {
        "lat": 13.0114152,
        "lon": 77.6130934
      },
      "tags": {
        "amenity": "police",
        "name": "DJ Halli Police Station",
        "name:kn": "ಆರಕ್ಷಕ ಠಾಣೆ"
      }
    },
    {
      "type": "way",
      "id": 1385583281,
      "center": {
        "lat": 13.0222556,
        "lon": 77.6081873
      },
      "tags": {
        "amenity": "fuel"
      }
    },
    {
      "type": "way",
      "id": 1416675134,
      "center": {
        "lat": 13.0198144,
        "lon": 77.619254
      },
      "tags": {
        "amenity": "police",
        "name": "Kadugondanahalli Traffic Police Station"
      }
    },
    {
      "type": "way",
      "id": 1416675135,
      "center": {
        "lat": 13.0194119,
        "lon": 77.6192385
      },
      "tags": {
        "amenity": "police",
        "name": "Kadugondanahalli Police Station"
      }
    },
    {
      "type": "way",
      "id": 1416890170,
      "center": {
        "lat": 13.0229144,
        "lon": 77.6131504
      },
      "tags": {
        "access": "customers",
        "amenity": "parking",
        "parking": "surface"
      }
    }
  ]
}