{
  "area_name": "Kuvempu Ward",
  "osm_id": 19884526,
  "osm_type": "relation",
  "place_type": "administrative",
  "amenity_count": 39,
  "amenities": [
    {
      "type": "node",
      "id": 1979096567,
      "lat": 12.9972801,
      "lon": 77.5609014,
      "tags": {
        "amenity": "place_of_worship",
        "name": "Circle Ganapathi Temple",
        "religion": "hindu",
        "wheelchair": "no"
      }
    },
    {
      "type": "node",
      "id": 4446528557,
      "lat": 13.0008545,
      "lon": 77.5631699,
      "tags": {
        "addr:city": "bangalore",
        "addr:housenumber": "19",
        "addr:postcode": "560003",
        "addr:street": "8th Main Rd, Malleshwaram",
        "amenity": "pharmacy",
        "name": "Pushyamee Medicals",
        "phone": "+91 80 2356 5016"
      }
    },
    {
      "type": "node",
      "id": 4597419989,
      "lat": 12.9966984,
      "lon": 77.5613324,
      "tags": {
        "amenity": "restaurant",
        "name": "Al-Bek",
        "name:en": "Al-Bek"
      }
    },
    {
      "type": "node",
      "id": 5061380657,
      "lat": 12.996421,
      "lon": 77.5630308,
      "tags": {
        "name": "Kerala Jewels",
        "shop": "jewelry"
      }
    },
    {
      "type": "node",
      "id": 5061380658,
      "lat": 12.9961873,
      "lon": 77.5650383,
      "tags": {
        "name": "Iyer's Coffee",
        "shop": "coffee"
      }
    },
    {
      "type": "node",
      "id": 5175027883,
      "lat": 12.9969598,
      "lon": 77.5613556,
      "tags": {
        "name": "Tan Shoes",
        "shop": "shoes"
      }
    },
    {
      "type": "node",
      "id": 5175027884,
      "lat": 12.9961986,
      "lon": 77.5651338,
      "tags": {
        "amenity": "fast_food",
        "name": "SLN Food Point"
      }
    },
    {
      "type": "node",
      "id": 5227399596,
      "lat": 12.9969929,
      "lon": 77.5613395,
      "tags": {
        "amenity": "fast_food",
        "name": "Malgudi's Donne Biryani"
      }
    },
    {
      "type": "node",
      "id": 5227399597,
      "lat": 12.9967846,
      "lon": 77.5626479,
      "tags": {
        "amenity": "bank",
        "atm": "yes",
        "brand": "Karnataka Bank",
        "brand:wikidata": "Q2042632",
        "name": "Karnataka Bank",
        "name:kn": "ಕರ್ನಾಟಕ ಬ್ಯಾಂಕ್"
      }
    },
    {
      "type": "node",
      "id": 5227399598,
      "lat": 12.9961831,
      "lon": 77.5642198,
      "tags": {
        "name": "Queen's Studio",
        "shop": "photo"
      }
    },
    {
      "type": "node",
      "id": 5227399599,
      "lat": 12.9961741,
      "lon": 77.5643288,
      "tags": {
        "name": "Variety Footware",
        "shop": "shoes"
      }
    },
    {
      "type": "node",
      "id": 7087593327,
      "lat": 12.9961698,
      "lon": 77.5641029,
      "tags": {
        "name": "Malavalli Metal Mart",
        "shop": "hardware"
      }
    },
    {
      "type": "node",
      "id": 7176651862,
      "lat": 12.9962848,
      "lon": 77.5660287,
      "tags": {
        "amenity": "dentist",
        "name": "Krupa Dental Clinic"
      }
    },
    {
      "type": "node",
      "id": 7176651863,
      "lat": 12.9961267,
      "lon": 77.5644824,
      "tags": {
        "amenity": "bank",
        "atm": "yes",
        "brand": "Canara Bank",
        "brand:en": "Canara Bank",
        "brand:hi": "केनरा बैंक",
        "brand:kn": "ಕೆನರಾ ಬ್ಯಾಂಕ್",
        "brand:pa": "ਕੇਨਰਾ ਬੈਂਕ",
        "brand:pnb": "کینرا بینک",
        "brand:ur": "کینرا بینک",
        "brand:wikidata": "Q2003777",
        "brand:wikipedia": "en:Canara Bank",
        "brand:wikipedia:pa": "ਕੇਨਰਾ ਬੈਂਕ",
        "name": "Canara Bank",
        "name:en": "Canara Bank",
        "name:hi": "केनरा बैंक",
        "name:kn": "ಕೆನರಾ ಬ್ಯಾಂಕ್",
        "name:pa": "ਕੇਨਰਾ ਬੈਂਕ",
        "name:pnb": "کینرا بینک",
        "name:ur": "کینرا بینک"
      }
    },
    {
      "type": "node",
      "id": 9214185078,
      "lat": 12.9964194,
      "lon": 77.5647211,
      "tags": {
        "name": "Skanda Sweets",
        "shop": "confectionery"
      }
    },
    {
      "type": "node",
      "id": 9214185079,
      "lat": 12.9967592,
      "lon": 77.5628636,
      "tags": {
        "amenity": "fast_food",
        "cuisine": "regional",
        "name": "Grill Biryanis"
      }
    },
    {
      "type": "node",
      "id": 9214185080,
      "lat": 12.9967278,
      "lon": 77.5629723,
      "tags": {
        "name": "Iyengar Bakery",
        "name:kn": "ಐಯ್ಯಂಗಾರ್ ಬೇಕರಿ",
        "shop": "bakery"
      }
    },
    {
      "type": "node",
      "id": 9214185081,
      "lat": 12.9968572,
      "lon": 77.5619034,
      "tags": {
        "name": "Karnad Furniture",
        "shop": "furniture"
      }
    },
    {
      "type": "node",
      "id": 10286250885,
      "lat": 12.9961908,
      "lon": 77.5640237,
      "tags": {
        "amenity": "bank",
        "atm": "yes",
        "brand": "Canara Bank",
        "brand:en": "Canara Bank",
        "brand:hi": "केनरा बैंक",
        "brand:kn": "ಕೆನರಾ ಬ್ಯಾಂಕ್",
        "brand:pa": "ਕੇਨਰਾ ਬੈਂਕ",
        "brand:pnb": "کینرا بینک",
        "brand:ur": "کینرا بینک",
        "brand:wikidata": "Q2003777",
        "name": "Canara Bank",
        "name:en": "Canara Bank",
        "name:hi": "केनरा बैंक",
        "name:kn": "ಕೆನರಾ ಬ್ಯಾಂಕ್",
        "name:pa": "ਕੇਨਰਾ ਬੈਂਕ",
        "name:pnb": "کینرا بینک",
        "name:ur": "کینرا بینک",
        "operator": "Canara Bank"
      }
    },
    {
      "type": "node",
      "id": 11391513070,
      "lat": 12.9947493,
      "lon": 77.5662647,
      "tags": {
        "amenity": "place_of_worship",
        "check_date": "2023-12-03",
        "religion": "hindu"
      }
    },
    {
      "type": "node",
      "id": 11391513071,
      "lat": 12.9966136,
      "lon": 77.5658401,
      "tags": {
        "leisure": "playground"
      }
    },
    {
      "type": "node",
      "id": 11391513075,
      "lat": 12.9998206,
      "lon": 77.5636725,
      "tags": {
        "check_date": "2025-01-23",
        "shop": "greengrocer"
      }
    },
    {
      "type": "node",
      "id": 11465535796,
      "lat": 12.9965458,
      "lon": 77.5630224,
      "tags": {
        "access": "customers",
        "amenity": "toilets",
        "check_date": "2023-11-21",
        "level": "1",
        "operator": "BMRCL"
      }
    },
    {
      "type": "node",
      "id": 11465535797,
      "lat": 12.9966335,
      "lon": 77.5630375,
      "tags": {
        "access": "customers",
        "amenity": "drinking_water",
        "fee": "no",
        "layer": "1",
        "level": "1"
      }
    },
    {
      "type": "node",
      "id": 11478107291,
      "lat": 13.0007872,
      "lon": 77.5632382,
      "tags": {
        "amenity": "atm",
        "brand": "State Bank of India",
        "brand:wikidata": "Q1340361",
        "check_date": "2024-01-02",
        "operator": "State Bank of India",
        "operator:wikidata": "Q1340361",
        "short_name": "SBI"
      }
    },
    {
      "type": "node",
      "id": 11478107292,
      "lat": 12.9993886,
      "lon": 77.563966,
      "tags": {
        "check_date": "2024-01-02",
        "name": "Nandini",
        "shop": "dairy"
      }
    },
    {
      "type": "node",
      "id": 11687235824,
      "lat": 12.9949359,
      "lon": 77.5662917,
      "tags": {
        "check_date": "2024-03-03",
        "name": "Kavery Bakery",
        "shop": "bakery"
      }
    },
    {
      "type": "node",
      "id": 11982693091,
      "lat": 12.9972616,
      "lon": 77.5647203,
      "tags": {
        "amenity": "place_of_worship",
        "check_date": "2024-06-15",
        "religion": "hindu"
      }
    },
    {
      "type": "node",
      "id": 12078138007,
      "lat": 12.995127,
      "lon": 77.5662914,
      "tags": {
        "check_date": "2024-07-28",
        "shop": "hairdresser"
      }
    },
    {
      "type": "node",
      "id": 12525804599,
      "lat": 12.9984246,
      "lon": 77.5646051,
      "tags": {
        "check_date": "2025-01-23",
        "shop": "greengrocer"
      }
    },
    {
      "type": "way",
      "id": 207854379,
      "center": {
        "lat": 12.9936589,
        "lon": 77.5678487
      },
      "tags": {
        "amenity": "place_of_worship",
        "name": "Rameshwara Temple",
        "name:kn": "ರಾಮೇಶ್ವರ ದೇವಸ್ತಾನ",
        "religion": "hindu"
      }
    },
    {
      "type": "way",
      "id": 1081206649,
      "center": {
        "lat": 12.9965467,
        "lon": 77.564252
      },
      "tags": {
        "amenity": "place_of_worship",
        "religion": "hindu"
      }
    },
    {
      "type": "way",
      "id": 1106630231,
      "center": {
        "lat": 12.9973825,
        "lon": 77.560968
      },
      "tags": {
        "amenity": "place_of_worship",
        "religion": "hindu"
      }
    },
    {
      "type": "way",
      "id": 1106630232,
      "center": {
        "lat": 12.9988218,
        "lon": 77.5616587
      },
      "tags": {
        "amenity": "college",
        "name": "Vivekananda College of Law",
        "name:kn": "ವಿವೇಕನಂದ ಕಾನೂನು ಕಾಲೇಜು"
      }
    },
    {
      "type": "way",
      "id": 1106630234,
      "center": {
        "lat": 12.998156,
        "lon": 77.56453
      },
      "tags": {
        "amenity": "school",
        "name": "BBMP Junior College and Girls High School",
        "name:kn": "ಸರ್ಕಾರಿ ಬಾಲಕಿಯರ ಪ್ರೌಡಶಾಲೆ ಗೋಗಿ"
      }
    },
    {
      "type": "way",
      "id": 1195571028,
      "center": {
        "lat": 12.9964752,
        "lon": 77.5645387
      },
      "tags": {
        "amenity": "school"
      }
    },
    {
      "type": "way",
      "id": 1210469164,
      "center": {
        "lat": 12.9959403,
        "lon": 77.5665162
      },
      "tags": {
        "amenity": "place_of_worship",
        "name": "Ayyappa Temple",
        "name:kn": "ಅಯ್ಯಪ್ಪ ದೇವಸ್ಥಾನ",
        "religion": "hindu"
      }
    },
    {
      "type": "way",
      "id": 1353661380,
      "center": {
        "lat": 12.9993932,
        "lon": 77.5638996
      },
      "tags": {
        "amenity": "school"
      }
    },
    {
      "type": "way",
      "id": 1353661388,
      "center": {
        "lat": 13.0012997,
        "lon": 77.5624711
      },
      "tags": {
        "amenity": "clinic",
        "name": "BBMP Health Centre"
      }
    }
  ]
}