{
  "area_name": "L.B Shastri Nagar",
  "osm_id": 19884543,
  "osm_type": "relation",
  "place_type": "administrative",
  "amenity_count": 15,
  "amenities": [
    {
      "type": "node",
      "id": 4310360791,
      "lat": 12.9688819,
      "lon": 77.6730004,
      "tags": {
        "indoor_seating": "no",
        "name": "Aiwas",
        "outdoor_seating": "no",
        "shop": "bakery",
        "takeaway": "only"
      }
    },
    {
      "type": "node",
      "id": 4899556155,
      "lat": 12.9675399,
      "lon": 77.6703009,
      "tags": {
        "name": "Hassan Iyangar's Bakery",
        "shop": "bakery"
      }
    },
    {
      "type": "node",
      "id": 4899556156,
      "lat": 12.9680705,
      "lon": 77.6702137,
      "tags": {
        "amenity": "dentist",
        "name": "VHC International"
      }
    },
    {
      "type": "node",
      "id": 7572526704,
      "lat": 12.9625212,
      "lon": 77.6709431,
      "tags": {
        "addr:district": "Bengaluru Urban",
        "addr:full": "Krishna Nagar, Vimanapura, Bengaluru",
        "addr:postcode": "560017",
        "addr:state": "Karnataka",
        "amenity": "clinic",
        "name": "Raju Health Centre",
        "source": "Local Knowledge"
      }
    },
    {
      "type": "node",
      "id": 7572526714,
      "lat": 12.9674869,
      "lon": 77.6701879,
      "tags": {
        "addr:district": "Bengaluru Urban",
        "addr:full": "LBS Nagar, Kaggadasapura, Bengaluru",
        "addr:postcode": "560017",
        "addr:state": "Karnataka",
        "amenity": "clinic",
        "name": "Nms Sanjivini Health Center",
        "source": "Local Knowledge"
      }
    },
    {
      "type": "node",
      "id": 7572526716,
      "lat": 12.9644469,
      "lon": 77.6719687,
      "tags": {
        "addr:district": "Bengaluru Urban",
        "addr:full": "Annasandrapalya Extension, Islampur, Vibhutipura, Bengaluru",
        "addr:postcode": "560017",
        "addr:state": "Karnataka",
        "amenity": "clinic",
        "name": "Dr. Harish Tyagi Clinic",
        "source": "Local Knowledge"
      }
    },
    {
      "type": "node",
      "id": 7572526737,
      "lat": 12.9676391,
      "lon": 77.6728616,
      "tags": {
        "addr:district": "Bengaluru Urban",
        "addr:full": "LBS Nagar, Kaggadasapura, Bengaluru",
        "addr:postcode": "560017",
        "addr:state": "Karnataka",
        "amenity": "clinic",
        "name": "Samruddhi Health Care Centre",
        "source": "Local Knowledge"
      }
    },
    {
      "type": "node",
      "id": 7572526771,
      "lat": 12.964036,
      "lon": 77.672902,
      "tags": {
        "addr:district": "Bengaluru Urban",
        "addr:full": "Vinayaka Nagar, Vimanapura, Bengaluru",
        "addr:postcode": "560017",
        "addr:state": "Karnataka",
        "amenity": "dentist",
        "name": "Arya Dental Care",
        "source": "Local Knowledge"
      }
    },
    {
      "type": "node",
      "id": 7572526794,
      "lat": 12.9640923,
      "lon": 77.6716941,
      "tags": {
        "addr:district": "Bengaluru Urban",
        "addr:full": "Annasandrapalya Extension, Vimanapura, Bengaluru",
        "addr:postcode": "560017",
        "addr:state": "Karnataka",
        "amenity": "clinic",
        "name": "SNP Homoeopathy Clinic",
        "source": "Local Knowledge"
      }
    },
    {
      "type": "way",
      "id": 583915625,
      "center": {
        "lat": 12.9651959,
        "lon": 77.66924
      },
      "tags": {
        "leisure": "park"
      }
    },
    {
      "type": "way",
      "id": 1429354942,
      "center": {
        "lat": 12.9694885,
        "lon": 77.6717057
      },
      "tags": {
        "access": "private",
        "leisure": "swimming_pool"
      }
    },
    {
      "type": "way",
      "id": 1447903282,
      "center": {
        "lat": 12.9648647,
        "lon": 77.6708772
      },
      "tags": {
        "amenity": "place_of_worship",
        "landuse": "religious",
        "name": "Yallamma Devasthana",
        "name:kn": "ಯಲ್ಲಮ್ಮ ದೇವಸ್ಥಾನ",
        "religion": "hindu"
      }
    },
    {
      "type": "way",
      "id": 1447954496,
      "center": {
        "lat": 12.9644941,
        "lon": 77.6722226
      },
      "tags": {
        "amenity": "place_of_worship",
        "denomination": "hindu",
        "landuse": "religious",
        "name": "Sri Ram Mandir",
        "religion": "hindu"
      }
    },
    {
      "type": "way",
      "id": 1449319752,
      "center": {
        "lat": 12.9643867,
        "lon": 77.6701798
      },
      "tags": {
        "access": "private",
        "leisure": "playground"
      }
    },
    {
      "type": "way",
      "id": 1449319756,
      "center": {
        "lat": 12.9619024,
        "lon": 77.6699727
      },
      "tags": {
        "amenity": "place_of_worship",
        "landuse": "religious",
        "religion": "muslim"
      }
    }
  ]
}