{
  "area_name": "Langford Town",
  "osm_id": 7448713682,
  "osm_type": "node",
  "place_type": "neighbourhood",
  "amenity_count": 227,
  "amenities": [
    {
      "type": "node",
      "id": 317118536,
      "lat": 12.956044,
      "lon": 77.6119244,
      "tags": {
        "amenity": "place_of_worship",
        "fixme": "location",
        "name:kn": "ಮಸೀದಿ",
        "religion": "muslim"
      }
    },
    {
      "type": "node",
      "id": 644420166,
      "lat": 12.9600242,
      "lon": 77.6015444,
      "tags": {
        "amenity": "restaurant",
        "name": "Sandhya Sagar",
        "name:kn": "ಸಂಧ್ಯಾ ಸಾಗರ್"
      }
    },
    {
      "type": "node",
      "id": 1061343614,
      "lat": 12.9657768,
      "lon": 77.6054478,
      "tags": {
        "addr:street": "Richmond Road",
        "amenity": "place_of_worship",
        "name": "Richmond Town Mosque",
        "religion": "muslim",
        "wheelchair": "no"
      }
    },
    {
      "type": "node",
      "id": 1448814112,
      "lat": 12.9645047,
      "lon": 77.6065319,
      "tags": {
        "amenity": "fast_food",
        "cuisine": "kebab",
        "name": "Hotel Fanoos"
      }
    },
    {
      "type": "node",
      "id": 1851614806,
      "lat": 12.960466,
      "lon": 77.6017789,
      "tags": {
        "name": "Reliance Smartpoint",
        "shop": "supermarket"
      }
    },
    {
      "type": "node",
      "id": 1851614956,
      "lat": 12.9596191,
      "lon": 77.6026157,
      "tags": {
        "name": "Namdharis",
        "shop": "supermarket"
      }
    },
    {
      "type": "node",
      "id": 1851615411,
      "lat": 12.9622638,
      "lon": 77.6040957,
      "tags": {
        "name": "Richmond Supermarket",
        "shop": "supermarket"
      }
    },
    {
      "type": "node",
      "id": 1851615731,
      "lat": 12.958286,
      "lon": 77.605196,
      "tags": {
        "amenity": "restaurant",
        "cuisine": "international",
        "name": "Y! Cafe"
      }
    },
    {
      "type": "node",
      "id": 1851618527,
      "lat": 12.9616161,
      "lon": 77.5986353,
      "tags": {
        "amenity": "bank",
        "atm": "yes",
        "brand": "IDFC First Bank",
        "brand:wikidata": "Q22031467",
        "brand:wikipedia": "en:IDFC First Bank",
        "drive_through": "no",
        "name": "IDFC First Bank",
        "not:brand:wikidata": "Q1653258",
        "operator": "IDFC First Bank"
      }
    },
    {
      "type": "node",
      "id": 1851675230,
      "lat": 12.9656404,
      "lon": 77.6017608,
      "tags": {
        "name": "Print Express",
        "shop": "copyshop",
        "wheelchair": "no"
      }
    },
    {
      "type": "node",
      "id": 1851682041,
      "lat": 12.9624402,
      "lon": 77.5990359,
      "tags": {
        "amenity": "restaurant",
        "brand": "Pizza Hut",
        "brand:wikidata": "Q191615",
        "check_date": "2024-12-29",
        "cuisine": "pizza",
        "name": "Pizza Hut",
        "name:kn": "ಪಿಟ್ಸ ಹಟ್"
      }
    },
    {
      "type": "node",
      "id": 1851688340,
      "lat": 12.9602214,
      "lon": 77.6017286,
      "tags": {
        "shop": "alcohol"
      }
    },
    {
      "type": "node",
      "id": 1851701176,
      "lat": 12.9597386,
      "lon": 77.6018505,
      "tags": {
        "shop": "laundry"
      }
    },
    {
      "type": "node",
      "id": 1851701311,
      "lat": 12.9596942,
      "lon": 77.6018371,
      "tags": {
        "shop": "greengrocer"
      }
    },
    {
      "type": "node",
      "id": 1851701331,
      "lat": 12.9583088,
      "lon": 77.6022126,
      "tags": {
        "name": "Neelam Stores",
        "shop": "convenience"
      }
    },
    {
      "type": "node",
      "id": 1851707242,
      "lat": 12.9655446,
      "lon": 77.601164,
      "tags": {
        "addr:city": "Bengaluru",
        "addr:district": "Bengaluru Urban",
        "addr:housenumber": "8/24",
        "addr:postcode": "560025",
        "addr:street": "Richmond Road",
        "amenity": "bank",
        "atm": "yes",
        "brand": "HDFC Bank",
        "brand:wikidata": "Q631047",
        "brand:wikipedia": "en:HDFC Bank",
        "name": "HDFC Bank",
        "name:kn": "ಎಚ್ ಡಿ ಎಫ್ ಸಿ",
        "short_name": "HDFC",
        "website": "https://www.hdfcbank.com"
      }
    },
    {
      "type": "node",
      "id": 1851709530,
      "lat": 12.9638299,
      "lon": 77.6009468,
      "tags": {
        "amenity": "place_of_worship",
        "religion": "hindu"
      }
    },
    {
      "type": "node",
      "id": 2774680147,
      "lat": 12.9652714,
      "lon": 77.5985205,
      "tags": {
        "addr:housename": "Ittiam",
        "addr:street": "Richmond Road",
        "amenity": "bank",
        "atm": "yes",
        "brand": "HDFC Bank",
        "brand:wikidata": "Q631047",
        "brand:wikipedia": "en:HDFC Bank",
        "name": "HDFC Bank",
        "name:kn": "ಎಚ್ ಡಿ ಎಫ್ ಸಿ",
        "short_name": "HDFC",
        "source": "www.hdfcbank.com",
        "website": "https://www.hdfcbank.com"
      }
    },
    {
      "type": "node",
      "id": 2774686318,
      "lat": 12.965985,
      "lon": 77.6036918,
      "tags": {
        "amenity": "atm",
        "operator": "Citi Bank India",
        "source": "www.citibank.co.in"
      }
    },
    {
      "type": "node",
      "id": 2875597594,
      "lat": 12.9644187,
      "lon": 77.6062299,
      "tags": {
        "name": "Karnataka Supermarket",
        "shop": "supermarket"
      }
    },
    {
      "type": "node",
      "id": 4080860480,
      "lat": 12.9631001,
      "lon": 77.6057848,
      "tags": {
        "amenity": "fast_food",
        "name": "Siddiqu Kabab Center"
      }
    },
    {
      "type": "node",
      "id": 4307611570,
      "lat": 12.965537,
      "lon": 77.6027487,
      "tags": {
        "branch": "Beauty Zone",
        "brand": "Avon",
        "brand:wikidata": "Q791285",
        "name": "Avon",
        "shop": "cosmetics"
      }
    },
    {
      "type": "node",
      "id": 4307625972,
      "lat": 12.9655392,
      "lon": 77.6028344,
      "tags": {
        "amenity": "bank",
        "brand": "State Bank of India",
        "brand:wikidata": "Q1340361",
        "brand:wikipedia": "en:State Bank of India",
        "name": "State Bank of India",
        "name:kn": "ಭಾರತೀಯ ಸ್ಟೇಟ್ ಬ್ಯಾಂಕ್",
        "short_name": "SBI",
        "website": "https://www.sbi.co.in"
      }
    },
    {
      "type": "node",
      "id": 4307626008,
      "lat": 12.9655401,
      "lon": 77.6028098,
      "tags": {
        "name": "Lakme Salon",
        "shop": "beauty"
      }
    },
    {
      "type": "node",
      "id": 4307640439,
      "lat": 12.9655881,
      "lon": 77.6036377,
      "tags": {
        "amenity": "college",
        "name": "Presidency University",
        "office": "educational_institution"
      }
    },
    {
      "type": "node",
      "id": 4307663670,
      "lat": 12.965985,
      "lon": 77.6043811,
      "tags": {
        "amenity": "bank",
        "brand": "State Bank of India",
        "brand:wikidata": "Q1340361",
        "brand:wikipedia": "en:State Bank of India",
        "name": "State Bank of India",
        "name:kn": "ಭಾರತೀಯ ಸ್ಟೇಟ್ ಬ್ಯಾಂಕ್",
        "short_name": "SBI"
      }
    },
    {
      "type": "node",
      "id": 4314392991,
      "lat": 12.9663431,
      "lon": 77.6065158,
      "tags": {
        "name": "Akbar Travels",
        "shop": "travel_agency"
      }
    },
    {
      "type": "node",
      "id": 4368864093,
      "lat": 12.9665145,
      "lon": 77.6065215,
      "tags": {
        "amenity": "cafe",
        "name": "Fruit xtracts"
      }
    },
    {
      "type": "node",
      "id": 4368871490,
      "lat": 12.9664099,
      "lon": 77.6069001,
      "tags": {
        "name": "Vellara Junction",
        "name:en": "Vellara Junction",
        "name:kn": "ವೆಲ್ಲಾರ ಜಂಕ್ಷನ್",
        "shop": "gift"
      }
    },
    {
      "type": "node",
      "id": 4395689916,
      "lat": 12.9650035,
      "lon": 77.6001039,
      "tags": {
        "amenity": "theatre",
        "name": "Montgomery Hall",
        "name:en": "Montgomery Hall"
      }
    },
    {
      "type": "node",
      "id": 4446442047,
      "lat": 12.9658632,
      "lon": 77.5998808,
      "tags": {
        "addr:city": "Bengaluru",
        "addr:housenumber": "5/1",
        "addr:postcode": "560025",
        "addr:street": "2nd Floor, Rich Homes, Richmond Road, Shanthala Nagar, Ashok Nagar, Shanthala Nagar, Ashok Nagar",
        "amenity": "pharmacy",
        "name": "Bangalore Fetal Medicine Centre",
        "phone": "080 2221 0540",
        "website": "bangalorefetalmedicine.com"
      }
    },
    {
      "type": "node",
      "id": 4489717014,
      "lat": 12.9665378,
      "lon": 77.6037676,
      "tags": {
        "addr:city": "Bangalore",
        "addr:housenumber": "No 2",
        "addr:postcode": "560025",
        "addr:street": "Mirza House, Convent Road, Richmond Town, Bhadrappa Layout, Shanthala Nagar, Ashok Nagar, Bengaluru, Karnataka",
        "brand": "Gold's Gym",
        "brand:wikidata": "Q1536234",
        "leisure": "fitness_centre",
        "name": "Gold's Gym",
        "name:kn": "ಗೊಲ್ಡ್ಸ್ ಜಿಮ್",
        "opening_hours": "06:00 -22:00",
        "phone": "8041477626",
        "sport": "gymnasium"
      }
    },
    {
      "type": "node",
      "id": 4527833925,
      "lat": 12.9660378,
      "lon": 77.6023232,
      "tags": {
        "amenity": "cafe"
      }
    },
    {
      "type": "node",
      "id": 4527833926,
      "lat": 12.9572546,
      "lon": 77.6074721,
      "tags": {
        "amenity": "cafe"
      }
    },
    {
      "type": "node",
      "id": 4542473044,
      "lat": 12.9656927,
      "lon": 77.6001774,
      "tags": {
        "addr:city": "Bengaluru",
        "addr:country": "IN",
        "addr:housenumber": "PH1, 6th Floor, Rich Homes, 5/1",
        "addr:postcode": "560025",
        "addr:street": "Richmond Road",
        "amenity": "coworking_space",
        "email": "hello@jaaga.in",
        "name": "Jaaga Startup, Study and Labs",
        "office": "coworking",
        "opening_hours": "9:00-18:30",
        "operator": "Jaaga",
        "website": "https://www.jaaga.in/"
      }
    },
    {
      "type": "node",
      "id": 4691599029,
      "lat": 12.9493419,
      "lon": 77.6058431,
      "tags": {
        "amenity": "place_of_worship",
        "religion": "christian"
      }
    },
    {
      "type": "node",
      "id": 4847287230,
      "lat": 12.9664015,
      "lon": 77.6037829,
      "tags": {
        "amenity": "clinic",
        "name": "Ancient China",
        "name:en": "Ancient China"
      }
    },
    {
      "type": "node",
      "id": 4847294839,
      "lat": 12.9656547,
      "lon": 77.6018918,
      "tags": {
        "amenity": "bank",
        "atm": "yes",
        "brand": "Axis Bank",
        "brand:wikidata": "Q2003549",
        "brand:wikipedia": "en:Axis Bank",
        "name": "Axis Bank",
        "name:en": "Axis Bank",
        "name:kn": "ಆಕ್ಸಿಸ್ ಬ್ಯಾಂಕ್",
        "website": "https://www.axisbank.com"
      }
    },
    {
      "type": "node",
      "id": 4847296033,
      "lat": 12.9654387,
      "lon": 77.599506,
      "tags": {
        "name": "Neelkanth",
        "name:en": "Neelkanth",
        "shop": "jewelry"
      }
    },
    {
      "type": "node",
      "id": 5168658567,
      "lat": 12.9570709,
      "lon": 77.6057127,
      "tags": {
        "name": "Hercules Sports International",
        "shop": "sports"
      }
    },
    {
      "type": "node",
      "id": 5168658571,
      "lat": 12.9638723,
      "lon": 77.6065817,
      "tags": {
        "name": "Nandini Milk Parlour",
        "name:kn": "ನಂದಿನಿ ಹಾಲಿನ ಅಂಗಡಿ",
        "shop": "dairy"
      }
    },
    {
      "type": "node",
      "id": 5168658572,
      "lat": 12.9647139,
      "lon": 77.6056671,
      "tags": {
        "amenity": "atm",
        "brand": "Axis Bank",
        "brand:wikidata": "Q2003549",
        "name": "Axis Bank",
        "name:kn": "ಆಕ್ಸಿಸ್ ಬ್ಯಾಂಕ್",
        "operator": "Axis Bank",
        "operator:wikidata": "Q2003549"
      }
    },
    {
      "type": "node",
      "id": 5168658573,
      "lat": 12.9657964,
      "lon": 77.6051237,
      "tags": {
        "amenity": "clinic",
        "healthcare": "clinic",
        "name": "Renew Medical Center"
      }
    },
    {
      "type": "node",
      "id": 5200633856,
      "lat": 12.9654654,
      "lon": 77.5989089,
      "tags": {
        "addr:city": "Bengaluru",
        "amenity": "bar",
        "level": "3",
        "name": "Sanctum Pub",
        "operator": "Elixir Hospitality",
        "smoking": "separated"
      }
    },
    {
      "type": "node",
      "id": 5229454410,
      "lat": 12.9650621,
      "lon": 77.5998831,
      "tags": {
        "name": "Style Spa",
        "shop": "interior_decoration"
      }
    },
    {
      "type": "node",
      "id": 5402224036,
      "lat": 12.9635407,
      "lon": 77.597756,
      "tags": {
        "amenity": "dentist"
      }
    },
    {
      "type": "node",
      "id": 5402302827,
      "lat": 12.9584526,
      "lon": 77.6046732,
      "tags": {
        "shop": "furniture"
      }
    },
    {
      "type": "node",
      "id": 5402307927,
      "lat": 12.9606269,
      "lon": 77.6008095,
      "tags": {
        "amenity": "place_of_worship"
      }
    },
    {
      "type": "node",
      "id": 5402307928,
      "lat": 12.9618944,
      "lon": 77.5977432,
      "tags": {
        "amenity": "place_of_worship"
      }
    },
    {
      "type": "node",
      "id": 5765878302,
      "lat": 12.9649744,
      "lon": 77.5993954,
      "tags": {
        "name": "M. P. Swarna Mahal",
        "shop": "jewelry"
      }
    },
    {
      "type": "node",
      "id": 5765878304,
      "lat": 12.9649875,
      "lon": 77.5996327,
      "tags": {
        "amenity": "bank",
        "atm": "yes",
        "brand": "Punjab National Bank",
        "brand:wikidata": "Q2743499",
        "name": "Punjab National Bank"
      }
    },
    {
      "type": "node",
      "id": 6348761817,
      "lat": 12.96555,
      "lon": 77.6061116,
      "tags": {
        "amenity": "school",
        "isced:level": "2",
        "name": "GUPHS Arblen",
        "name:kn": "ಸರ್ಕಾರಿ ಉರ್ದು ಹಿರಿಯ ಪ್ರಾಥಮಿಕ ಶಾಲೆ ಅಬ್ಲೇನ್",
        "operator": "Department of Education",
        "school": "primary"
      }
    },
    {
      "type": "node",
      "id": 6349011311,
      "lat": 12.9547967,
      "lon": 77.6116127,
      "tags": {
        "addr:suburb": "Neelasandra",
        "amenity": "school",
        "isced:level": "2",
        "name": "Mahanagara Palike HPS Neelasandra",
        "name:kn": "ಮಹಾನಗರ ಪಾಲಿಕೆ ಹಿರಿಯ ಪ್ರಾಥಮಿಕ ಶಾಲೆನೀಲಸಂದ್ರ",
        "operator": "Department of Primary and Secondary Education",
        "operator:wikidata": "Q111467381",
        "school": "primary"
      }
    },
    {
      "type": "node",
      "id": 6349031908,
      "lat": 12.9539725,
      "lon": 77.6004211,
      "tags": {
        "addr:place": "Shanthinagar",
        "amenity": "school",
        "isced:level": "2",
        "name": "GHPS Ksrtc Shanthinagar",
        "name:kn": "ಸರ್ಕಾರಿ ಹಿರಿಯ ಪ್ರಾಥಮಿಕ ಶಾಲೆ ಕೆ.ಎಸ್‌.ಆರ್‌.ಟಿ.ಸಿ ಶಾಂತಿನಗರ",
        "operator": "Department of Education",
        "school": "primary"
      }
    },
    {
      "type": "node",
      "id": 6349040951,
      "lat": 12.9533162,
      "lon": 77.6005694,
      "tags": {
        "amenity": "school",
        "isced:level": "2",
        "name": "Shanthi KHPS Vinayakanagar",
        "name:kn": "ಶಾಂತಿ ಕನ್ನಡ ಹಿರಿಯ ಪ್ರಾಥಮಿಕ ಶಾಲೆ ವಿನಾಯಕನಗರ",
        "operator": "Department of Education",
        "school": "primary"
      }
    },
    {
      "type": "node",
      "id": 6349074612,
      "lat": 12.9555605,
      "lon": 77.5978653,
      "tags": {
        "addr:place": "Shanthinagar",
        "amenity": "school",
        "isced:level": "2",
        "name": "St Michael LPS Shanthinagar",
        "name:kn": "ಸೆಂಟ್‌ ಮೈಕಲ್ ಕಿರಿಯ ಪ್ರಾಥಮಿಕ ಶಾಲೆ ಶಾಂತಿನಗರ",
        "operator": "Department of Education",
        "school": "primary"
      }
    },
    {
      "type": "node",
      "id": 6681215529,
      "lat": 12.9659363,
      "lon": 77.6035702,
      "tags": {
        "addr:floor": "G",
        "amenity": "cafe",
        "check_date": "2024-12-29",
        "level": "0",
        "name": "Cafe Mor'ish",
        "opening_hours": "08:30-22:00",
        "outdoor_seating": "no",
        "wheelchair": "limited"
      }
    },
    {
      "type": "node",
      "id": 6681215531,
      "lat": 12.9661166,
      "lon": 77.6051702,
      "tags": {
        "amenity": "bank",
        "atm": "yes",
        "brand": "Bank of India",
        "brand:wikidata": "Q2004439",
        "name": "Bank of India"
      }
    },
    {
      "type": "node",
      "id": 6745250346,
      "lat": 12.9505064,
      "lon": 77.6082572,
      "tags": {
        "addr:place": "Neelasandra",
        "amenity": "school",
        "fixme": "Is this a Methodist-run school? Check spelling of name.",
        "isced:level": "3",
        "name": "Methadist HPS Anepalya",
        "name:kn": "ಮೆಥೋಡಿಸ್ಟ್ ಹಿರಿಯ ಪ್ರಾಥಮಿಕ ಶಾಲೆ ಅನೆಪಾಲಿಯಾ, ನೀಲಸಂದ್ರ",
        "operator": "Private Un-Aided",
        "school": "Higher Secondary"
      }
    },
    {
      "type": "node",
      "id": 6745867506,
      "lat": 12.9515296,
      "lon": 77.6017794,
      "tags": {
        "addr:place": "Shanthinagar",
        "amenity": "school",
        "isced:level": "2",
        "name": "LPS Vinayakanagar,Shanthinagar",
        "name:kn": "ಕಿರಿಯ ಪ್ರಾಥಮಿಕ ಶಾಲೆ ವಿನಾಯಕನಗರ ಶಾಂತಿನಗರ",
        "operator": "Private Un-Aided",
        "school": "Higher primary"
      }
    },
    {
      "type": "node",
      "id": 6947504038,
      "lat": 12.964162,
      "lon": 77.5982255,
      "tags": {
        "addr:district": "Bengaluru Urban",
        "addr:full": "No. 5, Langford Gardens, Near Richmond Circle",
        "addr:postcode": "560025",
        "addr:state": "Karnataka",
        "amenity": "hospital",
        "name": "Republic Hospital",
        "source": "OpenGovernmentData"
      }
    },
    {
      "type": "node",
      "id": 7043992185,
      "lat": 12.9620164,
      "lon": 77.5978486,
      "tags": {
        "amenity": "restaurant",
        "name": "Peace Restaurant"
      }
    },
    {
      "type": "node",
      "id": 7043992186,
      "lat": 12.9583199,
      "lon": 77.6049603,
      "tags": {
        "name": "Hafele Appliances",
        "opening_hours": "Mo-Sa 10:00-17:00",
        "shop": "electronics"
      }
    },
    {
      "type": "node",
      "id": 7176651785,
      "lat": 12.9611765,
      "lon": 77.604694,
      "tags": {
        "addr:city": "Bengaluru",
        "addr:country": "IN",
        "addr:hamlet": "Richmond Town",
        "addr:housenumber": "11/1",
        "addr:postcode": "560025",
        "addr:street": "Alfred Street",
        "amenity": "restaurant",
        "cuisine": "japanese",
        "name": "Azuki Japan Travel Bistro & Sake",
        "note": "Opened in the middle of February 2020",
        "opening_hours": "11:00 - 23:00"
      }
    },
    {
      "type": "node",
      "id": 7293708139,
      "lat": 12.9581548,
      "lon": 77.60537,
      "tags": {
        "amenity": "bank",
        "atm": "yes",
        "brand": "State Bank of India",
        "brand:wikidata": "Q1340361",
        "name": "State Bank of India",
        "name:kn": "ಭಾರತೀಯ ಸ್ಟೇಟ್ ಬ್ಯಾಂಕ್",
        "operator": "State Bank of India",
        "short_name": "SBI"
      }
    },
    {
      "type": "node",
      "id": 7293708149,
      "lat": 12.9630375,
      "lon": 77.6049435,
      "tags": {
        "amenity": "bank",
        "atm": "yes",
        "brand": "Union Bank of India",
        "brand:wikidata": "Q2004078",
        "name": "Union Bank of India",
        "name:kn": "ಯೂನಿಯನ್ ಬ್ಯಾಂಕ್",
        "operator": "Union Bank of India"
      }
    },
    {
      "type": "node",
      "id": 7293708177,
      "lat": 12.9596604,
      "lon": 77.6017229,
      "tags": {
        "amenity": "fast_food",
        "name": "Sudha Chats"
      }
    },
    {
      "type": "node",
      "id": 7293708178,
      "lat": 12.9597434,
      "lon": 77.6019703,
      "tags": {
        "name": "Family Mart",
        "shop": "supermarket"
      }
    },
    {
      "type": "node",
      "id": 7293708179,
      "lat": 12.9599937,
      "lon": 77.6019797,
      "tags": {
        "name": "Fazal Time Center",
        "shop": "watches"
      }
    },
    {
      "type": "node",
      "id": 7293708181,
      "lat": 12.9600786,
      "lon": 77.601863,
      "tags": {
        "name": "Naturals",
        "shop": "beauty"
      }
    },
    {
      "type": "node",
      "id": 7293719385,
      "lat": 12.9601322,
      "lon": 77.6017597,
      "tags": {
        "amenity": "restaurant",
        "name": "Malabar Cafe"
      }
    },
    {
      "type": "node",
      "id": 7293719386,
      "lat": 12.9624298,
      "lon": 77.6020977,
      "tags": {
        "access": "permissive",
        "amenity": "parking",
        "parking": "surface"
      }
    },
    {
      "type": "node",
      "id": 7293719387,
      "lat": 12.9627422,
      "lon": 77.6019931,
      "tags": {
        "access": "private",
        "amenity": "parking",
        "parking": "underground"
      }
    },
    {
      "type": "node",
      "id": 7293719393,
      "lat": 12.9626272,
      "lon": 77.6016913,
      "tags": {
        "leisure": "fitness_station"
      }
    },
    {
      "type": "node",
      "id": 7576958090,
      "lat": 12.963216,
      "lon": 77.5982891,
      "tags": {
        "addr:district": "Bengaluru Urban",
        "addr:full": "Langford Gardens, Bengaluru",
        "addr:postcode": "560025",
        "addr:state": "Karnataka",
        "amenity": "clinic",
        "name": "Orthodontic Maxillofacial Clinic",
        "source": "Local Knowledge"
      }
    },
    {
      "type": "node",
      "id": 7576958094,
      "lat": 12.9638998,
      "lon": 77.5983282,
      "tags": {
        "addr:district": "Bengaluru Urban",
        "addr:full": "Langford Gardens, Bengaluru",
        "addr:postcode": "560025",
        "addr:state": "Karnataka",
        "amenity": "clinic",
        "name": "Daksh Eye Care Centre",
        "source": "Local Knowledge"
      }
    },
    {
      "type": "node",
      "id": 7576958106,
      "lat": 12.9654497,
      "lon": 77.5999044,
      "tags": {
        "addr:district": "Bengaluru Urban",
        "addr:full": "Richmond Road, Shanthala Nagar, Ashok Nagar, Bengaluru",
        "addr:postcode": "560025",
        "addr:state": "Karnataka",
        "amenity": "hospital",
        "name": "Gleneagles Global Hospitals",
        "source": "Local Knowledge"
      }
    },
    {
      "type": "node",
      "id": 9140200221,
      "lat": 12.9640386,
      "lon": 77.6066011,
      "tags": {
        "amenity": "waste_basket"
      }
    },
    {
      "type": "node",
      "id": 9140200231,
      "lat": 12.9639276,
      "lon": 77.6064804,
      "tags": {
        "amenity": "cafe",
        "name": "Makkah Cafe",
        "takeaway": "yes"
      }
    },
    {
      "type": "node",
      "id": 9140200239,
      "lat": 12.9601375,
      "lon": 77.595942,
      "tags": {
        "addr:floor": "G",
        "air_conditioning": "no",
        "alt_name": "YDH Canteen",
        "amenity": "fast_food",
        "check_date": "2024-08-11",
        "cuisine": "regional",
        "delivery": "no",
        "diet:vegetarian": "yes",
        "drive_through": "no",
        "level": "0",
        "name": "Yelamma Dasappa Canteen",
        "takeaway": "yes"
      }
    },
    {
      "type": "node",
      "id": 9179389770,
      "lat": 12.9583652,
      "lon": 77.604285,
      "tags": {
        "amenity": "cafe",
        "cuisine": "persian",
        "level": "3",
        "name": "The Cafe @ Saanchi",
        "outdoor_seating": "yes"
      }
    },
    {
      "type": "node",
      "id": 9179389771,
      "lat": 12.9583509,
      "lon": 77.6044124,
      "tags": {
        "level": "2",
        "name": "Kanakavalli",
        "shop": "fabric"
      }
    },
    {
      "type": "node",
      "id": 9502502842,
      "lat": 12.9654005,
      "lon": 77.6048081,
      "tags": {
        "name": "Koshy's Bakery",
        "shop": "bakery"
      }
    },
    {
      "type": "node",
      "id": 9507141939,
      "lat": 12.959883,
      "lon": 77.5978925,
      "tags": {
        "amenity": "cafe",
        "cuisine": "juice",
        "internet_access": "no",
        "name": "Sreeraj Lassi Bar",
        "outdoor_seating": "no"
      }
    },
    {
      "type": "node",
      "id": 9507141940,
      "lat": 12.9599213,
      "lon": 77.5979464,
      "tags": {
        "amenity": "fast_food",
        "cuisine": "sandwich",
        "name": "Hari Super Sandwich"
      }
    },
    {
      "type": "node",
      "id": 9507166593,
      "lat": 12.9611473,
      "lon": 77.5982936,
      "tags": {
        "amenity": "cafe",
        "cuisine": "tea_shop",
        "name": "Karak Chai",
        "outdoor_seating": "no"
      }
    },
    {
      "type": "node",
      "id": 9611232066,
      "lat": 12.9582924,
      "lon": 77.6043893,
      "tags": {
        "level": "0;1",
        "name": "Saanchi Antiques",
        "shop": "antiques"
      }
    },
    {
      "type": "node",
      "id": 9870745012,
      "lat": 12.9658096,
      "lon": 77.6021506,
      "tags": {
        "name": "Pathi Silks",
        "shop": "boutique"
      }
    },
    {
      "type": "node",
      "id": 9870745014,
      "lat": 12.9662364,
      "lon": 77.6056902,
      "tags": {
        "brand": "Volkswagen",
        "brand:wikidata": "Q246",
        "name": "Volkswagen",
        "shop": "car"
      }
    },
    {
      "type": "node",
      "id": 9951289099,
      "lat": 12.949436,
      "lon": 77.6062162,
      "tags": {
        "name": "Nandini Dairy",
        "shop": "dairy"
      }
    },
    {
      "type": "node",
      "id": 10032117278,
      "lat": 12.9548574,
      "lon": 77.6052768,
      "tags": {
        "access": "yes",
        "amenity": "toilets",
        "fee": "yes",
        "operator": "BBMP"
      }
    },
    {
      "type": "node",
      "id": 10032117279,
      "lat": 12.9548528,
      "lon": 77.6052969,
      "tags": {
        "access": "yes",
        "amenity": "toilets",
        "fee": "yes",
        "operator": "BBMP"
      }
    },
    {
      "type": "node",
      "id": 10032117280,
      "lat": 12.9558724,
      "lon": 77.6035687,
      "tags": {
        "amenity": "shelter",
        "shelter_type": "gazebo"
      }
    },
    {
      "type": "node",
      "id": 10032174054,
      "lat": 12.9641889,
      "lon": 77.6055336,
      "tags": {
        "amenity": "fast_food",
        "cuisine": "regional",
        "name": "Khazana Food Paradise"
      }
    },
    {
      "type": "node",
      "id": 10042701717,
      "lat": 12.9518019,
      "lon": 77.6056759,
      "tags": {
        "name": "Cigarette & Tea Shop",
        "shop": "variety_store"
      }
    },
    {
      "type": "node",
      "id": 10042701718,
      "lat": 12.951793,
      "lon": 77.6055559,
      "tags": {
        "amenity": "fast_food",
        "name": "Sugarcane Juice Shop"
      }
    },
    {
      "type": "node",
      "id": 10042722517,
      "lat": 12.9513373,
      "lon": 77.605436,
      "tags": {
        "name": "Puncture Repair Shop",
        "shop": "motorcycle"
      }
    },
    {
      "type": "node",
      "id": 10042722617,
      "lat": 12.9512534,
      "lon": 77.6054853,
      "tags": {
        "amenity": "place_of_worship",
        "name": "Infant Jesus Mini Church",
        "religion": "christian"
      }
    },
    {
      "type": "node",
      "id": 10042722717,
      "lat": 12.9508739,
      "lon": 77.6054105,
      "tags": {
        "name": "Lakshmi Wood Industries",
        "shop": "furniture"
      }
    },
    {
      "type": "node",
      "id": 10042722817,
      "lat": 12.9504047,
      "lon": 77.6055149,
      "tags": {
        "name": "National Slate & Granite",
        "shop": "hardware"
      }
    },
    {
      "type": "node",
      "id": 10312509564,
      "lat": 12.9637962,
      "lon": 77.6036581,
      "tags": {
        "addr:city": "Bangalore",
        "addr:housenumber": "9",
        "addr:postcode": "560025",
        "addr:street": "Myrtle Lane",
        "addr:suburb": "Richmond Town",
        "male": "yes",
        "name": "BarberCo",
        "shop": "hairdresser"
      }
    },
    {
      "type": "node",
      "id": 10570995688,
      "lat": 12.9652265,
      "lon": 77.6011778,
      "tags": {
        "addr:city": "Bengaluru",
        "addr:housenumber": "89",
        "addr:postcode": "560025",
        "addr:street": "Richmond Road",
        "name": "Benelli | Keeway Showroom",
        "opening_hours": "Mo-Su 09:30-21:00",
        "phone": "08886635067",
        "shop": "motorcycle"
      }
    },
    {
      "type": "node",
      "id": 10695273912,
      "lat": 12.9658405,
      "lon": 77.6028092,
      "tags": {
        "addr:city": "Bangalore",
        "addr:country": "IN",
        "addr:hamlet": "Shanthala Nagar",
        "addr:housename": "Richmond Towers",
        "addr:postcode": "560025",
        "addr:street": "Richmond Road",
        "air_conditioning": "yes",
        "amenity": "restaurant",
        "cuisine": "parsi",
        "indoor_seating": "yes",
        "level": "0",
        "name": "Fia's Lounge",
        "opening_hours": "11:00-23:00",
        "outdoor_seating": "no",
        "takeaway": "yes"
      }
    },
    {
      "type": "node",
      "id": 10753340308,
      "lat": 12.9630258,
      "lon": 77.602156,
      "tags": {
        "shop": "greengrocer"
      }
    },
    {
      "type": "node",
      "id": 10753340309,
      "lat": 12.9630715,
      "lon": 77.6021218,
      "tags": {
        "name": "Nandini Milk Parlour",
        "shop": "dairy"
      }
    },
    {
      "type": "node",
      "id": 10753340320,
      "lat": 12.9655743,
      "lon": 77.6032289,
      "tags": {
        "name": "Kolorkode",
        "shop": "copyshop"
      }
    },
    {
      "type": "node",
      "id": 11167710685,
      "lat": 12.9582865,
      "lon": 77.6011607,
      "tags": {
        "brand": "Ration Shop",
        "brand:wikidata": "Q60901",
        "name": "Ration Shop",
        "operator": "Public Distribution System",
        "operator:type": "public",
        "operator:wikidata": "Q60901",
        "shop": "convenience"
      }
    },
    {
      "type": "node",
      "id": 11171324534,
      "lat": 12.9597011,
      "lon": 77.6015633,
      "tags": {
        "amenity": "pharmacy",
        "healthcare": "pharmacy",
        "name": "Hafiz Pharma"
      }
    },
    {
      "type": "node",
      "id": 11171324535,
      "lat": 12.9600253,
      "lon": 77.6016276,
      "tags": {
        "amenity": "pharmacy",
        "healthcare": "pharmacy",
        "name": "HKGN Medicals"
      }
    },
    {
      "type": "node",
      "id": 11171324536,
      "lat": 12.9600684,
      "lon": 77.601953,
      "tags": {
        "shop": "hairdresser"
      }
    },
    {
      "type": "node",
      "id": 11171328737,
      "lat": 12.958252,
      "lon": 77.6011466,
      "tags": {
        "shop": "stationery"
      }
    },
    {
      "type": "node",
      "id": 11171328738,
      "lat": 12.9580872,
      "lon": 77.6010965,
      "tags": {
        "shop": "bakery"
      }
    },
    {
      "type": "node",
      "id": 11171328739,
      "lat": 12.9576687,
      "lon": 77.6009775,
      "tags": {
        "name": "Nandini Diary Parlor",
        "shop": "dairy"
      }
    },
    {
      "type": "node",
      "id": 11400959258,
      "lat": 12.9575721,
      "lon": 77.6001983,
      "tags": {
        "addr:city": "Bengaluru",
        "addr:housenumber": "Pride Apartment 182",
        "addr:postcode": "560076",
        "addr:street": "Bannerghatta Main Road Phase 4 Bilekahalli",
        "becknified": "true",
        "image": "https:\\/\\/cdn.shopify.com\\/s\\/files\\/1\\/0647\\/3662\\/4854\\/files\\/logo_2_1_fc405c5b-4db5-419a-8ec3-380144685e90.svg?v=1669615619",
        "logo": "https:\\/\\/cdn.shopify.com\\/s\\/files\\/1\\/0647\\/3662\\/4854\\/files\\/logo_2_1_fc405c5b-4db5-419a-8ec3-380144685e90.svg?v=1669615619",
        "name": "Wiggles shopify store",
        "name:en": "Wiggles shopify store",
        "operator": "BOC Shopify",
        "payment:cash": "yes",
        "payment:credit_cards": "yes",
        "payment:debit_cards": "yes",
        "providerId": "bocshopify.humbhionline.in",
        "shop": "supermarket"
      }
    },
    {
      "type": "node",
      "id": 11524109257,
      "lat": 12.9576565,
      "lon": 77.6011948,
      "tags": {
        "addr:city": "Bengaluru",
        "addr:district": "Bannerghatta Main Road Phase 4 Bilekahalli",
        "addr:postcode": "560076",
        "addr:street": "P Street",
        "becknified": "true",
        "images": "https://ws1.humbhionline.in/resources/web_manifest/512x512.png?v=1.0",
        "logo": "https://ws1.humbhionline.in/resources/web_manifest/512x512.png?v=1.0",
        "name": "Vegetables Bhi Online",
        "operator": "HumBhi Online",
        "payment:cash": "yes",
        "payment:credit_cards": "yes",
        "payment:debit_cards": "yes",
        "providerId": "ws1.humbhionline.in",
        "shop": "supermarket"
      }
    },
    {
      "type": "node",
      "id": 11602938154,
      "lat": 12.9569478,
      "lon": 77.6015303,
      "tags": {
        "amenity": "school",
        "name": "BBMP High School"
      }
    },
    {
      "type": "node",
      "id": 11665637085,
      "lat": 12.9647629,
      "lon": 77.5978057,
      "tags": {
        "check_date": "2024-08-10",
        "name": "Maison D'luxe",
        "shop": "perfumery"
      }
    },
    {
      "type": "node",
      "id": 11665637086,
      "lat": 12.9647224,
      "lon": 77.5977413,
      "tags": {
        "name": "Mehak Luxury Watches Service Center",
        "shop": "watches"
      }
    },
    {
      "type": "node",
      "id": 11665637087,
      "lat": 12.9647956,
      "lon": 77.59774,
      "tags": {
        "level": "1",
        "name": "Star Tours",
        "shop": "travel_agency"
      }
    },
    {
      "type": "node",
      "id": 11665637089,
      "lat": 12.9647773,
      "lon": 77.5986103,
      "tags": {
        "amenity": "restaurant",
        "cuisine": "indian;pizza",
        "diet:vegetarian": "yes",
        "level": "4",
        "name": "LifeTree Cafe"
      }
    },
    {
      "type": "node",
      "id": 11687235832,
      "lat": 12.9605359,
      "lon": 77.6011912,
      "tags": {
        "access": "yes",
        "amenity": "toilets",
        "check_date": "2025-08-24",
        "fee": "yes",
        "operator": "BBMP"
      }
    },
    {
      "type": "node",
      "id": 12101135616,
      "lat": 12.9611555,
      "lon": 77.5996538,
      "tags": {
        "amenity": "fast_food",
        "check_date": "2024-08-09",
        "cuisine": "indian",
        "diet:vegetarian": "yes",
        "name": "Sri Udupi Grand Veg"
      }
    },
    {
      "type": "node",
      "id": 12101692396,
      "lat": 12.9629837,
      "lon": 77.60368,
      "tags": {
        "amenity": "place_of_worship",
        "check_date": "2024-08-10",
        "name": "Masjid E Rasheediya",
        "religion": "muslim"
      }
    },
    {
      "type": "node",
      "id": 12101704807,
      "lat": 12.9634592,
      "lon": 77.6016559,
      "tags": {
        "amenity": "bench",
        "backrest": "yes",
        "material": "granite",
        "seats": "4"
      }
    },
    {
      "type": "node",
      "id": 12101709437,
      "lat": 12.9653896,
      "lon": 77.6023226,
      "tags": {
        "amenity": "bank",
        "brand": "ICICI Bank",
        "brand:wikidata": "Q1653258",
        "check_date": "2024-08-10",
        "name": "ICICI Bank",
        "short_name": "ICICI"
      }
    },
    {
      "type": "node",
      "id": 12101709439,
      "lat": 12.9654724,
      "lon": 77.6027445,
      "tags": {
        "amenity": "clinic",
        "check_date": "2024-08-10",
        "healthcare": "clinic",
        "name": "dermalogica"
      }
    },
    {
      "type": "node",
      "id": 12101709440,
      "lat": 12.9654191,
      "lon": 77.6027516,
      "tags": {
        "amenity": "restaurant",
        "check_date": "2024-08-10",
        "name": "In Wok"
      }
    },
    {
      "type": "node",
      "id": 12101714004,
      "lat": 12.963641,
      "lon": 77.6012528,
      "tags": {
        "amenity": "drinking_water"
      }
    },
    {
      "type": "node",
      "id": 12101717532,
      "lat": 12.9647276,
      "lon": 77.6046226,
      "tags": {
        "amenity": "post_box",
        "operator": "India Post"
      }
    },
    {
      "type": "node",
      "id": 12101733049,
      "lat": 12.9654399,
      "lon": 77.6006949,
      "tags": {
        "check_date": "2024-08-10",
        "name": "Tisva",
        "shop": "lighting"
      }
    },
    {
      "type": "node",
      "id": 12101733050,
      "lat": 12.965406,
      "lon": 77.6002473,
      "tags": {
        "access": "yes",
        "amenity": "charging_station",
        "brand": "Ola Hypercharger"
      }
    },
    {
      "type": "node",
      "id": 12101746574,
      "lat": 12.9618291,
      "lon": 77.5976174,
      "tags": {
        "amenity": "place_of_worship",
        "check_date": "2024-08-10",
        "religion": "hindu"
      }
    },
    {
      "type": "node",
      "id": 12101753701,
      "lat": 12.9595297,
      "lon": 77.6035588,
      "tags": {
        "amenity": "bank",
        "brand": "Kotak Mahindra Bank",
        "brand:wikidata": "Q2040404",
        "check_date": "2024-08-10",
        "name": "Kotak Mahindra Bank"
      }
    },
    {
      "type": "node",
      "id": 12101753702,
      "lat": 12.959495,
      "lon": 77.6036481,
      "tags": {
        "amenity": "bank",
        "atm": "yes",
        "brand": "Yes Bank",
        "brand:wikidata": "Q2040394",
        "check_date": "2024-08-10",
        "drive_through": "no",
        "name": "Yes Bank"
      }
    },
    {
      "type": "node",
      "id": 12102882512,
      "lat": 12.9609212,
      "lon": 77.6001914,
      "tags": {
        "brand": "Simpli Namdhari's",
        "brand:wikidata": "Q124374340",
        "diet:vegetarian": "yes",
        "name": "Simpli Namdhari's",
        "shop": "supermarket"
      }
    },
    {
      "type": "node",
      "id": 12102932389,
      "lat": 12.9607836,
      "lon": 77.6003789,
      "tags": {
        "amenity": "fast_food",
        "brand": "Subway",
        "brand:wikidata": "Q244457",
        "cuisine": "sandwich",
        "name": "Subway",
        "takeaway": "yes"
      }
    },
    {
      "type": "node",
      "id": 12102932392,
      "lat": 12.9607413,
      "lon": 77.6004627,
      "tags": {
        "amenity": "fast_food",
        "brand": "Domino's",
        "brand:wikidata": "Q839466",
        "cuisine": "pizza",
        "name": "Domino's",
        "name:kn": "ಡಾಮಿನೋಸ್",
        "takeaway": "yes"
      }
    },
    {
      "type": "node",
      "id": 12102932393,
      "lat": 12.960727,
      "lon": 77.6004939,
      "tags": {
        "name": "Dreamers",
        "shop": "hairdresser"
      }
    },
    {
      "type": "node",
      "id": 12103003494,
      "lat": 12.9606846,
      "lon": 77.6017488,
      "tags": {
        "name": "Niells Designs",
        "shop": "lighting"
      }
    },
    {
      "type": "node",
      "id": 12103003495,
      "lat": 12.960503,
      "lon": 77.6017334,
      "tags": {
        "amenity": "events_venue",
        "name": "Jashn Banquet Hall"
      }
    },
    {
      "type": "node",
      "id": 12103003496,
      "lat": 12.9605563,
      "lon": 77.6017426,
      "tags": {
        "leisure": "sports_hall",
        "name": "Burn"
      }
    },
    {
      "type": "node",
      "id": 12103114965,
      "lat": 12.9634458,
      "lon": 77.6018166,
      "tags": {
        "amenity": "bench",
        "backrest": "yes",
        "material": "granite",
        "seats": "4"
      }
    },
    {
      "type": "node",
      "id": 12103114966,
      "lat": 12.9635963,
      "lon": 77.6018205,
      "tags": {
        "amenity": "bench",
        "backrest": "yes",
        "material": "granite",
        "seats": "4"
      }
    },
    {
      "type": "node",
      "id": 12103114967,
      "lat": 12.963598,
      "lon": 77.6016544,
      "tags": {
        "amenity": "bench",
        "backrest": "yes",
        "material": "granite",
        "seats": "4"
      }
    },
    {
      "type": "node",
      "id": 12103115002,
      "lat": 12.9646683,
      "lon": 77.6057034,
      "tags": {
        "amenity": "drinking_water"
      }
    },
    {
      "type": "node",
      "id": 12103756243,
      "lat": 12.9501234,
      "lon": 77.6056473,
      "tags": {
        "amenity": "bench"
      }
    },
    {
      "type": "node",
      "id": 12109772459,
      "lat": 12.9617175,
      "lon": 77.5960641,
      "tags": {
        "amenity": "food_court",
        "name": "St. Joseph's University Food Court"
      }
    },
    {
      "type": "node",
      "id": 12109773379,
      "lat": 12.9594748,
      "lon": 77.5947203,
      "tags": {
        "amenity": "school",
        "name": "EuroKids Shantinagar"
      }
    },
    {
      "type": "node",
      "id": 12151337498,
      "lat": 12.9506877,
      "lon": 77.605377,
      "tags": {
        "amenity": "fuel",
        "brand": "Total",
        "brand:wikidata": "Q154037",
        "name": "Total"
      }
    },
    {
      "type": "node",
      "id": 12326784734,
      "lat": 12.9584889,
      "lon": 77.6011744,
      "tags": {
        "amenity": "bicycle_repair_station",
        "operator": "Skyline Rider Enterprise"
      }
    },
    {
      "type": "node",
      "id": 12326784735,
      "lat": 12.9586023,
      "lon": 77.601142,
      "tags": {
        "name": "Karnataka Mutton Stall",
        "shop": "butcher"
      }
    },
    {
      "type": "node",
      "id": 12326784736,
      "lat": 12.9586303,
      "lon": 77.6011561,
      "tags": {
        "name": "Reception Beauty Saloon",
        "shop": "beauty"
      }
    },
    {
      "type": "node",
      "id": 12326784738,
      "lat": 12.9597759,
      "lon": 77.6016028,
      "tags": {
        "name": "India Saloon",
        "shop": "hairdresser"
      }
    },
    {
      "type": "node",
      "id": 12327093397,
      "lat": 12.9600628,
      "lon": 77.6018387,
      "tags": {
        "amenity": "dentist",
        "healthcare": "dentist",
        "name": "Dental Centre"
      }
    },
    {
      "type": "node",
      "id": 12460401565,
      "lat": 12.9621491,
      "lon": 77.6047713,
      "tags": {
        "amenity": "bank",
        "brand": "Union Bank of India",
        "brand:wikidata": "Q2004078",
        "check_date": "2024-12-29",
        "name": "Union Bank of India"
      }
    },
    {
      "type": "node",
      "id": 12462400262,
      "lat": 12.9631778,
      "lon": 77.5999497,
      "tags": {
        "amenity": "bank",
        "brand": "Canara Bank",
        "brand:en": "Canara Bank",
        "brand:hi": "केनरा बैंक",
        "brand:kn": "ಕೆನರಾ ಬ್ಯಾಂಕ್",
        "brand:pa": "ਕੇਨਰਾ ਬੈਂਕ",
        "brand:pnb": "کینرا بینک",
        "brand:ur": "کینرا بینک",
        "brand:wikidata": "Q2003777",
        "name": "Canara Bank",
        "name:en": "Canara Bank",
        "name:hi": "केनरा बैंक",
        "name:kn": "ಕೆನರಾ ಬ್ಯಾಂಕ್",
        "name:pa": "ਕੇਨਰਾ ਬੈਂਕ",
        "name:pnb": "کینرا بینک",
        "name:ur": "کینرا بینک",
        "operator": "Canara Bank"
      }
    },
    {
      "type": "node",
      "id": 12462434292,
      "lat": 12.9662507,
      "lon": 77.6038694,
      "tags": {
        "name": "Peekay mini mart",
        "shop": "supermarket"
      }
    },
    {
      "type": "node",
      "id": 12508713298,
      "lat": 12.9657365,
      "lon": 77.6015719,
      "tags": {
        "addr:city": "Bengaluru",
        "addr:district": "Bengaluru Urban",
        "addr:housenumber": "11/2",
        "addr:postcode": "560025",
        "addr:street": "Hayes Road Off Richmond Road, Landmark Diagonally, opposite to Baldwin Girls High School",
        "amenity": "fast_food",
        "brand": "Beijing Bites",
        "brand:wikidata": "Q124374289",
        "capacity": "100",
        "contact:mobile": "+919731554777",
        "contact:phone": "+918040915505",
        "cuisine": "chinese",
        "delivery": "yes",
        "name": "Beijing Bites",
        "name:en": "Beijing Bites",
        "name:kn": "ಬೀಜಿಂಗ್ ಬೈಟ್ಸ್",
        "phone": "+918041246933",
        "smoking": "no",
        "takeaway": "yes"
      }
    },
    {
      "type": "way",
      "id": 23030047,
      "center": {
        "lat": 12.9642555,
        "lon": 77.6003306
      },
      "tags": {
        "amenity": "school",
        "name": "Baldwin Girls' High School"
      }
    },
    {
      "type": "way",
      "id": 28451371,
      "center": {
        "lat": 12.9609837,
        "lon": 77.6011826
      },
      "tags": {
        "leisure": "pitch",
        "sport": "tennis"
      }
    },
    {
      "type": "way",
      "id": 38772821,
      "center": {
        "lat": 12.9656514,
        "lon": 77.6087869
      },
      "tags": {
        "amenity": "school",
        "name": "Cathedral High School & College",
        "name:kn": "ಕ್ಯಾತಡ್ರೆಲ್ ಪ್ರೌಡ ಶಾಲೆ ಮತ್ತು ಕಾಲೇಜು"
      }
    },
    {
      "type": "way",
      "id": 38772823,
      "center": {
        "lat": 12.9688511,
        "lon": 77.6045355
      },
      "tags": {
        "amenity": "school"
      }
    },
    {
      "type": "way",
      "id": 138223945,
      "center": {
        "lat": 12.9625196,
        "lon": 77.6060778
      },
      "tags": {
        "amenity": "school",
        "fixme": "Accurate boundaries",
        "name": "Baldwin Boys High School",
        "name:kn": "ಬಾಲ್ಡವಿನ್ ಬಾಲಕರ ಪ್ರೌಡ ಶಾಲೆ",
        "wikidata": "Q4850530",
        "wikipedia": "en:Baldwin Boys' High School"
      }
    },
    {
      "type": "way",
      "id": 148016864,
      "center": {
        "lat": 12.9635085,
        "lon": 77.5964537
      },
      "tags": {
        "leisure": "pitch",
        "sport": "basketball"
      }
    },
    {
      "type": "way",
      "id": 148016875,
      "center": {
        "lat": 12.9631739,
        "lon": 77.5962695
      },
      "tags": {
        "leisure": "pitch",
        "sport": "basketball"
      }
    },
    {
      "type": "way",
      "id": 326032584,
      "center": {
        "lat": 12.9635291,
        "lon": 77.6017119
      },
      "tags": {
        "leisure": "park",
        "name": "Richmond Town Park"
      }
    },
    {
      "type": "way",
      "id": 326032586,
      "center": {
        "lat": 12.9615346,
        "lon": 77.6005247
      },
      "tags": {
        "check_date": "2024-08-09",
        "leisure": "stadium",
        "name": "Hockey Stadium",
        "name:kn": "ಹಾಕಿ ಕ್ರೀಡಾಂಗಣ",
        "official_name": "Field Marshal Carriappa Hockey Arena",
        "official_name:etymology:wikidata": "Q3630913",
        "sport": "field_hockey",
        "wheelchair": "limited"
      }
    },
    {
      "type": "way",
      "id": 326199006,
      "center": {
        "lat": 12.9559827,
        "lon": 77.6020973
      },
      "tags": {
        "leisure": "park"
      }
    },
    {
      "type": "way",
      "id": 326199007,
      "center": {
        "lat": 12.956985,
        "lon": 77.6011901
      },
      "tags": {
        "leisure": "park"
      }
    },
    {
      "type": "way",
      "id": 329802987,
      "center": {
        "lat": 12.9620064,
        "lon": 77.6012302
      },
      "tags": {
        "leisure": "swimming_pool"
      }
    },
    {
      "type": "way",
      "id": 329803374,
      "center": {
        "lat": 12.9617543,
        "lon": 77.6006326
      },
      "tags": {
        "leisure": "pitch",
        "sport": "field_hockey"
      }
    },
    {
      "type": "way",
      "id": 346154410,
      "center": {
        "lat": 12.9639882,
        "lon": 77.6006372
      },
      "tags": {
        "access": "permissive",
        "leisure": "swimming_pool"
      }
    },
    {
      "type": "way",
      "id": 347122093,
      "center": {
        "lat": 12.9630393,
        "lon": 77.6031442
      },
      "tags": {
        "building": "yes",
        "name": "royalmart supermarket",
        "shop": "supermarket"
      }
    },
    {
      "type": "way",
      "id": 393699932,
      "center": {
        "lat": 12.9533742,
        "lon": 77.5975797
      },
      "tags": {
        "amenity": "college",
        "name": "Indira Gandhi National Open University",
        "name:etymology:wikidata": "Q1149"
      }
    },
    {
      "type": "way",
      "id": 442014335,
      "center": {
        "lat": 12.959741,
        "lon": 77.6086465
      },
      "tags": {
        "access": "private",
        "leisure": "swimming_pool"
      }
    },
    {
      "type": "way",
      "id": 442014336,
      "center": {
        "lat": 12.9533316,
        "lon": 77.6011904
      },
      "tags": {
        "leisure": "park"
      }
    },
    {
      "type": "way",
      "id": 442014338,
      "center": {
        "lat": 12.9566712,
        "lon": 77.6006813
      },
      "tags": {
        "amenity": "place_of_worship",
        "building": "mosque",
        "name": "Masjid-e-Khizar",
        "religion": "muslim"
      }
    },
    {
      "type": "way",
      "id": 532166910,
      "center": {
        "lat": 12.963687,
        "lon": 77.6002106
      },
      "tags": {
        "leisure": "pitch"
      }
    },
    {
      "type": "way",
      "id": 532166918,
      "center": {
        "lat": 12.9631187,
        "lon": 77.6059511
      },
      "tags": {
        "access": "private",
        "leisure": "swimming_pool"
      }
    },
    {
      "type": "way",
      "id": 532166920,
      "center": {
        "lat": 12.9636702,
        "lon": 77.6064336
      },
      "tags": {
        "amenity": "place_of_worship",
        "denomination": "shia",
        "name": "Masjid-E-Askari",
        "name:kn": "ಮಸ್ಜಿದ್ ಎ ಆಸ್ಕರಿ",
        "religion": "muslim"
      }
    },
    {
      "type": "way",
      "id": 532166922,
      "center": {
        "lat": 12.9647297,
        "lon": 77.6063855
      },
      "tags": {
        "amenity": "place_of_worship",
        "building": "cathedral",
        "name": "St. Gregorios Orthodox Cathedral",
        "religion": "christian"
      }
    },
    {
      "type": "way",
      "id": 532166923,
      "center": {
        "lat": 12.9647718,
        "lon": 77.6062297
      },
      "tags": {
        "amenity": "place_of_worship",
        "name": "St Gregorios Orthodox Cathedral",
        "name:kn": "ಸೆಂಟ್ ಗ್ರೇಗೊರಿಯೋಸ್ ದೇವಸ್ಥಾನ",
        "religion": "christian"
      }
    },
    {
      "type": "way",
      "id": 532166924,
      "center": {
        "lat": 12.9641706,
        "lon": 77.6062644
      },
      "tags": {
        "amenity": "marketplace",
        "landuse": "retail",
        "name": "Johnson Market",
        "name:kn": "ಜಾನ್ಸನ್ ಮಾರ್ಕೆಟ್",
        "start_date": "1929"
      }
    },
    {
      "type": "way",
      "id": 532166925,
      "center": {
        "lat": 12.9637678,
        "lon": 77.6029183
      },
      "tags": {
        "amenity": "place_of_worship",
        "name": "Richmond Town Methodist Church",
        "religion": "christian",
        "wikidata": "Q7331016",
        "wikipedia": "en:Richmond Town Methodist Church"
      }
    },
    {
      "type": "way",
      "id": 532166926,
      "center": {
        "lat": 12.9636416,
        "lon": 77.6032559
      },
      "tags": {
        "amenity": "place_of_worship",
        "building": "church",
        "religion": "christian"
      }
    },
    {
      "type": "way",
      "id": 532166930,
      "center": {
        "lat": 12.9611751,
        "lon": 77.6002092
      },
      "tags": {
        "access": "permissive",
        "amenity": "parking",
        "fee": "yes",
        "parking": "surface"
      }
    },
    {
      "type": "way",
      "id": 545985258,
      "center": {
        "lat": 12.9657546,
        "lon": 77.6075968
      },
      "tags": {
        "amenity": "place_of_worship",
        "building": "church",
        "denomination": "anglican",
        "name": "All Saints' Church",
        "name:kn": "ಆಲ್ ಸೇಂಟ್ಸ್ ಚರ್ಚ್",
        "religion": "christian"
      }
    },
    {
      "type": "way",
      "id": 781182572,
      "center": {
        "lat": 12.9591357,
        "lon": 77.6010894
      },
      "tags": {
        "amenity": "school",
        "isced:level": "2",
        "landuse": "education",
        "name": "GTHPS Puduparacheri",
        "name:kn": "ಸರ್ಕಾರಿ ತೆಲುಗು ಹಿರಿಯ ಪ್ರಾಥಮಿಕ ಶಾಲೆ ಪುದುಪರಾಚೇರಿ",
        "operator": "Department of Education",
        "school": "primary"
      }
    },
    {
      "type": "way",
      "id": 781182573,
      "center": {
        "lat": 12.9595349,
        "lon": 77.6011922
      },
      "tags": {
        "amenity": "school",
        "isced:level": "2",
        "landuse": "education",
        "name": "GMPS AkkithimmanaHalli",
        "name:kn": "ಸರ್ಕಾರಿ ಮಾದರಿ ಪ್ರಾಥಮಿಕ ಶಾಲೆ ಅಕ್ಕಿತಿಮ್ಮನಹಳ್ಳಿ",
        "operator": "Department of Education",
        "school": "primary"
      }
    },
    {
      "type": "way",
      "id": 781182575,
      "center": {
        "lat": 12.9563799,
        "lon": 77.6027769
      },
      "tags": {
        "leisure": "park"
      }
    },
    {
      "type": "way",
      "id": 781182581,
      "center": {
        "lat": 12.9605295,
        "lon": 77.6057468
      },
      "tags": {
        "amenity": "social_facility",
        "name": "Society of the Little Sisters of the Poor",
        "social_facility": "nursing_home",
        "social_facility:for": "senior"
      }
    },
    {
      "type": "way",
      "id": 781182587,
      "center": {
        "lat": 12.9627181,
        "lon": 77.6016773
      },
      "tags": {
        "leisure": "garden"
      }
    },
    {
      "type": "way",
      "id": 781182588,
      "center": {
        "lat": 12.9627778,
        "lon": 77.6016695
      },
      "tags": {
        "access": "private",
        "leisure": "swimming_pool"
      }
    },
    {
      "type": "way",
      "id": 781182595,
      "center": {
        "lat": 12.9618084,
        "lon": 77.5987266
      },
      "tags": {
        "area:highway": "traffic_island",
        "leisure": "garden"
      }
    },
    {
      "type": "way",
      "id": 781192796,
      "center": {
        "lat": 12.9506051,
        "lon": 77.6053997
      },
      "tags": {
        "amenity": "fuel",
        "brand": "Total",
        "brand:wikidata": "Q154037",
        "name": "Total",
        "operator": "Total"
      }
    },
    {
      "type": "way",
      "id": 796458045,
      "center": {
        "lat": 12.965275,
        "lon": 77.6088984
      },
      "tags": {
        "leisure": "park"
      }
    },
    {
      "type": "way",
      "id": 796458046,
      "center": {
        "lat": 12.9625927,
        "lon": 77.6096003
      },
      "tags": {
        "addr:city": "Bengaluru",
        "addr:postcode": "560025",
        "addr:street": "Hosur Road",
        "alt_name": "Bangalore Military School",
        "alt_name_1": "Rashtriya Military School, Bengaluru",
        "amenity": "school",
        "email": "rmsbengaluru@gmail.com",
        "fax": "+91 080- 25308191",
        "landuse": "military",
        "name": "Rashtriya Military School",
        "old_name": "King George Royal Indian Military College",
        "operator": "Ministry of Defence, Government of India",
        "phone": "+91 080-29602555;+91 080- 25554972",
        "short_name": "CMP",
        "start_date": "1946-01-01",
        "website": "https://www.rashtriyamilitaryschools.edu.in/rmsbengaluru/",
        "wikidata": "Q4855064",
        "wikipedia": "en:Bangalore Military School"
      }
    },
    {
      "type": "way",
      "id": 996021805,
      "center": {
        "lat": 12.9613493,
        "lon": 77.6061795
      },
      "tags": {
        "amenity": "college",
        "fixme": "Accurate boundaries",
        "name": "Baldwin Methodist College"
      }
    },
    {
      "type": "way",
      "id": 1049075231,
      "center": {
        "lat": 12.9573344,
        "lon": 77.6045898
      },
      "tags": {
        "addr:housenumber": "2",
        "addr:street": "Berlie Street",
        "amenity": "arts_centre",
        "contact:instagram": "kaashfoundation",
        "name": "Kaash",
        "operator": "Kaash Foundation"
      }
    },
    {
      "type": "way",
      "id": 1064840026,
      "center": {
        "lat": 12.9651982,
        "lon": 77.6083455
      },
      "tags": {
        "leisure": "garden"
      }
    },
    {
      "type": "way",
      "id": 1067951550,
      "center": {
        "lat": 12.9577314,
        "lon": 77.6123209
      },
      "tags": {
        "amenity": "school"
      }
    },
    {
      "type": "way",
      "id": 1067951551,
      "center": {
        "lat": 12.9570047,
        "lon": 77.6122804
      },
      "tags": {
        "amenity": "place_of_worship",
        "religion": "muslim"
      }
    },
    {
      "type": "way",
      "id": 1086044112,
      "center": {
        "lat": 12.9482501,
        "lon": 77.6086002
      },
      "tags": {
        "amenity": "college",
        "fixme": "Boundaries of the campus",
        "name": "National Institute of Animal Nutrition and Physiology",
        "official_name": "ICAR - National Institute of Animal Nutrition and Physiology",
        "short_name": "NIANP"
      }
    },
    {
      "type": "way",
      "id": 1095458699,
      "center": {
        "lat": 12.9592448,
        "lon": 77.601562
      },
      "tags": {
        "amenity": "place_of_worship",
        "denomination": "sunni",
        "landuse": "religious",
        "religion": "muslim"
      }
    },
    {
      "type": "way",
      "id": 1095458734,
      "center": {
        "lat": 12.96417,
        "lon": 77.6057086
      },
      "tags": {
        "amenity": "place_of_worship",
        "religion": "muslim"
      }
    },
    {
      "type": "way",
      "id": 1098069722,
      "center": {
        "lat": 12.9627585,
        "lon": 77.6041319
      },
      "tags": {
        "amenity": "school",
        "name": "Frank Anthony Junior School"
      }
    },
    {
      "type": "way",
      "id": 1100674381,
      "center": {
        "lat": 12.955594,
        "lon": 77.5980861
      },
      "tags": {
        "amenity": "school",
        "name": "St. Michael's School",
        "name:kn": "ಸೈಂಟ್ ಮೈಕಲ್ ಶಾಲೆ"
      }
    },
    {
      "type": "way",
      "id": 1100674383,
      "center": {
        "lat": 12.9559596,
        "lon": 77.5970977
      },
      "tags": {
        "amenity": "place_of_worship",
        "denomination": "catholic",
        "name": "St. Michael's Church",
        "name:kn": "ಸೇಂಟ್ ಮೈಕೇಲ್ಸ್ ಚರ್ಚ್",
        "religion": "christian"
      }
    },
    {
      "type": "way",
      "id": 1124838108,
      "center": {
        "lat": 12.9646791,
        "lon": 77.601165
      },
      "tags": {
        "amenity": "school",
        "name": "Baldwin Opportunity School"
      }
    },
    {
      "type": "way",
      "id": 1124838112,
      "center": {
        "lat": 12.9660073,
        "lon": 77.6035811
      },
      "tags": {
        "addr:city": "Bengaluru",
        "addr:country": "IN",
        "addr:hamlet": "Shanthala Nagar",
        "addr:housenumber": "32",
        "addr:postcode": "560025",
        "addr:street": "Richmond Road",
        "addr:suburb": "Richmond Town",
        "amenity": "coworking_space",
        "brand": "IndiQube",
        "fee": "yes",
        "landuse": "commercial",
        "name": "IndiQube Penta",
        "office": "coworking",
        "operator": "IndiQube"
      }
    },
    {
      "type": "way",
      "id": 1126139647,
      "center": {
        "lat": 12.966881,
        "lon": 77.6038055
      },
      "tags": {
        "amenity": "place_of_worship",
        "denomination": "mormon",
        "name": "The Church of Jesus Christ of Latter-day Saints",
        "name:en": "The Church of Jesus Christ of Latter-day Saints",
        "religion": "christian"
      }
    },
    {
      "type": "way",
      "id": 1149213001,
      "center": {
        "lat": 12.9569001,
        "lon": 77.6047605
      },
      "tags": {
        "addr:district": "Bengaluru Urban",
        "addr:full": "15, Eagle Street Langford Town Shanti Nagar",
        "addr:postcode": "560025",
        "addr:state": "Karnataka",
        "amenity": "hospital",
        "emergency": "no",
        "name": "Dr Agarwal's Eye Hospital",
        "source": "OpenGovernmentData"
      }
    },
    {
      "type": "way",
      "id": 1156298770,
      "center": {
        "lat": 12.96692,
        "lon": 77.6045206
      },
      "tags": {
        "amenity": "monastery",
        "community:gender": "female",
        "denomination": "catholic",
        "landuse": "religious",
        "name": "Daughters of St. Paul",
        "religion": "christian"
      }
    },
    {
      "type": "way",
      "id": 1156298783,
      "center": {
        "lat": 12.9652589,
        "lon": 77.6035823
      },
      "tags": {
        "amenity": "monastery",
        "community:gender": "male",
        "denomination": "catholic",
        "landuse": "religious",
        "name": "Xavier Nilaya",
        "religion": "christian"
      }
    },
    {
      "type": "way",
      "id": 1177319348,
      "center": {
        "lat": 12.9540105,
        "lon": 77.6003994
      },
      "tags": {
        "addr:place": "Shanthinagar",
        "amenity": "school",
        "isced:level": "2",
        "name": "GHPS Ksrtc Shanthinagar",
        "name:kn": "ಸರ್ಕಾರಿ ಹಿರಿಯ ಪ್ರಾಥಮಿಕ ಶಾಲೆ ಕೆ.ಎಸ್‌.ಆರ್‌.ಟಿ.ಸಿ ಶಾಂತಿನಗರ",
        "operator": "Department of Education",
        "school": "primary"
      }
    },
    {
      "type": "way",
      "id": 1241682281,
      "center": {
        "lat": 12.9649692,
        "lon": 77.6004187
      },
      "tags": {
        "amenity": "college",
        "name": "Baldwin Women's Methodist College"
      }
    },
    {
      "type": "way",
      "id": 1291752685,
      "center": {
        "lat": 12.9661325,
        "lon": 77.5991608
      },
      "tags": {
        "access": "private",
        "amenity": "parking",
        "parking": "surface"
      }
    },
    {
      "type": "way",
      "id": 1305868782,
      "center": {
        "lat": 12.962,
        "lon": 77.5982143
      },
      "tags": {
        "building": "yes",
        "leisure": "sports_centre",
        "name": "Fusion the Turf Sports",
        "sport": "futsal"
      }
    },
    {
      "type": "way",
      "id": 1305868787,
      "center": {
        "lat": 12.9633582,
        "lon": 77.6023699
      },
      "tags": {
        "access": "private",
        "leisure": "swimming_pool"
      }
    },
    {
      "type": "way",
      "id": 1306881208,
      "center": {
        "lat": 12.9634553,
        "lon": 77.6009891
      },
      "tags": {
        "access": "yes",
        "amenity": "toilets",
        "building": "yes",
        "changing_table": "no",
        "female": "yes",
        "male": "yes",
        "wheelchair": "no"
      }
    },
    {
      "type": "way",
      "id": 1306881214,
      "center": {
        "lat": 12.9623198,
        "lon": 77.6011386
      },
      "tags": {
        "leisure": "pitch",
        "sport": "tennis"
      }
    },
    {
      "type": "way",
      "id": 1306888705,
      "center": {
        "lat": 12.9608584,
        "lon": 77.600729
      },
      "tags": {
        "amenity": "place_of_worship",
        "building": "yes",
        "name": "Shree Kere Katte Ganapati Shaneshwara Swamy Prathyanigira Devi Temple",
        "religion": "hindu"
      }
    },
    {
      "type": "way",
      "id": 1306908284,
      "center": {
        "lat": 12.9633291,
        "lon": 77.6019686
      },
      "tags": {
        "leisure": "playground"
      }
    },
    {
      "type": "way",
      "id": 1306976437,
      "center": {
        "lat": 12.9523925,
        "lon": 77.5980116
      },
      "tags": {
        "leisure": "sports_centre",
        "name": "KSRTC Sports Complex"
      }
    },
    {
      "type": "way",
      "id": 1307534753,
      "center": {
        "lat": 12.9627039,
        "lon": 77.6061486
      },
      "tags": {
        "leisure": "pitch",
        "sport": "basketball"
      }
    },
    {
      "type": "way",
      "id": 1307944838,
      "center": {
        "lat": 12.9663731,
        "lon": 77.6021506
      },
      "tags": {
        "access": "private",
        "leisure": "swimming_pool"
      }
    },
    {
      "type": "way",
      "id": 1379017132,
      "center": {
        "lat": 12.9629876,
        "lon": 77.5989292
      },
      "tags": {
        "amenity": "monastery",
        "community:gender": "female",
        "denomination": "catholic",
        "landuse": "religious",
        "name": "Good Shepherd Provincialate",
        "religion": "christian"
      }
    }
  ]
}