{
  "area_name": "Lottegollahalli",
  "osm_id": 10604644054,
  "osm_type": "node",
  "place_type": "neighbourhood",
  "amenity_count": 97,
  "amenities": [
    {
      "type": "node",
      "id": 446805877,
      "lat": 13.0362217,
      "lon": 77.5663481,
      "tags": {
        "amenity": "bus_station",
        "bus": "yes",
        "name": "Chikkamaranahalli",
        "name:kn": "ಚಿಕ್ಕಮಾರನಹಳ್ಳಿ",
        "public_transport": "station"
      }
    },
    {
      "type": "node",
      "id": 621235471,
      "lat": 13.0369119,
      "lon": 77.5659032,
      "tags": {
        "addr:city": "Bangalore",
        "addr:country": "IN",
        "addr:full": "Devasandra Circle",
        "addr:postcode": "560054",
        "addr:state": "Karnataka",
        "addr:street": "New BEL Road",
        "amenity": "cafe",
        "check_date": "2025-08-08",
        "name": "Shanthi Sagar",
        "name:kn": "ಶಾಂತಿ ಸಾಗರ"
      }
    },
    {
      "type": "node",
      "id": 621241029,
      "lat": 13.038095,
      "lon": 77.569086,
      "tags": {
        "amenity": "bar",
        "name": "RMV Club"
      }
    },
    {
      "type": "node",
      "id": 621241147,
      "lat": 13.0380165,
      "lon": 77.5693434,
      "tags": {
        "amenity": "restaurant",
        "name": "RMV Club",
        "name:kn": "ಆರ್‌ಎಮ್‌ವಿ ಕ್ಲಬ್"
      }
    },
    {
      "type": "node",
      "id": 627936451,
      "lat": 13.0372579,
      "lon": 77.566121,
      "tags": {
        "amenity": "restaurant",
        "name": "Chicken County",
        "name:kn": "ಚಿಕನ್ ಕೌಂಟಿ"
      }
    },
    {
      "type": "node",
      "id": 1464771575,
      "lat": 13.0390205,
      "lon": 77.5641654,
      "tags": {
        "brand": "Kanti Sweets",
        "brand:wikidata": "Q124374180",
        "check_date": "2025-08-08",
        "name": "Kanti Sweets",
        "shop": "confectionery"
      }
    },
    {
      "type": "node",
      "id": 1464771580,
      "lat": 13.0374605,
      "lon": 77.5657693,
      "tags": {
        "amenity": "fast_food",
        "brand": "Domino's",
        "brand:ks": "ڈومینوز",
        "brand:pa": "ਡੋਮੀਨੋਜ਼",
        "brand:ur": "ڈومینوز",
        "brand:wikidata": "Q839466",
        "brand:wikipedia": "en:Domino's Pizza",
        "cuisine": "pizza",
        "name": "Domino's",
        "name:ks": "ڈومینوز",
        "name:pa": "ਡੋਮੀਨੋਜ਼",
        "name:ur": "ڈومینوز"
      }
    },
    {
      "type": "node",
      "id": 1464771943,
      "lat": 13.0356496,
      "lon": 77.5670648,
      "tags": {
        "name": "Sweet Chariot",
        "name:kn": "ಸ್ವೀಟ್ ಚಾರಿಯಟ್",
        "shop": "bakery"
      }
    },
    {
      "type": "node",
      "id": 1464772068,
      "lat": 13.0354798,
      "lon": 77.5671533,
      "tags": {
        "name": "More",
        "shop": "convenience"
      }
    },
    {
      "type": "node",
      "id": 1871539757,
      "lat": 13.0372438,
      "lon": 77.5648754,
      "tags": {
        "addr:district": "Bengaluru Urban",
        "addr:full": "No 519 2nd Nain Netravathystreet, Devasandra, New Bel Road",
        "addr:postcode": "560054",
        "addr:state": "Karnataka",
        "amenity": "hospital",
        "emergency": "yes",
        "name": "Shirdi Sai Hospital",
        "name:kn": "ಶಿರಡಿ ಸಾಯಿ ಆಸ್ಪತ್ರೆ",
        "operator:type": "private",
        "source": "OpenGovernmentData",
        "website": "http://shirdisaihospital.in/"
      }
    },
    {
      "type": "node",
      "id": 1871539758,
      "lat": 13.0367811,
      "lon": 77.5660503,
      "tags": {
        "amenity": "restaurant",
        "cuisine": "indian",
        "name": "Via Lucknow"
      }
    },
    {
      "type": "node",
      "id": 1999582217,
      "lat": 13.0370746,
      "lon": 77.5656715,
      "tags": {
        "addr:city": "Bangalore",
        "addr:postcode": "560054",
        "addr:street": "New BEL Road",
        "name": "Maha Bazar",
        "phone": "(91)-80-33293209",
        "shop": "supermarket",
        "website": "https://www.mahabazaaronline.com/"
      }
    },
    {
      "type": "node",
      "id": 2859829423,
      "lat": 13.0400516,
      "lon": 77.5573893,
      "tags": {
        "amenity": "bank",
        "atm": "yes",
        "brand": "Union Bank of India",
        "brand:wikidata": "Q2004078",
        "brand:wikipedia": "en:Union Bank of India",
        "name": "Union Bank of India",
        "name:en": "Union Bank of India",
        "name:kn": "ಯೂನಿಯನ್ ಬ್ಯಾಂಕ್",
        "short_name": "UBI",
        "website": "https://www.unionbankofindia.co.in/",
        "wheelchair": "no"
      }
    },
    {
      "type": "node",
      "id": 2859829724,
      "lat": 13.0403573,
      "lon": 77.5574215,
      "tags": {
        "amenity": "bank",
        "atm": "yes",
        "name": "Vijaya Bank - Gokula",
        "name:kn": "ವಿಜಯ ಬ್ಯಾಂಕು",
        "wheelchair": "no"
      }
    },
    {
      "type": "node",
      "id": 3122054157,
      "lat": 13.0365347,
      "lon": 77.5620534,
      "tags": {
        "addr:city": "Mathikere",
        "addr:postcode": "560054",
        "amenity": "place_of_worship",
        "name": "Muthuraiswamy Ayappa Temple",
        "name:kn": "ಅಯ್ಯಪ್ಪ ದೇವಸ್ಥಾನ",
        "religion": "hindu"
      }
    },
    {
      "type": "node",
      "id": 3122059772,
      "lat": 13.0356902,
      "lon": 77.5634153,
      "tags": {
        "addr:city": "Mathikere",
        "addr:postcode": "560054",
        "amenity": "cinema",
        "name": "Lakshmi Tent"
      }
    },
    {
      "type": "node",
      "id": 3483711802,
      "lat": 13.0374157,
      "lon": 77.5661276,
      "tags": {
        "addr:city": "Bangalore",
        "addr:housenumber": "534",
        "addr:postcode": "560094",
        "addr:street": "5th Main",
        "amenity": "cafe",
        "cuisine": "dessert",
        "internet_access": "no",
        "name": "Ibaco",
        "opening_hours": "11:00 -23:00",
        "phone": "+91 9535710883",
        "smoking": "no"
      }
    },
    {
      "type": "node",
      "id": 3719529455,
      "lat": 13.0374079,
      "lon": 77.5654203,
      "tags": {
        "amenity": "restaurant",
        "cuisine": "indian",
        "name": "Akshaya Deluxe"
      }
    },
    {
      "type": "node",
      "id": 4603539289,
      "lat": 13.0374651,
      "lon": 77.5616603,
      "tags": {
        "amenity": "cafe",
        "name": "Down bekary",
        "name:en": "Down bekary"
      }
    },
    {
      "type": "node",
      "id": 7228148584,
      "lat": 13.0401787,
      "lon": 77.5574362,
      "tags": {
        "amenity": "fast_food",
        "cuisine": "juice",
        "name": "Lassi Shop"
      }
    },
    {
      "type": "node",
      "id": 7228151802,
      "lat": 13.0448155,
      "lon": 77.5569279,
      "tags": {
        "access": "yes",
        "amenity": "toilets"
      }
    },
    {
      "type": "node",
      "id": 7257189486,
      "lat": 13.0451003,
      "lon": 77.5725706,
      "tags": {
        "access": "permissive",
        "amenity": "parking",
        "parking": "surface"
      }
    },
    {
      "type": "node",
      "id": 7257189628,
      "lat": 13.0441191,
      "lon": 77.5721535,
      "tags": {
        "access": "permissive",
        "amenity": "parking",
        "parking": "surface"
      }
    },
    {
      "type": "node",
      "id": 7257189629,
      "lat": 13.0440708,
      "lon": 77.5729179,
      "tags": {
        "access": "permissive",
        "amenity": "parking",
        "parking": "surface"
      }
    },
    {
      "type": "node",
      "id": 8137530880,
      "lat": 13.04116,
      "lon": 77.5580795,
      "tags": {
        "amenity": "vending_machine",
        "name": "Water ATM",
        "operator": "BBMP",
        "vending": "water"
      }
    },
    {
      "type": "node",
      "id": 8187962142,
      "lat": 13.0384524,
      "lon": 77.5649122,
      "tags": {
        "addr:full": "28, New BEL Rd, AGS Layout, AGs Layout, R.M.V. 2nd Stage, Bengaluru, Karnataka",
        "addr:state": "Karnataka",
        "amenity": "bank",
        "name": "Bank of Baroda",
        "name:kn": "ಬ್ಯಾಂಕ್ ಆಫ್ ಬರೋಡ"
      }
    },
    {
      "type": "node",
      "id": 8544077292,
      "lat": 13.0376973,
      "lon": 77.5595009,
      "tags": {
        "amenity": "place_of_worship",
        "name": "Athumanesar church",
        "religion": "christian"
      }
    },
    {
      "type": "node",
      "id": 8544085414,
      "lat": 13.0409904,
      "lon": 77.5636179,
      "tags": {
        "amenity": "bank",
        "brand": "SBI"
      }
    },
    {
      "type": "node",
      "id": 10233456224,
      "lat": 13.0423383,
      "lon": 77.566604,
      "tags": {
        "name": "Heads Up for Tails",
        "shop": "pet"
      }
    },
    {
      "type": "node",
      "id": 10233456232,
      "lat": 13.0375552,
      "lon": 77.5665276,
      "tags": {
        "access": "yes",
        "amenity": "toilets",
        "fee": "yes",
        "operator": "BBMP"
      }
    },
    {
      "type": "node",
      "id": 10233456233,
      "lat": 13.0372716,
      "lon": 77.5659201,
      "tags": {
        "amenity": "pub",
        "microbrewery": "yes",
        "name": "La Casa Brew + Kitchen"
      }
    },
    {
      "type": "node",
      "id": 10242924682,
      "lat": 13.0390052,
      "lon": 77.5610671,
      "tags": {
        "amenity": "recycling",
        "name": "BBMP Dry Waste Collection Center",
        "name:kn": "ಒಣ ತ್ಯಾಜ್ಯ ನಿರ್ವಹಣೆಗೆ ಸ್ಥಳ",
        "recycling_type": "centre"
      }
    },
    {
      "type": "node",
      "id": 10242924687,
      "lat": 13.038,
      "lon": 77.562,
      "tags": {
        "amenity": "recycling",
        "recycling_type": "centre"
      }
    },
    {
      "type": "node",
      "id": 10600408936,
      "lat": 13.0368157,
      "lon": 77.5659898,
      "tags": {
        "addr:city": "Bangalore",
        "addr:country": "IN",
        "addr:hamlet": "RMV Extension 2nd Stage",
        "addr:housenumber": "472",
        "addr:postcode": "560054",
        "addr:street": "New BEL Road",
        "amenity": "restaurant",
        "cuisine": "american",
        "delivery": "yes",
        "level": "0",
        "name": "New BEL Road SOCIAL",
        "smoking": "separated",
        "takeaway": "yes"
      }
    },
    {
      "type": "node",
      "id": 10604644044,
      "lat": 13.0397397,
      "lon": 77.5640747,
      "tags": {
        "amenity": "fast_food",
        "cuisine": "regional",
        "name": "Indira Canteen",
        "operator": "BBMP"
      }
    },
    {
      "type": "node",
      "id": 10604644063,
      "lat": 13.0436723,
      "lon": 77.5674972,
      "tags": {
        "amenity": "library"
      }
    },
    {
      "type": "node",
      "id": 11496155848,
      "lat": 13.0402331,
      "lon": 77.55714,
      "tags": {
        "amenity": "post_office",
        "check_date": "2024-01-07",
        "name": "MS Ramaiah Post Office",
        "operator": "India Post",
        "operator:wikidata": "Q3519720"
      }
    },
    {
      "type": "node",
      "id": 12291501592,
      "lat": 13.0373232,
      "lon": 77.5655573,
      "tags": {
        "amenity": "cafe",
        "check_date": "2025-08-08",
        "name": "Thalassery Cafe"
      }
    },
    {
      "type": "node",
      "id": 12291501759,
      "lat": 13.0419418,
      "lon": 77.5701673,
      "tags": {
        "amenity": "fast_food"
      }
    },
    {
      "type": "node",
      "id": 12291501912,
      "lat": 13.042827,
      "lon": 77.5683233,
      "tags": {
        "leisure": "fitness_station"
      }
    },
    {
      "type": "node",
      "id": 12676265205,
      "lat": 13.0401523,
      "lon": 77.5571714,
      "tags": {
        "amenity": "post_box"
      }
    },
    {
      "type": "node",
      "id": 12676265206,
      "lat": 13.0421041,
      "lon": 77.5573027,
      "tags": {
        "check_date": "2025-03-18",
        "name": "Girias",
        "shop": "electronics"
      }
    },
    {
      "type": "node",
      "id": 12676265207,
      "lat": 13.0424609,
      "lon": 77.5572131,
      "tags": {
        "check_date": "2025-03-18",
        "name": "Car Care",
        "shop": "car_repair"
      }
    },
    {
      "type": "node",
      "id": 12676265223,
      "lat": 13.0406654,
      "lon": 77.5574556,
      "tags": {
        "check_date": "2025-03-18",
        "shop": "garden_centre"
      }
    },
    {
      "type": "node",
      "id": 12862846447,
      "lat": 13.0369782,
      "lon": 77.5658376,
      "tags": {
        "amenity": "fast_food",
        "cuisine": "burger",
        "delivery": "yes",
        "name": "Boss Burger",
        "takeaway": "yes"
      }
    },
    {
      "type": "node",
      "id": 12862846478,
      "lat": 13.0387034,
      "lon": 77.5644089,
      "tags": {
        "amenity": "fast_food",
        "contact:instagram": "goodflippin",
        "cuisine": "burger",
        "delivery": "yes",
        "name": "Good Flippin' Burgers",
        "takeaway": "yes",
        "website": "https://goodflippin.com/"
      }
    },
    {
      "type": "node",
      "id": 13057916464,
      "lat": 13.0365781,
      "lon": 77.5659501,
      "tags": {
        "amenity": "bank",
        "brand": "HDFC Bank",
        "brand:wikidata": "Q631047",
        "check_date": "2025-08-08",
        "name": "HDFC Bank",
        "short_name": "HDFC"
      }
    },
    {
      "type": "way",
      "id": 40584732,
      "center": {
        "lat": 13.0491555,
        "lon": 77.5567322
      },
      "tags": {
        "leisure": "pitch",
        "name": "BEL School Ground",
        "wheelchair": "no"
      }
    },
    {
      "type": "way",
      "id": 41212267,
      "center": {
        "lat": 13.0472016,
        "lon": 77.5561007
      },
      "tags": {
        "alt_name": "BEL Ayappa Park",
        "leisure": "park",
        "name": "General Iyappa Park",
        "name:etymology:wikidata": "Q4780908"
      }
    },
    {
      "type": "way",
      "id": 42407831,
      "center": {
        "lat": 13.0514205,
        "lon": 77.5584032
      },
      "tags": {
        "leisure": "sports_centre",
        "name": "Ambedkar Sports Club",
        "name:etymology:wikidata": "Q231690",
        "sport": "multi"
      }
    },
    {
      "type": "way",
      "id": 323113360,
      "center": {
        "lat": 13.0363195,
        "lon": 77.5664043
      },
      "tags": {
        "amenity": "bus_station",
        "name": "Chikkamaranahalli",
        "name:kn": "ಚಿಕ್ಕಮಾರನಹಳ್ಳಿ ಬಸ್ ನಿಲ್ದಾನ"
      }
    },
    {
      "type": "way",
      "id": 325764244,
      "center": {
        "lat": 13.0415498,
        "lon": 77.5645143
      },
      "tags": {
        "leisure": "park",
        "name": "MLA Layout Park"
      }
    },
    {
      "type": "way",
      "id": 362949505,
      "center": {
        "lat": 13.0376027,
        "lon": 77.566628
      },
      "tags": {
        "leisure": "park"
      }
    },
    {
      "type": "way",
      "id": 363074109,
      "center": {
        "lat": 13.0451918,
        "lon": 77.571772
      },
      "tags": {
        "leisure": "park"
      }
    },
    {
      "type": "way",
      "id": 363121717,
      "center": {
        "lat": 13.0361307,
        "lon": 77.5693741
      },
      "tags": {
        "leisure": "park",
        "name": "Dollar's Colony Park",
        "official_name": "Soundarya Park"
      }
    },
    {
      "type": "way",
      "id": 363126115,
      "center": {
        "lat": 13.0437363,
        "lon": 77.5626393
      },
      "tags": {
        "alt_name": "Nalanda",
        "amenity": "college",
        "name": "BEL Academy for Excellence",
        "office": "educational_institution",
        "official_name": "Abhyudaya"
      }
    },
    {
      "type": "way",
      "id": 452680882,
      "center": {
        "lat": 13.0438004,
        "lon": 77.5699888
      },
      "tags": {
        "amenity": "school",
        "building": "yes",
        "name": "Government Higher Primary School",
        "name:kn": "ಸರ್ಕಾರಿ ಹಿರಿಯ ಪ್ರಾಥಮಿಕ ಶಾಲೆ ನಾಗಶೆಟ್ಟಿಹಳ್ಳಿ"
      }
    },
    {
      "type": "way",
      "id": 467074943,
      "center": {
        "lat": 13.0444126,
        "lon": 77.5738749
      },
      "tags": {
        "leisure": "pitch"
      }
    },
    {
      "type": "way",
      "id": 467074945,
      "center": {
        "lat": 13.0442072,
        "lon": 77.5737858
      },
      "tags": {
        "leisure": "pitch",
        "sport": "tennis"
      }
    },
    {
      "type": "way",
      "id": 467074947,
      "center": {
        "lat": 13.0440105,
        "lon": 77.5737059
      },
      "tags": {
        "leisure": "pitch"
      }
    },
    {
      "type": "way",
      "id": 467074955,
      "center": {
        "lat": 13.0382134,
        "lon": 77.5687093
      },
      "tags": {
        "leisure": "pitch",
        "sport": "tennis"
      }
    },
    {
      "type": "way",
      "id": 774708672,
      "center": {
        "lat": 13.0405827,
        "lon": 77.5569057
      },
      "tags": {
        "amenity": "place_of_worship",
        "name": "Venkateswara Temple",
        "name:kn": "ವೆಂಕಟೇಶ್ವರ ದೇವಸ್ಥಾನ",
        "religion": "hindu",
        "wheelchair": "no"
      }
    },
    {
      "type": "way",
      "id": 774708681,
      "center": {
        "lat": 13.0462568,
        "lon": 77.5557062
      },
      "tags": {
        "leisure": "garden"
      }
    },
    {
      "type": "way",
      "id": 777638963,
      "center": {
        "lat": 13.045172,
        "lon": 77.5718869
      },
      "tags": {
        "leisure": "playground"
      }
    },
    {
      "type": "way",
      "id": 777638965,
      "center": {
        "lat": 13.0446547,
        "lon": 77.5734852
      },
      "tags": {
        "leisure": "garden"
      }
    },
    {
      "type": "way",
      "id": 777638966,
      "center": {
        "lat": 13.0444802,
        "lon": 77.572234
      },
      "tags": {
        "leisure": "garden"
      }
    },
    {
      "type": "way",
      "id": 777638969,
      "center": {
        "lat": 13.044628,
        "lon": 77.572118
      },
      "tags": {
        "leisure": "swimming_pool"
      }
    },
    {
      "type": "way",
      "id": 777638970,
      "center": {
        "lat": 13.0446692,
        "lon": 77.5719594
      },
      "tags": {
        "leisure": "swimming_pool"
      }
    },
    {
      "type": "way",
      "id": 777638971,
      "center": {
        "lat": 13.044789,
        "lon": 77.5719826
      },
      "tags": {
        "leisure": "swimming_pool"
      }
    },
    {
      "type": "way",
      "id": 777638976,
      "center": {
        "lat": 13.044582,
        "lon": 77.5722532
      },
      "tags": {
        "access": "private",
        "leisure": "swimming_pool"
      }
    },
    {
      "type": "way",
      "id": 777638977,
      "center": {
        "lat": 13.0447893,
        "lon": 77.5717528
      },
      "tags": {
        "access": "private",
        "leisure": "swimming_pool"
      }
    },
    {
      "type": "way",
      "id": 777638978,
      "center": {
        "lat": 13.044431,
        "lon": 77.5726452
      },
      "tags": {
        "access": "private",
        "leisure": "swimming_pool"
      }
    },
    {
      "type": "way",
      "id": 777638979,
      "center": {
        "lat": 13.044492,
        "lon": 77.5724238
      },
      "tags": {
        "access": "private",
        "leisure": "swimming_pool"
      }
    },
    {
      "type": "way",
      "id": 777638980,
      "center": {
        "lat": 13.0439527,
        "lon": 77.5733428
      },
      "tags": {
        "amenity": "amphitheatre",
        "area": "yes",
        "highway": "pedestrian"
      }
    },
    {
      "type": "way",
      "id": 777638982,
      "center": {
        "lat": 13.0443373,
        "lon": 77.5715383
      },
      "tags": {
        "leisure": "garden"
      }
    },
    {
      "type": "way",
      "id": 777638997,
      "center": {
        "lat": 13.046028,
        "lon": 77.5719841
      },
      "tags": {
        "access": "private",
        "leisure": "swimming_pool",
        "sport": "swimming"
      }
    },
    {
      "type": "way",
      "id": 874066501,
      "center": {
        "lat": 13.0410007,
        "lon": 77.5582603
      },
      "tags": {
        "leisure": "park",
        "name": "Sundaranagar Park",
        "name:kn": "ಸುಂದರನಗರ ಉದ್ಯಾನ",
        "operator": "ಬೃಹತ್ ಬೆಂಗಳೂರು ಮಹಾನಗರ ಪಾಲಿಕೆ",
        "operator:en": "Bruhat Bengaluru Mahanagara Palike",
        "operator:ka": "ಬೃಹತ್ ಬೆಂಗಳೂರು ಮಹಾನಗರ ಪಾಲಿಕೆ",
        "operator:short": "BBMP",
        "operator:type": "government",
        "operator:wikidata": "Q4978693"
      }
    },
    {
      "type": "way",
      "id": 1137660885,
      "center": {
        "lat": 13.0428452,
        "lon": 77.5672129
      },
      "tags": {
        "leisure": "park"
      }
    },
    {
      "type": "way",
      "id": 1137660892,
      "center": {
        "lat": 13.0436252,
        "lon": 77.5673537
      },
      "tags": {
        "amenity": "school"
      }
    },
    {
      "type": "way",
      "id": 1181411206,
      "center": {
        "lat": 13.048044,
        "lon": 77.5584693
      },
      "tags": {
        "access": "permissive",
        "amenity": "parking",
        "parking": "surface"
      }
    },
    {
      "type": "way",
      "id": 1232959596,
      "center": {
        "lat": 13.0487565,
        "lon": 77.5630087
      },
      "tags": {
        "leisure": "garden"
      }
    },
    {
      "type": "way",
      "id": 1238793140,
      "center": {
        "lat": 13.0456711,
        "lon": 77.5719998
      },
      "tags": {
        "access": "private",
        "leisure": "swimming_pool"
      }
    },
    {
      "type": "way",
      "id": 1248886179,
      "center": {
        "lat": 13.0438029,
        "lon": 77.566427
      },
      "tags": {
        "access": "private",
        "leisure": "swimming_pool"
      }
    },
    {
      "type": "way",
      "id": 1248886180,
      "center": {
        "lat": 13.0444978,
        "lon": 77.5656411
      },
      "tags": {
        "access": "private",
        "leisure": "swimming_pool"
      }
    },
    {
      "type": "way",
      "id": 1284656989,
      "center": {
        "lat": 13.0402384,
        "lon": 77.5732183
      },
      "tags": {
        "amenity": "fuel"
      }
    },
    {
      "type": "way",
      "id": 1308403425,
      "center": {
        "lat": 13.0426534,
        "lon": 77.5567946
      },
      "tags": {
        "alt_name": "Sri Laxmi Petrol / Gas Station",
        "amenity": "fuel",
        "brand": "Bharat Petroleum",
        "brand:wikidata": "Q854826",
        "check_date": "2025-08-08",
        "name": "Bharat Petroleum",
        "name:kn": "ಭಾರತ್ ಪೆಟ್ರೋಲಿಯಂ",
        "operator": "Bharat Petroleum",
        "wheelchair": "limited"
      }
    },
    {
      "type": "way",
      "id": 1308403427,
      "center": {
        "lat": 13.0431085,
        "lon": 77.5567444
      },
      "tags": {
        "alt_name": "Mohan Gas Station",
        "amenity": "fuel",
        "brand": "Indian Oil",
        "brand:wikidata": "Q1289348",
        "brand:wikipedia": "en:Indian Oil Corporation",
        "check_date": "2025-08-08",
        "name": "Indian Oil",
        "operator": "Indian Oil",
        "wheelchair": "no"
      }
    },
    {
      "type": "way",
      "id": 1326435588,
      "center": {
        "lat": 13.038259,
        "lon": 77.5640449
      },
      "tags": {
        "leisure": "pitch",
        "sport": "soccer"
      }
    },
    {
      "type": "way",
      "id": 1326435614,
      "center": {
        "lat": 13.0463973,
        "lon": 77.5709133
      },
      "tags": {
        "access": "private",
        "leisure": "swimming_pool",
        "sport": "swimming"
      }
    },
    {
      "type": "way",
      "id": 1327448949,
      "center": {
        "lat": 13.0508502,
        "lon": 77.5673745
      },
      "tags": {
        "amenity": "school"
      }
    },
    {
      "type": "way",
      "id": 1328289204,
      "center": {
        "lat": 13.035552,
        "lon": 77.5637031
      },
      "tags": {
        "amenity": "school"
      }
    },
    {
      "type": "way",
      "id": 1328289307,
      "center": {
        "lat": 13.0382597,
        "lon": 77.5636536
      },
      "tags": {
        "leisure": "pitch"
      }
    },
    {
      "type": "way",
      "id": 1378387894,
      "center": {
        "lat": 13.0412853,
        "lon": 77.5708399
      },
      "tags": {
        "leisure": "park"
      }
    },
    {
      "type": "way",
      "id": 1378923054,
      "center": {
        "lat": 13.0397539,
        "lon": 77.5731622
      },
      "tags": {
        "amenity": "school",
        "name": "Akal Public School"
      }
    },
    {
      "type": "way",
      "id": 1379629474,
      "center": {
        "lat": 13.0449016,
        "lon": 77.5608117
      },
      "tags": {
        "access": "permissive",
        "amenity": "parking",
        "parking": "surface"
      }
    },
    {
      "type": "way",
      "id": 1379629491,
      "center": {
        "lat": 13.0398671,
        "lon": 77.5641595
      },
      "tags": {
        "leisure": "park"
      }
    },
    {
      "type": "way",
      "id": 1419412632,
      "center": {
        "lat": 13.0382814,
        "lon": 77.5647074
      },
      "tags": {
        "amenity": "fuel",
        "check_date": "2025-08-08",
        "operator": "HP"
      }
    }
  ]
}