{
  "area_name": "Madhav Nagar",
  "osm_id": 7658290106,
  "osm_type": "node",
  "place_type": "neighbourhood",
  "amenity_count": 473,
  "amenities": [
    {
      "type": "node",
      "id": 428851695,
      "lat": 12.9778231,
      "lon": 77.572453,
      "tags": {
        "amenity": "toilets",
        "wheelchair": "no"
      }
    },
    {
      "type": "node",
      "id": 428851697,
      "lat": 12.9778503,
      "lon": 77.5722059,
      "tags": {
        "amenity": "restaurant",
        "cuisine": "South_Indian",
        "level": "0",
        "name": "Sri Raghavendra",
        "name:kn": "ಶ್ರೀ ರಾಘವೇಂದ್ರ"
      }
    },
    {
      "type": "node",
      "id": 428851702,
      "lat": 12.977709,
      "lon": 77.5722837,
      "tags": {
        "amenity": "atm",
        "brand": "Canara Bank",
        "brand:en": "Canara Bank",
        "brand:hi": "केनरा बैंक",
        "brand:kn": "ಕೆನರಾ ಬ್ಯಾಂಕ್",
        "brand:pa": "ਕੇਨਰਾ ਬੈਂਕ",
        "brand:pnb": "کینرا بینک",
        "brand:ur": "کینرا بینک",
        "brand:wikidata": "Q2003777",
        "brand:wikipedia": "en:Canara Bank",
        "brand:wikipedia:pa": "ਕੇਨਰਾ ਬੈਂਕ",
        "name": "Canara Bank",
        "name:en": "Canara Bank",
        "name:hi": "केनरा बैंक",
        "name:kn": "ಕೆನರಾ ಬ್ಯಾಂಕ್",
        "name:pa": "ਕੇਨਰਾ ਬੈਂਕ",
        "name:pnb": "کینرا بینک",
        "name:ur": "کینرا بینک",
        "operator": "Canara Bank",
        "operator:wikidata": "Q2003777"
      }
    },
    {
      "type": "node",
      "id": 429698093,
      "lat": 12.9766767,
      "lon": 77.5766838,
      "tags": {
        "amenity": "theatre",
        "name": "Gubbi Veerana Nataka",
        "name:kn": "ಗುಬ್ಬಿ ವೀರಣ್ಣ ನಾಟಕ"
      }
    },
    {
      "type": "node",
      "id": 577020540,
      "lat": 12.9901236,
      "lon": 77.5722985,
      "tags": {
        "amenity": "restaurant",
        "name": "Vishnu Sagar",
        "name:kn": "ವಿಷ್ಣು ಸಾಗರ"
      }
    },
    {
      "type": "node",
      "id": 577020638,
      "lat": 12.9898878,
      "lon": 77.5726957,
      "tags": {
        "amenity": "bar",
        "name": "Sangeeth Bar and Restaurant"
      }
    },
    {
      "type": "node",
      "id": 663604670,
      "lat": 12.9848514,
      "lon": 77.570647,
      "tags": {
        "amenity": "place_of_worship",
        "name:kn": "ಇಗರ್ಜಿ",
        "religion": "christian",
        "ups_other": "Church"
      }
    },
    {
      "type": "node",
      "id": 663604671,
      "lat": 12.984978,
      "lon": 77.5707314,
      "tags": {
        "amenity": "community_centre",
        "name": "S.C/S.T Welfare assocition"
      }
    },
    {
      "type": "node",
      "id": 663604674,
      "lat": 12.9848155,
      "lon": 77.5707656,
      "tags": {
        "amenity": "place_of_worship",
        "name": "Chamundeshwari Temple",
        "name:kn": "ಚಾಮುಂಡೇಶ್ವರಿ ದೇವಸ್ಥಾನ",
        "religion": "hindu",
        "ups_other": "temple"
      }
    },
    {
      "type": "node",
      "id": 663604676,
      "lat": 12.9857544,
      "lon": 77.570503,
      "tags": {
        "amenity": "place_of_worship",
        "name:kn": "ಚರ್ಚ್",
        "religion": "christian",
        "ups_other": "church"
      }
    },
    {
      "type": "node",
      "id": 663604681,
      "lat": 12.9862367,
      "lon": 77.5707724,
      "tags": {
        "amenity": "community_centre",
        "name": "Dr.b R Ambedkar Samudaya Bavan(bbmp)",
        "ups_community": "community_centre"
      }
    },
    {
      "type": "node",
      "id": 663604682,
      "lat": 12.9861118,
      "lon": 77.570748,
      "tags": {
        "amenity": "community_centre",
        "name": "Youth welfare association",
        "ups_community": "youth club"
      }
    },
    {
      "type": "node",
      "id": 663604683,
      "lat": 12.9863991,
      "lon": 77.5707542,
      "tags": {
        "amenity": "place_of_worship",
        "religion": "christian",
        "ups_other": "church"
      }
    },
    {
      "type": "node",
      "id": 663604685,
      "lat": 12.9884301,
      "lon": 77.5713911,
      "tags": {
        "amenity": "place_of_worship",
        "name": "Mariyamma temple",
        "name:kn": "ಮಾರಿಯಮ್ಮ ದೇವಸ್ಥಾನ",
        "religion": "hindu",
        "ups_other": "temple"
      }
    },
    {
      "type": "node",
      "id": 663604686,
      "lat": 12.9885784,
      "lon": 77.5705925,
      "tags": {
        "name": "sri lakshmi venkteshwara flower decoraters",
        "shop": "garden_centre",
        "ups_other": "shop"
      }
    },
    {
      "type": "node",
      "id": 663604690,
      "lat": 12.9887069,
      "lon": 77.5708345,
      "tags": {
        "amenity": "place_of_worship",
        "name": "Temple",
        "religion": "hindu",
        "ups_other": "temple"
      }
    },
    {
      "type": "node",
      "id": 663604691,
      "lat": 12.9895905,
      "lon": 77.5708543,
      "tags": {
        "amenity": "place_of_worship",
        "name": "Sri Jada Muneshwara Swamy Temple",
        "religion": "hindu",
        "ups_other": "temple"
      }
    },
    {
      "type": "node",
      "id": 673377213,
      "lat": 12.9853914,
      "lon": 77.5795059,
      "tags": {
        "amenity": "restaurant",
        "cuisine": "indian",
        "name": "Sana Di Ge",
        "name:kn": "ಸನ ದಿ ಗೆ"
      }
    },
    {
      "type": "node",
      "id": 1006462338,
      "lat": 12.985247,
      "lon": 77.5803846,
      "tags": {
        "addr:city": "Bangalore",
        "addr:housenumber": "31/32",
        "addr:postcode": "560001",
        "addr:street": "Crescent Rd,Nehru Nagar,Gandhi Nagar",
        "amenity": "hospital",
        "name": "Mallige Medical Centre",
        "phone": "080 2220 3333",
        "website": "https://www.mallige.com/"
      }
    },
    {
      "type": "node",
      "id": 1026508950,
      "lat": 12.9881279,
      "lon": 77.5744324,
      "tags": {
        "amenity": "police",
        "check_date": "2024-03-02",
        "name": "Seshadripuram Police Station",
        "name:kn": "ಶೇಶಾದ್ರಿಪುರಮ್ ಆರಕ್ಷಕ ಠಾಣೆ",
        "wheelchair": "no"
      }
    },
    {
      "type": "node",
      "id": 1101598769,
      "lat": 12.9809052,
      "lon": 77.5754392,
      "tags": {
        "addr:street": "Sheshadri Road",
        "amenity": "bank",
        "atm": "yes",
        "brand": "Axis Bank",
        "brand:wikidata": "Q2003549",
        "brand:wikipedia": "en:Axis Bank",
        "name": "Axis Bank",
        "name:en": "Axis Bank",
        "name:kn": "ಆಕ್ಸಿಸ್ ಬ್ಯಾಂಕ್",
        "website": "https://www.axisbank.com"
      }
    },
    {
      "type": "node",
      "id": 1101607728,
      "lat": 12.9856254,
      "lon": 77.5788885,
      "tags": {
        "addr:street": "Kumara Krupa Road",
        "amenity": "restaurant",
        "check_date": "2024-12-22",
        "name": "Hotel Janardhana",
        "name:kn": "ಜನಾರ್ಧನ್"
      }
    },
    {
      "type": "node",
      "id": 1101617173,
      "lat": 12.9910826,
      "lon": 77.5789046,
      "tags": {
        "amenity": "school",
        "name": "Gandhi Nagar High School",
        "name:kn": "ಗಾಂಧಿನಗರ ಪೌಡಶಾಲೆ"
      }
    },
    {
      "type": "node",
      "id": 1116484556,
      "lat": 12.9853569,
      "lon": 77.5792692,
      "tags": {
        "addr:housenumber": "32/3",
        "addr:street": "Crescent Road",
        "amenity": "restaurant",
        "cuisine": "indian",
        "fax": "+91-80-41138488",
        "name": "Kabab Studio",
        "name:kn": "ಕಬಾಬ್ ಸ್ಟುಡಿಯೊ",
        "phone": "+91-80-41291300",
        "website": "https://www.goldfinchhotels.com/"
      }
    },
    {
      "type": "node",
      "id": 1121253486,
      "lat": 12.9834716,
      "lon": 77.5856742,
      "tags": {
        "branch": "Showroom",
        "brand": "Nike",
        "brand:wikidata": "Q483915",
        "name": "Nike",
        "shop": "clothes"
      }
    },
    {
      "type": "node",
      "id": 1560168982,
      "lat": 12.9802384,
      "lon": 77.5725469,
      "tags": {
        "amenity": "toilets"
      }
    },
    {
      "type": "node",
      "id": 1614268180,
      "lat": 12.9873383,
      "lon": 77.5805314,
      "tags": {
        "amenity": "school",
        "name": "Bharat Seva Dal",
        "name:kn": "ಭಾರತ ಸೇವಾದಳ",
        "wheelchair": "no"
      }
    },
    {
      "type": "node",
      "id": 1614268185,
      "lat": 12.9869904,
      "lon": 77.5786112,
      "tags": {
        "amenity": "bank",
        "atm": "yes",
        "brand": "Canara Bank",
        "brand:en": "Canara Bank",
        "brand:hi": "केनरा बैंक",
        "brand:kn": "ಕೆನರಾ ಬ್ಯಾಂಕ್",
        "brand:pa": "ਕੇਨਰਾ ਬੈਂਕ",
        "brand:pnb": "کینرا بینک",
        "brand:ur": "کینرا بینک",
        "brand:wikidata": "Q2003777",
        "brand:wikipedia": "en:Canara Bank",
        "brand:wikipedia:pa": "ਕੇਨਰਾ ਬੈਂਕ",
        "name": "Canara Bank",
        "name:en": "Canara Bank",
        "name:hi": "केनरा बैंक",
        "name:kn": "ಕೆನರಾ ಬ್ಯಾಂಕ್",
        "name:pa": "ਕੇਨਰਾ ਬੈਂਕ",
        "name:pnb": "کینرا بینک",
        "name:ur": "کینرا بینک",
        "website": "https://www.canarabank.com/",
        "wheelchair": "no"
      }
    },
    {
      "type": "node",
      "id": 1614268190,
      "lat": 12.9876512,
      "lon": 77.5799188,
      "tags": {
        "amenity": "bank",
        "atm": "yes",
        "brand": "ICICI Bank",
        "brand:wikidata": "Q1653258",
        "name": "ICICI Bank",
        "name:en": "ICICI Bank",
        "name:kn": "ಐಸಿಐಸಿಐ ಬ್ಯಾಂಕು",
        "short_name": "ICICI",
        "website": "https://www.icicibank.com",
        "wheelchair": "no"
      }
    },
    {
      "type": "node",
      "id": 1614268192,
      "lat": 12.9868232,
      "lon": 77.5800176,
      "tags": {
        "amenity": "restaurant",
        "name": "Richie-Rich",
        "name:kn": "ರಿಚೀ-ರಿಚ್"
      }
    },
    {
      "type": "node",
      "id": 1614268199,
      "lat": 12.9867564,
      "lon": 77.5795592,
      "tags": {
        "addr:housename": "Shivananda General Stores Complex",
        "addr:street": "Kumarakripa East",
        "name": "Shivananda Stores",
        "shop": "convenience"
      }
    },
    {
      "type": "node",
      "id": 1614366545,
      "lat": 12.9885341,
      "lon": 77.5770137,
      "tags": {
        "amenity": "cafe",
        "brand": "Cafe Coffee Day",
        "brand:wikidata": "Q5017235",
        "cuisine": "coffee_shop",
        "name": "Cafe Coffee Day",
        "name:kn": "ಕಫೆ ಕಾಫಿ ಡೇ",
        "takeaway": "yes",
        "website": "https://www.cafecoffeeday.com/",
        "wheelchair": "no"
      }
    },
    {
      "type": "node",
      "id": 1614366547,
      "lat": 12.9883033,
      "lon": 77.5774436,
      "tags": {
        "amenity": "fuel",
        "brand": "Bharat Petroleum",
        "brand:wikidata": "Q854826",
        "name": "Bharat Petroleum",
        "name:kn": "ಭಾರತ್ ಪೆಟ್ರೋಲಿಯಂ",
        "wheelchair": "yes"
      }
    },
    {
      "type": "node",
      "id": 1614366548,
      "lat": 12.9879409,
      "lon": 77.5768491,
      "tags": {
        "amenity": "atm",
        "brand": "Citibank",
        "brand:wikidata": "Q857063",
        "name": "Citibank",
        "operator": "Citibank",
        "operator:wikidata": "Q857063",
        "short_name": "Citi",
        "wheelchair": "no"
      }
    },
    {
      "type": "node",
      "id": 1617398438,
      "lat": 12.9909647,
      "lon": 77.5748146,
      "tags": {
        "amenity": "bank",
        "atm": "yes",
        "brand": "Canara Bank",
        "brand:en": "Canara Bank",
        "brand:hi": "केनरा बैंक",
        "brand:kn": "ಕೆನರಾ ಬ್ಯಾಂಕ್",
        "brand:pa": "ਕੇਨਰਾ ਬੈਂਕ",
        "brand:pnb": "کینرا بینک",
        "brand:ur": "کینرا بینک",
        "brand:wikidata": "Q2003777",
        "brand:wikipedia": "en:Canara Bank",
        "brand:wikipedia:pa": "ਕੇਨਰਾ ਬੈਂਕ",
        "name": "Canara Bank",
        "name:en": "Canara Bank",
        "name:hi": "केनरा बैंक",
        "name:kn": "ಕೆನರಾ ಬ್ಯಾಂಕ್",
        "name:pa": "ਕੇਨਰਾ ਬੈਂਕ",
        "name:pnb": "کینرا بینک",
        "name:ur": "کینرا بینک",
        "website": "https://www.canarabank.com/"
      }
    },
    {
      "type": "node",
      "id": 1617398443,
      "lat": 12.9859821,
      "lon": 77.5767419,
      "tags": {
        "amenity": "place_of_worship",
        "name": "Jain Temple",
        "name:kn": "ಜೈನ ದೇವಸ್ಥಾನ",
        "religion": "jain",
        "wheelchair": "no"
      }
    },
    {
      "type": "node",
      "id": 1617398466,
      "lat": 12.9928414,
      "lon": 77.5753482,
      "tags": {
        "amenity": "social_facility",
        "name": "Lakshmi Nursing Home",
        "social_facility": "nursing_home",
        "social_facility:for": "senior"
      }
    },
    {
      "type": "node",
      "id": 1617398469,
      "lat": 12.9926441,
      "lon": 77.5742046,
      "tags": {
        "addr:city": "bangalore",
        "addr:district": "Bengaluru Urban",
        "addr:full": "No.67,Link Road,Sheshadripuram",
        "addr:housenumber": "67",
        "addr:postcode": "560020",
        "addr:state": "Karnataka",
        "addr:street": "Link Rd, Malleswaram, Jai Bheema Nagar, Seshadripuram",
        "amenity": "hospital",
        "healthcare": "hospital",
        "name": "Sri Maruthi hospital, Sheshadripuram",
        "phone": "080 2344 9632",
        "source": "OpenGovernmentData"
      }
    },
    {
      "type": "node",
      "id": 1617398472,
      "lat": 12.9877001,
      "lon": 77.5782687,
      "tags": {
        "amenity": "restaurant",
        "name": "Park-n-Eat",
        "name:kn": "ಪಾರ್ಕ್-ಎನ್-ಈಟ್",
        "wheelchair": "no"
      }
    },
    {
      "type": "node",
      "id": 1617398477,
      "lat": 12.9865401,
      "lon": 77.5772559,
      "tags": {
        "amenity": "college",
        "name": "Yadava College",
        "name:kn": "ಯಾದವ ಕಾಲೇಜು",
        "wheelchair": "no"
      }
    },
    {
      "type": "node",
      "id": 1636730975,
      "lat": 12.9781823,
      "lon": 77.5797234,
      "tags": {
        "addr:city": "Beṅgaḷūru",
        "addr:neighborhood": "Gāndhinagara",
        "addr:postcode": "560009",
        "alt_name:en": "Shri Udupi",
        "amenity": "restaurant",
        "cuisine": "indian",
        "diet:vegetarian": "yes",
        "name": "Śrī Uḍupi",
        "name:en": "Uḍupi Grand",
        "name:es": "Gran Uḍupi",
        "name:kn": "ಶ್ರೀ ಉಡುಪಿ",
        "phone": "+919591875013",
        "website": "https://www.kanishkagrand.in/restaurant/"
      }
    },
    {
      "type": "node",
      "id": 1636731098,
      "lat": 12.9783655,
      "lon": 77.579598,
      "tags": {
        "amenity": "toilets",
        "check_date": "2022-07-03",
        "designation": "BBMP",
        "fee": "yes",
        "source": "survey",
        "wheelchair": "no"
      }
    },
    {
      "type": "node",
      "id": 1637588141,
      "lat": 12.9776756,
      "lon": 77.5796673,
      "tags": {
        "amenity": "community_centre",
        "name": "Terapanth Bhavan",
        "name:kn": "ತೇರಾಪಂಥ್ ಭವನ"
      }
    },
    {
      "type": "node",
      "id": 1737985671,
      "lat": 12.987094,
      "lon": 77.5784442,
      "tags": {
        "amenity": "fast_food",
        "diet:vegetarian": "only",
        "name": "Bangalore Cafe"
      }
    },
    {
      "type": "node",
      "id": 1809770675,
      "lat": 12.9800497,
      "lon": 77.5771102,
      "tags": {
        "addr:city": "Beṅgaḷūru",
        "addr:neighborhood": "Gāndhinagara",
        "addr:state": "KA",
        "alt_name:kn": "ಮುದ್ದೆ ಮಾದಪ್ಪ ಮೆಸ್",
        "alt_name:kn-Latn": "Mudde Mādappa Mes",
        "amenity": "restaurant",
        "cuisine": "indian;buffet",
        "diet:vegetarian": "yes",
        "facebook": "MuddeMadappa",
        "name": "Mādappa Mes",
        "name:en": "Mādappa Mess",
        "name:kn": "ಮಾದಪ್ಪ ಮೆಸ್",
        "name:kn-Latn": "Mādappa Mes",
        "opening_hours": "07:30-22:30",
        "phone": "+919880883801;+919844008380"
      }
    },
    {
      "type": "node",
      "id": 1809771508,
      "lat": 12.9803795,
      "lon": 77.5760204,
      "tags": {
        "amenity": "bus_station",
        "name": "SRS Bus Station",
        "operator": "SRS Travels",
        "website": "https://www.srsbooking.com/"
      }
    },
    {
      "type": "node",
      "id": 1809771510,
      "lat": 12.9803246,
      "lon": 77.5754733,
      "tags": {
        "amenity": "bus_station",
        "name": "VRL Bus Station",
        "operator": "VRL Travels",
        "website": "https://www.vrlbus.in/vrl2013/booking_home_page.aspx"
      }
    },
    {
      "type": "node",
      "id": 1809836481,
      "lat": 12.9764035,
      "lon": 77.5781564,
      "tags": {
        "name": "Sapna Book House",
        "name:kn": "ಸಪ್ನ ಬುಕ್ ಹೌಸ್",
        "shop": "books",
        "toilets:wheelchair": "no",
        "wheelchair": "no"
      }
    },
    {
      "type": "node",
      "id": 2016155692,
      "lat": 12.9767275,
      "lon": 77.5774801,
      "tags": {
        "amenity": "bicycle_parking"
      }
    },
    {
      "type": "node",
      "id": 2016155696,
      "lat": 12.976555,
      "lon": 77.5774051,
      "tags": {
        "amenity": "parking"
      }
    },
    {
      "type": "node",
      "id": 2025970826,
      "lat": 12.9866761,
      "lon": 77.5796529,
      "tags": {
        "addr:housename": "Shivananada General Stores Complex",
        "addr:street": "Kumarakripa East",
        "name": "Sangam Sweets",
        "shop": "confectionery"
      }
    },
    {
      "type": "node",
      "id": 2025970848,
      "lat": 12.9867912,
      "lon": 77.5794891,
      "tags": {
        "addr:housename": "Shivananda Stores Complex",
        "addr:street": "Kumarakripa East",
        "amenity": "restaurant",
        "cuisine": "indian",
        "name": "Coastal Express"
      }
    },
    {
      "type": "node",
      "id": 2026069825,
      "lat": 12.9884699,
      "lon": 77.5769743,
      "tags": {
        "amenity": "ice_cream",
        "brand": "Corner House",
        "delivery": "yes",
        "name": "Corner House",
        "shop": "confectionery",
        "takeaway": "yes"
      }
    },
    {
      "type": "node",
      "id": 2097550322,
      "lat": 12.9788091,
      "lon": 77.5750078,
      "tags": {
        "amenity": "restaurant",
        "check_date": "2024-02-29",
        "name": "Rajadhani restaurant"
      }
    },
    {
      "type": "node",
      "id": 2186146149,
      "lat": 12.9920336,
      "lon": 77.5763265,
      "tags": {
        "amenity": "place_of_worship",
        "religion": "hindu"
      }
    },
    {
      "type": "node",
      "id": 2261284949,
      "lat": 12.9825204,
      "lon": 77.5705174,
      "tags": {
        "amenity": "place_of_worship",
        "name": "Gethsemane Church",
        "name:kn": "ಗೆತ್ಸೆಮನೆ ಚರ್ಚ್",
        "religion": "christian",
        "wheelchair": "no"
      }
    },
    {
      "type": "node",
      "id": 2319451104,
      "lat": 12.9909704,
      "lon": 77.571384,
      "tags": {
        "amenity": "parking",
        "layer": "-1",
        "parking": "underground"
      }
    },
    {
      "type": "node",
      "id": 2334547032,
      "lat": 12.97828,
      "lon": 77.5772272,
      "tags": {
        "amenity": "toilets",
        "check_date": "2022-07-03",
        "source": "survey"
      }
    },
    {
      "type": "node",
      "id": 2334547033,
      "lat": 12.9785367,
      "lon": 77.5783186,
      "tags": {
        "amenity": "toilets",
        "source": "survey",
        "wheelchair": "no"
      }
    },
    {
      "type": "node",
      "id": 2466476118,
      "lat": 12.9765112,
      "lon": 77.5799146,
      "tags": {
        "amenity": "fuel",
        "brand": "Bharat Petroleum",
        "brand:wikidata": "Q854826",
        "check_date": "2024-03-02",
        "compressed_air": "yes",
        "name": "Bharat Petroleum",
        "operator": "Chanders"
      }
    },
    {
      "type": "node",
      "id": 2467854906,
      "lat": 12.9873459,
      "lon": 77.5723926,
      "tags": {
        "amenity": "fuel",
        "name": "Vijees Auto Gas"
      }
    },
    {
      "type": "node",
      "id": 2468465645,
      "lat": 12.9921952,
      "lon": 77.5754609,
      "tags": {
        "amenity": "bank",
        "atm": "yes"
      }
    },
    {
      "type": "node",
      "id": 2468465646,
      "lat": 12.9893245,
      "lon": 77.5740161,
      "tags": {
        "amenity": "place_of_worship",
        "name": "Sri Rama Temple",
        "name:kn": "ಶ್ರೀ ರಾಮ ದೇವಸ್ಥಾನ",
        "religion": "hindu"
      }
    },
    {
      "type": "node",
      "id": 2513569161,
      "lat": 12.9800713,
      "lon": 77.5746161,
      "tags": {
        "addr:city": "Gandhi Nagar, Bangalore",
        "addr:housename": "Ground Floor, Brigade Plaza",
        "addr:street": "Sheshadri Road",
        "check_date": "2024-02-29",
        "name": "Foto Circle",
        "shop": "photo"
      }
    },
    {
      "type": "node",
      "id": 2513569162,
      "lat": 12.9787644,
      "lon": 77.5750024,
      "tags": {
        "addr:city": "Gandhi Nagar, Bangalore",
        "addr:housename": "Rajadhani Restaurant",
        "addr:street": "Subedar Chatram Road",
        "amenity": "pub",
        "check_date": "2024-02-29",
        "name": "Rajadhani Pub"
      }
    },
    {
      "type": "node",
      "id": 2513569163,
      "lat": 12.9787148,
      "lon": 77.5743399,
      "tags": {
        "addr:city": "Gandhi Nagar, Bangalore",
        "addr:street": "4th Cross",
        "amenity": "bar",
        "name": "Skipper Bar & REstaurant"
      }
    },
    {
      "type": "node",
      "id": 2513569164,
      "lat": 12.978788,
      "lon": 77.5748548,
      "tags": {
        "addr:city": "Gandhi Nagar, Bangalore",
        "addr:street": "4th Cross",
        "name": "Unique Saloon",
        "shop": "hairdresser"
      }
    },
    {
      "type": "node",
      "id": 2513569165,
      "lat": 12.9787017,
      "lon": 77.5742352,
      "tags": {
        "addr:city": "Beṅgaḷūru",
        "addr:neighborhood": "Gāndhinagara",
        "addr:street": "4th Cross",
        "amenity": "restaurant",
        "cuisine": "indian",
        "diet:vegetarian": "yes",
        "name": "Gandharva Upahāra",
        "name:en": "Gandharva Upahar",
        "name:hi": "गन्धर्व उपहार",
        "name:hi-Latn": "Gandharv Upahār",
        "name:kn": "ಗಂಧರ್ವ ಉಪಹಾರ",
        "name:kn-Latn": "Gandharva Upahāra",
        "name:ur": "گندھرو اپہار",
        "name:ur-Latn": "Gandharv Upahār",
        "opening_hours": "08:00-21:00"
      }
    },
    {
      "type": "node",
      "id": 2513569168,
      "lat": 12.9786625,
      "lon": 77.5739751,
      "tags": {
        "addr:city": "Gandhi Nagar, Bangalore",
        "addr:street": "4th Cross",
        "amenity": "bar",
        "name": "Durga Bar & Restaurant"
      }
    },
    {
      "type": "node",
      "id": 2513569169,
      "lat": 12.9785893,
      "lon": 77.5736371,
      "tags": {
        "addr:city": "Gandhi Nagar, Bangalore",
        "addr:street": "4th Cross",
        "amenity": "pharmacy",
        "healthcare": "pharmacy",
        "name": "Vaidya Ratnam Ayurvedic Center"
      }
    },
    {
      "type": "node",
      "id": 3198615159,
      "lat": 12.9887808,
      "lon": 77.5756802,
      "tags": {
        "name": "Archies",
        "shop": "gift"
      }
    },
    {
      "type": "node",
      "id": 3198615160,
      "lat": 12.9896328,
      "lon": 77.5751613,
      "tags": {
        "amenity": "place_of_worship",
        "denomination": "vaishnavism",
        "name": "Hanuman Temple",
        "name:kn": "ಹನುಮಂತ ದೇವಸ್ಥಾನ",
        "religion": "hindu"
      }
    },
    {
      "type": "node",
      "id": 3198616661,
      "lat": 12.98415,
      "lon": 77.5781517,
      "tags": {
        "amenity": "restaurant",
        "cuisine": "regional",
        "name": "Hotel Sanman"
      }
    },
    {
      "type": "node",
      "id": 3253222915,
      "lat": 12.9779382,
      "lon": 77.5741286,
      "tags": {
        "name": "National Travels",
        "shop": "travel_agency"
      }
    },
    {
      "type": "node",
      "id": 3371785036,
      "lat": 12.9891614,
      "lon": 77.5722338,
      "tags": {
        "amenity": "restaurant",
        "diet:vegetarian": "yes",
        "name": "Swathi"
      }
    },
    {
      "type": "node",
      "id": 3371785038,
      "lat": 12.9897351,
      "lon": 77.5720458,
      "tags": {
        "amenity": "atm",
        "brand": "State Bank of India",
        "brand:wikidata": "Q1340361",
        "name": "State Bank of India",
        "operator": "State Bank of India",
        "operator:wikidata": "Q1340361",
        "short_name": "SBI"
      }
    },
    {
      "type": "node",
      "id": 3371785040,
      "lat": 12.9896751,
      "lon": 77.5720525,
      "tags": {
        "amenity": "fast_food",
        "diet:vegetarian": "only",
        "name": "Ganesh Veg"
      }
    },
    {
      "type": "node",
      "id": 3400223540,
      "lat": 12.9873814,
      "lon": 77.5723908,
      "tags": {
        "name": "Vignesh Men's Parlour",
        "shop": "salon"
      }
    },
    {
      "type": "node",
      "id": 3525270784,
      "lat": 12.9916712,
      "lon": 77.5712761,
      "tags": {
        "addr:city": "Bengaluru",
        "addr:postcode": "560003",
        "addr:street": "Sampige Road",
        "air_conditioning": "yes",
        "amenity": "atm",
        "brand": "Citibank",
        "brand:wikidata": "Q857063",
        "name": "Citibank",
        "name:kn": "ಸಿಟಿಬ್ಯಾಂಕ್",
        "operator": "Citibank",
        "operator:wikidata": "Q857063",
        "short_name": "Citi"
      }
    },
    {
      "type": "node",
      "id": 3549082715,
      "lat": 12.9878361,
      "lon": 77.574957,
      "tags": {
        "amenity": "place_of_worship",
        "name": "Sri Krishna Devasthana",
        "name:kn": "ಕೃಷ್ಣ ದೇವಸ್ಥಾನ",
        "religion": "hindu"
      }
    },
    {
      "type": "node",
      "id": 3549082716,
      "lat": 12.9877862,
      "lon": 77.5744684,
      "tags": {
        "amenity": "place_of_worship",
        "check_date": "2024-03-02",
        "name": "Kashi Vishwanatha Temple",
        "name:kn": "ಕಾಶಿ ವಿಶ್ವನಾಥ ದೇವಸ್ಥಾನ",
        "religion": "hindu"
      }
    },
    {
      "type": "node",
      "id": 3549831014,
      "lat": 12.9862102,
      "lon": 77.5741379,
      "tags": {
        "amenity": "restaurant",
        "cuisine": "regional",
        "name": "Bhavani Tiffin Center",
        "opening_hours": "13:00-15:00"
      }
    },
    {
      "type": "node",
      "id": 3674560887,
      "lat": 12.9913252,
      "lon": 77.5713263,
      "tags": {
        "addr:city": "Bengaluru",
        "addr:postcode": "560003",
        "addr:street": "Sampige Road",
        "air_conditioning": "yes",
        "amenity": "atm"
      }
    },
    {
      "type": "node",
      "id": 3806281886,
      "lat": 12.9875847,
      "lon": 77.573008,
      "tags": {
        "amenity": "place_of_worship",
        "religion": "hindu"
      }
    },
    {
      "type": "node",
      "id": 3806281887,
      "lat": 12.9876025,
      "lon": 77.5736105,
      "tags": {
        "amenity": "cafe",
        "name": "Sri Manjunatha Condiments"
      }
    },
    {
      "type": "node",
      "id": 3820189380,
      "lat": 12.9784277,
      "lon": 77.572322,
      "tags": {
        "amenity": "toilets",
        "level": "0"
      }
    },
    {
      "type": "node",
      "id": 3872372431,
      "lat": 12.9832602,
      "lon": 77.5859672,
      "tags": {
        "addr:city": "Bengaluru",
        "addr:housenumber": "49, Khanija Bhavan, 3rd Floor, East Wing",
        "addr:postcode": "560001",
        "addr:street": "Race Course Road",
        "amenity": "courthouse",
        "name": "Arbitration Center Bengaluru",
        "operator": "Karnatak Judiciary",
        "phone": "22954571,22954572, 22954573",
        "website": "https://arbitrationcentreblr.org/home.php"
      }
    },
    {
      "type": "node",
      "id": 3872737462,
      "lat": 12.9766765,
      "lon": 77.5777178,
      "tags": {
        "amenity": "restaurant",
        "diet:vegetarian": "yes",
        "name": "Sukh Sagar",
        "name:kn": "ಸುಖ್ ಸಾಗರ"
      }
    },
    {
      "type": "node",
      "id": 4167273405,
      "lat": 12.9875457,
      "lon": 77.573633,
      "tags": {
        "name": "Capital hair dressers",
        "shop": "hairdresser"
      }
    },
    {
      "type": "node",
      "id": 4177732308,
      "lat": 12.9772383,
      "lon": 77.5752995,
      "tags": {
        "amenity": "atm",
        "brand": "Karnataka Bank",
        "brand:wikidata": "Q2042632",
        "name": "Karnataka Bank",
        "name:kn": "ಕರ್ನಾಟಕ ಬ್ಯಾಂಕ್",
        "operator": "Karnataka Bank",
        "operator:wikidata": "Q2042632"
      }
    },
    {
      "type": "node",
      "id": 4177732309,
      "lat": 12.9773643,
      "lon": 77.5747535,
      "tags": {
        "amenity": "atm",
        "brand": "Kotak Mahindra Bank",
        "brand:wikidata": "Q2040404",
        "name": "Kotak Mahindra Bank",
        "name:kn": "ಕೋಟಕ್ ಮಹಿಂದ್ರ ಬ್ಯಾಂಕ್",
        "operator": "Kotak Mahindra Bank",
        "operator:wikidata": "Q2040404"
      }
    },
    {
      "type": "node",
      "id": 4396260992,
      "lat": 12.9777968,
      "lon": 77.5741098,
      "tags": {
        "name": "General Travel",
        "name:en": "General Travel",
        "shop": "travel_agency"
      }
    },
    {
      "type": "node",
      "id": 4407894197,
      "lat": 12.980306,
      "lon": 77.5748003,
      "tags": {
        "name:es": "Agencia viajes",
        "shop": "travel_agency"
      }
    },
    {
      "type": "node",
      "id": 4445089801,
      "lat": 12.9916897,
      "lon": 77.5711243,
      "tags": {
        "addr:city": "Bengaluru",
        "addr:housenumber": "F 78",
        "addr:postcode": "560003",
        "addr:street": "Sampige Road",
        "air_conditioning": "yes",
        "level": "1",
        "name": "Cocopelee",
        "opening_hours": "10:45-20:30",
        "phone": "+91 80 2266 7250",
        "shop": "clothes",
        "website": "http://www.cocopelee.com/"
      }
    },
    {
      "type": "node",
      "id": 4445106810,
      "lat": 12.9914885,
      "lon": 77.5711733,
      "tags": {
        "addr:city": "Bengaluru",
        "addr:housenumber": "F 56",
        "addr:postcode": "560003",
        "addr:street": "Sampige Road",
        "air_conditioning": "yes",
        "level": "1",
        "name": "AND",
        "opening_hours": "11:00-21:30",
        "phone": "+919538899789",
        "shop": "clothes",
        "website": "http://andindia.anitadongre.com/"
      }
    },
    {
      "type": "node",
      "id": 4445124814,
      "lat": 12.9914832,
      "lon": 77.5710526,
      "tags": {
        "addr:city": "Bengaluru",
        "addr:housenumber": "F 15",
        "addr:postcode": "560003",
        "addr:street": "Sampige Road",
        "air_conditioning": "yes",
        "brand": "Columbia",
        "brand:wikidata": "Q1112588",
        "clothes": "outdoor",
        "level": "1",
        "name": "Columbia",
        "official_name": "Columbia Sportswear",
        "opening_hours": "11:00 - 23:00",
        "phone": "+080 -22667014",
        "shop": "clothes",
        "website": "https://www.columbiasportswear.co.in"
      }
    },
    {
      "type": "node",
      "id": 4445151604,
      "lat": 12.9916949,
      "lon": 77.5710365,
      "tags": {
        "addr:city": "Bengaluru",
        "addr:housenumber": "77",
        "addr:postcode": "560003",
        "addr:street": "Sampige Road",
        "air_conditioning": "yes",
        "brand": "Celio",
        "brand:wikidata": "Q2672003",
        "brand:wikipedia": "en:Celio (retailer)",
        "level": "-1",
        "name": "Celio",
        "opening_hours": "11:00 - 22:00",
        "phone": "+(91)-8022667018",
        "shop": "clothes",
        "website": "https://www.celio.in/"
      }
    },
    {
      "type": "node",
      "id": 4445266794,
      "lat": 12.9916983,
      "lon": 77.5711798,
      "tags": {
        "addr:city": "Bengaluru",
        "addr:housenumber": "SF 49",
        "addr:postcode": "560003",
        "addr:street": "Sampige Road",
        "air_conditioning": "yes",
        "level": "2",
        "name": "Enamor",
        "opening_hours": "10:30 - 21:00",
        "phone": "080 - 22667433",
        "shop": "clothes",
        "website": "https://enamor.co.in/"
      }
    },
    {
      "type": "node",
      "id": 4445396522,
      "lat": 12.9914706,
      "lon": 77.5707615,
      "tags": {
        "addr:city": "Bengaluru",
        "addr:housenumber": "F 67",
        "addr:postcode": "560003",
        "addr:street": "Sampige Road",
        "air_conditioning": "yes",
        "level": "1",
        "name": "Fusion Beats",
        "opening_hours": "10:00 - 21:30",
        "phone": "+(91)-80-30160109",
        "shop": "clothes",
        "website": "https://fusionbeats.in/"
      }
    },
    {
      "type": "node",
      "id": 4445570843,
      "lat": 12.991248,
      "lon": 77.5707987,
      "tags": {
        "addr:city": "Bengaluru",
        "addr:housenumber": "T-10 & 11, Third Floor",
        "addr:postcode": "560003",
        "addr:street": "Sampige Road",
        "air_conditioning": "yes",
        "name": "Sportxs",
        "phone": "080-65470694,",
        "shop": "sports",
        "website": "www.sportxs.com/"
      }
    },
    {
      "type": "node",
      "id": 4445660392,
      "lat": 12.9915813,
      "lon": 77.5710872,
      "tags": {
        "addr:city": "Bengaluru",
        "addr:housenumber": "LG-34",
        "addr:postcode": "560003",
        "addr:street": "Sampige Road",
        "air_conditioning": "yes",
        "name": "Home town",
        "phone": "+918030160208",
        "shop": "electronics"
      }
    },
    {
      "type": "node",
      "id": 4445716765,
      "lat": 12.991754,
      "lon": 77.5711303,
      "tags": {
        "addr:city": "Bengaluru",
        "addr:housenumber": "LG-34",
        "addr:postcode": "560003",
        "addr:street": "Sampige Road",
        "air_conditioning": "yes",
        "amenity": "restaurant",
        "cuisine": "chinese",
        "name": "Oval bar",
        "opening_hours": "10:00-23:30",
        "phone": "+919916375915",
        "smoking": "no"
      }
    },
    {
      "type": "node",
      "id": 4446270294,
      "lat": 12.9915402,
      "lon": 77.5712596,
      "tags": {
        "addr:city": "Bengaluru",
        "addr:housenumber": "LG-34",
        "addr:postcode": "560003",
        "addr:street": "Sampige Road",
        "air_conditioning": "yes",
        "brand": "Woodland",
        "brand:wikidata": "Q123068491",
        "name": "Woodland",
        "opening_hours": "10:00-20:00",
        "phone": "+918030160133",
        "shop": "shoes",
        "website": "https://www.woodlandworldwide.com/"
      }
    },
    {
      "type": "node",
      "id": 4446279429,
      "lat": 12.9916343,
      "lon": 77.571041,
      "tags": {
        "addr:city": "Bengaluru",
        "addr:housenumber": "LG-34",
        "addr:postcode": "560003",
        "addr:street": "Sampige Road",
        "air_conditioning": "yes",
        "name": "Canon- camera store",
        "opening_hours": "10:00-21:30",
        "phone": "+918453680010",
        "shop": "photo",
        "website": "www.canon.co.in"
      }
    },
    {
      "type": "node",
      "id": 4446337092,
      "lat": 12.9916198,
      "lon": 77.5711868,
      "tags": {
        "addr:city": "Bengaluru",
        "addr:housenumber": "LG-34",
        "addr:postcode": "560003",
        "addr:street": "Sampige Road",
        "air_conditioning": "yes",
        "name": "Whizz- Camers Store",
        "opening_hours": "10:30-21:30",
        "phone": "+918030160037",
        "shop": "photo",
        "website": "www.whizz.in"
      }
    },
    {
      "type": "node",
      "id": 4446342319,
      "lat": 12.9913781,
      "lon": 77.5711009,
      "tags": {
        "addr:city": "Bengaluru",
        "addr:housenumber": "LG-34",
        "addr:postcode": "560003",
        "addr:street": "Sampige Road",
        "air_conditioning": "yes",
        "name": "The Color Bar",
        "opening_hours": "10:00-21:00",
        "phone": "+918065656633",
        "shop": "cosmetics",
        "website": "https://www.colorbarcosmetics.com/"
      }
    },
    {
      "type": "node",
      "id": 4446366078,
      "lat": 12.9915558,
      "lon": 77.5709547,
      "tags": {
        "addr:city": "Bengaluru",
        "addr:housenumber": "LG-34",
        "addr:postcode": "560003",
        "addr:street": "Sampige Road",
        "air_conditioning": "yes",
        "name": "Health & Glow",
        "phone": "+91 8032466388",
        "shop": "cosmetics"
      }
    },
    {
      "type": "node",
      "id": 4446378097,
      "lat": 12.9781121,
      "lon": 77.5739587,
      "tags": {
        "addr:city": "Gandhi Nagar, Bangalore",
        "addr:housenumber": "15",
        "addr:postcode": "560009",
        "addr:street": "Tank Bund Rd, RK Puram, Gandhi Nagar",
        "amenity": "pharmacy",
        "healthcare": "pharmacy",
        "name": "Gururaja Pharmacy",
        "phone": "080 2235 0038"
      }
    },
    {
      "type": "node",
      "id": 4446386426,
      "lat": 12.9915545,
      "lon": 77.5710486,
      "tags": {
        "addr:city": "Bengaluru",
        "addr:housenumber": "LG-34",
        "addr:postcode": "560003",
        "addr:street": "Sampige Road",
        "air_conditioning": "yes",
        "brand": "The Body Shop",
        "brand:wikidata": "Q837851",
        "brand:wikipedia": "en:The Body Shop",
        "name": "The Body Shop",
        "opening_hours": "10:30-21:30",
        "phone": "+918030160120",
        "shop": "cosmetics",
        "website": "https://www.thebodyshop.in/"
      }
    },
    {
      "type": "node",
      "id": 4446504503,
      "lat": 12.9912735,
      "lon": 77.5710821,
      "tags": {
        "addr:city": "Bengaluru",
        "addr:housenumber": "LG-34",
        "addr:postcode": "560003",
        "addr:street": "Sampige Road",
        "air_conditioning": "yes",
        "name": "Relax'N go massage",
        "shop": "massage"
      }
    },
    {
      "type": "node",
      "id": 4446518811,
      "lat": 12.9863736,
      "lon": 77.5793154,
      "tags": {
        "addr:city": "Bangalore",
        "addr:housenumber": "6/6",
        "addr:postcode": "560001",
        "addr:street": "Kumarakrupa Road, High Grounds, Madhava Nagar, Gandhi Nagar",
        "amenity": "hospital",
        "name": "Desai Nursing Home",
        "phone": "+9180 2226 0307"
      }
    },
    {
      "type": "node",
      "id": 4446533470,
      "lat": 12.9914643,
      "lon": 77.5712116,
      "tags": {
        "addr:city": "Bengaluru",
        "addr:housenumber": "LG-34",
        "addr:postcode": "560003",
        "addr:street": "Sampige Road",
        "air_conditioning": "yes",
        "name": "Tattoo World",
        "opening_hours": "10:30-21:00",
        "phone": "+919739006199",
        "shop": "tattoo",
        "website": "www.tattooworld.in"
      }
    },
    {
      "type": "node",
      "id": 4446572478,
      "lat": 12.9858304,
      "lon": 77.5708651,
      "tags": {
        "addr:city": "560009",
        "addr:housenumber": "15",
        "addr:street": "Tank Bund Rd, RK Puram, Gandhi Nagar",
        "amenity": "pharmacy",
        "name": "Gururaja Pharma",
        "phone": "+91 80 2235 0038"
      }
    },
    {
      "type": "node",
      "id": 4446599790,
      "lat": 12.9853462,
      "lon": 77.5708101,
      "tags": {
        "addr:city": "bangalore",
        "addr:housenumber": "30",
        "addr:postcode": "560020",
        "addr:street": "1st Main Road, Jai Bheema Nagar, Seshadripuram",
        "amenity": "pharmacy",
        "name": "Brindhavan pharma",
        "phone": "+91 98456 79745"
      }
    },
    {
      "type": "node",
      "id": 4446887864,
      "lat": 12.991478,
      "lon": 77.5708273,
      "tags": {
        "addr:city": "Bengaluru",
        "addr:housenumber": "68",
        "addr:postcode": "560003",
        "addr:street": "Sampige Road",
        "air_conditioning": "yes",
        "brand": "Jockey",
        "brand:wikidata": "Q534235",
        "brand:wikipedia": "en:Jockey International",
        "level": "0",
        "name": "Jockey",
        "opening_hours": "10:30 - 21:00",
        "phone": "080-41490669",
        "shop": "clothes",
        "website": "https://www.jockeyindia.com/"
      }
    },
    {
      "type": "node",
      "id": 4446889638,
      "lat": 12.9915068,
      "lon": 77.5708648,
      "tags": {
        "addr:city": "Bengaluru",
        "addr:housenumber": "68",
        "addr:postcode": "560003",
        "addr:street": "Sampige Road",
        "air_conditioning": "yes",
        "level": "1",
        "name": "Kalanjali",
        "opening_hours": "10:30 - 21:00",
        "phone": "+91-9739174779",
        "shop": "clothes",
        "website": "https://www.kalanjali.com/"
      }
    },
    {
      "type": "node",
      "id": 4446891792,
      "lat": 12.9914885,
      "lon": 77.5710096,
      "tags": {
        "addr:city": "Bengaluru",
        "addr:housenumber": "58",
        "addr:postcode": "560003",
        "addr:street": "Sampige Road",
        "air_conditioning": "yes",
        "level": "-1",
        "name": "Kushals",
        "opening_hours": "10:00 - 21:00",
        "phone": "0802266 7177",
        "shop": "jewelry",
        "website": "https://www.kushals.com/"
      }
    },
    {
      "type": "node",
      "id": 4446899259,
      "lat": 12.9912093,
      "lon": 77.5712013,
      "tags": {
        "addr:city": "Bengaluru",
        "addr:housenumber": "UG 02-06",
        "addr:postcode": "560003",
        "addr:street": "Sampige Road",
        "air_conditioning": "yes",
        "brand": "Lifestyle",
        "brand:wikidata": "Q6545496",
        "level": "-1",
        "name": "Lifestyle",
        "opening_hours": "10:00 - 21:00",
        "phone": "080-22658934",
        "shop": "clothes",
        "website": "https://www.lifestylestores.com/"
      }
    },
    {
      "type": "node",
      "id": 4446905193,
      "lat": 12.9914937,
      "lon": 77.5709372,
      "tags": {
        "addr:city": "Bengaluru",
        "addr:housenumber": "UG60-64",
        "addr:postcode": "560003",
        "addr:street": "Sampige Road",
        "air_conditioning": "yes",
        "level": "-1",
        "name": "Madame",
        "opening_hours": "10:00 - 21:00",
        "phone": "080-22667000",
        "shop": "clothes",
        "website": "http://www.madameonline.com/"
      }
    },
    {
      "type": "node",
      "id": 4446909299,
      "lat": 12.9914911,
      "lon": 77.5711143,
      "tags": {
        "addr:city": "Bengaluru",
        "addr:housenumber": "62",
        "addr:postcode": "560003",
        "addr:street": "Sampige Road",
        "air_conditioning": "yes",
        "level": "2",
        "name": "MINC",
        "opening_hours": "10:30 - 21:30",
        "phone": "08022667114",
        "shop": "clothes",
        "website": "https://www.minc-ecofashion.com/"
      }
    },
    {
      "type": "node",
      "id": 4447006091,
      "lat": 12.9911729,
      "lon": 77.5709614,
      "tags": {
        "addr:city": "Bengaluru",
        "addr:housenumber": "LG-34",
        "addr:postcode": "560003",
        "addr:street": "Sampige Road",
        "air_conditioning": "yes",
        "name": "CrossWord",
        "phone": "+918022667499",
        "shop": "books",
        "website": "https://www.crossword.in/"
      }
    },
    {
      "type": "node",
      "id": 4447009761,
      "lat": 12.9915349,
      "lon": 77.5709185,
      "tags": {
        "addr:city": "Bengaluru",
        "addr:housenumber": "LG-34",
        "addr:postcode": "560003",
        "addr:street": "Sampige Road",
        "air_conditioning": "yes",
        "name": "O2Spa",
        "opening_hours": "10:00-22:00",
        "phone": "+919036001402",
        "shop": "beauty",
        "website": "https://www.o2spa.org/"
      }
    },
    {
      "type": "node",
      "id": 4447017729,
      "lat": 12.9915963,
      "lon": 77.5710312,
      "tags": {
        "addr:city": "Bengaluru",
        "addr:housenumber": "LG-34",
        "addr:postcode": "560003",
        "addr:street": "Sampige Road",
        "air_conditioning": "yes",
        "name": "Totally Hot stuff",
        "opening_hours": "11:00-21:00",
        "phone": "+919663333304",
        "shop": "gift"
      }
    },
    {
      "type": "node",
      "id": 4447019663,
      "lat": 12.9916348,
      "lon": 77.5709185,
      "tags": {
        "addr:city": "Bengaluru",
        "addr:housenumber": "02",
        "addr:postcode": "560003",
        "addr:street": "Sampige Road",
        "air_conditioning": "yes",
        "level": "1",
        "name": "Neeru's",
        "opening_hours": "10:00 - 21:00",
        "phone": "080-65460514",
        "shop": "clothes",
        "website": "https://www.neerus.com/"
      }
    },
    {
      "type": "node",
      "id": 4447352349,
      "lat": 12.9914927,
      "lon": 77.570894,
      "tags": {
        "addr:city": "Bengaluru",
        "addr:housenumber": "61",
        "addr:postcode": "560003",
        "addr:street": "Sampige Road",
        "air_conditioning": "yes",
        "level": "2",
        "name": "Prapti",
        "opening_hours": "09:30 - 18:30",
        "phone": "080-30160160",
        "shop": "clothes",
        "website": "www.praptifashions.com"
      }
    },
    {
      "type": "node",
      "id": 4447368643,
      "lat": 12.9914326,
      "lon": 77.5709262,
      "tags": {
        "addr:city": "Bengaluru",
        "addr:housenumber": "83",
        "addr:postcode": "560003",
        "addr:street": "Sampige Road",
        "air_conditioning": "yes",
        "level": "2",
        "name": "Peora",
        "opening_hours": "10:30 - 21:00",
        "phone": "080-30160190",
        "shop": "clothes",
        "website": "https://www.peora.in/"
      }
    },
    {
      "type": "node",
      "id": 4447376031,
      "lat": 12.9916416,
      "lon": 77.5709799,
      "tags": {
        "addr:city": "Bengaluru",
        "addr:housenumber": "17",
        "addr:postcode": "560003",
        "addr:street": "Sampige Road",
        "air_conditioning": "yes",
        "level": "1",
        "name": "Spring Summer",
        "opening_hours": "10:30 - 21:00",
        "phone": "08030160000",
        "shop": "clothes",
        "website": "https://springandsummer.lk/"
      }
    },
    {
      "type": "node",
      "id": 4447381189,
      "lat": 12.9914404,
      "lon": 77.571012,
      "tags": {
        "addr:city": "Bengaluru",
        "addr:housenumber": "UG07-09",
        "addr:postcode": "560003",
        "addr:street": "Sampige Road",
        "air_conditioning": "yes",
        "level": "-1",
        "name": "Pantalons",
        "opening_hours": "10:30 - 21:00",
        "phone": "08030160085",
        "shop": "clothes",
        "website": "https://www.pantaloons.com/"
      }
    },
    {
      "type": "node",
      "id": 4447393204,
      "lat": 12.9914378,
      "lon": 77.5708377,
      "tags": {
        "addr:city": "Bengaluru",
        "addr:housenumber": "UG 04, LG44/48",
        "addr:postcode": "560003",
        "addr:street": "Sampige Road",
        "air_conditioning": "yes",
        "level": "-1,-2",
        "name": "Rubans",
        "opening_hours": "10:00 - 21:30",
        "phone": "080 3016 0000",
        "shop": "jewelry",
        "website": "https://www.rubans.in/"
      }
    },
    {
      "type": "node",
      "id": 4447497316,
      "lat": 12.9914091,
      "lon": 77.570968,
      "tags": {
        "addr:city": "Bengaluru",
        "addr:housenumber": "ug41-43",
        "addr:postcode": "560003",
        "addr:street": "Sampige Road",
        "air_conditioning": "yes",
        "level": "-1",
        "name": "Splash Fashion",
        "opening_hours": "10:00 - 21:30",
        "phone": "080 3016 0000",
        "shop": "clothes",
        "website": "https://www.splashfashions.com/"
      }
    },
    {
      "type": "node",
      "id": 4447585910,
      "lat": 12.991443,
      "lon": 77.571173,
      "tags": {
        "addr:city": "Bengaluru",
        "addr:housenumber": "64",
        "addr:postcode": "560003",
        "addr:street": "Sampige Road",
        "air_conditioning": "yes",
        "level": "2",
        "name": "Spykar",
        "opening_hours": "11:00 - 21:00",
        "phone": "08022667020",
        "shop": "clothes",
        "website": "https://www.spykar.com/"
      }
    },
    {
      "type": "node",
      "id": 4448577459,
      "lat": 12.9916486,
      "lon": 77.5711196,
      "tags": {
        "addr:city": "Bengaluru",
        "addr:housenumber": "LG 8 & 9",
        "addr:postcode": "560003",
        "addr:street": "Sampige Road",
        "air_conditioning": "yes",
        "level": "-1",
        "name": "show off",
        "opening_hours": "10:30 - 21:30",
        "phone": "080-41460266",
        "shop": "clothes",
        "website": "www.showoffclothes.com"
      }
    },
    {
      "type": "node",
      "id": 4448585944,
      "lat": 12.9914519,
      "lon": 77.5711003,
      "tags": {
        "addr:city": "Bengaluru",
        "addr:housenumber": "78",
        "addr:postcode": "560003",
        "addr:street": "Sampige Road",
        "air_conditioning": "yes",
        "level": "1",
        "name": "Vastrra",
        "opening_hours": "10:00 - 21:00",
        "phone": "08030160000",
        "shop": "clothes",
        "website": "http://thevastrafashion.com/"
      }
    },
    {
      "type": "node",
      "id": 4448586763,
      "lat": 12.9914393,
      "lon": 77.5708015,
      "tags": {
        "addr:city": "Bengaluru",
        "addr:housenumber": "43",
        "addr:postcode": "560003",
        "addr:street": "Sampige Road",
        "air_conditioning": "yes",
        "level": "1",
        "name": "Voylla",
        "opening_hours": "10:00 - 21:00",
        "phone": "08030160000",
        "shop": "jewelry",
        "website": "https://www.voylla.com/"
      }
    },
    {
      "type": "node",
      "id": 4489256960,
      "lat": 12.976848,
      "lon": 77.5777736,
      "tags": {
        "addr:city": "Bangalore",
        "addr:housenumber": "7",
        "addr:postcode": "560009",
        "addr:street": "Girish Complex, 2nd cross, Opp Syndicate Bank, Gandhi Nagar, Bhadrappa Layout, Gandhi Nagar",
        "name": "Jayant Probikes & Fitness",
        "opening_hours": "10:00-21:00",
        "phone": "080 4092 1589",
        "shop": "sports",
        "website": "https://www.firefoxbikes.com/"
      }
    },
    {
      "type": "node",
      "id": 4489278131,
      "lat": 12.9762609,
      "lon": 77.5780859,
      "tags": {
        "addr:city": "Bangalore",
        "addr:postcode": "560009",
        "addr:street": "9, Krishna Tower, 3rd Main Road, opp Sapna Book House, Gandhinagar, Bhadrappa Layout, Gandhi Naga",
        "name": "players choice",
        "opening_hours": "10:00-21:30",
        "phone": "080 4132 9459",
        "shop": "sports",
        "website": "https://playerschoice.co.in/"
      }
    },
    {
      "type": "node",
      "id": 4489756504,
      "lat": 12.9870391,
      "lon": 77.5744897,
      "tags": {
        "addr:city": "Bengaluru,",
        "addr:postcode": "560020",
        "addr:street": "SC Road, Nehru Nagar, Seshadripuram, Bengaluru, Karnataka SC Road, Nehru Nagar, Seshadripuram, Karnataka",
        "leisure": "sports_centre",
        "name": "Fitness Freak",
        "phone": "088849 31417"
      }
    },
    {
      "type": "node",
      "id": 4489987205,
      "lat": 12.9914824,
      "lon": 77.5708676,
      "tags": {
        "addr:city": "Bengaluru",
        "addr:housenumber": "Mantri Square No 1",
        "addr:postcode": "560003",
        "addr:street": "Sampige Road",
        "air_conditioning": "yes",
        "name": "O2 Spa",
        "opening_hours": "10:00 - 22:00",
        "phone": "(91)-9247020202",
        "shop": "beauty"
      }
    },
    {
      "type": "node",
      "id": 4505462591,
      "lat": 12.987183,
      "lon": 77.5784519,
      "tags": {
        "amenity": "fast_food",
        "name": "Super duba Raggi Dosa",
        "name:de": "Super duba Raggi Dosa",
        "name:en": "Super duba Raggi Dosa"
      }
    },
    {
      "type": "node",
      "id": 4562935189,
      "lat": 12.977965,
      "lon": 77.5753337,
      "tags": {
        "addr:housenumber": "14",
        "addr:street": "Opp Kapali Theatre",
        "name": "Malnad Travels",
        "name:en": "Malnad Travels",
        "shop": "electronics"
      }
    },
    {
      "type": "node",
      "id": 4580622989,
      "lat": 12.976952,
      "lon": 77.5798692,
      "tags": {
        "name": "S.R.S travels",
        "name:en": "S.R.S travels",
        "shop": "travel_agency"
      }
    },
    {
      "type": "node",
      "id": 4623704804,
      "lat": 12.9920129,
      "lon": 77.5753645,
      "tags": {
        "check_date": "2024-01-02",
        "name": "Apoorva Iyengar Bakery",
        "name:en": "Apoorva Iyengar Bakery",
        "shop": "bakery"
      }
    },
    {
      "type": "node",
      "id": 4763213170,
      "lat": 12.9773464,
      "lon": 77.574606,
      "tags": {
        "amenity": "toilets"
      }
    },
    {
      "type": "node",
      "id": 4840260423,
      "lat": 12.9804024,
      "lon": 77.5739307,
      "tags": {
        "name": "Greenline Travel & Holidays",
        "name:en": "Greenline Travel & Holidays",
        "shop": "travel_agency"
      }
    },
    {
      "type": "node",
      "id": 4920192051,
      "lat": 12.97771,
      "lon": 77.5722474,
      "tags": {
        "amenity": "atm",
        "brand": "Karnataka Bank",
        "brand:wikidata": "Q2042632",
        "check_date": "2024-08-27",
        "name": "Karnataka Bank",
        "name:kn": "ಕರ್ನಾಟಕ ಬ್ಯಾಂಕ್",
        "operator": "Karnataka Bank",
        "operator:wikidata": "Q2042632"
      }
    },
    {
      "type": "node",
      "id": 5003288810,
      "lat": 12.9785357,
      "lon": 77.5727268,
      "tags": {
        "amenity": "toilets"
      }
    },
    {
      "type": "node",
      "id": 5061380661,
      "lat": 12.9902704,
      "lon": 77.5744146,
      "tags": {
        "amenity": "pharmacy",
        "name": "Brindavan Pharma"
      }
    },
    {
      "type": "node",
      "id": 5061380662,
      "lat": 12.9879742,
      "lon": 77.5764499,
      "tags": {
        "amenity": "atm",
        "brand": "Corporation Bank",
        "brand:wikidata": "Q2003387",
        "name": "Corporation Bank",
        "name:kn": "ಕಾರ್ಪರೇಷನ್ ಬ್ಯಾಂಕ್",
        "operator": "Corporation Bank",
        "operator:wikidata": "Q2003387"
      }
    },
    {
      "type": "node",
      "id": 5229456536,
      "lat": 12.9932869,
      "lon": 77.5741305,
      "tags": {
        "name": "Vinod Motors",
        "shop": "motorcycle"
      }
    },
    {
      "type": "node",
      "id": 5229456537,
      "lat": 12.9922208,
      "lon": 77.5751298,
      "tags": {
        "name": "Maa Ceramics and Sanitary Wares",
        "shop": "yes"
      }
    },
    {
      "type": "node",
      "id": 5229456538,
      "lat": 12.991466,
      "lon": 77.5748902,
      "tags": {
        "brand": "Vodafone",
        "brand:wikidata": "Q122141",
        "name": "Vodafone",
        "shop": "mobile_phone"
      }
    },
    {
      "type": "node",
      "id": 5229456539,
      "lat": 12.9894569,
      "lon": 77.5735286,
      "tags": {
        "amenity": "atm",
        "brand": "Kotak Mahindra Bank",
        "brand:wikidata": "Q2040404",
        "check_date": "2024-03-02",
        "name": "Kotak Mahindra Bank",
        "name:kn": "ಕೋಟಕ್ ಮಹಿಂದ್ರ ಬ್ಯಾಂಕ್",
        "operator": "Kotak Mahindra Bank",
        "operator:wikidata": "Q2040404"
      }
    },
    {
      "type": "node",
      "id": 5229456540,
      "lat": 12.9888505,
      "lon": 77.5747806,
      "tags": {
        "name": "Total Lubricants",
        "shop": "yes"
      }
    },
    {
      "type": "node",
      "id": 5229456541,
      "lat": 12.9884349,
      "lon": 77.5740328,
      "tags": {
        "name": "Hygienic Hair Dressers",
        "shop": "hairdresser"
      }
    },
    {
      "type": "node",
      "id": 5229456542,
      "lat": 12.988504,
      "lon": 77.5740252,
      "tags": {
        "name": "Roop Kala Silk House",
        "shop": "clothes"
      }
    },
    {
      "type": "node",
      "id": 5229456543,
      "lat": 12.9882025,
      "lon": 77.5741117,
      "tags": {
        "name": "Planet Honda",
        "shop": "motorcycle"
      }
    },
    {
      "type": "node",
      "id": 5229456545,
      "lat": 12.989639,
      "lon": 77.5732106,
      "tags": {
        "name": "Brindavan Cake and Bakery",
        "shop": "bakery"
      }
    },
    {
      "type": "node",
      "id": 5229482741,
      "lat": 12.9879876,
      "lon": 77.5773877,
      "tags": {
        "name": "Airtel Store",
        "name:kn": "ಏರ್ಟೆಲ್",
        "shop": "mobile_phone"
      }
    },
    {
      "type": "node",
      "id": 5229482742,
      "lat": 12.9870483,
      "lon": 77.5785854,
      "tags": {
        "amenity": "clinic",
        "healthcare": "clinic",
        "name": "Pranam Dental and Medical Speciality Clinic"
      }
    },
    {
      "type": "node",
      "id": 5229482743,
      "lat": 12.9867071,
      "lon": 77.5796028,
      "tags": {
        "amenity": "pharmacy",
        "brand": "Apollo Pharmacy",
        "brand:wikidata": "Q62562612",
        "healthcare": "pharmacy",
        "name": "Apollo Pharmacy",
        "name:kn": "ಅಪೊಲೋ ಫಾರ್ಮಸಿ"
      }
    },
    {
      "type": "node",
      "id": 5229482744,
      "lat": 12.9848902,
      "lon": 77.5828907,
      "tags": {
        "amenity": "police",
        "name": "High Grounds Traffic Police Station"
      }
    },
    {
      "type": "node",
      "id": 5229482745,
      "lat": 12.9805682,
      "lon": 77.5750313,
      "tags": {
        "name": "Vijayanand Travels",
        "shop": "travel_agency"
      }
    },
    {
      "type": "node",
      "id": 5229482746,
      "lat": 12.9805736,
      "lon": 77.5750912,
      "tags": {
        "name": "S.L.V. Travels",
        "shop": "travel_agency"
      }
    },
    {
      "type": "node",
      "id": 5292783222,
      "lat": 12.9895036,
      "lon": 77.5721251,
      "tags": {
        "amenity": "bank",
        "atm": "yes",
        "brand": "State Bank of India",
        "brand:wikidata": "Q1340361",
        "name": "State Bank of India",
        "name:kn": "ಭಾರತೀಯ ಸ್ಟೇಟ್ ಬ್ಯಾಂಕ್",
        "operator": "State Bank of India",
        "short_name": "SBI"
      }
    },
    {
      "type": "node",
      "id": 5402224026,
      "lat": 12.9841251,
      "lon": 77.5814938,
      "tags": {
        "brand": "Volvo",
        "brand:wikidata": "Q215293",
        "name": "Volvo",
        "shop": "car"
      }
    },
    {
      "type": "node",
      "id": 5402224027,
      "lat": 12.9866165,
      "lon": 77.579997,
      "tags": {
        "amenity": "restaurant",
        "name": "3 Page"
      }
    },
    {
      "type": "node",
      "id": 5402224032,
      "lat": 12.9802917,
      "lon": 77.5779251,
      "tags": {
        "amenity": "cafe",
        "brand": "Cafe Coffee Day",
        "brand:wikidata": "Q5017235",
        "cuisine": "coffee_shop",
        "name": "Cafe Coffee Day",
        "name:kn": "ಕಫೆ ಕಾಫಿ ಡೇ",
        "takeaway": "yes"
      }
    },
    {
      "type": "node",
      "id": 5435052321,
      "lat": 12.9770717,
      "lon": 77.5747115,
      "tags": {
        "shop": "alcohol"
      }
    },
    {
      "type": "node",
      "id": 5447887277,
      "lat": 12.9867899,
      "lon": 77.5745807,
      "tags": {
        "addr:city": "Bengaluru,",
        "addr:housenumber": "212",
        "addr:postcode": "560020",
        "addr:street": "212, SC Road, Nehru Nagar, Sheshadripuram, Bengaluru, Karnataka 560020",
        "amenity": "restaurant",
        "cuisine": "indian",
        "name": "Hotel Sanman",
        "opening_hours": "Mo-Su 10:00-22:00"
      }
    },
    {
      "type": "node",
      "id": 5617733823,
      "lat": 12.9804015,
      "lon": 77.5740705,
      "tags": {
        "name": "Despi-la Tours",
        "name:en": "Deepika Tours & Travels",
        "shop": "travel_agency"
      }
    },
    {
      "type": "node",
      "id": 5905947501,
      "lat": 12.9855047,
      "lon": 77.5792404,
      "tags": {
        "addr:city": "Bengaluru",
        "addr:housenumber": "19/2",
        "addr:postcode": "560001",
        "addr:street": "Crescent Road",
        "amenity": "restaurant",
        "check_date": "2023-02-19",
        "name": "The London Curry House",
        "opening_hours": "Mo-Su 12:00-15:00,19:00-23:00",
        "smoking": "no",
        "website": "https://thelondoncurryhousebanglore.business.site/"
      }
    },
    {
      "type": "node",
      "id": 6210719689,
      "lat": 12.9772063,
      "lon": 77.5736935,
      "tags": {
        "name": "Nandini Milk Parlour",
        "name:kn": "ನಂದಿನಿ ಹಾಲಿನ ಅಂಗಡಿ",
        "shop": "dairy"
      }
    },
    {
      "type": "node",
      "id": 6210725029,
      "lat": 12.9772008,
      "lon": 77.5733371,
      "tags": {
        "amenity": "atm",
        "brand": "ICICI Bank",
        "brand:wikidata": "Q1653258",
        "name": "ICICI Bank",
        "name:kn": "ಐಸಿಐಸಿಐ ಬ್ಯಾಂಕು",
        "operator": "ICICI Bank",
        "operator:wikidata": "Q1653258",
        "short_name": "ICICI"
      }
    },
    {
      "type": "node",
      "id": 6210748030,
      "lat": 12.9770468,
      "lon": 77.5737942,
      "tags": {
        "amenity": "toilets"
      }
    },
    {
      "type": "node",
      "id": 6440329525,
      "lat": 12.9882645,
      "lon": 77.573415,
      "tags": {
        "addr:full": "#20/7, 2nd Main Road, VV Giri Colony",
        "amenity": "clinic",
        "contact:phone": "8971544066",
        "emergency": "no",
        "health_amenity:type": "laboratory",
        "healthcare": "clinic;doctor",
        "healthcare:speciality": "general;geriatrics;infectious_diseases",
        "name": "PCMH Restore Health",
        "url": "https://www.pcmhrestorehealth.com"
      }
    },
    {
      "type": "node",
      "id": 6487165548,
      "lat": 12.977562,
      "lon": 77.5744205,
      "tags": {
        "amenity": "restaurant",
        "cuisine": "indian",
        "name": "Hotel Sanman"
      }
    },
    {
      "type": "node",
      "id": 6681215508,
      "lat": 12.9846479,
      "lon": 77.5717284,
      "tags": {
        "amenity": "clinic",
        "name": "Udaya Clinic"
      }
    },
    {
      "type": "node",
      "id": 6681215509,
      "lat": 12.9787032,
      "lon": 77.5734664,
      "tags": {
        "brand": "Nandini",
        "name": "Nandini",
        "shop": "dairy"
      }
    },
    {
      "type": "node",
      "id": 6681215510,
      "lat": 12.9774153,
      "lon": 77.5744736,
      "tags": {
        "amenity": "restaurant",
        "cuisine": "indian",
        "name": "Majestic Hotel"
      }
    },
    {
      "type": "node",
      "id": 6698273388,
      "lat": 12.9773998,
      "lon": 77.5762252,
      "tags": {
        "addr:housenumber": "12",
        "addr:street": "Gandhi Nagar 2nd Cross",
        "name": "Grand Majestic Mall",
        "shop": "mall"
      }
    },
    {
      "type": "node",
      "id": 6886594854,
      "lat": 12.9843552,
      "lon": 77.5787035,
      "tags": {
        "addr:city": "Bengaluru",
        "addr:district": "BENGALURU URBAN",
        "addr:full": "Red Cross Bhavan, 326, Ist Floor, Race Course Road, Bengaluru",
        "addr:postcode": "560001",
        "addr:state": "Karnataka",
        "amenity": "blood_bank",
        "contact:mobile": "9902859859",
        "contact:phone": "8022268435",
        "name": "Indian Red Cross Society - Karnataka Red Cross Blood Bank",
        "office": "ngo",
        "opening_hours": "24/7",
        "operator:type": "ngo",
        "source": "OpenGovernmentData",
        "website": "https://www.redcrosskarnataka.org/"
      }
    },
    {
      "type": "node",
      "id": 6938690598,
      "lat": 12.9878104,
      "lon": 77.5809833,
      "tags": {
        "addr:district": "Bengaluru Urban",
        "addr:full": "No.6/7, Crescent Road Cross, Kumar Park East",
        "addr:postcode": "560001",
        "addr:state": "Karnataka",
        "amenity": "hospital",
        "healthcare:speciality": "Dornier AlphaLithotripsy Treatment; X-Rays; US Scan; Urologist Consultation",
        "name": "Hitech Kidney Stone Hospital, Bengaluru Urban",
        "operator:type": "private",
        "source": "OpenGovernmentData",
        "website": "http://www.hitechkidneystonehospital.org/"
      }
    },
    {
      "type": "node",
      "id": 6938690626,
      "lat": 12.9932806,
      "lon": 77.580691,
      "tags": {
        "addr:district": "Bengaluru Urban",
        "addr:full": "# 111 Railway Parallel Road, 7 Th Cross, Kumara Park (W)",
        "addr:postcode": "560020",
        "addr:state": "Karnataka",
        "addr:subdistrict": "Kumara Park (W)",
        "amenity": "hospital",
        "email": "info@squinteyehospital.com",
        "name": "Samprathi Eye Hospital And Squint Centre",
        "operator:type": "private",
        "source": "OpenGovernmentData",
        "website": "https://squinteyehospital.com/"
      }
    },
    {
      "type": "node",
      "id": 6938717992,
      "lat": 12.99111,
      "lon": 77.5777982,
      "tags": {
        "addr:district": "Bengaluru Urban",
        "addr:full": "No 4, 4Th Cross Kumara Park West",
        "addr:postcode": "560020",
        "addr:state": "Karnataka",
        "amenity": "clinic",
        "name": "Jayashree Nursing Home, Bengaluru Urban",
        "source": "OpenGovernmentData"
      }
    },
    {
      "type": "node",
      "id": 6939686660,
      "lat": 12.9878183,
      "lon": 77.5725947,
      "tags": {
        "addr:district": "Bengaluru Urban",
        "addr:full": "Seshadripuram",
        "addr:state": "Karnataka",
        "amenity": "clinic",
        "name": "Bhagavan Mahaveer Jain Nethralaya",
        "name:kn": "ಭಗವಾನ್ ಮಹಾವಿರ ಜೈನ ನೇತ್ರಾಲಯ",
        "operator:type": "private",
        "source": "OpenGovernmentData",
        "website": "http://dpal.kar.nic.in/Kanunu%20padakosha%20PDF%20Files/Recognised%20Hospitals.pdf"
      }
    },
    {
      "type": "node",
      "id": 7276500272,
      "lat": 12.9862919,
      "lon": 77.5724177,
      "tags": {
        "amenity": "fuel",
        "name": "Aegis Auto Gas"
      }
    },
    {
      "type": "node",
      "id": 7276500290,
      "lat": 12.9806334,
      "lon": 77.5791138,
      "tags": {
        "access": "yes",
        "amenity": "toilets",
        "fee": "yes"
      }
    },
    {
      "type": "node",
      "id": 7276500304,
      "lat": 12.9835372,
      "lon": 77.5858502,
      "tags": {
        "amenity": "atm",
        "brand": "Corporation Bank",
        "brand:wikidata": "Q2003387",
        "name": "Corporation Bank",
        "operator": "Corporation Bank",
        "operator:wikidata": "Q2003387"
      }
    },
    {
      "type": "node",
      "id": 7276500312,
      "lat": 12.9844624,
      "lon": 77.5831076,
      "tags": {
        "access": "yes",
        "amenity": "toilets",
        "fee": "yes"
      }
    },
    {
      "type": "node",
      "id": 7276500338,
      "lat": 12.9841696,
      "lon": 77.5795363,
      "tags": {
        "addr:city": "Bengaluru",
        "addr:country": "IN",
        "addr:hamlet": "Gandhi Nagar",
        "addr:postcode": "560001",
        "addr:street": "Race Course Road",
        "brand": "Sugama Tourists",
        "name": "Sugama Tourists",
        "shop": "travel_agency",
        "website": "https://www.sugamatourists.com"
      }
    },
    {
      "type": "node",
      "id": 7276500358,
      "lat": 12.9836286,
      "lon": 77.5771867,
      "tags": {
        "access": "yes",
        "amenity": "toilets",
        "fee": "yes",
        "wheelchair": "no"
      }
    },
    {
      "type": "node",
      "id": 7276500360,
      "lat": 12.9824081,
      "lon": 77.5747713,
      "tags": {
        "amenity": "bank",
        "atm": "yes",
        "brand": "State Bank of India",
        "brand:wikidata": "Q1340361",
        "name": "State Bank of India",
        "operator": "State Bank of India",
        "short_name": "SBI"
      }
    },
    {
      "type": "node",
      "id": 7276500361,
      "lat": 12.9846702,
      "lon": 77.5746091,
      "tags": {
        "amenity": "place_of_worship",
        "religion": "hindu"
      }
    },
    {
      "type": "node",
      "id": 7292436166,
      "lat": 12.980538,
      "lon": 77.5721119,
      "tags": {
        "amenity": "place_of_worship",
        "religion": "hindu"
      }
    },
    {
      "type": "node",
      "id": 7301656874,
      "lat": 12.9872877,
      "lon": 77.5760803,
      "tags": {
        "amenity": "library",
        "name": "Quills Library"
      }
    },
    {
      "type": "node",
      "id": 8187962462,
      "lat": 12.9940393,
      "lon": 77.5776887,
      "tags": {
        "addr:full": "No 159, 1st Main Rd, near Bhimas Hotel, Sripuram, Kumara Park West, Seshadripuram, Bengaluru, Karnataka",
        "addr:state": "Karnataka",
        "amenity": "bank",
        "brand": "State Bank of India",
        "brand:wikidata": "Q1340361",
        "brand:wikipedia": "en:State Bank of India",
        "name": "State Bank of India",
        "short_name": "SBI"
      }
    },
    {
      "type": "node",
      "id": 8187962473,
      "lat": 12.9931411,
      "lon": 77.5767129,
      "tags": {
        "addr:full": "162, 1st Main Rd, Near-Priya Jewelers, 4th Block, Kumara Park West, Seshadripuram, Bengaluru, Karnataka",
        "addr:state": "Karnataka",
        "amenity": "bank",
        "brand": "Indian Bank",
        "brand:wikidata": "Q2003789",
        "brand:wikipedia": "en:Indian Bank",
        "name": "Indian Bank",
        "name:kn": "ಇಂಡಿಯನ್ ಬ್ಯಾಂಕ್"
      }
    },
    {
      "type": "node",
      "id": 8187963426,
      "lat": 12.98,
      "lon": 77.576,
      "tags": {
        "addr:full": "Plot No 41, Seshadri Rd, Anand Rao Circle, Bengaluru, Karnataka",
        "addr:state": "Karnataka",
        "amenity": "bank",
        "brand": "Axis Bank",
        "brand:wikidata": "Q2003549",
        "name": "Axis Bank",
        "name:kn": "ಆಕ್ಸಿಸ್ ಬ್ಯಾಂಕ್"
      }
    },
    {
      "type": "node",
      "id": 8187963461,
      "lat": 12.9769785,
      "lon": 77.5788979,
      "tags": {
        "addr:full": "No 24, 2nd Cross Rd, Gandhi Nagar, Bengaluru, Karnataka",
        "addr:state": "Karnataka",
        "amenity": "bank",
        "brand": "Federal Bank",
        "brand:wikidata": "Q2044983",
        "name": "Federal Bank",
        "name:kn": "ಫೆಡೆರಲ್ ಬ್ಯಾಂಕ್"
      }
    },
    {
      "type": "node",
      "id": 9063471393,
      "lat": 12.9840625,
      "lon": 77.580813,
      "tags": {
        "amenity": "bank",
        "atm": "yes",
        "brand": "State Bank of India",
        "brand:wikidata": "Q1340361",
        "name": "State Bank of India",
        "short_name": "SBI"
      }
    },
    {
      "type": "node",
      "id": 9063471395,
      "lat": 12.984414,
      "lon": 77.578281,
      "tags": {
        "amenity": "bank",
        "atm": "yes",
        "brand": "HDFC Bank",
        "brand:wikidata": "Q631047",
        "name": "HDFC Bank",
        "short_name": "HDFC"
      }
    },
    {
      "type": "node",
      "id": 9063471396,
      "lat": 12.9879515,
      "lon": 77.5774683,
      "tags": {
        "name": "Titan Eye Plus",
        "shop": "optician"
      }
    },
    {
      "type": "node",
      "id": 9063471398,
      "lat": 12.9887173,
      "lon": 77.5779605,
      "tags": {
        "amenity": "fast_food",
        "name": "Umesh Refreshments"
      }
    },
    {
      "type": "node",
      "id": 9063471405,
      "lat": 12.9889048,
      "lon": 77.5775568,
      "tags": {
        "amenity": "fast_food",
        "cuisine": "regional",
        "name": "Umesh Dosa Point",
        "takeaway": "yes"
      }
    },
    {
      "type": "node",
      "id": 9214166916,
      "lat": 12.986254,
      "lon": 77.5809807,
      "tags": {
        "name": "Navakarnataka Publications",
        "office": "company",
        "shop": "books"
      }
    },
    {
      "type": "node",
      "id": 9214185038,
      "lat": 12.9867313,
      "lon": 77.5797264,
      "tags": {
        "name": "Sapthagiri Xerox",
        "shop": "copyshop"
      }
    },
    {
      "type": "node",
      "id": 9214185039,
      "lat": 12.9867761,
      "lon": 77.5796677,
      "tags": {
        "amenity": "restaurant",
        "name": "Sea Rock Restaurant"
      }
    },
    {
      "type": "node",
      "id": 9214185050,
      "lat": 12.9873315,
      "lon": 77.5788718,
      "tags": {
        "name": "Megha Xerox",
        "shop": "copyshop"
      }
    },
    {
      "type": "node",
      "id": 9214185060,
      "lat": 12.989193,
      "lon": 77.5744736,
      "tags": {
        "amenity": "restaurant",
        "name": "The Rasoi"
      }
    },
    {
      "type": "node",
      "id": 9214185061,
      "lat": 12.9896556,
      "lon": 77.5744213,
      "tags": {
        "name": "Sri Venkateshwara Textiles",
        "shop": "fabric"
      }
    },
    {
      "type": "node",
      "id": 9214185062,
      "lat": 12.9899666,
      "lon": 77.5745326,
      "tags": {
        "amenity": "atm"
      }
    },
    {
      "type": "node",
      "id": 9214185064,
      "lat": 12.9935413,
      "lon": 77.5740867,
      "tags": {
        "name": "Expert Dry Cleaners",
        "shop": "dry_cleaning"
      }
    },
    {
      "type": "node",
      "id": 9573432815,
      "lat": 12.9887722,
      "lon": 77.5807865,
      "tags": {
        "covered": "yes",
        "leisure": "picnic_table"
      }
    },
    {
      "type": "node",
      "id": 9573432816,
      "lat": 12.9887585,
      "lon": 77.5807792,
      "tags": {
        "covered": "yes",
        "leisure": "picnic_table"
      }
    },
    {
      "type": "node",
      "id": 9573433517,
      "lat": 12.9887977,
      "lon": 77.5807993,
      "tags": {
        "covered": "yes",
        "leisure": "picnic_table"
      }
    },
    {
      "type": "node",
      "id": 9573433518,
      "lat": 12.9887843,
      "lon": 77.5807929,
      "tags": {
        "covered": "yes",
        "leisure": "picnic_table"
      }
    },
    {
      "type": "node",
      "id": 9573433519,
      "lat": 12.9887533,
      "lon": 77.580814,
      "tags": {
        "covered": "yes",
        "leisure": "picnic_table"
      }
    },
    {
      "type": "node",
      "id": 9573433520,
      "lat": 12.9887395,
      "lon": 77.5808066,
      "tags": {
        "covered": "yes",
        "leisure": "picnic_table"
      }
    },
    {
      "type": "node",
      "id": 9573433521,
      "lat": 12.9887787,
      "lon": 77.5808268,
      "tags": {
        "covered": "yes",
        "leisure": "picnic_table"
      }
    },
    {
      "type": "node",
      "id": 9573433522,
      "lat": 12.9887653,
      "lon": 77.5808204,
      "tags": {
        "covered": "yes",
        "leisure": "picnic_table"
      }
    },
    {
      "type": "node",
      "id": 9573433523,
      "lat": 12.9887631,
      "lon": 77.5808529,
      "tags": {
        "covered": "yes",
        "leisure": "picnic_table"
      }
    },
    {
      "type": "node",
      "id": 9573433524,
      "lat": 12.9887497,
      "lon": 77.5808465,
      "tags": {
        "covered": "yes",
        "leisure": "picnic_table"
      }
    },
    {
      "type": "node",
      "id": 9573433525,
      "lat": 12.9887376,
      "lon": 77.5808402,
      "tags": {
        "covered": "yes",
        "leisure": "picnic_table"
      }
    },
    {
      "type": "node",
      "id": 9573433526,
      "lat": 12.9887239,
      "lon": 77.5808328,
      "tags": {
        "covered": "yes",
        "leisure": "picnic_table"
      }
    },
    {
      "type": "node",
      "id": 9573433528,
      "lat": 12.98829,
      "lon": 77.5798635,
      "tags": {
        "amenity": "drinking_water"
      }
    },
    {
      "type": "node",
      "id": 9573433533,
      "lat": 12.9887062,
      "lon": 77.5808767,
      "tags": {
        "amenity": "waste_basket"
      }
    },
    {
      "type": "node",
      "id": 9573433541,
      "lat": 12.988699,
      "lon": 77.5808117,
      "tags": {
        "amenity": "fast_food",
        "name": "C K P Canteen"
      }
    },
    {
      "type": "node",
      "id": 9573433542,
      "lat": 12.9888545,
      "lon": 77.5808975,
      "tags": {
        "amenity": "toilets"
      }
    },
    {
      "type": "node",
      "id": 9910013000,
      "lat": 12.986765,
      "lon": 77.5797482,
      "tags": {
        "name": "Glamour Unisex Beauty Salon",
        "shop": "hairdresser"
      }
    },
    {
      "type": "node",
      "id": 10073419802,
      "lat": 12.9851903,
      "lon": 77.5806709,
      "tags": {
        "addr:floor": "G",
        "air_conditioning": "yes",
        "alt_name": "Nerlu Cafe",
        "amenity": "cafe",
        "check_date": "2025-08-24",
        "cuisine": "coffee_shop",
        "internet_access": "wlan",
        "internet_access:fee": "no",
        "internet_access:ssid": "Nerlu",
        "level": "0",
        "name": "ner.lu",
        "outdoor_seating": "yes",
        "start_date": "2022-07-01"
      }
    },
    {
      "type": "node",
      "id": 10183537173,
      "lat": 12.980802,
      "lon": 77.5770619,
      "tags": {
        "amenity": "shelter",
        "shelter_type": "gazebo"
      }
    },
    {
      "type": "node",
      "id": 10228304184,
      "lat": 12.9873323,
      "lon": 77.5801221,
      "tags": {
        "addr:state": "KA",
        "addr:street": "Kumara Krupa Road",
        "amenity": "restaurant",
        "name": "The Noodle Theory"
      }
    },
    {
      "type": "node",
      "id": 10228304185,
      "lat": 12.987145,
      "lon": 77.579938,
      "tags": {
        "name": "Shubh Jewellers",
        "shop": "jewelry"
      }
    },
    {
      "type": "node",
      "id": 10228304186,
      "lat": 12.9886571,
      "lon": 77.5812034,
      "tags": {
        "name": "Cayana",
        "shop": "boutique"
      }
    },
    {
      "type": "node",
      "id": 10228304187,
      "lat": 12.98669,
      "lon": 77.5796975,
      "tags": {
        "amenity": "pharmacy",
        "name": "Panchavati Chemists and Druggists"
      }
    },
    {
      "type": "node",
      "id": 10228304188,
      "lat": 12.9873085,
      "lon": 77.5800797,
      "tags": {
        "name": "Celebration",
        "shop": "mobile_phone"
      }
    },
    {
      "type": "node",
      "id": 10228304189,
      "lat": 12.9870121,
      "lon": 77.5802165,
      "tags": {
        "amenity": "fast_food",
        "brand": "Domino's",
        "brand:wikidata": "Q839466",
        "cuisine": "pizza",
        "name": "Domino's",
        "name:kn": "ಡಾಮಿನೋಸ್",
        "takeaway": "yes"
      }
    },
    {
      "type": "node",
      "id": 10228570993,
      "lat": 12.9876205,
      "lon": 77.5780205,
      "tags": {
        "name": "Aarcee",
        "shop": "clothes"
      }
    },
    {
      "type": "node",
      "id": 10228570994,
      "lat": 12.9876571,
      "lon": 77.57848,
      "tags": {
        "brand": "Suzuki",
        "brand:wikidata": "Q181642",
        "name": "Saptagiri Suzuki",
        "shop": "motorcycle"
      }
    },
    {
      "type": "node",
      "id": 10228570998,
      "lat": 12.9880319,
      "lon": 77.576825,
      "tags": {
        "amenity": "music_school",
        "name": "Saraswati Sangeet Vidyalaya",
        "opening_hours": "Mo-Sa 08:00-13:00,14:00-19:00; PH closed",
        "operator:type": "private"
      }
    },
    {
      "type": "node",
      "id": 10228570999,
      "lat": 12.9861382,
      "lon": 77.5800704,
      "tags": {
        "name": "Excelsior",
        "shop": "travel_agency"
      }
    },
    {
      "type": "node",
      "id": 10228571000,
      "lat": 12.9877704,
      "lon": 77.5781496,
      "tags": {
        "name": "Ahaa!",
        "shop": "furniture"
      }
    },
    {
      "type": "node",
      "id": 10228571001,
      "lat": 12.9871351,
      "lon": 77.578442,
      "tags": {
        "name": "Chalukya",
        "shop": "supermarket"
      }
    },
    {
      "type": "node",
      "id": 10228635178,
      "lat": 12.9899038,
      "lon": 77.5725194,
      "tags": {
        "amenity": "fast_food",
        "diet:lacto_vegetarian": "only",
        "name": "Kaapi Katte",
        "name:kn": "ಕಾಫಿ ಕಟ್ಟೆ"
      }
    },
    {
      "type": "node",
      "id": 10242924683,
      "lat": 12.988047,
      "lon": 77.5797237,
      "tags": {
        "amenity": "recycling",
        "recycling_type": "centre"
      }
    },
    {
      "type": "node",
      "id": 11061435985,
      "lat": 12.9847784,
      "lon": 77.5808621,
      "tags": {
        "amenity": "bar",
        "name": "The Burrow"
      }
    },
    {
      "type": "node",
      "id": 11214903950,
      "lat": 12.9879489,
      "lon": 77.5780544,
      "tags": {
        "amenity": "place_of_worship",
        "religion": "hindu"
      }
    },
    {
      "type": "node",
      "id": 11478107297,
      "lat": 12.989156,
      "lon": 77.5746098,
      "tags": {
        "amenity": "atm",
        "brand": "Bank of India",
        "brand:wikidata": "Q2004439",
        "check_date": "2024-01-02",
        "operator": "Bank of India",
        "operator:wikidata": "Q2004439"
      }
    },
    {
      "type": "node",
      "id": 11478107298,
      "lat": 12.9891037,
      "lon": 77.574818,
      "tags": {
        "check_date": "2024-01-02",
        "name": "Sense of Style",
        "shop": "hairdresser"
      }
    },
    {
      "type": "node",
      "id": 11478107299,
      "lat": 12.989032,
      "lon": 77.5750062,
      "tags": {
        "amenity": "restaurant",
        "check_date": "2024-01-02",
        "name": "Samudra"
      }
    },
    {
      "type": "node",
      "id": 11478107301,
      "lat": 12.98774,
      "lon": 77.5781892,
      "tags": {
        "check_date": "2024-01-02",
        "name": "Light Zone",
        "shop": "lighting"
      }
    },
    {
      "type": "node",
      "id": 11478107302,
      "lat": 12.9877185,
      "lon": 77.5782277,
      "tags": {
        "check_date": "2024-01-02",
        "name": "Chirag Jewelers",
        "shop": "jewelry"
      }
    },
    {
      "type": "node",
      "id": 11533105779,
      "lat": 12.9777049,
      "lon": 77.5776713,
      "tags": {
        "addr:city": "Beṅgaḷūru",
        "addr:neighborhood": "Gāndhinagara",
        "addr:state": "KA",
        "amenity": "bureau_de_change",
        "currency:CAD": "yes",
        "currency:EUR": "yes",
        "currency:GBP": "yes",
        "currency:INR": "yes",
        "currency:USD": "yes",
        "email": "slnforexservices@yahoo.co.in",
        "facebook": "slnforex",
        "name": "SLN",
        "name:en": "SLN Forex Services, Pvt. Ltd.",
        "opening_hours": "Mo-Sa 11:00-19:00",
        "phone": "+91 98453 51716",
        "short_name:kn": "ಎಸ್ಎಲ್ಎನ್"
      }
    },
    {
      "type": "node",
      "id": 11535240176,
      "lat": 12.97995,
      "lon": 77.5771154,
      "tags": {
        "addr:city": "Beṅgaḷūru",
        "addr:neighborhood": "Gāndhinagara",
        "addr:state": "KA",
        "alt_name:ur": "دیسی مسالہا",
        "amenity": "restaurant",
        "contact:instagram": "desimasala_veg",
        "cuisine": "indian;buffet",
        "diet:vegetarian": "yes",
        "email": "enquiry@thedesimasala.net",
        "facebook": "desimasalaveg",
        "name": "Desī Masālā",
        "name:hi": "देसी मसाला",
        "name:hi-Latn": "Desī Masālā",
        "name:ur": "دیسی مصالحہ",
        "name:ur-Latn": "Desī Masālhā",
        "opening_hours": "07:00-23:00",
        "phone": "+91-7406324999",
        "website": "http://www.thedesimasala.net/GANDHI%20NAGAR.html"
      }
    },
    {
      "type": "node",
      "id": 11539135182,
      "lat": 12.9776114,
      "lon": 77.5778024,
      "tags": {
        "addr:city": "Beṅgaḷūru",
        "addr:neighborhood": "Gāndhinagara",
        "addr:postcode": "560009",
        "alt_name:en": "Idli-Dosa-Coffee Kitchen",
        "alt_name:en1": "Idli, Dosa, Coffee Kitchen",
        "alt_name:kn-Latn": "Iḍli, Dōse, Kāphi",
        "alt_name:tl": "Kusinang IDC",
        "amenity": "restaurant",
        "cuisine": "indian;coffee",
        "diet:vegetarian": "yes",
        "email": "hello@idckitchen.com",
        "name": "IDC Kitchen",
        "name:cbk-zam": "Cocina IDC",
        "name:ceb": "Kosinang IDC",
        "name:es": "Cocina IDC",
        "name:hil": "Kosina IDC",
        "name:krj": "Kosina IDC",
        "name:pag": "Kosinan IDC",
        "name:pam": "Kosínang IDC",
        "name:tl": "Kosinang IDC",
        "website": "https://www.idckitchen.com/"
      }
    },
    {
      "type": "node",
      "id": 11539135183,
      "lat": 12.9790306,
      "lon": 77.5762924,
      "tags": {
        "addr:city": "Beṅgaḷūru",
        "addr:neighborhood": "Gāndhinagara",
        "amenity": "restaurant",
        "cuisine": "indian",
        "diet:vegetarian": "yes",
        "name": "Sai Grand",
        "name:es": "Gran Sāyi",
        "name:kn": "ಸಾಯಿ ಗ್ರ್ಯಾಂಡ್",
        "name:kn-Latn": "Sāyi Gryāṇḍ",
        "phone": "+919901899080"
      }
    },
    {
      "type": "node",
      "id": 11540382457,
      "lat": 12.9788456,
      "lon": 77.5794256,
      "tags": {
        "addr:city": "Beṅgaḷūru",
        "addr:neighborhood": "Gāndhinagara",
        "amenity": "restaurant",
        "cuisine": "indian",
        "diet:vegetarian": "yes",
        "name": "Bharaṇi Kafe",
        "name:en": "Bharaṇi Café",
        "name:es": "Café Bharaṇi",
        "name:kn": "ಭರಣಿ ಕಫ಼ೆ",
        "name:kn-Latn": "Bharaṇi Kafe",
        "phone": "+919243103062"
      }
    },
    {
      "type": "node",
      "id": 11540382458,
      "lat": 12.9775335,
      "lon": 77.57581,
      "tags": {
        "addr:city": "Beṅgaḷūru",
        "addr:neighborhood": "Gāndhinagara",
        "amenity": "restaurant",
        "cuisine": "indian",
        "diet:vegetarian": "yes",
        "name": "Priyadarśini",
        "name:en": "Priyadarshini Restaurant",
        "name:es": "Restaurante Priyadarśini",
        "name:it": "Ristorante Priyadarśini",
        "name:kn": "ಪ್ರಿಯದರ್ಶಿನಿ",
        "opening_hours": "07:00-22:00",
        "phone": "+918022263793"
      }
    },
    {
      "type": "node",
      "id": 11659529326,
      "lat": 12.9771364,
      "lon": 77.5771411,
      "tags": {
        "air_conditioning": "yes",
        "amenity": "bar",
        "brewery": "yes;various",
        "check_date": "2024-02-24",
        "internet_access": "no",
        "name": "Talk of The Town",
        "outdoor_seating": "no",
        "payment:cash": "yes",
        "payment:credit_cards": "yes",
        "payment:debit_cards": "yes",
        "smoking": "separated",
        "source": "local knowledge",
        "wheelchair": "yes"
      }
    },
    {
      "type": "node",
      "id": 11677179244,
      "lat": 12.9804393,
      "lon": 77.5752107,
      "tags": {
        "check_date": "2024-02-29",
        "name": "Mayura",
        "name:kn": "ಮಯೂರ",
        "shop": "travel_agency"
      }
    },
    {
      "type": "node",
      "id": 11677179245,
      "lat": 12.9804465,
      "lon": 77.5752381,
      "tags": {
        "check_date": "2024-02-29",
        "name": "MB Travels",
        "shop": "travel_agency"
      }
    },
    {
      "type": "node",
      "id": 11677179246,
      "lat": 12.9801578,
      "lon": 77.5746927,
      "tags": {
        "check_date": "2024-02-29",
        "name": "Green Line Travels",
        "shop": "travel_agency"
      }
    },
    {
      "type": "node",
      "id": 11677179247,
      "lat": 12.9800474,
      "lon": 77.574728,
      "tags": {
        "check_date": "2024-02-29",
        "name": "Johar Brothers",
        "shop": "paint"
      }
    },
    {
      "type": "node",
      "id": 11677179248,
      "lat": 12.9801761,
      "lon": 77.5750915,
      "tags": {
        "check_date": "2024-02-29",
        "name": "Sri Durga Mamba Travels",
        "shop": "travel_agency"
      }
    },
    {
      "type": "node",
      "id": 11677179249,
      "lat": 12.9799643,
      "lon": 77.5747326,
      "tags": {
        "check_date": "2024-02-29",
        "name": "Foto Circle",
        "shop": "photo"
      }
    },
    {
      "type": "node",
      "id": 11677179251,
      "lat": 12.9795114,
      "lon": 77.5748405,
      "tags": {
        "amenity": "restaurant",
        "check_date": "2024-02-29",
        "name": "Kanteen"
      }
    },
    {
      "type": "node",
      "id": 11677179255,
      "lat": 12.9779603,
      "lon": 77.5752566,
      "tags": {
        "amenity": "restaurant",
        "check_date": "2024-02-29",
        "name": "Chicken County"
      }
    },
    {
      "type": "node",
      "id": 11677179256,
      "lat": 12.9781021,
      "lon": 77.5752146,
      "tags": {
        "amenity": "pharmacy",
        "check_date": "2024-02-29",
        "healthcare": "pharmacy",
        "name": "Sri Krishna Medicals"
      }
    },
    {
      "type": "node",
      "id": 11677179257,
      "lat": 12.9781549,
      "lon": 77.5751407,
      "tags": {
        "check_date": "2024-02-29",
        "name": "Sri Surya Bakery",
        "shop": "bakery"
      }
    },
    {
      "type": "node",
      "id": 11677179258,
      "lat": 12.9783199,
      "lon": 77.5758629,
      "tags": {
        "amenity": "post_office",
        "brand": "Desk to Desk Courier & Cargo",
        "brand:short": "DTDC",
        "brand:wikidata": "Q55608802",
        "check_date": "2024-02-29",
        "operator": "Desk to Desk Courier & Cargo",
        "operator:short": "DTDC",
        "operator:wikidata": "Q55608802"
      }
    },
    {
      "type": "node",
      "id": 11677179259,
      "lat": 12.9783689,
      "lon": 77.5760446,
      "tags": {
        "amenity": "restaurant",
        "check_date": "2024-02-29",
        "name": "Sri Kenchamba"
      }
    },
    {
      "type": "node",
      "id": 11677179261,
      "lat": 12.9777076,
      "lon": 77.5753452,
      "tags": {
        "amenity": "restaurant",
        "check_date": "2024-02-29",
        "name": "Hotel Sagar"
      }
    },
    {
      "type": "node",
      "id": 11677179262,
      "lat": 12.9776633,
      "lon": 77.5753444,
      "tags": {
        "amenity": "bar",
        "check_date": "2024-02-29"
      }
    },
    {
      "type": "node",
      "id": 11677179263,
      "lat": 12.9783411,
      "lon": 77.575127,
      "tags": {
        "amenity": "pharmacy",
        "check_date": "2024-02-29",
        "healthcare": "pharmacy",
        "name": "Amogh Medical"
      }
    },
    {
      "type": "node",
      "id": 11681947667,
      "lat": 12.9773711,
      "lon": 77.5754648,
      "tags": {
        "amenity": "bar",
        "check_date": "2024-03-01",
        "name": "MRP Kick Tonic"
      }
    },
    {
      "type": "node",
      "id": 11681947668,
      "lat": 12.9773338,
      "lon": 77.5754773,
      "tags": {
        "check_date": "2024-03-01",
        "name": "Anand Readymade",
        "shop": "clothes"
      }
    },
    {
      "type": "node",
      "id": 11681984870,
      "lat": 12.9765077,
      "lon": 77.57598,
      "tags": {
        "amenity": "bank",
        "brand": "State Bank of India",
        "brand:wikidata": "Q1340361",
        "check_date": "2024-03-01",
        "name": "State Bank of India",
        "name:kn": "ಎಸ್ ಬಿ ಐ",
        "short_name": "SBI"
      }
    },
    {
      "type": "node",
      "id": 11681984871,
      "lat": 12.9765774,
      "lon": 77.5760043,
      "tags": {
        "brand": "Liberty",
        "brand:wikidata": "Q6541947",
        "check_date": "2024-03-01",
        "name": "Liberty Exclusive Showroom",
        "shop": "shoes"
      }
    },
    {
      "type": "node",
      "id": 11681984872,
      "lat": 12.976644,
      "lon": 77.5759972,
      "tags": {
        "check_date": "2024-03-01",
        "name": "Titan",
        "operator": "Pearl Times",
        "shop": "watches"
      }
    },
    {
      "type": "node",
      "id": 11681984873,
      "lat": 12.9766767,
      "lon": 77.5761455,
      "tags": {
        "amenity": "restaurant",
        "check_date": "2024-03-01",
        "name": "Amulya Veg Restaurant"
      }
    },
    {
      "type": "node",
      "id": 11681984874,
      "lat": 12.9764963,
      "lon": 77.575402,
      "tags": {
        "amenity": "place_of_worship",
        "check_date": "2024-03-01",
        "name": "Sri Annammadevi Mahasamsthana",
        "religion": "hindu"
      }
    },
    {
      "type": "node",
      "id": 11681984880,
      "lat": 12.9764331,
      "lon": 77.5758915,
      "tags": {
        "amenity": "place_of_worship",
        "check_date": "2024-03-01",
        "mobile": "+91 9886285380",
        "name": "Hazrat Sued Adam Shah Qadri",
        "religion": "muslim"
      }
    },
    {
      "type": "node",
      "id": 11681984881,
      "lat": 12.9771368,
      "lon": 77.5758801,
      "tags": {
        "check_date": "2024-03-01",
        "name": "City Bag Corner",
        "shop": "bag"
      }
    },
    {
      "type": "node",
      "id": 11681984882,
      "lat": 12.9771207,
      "lon": 77.5761475,
      "tags": {
        "amenity": "restaurant",
        "check_date": "2024-03-01",
        "name": "Sri Maruthi Gowdas Military Hotel"
      }
    },
    {
      "type": "node",
      "id": 11681984883,
      "lat": 12.9771317,
      "lon": 77.5759938,
      "tags": {
        "check_date": "2024-03-01",
        "name": "Ganga Shopping Centre",
        "shop": "bag"
      }
    },
    {
      "type": "node",
      "id": 11683098373,
      "lat": 12.9764266,
      "lon": 77.5794711,
      "tags": {
        "amenity": "bank",
        "brand": "Indian Overseas Bank",
        "brand:wikidata": "Q2003611",
        "check_date": "2024-03-02",
        "name": "Indian Overseas Bank",
        "name:kn": "ಐ ಓ ಬಿ"
      }
    },
    {
      "type": "node",
      "id": 11683098374,
      "lat": 12.9782362,
      "lon": 77.5808398,
      "tags": {
        "amenity": "bank",
        "brand": "Union Bank of India",
        "brand:wikidata": "Q2004078",
        "check_date": "2024-03-02",
        "name": "Union Bank of India"
      }
    },
    {
      "type": "node",
      "id": 11684647127,
      "lat": 12.9874827,
      "lon": 77.5744932,
      "tags": {
        "check_date": "2024-03-02",
        "name": "CM RAM Arts",
        "shop": "art"
      }
    },
    {
      "type": "node",
      "id": 11684647128,
      "lat": 12.9873816,
      "lon": 77.5744969,
      "tags": {
        "check_date": "2024-03-02",
        "name": "Murugan Arts",
        "shop": "art"
      }
    },
    {
      "type": "node",
      "id": 11684647130,
      "lat": 12.9901302,
      "lon": 77.5722123,
      "tags": {
        "check_date": "2024-03-02",
        "name": "Lotus Mobiles",
        "shop": "mobile_phone"
      }
    },
    {
      "type": "node",
      "id": 11684647131,
      "lat": 12.9901802,
      "lon": 77.5721599,
      "tags": {
        "amenity": "restaurant",
        "check_date": "2024-03-02",
        "name": "Royal Biriyani"
      }
    },
    {
      "type": "node",
      "id": 11684647132,
      "lat": 12.9903609,
      "lon": 77.5719554,
      "tags": {
        "amenity": "restaurant",
        "check_date": "2024-03-02",
        "name": "Party Hall Restaurant"
      }
    },
    {
      "type": "node",
      "id": 11684647133,
      "lat": 12.9906494,
      "lon": 77.5718535,
      "tags": {
        "amenity": "atm",
        "brand": "Kotak Mahindra Bank",
        "brand:wikidata": "Q2040404",
        "check_date": "2024-03-02",
        "operator": "Kotak Mahindra Bank",
        "operator:wikidata": "Q2040404"
      }
    },
    {
      "type": "node",
      "id": 11687235825,
      "lat": 12.9925805,
      "lon": 77.5745703,
      "tags": {
        "amenity": "fast_food",
        "check_date": "2024-03-03",
        "name": "Vinayaka Tiffin Center"
      }
    },
    {
      "type": "node",
      "id": 11687235826,
      "lat": 12.9826054,
      "lon": 77.5746398,
      "tags": {
        "access": "yes",
        "amenity": "toilets",
        "check_date": "2024-03-03",
        "fee": "yes",
        "operator": "BBMP"
      }
    },
    {
      "type": "node",
      "id": 11687235827,
      "lat": 12.9807471,
      "lon": 77.5766813,
      "tags": {
        "amenity": "fast_food",
        "check_date": "2024-03-03",
        "name": "The Kingdom"
      }
    },
    {
      "type": "node",
      "id": 11696866861,
      "lat": 12.980325,
      "lon": 77.5832927,
      "tags": {
        "amenity": "college",
        "name": "Maharani's Arts, Commerce and Management College",
        "start_date": "1975"
      }
    },
    {
      "type": "node",
      "id": 11696866863,
      "lat": 12.9795827,
      "lon": 77.5839847,
      "tags": {
        "amenity": "college",
        "name": "Maharani's Science College for Women",
        "start_date": "1938"
      }
    },
    {
      "type": "node",
      "id": 11775336500,
      "lat": 12.9892413,
      "lon": 77.5739801,
      "tags": {
        "amenity": "fast_food",
        "cuisine": "regional",
        "name": "The Darshini"
      }
    },
    {
      "type": "node",
      "id": 11882788000,
      "lat": 12.9912832,
      "lon": 77.5706068,
      "tags": {
        "amenity": "vending_machine",
        "check_date": "2024-05-06",
        "drink:bubble_tea": "yes",
        "vending": "drinks"
      }
    },
    {
      "type": "node",
      "id": 11949532605,
      "lat": 12.990666,
      "lon": 77.5705972,
      "tags": {
        "addr:floor": "0",
        "amenity": "vending_machine",
        "check_date": "2024-06-01"
      }
    },
    {
      "type": "node",
      "id": 11949532606,
      "lat": 12.9905405,
      "lon": 77.5706858,
      "tags": {
        "addr:floor": "0",
        "check_date": "2024-06-01",
        "name": "Schmitten Chocolates",
        "shop": "chocolate"
      }
    },
    {
      "type": "node",
      "id": 11949532607,
      "lat": 12.9904279,
      "lon": 77.5708406,
      "tags": {
        "addr:floor": "0",
        "check_date": "2024-06-01",
        "name": "Continental Coffee",
        "shop": "kiosk"
      }
    },
    {
      "type": "node",
      "id": 11949532608,
      "lat": 12.9902985,
      "lon": 77.5708444,
      "tags": {
        "addr:floor": "0",
        "check_date": "2024-06-01",
        "name": "Go Desi",
        "shop": "kiosk"
      }
    },
    {
      "type": "node",
      "id": 11951350410,
      "lat": 12.9927709,
      "lon": 77.5743277,
      "tags": {
        "brand": "Nandini",
        "check_date": "2024-06-02",
        "name": "Nandini",
        "shop": "dairy"
      }
    },
    {
      "type": "node",
      "id": 11951350412,
      "lat": 12.984684,
      "lon": 77.5824702,
      "tags": {
        "amenity": "bench"
      }
    },
    {
      "type": "node",
      "id": 11951350413,
      "lat": 12.9846445,
      "lon": 77.5825397,
      "tags": {
        "amenity": "bench"
      }
    },
    {
      "type": "node",
      "id": 11978689172,
      "lat": 12.9803939,
      "lon": 77.5742692,
      "tags": {
        "description": "Daily trips to : Hyderabad, Pune Chennai, GOA, Mangalore, Ernakulam, Tirchy, Palakad",
        "name": "Saleem travels",
        "phone": "9886889756",
        "shop": "ticket"
      }
    },
    {
      "type": "node",
      "id": 11986964427,
      "lat": 12.9924482,
      "lon": 77.5756565,
      "tags": {
        "amenity": "pharmacy",
        "name": "Shanti Medicals"
      }
    },
    {
      "type": "node",
      "id": 11986964436,
      "lat": 12.9937269,
      "lon": 77.5769795,
      "tags": {
        "name": "Save More",
        "shop": "supermarket"
      }
    },
    {
      "type": "node",
      "id": 12000326829,
      "lat": 12.984181,
      "lon": 77.5826369,
      "tags": {
        "amenity": "waste_basket"
      }
    },
    {
      "type": "node",
      "id": 12000326830,
      "lat": 12.9846977,
      "lon": 77.5817917,
      "tags": {
        "amenity": "place_of_worship",
        "check_date": "2024-06-22",
        "religion": "hindu"
      }
    },
    {
      "type": "node",
      "id": 12000326832,
      "lat": 12.987324,
      "lon": 77.5783227,
      "tags": {
        "check_date": "2024-06-22",
        "name": "Ravi Handicrafts",
        "shop": "craft"
      }
    },
    {
      "type": "node",
      "id": 12000326833,
      "lat": 12.9880048,
      "lon": 77.5769334,
      "tags": {
        "check_date": "2024-06-22",
        "name": "Tri-Dia",
        "shop": "jewelry"
      }
    },
    {
      "type": "node",
      "id": 12002046035,
      "lat": 12.977855,
      "lon": 77.5812757,
      "tags": {
        "amenity": "charging_station",
        "fee": "yes",
        "motorcar": "yes",
        "motorcycle": "yes"
      }
    },
    {
      "type": "node",
      "id": 12002046036,
      "lat": 12.9775675,
      "lon": 77.5811148,
      "tags": {
        "access": "yes",
        "amenity": "toilets"
      }
    },
    {
      "type": "node",
      "id": 12118846712,
      "lat": 12.9844944,
      "lon": 77.5847934,
      "tags": {
        "amenity": "post_box"
      }
    },
    {
      "type": "node",
      "id": 12137671662,
      "lat": 12.9768752,
      "lon": 77.5798383,
      "tags": {
        "name": "Kamat Tourist",
        "shop": "travel_agency"
      }
    },
    {
      "type": "node",
      "id": 12157272456,
      "lat": 12.9776116,
      "lon": 77.5723551,
      "tags": {
        "check_date": "2024-08-27",
        "internet_access": "no",
        "name": "Kadamba Coffee Kendra",
        "payment:cash": "yes",
        "shop": "bakery",
        "wheelchair": "yes"
      }
    },
    {
      "type": "node",
      "id": 12269300829,
      "lat": 12.9882613,
      "lon": 77.580231,
      "tags": {
        "access": "customers",
        "amenity": "toilets"
      }
    },
    {
      "type": "node",
      "id": 12414204462,
      "lat": 12.9868225,
      "lon": 77.5852253,
      "tags": {
        "amenity": "place_of_worship",
        "name": "Muneshwara Temple",
        "religion": "hindu"
      }
    },
    {
      "type": "node",
      "id": 12422943857,
      "lat": 12.9919751,
      "lon": 77.5818658,
      "tags": {
        "amenity": "nightclub",
        "name": "Kitty Ko"
      }
    },
    {
      "type": "node",
      "id": 12422943858,
      "lat": 12.9923293,
      "lon": 77.5818202,
      "tags": {
        "amenity": "bar",
        "name": "Sutra"
      }
    },
    {
      "type": "node",
      "id": 12422943859,
      "lat": 12.9920548,
      "lon": 77.5816472,
      "tags": {
        "name": "The Pastry Shop",
        "shop": "bakery"
      }
    },
    {
      "type": "node",
      "id": 12422943862,
      "lat": 12.9923685,
      "lon": 77.5820643,
      "tags": {
        "amenity": "restaurant",
        "name": "24/7"
      }
    },
    {
      "type": "node",
      "id": 12422953303,
      "lat": 12.9922169,
      "lon": 77.5819811,
      "tags": {
        "amenity": "restaurant",
        "cuisine": "asian",
        "name": "OKO"
      }
    },
    {
      "type": "node",
      "id": 12422953304,
      "lat": 12.9925122,
      "lon": 77.5821367,
      "tags": {
        "amenity": "restaurant",
        "cuisine": "indian",
        "name": "Baluchi"
      }
    },
    {
      "type": "node",
      "id": 12425915428,
      "lat": 12.9921372,
      "lon": 77.5819932,
      "tags": {
        "access": "customers",
        "amenity": "toilets",
        "female": "no",
        "male": "no"
      }
    },
    {
      "type": "node",
      "id": 12426224447,
      "lat": 12.9889016,
      "lon": 77.5743127,
      "tags": {
        "shop": "jewelry"
      }
    },
    {
      "type": "node",
      "id": 12426224469,
      "lat": 12.990458,
      "lon": 77.5719725,
      "tags": {
        "amenity": "restaurant",
        "name": "The Green Path"
      }
    },
    {
      "type": "node",
      "id": 12429035733,
      "lat": 12.9836885,
      "lon": 77.5772591,
      "tags": {
        "branch": "Milk Parlour",
        "brand": "Nandini",
        "brand:wikidata": "Q124374212",
        "name": "Nandini",
        "shop": "dairy"
      }
    },
    {
      "type": "node",
      "id": 12429067004,
      "lat": 12.9810408,
      "lon": 77.5745756,
      "tags": {
        "amenity": "bench",
        "armrest": "yes",
        "backrest": "yes",
        "material": "metal",
        "seats": "2"
      }
    },
    {
      "type": "node",
      "id": 12438024630,
      "lat": 12.9855114,
      "lon": 77.5788172,
      "tags": {
        "amenity": "bank",
        "brand": "Canara Bank",
        "brand:en": "Canara Bank",
        "brand:hi": "केनरा बैंक",
        "brand:kn": "ಕೆನರಾ ಬ್ಯಾಂಕ್",
        "brand:pa": "ਕੇਨਰਾ ਬੈਂਕ",
        "brand:pnb": "کینرا بینک",
        "brand:ur": "کینرا بینک",
        "brand:wikidata": "Q2003777",
        "name": "Canara Bank",
        "name:en": "Canara Bank",
        "name:hi": "केनरा बैंक",
        "name:kn": "ಕೆನರಾ ಬ್ಯಾಂಕ್",
        "name:pa": "ਕੇਨਰਾ ਬੈਂਕ",
        "name:pnb": "کینرا بینک",
        "name:ur": "کینرا بینک"
      }
    },
    {
      "type": "node",
      "id": 12441528412,
      "lat": 12.9873315,
      "lon": 77.5800872,
      "tags": {
        "check_date": "2024-12-22",
        "name": "Cake Basket",
        "shop": "bakery"
      }
    },
    {
      "type": "node",
      "id": 12441556289,
      "lat": 12.9875015,
      "lon": 77.5800593,
      "tags": {
        "amenity": "bank",
        "brand": "IDFC First Bank",
        "brand:wikidata": "Q22031467",
        "check_date": "2024-12-22",
        "name": "IDFC First Bank"
      }
    },
    {
      "type": "node",
      "id": 12441556290,
      "lat": 12.9874735,
      "lon": 77.5801145,
      "tags": {
        "amenity": "atm",
        "brand": "IDFC First Bank",
        "brand:wikidata": "Q22031467",
        "check_date": "2024-12-22",
        "operator": "IDFC First Bank",
        "operator:wikidata": "Q22031467"
      }
    },
    {
      "type": "node",
      "id": 12441822767,
      "lat": 12.9845106,
      "lon": 77.5783868,
      "tags": {
        "brand": "Xiaomi",
        "brand:wikidata": "Q1636958",
        "check_date": "2024-12-22",
        "name": "Xiaomi",
        "shop": "mobile_phone"
      }
    },
    {
      "type": "node",
      "id": 12506944682,
      "lat": 12.9778629,
      "lon": 77.5734718,
      "tags": {
        "amenity": "toilets",
        "wheelchair": "no"
      }
    },
    {
      "type": "node",
      "id": 12506944684,
      "lat": 12.9784,
      "lon": 77.5718417,
      "tags": {
        "amenity": "fast_food"
      }
    },
    {
      "type": "node",
      "id": 12506944685,
      "lat": 12.9785535,
      "lon": 77.5724063,
      "tags": {
        "amenity": "fast_food"
      }
    },
    {
      "type": "node",
      "id": 12506944686,
      "lat": 12.9781027,
      "lon": 77.5732076,
      "tags": {
        "amenity": "fast_food"
      }
    },
    {
      "type": "node",
      "id": 12506944687,
      "lat": 12.9778557,
      "lon": 77.5733035,
      "tags": {
        "amenity": "drinking_water"
      }
    },
    {
      "type": "node",
      "id": 12506944688,
      "lat": 12.9778773,
      "lon": 77.57304,
      "tags": {
        "amenity": "drinking_water"
      }
    },
    {
      "type": "node",
      "id": 12506944689,
      "lat": 12.9782504,
      "lon": 77.5726819,
      "tags": {
        "amenity": "fast_food"
      }
    },
    {
      "type": "node",
      "id": 12506944690,
      "lat": 12.9783124,
      "lon": 77.5724137,
      "tags": {
        "amenity": "drinking_water"
      }
    },
    {
      "type": "node",
      "id": 12506944691,
      "lat": 12.978217,
      "lon": 77.5720167,
      "tags": {
        "amenity": "fast_food"
      }
    },
    {
      "type": "node",
      "id": 12506944692,
      "lat": 12.9779955,
      "lon": 77.5717753,
      "tags": {
        "amenity": "drinking_water"
      }
    },
    {
      "type": "node",
      "id": 12506944695,
      "lat": 12.977925,
      "lon": 77.5723064,
      "tags": {
        "amenity": "drinking_water"
      }
    },
    {
      "type": "node",
      "id": 12506944696,
      "lat": 12.9778877,
      "lon": 77.5725304,
      "tags": {
        "amenity": "fast_food"
      }
    },
    {
      "type": "node",
      "id": 12506944697,
      "lat": 12.9777034,
      "lon": 77.5727047,
      "tags": {
        "access": "yes",
        "amenity": "toilets"
      }
    },
    {
      "type": "node",
      "id": 12525844603,
      "lat": 12.9905992,
      "lon": 77.5745019,
      "tags": {
        "amenity": "fast_food",
        "check_date": "2025-01-23",
        "name": "Mojo Pizza"
      }
    },
    {
      "type": "node",
      "id": 12525844608,
      "lat": 12.9866607,
      "lon": 77.5742892,
      "tags": {
        "amenity": "restaurant",
        "check_date": "2025-01-23",
        "name": "The Hyderabad Chefs"
      }
    },
    {
      "type": "node",
      "id": 12525844609,
      "lat": 12.9835318,
      "lon": 77.5745101,
      "tags": {
        "amenity": "place_of_worship",
        "check_date": "2025-01-23",
        "religion": "muslim"
      }
    },
    {
      "type": "node",
      "id": 12669960228,
      "lat": 12.9771331,
      "lon": 77.576774,
      "tags": {
        "name": "Universal Agro Seeds",
        "shop": "agrarian"
      }
    },
    {
      "type": "node",
      "id": 12669960229,
      "lat": 12.9769016,
      "lon": 77.5770539,
      "tags": {
        "name": "Zee Collections",
        "shop": "clothes"
      }
    },
    {
      "type": "node",
      "id": 12686350436,
      "lat": 12.989113,
      "lon": 77.5747176,
      "tags": {
        "check_date": "2025-03-21",
        "shop": "copyshop"
      }
    },
    {
      "type": "node",
      "id": 12686350442,
      "lat": 12.9925107,
      "lon": 77.5746316,
      "tags": {
        "check_date": "2025-03-21",
        "shop": "tyres"
      }
    },
    {
      "type": "node",
      "id": 12686350448,
      "lat": 12.9924689,
      "lon": 77.574722,
      "tags": {
        "check_date": "2025-03-21",
        "shop": "tyres"
      }
    },
    {
      "type": "node",
      "id": 12686350450,
      "lat": 12.9912292,
      "lon": 77.574705,
      "tags": {
        "check_date": "2025-03-21",
        "hairdresser": "barber",
        "name": "Life Style Men's Salon",
        "shop": "hairdresser"
      }
    },
    {
      "type": "node",
      "id": 12686350451,
      "lat": 12.9901712,
      "lon": 77.5745755,
      "tags": {
        "check_date": "2025-03-21",
        "name": "Bhagyalakshmi Book Stall",
        "shop": "books"
      }
    },
    {
      "type": "node",
      "id": 12686350452,
      "lat": 12.9892704,
      "lon": 77.5743534,
      "tags": {
        "amenity": "kindergarten",
        "check_date": "2025-03-21",
        "name": "MBN Toddler Home"
      }
    },
    {
      "type": "node",
      "id": 12686350457,
      "lat": 12.9836392,
      "lon": 77.5855122,
      "tags": {
        "amenity": "atm",
        "brand": "Union Bank of India",
        "brand:wikidata": "Q2004078",
        "check_date": "2025-03-21",
        "operator": "Union Bank of India",
        "operator:wikidata": "Q2004078"
      }
    },
    {
      "type": "node",
      "id": 12846419059,
      "lat": 12.988547,
      "lon": 77.5772027,
      "tags": {
        "amenity": "restaurant",
        "check_date": "2025-05-18",
        "name": "Chalukya Samrat"
      }
    },
    {
      "type": "node",
      "id": 13062869384,
      "lat": 12.9913578,
      "lon": 77.5711154,
      "tags": {
        "addr:city": "Bengaluru",
        "addr:country": "IN",
        "amenity": "cafe",
        "brand": "Starbucks",
        "brand:wikidata": "Q37158",
        "cuisine": "coffee_shop",
        "name": "Starbucks",
        "official_name": "Starbucks Coffee",
        "takeaway": "yes"
      }
    },
    {
      "type": "node",
      "id": 13086275908,
      "lat": 12.979026,
      "lon": 77.5776266,
      "tags": {
        "amenity": "restaurant",
        "contact:instagram": "extrachutney.blr",
        "cuisine": "south_indian",
        "name": "Extra Chutney"
      }
    },
    {
      "type": "node",
      "id": 13086275912,
      "lat": 12.985053,
      "lon": 77.5791058,
      "tags": {
        "amenity": "cafe",
        "contact:instagram": "blancthecoffeeplace_",
        "cuisine": "coffee_shop",
        "name": "Blanc The Coffee Place"
      }
    },
    {
      "type": "node",
      "id": 13093773835,
      "lat": 12.9900277,
      "lon": 77.5713471,
      "tags": {
        "access": "yes",
        "amenity": "bicycle_parking",
        "capacity": "10",
        "covered": "yes",
        "fee": "no",
        "operator": "trin"
      }
    },
    {
      "type": "node",
      "id": 13288585570,
      "lat": 12.9850109,
      "lon": 77.5847599,
      "tags": {
        "amenity": "restaurant",
        "name": "Loya"
      }
    },
    {
      "type": "way",
      "id": 36884560,
      "center": {
        "lat": 12.9774067,
        "lon": 77.5819036
      },
      "tags": {
        "leisure": "park",
        "name": "Freedom Park",
        "wikidata": "Q5500576",
        "wikimedia_commons": "Category:Freedom Park, Bengaluru",
        "wikipedia": "en:Freedom Park, Bangalore"
      }
    },
    {
      "type": "way",
      "id": 36982901,
      "center": {
        "lat": 12.9898083,
        "lon": 77.5851677
      },
      "tags": {
        "barrier": "fence",
        "golf:course": "18_hole",
        "leisure": "golf_course",
        "name": "Bangalore Golf Course",
        "name:kn": "ಬೆಂಗಳೂರು ಗೋಲ್ಫ್ ಮೈದಾನ",
        "short_name": "BGC",
        "start_date": "1876",
        "website": "http://bgc1876.com/"
      }
    },
    {
      "type": "way",
      "id": 37869985,
      "center": {
        "lat": 12.9823794,
        "lon": 77.5809442
      },
      "tags": {
        "alt_name": "Mysore Race Club",
        "leisure": "sports_centre",
        "name": "Bangalore Race Course",
        "official_name": "Bangalore Turf Club",
        "sport": "horse_racing"
      }
    },
    {
      "type": "way",
      "id": 38536363,
      "center": {
        "lat": 12.9921466,
        "lon": 77.5721822
      },
      "tags": {
        "leisure": "park",
        "name": "Bashyam Park",
        "name:etymology:wikidata": "Q110279124",
        "name:etymology:wikipedia": "en:K. T. Bhashyam",
        "name:kn": "ಭಾಶ್ಯಂ ಉದ್ಯಾನವನ"
      }
    },
    {
      "type": "way",
      "id": 38870537,
      "center": {
        "lat": 12.9921116,
        "lon": 77.5781507
      },
      "tags": {
        "leisure": "park",
        "name": "Kumara Park West Park"
      }
    },
    {
      "type": "way",
      "id": 38870603,
      "center": {
        "lat": 12.9865923,
        "lon": 77.586909
      },
      "tags": {
        "addr:city": "Bengaluru",
        "addr:country": "IN",
        "addr:housenumber": "70",
        "addr:postcode": "560001",
        "addr:street": "Palace Road",
        "alt_name": "Sophia Girls High School",
        "amenity": "school",
        "landuse": "education",
        "name": "Sophia High School",
        "name:kn": "ಸೋಫಿಯ ಪ್ರೌಡಶಾಲೆ",
        "old_name": "Convent of the Sacred Heart",
        "school:gender": "female",
        "start_date": "1949"
      }
    },
    {
      "type": "way",
      "id": 45375850,
      "center": {
        "lat": 12.9921413,
        "lon": 77.5743798
      },
      "tags": {
        "amenity": "school",
        "name": "Government Girls High School",
        "name:kn": "ಸರ್ಕಾರಿ ಬಾಲಕಿಯರ ಪ್ರೌಡಶಾಲೆ"
      }
    },
    {
      "type": "way",
      "id": 45443117,
      "center": {
        "lat": 12.9883532,
        "lon": 77.5757988
      },
      "tags": {
        "leisure": "park",
        "name": "Nehru Park",
        "name:etymology:wikidata": "Q1047",
        "name:kn": "ನೆಹರು ಉದ್ಯಾನವನ"
      }
    },
    {
      "type": "way",
      "id": 45443161,
      "center": {
        "lat": 12.9876863,
        "lon": 77.5790668
      },
      "tags": {
        "leisure": "park"
      }
    },
    {
      "type": "way",
      "id": 45443657,
      "center": {
        "lat": 12.9891598,
        "lon": 77.5807461
      },
      "tags": {
        "alt_name": "Chitra Kala Parishat",
        "amenity": "college",
        "name": "Karnataka Chitrakala Parishath",
        "name:kn": "ಚಿತ್ರಕಲಾ ಪರಿಷತ್",
        "website": "http://karnatakachitrakalaparishath.com/"
      }
    },
    {
      "type": "way",
      "id": 45443682,
      "center": {
        "lat": 12.9889187,
        "lon": 77.5762497
      },
      "tags": {
        "addr:city": "Bangalore",
        "addr:postcode": "560020",
        "addr:street": "Seshadripuram",
        "amenity": "college",
        "email": "info@set.edu.in",
        "fax": "+91-80-22955351",
        "name": "Sheshadripuram College",
        "name:kn": "ಶೇಶಾದ್ರಿಪುರಂ ಕಾಲೇಜು",
        "phone": "+91-80-22955350",
        "website": "https://www.set.edu.in/"
      }
    },
    {
      "type": "way",
      "id": 148661098,
      "center": {
        "lat": 12.99118,
        "lon": 77.575137
      },
      "tags": {
        "amenity": "college",
        "building": "yes",
        "check_date": "2024-01-02",
        "name": "Seshadripuram Law College",
        "name:en": "Seshadripuram Law College",
        "name:kn": "ಶೇಷಾದ್ರಿಪುರಂ ಕಾನೂನು ಕಾಲೇಜು"
      }
    },
    {
      "type": "way",
      "id": 148669366,
      "center": {
        "lat": 12.988255,
        "lon": 77.5767046
      },
      "tags": {
        "leisure": "park",
        "name": "Nehru Park",
        "name:etymology:wikidata": "Q1047",
        "name:kn": "ನೆಹರು ಉದ್ಯಾನವನ"
      }
    },
    {
      "type": "way",
      "id": 150797673,
      "center": {
        "lat": 12.9822669,
        "lon": 77.5807312
      },
      "tags": {
        "area": "no",
        "leisure": "track"
      }
    },
    {
      "type": "way",
      "id": 150894237,
      "center": {
        "lat": 12.9783109,
        "lon": 77.5782654
      },
      "tags": {
        "leisure": "park",
        "name": "Gandhinagar Park"
      }
    },
    {
      "type": "way",
      "id": 169825314,
      "center": {
        "lat": 12.9762636,
        "lon": 77.5776481
      },
      "tags": {
        "name": "National Market",
        "shop": "supermarket"
      }
    },
    {
      "type": "way",
      "id": 169825315,
      "center": {
        "lat": 12.9765714,
        "lon": 77.5778274
      },
      "tags": {
        "name": "Sukh Sagar Shopping Center",
        "shop": "supermarket"
      }
    },
    {
      "type": "way",
      "id": 192032071,
      "center": {
        "lat": 12.991783,
        "lon": 77.5817632
      },
      "tags": {
        "access": "customers",
        "leisure": "swimming_pool",
        "sport": "swimming"
      }
    },
    {
      "type": "way",
      "id": 192043993,
      "center": {
        "lat": 12.9907883,
        "lon": 77.5718674
      },
      "tags": {
        "amenity": "fuel",
        "brand": "Indian Oil",
        "brand:wikidata": "Q1289348",
        "check_date": "2024-03-02",
        "name": "Indian Oil",
        "name:kn": "ಇಂಡಿಯನ್ ಆಯಿಲ್",
        "operator": "Indian Oil"
      }
    },
    {
      "type": "way",
      "id": 202289066,
      "center": {
        "lat": 12.984553,
        "lon": 77.5832329
      },
      "tags": {
        "access": "customers",
        "amenity": "parking",
        "name": "Bangalore Turf Club Parking",
        "parking": "surface"
      }
    },
    {
      "type": "way",
      "id": 208827393,
      "center": {
        "lat": 12.9835106,
        "lon": 77.58689
      },
      "tags": {
        "addr:street": "Race Course Road",
        "amenity": "college",
        "landuse": "education",
        "name": "Govt R C College",
        "official_name": "Government Ramnarayan Chellaram College of Commerce & Management"
      }
    },
    {
      "type": "way",
      "id": 208827410,
      "center": {
        "lat": 12.9824307,
        "lon": 77.5864574
      },
      "tags": {
        "addr:city": "Bengaluru",
        "addr:country": "IN",
        "addr:housenumber": "3",
        "addr:postcode": "560001",
        "addr:street": "Palace Road",
        "addr:suburb": "High Grounds",
        "amenity": "public_building",
        "landuse": "commercial",
        "name": "High Court of Karnataka Administrative Block"
      }
    },
    {
      "type": "way",
      "id": 208827412,
      "center": {
        "lat": 12.9814206,
        "lon": 77.5855355
      },
      "tags": {
        "amenity": "police",
        "name": "CID Office",
        "old_name": "Carlton House"
      }
    },
    {
      "type": "way",
      "id": 239032655,
      "center": {
        "lat": 12.9893365,
        "lon": 77.5722396
      },
      "tags": {
        "amenity": "place_of_worship",
        "building": "yes",
        "religion": "hindu"
      }
    },
    {
      "type": "way",
      "id": 239832511,
      "center": {
        "lat": 12.9781534,
        "lon": 77.572425
      },
      "tags": {
        "alt_name": "Majestic Bus Station",
        "amenity": "bus_station",
        "bus": "yes",
        "int_name": "BMTC Bus Stand",
        "name": "Kempegowda Bus Station",
        "name:etymology:wikidata": "Q6387049",
        "name:kn": "ಕೆಂಪೇಗೌಡ ಬಸ್ ನಿಲ್ದಾಣ",
        "operator": "BMTC",
        "public_transport": "station",
        "wheelchair": "no",
        "wikidata": "Q15235446",
        "wikimedia_commons": "Category:Kempegowda Bus Station",
        "wikipedia": "en:Kempegowda Bus Station"
      }
    },
    {
      "type": "way",
      "id": 249661874,
      "center": {
        "lat": 12.9894848,
        "lon": 77.5726484
      },
      "tags": {
        "amenity": "fuel",
        "brand": "Hindustan Petroleum",
        "brand:wikidata": "Q1619375",
        "name": "Hindustan Petroleum",
        "name:kn": "ಹಿಂದುಸ್ತಾನ್ ಪೆಟ್ರೋಲಿಯಂ",
        "official_name": "Hindustan Petroleum",
        "operator": "Hindustan Petroleum"
      }
    },
    {
      "type": "way",
      "id": 291266074,
      "center": {
        "lat": 12.9880279,
        "lon": 77.5803274
      },
      "tags": {
        "amenity": "community_centre",
        "landuse": "commercial",
        "name": "Gandhi Bhavan",
        "name:etymology:wikidata": "Q1001",
        "name:kn": "ಗಾಂಧಿ ಭವನ",
        "office": "ngo"
      }
    },
    {
      "type": "way",
      "id": 313828425,
      "center": {
        "lat": 12.988234,
        "lon": 77.5749312
      },
      "tags": {
        "access": "private",
        "leisure": "swimming_pool",
        "name": "Corporation Swimming Pool",
        "name:kn": "ಕಾರ್ಪೊರೆಷನ್ ಈಜುಕೊಳ"
      }
    },
    {
      "type": "way",
      "id": 313828426,
      "center": {
        "lat": 12.9866534,
        "lon": 77.5788086
      },
      "tags": {
        "leisure": "park",
        "name": "Madhav Rao Park",
        "name:etymology:wikidata": "Q6951710",
        "name:kn": "ಮಾಧವ ರಾವ್ ಉದ್ಯಾನವನ"
      }
    },
    {
      "type": "way",
      "id": 335172719,
      "center": {
        "lat": 12.9908973,
        "lon": 77.5788013
      },
      "tags": {
        "amenity": "school",
        "name": "Gandhi Nagar High School",
        "name:kn": "ಗಾಂಧಿನಗರ ಪೌಡಶಾಲೆ"
      }
    },
    {
      "type": "way",
      "id": 346806171,
      "center": {
        "lat": 12.9929755,
        "lon": 77.5813803
      },
      "tags": {
        "amenity": "events_venue",
        "building": "yes",
        "name": "Kalinga"
      }
    },
    {
      "type": "way",
      "id": 347145437,
      "center": {
        "lat": 12.9771917,
        "lon": 77.5761083
      },
      "tags": {
        "addr:city": "Bengaluru",
        "addr:street": "2nd Cross Road",
        "amenity": "bank",
        "atm": "yes",
        "brand": "Central Bank of India",
        "brand:wikidata": "Q2007090",
        "building": "yes",
        "drive_through": "no",
        "name": "Central Bank of India",
        "operator": "Central Bank of India"
      }
    },
    {
      "type": "way",
      "id": 347146270,
      "center": {
        "lat": 12.9761616,
        "lon": 77.5753707
      },
      "tags": {
        "addr:city": "Bengaluru",
        "addr:postcode": "560009",
        "addr:street": "Subedar Chatram Road, Gandhi Nagar",
        "amenity": "cinema",
        "building": "yes",
        "name": "Anupama Theatre"
      }
    },
    {
      "type": "way",
      "id": 347175855,
      "center": {
        "lat": 12.9772161,
        "lon": 77.5768728
      },
      "tags": {
        "building": "yes",
        "name": "Samrudhi Agro Seeds",
        "shop": "agrarian"
      }
    },
    {
      "type": "way",
      "id": 347175871,
      "center": {
        "lat": 12.978694,
        "lon": 77.5744614
      },
      "tags": {
        "addr:city": "Gandhi Nagar, Bangalore",
        "addr:housename": "Near Gandhrava Uapahara",
        "addr:street": "4th Cross",
        "amenity": "hospital",
        "building": "yes",
        "emergency": "no",
        "healthcare": "hospital",
        "name": "Ramakrishna Clinic"
      }
    },
    {
      "type": "way",
      "id": 347176018,
      "center": {
        "lat": 12.9772258,
        "lon": 77.5769877
      },
      "tags": {
        "building": "yes",
        "name": "Karnataka Khadi Bhandaar",
        "shop": "clothes"
      }
    },
    {
      "type": "way",
      "id": 347176084,
      "center": {
        "lat": 12.977223,
        "lon": 77.5765521
      },
      "tags": {
        "building": "yes",
        "name": "Babu Khadi Wear",
        "shop": "clothes"
      }
    },
    {
      "type": "way",
      "id": 347485349,
      "center": {
        "lat": 12.9883152,
        "lon": 77.5726942
      },
      "tags": {
        "amenity": "hospital",
        "building": "commercial",
        "building:levels": "5",
        "name": "Apollo Hospital",
        "name:kn": "ಅಪೋಲೋ ಆಸ್ಪತ್ರೆ"
      }
    },
    {
      "type": "way",
      "id": 348098092,
      "center": {
        "lat": 12.9771074,
        "lon": 77.5792163
      },
      "tags": {
        "amenity": "restaurant",
        "building": "yes",
        "cuisine": "indian",
        "name": "Sōmēśvaram",
        "name:en": "Someshwaram Café",
        "name:es": "Café Sōmēśvaram",
        "name:hi": "सोमेश्वर",
        "name:hi-Latn": "Someśvar",
        "name:kn": "ಸೋಮೇಶ್ವರಂ",
        "name:kn-Latn": "Sōmēśvaram",
        "name:sa": "सोमेश्वर",
        "name:sa-Latn": "Someśvara",
        "name:ur": "سومیشور",
        "name:ur-Latn": "Someśvar"
      }
    },
    {
      "type": "way",
      "id": 348098104,
      "center": {
        "lat": 12.9784686,
        "lon": 77.5807085
      },
      "tags": {
        "addr:city": "Beṅgaḷūru",
        "addr:neighborhood": "Gāndhinagara",
        "addr:postcode": "560009",
        "alt_name:en": "Maha Bodhi Society;Loka Shanti Buddhist Vihara;Loka Shanti Buddhist Monastery",
        "alt_name:es": "Sociedad Mahābodhi",
        "alt_name:fr": "Société Mahābodhi",
        "alt_name:hi": "महाबोधी सॉसाययटी",
        "alt_name:it": "Società Mahābodhi",
        "alt_name:kn": "ಮಹಾಬೋಧಿ ಲೋಕ ಶಾಂತಿ ಬುದ್ಧ ವಿಹಾರ",
        "amenity": "monastery",
        "denomination": "theravada",
        "landuse": "religious",
        "name": "Lōka Śānti Vihāra",
        "name:cbk-zam": "Monasterio Lokasanti",
        "name:ceb": "Monasteryong Lokësënti",
        "name:da": "Lokasanti Kloster",
        "name:de": "Kloster Lokasanti",
        "name:en": "Loka Shanti Buddha Vihara",
        "name:eo": "Monaĥejo Lokasanti",
        "name:es": "Monasterio Lokasanti",
        "name:fr": "Monastère Lokasanti",
        "name:hi": "लोक शान्ती विहार",
        "name:hi-Latn": "Lok Śāntī Vihār",
        "name:hil": "Monasteryo Lokësënti",
        "name:id": "Wihara Lokasanti",
        "name:it": "Monastero Lokasanti",
        "name:kn": "ಲೋಕ ಶಾಂತಿ ವಿಹಾರ",
        "name:krj": "Monasteryo Lokësënti",
        "name:la": "Monastērium Lokasanti",
        "name:ms": "Biara Lokasanti",
        "name:nb": "Lokasanti kloster",
        "name:nn": "Lokasanti kloster",
        "name:pag": "Monasteryon Lokësënti",
        "name:pam": "Monasteriung Lokasanti",
        "name:pi": "𑀮𑁄𑀓𑀲𑀦𑁆𑀢𑀺𑀯𑀺𑀳𑀸𑀭",
        "name:pi-Latn": "Lokasantivihāra",
        "name:pt": "Mosteiro Lokasanti",
        "name:sa": "लोकशान्तिविहार",
        "name:si": "ලොකසන‍්තිවිහාර",
        "name:tl": "Monasteryong Lokësënti",
        "name:ur": "لوک شانتی وہار",
        "name:ur-Latn": "Lok Śāntī Vihār",
        "name:vec": "Monastièr Lokasanti",
        "operator:wikidata": "Q122974374",
        "religion": "buddhist",
        "service_times": "Su Mo Tu We Th Fr Sa 09:00-19:00",
        "short_name:en": "MBS",
        "wikidata": "Q122974263"
      }
    },
    {
      "type": "way",
      "id": 348381097,
      "center": {
        "lat": 12.9884385,
        "lon": 77.5746494
      },
      "tags": {
        "addr:postcode": "560020",
        "amenity": "post_office",
        "building": "yes",
        "name": "Seshadripuram Post Office",
        "name:kn": "ಶೇಶಾದ್ರಿಪುರಂ ಅಂಚೆ ಕಛೇರಿ"
      }
    },
    {
      "type": "way",
      "id": 348539706,
      "center": {
        "lat": 12.9884136,
        "lon": 77.5742764
      },
      "tags": {
        "addr:place": "Seshadripuram",
        "addr:postcode": "560020",
        "addr:street": "Subedar Chatram Road",
        "addr:suburb": "Seshadripuram",
        "amenity": "place_of_worship",
        "building": "yes",
        "name": "Sri Anjaneya Swamy Sannidhi",
        "name:kn": "ಆಂಜನೇಯ ಸ್ವಾಮಿ ಸನ್ನಿಧಿ",
        "religion": "hindu"
      }
    },
    {
      "type": "way",
      "id": 351384825,
      "center": {
        "lat": 12.9801752,
        "lon": 77.5845128
      },
      "tags": {
        "amenity": "theatre",
        "building": "yes",
        "building:part": "yes",
        "height": "10",
        "name": "Kondajji Basappa Auditorium"
      }
    },
    {
      "type": "way",
      "id": 352191252,
      "center": {
        "lat": 12.9854416,
        "lon": 77.5821636
      },
      "tags": {
        "addr:city": "Bangalore",
        "addr:postcode": "560001",
        "addr:street": "Race Course Road (Devaraj Urs Road)",
        "amenity": "college",
        "name": "Karnataka Judicial Academy",
        "name:kn": "ಕರ್ನಾಟಕ ನ್ಯಾಯಾಂಗ ಅಕಾಡೆಮಿ",
        "phone": "+918022382894/96",
        "smoking": "no",
        "website": "https://kjablr.kar.nic.in/node/1/index.html",
        "wheelchair": "yes"
      }
    },
    {
      "type": "way",
      "id": 363454311,
      "center": {
        "lat": 12.9795326,
        "lon": 77.5737218
      },
      "tags": {
        "amenity": "college",
        "name": "Government Ayurvedic Medical College",
        "name:kn": "ಆಯುರ್ವೇದ ವೈದ್ಯಕೀಯ ಕಾಲೇಜು",
        "office": "Sri Jayachamarajendra Government Ayurveda and Unani Hospital",
        "website": "https://gamcb.in/"
      }
    },
    {
      "type": "way",
      "id": 363477537,
      "center": {
        "lat": 12.9849559,
        "lon": 77.585188
      },
      "tags": {
        "access": "customers",
        "leisure": "swimming_pool"
      }
    },
    {
      "type": "way",
      "id": 368591726,
      "center": {
        "lat": 12.9813581,
        "lon": 77.5744666
      },
      "tags": {
        "amenity": "place_of_worship",
        "building": "temple",
        "name": "Shiva Sai Mandhir",
        "name:kn": "ಶಿವ ಸಾಯಿ ಮಂದಿರ",
        "religion": "hindu"
      }
    },
    {
      "type": "way",
      "id": 372019899,
      "center": {
        "lat": 12.9787992,
        "lon": 77.5703246
      },
      "tags": {
        "amenity": "parking",
        "name": "Bike Parking",
        "wheelchair": "no"
      }
    },
    {
      "type": "way",
      "id": 372031014,
      "center": {
        "lat": 12.976757,
        "lon": 77.5739545
      },
      "tags": {
        "amenity": "bus_station",
        "bus": "yes",
        "name": "KSRTC Bus Terminal 1",
        "name:etymology:wikidata": "Q6387049",
        "name:kn": "ಕ ರಾ ರ ಸಾ ನಿ ಬಸ್ ನಿಲ್ದಾಣ ೧",
        "name:ml": "കെംപെഗൗഡ കെഎസ്ആർടിസി ബസ് സ്റ്റേഷൻ",
        "operator": "KSRTC",
        "public_transport": "station",
        "wheelchair": "limited"
      }
    },
    {
      "type": "way",
      "id": 372083753,
      "center": {
        "lat": 12.9817265,
        "lon": 77.5695008
      },
      "tags": {
        "amenity": "motorcycle_parking",
        "parking": "surface"
      }
    },
    {
      "type": "way",
      "id": 373569833,
      "center": {
        "lat": 12.9798937,
        "lon": 77.5713922
      },
      "tags": {
        "leisure": "garden"
      }
    },
    {
      "type": "way",
      "id": 373569834,
      "center": {
        "lat": 12.9800103,
        "lon": 77.5711223
      },
      "tags": {
        "leisure": "garden"
      }
    },
    {
      "type": "way",
      "id": 373569835,
      "center": {
        "lat": 12.9802994,
        "lon": 77.5709084
      },
      "tags": {
        "leisure": "garden"
      }
    },
    {
      "type": "way",
      "id": 403473901,
      "center": {
        "lat": 12.9870893,
        "lon": 77.5850959
      },
      "tags": {
        "leisure": "pitch"
      }
    },
    {
      "type": "way",
      "id": 403473907,
      "center": {
        "lat": 12.9867516,
        "lon": 77.5856698
      },
      "tags": {
        "leisure": "pitch"
      }
    },
    {
      "type": "way",
      "id": 437438963,
      "center": {
        "lat": 12.9915771,
        "lon": 77.5705772
      },
      "tags": {
        "addr:street": "Sampige Road, Malleshwaram",
        "landuse": "retail",
        "name": "Mantri Square",
        "note": "Mall was sealed on 16th March 2024, reopened on 17th March 2024: https://www.deccanherald.com/india/karnataka/bengaluru/mantri-mall-reopens-after-being-sealed-over-tax-dues-2940800",
        "shop": "mall",
        "wheelchair": "yes",
        "wikidata": "Q6752215",
        "wikimedia_commons": "Category:Mantri Square",
        "wikipedia": "en:Mantri Square"
      }
    },
    {
      "type": "way",
      "id": 437538186,
      "center": {
        "lat": 12.9919586,
        "lon": 77.5811238
      },
      "tags": {
        "access": "customers",
        "leisure": "pitch",
        "sport": "tennis"
      }
    },
    {
      "type": "way",
      "id": 437538187,
      "center": {
        "lat": 12.9905743,
        "lon": 77.5833603
      },
      "tags": {
        "access": "private",
        "amenity": "parking",
        "parking": "surface"
      }
    },
    {
      "type": "way",
      "id": 437658830,
      "center": {
        "lat": 12.9822446,
        "lon": 77.5776681
      },
      "tags": {
        "leisure": "track"
      }
    },
    {
      "type": "way",
      "id": 437658831,
      "center": {
        "lat": 12.9829894,
        "lon": 77.5813372
      },
      "tags": {
        "leisure": "track"
      }
    },
    {
      "type": "way",
      "id": 437658832,
      "center": {
        "lat": 12.9822094,
        "lon": 77.5840196
      },
      "tags": {
        "leisure": "pitch"
      }
    },
    {
      "type": "way",
      "id": 437658833,
      "center": {
        "lat": 12.983654,
        "lon": 77.583646
      },
      "tags": {
        "leisure": "pitch"
      }
    },
    {
      "type": "way",
      "id": 437658834,
      "center": {
        "lat": 12.9831333,
        "lon": 77.5794967
      },
      "tags": {
        "leisure": "track"
      }
    },
    {
      "type": "way",
      "id": 775169697,
      "center": {
        "lat": 12.9845932,
        "lon": 77.5843957
      },
      "tags": {
        "leisure": "garden"
      }
    },
    {
      "type": "way",
      "id": 779282869,
      "center": {
        "lat": 12.9840682,
        "lon": 77.578333
      },
      "tags": {
        "leisure": "park"
      }
    },
    {
      "type": "way",
      "id": 779282870,
      "center": {
        "lat": 12.9818346,
        "lon": 77.5757991
      },
      "tags": {
        "addr:city": "Bengaluru",
        "addr:country": "IN",
        "addr:hamlet": "Gandhi Nagar",
        "addr:housenumber": "9",
        "addr:postcode": "560009",
        "addr:street": "Race Course Road",
        "alt_name": "Sri Jagadguru Renukacharya College of Law",
        "amenity": "college",
        "name": "SJR College of Law",
        "website": "https://www.sjrlawcollege.in/"
      }
    },
    {
      "type": "way",
      "id": 781001572,
      "center": {
        "lat": 12.9799458,
        "lon": 77.571939
      },
      "tags": {
        "leisure": "park"
      }
    },
    {
      "type": "way",
      "id": 782014105,
      "center": {
        "lat": 12.9902123,
        "lon": 77.5800977
      },
      "tags": {
        "leisure": "garden"
      }
    },
    {
      "type": "way",
      "id": 782014109,
      "center": {
        "lat": 12.9903468,
        "lon": 77.5818819
      },
      "tags": {
        "leisure": "garden"
      }
    },
    {
      "type": "way",
      "id": 997923996,
      "center": {
        "lat": 12.9863583,
        "lon": 77.5792111
      },
      "tags": {
        "addr:district": "Bengaluru Urban",
        "addr:full": "6/6 Kumarakrupa Road OppositeShivananda Circle , High Grounds",
        "addr:postcode": "560001",
        "addr:state": "Karnataka",
        "amenity": "hospital",
        "name": "Dr. P.R. Desai Hospital Pvt Ltd",
        "source": "OpenGovernmentData"
      }
    },
    {
      "type": "way",
      "id": 1076398554,
      "center": {
        "lat": 12.9805943,
        "lon": 77.5799311
      },
      "tags": {
        "amenity": "fire_station",
        "name": "High Grounds Fire Station",
        "name:kn": "ಹೈಗ್ರೌಂಡ್ಸ್ ಅಗ್ನಿಶಾಮಕ ಠಾಣೆ"
      }
    },
    {
      "type": "way",
      "id": 1081215229,
      "center": {
        "lat": 12.9889353,
        "lon": 77.5740851
      },
      "tags": {
        "leisure": "garden"
      }
    },
    {
      "type": "way",
      "id": 1081215245,
      "center": {
        "lat": 12.9802646,
        "lon": 77.5815071
      },
      "tags": {
        "alt_name": "Karnataka State Prisons Department",
        "amenity": "police",
        "landuse": "commercial",
        "name": "Department of Prisons & Correctional Services",
        "office": "government"
      }
    },
    {
      "type": "way",
      "id": 1113050871,
      "center": {
        "lat": 12.9883214,
        "lon": 77.576245
      },
      "tags": {
        "leisure": "sports_centre",
        "name": "Nehru Sports Club",
        "name:etymology:wikidata": "Q1047",
        "name:kn": "ನೆಹರು ಉದ್ಯಾನವನ"
      }
    },
    {
      "type": "way",
      "id": 1124828967,
      "center": {
        "lat": 12.9847727,
        "lon": 77.5829241
      },
      "tags": {
        "amenity": "police",
        "name": "High Grounds Traffic Police Station"
      }
    },
    {
      "type": "way",
      "id": 1124838493,
      "center": {
        "lat": 12.9873579,
        "lon": 77.5805107
      },
      "tags": {
        "amenity": "school",
        "name": "Bharat Seva Dal",
        "name:kn": "ಭಾರತ ಸೇವಾದಳ",
        "wheelchair": "no"
      }
    },
    {
      "type": "way",
      "id": 1164850489,
      "center": {
        "lat": 12.9893456,
        "lon": 77.5717545
      },
      "tags": {
        "amenity": "fast_food",
        "brand": "Indira Canteen",
        "brand:wikidata": "Q36164828",
        "cuisine": "south_indian",
        "name": "Indira Canteen",
        "operator": "BBMP",
        "takeaway": "yes"
      }
    },
    {
      "type": "way",
      "id": 1164850490,
      "center": {
        "lat": 12.9783895,
        "lon": 77.573356
      },
      "tags": {
        "amenity": "place_of_worship",
        "religion": "hindu"
      }
    },
    {
      "type": "way",
      "id": 1217527429,
      "center": {
        "lat": 12.9892107,
        "lon": 77.5778284
      },
      "tags": {
        "leisure": "playground"
      }
    },
    {
      "type": "way",
      "id": 1228266388,
      "center": {
        "lat": 12.9771704,
        "lon": 77.5729531
      },
      "tags": {
        "amenity": "parking",
        "parking": "surface"
      }
    },
    {
      "type": "way",
      "id": 1238875652,
      "center": {
        "lat": 12.9778985,
        "lon": 77.581233
      },
      "tags": {
        "access": "yes",
        "amenity": "parking",
        "building": "parking",
        "building:levels": "1",
        "building:levels:underground": "3",
        "capacity": "1350",
        "capacity:disabled": "yes",
        "capacity:parent": "yes",
        "capacity:women": "yes",
        "fee": "yes",
        "internet_access": "yes",
        "lit": "yes",
        "name": "Freedom Park MLCP",
        "official_name": "Right Parking",
        "operator": "Right Parking",
        "operator:type": "private",
        "parking": "multi-storey",
        "smoothness": "excellent",
        "start_date": "2024-06-21",
        "supervised": "yes",
        "surveillance": "yes",
        "wheelchair": "yes"
      }
    },
    {
      "type": "way",
      "id": 1238875653,
      "center": {
        "lat": 12.9787357,
        "lon": 77.5809515
      },
      "tags": {
        "addr:city": "Beṅgaḷūru",
        "addr:postcode": "560009",
        "addr:street": "6th Cross",
        "alt_name:en": "Mahābodhi Research Centre;Mahā Bodhī Research Center",
        "amenity": "research_institute",
        "building": "yes",
        "contact:facebook": "mahabodhiresearchcentre",
        "contact:youtube": "@mahabodhiresearchcentreblr",
        "internet_access": "wlan",
        "internet_access:fee": "customers",
        "layer": "-1",
        "name": "MBRC",
        "name:en": "Mahābodhi Research Center",
        "name:es": "Centro de Investigación Mahābodhi",
        "name:pt": "Centro de Investigação Mahābodhi",
        "operator:type": "religious",
        "operator:wikidata": "Q122974374",
        "short_name": "MBRC"
      }
    },
    {
      "type": "way",
      "id": 1238875655,
      "center": {
        "lat": 12.9785522,
        "lon": 77.5807433
      },
      "tags": {
        "addr:city": "Beṅgaḷūru",
        "amenity": "place_of_worship",
        "building": "yes",
        "denomination": "theravada",
        "name": "Dhammasālā",
        "name:en": "Dhamma Hall",
        "name:es": "Sala del Dhamma",
        "name:hi": "धम्म साला",
        "name:hi-Latn": "Dhamm Sālā",
        "name:pi": "𑀥𑀫𑁆𑀫𑀲𑀸𑀮𑀸",
        "name:ur": "دھمّ سالا",
        "operator:wikidata": "Q122974263",
        "religion": "buddhist"
      }
    },
    {
      "type": "way",
      "id": 1292999612,
      "center": {
        "lat": 12.993966,
        "lon": 77.5771632
      },
      "tags": {
        "amenity": "school",
        "name": "Sri Chaitanya Techno School"
      }
    },
    {
      "type": "way",
      "id": 1293978355,
      "center": {
        "lat": 12.9790661,
        "lon": 77.5821806
      },
      "tags": {
        "access": "permissive",
        "amenity": "parking",
        "parking": "surface"
      }
    },
    {
      "type": "way",
      "id": 1293979654,
      "center": {
        "lat": 12.979646,
        "lon": 77.5813946
      },
      "tags": {
        "leisure": "pitch",
        "sport": "tennis"
      }
    },
    {
      "type": "way",
      "id": 1293979656,
      "center": {
        "lat": 12.9792647,
        "lon": 77.5798969
      },
      "tags": {
        "access": "permissive",
        "amenity": "parking",
        "parking": "surface"
      }
    },
    {
      "type": "way",
      "id": 1307641469,
      "center": {
        "lat": 12.979842,
        "lon": 77.5730855
      },
      "tags": {
        "access": "private",
        "amenity": "parking",
        "parking": "surface"
      }
    },
    {
      "type": "way",
      "id": 1309200350,
      "center": {
        "lat": 12.9836454,
        "lon": 77.5737757
      },
      "tags": {
        "leisure": "pitch",
        "sport": "basketball"
      }
    },
    {
      "type": "way",
      "id": 1311251817,
      "center": {
        "lat": 12.9769998,
        "lon": 77.5804362
      },
      "tags": {
        "amenity": "recycling",
        "name": "BBMP Waste Transfer Station",
        "recycling_type": "centre"
      }
    },
    {
      "type": "way",
      "id": 1338331415,
      "center": {
        "lat": 12.9868665,
        "lon": 77.5720624
      },
      "tags": {
        "amenity": "parking"
      }
    },
    {
      "type": "way",
      "id": 1342699279,
      "center": {
        "lat": 12.9919346,
        "lon": 77.582268
      },
      "tags": {
        "access": "customers",
        "amenity": "parking",
        "parking": "street_side"
      }
    },
    {
      "type": "way",
      "id": 1342699280,
      "center": {
        "lat": 12.9922548,
        "lon": 77.5825197
      },
      "tags": {
        "access": "customers",
        "amenity": "parking",
        "parking": "street_side"
      }
    },
    {
      "type": "way",
      "id": 1342699292,
      "center": {
        "lat": 12.9923618,
        "lon": 77.5825112
      },
      "tags": {
        "leisure": "garden"
      }
    },
    {
      "type": "way",
      "id": 1342699293,
      "center": {
        "lat": 12.992018,
        "lon": 77.5824186
      },
      "tags": {
        "leisure": "garden"
      }
    },
    {
      "type": "way",
      "id": 1342976490,
      "center": {
        "lat": 12.9879779,
        "lon": 77.5810303
      },
      "tags": {
        "amenity": "school",
        "name": "Sindhi High School",
        "website": "http://sindhihighschool.org/",
        "wheelchair": "no"
      }
    },
    {
      "type": "way",
      "id": 1342976500,
      "center": {
        "lat": 12.9869669,
        "lon": 77.5763639
      },
      "tags": {
        "leisure": "park"
      }
    },
    {
      "type": "way",
      "id": 1342998608,
      "center": {
        "lat": 12.9920403,
        "lon": 77.5814166
      },
      "tags": {
        "amenity": "shelter",
        "building": "roof",
        "shelter_type": "gazebo"
      }
    },
    {
      "type": "way",
      "id": 1353405520,
      "center": {
        "lat": 12.9790041,
        "lon": 77.5705799
      },
      "tags": {
        "access": "yes",
        "amenity": "parking",
        "fee": "yes",
        "parking": "surface",
        "wheelchair": "yes"
      }
    },
    {
      "type": "way",
      "id": 1353661366,
      "center": {
        "lat": 12.989969,
        "lon": 77.5741628
      },
      "tags": {
        "amenity": "fuel",
        "check_date": "2024-02-11"
      }
    },
    {
      "type": "way",
      "id": 1370045550,
      "center": {
        "lat": 12.9906718,
        "lon": 77.5731946
      },
      "tags": {
        "amenity": "theatre",
        "landuse": "commercial",
        "name": "AV Varadachar Kalakshetra"
      }
    },
    {
      "type": "way",
      "id": 1370045556,
      "center": {
        "lat": 12.990094,
        "lon": 77.5767803
      },
      "tags": {
        "amenity": "place_of_worship",
        "landuse": "religious",
        "religion": "hindu"
      }
    },
    {
      "type": "way",
      "id": 1370045558,
      "center": {
        "lat": 12.990054,
        "lon": 77.5772363
      },
      "tags": {
        "amenity": "events_venue",
        "landuse": "commercial",
        "name": "Badaganadu Sangha Convention Hall"
      }
    },
    {
      "type": "way",
      "id": 1378473536,
      "center": {
        "lat": 12.9802557,
        "lon": 77.5754141
      },
      "tags": {
        "amenity": "shelter",
        "building": "yes",
        "name": "Platform"
      }
    },
    {
      "type": "way",
      "id": 1414191566,
      "center": {
        "lat": 12.9812666,
        "lon": 77.5783712
      },
      "tags": {
        "amenity": "place_of_worship",
        "building": "yes",
        "name": "Munishwara Swamy Sanidhi",
        "religion": "hindu"
      }
    }
  ]
}