{
  "area_name": "Madhavara",
  "osm_id": 503002366,
  "osm_type": "node",
  "place_type": "suburb",
  "amenity_count": 7,
  "amenities": [
    {
      "type": "node",
      "id": 12319830848,
      "lat": 13.0562118,
      "lon": 77.4725926,
      "tags": {
        "amenity": "place_of_worship",
        "religion": "hindu"
      }
    },
    {
      "type": "way",
      "id": 203117252,
      "center": {
        "lat": 13.0565645,
        "lon": 77.4766996
      },
      "tags": {
        "leisure": "garden"
      }
    },
    {
      "type": "way",
      "id": 785273428,
      "center": {
        "lat": 13.0516274,
        "lon": 77.4824028
      },
      "tags": {
        "leisure": "garden"
      }
    },
    {
      "type": "way",
      "id": 785273431,
      "center": {
        "lat": 13.0507482,
        "lon": 77.4832827
      },
      "tags": {
        "addr:district": "Bengaluru Urban",
        "addr:full": "Jindal Nagar Tumkur Road",
        "addr:postcode": "560073",
        "addr:state": "Karnataka",
        "amenity": "hospital",
        "fixme": "Boundaries and Size of polygon",
        "name": "Jindal Naturecure Institute hospital",
        "source": "OpenGovernmentData"
      }
    },
    {
      "type": "way",
      "id": 1280754742,
      "center": {
        "lat": 13.0486696,
        "lon": 77.4723157
      },
      "tags": {
        "leisure": "park"
      }
    },
    {
      "type": "way",
      "id": 1331512487,
      "center": {
        "lat": 13.0563577,
        "lon": 77.4791111
      },
      "tags": {
        "amenity": "school"
      }
    },
    {
      "type": "way",
      "id": 1331849876,
      "center": {
        "lat": 13.0587556,
        "lon": 77.4680913
      },
      "tags": {
        "amenity": "fuel"
      }
    }
  ]
}