{
  "area_name": "Madiwala",
  "osm_id": 19884562,
  "osm_type": "relation",
  "place_type": "administrative",
  "amenity_count": 94,
  "amenities": [
    {
      "type": "node",
      "id": 748866082,
      "lat": 12.9242835,
      "lon": 77.6181188,
      "tags": {
        "amenity": "place_of_worship",
        "check_date": "2024-04-03",
        "name": "Ayyappa Swamy Temple",
        "name:kn": "ಅಯ್ಯಪ್ಪಸ್ವಾಮಿ ದೇವಾಲಯ",
        "religion": "hindu",
        "source": "survey"
      }
    },
    {
      "type": "node",
      "id": 1470516028,
      "lat": 12.9258752,
      "lon": 77.6170606,
      "tags": {
        "addr:street": "Hosur Road",
        "amenity": "restaurant",
        "cuisine": "indian",
        "name": "MAS",
        "name:kn": "ಮಾಸ್"
      }
    },
    {
      "type": "node",
      "id": 1471886877,
      "lat": 12.927128,
      "lon": 77.616183,
      "tags": {
        "name": "Kallada Travels",
        "shop": "travel_agency"
      }
    },
    {
      "type": "node",
      "id": 1471891610,
      "lat": 12.9254095,
      "lon": 77.6173387,
      "tags": {
        "addr:housenumber": "Hosur road",
        "addr:street": "Hosur Road",
        "amenity": "atm",
        "brand": "Federal Bank",
        "brand:wikidata": "Q2044983",
        "name": "Federal Bank",
        "operator": "Federal Bank",
        "operator:wikidata": "Q2044983"
      }
    },
    {
      "type": "node",
      "id": 1472735174,
      "lat": 12.9257842,
      "lon": 77.6170828,
      "tags": {
        "addr:street": "Hosur road",
        "amenity": "hospital",
        "name": "Venkateshwara Hospital",
        "name:kn": "ವೆಂಕಟೆಶ್ವರ ಆಸ್ಪತ್ರೆ",
        "wheelchair": "yes"
      }
    },
    {
      "type": "node",
      "id": 1473082673,
      "lat": 12.9275755,
      "lon": 77.6160908,
      "tags": {
        "addr:housenumber": "15/95",
        "addr:street": "Hosur Road",
        "amenity": "pharmacy",
        "dispensing": "yes",
        "healthcare": "pharmacy",
        "name": "Balaji Medicals",
        "name:kn": "ಬಾಲಾಜಿ ಮೆಡಿಕಲ್"
      }
    },
    {
      "type": "node",
      "id": 1473821768,
      "lat": 12.925908,
      "lon": 77.61691,
      "tags": {
        "addr:street": "Hosur road",
        "name": "Atlas Travels",
        "shop": "travel_agency"
      }
    },
    {
      "type": "node",
      "id": 1474433302,
      "lat": 12.9167831,
      "lon": 77.6184931,
      "tags": {
        "name": "Preethi Bakery & Sweets",
        "shop": "bakery"
      }
    },
    {
      "type": "node",
      "id": 1474433836,
      "lat": 12.9164249,
      "lon": 77.6164112,
      "tags": {
        "amenity": "restaurant",
        "cuisine": "indian",
        "name": "Kataria Home Food",
        "name:kn": "ಕಟಾರಿಯ ಹೋಂ ಫುಡ್"
      }
    },
    {
      "type": "node",
      "id": 1474442618,
      "lat": 12.9256315,
      "lon": 77.6152769,
      "tags": {
        "addr:street": "Maruthi Nagar Main Road",
        "air_conditioning": "no",
        "amenity": "restaurant",
        "diet:vegetarian": "only",
        "indoor_seating": "yes",
        "name": "Shanti Sagar",
        "name:kn": "ಶಾಂತಿ ಸಾಗರ್",
        "outdoor_seating": "no",
        "smoking": "no"
      }
    },
    {
      "type": "node",
      "id": 1837440175,
      "lat": 12.9169487,
      "lon": 77.6194004,
      "tags": {
        "amenity": "college",
        "name": "Alliance Business School Admin Office"
      }
    },
    {
      "type": "node",
      "id": 2115432127,
      "lat": 12.9222964,
      "lon": 77.6194432,
      "tags": {
        "amenity": "place_of_worship",
        "name": "Anjaneya Temple",
        "name:kn": "ಆಂಜನೇಯ ದೇವಸ್ಥಾನ",
        "religion": "hindu"
      }
    },
    {
      "type": "node",
      "id": 3024935599,
      "lat": 12.9166304,
      "lon": 77.6147547,
      "tags": {
        "amenity": "bank",
        "atm": "no",
        "brand": "State Bank of India",
        "brand:wikidata": "Q1340361",
        "brand:wikipedia": "en:State Bank of India",
        "name": "State Bank of India",
        "name:kn": "ಭಾರತೀಯ ಸ್ಟೇಟ್ ಬ್ಯಾಂಕ್",
        "operator": "State Bank of India",
        "short_name": "SBI",
        "source": "survey"
      }
    },
    {
      "type": "node",
      "id": 3024935601,
      "lat": 12.9165155,
      "lon": 77.6162625,
      "tags": {
        "amenity": "atm",
        "brand": "IDBI Bank",
        "brand:wikidata": "Q3633485",
        "operator": "IDBI Bank",
        "operator:wikidata": "Q3633485",
        "short_name": "IDBI"
      }
    },
    {
      "type": "node",
      "id": 3024935602,
      "lat": 12.9166044,
      "lon": 77.6148886,
      "tags": {
        "amenity": "atm",
        "brand": "Karur Vysya Bank",
        "brand:wikidata": "Q6373724",
        "check_date": "2023-12-04",
        "operator": "Karur Vysya Bank",
        "operator:wikidata": "Q6373724",
        "source": "survey"
      }
    },
    {
      "type": "node",
      "id": 3671375187,
      "lat": 12.919533,
      "lon": 77.6128458,
      "tags": {
        "amenity": "bar",
        "name": "Gangothri Bar"
      }
    },
    {
      "type": "node",
      "id": 3702280940,
      "lat": 12.9175685,
      "lon": 77.6143926,
      "tags": {
        "amenity": "college",
        "check_date": "2025-08-16",
        "name": "Iqra International School, Bangalore"
      }
    },
    {
      "type": "node",
      "id": 4441888253,
      "lat": 12.9263384,
      "lon": 77.6168571,
      "tags": {
        "addr:city": "Bangalore",
        "addr:postcode": "560068",
        "addr:street": "Hosur Rd, Zuzuvadi, Madiwala, 1st Stage, BTM Layout",
        "amenity": "pharmacy",
        "name": "Trust Chemists & Druggists Ltd",
        "phone": "+91-80 2563 0022",
        "website": "https://www.trustpharmacy.co.in/"
      }
    },
    {
      "type": "node",
      "id": 4441961605,
      "lat": 12.9194712,
      "lon": 77.6130111,
      "tags": {
        "addr:city": "Bangaluru",
        "addr:district": "Bengaluru Urban",
        "addr:full": "No. 23/24, Om Complex, 20th Main, Gangothri Circle B.T.M. 1st Stage, Bangalore",
        "addr:housenumber": "2324",
        "addr:postcode": "560029",
        "addr:state": "Karnataka",
        "addr:street": "Om Complex, 20th Main, Gangotri Circle, BTM Layout, Madiwala",
        "amenity": "hospital",
        "name": "Life Care Hospital",
        "phone": "+91-80 2684 6677",
        "source": "OpenGovernmentData",
        "website": "https://lifecarehosp.com/"
      }
    },
    {
      "type": "node",
      "id": 4446924573,
      "lat": 12.9242825,
      "lon": 77.6170883,
      "tags": {
        "addr:city": "Bangalore",
        "addr:housenumber": "#1478/1",
        "addr:postcode": "560029",
        "addr:street": "Hosur Road, Madiwala, Venkateshwara Layout, Sadduguntepalya",
        "amenity": "hospital",
        "emergency": "yes",
        "healthcare": "hospital",
        "name": "Surya Diagnostics and Health Services",
        "phone": "080 2552 6667",
        "source": "http://www.bangalorean.co.in/"
      }
    },
    {
      "type": "node",
      "id": 4487228564,
      "lat": 12.9268233,
      "lon": 77.6164922,
      "tags": {
        "addr:city": "Bangalore",
        "addr:housenumber": "2nd Floor, S V R Complex 89",
        "addr:postcode": "560068",
        "addr:street": "Hosur Road",
        "brand": "Puma",
        "brand:wikidata": "Q157064",
        "name": "Puma",
        "name:kn": "ಪೂಮ ಸ್ಟೋರ್",
        "phone": "094003 77812",
        "shop": "clothes",
        "website": "https://in.puma.com/"
      }
    },
    {
      "type": "node",
      "id": 4487963577,
      "lat": 12.9220015,
      "lon": 77.6193966,
      "tags": {
        "addr:city": "Bangalore",
        "addr:housenumber": "69/1",
        "addr:postcode": "560068",
        "addr:street": "HOSUR MAIN ROAD",
        "name": "R R International Bikes",
        "opening_hours": "11:00-20:00",
        "phone": "080 4128 0307",
        "shop": "sports"
      }
    },
    {
      "type": "node",
      "id": 4488094274,
      "lat": 12.9189208,
      "lon": 77.6165159,
      "tags": {
        "addr:city": "bangalore",
        "addr:housenumber": "10/2",
        "addr:postcode": "560078",
        "addr:street": "1st Floor, 24th Main Road, Sarakki Village, J.P Nagar 6th Phase, Opp. Crystal Castle Hotel",
        "name": "The Sport Mall",
        "opening_hours": "11:00-21:00",
        "phone": "080 4171 3131",
        "shop": "sports"
      }
    },
    {
      "type": "node",
      "id": 4488098708,
      "lat": 12.9187325,
      "lon": 77.6164166,
      "tags": {
        "addr:city": "bangalore",
        "addr:housenumber": "9",
        "addr:postcode": "560078",
        "addr:street": "31st Main Rd, Hosur Rd, 4th Phase,, Bommasandra Industrial Area Sub Layout,, J P Nagar",
        "name": "The Sport Mall",
        "opening_hours": "11:30-21:00",
        "phone": "080 2783 9161",
        "shop": "sports"
      }
    },
    {
      "type": "node",
      "id": 4489714047,
      "lat": 12.9193503,
      "lon": 77.6158536,
      "tags": {
        "addr:city": "bangalore",
        "addr:housenumber": "152",
        "addr:postcode": "560078",
        "addr:street": "btm layout",
        "name": "Allday Supermarket",
        "phone": "(91)-80-42332422",
        "shop": "supermarket"
      }
    },
    {
      "type": "node",
      "id": 4489723447,
      "lat": 12.9228872,
      "lon": 77.6174916,
      "tags": {
        "addr:city": "Bangalore",
        "addr:housenumber": "15/2-1",
        "addr:postcode": "560068",
        "addr:street": "Hosur Road",
        "name": "Pick N Save The Wholesale Market",
        "phone": "(91)-9738439315",
        "shop": "supermarket"
      }
    },
    {
      "type": "node",
      "id": 4691599027,
      "lat": 12.9244236,
      "lon": 77.6180355,
      "tags": {
        "access": "yes",
        "amenity": "toilets",
        "changing_table": "no",
        "fee": "yes"
      }
    },
    {
      "type": "node",
      "id": 4691599028,
      "lat": 12.9236536,
      "lon": 77.6184482,
      "tags": {
        "amenity": "restaurant"
      }
    },
    {
      "type": "node",
      "id": 5349525423,
      "lat": 12.9272982,
      "lon": 77.6162285,
      "tags": {
        "name": "A1 Travels",
        "shop": "travel_agency"
      }
    },
    {
      "type": "node",
      "id": 5349525424,
      "lat": 12.9272747,
      "lon": 77.6161823,
      "tags": {
        "name": "Sleigh Travels",
        "shop": "travel_agency"
      }
    },
    {
      "type": "node",
      "id": 5349525426,
      "lat": 12.9273803,
      "lon": 77.6162014,
      "tags": {
        "amenity": "pharmacy",
        "name": "Kottakkal Aruna Vaidya Sala"
      }
    },
    {
      "type": "node",
      "id": 5349548321,
      "lat": 12.9272874,
      "lon": 77.6162004,
      "tags": {
        "name": "SRS Travels",
        "shop": "travel_agency"
      }
    },
    {
      "type": "node",
      "id": 5350089622,
      "lat": 12.9275651,
      "lon": 77.6161044,
      "tags": {
        "name": "Universal Tours and Travels",
        "shop": "travel_agency"
      }
    },
    {
      "type": "node",
      "id": 5350092822,
      "lat": 12.9272402,
      "lon": 77.6162757,
      "tags": {
        "amenity": "bar",
        "name": "Invitation Restaurant and Bar"
      }
    },
    {
      "type": "node",
      "id": 5350114421,
      "lat": 12.9273422,
      "lon": 77.6162245,
      "tags": {
        "name": "RP Wines",
        "shop": "wine"
      }
    },
    {
      "type": "node",
      "id": 5350114521,
      "lat": 12.9273813,
      "lon": 77.6161773,
      "tags": {
        "name": "KBS Travels",
        "shop": "travel_agency"
      }
    },
    {
      "type": "node",
      "id": 5350114522,
      "lat": 12.9273334,
      "lon": 77.6161904,
      "tags": {
        "name": "KPN Travels",
        "shop": "travel_agency"
      }
    },
    {
      "type": "node",
      "id": 5350114523,
      "lat": 12.9274733,
      "lon": 77.6161422,
      "tags": {
        "name": "Kalpana Travels",
        "shop": "travel_agency"
      }
    },
    {
      "type": "node",
      "id": 5350114524,
      "lat": 12.9274618,
      "lon": 77.6160372,
      "tags": {
        "name": "Sanchethi Jewellers and Bankers",
        "shop": "jewelry"
      }
    },
    {
      "type": "node",
      "id": 6347011498,
      "lat": 12.9191035,
      "lon": 77.6147674,
      "tags": {
        "amenity": "school",
        "isced:level": "2",
        "name": "Budda HPS BTM layout",
        "name:kn": "ಬುದ್ಧ ಹಿರಿಯ ಪ್ರಾಥಮಿಕ ಶಾಲೆ ಬಿಟಿಎಂ ಲೇಔಟ್",
        "operator": "Department of Primary and Secondary Education",
        "operator:type": "government",
        "operator:wikidata": "Q111467381",
        "school": "primary"
      }
    },
    {
      "type": "node",
      "id": 6349007390,
      "lat": 12.9221808,
      "lon": 77.619154,
      "tags": {
        "addr:place": "Madivala",
        "amenity": "school",
        "isced:level": "2",
        "name": "GUHPS Madivala",
        "name:kn": "ಸರ್ಕಾರಿ ಉರ್ದು ಹಿರಿಯ ಪ್ರಾಥಮಿಕ ಶಾಲೆ ಮಡಿವಾಳ",
        "operator": "Department of Primary and Secondary Education",
        "operator:type": "government",
        "operator:wikidata": "Q111467381",
        "school": "primary"
      }
    },
    {
      "type": "node",
      "id": 6408920610,
      "lat": 12.9190975,
      "lon": 77.6148608,
      "tags": {
        "addr:place": "BTM Layout",
        "amenity": "school",
        "isced:level": "3",
        "name": "Jnanadegula HPS, B T M Layout W No 65",
        "name:kn": "ಜ್ಞಾನದೇಗುಲ ಹಿರಿಯ ಪ್ರಾಥಮಿಕ ಶಾಲೆ ,ಬಿ.ಟಿ.ಎಂ ಲೇಔಟ್",
        "operator": "Private Un-Aided",
        "school": "Higher Secondary"
      }
    },
    {
      "type": "node",
      "id": 6534631815,
      "lat": 12.9245257,
      "lon": 77.6180091,
      "tags": {
        "addr:street": "Hosur Road",
        "amenity": "atm",
        "brand": "Citibank",
        "brand:wikidata": "Q857063",
        "cash_in": "no",
        "name": "Citibank",
        "name:kn": "ಸಿಟಿಬ್ಯಾಂಕ್",
        "operator": "Citibank",
        "operator:wikidata": "Q857063",
        "short_name": "Citi"
      }
    },
    {
      "type": "node",
      "id": 6536815092,
      "lat": 12.9207827,
      "lon": 77.6197807,
      "tags": {
        "addr:place": "Madivala",
        "amenity": "school",
        "isced:level": "3",
        "name": "Kaveri Convent HPS Madivala",
        "name:kn": "ಕಾವೇರಿ ಕಾನ್ವೆಂಟ್ ಹಿರಿಯ ಪ್ರಾಥಮಿಕ ಶಾಲೆ ಮಡಿವಾಳ",
        "operator": "Private Un-Aided",
        "school": "Higher Secondary"
      }
    },
    {
      "type": "node",
      "id": 6536892723,
      "lat": 12.9196074,
      "lon": 77.6149457,
      "tags": {
        "addr:place": "Madiwala",
        "amenity": "school",
        "isced:level": "3",
        "name": "New Oxford HPS Jaibhimanagar, Madiwala",
        "name:kn": "ನ್ಯೂಆಕ್ಸ್ಫರ್ಡ್ ಹಿರಿಯ ಪ್ರಾಥಮಿಕ ಶಾಲೆ ಜೈಭಿಮನಗರ, ಮಡಿವಾಳ",
        "operator": "Private Un-Aided",
        "school": "Higher Secondary"
      }
    },
    {
      "type": "node",
      "id": 6536936978,
      "lat": 12.9233791,
      "lon": 77.618714,
      "tags": {
        "addr:place": "Madivala",
        "amenity": "school",
        "isced:level": "3",
        "name": "Khalsa Public LPS Madivala",
        "name:kn": "ಖಾಲ್ಸ ಪಬ್ಲಿಕ್ ಕಿರಿಯ ಪ್ರಾಥಮಿಕ ಶಾಲೆ ಮಡಿವಾಳ",
        "operator": "Private Un-Aided",
        "school": "Higher Secondary"
      }
    },
    {
      "type": "node",
      "id": 6536947501,
      "lat": 12.9203588,
      "lon": 77.6173047,
      "tags": {
        "addr:place": "Madivala",
        "amenity": "school",
        "isced:level": "3",
        "name": "New Christ Convent HPS Madival",
        "name:kn": "ನ್ಯೂ ಕ್ರೈಸ್ಟ್ ಕಾನ್ವೆಂಟ್ ಹಿರಿಯ ಪ್ರಾಥಮಿಕ ಶಾಲೆ ಮಡಿವಾಳ,",
        "operator": "Private Un-Aided",
        "school": "Higher Secondary"
      }
    },
    {
      "type": "node",
      "id": 6702462302,
      "lat": 12.9210876,
      "lon": 77.6188414,
      "tags": {
        "addr:place": "Madiwala",
        "amenity": "school",
        "isced:level": "3",
        "name": "Krupanidhi HS",
        "name:kn": "ಕೃಪಾನಿಧಿ ಪ್ರೌಢಶಾಲೆ,ಮಡಿವಾಳ",
        "operator": "Private Un-Aided",
        "school": "Higher Secondary"
      }
    },
    {
      "type": "node",
      "id": 6702757188,
      "lat": 12.9245862,
      "lon": 77.6150716,
      "tags": {
        "addr:place": "Madiwala",
        "amenity": "school",
        "isced:level": "3",
        "name": "RS Madivala School",
        "name:kn": "ಆರ್.ಎಸ್. ಮಡಿವಾಳ",
        "operator": "Private -Aided",
        "school": "Higher Secondary"
      }
    },
    {
      "type": "node",
      "id": 6938758526,
      "lat": 12.926471,
      "lon": 77.6167399,
      "tags": {
        "addr:district": "Bengaluru Urban",
        "addr:full": "#86 Hosur Main Road, Madivala",
        "addr:postcode": "560068",
        "addr:state": "Karnataka",
        "amenity": "hospital",
        "name": "Sri Venkateshwara Hospitals",
        "operator:type": "private",
        "source": "OpenGovernmentData",
        "website": "http://dpal.kar.nic.in/Kanunu%20padakosha%20PDF%20Files/Recognised%20Hospitals.pdf"
      }
    },
    {
      "type": "node",
      "id": 6938790393,
      "lat": 12.924624,
      "lon": 77.6170966,
      "tags": {
        "addr:district": "Bengaluru Rural",
        "addr:full": "No. 38/2, 2nd Main Road, Madiwala New Extension",
        "addr:postcode": "560068",
        "addr:state": "Karnataka",
        "amenity": "hospital",
        "name": "Varalakshmi Hospital",
        "name:kn": "ವರಲಕ್ಷ್ಮಿ ಆಸ್ಪತ್ರೆ",
        "source": "OpenGovernmentData"
      }
    },
    {
      "type": "node",
      "id": 6944161560,
      "lat": 12.9273667,
      "lon": 77.6160046,
      "tags": {
        "addr:district": "Bengaluru Rural",
        "addr:full": "Maruthi Nagar, 1st Main, Madiwala",
        "addr:postcode": "560068",
        "addr:state": "Karnataka",
        "amenity": "clinic",
        "name": "City Clinic",
        "source": "OpenGovernmentData"
      }
    },
    {
      "type": "node",
      "id": 6948201258,
      "lat": 12.9208307,
      "lon": 77.6201778,
      "tags": {
        "addr:district": "Bengaluru Rural",
        "addr:full": "321/2A, Hosur Road, Madiwala, Opposite Madiwala Police Station",
        "addr:postcode": "560068",
        "addr:state": "Karnataka",
        "amenity": "clinic",
        "name": "S.M.S. Nursing Home",
        "source": "OpenGovernmentData"
      }
    },
    {
      "type": "node",
      "id": 7164319496,
      "lat": 12.9209511,
      "lon": 77.620137,
      "tags": {
        "amenity": "restaurant",
        "check_date": "2024-08-29",
        "indoor_seating": "yes",
        "name": "Mayur Andra Style Restaraunt",
        "outdoor_seating": "no",
        "source": "survey"
      }
    },
    {
      "type": "node",
      "id": 7294299976,
      "lat": 12.9220738,
      "lon": 77.6195025,
      "tags": {
        "amenity": "bank",
        "atm": "yes",
        "brand": "HDFC Bank",
        "brand:wikidata": "Q631047",
        "name": "HDFC Bank",
        "operator": "HDFC Bank",
        "short_name": "HDFC"
      }
    },
    {
      "type": "node",
      "id": 7514681681,
      "lat": 12.9240924,
      "lon": 77.6177848,
      "tags": {
        "addr:city": "Bengaluru",
        "addr:postcode": "560068",
        "amenity": "hospital",
        "healthcare": "hospital",
        "name": "Chamundi Hi Tech Hospital"
      }
    },
    {
      "type": "node",
      "id": 7579924716,
      "lat": 12.9172038,
      "lon": 77.6149488,
      "tags": {
        "addr:district": "Bengaluru Urban",
        "addr:full": "BTM, Bengaluru",
        "addr:postcode": "560068",
        "addr:state": "Karnataka",
        "amenity": "clinic",
        "name": "Vitiligo Clinic",
        "source": "Local Knowledge"
      }
    },
    {
      "type": "node",
      "id": 10688121233,
      "lat": 12.9263325,
      "lon": 77.6168052,
      "tags": {
        "amenity": "atm",
        "brand": "Citibank",
        "brand:wikidata": "Q857063",
        "check_date": "2023-06-30",
        "name": "Citibank",
        "operator": "Citibank",
        "operator:wikidata": "Q857063",
        "short_name": "Citi"
      }
    },
    {
      "type": "node",
      "id": 10688121234,
      "lat": 12.9263464,
      "lon": 77.6167941,
      "tags": {
        "amenity": "atm",
        "brand": "Federal Bank",
        "brand:wikidata": "Q2044983",
        "check_date": "2023-06-30",
        "name": "Federal Bank",
        "operator": "Federal Bank",
        "operator:wikidata": "Q2044983"
      }
    },
    {
      "type": "node",
      "id": 11164777497,
      "lat": 12.9165851,
      "lon": 77.6195826,
      "tags": {
        "amenity": "bank",
        "brand": "Axis Bank",
        "brand:wikidata": "Q2003549",
        "check_date": "2023-12-04",
        "name": "Axis Bank",
        "name:kn": "ಆಕ್ಸಿಸ್ ಬ್ಯಾಂಕ್"
      }
    },
    {
      "type": "node",
      "id": 11393299744,
      "lat": 12.9166127,
      "lon": 77.6150722,
      "tags": {
        "amenity": "bank",
        "brand": "Bank of Baroda",
        "brand:wikidata": "Q2003797",
        "check_date": "2023-12-04",
        "name": "Bank of Baroda",
        "name:kn": "ಬ್ಯಾಂಕ್ ಆಫ್ ಬರೋಡ"
      }
    },
    {
      "type": "node",
      "id": 11393299745,
      "lat": 12.9166989,
      "lon": 77.6150867,
      "tags": {
        "amenity": "fast_food",
        "check_date": "2025-08-15",
        "diet:vegetarian": "yes",
        "name": "Shri Vishnu Park Veg"
      }
    },
    {
      "type": "node",
      "id": 11393376512,
      "lat": 12.9164133,
      "lon": 77.6166166,
      "tags": {
        "amenity": "fast_food",
        "check_date": "2023-12-04",
        "name": "Muthanna Military Hotel"
      }
    },
    {
      "type": "node",
      "id": 11395345931,
      "lat": 12.9164103,
      "lon": 77.6165179,
      "tags": {
        "check_date": "2023-12-05",
        "name": "ZN Hardware Solutions",
        "shop": "paint"
      }
    },
    {
      "type": "node",
      "id": 11395345932,
      "lat": 12.9164076,
      "lon": 77.6167809,
      "tags": {
        "check_date": "2023-12-05",
        "shop": "hardware"
      }
    },
    {
      "type": "node",
      "id": 11395407771,
      "lat": 12.9164764,
      "lon": 77.6175785,
      "tags": {
        "check_date": "2023-12-05",
        "name": "Sri Lakshmi Bakery",
        "shop": "kiosk"
      }
    },
    {
      "type": "node",
      "id": 11395407772,
      "lat": 12.9164639,
      "lon": 77.6175375,
      "tags": {
        "check_date": "2023-12-05",
        "name": "Balaji Helmet Shop",
        "shop": "kiosk"
      }
    },
    {
      "type": "node",
      "id": 12144440751,
      "lat": 12.920774,
      "lon": 77.6201642,
      "tags": {
        "amenity": "restaurant",
        "check_date": "2024-08-29",
        "indoor_seating": "yes",
        "name": "Nahdi Mandi",
        "outdoor_seating": "no",
        "source": "survey"
      }
    },
    {
      "type": "node",
      "id": 12285338812,
      "lat": 12.9239614,
      "lon": 77.618357,
      "tags": {
        "amenity": "pharmacy",
        "check_date": "2024-10-23",
        "healthcare": "pharmacy"
      }
    },
    {
      "type": "node",
      "id": 12285338813,
      "lat": 12.9221005,
      "lon": 77.6194529,
      "tags": {
        "amenity": "atm",
        "brand": "HDFC Bank",
        "brand:wikidata": "Q631047",
        "check_date": "2024-10-23",
        "operator": "HDFC Bank",
        "operator:wikidata": "Q631047",
        "short_name": "HDFC"
      }
    },
    {
      "type": "node",
      "id": 12553304870,
      "lat": 12.9258553,
      "lon": 77.6170186,
      "tags": {
        "addr:city": "Bengaluru",
        "addr:district": "Bengaluru Urban",
        "addr:full": "1st floor Hosur main road, 1stage, next to bajaj showroom, near ayyappa temple, Madiwala, BTM Layout",
        "addr:postcode": "560068",
        "addr:street": "Hosur Road",
        "beauty": "spa;massage",
        "name": "Nirmaya Spa in Madiwala",
        "opening_hours": "Mo-Su 11:00-21:00",
        "operator": "Mr. Bibin",
        "phone": "082175 90197",
        "shop": "beauty",
        "website": "https://nirmayaspa.com/"
      }
    },
    {
      "type": "node",
      "id": 12850046728,
      "lat": 12.9172785,
      "lon": 77.6179532,
      "tags": {
        "amenity": "place_of_worship",
        "religion": "hindu"
      }
    },
    {
      "type": "node",
      "id": 13070296261,
      "lat": 12.9166047,
      "lon": 77.620558,
      "tags": {
        "access": "yes",
        "amenity": "motorcycle_parking",
        "capacity": "230",
        "fee": "yes",
        "name": "Silk Board Metro Parking",
        "operator": "BMRCL",
        "parking": "surface"
      }
    },
    {
      "type": "node",
      "id": 13073507657,
      "lat": 12.9196199,
      "lon": 77.6122602,
      "tags": {
        "check_date": "2025-08-16",
        "name": "Enhance Salon",
        "shop": "hairdresser"
      }
    },
    {
      "type": "node",
      "id": 13073507658,
      "lat": 12.9196021,
      "lon": 77.6130587,
      "tags": {
        "amenity": "restaurant",
        "check_date": "2025-08-16",
        "description": "Udupi",
        "diet:vegetarian": "yes",
        "name": "Udupi Sagar"
      }
    },
    {
      "type": "node",
      "id": 13073507659,
      "lat": 12.9195742,
      "lon": 77.6134319,
      "tags": {
        "amenity": "fixme",
        "check_date": "2025-08-16",
        "description": "Timings: 3am to 10pm, Friday 9am to 12:30pm, 3pm to 10pm. Both retail and wholesale.",
        "fixme": "type",
        "fixme:type": "eggs wholesale",
        "name": "Star Egg Center"
      }
    },
    {
      "type": "node",
      "id": 13073507660,
      "lat": 12.919519,
      "lon": 77.6142831,
      "tags": {
        "amenity": "restaurant",
        "check_date": "2025-08-16",
        "name": "Sanju's Kitchen",
        "phone": "+91 86605 67052"
      }
    },
    {
      "type": "node",
      "id": 13073519034,
      "lat": 12.9181002,
      "lon": 77.6142768,
      "tags": {
        "check_date": "2025-08-16",
        "name": "Smart Cart Mobiles",
        "shop": "mobile_phone"
      }
    },
    {
      "type": "node",
      "id": 13073519035,
      "lat": 12.9180198,
      "lon": 77.6143295,
      "tags": {
        "amenity": "fast_food",
        "check_date": "2025-08-16",
        "cuisine": "juice",
        "name": "JK Lasso And Juice Center"
      }
    },
    {
      "type": "node",
      "id": 13073519036,
      "lat": 12.9178765,
      "lon": 77.6143215,
      "tags": {
        "check_date": "2025-08-16",
        "name": "Renuka Medicines And General stores",
        "phone": "+91 99450 24244",
        "shop": "chemist"
      }
    },
    {
      "type": "node",
      "id": 13073520869,
      "lat": 12.9171957,
      "lon": 77.6144128,
      "tags": {
        "check_date": "2025-08-16",
        "name": "Instakart",
        "shop": "supermarket"
      }
    },
    {
      "type": "node",
      "id": 13316687535,
      "lat": 12.9239053,
      "lon": 77.6183201,
      "tags": {
        "name": "Shoba super market",
        "shop": "supermarket"
      }
    },
    {
      "type": "way",
      "id": 201072740,
      "center": {
        "lat": 12.91675,
        "lon": 77.6192237
      },
      "tags": {
        "leisure": "park",
        "name": "Daniel Park"
      }
    },
    {
      "type": "way",
      "id": 323458335,
      "center": {
        "lat": 12.9246934,
        "lon": 77.6178048
      },
      "tags": {
        "leisure": "park",
        "name": "Madiwala Park"
      }
    },
    {
      "type": "way",
      "id": 323696995,
      "center": {
        "lat": 12.9204015,
        "lon": 77.6201286
      },
      "tags": {
        "amenity": "place_of_worship",
        "landuse": "religious",
        "name": "Jamia Masjid",
        "name:kn": "ಜಮ ಮಸೀದಿ",
        "religion": "muslim"
      }
    },
    {
      "type": "way",
      "id": 323696996,
      "center": {
        "lat": 12.920503,
        "lon": 77.6201341
      },
      "tags": {
        "addr:city": "Bengaluru",
        "addr:postcode": "560068",
        "amenity": "place_of_worship",
        "building": "yes",
        "name": "Jamia Masjid",
        "name:kn": "ಜಮ ಮಸ್ಜಿದ್",
        "name:ur": "جامعہ مسجد",
        "religion": "muslim"
      }
    },
    {
      "type": "way",
      "id": 347483429,
      "center": {
        "lat": 12.9242209,
        "lon": 77.6180856
      },
      "tags": {
        "addr:city": "Bengaluru",
        "addr:postcode": "560068",
        "addr:street": "Hosur Road",
        "amenity": "place_of_worship",
        "building": "yes",
        "name": "Ayyapa Swamy Temple",
        "name:kn": "ಅಯ್ಯಪ್ಪಸ್ವಾಮಿ ದೇವಾಲಯ",
        "religion": "hindu"
      }
    },
    {
      "type": "way",
      "id": 349699764,
      "center": {
        "lat": 12.9209466,
        "lon": 77.6178513
      },
      "tags": {
        "amenity": "cinema",
        "building": "yes",
        "name": "Sandhya",
        "name:kn": "ಸಂಧ್ಯಾ"
      }
    },
    {
      "type": "way",
      "id": 692207409,
      "center": {
        "lat": 12.9166239,
        "lon": 77.6199309
      },
      "tags": {
        "amenity": "fuel",
        "brand": "Indian Oil",
        "brand:wikidata": "Q1289348",
        "compressed_air": "yes",
        "name": "Indian Oil",
        "name:kn": "ಇಂಡಿಯನ್ ಆಯಿಲ್"
      }
    },
    {
      "type": "way",
      "id": 803346374,
      "center": {
        "lat": 12.9247437,
        "lon": 77.6173648
      },
      "tags": {
        "addr:city": "Bengaluru",
        "addr:district": "Bengaluru Urban",
        "addr:postcode": "560068",
        "addr:street": "Somasundarapalaya, HSR layout Sector 2, 1st Stage, BTM Layout",
        "amenity": "fast_food",
        "brand": "Indira Canteen",
        "brand:wikidata": "Q36164828",
        "building": "yes",
        "cuisine": "south_indian",
        "name": "Indira Canteen",
        "opening_hours": "Mo-Su 07:30-09:00,01:00-02:30",
        "operator": "BBMP",
        "takeaway": "yes"
      }
    },
    {
      "type": "way",
      "id": 803346375,
      "center": {
        "lat": 12.9248093,
        "lon": 77.6174924
      },
      "tags": {
        "addr:city": "Bengaluru",
        "addr:postcode": "560068",
        "amenity": "veterinary",
        "building": "yes",
        "name": "Government Veterinary Hospital",
        "name:kn": "ಸರ್ಕಾರಿ ಪಶುವೈದ್ಯ ಆಸ್ಪತ್ರೆ"
      }
    },
    {
      "type": "way",
      "id": 1262069425,
      "center": {
        "lat": 12.9180909,
        "lon": 77.6184638
      },
      "tags": {
        "amenity": "place_of_worship",
        "landuse": "religious",
        "religion": "hindu"
      }
    },
    {
      "type": "way",
      "id": 1294934456,
      "center": {
        "lat": 12.9172271,
        "lon": 77.6159165
      },
      "tags": {
        "amenity": "parking"
      }
    },
    {
      "type": "way",
      "id": 1422674076,
      "center": {
        "lat": 12.9168008,
        "lon": 77.619929
      },
      "tags": {
        "addr:place": "BTM Layout",
        "alt_name": "Mira's High School",
        "amenity": "school",
        "check_date": "2023-12-05",
        "isced:level": "3",
        "name": "St. Mira's School",
        "name:kn": "ಸೆಂಟ್‌ ಮಿರ್ಸ್ ಪ್ರೌಢಶಾಲೆ,ಬಿ.ಟಿ.ಎಂ ಲೇಔಟ್",
        "operator": "Private Un-Aided",
        "school": "Higher Secondary"
      }
    }
  ]
}