{
  "area_name": "Mamulpete",
  "osm_id": 4209420893,
  "osm_type": "node",
  "place_type": "neighbourhood",
  "amenity_count": 549,
  "amenities": [
    {
      "type": "node",
      "id": 314705276,
      "lat": 12.9741824,
      "lon": 77.5753745,
      "tags": {
        "amenity": "restaurant",
        "name": "Sukh Sagar",
        "name:kn": "ಸುಖ್ ಸಾಗರ"
      }
    },
    {
      "type": "node",
      "id": 429697569,
      "lat": 12.9760075,
      "lon": 77.5763577,
      "tags": {
        "amenity": "restaurant",
        "name": "Anand Sagar Punjabi Dhaba",
        "name:kn": "ಆನಂದ್ ಸಾಗರ್ ಪಂಜಾಬಿ ಡಾಬಾ"
      }
    },
    {
      "type": "node",
      "id": 429698093,
      "lat": 12.9766767,
      "lon": 77.5766838,
      "tags": {
        "amenity": "theatre",
        "name": "Gubbi Veerana Nataka",
        "name:kn": "ಗುಬ್ಬಿ ವೀರಣ್ಣ ನಾಟಕ"
      }
    },
    {
      "type": "node",
      "id": 456214138,
      "lat": 12.9730205,
      "lon": 77.5804826,
      "tags": {
        "amenity": "bank",
        "atm": "yes",
        "brand": "State Bank of India",
        "brand:wikidata": "Q1340361",
        "brand:wikipedia": "en:State Bank of India",
        "name": "State Bank of India",
        "name:kn": "ಎಸ್ ಬಿ ಐ",
        "short_name": "SBI"
      }
    },
    {
      "type": "node",
      "id": 456214157,
      "lat": 12.9738444,
      "lon": 77.578582,
      "tags": {
        "addr:street": "Kempe Gowda Road",
        "amenity": "bank",
        "atm": "yes",
        "brand": "Bank of India",
        "brand:wikidata": "Q2004439",
        "brand:wikipedia": "en:Bank of India",
        "name": "Bank of India",
        "name:en": "Bank of India",
        "short_name": "BoI",
        "website": "http://www.bankofindia.co.in"
      }
    },
    {
      "type": "node",
      "id": 456214158,
      "lat": 12.973729,
      "lon": 77.578957,
      "tags": {
        "addr:street": "Kempe Gowda Road",
        "amenity": "bank",
        "atm": "yes",
        "brand": "Indian Bank",
        "brand:wikidata": "Q2003789",
        "brand:wikipedia": "en:Indian Bank",
        "name": "Indian Bank",
        "name:en": "Indian Bank",
        "name:kn": "ಇಂಡಿಯನ್ ಬ್ಯಾಂಕ್",
        "website": "https://www.indianbank.in/"
      }
    },
    {
      "type": "node",
      "id": 456214161,
      "lat": 12.9735992,
      "lon": 77.5803131,
      "tags": {
        "name": "Kids Kemp",
        "shop": "clothes"
      }
    },
    {
      "type": "node",
      "id": 665871266,
      "lat": 12.9641674,
      "lon": 77.5819272,
      "tags": {
        "name": "Karnakata Hardware Store",
        "shop": "hardware"
      }
    },
    {
      "type": "node",
      "id": 665871268,
      "lat": 12.9671651,
      "lon": 77.580199,
      "tags": {
        "amenity": "restaurant",
        "cuisine": "indian",
        "diet:vegetarian": "yes",
        "name": "Chatpat",
        "name:kn": "ಚಟ್ಪಟ್"
      }
    },
    {
      "type": "node",
      "id": 665871269,
      "lat": 12.9697027,
      "lon": 77.5796625,
      "tags": {
        "amenity": "cafe",
        "name": "Cane Crush"
      }
    },
    {
      "type": "node",
      "id": 665871271,
      "lat": 12.9732382,
      "lon": 77.5778493,
      "tags": {
        "amenity": "toilets",
        "check_date": "2023-02-27",
        "fee": "yes",
        "level": "0"
      }
    },
    {
      "type": "node",
      "id": 665871272,
      "lat": 12.9742892,
      "lon": 77.5778952,
      "tags": {
        "addr:street": "Kempe Gowda Road",
        "amenity": "cafe",
        "name": "Sri Vinayaka Juice & Chats Center"
      }
    },
    {
      "type": "node",
      "id": 665871273,
      "lat": 12.9703805,
      "lon": 77.5800395,
      "tags": {
        "amenity": "restaurant",
        "cuisine": "indian",
        "name": "Hotel Madhuvan",
        "name:kn": "ಮಧುವನ"
      }
    },
    {
      "type": "node",
      "id": 665871274,
      "lat": 12.9722509,
      "lon": 77.5802138,
      "tags": {
        "amenity": "toilets",
        "fee": "yes"
      }
    },
    {
      "type": "node",
      "id": 665871277,
      "lat": 12.9733292,
      "lon": 77.5824593,
      "tags": {
        "amenity": "atm",
        "brand": "State Bank of India",
        "brand:wikidata": "Q1340361",
        "name": "State Bank of India",
        "operator": "State Bank of India",
        "operator:wikidata": "Q1340361",
        "short_name": "SBI"
      }
    },
    {
      "type": "node",
      "id": 677286826,
      "lat": 12.9736525,
      "lon": 77.5801953,
      "tags": {
        "addr:street": "Kempe Gowda Road",
        "amenity": "cafe",
        "name": "Coffee Day",
        "name:kn": "ಕಫೆ ಕಾಫಿ ಡೇ"
      }
    },
    {
      "type": "node",
      "id": 677286827,
      "lat": 12.9756686,
      "lon": 77.5749645,
      "tags": {
        "addr:street": "Dhanvanthari Road",
        "amenity": "fast_food",
        "name": "Chicken County",
        "wheelchair": "no"
      }
    },
    {
      "type": "node",
      "id": 683352691,
      "lat": 12.9709419,
      "lon": 77.5735425,
      "tags": {
        "amenity": "place_of_worship",
        "name": "Sri Kailaseshwara Temple",
        "name:kn": "ಶ್ರೀ ಕೈಲಾಸೇಶ್ವರ ದೇವಸ್ಥಾನ",
        "religion": "hindu"
      }
    },
    {
      "type": "node",
      "id": 683352692,
      "lat": 12.9651082,
      "lon": 77.5750394,
      "tags": {
        "amenity": "toilets"
      }
    },
    {
      "type": "node",
      "id": 683352694,
      "lat": 12.9734503,
      "lon": 77.5751186,
      "tags": {
        "addr:street": "Balepet Road",
        "amenity": "cafe",
        "name": "Fresh Cane"
      }
    },
    {
      "type": "node",
      "id": 1053320347,
      "lat": 12.9753224,
      "lon": 77.5758147,
      "tags": {
        "amenity": "place_of_worship",
        "name": "Ganesha Temple",
        "name:kn": "ಗಣೇಶ ದೇವಸ್ಥಾನ",
        "religion": "hindu"
      }
    },
    {
      "type": "node",
      "id": 1060580206,
      "lat": 12.9677686,
      "lon": 77.569887,
      "tags": {
        "amenity": "cinema",
        "name": "Super talkies"
      }
    },
    {
      "type": "node",
      "id": 1389204316,
      "lat": 12.9655848,
      "lon": 77.584288,
      "tags": {
        "amenity": "parking",
        "name": "Two-Wheeler Parking"
      }
    },
    {
      "type": "node",
      "id": 1389206600,
      "lat": 12.965161,
      "lon": 77.584016,
      "tags": {
        "addr:city": "Bangalore",
        "addr:street": "S P Road",
        "name": "Arihant Computers",
        "shop": "computer"
      }
    },
    {
      "type": "node",
      "id": 1389210293,
      "lat": 12.9655798,
      "lon": 77.5845651,
      "tags": {
        "addr:street": "Dharmaraya Temple Road",
        "amenity": "atm",
        "brand": "ICICI Bank",
        "brand:wikidata": "Q1653258",
        "check_date": "2023-06-11",
        "network": "ICICI Bank",
        "operator": "ICICI Bank",
        "operator:wikidata": "Q1653258",
        "short_name": "ICICI",
        "source": "survey"
      }
    },
    {
      "type": "node",
      "id": 1457578295,
      "lat": 12.9733973,
      "lon": 77.5781068,
      "tags": {
        "access": "yes",
        "amenity": "parking",
        "capacity": "350",
        "fee": "yes",
        "level": "2,3,4",
        "name": "Maharaja Complex Multi Storey Parking",
        "operator": "BBMP",
        "parking": "multi-storey"
      }
    },
    {
      "type": "node",
      "id": 1589557488,
      "lat": 12.9647793,
      "lon": 77.5836994,
      "tags": {
        "name": "Om Electronics",
        "shop": "electronics"
      }
    },
    {
      "type": "node",
      "id": 1632708962,
      "lat": 12.9636734,
      "lon": 77.5740355,
      "tags": {
        "amenity": "fountain"
      }
    },
    {
      "type": "node",
      "id": 1739362309,
      "lat": 12.9656908,
      "lon": 77.5860177,
      "tags": {
        "amenity": "toilets"
      }
    },
    {
      "type": "node",
      "id": 1739362359,
      "lat": 12.9658764,
      "lon": 77.5860284,
      "tags": {
        "amenity": "restaurant",
        "diet:vegetarian": "only",
        "name": "Pai Vihar",
        "name:kn": "ಪೈ ವಿಹಾರ್"
      }
    },
    {
      "type": "node",
      "id": 1739366972,
      "lat": 12.9646442,
      "lon": 77.5841683,
      "tags": {
        "amenity": "toilets"
      }
    },
    {
      "type": "node",
      "id": 1806959176,
      "lat": 12.9732886,
      "lon": 77.5702017,
      "tags": {
        "amenity": "atm",
        "fee": "no",
        "operator": "State Bank of Mysore"
      }
    },
    {
      "type": "node",
      "id": 1806960813,
      "lat": 12.9725777,
      "lon": 77.5702074,
      "tags": {
        "amenity": "atm",
        "brand": "HDFC Bank",
        "brand:wikidata": "Q631047",
        "fee": "no",
        "name": "HDFC Bank",
        "name:kn": "ಎಚ್ ಡಿ ಎಫ್ ಸಿ",
        "operator": "HDFC Bank",
        "operator:wikidata": "Q631047",
        "short_name": "HDFC"
      }
    },
    {
      "type": "node",
      "id": 1806961438,
      "lat": 12.9723215,
      "lon": 77.5703735,
      "tags": {
        "amenity": "atm",
        "brand": "Union Bank of India",
        "brand:wikidata": "Q2004078",
        "name": "Union Bank of India",
        "name:kn": "ಯೂನಿಯನ್ ಬ್ಯಾಂಕ್",
        "operator": "Union Bank of India",
        "operator:wikidata": "Q2004078"
      }
    },
    {
      "type": "node",
      "id": 1806963001,
      "lat": 12.9712811,
      "lon": 77.5701053,
      "tags": {
        "amenity": "atm",
        "brand": "Corporation Bank",
        "brand:wikidata": "Q2003387",
        "name": "Corporation Bank",
        "operator": "Corporation Bank",
        "operator:wikidata": "Q2003387"
      }
    },
    {
      "type": "node",
      "id": 1806963681,
      "lat": 12.9715894,
      "lon": 77.5701482,
      "tags": {
        "amenity": "place_of_worship",
        "denomination": "Venkateshwara Temple",
        "religion": "hindu"
      }
    },
    {
      "type": "node",
      "id": 1806963934,
      "lat": 12.9715582,
      "lon": 77.5704057,
      "tags": {
        "amenity": "place_of_worship",
        "name": "Anjaneya - Hanuman Temple",
        "name:kn": "ಆಂಜನೇಯ ದೇವಸ್ಥಾನ",
        "religion": "hindu"
      }
    },
    {
      "type": "node",
      "id": 1806966026,
      "lat": 12.9680925,
      "lon": 77.5700945,
      "tags": {
        "amenity": "police",
        "name": "Cottenpet Police Station",
        "wheelchair": "no"
      }
    },
    {
      "type": "node",
      "id": 1806966554,
      "lat": 12.9672844,
      "lon": 77.57,
      "tags": {
        "amenity": "fuel",
        "brand": "AEGIS AUTO GAS",
        "fuel:1_25": "no",
        "fuel:1_50": "no",
        "fuel:GTL_diesel": "no",
        "fuel:HGV_diesel": "no",
        "fuel:biodiesel": "no",
        "fuel:biogas": "no",
        "fuel:cng": "no",
        "fuel:diesel": "no",
        "fuel:e10": "no",
        "fuel:e85": "no",
        "fuel:electricity": "no",
        "fuel:lpg": "yes",
        "fuel:octane_100": "no",
        "fuel:octane_91": "no",
        "fuel:octane_95": "no",
        "fuel:octane_98": "no",
        "name": "Shree Krishna Auto Gas",
        "wheelchair": "yes"
      }
    },
    {
      "type": "node",
      "id": 1806969957,
      "lat": 12.9662942,
      "lon": 77.5699335,
      "tags": {
        "amenity": "place_of_worship",
        "religion": "muslim",
        "toilets:wheelchair": "no",
        "wheelchair": "no"
      }
    },
    {
      "type": "node",
      "id": 1809836481,
      "lat": 12.9764035,
      "lon": 77.5781564,
      "tags": {
        "name": "Sapna Book House",
        "name:kn": "ಸಪ್ನ ಬುಕ್ ಹೌಸ್",
        "shop": "books",
        "toilets:wheelchair": "no",
        "wheelchair": "no"
      }
    },
    {
      "type": "node",
      "id": 1824167359,
      "lat": 12.9738948,
      "lon": 77.5785146,
      "tags": {
        "name": "Univer Cell",
        "note": "Mobile shop",
        "shop": "electronics",
        "wheelchair": "no"
      }
    },
    {
      "type": "node",
      "id": 1843603947,
      "lat": 12.9648252,
      "lon": 77.5764372,
      "tags": {
        "amenity": "post_office",
        "designation": "560002",
        "name": "KR Market Sub Post Office",
        "operator": "Indias Postal Service"
      }
    },
    {
      "type": "node",
      "id": 1843611471,
      "lat": 12.9649402,
      "lon": 77.5761878,
      "tags": {
        "addr:street": "Sultan Road",
        "alt_name": "City Market Police Station",
        "amenity": "police",
        "name": "Krishna Rajendra Market Police Station"
      }
    },
    {
      "type": "node",
      "id": 2014227810,
      "lat": 12.9699846,
      "lon": 77.5797207,
      "tags": {
        "amenity": "fast_food",
        "name": "Banaras Sweets"
      }
    },
    {
      "type": "node",
      "id": 2014232345,
      "lat": 12.9700251,
      "lon": 77.5799594,
      "tags": {
        "amenity": "bank",
        "atm": "yes",
        "branch": "Vysya Bank",
        "brand": "ING",
        "brand:wikidata": "Q645708",
        "name": "ING",
        "wheelchair": "no"
      }
    },
    {
      "type": "node",
      "id": 2014238900,
      "lat": 12.9732008,
      "lon": 77.5789268,
      "tags": {
        "amenity": "bank",
        "atm": "yes",
        "brand": "ICICI Bank",
        "brand:wikidata": "Q1653258",
        "name": "ICICI Bank",
        "name:en": "ICICI Bank",
        "name:kn": "ಐಸಿಐಸಿಐ ಬ್ಯಾಂಕು",
        "short_name": "ICICI",
        "website": "https://www.icicibank.com",
        "wheelchair": "no"
      }
    },
    {
      "type": "node",
      "id": 2016154123,
      "lat": 12.9694808,
      "lon": 77.5729285,
      "tags": {
        "addr:street": "Sultanpete Main Road",
        "name": "Rajkumar Cards",
        "shop": "gift",
        "wheelchair": "no"
      }
    },
    {
      "type": "node",
      "id": 2016154125,
      "lat": 12.9707012,
      "lon": 77.5736393,
      "tags": {
        "amenity": "police",
        "name": "Chikkapete Police Station",
        "name:kn": "ಚಿಕ್ಕಪೇಟೆ ಆರಕ್ಷಕ ಠಾಣೆ"
      }
    },
    {
      "type": "node",
      "id": 2016155692,
      "lat": 12.9767275,
      "lon": 77.5774801,
      "tags": {
        "amenity": "bicycle_parking"
      }
    },
    {
      "type": "node",
      "id": 2016155696,
      "lat": 12.976555,
      "lon": 77.5774051,
      "tags": {
        "amenity": "parking"
      }
    },
    {
      "type": "node",
      "id": 2016215956,
      "lat": 12.9755654,
      "lon": 77.575714,
      "tags": {
        "brand": "Kanti Sweets",
        "name": "Kanti Sweets",
        "shop": "confectionery"
      }
    },
    {
      "type": "node",
      "id": 2016216058,
      "lat": 12.9755706,
      "lon": 77.5758596,
      "tags": {
        "amenity": "bicycle_parking"
      }
    },
    {
      "type": "node",
      "id": 2120454693,
      "lat": 12.9683042,
      "lon": 77.5846472,
      "tags": {
        "addr:housename": "bnr mansion",
        "addr:street": "jnguva street",
        "amenity": "bar",
        "name": "Bnr Bar"
      }
    },
    {
      "type": "node",
      "id": 2120456105,
      "lat": 12.9679017,
      "lon": 77.5851515,
      "tags": {
        "amenity": "atm",
        "brand": "State Bank of India",
        "brand:wikidata": "Q1340361",
        "name": "State Bank of India",
        "operator": "State Bank of India",
        "operator:wikidata": "Q1340361",
        "short_name": "SBI"
      }
    },
    {
      "type": "node",
      "id": 2261284950,
      "lat": 12.9758817,
      "lon": 77.5786471,
      "tags": {
        "amenity": "restaurant",
        "name": "Kamat Yatrinivas",
        "wheelchair": "no"
      }
    },
    {
      "type": "node",
      "id": 2466476118,
      "lat": 12.9765112,
      "lon": 77.5799146,
      "tags": {
        "amenity": "fuel",
        "brand": "Bharat Petroleum",
        "brand:wikidata": "Q854826",
        "check_date": "2024-03-02",
        "compressed_air": "yes",
        "name": "Bharat Petroleum",
        "operator": "Chanders"
      }
    },
    {
      "type": "node",
      "id": 3286297186,
      "lat": 12.9729868,
      "lon": 77.5700133,
      "tags": {
        "addr:street": "Old Taluk Cutchery Road",
        "amenity": "restaurant",
        "name": "Adhishakthi",
        "name:kn": "ಆದಿಶಕ್ತಿ"
      }
    },
    {
      "type": "node",
      "id": 3391134547,
      "lat": 12.9626153,
      "lon": 77.5762859,
      "tags": {
        "amenity": "place_of_worship",
        "name": "Koti Sri Anjaneya Temple",
        "religion": "hindu"
      }
    },
    {
      "type": "node",
      "id": 3391135051,
      "lat": 12.962822,
      "lon": 77.5764714,
      "tags": {
        "amenity": "restaurant",
        "diet:vegetarian": "only",
        "name": "Hotel Annakuteera vegetarian"
      }
    },
    {
      "type": "node",
      "id": 3395243169,
      "lat": 12.962368,
      "lon": 77.575774,
      "tags": {
        "amenity": "place_of_worship",
        "name": "Koti Dhanvanthri Ganesha Temple",
        "religion": "hindu"
      }
    },
    {
      "type": "node",
      "id": 3652359334,
      "lat": 12.9701247,
      "lon": 77.5866611,
      "tags": {
        "amenity": "restaurant",
        "name": "St. Martha's Canteen"
      }
    },
    {
      "type": "node",
      "id": 3800281856,
      "lat": 12.9735894,
      "lon": 77.5783998,
      "tags": {
        "amenity": "restaurant",
        "name": "Shanti Sagar",
        "name:en": "New Shanthi Sagar",
        "name:kn": "ಶಾಂತಿ ಸಾಗರ್"
      }
    },
    {
      "type": "node",
      "id": 3872737461,
      "lat": 12.9759239,
      "lon": 77.5749981,
      "tags": {
        "amenity": "restaurant",
        "diet:vegetarian": "yes",
        "name": "R. P. Kamat's"
      }
    },
    {
      "type": "node",
      "id": 3872737462,
      "lat": 12.9766765,
      "lon": 77.5777178,
      "tags": {
        "amenity": "restaurant",
        "diet:vegetarian": "yes",
        "name": "Sukh Sagar",
        "name:kn": "ಸುಖ್ ಸಾಗರ"
      }
    },
    {
      "type": "node",
      "id": 4130960494,
      "lat": 12.9613262,
      "lon": 77.5820185,
      "tags": {
        "amenity": "place_of_worship",
        "name:kn": "ಮಸೀದಿ",
        "religion": "muslim"
      }
    },
    {
      "type": "node",
      "id": 4130960994,
      "lat": 12.9624777,
      "lon": 77.5786534,
      "tags": {
        "amenity": "place_of_worship",
        "building": "mosque",
        "name:kn": "ಮಸೀದಿ",
        "religion": "muslim"
      }
    },
    {
      "type": "node",
      "id": 4130960995,
      "lat": 12.9615699,
      "lon": 77.5804526,
      "tags": {
        "amenity": "school",
        "name": "Government School",
        "name:kn": "ಸರ್ಕಾರಿ ಶಾಲೆ"
      }
    },
    {
      "type": "node",
      "id": 4177732308,
      "lat": 12.9772383,
      "lon": 77.5752995,
      "tags": {
        "amenity": "atm",
        "brand": "Karnataka Bank",
        "brand:wikidata": "Q2042632",
        "name": "Karnataka Bank",
        "name:kn": "ಕರ್ನಾಟಕ ಬ್ಯಾಂಕ್",
        "operator": "Karnataka Bank",
        "operator:wikidata": "Q2042632"
      }
    },
    {
      "type": "node",
      "id": 4209374021,
      "lat": 12.9663581,
      "lon": 77.5845939,
      "tags": {
        "amenity": "place_of_worship",
        "religion": "hindu"
      }
    },
    {
      "type": "node",
      "id": 4209374023,
      "lat": 12.9668651,
      "lon": 77.5849748,
      "tags": {
        "amenity": "place_of_worship",
        "religion": "hindu"
      }
    },
    {
      "type": "node",
      "id": 4209379372,
      "lat": 12.9660921,
      "lon": 77.5845202,
      "tags": {
        "amenity": "place_of_worship",
        "natural": "tree"
      }
    },
    {
      "type": "node",
      "id": 4209454289,
      "lat": 12.9679842,
      "lon": 77.578539,
      "tags": {
        "name": "Karu Pakula Jewellers",
        "shop": "jewelry"
      }
    },
    {
      "type": "node",
      "id": 4209454290,
      "lat": 12.9681084,
      "lon": 77.5786114,
      "tags": {
        "addr:city": "Bangalore",
        "addr:housenumber": "1",
        "addr:place": "Avenue Road Circle",
        "addr:postcode": "560 002",
        "level": "0",
        "name": "Shoba Jewellers",
        "shop": "jewelry"
      }
    },
    {
      "type": "node",
      "id": 4209454291,
      "lat": 12.967911,
      "lon": 77.5786751,
      "tags": {
        "level": "0",
        "name": "Sri Kalki Jewellers",
        "shop": "jewelry"
      }
    },
    {
      "type": "node",
      "id": 4209454292,
      "lat": 12.9680476,
      "lon": 77.5787462,
      "tags": {
        "name": "Vajra Mahal",
        "shop": "jewelry"
      }
    },
    {
      "type": "node",
      "id": 4209484254,
      "lat": 12.9680202,
      "lon": 77.5787717,
      "tags": {
        "amenity": "atm",
        "brand": "State Bank of India",
        "brand:wikidata": "Q1340361",
        "name": "State Bank of India",
        "name:kn": "ಭಾರತೀಯ ಸ್ಟೇಟ್ ಬ್ಯಾಂಕ್",
        "operator": "State Bank of India",
        "operator:wikidata": "Q1340361",
        "short_name": "SBI"
      }
    },
    {
      "type": "node",
      "id": 4209499020,
      "lat": 12.9680176,
      "lon": 77.5787039,
      "tags": {
        "amenity": "police",
        "name": "Avenue Road Police Chowky"
      }
    },
    {
      "type": "node",
      "id": 4308190209,
      "lat": 12.965498,
      "lon": 77.5839472,
      "tags": {
        "amenity": "events_venue",
        "name": "Shree Prasanna gangadhareshwara samudaya bhavana"
      }
    },
    {
      "type": "node",
      "id": 4308219737,
      "lat": 12.9740596,
      "lon": 77.5793767,
      "tags": {
        "name": "Navakarnataka",
        "shop": "books"
      }
    },
    {
      "type": "node",
      "id": 4308219751,
      "lat": 12.9740049,
      "lon": 77.5794628,
      "tags": {
        "amenity": "bank",
        "atm": "yes",
        "brand": "CSB Bank",
        "brand:wikidata": "Q5053244",
        "check_date": "2023-02-11",
        "name": "CSB Bank",
        "official_name": "Catholic Syrian Bank",
        "operator": "CSB"
      }
    },
    {
      "type": "node",
      "id": 4308220071,
      "lat": 12.9740685,
      "lon": 77.5792924,
      "tags": {
        "amenity": "bank",
        "atm": "yes",
        "brand": "Bank of Baroda",
        "brand:wikidata": "Q2003797",
        "name": "Bank of Baroda",
        "name:kn": "ವಿಜಯ ಬ್ಯಾಂಕು"
      }
    },
    {
      "type": "node",
      "id": 4337898954,
      "lat": 12.9735721,
      "lon": 77.5803838,
      "tags": {
        "addr:street": "Kempegowda road",
        "amenity": "post_office",
        "name": "Kempegowda Road",
        "name:kn": "ಕೆಂಪೆಗೌಡ ರಸ್ತೆ",
        "operator": "India Post",
        "operator:wikidata": "Q3519720"
      }
    },
    {
      "type": "node",
      "id": 4368918389,
      "lat": 12.9729745,
      "lon": 77.5808399,
      "tags": {
        "amenity": "bank",
        "brand": "Corporation Bank",
        "brand:wikidata": "Q2003387",
        "name": "Corporation Bank",
        "name:kn": "ಕಾರ್ಪರೇಷನ್ ಬ್ಯಾಂಕ್"
      }
    },
    {
      "type": "node",
      "id": 4411606494,
      "lat": 12.9674392,
      "lon": 77.5823999,
      "tags": {
        "shop": "jewelry"
      }
    },
    {
      "type": "node",
      "id": 4413510290,
      "lat": 12.969833,
      "lon": 77.5775083,
      "tags": {
        "addr:city": "Bangalore",
        "addr:housenumber": "45/6",
        "addr:postcode": "500006",
        "addr:street": "6th Cross Road",
        "amenity": "cafe",
        "cuisine": "coffee_shop",
        "internet_access": "yes",
        "name": "CCD",
        "opening_hours": "09:00-06:00",
        "smoking": "no"
      }
    },
    {
      "type": "node",
      "id": 4414944194,
      "lat": 12.9650385,
      "lon": 77.5838344,
      "tags": {
        "name": "Nextgen Technologies",
        "name:en": "NEXTGEN TECHNOLOGIES",
        "shop": "computer"
      }
    },
    {
      "type": "node",
      "id": 4443512312,
      "lat": 12.9739174,
      "lon": 77.5702629,
      "tags": {
        "addr:city": "Bangalore",
        "addr:housenumber": "430",
        "addr:postcode": "560043",
        "addr:street": "Kalyan Nagar",
        "amenity": "restaurant",
        "cuisine": "regional",
        "name": "Mainland China",
        "opening_hours": "12:00-15:30,19:00-23:30",
        "phone": "080 2545 1358",
        "smoking": "no",
        "website": "https://www.speciality.co.in/mainland_china/index.html"
      }
    },
    {
      "type": "node",
      "id": 4445171747,
      "lat": 12.960753,
      "lon": 77.575626,
      "tags": {
        "addr:city": "Bangalore",
        "addr:housenumber": "2",
        "addr:postcode": "560008",
        "addr:street": "6th Cross Rd, HAL 3rd Stage, Kodihalli, Bengaluru",
        "amenity": "restaurant",
        "cuisine": "regional",
        "delivery": "yes",
        "name": "Srinidhi Sagar",
        "name:kn": "ಶ್ರೀನಿಧಿ ಸಾಗರ",
        "opening_hours": "07:00-23:00",
        "phone": "+91 80 25219337",
        "smoking": "no",
        "takeaway": "yes"
      }
    },
    {
      "type": "node",
      "id": 4446346449,
      "lat": 12.9705436,
      "lon": 77.5834769,
      "tags": {
        "addr:city": "Bangalore",
        "addr:housenumber": "5",
        "addr:postcode": "560001",
        "addr:street": "Nrupathunga Rd, RBI Colony, Sampangi Rama Nagar",
        "amenity": "hospital",
        "name": "St. Martha's Heart Centre",
        "phone": "+9195380 43453",
        "website": "locations.narayanahealth.org"
      }
    },
    {
      "type": "node",
      "id": 4446899258,
      "lat": 12.9671955,
      "lon": 77.5736828,
      "tags": {
        "addr:city": "bangalore",
        "addr:housenumber": "164",
        "addr:postcode": "560053",
        "addr:street": "P.o box 7182,1st floor, sultanpet,",
        "amenity": "pharmacy",
        "name": "Fair Deal Pharma (Medkart)",
        "phone": "080 2234 1736"
      }
    },
    {
      "type": "node",
      "id": 4447086612,
      "lat": 12.9681071,
      "lon": 77.570295,
      "tags": {
        "addr:city": "bangalore",
        "addr:housenumber": "76/2",
        "addr:postcode": "560001",
        "addr:street": "Avenue Road, Bangalore City",
        "amenity": "pharmacy",
        "phone": "+91 80 2287 7428",
        "source": "www.asklaila.com",
        "website": "https://www.microlabsltd.com/"
      }
    },
    {
      "type": "node",
      "id": 4447422294,
      "lat": 12.9744833,
      "lon": 77.5748342,
      "tags": {
        "addr:city": "Bengalore",
        "addr:postcode": "560009",
        "addr:street": "Kempe Gowda Circle, Danvanthri Rd, Majestic,",
        "amenity": "police",
        "name": "Upparpet Traffic Police Station",
        "name:kn": "ಸಂಚಾರ ಪೊಲೀಸ್ ಠಾಣೆ",
        "phone": "080 2294 2665",
        "website": "NA"
      }
    },
    {
      "type": "node",
      "id": 4474511491,
      "lat": 12.971335,
      "lon": 77.5845467,
      "tags": {
        "amenity": "atm",
        "brand": "State Bank of India",
        "brand:wikidata": "Q1340361",
        "name": "State Bank of India",
        "name:kn": "ಎಸ್ ಬಿ ಐ",
        "opening_hours": "24/7",
        "operator": "State Bank of India",
        "operator:wikidata": "Q1340361",
        "short_name": "SBI"
      }
    },
    {
      "type": "node",
      "id": 4487969466,
      "lat": 12.9714473,
      "lon": 77.5757997,
      "tags": {
        "addr:city": "Bengaluru,",
        "addr:postcode": "560053",
        "addr:street": "Laxman Rao, 63, BVK Iyengar Rd, Basettypet, Huriopet, Chickpet,",
        "name": "Meenaxi Chemicals",
        "phone": "080 2225 9599",
        "shop": "yes"
      }
    },
    {
      "type": "node",
      "id": 4487984594,
      "lat": 12.9696817,
      "lon": 77.573717,
      "tags": {
        "addr:city": "bangalore",
        "addr:postcode": "560053",
        "addr:street": "37/2, K V Temple Road, Opposite-Charan Bank, Santhusapet, Chickpet",
        "name": "Standard Chemicals",
        "phone": "080 2287 5236",
        "shop": "yes"
      }
    },
    {
      "type": "node",
      "id": 4487996362,
      "lat": 12.9703096,
      "lon": 77.5761097,
      "tags": {
        "addr:city": "Bengaluru,",
        "addr:housenumber": "62",
        "addr:postcode": "560053",
        "addr:street": "A. M. Lane",
        "name": "Shree Sudarshan Light And Appliances",
        "phone": "(91)-9986419127",
        "shop": "electronics",
        "website": "www.smartgrahak.com"
      }
    },
    {
      "type": "node",
      "id": 4488013671,
      "lat": 12.9717632,
      "lon": 77.5730069,
      "tags": {
        "addr:city": "bangalore",
        "addr:housenumber": "386",
        "addr:postcode": "560053",
        "addr:street": "OTC Road, Balepete, Chickpet, Bengaluru, Karnataka",
        "name": "Runecha Chemicals",
        "phone": "099163 66952",
        "shop": "yes"
      }
    },
    {
      "type": "node",
      "id": 4488592383,
      "lat": 12.9719137,
      "lon": 77.5772021,
      "tags": {
        "addr:city": "Bangalore",
        "addr:housenumber": "1/2",
        "addr:postcode": "560053",
        "addr:street": "Dasappa Building, Dasappa Lane, Chikpet, Anchepet, Chickpet",
        "name": "Murthy Glass & Plywood Pvt Ltd",
        "phone": "+91 98448 11824",
        "shop": "yes",
        "website": "https://www.in.saint-gobain-glass.com/"
      }
    },
    {
      "type": "node",
      "id": 4489039609,
      "lat": 12.9690423,
      "lon": 77.575894,
      "tags": {
        "addr:city": "Bangalore",
        "addr:housenumber": "5/2",
        "addr:postcode": "560053",
        "addr:street": "A.M. Lane, B.V.K. Street, Chik Pet, Huriopet, Chickpet, Bengaluru",
        "name": "R R Enterprieses",
        "phone": "08022250035",
        "shop": "yes"
      }
    },
    {
      "type": "node",
      "id": 4489046040,
      "lat": 12.9719452,
      "lon": 77.5748259,
      "tags": {
        "addr:city": "Bengaluru,",
        "addr:housenumber": "98/1",
        "addr:postcode": "560053",
        "addr:street": "Laxman Rao Road, Balepet Cross, Near-Garden English School, Chickpet, Basettypet, Huriopet, Chickpet",
        "name": "Sri Devi Chemicals",
        "phone": "0802872934",
        "shop": "yes"
      }
    },
    {
      "type": "node",
      "id": 4489250989,
      "lat": 12.9757173,
      "lon": 77.5779843,
      "tags": {
        "addr:city": "Bangalore",
        "addr:postcode": "560009",
        "addr:street": "Near Tribhuvan Theatre 1st Cross, Gandhinagar, Bhadrappa Layout, Gandhi Nagar",
        "name": "Olympic Sporting Co",
        "opening_hours": "10:00-20:00",
        "phone": "+919739379681",
        "shop": "sports"
      }
    },
    {
      "type": "node",
      "id": 4489256960,
      "lat": 12.976848,
      "lon": 77.5777736,
      "tags": {
        "addr:city": "Bangalore",
        "addr:housenumber": "7",
        "addr:postcode": "560009",
        "addr:street": "Girish Complex, 2nd cross, Opp Syndicate Bank, Gandhi Nagar, Bhadrappa Layout, Gandhi Nagar",
        "name": "Jayant Probikes & Fitness",
        "opening_hours": "10:00-21:00",
        "phone": "080 4092 1589",
        "shop": "sports",
        "website": "https://www.firefoxbikes.com/"
      }
    },
    {
      "type": "node",
      "id": 4489264478,
      "lat": 12.9757283,
      "lon": 77.5787934,
      "tags": {
        "addr:city": "Bangalore",
        "addr:postcode": "560009",
        "addr:street": "Bangalore,, 2, 3rd Cross Rd, Bhadrappa Layout, Gandhi Nagar",
        "name": "Saga sports and trophies",
        "opening_hours": "10:00-21:30",
        "phone": "84317 25693",
        "shop": "sports"
      }
    },
    {
      "type": "node",
      "id": 4489265787,
      "lat": 12.9749067,
      "lon": 77.5757421,
      "tags": {
        "addr:city": "Bengalore",
        "addr:postcode": "560009",
        "addr:street": "1, Majestic Circle, Near Arya Bhavan Sweets, K G Sweets, Gandhi Nagar, Gandhi Nagar, Bhadrappa Layout, Balepete, Chickpet",
        "name": "Excel Sports",
        "opening_hours": "11:00-21:30",
        "phone": "080 2226 3090",
        "shop": "sports"
      }
    },
    {
      "type": "node",
      "id": 4489278131,
      "lat": 12.9762609,
      "lon": 77.5780859,
      "tags": {
        "addr:city": "Bangalore",
        "addr:postcode": "560009",
        "addr:street": "9, Krishna Tower, 3rd Main Road, opp Sapna Book House, Gandhinagar, Bhadrappa Layout, Gandhi Naga",
        "name": "players choice",
        "opening_hours": "10:00-21:30",
        "phone": "080 4132 9459",
        "shop": "sports",
        "website": "https://playerschoice.co.in/"
      }
    },
    {
      "type": "node",
      "id": 4489411314,
      "lat": 12.9674105,
      "lon": 77.576402,
      "tags": {
        "addr:city": "Bangalore",
        "addr:housenumber": "307",
        "addr:postcode": "560053",
        "addr:street": "Prince Building, Old Tharagupete Rd, Old Tharagupet",
        "name": "Prince Sports India",
        "opening_hours": "09:00-21:00",
        "phone": "08041132118",
        "shop": "sports"
      }
    },
    {
      "type": "node",
      "id": 4489413117,
      "lat": 12.9694073,
      "lon": 77.5750298,
      "tags": {
        "addr:city": "Bangalore",
        "addr:housenumber": "5/7",
        "addr:postcode": "560053",
        "addr:street": "P S Lane Santhusapet, Chikpete,",
        "name": "Metro Sports",
        "opening_hours": "09:30-20:30",
        "phone": "08022285080",
        "shop": "sports"
      }
    },
    {
      "type": "node",
      "id": 4489691846,
      "lat": 12.9704653,
      "lon": 77.5734187,
      "tags": {
        "addr:city": "bangalore",
        "addr:housenumber": "7973",
        "addr:postcode": "560053",
        "addr:street": "I Cross, As Char Street, Santhusapet, Chickpet, Bengaluru, Karnataka 560053",
        "name": "Karnataka Chemical Industries",
        "phone": "08022873910",
        "shop": "yes"
      }
    },
    {
      "type": "node",
      "id": 4562950692,
      "lat": 12.9646857,
      "lon": 77.5825373,
      "tags": {
        "addr:housenumber": "134-138, K K",
        "addr:postcode": "560002",
        "addr:street": "Sadar Patrappa Road",
        "email": "jagadish@amarradio.com",
        "name": "Amar Radio Corporation",
        "name:en": "Amar Radio Corporation",
        "opening_hours": "Mo-Sa 10:00-18:30",
        "phone": "08046480000",
        "shop": "electronics",
        "website": "https://www.amarradio.com/"
      }
    },
    {
      "type": "node",
      "id": 4563000590,
      "lat": 12.964736,
      "lon": 77.5817243,
      "tags": {
        "addr:housenumber": "59/2",
        "addr:postcode": "560002",
        "addr:street": "Sadar Patrappa Road",
        "email": "sabbasaco51@gmail.com",
        "name": "S Abbas & Co",
        "name:en": "S Abbas & Co",
        "opening_hours": "Mo-Sa 10:00-19:00",
        "phone": "08022225569",
        "shop": "electronics"
      }
    },
    {
      "type": "node",
      "id": 4563018489,
      "lat": 12.9650146,
      "lon": 77.5816415,
      "tags": {
        "addr:housenumber": "21",
        "addr:postcode": "560002",
        "addr:street": "E V Lane, S P Road Cross,",
        "name": "New Diamond Electro Control",
        "name:en": "New Diamond Electro Control",
        "opening_hours": "Mo-Sa 10:00-19:00",
        "phone": "9880667862",
        "shop": "electronics"
      }
    },
    {
      "type": "node",
      "id": 4563035990,
      "lat": 12.9650947,
      "lon": 77.5816049,
      "tags": {
        "addr:housenumber": "9/4",
        "addr:postcode": "560002",
        "addr:street": "E V Lane, S P Road Cross",
        "name": "Jai Hind Agencies",
        "name:en": "Jai Hind Agencies",
        "opening_hours": "Mo-Sa 10:00-19:00",
        "phone": "9663167076",
        "shop": "electronics"
      }
    },
    {
      "type": "node",
      "id": 4563051090,
      "lat": 12.964871,
      "lon": 77.5811502,
      "tags": {
        "addr:housenumber": "56/2B",
        "addr:postcode": "560002",
        "addr:street": "G R Lane, S p road Cross",
        "email": "ampowertools56@gmail.com",
        "name": "A M Power Tools",
        "name:en": "A M Power Tools",
        "phone": "9164212461",
        "shop": "electronics"
      }
    },
    {
      "type": "node",
      "id": 4563052091,
      "lat": 12.9647292,
      "lon": 77.582038,
      "tags": {
        "addr:housenumber": "66/4",
        "addr:postcode": "560002",
        "addr:street": "Sadar Patrappa Road",
        "email": "lakshmieleblr@yahoo.in",
        "name": "Sri Lakshmi electronics",
        "name:en": "Sri Lakshmi electronics",
        "phone": "9341084842",
        "shop": "electronics"
      }
    },
    {
      "type": "node",
      "id": 4563100690,
      "lat": 12.9646329,
      "lon": 77.5819878,
      "tags": {
        "addr:housenumber": "139/7",
        "addr:postcode": "560002",
        "addr:street": "Sadar Patrappa Road",
        "email": "vishalelectronicsblr@gmail.com",
        "name": "Vishal electronics",
        "name:en": "Vishal electronics",
        "opening_hours": "Mo-Sa 10:00-19:00",
        "operator": "Prakash Chawla",
        "phone": "9886717462",
        "shop": "electronics"
      }
    },
    {
      "type": "node",
      "id": 4563140390,
      "lat": 12.9640976,
      "lon": 77.5828518,
      "tags": {
        "addr:housenumber": "82/1",
        "addr:postcode": "560002",
        "addr:street": "S J P Road",
        "email": "burhanipolymer@gmail.com",
        "name": "Burhani Rubber & Polymer",
        "name:en": "Burhani Rubber & Polymer",
        "opening_hours": "Mo-Sa 10:00-19:00",
        "phone": "08041145417",
        "shop": "electronics"
      }
    },
    {
      "type": "node",
      "id": 4563188589,
      "lat": 12.963389,
      "lon": 77.5800026,
      "tags": {
        "addr:housenumber": "104/1",
        "addr:postcode": "560002",
        "addr:street": "Narasimharaja Road",
        "email": "power@powertools.net.in",
        "name": "Power Tools & Tackles",
        "name:en": "Power Tools & Tackles",
        "opening_hours": "Mo-Sa 10:00-19:00",
        "operator": "Husamuddin",
        "phone": "9945009793",
        "shop": "electronics"
      }
    },
    {
      "type": "node",
      "id": 4563372290,
      "lat": 12.9648421,
      "lon": 77.5784145,
      "tags": {
        "addr:housenumber": "14",
        "addr:postcode": "560002",
        "addr:street": "MRR Lane",
        "email": "hntc.maaz@gmail.com",
        "name": "M M Trading Company",
        "name:en": "M M Trading Company",
        "opening_hours": "Mo-Sa 10:00-19:00",
        "phone": "9845004864",
        "shop": "hardware"
      }
    },
    {
      "type": "node",
      "id": 4564567189,
      "lat": 12.9643898,
      "lon": 77.5797751,
      "tags": {
        "addr:housenumber": "33",
        "addr:postcode": "560002",
        "addr:street": "Silver Jubilee Park Road",
        "email": "rtc5253@gmail.com",
        "name": "Reliance tools centre",
        "name:en": "Reliance tools centre",
        "phone": "9342633632",
        "shop": "hardware"
      }
    },
    {
      "type": "node",
      "id": 4564919889,
      "lat": 12.964766,
      "lon": 77.582137,
      "tags": {
        "addr:housenumber": "68",
        "addr:postcode": "560002",
        "addr:street": "Sadar Patrappa Road",
        "name": "Bhandari electronics",
        "name:en": "Bhandari electronics",
        "phone": "32511101",
        "shop": "electronics"
      }
    },
    {
      "type": "node",
      "id": 4580594298,
      "lat": 12.9729017,
      "lon": 77.5772949,
      "tags": {
        "name": "Idea",
        "name:en": "Idea",
        "name:kn": "ಐಡಿಯಾ",
        "shop": "mobile_phone"
      }
    },
    {
      "type": "node",
      "id": 4580594299,
      "lat": 12.9748489,
      "lon": 77.578734,
      "tags": {
        "brand": "Vodafone Idea",
        "brand:wikidata": "Q1656673",
        "name": "Vodafone Idea",
        "name:en": "Vodafone",
        "name:kn": "ವೋಡಫೋನ್",
        "shop": "mobile_phone"
      }
    },
    {
      "type": "node",
      "id": 4580594300,
      "lat": 12.9757547,
      "lon": 77.5793688,
      "tags": {
        "brand": "Airtel",
        "brand:wikidata": "Q854867",
        "name": "Airtel",
        "name:en": "Airtel shop",
        "name:kn": "ಏರ್ಟೆಲ್",
        "shop": "mobile_phone"
      }
    },
    {
      "type": "node",
      "id": 4580618191,
      "lat": 12.9761844,
      "lon": 77.5797178,
      "tags": {
        "brand": "Vodafone Idea",
        "brand:wikidata": "Q1656673",
        "name": "Vodafone Idea",
        "name:en": "Idea",
        "name:kn": "ಐಡಿಯಾ",
        "shop": "mobile_phone"
      }
    },
    {
      "type": "node",
      "id": 4580622989,
      "lat": 12.976952,
      "lon": 77.5798692,
      "tags": {
        "name": "S.R.S travels",
        "name:en": "S.R.S travels",
        "shop": "travel_agency"
      }
    },
    {
      "type": "node",
      "id": 4655054151,
      "lat": 12.9733363,
      "lon": 77.5799372,
      "tags": {
        "addr:city": "Bangalore",
        "addr:housenumber": "2",
        "addr:postcode": "560009",
        "addr:street": "Kempegowda Road",
        "amenity": "bank",
        "atm": "yes",
        "brand": "Allahabad Bank",
        "brand:wikidata": "Q2018840",
        "brand:wikipedia": "en:Allahabad Bank",
        "fax": "080-22253402",
        "name": "Allahabad Bank",
        "name:en": "Allahabad Bank",
        "name:kn": "ಅಲ್ಲಹಾಬಾದ್ ಬ್ಯಾಂಕ್",
        "phone": "080-22262064",
        "phone_1": "080-22261599",
        "website": "https://www.allahabadbank.in"
      }
    },
    {
      "type": "node",
      "id": 4799176111,
      "lat": 12.9761326,
      "lon": 77.577703,
      "tags": {
        "addr:city": "Bangalore",
        "addr:postcode": "560009",
        "addr:street": "Fifth Main Road",
        "alt_name": "A2B",
        "amenity": "restaurant",
        "brand": "Adyar Ananda Bhavan",
        "brand:wikidata": "Q15178238",
        "cuisine": "regional",
        "diet:vegetarian": "only",
        "email": "info@aabsweets.com",
        "name": "Adyar Ananda Bhavan",
        "name:kn": "ಆದ್ಯಾರ್ ಆನಂದ ಭವನ",
        "operator": "Adyar Ananda Bhavan",
        "phone": "+91 80 4151 8999",
        "shop": "confectionery",
        "smoking": "no",
        "website": "https://aabsweets.com"
      }
    },
    {
      "type": "node",
      "id": 4799194308,
      "lat": 12.9742651,
      "lon": 77.5753347,
      "tags": {
        "addr:city": "Bangalore",
        "addr:postcode": "560009",
        "addr:street": "Kempe Gowda Road",
        "alt_name": "A2B",
        "amenity": "restaurant",
        "brand": "Adyar Ananda Bhavan",
        "brand:wikidata": "Q15178238",
        "cuisine": "regional",
        "diet:vegetarian": "only",
        "email": "info@aabsweets.com",
        "name": "Adyar Ananda Bhavan",
        "name:kn": "ಆದ್ಯಾರ್ ಆನಂದ ಭವನ",
        "operator": "Adyar Ananda Bhavan",
        "phone": "+91 80 4124 2999",
        "shop": "confectionery",
        "smoking": "no",
        "website": "https://aabsweets.com"
      }
    },
    {
      "type": "node",
      "id": 5225695421,
      "lat": 12.969167,
      "lon": 77.576508,
      "tags": {
        "addr:street": "Mamulpet Road",
        "clothes": "women;men;wedding;suits;fashion;children;underwear;traditional",
        "name": "Kuberan silks",
        "shop": "clothes"
      }
    },
    {
      "type": "node",
      "id": 5225695521,
      "lat": 12.9693187,
      "lon": 77.5767288,
      "tags": {
        "name": "Pradeep fashion",
        "shop": "clothes"
      }
    },
    {
      "type": "node",
      "id": 5225695621,
      "lat": 12.9694614,
      "lon": 77.5764,
      "tags": {
        "addr:street": "Mamulpet Road",
        "name": "Pradeep Fabrics",
        "shop": "clothes"
      }
    },
    {
      "type": "node",
      "id": 5261451332,
      "lat": 12.9743201,
      "lon": 77.5713592,
      "tags": {
        "name": "Shantala Silks and Sarees",
        "shop": "clothes"
      }
    },
    {
      "type": "node",
      "id": 5261452065,
      "lat": 12.9744099,
      "lon": 77.5710376,
      "tags": {
        "name": "Shree Dhanalakshmi Tours & Travels",
        "office": "travel_agent",
        "shop": "travel_agency"
      }
    },
    {
      "type": "node",
      "id": 5261452102,
      "lat": 12.9744205,
      "lon": 77.5708775,
      "tags": {
        "amenity": "restaurant",
        "name": "Hotel Shreesagar"
      }
    },
    {
      "type": "node",
      "id": 5261484918,
      "lat": 12.9743591,
      "lon": 77.5711607,
      "tags": {
        "amenity": "atm",
        "brand": "State Bank of India",
        "brand:wikidata": "Q1340361",
        "cash_in": "no",
        "name": "State Bank of India",
        "name:kn": "ಭಾರತೀಯ ಸ್ಟೇಟ್ ಬ್ಯಾಂಕ್",
        "operator": "State Bank of India",
        "operator:wikidata": "Q1340361",
        "short_name": "SBI"
      }
    },
    {
      "type": "node",
      "id": 5358373774,
      "lat": 12.9615738,
      "lon": 77.5766408,
      "tags": {
        "amenity": "place_of_worship",
        "name": "Jalakanteshwara Temple",
        "religion": "hindu"
      }
    },
    {
      "type": "node",
      "id": 5434708621,
      "lat": 12.9758182,
      "lon": 77.575029,
      "tags": {
        "shop": "alcohol"
      }
    },
    {
      "type": "node",
      "id": 5435052321,
      "lat": 12.9770717,
      "lon": 77.5747115,
      "tags": {
        "shop": "alcohol"
      }
    },
    {
      "type": "node",
      "id": 5462868116,
      "lat": 12.9722318,
      "lon": 77.5787988,
      "tags": {
        "addr:housenumber": "34/35",
        "addr:street": "Kilari Road",
        "amenity": "cafe",
        "name": "South Canara Coffeehouse"
      }
    },
    {
      "type": "node",
      "id": 5786021053,
      "lat": 12.9646134,
      "lon": 77.5824437,
      "tags": {
        "addr:housenumber": "68/1",
        "addr:postcode": "560002",
        "addr:street": "Sadar Patrappa Road",
        "name": "Navdeep Electronics",
        "opening_hours": "Mo-Sa 10:00-20:30; Su 10:00-15:00",
        "operator": "Navin Jain",
        "phone": "08041225559",
        "shop": "electronics"
      }
    },
    {
      "type": "node",
      "id": 5922608006,
      "lat": 12.9741959,
      "lon": 77.5740969,
      "tags": {
        "name": "Rajeshwari Tours & Travels",
        "shop": "travel_agency"
      }
    },
    {
      "type": "node",
      "id": 5922608007,
      "lat": 12.9741298,
      "lon": 77.574778,
      "tags": {
        "name": "Raj Tours & Travels",
        "shop": "travel_agency"
      }
    },
    {
      "type": "node",
      "id": 5922608008,
      "lat": 12.974151,
      "lon": 77.5749138,
      "tags": {
        "amenity": "restaurant",
        "name": "Majestic Bar & Restaurant"
      }
    },
    {
      "type": "node",
      "id": 5922608009,
      "lat": 12.9742065,
      "lon": 77.5751311,
      "tags": {
        "name": "Rajdeep Toys & Sports",
        "shop": "toys"
      }
    },
    {
      "type": "node",
      "id": 5922608010,
      "lat": 12.9742197,
      "lon": 77.5751935,
      "tags": {
        "name": "Sainath Office Needs",
        "shop": "stationery"
      }
    },
    {
      "type": "node",
      "id": 5922608012,
      "lat": 12.9740325,
      "lon": 77.5755128,
      "tags": {
        "amenity": "bank",
        "atm": "yes",
        "brand": "Kotak Mahindra Bank",
        "brand:wikidata": "Q2040404",
        "name": "Kotak Mahindra Bank",
        "name:kn": "ಕೋಟಕ್ ಮಹಿಂದ್ರ ಬ್ಯಾಂಕ್"
      }
    },
    {
      "type": "node",
      "id": 5922608013,
      "lat": 12.9747988,
      "lon": 77.5756766,
      "tags": {
        "amenity": "ice_cream",
        "name": "Mantap Ice Cream"
      }
    },
    {
      "type": "node",
      "id": 5922608014,
      "lat": 12.97484,
      "lon": 77.5756916,
      "tags": {
        "name": "Aboo Belt Centre",
        "note": "Wholesale Dealers in Belts and Wallets",
        "shop": "yes"
      }
    },
    {
      "type": "node",
      "id": 5922608015,
      "lat": 12.974868,
      "lon": 77.5757053,
      "tags": {
        "name": "Ranjit Opticals",
        "shop": "yes"
      }
    },
    {
      "type": "node",
      "id": 5922608016,
      "lat": 12.9749265,
      "lon": 77.5757831,
      "tags": {
        "name": "Majestic Fancy Centre",
        "shop": "perfumery"
      }
    },
    {
      "type": "node",
      "id": 5922608017,
      "lat": 12.9749451,
      "lon": 77.5758199,
      "tags": {
        "name": "Monissh Novelities",
        "shop": "stationery"
      }
    },
    {
      "type": "node",
      "id": 5922608018,
      "lat": 12.9749651,
      "lon": 77.5758691,
      "tags": {
        "name": "Kisan Footwear",
        "shop": "shoes"
      }
    },
    {
      "type": "node",
      "id": 5922608019,
      "lat": 12.9749824,
      "lon": 77.5759046,
      "tags": {
        "name": "Cothas Coffee",
        "shop": "coffee"
      }
    },
    {
      "type": "node",
      "id": 5922608020,
      "lat": 12.9750063,
      "lon": 77.5759565,
      "tags": {
        "name": "Arya Bhavan Sweets",
        "shop": "confectionery"
      }
    },
    {
      "type": "node",
      "id": 5922608021,
      "lat": 12.9750223,
      "lon": 77.5759988,
      "tags": {
        "name": "V.I.P",
        "shop": "bag"
      }
    },
    {
      "type": "node",
      "id": 5922608022,
      "lat": 12.9750422,
      "lon": 77.5760425,
      "tags": {
        "name": "Badsha Stores",
        "shop": "clothes"
      }
    },
    {
      "type": "node",
      "id": 5922608023,
      "lat": 12.9750569,
      "lon": 77.5761025,
      "tags": {
        "name": "Galaxy",
        "shop": "clothes"
      }
    },
    {
      "type": "node",
      "id": 5922608024,
      "lat": 12.9750489,
      "lon": 77.5761449,
      "tags": {
        "amenity": "bank",
        "atm": "yes",
        "brand": "Central Bank of India",
        "brand:wikidata": "Q2007090",
        "name": "Central Bank of India"
      }
    },
    {
      "type": "node",
      "id": 5964545002,
      "lat": 12.9755945,
      "lon": 77.5752997,
      "tags": {
        "amenity": "atm",
        "brand": "State Bank of India",
        "brand:wikidata": "Q1340361",
        "check_date": "2024-12-14",
        "name": "State Bank of India",
        "name:kn": "ಭಾರತೀಯ ಸ್ಟೇಟ್ ಬ್ಯಾಂಕ್",
        "operator": "State Bank of India",
        "operator:wikidata": "Q1340361",
        "short_name": "SBI"
      }
    },
    {
      "type": "node",
      "id": 6418981387,
      "lat": 12.9681033,
      "lon": 77.5749359,
      "tags": {
        "name": "Casual shirt",
        "shop": "clothes"
      }
    },
    {
      "type": "node",
      "id": 6418984279,
      "lat": 12.9683783,
      "lon": 77.5748789,
      "tags": {
        "addr:housenumber": "44",
        "addr:postcode": "560053",
        "addr:street": "AS Char Street",
        "name": "Mahadev Electronics",
        "shop": "electronics"
      }
    },
    {
      "type": "node",
      "id": 6418984600,
      "lat": 12.9708074,
      "lon": 77.5761672,
      "tags": {
        "amenity": "place_of_worship",
        "name": "Shree Kodahda Ramanjaneya Swamy Temple",
        "religion": "hindu",
        "wheelchair": "no"
      }
    },
    {
      "type": "node",
      "id": 6418984603,
      "lat": 12.9689075,
      "lon": 77.5771309,
      "tags": {
        "amenity": "community_centre",
        "name": "G R Veerabhadrappa's Veerashaiva Choultry, Sanskrit and Veda Pathashala"
      }
    },
    {
      "type": "node",
      "id": 6418984604,
      "lat": 12.9701196,
      "lon": 77.576326,
      "tags": {
        "addr:housenumber": "69",
        "addr:street": "A M Lane",
        "name": "Panna Sri Cables",
        "shop": "electronics"
      }
    },
    {
      "type": "node",
      "id": 6418985026,
      "lat": 12.9705176,
      "lon": 77.5760191,
      "tags": {
        "addr:housenumber": "29",
        "addr:street": "B.V.K. Iyengar Road",
        "name": "Mutha department stores",
        "shop": "department_store"
      }
    },
    {
      "type": "node",
      "id": 6418985027,
      "lat": 12.9705111,
      "lon": 77.5760421,
      "tags": {
        "addr:postcode": "560053",
        "addr:street": "B.V.K. Iyengar Road",
        "name": "Kancheepuram & designers sarees",
        "shop": "clothes"
      }
    },
    {
      "type": "node",
      "id": 6418987487,
      "lat": 12.9700843,
      "lon": 77.5763899,
      "tags": {
        "addr:housenumber": "72",
        "addr:street": "A M Lane",
        "name": "Amar electricals",
        "office": "company",
        "shop": "electronics"
      }
    },
    {
      "type": "node",
      "id": 6418987488,
      "lat": 12.9687354,
      "lon": 77.5774013,
      "tags": {
        "name": "Hingade Arcade",
        "shop": "clothes"
      }
    },
    {
      "type": "node",
      "id": 6418987489,
      "lat": 12.9715705,
      "lon": 77.5772659,
      "tags": {
        "amenity": "fast_food",
        "name": "Jodhpur Sweets"
      }
    },
    {
      "type": "node",
      "id": 6418988790,
      "lat": 12.9691224,
      "lon": 77.5768357,
      "tags": {
        "name": "Chickpet Plaza",
        "shop": "clothes"
      }
    },
    {
      "type": "node",
      "id": 6418988791,
      "lat": 12.970133,
      "lon": 77.5763065,
      "tags": {
        "addr:housenumber": "68",
        "addr:street": "A M Lane",
        "name": "Arihant cable corporation",
        "shop": "electronics"
      }
    },
    {
      "type": "node",
      "id": 6419006085,
      "lat": 12.9702453,
      "lon": 77.5760979,
      "tags": {
        "name": "Sri Ram Electricals",
        "phone": "08041221753",
        "shop": "electronics"
      }
    },
    {
      "type": "node",
      "id": 6419006086,
      "lat": 12.9702313,
      "lon": 77.5761119,
      "tags": {
        "addr:housenumber": "63/1",
        "addr:street": "A M Lane",
        "name": "Sri Anand Electricals",
        "phone": "+919986174238",
        "shop": "electronics"
      }
    },
    {
      "type": "node",
      "id": 6419006088,
      "lat": 12.9703132,
      "lon": 77.5758789,
      "tags": {
        "name": "Aarti electricals and lightning",
        "shop": "electronics"
      }
    },
    {
      "type": "node",
      "id": 6419006185,
      "lat": 12.9701942,
      "lon": 77.5761895,
      "tags": {
        "addr:street": "A M Lane",
        "name": "Sri Venkateshwara Lighting",
        "shop": "electronics"
      }
    },
    {
      "type": "node",
      "id": 6419007388,
      "lat": 12.9702033,
      "lon": 77.57617,
      "tags": {
        "addr:housenumber": "63",
        "addr:postcode": "560053",
        "addr:street": "A. M. Lane",
        "name": "Prakash Spare Parts",
        "shop": "hardware"
      }
    },
    {
      "type": "node",
      "id": 6419007389,
      "lat": 12.9698059,
      "lon": 77.5758039,
      "tags": {
        "name": "Sri Varadevi Society Silks",
        "shop": "clothes"
      }
    },
    {
      "type": "node",
      "id": 6419007390,
      "lat": 12.9693452,
      "lon": 77.5764784,
      "tags": {
        "name": "Srinivasa Stores",
        "shop": "clothes"
      }
    },
    {
      "type": "node",
      "id": 6419008285,
      "lat": 12.9702871,
      "lon": 77.5759404,
      "tags": {
        "addr:postcode": "560053",
        "addr:street": "AS Char Street",
        "name": "Nandini Milk Parlour",
        "name:kn": "ನಂದಿನಿ ಹಾಲಿನ ಅಂಗಡಿ",
        "shop": "convenience"
      }
    },
    {
      "type": "node",
      "id": 6419008685,
      "lat": 12.9703241,
      "lon": 77.5760364,
      "tags": {
        "amenity": "fast_food",
        "name": "Kachori house"
      }
    },
    {
      "type": "node",
      "id": 6419008686,
      "lat": 12.9692952,
      "lon": 77.5766217,
      "tags": {
        "name": "Maithili silks",
        "shop": "clothes"
      }
    },
    {
      "type": "node",
      "id": 6419008687,
      "lat": 12.9690365,
      "lon": 77.5768479,
      "tags": {
        "name": "Rukmini building",
        "shop": "department_store"
      }
    },
    {
      "type": "node",
      "id": 6419008688,
      "lat": 12.9701199,
      "lon": 77.5762439,
      "tags": {
        "addr:housenumber": "29",
        "addr:postcode": "560053",
        "addr:street": "AM Lane",
        "name": "Majisa Electricals",
        "shop": "electronics"
      }
    },
    {
      "type": "node",
      "id": 6419008689,
      "lat": 12.9700781,
      "lon": 77.576315,
      "tags": {
        "addr:housenumber": "28",
        "addr:postcode": "560053",
        "addr:street": "AM Lane",
        "name": "Bhati Electricals",
        "shop": "electronics"
      }
    },
    {
      "type": "node",
      "id": 6419008690,
      "lat": 12.9693234,
      "lon": 77.577456,
      "tags": {
        "name": "Mamta dupattas",
        "shop": "clothes"
      }
    },
    {
      "type": "node",
      "id": 6419008691,
      "lat": 12.9693079,
      "lon": 77.5774761,
      "tags": {
        "name": "Gold style",
        "shop": "clothes"
      }
    },
    {
      "type": "node",
      "id": 6419008693,
      "lat": 12.9685544,
      "lon": 77.5775827,
      "tags": {
        "name": "Sharma complex",
        "shop": "clothes"
      }
    },
    {
      "type": "node",
      "id": 6419011487,
      "lat": 12.9701759,
      "lon": 77.5762274,
      "tags": {
        "addr:street": "A M Lane",
        "name": "Mahendar Electricals",
        "shop": "electronics"
      }
    },
    {
      "type": "node",
      "id": 6419011488,
      "lat": 12.9701636,
      "lon": 77.5762462,
      "tags": {
        "name": "Mehtab Electricals",
        "shop": "electronics"
      }
    },
    {
      "type": "node",
      "id": 6419011489,
      "lat": 12.9696916,
      "lon": 77.5757534,
      "tags": {
        "check_date": "2025-08-23",
        "name": "Kanchi apex society",
        "shop": "clothes"
      }
    },
    {
      "type": "node",
      "id": 6419011490,
      "lat": 12.9693654,
      "lon": 77.5762498,
      "tags": {
        "check_date": "2025-08-23",
        "name": "Sudarshan store",
        "shop": "clothes"
      }
    },
    {
      "type": "node",
      "id": 6419011491,
      "lat": 12.9689875,
      "lon": 77.5769619,
      "tags": {
        "name": "Kalamandir",
        "name:kn": "ಕಲಾಮಂದಿರ",
        "shop": "clothes"
      }
    },
    {
      "type": "node",
      "id": 6419011492,
      "lat": 12.9701437,
      "lon": 77.5762001,
      "tags": {
        "addr:housenumber": "35/1",
        "addr:postcode": "560053",
        "addr:street": "AM Lane",
        "name": "MP Electricals",
        "shop": "electronics"
      }
    },
    {
      "type": "node",
      "id": 6419011493,
      "lat": 12.9701077,
      "lon": 77.5762618,
      "tags": {
        "addr:postcode": "560053",
        "addr:street": "AM Lane",
        "name": "Sri Guru Electrical & Co.",
        "shop": "electronics"
      }
    },
    {
      "type": "node",
      "id": 6419015585,
      "lat": 12.9698359,
      "lon": 77.5768143,
      "tags": {
        "name": "Mahavir Electric",
        "shop": "electronics"
      }
    },
    {
      "type": "node",
      "id": 6419015586,
      "lat": 12.970146,
      "lon": 77.5761829,
      "tags": {
        "addr:housenumber": "33",
        "addr:postcode": "560053",
        "addr:street": "AM Lane",
        "name": "Rajdhani Electricals",
        "shop": "electronics"
      }
    },
    {
      "type": "node",
      "id": 6419015588,
      "lat": 12.9688175,
      "lon": 77.5780186,
      "tags": {
        "addr:housenumber": "787",
        "addr:postcode": "560063",
        "addr:street": "AM Lane",
        "name": "Mohak Tex",
        "shop": "clothes"
      }
    },
    {
      "type": "node",
      "id": 6419015589,
      "lat": 12.9696203,
      "lon": 77.576967,
      "tags": {
        "name": "Usha Electricals Stores",
        "shop": "electronics"
      }
    },
    {
      "type": "node",
      "id": 6419015590,
      "lat": 12.969671,
      "lon": 77.5769673,
      "tags": {
        "name": "Highco",
        "shop": "electronics"
      }
    },
    {
      "type": "node",
      "id": 6419015591,
      "lat": 12.9700456,
      "lon": 77.576386,
      "tags": {
        "addr:housenumber": "106",
        "addr:postcode": "560053",
        "addr:street": "AM Lane",
        "name": "Paramount Electrical Co.",
        "shop": "electronics"
      }
    },
    {
      "type": "node",
      "id": 6419015592,
      "lat": 12.9698897,
      "lon": 77.5766241,
      "tags": {
        "name": "Power Associates",
        "shop": "electronics"
      }
    },
    {
      "type": "node",
      "id": 6419015593,
      "lat": 12.9698706,
      "lon": 77.5766562,
      "tags": {
        "addr:housenumber": "21/1",
        "addr:postcode": "560053",
        "addr:street": "AM Lane",
        "name": "Pratibha Electricals",
        "shop": "electronics"
      }
    },
    {
      "type": "node",
      "id": 6419015786,
      "lat": 12.9701447,
      "lon": 77.5762811,
      "tags": {
        "name": "Ganesh Electricals",
        "shop": "electronics"
      }
    },
    {
      "type": "node",
      "id": 6419015787,
      "lat": 12.9701654,
      "lon": 77.5762888,
      "tags": {
        "name": "Sri Omkar electricals",
        "shop": "electronics"
      }
    },
    {
      "type": "node",
      "id": 6419015788,
      "lat": 12.9696095,
      "lon": 77.5759104,
      "tags": {
        "amenity": "place_of_worship",
        "name": "Sri Kanteshwara Swamy Temple",
        "religion": "hindu"
      }
    },
    {
      "type": "node",
      "id": 6419015789,
      "lat": 12.970139,
      "lon": 77.5762187,
      "tags": {
        "addr:postcode": "560053",
        "addr:street": "AM Lane",
        "name": "Vinayaka Enterprises",
        "shop": "hardware"
      }
    },
    {
      "type": "node",
      "id": 6419015790,
      "lat": 12.9700592,
      "lon": 77.5763455,
      "tags": {
        "addr:housenumber": "27",
        "addr:postcode": "560053",
        "addr:street": "AM Lane",
        "name": "Mataji Electricals",
        "shop": "electronics"
      }
    },
    {
      "type": "node",
      "id": 6419015793,
      "lat": 12.9685675,
      "lon": 77.577541,
      "tags": {
        "name": "Byrappa & Sons",
        "shop": "clothes"
      }
    },
    {
      "type": "node",
      "id": 6419015794,
      "lat": 12.9685057,
      "lon": 77.5776567,
      "tags": {
        "name": "Anand Bhavan",
        "name:kn": "ಆನಂದ್ ಭಾವನ್",
        "shop": "clothes"
      }
    },
    {
      "type": "node",
      "id": 6419015795,
      "lat": 12.968738,
      "lon": 77.578544,
      "tags": {
        "addr:housenumber": "64",
        "addr:postcode": "560063",
        "addr:street": "AM Lane",
        "name": "Sha Misrimal Mohanlal & Co",
        "phone": "8792982712",
        "shop": "clothes"
      }
    },
    {
      "type": "node",
      "id": 6419015796,
      "lat": 12.9684235,
      "lon": 77.577773,
      "tags": {
        "name": "Byrappa & Sons",
        "shop": "clothes"
      }
    },
    {
      "type": "node",
      "id": 6419016885,
      "lat": 12.969013,
      "lon": 77.5778985,
      "tags": {
        "addr:housenumber": "#3/4",
        "addr:postcode": "560053",
        "addr:street": "AM Lane",
        "name": "Mahalakshmi Fashions",
        "phone": "9964231828",
        "shop": "clothes"
      }
    },
    {
      "type": "node",
      "id": 6419016886,
      "lat": 12.9688722,
      "lon": 77.57795,
      "tags": {
        "addr:housenumber": "790/1",
        "addr:postcode": "560053",
        "addr:street": "AM Lane",
        "name": "Shri Vardhaman Silk Centre and",
        "phone": "08022264095",
        "shop": "clothes"
      }
    },
    {
      "type": "node",
      "id": 6419024185,
      "lat": 12.9701116,
      "lon": 77.5763435,
      "tags": {
        "addr:housenumber": "71",
        "addr:street": "A M Lane",
        "name": "Cauvery Powers",
        "shop": "electronics"
      }
    },
    {
      "type": "node",
      "id": 6419024186,
      "lat": 12.9701042,
      "lon": 77.5763561,
      "tags": {
        "addr:housenumber": "71",
        "addr:street": "A M Lane",
        "name": "Cauvery Electricals",
        "phone": "+918022261999",
        "shop": "electronics"
      }
    },
    {
      "type": "node",
      "id": 6419024187,
      "lat": 12.9685732,
      "lon": 77.5776696,
      "tags": {
        "name": "Devatha Market",
        "shop": "clothes"
      }
    },
    {
      "type": "node",
      "id": 6419024188,
      "lat": 12.9684705,
      "lon": 77.5778334,
      "tags": {
        "name": "Bombay Fancy Store",
        "shop": "clothes"
      }
    },
    {
      "type": "node",
      "id": 6419024189,
      "lat": 12.9717448,
      "lon": 77.5770331,
      "tags": {
        "amenity": "fast_food",
        "name": "Karnataka Chat"
      }
    },
    {
      "type": "node",
      "id": 6419024192,
      "lat": 12.9700768,
      "lon": 77.5764056,
      "tags": {
        "addr:housenumber": "71",
        "addr:street": "A M Lane",
        "name": "K R Electricals",
        "shop": "electronics"
      }
    },
    {
      "type": "node",
      "id": 6419024193,
      "lat": 12.9700606,
      "lon": 77.576438,
      "tags": {
        "addr:housenumber": "73",
        "addr:street": "A M Lane",
        "name": "Guru electricals",
        "shop": "electronics"
      }
    },
    {
      "type": "node",
      "id": 6419024194,
      "lat": 12.9700323,
      "lon": 77.5764757,
      "tags": {
        "name": "Sri Bajrang Electricals",
        "shop": "electronics"
      }
    },
    {
      "type": "node",
      "id": 6419025585,
      "lat": 12.9684941,
      "lon": 77.5779612,
      "tags": {
        "name": "Mohan Building",
        "shop": "clothes"
      }
    },
    {
      "type": "node",
      "id": 6419027085,
      "lat": 12.9685695,
      "lon": 77.5784008,
      "tags": {
        "addr:housenumber": "B-24",
        "addr:postcode": "560053",
        "addr:street": "AM Lane",
        "name": "Woollen Ware House",
        "shop": "clothes"
      }
    },
    {
      "type": "node",
      "id": 6419027086,
      "lat": 12.9693695,
      "lon": 77.5767616,
      "tags": {
        "name": "Sundar electricals",
        "shop": "electronics"
      }
    },
    {
      "type": "node",
      "id": 6419027087,
      "lat": 12.9696813,
      "lon": 77.577009,
      "tags": {
        "addr:street": "A M line-A",
        "amenity": "fast_food",
        "name": "हनुमान चाट्स",
        "name:en": "Hanuman chats"
      }
    },
    {
      "type": "node",
      "id": 6419027088,
      "lat": 12.9682287,
      "lon": 77.5780937,
      "tags": {
        "name": "Pvr silks",
        "shop": "clothes"
      }
    },
    {
      "type": "node",
      "id": 6419027090,
      "lat": 12.9700486,
      "lon": 77.5763732,
      "tags": {
        "addr:housenumber": "106/1",
        "addr:postcode": "560053",
        "addr:street": "AM Lane",
        "name": "Wire Sales Corporation",
        "shop": "electronics"
      }
    },
    {
      "type": "node",
      "id": 6419027091,
      "lat": 12.9700413,
      "lon": 77.5764018,
      "tags": {
        "addr:housenumber": "26/3",
        "addr:postcode": "560053",
        "addr:street": "AM Lane",
        "name": "Hari Om Electricals and Hardware",
        "shop": "electronics"
      }
    },
    {
      "type": "node",
      "id": 6419027092,
      "lat": 12.9699441,
      "lon": 77.5765263,
      "tags": {
        "addr:housenumber": "24",
        "addr:postcode": "560053",
        "addr:street": "AM Lane",
        "name": "Mukesh Enterprises",
        "shop": "electronics"
      }
    },
    {
      "type": "node",
      "id": 6419027093,
      "lat": 12.9698302,
      "lon": 77.5767116,
      "tags": {
        "addr:housenumber": "20",
        "addr:postcode": "560053",
        "addr:street": "AM Lane",
        "name": "Gowder Complex",
        "shop": "electronics"
      }
    },
    {
      "type": "node",
      "id": 6419027094,
      "lat": 12.9698397,
      "lon": 77.5767067,
      "tags": {
        "addr:housenumber": "20",
        "addr:postcode": "560053",
        "addr:street": "AM Lane",
        "name": "MM Switchgear",
        "shop": "electronics"
      }
    },
    {
      "type": "node",
      "id": 6419027095,
      "lat": 12.9695714,
      "lon": 77.5770767,
      "tags": {
        "addr:postcode": "560053",
        "addr:street": "AM Lane",
        "name": "Vasath Textiles",
        "shop": "clothes"
      }
    },
    {
      "type": "node",
      "id": 6419027096,
      "lat": 12.9682756,
      "lon": 77.578859,
      "tags": {
        "name": "Rajashree market",
        "shop": "clothes"
      }
    },
    {
      "type": "node",
      "id": 6419027186,
      "lat": 12.9696489,
      "lon": 77.5769901,
      "tags": {
        "name": "Light house",
        "shop": "electronics"
      }
    },
    {
      "type": "node",
      "id": 6419027188,
      "lat": 12.9694413,
      "lon": 77.5772825,
      "tags": {
        "addr:housenumber": "10/3",
        "addr:street": "A M Lane",
        "name": "Delbees",
        "shop": "clothes"
      }
    },
    {
      "type": "node",
      "id": 6419027190,
      "lat": 12.9694822,
      "lon": 77.5773149,
      "tags": {
        "addr:street": "A M lane",
        "name": "Dhanalakshmi market",
        "shop": "clothes"
      }
    },
    {
      "type": "node",
      "id": 6419027192,
      "lat": 12.9682222,
      "lon": 77.5783267,
      "tags": {
        "name": "Jewellers association building",
        "shop": "clothes"
      }
    },
    {
      "type": "node",
      "id": 6419027194,
      "lat": 12.9695947,
      "lon": 77.5769459,
      "tags": {
        "name": "Padam electricals",
        "shop": "electronics"
      }
    },
    {
      "type": "node",
      "id": 6419027195,
      "lat": 12.9693581,
      "lon": 77.5775277,
      "tags": {
        "addr:street": "A M Lane",
        "name": "S. Kapurchand and sons",
        "shop": "electronics"
      }
    },
    {
      "type": "node",
      "id": 6419027196,
      "lat": 12.9695826,
      "lon": 77.5771793,
      "tags": {
        "addr:housenumber": "80",
        "addr:postcode": "560053",
        "addr:street": "AM Lane",
        "name": "Manikant & Co.",
        "shop": "clothes"
      }
    },
    {
      "type": "node",
      "id": 6419027197,
      "lat": 12.9692566,
      "lon": 77.5775515,
      "tags": {
        "addr:postcode": "560053",
        "addr:street": "AM Lane",
        "name": "Chamundeshwari Textiles",
        "shop": "clothes"
      }
    },
    {
      "type": "node",
      "id": 6419027198,
      "lat": 12.9686865,
      "lon": 77.5790878,
      "tags": {
        "name": "Pathi market",
        "shop": "clothes"
      }
    },
    {
      "type": "node",
      "id": 6419027199,
      "lat": 12.9689457,
      "lon": 77.5780128,
      "tags": {
        "addr:street": "A M Lane",
        "name": "Mahalaxmi fashions",
        "shop": "clothes"
      }
    },
    {
      "type": "node",
      "id": 6419027200,
      "lat": 12.9689238,
      "lon": 77.5792294,
      "tags": {
        "name": "Raghavendra market",
        "shop": "clothes"
      }
    },
    {
      "type": "node",
      "id": 6419027486,
      "lat": 12.9700534,
      "lon": 77.5764466,
      "tags": {
        "addr:housenumber": "73",
        "addr:street": "A M Lane",
        "name": "Vijay Electrical enterprises",
        "shop": "electronics"
      }
    },
    {
      "type": "node",
      "id": 6419027487,
      "lat": 12.9700441,
      "lon": 77.5764584,
      "tags": {
        "addr:housenumber": "74",
        "addr:street": "A M Lane",
        "name": "Prakash Electrical Enterprises",
        "shop": "electronics"
      }
    },
    {
      "type": "node",
      "id": 6419028085,
      "lat": 12.9700673,
      "lon": 77.5764205,
      "tags": {
        "addr:housenumber": "72",
        "addr:street": "A M Lane",
        "name": "Balaji Agencies",
        "shop": "electronics"
      }
    },
    {
      "type": "node",
      "id": 6419028086,
      "lat": 12.9700228,
      "lon": 77.5764918,
      "tags": {
        "addr:housenumber": "35",
        "addr:street": "A M Lane",
        "name": "Mishra electricals",
        "shop": "electronics"
      }
    },
    {
      "type": "node",
      "id": 6419044985,
      "lat": 12.9681904,
      "lon": 77.578846,
      "tags": {
        "name": "Sakalajee market",
        "shop": "clothes"
      }
    },
    {
      "type": "node",
      "id": 6419044988,
      "lat": 12.9692985,
      "lon": 77.5793482,
      "tags": {
        "addr:street": "Avenue Road",
        "amenity": "bank",
        "brand": "Karur Vysya Bank",
        "brand:wikidata": "Q6373724",
        "name": "Karur Vysya Bank",
        "name:kn": "ಕರೂರು ವೈಶ್ಯ ಬ್ಯಾಂಕ್"
      }
    },
    {
      "type": "node",
      "id": 6419044989,
      "lat": 12.9686127,
      "lon": 77.5790381,
      "tags": {
        "addr:postcode": "560053",
        "addr:street": "Avenue Road",
        "amenity": "place_of_worship",
        "name": "Balaji Temple",
        "name:kn": "ಬಾಲಾಜಿ ದೇವಸ್ಥಾನ",
        "religion": "hindu",
        "wheelchair": "no"
      }
    },
    {
      "type": "node",
      "id": 6419044990,
      "lat": 12.9688815,
      "lon": 77.5791931,
      "tags": {
        "amenity": "atm",
        "brand": "ICICI Bank",
        "brand:wikidata": "Q1653258",
        "name": "ICICI Bank",
        "operator": "ICICI Bank",
        "operator:wikidata": "Q1653258",
        "short_name": "ICICI",
        "survey:date": "2022-07-17"
      }
    },
    {
      "type": "node",
      "id": 6419048785,
      "lat": 12.9695167,
      "lon": 77.5772706,
      "tags": {
        "addr:housenumber": "25/79",
        "addr:postcode": "560053",
        "addr:street": "AM Lane",
        "name": "Poonam Trading Co",
        "shop": "clothes"
      }
    },
    {
      "type": "node",
      "id": 6419048786,
      "lat": 12.9692799,
      "lon": 77.5775206,
      "tags": {
        "addr:postcode": "560053",
        "addr:street": "AM Lane",
        "name": "SK Complex",
        "shop": "clothes"
      }
    },
    {
      "type": "node",
      "id": 6419048789,
      "lat": 12.9683266,
      "lon": 77.5782068,
      "tags": {
        "name": "Rajatha Complex",
        "shop": "clothes"
      }
    },
    {
      "type": "node",
      "id": 6419048790,
      "lat": 12.9685731,
      "lon": 77.5789075,
      "tags": {
        "name": "Arya Vysya Mandali Chambers",
        "shop": "clothes"
      }
    },
    {
      "type": "node",
      "id": 6419049986,
      "lat": 12.9709487,
      "lon": 77.578094,
      "tags": {
        "alt_name": "Haldiram",
        "amenity": "fast_food",
        "brand": "Haldiram's",
        "brand:wikidata": "Q17054442",
        "cuisine": "indian",
        "name": "Haldiram's",
        "shop": "confectionery",
        "takeaway": "yes"
      }
    },
    {
      "type": "node",
      "id": 6419049987,
      "lat": 12.9707166,
      "lon": 77.5784032,
      "tags": {
        "name": "Manak Mewa",
        "shop": "bakery"
      }
    },
    {
      "type": "node",
      "id": 6419052586,
      "lat": 12.9692487,
      "lon": 77.5794495,
      "tags": {
        "amenity": "atm",
        "brand": "IDFC First Bank",
        "brand:wikidata": "Q22031467",
        "check_date": "2022-07-17",
        "name": "IDFC First Bank",
        "operator": "IDFC First Bank",
        "operator:wikidata": "Q22031467",
        "survey:date": "2022-07-17"
      }
    },
    {
      "type": "node",
      "id": 6419052587,
      "lat": 12.9694658,
      "lon": 77.5794819,
      "tags": {
        "addr:housenumber": "553",
        "addr:postcode": "560053",
        "addr:street": "Avenue Road",
        "alt_name": "Parvathy Someshwara Temple",
        "amenity": "place_of_worship",
        "name": "Sri Parvati Someshwara Swamy Temple",
        "religion": "hindu"
      }
    },
    {
      "type": "node",
      "id": 6419052588,
      "lat": 12.9699453,
      "lon": 77.5798033,
      "tags": {
        "addr:street": "Avenue Road",
        "amenity": "place_of_worship",
        "name": "Sri Guru Shanaischara Swamy Temple",
        "religion": "hindu"
      }
    },
    {
      "type": "node",
      "id": 6419052685,
      "lat": 12.9692728,
      "lon": 77.579469,
      "tags": {
        "amenity": "atm",
        "brand": "Canara Bank",
        "brand:en": "Canara Bank",
        "brand:hi": "केनरा बैंक",
        "brand:kn": "ಕೆನರಾ ಬ್ಯಾಂಕ್",
        "brand:pa": "ਕੇਨਰਾ ਬੈਂਕ",
        "brand:pnb": "کینرا بینک",
        "brand:ur": "کینرا بینک",
        "brand:wikidata": "Q2003777",
        "name": "Canara Bank",
        "name:en": "Canara Bank",
        "name:hi": "केनरा बैंक",
        "name:kn": "ಕೆನರಾ ಬ್ಯಾಂಕ್",
        "name:pa": "ਕੇਨਰਾ ਬੈਂਕ",
        "name:pnb": "کینرا بینک",
        "name:ur": "کینرا بینک",
        "operator": "Canara Bank",
        "operator:wikidata": "Q2003777"
      }
    },
    {
      "type": "node",
      "id": 6419052686,
      "lat": 12.9692389,
      "lon": 77.5795139,
      "tags": {
        "amenity": "bank",
        "brand": "Canara Bank",
        "brand:en": "Canara Bank",
        "brand:hi": "केनरा बैंक",
        "brand:kn": "ಕೆನರಾ ಬ್ಯಾಂಕ್",
        "brand:pa": "ਕੇਨਰਾ ਬੈਂਕ",
        "brand:pnb": "کینرا بینک",
        "brand:ur": "کینرا بینک",
        "brand:wikidata": "Q2003777",
        "brand:wikipedia": "en:Canara Bank",
        "brand:wikipedia:pa": "ਕੇਨਰਾ ਬੈਂਕ",
        "name": "Canara Bank",
        "name:en": "Canara Bank",
        "name:hi": "केनरा बैंक",
        "name:kn": "ಕೆನರಾ ಬ್ಯಾಂಕ್",
        "name:pa": "ਕੇਨਰਾ ਬੈਂਕ",
        "name:pnb": "کینرا بینک",
        "name:ur": "کینرا بینک"
      }
    },
    {
      "type": "node",
      "id": 6419052689,
      "lat": 12.9692885,
      "lon": 77.5794993,
      "tags": {
        "name": "Avenue plaza",
        "shop": "clothes"
      }
    },
    {
      "type": "node",
      "id": 6419055685,
      "lat": 12.9693722,
      "lon": 77.5793304,
      "tags": {
        "amenity": "community_centre",
        "name": "Chintalapalli Venkatamuni Setty's Free Boarding Hostel and Choultry"
      }
    },
    {
      "type": "node",
      "id": 6419055686,
      "lat": 12.9697564,
      "lon": 77.5797471,
      "tags": {
        "addr:street": "Avenue Road",
        "amenity": "bank",
        "brand": "Indian Bank",
        "brand:wikidata": "Q2003789",
        "name": "Indian Bank",
        "name:kn": "ಇಂಡಿಯನ್ ಬ್ಯಾಂಕ್"
      }
    },
    {
      "type": "node",
      "id": 6419055687,
      "lat": 12.9692492,
      "lon": 77.5793602,
      "tags": {
        "addr:housenumber": "544",
        "addr:postcode": "560053",
        "addr:street": "Avenue Road",
        "amenity": "fast_food",
        "name": "Aradhana Gowri Condiments & Chats"
      }
    },
    {
      "type": "node",
      "id": 6419057785,
      "lat": 12.9696955,
      "lon": 77.5797222,
      "tags": {
        "name": "Jayanthi building",
        "name:kn": "ಜಯಂತಿ",
        "shop": "clothes"
      }
    },
    {
      "type": "node",
      "id": 6419057885,
      "lat": 12.9710049,
      "lon": 77.5780144,
      "tags": {
        "name": "Bikaji",
        "shop": "confectionery"
      }
    },
    {
      "type": "node",
      "id": 6419058085,
      "lat": 12.9686361,
      "lon": 77.5779851,
      "tags": {
        "addr:street": "A M Lane",
        "name": "Thandava mudiliar and sons",
        "shop": "clothes"
      }
    },
    {
      "type": "node",
      "id": 6419070686,
      "lat": 12.9678926,
      "lon": 77.5787208,
      "tags": {
        "name": "Neelkamal sweets",
        "shop": "confectionery"
      }
    },
    {
      "type": "node",
      "id": 6419095285,
      "lat": 12.9723595,
      "lon": 77.5759819,
      "tags": {
        "amenity": "kindergarten",
        "name": "Patasi Bai Nursery School"
      }
    },
    {
      "type": "node",
      "id": 6419145385,
      "lat": 12.9716342,
      "lon": 77.5741018,
      "tags": {
        "addr:housenumber": "123/4",
        "addr:postcode": "560053",
        "addr:street": "Balepet Road",
        "amenity": "restaurant",
        "cuisine": "indian",
        "name": "Udupi Sri Krishna Bhavan",
        "opening_hours": "We-Mo 07:45-19:45"
      }
    },
    {
      "type": "node",
      "id": 6487165545,
      "lat": 12.9743717,
      "lon": 77.5775468,
      "tags": {
        "brand": "Ramraj Cotton",
        "brand:wikidata": "Q119161281",
        "name": "Ramraj Cotton",
        "payment:credit_cards": "yes",
        "payment:debit_cards": "yes",
        "shop": "clothes",
        "wheelchair": "no"
      }
    },
    {
      "type": "node",
      "id": 6487165546,
      "lat": 12.9753597,
      "lon": 77.5752951,
      "tags": {
        "brand": "Liberty",
        "brand:wikidata": "Q6541947",
        "name": "Liberty Exclusive Showroom",
        "shop": "shoes"
      }
    },
    {
      "type": "node",
      "id": 6681215515,
      "lat": 12.9742181,
      "lon": 77.5793459,
      "tags": {
        "amenity": "bank",
        "atm": "yes",
        "brand": "Syndicate Bank",
        "brand:wikidata": "Q2004088",
        "layer": "2",
        "name": "Syndicate Bank",
        "name:kn": "ಸಿಂಡಿಕೇಟ್ ಬ್ಯಾಂಕ್"
      }
    },
    {
      "type": "node",
      "id": 6681215516,
      "lat": 12.9734339,
      "lon": 77.5806454,
      "tags": {
        "amenity": "bank",
        "atm": "yes",
        "brand": "United Bank of India",
        "brand:wikidata": "Q2003237",
        "name": "United Bank of India"
      }
    },
    {
      "type": "node",
      "id": 6698273388,
      "lat": 12.9773998,
      "lon": 77.5762252,
      "tags": {
        "addr:housenumber": "12",
        "addr:street": "Gandhi Nagar 2nd Cross",
        "name": "Grand Majestic Mall",
        "shop": "mall"
      }
    },
    {
      "type": "node",
      "id": 6882713299,
      "lat": 12.9635486,
      "lon": 77.573669,
      "tags": {
        "addr:city": "Bengaluru",
        "addr:district": "BENGALURU URBAN",
        "addr:full": "Fort Road, Bengaluru",
        "addr:postcode": "560002",
        "addr:state": "Karnataka",
        "amenity": "blood_bank",
        "contact:mobile": "9591497657",
        "contact:phone": "8026700001",
        "fax": "080 26703267.",
        "name": "Victoria Hospital Blood Bank",
        "name:kn": "ರಕ್ತ ಸಂಗ್ರಹ",
        "opening_hours": "24/7",
        "operator:type": "government",
        "source": "OpenGovernmentData",
        "website": "https://victoriahospitalbangalore.org/"
      }
    },
    {
      "type": "node",
      "id": 6882713300,
      "lat": 12.9706777,
      "lon": 77.5859401,
      "tags": {
        "addr:city": "Bengaluru",
        "addr:district": "BENGALURU URBAN",
        "addr:full": "Nrupatunga Road",
        "addr:postcode": "560001",
        "addr:state": "Karnataka",
        "amenity": "blood_bank",
        "contact:mobile": "9686452704",
        "contact:phone": "8040128243",
        "name": "Saint Martha' Hospital Blood Bank",
        "opening_hours": "24/7",
        "operator:type": "private",
        "source": "OpenGovernmentData"
      }
    },
    {
      "type": "node",
      "id": 6938690597,
      "lat": 12.9690441,
      "lon": 77.5688544,
      "tags": {
        "addr:district": "Bengaluru Urban",
        "addr:full": "No.71, Mill Road, Cottonpet",
        "addr:postcode": "560053",
        "addr:state": "Karnataka",
        "amenity": "hospital",
        "name": "Radha Maternity and Surgical Hospital",
        "source": "OpenGovernmentData"
      }
    },
    {
      "type": "node",
      "id": 6938775840,
      "lat": 12.9711822,
      "lon": 77.5781228,
      "tags": {
        "addr:district": "Bengaluru Urban",
        "addr:full": "7Th Cross, Rangaswamy Temple Street",
        "addr:postcode": "560053",
        "addr:state": "Karnataka",
        "amenity": "hospital",
        "name": "Amar Hospital",
        "name:kn": "ಅಮರ್ ಆಸ್ಪತ್ರೆ",
        "source": "OpenGovernmentData"
      }
    },
    {
      "type": "node",
      "id": 6944096791,
      "lat": 12.9717138,
      "lon": 77.5770294,
      "tags": {
        "addr:district": "Bengaluru Urban",
        "addr:full": "202/3 Mahesh Towers R T Street",
        "addr:postcode": "560053",
        "addr:state": "Karnataka",
        "amenity": "clinic",
        "name": "Mahesh Clinic",
        "source": "OpenGovernmentData"
      }
    },
    {
      "type": "node",
      "id": 6945020140,
      "lat": 12.9685305,
      "lon": 77.5843965,
      "tags": {
        "addr:district": "Bengaluru Urban",
        "addr:full": "No 37, Next To Ganesha Temple Near Cubbonpet Market Near Cubbonpet Market",
        "addr:postcode": "560002",
        "addr:state": "Karnataka",
        "amenity": "hospital",
        "name": "Punarjyoti Eye Hospital, Bengaluru Urban",
        "source": "OpenGovernmentData"
      }
    },
    {
      "type": "node",
      "id": 6945768862,
      "lat": 12.9732706,
      "lon": 77.5725357,
      "tags": {
        "addr:district": "Bengaluru Urban",
        "addr:full": "No. 12, Park Road, Bale Peth",
        "addr:postcode": "560053",
        "addr:state": "Karnataka",
        "amenity": "hospital",
        "name": "Sreeniwasa Hospital",
        "name:kn": "ಶ್ರೀನಿವಾಸ ದೇವಸ್ಥಾನ",
        "source": "OpenGovernmentData"
      }
    },
    {
      "type": "node",
      "id": 6947682067,
      "lat": 12.9619528,
      "lon": 77.5728562,
      "tags": {
        "addr:district": "Bengaluru Urban",
        "addr:full": "Victoria Hospital Campus",
        "addr:postcode": "560002",
        "addr:state": "Karnataka",
        "amenity": "hospital",
        "healthcare": "hospital",
        "name": "Institute Of Nephro Urology hospital",
        "source": "OpenGovernmentData"
      }
    },
    {
      "type": "node",
      "id": 7043568487,
      "lat": 12.9635112,
      "lon": 77.5848109,
      "tags": {
        "name": "Ganapathy and Company",
        "shop": "convenience"
      }
    },
    {
      "type": "node",
      "id": 7043568488,
      "lat": 12.9748951,
      "lon": 77.5755559,
      "tags": {
        "name": "A.K. Shoe Point",
        "shop": "shoes"
      }
    },
    {
      "type": "node",
      "id": 7056166958,
      "lat": 12.9645263,
      "lon": 77.5826626,
      "tags": {
        "addr:city": "Bengaluru",
        "addr:postcode": "560002",
        "addr:street": "P. P. Lane",
        "name": "Computer Mega Mart",
        "shop": "computer"
      }
    },
    {
      "type": "node",
      "id": 7292436129,
      "lat": 12.9720421,
      "lon": 77.5832324,
      "tags": {
        "amenity": "bank",
        "atm": "yes",
        "brand": "Axis Bank",
        "brand:wikidata": "Q2003549",
        "name": "Axis Bank",
        "name:kn": "ಆಕ್ಸಿಸ್ ಬ್ಯಾಂಕ್",
        "operator": "Axis Bank"
      }
    },
    {
      "type": "node",
      "id": 7292436130,
      "lat": 12.9721584,
      "lon": 77.5830647,
      "tags": {
        "amenity": "bank",
        "atm": "yes",
        "brand": "Canara Bank",
        "brand:en": "Canara Bank",
        "brand:hi": "केनरा बैंक",
        "brand:kn": "ಕೆನರಾ ಬ್ಯಾಂಕ್",
        "brand:pa": "ਕੇਨਰਾ ਬੈਂਕ",
        "brand:pnb": "کینرا بینک",
        "brand:ur": "کینرا بینک",
        "brand:wikidata": "Q2003777",
        "brand:wikipedia": "en:Canara Bank",
        "brand:wikipedia:pa": "ਕੇਨਰਾ ਬੈਂਕ",
        "name": "Canara Bank",
        "name:en": "Canara Bank",
        "name:hi": "केनरा बैंक",
        "name:kn": "ಕೆನರಾ ಬ್ಯಾಂಕ್",
        "name:pa": "ਕੇਨਰਾ ਬੈਂਕ",
        "name:pnb": "کینرا بینک",
        "name:ur": "کینرا بینک"
      }
    },
    {
      "type": "node",
      "id": 7292436131,
      "lat": 12.9722943,
      "lon": 77.5829172,
      "tags": {
        "amenity": "bank",
        "atm": "yes",
        "brand": "State Bank of India",
        "brand:wikidata": "Q1340361",
        "name": "State Bank of India",
        "operator": "State Bank of India",
        "short_name": "SBI"
      }
    },
    {
      "type": "node",
      "id": 7292436134,
      "lat": 12.9735123,
      "lon": 77.5804885,
      "tags": {
        "name": "Priyadarshini Handlooms",
        "shop": "clothes"
      }
    },
    {
      "type": "node",
      "id": 7292436135,
      "lat": 12.9732666,
      "lon": 77.5800808,
      "tags": {
        "amenity": "bank",
        "atm": "yes",
        "brand": "Kotak Mahindra Bank",
        "brand:wikidata": "Q2040404",
        "name": "Kotak Mahindra Bank",
        "name:kn": "ಕೋಟಕ್ ಮಹಿಂದ್ರ ಬ್ಯಾಂಕ್",
        "operator": "Kotak Mahindra Bank"
      }
    },
    {
      "type": "node",
      "id": 7292436136,
      "lat": 12.9734013,
      "lon": 77.5797763,
      "tags": {
        "brand": "Bata",
        "brand:wikidata": "Q688082",
        "name": "Bata",
        "shop": "shoes",
        "wheelchair": "no"
      }
    },
    {
      "type": "node",
      "id": 7292436137,
      "lat": 12.9740416,
      "lon": 77.5783776,
      "tags": {
        "name": "Maharaja Times",
        "shop": "watches",
        "wheelchair": "no"
      }
    },
    {
      "type": "node",
      "id": 7292436138,
      "lat": 12.9740926,
      "lon": 77.5782381,
      "tags": {
        "amenity": "bank",
        "atm": "yes",
        "brand": "South Indian Bank",
        "brand:wikidata": "Q2044973",
        "name": "South Indian Bank",
        "wheelchair": "no"
      }
    },
    {
      "type": "node",
      "id": 7292436139,
      "lat": 12.9746036,
      "lon": 77.5769761,
      "tags": {
        "brand": "Bata",
        "brand:wikidata": "Q688082",
        "name": "Bata",
        "shop": "shoes"
      }
    },
    {
      "type": "node",
      "id": 7292436140,
      "lat": 12.9744729,
      "lon": 77.5766663,
      "tags": {
        "name": "Khadim's",
        "shop": "clothes"
      }
    },
    {
      "type": "node",
      "id": 7292436141,
      "lat": 12.9746728,
      "lon": 77.576728,
      "tags": {
        "name": "Woodland",
        "shop": "clothes"
      }
    },
    {
      "type": "node",
      "id": 7292436151,
      "lat": 12.9743154,
      "lon": 77.5707319,
      "tags": {
        "name": "Samak Holidays",
        "office": "travel_agent",
        "shop": "travel_agency"
      }
    },
    {
      "type": "node",
      "id": 7576958028,
      "lat": 12.9633185,
      "lon": 77.5790145,
      "tags": {
        "addr:district": "Bengaluru Urban",
        "addr:full": "Near Jamia Masjid, NR Road, Bengaluru",
        "addr:postcode": "560002",
        "addr:state": "Karnataka",
        "amenity": "hospital",
        "name": "Unani Hospital",
        "source": "Local Knowledge"
      }
    },
    {
      "type": "node",
      "id": 7576958029,
      "lat": 12.970483,
      "lon": 77.5789065,
      "tags": {
        "addr:district": "Bengaluru Urban",
        "addr:full": "Anchepet, Chickpet, Bengaluru",
        "addr:postcode": "560053",
        "addr:state": "Karnataka",
        "amenity": "clinic",
        "name": "Priya Clinic",
        "source": "Local Knowledge"
      }
    },
    {
      "type": "node",
      "id": 7576958054,
      "lat": 12.9712575,
      "lon": 77.5777304,
      "tags": {
        "addr:district": "Bengaluru Urban",
        "addr:full": "Rangaswamy Temple Road, Mamulpet, Bengaluru",
        "addr:postcode": "560053",
        "addr:state": "Karnataka",
        "amenity": "clinic",
        "name": "Sham Singh Clinic",
        "source": "Local Knowledge"
      }
    },
    {
      "type": "node",
      "id": 7576958086,
      "lat": 12.9702549,
      "lon": 77.5734571,
      "tags": {
        "addr:district": "Bengaluru Urban",
        "addr:full": "Santhusapet, Bengaluru",
        "addr:postcode": "560053",
        "addr:state": "Karnataka",
        "amenity": "hospital",
        "name": "Manavarthapet Pregnancy Hospital",
        "source": "Local Knowledge"
      }
    },
    {
      "type": "node",
      "id": 7576958095,
      "lat": 12.972126,
      "lon": 77.573351,
      "tags": {
        "addr:district": "Bengaluru Urban",
        "addr:full": "JM Road, Upparpete, Bengaluru",
        "addr:postcode": "560053",
        "addr:state": "Karnataka",
        "amenity": "hospital",
        "healthcare": "hospital",
        "name": "ESI Hospital",
        "operator": "Employees' State Insurance",
        "operator:short": "ESI",
        "operator:wikidata": "Q3595726",
        "source": "Local Knowledge"
      }
    },
    {
      "type": "node",
      "id": 7576958114,
      "lat": 12.9690341,
      "lon": 77.57708,
      "tags": {
        "addr:district": "Bengaluru Urban",
        "addr:full": "Cubbon Pet Main Road, Cubbonpet, Bengaluru",
        "addr:postcode": "560002",
        "addr:state": "Karnataka",
        "amenity": "clinic",
        "healthcare": "clinic",
        "name": "Shyam Clinic",
        "source": "Local Knowledge"
      }
    },
    {
      "type": "node",
      "id": 7927990685,
      "lat": 12.9727568,
      "lon": 77.5716806,
      "tags": {
        "addr:housenumber": "29-105-415/1",
        "addr:postcode": "560053",
        "addr:street": "Old Taluk Cutchery Rd, Majestic",
        "amenity": "school",
        "email": "communications.oismj@orchids.edu.in",
        "name": "Orchids The International School - Majestic",
        "opening_hours": "Mo-Su 09:00-18:30",
        "operator": "Orchids International School",
        "phone": "9513731352",
        "website": "https://www.orchidsinternationalschool.com/bangalore-branches/majestic/"
      }
    },
    {
      "type": "node",
      "id": 8187963461,
      "lat": 12.9769785,
      "lon": 77.5788979,
      "tags": {
        "addr:full": "No 24, 2nd Cross Rd, Gandhi Nagar, Bengaluru, Karnataka",
        "addr:state": "Karnataka",
        "amenity": "bank",
        "brand": "Federal Bank",
        "brand:wikidata": "Q2044983",
        "name": "Federal Bank",
        "name:kn": "ಫೆಡೆರಲ್ ಬ್ಯಾಂಕ್"
      }
    },
    {
      "type": "node",
      "id": 8196809485,
      "lat": 12.9686611,
      "lon": 77.5856195,
      "tags": {
        "addr:full": "8-cross cubbon pet, opposite st marthas hospital, corporation circle, Cubbonpete, Nagarathpete, Bengaluru, Karnataka",
        "addr:state": "Karnataka",
        "amenity": "college",
        "name": "Global Institute of Medical Science"
      }
    },
    {
      "type": "node",
      "id": 8463203311,
      "lat": 12.9644404,
      "lon": 77.5817458,
      "tags": {
        "description": "A large shop selling screw drivers, wire cutters, wire strippers, nippers, crimping tools, etc.",
        "name": "Goodwill enterprises",
        "shop": "hardware"
      }
    },
    {
      "type": "node",
      "id": 9140200243,
      "lat": 12.9689448,
      "lon": 77.5842382,
      "tags": {
        "amenity": "cafe",
        "name": "Coffee"
      }
    },
    {
      "type": "node",
      "id": 9140200244,
      "lat": 12.9683717,
      "lon": 77.5844461,
      "tags": {
        "amenity": "fast_food",
        "cuisine": "regional",
        "name": "Chikkanna Tiffin Room",
        "takeaway": "yes"
      }
    },
    {
      "type": "node",
      "id": 9249667850,
      "lat": 12.9650835,
      "lon": 77.5806688,
      "tags": {
        "name": "Burhani Industrial suppliers",
        "shop": "hardware"
      }
    },
    {
      "type": "node",
      "id": 9538783115,
      "lat": 12.9650649,
      "lon": 77.5806493,
      "tags": {
        "description": "masks, ropes, gloves, etc.",
        "name": "Burhani industrial solutions",
        "shop": "hardware"
      }
    },
    {
      "type": "node",
      "id": 9538903561,
      "lat": 12.9646068,
      "lon": 77.5839621,
      "tags": {
        "name": "Tab core computers",
        "shop": "computer"
      }
    },
    {
      "type": "node",
      "id": 9538946728,
      "lat": 12.967755,
      "lon": 77.5744105,
      "tags": {
        "level": "0",
        "name": "India metal",
        "shop": "houseware"
      }
    },
    {
      "type": "node",
      "id": 9777549177,
      "lat": 12.9724806,
      "lon": 77.5861314,
      "tags": {
        "access": "yes",
        "amenity": "toilets",
        "fee": "no",
        "female": "yes"
      }
    },
    {
      "type": "node",
      "id": 9777549178,
      "lat": 12.9724388,
      "lon": 77.5861369,
      "tags": {
        "access": "yes",
        "amenity": "toilets",
        "fee": "no",
        "male": "yes"
      }
    },
    {
      "type": "node",
      "id": 9841611231,
      "lat": 12.9642862,
      "lon": 77.5834718,
      "tags": {
        "name": "Kaveri computers",
        "shop": "computer"
      }
    },
    {
      "type": "node",
      "id": 9870839702,
      "lat": 12.9749264,
      "lon": 77.5772309,
      "tags": {
        "brand": "Nandini",
        "name": "Nandini",
        "shop": "dairy"
      }
    },
    {
      "type": "node",
      "id": 9892036239,
      "lat": 12.972753,
      "lon": 77.570233,
      "tags": {
        "amenity": "restaurant",
        "cuisine": "regional",
        "name": "Sri Govinda Rao Military Hotel",
        "start_date": "1908"
      }
    },
    {
      "type": "node",
      "id": 9893685130,
      "lat": 12.9688981,
      "lon": 77.5750367,
      "tags": {
        "amenity": "place_of_worship",
        "name": "Baneshwar Temple",
        "religion": "hindu",
        "survey:date": "2022-07-17"
      }
    },
    {
      "type": "node",
      "id": 9893686519,
      "lat": 12.9686449,
      "lon": 77.5749197,
      "tags": {
        "amenity": "atm",
        "brand": "HDFC Bank",
        "brand:wikidata": "Q631047",
        "cash_in": "no",
        "check_date": "2025-08-23",
        "name": "HDFC Bank",
        "operator": "HDFC Bank",
        "operator:wikidata": "Q631047",
        "short_name": "HDFC",
        "survey:date": "2022-07-17"
      }
    },
    {
      "type": "node",
      "id": 9893688819,
      "lat": 12.9685944,
      "lon": 77.5748705,
      "tags": {
        "alt_name": "Ek Minar Masjid",
        "amenity": "place_of_worship",
        "building": "mosque",
        "name": "Masjid Sir Khazi Saheb",
        "religion": "muslim",
        "survey:date": "2022-07-17"
      }
    },
    {
      "type": "node",
      "id": 10006930137,
      "lat": 12.9742756,
      "lon": 77.5734383,
      "tags": {
        "access": "yes",
        "amenity": "toilets",
        "fee": "yes",
        "operator": "BBMP"
      }
    },
    {
      "type": "node",
      "id": 10015441345,
      "lat": 12.964595,
      "lon": 77.5822737,
      "tags": {
        "name": "Swastik Telecom",
        "shop": "mobile_phone"
      }
    },
    {
      "type": "node",
      "id": 10628437914,
      "lat": 12.975895,
      "lon": 77.5774641,
      "tags": {
        "addr:city": "Bangalore",
        "addr:housenumber": "1st floor, near Thribhuvan Theatre, Gandhi Nagar",
        "addr:postcode": "560009",
        "addr:street": "5th Main Rd",
        "brand": "DMart",
        "brand:wikidata": "Q5203271",
        "check_date": "2023-02-09",
        "name": "DMart",
        "operator": "D Mart",
        "shop": "supermarket"
      }
    },
    {
      "type": "node",
      "id": 10725600002,
      "lat": 12.9702283,
      "lon": 77.5738593,
      "tags": {
        "addr:city": "Bengaluru,",
        "addr:housenumber": "9, Mohana Jineshwara Arcade, 3rd Floor",
        "addr:postcode": "560053",
        "addr:street": "P S Lane, Santhusapet",
        "name": "Paridhan",
        "name:kn": "ಪರಿಧನ್",
        "opening_hours": "Mo-Sa 10:00-19:30",
        "payment:cheque": "yes",
        "phone": "+918197411114",
        "shop": "fabric"
      }
    },
    {
      "type": "node",
      "id": 10796728054,
      "lat": 12.9681314,
      "lon": 77.5754183,
      "tags": {
        "addr:street": "old tharagupet",
        "name": "Lal building",
        "shop": "clothes"
      }
    },
    {
      "type": "node",
      "id": 10853089401,
      "lat": 12.9634257,
      "lon": 77.5842141,
      "tags": {
        "amenity": "bank",
        "atm": "yes",
        "brand": "Union Bank",
        "name": "Union Bank",
        "operator": "Union Bank"
      }
    },
    {
      "type": "node",
      "id": 10969398448,
      "lat": 12.965565,
      "lon": 77.5844677,
      "tags": {
        "amenity": "atm",
        "cash_in": "no",
        "check_date": "2023-06-11",
        "network": "DCB Bank",
        "operator": "DCB Bank",
        "source": "survey"
      }
    },
    {
      "type": "node",
      "id": 11235447336,
      "lat": 12.9749553,
      "lon": 77.5729774,
      "tags": {
        "amenity": "bench",
        "backrest": "yes",
        "colour": "gray",
        "layer": "-2",
        "level": "-2",
        "material": "metal",
        "seats": "2"
      }
    },
    {
      "type": "node",
      "id": 11235488737,
      "lat": 12.9749572,
      "lon": 77.5729077,
      "tags": {
        "amenity": "bench",
        "backrest": "yes",
        "colour": "gray",
        "layer": "-2",
        "level": "-2",
        "material": "metal",
        "seats": "2"
      }
    },
    {
      "type": "node",
      "id": 11235488738,
      "lat": 12.9752422,
      "lon": 77.5729736,
      "tags": {
        "amenity": "bench",
        "backrest": "yes",
        "colour": "gray",
        "layer": "-2",
        "level": "-2",
        "material": "metal",
        "seats": "2"
      }
    },
    {
      "type": "node",
      "id": 11235488739,
      "lat": 12.9752439,
      "lon": 77.5729103,
      "tags": {
        "amenity": "bench",
        "backrest": "yes",
        "colour": "gray",
        "layer": "-2",
        "level": "-2",
        "material": "metal",
        "seats": "2"
      }
    },
    {
      "type": "node",
      "id": 11235488740,
      "lat": 12.9757397,
      "lon": 77.5729905,
      "tags": {
        "amenity": "bench",
        "backrest": "yes",
        "colour": "gray",
        "layer": "-2",
        "level": "-2",
        "material": "metal",
        "seats": "2"
      }
    },
    {
      "type": "node",
      "id": 11235488741,
      "lat": 12.9757431,
      "lon": 77.5729309,
      "tags": {
        "amenity": "bench",
        "backrest": "yes",
        "colour": "gray",
        "layer": "-2",
        "level": "-2",
        "material": "metal",
        "seats": "2"
      }
    },
    {
      "type": "node",
      "id": 11235488742,
      "lat": 12.9754652,
      "lon": 77.5729756,
      "tags": {
        "amenity": "bench",
        "backrest": "yes",
        "colour": "gray",
        "layer": "-2",
        "level": "-2",
        "material": "metal",
        "seats": "2"
      }
    },
    {
      "type": "node",
      "id": 11235488743,
      "lat": 12.9754681,
      "lon": 77.5729115,
      "tags": {
        "amenity": "bench",
        "backrest": "yes",
        "colour": "gray",
        "layer": "-2",
        "level": "-2",
        "material": "metal",
        "seats": "2"
      }
    },
    {
      "type": "node",
      "id": 11235488744,
      "lat": 12.9756229,
      "lon": 77.5729254,
      "tags": {
        "amenity": "bench",
        "backrest": "yes",
        "colour": "gray",
        "layer": "-2",
        "level": "-2",
        "material": "metal",
        "seats": "2"
      }
    },
    {
      "type": "node",
      "id": 11235488745,
      "lat": 12.9756198,
      "lon": 77.5729864,
      "tags": {
        "amenity": "bench",
        "backrest": "yes",
        "colour": "gray",
        "layer": "-2",
        "level": "-2",
        "material": "metal",
        "seats": "2"
      }
    },
    {
      "type": "node",
      "id": 11235488746,
      "lat": 12.9758794,
      "lon": 77.5729832,
      "tags": {
        "amenity": "bench",
        "backrest": "yes",
        "colour": "gray",
        "layer": "-2",
        "level": "-2",
        "material": "metal",
        "seats": "2"
      }
    },
    {
      "type": "node",
      "id": 11235488747,
      "lat": 12.9758808,
      "lon": 77.5729363,
      "tags": {
        "amenity": "bench",
        "backrest": "yes",
        "colour": "gray",
        "layer": "-2",
        "level": "-2",
        "material": "metal",
        "seats": "2"
      }
    },
    {
      "type": "node",
      "id": 11262546940,
      "lat": 12.9648908,
      "lon": 77.58184,
      "tags": {
        "name": "NSK Electronics",
        "shop": "electronics"
      }
    },
    {
      "type": "node",
      "id": 11293544523,
      "lat": 12.9755232,
      "lon": 77.5731638,
      "tags": {
        "amenity": "bench",
        "backrest": "yes",
        "colour": "gray",
        "layer": "-1",
        "level": "-1",
        "material": "metal",
        "seats": "2"
      }
    },
    {
      "type": "node",
      "id": 11293544525,
      "lat": 12.9755525,
      "lon": 77.5728364,
      "tags": {
        "amenity": "bench",
        "backrest": "yes",
        "colour": "gray",
        "layer": "-1",
        "level": "-1",
        "material": "metal",
        "seats": "2"
      }
    },
    {
      "type": "node",
      "id": 11293544527,
      "lat": 12.9755722,
      "lon": 77.5725278,
      "tags": {
        "amenity": "bench",
        "backrest": "yes",
        "colour": "gray",
        "layer": "-1",
        "level": "-1",
        "material": "metal",
        "seats": "2"
      }
    },
    {
      "type": "node",
      "id": 11293544528,
      "lat": 12.9755946,
      "lon": 77.5722535,
      "tags": {
        "amenity": "bench",
        "backrest": "yes",
        "colour": "gray",
        "layer": "-1",
        "level": "-1",
        "material": "metal",
        "seats": "2"
      }
    },
    {
      "type": "node",
      "id": 11293544530,
      "lat": 12.9756151,
      "lon": 77.5719313,
      "tags": {
        "amenity": "bench",
        "backrest": "yes",
        "colour": "gray",
        "layer": "-1",
        "level": "-1",
        "material": "metal",
        "seats": "2"
      }
    },
    {
      "type": "node",
      "id": 11293544542,
      "lat": 12.9758467,
      "lon": 77.5731758,
      "tags": {
        "amenity": "bench",
        "backrest": "yes",
        "colour": "gray",
        "layer": "-1",
        "level": "-1",
        "material": "metal",
        "seats": "2"
      }
    },
    {
      "type": "node",
      "id": 11293544544,
      "lat": 12.9758754,
      "lon": 77.5728396,
      "tags": {
        "amenity": "bench",
        "backrest": "yes",
        "colour": "gray",
        "layer": "-1",
        "level": "-1",
        "material": "metal",
        "seats": "2"
      }
    },
    {
      "type": "node",
      "id": 11293544546,
      "lat": 12.9759156,
      "lon": 77.572271,
      "tags": {
        "amenity": "bench",
        "backrest": "yes",
        "colour": "gray",
        "layer": "-1",
        "level": "-1",
        "material": "metal",
        "seats": "2"
      }
    },
    {
      "type": "node",
      "id": 11304774634,
      "lat": 12.9675418,
      "lon": 77.5746507,
      "tags": {
        "amenity": "waste_basket",
        "waste": "trash"
      }
    },
    {
      "type": "node",
      "id": 11304774635,
      "lat": 12.9696253,
      "lon": 77.5756956,
      "tags": {
        "clothes": "women;traditional",
        "level": "1;2;3",
        "name": "Srinidhi Silk",
        "shop": "clothes",
        "wheelchair": "no"
      }
    },
    {
      "type": "node",
      "id": 11304774637,
      "lat": 12.9690028,
      "lon": 77.5766738,
      "tags": {
        "clothes": "traditional",
        "name": "Sudarshan Silks",
        "shop": "clothes"
      }
    },
    {
      "type": "node",
      "id": 11304774638,
      "lat": 12.9684963,
      "lon": 77.5748136,
      "tags": {
        "addr:city": "Bangalore",
        "addr:housenumber": "196,197",
        "addr:postcode": "560053",
        "addr:street": "AS Char Street",
        "level": "0",
        "name": "Addiction Fashion Hub",
        "shop": "clothes",
        "wheelchair": "no"
      }
    },
    {
      "type": "node",
      "id": 11304774639,
      "lat": 12.9675719,
      "lon": 77.5746436,
      "tags": {
        "amenity": "fast_food",
        "cuisine": "juice",
        "level": "0",
        "name": "The Cane Joint"
      }
    },
    {
      "type": "node",
      "id": 11304774640,
      "lat": 12.9697214,
      "lon": 77.5757325,
      "tags": {
        "amenity": "fast_food",
        "cuisine": "juice",
        "level": "0",
        "name": "Bhavani Juice Center"
      }
    },
    {
      "type": "node",
      "id": 11304774641,
      "lat": 12.9689646,
      "lon": 77.5773285,
      "tags": {
        "clothes": "traditional;men",
        "level": "0",
        "name": "Kurta Ghar",
        "shop": "clothes"
      }
    },
    {
      "type": "node",
      "id": 11304774642,
      "lat": 12.9677077,
      "lon": 77.5743785,
      "tags": {
        "addr:housenumber": "175/1",
        "addr:street": "AS Char Street",
        "level": "0",
        "name": "Nisar Metals",
        "shop": "houseware"
      }
    },
    {
      "type": "node",
      "id": 11304774643,
      "lat": 12.9690078,
      "lon": 77.5750942,
      "tags": {
        "amenity": "restaurant",
        "level": "0;1",
        "name": "Hotel Raghavendra Prasanna",
        "wheelchair": "limited"
      }
    },
    {
      "type": "node",
      "id": 11355711181,
      "lat": 12.963518,
      "lon": 77.5846258,
      "tags": {
        "check_date": "2023-11-16",
        "name": "Presidency Cycle",
        "shop": "bicycle"
      }
    },
    {
      "type": "node",
      "id": 11355730142,
      "lat": 12.9630918,
      "lon": 77.5847915,
      "tags": {
        "amenity": "post_box",
        "operator": "India Post",
        "operator:wikidata": "Q3519720"
      }
    },
    {
      "type": "node",
      "id": 11355774237,
      "lat": 12.9615281,
      "lon": 77.5751736,
      "tags": {
        "amenity": "drinking_water",
        "layer": "-1",
        "level": "-1"
      }
    },
    {
      "type": "node",
      "id": 11355774238,
      "lat": 12.9614194,
      "lon": 77.5751313,
      "tags": {
        "amenity": "atm",
        "brand": "State Bank of India",
        "brand:wikidata": "Q1340361",
        "check_date": "2023-11-16",
        "layer": "-1",
        "level": "-1",
        "operator": "State Bank of India",
        "operator:wikidata": "Q1340361",
        "short_name": "SBI"
      }
    },
    {
      "type": "node",
      "id": 11366302456,
      "lat": 12.9607162,
      "lon": 77.5747037,
      "tags": {
        "amenity": "fountain",
        "lit": "yes"
      }
    },
    {
      "type": "node",
      "id": 11371332792,
      "lat": 12.961443,
      "lon": 77.5748223,
      "tags": {
        "amenity": "toilets",
        "check_date": "2023-11-23",
        "level": "-1",
        "operator": "BMRCL"
      }
    },
    {
      "type": "node",
      "id": 11408768738,
      "lat": 12.9736666,
      "lon": 77.5830855,
      "tags": {
        "amenity": "charging_station",
        "charging_station:battery_swapping": "yes"
      }
    },
    {
      "type": "node",
      "id": 11408768739,
      "lat": 12.9736032,
      "lon": 77.5830124,
      "tags": {
        "name": "Continental Coffee",
        "shop": "kiosk"
      }
    },
    {
      "type": "node",
      "id": 11408768740,
      "lat": 12.9735836,
      "lon": 77.5829541,
      "tags": {
        "name": "The Cane Joint",
        "shop": "kiosk"
      }
    },
    {
      "type": "node",
      "id": 11417001861,
      "lat": 12.9637807,
      "lon": 77.582047,
      "tags": {
        "access": "yes",
        "amenity": "toilets",
        "check_date": "2023-12-14",
        "fee": "yes",
        "operator": "BBMP"
      }
    },
    {
      "type": "node",
      "id": 11420343300,
      "lat": 12.9720865,
      "lon": 77.5822514,
      "tags": {
        "amenity": "parking_entrance",
        "fee": "yes",
        "lit": "yes",
        "parking": "underground",
        "supervised": "yes"
      }
    },
    {
      "type": "node",
      "id": 11494352436,
      "lat": 12.9758929,
      "lon": 77.5725584,
      "tags": {
        "amenity": "bench",
        "backrest": "yes",
        "colour": "gray",
        "layer": "-1",
        "level": "-1",
        "material": "metal",
        "seats": "2"
      }
    },
    {
      "type": "node",
      "id": 11496819756,
      "lat": 12.9644222,
      "lon": 77.5822003,
      "tags": {
        "addr:city": "Bangalore",
        "addr:district": "Bangalore Urban",
        "addr:postcode": "560002",
        "name": "The IT Gear",
        "shop": "computer",
        "website": "https://theitgear.com/"
      }
    },
    {
      "type": "node",
      "id": 11499969618,
      "lat": 12.9618933,
      "lon": 77.5756771,
      "tags": {
        "amenity": "waste_basket",
        "waste": "dry"
      }
    },
    {
      "type": "node",
      "id": 11499969619,
      "lat": 12.9618878,
      "lon": 77.5756825,
      "tags": {
        "amenity": "waste_basket",
        "waste": "wet"
      }
    },
    {
      "type": "node",
      "id": 11513366269,
      "lat": 12.975007,
      "lon": 77.571684,
      "tags": {
        "amenity": "bus_station",
        "name:ru": "Автобус до Путтапарти - платформа 9"
      }
    },
    {
      "type": "node",
      "id": 11533105779,
      "lat": 12.9777049,
      "lon": 77.5776713,
      "tags": {
        "addr:city": "Beṅgaḷūru",
        "addr:neighborhood": "Gāndhinagara",
        "addr:state": "KA",
        "amenity": "bureau_de_change",
        "currency:CAD": "yes",
        "currency:EUR": "yes",
        "currency:GBP": "yes",
        "currency:INR": "yes",
        "currency:USD": "yes",
        "email": "slnforexservices@yahoo.co.in",
        "facebook": "slnforex",
        "name": "SLN",
        "name:en": "SLN Forex Services, Pvt. Ltd.",
        "opening_hours": "Mo-Sa 11:00-19:00",
        "phone": "+91 98453 51716",
        "short_name:kn": "ಎಸ್ಎಲ್ಎನ್"
      }
    },
    {
      "type": "node",
      "id": 11539135182,
      "lat": 12.9776114,
      "lon": 77.5778024,
      "tags": {
        "addr:city": "Beṅgaḷūru",
        "addr:neighborhood": "Gāndhinagara",
        "addr:postcode": "560009",
        "alt_name:en": "Idli-Dosa-Coffee Kitchen",
        "alt_name:en1": "Idli, Dosa, Coffee Kitchen",
        "alt_name:kn-Latn": "Iḍli, Dōse, Kāphi",
        "alt_name:tl": "Kusinang IDC",
        "amenity": "restaurant",
        "cuisine": "indian;coffee",
        "diet:vegetarian": "yes",
        "email": "hello@idckitchen.com",
        "name": "IDC Kitchen",
        "name:cbk-zam": "Cocina IDC",
        "name:ceb": "Kosinang IDC",
        "name:es": "Cocina IDC",
        "name:hil": "Kosina IDC",
        "name:krj": "Kosina IDC",
        "name:pag": "Kosinan IDC",
        "name:pam": "Kosínang IDC",
        "name:tl": "Kosinang IDC",
        "website": "https://www.idckitchen.com/"
      }
    },
    {
      "type": "node",
      "id": 11592710084,
      "lat": 12.9762005,
      "lon": 77.5755635,
      "tags": {
        "addr:city": "Beṅgaḷūru",
        "addr:neighborhood": "Gāndhinagara",
        "addr:state": "KA",
        "amenity": "pharmacy",
        "dispensing": "yes",
        "drive_through": "no",
        "healthcare": "pharmacy",
        "name:en": "Gururāja Medicals",
        "name:hi-Latn": "Gururāj",
        "name:ur-Latn": "Gururāj",
        "opening_hours": "08:00-22:00",
        "phone": "+9180 2225 6783;+918022911966;+917259440612",
        "website": "https://business.google.com/website/gururaja-medicals"
      }
    },
    {
      "type": "node",
      "id": 11659529326,
      "lat": 12.9771364,
      "lon": 77.5771411,
      "tags": {
        "air_conditioning": "yes",
        "amenity": "bar",
        "brewery": "yes;various",
        "check_date": "2024-02-24",
        "internet_access": "no",
        "name": "Talk of The Town",
        "outdoor_seating": "no",
        "payment:cash": "yes",
        "payment:credit_cards": "yes",
        "payment:debit_cards": "yes",
        "smoking": "separated",
        "source": "local knowledge",
        "wheelchair": "yes"
      }
    },
    {
      "type": "node",
      "id": 11681947667,
      "lat": 12.9773711,
      "lon": 77.5754648,
      "tags": {
        "amenity": "bar",
        "check_date": "2024-03-01",
        "name": "MRP Kick Tonic"
      }
    },
    {
      "type": "node",
      "id": 11681947668,
      "lat": 12.9773338,
      "lon": 77.5754773,
      "tags": {
        "check_date": "2024-03-01",
        "name": "Anand Readymade",
        "shop": "clothes"
      }
    },
    {
      "type": "node",
      "id": 11681984870,
      "lat": 12.9765077,
      "lon": 77.57598,
      "tags": {
        "amenity": "bank",
        "brand": "State Bank of India",
        "brand:wikidata": "Q1340361",
        "check_date": "2024-03-01",
        "name": "State Bank of India",
        "name:kn": "ಎಸ್ ಬಿ ಐ",
        "short_name": "SBI"
      }
    },
    {
      "type": "node",
      "id": 11681984871,
      "lat": 12.9765774,
      "lon": 77.5760043,
      "tags": {
        "brand": "Liberty",
        "brand:wikidata": "Q6541947",
        "check_date": "2024-03-01",
        "name": "Liberty Exclusive Showroom",
        "shop": "shoes"
      }
    },
    {
      "type": "node",
      "id": 11681984872,
      "lat": 12.976644,
      "lon": 77.5759972,
      "tags": {
        "check_date": "2024-03-01",
        "name": "Titan",
        "operator": "Pearl Times",
        "shop": "watches"
      }
    },
    {
      "type": "node",
      "id": 11681984873,
      "lat": 12.9766767,
      "lon": 77.5761455,
      "tags": {
        "amenity": "restaurant",
        "check_date": "2024-03-01",
        "name": "Amulya Veg Restaurant"
      }
    },
    {
      "type": "node",
      "id": 11681984874,
      "lat": 12.9764963,
      "lon": 77.575402,
      "tags": {
        "amenity": "place_of_worship",
        "check_date": "2024-03-01",
        "name": "Sri Annammadevi Mahasamsthana",
        "religion": "hindu"
      }
    },
    {
      "type": "node",
      "id": 11681984875,
      "lat": 12.9762717,
      "lon": 77.5756226,
      "tags": {
        "check_date": "2024-03-01",
        "name": "Red Apple",
        "shop": "clothes"
      }
    },
    {
      "type": "node",
      "id": 11681984876,
      "lat": 12.976119,
      "lon": 77.5758997,
      "tags": {
        "amenity": "bar",
        "check_date": "2024-03-01",
        "name": "Tushar Bar"
      }
    },
    {
      "type": "node",
      "id": 11681984877,
      "lat": 12.9759237,
      "lon": 77.5760702,
      "tags": {
        "amenity": "fast_food",
        "brand": "Domino's",
        "brand:wikidata": "Q839466",
        "check_date": "2024-03-01",
        "cuisine": "pizza",
        "name": "Domino's",
        "takeaway": "yes"
      }
    },
    {
      "type": "node",
      "id": 11681984878,
      "lat": 12.9758159,
      "lon": 77.5757621,
      "tags": {
        "amenity": "restaurant",
        "check_date": "2024-03-01",
        "name": "Ashok Ahaar"
      }
    },
    {
      "type": "node",
      "id": 11681984879,
      "lat": 12.9761176,
      "lon": 77.5756168,
      "tags": {
        "check_date": "2024-03-01",
        "name": "Friendship Clothing",
        "shop": "clothes"
      }
    },
    {
      "type": "node",
      "id": 11681984880,
      "lat": 12.9764331,
      "lon": 77.5758915,
      "tags": {
        "amenity": "place_of_worship",
        "check_date": "2024-03-01",
        "mobile": "+91 9886285380",
        "name": "Hazrat Sued Adam Shah Qadri",
        "religion": "muslim"
      }
    },
    {
      "type": "node",
      "id": 11681984881,
      "lat": 12.9771368,
      "lon": 77.5758801,
      "tags": {
        "check_date": "2024-03-01",
        "name": "City Bag Corner",
        "shop": "bag"
      }
    },
    {
      "type": "node",
      "id": 11681984882,
      "lat": 12.9771207,
      "lon": 77.5761475,
      "tags": {
        "amenity": "restaurant",
        "check_date": "2024-03-01",
        "name": "Sri Maruthi Gowdas Military Hotel"
      }
    },
    {
      "type": "node",
      "id": 11681984883,
      "lat": 12.9771317,
      "lon": 77.5759938,
      "tags": {
        "check_date": "2024-03-01",
        "name": "Ganga Shopping Centre",
        "shop": "bag"
      }
    },
    {
      "type": "node",
      "id": 11683098373,
      "lat": 12.9764266,
      "lon": 77.5794711,
      "tags": {
        "amenity": "bank",
        "brand": "Indian Overseas Bank",
        "brand:wikidata": "Q2003611",
        "check_date": "2024-03-02",
        "name": "Indian Overseas Bank",
        "name:kn": "ಐ ಓ ಬಿ"
      }
    },
    {
      "type": "node",
      "id": 11683412072,
      "lat": 12.975934,
      "lon": 77.575407,
      "tags": {
        "name": "APSRTC",
        "shop": "travel_agency"
      }
    },
    {
      "type": "node",
      "id": 11693091282,
      "lat": 12.9738939,
      "lon": 77.5850362,
      "tags": {
        "addr:city": "Bengaluru",
        "addr:country": "IN",
        "addr:full": "Nrupathunga Road Sampangi Rama Nagar, Ambedkar Veedhi, Bengaluru, Karnataka",
        "addr:postcode": "560001",
        "addr:state": "Karnataka",
        "addr:street": "Nrupathunga Road",
        "addr:suburb": "Sampangiram Nagar",
        "amenity": "college",
        "name": "Government Arts College",
        "name:kn": "ಸರ್ಕಾರಿ ಕಲಾ ಕಾಲೇಜು",
        "operator:type": "public",
        "start_date": "1886",
        "website": "https://gfgc.kar.nic.in/gac/",
        "wikidata": "Q43371323",
        "wikipedia": "en:Government Arts College, Ambedkar Veedhi"
      }
    },
    {
      "type": "node",
      "id": 11696866839,
      "lat": 12.975095,
      "lon": 77.5842717,
      "tags": {
        "amenity": "college",
        "name": "Central College",
        "name:kn": "ಕೇಂದ್ರೀಯ ಕಾಲೇಜು",
        "old_name": "Central High School",
        "start_date": "1858",
        "wikidata": "Q5060603",
        "wikipedia": "en:Central College, Bangalore"
      }
    },
    {
      "type": "node",
      "id": 11906960322,
      "lat": 12.9687592,
      "lon": 77.5751191,
      "tags": {
        "addr:housenumber": "33",
        "addr:street": "AS Char Street",
        "name": "C. G. Imex Corporation",
        "shop": "clothes"
      }
    },
    {
      "type": "node",
      "id": 12135138829,
      "lat": 12.9634762,
      "lon": 77.585227,
      "tags": {
        "amenity": "bench",
        "material": "stone"
      }
    },
    {
      "type": "node",
      "id": 12135983648,
      "lat": 12.9635197,
      "lon": 77.5852417,
      "tags": {
        "amenity": "bench",
        "backrest": "no",
        "material": "stone",
        "seats": "3"
      }
    },
    {
      "type": "node",
      "id": 12135983649,
      "lat": 12.9635649,
      "lon": 77.5852581,
      "tags": {
        "amenity": "bench",
        "backrest": "no",
        "material": "stone",
        "seats": "3"
      }
    },
    {
      "type": "node",
      "id": 12135983655,
      "lat": 12.9632647,
      "lon": 77.5846291,
      "tags": {
        "amenity": "place_of_worship",
        "religion": "hindu"
      }
    },
    {
      "type": "node",
      "id": 12137671662,
      "lat": 12.9768752,
      "lon": 77.5798383,
      "tags": {
        "name": "Kamat Tourist",
        "shop": "travel_agency"
      }
    },
    {
      "type": "node",
      "id": 12137671668,
      "lat": 12.9747615,
      "lon": 77.5816294,
      "tags": {
        "alt_name": "Government Law College",
        "amenity": "college",
        "heritage": "2",
        "heritage:operator": "nmma",
        "heritage:website": "https://nmma.nic.in/nmma/exploreBuiltState.do?state=29",
        "name": "University Law College",
        "name:kn": "ಸರ್ಕಾರಿ ಕಲಾ ಕಾಲೇಜು, ಅಂಬೇಡ್ಕರ್‌ ವೀಧಿ",
        "ref:nmma": "KR20010948",
        "website": "https://ulcbangalore.com/",
        "wikidata": "Q7894802",
        "wikipedia": "en:University Law College, Bangalore University"
      }
    },
    {
      "type": "node",
      "id": 12137671670,
      "lat": 12.9731431,
      "lon": 77.581687,
      "tags": {
        "access": "yes",
        "amenity": "toilets",
        "fee": "yes",
        "operator": "BBMP"
      }
    },
    {
      "type": "node",
      "id": 12137671674,
      "lat": 12.9717968,
      "lon": 77.583093,
      "tags": {
        "amenity": "waste_basket"
      }
    },
    {
      "type": "node",
      "id": 12137671675,
      "lat": 12.9717837,
      "lon": 77.5831083,
      "tags": {
        "amenity": "waste_basket"
      }
    },
    {
      "type": "node",
      "id": 12137671762,
      "lat": 12.9659631,
      "lon": 77.586509,
      "tags": {
        "amenity": "waste_basket"
      }
    },
    {
      "type": "node",
      "id": 12137671763,
      "lat": 12.9659629,
      "lon": 77.586517,
      "tags": {
        "amenity": "waste_basket"
      }
    },
    {
      "type": "node",
      "id": 12522402151,
      "lat": 12.966074,
      "lon": 77.5776938,
      "tags": {
        "amenity": "fixme",
        "check_date": "2025-01-21",
        "fixme": "type",
        "fixme:type": "Start",
        "name": "starting point"
      }
    },
    {
      "type": "node",
      "id": 12522402152,
      "lat": 12.9657486,
      "lon": 77.5778662,
      "tags": {
        "check_date": "2025-01-21",
        "name": "pet accessories, chains, cages, locks, wires, hooks, screwdrivers",
        "shop": "hardware"
      }
    },
    {
      "type": "node",
      "id": 12522402153,
      "lat": 12.9656669,
      "lon": 77.5780466,
      "tags": {
        "check_date": "2025-01-21",
        "description": "doorknobs, jet sprays, curtain holders, handles, convex mirrors",
        "name": "A Mohammad Ibrahim and Co",
        "shop": "hardware"
      }
    },
    {
      "type": "node",
      "id": 12522402154,
      "lat": 12.9655928,
      "lon": 77.5781766,
      "tags": {
        "check_date": "2025-01-21",
        "description": "construction and agriculture hardware: tools to lay out cement, big buckets, bags of cement, wooden sticks, shovels, ploughs, hammers",
        "name": "V Con Trade Inc",
        "shop": "hardware"
      }
    },
    {
      "type": "node",
      "id": 12522402155,
      "lat": 12.9655617,
      "lon": 77.578271,
      "tags": {
        "check_date": "2025-01-21",
        "description": "pipes, drilling of holes inside the pipes, wires",
        "name": "Power Point",
        "shop": "hardware"
      }
    },
    {
      "type": "node",
      "id": 12522402156,
      "lat": 12.965571,
      "lon": 77.5784321,
      "tags": {
        "check_date": "2025-01-21",
        "description": "valves, regulators, gauge, press, push fittings",
        "name": "Trade Wings",
        "shop": "hardware"
      }
    },
    {
      "type": "node",
      "id": 12522402157,
      "lat": 12.9654225,
      "lon": 77.5785573,
      "tags": {
        "check_date": "2025-01-21",
        "description": "bath ware",
        "name": "JK Enterprises and Pipes",
        "shop": "hardware"
      }
    },
    {
      "type": "node",
      "id": 12522402158,
      "lat": 12.9653849,
      "lon": 77.57865,
      "tags": {
        "check_date": "2025-01-21",
        "description": "plumbing lines, construction- opened in 1979",
        "name": "Deen Hardware",
        "shop": "hardware"
      }
    },
    {
      "type": "node",
      "id": 12522402159,
      "lat": 12.9654268,
      "lon": 77.5787874,
      "tags": {
        "check_date": "2025-01-21",
        "description": "nuts and bolts",
        "name": "Kaveri Corner",
        "shop": "hardware"
      }
    },
    {
      "type": "node",
      "id": 12522402160,
      "lat": 12.965357,
      "lon": 77.5788856,
      "tags": {
        "check_date": "2025-01-21",
        "name": "Howrah Tube Centre",
        "shop": "hardware"
      }
    },
    {
      "type": "node",
      "id": 12522402161,
      "lat": 12.9648108,
      "lon": 77.5807041,
      "tags": {
        "check_date": "2025-01-21",
        "description": "drilling borewell pipes",
        "name": "SKS Enterprises",
        "shop": "hardware"
      }
    },
    {
      "type": "node",
      "id": 12522402162,
      "lat": 12.9647348,
      "lon": 77.5817073,
      "tags": {
        "amenity": "fixme",
        "check_date": "2025-01-21",
        "fixme": "type",
        "fixme:type": "Start",
        "name": "INTERSECTION"
      }
    },
    {
      "type": "node",
      "id": 12522402163,
      "lat": 12.9646234,
      "lon": 77.5824537,
      "tags": {
        "check_date": "2025-01-21",
        "description": "sells first hand electronics at lower than MRP, to both resellers and individual buys",
        "name": "Sagar Computer World",
        "shop": "computer"
      }
    },
    {
      "type": "node",
      "id": 12541787701,
      "lat": 12.9633809,
      "lon": 77.5735348,
      "tags": {
        "amenity": "motorcycle_parking",
        "name": "Victoria Hospital - Parking"
      }
    },
    {
      "type": "node",
      "id": 12669960228,
      "lat": 12.9771331,
      "lon": 77.576774,
      "tags": {
        "name": "Universal Agro Seeds",
        "shop": "agrarian"
      }
    },
    {
      "type": "node",
      "id": 12669960229,
      "lat": 12.9769016,
      "lon": 77.5770539,
      "tags": {
        "name": "Zee Collections",
        "shop": "clothes"
      }
    },
    {
      "type": "node",
      "id": 12698412006,
      "lat": 12.964859,
      "lon": 77.5837001,
      "tags": {
        "addr:city": "Bengaluru",
        "addr:country": "IN",
        "addr:district": "Bengaluru Urban",
        "addr:housenumber": "1st Floor, Ashok Tower, 88/1",
        "addr:postcode": "560002",
        "addr:street": "Sadar Patrappa Rd",
        "air_conditioning": "yes",
        "alt_name": "ibuypc",
        "brand": "iBUYPC",
        "contact:facebook": "https://www.facebook.com/ibuypc",
        "currency:INR": "yes",
        "description": "iBUYPC designs and delivers custom-built PCs and branded components for gamers, creators, and businesses. The company offers systems for individual users (B2C) and scalable configurations with bulk procurement for businesses (B2B).",
        "email": "support@ibuypc.in",
        "image": "https://ibuypc.in/cdn/shop/files/iBUYPC-brand-logo.png?v=1741330759",
        "internet_access": "wlan",
        "internet_access:fee": "no",
        "internet_access:ssid": "iBUYPC 5G",
        "level": "1",
        "mobile": "+919694699991",
        "name": "iBUYPC",
        "official_name": "IBUYPC",
        "opening_hours": "Mo-Sa 10:30-20:30",
        "operator": "Rudra Prosad Sen",
        "payment:american_express": "yes",
        "payment:apple_pay": "yes",
        "payment:bank_transfer": "yes",
        "payment:cash": "yes",
        "payment:contactless": "yes",
        "payment:credit_cards": "yes",
        "payment:debit_cards": "yes",
        "payment:diners_club": "yes",
        "payment:discover_card": "yes",
        "payment:google_pay": "yes",
        "payment:imps": "yes",
        "payment:jcb": "yes",
        "payment:mastercard": "yes",
        "payment:mastercard_contactless": "yes",
        "payment:neft": "yes",
        "payment:net_banking": "yes",
        "payment:paytm": "yes",
        "payment:phonepe": "yes",
        "payment:upi": "yes",
        "payment:upi_qr": "yes",
        "payment:visa": "yes",
        "payment:visa_debit": "yes",
        "phone": "+919694699991",
        "ref:vatin": "29CCMPR7908C1Z5",
        "shop": "computer",
        "start_date": "2025-01-10",
        "website": "https://ibuypc.in/"
      }
    },
    {
      "type": "node",
      "id": 12856900607,
      "lat": 12.9743239,
      "lon": 77.5841188,
      "tags": {
        "access": "permissive",
        "addr:floor": "-1",
        "amenity": "toilets",
        "female": "yes",
        "fixme": "Accurate location within station",
        "level": "-1",
        "male": "yes",
        "operator": "BMRCL",
        "toilets:handwashing": "yes",
        "toilets:position": "urinal"
      }
    },
    {
      "type": "node",
      "id": 12925420094,
      "lat": 12.9621663,
      "lon": 77.5717564,
      "tags": {
        "check_date": "2025-06-19",
        "name": "Chamundi Dry Fruits and Spices",
        "shop": "supermarket"
      }
    },
    {
      "type": "node",
      "id": 12942443654,
      "lat": 12.9736523,
      "lon": 77.5791633,
      "tags": {
        "addr:floor": "G",
        "addr:housenumber": "9, 12",
        "addr:street": "Kempe Gowda Road",
        "brand": "Ramraj Cotton",
        "brand:wikidata": "Q119161281",
        "check_date": "2025-06-21",
        "level": "0",
        "name": "Ramraj Cotton",
        "name:en": "Ramraj Cotton",
        "shop": "clothes"
      }
    },
    {
      "type": "node",
      "id": 12968607916,
      "lat": 12.9723719,
      "lon": 77.578395,
      "tags": {
        "addr:city": "Chickpet, Bengaluru",
        "addr:district": "Bengaluru Urban",
        "addr:housenumber": "Shop no 42",
        "addr:postcode": "560053",
        "addr:street": "kilari road",
        "name": "Mahaveer Glass Creators- Interior Glass Creators",
        "opening_hours": "Mo-Sa 10:00-19:00",
        "operator": "Mahaveer Chand",
        "phone": "+91 98459 43997",
        "shop": "glass"
      }
    },
    {
      "type": "node",
      "id": 13072369444,
      "lat": 12.965328,
      "lon": 77.5773423,
      "tags": {
        "amenity": "place_of_worship",
        "check_date": "2025-08-15",
        "name": "Dargah Hazrath Syed Mahamood Sha Khadri R-A",
        "religion": "muslim"
      }
    },
    {
      "type": "node",
      "id": 13081636281,
      "lat": 12.9691873,
      "lon": 77.5799446,
      "tags": {
        "addr:city": "Bangalore",
        "addr:district": "karnataka",
        "addr:housenumber": "68",
        "addr:postcode": "560002",
        "addr:street": "Chowdeshwari Temple Street",
        "name": "MB Jewels - Emerald Dealer EJI",
        "opening_hours": "Mo-Sa 11:00-19:30",
        "phone": "08041510855",
        "shop": "wholesale",
        "wholesale": "jewellery_store"
      }
    },
    {
      "type": "node",
      "id": 13092341032,
      "lat": 12.9675,
      "lon": 77.5747947,
      "tags": {
        "addr:floor": "C",
        "amenity": "childcare",
        "check_date": "2025-08-23",
        "level": "-1",
        "name": "Feeding Room",
        "name:en": "Feeding Room",
        "wheelchair": "yes"
      }
    },
    {
      "type": "node",
      "id": 13162084334,
      "lat": 12.976245,
      "lon": 77.5787283,
      "tags": {
        "amenity": "restaurant",
        "bar": "yes",
        "cuisine": "indian;italian;chinese",
        "delivery": "yes",
        "diet:lactose_free": "limited",
        "diet:sugar_free": "no",
        "diet:vegan": "no",
        "diet:vegetarian": "yes",
        "indoor_seating": "yes",
        "internet_access": "no",
        "level": "4",
        "name": "Chin Lung",
        "opening_hours": "00:00-00:30, 12:00-00:00",
        "operator": "Kalinga Hospitality",
        "outdoor_seating": "yes",
        "reservation": "recommended",
        "service:electricity": "limited",
        "smoking": "yes",
        "takeaway": "yes",
        "toilets:access": "customers",
        "toilets:disposal": "flush",
        "toilets:fee": "no",
        "toilets:gender_segregated": "yes",
        "toilets:hands_drying": "electric_hand_dryer;paper_towel",
        "toilets:handwashing": "yes",
        "toilets:position": "seated;urinal",
        "toilets:wheelchair": "no",
        "wikimedia_commons": "Category:Chin_Lung,_Majestic_Gandhinagar,_Bangalore"
      }
    },
    {
      "type": "node",
      "id": 13327801914,
      "lat": 12.964823,
      "lon": 77.5840248,
      "tags": {
        "addr:city": "Bengaluru",
        "addr:district": "Bengaluru Urban",
        "addr:housenumber": "No.91, 2nd floor, Shop No, 222-223, Balaji Complex",
        "addr:postcode": "560002",
        "addr:street": "SP Road",
        "alt_name": "pcbuildz",
        "brand": "PCBuildz",
        "contact:facebook": "https://facebook.com/PCBuildz/",
        "currency:INR": "yes",
        "description": "PCBuildz is a custom PC builder in Bangalore that designs and delivers systems and components for gamers, creators, and businesses. It offers custom systems for individual users (B2C) and scalable configurations with bulk procurement for businesses (B2B).",
        "email": "support@pcbuildz.in",
        "image": "https://cdn.shopify.com/s/files/1/0653/4060/4505/files/PCBuildz-Icon.png?v=1752500113",
        "internet_access": "wlan",
        "name": "PCBuildz (Nextgen IT Solutions) - Bangalore's Best Custom PC Shop for Gaming, Editing, 3D Animation & AI Workstation PC Build",
        "opening_hours": "Mo-Sa 10:30-20:00",
        "operator": "Govind Kumar Teja Ram",
        "payment:american_express": "yes",
        "payment:apple_pay": "yes",
        "payment:cash": "yes",
        "payment:contactless": "yes",
        "payment:credit_cards": "yes",
        "payment:debit_cards": "yes",
        "payment:diners_club": "yes",
        "payment:discover_card": "yes",
        "payment:google_pay": "yes",
        "payment:jcb": "yes",
        "payment:maestro": "yes",
        "payment:mastercard": "yes",
        "payment:mastercard_contactless": "yes",
        "payment:unionpay": "yes",
        "payment:upi": "yes",
        "payment:upi_qr": "yes",
        "payment:visa": "yes",
        "phone": "+91-9510-9510-19",
        "shop": "computer",
        "website": "https://pcbuildz.in/"
      }
    },
    {
      "type": "way",
      "id": 23494412,
      "center": {
        "lat": 12.9638755,
        "lon": 77.5805412
      },
      "tags": {
        "leisure": "park",
        "name": "Silver Jubilee Park"
      }
    },
    {
      "type": "way",
      "id": 23494413,
      "center": {
        "lat": 12.965718,
        "lon": 77.5762706
      },
      "tags": {
        "alt_name": "K R Market",
        "amenity": "marketplace",
        "building": "retail",
        "building:levels": "3",
        "full_name": "Sri Krishnarajendra Market",
        "name": "City Market"
      }
    },
    {
      "type": "way",
      "id": 36884560,
      "center": {
        "lat": 12.9774067,
        "lon": 77.5819036
      },
      "tags": {
        "leisure": "park",
        "name": "Freedom Park",
        "wikidata": "Q5500576",
        "wikimedia_commons": "Category:Freedom Park, Bengaluru",
        "wikipedia": "en:Freedom Park, Bangalore"
      }
    },
    {
      "type": "way",
      "id": 36885141,
      "center": {
        "lat": 12.9640735,
        "lon": 77.577792
      },
      "tags": {
        "amenity": "bus_station",
        "bus": "yes",
        "name": "KR Market Bus Terminus",
        "name:kn": "ಕೃಷ್ಣರಾಜೇಂದ್ರ ಮಾರುಕಟ್ಟೆ",
        "public_transport": "station",
        "wheelchair": "limited"
      }
    },
    {
      "type": "way",
      "id": 36897682,
      "center": {
        "lat": 12.9636973,
        "lon": 77.582866
      },
      "tags": {
        "alt_name": "Sri Krishnarajendra Silver Subilee Park",
        "leisure": "park",
        "name": "Silver Jubilee Park"
      }
    },
    {
      "type": "way",
      "id": 37339217,
      "center": {
        "lat": 12.9603969,
        "lon": 77.5771506
      },
      "tags": {
        "amenity": "bus_station",
        "bus": "yes",
        "name": "Kalasipalya Bus Stand",
        "name:kn": "ಕಲಾಸಿಪಾಳ್ಯ ಬಸ್ ನಿಲ್ದಾಣ",
        "public_transport": "station"
      }
    },
    {
      "type": "way",
      "id": 38542913,
      "center": {
        "lat": 12.9708175,
        "lon": 77.5857431
      },
      "tags": {
        "addr:district": "Bengaluru Urban",
        "addr:full": "Office No-05, Nrupathunga Road",
        "addr:postcode": "560001",
        "addr:state": "Karnataka",
        "amenity": "hospital",
        "email": "info.sm@nhhospitals.org",
        "emergency": "yes",
        "healthcare": "hospital",
        "name": "St Marthas Hospital",
        "name:kn": "ಸೆಂಟ್ ಮಾರ್ಥ ಆಸ್ಪತ್ರೆ",
        "operator:type": "private",
        "source": "OpenGovernmentData",
        "website": "https://www.narayanahealth.org/"
      }
    },
    {
      "type": "way",
      "id": 38542914,
      "center": {
        "lat": 12.973065,
        "lon": 77.585197
      },
      "tags": {
        "addr:city": "Bengaluru",
        "addr:country": "IN",
        "addr:full": "Nrupathunga Road Sampangi Rama Nagar, Ambedkar Veedhi, Bengaluru, Karnataka",
        "addr:postcode": "560001",
        "addr:state": "Karnataka",
        "addr:street": "Nrupathunga Road",
        "addr:suburb": "Sampangiram Nagar",
        "amenity": "university",
        "landuse": "education",
        "name": "Nrupathunga University",
        "name:kn": "ನೃಪತುಂಗ ವಿಸ್ವವಿದ್ಯಲಾಯ",
        "old_name": "Government Arts and Science College",
        "start_date": "2020",
        "website": "https://nublr.karnataka.gov.in"
      }
    },
    {
      "type": "way",
      "id": 52244609,
      "center": {
        "lat": 12.9692305,
        "lon": 77.5854109
      },
      "tags": {
        "leisure": "park",
        "name": "Banappa Park",
        "name:kn": "ಬನಪ್ಪ ಉದ್ಯಾನ"
      }
    },
    {
      "type": "way",
      "id": 52245874,
      "center": {
        "lat": 12.9742464,
        "lon": 77.5830767
      },
      "tags": {
        "leisure": "park"
      }
    },
    {
      "type": "way",
      "id": 52245886,
      "center": {
        "lat": 12.9756965,
        "lon": 77.5837361
      },
      "tags": {
        "amenity": "theatre",
        "building": "yes",
        "name": "Jnana Jyothi Auditorium"
      }
    },
    {
      "type": "way",
      "id": 53857356,
      "center": {
        "lat": 12.973735,
        "lon": 77.5722733
      },
      "tags": {
        "alt_name": "Chikka Lalbagh",
        "fixme": "Proper boundaries and walkways",
        "leisure": "park",
        "name": "Lokmanya Tilak Park",
        "name:etymology:wikidata": "Q312555",
        "old_name": "Tulasi Thota"
      }
    },
    {
      "type": "way",
      "id": 131487436,
      "center": {
        "lat": 12.9640121,
        "lon": 77.57855
      },
      "tags": {
        "amenity": "place_of_worship",
        "building": "yes",
        "denomination": "sunni",
        "name": "Jamia Masjid",
        "name:kn": "ಜಾಮ ಮಸೀದಿ",
        "religion": "muslim",
        "wheelchair": "no"
      }
    },
    {
      "type": "way",
      "id": 143368253,
      "center": {
        "lat": 12.9643631,
        "lon": 77.5853424
      },
      "tags": {
        "addr:city": "Bangalore",
        "addr:postcode": "560002",
        "addr:street": "Silver Jubilee Park Road",
        "amenity": "bank",
        "atm": "yes",
        "brand": "Canara Bank",
        "brand:en": "Canara Bank",
        "brand:hi": "केनरा बैंक",
        "brand:kn": "ಕೆನರಾ ಬ್ಯಾಂಕ್",
        "brand:pa": "ਕੇਨਰਾ ਬੈਂਕ",
        "brand:pnb": "کینرا بینک",
        "brand:ur": "کینرا بینک",
        "brand:wikidata": "Q2003777",
        "brand:wikipedia": "en:Canara Bank",
        "brand:wikipedia:pa": "ਕੇਨਰਾ ਬੈਂਕ",
        "building": "yes",
        "building:levels": "6",
        "name": "Canara Bank",
        "name:en": "Canara Bank",
        "name:hi": "केनरा बैंक",
        "name:kn": "ಕೆನರಾ ಬ್ಯಾಂಕ್",
        "name:pa": "ਕੇਨਰਾ ਬੈਂਕ",
        "name:pnb": "کینرا بینک",
        "name:ur": "کینرا بینک",
        "website": "https://www.canarabank.com/"
      }
    },
    {
      "type": "way",
      "id": 150350442,
      "center": {
        "lat": 12.9615314,
        "lon": 77.5744325
      },
      "tags": {
        "leisure": "garden"
      }
    },
    {
      "type": "way",
      "id": 150350461,
      "center": {
        "lat": 12.9636538,
        "lon": 77.5740019
      },
      "tags": {
        "leisure": "garden"
      }
    },
    {
      "type": "way",
      "id": 150350463,
      "center": {
        "lat": 12.9611314,
        "lon": 77.5742769
      },
      "tags": {
        "leisure": "garden"
      }
    },
    {
      "type": "way",
      "id": 150350471,
      "center": {
        "lat": 12.9639468,
        "lon": 77.5746917
      },
      "tags": {
        "leisure": "park"
      }
    },
    {
      "type": "way",
      "id": 150350475,
      "center": {
        "lat": 12.9615579,
        "lon": 77.5738049
      },
      "tags": {
        "leisure": "garden"
      }
    },
    {
      "type": "way",
      "id": 150350476,
      "center": {
        "lat": 12.9634957,
        "lon": 77.5736948
      },
      "tags": {
        "amenity": "hospital",
        "building": "hospital",
        "emergency": "yes",
        "healthcare": "hospital",
        "heritage": "2",
        "heritage:operator": "nmma",
        "heritage:website": "https://nmma.nic.in/nmma/exploreBuiltState.do?state=29",
        "name": "Victoria Hospital",
        "name:etymology:wikidata": "Q9439",
        "name:kn": "ವಿಕ್ಟೋರಿಯಾ ಆಸ್ಪತ್ರೆ",
        "ref:nmma": "KR20011022",
        "wheelchair": "yes",
        "wikidata": "Q7926782",
        "wikimedia_commons": "Category:Victoria Hospital, Bangalore",
        "wikipedia": "en:Victoria Hospital (Bangalore Medical College)"
      }
    },
    {
      "type": "way",
      "id": 161984944,
      "center": {
        "lat": 12.9654636,
        "lon": 77.5833357
      },
      "tags": {
        "amenity": "place_of_worship",
        "name": "Dharmaraya Swamy Temple",
        "name:kn": "ಧರ್ಮರಾಯ ಸ್ವಾಮಿ ದೇವಸ್ಥಾನ",
        "religion": "hindu",
        "wikidata": "Q2065042",
        "wikimedia_commons": "Category:Dharmaraya Swamy Temple",
        "wikipedia": "en:Dharmaraya Swamy Temple"
      }
    },
    {
      "type": "way",
      "id": 161984945,
      "center": {
        "lat": 12.9643477,
        "lon": 77.5845256
      },
      "tags": {
        "addr:district": "Bengaluru Urban",
        "addr:full": "Near Town Hall, Sjp Road , South",
        "addr:postcode": "560002",
        "addr:state": "Karnataka",
        "amenity": "hospital",
        "emergency": "yes",
        "healthcare": "hospital",
        "name": "Dasappa Maternity Hospital",
        "name:kn": "ದಾಸಪ್ಪ ತಿರುಮಲಮ್ಮ ಆಸ್ಪತ್ರೆ",
        "source": "OpenGovernmentData"
      }
    },
    {
      "type": "way",
      "id": 169825314,
      "center": {
        "lat": 12.9762636,
        "lon": 77.5776481
      },
      "tags": {
        "name": "National Market",
        "shop": "supermarket"
      }
    },
    {
      "type": "way",
      "id": 169825315,
      "center": {
        "lat": 12.9765714,
        "lon": 77.5778274
      },
      "tags": {
        "name": "Sukh Sagar Shopping Center",
        "shop": "supermarket"
      }
    },
    {
      "type": "way",
      "id": 169825729,
      "center": {
        "lat": 12.9750683,
        "lon": 77.5775136
      },
      "tags": {
        "addr:city": "Bangalore",
        "addr:postcode": "560009",
        "addr:street": "Kempe Gowda Road",
        "amenity": "marketplace",
        "building": "commercial",
        "name": "Janata Bazaar",
        "name:kn": "ಜನತಾ ಬಜಾರ್"
      }
    },
    {
      "type": "way",
      "id": 208827417,
      "center": {
        "lat": 12.9744236,
        "lon": 77.5757995
      },
      "tags": {
        "leisure": "park"
      }
    },
    {
      "type": "way",
      "id": 322488099,
      "center": {
        "lat": 12.975059,
        "lon": 77.5716077
      },
      "tags": {
        "amenity": "bus_station",
        "bus": "yes",
        "name": "KSRTC Bus Terminal 3",
        "name:kn": "ಕ ರಾ ರ ಸಾ ನಿ ಬಸ್ ನಿಲ್ದಾಣ ೩",
        "operator": "KSRTC",
        "public_transport": "station",
        "wheelchair": "limited"
      }
    },
    {
      "type": "way",
      "id": 324204459,
      "center": {
        "lat": 12.9670324,
        "lon": 77.5698017
      },
      "tags": {
        "amenity": "parking"
      }
    },
    {
      "type": "way",
      "id": 327032476,
      "center": {
        "lat": 12.9623462,
        "lon": 77.575312
      },
      "tags": {
        "amenity": "college",
        "name": "Government College of Nursing"
      }
    },
    {
      "type": "way",
      "id": 327032477,
      "center": {
        "lat": 12.9636652,
        "lon": 77.5700557
      },
      "tags": {
        "amenity": "place_of_worship",
        "name": "St. Joseph's Church",
        "name:kn": "ಸಂತ ಜೋಸೆಫರ ಚರ್ಚ್",
        "religion": "christian"
      }
    },
    {
      "type": "way",
      "id": 327032478,
      "center": {
        "lat": 12.9637904,
        "lon": 77.5759033
      },
      "tags": {
        "addr:street": "Bala Gangadhara Swamy Flyover",
        "alt_name": "GDCRI",
        "amenity": "college",
        "name": "Government Dental College and Research Institute",
        "name:kn": "ದಂತ ವೈದ್ಯಕೀಯ ವಿದ್ಯಾಲಯ ಮತ್ತು ಸಂಶೋಧನಾ ಸಂಸ್ಥೆ"
      }
    },
    {
      "type": "way",
      "id": 328765451,
      "center": {
        "lat": 12.9640502,
        "lon": 77.5781641
      },
      "tags": {
        "amenity": "marketplace"
      }
    },
    {
      "type": "way",
      "id": 328774402,
      "center": {
        "lat": 12.9670667,
        "lon": 77.585611
      },
      "tags": {
        "amenity": "place_of_worship",
        "building": "yes",
        "religion": "muslim"
      }
    },
    {
      "type": "way",
      "id": 346454054,
      "center": {
        "lat": 12.9674027,
        "lon": 77.5837589
      },
      "tags": {
        "amenity": "place_of_worship",
        "building": "temple",
        "name": "Chikka Anamma Temple",
        "name:kn": "ಚಿಕ್ಕ ಅನ್ನಮ್ಮ",
        "religion": "hindu"
      }
    },
    {
      "type": "way",
      "id": 346508060,
      "center": {
        "lat": 12.9661906,
        "lon": 77.5851087
      },
      "tags": {
        "amenity": "school",
        "name": "Lourdes High School"
      }
    },
    {
      "type": "way",
      "id": 347018372,
      "center": {
        "lat": 12.9703914,
        "lon": 77.5744849
      },
      "tags": {
        "amenity": "cinema",
        "building": "yes",
        "name": "Vijaya Laxmi Theatre",
        "name:kn": "ವಿಜಯಲಕ್ಷ್ಮಿ"
      }
    },
    {
      "type": "way",
      "id": 347042289,
      "center": {
        "lat": 12.9731777,
        "lon": 77.5713913
      },
      "tags": {
        "addr:city": "Bengaluru",
        "addr:postcode": "560053",
        "addr:street": "Akkipete Main Road, O.T.C. Road Chickpete, Upparpete, Cottonpete",
        "amenity": "place_of_worship",
        "building": "yes",
        "denomination": "sufi",
        "name": "Hazrat Tawakkal Shah Mastan Soharwardy Rehmatullah Dargah",
        "religion": "muslim"
      }
    },
    {
      "type": "way",
      "id": 347042595,
      "center": {
        "lat": 12.9727366,
        "lon": 77.5752163
      },
      "tags": {
        "amenity": "place_of_worship",
        "building": "yes",
        "name": "Sri Adinatha Digambar Jain Temple",
        "religion": "jain"
      }
    },
    {
      "type": "way",
      "id": 347077218,
      "center": {
        "lat": 12.9643472,
        "lon": 77.5773741
      },
      "tags": {
        "amenity": "toilets",
        "building": "yes",
        "fee": "yes",
        "female": "yes",
        "male": "yes"
      }
    },
    {
      "type": "way",
      "id": 347077620,
      "center": {
        "lat": 12.9645771,
        "lon": 77.5771645
      },
      "tags": {
        "addr:city": "Bengaluru",
        "addr:housenumber": "397",
        "addr:postcode": "560002",
        "addr:street": "Avenue Rd, City Market, Old Tharagupet, Dodpete, Nagarathpete",
        "amenity": "place_of_worship",
        "building": "yes",
        "check_date": "2025-08-15",
        "denomination": "sufi",
        "name": "Dargha Hazrath Mir Bahadur Sha Al Maroof Syed Pacha Shaheed",
        "religion": "muslim"
      }
    },
    {
      "type": "way",
      "id": 347078486,
      "center": {
        "lat": 12.9649849,
        "lon": 77.5781544
      },
      "tags": {
        "building": "yes",
        "name": "R.K. Bathija & Co",
        "shop": "hardware"
      }
    },
    {
      "type": "way",
      "id": 347144975,
      "center": {
        "lat": 12.973605,
        "lon": 77.5775709
      },
      "tags": {
        "amenity": "cinema",
        "building": "yes",
        "name": "Abhinaya Theater",
        "name:kn": "ಅಭಿನಯ ಚಿತ್ರಮಂದಿರ"
      }
    },
    {
      "type": "way",
      "id": 347145204,
      "center": {
        "lat": 12.9744591,
        "lon": 77.5787142
      },
      "tags": {
        "building": "commercial",
        "building:levels": "5",
        "name": "Pothys",
        "shop": "clothes"
      }
    },
    {
      "type": "way",
      "id": 347145257,
      "center": {
        "lat": 12.9758713,
        "lon": 77.5753213
      },
      "tags": {
        "addr:city": "Bengaluru",
        "addr:postcode": "560009",
        "addr:street": "Subedar Chatram Road, Gandhi Nagar",
        "amenity": "theatre",
        "building": "yes",
        "name": "Triveni Theatre"
      }
    },
    {
      "type": "way",
      "id": 347145437,
      "center": {
        "lat": 12.9771917,
        "lon": 77.5761083
      },
      "tags": {
        "addr:city": "Bengaluru",
        "addr:street": "2nd Cross Road",
        "amenity": "bank",
        "atm": "yes",
        "brand": "Central Bank of India",
        "brand:wikidata": "Q2007090",
        "building": "yes",
        "drive_through": "no",
        "name": "Central Bank of India",
        "operator": "Central Bank of India"
      }
    },
    {
      "type": "way",
      "id": 347146270,
      "center": {
        "lat": 12.9761616,
        "lon": 77.5753707
      },
      "tags": {
        "addr:city": "Bengaluru",
        "addr:postcode": "560009",
        "addr:street": "Subedar Chatram Road, Gandhi Nagar",
        "amenity": "cinema",
        "building": "yes",
        "name": "Anupama Theatre"
      }
    },
    {
      "type": "way",
      "id": 347175855,
      "center": {
        "lat": 12.9772161,
        "lon": 77.5768728
      },
      "tags": {
        "building": "yes",
        "name": "Samrudhi Agro Seeds",
        "shop": "agrarian"
      }
    },
    {
      "type": "way",
      "id": 347176018,
      "center": {
        "lat": 12.9772258,
        "lon": 77.5769877
      },
      "tags": {
        "building": "yes",
        "name": "Karnataka Khadi Bhandaar",
        "shop": "clothes"
      }
    },
    {
      "type": "way",
      "id": 347176084,
      "center": {
        "lat": 12.977223,
        "lon": 77.5765521
      },
      "tags": {
        "building": "yes",
        "name": "Babu Khadi Wear",
        "shop": "clothes"
      }
    },
    {
      "type": "way",
      "id": 347436881,
      "center": {
        "lat": 12.961751,
        "lon": 77.5809915
      },
      "tags": {
        "amenity": "place_of_worship",
        "building": "mosque",
        "name:kn": "ಮಸೀದಿ",
        "religion": "muslim"
      }
    },
    {
      "type": "way",
      "id": 348098092,
      "center": {
        "lat": 12.9771074,
        "lon": 77.5792163
      },
      "tags": {
        "amenity": "restaurant",
        "building": "yes",
        "cuisine": "indian",
        "name": "Sōmēśvaram",
        "name:en": "Someshwaram Café",
        "name:es": "Café Sōmēśvaram",
        "name:hi": "सोमेश्वर",
        "name:hi-Latn": "Someśvar",
        "name:kn": "ಸೋಮೇಶ್ವರಂ",
        "name:kn-Latn": "Sōmēśvaram",
        "name:sa": "सोमेश्वर",
        "name:sa-Latn": "Someśvara",
        "name:ur": "سومیشور",
        "name:ur-Latn": "Someśvar"
      }
    },
    {
      "type": "way",
      "id": 350790256,
      "center": {
        "lat": 12.9723736,
        "lon": 77.5762017
      },
      "tags": {
        "amenity": "place_of_worship",
        "building": "yes",
        "religion": "hindu"
      }
    },
    {
      "type": "way",
      "id": 351342259,
      "center": {
        "lat": 12.9711404,
        "lon": 77.5801439
      },
      "tags": {
        "addr:street": "Avenue Road",
        "amenity": "place_of_worship",
        "building": "church",
        "denomination": "church_of_south_india",
        "name": "Rice Memorial Church",
        "religion": "christian",
        "wikidata": "Q24935415",
        "wikimedia_commons": "Category:Rice Memorial Church, Bangalore",
        "wikipedia": "en:Rice Memorial Church, Bangalore"
      }
    },
    {
      "type": "way",
      "id": 351342304,
      "center": {
        "lat": 12.9646079,
        "lon": 77.5821566
      },
      "tags": {
        "building": "yes",
        "name": "Electroface Connectors",
        "shop": "electronics"
      }
    },
    {
      "type": "way",
      "id": 352714475,
      "center": {
        "lat": 12.9724941,
        "lon": 77.5859928
      },
      "tags": {
        "amenity": "library",
        "building": "yes",
        "name": "Mythic Society Library"
      }
    },
    {
      "type": "way",
      "id": 372031014,
      "center": {
        "lat": 12.976757,
        "lon": 77.5739545
      },
      "tags": {
        "amenity": "bus_station",
        "bus": "yes",
        "name": "KSRTC Bus Terminal 1",
        "name:etymology:wikidata": "Q6387049",
        "name:kn": "ಕ ರಾ ರ ಸಾ ನಿ ಬಸ್ ನಿಲ್ದಾಣ ೧",
        "name:ml": "കെംപെഗൗഡ കെഎസ്ആർടിസി ബസ് സ്റ്റേഷൻ",
        "operator": "KSRTC",
        "public_transport": "station",
        "wheelchair": "limited"
      }
    },
    {
      "type": "way",
      "id": 372986139,
      "center": {
        "lat": 12.9752495,
        "lon": 77.5761662
      },
      "tags": {
        "leisure": "garden"
      }
    },
    {
      "type": "way",
      "id": 373574996,
      "center": {
        "lat": 12.9635299,
        "lon": 77.5702106
      },
      "tags": {
        "amenity": "place_of_worship",
        "building": "church",
        "religion": "christian",
        "toilets:wheelchair": "no",
        "wheelchair": "limited"
      }
    },
    {
      "type": "way",
      "id": 405141209,
      "center": {
        "lat": 12.9739802,
        "lon": 77.5797494
      },
      "tags": {
        "addr:street": "Kempe Gowda Road",
        "amenity": "cinema",
        "landuse": "commercial",
        "name": "Bhoomika Theatre",
        "name:kn": "ಭೂಮಿಕಾ"
      }
    },
    {
      "type": "way",
      "id": 405141210,
      "center": {
        "lat": 12.9744829,
        "lon": 77.5772128
      },
      "tags": {
        "addr:street": "Kempe Gowda Road",
        "amenity": "cinema",
        "landuse": "commercial",
        "name": "Kalpana Cinema",
        "name:kn": "ಕಲ್ಪನ"
      }
    },
    {
      "type": "way",
      "id": 405141217,
      "center": {
        "lat": 12.9747681,
        "lon": 77.5762758
      },
      "tags": {
        "amenity": "cinema",
        "building": "yes",
        "name": "Santosh Theater",
        "name:kn": "ಸಂತೋಷ"
      }
    },
    {
      "type": "way",
      "id": 405141221,
      "center": {
        "lat": 12.9743232,
        "lon": 77.5762232
      },
      "tags": {
        "amenity": "cinema",
        "building": "yes",
        "name": "Sapna Theater",
        "name:kn": "ಸಪ್ನಾ"
      }
    },
    {
      "type": "way",
      "id": 410858825,
      "center": {
        "lat": 12.970304,
        "lon": 77.5792557
      },
      "tags": {
        "amenity": "place_of_worship",
        "building": "temple",
        "name": "Sri Ranganathaswamy Temple",
        "name:kn": "ರಂಗನಾಥಸ್ವಾಮಿ ದೇವಸ್ಥಾನ",
        "religion": "hindu",
        "wheelchair": "no"
      }
    },
    {
      "type": "way",
      "id": 410858826,
      "center": {
        "lat": 12.9666992,
        "lon": 77.5741828
      },
      "tags": {
        "amenity": "place_of_worship",
        "building": "temple",
        "religion": "hindu"
      }
    },
    {
      "type": "way",
      "id": 421114581,
      "center": {
        "lat": 12.966918,
        "lon": 77.5854944
      },
      "tags": {
        "amenity": "place_of_worship",
        "name": "Hazrat Hamid Shah Dargah",
        "name:kn": "ಹಜ್ರತ್ ಹಮೀದ್ ಶಾ ದರ್ಗ",
        "religion": "muslim"
      }
    },
    {
      "type": "way",
      "id": 421114582,
      "center": {
        "lat": 12.9662043,
        "lon": 77.585701
      },
      "tags": {
        "amenity": "college",
        "name": "Abbas Khan College",
        "name:kn": "ಅಬ್ಬಾಸ್ ಖಾನ್ ಕಾಲೇಜು"
      }
    },
    {
      "type": "way",
      "id": 421116824,
      "center": {
        "lat": 12.9660973,
        "lon": 77.5845209
      },
      "tags": {
        "amenity": "place_of_worship"
      }
    },
    {
      "type": "way",
      "id": 421131119,
      "center": {
        "lat": 12.9702719,
        "lon": 77.5794685
      },
      "tags": {
        "amenity": "marketplace",
        "name": "Ballapurpet Market",
        "name:kn": "ಬಳ್ಳಾಪುರಪೇಟೆ"
      }
    },
    {
      "type": "way",
      "id": 421132587,
      "center": {
        "lat": 12.9674719,
        "lon": 77.5793311
      },
      "tags": {
        "amenity": "place_of_worship",
        "name": "Chamundeshwari Temple",
        "name:kn": "ಚಾಮುಂಡೇಶ್ವರಿ ದೇವಸ್ಥಾನ",
        "religion": "hindu"
      }
    },
    {
      "type": "way",
      "id": 421132591,
      "center": {
        "lat": 12.9674494,
        "lon": 77.5793201
      },
      "tags": {
        "amenity": "place_of_worship",
        "building": "temple",
        "religion": "hindu"
      }
    },
    {
      "type": "way",
      "id": 421133332,
      "center": {
        "lat": 12.9730905,
        "lon": 77.5814136
      },
      "tags": {
        "amenity": "place_of_worship",
        "check_date": "2024-07-28",
        "landuse": "religious",
        "name": "Sri Shanidevara Temple",
        "religion": "hindu"
      }
    },
    {
      "type": "way",
      "id": 421133334,
      "center": {
        "lat": 12.9727433,
        "lon": 77.5812321
      },
      "tags": {
        "amenity": "place_of_worship",
        "check_date": "2024-07-28",
        "landuse": "religious",
        "name": "Sri Anjaneyswamy Temple",
        "name:kn": "ಆಂಜನೇಯ ದೇವಸ್ಥಾನ",
        "religion": "hindu"
      }
    },
    {
      "type": "way",
      "id": 421133336,
      "center": {
        "lat": 12.9730976,
        "lon": 77.5813783
      },
      "tags": {
        "amenity": "place_of_worship",
        "building": "temple",
        "check_date": "2024-07-28",
        "religion": "hindu"
      }
    },
    {
      "type": "way",
      "id": 421133338,
      "center": {
        "lat": 12.9727972,
        "lon": 77.5811882
      },
      "tags": {
        "amenity": "place_of_worship",
        "building": "temple",
        "check_date": "2024-07-28",
        "religion": "hindu"
      }
    },
    {
      "type": "way",
      "id": 512515890,
      "center": {
        "lat": 12.9649534,
        "lon": 77.5745313
      },
      "tags": {
        "amenity": "marketplace",
        "landuse": "retail",
        "name": "Fish and Meat Market"
      }
    },
    {
      "type": "way",
      "id": 1007646159,
      "center": {
        "lat": 12.974393,
        "lon": 77.5842083
      },
      "tags": {
        "amenity": "parking",
        "capacity": "10"
      }
    },
    {
      "type": "way",
      "id": 1007646167,
      "center": {
        "lat": 12.9725139,
        "lon": 77.5861298
      },
      "tags": {
        "amenity": "arts_centre",
        "landuse": "commercial",
        "name": "Mythic Society",
        "opening_hours": "Tu-Su 10:00-16:00"
      }
    },
    {
      "type": "way",
      "id": 1030050639,
      "center": {
        "lat": 12.9745187,
        "lon": 77.5749342
      },
      "tags": {
        "amenity": "police",
        "building": "yes",
        "name": "Upparpet Traffic Police Station",
        "name:kn": "ಸಂಚಾರ ಪೊಲೀಸ್ ಠಾಣೆ"
      }
    },
    {
      "type": "way",
      "id": 1030050640,
      "center": {
        "lat": 12.9734457,
        "lon": 77.5726262
      },
      "tags": {
        "amenity": "parking"
      }
    },
    {
      "type": "way",
      "id": 1047676498,
      "center": {
        "lat": 12.96843,
        "lon": 77.5870212
      },
      "tags": {
        "barrier": "fence",
        "leisure": "park",
        "name": "Police Memorial Park"
      }
    },
    {
      "type": "way",
      "id": 1076405817,
      "center": {
        "lat": 12.9747547,
        "lon": 77.5777971
      },
      "tags": {
        "amenity": "place_of_worship",
        "name": "Bhagvan Sri Arka Mahaganapathi Temple",
        "religion": "hindu",
        "wheelchair": "no"
      }
    },
    {
      "type": "way",
      "id": 1164848587,
      "center": {
        "lat": 12.9674904,
        "lon": 77.5870792
      },
      "tags": {
        "amenity": "parking"
      }
    },
    {
      "type": "way",
      "id": 1167151322,
      "center": {
        "lat": 12.961217,
        "lon": 77.5747907
      },
      "tags": {
        "leisure": "park"
      }
    },
    {
      "type": "way",
      "id": 1205832108,
      "center": {
        "lat": 12.9623553,
        "lon": 77.5768185
      },
      "tags": {
        "amenity": "school"
      }
    },
    {
      "type": "way",
      "id": 1205832122,
      "center": {
        "lat": 12.9598224,
        "lon": 77.5771411
      },
      "tags": {
        "access": "yes",
        "amenity": "parking",
        "building": "yes",
        "fee": "yes",
        "layer": "1",
        "parking": "multi-storey"
      }
    },
    {
      "type": "way",
      "id": 1208844932,
      "center": {
        "lat": 12.9620817,
        "lon": 77.5757885
      },
      "tags": {
        "amenity": "toilets",
        "building": "yes",
        "female": "yes",
        "male": "yes",
        "wheelchair": "no"
      }
    },
    {
      "type": "way",
      "id": 1212700499,
      "center": {
        "lat": 12.9767181,
        "lon": 77.5719199
      },
      "tags": {
        "amenity": "bus_station",
        "bus": "yes",
        "name": "KSRTC Bus Terminal 2",
        "name:etymology:wikidata": "Q6387049",
        "name:kn": "ಕ ರಾ ರ ಸಾ ನಿ ಬಸ್ ನಿಲ್ದಾಣ ೨",
        "name:ml": "കെംപെഗൗഡ കെഎസ്ആർടിസി ബസ് സ്റ്റേഷൻ",
        "operator": "KSRTC",
        "public_transport": "station",
        "wheelchair": "limited"
      }
    },
    {
      "type": "way",
      "id": 1216159263,
      "center": {
        "lat": 12.9617743,
        "lon": 77.5749383
      },
      "tags": {
        "leisure": "park"
      }
    },
    {
      "type": "way",
      "id": 1216159267,
      "center": {
        "lat": 12.961987,
        "lon": 77.57503
      },
      "tags": {
        "amenity": "parking",
        "parking": "surface"
      }
    },
    {
      "type": "way",
      "id": 1216159268,
      "center": {
        "lat": 12.9616914,
        "lon": 77.575924
      },
      "tags": {
        "alt_name": "Vani Vilas Institute",
        "amenity": "school",
        "heritage": "2",
        "heritage:operator": "nmma",
        "heritage:website": "https://nmma.nic.in/nmma/exploreBuiltState.do?state=29",
        "name": "Vani Villas College",
        "name:kn": "ವಾಣಿ ವಿಲಾಸ ಕಾಲೇಜು",
        "ref:nmma": "KR20010953",
        "start_date": "1868"
      }
    },
    {
      "type": "way",
      "id": 1220567439,
      "center": {
        "lat": 12.9663126,
        "lon": 77.574662
      },
      "tags": {
        "access": "customers",
        "amenity": "parking",
        "operator": "BMRCL",
        "parking": "surface"
      }
    },
    {
      "type": "way",
      "id": 1220567448,
      "center": {
        "lat": 12.9657768,
        "lon": 77.5754276
      },
      "tags": {
        "amenity": "marketplace",
        "landuse": "retail"
      }
    },
    {
      "type": "way",
      "id": 1220567449,
      "center": {
        "lat": 12.9673131,
        "lon": 77.5746937
      },
      "tags": {
        "access": "customers",
        "amenity": "parking",
        "operator": "BMRCL",
        "parking": "surface"
      }
    },
    {
      "type": "way",
      "id": 1231129298,
      "center": {
        "lat": 12.9629605,
        "lon": 77.5747755
      },
      "tags": {
        "access": "customers",
        "amenity": "parking",
        "parking": "surface"
      }
    },
    {
      "type": "way",
      "id": 1231379305,
      "center": {
        "lat": 12.9702116,
        "lon": 77.5841592
      },
      "tags": {
        "amenity": "place_of_worship",
        "building": "yes",
        "religion": "hindu"
      }
    },
    {
      "type": "way",
      "id": 1231379306,
      "center": {
        "lat": 12.9705535,
        "lon": 77.5839364
      },
      "tags": {
        "hoops": "2",
        "leisure": "pitch",
        "sport": "basketball",
        "surface": "concrete"
      }
    },
    {
      "type": "way",
      "id": 1231379314,
      "center": {
        "lat": 12.9710887,
        "lon": 77.5832686
      },
      "tags": {
        "amenity": "school"
      }
    },
    {
      "type": "way",
      "id": 1257696667,
      "center": {
        "lat": 12.9698126,
        "lon": 77.5862994
      },
      "tags": {
        "amenity": "parking",
        "parking": "surface"
      }
    },
    {
      "type": "way",
      "id": 1258159464,
      "center": {
        "lat": 12.9759869,
        "lon": 77.5825981
      },
      "tags": {
        "leisure": "garden"
      }
    },
    {
      "type": "way",
      "id": 1258159468,
      "center": {
        "lat": 12.9764406,
        "lon": 77.5829357
      },
      "tags": {
        "amenity": "college",
        "landuse": "education",
        "name": "Bangalore Medical College Gents Hostel"
      }
    },
    {
      "type": "way",
      "id": 1301985514,
      "center": {
        "lat": 12.9623494,
        "lon": 77.5775186
      },
      "tags": {
        "access": "permissive",
        "amenity": "parking",
        "parking": "street_side"
      }
    },
    {
      "type": "way",
      "id": 1302418861,
      "center": {
        "lat": 12.9653345,
        "lon": 77.5857148
      },
      "tags": {
        "access": "permissive",
        "amenity": "parking",
        "parking": "surface"
      }
    },
    {
      "type": "way",
      "id": 1302418874,
      "center": {
        "lat": 12.9666047,
        "lon": 77.585933
      },
      "tags": {
        "access": "permissive",
        "amenity": "parking",
        "parking": "surface"
      }
    },
    {
      "type": "way",
      "id": 1310872540,
      "center": {
        "lat": 12.9733044,
        "lon": 77.5814842
      },
      "tags": {
        "amenity": "fuel",
        "brand": "Indian Oil",
        "brand:wikidata": "Q1289348",
        "brand:wikipedia": "en:Indian Oil Corporation",
        "compressed_air": "yes",
        "name": "Indian Oil",
        "name:kn": "ಇಂಡಿಯನ್ ಆಯಿಲ್"
      }
    },
    {
      "type": "way",
      "id": 1310874391,
      "center": {
        "lat": 12.9752587,
        "lon": 77.5823095
      },
      "tags": {
        "access": "yes",
        "amenity": "toilets",
        "building": "yes",
        "fee": "yes",
        "female": "yes",
        "male": "yes"
      }
    },
    {
      "type": "way",
      "id": 1311251817,
      "center": {
        "lat": 12.9769998,
        "lon": 77.5804362
      },
      "tags": {
        "amenity": "recycling",
        "name": "BBMP Waste Transfer Station",
        "recycling_type": "centre"
      }
    },
    {
      "type": "way",
      "id": 1311251844,
      "center": {
        "lat": 12.9647904,
        "lon": 77.5856322
      },
      "tags": {
        "access": "private",
        "amenity": "parking",
        "parking": "street_side"
      }
    },
    {
      "type": "way",
      "id": 1342574686,
      "center": {
        "lat": 12.9751613,
        "lon": 77.5776794
      },
      "tags": {
        "amenity": "parking",
        "parking": "surface"
      }
    }
  ]
}