{
  "area_name": "Mangamannapalya",
  "osm_id": 3300149441,
  "osm_type": "node",
  "place_type": "neighbourhood",
  "amenity_count": 361,
  "amenities": [
    {
      "type": "node",
      "id": 738185306,
      "lat": 12.9062825,
      "lon": 77.6276456,
      "tags": {
        "amenity": "place_of_worship",
        "name": "Ganesha Temple",
        "name:kn": "ಗಣೇಶ ದೇವಸ್ಥಾನ",
        "religion": "hindu"
      }
    },
    {
      "type": "node",
      "id": 1311760453,
      "lat": 12.9001507,
      "lon": 77.630134,
      "tags": {
        "addr:city": "Bommanahalli, Bangalore",
        "addr:postcode": "560 068",
        "addr:street": "Hosur Road",
        "amenity": "college",
        "fax": "+91-80-30219629",
        "name": "The Oxford Dental College & Hospital",
        "phone": "+91-80-30219626"
      }
    },
    {
      "type": "node",
      "id": 1428116573,
      "lat": 12.9070833,
      "lon": 77.6351607,
      "tags": {
        "amenity": "bus_station",
        "name": "Mangammanapalya",
        "name:kn": "ಮಂಗಮ್ಮನ ಪಾಳ್ಯ"
      }
    },
    {
      "type": "node",
      "id": 1468908289,
      "lat": 12.9120524,
      "lon": 77.6379776,
      "tags": {
        "amenity": "restaurant",
        "name": "Jharoka",
        "name:kn": "ಜಾರೊಕ"
      }
    },
    {
      "type": "node",
      "id": 1468908294,
      "lat": 12.9121865,
      "lon": 77.6379811,
      "tags": {
        "addr:housenumber": "1",
        "amenity": "fast_food",
        "brand": "McDonald's",
        "brand:pa": "ਮੈਕਡੋਨਲਡ’ਜ਼",
        "brand:ur": "مکڈونلڈز",
        "brand:wikidata": "Q38076",
        "brand:wikipedia": "en:McDonald's",
        "brand:wikipedia:pa": "ਮੈਕਡੋਨਲਡ’ਜ਼",
        "brand:wikipedia:ur": "مکڈونلڈز",
        "check_date": "2025-04-04",
        "cuisine": "burger",
        "indoor_seating": "yes",
        "name": "McDonald's",
        "name:kn": "ಮ್ಯಾಕ್‌ಡೊನಾಲ್ಡ್ಸ್",
        "name:pa": "ਮੈਕਡੋਨਲਡ’ਜ਼",
        "name:ur": "مکڈونلڈز",
        "outdoor_seating": "no",
        "payment:cash": "yes",
        "payment:mastercard": "yes",
        "payment:visa": "yes",
        "takeaway": "yes",
        "website": "https://www.mcdonaldsindia.com/"
      }
    },
    {
      "type": "node",
      "id": 1470421127,
      "lat": 12.9062634,
      "lon": 77.6298345,
      "tags": {
        "addr:housenumber": "Hosur road",
        "amenity": "restaurant",
        "name": "Tharavad",
        "name:kn": "ಥರವಾದ್"
      }
    },
    {
      "type": "node",
      "id": 1470757461,
      "lat": 12.911884,
      "lon": 77.6379067,
      "tags": {
        "amenity": "atm",
        "brand": "IndusInd Bank",
        "brand:wikidata": "Q2040323",
        "name": "IndusInd Bank",
        "name:kn": "ಇಂಡಸ್ಇಂಡ್",
        "operator": "IndusInd Bank",
        "operator:wikidata": "Q2040323"
      }
    },
    {
      "type": "node",
      "id": 1470827521,
      "lat": 12.910865,
      "lon": 77.637973,
      "tags": {
        "amenity": "atm"
      }
    },
    {
      "type": "node",
      "id": 1470839826,
      "lat": 12.90536,
      "lon": 77.630729,
      "tags": {
        "amenity": "place_of_worship",
        "name": "St Marys Church",
        "religion": "christian"
      }
    },
    {
      "type": "node",
      "id": 1471683739,
      "lat": 12.9108417,
      "lon": 77.6270457,
      "tags": {
        "brand": "Jaguar",
        "brand:wikidata": "Q21170490",
        "name": "Jaguar Landrover Range Rover",
        "shop": "car"
      }
    },
    {
      "type": "node",
      "id": 1471685731,
      "lat": 12.911347,
      "lon": 77.626597,
      "tags": {
        "addr:housenumber": "Hosur road",
        "brand": "Hero",
        "brand:wikidata": "Q1613763",
        "name": "Hero Motocorp",
        "shop": "motorcycle"
      }
    },
    {
      "type": "node",
      "id": 1472025798,
      "lat": 12.8987945,
      "lon": 77.6344561,
      "tags": {
        "brand": "Toyota",
        "brand:wikidata": "Q53268",
        "name": "Toyota Used Cars",
        "shop": "car"
      }
    },
    {
      "type": "node",
      "id": 1472212762,
      "lat": 12.9090166,
      "lon": 77.6280806,
      "tags": {
        "addr:city": "Bengaluru",
        "amenity": "fuel",
        "brand": "Bharat Petroleum",
        "brand:wikidata": "Q854826",
        "brand:wikipedia": "en:Bharat Petroleum",
        "fuel:diesel": "yes",
        "fuel:petrol": "yes",
        "name": "Bharat Petroleum",
        "operator": "Vasundhara Auto Service",
        "self_service": "no"
      }
    },
    {
      "type": "node",
      "id": 1473085346,
      "lat": 12.9123058,
      "lon": 77.6325653,
      "tags": {
        "brand": "Sweet Chariot",
        "delivery": "yes",
        "name": "Sweet Chariot",
        "name:kn": "ಸ್ವೀಟ್ ಚಾರಿಯಟ್",
        "shop": "pastry",
        "takeaway": "yes"
      }
    },
    {
      "type": "node",
      "id": 1473087127,
      "lat": 12.9067307,
      "lon": 77.6311698,
      "tags": {
        "name": "Addlabs",
        "shop": "electronics"
      }
    },
    {
      "type": "node",
      "id": 1473088751,
      "lat": 12.903346,
      "lon": 77.631724,
      "tags": {
        "addr:street": "Hosur road",
        "name": "Ag Arcade",
        "shop": "hardware"
      }
    },
    {
      "type": "node",
      "id": 1473224706,
      "lat": 12.9123293,
      "lon": 77.6326323,
      "tags": {
        "amenity": "pharmacy",
        "brand": "Apollo Pharmacy",
        "brand:wikidata": "Q62562612",
        "healthcare": "pharmacy",
        "name": "Apollo Pharmacy",
        "name:kn": "ಅಪೋಲೋ ಫಾರ್ಮಸಿ"
      }
    },
    {
      "type": "node",
      "id": 1474104406,
      "lat": 12.9102705,
      "lon": 77.6265538,
      "tags": {
        "addr:street": "Hosur road",
        "amenity": "hospital",
        "check_date": "2024-09-19",
        "healthcare": "hospital",
        "name": "Vasan Eye Care"
      }
    },
    {
      "type": "node",
      "id": 1539242287,
      "lat": 12.911762,
      "lon": 77.637224,
      "tags": {
        "addr:housenumber": "31",
        "addr:street": "12th Main,18th Cross",
        "amenity": "kindergarten",
        "description": "Montessori School",
        "name": "Joy Of Learning"
      }
    },
    {
      "type": "node",
      "id": 1613147970,
      "lat": 12.9087203,
      "lon": 77.6275079,
      "tags": {
        "amenity": "fuel",
        "brand": "Indian Oil",
        "brand:wikidata": "Q1289348",
        "brand:wikipedia": "en:Indian Oil Corporation",
        "compressed_air": "yes",
        "name": "Indian Oil",
        "name:kn": "ಇಂಡಿಯನ್ ಆಯಿಲ್"
      }
    },
    {
      "type": "node",
      "id": 1893011344,
      "lat": 12.902875,
      "lon": 77.6242515,
      "tags": {
        "amenity": "atm",
        "brand": "HDFC Bank",
        "brand:wikidata": "Q631047",
        "operator": "HDFC Bank",
        "operator:wikidata": "Q631047",
        "short_name": "HDFC"
      }
    },
    {
      "type": "node",
      "id": 1893176911,
      "lat": 12.9055194,
      "lon": 77.6273464,
      "tags": {
        "amenity": "place_of_worship",
        "name": "Bommanahalli Mosque",
        "name:kn": "ಬೊಮ್ಮನಹಳ್ಳಿ ಮಸೀದಿ",
        "religion": "muslim"
      }
    },
    {
      "type": "node",
      "id": 1893273665,
      "lat": 12.9029172,
      "lon": 77.6242687,
      "tags": {
        "name": "Mega Mart",
        "shop": "clothes"
      }
    },
    {
      "type": "node",
      "id": 2385050250,
      "lat": 12.9063916,
      "lon": 77.6270985,
      "tags": {
        "name": "KSEB Kiosk",
        "shop": "kiosk"
      }
    },
    {
      "type": "node",
      "id": 2387044171,
      "lat": 12.9051894,
      "lon": 77.6396903,
      "tags": {
        "amenity": "atm",
        "brand": "HDFC Bank",
        "brand:wikidata": "Q631047",
        "currency:INR": "yes",
        "name": "HDFC Bank ATM",
        "name:kn": "ಎಚ್. ಡಿ. ಎಫ್. ಸಿ..",
        "operator": "HDFC Bank",
        "operator:wikidata": "Q631047",
        "short_name": "HDFC"
      }
    },
    {
      "type": "node",
      "id": 2389353607,
      "lat": 12.9034741,
      "lon": 77.6255722,
      "tags": {
        "amenity": "atm",
        "brand": "HDFC Bank",
        "brand:wikidata": "Q631047",
        "check_date": "2022-06-14",
        "operator": "HDFC Bank",
        "operator:wikidata": "Q631047",
        "short_name": "HDFC"
      }
    },
    {
      "type": "node",
      "id": 2389353616,
      "lat": 12.9034741,
      "lon": 77.6256178,
      "tags": {
        "amenity": "atm",
        "brand": "Canara Bank",
        "brand:en": "Canara Bank",
        "brand:hi": "केनरा बैंक",
        "brand:kn": "ಕೆನರಾ ಬ್ಯಾಂಕ್",
        "brand:pa": "ਕੇਨਰਾ ਬੈਂਕ",
        "brand:pnb": "کینرا بینک",
        "brand:ur": "کینرا بینک",
        "brand:wikidata": "Q2003777",
        "check_date": "2022-06-14",
        "name:en": "Canara Bank",
        "name:hi": "केनरा बैंक",
        "name:kn": "ಕೆನರಾ ಬ್ಯಾಂಕ್",
        "name:pa": "ਕੇਨਰਾ ਬੈਂਕ",
        "name:pnb": "کینرا بینک",
        "name:ur": "کینرا بینک",
        "operator": "Canara Bank",
        "operator:wikidata": "Q2003777"
      }
    },
    {
      "type": "node",
      "id": 2389667841,
      "lat": 12.9035518,
      "lon": 77.6274068,
      "tags": {
        "amenity": "pharmacy",
        "dispensing": "yes",
        "name": "Jain Medicals"
      }
    },
    {
      "type": "node",
      "id": 2389667919,
      "lat": 12.9037635,
      "lon": 77.626806,
      "tags": {
        "name": "Vardhman Textiles",
        "shop": "clothes"
      }
    },
    {
      "type": "node",
      "id": 2389668260,
      "lat": 12.9031858,
      "lon": 77.6245476,
      "tags": {
        "amenity": "restaurant",
        "cuisine": "indian",
        "name": "Sri Krishna Upahara"
      }
    },
    {
      "type": "node",
      "id": 2389669498,
      "lat": 12.9055153,
      "lon": 77.6277689,
      "tags": {
        "name": "Lulu Bakery",
        "shop": "bakery"
      }
    },
    {
      "type": "node",
      "id": 2412058808,
      "lat": 12.91201,
      "lon": 77.6323154,
      "tags": {
        "amenity": "bank",
        "atm": "yes",
        "brand": "Allahabad Bank",
        "brand:wikidata": "Q2018840",
        "brand:wikipedia": "en:Allahabad Bank",
        "name": "Allahabad Bank",
        "name:en": "Allahabad Bank",
        "name:kn": "ಅಲ್ಲಹಾಬಾದ್ ಬ್ಯಾಂಕ್",
        "website": "https://www.allahabadbank.in"
      }
    },
    {
      "type": "node",
      "id": 2444074728,
      "lat": 12.9038463,
      "lon": 77.6271871,
      "tags": {
        "amenity": "atm",
        "brand": "Indian Overseas Bank",
        "brand:wikidata": "Q2003611",
        "check_date": "2022-06-14",
        "operator": "Indian Overseas Bank",
        "operator:wikidata": "Q2003611"
      }
    },
    {
      "type": "node",
      "id": 2446926669,
      "lat": 12.9112592,
      "lon": 77.6259903,
      "tags": {
        "amenity": "restaurant"
      }
    },
    {
      "type": "node",
      "id": 2446947452,
      "lat": 12.9027884,
      "lon": 77.6240135,
      "tags": {
        "shop": "shoes"
      }
    },
    {
      "type": "node",
      "id": 2447291687,
      "lat": 12.8977876,
      "lon": 77.631998,
      "tags": {
        "covered": "no",
        "leisure": "swimming_pool",
        "sport": "swimming"
      }
    },
    {
      "type": "node",
      "id": 2447845734,
      "lat": 12.9071046,
      "lon": 77.6332641,
      "tags": {
        "access": "private",
        "covered": "no",
        "leisure": "swimming_pool",
        "length": "15",
        "lit": "yes",
        "location": "outdoor",
        "sport": "swimming",
        "swimming_pool": "outdoor"
      }
    },
    {
      "type": "node",
      "id": 2447846664,
      "lat": 12.9064393,
      "lon": 77.6308237,
      "tags": {
        "amenity": "hospital",
        "emergency": "yes",
        "name": "Blossoms Hospital"
      }
    },
    {
      "type": "node",
      "id": 2449242270,
      "lat": 12.9033458,
      "lon": 77.6250038,
      "tags": {
        "shop": "motorcycle"
      }
    },
    {
      "type": "node",
      "id": 2471281381,
      "lat": 12.9062783,
      "lon": 77.6274095,
      "tags": {
        "amenity": "atm",
        "brand": "Canara Bank",
        "brand:en": "Canara Bank",
        "brand:hi": "केनरा बैंक",
        "brand:kn": "ಕೆನರಾ ಬ್ಯಾಂಕ್",
        "brand:pa": "ਕੇਨਰਾ ਬੈਂਕ",
        "brand:pnb": "کینرا بینک",
        "brand:ur": "کینرا بینک",
        "brand:wikidata": "Q2003777",
        "name:en": "Canara Bank",
        "name:hi": "केनरा बैंक",
        "name:kn": "ಕೆನರಾ ಬ್ಯಾಂಕ್",
        "name:pa": "ਕੇਨਰਾ ਬੈਂਕ",
        "name:pnb": "کینرا بینک",
        "name:ur": "کینرا بینک",
        "operator": "Canara Bank",
        "operator:wikidata": "Q2003777"
      }
    },
    {
      "type": "node",
      "id": 2471281382,
      "lat": 12.9062993,
      "lon": 77.627329,
      "tags": {
        "amenity": "atm",
        "brand": "HDFC Bank",
        "brand:wikidata": "Q631047",
        "operator": "HDFC Bank",
        "operator:wikidata": "Q631047",
        "short_name": "HDFC"
      }
    },
    {
      "type": "node",
      "id": 2471281383,
      "lat": 12.90295,
      "lon": 77.6242795,
      "tags": {
        "amenity": "atm",
        "brand": "Canara Bank",
        "brand:en": "Canara Bank",
        "brand:hi": "केनरा बैंक",
        "brand:kn": "ಕೆನರಾ ಬ್ಯಾಂಕ್",
        "brand:pa": "ਕੇਨਰਾ ਬੈਂਕ",
        "brand:pnb": "کینرا بینک",
        "brand:ur": "کینرا بینک",
        "brand:wikidata": "Q2003777",
        "name:en": "Canara Bank",
        "name:hi": "केनरा बैंक",
        "name:kn": "ಕೆನರಾ ಬ್ಯಾಂಕ್",
        "name:pa": "ਕੇਨਰਾ ਬੈਂਕ",
        "name:pnb": "کینرا بینک",
        "name:ur": "کینرا بینک",
        "operator": "Canara Bank",
        "operator:wikidata": "Q2003777"
      }
    },
    {
      "type": "node",
      "id": 2706909234,
      "lat": 12.9067131,
      "lon": 77.6310198,
      "tags": {
        "amenity": "post_office",
        "name": "Bommanahalli",
        "name:kn": "ಬೊಮ್ಮನಹಳ್ಳಿ",
        "operator": "India Post",
        "operator:wikidata": "Q3519720"
      }
    },
    {
      "type": "node",
      "id": 2720498307,
      "lat": 12.9003488,
      "lon": 77.6271298,
      "tags": {
        "amenity": "school",
        "name": "Sri Ram Driving School"
      }
    },
    {
      "type": "node",
      "id": 2720498311,
      "lat": 12.9002599,
      "lon": 77.6271003,
      "tags": {
        "amenity": "hospital",
        "emergency": "no",
        "name": "Kottakkal Arya Vaidya Sala"
      }
    },
    {
      "type": "node",
      "id": 2898982746,
      "lat": 12.9028462,
      "lon": 77.6240272,
      "tags": {
        "amenity": "dentist",
        "name": "Dr. Reddy's Dental Forum"
      }
    },
    {
      "type": "node",
      "id": 3198606756,
      "lat": 12.9122107,
      "lon": 77.6377107,
      "tags": {
        "addr:street": "17th Cross",
        "amenity": "restaurant",
        "brand": "Pizza Hut",
        "brand:wikidata": "Q191615",
        "brand:wikipedia": "en:Pizza Hut",
        "check_date": "2025-04-04",
        "cuisine": "pizza",
        "name": "Pizza Hut",
        "name:kn": "ಪಿಟ್ಸ ಹಟ್",
        "payment:cash": "yes",
        "payment:mastercard": "yes",
        "payment:visa": "yes",
        "smoking": "no"
      }
    },
    {
      "type": "node",
      "id": 3198609226,
      "lat": 12.9122576,
      "lon": 77.6375965,
      "tags": {
        "amenity": "restaurant",
        "capacity": "30",
        "cuisine": "italian",
        "name": "Calvins"
      }
    },
    {
      "type": "node",
      "id": 3214264917,
      "lat": 12.9020523,
      "lon": 77.631261,
      "tags": {
        "alt_name": "TOCE",
        "amenity": "college",
        "name": "The Oxford College of Engineering",
        "wikidata": "Q7755787",
        "wikipedia": "en:The Oxford College of Engineering"
      }
    },
    {
      "type": "node",
      "id": 3300149440,
      "lat": 12.9127356,
      "lon": 77.6380054,
      "tags": {
        "amenity": "bus_station",
        "bus": "yes",
        "name": "HSR Layout",
        "public_transport": "station"
      }
    },
    {
      "type": "node",
      "id": 3680311255,
      "lat": 12.9105606,
      "lon": 77.6326899,
      "tags": {
        "amenity": "fast_food",
        "check_date": "2024-11-30",
        "name": "Southinn"
      }
    },
    {
      "type": "node",
      "id": 4203857493,
      "lat": 12.9066637,
      "lon": 77.6287463,
      "tags": {
        "addr:district": "Bengaluru Urban",
        "addr:full": "90-D, Bommanahalli Circle, Hosur road",
        "addr:postcode": "560068",
        "addr:state": "Karnataka",
        "amenity": "hospital",
        "email": "prashanthhospital1996@gmail.com",
        "healthcare": "hospital",
        "name": "Prashanth Hospital",
        "name:kn": "ಪ್ರಶಾಂತ ಆಸ್ಪತ್ರೆ",
        "operator:type": "private",
        "source": "OpenGovernmentData",
        "website": "http://dpal.kar.nic.in/Kanunu%20padakosha%20PDF%20Files/Recognised%20Hospitals.pdf"
      }
    },
    {
      "type": "node",
      "id": 4203857494,
      "lat": 12.9062859,
      "lon": 77.6290719,
      "tags": {
        "amenity": "fast_food",
        "check_date": "2024-09-19",
        "name": "Sapna Bakery"
      }
    },
    {
      "type": "node",
      "id": 4377718282,
      "lat": 12.9046749,
      "lon": 77.6406296,
      "tags": {
        "amenity": "place_of_worship",
        "name": "Shiva Temple",
        "name:kn": "ಶಿವ ದೇವಸ್ಥಾನ",
        "religion": "hindu"
      }
    },
    {
      "type": "node",
      "id": 4377718283,
      "lat": 12.9048595,
      "lon": 77.6403067,
      "tags": {
        "amenity": "place_of_worship",
        "name": "Ayyappa Temple",
        "name:kn": "ಅಯ್ಯಪ್ಪ ದೇವಸ್ಥಾನ",
        "religion": "hindu"
      }
    },
    {
      "type": "node",
      "id": 4377718285,
      "lat": 12.9051847,
      "lon": 77.6397082,
      "tags": {
        "amenity": "atm",
        "brand": "Canara Bank",
        "brand:en": "Canara Bank",
        "brand:hi": "केनरा बैंक",
        "brand:kn": "ಕೆನರಾ ಬ್ಯಾಂಕ್",
        "brand:pa": "ਕੇਨਰਾ ਬੈਂਕ",
        "brand:pnb": "کینرا بینک",
        "brand:ur": "کینرا بینک",
        "brand:wikidata": "Q2003777",
        "currency:INR": "yes",
        "name": "Canara Bank ATM",
        "name:en": "Canara Bank",
        "name:hi": "केनरा बैंक",
        "name:kn": "ಕೆನರಾ ಬ್ಯಾಂಕ್",
        "name:pa": "ਕੇਨਰਾ ਬੈਂਕ",
        "name:pnb": "کینرا بینک",
        "name:ur": "کینرا بینک",
        "operator": "Canara Bank",
        "operator:wikidata": "Q2003777"
      }
    },
    {
      "type": "node",
      "id": 4377718286,
      "lat": 12.9051881,
      "lon": 77.6397329,
      "tags": {
        "shop": "hardware"
      }
    },
    {
      "type": "node",
      "id": 4377743080,
      "lat": 12.9056484,
      "lon": 77.6414765,
      "tags": {
        "addr:place": "Yellukunte",
        "amenity": "school",
        "isced:level": "2",
        "name": "GHPS Yellukunte",
        "name:kn": "ಸರ್ಕಾರಿ ಹಿರಿಯ ಪ್ರಾಥಮಿಕ ಶಾಲೆ ಯಳ್ಳುಕುಂಟೆ",
        "operator": "Department of Primary and Secondary Education",
        "operator:type": "government",
        "operator:wikidata": "Q111467381",
        "school": "primary"
      }
    },
    {
      "type": "node",
      "id": 4444433725,
      "lat": 12.9120592,
      "lon": 77.637908,
      "tags": {
        "addr:city": "Bangalore",
        "addr:housenumber": "14",
        "addr:postcode": "560102",
        "addr:street": "17th Cross, Sector 7, HSR Layout, Bengaluru",
        "amenity": "restaurant",
        "cuisine": "regional",
        "delivery": "yes",
        "name": "Earth Plate",
        "opening_hours": "12:00-15:30, 19:00-23:00",
        "phone": "+91 80 2572 4114",
        "smoking": "no",
        "takeaway": "yes",
        "website": "www.earthplate.net"
      }
    },
    {
      "type": "node",
      "id": 4445101752,
      "lat": 12.9118274,
      "lon": 77.6384331,
      "tags": {
        "addr:city": "Bangalore",
        "addr:housenumber": "1082",
        "addr:postcode": "560102",
        "addr:street": "18th Cross, 3rd Sector, HSR",
        "amenity": "restaurant",
        "check_date": "2024-06-15",
        "cuisine": "regional",
        "delivery": "yes",
        "name": "The Punjabi Rasoi",
        "opening_hours": "11:30- 23:30",
        "phone": "080 25720999",
        "smoking": "no",
        "takeaway": "yes"
      }
    },
    {
      "type": "node",
      "id": 4445433361,
      "lat": 12.9073279,
      "lon": 77.6283365,
      "tags": {
        "addr:city": "Bangalore",
        "addr:housenumber": "268/3",
        "addr:postcode": "560068",
        "addr:street": "1st Floor, BVNR Complex, Hosur Main Road, Bommanahalli",
        "amenity": "restaurant",
        "cuisine": "regional",
        "delivery": "yes",
        "name": "Dandes Hyderabad Biryani",
        "opening_hours": "12:00-15:30,18:00-22:30",
        "phone": "080 41667966 080 41636261",
        "smoking": "no",
        "takeaway": "yes"
      }
    },
    {
      "type": "node",
      "id": 4445449989,
      "lat": 12.9121011,
      "lon": 77.6262626,
      "tags": {
        "addr:city": "Bangalore",
        "addr:housenumber": "67/7",
        "addr:postcode": "560068",
        "addr:street": "Rupena Agrahara, Bommanahalli",
        "amenity": "restaurant",
        "check_date": "2024-07-28",
        "cuisine": "regional",
        "delivery": "yes",
        "indoor_seating": "yes",
        "name": "Sardarji Ka Dhaba",
        "opening_hours": "11:00-17:00,19:00-23:30",
        "outdoor_seating": "no",
        "phone": "+91 9886432987",
        "smoking": "no",
        "source": "survey",
        "takeaway": "yes"
      }
    },
    {
      "type": "node",
      "id": 4445493335,
      "lat": 12.9025398,
      "lon": 77.6253423,
      "tags": {
        "addr:city": "bagalore",
        "addr:postcode": "560068",
        "addr:street": "ATM, Bommanahalli Village, Begur, Bommanahalli,",
        "amenity": "restaurant",
        "cuisine": "regional",
        "delivery": "yes",
        "name": "Ammis Biryani",
        "name:kn": "ಅಮ್ಮಿ ಬಿರಿಯಾನಿ",
        "opening_hours": "12:00-23:00",
        "phone": "080 39457777",
        "smoking": "no",
        "takeaway": "yes"
      }
    },
    {
      "type": "node",
      "id": 4447972412,
      "lat": 12.9067129,
      "lon": 77.6265085,
      "tags": {
        "addr:city": "Bangalore",
        "addr:housenumber": "90/D",
        "addr:postcode": "560068",
        "addr:street": "Bommanahalli Circle, Hosur Main Road",
        "amenity": "hospital",
        "emergency": "yes",
        "name": "Prashanth Hospital",
        "name:kn": "ಪ್ರಶಾಂತ ಆಸ್ಪತ್ರೆ",
        "phone": "080 4150 3714",
        "source": "http://yellowpages.sulekha.com/",
        "website": "https://www.prashanthhospitals.in/"
      }
    },
    {
      "type": "node",
      "id": 4472318420,
      "lat": 12.9081741,
      "lon": 77.6368327,
      "tags": {
        "amenity": "police"
      }
    },
    {
      "type": "node",
      "id": 4487220597,
      "lat": 12.9074573,
      "lon": 77.6259561,
      "tags": {
        "addr:city": "Bangalore",
        "addr:housenumber": "#45, 3rd Floor, 69/3",
        "addr:postcode": "560068",
        "addr:street": "6th Main Road",
        "name": "X- Dog Trekking",
        "phone": "099455 55897",
        "shop": "sports",
        "website": "https://xdogtrekking.com/"
      }
    },
    {
      "type": "node",
      "id": 4487940721,
      "lat": 12.906051,
      "lon": 77.6276471,
      "tags": {
        "addr:city": "Bangalore",
        "addr:housenumber": "16,",
        "addr:postcode": "560068",
        "addr:street": "Begur Road",
        "name": "Nnk Cycle Mart",
        "phone": "080-41691398",
        "shop": "sports"
      }
    },
    {
      "type": "node",
      "id": 4488493977,
      "lat": 12.9064269,
      "lon": 77.6376404,
      "tags": {
        "addr:city": "Bengaluru",
        "addr:housenumber": "31, 27th Cross Rd",
        "addr:postcode": "560068",
        "addr:street": "Sector 3, Mangammanapalya",
        "leisure": "sports_centre",
        "name": "fitness fury",
        "opening_hours": "5:30-22:00",
        "phone": "9900133877",
        "sport": "gymnastics"
      }
    },
    {
      "type": "node",
      "id": 4489314045,
      "lat": 12.9065609,
      "lon": 77.6282887,
      "tags": {
        "addr:city": "Bangalore",
        "addr:housenumber": "23/2",
        "addr:postcode": "560068",
        "addr:street": "1st Floor, Above Nandini Bakery, Begur Main Road, Bommanahalli, Hosur Rd",
        "name": "Cider Sports & Fitness",
        "opening_hours": "10:30-20:30",
        "phone": "08040957685",
        "shop": "sports"
      }
    },
    {
      "type": "node",
      "id": 4490440587,
      "lat": 12.9084733,
      "lon": 77.6357946,
      "tags": {
        "addr:city": "Bangalore",
        "addr:housenumber": "141",
        "addr:postcode": "560035",
        "addr:street": "41/A, 1st floor, B.D.A complex, H.S.R. Layout, Sector 7, HSR Layout,",
        "leisure": "sports_centre",
        "name": "Snap Fitness",
        "opening_hours": "5:00-23:00",
        "phone": "8025727454",
        "sport": "gymnasium",
        "website": "snapfitnessindia.com"
      }
    },
    {
      "type": "node",
      "id": 4695733989,
      "lat": 12.9132492,
      "lon": 77.6351438,
      "tags": {
        "amenity": "cafe",
        "name": "Agarwal Bhavan",
        "name:en": "Agarwal Bhavan"
      }
    },
    {
      "type": "node",
      "id": 5198846422,
      "lat": 12.9118942,
      "lon": 77.6391649,
      "tags": {
        "amenity": "bar",
        "internet_access": "wlan",
        "name": "House of Commons Rest-o-bar",
        "name:en": "House of Commons Rest-o-bar",
        "phone": "+918045128604"
      }
    },
    {
      "type": "node",
      "id": 5402224023,
      "lat": 12.9105609,
      "lon": 77.6271039,
      "tags": {
        "amenity": "bank",
        "brand": "State Bank of India",
        "brand:wikidata": "Q1340361",
        "name": "State Bank of India",
        "name:kn": "ಭಾರತೀಯ ಸ್ಟೇಟ್ ಬ್ಯಾಂಕ್",
        "short_name": "SBI"
      }
    },
    {
      "type": "node",
      "id": 5402307923,
      "lat": 12.9055051,
      "lon": 77.630219,
      "tags": {
        "shop": "furniture"
      }
    },
    {
      "type": "node",
      "id": 5402308123,
      "lat": 12.9100294,
      "lon": 77.627487,
      "tags": {
        "brand": "Honda",
        "brand:wikidata": "Q9584",
        "check_date": "2025-05-31",
        "name": "Ananda Honda",
        "payment:cash": "yes",
        "payment:mastercard": "yes",
        "payment:visa": "yes",
        "shop": "motorcycle"
      }
    },
    {
      "type": "node",
      "id": 6347299242,
      "lat": 12.9064542,
      "lon": 77.629646,
      "tags": {
        "addr:place": "Bommanahalli",
        "amenity": "school",
        "isced:level": "2",
        "name": "GKHPS Bommanahalli",
        "name:kn": "ಸರ್ಕಾರಿ ಕನ್ನಡ ಹಿರಿಯ ಪ್ರಾಥಮಿಕ ಶಾಲೆ ಬೊಮ್ಮನಹಳ್ಳಿ",
        "operator": "Department of Primary and Secondary Education",
        "operator:type": "government",
        "operator:wikidata": "Q111467381",
        "school": "primary"
      }
    },
    {
      "type": "node",
      "id": 6347309061,
      "lat": 12.9057047,
      "lon": 77.6271138,
      "tags": {
        "addr:place": "Bommanahalli",
        "amenity": "school",
        "isced:level": "2",
        "name": "GUHPS Bommanahalli",
        "name:kn": "ಸರ್ಕಾರಿ ಉರ್ದು ಹಿರಿಯ ಪ್ರಾಥಮಿಕ ಶಾಲೆ ಬೊಮ್ಮನಹಳ್ಳಿ",
        "operator": "Department of Primary and Secondary Education",
        "operator:type": "government",
        "operator:wikidata": "Q111467381",
        "school": "primary"
      }
    },
    {
      "type": "node",
      "id": 6349078203,
      "lat": 12.9103875,
      "lon": 77.6249479,
      "tags": {
        "addr:place": "Bommanahalli",
        "amenity": "school",
        "isced:level": "2",
        "name": "Sadhguru Sai Baba HPS Roopena Bommanahalli",
        "name:kn": "ಸಧ್ಗುರು ಸಾಯಿ ಬಾಬಾ ಹಿರಿಯ ಪ್ರಾಥಮಿಕ ಶಾಲೆ ರೂಪೇನಾ ಬೊಮ್ಮನಹಳ್ಳಿ",
        "operator": "Department of Primary and Secondary Education",
        "operator:type": "government",
        "operator:wikidata": "Q111467381",
        "school": "primary"
      }
    },
    {
      "type": "node",
      "id": 6349546960,
      "lat": 12.9042134,
      "lon": 77.6350512,
      "tags": {
        "addr:place": "Mangammana Palya",
        "amenity": "school",
        "isced:level": "2",
        "name": "GUHPS Mangammana Palya",
        "name:kn": "ಸರ್ಕಾರಿ ಉರ್ದು ಹಿರಿಯ ಪ್ರಾಥಮಿಕ ಶಾಲೆ ಮಂಗಮ್ಮನ ಪಾಳ್ಯ",
        "operator": "Department of Primary and Secondary Education",
        "operator:type": "government",
        "operator:wikidata": "Q111467381",
        "school": "primary"
      }
    },
    {
      "type": "node",
      "id": 6422479067,
      "lat": 12.9061288,
      "lon": 77.6243998,
      "tags": {
        "addr:place": "Bommanahalli",
        "amenity": "school",
        "isced:level": "3",
        "name": "St Joseph HPS Bommana Halli",
        "name:kn": "ಸೆಂಟ್‌ ಜೋಸೆಫ್ ಹಿರಿಯ ಪ್ರಾಥಮಿಕ ಶಾಲೆ ಬೊಮ್ಮನಹಳ್ಳಿ",
        "operator": "Private Un-Aided",
        "school": "Higher Secondary"
      }
    },
    {
      "type": "node",
      "id": 6422577408,
      "lat": 12.9050686,
      "lon": 77.6351798,
      "tags": {
        "addr:place": "Bommanahalli",
        "amenity": "school",
        "isced:level": "3",
        "name": "Al Rahi Edu Sch Bommanahalli",
        "name:kn": "ಅಲ್ ರಹಿ ಎಜುಕೇಶನ್ ಶಾಲೆ,ಬೊಮ್ಮನಹಳ್ಳಿ",
        "operator": "Private Un-Aided",
        "school": "Higher Secondary"
      }
    },
    {
      "type": "node",
      "id": 6422587417,
      "lat": 12.9080891,
      "lon": 77.6242973,
      "tags": {
        "addr:place": "BommanaHalli",
        "amenity": "school",
        "isced:level": "3",
        "name": "New Cambridge Convent &HS, Bommana Halli",
        "name:kn": "ನ್ಯೂ ಕೇಂಬ್ರಿಜ್ ಕಾನ್ವೆಂಟ್ ಪ್ರೌಢಶಾಲೆ ,ಬೊಮ್ಮನಹಳ್ಳಿ",
        "operator": "Private Un-Aided",
        "school": "Higher Secondary"
      }
    },
    {
      "type": "node",
      "id": 6430430717,
      "lat": 12.9037178,
      "lon": 77.6257972,
      "tags": {
        "addr:place": "Bommanahalli",
        "amenity": "school",
        "isced:level": "2",
        "name": "Lorven Pub Sch, Bommanahalli",
        "name:kn": "ಲಾರ್ವೆನ್ ಪಬ್ಲಿಕ್ ಶಾಲೆ,ಬೊಮ್ಮನಹಳ್ಳಿ",
        "operator": "Private Un-Aided",
        "school": "Higher Primary"
      }
    },
    {
      "type": "node",
      "id": 6437780198,
      "lat": 12.9013007,
      "lon": 77.6363305,
      "tags": {
        "addr:place": "BommanaHalli Cmc",
        "amenity": "school",
        "isced:level": "2",
        "name": "Tilak English School, Bommana Halli Cmc",
        "name:kn": "ತಿಲಕ್ ಆಂಗ್ಲ ಶಾಲೆ, ಬೊಮ್ಮನಹಳ್ಳಿ ಸಿ.ಎಂ.ಸಿ",
        "operator": "Private Un-Aided",
        "school": "Higher Primary"
      }
    },
    {
      "type": "node",
      "id": 6494534450,
      "lat": 12.9066837,
      "lon": 77.6354232,
      "tags": {
        "addr:place": "Ellikunate",
        "amenity": "school",
        "isced:level": "3",
        "name": "Newton Public School",
        "name:kn": "ನ್ಯೂಟನ್ ಪಬ್ಲಿಕ್ ಶಾಲೆ,ಎಳ್ಳುಕುಂಟೆ",
        "operator": "Private Un-Aided",
        "school": "Higher Secondary"
      }
    },
    {
      "type": "node",
      "id": 6494851124,
      "lat": 12.9102228,
      "lon": 77.6357046,
      "tags": {
        "addr:place": "Ellikunate",
        "amenity": "school",
        "isced:level": "3",
        "name": "EHPS Baldwin School",
        "name:kn": "ಬಾಲ್ಡ್ವಿನ್ ಆಂಗ್ಲ ಹಿರಿಯ ಪ್ರಾಥಮಿಕ ಶಾಲೆ,ಎಳ್ಳುಕುಂಟೆ",
        "operator": "Private Un-Aided",
        "school": "Higher Secondary"
      }
    },
    {
      "type": "node",
      "id": 6528204204,
      "lat": 12.8974858,
      "lon": 77.6302097,
      "tags": {
        "addr:place": "Hongasandra",
        "amenity": "school",
        "isced:level": "3",
        "name": "Gnanabharathi HPS , Hongasandra 1",
        "name:kn": "ಜ್ಞಾನಭಾರತಿ ಹಿರಿಯ ಪ್ರಾಥಮಿಕ ಶಾಲೆ ಹೊಂಗಸಂದ್ರ",
        "operator": "Private Un-Aided",
        "school": "Higher Secondary"
      }
    },
    {
      "type": "node",
      "id": 6528217093,
      "lat": 12.8999361,
      "lon": 77.6264784,
      "tags": {
        "addr:place": "Hongasandra",
        "amenity": "school",
        "isced:level": "2",
        "name": "Anikethan Pub Sch , Hongasandra 1",
        "name:kn": "ಅನಿಕೇತನ ಪಬ್ಲಿಕ್ ಎಸ್.ಸಿ.ಎಚ್ ಹೊಂಗಸಂದ್ರ",
        "operator": "Private Un-Aided",
        "school": "Higher Primary"
      }
    },
    {
      "type": "node",
      "id": 6601865346,
      "lat": 12.9119441,
      "lon": 77.6353479,
      "tags": {
        "name": "SRK weavers",
        "shop": "clothes"
      }
    },
    {
      "type": "node",
      "id": 6601876144,
      "lat": 12.9121685,
      "lon": 77.6353944,
      "tags": {
        "name": "Srirangam",
        "shop": "clothes"
      }
    },
    {
      "type": "node",
      "id": 6782785279,
      "lat": 12.9123832,
      "lon": 77.6377162,
      "tags": {
        "amenity": "bicycle_rental",
        "bicycle_rental": "dropoff_point",
        "brand": "Yulu",
        "brand:wikidata": "Q104871276",
        "brand:wikipedia": "en:Yulu (transportation company)",
        "name": "Yulu Zone",
        "network": "Yulu",
        "network:wikidata": "Q104871276",
        "network:wikipedia": "en:Yulu (transportation company)",
        "operator": "Yulu"
      }
    },
    {
      "type": "node",
      "id": 6782802496,
      "lat": 12.9121766,
      "lon": 77.6368606,
      "tags": {
        "amenity": "pub",
        "check_date": "2024-01-21",
        "craft": "brewery",
        "microbrewery": "yes",
        "name": "Brother Barley Brewing Company",
        "opening_hours": "12:00-01:00"
      }
    },
    {
      "type": "node",
      "id": 6938896388,
      "lat": 12.9079615,
      "lon": 77.6235715,
      "tags": {
        "addr:district": "Bengaluru Rural",
        "addr:full": "No-8, 1st Cross Ngr Layout Roopera Agrahara",
        "addr:postcode": "560068",
        "addr:state": "Karnataka",
        "amenity": "hospital",
        "name": "Mahanth Hospital",
        "source": "OpenGovernmentData"
      }
    },
    {
      "type": "node",
      "id": 6939448269,
      "lat": 12.9063562,
      "lon": 77.6302998,
      "tags": {
        "addr:district": "Bengaluru Rural",
        "addr:full": "Mangammanapalya Main Road, Bommanahalli",
        "addr:postcode": "560068",
        "addr:state": "Karnataka",
        "amenity": "clinic",
        "name": "Uma Nursing Home, Bengaluru Rural",
        "source": "OpenGovernmentData"
      }
    },
    {
      "type": "node",
      "id": 6944138102,
      "lat": 12.9074596,
      "lon": 77.6274445,
      "tags": {
        "addr:district": "Bengaluru Rural",
        "addr:full": "69/5B, Hesur Main Road, Bommanahalli, Bangalore",
        "addr:postcode": "560068",
        "addr:state": "Karnataka",
        "amenity": "clinic",
        "name": "Bhaanu Nursing Home",
        "source": "OpenGovernmentData"
      }
    },
    {
      "type": "node",
      "id": 6944578918,
      "lat": 12.9121673,
      "lon": 77.6347685,
      "tags": {
        "addr:district": "Bengaluru Urban",
        "addr:full": "1127/A, 7th Sector, Near Bda Complex",
        "addr:postcode": "560102",
        "addr:state": "Karnataka",
        "amenity": "doctors",
        "healthcare": "doctor",
        "healthcare:speciality": "ophthalmology",
        "name": "Vasan Eye Care Hospital HSR Layout",
        "operator:type": "private",
        "source": "OpenGovernmentData",
        "website": "http://www.vasaneye.in/"
      }
    },
    {
      "type": "node",
      "id": 6947247040,
      "lat": 12.8980516,
      "lon": 77.6339279,
      "tags": {
        "addr:district": "Bengaluru Rural",
        "addr:full": "Sri Murthy Complex, No.43, Garvey Bhav Palya Hongasandra Village Begur, Hosur Main Road Bommanahalli, Hobli",
        "addr:postcode": "560068",
        "addr:state": "Karnataka",
        "amenity": "hospital",
        "name": "Vasan Eye Care Hospital",
        "source": "OpenGovernmentData"
      }
    },
    {
      "type": "node",
      "id": 6959716598,
      "lat": 12.9121078,
      "lon": 77.6379727,
      "tags": {
        "addr:street": "HSR Layout",
        "air_conditioning": "yes",
        "amenity": "restaurant",
        "indoor_seating": "yes",
        "name": "Dindigul Thalapakkatti",
        "outdoor_seating": "no"
      }
    },
    {
      "type": "node",
      "id": 7118976618,
      "lat": 12.9109556,
      "lon": 77.6398824,
      "tags": {
        "amenity": "place_of_worship",
        "name": "Buddha Yoga Mandir",
        "religion": "buddhist"
      }
    },
    {
      "type": "node",
      "id": 7202723905,
      "lat": 12.9102142,
      "lon": 77.6244654,
      "tags": {
        "addr:district": "Bangalore",
        "addr:full": "3rd Main Rd, NGR Layout, Roopena Agrahara, Bommanahalli",
        "addr:postcode": "560068",
        "addr:state": "Karnataka",
        "addr:subdistrict": "Bangalore South",
        "amenity": "hospital",
        "name": "Roopena Agrahara Government Hospital",
        "source": "OpenGovernmentData"
      }
    },
    {
      "type": "node",
      "id": 8240285264,
      "lat": 12.9143367,
      "lon": 77.6325783,
      "tags": {
        "name": "Meisterwurst German Sausages and Cuts",
        "shop": "butcher"
      }
    },
    {
      "type": "node",
      "id": 9648979517,
      "lat": 12.9122935,
      "lon": 77.6333343,
      "tags": {
        "brand": "Louis Philippe",
        "brand:wikidata": "Q18350510",
        "check_date": "2022-05-16",
        "internet_access": "no",
        "name": "Louis Philippe Factory Outlet",
        "payment:mastercard": "yes",
        "payment:visa": "yes",
        "shop": "clothes",
        "wheelchair": "no"
      }
    },
    {
      "type": "node",
      "id": 9649527840,
      "lat": 12.9119001,
      "lon": 77.6382861,
      "tags": {
        "amenity": "fast_food",
        "brand": "Burger King",
        "brand:wikidata": "Q177054",
        "cuisine": "burger",
        "name": "Burger King",
        "name:kn": "ಬರ್ಗರ್ ಕಿಂಗ್",
        "takeaway": "yes"
      }
    },
    {
      "type": "node",
      "id": 9649527841,
      "lat": 12.9121563,
      "lon": 77.6378046,
      "tags": {
        "air_conditioning": "yes",
        "amenity": "fast_food",
        "brand": "Popeyes",
        "brand:wikidata": "Q1330910",
        "brand:wikipedia": "en:Popeyes",
        "check_date": "2025-04-04",
        "cuisine": "chicken",
        "delivery": "yes",
        "indoor_seating": "yes",
        "name": "Popeyes",
        "official_name": "Popeyes Louisiana Kitchen",
        "outdoor_seating": "no",
        "payment:cash": "yes",
        "payment:mastercard": "yes",
        "payment:visa": "yes",
        "smoking": "no",
        "takeaway": "yes",
        "website": "https://www.popeyes.in/"
      }
    },
    {
      "type": "node",
      "id": 9833630907,
      "lat": 12.9115857,
      "lon": 77.6379397,
      "tags": {
        "air_conditioning": "yes",
        "amenity": "cafe",
        "brand": "Chai Point",
        "brand:wikidata": "Q28173415",
        "cuisine": "coffee_shop",
        "indoor_seating": "yes",
        "name": "Chai Point",
        "outdoor_seating": "no",
        "takeaway": "yes"
      }
    },
    {
      "type": "node",
      "id": 9858668174,
      "lat": 12.912121,
      "lon": 77.6384617,
      "tags": {
        "name": "Nandini",
        "shop": "dairy"
      }
    },
    {
      "type": "node",
      "id": 9858668212,
      "lat": 12.9072883,
      "lon": 77.6291558,
      "tags": {
        "name": "BGauss",
        "note": "Electric Scooters Dealer",
        "shop": "motorcycle",
        "website": "https://www.bgauss.com/"
      }
    },
    {
      "type": "node",
      "id": 10066902934,
      "lat": 12.912439,
      "lon": 77.6385262,
      "tags": {
        "amenity": "fast_food",
        "cuisine": "ice_cream;juice"
      }
    },
    {
      "type": "node",
      "id": 10066902935,
      "lat": 12.9118525,
      "lon": 77.6379087,
      "tags": {
        "amenity": "restaurant",
        "name": "Once Upon a Flame"
      }
    },
    {
      "type": "node",
      "id": 10066902936,
      "lat": 12.9118171,
      "lon": 77.6379135,
      "tags": {
        "amenity": "fast_food",
        "brand": "Subway",
        "brand:wikidata": "Q244457",
        "cuisine": "sandwich",
        "name": "Subway",
        "takeaway": "yes"
      }
    },
    {
      "type": "node",
      "id": 10066902937,
      "lat": 12.9118695,
      "lon": 77.6379593,
      "tags": {
        "addr:floor": "0",
        "addr:housenumber": "36",
        "addr:street": "14th Main Road",
        "amenity": "fast_food",
        "brand": "Samosa Party",
        "brand:wikidata": "Q65684234",
        "check_date": "2023-09-21",
        "contact:instagram": "https://www.instagram.com/samosaparty",
        "cuisine": "samosa",
        "dispensing": "yes",
        "healthcare": "pharmacy",
        "level": "0",
        "name": "Samosa Party",
        "note": "MedPlus store until mid-2023",
        "website": "https://www.samosaparty.in/"
      }
    },
    {
      "type": "node",
      "id": 10066902938,
      "lat": 12.9114499,
      "lon": 77.637948,
      "tags": {
        "amenity": "ice_cream",
        "indoor_seating": "yes",
        "name": "Giani",
        "outdoor_seating": "no"
      }
    },
    {
      "type": "node",
      "id": 10066902939,
      "lat": 12.9113877,
      "lon": 77.6379555,
      "tags": {
        "brand": "Theobroma",
        "delivery": "yes",
        "name": "Theobroma",
        "shop": "pastry",
        "takeaway": "yes",
        "wheelchair": "no"
      }
    },
    {
      "type": "node",
      "id": 10066902940,
      "lat": 12.9113914,
      "lon": 77.6378892,
      "tags": {
        "amenity": "restaurant",
        "name": "Gustom"
      }
    },
    {
      "type": "node",
      "id": 10066902941,
      "lat": 12.9107043,
      "lon": 77.6379155,
      "tags": {
        "amenity": "ice_cream",
        "brand": "Naturals",
        "brand:wikidata": "Q24439154",
        "cuisine": "ice_cream",
        "indoor_seating": "yes",
        "name": "Naturals",
        "outdoor_seating": "no"
      }
    },
    {
      "type": "node",
      "id": 10066902942,
      "lat": 12.9105761,
      "lon": 77.6379155,
      "tags": {
        "air_conditioning": "yes",
        "amenity": "restaurant",
        "brand": "California Burrito",
        "brand:wikidata": "Q124374596",
        "cuisine": "mexican",
        "diet:vegetarian": "yes",
        "indoor_seating": "yes",
        "name": "California Burrito",
        "outdoor_seating": "no",
        "wheelchair": "no"
      }
    },
    {
      "type": "node",
      "id": 10066902943,
      "lat": 12.9112437,
      "lon": 77.6382585,
      "tags": {
        "name": "For Gods Sake",
        "shop": "bakery"
      }
    },
    {
      "type": "node",
      "id": 10066902995,
      "lat": 12.9092069,
      "lon": 77.6383155,
      "tags": {
        "amenity": "restaurant",
        "cuisine": "biryani;karnataka;regional;indian",
        "name": "Donne Biryani House",
        "wheelchair": "no"
      }
    },
    {
      "type": "node",
      "id": 10066903000,
      "lat": 12.9092252,
      "lon": 77.6384705,
      "tags": {
        "name": "Iyengar Bakery",
        "name:kn": "ಐಯ್ಯಂಗಾರ್ ಬೇಕರಿ",
        "shop": "bakery",
        "wheelchair": "no"
      }
    },
    {
      "type": "node",
      "id": 10066903001,
      "lat": 12.9094215,
      "lon": 77.6384908,
      "tags": {
        "name": "Itsy Bitsy",
        "shop": "craft"
      }
    },
    {
      "type": "node",
      "id": 10066903002,
      "lat": 12.909461,
      "lon": 77.6386269,
      "tags": {
        "amenity": "restaurant",
        "cuisine": "chinese",
        "name": "Chinese Wok"
      }
    },
    {
      "type": "node",
      "id": 10066903003,
      "lat": 12.9094243,
      "lon": 77.6386255,
      "tags": {
        "amenity": "restaurant",
        "brand": "Daily Sushi",
        "brand:wikidata": "Q124374644",
        "cuisine": "asian",
        "delivery": "yes",
        "name": "Daily Sushi",
        "takeaway": "yes"
      }
    },
    {
      "type": "node",
      "id": 10066903029,
      "lat": 12.9091843,
      "lon": 77.6401913,
      "tags": {
        "amenity": "cafe",
        "name": "Hebe's Cafe"
      }
    },
    {
      "type": "node",
      "id": 10685071179,
      "lat": 12.9121614,
      "lon": 77.6376204,
      "tags": {
        "name": "Avantra by Trends",
        "shop": "boutique"
      }
    },
    {
      "type": "node",
      "id": 10687892746,
      "lat": 12.9093675,
      "lon": 77.6407794,
      "tags": {
        "amenity": "bank",
        "brand": "State Bank of India",
        "brand:wikidata": "Q1340361",
        "name": "State Bank of India",
        "short_name": "SBI"
      }
    },
    {
      "type": "node",
      "id": 10687892747,
      "lat": 12.9093651,
      "lon": 77.640848,
      "tags": {
        "amenity": "atm",
        "brand": "State Bank of India",
        "brand:wikidata": "Q1340361",
        "operator": "State Bank of India",
        "operator:wikidata": "Q1340361",
        "short_name": "SBI"
      }
    },
    {
      "type": "node",
      "id": 11011849930,
      "lat": 12.9066122,
      "lon": 77.6310591,
      "tags": {
        "addr:city": "Bangalore",
        "addr:housenumber": "492",
        "addr:postcode": "560068",
        "addr:street": "Mangammapalaya Road",
        "amenity": "bank",
        "atm": "yes",
        "brand": "Karnataka Bank",
        "brand:wikidata": "Q2042632",
        "name": "Karnataka Bank",
        "name:kn": "ಕರ್ನಾಟಕ ಬ್ಯಾಂಕ್",
        "opening_hours": "24/7"
      }
    },
    {
      "type": "node",
      "id": 11100881387,
      "lat": 12.9091698,
      "lon": 77.6392625,
      "tags": {
        "addr:city": "Bengaluru",
        "name": "Green Fresh",
        "shop": "supermarket"
      }
    },
    {
      "type": "node",
      "id": 11147908529,
      "lat": 12.9123087,
      "lon": 77.6330862,
      "tags": {
        "brand": "Star Bazaar",
        "brand:wikidata": "Q124175958",
        "name": "Star Bazaar",
        "operator": "Tata and Tesco",
        "payment:cash": "yes",
        "payment:credit_cards": "yes",
        "payment:debit_cards": "yes",
        "payment:membership_card": "yes",
        "payment:upi": "yes",
        "shop": "supermarket"
      }
    },
    {
      "type": "node",
      "id": 11202391302,
      "lat": 12.9094275,
      "lon": 77.6393304,
      "tags": {
        "amenity": "cafe",
        "check_date": "2023-09-19",
        "contact:instagram": "https://www.instagram.com/shades_of_coffee",
        "cuisine": "coffee_shop",
        "name": "Shades of Coffee"
      }
    },
    {
      "type": "node",
      "id": 11241236756,
      "lat": 12.912479,
      "lon": 77.6363959,
      "tags": {
        "male": "yes",
        "name": "N K Waris Salon",
        "shop": "hairdresser"
      }
    },
    {
      "type": "node",
      "id": 11242033363,
      "lat": 12.9125011,
      "lon": 77.6362476,
      "tags": {
        "brand": "Samsung",
        "brand:wikidata": "Q20718",
        "name": "Samsung SmartCafe",
        "shop": "electronics"
      }
    },
    {
      "type": "node",
      "id": 11250697610,
      "lat": 12.9127486,
      "lon": 77.6325388,
      "tags": {
        "name": "Adco",
        "shop": "clothes"
      }
    },
    {
      "type": "node",
      "id": 11250697654,
      "lat": 12.9126127,
      "lon": 77.6328172,
      "tags": {
        "brand": "Airtel",
        "brand:wikidata": "Q854867",
        "name": "Airtel",
        "shop": "mobile_phone"
      }
    },
    {
      "type": "node",
      "id": 11250719123,
      "lat": 12.912655,
      "lon": 77.6325493,
      "tags": {
        "amenity": "doctors",
        "healthcare": "doctor",
        "healthcare:speciality": "neurology",
        "name": "Chandini Neuro Specialty Clinic"
      }
    },
    {
      "type": "node",
      "id": 11250726315,
      "lat": 12.9126728,
      "lon": 77.6328115,
      "tags": {
        "name": "Puran Interiors",
        "shop": "interior_decoration"
      }
    },
    {
      "type": "node",
      "id": 11250726425,
      "lat": 12.9129158,
      "lon": 77.6322984,
      "tags": {
        "amenity": "fast_food",
        "brand": "Domino's",
        "brand:wikidata": "Q839466",
        "cuisine": "pizza",
        "name": "Domino's",
        "name:kn": "ಡಾಮಿನೋಸ್",
        "takeaway": "yes"
      }
    },
    {
      "type": "node",
      "id": 11250737409,
      "lat": 12.9126156,
      "lon": 77.6327999,
      "tags": {
        "amenity": "ice_cream",
        "brand:wikidata": "Q124374249",
        "delivery": "yes",
        "name": "Polar Bear Ice Cream",
        "takeaway": "yes"
      }
    },
    {
      "type": "node",
      "id": 11250739211,
      "lat": 12.9126085,
      "lon": 77.6331202,
      "tags": {
        "amenity": "pub",
        "name": "Catchup Pub and Kitchen"
      }
    },
    {
      "type": "node",
      "id": 11250746994,
      "lat": 12.9144813,
      "lon": 77.6325538,
      "tags": {
        "name": "Sufiyan Dates and Nuts",
        "shop": "health_food"
      }
    },
    {
      "type": "node",
      "id": 11250748512,
      "lat": 12.9134255,
      "lon": 77.6325085,
      "tags": {
        "name": "Fitwell - Car Seat Cover Makers",
        "shop": "car_parts"
      }
    },
    {
      "type": "node",
      "id": 11250750534,
      "lat": 12.9131807,
      "lon": 77.6322851,
      "tags": {
        "name": "Titan Eyeplus",
        "shop": "optician"
      }
    },
    {
      "type": "node",
      "id": 11250757272,
      "lat": 12.9125822,
      "lon": 77.6330059,
      "tags": {
        "brand": "Khadim",
        "brand:wikidata": "Q104876652",
        "name": "Khadims",
        "name:bn": "খাদিম",
        "name:en": "Khadims",
        "shop": "shoes"
      }
    },
    {
      "type": "node",
      "id": 11250759679,
      "lat": 12.9126891,
      "lon": 77.6325502,
      "tags": {
        "amenity": "dentist",
        "healthcare": "dentist",
        "name": "Denton Dental Clinic"
      }
    },
    {
      "type": "node",
      "id": 11250759916,
      "lat": 12.9133475,
      "lon": 77.6325187,
      "tags": {
        "name": "Baggana UB Spirits",
        "shop": "alcohol"
      }
    },
    {
      "type": "node",
      "id": 11250760175,
      "lat": 12.9131925,
      "lon": 77.6325549,
      "tags": {
        "amenity": "bank",
        "name": "Sreenidhi Souhardha Sahakari Bank"
      }
    },
    {
      "type": "node",
      "id": 11250766548,
      "lat": 12.9125847,
      "lon": 77.6325628,
      "tags": {
        "name": "Eye World Optician",
        "shop": "optician"
      }
    },
    {
      "type": "node",
      "id": 11250766549,
      "lat": 12.9131528,
      "lon": 77.6325518,
      "tags": {
        "name": "PrintQ",
        "shop": "copyshop"
      }
    },
    {
      "type": "node",
      "id": 11250767001,
      "lat": 12.9132184,
      "lon": 77.6322623,
      "tags": {
        "name": "Space Trend",
        "shop": "interior_decoration"
      }
    },
    {
      "type": "node",
      "id": 11250768948,
      "lat": 12.914311,
      "lon": 77.6322175,
      "tags": {
        "name": "Easyday Club",
        "shop": "supermarket"
      }
    },
    {
      "type": "node",
      "id": 11250773208,
      "lat": 12.9135353,
      "lon": 77.632283,
      "tags": {
        "clothes": "underwear",
        "name": "Jockey",
        "name:kn": "ಜಾಕೀ",
        "shop": "clothes"
      }
    },
    {
      "type": "node",
      "id": 11250773386,
      "lat": 12.9144848,
      "lon": 77.6326525,
      "tags": {
        "name": "Maati Sona Pottery",
        "shop": "pottery"
      }
    },
    {
      "type": "node",
      "id": 11250773703,
      "lat": 12.9142144,
      "lon": 77.6325278,
      "tags": {
        "name": "Rajesh Jewellery Mart",
        "shop": "jewelry"
      }
    },
    {
      "type": "node",
      "id": 11250775969,
      "lat": 12.9140046,
      "lon": 77.6322295,
      "tags": {
        "amenity": "bank",
        "brand": "Jana Small Finance Bank",
        "brand:wikidata": "Q65122274",
        "name": "Jana Small Finance Bank"
      }
    },
    {
      "type": "node",
      "id": 11250781823,
      "lat": 12.9139562,
      "lon": 77.6322007,
      "tags": {
        "amenity": "restaurant",
        "name": "Atthemane Restaurants"
      }
    },
    {
      "type": "node",
      "id": 11250784101,
      "lat": 12.9147007,
      "lon": 77.6328031,
      "tags": {
        "laundry_service": "yes",
        "name": "Wash n Wear",
        "self_service": "yes",
        "shop": "laundry"
      }
    },
    {
      "type": "node",
      "id": 11250788395,
      "lat": 12.9144911,
      "lon": 77.6329266,
      "tags": {
        "amenity": "restaurant",
        "name": "Curries N Fries"
      }
    },
    {
      "type": "node",
      "id": 11250800951,
      "lat": 12.9144882,
      "lon": 77.6328761,
      "tags": {
        "name": "Furrever Happy",
        "shop": "pet"
      }
    },
    {
      "type": "node",
      "id": 11250803686,
      "lat": 12.9144416,
      "lon": 77.6329471,
      "tags": {
        "name": "Celebrations Bake",
        "shop": "bakery"
      }
    },
    {
      "type": "node",
      "id": 11250809079,
      "lat": 12.9146969,
      "lon": 77.6322477,
      "tags": {
        "name": "Blissclub",
        "shop": "clothes"
      }
    },
    {
      "type": "node",
      "id": 11258032862,
      "lat": 12.9127322,
      "lon": 77.635112,
      "tags": {
        "name": "High Street Maghai Paan Shop",
        "shop": "betel"
      }
    },
    {
      "type": "node",
      "id": 11258034031,
      "lat": 12.912748,
      "lon": 77.635114,
      "tags": {
        "amenity": "restaurant",
        "name": "Babai Tiffins HSR High Street"
      }
    },
    {
      "type": "node",
      "id": 11258035416,
      "lat": 12.9128181,
      "lon": 77.6351088,
      "tags": {
        "indoor_seating": "yes",
        "name": "Indian Sweet House",
        "outdoor_seating": "no",
        "shop": "bakery"
      }
    },
    {
      "type": "node",
      "id": 11258036123,
      "lat": 12.9127939,
      "lon": 77.6351149,
      "tags": {
        "amenity": "restaurant",
        "name": "Quickbites"
      }
    },
    {
      "type": "node",
      "id": 11258036375,
      "lat": 12.9127707,
      "lon": 77.6351127,
      "tags": {
        "amenity": "restaurant",
        "name": "Mr. Shawarma & Miss Grills"
      }
    },
    {
      "type": "node",
      "id": 11259449032,
      "lat": 12.9134504,
      "lon": 77.6286677,
      "tags": {
        "addr:city": "Bengaluru",
        "addr:country": "IN",
        "addr:housenumber": "525",
        "addr:place": "Sector 6",
        "addr:postcode": "560102",
        "addr:street": "2nd A Main Road",
        "addr:suburb": "HSR Layout",
        "alt_name": "Fabtolab",
        "email": "store@fabtolab.com",
        "level": "3",
        "name": "Fab.to.lab",
        "opening_hours": "Mo-Fr 09:00-18:30; Sa 09:30-15:00",
        "phone": "+91 6361942383",
        "shop": "electronics",
        "website": "https://www.fabtolab.com/"
      }
    },
    {
      "type": "node",
      "id": 11259899013,
      "lat": 12.912755,
      "lon": 77.6353859,
      "tags": {
        "amenity": "restaurant",
        "name": "Raghavendra Tiffins"
      }
    },
    {
      "type": "node",
      "id": 11259899014,
      "lat": 12.9125178,
      "lon": 77.6353557,
      "tags": {
        "name": "Honey Special Cake",
        "shop": "bakery"
      }
    },
    {
      "type": "node",
      "id": 11259899015,
      "lat": 12.9130125,
      "lon": 77.6354074,
      "tags": {
        "amenity": "cafe",
        "email": "info@teatings.com",
        "name": "Teatings",
        "phone": "+91 - 9666 83 6335",
        "website": "https://www.teatings.com/"
      }
    },
    {
      "type": "node",
      "id": 11259899018,
      "lat": 12.9133576,
      "lon": 77.635162,
      "tags": {
        "amenity": "restaurant",
        "indoor_seating": "yes",
        "name": "Aromas of Biryani",
        "outdoor_seating": "no",
        "wheelchair": "no"
      }
    },
    {
      "type": "node",
      "id": 11259899019,
      "lat": 12.914091,
      "lon": 77.6351827,
      "tags": {
        "name": "Amma's Pastries",
        "shop": "confectionery"
      }
    },
    {
      "type": "node",
      "id": 11262514227,
      "lat": 12.9127423,
      "lon": 77.6353557,
      "tags": {
        "amenity": "fast_food",
        "cuisine": "juice",
        "name": "Juicy Fresh"
      }
    },
    {
      "type": "node",
      "id": 11262530859,
      "lat": 12.9128393,
      "lon": 77.6353626,
      "tags": {
        "amenity": "fast_food",
        "name": "Litti Chokha corner"
      }
    },
    {
      "type": "node",
      "id": 11262546939,
      "lat": 12.9108215,
      "lon": 77.6379404,
      "tags": {
        "amenity": "restaurant",
        "name": "Fruit Bae"
      }
    },
    {
      "type": "node",
      "id": 11299967815,
      "lat": 12.908221,
      "lon": 77.6403396,
      "tags": {
        "amenity": "bench"
      }
    },
    {
      "type": "node",
      "id": 11299968791,
      "lat": 12.9073365,
      "lon": 77.6405581,
      "tags": {
        "amenity": "bench"
      }
    },
    {
      "type": "node",
      "id": 11299968792,
      "lat": 12.9078941,
      "lon": 77.640653,
      "tags": {
        "amenity": "bench"
      }
    },
    {
      "type": "node",
      "id": 11299969074,
      "lat": 12.9077077,
      "lon": 77.6408437,
      "tags": {
        "amenity": "bench"
      }
    },
    {
      "type": "node",
      "id": 11299970410,
      "lat": 12.9078974,
      "lon": 77.6405538,
      "tags": {
        "amenity": "bench"
      }
    },
    {
      "type": "node",
      "id": 11299973843,
      "lat": 12.907341,
      "lon": 77.640509,
      "tags": {
        "amenity": "bench"
      }
    },
    {
      "type": "node",
      "id": 11299974161,
      "lat": 12.9073438,
      "lon": 77.6404426,
      "tags": {
        "amenity": "bench"
      }
    },
    {
      "type": "node",
      "id": 11299974162,
      "lat": 12.9081036,
      "lon": 77.6403808,
      "tags": {
        "amenity": "shelter",
        "shelter_type": "gazebo"
      }
    },
    {
      "type": "node",
      "id": 11299975555,
      "lat": 12.9073363,
      "lon": 77.6405702,
      "tags": {
        "amenity": "bench"
      }
    },
    {
      "type": "node",
      "id": 11299975702,
      "lat": 12.9073778,
      "lon": 77.6407857,
      "tags": {
        "amenity": "bench"
      }
    },
    {
      "type": "node",
      "id": 11299986288,
      "lat": 12.9079064,
      "lon": 77.640438,
      "tags": {
        "amenity": "bench"
      }
    },
    {
      "type": "node",
      "id": 11299986289,
      "lat": 12.9080344,
      "lon": 77.6402407,
      "tags": {
        "amenity": "bench"
      }
    },
    {
      "type": "node",
      "id": 11299991394,
      "lat": 12.9080738,
      "lon": 77.6408244,
      "tags": {
        "amenity": "bench"
      }
    },
    {
      "type": "node",
      "id": 11299991395,
      "lat": 12.9078886,
      "lon": 77.6408186,
      "tags": {
        "amenity": "bench"
      }
    },
    {
      "type": "node",
      "id": 11299995626,
      "lat": 12.9073477,
      "lon": 77.6403909,
      "tags": {
        "amenity": "waste_basket"
      }
    },
    {
      "type": "node",
      "id": 11299995627,
      "lat": 12.9079411,
      "lon": 77.6408165,
      "tags": {
        "amenity": "bench"
      }
    },
    {
      "type": "node",
      "id": 11299996913,
      "lat": 12.9077002,
      "lon": 77.6405153,
      "tags": {
        "amenity": "bench"
      }
    },
    {
      "type": "node",
      "id": 11299997658,
      "lat": 12.9081115,
      "lon": 77.6402466,
      "tags": {
        "amenity": "bench"
      }
    },
    {
      "type": "node",
      "id": 11299997902,
      "lat": 12.9074651,
      "lon": 77.640794,
      "tags": {
        "amenity": "bench"
      }
    },
    {
      "type": "node",
      "id": 11299998075,
      "lat": 12.9082096,
      "lon": 77.640569,
      "tags": {
        "amenity": "bench"
      }
    },
    {
      "type": "node",
      "id": 11299998270,
      "lat": 12.9074922,
      "lon": 77.6403123,
      "tags": {
        "amenity": "waste_basket"
      }
    },
    {
      "type": "node",
      "id": 11299998271,
      "lat": 12.9082129,
      "lon": 77.6405022,
      "tags": {
        "amenity": "bench"
      }
    },
    {
      "type": "node",
      "id": 11299998979,
      "lat": 12.9082011,
      "lon": 77.6407426,
      "tags": {
        "amenity": "bench"
      }
    },
    {
      "type": "node",
      "id": 11299998980,
      "lat": 12.9079855,
      "lon": 77.6407425,
      "tags": {
        "leisure": "playground"
      }
    },
    {
      "type": "node",
      "id": 11299999643,
      "lat": 12.9076043,
      "lon": 77.6408154,
      "tags": {
        "amenity": "bench"
      }
    },
    {
      "type": "node",
      "id": 11299999644,
      "lat": 12.9079039,
      "lon": 77.6404827,
      "tags": {
        "amenity": "bench"
      }
    },
    {
      "type": "node",
      "id": 11300000102,
      "lat": 12.9076953,
      "lon": 77.6409932,
      "tags": {
        "name": "The Digitale Chef",
        "shop": "pastry"
      }
    },
    {
      "type": "node",
      "id": 11300000103,
      "lat": 12.9077484,
      "lon": 77.6403306,
      "tags": {
        "amenity": "bench"
      }
    },
    {
      "type": "node",
      "id": 11300001298,
      "lat": 12.9082067,
      "lon": 77.6406287,
      "tags": {
        "amenity": "bench"
      }
    },
    {
      "type": "node",
      "id": 11300003506,
      "lat": 12.9075864,
      "lon": 77.6402268,
      "tags": {
        "amenity": "bench"
      }
    },
    {
      "type": "node",
      "id": 11300003507,
      "lat": 12.9073929,
      "lon": 77.6403135,
      "tags": {
        "amenity": "bench"
      }
    },
    {
      "type": "node",
      "id": 11300005253,
      "lat": 12.9076918,
      "lon": 77.6407802,
      "tags": {
        "amenity": "bench"
      }
    },
    {
      "type": "node",
      "id": 11300005254,
      "lat": 12.9077471,
      "lon": 77.6404352,
      "tags": {
        "amenity": "bench"
      }
    },
    {
      "type": "node",
      "id": 11300006181,
      "lat": 12.9077406,
      "lon": 77.6406576,
      "tags": {
        "amenity": "bench"
      }
    },
    {
      "type": "node",
      "id": 11300006182,
      "lat": 12.9074348,
      "lon": 77.6405437,
      "tags": {
        "leisure": "playground"
      }
    },
    {
      "type": "node",
      "id": 11300006183,
      "lat": 12.9079096,
      "lon": 77.6403039,
      "tags": {
        "amenity": "bench"
      }
    },
    {
      "type": "node",
      "id": 11300007408,
      "lat": 12.9073486,
      "lon": 77.6403361,
      "tags": {
        "amenity": "bench"
      }
    },
    {
      "type": "node",
      "id": 11300007725,
      "lat": 12.9078911,
      "lon": 77.6407425,
      "tags": {
        "amenity": "bench"
      }
    },
    {
      "type": "node",
      "id": 11300007787,
      "lat": 12.9082181,
      "lon": 77.6403974,
      "tags": {
        "amenity": "bench"
      }
    },
    {
      "type": "node",
      "id": 11309449852,
      "lat": 12.9089929,
      "lon": 77.6351685,
      "tags": {
        "amenity": "pharmacy",
        "name": "Rush Pharma"
      }
    },
    {
      "type": "node",
      "id": 11309470356,
      "lat": 12.9087684,
      "lon": 77.6349866,
      "tags": {
        "name": "Smart Dhobi",
        "shop": "laundry"
      }
    },
    {
      "type": "node",
      "id": 11478661230,
      "lat": 12.9113014,
      "lon": 77.6326498,
      "tags": {
        "addr:city": "Bengaluru",
        "addr:district": "HSR Layout",
        "addr:housenumber": "1165",
        "addr:postcode": "560102",
        "addr:street": "5th Main Road",
        "air_conditioning": "yes",
        "description": "Bitshala Bitspace is our hackerspace in Bengaluru for Bitcoin, open protocols, privacy and freedom tech builders.\n\nBitshala is a grassroots learning initiative, we help educate and transition Indian developers into Freedom Tech and BOSS (Bitcoin Open Sour",
        "fee": "no",
        "image": "https://media.licdn.com/dms/image/v2/D5622AQELFkSpLtI4NQ/feedshare-shrink_800/B56ZhGEdUCHUAk-/0/1753522231695?e=2147483647&v=beta&t=kKM1trtsgc5WC7vnT_dunjm9Qs62S-vb8X6AkxGBAwM",
        "internet_access": "wlan",
        "internet_access:fee": "customers",
        "leisure": "hackerspace",
        "name": "Bitshala Bitspace",
        "opening_hours": "Mo-Sa 10:00-19:00",
        "source": "GEPTIS",
        "website": "https://x.com/bitshala"
      }
    },
    {
      "type": "node",
      "id": 11530060469,
      "lat": 12.9139447,
      "lon": 77.6322291,
      "tags": {
        "name": "Juice Junction",
        "shop": "beverages"
      }
    },
    {
      "type": "node",
      "id": 11576541038,
      "lat": 12.9093844,
      "lon": 77.6378877,
      "tags": {
        "name": "Sri Venkateshwara Garments Unit 2",
        "payment:credit_cards": "yes",
        "payment:debit_cards": "yes",
        "shop": "clothes",
        "wheelchair": "no"
      }
    },
    {
      "type": "node",
      "id": 11836983254,
      "lat": 12.909966,
      "lon": 77.6378373,
      "tags": {
        "addr:city": "Bangalore",
        "addr:housenumber": "249",
        "addr:postcode": "560102",
        "addr:street": "14th Main Road",
        "air_conditioning": "yes",
        "amenity": "cafe",
        "brand": "Third Wave Coffee Roasters",
        "brand:wikidata": "Q7785004",
        "cuisine": "coffee_shop",
        "delivery": "yes",
        "indoor_seating": "yes",
        "internet_access": "yes",
        "internet_access:fee": "customers",
        "name": "Third Wave Coffee Roasters",
        "opening_hours": "Mo-Su 07:30-24:00",
        "outdoor_seating": "no",
        "phone": "+917349791061",
        "takeaway": "yes",
        "website": "https://www.thirdwavecoffeeroasters.com/",
        "wheelchair": "no"
      }
    },
    {
      "type": "node",
      "id": 11896574561,
      "lat": 12.9113077,
      "lon": 77.6382804,
      "tags": {
        "air_conditioning": "yes",
        "amenity": "cafe",
        "brand": "Chaayos",
        "brand:wikidata": "Q117235235",
        "check_date": "2024-05-11",
        "cuisine": "tea",
        "indoor_seating": "yes",
        "name": "Chaayos",
        "outdoor_seating": "yes",
        "takeaway": "yes"
      }
    },
    {
      "type": "node",
      "id": 11896574562,
      "lat": 12.9113468,
      "lon": 77.6382558,
      "tags": {
        "air_conditioning": "yes",
        "amenity": "cafe",
        "check_date": "2024-05-11",
        "indoor_seating": "yes",
        "name": "Wagh Bakri Tea Lounge",
        "outdoor_seating": "yes"
      }
    },
    {
      "type": "node",
      "id": 11927462345,
      "lat": 12.903,
      "lon": 77.6318191,
      "tags": {
        "check_date": "2025-07-04",
        "name": "Hemadri Ceramics",
        "shop": "hardware"
      }
    },
    {
      "type": "node",
      "id": 11982451437,
      "lat": 12.911931,
      "lon": 77.6383253,
      "tags": {
        "amenity": "prep_school",
        "check_date": "2024-06-15",
        "name": "Vedantu"
      }
    },
    {
      "type": "node",
      "id": 11982451438,
      "lat": 12.9118561,
      "lon": 77.638708,
      "tags": {
        "amenity": "bank",
        "atm": "yes",
        "brand": "IDFC First Bank",
        "brand:wikidata": "Q22031467",
        "check_date": "2024-06-15",
        "name": "IDFC First Bank"
      }
    },
    {
      "type": "node",
      "id": 11982451439,
      "lat": 12.9118361,
      "lon": 77.6388316,
      "tags": {
        "amenity": "bar",
        "check_date": "2024-06-15",
        "name": "Shift"
      }
    },
    {
      "type": "node",
      "id": 11982451441,
      "lat": 12.9117555,
      "lon": 77.6389783,
      "tags": {
        "amenity": "cafe",
        "check_date": "2024-06-15",
        "name": "North Star"
      }
    },
    {
      "type": "node",
      "id": 11982451442,
      "lat": 12.9118007,
      "lon": 77.639029,
      "tags": {
        "amenity": "restaurant",
        "check_date": "2024-06-15",
        "name": "Kesari"
      }
    },
    {
      "type": "node",
      "id": 11984487708,
      "lat": 12.9106707,
      "lon": 77.6326678,
      "tags": {
        "amenity": "restaurant",
        "check_date": "2024-11-30",
        "name": "Sendhoor Coffee"
      }
    },
    {
      "type": "node",
      "id": 12046483937,
      "lat": 12.9121018,
      "lon": 77.6372395,
      "tags": {
        "air_conditioning": "yes",
        "brand": "Tanishq",
        "brand:en": "Tanishq",
        "brand:wikidata": "Q13117711",
        "check_date": "2024-07-10",
        "name": "Tanishq",
        "name:en": "Tanishq",
        "payment:cash": "yes",
        "payment:credit_cards": "yes",
        "payment:debit_cards": "yes",
        "shop": "jewelry",
        "source": "survey",
        "wheelchair": "no"
      }
    },
    {
      "type": "node",
      "id": 12078449264,
      "lat": 12.9105119,
      "lon": 77.627123,
      "tags": {
        "amenity": "atm",
        "brand": "Kotak Mahindra Bank",
        "brand:wikidata": "Q2040404",
        "cash_in": "no",
        "check_date": "2024-07-28",
        "operator": "Kotak Mahindra Bank",
        "operator:wikidata": "Q2040404",
        "source": "survey"
      }
    },
    {
      "type": "node",
      "id": 12078449265,
      "lat": 12.9079574,
      "lon": 77.6288166,
      "tags": {
        "amenity": "fuel",
        "check_date": "2024-07-28",
        "self_service": "no",
        "source": "survey"
      }
    },
    {
      "type": "node",
      "id": 12093192356,
      "lat": 12.9103981,
      "lon": 77.6401941,
      "tags": {
        "air_conditioning": "no",
        "amenity": "library",
        "level": "1",
        "wheelchair": "no"
      }
    },
    {
      "type": "node",
      "id": 12093192368,
      "lat": 12.9104373,
      "lon": 77.6393452,
      "tags": {
        "amenity": "bench",
        "armrest": "no",
        "backrest": "no",
        "material": "granite",
        "seats": "6"
      }
    },
    {
      "type": "node",
      "id": 12093192369,
      "lat": 12.9105495,
      "lon": 77.6393632,
      "tags": {
        "amenity": "bench",
        "armrest": "no",
        "backrest": "no",
        "seats": "4"
      }
    },
    {
      "type": "node",
      "id": 12093192373,
      "lat": 12.911002,
      "lon": 77.639716,
      "tags": {
        "amenity": "bench",
        "backrest": "yes",
        "material": "granite"
      }
    },
    {
      "type": "node",
      "id": 12093192374,
      "lat": 12.9108396,
      "lon": 77.6397226,
      "tags": {
        "amenity": "bench",
        "material": "granite"
      }
    },
    {
      "type": "node",
      "id": 12169926378,
      "lat": 12.9020188,
      "lon": 77.6280837,
      "tags": {
        "access": "private",
        "amenity": "parking_entrance",
        "parking": "underground"
      }
    },
    {
      "type": "node",
      "id": 12169926381,
      "lat": 12.9020676,
      "lon": 77.6280706,
      "tags": {
        "access": "private",
        "amenity": "parking_entrance",
        "parking": "underground"
      }
    },
    {
      "type": "node",
      "id": 12205289240,
      "lat": 12.9117593,
      "lon": 77.6323451,
      "tags": {
        "name": "goodgudi",
        "shop": "stationery"
      }
    },
    {
      "type": "node",
      "id": 12205289553,
      "lat": 12.9114596,
      "lon": 77.6305923,
      "tags": {
        "name": "Roshini's Studio",
        "shop": "beauty"
      }
    },
    {
      "type": "node",
      "id": 12205299936,
      "lat": 12.9113795,
      "lon": 77.6326155,
      "tags": {
        "name": "Sagar Juice and Snacks",
        "shop": "beverages"
      }
    },
    {
      "type": "node",
      "id": 12205299937,
      "lat": 12.9119751,
      "lon": 77.6323279,
      "tags": {
        "alt_name": "Burgermeister",
        "amenity": "cafe",
        "name": "Cuppa Redifined"
      }
    },
    {
      "type": "node",
      "id": 12212780814,
      "lat": 12.9118609,
      "lon": 77.6326125,
      "tags": {
        "amenity": "restaurant",
        "check_date": "2024-11-30",
        "name": "Asha Tiffins"
      }
    },
    {
      "type": "node",
      "id": 12212780815,
      "lat": 12.9107426,
      "lon": 77.6326455,
      "tags": {
        "amenity": "cafe",
        "check_date": "2024-11-30",
        "name": "Tea House"
      }
    },
    {
      "type": "node",
      "id": 12212780816,
      "lat": 12.9104742,
      "lon": 77.6324377,
      "tags": {
        "amenity": "fast_food"
      }
    },
    {
      "type": "node",
      "id": 12212780817,
      "lat": 12.9103743,
      "lon": 77.6323509,
      "tags": {
        "amenity": "restaurant",
        "name": "Kailash Parbat"
      }
    },
    {
      "type": "node",
      "id": 12212780818,
      "lat": 12.9105383,
      "lon": 77.6327368,
      "tags": {
        "amenity": "restaurant",
        "name": "SKP Donne Biriyani"
      }
    },
    {
      "type": "node",
      "id": 12212780819,
      "lat": 12.911564,
      "lon": 77.6308748,
      "tags": {
        "shop": "greengrocer"
      }
    },
    {
      "type": "node",
      "id": 12212780820,
      "lat": 12.9115476,
      "lon": 77.6297825,
      "tags": {
        "addr:housenumber": "1461",
        "addr:street": "17th cross road",
        "name": "Bake N Joy",
        "shop": "bakery"
      }
    },
    {
      "type": "node",
      "id": 12212780821,
      "lat": 12.9118582,
      "lon": 77.6295466,
      "tags": {
        "shop": "bakery"
      }
    },
    {
      "type": "node",
      "id": 12238318499,
      "lat": 12.9116751,
      "lon": 77.6350367,
      "tags": {
        "amenity": "restaurant",
        "name": "Biriyani Zone"
      }
    },
    {
      "type": "node",
      "id": 12238336221,
      "lat": 12.9103731,
      "lon": 77.6328115,
      "tags": {
        "amenity": "restaurant",
        "name": "Samosa Point"
      }
    },
    {
      "type": "node",
      "id": 12238345882,
      "lat": 12.9118905,
      "lon": 77.6388252,
      "tags": {
        "amenity": "pub",
        "name": "House of commons"
      }
    },
    {
      "type": "node",
      "id": 12238345883,
      "lat": 12.9110361,
      "lon": 77.6350062,
      "tags": {
        "name": "The Laundry Zone",
        "shop": "laundry"
      }
    },
    {
      "type": "node",
      "id": 12238349605,
      "lat": 12.9105329,
      "lon": 77.6326851,
      "tags": {
        "amenity": "ice_cream",
        "name": "Kulfi Shulfi"
      }
    },
    {
      "type": "node",
      "id": 12244702994,
      "lat": 12.9117627,
      "lon": 77.6326055,
      "tags": {
        "amenity": "bank",
        "brand": "Ujjivan Small Finance Bank",
        "brand:wikidata": "Q42529272",
        "name": "Ujjivan Small Finance Bank"
      }
    },
    {
      "type": "node",
      "id": 12244734920,
      "lat": 12.9117281,
      "lon": 77.6326118,
      "tags": {
        "amenity": "atm",
        "brand": "Ujjivan Small Finance Bank",
        "brand:wikidata": "Q42529272",
        "name": "Ujjivan",
        "operator": "Ujjivan Small Finance Bank",
        "operator:wikidata": "Q42529272"
      }
    },
    {
      "type": "node",
      "id": 12248235680,
      "lat": 12.908564,
      "lon": 77.6239237,
      "tags": {
        "name": "ALV Fresh Supermarket",
        "shop": "supermarket"
      }
    },
    {
      "type": "node",
      "id": 12248273668,
      "lat": 12.9086283,
      "lon": 77.6236311,
      "tags": {
        "leisure": "fitness_centre",
        "name": "Xtreme Body Fitness"
      }
    },
    {
      "type": "node",
      "id": 12248311200,
      "lat": 12.9106758,
      "lon": 77.6248004,
      "tags": {
        "name": "The Man Cave",
        "shop": "hairdresser"
      }
    },
    {
      "type": "node",
      "id": 12248323804,
      "lat": 12.908452,
      "lon": 77.6352471,
      "tags": {
        "amenity": "restaurant",
        "name": "Aligargh House"
      }
    },
    {
      "type": "node",
      "id": 12248350601,
      "lat": 12.9093364,
      "lon": 77.6243746,
      "tags": {
        "name": "Clean & Care Laundry",
        "shop": "laundry"
      }
    },
    {
      "type": "node",
      "id": 12285338814,
      "lat": 12.9112615,
      "lon": 77.6257353,
      "tags": {
        "brand": "Royal Enfield",
        "brand:wikidata": "Q2668720",
        "check_date": "2024-10-23",
        "name": "Royal Enfield",
        "shop": "motorcycle"
      }
    },
    {
      "type": "node",
      "id": 12285338815,
      "lat": 12.9098456,
      "lon": 77.6266764,
      "tags": {
        "brand": "Maruti Suzuki",
        "brand:wikidata": "Q963718",
        "check_date": "2024-10-23",
        "name": "Maruti Suzuki",
        "shop": "car_repair"
      }
    },
    {
      "type": "node",
      "id": 12285684753,
      "lat": 12.909786,
      "lon": 77.6325956,
      "tags": {
        "amenity": "restaurant",
        "name": "MM Nati Mane"
      }
    },
    {
      "type": "node",
      "id": 12294001112,
      "lat": 12.9118648,
      "lon": 77.6389566,
      "tags": {
        "amenity": "fast_food",
        "contact:instagram": "goodflippin",
        "cuisine": "burger",
        "delivery": "yes",
        "name": "Good Flippin' Burgers",
        "takeaway": "yes",
        "website": "https://goodflippin.com/"
      }
    },
    {
      "type": "node",
      "id": 12307015095,
      "lat": 12.9106722,
      "lon": 77.6294978,
      "tags": {
        "amenity": "restaurant",
        "name": "Bismilla Biriyani"
      }
    },
    {
      "type": "node",
      "id": 12475405097,
      "lat": 12.9009812,
      "lon": 77.6400573,
      "tags": {
        "amenity": "school",
        "name": "Shubhodhini English Medium High School"
      }
    },
    {
      "type": "node",
      "id": 12475430615,
      "lat": 12.9008242,
      "lon": 77.6399197,
      "tags": {
        "amenity": "cafe",
        "name": "Desi Tea Master"
      }
    },
    {
      "type": "node",
      "id": 12482471684,
      "lat": 12.9122602,
      "lon": 77.6335967,
      "tags": {
        "amenity": "restaurant",
        "name": "Fish fry day"
      }
    },
    {
      "type": "node",
      "id": 12482490294,
      "lat": 12.9057526,
      "lon": 77.6387843,
      "tags": {
        "name": "North East Store",
        "shop": "convenience"
      }
    },
    {
      "type": "node",
      "id": 12509140575,
      "lat": 12.8984795,
      "lon": 77.63373,
      "tags": {
        "name": "Brand Factory",
        "shop": "clothes"
      }
    },
    {
      "type": "node",
      "id": 12538586111,
      "lat": 12.9094241,
      "lon": 77.6387596,
      "tags": {
        "addr:city": "Bengaluru",
        "addr:postcode": "560102",
        "addr:street": "Sector 3, HSR Layout",
        "amenity": "restaurant",
        "name": "Dhanraj"
      }
    },
    {
      "type": "node",
      "id": 12706360453,
      "lat": 12.907737,
      "lon": 77.6281119,
      "tags": {
        "amenity": "fast_food",
        "check_date": "2025-03-28",
        "name": "Aramane Donne Biryani"
      }
    },
    {
      "type": "node",
      "id": 12706360455,
      "lat": 12.8978489,
      "lon": 77.6340857,
      "tags": {
        "brand": "cult.fit",
        "brand:wikidata": "Q121289250",
        "check_date": "2025-03-28",
        "leisure": "fitness_centre",
        "name": "cult.fit"
      }
    },
    {
      "type": "node",
      "id": 12969068326,
      "lat": 12.901794,
      "lon": 77.6302877,
      "tags": {
        "access": "private",
        "amenity": "parking_entrance",
        "parking": "underground"
      }
    },
    {
      "type": "node",
      "id": 12969068367,
      "lat": 12.9014633,
      "lon": 77.631547,
      "tags": {
        "access": "private",
        "amenity": "parking_entrance",
        "parking": "underground"
      }
    },
    {
      "type": "node",
      "id": 13063810467,
      "lat": 12.9123027,
      "lon": 77.6327926,
      "tags": {
        "amenity": "pharmacy",
        "brand": "Apollo Pharmacy",
        "brand:wikidata": "Q62562612",
        "healthcare": "pharmacy",
        "name": "Apollo Pharmacy"
      }
    },
    {
      "type": "node",
      "id": 13070296262,
      "lat": 12.9106453,
      "lon": 77.6263825,
      "tags": {
        "access": "yes",
        "amenity": "motorcycle_parking",
        "capacity": "85",
        "fee": "yes",
        "name": "Bommanahalli Metro Parking",
        "operator": "BMRCL",
        "parking": "surface"
      }
    },
    {
      "type": "node",
      "id": 13070296263,
      "lat": 12.9016463,
      "lon": 77.6319694,
      "tags": {
        "access": "yes",
        "amenity": "motorcycle_parking",
        "capacity": "155",
        "fee": "yes",
        "name": "Hongasandra Metro Parking",
        "operator": "BMRCL",
        "parking": "surface"
      }
    },
    {
      "type": "node",
      "id": 13075368676,
      "lat": 12.9107188,
      "lon": 77.6400315,
      "tags": {
        "amenity": "bench",
        "backrest": "yes",
        "material": "granite",
        "seats": "3"
      }
    },
    {
      "type": "node",
      "id": 13075368694,
      "lat": 12.911333,
      "lon": 77.6396581,
      "tags": {
        "amenity": "bench",
        "backrest": "yes",
        "material": "granite",
        "seats": "3"
      }
    },
    {
      "type": "node",
      "id": 13075368698,
      "lat": 12.9107194,
      "lon": 77.6400119,
      "tags": {
        "amenity": "bench",
        "backrest": "yes",
        "material": "granite",
        "seats": "3"
      }
    },
    {
      "type": "node",
      "id": 13075368700,
      "lat": 12.9107049,
      "lon": 77.6400209,
      "tags": {
        "amenity": "bench",
        "backrest": "yes",
        "material": "granite",
        "seats": "3"
      }
    },
    {
      "type": "node",
      "id": 13075442901,
      "lat": 12.9105001,
      "lon": 77.6401512,
      "tags": {
        "amenity": "bench",
        "backrest": "yes",
        "material": "granite",
        "seats": "3"
      }
    },
    {
      "type": "node",
      "id": 13075442902,
      "lat": 12.9104874,
      "lon": 77.640151,
      "tags": {
        "amenity": "bench",
        "backrest": "yes",
        "material": "granite",
        "seats": "3"
      }
    },
    {
      "type": "node",
      "id": 13075442903,
      "lat": 12.9104941,
      "lon": 77.6401617,
      "tags": {
        "amenity": "bench",
        "backrest": "yes",
        "material": "granite",
        "seats": "3"
      }
    },
    {
      "type": "node",
      "id": 13075442904,
      "lat": 12.9105051,
      "lon": 77.6400615,
      "tags": {
        "amenity": "bench",
        "backrest": "yes",
        "material": "granite",
        "seats": "3"
      }
    },
    {
      "type": "node",
      "id": 13075442905,
      "lat": 12.9104882,
      "lon": 77.640061,
      "tags": {
        "amenity": "bench",
        "backrest": "yes",
        "material": "granite",
        "seats": "3"
      }
    },
    {
      "type": "node",
      "id": 13075442906,
      "lat": 12.9104966,
      "lon": 77.6400472,
      "tags": {
        "amenity": "bench",
        "backrest": "yes",
        "material": "granite",
        "seats": "3"
      }
    },
    {
      "type": "node",
      "id": 13075442907,
      "lat": 12.9103872,
      "lon": 77.6400313,
      "tags": {
        "amenity": "bench",
        "backrest": "yes",
        "material": "granite",
        "seats": "3"
      }
    },
    {
      "type": "node",
      "id": 13075442908,
      "lat": 12.9103828,
      "lon": 77.6398012,
      "tags": {
        "amenity": "bench",
        "backrest": "yes",
        "material": "granite",
        "seats": "3"
      }
    },
    {
      "type": "node",
      "id": 13075442909,
      "lat": 12.9103945,
      "lon": 77.6395842,
      "tags": {
        "amenity": "bench",
        "backrest": "yes",
        "material": "granite",
        "seats": "3"
      }
    },
    {
      "type": "node",
      "id": 13075442910,
      "lat": 12.9105263,
      "lon": 77.6396013,
      "tags": {
        "amenity": "bench",
        "backrest": "yes",
        "material": "granite",
        "seats": "3"
      }
    },
    {
      "type": "node",
      "id": 13075442911,
      "lat": 12.9105574,
      "lon": 77.6395934,
      "tags": {
        "amenity": "bench",
        "backrest": "yes",
        "material": "granite",
        "seats": "3"
      }
    },
    {
      "type": "node",
      "id": 13075442912,
      "lat": 12.9105717,
      "lon": 77.6395669,
      "tags": {
        "amenity": "bench",
        "backrest": "yes",
        "material": "granite",
        "seats": "3"
      }
    },
    {
      "type": "node",
      "id": 13075442913,
      "lat": 12.910559,
      "lon": 77.6395381,
      "tags": {
        "amenity": "bench",
        "backrest": "yes",
        "material": "granite",
        "seats": "3"
      }
    },
    {
      "type": "node",
      "id": 13075442914,
      "lat": 12.9105272,
      "lon": 77.6395327,
      "tags": {
        "amenity": "bench",
        "backrest": "yes",
        "material": "granite",
        "seats": "3"
      }
    },
    {
      "type": "node",
      "id": 13075442915,
      "lat": 12.9104202,
      "lon": 77.6394419,
      "tags": {
        "amenity": "bench",
        "armrest": "no",
        "backrest": "no",
        "material": "granite",
        "seats": "4"
      }
    },
    {
      "type": "node",
      "id": 13075442916,
      "lat": 12.9106398,
      "lon": 77.6393406,
      "tags": {
        "amenity": "bench",
        "backrest": "yes",
        "material": "granite",
        "seats": "3"
      }
    },
    {
      "type": "node",
      "id": 13075442917,
      "lat": 12.9110893,
      "lon": 77.6395384,
      "tags": {
        "amenity": "bench",
        "backrest": "yes",
        "material": "granite",
        "seats": "3"
      }
    },
    {
      "type": "node",
      "id": 13075442919,
      "lat": 12.9104077,
      "lon": 77.6402701,
      "tags": {
        "amenity": "bench",
        "backrest": "yes",
        "material": "granite",
        "seats": "3"
      }
    },
    {
      "type": "node",
      "id": 13227707086,
      "lat": 12.9124724,
      "lon": 77.6384218,
      "tags": {
        "amenity": "fast_food",
        "check_date": "2025-10-12",
        "cuisine": "juice",
        "name": "Frozen Bottle"
      }
    },
    {
      "type": "node",
      "id": 13227707087,
      "lat": 12.9124581,
      "lon": 77.6383097,
      "tags": {
        "check_date": "2025-10-12",
        "name": "Sangeetha",
        "shop": "mobile_phone"
      }
    },
    {
      "type": "node",
      "id": 13305153654,
      "lat": 12.9091636,
      "lon": 77.6378957,
      "tags": {
        "amenity": "bank",
        "brand": "RBL Bank",
        "brand:wikidata": "Q13120398",
        "check_date": "2025-11-15",
        "name": "RBL Bank"
      }
    },
    {
      "type": "node",
      "id": 13338743001,
      "lat": 12.9109131,
      "lon": 77.6369858,
      "tags": {
        "leisure": "sports_centre",
        "name": "Live the game"
      }
    },
    {
      "type": "node",
      "id": 13338743101,
      "lat": 12.9119044,
      "lon": 77.6379048,
      "tags": {
        "amenity": "restaurant",
        "name": "Oyster, Bar & Kitchen"
      }
    },
    {
      "type": "way",
      "id": 128220279,
      "center": {
        "lat": 12.9148923,
        "lon": 77.6302032
      },
      "tags": {
        "leisure": "park"
      }
    },
    {
      "type": "way",
      "id": 230421683,
      "center": {
        "lat": 12.9029398,
        "lon": 77.6303587
      },
      "tags": {
        "addr:street": "Hosur Road",
        "amenity": "bank",
        "atm": "yes",
        "brand": "ICICI Bank",
        "brand:wikidata": "Q1653258",
        "name": "ICICI Bank",
        "name:en": "ICICI Bank",
        "name:kn": "ಐಸಿಐಸಿಐ ಬ್ಯಾಂಕು",
        "short_name": "ICICI",
        "website": "https://www.icicibank.com"
      }
    },
    {
      "type": "way",
      "id": 231659914,
      "center": {
        "lat": 12.9058635,
        "lon": 77.6275338
      },
      "tags": {
        "alt_name": "BBMP Office",
        "amenity": "public_building",
        "building": "yes",
        "int_name": "Bruhat Bengaluru Mahanagara Palike",
        "name": "BBMP Bommanahalli",
        "name:kn": "ಬೃ. ಬೆ. ಮ. ಪಾ. ಕಛೈರಿ"
      }
    },
    {
      "type": "way",
      "id": 236746012,
      "center": {
        "lat": 12.9029006,
        "lon": 77.6277282
      },
      "tags": {
        "amenity": "place_of_worship",
        "religion": "hindu"
      }
    },
    {
      "type": "way",
      "id": 236967890,
      "center": {
        "lat": 12.9078642,
        "lon": 77.627663
      },
      "tags": {
        "check_date": "2024-09-19",
        "name": "Nandi Toyota",
        "shop": "car"
      }
    },
    {
      "type": "way",
      "id": 237089963,
      "center": {
        "lat": 12.912228,
        "lon": 77.6301145
      },
      "tags": {
        "leisure": "park"
      }
    },
    {
      "type": "way",
      "id": 237089969,
      "center": {
        "lat": 12.9107388,
        "lon": 77.6314614
      },
      "tags": {
        "leisure": "park"
      }
    },
    {
      "type": "way",
      "id": 237548188,
      "center": {
        "lat": 12.9110491,
        "lon": 77.6334801
      },
      "tags": {
        "leisure": "park"
      }
    },
    {
      "type": "way",
      "id": 286440340,
      "center": {
        "lat": 12.913746,
        "lon": 77.6349835
      },
      "tags": {
        "amenity": "school",
        "name": "Lawerence School"
      }
    },
    {
      "type": "way",
      "id": 286440341,
      "center": {
        "lat": 12.9137699,
        "lon": 77.6341316
      },
      "tags": {
        "access": "no",
        "leisure": "playground",
        "name": "Lawerence School Grounds"
      }
    },
    {
      "type": "way",
      "id": 316018421,
      "center": {
        "lat": 12.9128032,
        "lon": 77.6313466
      },
      "tags": {
        "leisure": "park"
      }
    },
    {
      "type": "way",
      "id": 323642593,
      "center": {
        "lat": 12.9080574,
        "lon": 77.640543
      },
      "tags": {
        "leisure": "park",
        "name": "Twin park 1"
      }
    },
    {
      "type": "way",
      "id": 323642594,
      "center": {
        "lat": 12.9075689,
        "lon": 77.6405148
      },
      "tags": {
        "leisure": "park",
        "name": "Twin park 2"
      }
    },
    {
      "type": "way",
      "id": 323699641,
      "center": {
        "lat": 12.9127898,
        "lon": 77.637659
      },
      "tags": {
        "amenity": "events_venue",
        "building": "yes",
        "name": "White Housse Banquet"
      }
    },
    {
      "type": "way",
      "id": 343648710,
      "center": {
        "lat": 12.9126631,
        "lon": 77.6336353
      },
      "tags": {
        "brand": "Reliance Digital",
        "brand:wikidata": "Q7311012",
        "building": "yes",
        "name": "Reliance Digital",
        "name:kn": "ರಿಲಾಯನ್ಸ್ ಡಿಜಿಟಲ್",
        "shop": "electronics"
      }
    },
    {
      "type": "way",
      "id": 343648711,
      "center": {
        "lat": 12.9126602,
        "lon": 77.6337924
      },
      "tags": {
        "building": "yes",
        "name": "Gazana",
        "shop": "jewelry"
      }
    },
    {
      "type": "way",
      "id": 343649633,
      "center": {
        "lat": 12.9125455,
        "lon": 77.6366136
      },
      "tags": {
        "addr:city": "Bangalore",
        "addr:postcode": "560102",
        "addr:street": "HSR Layout",
        "building": "yes",
        "name": "MK Ahmed",
        "organic": "yes",
        "phone": "(91)-80-41572230",
        "shop": "supermarket",
        "website": "https://www.mkretail.com/"
      }
    },
    {
      "type": "way",
      "id": 343651731,
      "center": {
        "lat": 12.9112138,
        "lon": 77.6361785
      },
      "tags": {
        "addr:city": "Bengaluru",
        "addr:postcode": "560102",
        "addr:street": "19th Cross Rd, Sector 7, HSR Layout",
        "amenity": "place_of_worship",
        "building": "yes",
        "name": "Sri Varasiddhi Vinayaka Temple",
        "religion": "hindu"
      }
    },
    {
      "type": "way",
      "id": 343665784,
      "center": {
        "lat": 12.909768,
        "lon": 77.6368984
      },
      "tags": {
        "leisure": "park"
      }
    },
    {
      "type": "way",
      "id": 343674954,
      "center": {
        "lat": 12.9091908,
        "lon": 77.6381882
      },
      "tags": {
        "addr:postcode": "560102",
        "addr:street": "22nd Cross",
        "building": "yes",
        "check_date": "2025-11-15",
        "name": "Born Babies",
        "payment:credit_cards": "yes",
        "payment:debit_cards": "yes",
        "shop": "baby_goods",
        "website": "http://www.bornbabies.in/home.html",
        "wheelchair": "yes"
      }
    },
    {
      "type": "way",
      "id": 347501955,
      "center": {
        "lat": 12.9053525,
        "lon": 77.641394
      },
      "tags": {
        "amenity": "pharmacy",
        "branch": "Bandepalya",
        "brand": "Pradhan Mantri Bharatiya Janaushadhi Pariyojana Kendra",
        "brand:wikidata": "Q39058281",
        "building": "yes",
        "healthcare": "pharmacy",
        "name": "Jan Aushadhi",
        "official_name": "Pradhan Mantri Bharatiya Janaushadhi Pariyojana Kendra"
      }
    },
    {
      "type": "way",
      "id": 349648491,
      "center": {
        "lat": 12.90101,
        "lon": 77.6309346
      },
      "tags": {
        "amenity": "college",
        "name": "Oxford College"
      }
    },
    {
      "type": "way",
      "id": 609531882,
      "center": {
        "lat": 12.9116057,
        "lon": 77.6382725
      },
      "tags": {
        "addr:housenumber": "1091",
        "brand": "Max",
        "brand:wikidata": "Q24939079",
        "building": "commercial",
        "name": "Max",
        "shop": "clothes",
        "source:addr:housenumber": "GEPTIS"
      }
    },
    {
      "type": "way",
      "id": 631319096,
      "center": {
        "lat": 12.9133829,
        "lon": 77.6374611
      },
      "tags": {
        "leisure": "garden"
      }
    },
    {
      "type": "way",
      "id": 678062490,
      "center": {
        "lat": 12.8978289,
        "lon": 77.6320545
      },
      "tags": {
        "leisure": "park",
        "name": "Raja Rajeshwari Apartment Common Area",
        "opening_hours": "24/7"
      }
    },
    {
      "type": "way",
      "id": 678066777,
      "center": {
        "lat": 12.8980981,
        "lon": 77.6338265
      },
      "tags": {
        "amenity": "hospital",
        "healthcare": "hospital"
      }
    },
    {
      "type": "way",
      "id": 741214123,
      "center": {
        "lat": 12.9110011,
        "lon": 77.6404772
      },
      "tags": {
        "barrier": "fence",
        "leisure": "park",
        "name": "Swabhiman Park",
        "opening_hours": "Mo-Su 05:00-10:00,16:00-20:00"
      }
    },
    {
      "type": "way",
      "id": 886187377,
      "center": {
        "lat": 12.914738,
        "lon": 77.6346003
      },
      "tags": {
        "leisure": "park"
      }
    },
    {
      "type": "way",
      "id": 1050019899,
      "center": {
        "lat": 12.9081171,
        "lon": 77.6363723
      },
      "tags": {
        "leisure": "park"
      }
    },
    {
      "type": "way",
      "id": 1050019900,
      "center": {
        "lat": 12.9093086,
        "lon": 77.6335962
      },
      "tags": {
        "leisure": "park"
      }
    },
    {
      "type": "way",
      "id": 1071442327,
      "center": {
        "lat": 12.9110564,
        "lon": 77.6382622
      },
      "tags": {
        "addr:housenumber": "1099",
        "building": "yes",
        "name": "Snitch",
        "shop": "clothes",
        "source": "GEPTIS"
      }
    },
    {
      "type": "way",
      "id": 1071642356,
      "center": {
        "lat": 12.9126517,
        "lon": 77.6342468
      },
      "tags": {
        "building": "yes",
        "name": "Reliance Trends",
        "name:kn": "ರಿಲಯನ್ಸ್ ಟ್ರೆಂಡ್ಸ್",
        "shop": "clothes"
      }
    },
    {
      "type": "way",
      "id": 1074881566,
      "center": {
        "lat": 12.8980441,
        "lon": 77.6348703
      },
      "tags": {
        "amenity": "marketplace"
      }
    },
    {
      "type": "way",
      "id": 1096873560,
      "center": {
        "lat": 12.9004172,
        "lon": 77.6335589
      },
      "tags": {
        "amenity": "fuel",
        "brand": "Shell",
        "brand:wikidata": "Q110716465",
        "compressed_air": "yes",
        "name": "Shell",
        "name:kn": "ಶೆಲ್"
      }
    },
    {
      "type": "way",
      "id": 1099659564,
      "center": {
        "lat": 12.9091652,
        "lon": 77.6396117
      },
      "tags": {
        "building": "yes",
        "name": "Amber Home Interior",
        "shop": "interior_decoration"
      }
    },
    {
      "type": "way",
      "id": 1141416726,
      "center": {
        "lat": 12.9058082,
        "lon": 77.6415363
      },
      "tags": {
        "amenity": "school"
      }
    },
    {
      "type": "way",
      "id": 1215278393,
      "center": {
        "lat": 12.9126596,
        "lon": 77.6339369
      },
      "tags": {
        "building": "yes",
        "name": "Neelakanthi",
        "shop": "jewelry"
      }
    },
    {
      "type": "way",
      "id": 1215337275,
      "center": {
        "lat": 12.9129481,
        "lon": 77.6279955
      },
      "tags": {
        "access": "private",
        "leisure": "swimming_pool"
      }
    },
    {
      "type": "way",
      "id": 1219736767,
      "center": {
        "lat": 12.9136447,
        "lon": 77.6280962
      },
      "tags": {
        "building": "yes",
        "layer": "1",
        "shop": "plant_nursery"
      }
    },
    {
      "type": "way",
      "id": 1254626816,
      "center": {
        "lat": 12.9109742,
        "lon": 77.6398816
      },
      "tags": {
        "amenity": "shelter",
        "building": "yes",
        "shelter_type": "gazebo"
      }
    },
    {
      "type": "way",
      "id": 1254626817,
      "center": {
        "lat": 12.910575,
        "lon": 77.6397573
      },
      "tags": {
        "leisure": "fitness_station",
        "sport": "fitness"
      }
    },
    {
      "type": "way",
      "id": 1254749649,
      "center": {
        "lat": 12.902166,
        "lon": 77.6396091
      },
      "tags": {
        "leisure": "park"
      }
    },
    {
      "type": "way",
      "id": 1271883891,
      "center": {
        "lat": 12.8995586,
        "lon": 77.6253424
      },
      "tags": {
        "amenity": "grave_yard",
        "landuse": "cemetery"
      }
    },
    {
      "type": "way",
      "id": 1271883921,
      "center": {
        "lat": 12.900977,
        "lon": 77.6289967
      },
      "tags": {
        "leisure": "playground"
      }
    },
    {
      "type": "way",
      "id": 1271883922,
      "center": {
        "lat": 12.9010749,
        "lon": 77.6285027
      },
      "tags": {
        "access": "private",
        "leisure": "swimming_pool"
      }
    },
    {
      "type": "way",
      "id": 1272669587,
      "center": {
        "lat": 12.9120707,
        "lon": 77.6399918
      },
      "tags": {
        "access": "yes",
        "amenity": "motorcycle_parking",
        "covered": "no"
      }
    },
    {
      "type": "way",
      "id": 1285829254,
      "center": {
        "lat": 12.9030298,
        "lon": 77.631669
      },
      "tags": {
        "access": "customers",
        "amenity": "parking",
        "parking": "surface"
      }
    },
    {
      "type": "way",
      "id": 1313718784,
      "center": {
        "lat": 12.901938,
        "lon": 77.6290914
      },
      "tags": {
        "amenity": "theatre",
        "name": "amphitheatre",
        "theatre:type": "amphi"
      }
    },
    {
      "type": "way",
      "id": 1348689004,
      "center": {
        "lat": 12.9031061,
        "lon": 77.6369758
      },
      "tags": {
        "amenity": "school"
      }
    },
    {
      "type": "way",
      "id": 1411398439,
      "center": {
        "lat": 12.9010914,
        "lon": 77.629929
      },
      "tags": {
        "access": "private",
        "leisure": "pitch",
        "sport": "tennis"
      }
    },
    {
      "type": "way",
      "id": 1411413005,
      "center": {
        "lat": 12.898837,
        "lon": 77.6334802
      },
      "tags": {
        "amenity": "fuel"
      }
    },
    {
      "type": "way",
      "id": 1421713659,
      "center": {
        "lat": 12.9111876,
        "lon": 77.6365704
      },
      "tags": {
        "leisure": "park"
      }
    },
    {
      "type": "way",
      "id": 1421713660,
      "center": {
        "lat": 12.9121156,
        "lon": 77.6297859
      },
      "tags": {
        "leisure": "fitness_station",
        "sport": "fitness"
      }
    },
    {
      "type": "way",
      "id": 1424372722,
      "center": {
        "lat": 12.903684,
        "lon": 77.6303209
      },
      "tags": {
        "addr:city": "Bommanahalli",
        "addr:district": "Bengaluru",
        "addr:housenumber": "424",
        "addr:postcode": "560068",
        "addr:street": "Hosur Road",
        "amenity": "college",
        "internet_access": "yes",
        "internet_access:fee": "customers",
        "name": "ICAT Design & Media College",
        "website": "https://www.icat.ac.in/"
      }
    }
  ]
}