{
  "area_name": "Marappa Garden",
  "osm_id": 11652617762,
  "osm_type": "node",
  "place_type": "neighbourhood",
  "amenity_count": 49,
  "amenities": [
    {
      "type": "node",
      "id": 665871301,
      "lat": 12.9993627,
      "lon": 77.6008367,
      "tags": {
        "addr:street": "Benson Cross Road",
        "amenity": "bank",
        "atm": "yes",
        "brand": "Indian Bank",
        "brand:wikidata": "Q2003789",
        "brand:wikipedia": "en:Indian Bank",
        "name": "Indian Bank",
        "name:en": "Indian Bank",
        "name:kn": "ಇಂಡಿಯನ್ ಬ್ಯಾಂಕ್",
        "website": "https://www.indianbank.in/"
      }
    },
    {
      "type": "node",
      "id": 665871303,
      "lat": 12.9995673,
      "lon": 77.599394,
      "tags": {
        "addr:street": "Nandi Durg Road",
        "amenity": "ice_cream",
        "name": "Hangyo Icecream"
      }
    },
    {
      "type": "node",
      "id": 665871308,
      "lat": 13.0016562,
      "lon": 77.596687,
      "tags": {
        "amenity": "kindergarten",
        "name": "Kara4Kids",
        "url": "www.kara.in"
      }
    },
    {
      "type": "node",
      "id": 665871309,
      "lat": 13.0014631,
      "lon": 77.5983593,
      "tags": {
        "addr:street": "Nandi Durg Road",
        "amenity": "atm",
        "brand": "Syndicate Bank",
        "brand:wikidata": "Q2004088",
        "name": "Syndicate Bank",
        "name:kn": "ಸಿಂಡಿಕೇಟ್ ಬ್ಯಾಂಕ್",
        "operator": "Syndicate Bank",
        "operator:wikidata": "Q2004088"
      }
    },
    {
      "type": "node",
      "id": 665871310,
      "lat": 12.9998077,
      "lon": 77.5996733,
      "tags": {
        "addr:street": "Nandi Durg Road",
        "brand": "More",
        "brand:wikidata": "Q6910891",
        "name": "More",
        "name:kn": "ಮೋರ್",
        "shop": "supermarket"
      }
    },
    {
      "type": "node",
      "id": 665871313,
      "lat": 12.9979339,
      "lon": 77.6031017,
      "tags": {
        "addr:street": "Benson Cross Road",
        "name": "Benson Auto Garage",
        "shop": "car_repair"
      }
    },
    {
      "type": "node",
      "id": 1067181192,
      "lat": 13.0038999,
      "lon": 77.6039313,
      "tags": {
        "addr:district": "Bengaluru Urban",
        "addr:full": "110,6Th Main Iti Layout Benson Town Post",
        "addr:postcode": "560046",
        "addr:state": "Karnataka",
        "amenity": "hospital",
        "name": "Devine Hospital",
        "name:kn": "ಡಿವೈನ್ ಆಸ್ಪತ್ರೆ",
        "source": "OpenGovernmentData"
      }
    },
    {
      "type": "node",
      "id": 1067181200,
      "lat": 13.0044271,
      "lon": 77.6037741,
      "tags": {
        "amenity": "pharmacy",
        "healthcare": "pharmacy",
        "name": "Vijay Medicals",
        "name:kn": "ವಿಜಯ್ ಮೆಡಿಕಲ್ಸ್"
      }
    },
    {
      "type": "node",
      "id": 1067192719,
      "lat": 12.9994929,
      "lon": 77.5989568,
      "tags": {
        "addr:street": "Nandi Durg Road",
        "amenity": "atm",
        "brand": "ICICI Bank",
        "brand:wikidata": "Q1653258",
        "name": "ICICI Bank",
        "operator": "ICICI Bank",
        "operator:wikidata": "Q1653258",
        "short_name": "ICICI"
      }
    },
    {
      "type": "node",
      "id": 1067205123,
      "lat": 13.001892,
      "lon": 77.5992036,
      "tags": {
        "addr:street": "Nandi Durg Road",
        "amenity": "telephone",
        "name": "Airtel Office",
        "name:kn": "ಏರ್ಟೆಲ್"
      }
    },
    {
      "type": "node",
      "id": 1067206582,
      "lat": 13.0015628,
      "lon": 77.5993592,
      "tags": {
        "addr:street": "Nandi Durg Road",
        "amenity": "restaurant",
        "name": "Elements",
        "name:kn": "ಎಲಿಮೆಂಟ್ಸ್"
      }
    },
    {
      "type": "node",
      "id": 3537449249,
      "lat": 13.0033101,
      "lon": 77.607122,
      "tags": {
        "amenity": "place_of_worship"
      }
    },
    {
      "type": "node",
      "id": 4304451297,
      "lat": 13.0025965,
      "lon": 77.5981195,
      "tags": {
        "addr:postcode": "560046",
        "addr:street": "Nandi Durg Road",
        "name": "Nilgiri Supermarket",
        "shop": "supermarket"
      }
    },
    {
      "type": "node",
      "id": 4371078994,
      "lat": 13.0018629,
      "lon": 77.5988299,
      "tags": {
        "amenity": "bank",
        "atm": "yes",
        "brand": "HDFC Bank",
        "brand:wikidata": "Q631047",
        "brand:wikipedia": "en:HDFC Bank",
        "name": "HDFC Bank",
        "name:kn": "ಎಚ್ ಡಿ ಎಫ್ ಸಿ",
        "short_name": "HDFC",
        "website": "https://www.hdfcbank.com"
      }
    },
    {
      "type": "node",
      "id": 5174704944,
      "lat": 13.0018586,
      "lon": 77.5988817,
      "tags": {
        "amenity": "atm",
        "brand": "HDFC Bank",
        "brand:wikidata": "Q631047",
        "name": "HDFC Bank",
        "name:kn": "ಎಚ್ ಡಿ ಎಫ್ ಸಿ",
        "operator": "HDFC Bank",
        "operator:wikidata": "Q631047",
        "short_name": "HDFC"
      }
    },
    {
      "type": "node",
      "id": 8188038706,
      "lat": 12.9981064,
      "lon": 77.6008126,
      "tags": {
        "addr:full": "79/10, Nandi Durga Rd, Byadarahalli, Benson Town, Bengaluru, Karnataka",
        "addr:state": "Karnataka",
        "amenity": "hospital",
        "name": "Appllo Diagnostic"
      }
    },
    {
      "type": "node",
      "id": 8240810686,
      "lat": 13.0005017,
      "lon": 77.599504,
      "tags": {
        "amenity": "fast_food",
        "name": "Lassi Shop"
      }
    },
    {
      "type": "node",
      "id": 8240810687,
      "lat": 13.0009956,
      "lon": 77.599335,
      "tags": {
        "amenity": "bank",
        "atm": "yes",
        "brand": "Kotak Mahindra Bank",
        "brand:wikidata": "Q2040404",
        "name": "Kotak Mahindra Bank"
      }
    },
    {
      "type": "node",
      "id": 8911005359,
      "lat": 13.0027162,
      "lon": 77.6089174,
      "tags": {
        "shop": "camera"
      }
    },
    {
      "type": "node",
      "id": 9835538871,
      "lat": 13.0027078,
      "lon": 77.5963338,
      "tags": {
        "addr:city": "Bengaluru",
        "addr:housenumber": "22",
        "addr:place": "Jayamahal Extension",
        "addr:postcode": "560046",
        "addr:street": "13th Cross Street",
        "addr:suburb": "Jayamahal",
        "mobile": "+91-984-5646-545",
        "name": "Mostly Harmless",
        "opening_hours": "Mo-Sa 09:00-20:30; PH closed",
        "shop": "computer",
        "website": "https://mostlyharmless.io/"
      }
    },
    {
      "type": "node",
      "id": 12404912802,
      "lat": 12.9996817,
      "lon": 77.6000976,
      "tags": {
        "addr:floor": "G",
        "air_conditioning": "yes",
        "amenity": "cafe",
        "check_date": "2024-12-08",
        "level": "0",
        "name": "Velvet Bakes",
        "outdoor_seating": "no",
        "toilets": "no"
      }
    },
    {
      "type": "node",
      "id": 12470693542,
      "lat": 13.0016412,
      "lon": 77.601576,
      "tags": {
        "amenity": "fast_food",
        "brand": "Indira Canteen",
        "brand:wikidata": "Q36164828",
        "cuisine": "south_indian",
        "name": "Indira Canteen",
        "operator": "BBMP",
        "takeaway": "yes"
      }
    },
    {
      "type": "node",
      "id": 12470693552,
      "lat": 13.001798,
      "lon": 77.6023847,
      "tags": {
        "amenity": "place_of_worship",
        "religion": "hindu"
      }
    },
    {
      "type": "way",
      "id": 39022406,
      "center": {
        "lat": 13.0012098,
        "lon": 77.5976652
      },
      "tags": {
        "leisure": "park",
        "name": "Jayamahal Park",
        "name:kn": "ಜಯಮಹಲ್ ಉದ್ಯಾನವನ",
        "opening_hours": "Mo-Su 05:00-09:00,16:00-20:30"
      }
    },
    {
      "type": "way",
      "id": 39022417,
      "center": {
        "lat": 13.00218,
        "lon": 77.5963121
      },
      "tags": {
        "access": "yes",
        "leisure": "playground",
        "name": "Chacha Park"
      }
    },
    {
      "type": "way",
      "id": 346756797,
      "center": {
        "lat": 13.0028072,
        "lon": 77.5953858
      },
      "tags": {
        "amenity": "place_of_worship",
        "building": "mosque",
        "religion": "muslim"
      }
    },
    {
      "type": "way",
      "id": 346768012,
      "center": {
        "lat": 13.004242,
        "lon": 77.6081559
      },
      "tags": {
        "amenity": "place_of_worship",
        "building": "mosque",
        "name": "Masjid I Taqwa",
        "religion": "muslim"
      }
    },
    {
      "type": "way",
      "id": 348111568,
      "center": {
        "lat": 13.0152353,
        "lon": 77.6042113
      },
      "tags": {
        "amenity": "place_of_worship",
        "building": "yes",
        "religion": "hindu"
      }
    },
    {
      "type": "way",
      "id": 362940504,
      "center": {
        "lat": 13.0051069,
        "lon": 77.604059
      },
      "tags": {
        "leisure": "park"
      }
    },
    {
      "type": "way",
      "id": 673959400,
      "center": {
        "lat": 13.0099785,
        "lon": 77.610202
      },
      "tags": {
        "amenity": "cinema",
        "name": "Anand Theater",
        "name:kn": "ಆನಂದ"
      }
    },
    {
      "type": "way",
      "id": 673959402,
      "center": {
        "lat": 13.0096266,
        "lon": 77.6115425
      },
      "tags": {
        "leisure": "pitch",
        "name": "Periyar Nagar Football Club",
        "sport": "soccer"
      }
    },
    {
      "type": "way",
      "id": 673959416,
      "center": {
        "lat": 13.0060147,
        "lon": 77.5954888
      },
      "tags": {
        "amenity": "place_of_worship",
        "building": "mosque",
        "religion": "muslim"
      }
    },
    {
      "type": "way",
      "id": 782014045,
      "center": {
        "lat": 12.9980222,
        "lon": 77.6056114
      },
      "tags": {
        "amenity": "place_of_worship",
        "landuse": "religious",
        "religion": "hindu"
      }
    },
    {
      "type": "way",
      "id": 796374104,
      "center": {
        "lat": 13.0003677,
        "lon": 77.6076022
      },
      "tags": {
        "leisure": "park"
      }
    },
    {
      "type": "way",
      "id": 796374105,
      "center": {
        "lat": 13.0015611,
        "lon": 77.6073478
      },
      "tags": {
        "leisure": "park"
      }
    },
    {
      "type": "way",
      "id": 796374106,
      "center": {
        "lat": 13.0063435,
        "lon": 77.611474
      },
      "tags": {
        "amenity": "place_of_worship",
        "name": "Eidgah-e-Jadeed",
        "religion": "muslim"
      }
    },
    {
      "type": "way",
      "id": 994820814,
      "center": {
        "lat": 13.0099473,
        "lon": 77.5994061
      },
      "tags": {
        "leisure": "pitch",
        "sport": "basketball"
      }
    },
    {
      "type": "way",
      "id": 1160845582,
      "center": {
        "lat": 13.0038413,
        "lon": 77.597227
      },
      "tags": {
        "amenity": "monastery",
        "landuse": "religious",
        "name": "Sri Sarada Matha",
        "name:kn": "ಶ್ರೀ ಶಾರದ ಮಠ",
        "religion": "hindu"
      }
    },
    {
      "type": "way",
      "id": 1202598208,
      "center": {
        "lat": 13.0143615,
        "lon": 77.6056755
      },
      "tags": {
        "amenity": "cinema",
        "name": "Vinayaka Theater",
        "name:kn": "ವಿನಾಯಕ"
      }
    },
    {
      "type": "way",
      "id": 1202598210,
      "center": {
        "lat": 13.0103299,
        "lon": 77.6114975
      },
      "tags": {
        "amenity": "clinic",
        "name": "UPHC, Devarajeevanahalli",
        "name:kn": "ಗ್ರಾಮಾಂತರ ಪ್ರಾಥಮಿಕ ಆರೋಗ್ಯ ಕೇಂದ್ರ",
        "operator": "BBMP"
      }
    },
    {
      "type": "way",
      "id": 1305182789,
      "center": {
        "lat": 12.9995073,
        "lon": 77.6012527
      },
      "tags": {
        "access": "private",
        "leisure": "swimming_pool"
      }
    },
    {
      "type": "way",
      "id": 1308476316,
      "center": {
        "lat": 12.9991068,
        "lon": 77.6005921
      },
      "tags": {
        "access": "private",
        "leisure": "swimming_pool"
      }
    },
    {
      "type": "way",
      "id": 1339448451,
      "center": {
        "lat": 13.0027861,
        "lon": 77.5967064
      },
      "tags": {
        "amenity": "cafe",
        "brand": "Cafe Coffee Day",
        "brand:wikidata": "Q5017235",
        "building": "yes",
        "cuisine": "coffee_shop",
        "internet_access": "no",
        "name": "Cafe Coffee Day",
        "outdoor_seating": "yes",
        "takeaway": "yes"
      }
    },
    {
      "type": "way",
      "id": 1348168098,
      "center": {
        "lat": 12.9990228,
        "lon": 77.6033757
      },
      "tags": {
        "access": "private",
        "leisure": "swimming_pool"
      }
    },
    {
      "type": "way",
      "id": 1348168112,
      "center": {
        "lat": 13.0014902,
        "lon": 77.5988482
      },
      "tags": {
        "amenity": "school",
        "name": "Gulabi School"
      }
    },
    {
      "type": "way",
      "id": 1348168138,
      "center": {
        "lat": 13.0028438,
        "lon": 77.60042
      },
      "tags": {
        "amenity": "college"
      }
    },
    {
      "type": "way",
      "id": 1348168191,
      "center": {
        "lat": 13.0060524,
        "lon": 77.598076
      },
      "tags": {
        "amenity": "school",
        "name": "St. JG Margaret School"
      }
    },
    {
      "type": "way",
      "id": 1348168192,
      "center": {
        "lat": 13.0062613,
        "lon": 77.5977187
      },
      "tags": {
        "amenity": "place_of_worship",
        "denomination": "catholic",
        "name": "St. John the Evangelist Church",
        "religion": "christian"
      }
    },
    {
      "type": "way",
      "id": 1348168195,
      "center": {
        "lat": 13.0016986,
        "lon": 77.6013148
      },
      "tags": {
        "leisure": "park"
      }
    }
  ]
}