{
  "area_name": "Marenahalli West",
  "osm_id": 19883320,
  "osm_type": "relation",
  "place_type": "administrative",
  "amenity_count": 36,
  "amenities": [
    {
      "type": "node",
      "id": 1778899718,
      "lat": 12.9727782,
      "lon": 77.5296785,
      "tags": {
        "addr:street": "Nagarbhavi Main Road",
        "amenity": "bank",
        "atm": "no",
        "brand": "Allahabad Bank",
        "brand:wikidata": "Q2018840",
        "brand:wikipedia": "en:Allahabad Bank",
        "name": "Allahabad Bank",
        "name:en": "Allahabad Bank",
        "name:kn": "ಅಲ್ಲಹಾಬಾದ್ ಬ್ಯಾಂಕ್",
        "source": "Survey",
        "website": "https://www.allahabadbank.in"
      }
    },
    {
      "type": "node",
      "id": 1811327746,
      "lat": 12.9728027,
      "lon": 77.5296137,
      "tags": {
        "addr:street": "Nagarbhavi Main Road",
        "name": "Go Green Vegetables",
        "shop": "greengrocer",
        "source": "Survey"
      }
    },
    {
      "type": "node",
      "id": 1815059161,
      "lat": 12.9721198,
      "lon": 77.5282623,
      "tags": {
        "amenity": "place_of_worship",
        "name": "Shaneshwara Temple",
        "name:kn": "ಶನೇಶ್ವರ ದೇವಸ್ಥಾನ",
        "religion": "hindu"
      }
    },
    {
      "type": "node",
      "id": 2480869567,
      "lat": 12.9726369,
      "lon": 77.5278728,
      "tags": {
        "addr:city": "Bangalore",
        "addr:housename": "Cauvery layout, Vijayanagar",
        "addr:housenumber": "65",
        "addr:postcode": "560079",
        "addr:street": "2nd Cross",
        "name": "Techno Products",
        "note": "Dealers in Silica Gel based products",
        "phone": "+91 80 2338 1707",
        "shop": "hardware"
      }
    },
    {
      "type": "node",
      "id": 2480884727,
      "lat": 12.9719476,
      "lon": 77.5320111,
      "tags": {
        "addr:city": "Bangalore",
        "addr:housename": "Vijayanagar",
        "addr:postcode": "560040",
        "addr:street": "2nd cross",
        "name": "Divashree General Stores",
        "shop": "department_store"
      }
    },
    {
      "type": "node",
      "id": 2480884728,
      "lat": 12.972547,
      "lon": 77.529541,
      "tags": {
        "addr:city": "Bangalore",
        "addr:housename": "Opp Sarasvati nagar Bus Stop",
        "addr:postcode": "560040",
        "addr:street": "3rd Main Saraswathi nagar",
        "brand": "HOPCOMS",
        "brand:wikidata": "Q22908959",
        "name": "HOPCOMS Vegetables Store",
        "name:kn": "ಹಾಪ್‌ಕಾಮ್ಸ್",
        "shop": "greengrocer"
      }
    },
    {
      "type": "node",
      "id": 2480884731,
      "lat": 12.9720271,
      "lon": 77.5283808,
      "tags": {
        "amenity": "atm",
        "brand": "HDFC Bank",
        "brand:wikidata": "Q631047",
        "name": "HDFC Bank",
        "name:kn": "ಎಚ್. ಡಿ. ಎಫ್. ಸಿ..",
        "operator": "HDFC Bank",
        "operator:wikidata": "Q631047",
        "short_name": "HDFC"
      }
    },
    {
      "type": "node",
      "id": 2509175424,
      "lat": 12.9708639,
      "lon": 77.5265708,
      "tags": {
        "addr:city": "Bangalore",
        "addr:housename": "Kaveri Layout",
        "addr:street": "Nagarabhavi Road",
        "amenity": "place_of_worship",
        "name": "Shaneshwara Temple",
        "name:kn": "ಶನೇಶ್ವರ ದೇವಸ್ಥಾನ",
        "religion": "hindu"
      }
    },
    {
      "type": "node",
      "id": 2509175425,
      "lat": 12.9708325,
      "lon": 77.5267854,
      "tags": {
        "amenity": "atm",
        "brand": "HDFC Bank",
        "brand:wikidata": "Q631047",
        "name": "HDFC Bank",
        "name:kn": "ಎಚ್ ಡಿ ಎಫ್ ಸಿ",
        "operator": "HDFC Bank",
        "operator:wikidata": "Q631047",
        "short_name": "HDFC"
      }
    },
    {
      "type": "node",
      "id": 3861909168,
      "lat": 12.9727202,
      "lon": 77.5294725,
      "tags": {
        "addr:city": "Bangalore",
        "addr:postcode": "560040",
        "addr:street": "3rd Main Saraswathi nagar",
        "name": "Iyengar Bakery",
        "name:kn": "ಐಯ್ಯಂಗಾರ್ ಬೇಕರಿ",
        "shop": "bakery"
      }
    },
    {
      "type": "node",
      "id": 3861909169,
      "lat": 12.9724688,
      "lon": 77.5295366,
      "tags": {
        "addr:city": "Bangalore",
        "addr:postcode": "560040",
        "addr:street": "3rd Main Saraswathi nagar",
        "amenity": "pharmacy",
        "name": "Saraswati Medicals"
      }
    },
    {
      "type": "node",
      "id": 3861909170,
      "lat": 12.9728708,
      "lon": 77.529675,
      "tags": {
        "addr:city": "Bangalore",
        "addr:postcode": "560040",
        "addr:street": "Nagarabhavi Road",
        "leisure": "sports_centre",
        "name": "Oxyfit Gym",
        "sport": "gym"
      }
    },
    {
      "type": "node",
      "id": 4446411046,
      "lat": 12.9698886,
      "lon": 77.5327543,
      "tags": {
        "addr:city": "bangalore",
        "addr:housenumber": "210",
        "addr:postcode": "560040",
        "addr:street": "20th Main Road, Vijay Naga",
        "amenity": "restaurant",
        "cuisine": "regional",
        "name": "Classic inn veg and non veg",
        "opening_hours": "10:00-22:00",
        "phone": "+91 8023505748"
      }
    },
    {
      "type": "node",
      "id": 4446483162,
      "lat": 12.969586,
      "lon": 77.5346634,
      "tags": {
        "addr:city": "Bangalore",
        "addr:housenumber": "1590",
        "addr:postcode": "560040",
        "addr:street": "I Main, 'A' Cross, III Main Road, Chandra Layout, Near Adishwara TV Showroom, Vijay Nagar",
        "amenity": "restaurant",
        "cuisine": "regional",
        "name": "Rotti Mane",
        "opening_hours": "12:00-16:00,18:00-22:00",
        "phone": "+91 9916556311"
      }
    },
    {
      "type": "node",
      "id": 4447079172,
      "lat": 12.9691657,
      "lon": 77.5351921,
      "tags": {
        "addr:city": "Bangalore",
        "addr:district": "Vijayapura",
        "addr:full": "20th B Cross, Marenahalli Main Road, Vijayanagar",
        "addr:housenumber": "51/88",
        "addr:postcode": "560040",
        "addr:state": "Karnataka",
        "addr:street": "20th B Cross, Marenahalli Main Road, Govindaraja Nagar Ward, Vijayanagar",
        "amenity": "hospital",
        "name": "Saikrupa Hospital For Women's and Surgical Centre",
        "operator:type": "private",
        "phone": "+91080 2311 9592",
        "source": "OpenGovernmentData",
        "website": "http://dpal.kar.nic.in/Kanunu%20padakosha%20PDF%20Files/Recognised%20Hospitals.pdf"
      }
    },
    {
      "type": "node",
      "id": 4447104812,
      "lat": 12.9699062,
      "lon": 77.5331512,
      "tags": {
        "addr:city": "Bangalore",
        "addr:housenumber": "315/H",
        "addr:postcode": "560040",
        "addr:street": "9k, Vijaya Nagar, Vijaya Nagar, MRCR Layout, MC Layout",
        "amenity": "pharmacy",
        "name": "Khema Medical Corporation",
        "phone": "080 2311 6416"
      }
    },
    {
      "type": "node",
      "id": 4447213952,
      "lat": 12.9698405,
      "lon": 77.5327211,
      "tags": {
        "addr:city": "Bangalore",
        "addr:housenumber": "17",
        "addr:postcode": "560040",
        "addr:street": "1st Main Rd, Kaveri Layout, Govindaraja Nagar Ward, Anubhav Nagar, Vijayanagar,",
        "amenity": "hospital",
        "name": "Modern Family Doctor Pvt Ltd",
        "phone": "080 2335 2200"
      }
    },
    {
      "type": "node",
      "id": 5882253510,
      "lat": 12.9678888,
      "lon": 77.5350867,
      "tags": {
        "name": "Sim City",
        "shop": "mobile_phone"
      }
    },
    {
      "type": "node",
      "id": 6912968485,
      "lat": 12.9683899,
      "lon": 77.5287202,
      "tags": {
        "amenity": "atm",
        "brand": "State Bank of India",
        "brand:wikidata": "Q1340361",
        "name": "State Bank of India",
        "name:kn": "ಎಸ್ ಬಿ ಐ",
        "operator": "State Bank of India",
        "operator:wikidata": "Q1340361",
        "short_name": "SBI"
      }
    },
    {
      "type": "node",
      "id": 7112491585,
      "lat": 12.9728026,
      "lon": 77.5284941,
      "tags": {
        "amenity": "restaurant",
        "name": "Mangalore Kabab Korner"
      }
    },
    {
      "type": "node",
      "id": 7146671685,
      "lat": 12.9726701,
      "lon": 77.5284772,
      "tags": {
        "amenity": "veterinary",
        "name": "Sunil Pet Clinic"
      }
    },
    {
      "type": "node",
      "id": 7572526696,
      "lat": 12.971816,
      "lon": 77.53183,
      "tags": {
        "addr:district": "Bengaluru Urban",
        "addr:full": "KGS Layout, Govindaraja Nagar Ward, Saraswathi Nagar, Vijayanagar, Bengaluru",
        "addr:postcode": "560040",
        "addr:state": "Karnataka",
        "amenity": "clinic",
        "name": "Archana Clinic",
        "source": "Local Knowledge"
      }
    },
    {
      "type": "node",
      "id": 7572526742,
      "lat": 12.968877,
      "lon": 77.5357939,
      "tags": {
        "addr:district": "Bengaluru Urban",
        "addr:full": "Marenahalli Main Road, CHBS Layout, Vijayanagar, Bengaluru",
        "addr:postcode": "560040",
        "addr:state": "Karnataka",
        "amenity": "clinic",
        "name": "Vasan Eye Care",
        "source": "Local Knowledge"
      }
    },
    {
      "type": "node",
      "id": 7572526763,
      "lat": 12.969102,
      "lon": 77.534951,
      "tags": {
        "addr:district": "Bengaluru Urban",
        "addr:full": "Govindaraja Nagar Ward, PF Layout, Vijayanagar, Bengaluru",
        "addr:postcode": "560040",
        "addr:state": "Karnataka",
        "amenity": "hospital",
        "name": "Suhusannidhi Hospital",
        "source": "Local Knowledge"
      }
    },
    {
      "type": "node",
      "id": 7572526792,
      "lat": 12.976379,
      "lon": 77.524439,
      "tags": {
        "addr:district": "Bengaluru Urban",
        "addr:full": "Srinivasnagar, Amarajyothi Nagar, Vijayanagar, Bengaluru",
        "addr:postcode": "560072",
        "addr:state": "Karnataka",
        "amenity": "hospital",
        "name": "Sumati Hospital",
        "source": "Local Knowledge"
      }
    },
    {
      "type": "node",
      "id": 7572526796,
      "lat": 12.9706942,
      "lon": 77.5264675,
      "tags": {
        "addr:district": "Bengaluru Urban",
        "addr:full": "Huchappa Layout, Govindaraja Nagar Ward, Vijayanagar, Bengaluru",
        "addr:postcode": "560072",
        "addr:state": "Karnataka",
        "amenity": "clinic",
        "name": "Alpha Ortho Clinic",
        "source": "Local Knowledge"
      }
    },
    {
      "type": "node",
      "id": 7572526804,
      "lat": 12.9698787,
      "lon": 77.5332834,
      "tags": {
        "addr:district": "Bengaluru Urban",
        "addr:full": "Vijaya Nagar, Bengaluru",
        "addr:postcode": "560040",
        "addr:state": "Karnataka",
        "amenity": "hospital",
        "name": "Sastry Memorial Hospital",
        "source": "Local Knowledge"
      }
    },
    {
      "type": "node",
      "id": 8137973817,
      "lat": 12.9679021,
      "lon": 77.5349841,
      "tags": {
        "name": "Vijaya Karadant",
        "shop": "confectionery"
      }
    },
    {
      "type": "node",
      "id": 8145728689,
      "lat": 12.9683121,
      "lon": 77.5287383,
      "tags": {
        "shop": "bakery"
      }
    },
    {
      "type": "node",
      "id": 8178689717,
      "lat": 12.9683542,
      "lon": 77.5335864,
      "tags": {
        "addr:street": "21st Main Road",
        "name": "Ranganath Iyyangar Bakery",
        "shop": "bakery"
      }
    },
    {
      "type": "way",
      "id": 169718958,
      "center": {
        "lat": 12.9725584,
        "lon": 77.5298576
      },
      "tags": {
        "leisure": "park"
      }
    },
    {
      "type": "way",
      "id": 169800534,
      "center": {
        "lat": 12.971915,
        "lon": 77.5336323
      },
      "tags": {
        "leisure": "playground"
      }
    },
    {
      "type": "way",
      "id": 169800537,
      "center": {
        "lat": 12.9712816,
        "lon": 77.5334239
      },
      "tags": {
        "leisure": "park"
      }
    },
    {
      "type": "way",
      "id": 169800538,
      "center": {
        "lat": 12.970928,
        "lon": 77.5333063
      },
      "tags": {
        "leisure": "park"
      }
    },
    {
      "type": "way",
      "id": 1258216441,
      "center": {
        "lat": 12.9698249,
        "lon": 77.5279044
      },
      "tags": {
        "landuse": "recreation_ground",
        "leisure": "sports_centre",
        "name": "Krantiveera Sangolli Rayanna Ground",
        "name:etymology:wikidata": "Q10983724",
        "name:kn": "ಕ್ರಾಂತಿವೀರ ಸಂಗೊಳ್ಳಿ ರಾಯಣ್ಣ ಮೈದಾನ"
      }
    },
    {
      "type": "way",
      "id": 1343740699,
      "center": {
        "lat": 12.9721617,
        "lon": 77.5291013
      },
      "tags": {
        "amenity": "place_of_worship",
        "name": "Anjaneya Swami Temple",
        "name:kn": "ಆಂಜನೇಯ ಸ್ವಾಮಿ ದೇವಸ್ಥಾನ",
        "religion": "hindu",
        "source": "Survey"
      }
    }
  ]
}