{
  "area_name": "Mavalli",
  "osm_id": 429876575,
  "osm_type": "node",
  "place_type": "neighbourhood",
  "amenity_count": 603,
  "amenities": [
    {
      "type": "node",
      "id": 429833271,
      "lat": 12.9550389,
      "lon": 77.5854279,
      "tags": {
        "addr:housenumber": "14",
        "addr:postcode": "560027",
        "addr:street": "Lalbagh Road",
        "alt_name": "MTR",
        "amenity": "restaurant",
        "name": "Mavalli Tiffin Rooms",
        "name:kn": "ಮಾವಳ್ಳಿ ಟಿಫಿನ್ ರೂಮ್ಸ್ - ಎಂಟಿಆರ್",
        "opening_hours": "Tu-Su 06:30-11:00, 12:30-21:00",
        "phone": "+918022220022",
        "short_name": "MTR",
        "start_date": "1924",
        "website": "http://www.mavallitiffinrooms.com",
        "wheelchair": "no",
        "wikidata": "Q6794121",
        "wikimedia_commons": "Category:Mavalli Tiffin Room",
        "wikipedia": "en:Mavalli Tiffin Room"
      }
    },
    {
      "type": "node",
      "id": 459471357,
      "lat": 12.954643,
      "lon": 77.5858156,
      "tags": {
        "amenity": "parking"
      }
    },
    {
      "type": "node",
      "id": 517874448,
      "lat": 12.9514719,
      "lon": 77.5774905,
      "tags": {
        "amenity": "fast_food",
        "name": "Rajasthani Parotha Point"
      }
    },
    {
      "type": "node",
      "id": 517874452,
      "lat": 12.9510029,
      "lon": 77.5776381,
      "tags": {
        "amenity": "fast_food",
        "name": "Arya Vysya Refreshments"
      }
    },
    {
      "type": "node",
      "id": 517874453,
      "lat": 12.9506894,
      "lon": 77.5786753,
      "tags": {
        "amenity": "restaurant"
      }
    },
    {
      "type": "node",
      "id": 517874458,
      "lat": 12.9505258,
      "lon": 77.5785913,
      "tags": {
        "amenity": "restaurant"
      }
    },
    {
      "type": "node",
      "id": 517874459,
      "lat": 12.9507057,
      "lon": 77.5784906,
      "tags": {
        "amenity": "restaurant"
      }
    },
    {
      "type": "node",
      "id": 517874462,
      "lat": 12.9510696,
      "lon": 77.5775371,
      "tags": {
        "name": "Mumbai Badam & Lassi Center",
        "shop": "beverages"
      }
    },
    {
      "type": "node",
      "id": 517874463,
      "lat": 12.9512912,
      "lon": 77.5774906,
      "tags": {
        "amenity": "fast_food"
      }
    },
    {
      "type": "node",
      "id": 517874464,
      "lat": 12.9522306,
      "lon": 77.5897955,
      "tags": {
        "amenity": "restaurant"
      }
    },
    {
      "type": "node",
      "id": 517874468,
      "lat": 12.9532525,
      "lon": 77.57754,
      "tags": {
        "amenity": "atm",
        "brand": "Canara Bank",
        "brand:en": "Canara Bank",
        "brand:hi": "केनरा बैंक",
        "brand:kn": "ಕೆನರಾ ಬ್ಯಾಂಕ್",
        "brand:pa": "ਕੇਨਰਾ ਬੈਂਕ",
        "brand:pnb": "کینرا بینک",
        "brand:ur": "کینرا بینک",
        "brand:wikidata": "Q2003777",
        "name": "Canara Bank",
        "name:en": "Canara Bank",
        "name:hi": "केनरा बैंक",
        "name:kn": "ಕೆನರಾ ಬ್ಯಾಂಕ್",
        "name:pa": "ਕੇਨਰਾ ਬੈਂਕ",
        "name:pnb": "کینرا بینک",
        "name:ur": "کینرا بینک",
        "operator": "Canara Bank",
        "operator:wikidata": "Q2003777"
      }
    },
    {
      "type": "node",
      "id": 594206377,
      "lat": 12.9571863,
      "lon": 77.5862334,
      "tags": {
        "addr:street": "Lalbagh Road",
        "amenity": "fuel",
        "brand": "Indian Oil",
        "brand:wikidata": "Q1289348",
        "brand:wikipedia": "en:Indian Oil Corporation",
        "name": "Indian Oil",
        "name:kn": "ಇಂಡಿಯನ್ ಆಯಿಲ್"
      }
    },
    {
      "type": "node",
      "id": 676872647,
      "lat": 12.9478734,
      "lon": 77.580172,
      "tags": {
        "amenity": "toilets",
        "check_date": "2022-08-11",
        "fee": "yes",
        "wheelchair": "no"
      }
    },
    {
      "type": "node",
      "id": 676872668,
      "lat": 12.9538673,
      "lon": 77.5849624,
      "tags": {
        "amenity": "toilets",
        "fee": "yes",
        "wheelchair": "no"
      }
    },
    {
      "type": "node",
      "id": 683352653,
      "lat": 12.9484631,
      "lon": 77.5798653,
      "tags": {
        "amenity": "atm",
        "brand": "Citibank",
        "brand:wikidata": "Q857063",
        "name": "Citibank",
        "name:kn": "ಸಿಟಿಬ್ಯಾಂಕ್",
        "operator": "Citibank",
        "operator:wikidata": "Q857063",
        "short_name": "Citi",
        "wheelchair": "no"
      }
    },
    {
      "type": "node",
      "id": 683352668,
      "lat": 12.9576358,
      "lon": 77.5822053,
      "tags": {
        "addr:street": "Jayachamaraja Wodeyar Road",
        "amenity": "toilets"
      }
    },
    {
      "type": "node",
      "id": 683352686,
      "lat": 12.950253,
      "lon": 77.5868038,
      "tags": {
        "amenity": "toilets"
      }
    },
    {
      "type": "node",
      "id": 762086049,
      "lat": 12.9489556,
      "lon": 77.5762549,
      "tags": {
        "amenity": "public_building",
        "name": "Kanyaka Parameshwari Nilaya"
      }
    },
    {
      "type": "node",
      "id": 1085786951,
      "lat": 12.9452313,
      "lon": 77.5861734,
      "tags": {
        "addr:street": "Siddapura Road",
        "amenity": "hospital",
        "name": "Lalbagh Nursing Home",
        "name:kn": "ಲಾಲ್ಬಾಗ್ ನರ್ಸಿಂಗ್ ಹೋಂ"
      }
    },
    {
      "type": "node",
      "id": 1323652934,
      "lat": 12.9551259,
      "lon": 77.5741985,
      "tags": {
        "addr:city": "V V Puram, Bangalore",
        "addr:postcode": "560004",
        "addr:street": "Krishna Rajendra Road",
        "amenity": "college",
        "email": "chairman_bit@yahoo.in",
        "fax": "+91-80-26526796",
        "name": "Bangalore Institute of Technology",
        "name:kn": "ಬೆಂಗಳೂರು ತಂತ್ರಿಕ ಮಹಾವಿದ್ಯಾಲಯ",
        "phone": "+91-80-26615865;+91-80-26613237",
        "website": "http://www.bit-bangalore.org",
        "wheelchair": "no",
        "wikidata": "Q4855053",
        "wikimedia_commons": "Category:Bangalore Institute of Technology",
        "wikipedia": "en:Bangalore Institute of Technology"
      }
    },
    {
      "type": "node",
      "id": 1323663813,
      "lat": 12.9564316,
      "lon": 77.5741194,
      "tags": {
        "addr:city": "V V Puram, Bangalore",
        "addr:postcode": "560004",
        "addr:street": "Krishna Rajendra Road",
        "amenity": "college",
        "name": "Kempegowda Institute of Medical Sciences",
        "wikidata": "Q6387052",
        "wikipedia": "en:Kempegowda Institute of Medical Sciences"
      }
    },
    {
      "type": "node",
      "id": 1323663819,
      "lat": 12.9541058,
      "lon": 77.5741524,
      "tags": {
        "addr:city": "V V Puram, Bangalore",
        "addr:postcode": "560004",
        "addr:street": "Krishna Rajendra Road",
        "amenity": "college",
        "name": "VV Puram College of Arts and Commerce",
        "wheelchair": "limited"
      }
    },
    {
      "type": "node",
      "id": 1466730665,
      "lat": 12.948348,
      "lon": 77.5807071,
      "tags": {
        "amenity": "fountain"
      }
    },
    {
      "type": "node",
      "id": 1466731141,
      "lat": 12.9518933,
      "lon": 77.5848336,
      "tags": {
        "amenity": "fountain"
      }
    },
    {
      "type": "node",
      "id": 1617398461,
      "lat": 12.9554704,
      "lon": 77.5801737,
      "tags": {
        "amenity": "restaurant",
        "cuisine": "indian",
        "name": "Kamat Minerva",
        "name:kn": "ಕಾಮತ್ ಮಿನರ್ವ"
      }
    },
    {
      "type": "node",
      "id": 1617398481,
      "lat": 12.9596642,
      "lon": 77.5829322,
      "tags": {
        "amenity": "fuel",
        "brand": "BP"
      }
    },
    {
      "type": "node",
      "id": 1791587673,
      "lat": 12.9554779,
      "lon": 77.5733626,
      "tags": {
        "addr:street": "Krishna Rajendra Road",
        "amenity": "theatre",
        "name": "Gayana Samaja",
        "name:kn": "ಗಾಯನ ಸಮಾಜ",
        "wheelchair": "no"
      }
    },
    {
      "type": "node",
      "id": 1791591267,
      "lat": 12.9544584,
      "lon": 77.5733572,
      "tags": {
        "amenity": "atm",
        "brand": "Corporation Bank",
        "brand:wikidata": "Q2003387",
        "fee": "no",
        "name": "Corporation Bank",
        "name:kn": "ಕಾರ್ಪರೇಷನ್ ಬ್ಯಾಂಕ್",
        "operator": "Corporation Bank",
        "operator:wikidata": "Q2003387"
      }
    },
    {
      "type": "node",
      "id": 1791944697,
      "lat": 12.9587388,
      "lon": 77.5789933,
      "tags": {
        "amenity": "place_of_worship",
        "name": "Mariswamy Matha",
        "name:kn": "ಮರಿಸ್ವಾಮಿ ಮಠ",
        "religion": "hindu"
      }
    },
    {
      "type": "node",
      "id": 1791962125,
      "lat": 12.9552387,
      "lon": 77.5790523,
      "tags": {
        "amenity": "restaurant",
        "cuisine": "indian",
        "name": "Nandini",
        "name:kn": "ನಂದಿನಿ",
        "wheelchair": "no"
      }
    },
    {
      "type": "node",
      "id": 1791962421,
      "lat": 12.9526875,
      "lon": 77.5767885,
      "tags": {
        "addr:city": "Bengaluru",
        "addr:postcode": "560004",
        "addr:street": "Sajjan Rao Circle",
        "amenity": "place_of_worship",
        "name": "Sri Shanidevara Temple",
        "name:kn": "ಶನಿದೇವರ ದೇವಸ್ಥಾನ",
        "religion": "hindu"
      }
    },
    {
      "type": "node",
      "id": 1791971124,
      "lat": 12.952102,
      "lon": 77.5763325,
      "tags": {
        "amenity": "place_of_worship",
        "name": "Satyanarayana Temple",
        "name:kn": "ಸತ್ಯನಾರಾಯಣ ಗುಡಿ",
        "religion": "hindu"
      }
    },
    {
      "type": "node",
      "id": 1794017010,
      "lat": 12.9452338,
      "lon": 77.579897,
      "tags": {
        "addr:street": "Rashtriya Vidyalaya Road",
        "name": "Madhiraa",
        "shop": "alcohol"
      }
    },
    {
      "type": "node",
      "id": 1916532789,
      "lat": 12.9543124,
      "lon": 77.5786901,
      "tags": {
        "name": "NMH Bakery",
        "shop": "bakery"
      }
    },
    {
      "type": "node",
      "id": 1916533478,
      "lat": 12.9535215,
      "lon": 77.5780606,
      "tags": {
        "amenity": "pharmacy",
        "healthcare": "pharmacy",
        "name": "Kasturi Medicals"
      }
    },
    {
      "type": "node",
      "id": 1916600665,
      "lat": 12.9489694,
      "lon": 77.577188,
      "tags": {
        "amenity": "fast_food",
        "name": "Sri Vasavi Condiments",
        "name:kn": "ಬಸವನಗುಡಿ ಟಿಫಿನ್ ರೂಮ್",
        "wheelchair": "no"
      }
    },
    {
      "type": "node",
      "id": 2057197440,
      "lat": 12.9491655,
      "lon": 77.5798273,
      "tags": {
        "amenity": "restaurant",
        "cuisine": "indian",
        "name": "Kamat",
        "name:kn": "ಕಾಮತ್",
        "operator": "Kamat",
        "wheelchair": "no"
      }
    },
    {
      "type": "node",
      "id": 2057197603,
      "lat": 12.9479149,
      "lon": 77.5794869,
      "tags": {
        "amenity": "fuel",
        "brand": "Bharat Petroleum",
        "brand:wikidata": "Q854826",
        "name": "Bharat Petroleum",
        "name:kn": "ಭಾರತ್ ಪೆಟ್ರೋಲಿಯಂ",
        "operator": "Bharat Petroleum"
      }
    },
    {
      "type": "node",
      "id": 2405794811,
      "lat": 12.9444702,
      "lon": 77.5847747,
      "tags": {
        "amenity": "college",
        "name": "Horticulture Training Center"
      }
    },
    {
      "type": "node",
      "id": 2405795060,
      "lat": 12.9511502,
      "lon": 77.5869158,
      "tags": {
        "amenity": "bench"
      }
    },
    {
      "type": "node",
      "id": 2405795064,
      "lat": 12.9512344,
      "lon": 77.5870455,
      "tags": {
        "amenity": "bench"
      }
    },
    {
      "type": "node",
      "id": 2405795081,
      "lat": 12.9514672,
      "lon": 77.5869825,
      "tags": {
        "amenity": "bench"
      }
    },
    {
      "type": "node",
      "id": 2405795088,
      "lat": 12.9515214,
      "lon": 77.5863056,
      "tags": {
        "amenity": "bench"
      }
    },
    {
      "type": "node",
      "id": 2405795096,
      "lat": 12.9515785,
      "lon": 77.5869766,
      "tags": {
        "amenity": "bench"
      }
    },
    {
      "type": "node",
      "id": 2405795103,
      "lat": 12.9516947,
      "lon": 77.5876117,
      "tags": {
        "amenity": "bench",
        "source": "survey"
      }
    },
    {
      "type": "node",
      "id": 2405795104,
      "lat": 12.9517501,
      "lon": 77.5874235,
      "tags": {
        "amenity": "bench",
        "source": "survey"
      }
    },
    {
      "type": "node",
      "id": 2405795106,
      "lat": 12.9518415,
      "lon": 77.5874529,
      "tags": {
        "amenity": "bench",
        "source": "survey"
      }
    },
    {
      "type": "node",
      "id": 2405795107,
      "lat": 12.951798,
      "lon": 77.5871966,
      "tags": {
        "amenity": "bench",
        "source": "survey"
      }
    },
    {
      "type": "node",
      "id": 2405825519,
      "lat": 12.9439037,
      "lon": 77.5819302,
      "tags": {
        "amenity": "waste_basket",
        "check_date": "2023-12-30",
        "source": "survey"
      }
    },
    {
      "type": "node",
      "id": 2405825526,
      "lat": 12.9439687,
      "lon": 77.5807339,
      "tags": {
        "amenity": "waste_basket",
        "source": "survey"
      }
    },
    {
      "type": "node",
      "id": 2405825551,
      "lat": 12.9448672,
      "lon": 77.5803081,
      "tags": {
        "amenity": "waste_basket",
        "source": "survey"
      }
    },
    {
      "type": "node",
      "id": 2405825652,
      "lat": 12.9463416,
      "lon": 77.5802948,
      "tags": {
        "amenity": "waste_basket",
        "source": "survey"
      }
    },
    {
      "type": "node",
      "id": 2405825692,
      "lat": 12.946762,
      "lon": 77.5878507,
      "tags": {
        "amenity": "toilets",
        "check_date": "2023-12-30",
        "fee": "no",
        "wheelchair": "limited"
      }
    },
    {
      "type": "node",
      "id": 2405825701,
      "lat": 12.9469828,
      "lon": 77.5878466,
      "tags": {
        "amenity": "bench",
        "backrest": "yes",
        "source": "survey"
      }
    },
    {
      "type": "node",
      "id": 2405825703,
      "lat": 12.9470536,
      "lon": 77.5876073,
      "tags": {
        "amenity": "bench",
        "source": "survey"
      }
    },
    {
      "type": "node",
      "id": 2405825716,
      "lat": 12.9471294,
      "lon": 77.5803062,
      "tags": {
        "amenity": "waste_basket",
        "source": "survey"
      }
    },
    {
      "type": "node",
      "id": 2405825725,
      "lat": 12.9472067,
      "lon": 77.5879731,
      "tags": {
        "amenity": "bench",
        "backrest": "yes",
        "source": "survey"
      }
    },
    {
      "type": "node",
      "id": 2405825735,
      "lat": 12.9473435,
      "lon": 77.5880273,
      "tags": {
        "amenity": "bench",
        "backrest": "yes",
        "source": "survey"
      }
    },
    {
      "type": "node",
      "id": 2405825763,
      "lat": 12.9477956,
      "lon": 77.5877137,
      "tags": {
        "amenity": "bench",
        "backrest": "yes",
        "source": "survey"
      }
    },
    {
      "type": "node",
      "id": 2405825764,
      "lat": 12.9478144,
      "lon": 77.5875842,
      "tags": {
        "amenity": "waste_basket",
        "check_date": "2023-12-30",
        "source": "survey"
      }
    },
    {
      "type": "node",
      "id": 2405825767,
      "lat": 12.9478271,
      "lon": 77.5863571,
      "tags": {
        "amenity": "waste_basket",
        "source": "survey"
      }
    },
    {
      "type": "node",
      "id": 2405825768,
      "lat": 12.947839,
      "lon": 77.5877187,
      "tags": {
        "amenity": "bench",
        "backrest": "yes",
        "source": "survey"
      }
    },
    {
      "type": "node",
      "id": 2405825771,
      "lat": 12.9478509,
      "lon": 77.5864907,
      "tags": {
        "amenity": "waste_basket",
        "source": "survey"
      }
    },
    {
      "type": "node",
      "id": 2405825778,
      "lat": 12.9478878,
      "lon": 77.5803242,
      "tags": {
        "amenity": "waste_basket",
        "source": "survey"
      }
    },
    {
      "type": "node",
      "id": 2405825782,
      "lat": 12.9482156,
      "lon": 77.5804124,
      "tags": {
        "amenity": "waste_basket",
        "source": "survey"
      }
    },
    {
      "type": "node",
      "id": 2405825783,
      "lat": 12.9482178,
      "lon": 77.588168,
      "tags": {
        "amenity": "bench",
        "backrest": "yes",
        "source": "survey"
      }
    },
    {
      "type": "node",
      "id": 2405825785,
      "lat": 12.9482347,
      "lon": 77.5881112,
      "tags": {
        "amenity": "bench",
        "backrest": "yes",
        "source": "survey"
      }
    },
    {
      "type": "node",
      "id": 2405825786,
      "lat": 12.9483029,
      "lon": 77.5881244,
      "tags": {
        "amenity": "bench",
        "backrest": "yes",
        "source": "survey"
      }
    },
    {
      "type": "node",
      "id": 2405825792,
      "lat": 12.948499,
      "lon": 77.5805392,
      "tags": {
        "amenity": "bench",
        "source": "survey"
      }
    },
    {
      "type": "node",
      "id": 2405825793,
      "lat": 12.9485333,
      "lon": 77.5805682,
      "tags": {
        "amenity": "bench",
        "source": "survey"
      }
    },
    {
      "type": "node",
      "id": 2405825795,
      "lat": 12.9485561,
      "lon": 77.5806108,
      "tags": {
        "amenity": "bench",
        "source": "survey"
      }
    },
    {
      "type": "node",
      "id": 2405825799,
      "lat": 12.9487692,
      "lon": 77.5807426,
      "tags": {
        "amenity": "waste_basket",
        "source": "survey"
      }
    },
    {
      "type": "node",
      "id": 2405825801,
      "lat": 12.9489742,
      "lon": 77.581104,
      "tags": {
        "amenity": "waste_basket",
        "source": "survey"
      }
    },
    {
      "type": "node",
      "id": 2405825802,
      "lat": 12.9491435,
      "lon": 77.5814435,
      "tags": {
        "amenity": "waste_basket",
        "source": "survey"
      }
    },
    {
      "type": "node",
      "id": 2405825810,
      "lat": 12.9497025,
      "lon": 77.5824372,
      "tags": {
        "amenity": "waste_basket",
        "source": "survey"
      }
    },
    {
      "type": "node",
      "id": 2405825812,
      "lat": 12.950308,
      "lon": 77.5825568,
      "tags": {
        "amenity": "waste_basket",
        "source": "survey"
      }
    },
    {
      "type": "node",
      "id": 2405825815,
      "lat": 12.9508018,
      "lon": 77.5827007,
      "tags": {
        "amenity": "waste_basket",
        "source": "survey"
      }
    },
    {
      "type": "node",
      "id": 2405825820,
      "lat": 12.9510578,
      "lon": 77.5829803,
      "tags": {
        "amenity": "place_of_worship",
        "religion": "hindu"
      }
    },
    {
      "type": "node",
      "id": 2405825822,
      "lat": 12.9511577,
      "lon": 77.5830201,
      "tags": {
        "amenity": "waste_basket",
        "source": "survey"
      }
    },
    {
      "type": "node",
      "id": 2405825827,
      "lat": 12.9517776,
      "lon": 77.5832251,
      "tags": {
        "amenity": "waste_basket",
        "source": "survey"
      }
    },
    {
      "type": "node",
      "id": 2405825830,
      "lat": 12.9521119,
      "lon": 77.5834209,
      "tags": {
        "amenity": "waste_basket",
        "source": "survey"
      }
    },
    {
      "type": "node",
      "id": 2405873559,
      "lat": 12.95148,
      "lon": 77.5863456,
      "tags": {
        "amenity": "waste_basket",
        "source": "survey"
      }
    },
    {
      "type": "node",
      "id": 2405873562,
      "lat": 12.9515158,
      "lon": 77.5861858,
      "tags": {
        "amenity": "bench"
      }
    },
    {
      "type": "node",
      "id": 2405873568,
      "lat": 12.951628,
      "lon": 77.5861083,
      "tags": {
        "amenity": "waste_basket",
        "source": "survey"
      }
    },
    {
      "type": "node",
      "id": 2405873570,
      "lat": 12.9516584,
      "lon": 77.5860843,
      "tags": {
        "amenity": "bench"
      }
    },
    {
      "type": "node",
      "id": 2405873588,
      "lat": 12.9521776,
      "lon": 77.5856078,
      "tags": {
        "amenity": "waste_basket",
        "source": "survey"
      }
    },
    {
      "type": "node",
      "id": 2405873593,
      "lat": 12.9522688,
      "lon": 77.5835284,
      "tags": {
        "amenity": "bench",
        "source": "survey"
      }
    },
    {
      "type": "node",
      "id": 2405873600,
      "lat": 12.9524849,
      "lon": 77.5855716,
      "tags": {
        "amenity": "waste_basket",
        "source": "survey"
      }
    },
    {
      "type": "node",
      "id": 2405873611,
      "lat": 12.9528197,
      "lon": 77.5855106,
      "tags": {
        "amenity": "waste_basket",
        "source": "survey"
      }
    },
    {
      "type": "node",
      "id": 2405873618,
      "lat": 12.9529213,
      "lon": 77.5838722,
      "tags": {
        "amenity": "bench",
        "source": "survey"
      }
    },
    {
      "type": "node",
      "id": 2405873621,
      "lat": 12.9530637,
      "lon": 77.5854007,
      "tags": {
        "amenity": "waste_basket",
        "source": "survey"
      }
    },
    {
      "type": "node",
      "id": 2405873635,
      "lat": 12.953689,
      "lon": 77.584188,
      "tags": {
        "amenity": "waste_basket",
        "source": "survey"
      }
    },
    {
      "type": "node",
      "id": 2600851625,
      "lat": 12.954627,
      "lon": 77.5905488,
      "tags": {
        "addr:city": "Bangalore",
        "addr:housename": "Nyaya Degula",
        "addr:housenumber": "6/69",
        "addr:postcode": "560027",
        "addr:street": "H. Siddiah Road",
        "amenity": "courthouse",
        "name": "Family & Labour Courts",
        "operator": "Government of Karnataka",
        "phone": "00918022221526",
        "website": "http://karnatakajudiciary.kar.nic.in",
        "wheelchair": "yes"
      }
    },
    {
      "type": "node",
      "id": 2600852209,
      "lat": 12.9547787,
      "lon": 77.5906007,
      "tags": {
        "addr:city": "Bangalore",
        "addr:housename": "Nyaya Degula",
        "addr:housenumber": "6/69",
        "addr:postcode": "560027",
        "addr:street": "H. Siddiah Road",
        "amenity": "courthouse",
        "check_date": "2023-04-05",
        "name": "Karnataka State Legal Services Authority",
        "source": "survey",
        "website": "http://www.kslsa.kar.nic.in/",
        "wheelchair": "yes"
      }
    },
    {
      "type": "node",
      "id": 2868502488,
      "lat": 12.9573933,
      "lon": 77.582077,
      "tags": {
        "amenity": "bank",
        "atm": "yes",
        "brand": "Dena Bank",
        "brand:wikidata": "Q3595747",
        "brand:wikipedia": "en:Dena Bank",
        "name": "Dena Bank",
        "name:en": "Dena Bank",
        "name:kn": "ದೇನ ಬ್ಯಾಂಕ್",
        "operator": "Dena Bank",
        "website": "http://www.denabank.com"
      }
    },
    {
      "type": "node",
      "id": 3010263823,
      "lat": 12.9540038,
      "lon": 77.5801262,
      "tags": {
        "amenity": "bank",
        "atm": "yes",
        "brand": "Karnataka Bank",
        "brand:wikidata": "Q2042632",
        "name": "Karnataka Bank",
        "name:kn": "ಕರ್ನಾಟಕ ಬ್ಯಾಂಕ್",
        "operator": "Karnataka Bank",
        "source": "voice, GPS"
      }
    },
    {
      "type": "node",
      "id": 3010263824,
      "lat": 12.9606096,
      "lon": 77.5835432,
      "tags": {
        "amenity": "bank",
        "brand": "State Bank of India",
        "brand:wikidata": "Q1340361",
        "brand:wikipedia": "en:State Bank of India",
        "name": "State Bank of India",
        "name:kn": "ಭಾರತೀಯ ಸ್ಟೇಟ್ ಬ್ಯಾಂಕ್",
        "short_name": "SBI",
        "source": "voice, GPS",
        "website": "https://www.sbi.co.in"
      }
    },
    {
      "type": "node",
      "id": 3010263825,
      "lat": 12.9579091,
      "lon": 77.5823797,
      "tags": {
        "amenity": "bank",
        "atm": "no",
        "brand": "State Bank of India",
        "brand:wikidata": "Q1340361",
        "brand:wikipedia": "en:State Bank of India",
        "name": "State Bank of India",
        "name:kn": "ಭಾರತೀಯ ಸ್ಟೇಟ್ ಬ್ಯಾಂಕ್",
        "operator": "State Bank of India",
        "short_name": "SBI",
        "source": "voice, GPS"
      }
    },
    {
      "type": "node",
      "id": 3010263826,
      "lat": 12.9503526,
      "lon": 77.579806,
      "tags": {
        "amenity": "bank",
        "atm": "no",
        "branch": "Zonal Office",
        "brand": "Syndicate Bank",
        "brand:wikidata": "Q2004088",
        "name": "Syndicate Bank",
        "name:en": "Syndicate Bank",
        "name:kn": "ಸಿಂಡಿಕೇಟ್ ಬ್ಯಾಂಕ್",
        "source": "voice, GPS",
        "website": "https://www.syndicatebank.in",
        "wikimedia_commons": "Category:Syndicate Bank"
      }
    },
    {
      "type": "node",
      "id": 3391134548,
      "lat": 12.9554901,
      "lon": 77.5854638,
      "tags": {
        "name": "Helmet Paradise",
        "shop": "variety_store"
      }
    },
    {
      "type": "node",
      "id": 3602709124,
      "lat": 12.9524597,
      "lon": 77.5773297,
      "tags": {
        "addr:city": "Bengaluru",
        "addr:housenumber": "53-58, 3rd Floor, Chakravarthi Complex",
        "addr:postcode": "560004",
        "addr:street": "Sajjan Rao Circle",
        "name": "Asus / Dell Service Center",
        "name:en": "Regenersis India Private Limited",
        "phone": "00918041205444",
        "shop": "electronics",
        "website": "http://www.regenersis.in"
      }
    },
    {
      "type": "node",
      "id": 3602709659,
      "lat": 12.9526217,
      "lon": 77.5773377,
      "tags": {
        "addr:city": "Bengaluru",
        "addr:postcode": "560004",
        "addr:street": "Sajjan Rao Circle",
        "name": "Maiyas Store",
        "operator": "Maiyas",
        "shop": "department_store"
      }
    },
    {
      "type": "node",
      "id": 3602713244,
      "lat": 12.9522009,
      "lon": 77.5773216,
      "tags": {
        "addr:city": "Bengaluru",
        "addr:postcode": "560004",
        "addr:street": "Sajjan Rao Circle",
        "amenity": "atm",
        "brand": "ICICI Bank",
        "brand:wikidata": "Q1653258",
        "drive_through": "no",
        "name": "ICICI Bank",
        "name:kn": "ಐಸಿಐಸಿಐ ಬ್ಯಾಂಕು",
        "operator": "ICICI Bank",
        "operator:wikidata": "Q1653258",
        "short_name": "ICICI"
      }
    },
    {
      "type": "node",
      "id": 3602725890,
      "lat": 12.9517068,
      "lon": 77.5769729,
      "tags": {
        "addr:city": "Bengaluru",
        "addr:postcode": "560004",
        "addr:street": "Sajjan Rao Circle",
        "name": "Harsha Enterprises",
        "opening_hours": "Mo-Fr 10:00-17:30",
        "operator": "Bharath Gas",
        "shop": "energy"
      }
    },
    {
      "type": "node",
      "id": 3602728203,
      "lat": 12.9508789,
      "lon": 77.5770446,
      "tags": {
        "addr:city": "Bengaluru",
        "addr:postcode": "560004",
        "addr:street": "Vasavi Temple Road",
        "amenity": "place_of_worship",
        "name": "Vasavi Temple",
        "name:kn": "ವಾಸವಿ ದೇವಸ್ಥಾನ",
        "religion": "hindu"
      }
    },
    {
      "type": "node",
      "id": 3602945368,
      "lat": 12.9506501,
      "lon": 77.5779992,
      "tags": {
        "addr:postcode": "560004",
        "name": "Nandini Milk Parlour",
        "name:kn": "ನಂದಿನಿ ಹಾಲಿನ ಅಂಗಡಿ",
        "operator": "Karnataka Milk Federation",
        "shop": "dairy"
      }
    },
    {
      "type": "node",
      "id": 3603077928,
      "lat": 12.9516486,
      "lon": 77.5770722,
      "tags": {
        "addr:city": "Bengaluru",
        "addr:postcode": "560004",
        "addr:street": "Old Market Street",
        "name": "V B Bakery",
        "shop": "bakery"
      }
    },
    {
      "type": "node",
      "id": 4128058314,
      "lat": 12.9554504,
      "lon": 77.574569,
      "tags": {
        "amenity": "theatre"
      }
    },
    {
      "type": "node",
      "id": 4130960494,
      "lat": 12.9613262,
      "lon": 77.5820185,
      "tags": {
        "amenity": "place_of_worship",
        "name:kn": "ಮಸೀದಿ",
        "religion": "muslim"
      }
    },
    {
      "type": "node",
      "id": 4130960995,
      "lat": 12.9615699,
      "lon": 77.5804526,
      "tags": {
        "amenity": "school",
        "name": "Government School",
        "name:kn": "ಸರ್ಕಾರಿ ಶಾಲೆ"
      }
    },
    {
      "type": "node",
      "id": 4173858166,
      "lat": 12.9476142,
      "lon": 77.5797544,
      "tags": {
        "amenity": "restaurant",
        "cuisine": "indian",
        "name": "Meera Delicacy"
      }
    },
    {
      "type": "node",
      "id": 4304707389,
      "lat": 12.9591122,
      "lon": 77.5764973,
      "tags": {
        "addr:street": "Albert Victor Road",
        "name": "Ambica Travels",
        "shop": "travel_agency"
      }
    },
    {
      "type": "node",
      "id": 4349257796,
      "lat": 12.9515064,
      "lon": 77.5902414,
      "tags": {
        "amenity": "bicycle_parking"
      }
    },
    {
      "type": "node",
      "id": 4349307190,
      "lat": 12.9532485,
      "lon": 77.5873773,
      "tags": {
        "amenity": "place_of_worship",
        "name": "Dargah Hazrat Atulla Shah",
        "place_of_worship": "shrine",
        "religion": "muslim"
      }
    },
    {
      "type": "node",
      "id": 4349307192,
      "lat": 12.9485535,
      "lon": 77.5748248,
      "tags": {
        "amenity": "hospital",
        "check_date": "2024-03-09",
        "healthcare:speciality": "gynaecology",
        "name": "Sagar Chandramma Hospitals",
        "name:en": "Sagar Chandramma Hospitals"
      }
    },
    {
      "type": "node",
      "id": 4349317390,
      "lat": 12.954324,
      "lon": 77.5850242,
      "tags": {
        "amenity": "restaurant",
        "name": "Anand Bhavan",
        "name:en": "New Udupi Anand Bhavan",
        "name:kn": "ಆನಂದ್ ಭಾವನ್"
      }
    },
    {
      "type": "node",
      "id": 4349376591,
      "lat": 12.9450878,
      "lon": 77.5857378,
      "tags": {
        "name": "Naati Terracota Store",
        "shop": "gift"
      }
    },
    {
      "type": "node",
      "id": 4362723794,
      "lat": 12.9453043,
      "lon": 77.5798656,
      "tags": {
        "amenity": "pharmacy",
        "healthcare": "pharmacy",
        "name": "Basavangudi Medical Centre"
      }
    },
    {
      "type": "node",
      "id": 4362723890,
      "lat": 12.9508899,
      "lon": 77.5803792,
      "tags": {
        "amenity": "place_of_worship"
      }
    },
    {
      "type": "node",
      "id": 4362723891,
      "lat": 12.9520113,
      "lon": 77.5806257,
      "tags": {
        "name": "Iyengar Bakery",
        "shop": "bakery"
      }
    },
    {
      "type": "node",
      "id": 4362765797,
      "lat": 12.9472769,
      "lon": 77.5799705,
      "tags": {
        "amenity": "atm",
        "brand": "Bank of Baroda",
        "brand:wikidata": "Q2003797",
        "name": "Bank of Baroda",
        "operator": "Bank of Baroda",
        "operator:wikidata": "Q2003797"
      }
    },
    {
      "type": "node",
      "id": 4362780090,
      "lat": 12.9550185,
      "lon": 77.5811729,
      "tags": {
        "amenity": "place_of_worship",
        "name": "Temple"
      }
    },
    {
      "type": "node",
      "id": 4362807789,
      "lat": 12.947717,
      "lon": 77.5798294,
      "tags": {
        "amenity": "atm",
        "operator": "Lakshmi Vilas Bank"
      }
    },
    {
      "type": "node",
      "id": 4445799119,
      "lat": 12.9488056,
      "lon": 77.5743239,
      "tags": {
        "addr:city": "Bangalore",
        "addr:postcode": "560004",
        "addr:street": "Kavi Lakshmisha Rd, Vishweshwarapura, Shankarapura",
        "amenity": "restaurant",
        "cuisine": "regional",
        "delivery": "yes",
        "name": "Bakery World",
        "opening_hours": "07:00-22:00",
        "phone": "080 4093 7384",
        "smoking": "no",
        "takeaway": "yes"
      }
    },
    {
      "type": "node",
      "id": 4446525169,
      "lat": 12.9464613,
      "lon": 77.57609,
      "tags": {
        "addr:full": "80 Feet Road, 5th Cross Road, Chandra Layout, Vijay Nagar, Bangalore - 560040",
        "alt_name": "Goli Vada Pav No.1",
        "amenity": "fast_food",
        "brand": "Goli Vada Pav",
        "brand:wikidata": "Q5580697",
        "cuisine": "indian",
        "name": "Goli Vada Pav",
        "name:kn": "ಗೋಲಿ ವಡ ಪಾವ್",
        "opening_hours": "10:00-22:00",
        "phone": "+91 9845315071",
        "takeaway": "yes",
        "website": "https://www.golivadapav.com/"
      }
    },
    {
      "type": "node",
      "id": 4447108639,
      "lat": 12.9543124,
      "lon": 77.5786901,
      "tags": {
        "addr:city": "Bengaluru",
        "addr:postcode": "560004",
        "addr:street": "V V Puram College of Science, Parvathipuram, Basavanagudi",
        "amenity": "restaurant",
        "cuisine": "regional",
        "delivery": "yes",
        "name": "New Modern Hotel",
        "phone": "080 2661 2625",
        "smoking": "no",
        "takeaway": "yes",
        "website": "https://newmodernhotel.com/"
      }
    },
    {
      "type": "node",
      "id": 4448075597,
      "lat": 12.9458746,
      "lon": 77.5877756,
      "tags": {
        "addr:city": "bangalore",
        "addr:housenumber": "58,59",
        "addr:postcode": "560029",
        "addr:street": "3rd Main,KEB Layout, BTM Layout  1",
        "amenity": "hospital",
        "emergency": "yes",
        "name": "Vijay Diagnostic Centre",
        "phone": "080 2668 4260",
        "source": "http://www.bangalorean.co.in/"
      }
    },
    {
      "type": "node",
      "id": 4463280393,
      "lat": 12.9569354,
      "lon": 77.578524,
      "tags": {
        "name": "Vardaman",
        "name:en": "vardaman",
        "shop": "hardware"
      }
    },
    {
      "type": "node",
      "id": 4488175690,
      "lat": 12.9551847,
      "lon": 77.5894021,
      "tags": {
        "addr:city": "Bangalore",
        "addr:housenumber": "Plot B 204",
        "addr:postcode": "560017",
        "addr:street": "6th Cross Road",
        "name": "Jmv Enterprises",
        "phone": "09035759524",
        "shop": "sports"
      }
    },
    {
      "type": "node",
      "id": 4489828265,
      "lat": 12.9584561,
      "lon": 77.5857024,
      "tags": {
        "addr:city": "Bangalore",
        "addr:housenumber": "# 16",
        "addr:postcode": "560027",
        "addr:street": "Fathima Elegance, 2nd cross, SGN layout, Lalbagh Main Road, Bangalore-27, 2nd Cross Rd, Bhadrappa Layout, SGN Layout, Doddamavalli, Sudhama Nagar",
        "leisure": "sports_centre",
        "name": "Alliance Fitness & Wellness",
        "opening_hours": "06:00-22:00",
        "phone": "9742882266",
        "sport": "gymnastics",
        "website": "alliancefitness.net"
      }
    },
    {
      "type": "node",
      "id": 4703298136,
      "lat": 12.9499469,
      "lon": 77.5860202,
      "tags": {
        "amenity": "fountain"
      }
    },
    {
      "type": "node",
      "id": 4763212133,
      "lat": 12.9502621,
      "lon": 77.5867696,
      "tags": {
        "amenity": "drinking_water"
      }
    },
    {
      "type": "node",
      "id": 4824906934,
      "lat": 12.9489409,
      "lon": 77.5862685,
      "tags": {
        "amenity": "drinking_water"
      }
    },
    {
      "type": "node",
      "id": 4849094831,
      "lat": 12.9539546,
      "lon": 77.5857915,
      "tags": {
        "amenity": "restaurant"
      }
    },
    {
      "type": "node",
      "id": 4849094832,
      "lat": 12.9547083,
      "lon": 77.582635,
      "tags": {
        "name": "New car designer",
        "name:en": "New car designer",
        "shop": "car"
      }
    },
    {
      "type": "node",
      "id": 4849107925,
      "lat": 12.9549066,
      "lon": 77.5803975,
      "tags": {
        "name": "Prakash form and fabric",
        "name:en": "Prakash foam and fabric",
        "shop": "hardware"
      }
    },
    {
      "type": "node",
      "id": 4849108026,
      "lat": 12.9555428,
      "lon": 77.5802105,
      "tags": {
        "amenity": "bank",
        "brand": "Axis Bank",
        "brand:wikidata": "Q2003549",
        "brand:wikipedia": "en:Axis Bank",
        "name": "Axis Bank",
        "name:en": "Axis Bank",
        "name:kn": "ಆಕ್ಸಿಸ್ ಬ್ಯಾಂಕ್",
        "website": "https://www.axisbank.com"
      }
    },
    {
      "type": "node",
      "id": 4849108027,
      "lat": 12.9572315,
      "lon": 77.5816713,
      "tags": {
        "name": "Goodyear",
        "name:en": "Goodyear",
        "shop": "tyres"
      }
    },
    {
      "type": "node",
      "id": 4849108028,
      "lat": 12.9599553,
      "lon": 77.5832139,
      "tags": {
        "name": "Ceat",
        "name:en": "Ceat",
        "shop": "tyres"
      }
    },
    {
      "type": "node",
      "id": 4849108630,
      "lat": 12.9543469,
      "lon": 77.5840455,
      "tags": {
        "name": "Surya carz",
        "name:en": "Surya carz",
        "shop": "car"
      }
    },
    {
      "type": "node",
      "id": 5234745850,
      "lat": 12.9501743,
      "lon": 77.5798156,
      "tags": {
        "addr:housenumber": "106",
        "amenity": "bank",
        "atm": "yes",
        "name": "Sree Subramanya Co-Operative Bank",
        "short_name": "Subco Bank"
      }
    },
    {
      "type": "node",
      "id": 5234750135,
      "lat": 12.946047,
      "lon": 77.5784123,
      "tags": {
        "amenity": "bank",
        "brand": "Canara Bank",
        "brand:en": "Canara Bank",
        "brand:hi": "केनरा बैंक",
        "brand:kn": "ಕೆನರಾ ಬ್ಯಾಂಕ್",
        "brand:pa": "ਕੇਨਰਾ ਬੈਂਕ",
        "brand:pnb": "کینرا بینک",
        "brand:ur": "کینرا بینک",
        "brand:wikidata": "Q2003777",
        "brand:wikipedia": "en:Canara Bank",
        "brand:wikipedia:pa": "ਕੇਨਰਾ ਬੈਂਕ",
        "name": "Canara Bank",
        "name:en": "Canara Bank",
        "name:hi": "केनरा बैंक",
        "name:kn": "ಕೆನರಾ ಬ್ಯಾಂಕ್",
        "name:pa": "ਕੇਨਰਾ ਬੈਂਕ",
        "name:pnb": "کینرا بینک",
        "name:ur": "کینرا بینک"
      }
    },
    {
      "type": "node",
      "id": 5239936021,
      "lat": 12.9540847,
      "lon": 77.5800757,
      "tags": {
        "name:ko": "빵집",
        "shop": "bakery"
      }
    },
    {
      "type": "node",
      "id": 5283520150,
      "lat": 12.9542603,
      "lon": 77.5755467,
      "tags": {
        "amenity": "place_of_worship",
        "name": "Maramma Temple",
        "name:kn": "ಮಾರಮ್ಮ ದೇವಸ್ಥಾನ",
        "religion": "hindu"
      }
    },
    {
      "type": "node",
      "id": 5306746586,
      "lat": 12.9492282,
      "lon": 77.5798434,
      "tags": {
        "amenity": "doctors",
        "healthcare": "doctor",
        "name": "Srinivasa Clinic"
      }
    },
    {
      "type": "node",
      "id": 5306746589,
      "lat": 12.9495157,
      "lon": 77.5797871,
      "tags": {
        "name": "Ramya Beauty Parlor",
        "shop": "beauty"
      }
    },
    {
      "type": "node",
      "id": 5306746590,
      "lat": 12.9495419,
      "lon": 77.5798273,
      "tags": {
        "amenity": "atm",
        "brand": "HDFC Bank",
        "brand:wikidata": "Q631047",
        "name": "HDFC Bank",
        "name:kn": "ಎಚ್ ಡಿ ಎಫ್ ಸಿ",
        "operator": "HDFC Bank",
        "operator:wikidata": "Q631047",
        "short_name": "HDFC"
      }
    },
    {
      "type": "node",
      "id": 5306746599,
      "lat": 12.9495484,
      "lon": 77.5802739,
      "tags": {
        "amenity": "doctors",
        "name": "Children's Clinic",
        "name:kn": "ಮಕ್ಕಳ ಚಿಕಿತ್ಸಾಲಯ"
      }
    },
    {
      "type": "node",
      "id": 5306746601,
      "lat": 12.9495366,
      "lon": 77.580231,
      "tags": {
        "amenity": "atm",
        "brand": "Canara Bank",
        "brand:en": "Canara Bank",
        "brand:hi": "केनरा बैंक",
        "brand:kn": "ಕೆನರಾ ಬ್ಯಾಂಕ್",
        "brand:pa": "ਕੇਨਰਾ ਬੈਂਕ",
        "brand:pnb": "کینرا بینک",
        "brand:ur": "کینرا بینک",
        "brand:wikidata": "Q2003777",
        "brand:wikipedia": "en:Canara Bank",
        "brand:wikipedia:pa": "ਕੇਨਰਾ ਬੈਂਕ",
        "name": "Canara Bank",
        "name:en": "Canara Bank",
        "name:hi": "केनरा बैंक",
        "name:kn": "ಕೆನರಾ ಬ್ಯಾಂಕ್",
        "name:pa": "ਕੇਨਰਾ ਬੈਂਕ",
        "name:pnb": "کینرا بینک",
        "name:ur": "کینرا بینک",
        "operator": "Canara Bank",
        "operator:wikidata": "Q2003777"
      }
    },
    {
      "type": "node",
      "id": 5306746602,
      "lat": 12.9506371,
      "lon": 77.5798769,
      "tags": {
        "name": "New Seat Cover Centre",
        "shop": "car_parts"
      }
    },
    {
      "type": "node",
      "id": 5306746603,
      "lat": 12.9506391,
      "lon": 77.5799219,
      "tags": {
        "addr:housenumber": "112",
        "amenity": "bank",
        "atm": "no",
        "level": "1",
        "name": "Koteshwara Co-Op Bank"
      }
    },
    {
      "type": "node",
      "id": 5306746608,
      "lat": 12.9508907,
      "lon": 77.5777332,
      "tags": {
        "name": "Book My Ballons",
        "shop": "gift"
      }
    },
    {
      "type": "node",
      "id": 5306746609,
      "lat": 12.9508763,
      "lon": 77.5777949,
      "tags": {
        "amenity": "fast_food",
        "name": "Dev Sagar"
      }
    },
    {
      "type": "node",
      "id": 5306746610,
      "lat": 12.9508933,
      "lon": 77.5777694,
      "tags": {
        "name": "Sree Ganesha Fruit Juice Centre",
        "shop": "beverages"
      }
    },
    {
      "type": "node",
      "id": 5306746611,
      "lat": 12.9509129,
      "lon": 77.5777399,
      "tags": {
        "amenity": "fast_food",
        "name": "Chinese Corner"
      }
    },
    {
      "type": "node",
      "id": 5306746612,
      "lat": 12.9509312,
      "lon": 77.5777198,
      "tags": {
        "amenity": "fast_food",
        "name": "Sandwich Hut"
      }
    },
    {
      "type": "node",
      "id": 5306746617,
      "lat": 12.9510815,
      "lon": 77.5777084,
      "tags": {
        "amenity": "fast_food",
        "name": "Sai Fast Food"
      }
    },
    {
      "type": "node",
      "id": 5306746618,
      "lat": 12.9509841,
      "lon": 77.5778009,
      "tags": {
        "amenity": "fast_food",
        "name": "Gurudeva Eating House"
      }
    },
    {
      "type": "node",
      "id": 5306746619,
      "lat": 12.9510057,
      "lon": 77.5777808,
      "tags": {
        "amenity": "fast_food",
        "name": "Swami Bajji Center"
      }
    },
    {
      "type": "node",
      "id": 5306751724,
      "lat": 12.9510407,
      "lon": 77.5776041,
      "tags": {
        "amenity": "fast_food",
        "name": "Arya Vysya Chats"
      }
    },
    {
      "type": "node",
      "id": 5306751725,
      "lat": 12.9510995,
      "lon": 77.5776916,
      "tags": {
        "amenity": "fast_food",
        "name": "Vasavi Mane Thindi"
      }
    },
    {
      "type": "node",
      "id": 5306751726,
      "lat": 12.9511194,
      "lon": 77.5776742,
      "tags": {
        "amenity": "fast_food",
        "name": "Vasavi Dose Camp"
      }
    },
    {
      "type": "node",
      "id": 5306751727,
      "lat": 12.9511478,
      "lon": 77.5776467,
      "tags": {
        "amenity": "fast_food",
        "name": "The Chat Shop"
      }
    },
    {
      "type": "node",
      "id": 5306751734,
      "lat": 12.9510776,
      "lon": 77.5774924,
      "tags": {
        "description": "Dealers in Agmark Coorg Honey",
        "name": "Sapthagiri Industries",
        "shop": "convenience",
        "vending": "honey"
      }
    },
    {
      "type": "node",
      "id": 5306751735,
      "lat": 12.9511142,
      "lon": 77.5774831,
      "tags": {
        "amenity": "fast_food",
        "name": "Sangameshwara Gulkand & Chats Center"
      }
    },
    {
      "type": "node",
      "id": 5306751736,
      "lat": 12.9510933,
      "lon": 77.5775126,
      "tags": {
        "amenity": "fast_food",
        "name": "Anuradha Snacks"
      }
    },
    {
      "type": "node",
      "id": 5306751741,
      "lat": 12.9511952,
      "lon": 77.5774603,
      "tags": {
        "amenity": "ice_cream",
        "name": "Arctic Bites"
      }
    },
    {
      "type": "node",
      "id": 5306751742,
      "lat": 12.9511978,
      "lon": 77.5774106,
      "tags": {
        "amenity": "dentist",
        "name": "Destination Dentale"
      }
    },
    {
      "type": "node",
      "id": 5306751743,
      "lat": 12.9512527,
      "lon": 77.5774267,
      "tags": {
        "amenity": "restaurant",
        "name": "Ramu Tiffin Center"
      }
    },
    {
      "type": "node",
      "id": 5306751748,
      "lat": 12.9515233,
      "lon": 77.5774536,
      "tags": {
        "amenity": "fast_food",
        "name": "By2Coffee"
      }
    },
    {
      "type": "node",
      "id": 5306751753,
      "lat": 12.9513663,
      "lon": 77.5772912,
      "tags": {
        "amenity": "fast_food",
        "name": "Bangarpet Chat Express"
      }
    },
    {
      "type": "node",
      "id": 5306751754,
      "lat": 12.9513445,
      "lon": 77.5773058,
      "tags": {
        "name": "Vinayaka Juice Center",
        "shop": "beverages"
      }
    },
    {
      "type": "node",
      "id": 5306751755,
      "lat": 12.9513943,
      "lon": 77.5772636,
      "tags": {
        "name": "Srirama Watch Works",
        "shop": "watches"
      }
    },
    {
      "type": "node",
      "id": 5306751756,
      "lat": 12.9516278,
      "lon": 77.5773986,
      "tags": {
        "amenity": "fast_food",
        "name": "Annapoorneshwari Hithukida Avare Kendra"
      }
    },
    {
      "type": "node",
      "id": 5306751757,
      "lat": 12.9515978,
      "lon": 77.5773999,
      "tags": {
        "amenity": "fast_food",
        "name": "Vasavi Vaisista Thindi"
      }
    },
    {
      "type": "node",
      "id": 5306751758,
      "lat": 12.9522467,
      "lon": 77.5773751,
      "tags": {
        "name": "New Point Stationery World",
        "shop": "stationery"
      }
    },
    {
      "type": "node",
      "id": 5306751759,
      "lat": 12.9522486,
      "lon": 77.5773168,
      "tags": {
        "name": "Preethi Juice Corner",
        "shop": "beverages"
      }
    },
    {
      "type": "node",
      "id": 5306751760,
      "lat": 12.9523571,
      "lon": 77.5773644,
      "tags": {
        "amenity": "school",
        "level": "1",
        "name": "Raghav's Coaching Centre"
      }
    },
    {
      "type": "node",
      "id": 5306751761,
      "lat": 12.9523578,
      "lon": 77.5773074,
      "tags": {
        "level": "0",
        "name": "Sri Rajalakshmi Bakery and Sweets",
        "shop": "bakery"
      }
    },
    {
      "type": "node",
      "id": 5306751762,
      "lat": 12.9524087,
      "lon": 77.5773617,
      "tags": {
        "amenity": "dentist",
        "level": "1",
        "name": "All Care Dental Centre"
      }
    },
    {
      "type": "node",
      "id": 5306751763,
      "lat": 12.9524087,
      "lon": 77.5773087,
      "tags": {
        "amenity": "restaurant",
        "name": "Sri Krishna Darshini"
      }
    },
    {
      "type": "node",
      "id": 5306751768,
      "lat": 12.952479,
      "lon": 77.5774381,
      "tags": {
        "amenity": "bank",
        "brand": "Kotak Mahindra Bank",
        "brand:wikidata": "Q2040404",
        "level": "1",
        "name": "Kotak Mahindra Bank",
        "name:kn": "ಕೋಟಕ್ ಮಹಿಂದ್ರ ಬ್ಯಾಂಕ್"
      }
    },
    {
      "type": "node",
      "id": 5306751771,
      "lat": 12.9524904,
      "lon": 77.5773248,
      "tags": {
        "amenity": "pharmacy",
        "level": "0",
        "name": "Nagashri Medicals"
      }
    },
    {
      "type": "node",
      "id": 5306751772,
      "lat": 12.9525453,
      "lon": 77.5773261,
      "tags": {
        "level": "0",
        "name": "Fudge",
        "shop": "chocolate"
      }
    },
    {
      "type": "node",
      "id": 5306751773,
      "lat": 12.9526492,
      "lon": 77.5773228,
      "tags": {
        "name": "Ramesh Nethralaya",
        "shop": "optician"
      }
    },
    {
      "type": "node",
      "id": 5306751774,
      "lat": 12.9526192,
      "lon": 77.5773778,
      "tags": {
        "name": "The United Dental Supply Co.",
        "shop": "medical_supply"
      }
    },
    {
      "type": "node",
      "id": 5306751775,
      "lat": 12.9527054,
      "lon": 77.5772946,
      "tags": {
        "level": "0",
        "name": "Shri Vasanth Coffee Works",
        "shop": "coffee"
      }
    },
    {
      "type": "node",
      "id": 5306751780,
      "lat": 12.9528048,
      "lon": 77.5773704,
      "tags": {
        "level": "0",
        "name": "Shimla Dry Cleaners",
        "shop": "dry_cleaning"
      }
    },
    {
      "type": "node",
      "id": 5306751781,
      "lat": 12.9527603,
      "lon": 77.5773221,
      "tags": {
        "level": "0",
        "name": "Sri Sai Electricals",
        "shop": "electrical"
      }
    },
    {
      "type": "node",
      "id": 5306751782,
      "lat": 12.9527838,
      "lon": 77.5773469,
      "tags": {
        "level": "0",
        "name": "Laxmi Home Needs",
        "shop": "convenience"
      }
    },
    {
      "type": "node",
      "id": 5306751785,
      "lat": 12.9528329,
      "lon": 77.5773999,
      "tags": {
        "level": "0",
        "name": "Vardhaman Fashions",
        "shop": "clothes"
      }
    },
    {
      "type": "node",
      "id": 5306751786,
      "lat": 12.9528597,
      "lon": 77.577424,
      "tags": {
        "level": "0",
        "name": "New Omega Seat Covers",
        "shop": "car_parts"
      }
    },
    {
      "type": "node",
      "id": 5306751787,
      "lat": 12.9528897,
      "lon": 77.5774489,
      "tags": {
        "level": "0",
        "name": "Sree Padmavathi Collections",
        "shop": "dairy"
      }
    },
    {
      "type": "node",
      "id": 5306751788,
      "lat": 12.9529139,
      "lon": 77.5774723,
      "tags": {
        "level": "0",
        "name": "V Fashion",
        "shop": "clothes"
      }
    },
    {
      "type": "node",
      "id": 5306751789,
      "lat": 12.9529361,
      "lon": 77.5774938,
      "tags": {
        "level": "0",
        "name": "Kuberan Ladies Designer",
        "shop": "tailor"
      }
    },
    {
      "type": "node",
      "id": 5306751790,
      "lat": 12.9529603,
      "lon": 77.5775152,
      "tags": {
        "level": "0",
        "name": "Popular Tyre Company",
        "shop": "tyres"
      }
    },
    {
      "type": "node",
      "id": 5306751794,
      "lat": 12.9532746,
      "lon": 77.5774911,
      "tags": {
        "name": "Rank Opticians",
        "shop": "optician"
      }
    },
    {
      "type": "node",
      "id": 5423093132,
      "lat": 12.9543375,
      "lon": 77.5755417,
      "tags": {
        "amenity": "place_of_worship",
        "denomination": "sunni",
        "name": "Masjid E A'ala",
        "religion": "muslim"
      }
    },
    {
      "type": "node",
      "id": 5423106786,
      "lat": 12.9527142,
      "lon": 77.5762337,
      "tags": {
        "amenity": "place_of_worship",
        "name": "Subramanya Swamy Temple",
        "name:kn": "ಸುಬ್ರಮಣ್ಯ ಸ್ವಾಮಿ ದೇವಸ್ಥಾನ",
        "religion": "hindu"
      }
    },
    {
      "type": "node",
      "id": 5423114340,
      "lat": 12.9517621,
      "lon": 77.5750763,
      "tags": {
        "amenity": "place_of_worship",
        "name": "Jain Temple",
        "name:kn": "ಜೈನ ದೇವಸ್ಥಾನ",
        "religion": "jain"
      }
    },
    {
      "type": "node",
      "id": 5983455179,
      "lat": 12.9588104,
      "lon": 77.5868782,
      "tags": {
        "amenity": "fuel",
        "check_date": "2023-04-05",
        "name": "Gogas",
        "source": "survey"
      }
    },
    {
      "type": "node",
      "id": 6110283523,
      "lat": 12.9479063,
      "lon": 77.5880012,
      "tags": {
        "amenity": "waste_basket"
      }
    },
    {
      "type": "node",
      "id": 6110283792,
      "lat": 12.9478809,
      "lon": 77.5879078,
      "tags": {
        "amenity": "bench"
      }
    },
    {
      "type": "node",
      "id": 6110283805,
      "lat": 12.9479274,
      "lon": 77.5879038,
      "tags": {
        "amenity": "bench"
      }
    },
    {
      "type": "node",
      "id": 6110285206,
      "lat": 12.9480516,
      "lon": 77.5881285,
      "tags": {
        "amenity": "bench",
        "backrest": "no"
      }
    },
    {
      "type": "node",
      "id": 6349285856,
      "lat": 12.9523143,
      "lon": 77.5817969,
      "tags": {
        "addr:place": "V V Puram",
        "amenity": "school",
        "isced:level": "2",
        "name": "Ganapathi Vidyamandir V V Puram",
        "name:kn": "ಗಣಪತಿ ವಿದ್ಯಾಮಂದಿರ ವಿ.ವಿ. ಪುರಂ",
        "operator": "Pvt. Aided",
        "school": "primary"
      }
    },
    {
      "type": "node",
      "id": 6349451119,
      "lat": 12.9544133,
      "lon": 77.5821593,
      "tags": {
        "addr:place": "V V Puram",
        "amenity": "school",
        "name": "GUHPS V V Puram",
        "name:kn": "ಸರ್ಕಾರಿ ಉರ್ದು ಹಿರಿಯ ಪ್ರಾಥಮಿಕ ಶಾಲೆ ವಿ.ವಿ. ಪುರಂ",
        "operator": "Pvt. Aided",
        "school": "primary"
      }
    },
    {
      "type": "node",
      "id": 6882713296,
      "lat": 12.9566858,
      "lon": 77.5742,
      "tags": {
        "addr:city": "Bengaluru",
        "addr:district": "BENGALURU URBAN",
        "addr:full": "K. R. Road, Visveswarapuram, Near Makkala Koota Bus Stop",
        "addr:postcode": "560004",
        "addr:state": "Karnataka",
        "amenity": "blood_bank",
        "contact:mobile": "9448559664",
        "contact:phone": "8026613225",
        "fax": "9180 26712798",
        "name": "KIMS Hospital Blood Bank",
        "opening_hours": "24/7",
        "operator:type": "private",
        "source": "OpenGovernmentData",
        "website": "http://www.kimsbangalore.edu.in"
      }
    },
    {
      "type": "node",
      "id": 6937898160,
      "lat": 12.9497745,
      "lon": 77.5802779,
      "tags": {
        "addr:district": "Bengaluru Urban",
        "addr:full": "#53/1 (45), Shalini,Susheela Road,Lalbagh Upparahalli ( Lalbagh West Gate)",
        "addr:postcode": "560004",
        "addr:state": "Karnataka",
        "amenity": "hospital",
        "healthcare": "hospital",
        "name": "South City Hospital, Bengaluru Urban",
        "source": "OpenGovernmentData"
      }
    },
    {
      "type": "node",
      "id": 6938775853,
      "lat": 12.9463129,
      "lon": 77.5796349,
      "tags": {
        "addr:district": "Bengaluru Urban",
        "addr:full": "No-9/91, Govindappa Road, Basavana Gudi",
        "addr:postcode": "560004",
        "addr:state": "Karnataka",
        "amenity": "clinic",
        "healthcare": "clinic",
        "name": "Medikeris Superspecaility Ent Centre",
        "operator:type": "private",
        "source": "OpenGovernmentData",
        "website": "http://www.medikerihospital.com/"
      }
    },
    {
      "type": "node",
      "id": 6939649022,
      "lat": 12.9544587,
      "lon": 77.578733,
      "tags": {
        "addr:district": "Bengaluru Urban",
        "addr:full": "No. 4/1, Diagonal Road, Opposite To N.M.H. Hotel, V.V. Puram",
        "addr:postcode": "560004",
        "addr:state": "Karnataka",
        "amenity": "dentist",
        "name": "Shree Sai Dental Care",
        "source": "OpenGovernmentData"
      }
    },
    {
      "type": "node",
      "id": 6944128588,
      "lat": 12.9563016,
      "lon": 77.5747874,
      "tags": {
        "addr:district": "Bengaluru Urban",
        "addr:full": "K. R. Road, V. V. Puram",
        "addr:postcode": "560004",
        "addr:state": "Karnataka",
        "amenity": "hospital",
        "name": "Kims Hospital and Research Centre",
        "source": "OpenGovernmentData"
      }
    },
    {
      "type": "node",
      "id": 6944888150,
      "lat": 12.9496114,
      "lon": 77.5790786,
      "tags": {
        "addr:district": "Bengaluru Urban",
        "addr:full": "37, M.N. Krishna Rao Road, Opp Lalbagh West Gate",
        "addr:postcode": "560004",
        "addr:state": "Karnataka",
        "amenity": "hospital",
        "healthcare": "hospital",
        "name": "Jyothi The Lasik Vision Centre",
        "source": "OpenGovernmentData"
      }
    },
    {
      "type": "node",
      "id": 6944925493,
      "lat": 12.9563042,
      "lon": 77.5830996,
      "tags": {
        "addr:district": "Bengaluru Urban",
        "addr:full": "J.C.Road",
        "addr:postcode": "560002",
        "addr:state": "Karnataka",
        "amenity": "hospital",
        "name": "Bengaluru West Lions Hospital",
        "operator:type": "private",
        "source": "OpenGovernmentData",
        "website": "http://dpal.kar.nic.in/Kanunu%20padakosha%20PDF%20Files/Recognised%20Hospitals.pdf"
      }
    },
    {
      "type": "node",
      "id": 6948483268,
      "lat": 12.9527146,
      "lon": 77.5774026,
      "tags": {
        "addr:district": "Bengaluru Urban",
        "addr:full": "No.26, Sajjan Rao Road, V.V.Puram",
        "addr:postcode": "560004",
        "addr:state": "Karnataka",
        "amenity": "clinic",
        "name": "Ramesh Eye Clinic and Ophthalmic Microsurgical Centre",
        "source": "OpenGovernmentData"
      }
    },
    {
      "type": "node",
      "id": 6950124308,
      "lat": 12.9543465,
      "lon": 77.5755649,
      "tags": {
        "addr:district": "Bengaluru Urban",
        "addr:full": "506, Aswathankatte Road V V Puram",
        "addr:postcode": "560004",
        "addr:state": "Karnataka",
        "amenity": "hospital",
        "name": "Venkateswara Hospital, Bengaluru Urban",
        "name:kn": "ವೆಂಕಟೇಶ್ವರ ಆಸ್ಪತ್ರೆ",
        "source": "OpenGovernmentData"
      }
    },
    {
      "type": "node",
      "id": 7043198419,
      "lat": 12.9487805,
      "lon": 77.5798256,
      "tags": {
        "name": "Kamat Tourist",
        "shop": "ticket"
      }
    },
    {
      "type": "node",
      "id": 7043229686,
      "lat": 12.9550956,
      "lon": 77.5858088,
      "tags": {
        "name": "Megha Enterprises",
        "shop": "motorcycle"
      }
    },
    {
      "type": "node",
      "id": 7043229687,
      "lat": 12.9552795,
      "lon": 77.5858224,
      "tags": {
        "name": "Chethan's Helmet World",
        "shop": "motorcycle"
      }
    },
    {
      "type": "node",
      "id": 7043229688,
      "lat": 12.9549086,
      "lon": 77.5857588,
      "tags": {
        "amenity": "restaurant",
        "name": "New Ambur Biriyani"
      }
    },
    {
      "type": "node",
      "id": 7043245785,
      "lat": 12.9550094,
      "lon": 77.5857787,
      "tags": {
        "name": "Moto Nation",
        "shop": "motorcycle"
      }
    },
    {
      "type": "node",
      "id": 7043255185,
      "lat": 12.9554304,
      "lon": 77.585944,
      "tags": {
        "amenity": "restaurant",
        "cuisine": "indian",
        "name": "Hotel Nandeshwara Lunch Home"
      }
    },
    {
      "type": "node",
      "id": 7043262185,
      "lat": 12.9553721,
      "lon": 77.5855419,
      "tags": {
        "addr:housenumber": "120/1",
        "addr:street": "Lalbagh Road",
        "amenity": "pharmacy",
        "name": "Sapthagiri Medicals"
      }
    },
    {
      "type": "node",
      "id": 7043262385,
      "lat": 12.9550862,
      "lon": 77.5858696,
      "tags": {
        "name": "Babu Auto Garage",
        "shop": "car_repair"
      }
    },
    {
      "type": "node",
      "id": 7043262485,
      "lat": 12.9549325,
      "lon": 77.5857756,
      "tags": {
        "name": "The Car Shopp",
        "shop": "car_parts"
      }
    },
    {
      "type": "node",
      "id": 7043519087,
      "lat": 12.9524178,
      "lon": 77.5889783,
      "tags": {
        "addr:housenumber": "2",
        "addr:postcode": "560027",
        "addr:street": "Dr. M. H. Marigowda Road",
        "name": "Prakash S. M. Kannappa Automobiles Pvt. Ltd.",
        "name:en": "S.M. Kannappa Automobiles Pvt. Ltd.",
        "shop": "car"
      }
    },
    {
      "type": "node",
      "id": 7043533585,
      "lat": 12.9522659,
      "lon": 77.5897266,
      "tags": {
        "amenity": "childcare",
        "name": "Sri Maruthi Nursery"
      }
    },
    {
      "type": "node",
      "id": 7043568691,
      "lat": 12.9548308,
      "lon": 77.580673,
      "tags": {
        "name": "Yousuff Glass Shop",
        "shop": "hardware"
      }
    },
    {
      "type": "node",
      "id": 7043568692,
      "lat": 12.9577674,
      "lon": 77.5823666,
      "tags": {
        "name": "Popular Traders",
        "shop": "car_parts"
      }
    },
    {
      "type": "node",
      "id": 7576958021,
      "lat": 12.9479573,
      "lon": 77.5798704,
      "tags": {
        "addr:district": "Bengaluru Urban",
        "addr:full": "MN Krishna Rao Road, Basavanagudi, Bengaluru",
        "addr:postcode": "560004",
        "addr:state": "Karnataka",
        "amenity": "clinic",
        "healthcare": "clinic",
        "name": "Life is Beautiful Clinic",
        "source": "Local Knowledge"
      }
    },
    {
      "type": "node",
      "id": 7576958037,
      "lat": 12.953049,
      "lon": 77.574203,
      "tags": {
        "addr:district": "Bengaluru Urban",
        "addr:full": "S.S. Temple Street, V V Puram, Bengaluru",
        "addr:postcode": "560004",
        "addr:state": "Karnataka",
        "amenity": "hospital",
        "name": "Medcare Hospital",
        "source": "Local Knowledge"
      }
    },
    {
      "type": "node",
      "id": 7576958047,
      "lat": 12.949269,
      "lon": 77.579839,
      "tags": {
        "addr:district": "Bengaluru Urban",
        "addr:full": "RV Road, Upparahalli, Basavanagudi, Bengaluru",
        "addr:postcode": "560004",
        "addr:state": "Karnataka",
        "amenity": "clinic",
        "healthcare": "clinic",
        "name": "Srinivasa Clinic",
        "source": "Local Knowledge"
      }
    },
    {
      "type": "node",
      "id": 7576958049,
      "lat": 12.949663,
      "lon": 77.580184,
      "tags": {
        "addr:district": "Bengaluru Urban",
        "addr:full": "Rashtriya Vidyalaya Road, Upparahalli, Mavalli, Bengaluru",
        "addr:postcode": "560004",
        "addr:state": "Karnataka",
        "amenity": "clinic",
        "name": "Children's Clinic",
        "source": "Local Knowledge"
      }
    },
    {
      "type": "node",
      "id": 7576958053,
      "lat": 12.9489343,
      "lon": 77.5795464,
      "tags": {
        "addr:district": "Bengaluru Urban",
        "addr:full": "Rashtriya Vidyalaya Road, Vishweshwarapura, Basavanagudi, Bengaluru",
        "addr:postcode": "560004",
        "addr:state": "Karnataka",
        "amenity": "clinic",
        "name": "Taranatha Ayurveda Mandira",
        "source": "Local Knowledge"
      }
    },
    {
      "type": "node",
      "id": 7576958111,
      "lat": 12.9487692,
      "lon": 77.5793662,
      "tags": {
        "addr:district": "Bengaluru Urban",
        "addr:full": "R.V. Road, V.V. Puram, Bengaluru",
        "addr:postcode": "560004",
        "addr:state": "Karnataka",
        "amenity": "clinic",
        "name": "Synergy Diabetes Clinic",
        "source": "Local Knowledge"
      }
    },
    {
      "type": "node",
      "id": 7576958115,
      "lat": 12.948062,
      "lon": 77.577411,
      "tags": {
        "addr:district": "Bengaluru Urban",
        "addr:full": "Vanivilas Road, Kanakapura, Visvesvarapuram, Basavanagudi, Bengaluru",
        "addr:postcode": "560004",
        "addr:state": "Karnataka",
        "amenity": "clinic",
        "healthcare": "clinic",
        "name": "Sri Sri Ayurveda Clinic",
        "source": "Local Knowledge"
      }
    },
    {
      "type": "node",
      "id": 7576958118,
      "lat": 12.9458294,
      "lon": 77.5799015,
      "tags": {
        "addr:district": "Bengaluru Urban",
        "addr:full": "Rashtriya Vidyalaya Road, Basavanagudi, Bengaluru",
        "addr:postcode": "560004",
        "addr:state": "Karnataka",
        "amenity": "hospital",
        "healthcare": "hospital",
        "name": "Dave Gray Hospital",
        "source": "Local Knowledge"
      }
    },
    {
      "type": "node",
      "id": 8170392717,
      "lat": 12.9564805,
      "lon": 77.5828736,
      "tags": {
        "amenity": "pharmacy",
        "name": "Max Medicals"
      }
    },
    {
      "type": "node",
      "id": 9289356417,
      "lat": 12.9580517,
      "lon": 77.5824765,
      "tags": {
        "amenity": "restaurant",
        "name": "Udupi Sagar Veg Restaurant"
      }
    },
    {
      "type": "node",
      "id": 9292386641,
      "lat": 12.9493948,
      "lon": 77.5888026,
      "tags": {
        "amenity": "bench",
        "backrest": "yes",
        "material": "wood",
        "seats": "3"
      }
    },
    {
      "type": "node",
      "id": 9292386642,
      "lat": 12.949434,
      "lon": 77.5889307,
      "tags": {
        "amenity": "bench",
        "backrest": "yes",
        "material": "wood",
        "seats": "3"
      }
    },
    {
      "type": "node",
      "id": 9292386643,
      "lat": 12.9494785,
      "lon": 77.5890313,
      "tags": {
        "amenity": "bench",
        "backrest": "yes",
        "material": "wood",
        "seats": "3"
      }
    },
    {
      "type": "node",
      "id": 9292386644,
      "lat": 12.9495379,
      "lon": 77.5891614,
      "tags": {
        "amenity": "bench",
        "backrest": "yes",
        "material": "wood",
        "seats": "3"
      }
    },
    {
      "type": "node",
      "id": 9292386645,
      "lat": 12.9495896,
      "lon": 77.5892814,
      "tags": {
        "amenity": "bench",
        "backrest": "yes",
        "material": "wood",
        "seats": "3"
      }
    },
    {
      "type": "node",
      "id": 9292386646,
      "lat": 12.9496516,
      "lon": 77.5893934,
      "tags": {
        "amenity": "bench",
        "backrest": "yes",
        "material": "wood",
        "seats": "3"
      }
    },
    {
      "type": "node",
      "id": 9292386647,
      "lat": 12.9497046,
      "lon": 77.5895101,
      "tags": {
        "amenity": "bench",
        "backrest": "yes",
        "material": "wood",
        "seats": "3"
      }
    },
    {
      "type": "node",
      "id": 9292386648,
      "lat": 12.9495262,
      "lon": 77.5894202,
      "tags": {
        "amenity": "waste_basket"
      }
    },
    {
      "type": "node",
      "id": 9292386649,
      "lat": 12.9497418,
      "lon": 77.5895376,
      "tags": {
        "amenity": "waste_basket"
      }
    },
    {
      "type": "node",
      "id": 9531680758,
      "lat": 12.9559991,
      "lon": 77.5806662,
      "tags": {
        "amenity": "restaurant",
        "cuisine": "indian",
        "diet:non-vegetarian": "yes",
        "name": "Mayuri"
      }
    },
    {
      "type": "node",
      "id": 9922802663,
      "lat": 12.9501718,
      "lon": 77.5861922,
      "tags": {
        "amenity": "drinking_water"
      }
    },
    {
      "type": "node",
      "id": 9922802664,
      "lat": 12.9502137,
      "lon": 77.5853258,
      "tags": {
        "amenity": "drinking_water"
      }
    },
    {
      "type": "node",
      "id": 9922831521,
      "lat": 12.9495353,
      "lon": 77.5832009,
      "tags": {
        "amenity": "waste_basket",
        "source": "survey"
      }
    },
    {
      "type": "node",
      "id": 9922831522,
      "lat": 12.9494935,
      "lon": 77.5831901,
      "tags": {
        "amenity": "bench",
        "backrest": "yes",
        "material": "wood",
        "seats": "2",
        "source": "survey"
      }
    },
    {
      "type": "node",
      "id": 9922831524,
      "lat": 12.9491628,
      "lon": 77.5829454,
      "tags": {
        "amenity": "waste_basket",
        "colour": "green",
        "source": "survey",
        "waste": "organic"
      }
    },
    {
      "type": "node",
      "id": 9922831525,
      "lat": 12.9491419,
      "lon": 77.5829266,
      "tags": {
        "access": "yes",
        "amenity": "drinking_water",
        "fee": "no",
        "wheelchair": "yes"
      }
    },
    {
      "type": "node",
      "id": 9922831526,
      "lat": 12.9490975,
      "lon": 77.58283,
      "tags": {
        "amenity": "bench",
        "backrest": "yes",
        "material": "wood",
        "seats": "2",
        "source": "survey"
      }
    },
    {
      "type": "node",
      "id": 9922831527,
      "lat": 12.9489341,
      "lon": 77.58259,
      "tags": {
        "amenity": "waste_basket",
        "source": "survey",
        "waste": "recycling"
      }
    },
    {
      "type": "node",
      "id": 9922831528,
      "lat": 12.9489184,
      "lon": 77.5825591,
      "tags": {
        "amenity": "waste_basket",
        "source": "survey",
        "waste": "organic"
      }
    },
    {
      "type": "node",
      "id": 9922831529,
      "lat": 12.9488557,
      "lon": 77.5822869,
      "tags": {
        "amenity": "bench",
        "backrest": "yes",
        "material": "wood",
        "seats": "2",
        "source": "survey"
      }
    },
    {
      "type": "node",
      "id": 9922831531,
      "lat": 12.9487657,
      "lon": 77.5822163,
      "tags": {
        "amenity": "bench",
        "backrest": "yes",
        "material": "wood",
        "seats": "2",
        "source": "survey"
      }
    },
    {
      "type": "node",
      "id": 9922831532,
      "lat": 12.9486126,
      "lon": 77.5817491,
      "tags": {
        "amenity": "bench",
        "backrest": "yes",
        "material": "wood",
        "seats": "2",
        "source": "survey"
      }
    },
    {
      "type": "node",
      "id": 9922831533,
      "lat": 12.9485237,
      "lon": 77.581336,
      "tags": {
        "amenity": "waste_basket",
        "source": "survey"
      }
    },
    {
      "type": "node",
      "id": 9922831534,
      "lat": 12.9484679,
      "lon": 77.5811473,
      "tags": {
        "amenity": "bench",
        "backrest": "yes",
        "material": "wood",
        "seats": "2",
        "source": "survey"
      }
    },
    {
      "type": "node",
      "id": 9922831535,
      "lat": 12.9484963,
      "lon": 77.5812019,
      "tags": {
        "amenity": "bench",
        "backrest": "yes",
        "material": "wood",
        "seats": "2",
        "source": "survey"
      }
    },
    {
      "type": "node",
      "id": 9922831536,
      "lat": 12.9484502,
      "lon": 77.5810062,
      "tags": {
        "amenity": "bench",
        "backrest": "yes",
        "material": "wood",
        "seats": "2",
        "source": "survey"
      }
    },
    {
      "type": "node",
      "id": 9922831537,
      "lat": 12.9484636,
      "lon": 77.5810705,
      "tags": {
        "amenity": "bench",
        "backrest": "yes",
        "material": "wood",
        "seats": "2",
        "source": "survey"
      }
    },
    {
      "type": "node",
      "id": 9922831538,
      "lat": 12.9484923,
      "lon": 77.5809176,
      "tags": {
        "amenity": "drinking_water"
      }
    },
    {
      "type": "node",
      "id": 9922831542,
      "lat": 12.9476859,
      "lon": 77.5801036,
      "tags": {
        "access": "yes",
        "amenity": "toilets",
        "fee": "no",
        "operator": "ಬೃಹತ್ ಬೆಂಗಳೂರು ಮಹಾನಗರ ಪಾಲಿಕೆ",
        "operator:en": "Bruhat Bengaluru Mahanagara Palike",
        "operator:ka": "ಬೃಹತ್ ಬೆಂಗಳೂರು ಮಹಾನಗರ ಪಾಲಿಕೆ",
        "operator:short": "BBMP",
        "operator:wikidata": "Q4978693",
        "wheelchair": "no"
      }
    },
    {
      "type": "node",
      "id": 10045910454,
      "lat": 12.9549456,
      "lon": 77.588287,
      "tags": {
        "name": "MRS Enterprises",
        "shop": "car_parts"
      }
    },
    {
      "type": "node",
      "id": 10202015117,
      "lat": 12.9516832,
      "lon": 77.5767383,
      "tags": {
        "amenity": "toilets"
      }
    },
    {
      "type": "node",
      "id": 10792887305,
      "lat": 12.9585496,
      "lon": 77.5867635,
      "tags": {
        "access": "private",
        "amenity": "parking",
        "covered": "no",
        "fee": "yes",
        "parking": "surface",
        "payment:cash": "yes",
        "source": "survey",
        "supervised": "yes",
        "surface": "ground"
      }
    },
    {
      "type": "node",
      "id": 10853093227,
      "lat": 12.9472886,
      "lon": 77.5798621,
      "tags": {
        "amenity": "fuel",
        "brand": "Go Gas",
        "name": "Go Gas"
      }
    },
    {
      "type": "node",
      "id": 11064985066,
      "lat": 12.9543709,
      "lon": 77.5905051,
      "tags": {
        "amenity": "courthouse",
        "name": "Bangalore Mediation Centre"
      }
    },
    {
      "type": "node",
      "id": 11215990965,
      "lat": 12.9478552,
      "lon": 77.579887,
      "tags": {
        "amenity": "bench",
        "backrest": "yes",
        "material": "stone"
      }
    },
    {
      "type": "node",
      "id": 11215990966,
      "lat": 12.9478695,
      "lon": 77.5798863,
      "tags": {
        "amenity": "bench",
        "backrest": "yes",
        "material": "stone"
      }
    },
    {
      "type": "node",
      "id": 11215990973,
      "lat": 12.9475467,
      "lon": 77.5797314,
      "tags": {
        "amenity": "restaurant",
        "cuisine": "indian",
        "name": "Lalbagh Grand"
      }
    },
    {
      "type": "node",
      "id": 11215990978,
      "lat": 12.947648,
      "lon": 77.5798005,
      "tags": {
        "amenity": "ice_cream",
        "name": "Ibaco"
      }
    },
    {
      "type": "node",
      "id": 11215991026,
      "lat": 12.9458365,
      "lon": 77.576673,
      "tags": {
        "name": "Continental",
        "shop": "tyres"
      }
    },
    {
      "type": "node",
      "id": 11296585667,
      "lat": 12.9552812,
      "lon": 77.5799043,
      "tags": {
        "amenity": "waste_basket"
      }
    },
    {
      "type": "node",
      "id": 11296585668,
      "lat": 12.9554251,
      "lon": 77.5800148,
      "tags": {
        "amenity": "fast_food",
        "check_date": "2023-10-29",
        "name": "Coastrica Bar & Rest"
      }
    },
    {
      "type": "node",
      "id": 11331558610,
      "lat": 12.9589981,
      "lon": 77.5825067,
      "tags": {
        "amenity": "bank",
        "brand": "Union Bank of India",
        "brand:wikidata": "Q2004078",
        "name": "Union Bank of India"
      }
    },
    {
      "type": "node",
      "id": 11355730137,
      "lat": 12.9547863,
      "lon": 77.5808837,
      "tags": {
        "check_date": "2023-11-16",
        "name": "Royal Foam and Furnishings",
        "shop": "interior_decoration"
      }
    },
    {
      "type": "node",
      "id": 11355730140,
      "lat": 12.9596838,
      "lon": 77.5829494,
      "tags": {
        "amenity": "bank",
        "brand": "Yes Bank",
        "brand:wikidata": "Q2040394",
        "check_date": "2023-11-16",
        "name": "Yes Bank"
      }
    },
    {
      "type": "node",
      "id": 11355730141,
      "lat": 12.9607154,
      "lon": 77.5835644,
      "tags": {
        "amenity": "bank",
        "brand": "State Bank of India",
        "brand:wikidata": "Q1340361",
        "check_date": "2023-11-16",
        "name": "State Bank of India",
        "name:kn": "ಎಸ್ ಬಿ ಐ",
        "short_name": "SBI"
      }
    },
    {
      "type": "node",
      "id": 11371236634,
      "lat": 12.9539626,
      "lon": 77.5851182,
      "tags": {
        "brand": "Nandini",
        "check_date": "2023-11-23",
        "name": "Nandini",
        "shop": "dairy"
      }
    },
    {
      "type": "node",
      "id": 11371236635,
      "lat": 12.9545088,
      "lon": 77.5833551,
      "tags": {
        "brand": "Apollo Tyres",
        "brand:wikidata": "Q4780362",
        "check_date": "2023-11-23",
        "name": "Apollo Tyres",
        "shop": "tyres"
      }
    },
    {
      "type": "node",
      "id": 11416992093,
      "lat": 12.9596245,
      "lon": 77.5832707,
      "tags": {
        "amenity": "bank",
        "brand": "HDFC Bank",
        "brand:wikidata": "Q631047",
        "check_date": "2023-12-14",
        "name": "HDFC Bank",
        "name:kn": "ಎಚ್ ಡಿ ಎಫ್ ಸಿ",
        "short_name": "HDFC"
      }
    },
    {
      "type": "node",
      "id": 11468627257,
      "lat": 12.9457837,
      "lon": 77.5849985,
      "tags": {
        "amenity": "waste_basket"
      }
    },
    {
      "type": "node",
      "id": 11468627258,
      "lat": 12.9458145,
      "lon": 77.5850019,
      "tags": {
        "amenity": "bench",
        "backrest": "yes"
      }
    },
    {
      "type": "node",
      "id": 11468627259,
      "lat": 12.9440457,
      "lon": 77.5829918,
      "tags": {
        "amenity": "waste_basket"
      }
    },
    {
      "type": "node",
      "id": 11468627260,
      "lat": 12.9439403,
      "lon": 77.582882,
      "tags": {
        "amenity": "waste_basket"
      }
    },
    {
      "type": "node",
      "id": 11468627261,
      "lat": 12.9438969,
      "lon": 77.5822454,
      "tags": {
        "amenity": "waste_basket"
      }
    },
    {
      "type": "node",
      "id": 11468627262,
      "lat": 12.9438682,
      "lon": 77.5813509,
      "tags": {
        "amenity": "waste_basket"
      }
    },
    {
      "type": "node",
      "id": 11468627263,
      "lat": 12.9443742,
      "lon": 77.5811979,
      "tags": {
        "amenity": "waste_basket"
      }
    },
    {
      "type": "node",
      "id": 11468627264,
      "lat": 12.9444373,
      "lon": 77.5812217,
      "tags": {
        "amenity": "bench",
        "backrest": "yes"
      }
    },
    {
      "type": "node",
      "id": 11468627265,
      "lat": 12.9452266,
      "lon": 77.5814377,
      "tags": {
        "amenity": "waste_basket"
      }
    },
    {
      "type": "node",
      "id": 11468627266,
      "lat": 12.945364,
      "lon": 77.5814803,
      "tags": {
        "amenity": "bench",
        "backrest": "yes"
      }
    },
    {
      "type": "node",
      "id": 11468627267,
      "lat": 12.9455418,
      "lon": 77.5814797,
      "tags": {
        "amenity": "bench",
        "backrest": "yes"
      }
    },
    {
      "type": "node",
      "id": 11468627268,
      "lat": 12.9457694,
      "lon": 77.5815104,
      "tags": {
        "amenity": "waste_basket"
      }
    },
    {
      "type": "node",
      "id": 11468699669,
      "lat": 12.9459206,
      "lon": 77.5815291,
      "tags": {
        "amenity": "bench",
        "backrest": "yes"
      }
    },
    {
      "type": "node",
      "id": 11468699670,
      "lat": 12.9460783,
      "lon": 77.5815645,
      "tags": {
        "amenity": "bench",
        "backrest": "yes"
      }
    },
    {
      "type": "node",
      "id": 11468699671,
      "lat": 12.9461993,
      "lon": 77.5815966,
      "tags": {
        "amenity": "bench",
        "backrest": "yes"
      }
    },
    {
      "type": "node",
      "id": 11468699672,
      "lat": 12.9462785,
      "lon": 77.5816307,
      "tags": {
        "amenity": "waste_basket"
      }
    },
    {
      "type": "node",
      "id": 11468699673,
      "lat": 12.9465015,
      "lon": 77.5816882,
      "tags": {
        "amenity": "bench",
        "backrest": "yes"
      }
    },
    {
      "type": "node",
      "id": 11468699674,
      "lat": 12.9467045,
      "lon": 77.5817274,
      "tags": {
        "amenity": "bench",
        "backrest": "yes"
      }
    },
    {
      "type": "node",
      "id": 11468699675,
      "lat": 12.9468784,
      "lon": 77.5817496,
      "tags": {
        "amenity": "bench",
        "backrest": "yes"
      }
    },
    {
      "type": "node",
      "id": 11468699676,
      "lat": 12.947,
      "lon": 77.5817368,
      "tags": {
        "amenity": "waste_basket"
      }
    },
    {
      "type": "node",
      "id": 11468699677,
      "lat": 12.9472714,
      "lon": 77.5817281,
      "tags": {
        "amenity": "waste_basket"
      }
    },
    {
      "type": "node",
      "id": 11468699678,
      "lat": 12.9474742,
      "lon": 77.5816435,
      "tags": {
        "amenity": "bench",
        "backrest": "no"
      }
    },
    {
      "type": "node",
      "id": 11468699679,
      "lat": 12.9476314,
      "lon": 77.5814638,
      "tags": {
        "amenity": "waste_basket"
      }
    },
    {
      "type": "node",
      "id": 11468699680,
      "lat": 12.9477532,
      "lon": 77.5813866,
      "tags": {
        "amenity": "bench",
        "backrest": "yes"
      }
    },
    {
      "type": "node",
      "id": 11468699681,
      "lat": 12.9478352,
      "lon": 77.5813691,
      "tags": {
        "amenity": "bench",
        "backrest": "no"
      }
    },
    {
      "type": "node",
      "id": 11468699682,
      "lat": 12.9479148,
      "lon": 77.5813009,
      "tags": {
        "amenity": "bench",
        "backrest": "yes"
      }
    },
    {
      "type": "node",
      "id": 11468699683,
      "lat": 12.948031,
      "lon": 77.5812922,
      "tags": {
        "amenity": "bench",
        "backrest": "yes"
      }
    },
    {
      "type": "node",
      "id": 11468699684,
      "lat": 12.9499238,
      "lon": 77.5831444,
      "tags": {
        "amenity": "waste_basket",
        "colour": "green",
        "waste": "organic"
      }
    },
    {
      "type": "node",
      "id": 11827173636,
      "lat": 12.9477417,
      "lon": 77.5793843,
      "tags": {
        "addr:postcode": "560004",
        "amenity": "doctors",
        "check_date": "2024-04-18",
        "email": "jyothilasikvision@gmail.com",
        "healthcare": "doctor",
        "healthcare:speciality": "ophthalmology",
        "name": "Jyothi The Lasik Vision Centre",
        "opening_hours": "Mo-Sa 10:00-18:00; Su off",
        "phone": "+91 80 2656 7878; +91 80 4096 7878; +91 93800 65139",
        "website": "https://www.jyothilasik.com"
      }
    },
    {
      "type": "node",
      "id": 12000027565,
      "lat": 12.9478573,
      "lon": 77.5831559,
      "tags": {
        "amenity": "bench",
        "backrest": "yes",
        "material": "stone",
        "seats": "3"
      }
    },
    {
      "type": "node",
      "id": 12000027567,
      "lat": 12.9477595,
      "lon": 77.5832855,
      "tags": {
        "amenity": "bench",
        "backrest": "yes",
        "material": "wood",
        "seats": "4"
      }
    },
    {
      "type": "node",
      "id": 12000027568,
      "lat": 12.9494589,
      "lon": 77.58495,
      "tags": {
        "amenity": "bench",
        "backrest": "yes",
        "seats": "3"
      }
    },
    {
      "type": "node",
      "id": 12000044812,
      "lat": 12.9477268,
      "lon": 77.5833393,
      "tags": {
        "amenity": "waste_basket",
        "material": "plastic"
      }
    },
    {
      "type": "node",
      "id": 12000047038,
      "lat": 12.9472808,
      "lon": 77.5843206,
      "tags": {
        "amenity": "bench",
        "backrest": "yes",
        "material": "wood",
        "seats": "3"
      }
    },
    {
      "type": "node",
      "id": 12000047039,
      "lat": 12.9472593,
      "lon": 77.5840031,
      "tags": {
        "amenity": "bench",
        "backrest": "yes",
        "material": "wood",
        "seats": "3"
      }
    },
    {
      "type": "node",
      "id": 12000048464,
      "lat": 12.9499556,
      "lon": 77.5832852,
      "tags": {
        "amenity": "waste_basket",
        "material": "plastic"
      }
    },
    {
      "type": "node",
      "id": 12000048468,
      "lat": 12.9533931,
      "lon": 77.5850082,
      "tags": {
        "amenity": "waste_basket"
      }
    },
    {
      "type": "node",
      "id": 12000049521,
      "lat": 12.9492228,
      "lon": 77.5841598,
      "tags": {
        "amenity": "bench",
        "backrest": "yes",
        "seats": "3"
      }
    },
    {
      "type": "node",
      "id": 12000053550,
      "lat": 12.9485766,
      "lon": 77.5806648,
      "tags": {
        "amenity": "bench",
        "backrest": "yes"
      }
    },
    {
      "type": "node",
      "id": 12000061698,
      "lat": 12.948785,
      "lon": 77.5812241,
      "tags": {
        "amenity": "bench",
        "backrest": "yes",
        "material": "wood",
        "seats": "3"
      }
    },
    {
      "type": "node",
      "id": 12000067105,
      "lat": 12.9486908,
      "lon": 77.5808158,
      "tags": {
        "amenity": "bench",
        "backrest": "yes",
        "material": "wood",
        "seats": "3"
      }
    },
    {
      "type": "node",
      "id": 12000067106,
      "lat": 12.9487856,
      "lon": 77.5809973,
      "tags": {
        "amenity": "bench",
        "backrest": "yes",
        "material": "wood",
        "seats": "2"
      }
    },
    {
      "type": "node",
      "id": 12000067107,
      "lat": 12.9487785,
      "lon": 77.5810786,
      "tags": {
        "amenity": "bench",
        "backrest": "yes",
        "material": "wood",
        "seats": "2"
      }
    },
    {
      "type": "node",
      "id": 12000068522,
      "lat": 12.947666,
      "lon": 77.5846436,
      "tags": {
        "amenity": "bench",
        "backrest": "yes",
        "material": "wood",
        "seats": "4"
      }
    },
    {
      "type": "node",
      "id": 12000068523,
      "lat": 12.9476499,
      "lon": 77.5847152,
      "tags": {
        "amenity": "bench",
        "backrest": "yes",
        "material": "wood",
        "seats": "4"
      }
    },
    {
      "type": "node",
      "id": 12000068525,
      "lat": 12.9477132,
      "lon": 77.5846983,
      "tags": {
        "amenity": "waste_basket",
        "colour": "blue green"
      }
    },
    {
      "type": "node",
      "id": 12000078219,
      "lat": 12.9475934,
      "lon": 77.583714,
      "tags": {
        "amenity": "bench",
        "backrest": "yes",
        "material": "stone",
        "seats": "3"
      }
    },
    {
      "type": "node",
      "id": 12000078220,
      "lat": 12.9475127,
      "lon": 77.5836882,
      "tags": {
        "amenity": "bench",
        "backrest": "yes",
        "material": "wood",
        "seats": "4"
      }
    },
    {
      "type": "node",
      "id": 12000078221,
      "lat": 12.9475055,
      "lon": 77.5837178,
      "tags": {
        "amenity": "bench",
        "backrest": "yes",
        "material": "wood",
        "seats": "4"
      }
    },
    {
      "type": "node",
      "id": 12000078223,
      "lat": 12.9511021,
      "lon": 77.58344,
      "tags": {
        "amenity": "bench",
        "backrest": "yes",
        "colour": "green",
        "material": "concrete",
        "seats": "3"
      }
    },
    {
      "type": "node",
      "id": 12000078224,
      "lat": 12.9511129,
      "lon": 77.5834439,
      "tags": {
        "amenity": "waste_basket",
        "colour": "green",
        "waste": "organic"
      }
    },
    {
      "type": "node",
      "id": 12000078225,
      "lat": 12.9511196,
      "lon": 77.5834463,
      "tags": {
        "amenity": "waste_basket",
        "colour": "blue",
        "waste": "recycling"
      }
    },
    {
      "type": "node",
      "id": 12000078227,
      "lat": 12.9486174,
      "lon": 77.5860148,
      "tags": {
        "amenity": "bench",
        "backrest": "yes",
        "material": "wood",
        "seats": "3"
      }
    },
    {
      "type": "node",
      "id": 12000078228,
      "lat": 12.9484836,
      "lon": 77.5859696,
      "tags": {
        "amenity": "bench",
        "backrest": "yes",
        "material": "wood",
        "seats": "3"
      }
    },
    {
      "type": "node",
      "id": 12000079741,
      "lat": 12.9485218,
      "lon": 77.5813824,
      "tags": {
        "amenity": "waste_basket",
        "colour": "green"
      }
    },
    {
      "type": "node",
      "id": 12000080414,
      "lat": 12.9480283,
      "lon": 77.5849067,
      "tags": {
        "amenity": "bench",
        "backrest": "yes",
        "material": "wood",
        "seats": "4"
      }
    },
    {
      "type": "node",
      "id": 12000080415,
      "lat": 12.9480712,
      "lon": 77.584905,
      "tags": {
        "amenity": "bench",
        "backrest": "yes",
        "material": "stone",
        "seats": "3"
      }
    },
    {
      "type": "node",
      "id": 12000080416,
      "lat": 12.948136,
      "lon": 77.5850683,
      "tags": {
        "amenity": "waste_basket"
      }
    },
    {
      "type": "node",
      "id": 12000081609,
      "lat": 12.948523,
      "lon": 77.5814169,
      "tags": {
        "amenity": "bench",
        "backrest": "yes",
        "material": "wood",
        "seats": "2"
      }
    },
    {
      "type": "node",
      "id": 12000081611,
      "lat": 12.9485545,
      "lon": 77.5816222,
      "tags": {
        "amenity": "bench",
        "backrest": "no",
        "material": "stone"
      }
    },
    {
      "type": "node",
      "id": 12000082918,
      "lat": 12.9493494,
      "lon": 77.584222,
      "tags": {
        "amenity": "waste_basket",
        "colour": "green",
        "material": "plastic"
      }
    },
    {
      "type": "node",
      "id": 12000085233,
      "lat": 12.9484807,
      "lon": 77.581678,
      "tags": {
        "amenity": "waste_basket",
        "colour": "green"
      }
    },
    {
      "type": "node",
      "id": 12000085234,
      "lat": 12.9484917,
      "lon": 77.5817179,
      "tags": {
        "amenity": "waste_basket",
        "colour": "blue"
      }
    },
    {
      "type": "node",
      "id": 12000085310,
      "lat": 12.9494656,
      "lon": 77.5826178,
      "tags": {
        "amenity": "waste_basket"
      }
    },
    {
      "type": "node",
      "id": 12000085311,
      "lat": 12.949415,
      "lon": 77.5827961,
      "tags": {
        "amenity": "bench",
        "backrest": "no",
        "seats": "2"
      }
    },
    {
      "type": "node",
      "id": 12000085312,
      "lat": 12.9509026,
      "lon": 77.5833921,
      "tags": {
        "access": "yes",
        "amenity": "drinking_water",
        "fee": "no",
        "wheelchair": "yes"
      }
    },
    {
      "type": "node",
      "id": 12000085313,
      "lat": 12.9509248,
      "lon": 77.5833982,
      "tags": {
        "amenity": "bench",
        "backrest": "yes",
        "colour": "green",
        "material": "concrete",
        "seats": "3"
      }
    },
    {
      "type": "node",
      "id": 12000089575,
      "lat": 12.9483874,
      "lon": 77.5860061,
      "tags": {
        "amenity": "bench",
        "backrest": "yes",
        "material": "wood",
        "seats": "3"
      }
    },
    {
      "type": "node",
      "id": 12000090166,
      "lat": 12.9475017,
      "lon": 77.583829,
      "tags": {
        "amenity": "bench",
        "backrest": "yes",
        "material": "wood",
        "seats": "4"
      }
    },
    {
      "type": "node",
      "id": 12000090167,
      "lat": 12.9475618,
      "lon": 77.5838651,
      "tags": {
        "amenity": "bench",
        "backrest": "yes",
        "material": "wood",
        "seats": "4"
      }
    },
    {
      "type": "node",
      "id": 12000090276,
      "lat": 12.9486722,
      "lon": 77.5826276,
      "tags": {
        "amenity": "waste_basket",
        "colour": "blue",
        "waste": "recycling"
      }
    },
    {
      "type": "node",
      "id": 12000090277,
      "lat": 12.9486733,
      "lon": 77.582625,
      "tags": {
        "amenity": "waste_basket",
        "colour": "green",
        "waste": "organic"
      }
    },
    {
      "type": "node",
      "id": 12000090679,
      "lat": 12.9482159,
      "lon": 77.5859175,
      "tags": {
        "amenity": "bench",
        "backrest": "yes",
        "material": "wood",
        "seats": "3"
      }
    },
    {
      "type": "node",
      "id": 12000090680,
      "lat": 12.9481869,
      "lon": 77.585967,
      "tags": {
        "amenity": "bench",
        "backrest": "yes",
        "material": "wood",
        "seats": "3"
      }
    },
    {
      "type": "node",
      "id": 12000090681,
      "lat": 12.9480986,
      "lon": 77.5858959,
      "tags": {
        "amenity": "bench",
        "backrest": "yes",
        "material": "wood",
        "seats": "3"
      }
    },
    {
      "type": "node",
      "id": 12000090682,
      "lat": 12.9480757,
      "lon": 77.5859462,
      "tags": {
        "amenity": "bench",
        "backrest": "yes",
        "material": "wood",
        "seats": "3"
      }
    },
    {
      "type": "node",
      "id": 12000090683,
      "lat": 12.9480065,
      "lon": 77.5859348,
      "tags": {
        "amenity": "bench",
        "backrest": "yes",
        "material": "wood",
        "seats": "3"
      }
    },
    {
      "type": "node",
      "id": 12000090685,
      "lat": 12.9474557,
      "lon": 77.5855503,
      "tags": {
        "amenity": "bench",
        "backrest": "yes",
        "material": "wood",
        "seats": "3"
      }
    },
    {
      "type": "node",
      "id": 12000090686,
      "lat": 12.9473448,
      "lon": 77.5852251,
      "tags": {
        "amenity": "bench",
        "backrest": "no",
        "material": "wood",
        "seats": "3"
      }
    },
    {
      "type": "node",
      "id": 12000090687,
      "lat": 12.9473069,
      "lon": 77.5848944,
      "tags": {
        "amenity": "bench",
        "backrest": "yes",
        "material": "wood",
        "seats": "3"
      }
    },
    {
      "type": "node",
      "id": 12000091023,
      "lat": 12.9489204,
      "lon": 77.585728,
      "tags": {
        "amenity": "bench",
        "backrest": "yes",
        "material": "wood",
        "seats": "3"
      }
    },
    {
      "type": "node",
      "id": 12000091024,
      "lat": 12.9488577,
      "lon": 77.585667,
      "tags": {
        "amenity": "bench",
        "backrest": "yes",
        "material": "wood",
        "seats": "3"
      }
    },
    {
      "type": "node",
      "id": 12000091025,
      "lat": 12.948786,
      "lon": 77.5857283,
      "tags": {
        "amenity": "bench",
        "backrest": "yes",
        "material": "wood",
        "seats": "3"
      }
    },
    {
      "type": "node",
      "id": 12000091026,
      "lat": 12.9488515,
      "lon": 77.585745,
      "tags": {
        "bench": "yes",
        "leisure": "picnic_table",
        "material": "wood"
      }
    },
    {
      "type": "node",
      "id": 12000091445,
      "lat": 12.9481917,
      "lon": 77.5829135,
      "tags": {
        "amenity": "bench",
        "backrest": "yes",
        "material": "wood",
        "seats": "4"
      }
    },
    {
      "type": "node",
      "id": 12000091447,
      "lat": 12.9479768,
      "lon": 77.5830381,
      "tags": {
        "amenity": "bench",
        "backrest": "yes",
        "material": "stone",
        "seats": "3"
      }
    },
    {
      "type": "node",
      "id": 12000091960,
      "lat": 12.949262,
      "lon": 77.5833652,
      "tags": {
        "amenity": "bench",
        "backrest": "no",
        "seats": "2"
      }
    },
    {
      "type": "node",
      "id": 12000091961,
      "lat": 12.9492295,
      "lon": 77.5835395,
      "tags": {
        "amenity": "bench",
        "backrest": "no",
        "seats": "2"
      }
    },
    {
      "type": "node",
      "id": 12000091962,
      "lat": 12.949233,
      "lon": 77.5835556,
      "tags": {
        "amenity": "waste_basket"
      }
    },
    {
      "type": "node",
      "id": 12000091963,
      "lat": 12.9492055,
      "lon": 77.5836832,
      "tags": {
        "amenity": "bench",
        "backrest": "no",
        "seats": "2"
      }
    },
    {
      "type": "node",
      "id": 12000092276,
      "lat": 12.9476195,
      "lon": 77.5836105,
      "tags": {
        "amenity": "bench",
        "backrest": "yes",
        "material": "stone",
        "seats": "3"
      }
    },
    {
      "type": "node",
      "id": 12000092277,
      "lat": 12.9476021,
      "lon": 77.5836666,
      "tags": {
        "amenity": "bench",
        "backrest": "yes",
        "material": "stone",
        "seats": "3"
      }
    },
    {
      "type": "node",
      "id": 12000093289,
      "lat": 12.9503107,
      "lon": 77.5832383,
      "tags": {
        "amenity": "bench",
        "backrest": "yes",
        "material": "wood",
        "seats": "3"
      }
    },
    {
      "type": "node",
      "id": 12000093290,
      "lat": 12.9499754,
      "lon": 77.5831517,
      "tags": {
        "amenity": "bench",
        "backrest": "yes",
        "material": "concrete",
        "seats": "3"
      }
    },
    {
      "type": "node",
      "id": 12000093490,
      "lat": 12.9477324,
      "lon": 77.5847176,
      "tags": {
        "amenity": "waste_basket",
        "colour": "blue green"
      }
    },
    {
      "type": "node",
      "id": 12000093491,
      "lat": 12.9476864,
      "lon": 77.5847734,
      "tags": {
        "amenity": "bench",
        "backrest": "yes",
        "material": "stone",
        "seats": "3"
      }
    },
    {
      "type": "node",
      "id": 12000093492,
      "lat": 12.9477876,
      "lon": 77.5848177,
      "tags": {
        "amenity": "bench",
        "backrest": "yes",
        "material": "stone",
        "seats": "3"
      }
    },
    {
      "type": "node",
      "id": 12000093494,
      "lat": 12.9478337,
      "lon": 77.5849751,
      "tags": {
        "amenity": "bench",
        "backrest": "yes",
        "material": "wood",
        "seats": "4"
      }
    },
    {
      "type": "node",
      "id": 12000093495,
      "lat": 12.9478436,
      "lon": 77.58498,
      "tags": {
        "amenity": "bench",
        "backrest": "yes",
        "material": "wood",
        "seats": "4"
      }
    },
    {
      "type": "node",
      "id": 12000093776,
      "lat": 12.949167,
      "lon": 77.5829491,
      "tags": {
        "amenity": "waste_basket",
        "colour": "blue",
        "waste": "recycling"
      }
    },
    {
      "type": "node",
      "id": 12000095350,
      "lat": 12.9499232,
      "lon": 77.5831298,
      "tags": {
        "amenity": "waste_basket",
        "colour": "blue",
        "waste": "recycling"
      }
    },
    {
      "type": "node",
      "id": 12000095351,
      "lat": 12.9514406,
      "lon": 77.5835265,
      "tags": {
        "amenity": "bench",
        "backrest": "yes",
        "material": "stone",
        "seats": "3"
      }
    },
    {
      "type": "node",
      "id": 12000095352,
      "lat": 12.9515001,
      "lon": 77.5836554,
      "tags": {
        "amenity": "bench",
        "backrest": "yes",
        "colour": "green",
        "material": "concrete",
        "seats": "3"
      }
    },
    {
      "type": "node",
      "id": 12000095353,
      "lat": 12.9514716,
      "lon": 77.5836507,
      "tags": {
        "amenity": "waste_basket",
        "colour": "blue",
        "waste": "recycling"
      }
    },
    {
      "type": "node",
      "id": 12000095354,
      "lat": 12.9514523,
      "lon": 77.5836481,
      "tags": {
        "amenity": "waste_basket",
        "colour": "green",
        "waste": "organic"
      }
    },
    {
      "type": "node",
      "id": 12000095490,
      "lat": 12.9491717,
      "lon": 77.5840157,
      "tags": {
        "amenity": "waste_basket",
        "colour": "brown"
      }
    },
    {
      "type": "node",
      "id": 12000095491,
      "lat": 12.9491744,
      "lon": 77.5839919,
      "tags": {
        "amenity": "waste_basket",
        "colour": "blue"
      }
    },
    {
      "type": "node",
      "id": 12000095492,
      "lat": 12.949182,
      "lon": 77.5841422,
      "tags": {
        "amenity": "waste_basket",
        "colour": "blue"
      }
    },
    {
      "type": "node",
      "id": 12000095493,
      "lat": 12.9491763,
      "lon": 77.5841304,
      "tags": {
        "amenity": "waste_basket",
        "colour": "green",
        "name:en": "Trashcan"
      }
    },
    {
      "type": "node",
      "id": 12000095495,
      "lat": 12.9493312,
      "lon": 77.5842214,
      "tags": {
        "amenity": "waste_basket",
        "colour": "blue"
      }
    },
    {
      "type": "node",
      "id": 12000095496,
      "lat": 12.9494982,
      "lon": 77.5845087,
      "tags": {
        "amenity": "waste_basket",
        "colour": "brown"
      }
    },
    {
      "type": "node",
      "id": 12000095497,
      "lat": 12.9494406,
      "lon": 77.5845919,
      "tags": {
        "amenity": "bench",
        "lit": "yes"
      }
    },
    {
      "type": "node",
      "id": 12000095498,
      "lat": 12.9494132,
      "lon": 77.5846938,
      "tags": {
        "amenity": "bench",
        "backrest": "yes",
        "material": "stone"
      }
    },
    {
      "type": "node",
      "id": 12000095499,
      "lat": 12.949418,
      "lon": 77.5847239,
      "tags": {
        "amenity": "bench",
        "backrest": "yes",
        "material": "stone"
      }
    },
    {
      "type": "node",
      "id": 12000095500,
      "lat": 12.9494089,
      "lon": 77.5848058,
      "tags": {
        "amenity": "bench",
        "backrest": "yes",
        "material": "stone"
      }
    },
    {
      "type": "node",
      "id": 12000095501,
      "lat": 12.9494216,
      "lon": 77.5848413,
      "tags": {
        "amenity": "waste_basket",
        "colour": "brown"
      }
    },
    {
      "type": "node",
      "id": 12000095993,
      "lat": 12.9491988,
      "lon": 77.5841508,
      "tags": {
        "amenity": "bench",
        "backrest": "yes",
        "seats": "3"
      }
    },
    {
      "type": "node",
      "id": 12000101352,
      "lat": 12.9500151,
      "lon": 77.5832921,
      "tags": {
        "amenity": "bench",
        "backrest": "yes",
        "colour": "green",
        "material": "concrete",
        "seats": "2"
      }
    },
    {
      "type": "node",
      "id": 12000101930,
      "lat": 12.9500749,
      "lon": 77.5828167,
      "tags": {
        "amenity": "bench",
        "backrest": "yes",
        "material": "stone",
        "seats": "3"
      }
    },
    {
      "type": "node",
      "id": 12000101977,
      "lat": 12.9492318,
      "lon": 77.5829608,
      "tags": {
        "amenity": "bench",
        "backrest": "yes",
        "colour": "green",
        "material": "concrete",
        "seats": "3"
      }
    },
    {
      "type": "node",
      "id": 12000101980,
      "lat": 12.9472849,
      "lon": 77.5839237,
      "tags": {
        "amenity": "waste_basket",
        "colour": "green"
      }
    },
    {
      "type": "node",
      "id": 12000101981,
      "lat": 12.9472794,
      "lon": 77.583906,
      "tags": {
        "amenity": "waste_basket",
        "colour": "blue"
      }
    },
    {
      "type": "node",
      "id": 12000103764,
      "lat": 12.9515979,
      "lon": 77.5835711,
      "tags": {
        "amenity": "bench",
        "backrest": "no",
        "material": "stone",
        "seats": "3"
      }
    },
    {
      "type": "node",
      "id": 12000103765,
      "lat": 12.9516136,
      "lon": 77.583575,
      "tags": {
        "amenity": "waste_basket",
        "waste": "mixed"
      }
    },
    {
      "type": "node",
      "id": 12000103915,
      "lat": 12.9509502,
      "lon": 77.5830348,
      "tags": {
        "amenity": "bench",
        "backrest": "yes",
        "seats": "2"
      }
    },
    {
      "type": "node",
      "id": 12000103916,
      "lat": 12.9510058,
      "lon": 77.5829578,
      "tags": {
        "amenity": "bench",
        "backrest": "yes",
        "material": "stone",
        "seats": "2"
      }
    },
    {
      "type": "node",
      "id": 12000103918,
      "lat": 12.9513388,
      "lon": 77.5830781,
      "tags": {
        "amenity": "shelter",
        "bench": "no",
        "lit": "no",
        "shelter_type": "gazebo"
      }
    },
    {
      "type": "node",
      "id": 12000103919,
      "lat": 12.9489527,
      "lon": 77.5850679,
      "tags": {
        "brand": "HOPCOMS",
        "brand:wikidata": "Q22908959",
        "check_date": "2024-06-22",
        "name": "HOPCOMS",
        "shop": "greengrocer"
      }
    },
    {
      "type": "node",
      "id": 12000105613,
      "lat": 12.9512843,
      "lon": 77.5834874,
      "tags": {
        "amenity": "bench",
        "backrest": "yes",
        "colour": "green",
        "material": "concrete",
        "seats": "3"
      }
    },
    {
      "type": "node",
      "id": 12000106443,
      "lat": 12.9494228,
      "lon": 77.5850459,
      "tags": {
        "amenity": "waste_basket",
        "material": "plastic"
      }
    },
    {
      "type": "node",
      "id": 12000106446,
      "lat": 12.9508354,
      "lon": 77.5835162,
      "tags": {
        "amenity": "bench",
        "backrest": "no",
        "material": "stone"
      }
    },
    {
      "type": "node",
      "id": 12000106447,
      "lat": 12.9508996,
      "lon": 77.5835348,
      "tags": {
        "amenity": "bench",
        "backrest": "no",
        "material": "stone"
      }
    },
    {
      "type": "node",
      "id": 12000107567,
      "lat": 12.9472912,
      "lon": 77.5836489,
      "tags": {
        "amenity": "bench",
        "backrest": "yes",
        "material": "wood",
        "seats": "3"
      }
    },
    {
      "type": "node",
      "id": 12000107758,
      "lat": 12.9535803,
      "lon": 77.5849908,
      "tags": {
        "amenity": "waste_basket"
      }
    },
    {
      "type": "node",
      "id": 12000108477,
      "lat": 12.9492162,
      "lon": 77.585193,
      "tags": {
        "amenity": "bench",
        "backrest": "yes",
        "seats": "3"
      }
    },
    {
      "type": "node",
      "id": 12000108478,
      "lat": 12.9491696,
      "lon": 77.5853015,
      "tags": {
        "amenity": "bench",
        "backrest": "yes",
        "seats": "3"
      }
    },
    {
      "type": "node",
      "id": 12000108675,
      "lat": 12.9501342,
      "lon": 77.5834318,
      "tags": {
        "amenity": "bench",
        "backrest": "no",
        "material": "stone",
        "seats": "3"
      }
    },
    {
      "type": "node",
      "id": 12000108676,
      "lat": 12.9501303,
      "lon": 77.5834791,
      "tags": {
        "amenity": "bench",
        "backrest": "no",
        "material": "stone",
        "seats": "3"
      }
    },
    {
      "type": "node",
      "id": 12000108779,
      "lat": 12.9504113,
      "lon": 77.5833837,
      "tags": {
        "amenity": "waste_basket",
        "colour": "blue",
        "waste": "recycling"
      }
    },
    {
      "type": "node",
      "id": 12000108780,
      "lat": 12.9503965,
      "lon": 77.5833821,
      "tags": {
        "amenity": "waste_basket",
        "colour": "green",
        "waste": "organic"
      }
    },
    {
      "type": "node",
      "id": 12000108969,
      "lat": 12.9494393,
      "lon": 77.5850413,
      "tags": {
        "amenity": "bench",
        "backrest": "yes",
        "seats": "3"
      }
    },
    {
      "type": "node",
      "id": 12000108970,
      "lat": 12.949401,
      "lon": 77.5851211,
      "tags": {
        "amenity": "bench",
        "backrest": "yes",
        "seats": "3"
      }
    },
    {
      "type": "node",
      "id": 12000109175,
      "lat": 12.9532948,
      "lon": 77.5851274,
      "tags": {
        "amenity": "drinking_water"
      }
    },
    {
      "type": "node",
      "id": 12000109176,
      "lat": 12.953211,
      "lon": 77.585119,
      "tags": {
        "amenity": "waste_basket"
      }
    },
    {
      "type": "node",
      "id": 12000111340,
      "lat": 12.9475707,
      "lon": 77.5841371,
      "tags": {
        "amenity": "bench",
        "backrest": "yes",
        "material": "stone",
        "seats": "3"
      }
    },
    {
      "type": "node",
      "id": 12000111342,
      "lat": 12.9475653,
      "lon": 77.5843578,
      "tags": {
        "amenity": "bench",
        "backrest": "yes",
        "material": "wood",
        "seats": "4"
      }
    },
    {
      "type": "node",
      "id": 12000111344,
      "lat": 12.9475989,
      "lon": 77.5845301,
      "tags": {
        "amenity": "bench",
        "backrest": "yes",
        "material": "wood",
        "seats": "4"
      }
    },
    {
      "type": "node",
      "id": 12000113010,
      "lat": 12.9493673,
      "lon": 77.5852288,
      "tags": {
        "amenity": "waste_basket",
        "colour": "brown"
      }
    },
    {
      "type": "node",
      "id": 12000113016,
      "lat": 12.948024,
      "lon": 77.5858658,
      "tags": {
        "amenity": "waste_basket",
        "colour": "brown"
      }
    },
    {
      "type": "node",
      "id": 12000113017,
      "lat": 12.947953,
      "lon": 77.5859284,
      "tags": {
        "amenity": "waste_basket",
        "colour": "blue"
      }
    },
    {
      "type": "node",
      "id": 12000113018,
      "lat": 12.9479382,
      "lon": 77.5859235,
      "tags": {
        "amenity": "waste_basket",
        "colour": "green"
      }
    },
    {
      "type": "node",
      "id": 12000120030,
      "lat": 12.9510886,
      "lon": 77.5837854,
      "tags": {
        "amenity": "bench",
        "backrest": "no",
        "material": "stone",
        "seats": "3"
      }
    },
    {
      "type": "node",
      "id": 12000120031,
      "lat": 12.9511454,
      "lon": 77.583799,
      "tags": {
        "amenity": "bench",
        "backrest": "no",
        "material": "stone",
        "seats": "3"
      }
    },
    {
      "type": "node",
      "id": 12000126198,
      "lat": 12.9474604,
      "lon": 77.5831749,
      "tags": {
        "amenity": "bench",
        "backrest": "yes",
        "material": "wood",
        "seats": "3"
      }
    },
    {
      "type": "node",
      "id": 12000126199,
      "lat": 12.9475503,
      "lon": 77.5830068,
      "tags": {
        "amenity": "bench",
        "backrest": "yes",
        "material": "wood",
        "seats": "3"
      }
    },
    {
      "type": "node",
      "id": 12000126200,
      "lat": 12.9476395,
      "lon": 77.5828504,
      "tags": {
        "amenity": "bench",
        "backrest": "yes",
        "material": "wood",
        "seats": "3"
      }
    },
    {
      "type": "node",
      "id": 12000126201,
      "lat": 12.9479526,
      "lon": 77.5823043,
      "tags": {
        "amenity": "bench",
        "backrest": "yes",
        "material": "wood",
        "seats": "3"
      }
    },
    {
      "type": "node",
      "id": 12000126202,
      "lat": 12.9481217,
      "lon": 77.5820667,
      "tags": {
        "amenity": "bench",
        "backrest": "yes",
        "material": "wood",
        "seats": "3"
      }
    },
    {
      "type": "node",
      "id": 12000126203,
      "lat": 12.9483094,
      "lon": 77.5818383,
      "tags": {
        "amenity": "bench",
        "backrest": "no",
        "material": "wood",
        "seats": "3"
      }
    },
    {
      "type": "node",
      "id": 12000126769,
      "lat": 12.9518909,
      "lon": 77.5848763,
      "tags": {
        "amenity": "clock"
      }
    },
    {
      "type": "node",
      "id": 12000126770,
      "lat": 12.9511255,
      "lon": 77.5847047,
      "tags": {
        "amenity": "fountain"
      }
    },
    {
      "type": "node",
      "id": 12000126771,
      "lat": 12.9509424,
      "lon": 77.5845687,
      "tags": {
        "brand": "HOPCOMS",
        "brand:wikidata": "Q22908959",
        "check_date": "2024-06-22",
        "name": "HOPCOMS",
        "shop": "greengrocer"
      }
    },
    {
      "type": "node",
      "id": 12000126772,
      "lat": 12.9500557,
      "lon": 77.5843326,
      "tags": {
        "amenity": "waste_basket"
      }
    },
    {
      "type": "node",
      "id": 12000126773,
      "lat": 12.9497285,
      "lon": 77.5839621,
      "tags": {
        "amenity": "fountain"
      }
    },
    {
      "type": "node",
      "id": 12000217924,
      "lat": 12.9506158,
      "lon": 77.5736394,
      "tags": {
        "amenity": "atm",
        "brand": "State Bank of India",
        "brand:wikidata": "Q1340361",
        "check_date": "2024-06-22",
        "level": "1",
        "operator": "State Bank of India",
        "operator:wikidata": "Q1340361"
      }
    },
    {
      "type": "node",
      "id": 12000217925,
      "lat": 12.9503,
      "lon": 77.5738513,
      "tags": {
        "access": "permissive",
        "amenity": "toilets",
        "check_date": "2024-06-22",
        "female": "yes",
        "level": "1",
        "male": "yes",
        "operator": "BMRCL",
        "toilets:handwashing": "yes",
        "toilets:position": "urinal"
      }
    },
    {
      "type": "node",
      "id": 12000298579,
      "lat": 12.9464586,
      "lon": 77.5789472,
      "tags": {
        "name": "Nandini",
        "shop": "milk"
      }
    },
    {
      "type": "node",
      "id": 12000301387,
      "lat": 12.9462618,
      "lon": 77.579768,
      "tags": {
        "name": "Sree Bhagvan Traders",
        "shop": "wholesale"
      }
    },
    {
      "type": "node",
      "id": 12000333829,
      "lat": 12.9498201,
      "lon": 77.583229,
      "tags": {
        "amenity": "bench",
        "backrest": "yes"
      }
    },
    {
      "type": "node",
      "id": 12000333830,
      "lat": 12.9487492,
      "lon": 77.5827597,
      "tags": {
        "amenity": "bench",
        "backrest": "yes",
        "material": "stone"
      }
    },
    {
      "type": "node",
      "id": 12000333833,
      "lat": 12.9484563,
      "lon": 77.5827977,
      "tags": {
        "amenity": "waste_basket"
      }
    },
    {
      "type": "node",
      "id": 12000333834,
      "lat": 12.9484582,
      "lon": 77.5829158,
      "tags": {
        "amenity": "waste_basket",
        "material": "plastic"
      }
    },
    {
      "type": "node",
      "id": 12000333835,
      "lat": 12.9485588,
      "lon": 77.5829471,
      "tags": {
        "amenity": "bench",
        "backrest": "yes",
        "colour": "green"
      }
    },
    {
      "type": "node",
      "id": 12000333836,
      "lat": 12.9486003,
      "lon": 77.58295,
      "tags": {
        "amenity": "bench",
        "backrest": "yes",
        "colour": "green"
      }
    },
    {
      "type": "node",
      "id": 12000333837,
      "lat": 12.9486256,
      "lon": 77.5829604,
      "tags": {
        "amenity": "bench",
        "backrest": "yes",
        "colour": "green"
      }
    },
    {
      "type": "node",
      "id": 12000333838,
      "lat": 12.948652,
      "lon": 77.5829647,
      "tags": {
        "amenity": "bench",
        "backrest": "yes",
        "colour": "green"
      }
    },
    {
      "type": "node",
      "id": 12000333839,
      "lat": 12.9487508,
      "lon": 77.5829779,
      "tags": {
        "amenity": "bench",
        "backrest": "yes",
        "colour": "green"
      }
    },
    {
      "type": "node",
      "id": 12000333840,
      "lat": 12.948857,
      "lon": 77.5830116,
      "tags": {
        "amenity": "bench",
        "backrest": "yes",
        "colour": "green"
      }
    },
    {
      "type": "node",
      "id": 12000333841,
      "lat": 12.9490632,
      "lon": 77.5830589,
      "tags": {
        "amenity": "bench",
        "backrest": "yes",
        "colour": "green"
      }
    },
    {
      "type": "node",
      "id": 12000333842,
      "lat": 12.949531,
      "lon": 77.5831773,
      "tags": {
        "amenity": "bench",
        "backrest": "yes",
        "colour": "green"
      }
    },
    {
      "type": "node",
      "id": 12000333843,
      "lat": 12.9495587,
      "lon": 77.5831816,
      "tags": {
        "amenity": "bench",
        "backrest": "yes",
        "colour": "green"
      }
    },
    {
      "type": "node",
      "id": 12000333844,
      "lat": 12.9487765,
      "lon": 77.5822511,
      "tags": {
        "amenity": "bench",
        "backrest": "no",
        "material": "stone"
      }
    },
    {
      "type": "node",
      "id": 12000333845,
      "lat": 12.9498669,
      "lon": 77.5832425,
      "tags": {
        "amenity": "bench",
        "backrest": "yes"
      }
    },
    {
      "type": "node",
      "id": 12000333846,
      "lat": 12.9499774,
      "lon": 77.5832663,
      "tags": {
        "amenity": "waste_basket"
      }
    },
    {
      "type": "node",
      "id": 12000333847,
      "lat": 12.9500179,
      "lon": 77.583282,
      "tags": {
        "amenity": "bench",
        "backrest": "yes",
        "colour": "green",
        "material": "stone"
      }
    },
    {
      "type": "node",
      "id": 12000333848,
      "lat": 12.9501188,
      "lon": 77.5834491,
      "tags": {
        "amenity": "bench",
        "backrest": "no",
        "material": "stone"
      }
    },
    {
      "type": "node",
      "id": 12000333849,
      "lat": 12.9501128,
      "lon": 77.5834673,
      "tags": {
        "amenity": "bench",
        "backrest": "no",
        "material": "stone"
      }
    },
    {
      "type": "node",
      "id": 12000333850,
      "lat": 12.9511324,
      "lon": 77.5834435,
      "tags": {
        "amenity": "waste_basket"
      }
    },
    {
      "type": "node",
      "id": 12000333851,
      "lat": 12.9513197,
      "lon": 77.5836359,
      "tags": {
        "amenity": "bench",
        "backrest": "no",
        "material": "stone"
      }
    },
    {
      "type": "node",
      "id": 12000333852,
      "lat": 12.9514036,
      "lon": 77.5835121,
      "tags": {
        "amenity": "bench",
        "backrest": "yes",
        "material": "concrete"
      }
    },
    {
      "type": "node",
      "id": 12000333853,
      "lat": 12.9512665,
      "lon": 77.5834608,
      "tags": {
        "amenity": "bench",
        "backrest": "yes",
        "material": "concrete"
      }
    },
    {
      "type": "node",
      "id": 12000333854,
      "lat": 12.9510703,
      "lon": 77.5834289,
      "tags": {
        "amenity": "bench",
        "backrest": "yes",
        "material": "concrete"
      }
    },
    {
      "type": "node",
      "id": 12000333855,
      "lat": 12.9510243,
      "lon": 77.5835594,
      "tags": {
        "amenity": "bench",
        "backrest": "no"
      }
    },
    {
      "type": "node",
      "id": 12000333856,
      "lat": 12.9509138,
      "lon": 77.5835384,
      "tags": {
        "amenity": "bench",
        "backrest": "no"
      }
    },
    {
      "type": "node",
      "id": 12000333857,
      "lat": 12.9509549,
      "lon": 77.5835467,
      "tags": {
        "amenity": "bench",
        "backrest": "no"
      }
    },
    {
      "type": "node",
      "id": 12000333858,
      "lat": 12.9515319,
      "lon": 77.5835405,
      "tags": {
        "amenity": "bench",
        "backrest": "no",
        "material": "stone"
      }
    },
    {
      "type": "node",
      "id": 12000333859,
      "lat": 12.9515851,
      "lon": 77.5835592,
      "tags": {
        "amenity": "waste_basket"
      }
    },
    {
      "type": "node",
      "id": 12000333860,
      "lat": 12.9535837,
      "lon": 77.5849067,
      "tags": {
        "amenity": "waste_basket"
      }
    },
    {
      "type": "node",
      "id": 12000333861,
      "lat": 12.9517936,
      "lon": 77.5837218,
      "tags": {
        "amenity": "bench",
        "backrest": "yes"
      }
    },
    {
      "type": "node",
      "id": 12000333862,
      "lat": 12.9519076,
      "lon": 77.5836322,
      "tags": {
        "amenity": "waste_basket"
      }
    },
    {
      "type": "node",
      "id": 12000333863,
      "lat": 12.9518996,
      "lon": 77.5837484,
      "tags": {
        "amenity": "waste_basket"
      }
    },
    {
      "type": "node",
      "id": 12000333864,
      "lat": 12.9522123,
      "lon": 77.5838239,
      "tags": {
        "amenity": "bench",
        "backrest": "yes"
      }
    },
    {
      "type": "node",
      "id": 12000333865,
      "lat": 12.9522509,
      "lon": 77.5838309,
      "tags": {
        "amenity": "waste_basket"
      }
    },
    {
      "type": "node",
      "id": 12000333866,
      "lat": 12.9523954,
      "lon": 77.5838654,
      "tags": {
        "amenity": "bench",
        "backrest": "yes"
      }
    },
    {
      "type": "node",
      "id": 12000333867,
      "lat": 12.9523299,
      "lon": 77.5837435,
      "tags": {
        "amenity": "bench",
        "backrest": "yes"
      }
    },
    {
      "type": "node",
      "id": 12000333868,
      "lat": 12.9523508,
      "lon": 77.5841706,
      "tags": {
        "amenity": "bench",
        "backrest": "yes"
      }
    },
    {
      "type": "node",
      "id": 12000359669,
      "lat": 12.9524939,
      "lon": 77.5837914,
      "tags": {
        "amenity": "waste_basket"
      }
    },
    {
      "type": "node",
      "id": 12000359670,
      "lat": 12.9529697,
      "lon": 77.5839233,
      "tags": {
        "amenity": "waste_basket"
      }
    },
    {
      "type": "node",
      "id": 12000359671,
      "lat": 12.9531516,
      "lon": 77.5841746,
      "tags": {
        "amenity": "waste_basket"
      }
    },
    {
      "type": "node",
      "id": 12000359672,
      "lat": 12.9532353,
      "lon": 77.5841196,
      "tags": {
        "amenity": "bench",
        "backrest": "yes"
      }
    },
    {
      "type": "node",
      "id": 12000359673,
      "lat": 12.9534505,
      "lon": 77.5846776,
      "tags": {
        "amenity": "bench",
        "backrest": "yes"
      }
    },
    {
      "type": "node",
      "id": 12000359674,
      "lat": 12.9534355,
      "lon": 77.5846438,
      "tags": {
        "amenity": "bench",
        "backrest": "yes"
      }
    },
    {
      "type": "node",
      "id": 12000359675,
      "lat": 12.9535811,
      "lon": 77.5847475,
      "tags": {
        "amenity": "waste_basket"
      }
    },
    {
      "type": "node",
      "id": 12000359676,
      "lat": 12.9518218,
      "lon": 77.5836145,
      "tags": {
        "amenity": "bench",
        "backrest": "yes"
      }
    },
    {
      "type": "node",
      "id": 12009574028,
      "lat": 12.9482237,
      "lon": 77.5805186,
      "tags": {
        "amenity": "waste_basket"
      }
    },
    {
      "type": "node",
      "id": 12009574029,
      "lat": 12.9484159,
      "lon": 77.5809324,
      "tags": {
        "amenity": "bench",
        "backrest": "yes"
      }
    },
    {
      "type": "node",
      "id": 12009574030,
      "lat": 12.9484662,
      "lon": 77.5809022,
      "tags": {
        "amenity": "bench",
        "backrest": "yes"
      }
    },
    {
      "type": "node",
      "id": 12009574031,
      "lat": 12.9485211,
      "lon": 77.5808499,
      "tags": {
        "amenity": "bench",
        "backrest": "yes"
      }
    },
    {
      "type": "node",
      "id": 12009574032,
      "lat": 12.9485629,
      "lon": 77.5807929,
      "tags": {
        "amenity": "bench",
        "backrest": "yes"
      }
    },
    {
      "type": "node",
      "id": 12009574033,
      "lat": 12.948574,
      "lon": 77.5807299,
      "tags": {
        "amenity": "bench",
        "backrest": "yes"
      }
    },
    {
      "type": "node",
      "id": 12061117156,
      "lat": 12.9563963,
      "lon": 77.5862865,
      "tags": {
        "addr:floor": "G",
        "brand": "Volkswagen",
        "brand:wikidata": "Q246",
        "check_date": "2024-07-18",
        "level": "0",
        "name": "Volkswagen Bengaluru Central",
        "name:en": "Volkswagen Bengaluru Central",
        "shop": "car"
      }
    },
    {
      "type": "node",
      "id": 12061117157,
      "lat": 12.9568208,
      "lon": 77.5862981,
      "tags": {
        "addr:floor": "G",
        "brand": "Kia",
        "brand:wikidata": "Q35349",
        "check_date": "2024-07-18",
        "level": "0",
        "name": "Advaith Kia",
        "name:en": "Advaith Kia",
        "shop": "car"
      }
    },
    {
      "type": "node",
      "id": 12135983674,
      "lat": 12.9613041,
      "lon": 77.5837721,
      "tags": {
        "amenity": "bank",
        "brand": "Dhanlaxmi Bank",
        "brand:wikidata": "Q2040440",
        "name": "Dhanlaxmi Bank",
        "name:kn": "ಧನಲಕ್ಷ್ಮಿ ಬ್ಯಾಂಕ್"
      }
    },
    {
      "type": "node",
      "id": 12161153127,
      "lat": 12.9461753,
      "lon": 77.5801491,
      "tags": {
        "access": "customers",
        "amenity": "drinking_water",
        "fee": "no",
        "indoor": "yes",
        "level": "1",
        "operator": "BMRCL"
      }
    },
    {
      "type": "node",
      "id": 12161153128,
      "lat": 12.9461746,
      "lon": 77.5799556,
      "tags": {
        "access": "customers",
        "amenity": "drinking_water",
        "fee": "no",
        "indoor": "yes",
        "level": "1",
        "operator": "BMRCL"
      }
    },
    {
      "type": "node",
      "id": 12161153129,
      "lat": 12.9464594,
      "lon": 77.5801001,
      "tags": {
        "amenity": "atm",
        "brand": "State Bank of India",
        "brand:wikidata": "Q1340361",
        "check_date": "2024-09-07",
        "covered": "yes",
        "indoor": "yes",
        "level": "1",
        "operator": "State Bank of India",
        "operator:wikidata": "Q1340361",
        "short_name": "SBI"
      }
    },
    {
      "type": "node",
      "id": 12161169167,
      "lat": 12.9462343,
      "lon": 77.580172,
      "tags": {
        "amenity": "waste_basket"
      }
    },
    {
      "type": "node",
      "id": 12229231972,
      "lat": 12.950408,
      "lon": 77.5841621,
      "tags": {
        "amenity": "fountain"
      }
    },
    {
      "type": "node",
      "id": 12541779301,
      "lat": 12.9569057,
      "lon": 77.5824398,
      "tags": {
        "amenity": "hospital",
        "name": "H Siddiah Referral Hospital"
      }
    },
    {
      "type": "node",
      "id": 12558309901,
      "lat": 12.9571022,
      "lon": 77.5838084,
      "tags": {
        "amenity": "community_centre",
        "name": "Bangalore City Dr Ambedkar Youth Welfare Association"
      }
    },
    {
      "type": "node",
      "id": 12655645187,
      "lat": 12.957077,
      "lon": 77.5819551,
      "tags": {
        "amenity": "social_facility",
        "brand": "Indira Canteen",
        "cuisine": "south_indian",
        "indoor_seating": "bar_table",
        "level": "0",
        "name": "Indira Canteen",
        "opening_hours": "Mo-Su 07:30-09:30,13:00-14:30,19:30-21:30",
        "operator": "BBMP",
        "social_facility": "food_bank",
        "takeaway": "no",
        "toilets": "no",
        "wheelchair": "no"
      }
    },
    {
      "type": "node",
      "id": 12811493359,
      "lat": 12.9552932,
      "lon": 77.5800239,
      "tags": {
        "amenity": "atm",
        "name": "Kotak Mahindra Bank ATM"
      }
    },
    {
      "type": "node",
      "id": 12856900605,
      "lat": 12.9461567,
      "lon": 77.579999,
      "tags": {
        "access": "permissive",
        "addr:floor": "1",
        "amenity": "toilets",
        "female": "yes",
        "fixme": "Accurate location within station",
        "level": "1",
        "male": "yes",
        "operator": "BMRCL",
        "toilets:handwashing": "yes",
        "toilets:position": "urinal"
      }
    },
    {
      "type": "node",
      "id": 12925347032,
      "lat": 12.9546952,
      "lon": 77.5822366,
      "tags": {
        "check_date": "2025-06-19",
        "name": "AS Auto Sparts",
        "shop": "car_repair"
      }
    },
    {
      "type": "node",
      "id": 12925347033,
      "lat": 12.9546874,
      "lon": 77.5821725,
      "tags": {
        "amenity": "fast_food",
        "check_date": "2025-06-19",
        "name": "Shahi Tandoor"
      }
    },
    {
      "type": "node",
      "id": 12925347034,
      "lat": 12.9548787,
      "lon": 77.5819959,
      "tags": {
        "amenity": "fast_food",
        "check_date": "2025-06-19",
        "name": "Mithai Ghar"
      }
    },
    {
      "type": "node",
      "id": 12925347035,
      "lat": 12.9548621,
      "lon": 77.5821271,
      "tags": {
        "check_date": "2025-06-19",
        "name": "National Poultry Centre",
        "shop": "butcher"
      }
    },
    {
      "type": "node",
      "id": 12925347036,
      "lat": 12.9549018,
      "lon": 77.5816313,
      "tags": {
        "check_date": "2025-06-19",
        "name": "Nakoda Jewelers",
        "shop": "jewelry"
      }
    },
    {
      "type": "node",
      "id": 12966576918,
      "lat": 12.9514233,
      "lon": 77.5830916,
      "tags": {
        "amenity": "shelter",
        "shelter_type": "gazebo"
      }
    },
    {
      "type": "node",
      "id": 13131428225,
      "lat": 12.9479933,
      "lon": 77.580087,
      "tags": {
        "addr:city": "Bengaluru",
        "addr:housenumber": "Lalbagh West Gate",
        "addr:street": "Rashtriya Vidyalaya Road",
        "name": "Tea Stall",
        "shop": "supermarket"
      }
    },
    {
      "type": "node",
      "id": 13195197468,
      "lat": 12.9510042,
      "lon": 77.5874497,
      "tags": {
        "amenity": "bench"
      }
    },
    {
      "type": "node",
      "id": 13195211142,
      "lat": 12.9509978,
      "lon": 77.587449,
      "tags": {
        "amenity": "bench"
      }
    },
    {
      "type": "node",
      "id": 13288507189,
      "lat": 12.9453221,
      "lon": 77.577083,
      "tags": {
        "amenity": "restaurant",
        "name": "Moonstone"
      }
    },
    {
      "type": "node",
      "id": 13294460164,
      "lat": 12.9446046,
      "lon": 77.5791252,
      "tags": {
        "amenity": "place_of_worship",
        "religion": "hindu"
      }
    },
    {
      "type": "way",
      "id": 15802464,
      "center": {
        "lat": 12.9488929,
        "lon": 77.5866687
      },
      "tags": {
        "leisure": "park",
        "name": "Lalbagh Botanical Gardens",
        "name:kn": "ಲಾಲ್‌ಬಾಗ್ ಸಸ್ಯೋದ್ಯಾನ",
        "name:te": "లాల్‌బాగ్ వృక్షశాస్త్ర ఉద్యానవనం",
        "tourism": "attraction",
        "wikidata": "Q200711",
        "wikimedia_commons": "Category:Lalbagh Botanical Garden",
        "wikipedia": "en:Lal Bagh"
      }
    },
    {
      "type": "way",
      "id": 36958500,
      "center": {
        "lat": 12.952325,
        "lon": 77.5768001
      },
      "tags": {
        "leisure": "park",
        "name": "Sajjan Rao Park",
        "name:etymology:wikidata": "Q55418995",
        "name:kn": "ಸಜ್ಜನ ರಾವ ಉದ್ಯಾನವನ"
      }
    },
    {
      "type": "way",
      "id": 36965410,
      "center": {
        "lat": 12.9566385,
        "lon": 77.5819567
      },
      "tags": {
        "access": "yes",
        "amenity": "parking",
        "building": "yes",
        "fee": "yes",
        "lit": "yes",
        "name": "BBMP JC road multi level car and bike parking",
        "opening_hours": "24/7",
        "operator": "BBMP",
        "park_ride": "no",
        "parking": "multi-storey"
      }
    },
    {
      "type": "way",
      "id": 37339217,
      "center": {
        "lat": 12.9603969,
        "lon": 77.5771506
      },
      "tags": {
        "amenity": "bus_station",
        "bus": "yes",
        "name": "Kalasipalya Bus Stand",
        "name:kn": "ಕಲಾಸಿಪಾಳ್ಯ ಬಸ್ ನಿಲ್ದಾಣ",
        "public_transport": "station"
      }
    },
    {
      "type": "way",
      "id": 38751027,
      "center": {
        "lat": 12.9551191,
        "lon": 77.5745838
      },
      "tags": {
        "amenity": "college"
      }
    },
    {
      "type": "way",
      "id": 38752414,
      "center": {
        "lat": 12.9488247,
        "lon": 77.5729782
      },
      "tags": {
        "amenity": "school",
        "name": "National College and School",
        "name:kn": "ನ್ಯಾಶನಲ್ ಕಾಲೇಜು",
        "wheelchair": "limited"
      }
    },
    {
      "type": "way",
      "id": 38752416,
      "center": {
        "lat": 12.9517149,
        "lon": 77.572868
      },
      "tags": {
        "leisure": "sports_centre",
        "name": "Basavanagudi Swimming Pool",
        "name:kn": "ಬಸವನಗುಡಿ ಈಜುಕೊಳ"
      }
    },
    {
      "type": "way",
      "id": 40629056,
      "center": {
        "lat": 12.9511038,
        "lon": 77.5739205
      },
      "tags": {
        "leisure": "park"
      }
    },
    {
      "type": "way",
      "id": 40629057,
      "center": {
        "lat": 12.9525682,
        "lon": 77.5728546
      },
      "tags": {
        "amenity": "school",
        "name": "Mahila Seva Samaja School",
        "name:kn": "ಮಹಿಳಾ ಸೇವಾ ಸಮಾಜ ಶಾಲೆ",
        "wheelchair": "no"
      }
    },
    {
      "type": "way",
      "id": 40629063,
      "center": {
        "lat": 12.9559164,
        "lon": 77.5728761
      },
      "tags": {
        "amenity": "college",
        "name": "Theosophical Society",
        "wheelchair": "no"
      }
    },
    {
      "type": "way",
      "id": 129888684,
      "center": {
        "lat": 12.9541534,
        "lon": 77.5884604
      },
      "tags": {
        "amenity": "grave_yard",
        "landuse": "cemetery",
        "name": "Bada Makan",
        "name:kn": "ಬಡ ಮಕಾನ್",
        "religion": "muslim"
      }
    },
    {
      "type": "way",
      "id": 129888685,
      "center": {
        "lat": 12.9530904,
        "lon": 77.5873952
      },
      "tags": {
        "amenity": "grave_yard",
        "landuse": "cemetery",
        "religion": "muslim"
      }
    },
    {
      "type": "way",
      "id": 130870102,
      "center": {
        "lat": 12.9459141,
        "lon": 77.5878225
      },
      "tags": {
        "amenity": "place_of_worship",
        "name": "Maramma Temple",
        "name:kn": "ಮಾರಮ್ಮ ದೇವಸ್ಥಾನ",
        "religion": "hindu"
      }
    },
    {
      "type": "way",
      "id": 131487139,
      "center": {
        "lat": 12.9533813,
        "lon": 77.5867976
      },
      "tags": {
        "amenity": "place_of_worship",
        "denomination": "sunni",
        "name": "Al-Ameen Mosque",
        "name:kn": "ಆಲ್-ಆಮೀನ್ ಮಸೀದಿ",
        "religion": "muslim"
      }
    },
    {
      "type": "way",
      "id": 131487203,
      "center": {
        "lat": 12.9545884,
        "lon": 77.58246
      },
      "tags": {
        "amenity": "place_of_worship",
        "check_date": "2023-11-23",
        "denomination": "sunni",
        "name": "Masjid-e-Abul Qasim",
        "name:kn": "ಮಾವಳ್ಳಿ ಮಸೀದಿ",
        "religion": "muslim"
      }
    },
    {
      "type": "way",
      "id": 133115272,
      "center": {
        "lat": 12.9486891,
        "lon": 77.5756679
      },
      "tags": {
        "amenity": "school",
        "check_date": "2024-04-08",
        "name": "Vasavi Vidya Nikethan School",
        "name:kn": "ವಾಸವಿ ವಿದ್ಯಾನಿಕೇತನ ಶಾಲೆ"
      }
    },
    {
      "type": "way",
      "id": 150351526,
      "center": {
        "lat": 12.9543874,
        "lon": 77.5748847
      },
      "tags": {
        "alt_name": "V S Dental College",
        "amenity": "college",
        "building": "yes",
        "name": "Vokkaligara Sangha Dental College"
      }
    },
    {
      "type": "way",
      "id": 152462759,
      "center": {
        "lat": 12.9515662,
        "lon": 77.5905178
      },
      "tags": {
        "leisure": "garden"
      }
    },
    {
      "type": "way",
      "id": 172937189,
      "center": {
        "lat": 12.9521538,
        "lon": 77.5748728
      },
      "tags": {
        "amenity": "school",
        "name": "Sajjan Rao School",
        "name:etymology:wikidata": "Q55418995",
        "name:kn": "ಸಜ್ಜನ ರಾವ ಶಾಲೆ"
      }
    },
    {
      "type": "way",
      "id": 232207307,
      "center": {
        "lat": 12.9492451,
        "lon": 77.5908599
      },
      "tags": {
        "access": "customers",
        "amenity": "parking",
        "fee": "yes",
        "parking": "surface"
      }
    },
    {
      "type": "way",
      "id": 323852398,
      "center": {
        "lat": 12.9560886,
        "lon": 77.5854402
      },
      "tags": {
        "addr:street": "Lalbagh Road",
        "amenity": "cinema",
        "landuse": "commercial",
        "name": "Urvashi",
        "name:kn": "ಊರ್ವಶಿ",
        "name:ta": "ஊர்வசி திரையரங்கம்",
        "opening_hours": "Mo-Su 11:00-19:45"
      }
    },
    {
      "type": "way",
      "id": 335369723,
      "center": {
        "lat": 12.9529705,
        "lon": 77.5881572
      },
      "tags": {
        "addr:street": "MariGowda Road",
        "amenity": "college",
        "name": "Al Ameen Pre and Degree College",
        "name:kn": "ಆಲ್‌-ಆಮೀನ್‌ ಕಾಲೇಜು"
      }
    },
    {
      "type": "way",
      "id": 335369725,
      "center": {
        "lat": 12.9492563,
        "lon": 77.5878311
      },
      "tags": {
        "amenity": "parking",
        "wheelchair": "yes"
      }
    },
    {
      "type": "way",
      "id": 335369726,
      "center": {
        "lat": 12.9500526,
        "lon": 77.5893375
      },
      "tags": {
        "leisure": "garden",
        "name": "Bonsai Park",
        "name:kn": "ಬೊನ್ಸಾಯಿ ಉದ್ಯಾನ",
        "source": "knowledge"
      }
    },
    {
      "type": "way",
      "id": 335369765,
      "center": {
        "lat": 12.9497939,
        "lon": 77.5856218
      },
      "tags": {
        "leisure": "garden"
      }
    },
    {
      "type": "way",
      "id": 335369766,
      "center": {
        "lat": 12.9503285,
        "lon": 77.5857108
      },
      "tags": {
        "leisure": "garden"
      }
    },
    {
      "type": "way",
      "id": 335704458,
      "center": {
        "lat": 12.9506906,
        "lon": 77.5829999
      },
      "tags": {
        "leisure": "garden"
      }
    },
    {
      "type": "way",
      "id": 335704459,
      "center": {
        "lat": 12.9503038,
        "lon": 77.5847757
      },
      "tags": {
        "leisure": "garden"
      }
    },
    {
      "type": "way",
      "id": 335704460,
      "center": {
        "lat": 12.9504212,
        "lon": 77.58397
      },
      "tags": {
        "leisure": "garden"
      }
    },
    {
      "type": "way",
      "id": 335704462,
      "center": {
        "lat": 12.949771,
        "lon": 77.5839702
      },
      "tags": {
        "leisure": "garden"
      }
    },
    {
      "type": "way",
      "id": 335704463,
      "center": {
        "lat": 12.9485317,
        "lon": 77.5845384
      },
      "tags": {
        "leisure": "garden"
      }
    },
    {
      "type": "way",
      "id": 345924045,
      "center": {
        "lat": 12.9595629,
        "lon": 77.5877705
      },
      "tags": {
        "addr:city": "Bengaluru",
        "addr:housenumber": "37",
        "addr:postcode": "560027",
        "addr:street": "Lalbagh Road",
        "amenity": "arts_centre",
        "building": "yes",
        "name": "Shoonya - Centre for Art and Somatic Practices",
        "website": "http://shoonyaspace.com/"
      }
    },
    {
      "type": "way",
      "id": 347425037,
      "center": {
        "lat": 12.9609483,
        "lon": 77.5831297
      },
      "tags": {
        "amenity": "police",
        "building": "yes",
        "name": "S.J. Park Police"
      }
    },
    {
      "type": "way",
      "id": 347436881,
      "center": {
        "lat": 12.961751,
        "lon": 77.5809915
      },
      "tags": {
        "amenity": "place_of_worship",
        "building": "mosque",
        "name:kn": "ಮಸೀದಿ",
        "religion": "muslim"
      }
    },
    {
      "type": "way",
      "id": 347528840,
      "center": {
        "lat": 12.9509155,
        "lon": 77.5781813
      },
      "tags": {
        "addr:postcode": "560004",
        "addr:street": "Old Market Street",
        "amenity": "place_of_worship",
        "building": "yes",
        "name": "Arya Samaja - Swami Shraddhananda Bhavana",
        "name:kn": "ಆರ್ಯ ಸಮಾಜ - ಸ್ವಾಮಿ ಶ್ರದ್ಧಾನಂದ ಭವನ",
        "religion": "hindu"
      }
    },
    {
      "type": "way",
      "id": 347528875,
      "center": {
        "lat": 12.9506642,
        "lon": 77.5778323
      },
      "tags": {
        "amenity": "school",
        "building": "school",
        "name": "Sree Saraswathi Vidya Mandira",
        "name:kn": "ಶ್ರೀ ಸರಸ್ವತಿ ವಿದ್ಯಾ ಮಂದಿರ"
      }
    },
    {
      "type": "way",
      "id": 347528939,
      "center": {
        "lat": 12.95134,
        "lon": 77.577216
      },
      "tags": {
        "amenity": "place_of_worship",
        "building": "yes",
        "name": "Valmiki Sri Anjaneya Temple",
        "name:kn": "ವಾಲ್ಮೀಕಿ ಶ್ರೀ ಆಂಜನೇಯ ದೇವಸ್ಥಾನ",
        "religion": "hindu"
      }
    },
    {
      "type": "way",
      "id": 347533983,
      "center": {
        "lat": 12.9520621,
        "lon": 77.5774153
      },
      "tags": {
        "amenity": "place_of_worship",
        "building": "yes",
        "name": "Kota Venkataramana Swamy Temple",
        "name:ko": "코타 벤카타라마나 스와미 템플",
        "religion": "hindu"
      }
    },
    {
      "type": "way",
      "id": 351633147,
      "center": {
        "lat": 12.952713,
        "lon": 77.5761998
      },
      "tags": {
        "addr:city": "Bengaluru",
        "addr:postcode": "560004",
        "addr:street": "Sajjan Rao Circle",
        "amenity": "place_of_worship",
        "building": "yes",
        "religion": "hindu"
      }
    },
    {
      "type": "way",
      "id": 363142561,
      "center": {
        "lat": 12.958053,
        "lon": 77.5805763
      },
      "tags": {
        "leisure": "park",
        "name": "Journalist Colony Garden"
      }
    },
    {
      "type": "way",
      "id": 373565233,
      "center": {
        "lat": 12.9580398,
        "lon": 77.5746058
      },
      "tags": {
        "leisure": "pitch",
        "sport": "tennis",
        "wheelchair": "limited"
      }
    },
    {
      "type": "way",
      "id": 411055247,
      "center": {
        "lat": 12.952512,
        "lon": 77.5729374
      },
      "tags": {
        "leisure": "pitch",
        "sport": "tennis"
      }
    },
    {
      "type": "way",
      "id": 411055248,
      "center": {
        "lat": 12.9517053,
        "lon": 77.5727717
      },
      "tags": {
        "leisure": "swimming_pool"
      }
    },
    {
      "type": "way",
      "id": 411055249,
      "center": {
        "lat": 12.9518886,
        "lon": 77.5732804
      },
      "tags": {
        "leisure": "swimming_pool"
      }
    },
    {
      "type": "way",
      "id": 549373054,
      "center": {
        "lat": 12.9496516,
        "lon": 77.5803074
      },
      "tags": {
        "amenity": "hospital",
        "building": "yes",
        "healthcare": "hospital",
        "name": "South City Hospital"
      }
    },
    {
      "type": "way",
      "id": 549373062,
      "center": {
        "lat": 12.9529953,
        "lon": 77.5771085
      },
      "tags": {
        "brand": "HOPCOMS",
        "brand:wikidata": "Q22908959",
        "name": "HOPCOMS",
        "name:kn": "ಹಾಪ್ ಕಾಮ್ಸ್",
        "shop": "greengrocer"
      }
    },
    {
      "type": "way",
      "id": 562561061,
      "center": {
        "lat": 12.954538,
        "lon": 77.5776485
      },
      "tags": {
        "leisure": "park"
      }
    },
    {
      "type": "way",
      "id": 635256290,
      "center": {
        "lat": 12.9522929,
        "lon": 77.5892459
      },
      "tags": {
        "amenity": "fuel",
        "compressed_air": "yes"
      }
    },
    {
      "type": "way",
      "id": 688824197,
      "center": {
        "lat": 12.9557902,
        "lon": 77.5807763
      },
      "tags": {
        "amenity": "fuel",
        "brand": "Hindustan Petroleum",
        "brand:wikidata": "Q1619375",
        "brand:wikipedia": "en:Hindustan Petroleum",
        "name": "Hindustan Petroleum",
        "name:kn": "ಹಿಂದುಸ್ತಾನ್ ಪೆಟ್ರೋಲಿಯಂ",
        "official_name": "Hindustan Petroleum"
      }
    },
    {
      "type": "way",
      "id": 712309876,
      "center": {
        "lat": 12.9504783,
        "lon": 77.5838806
      },
      "tags": {
        "description": "A 20 million year old petrified wood fossil from Thiruvakkarai, Tamil Nadu, India",
        "leisure": "park",
        "name": "Fossilized Tree",
        "wikidata": "Q6972778",
        "wikimedia_commons": "Category:National Fossil Wood Park, Tiruvakkarai",
        "wikipedia": "en:National Fossil Wood Park, Tiruvakkarai"
      }
    },
    {
      "type": "way",
      "id": 977371897,
      "center": {
        "lat": 12.950672,
        "lon": 77.577026
      },
      "tags": {
        "amenity": "place_of_worship",
        "building": "temple",
        "denomination": "swethambar",
        "name": "Simandhar Swami Shanti Suriji Dadawadi Jain Temple",
        "religion": "jain"
      }
    },
    {
      "type": "way",
      "id": 1079087278,
      "center": {
        "lat": 12.9542208,
        "lon": 77.5867157
      },
      "tags": {
        "amenity": "college",
        "name": "Al-Ameen Arts and Science College",
        "name:kn": "ಆಲ್-ಆಮೀನ್ ಕಾಲೇಜು"
      }
    },
    {
      "type": "way",
      "id": 1080796145,
      "center": {
        "lat": 12.9460006,
        "lon": 77.5881556
      },
      "tags": {
        "leisure": "garden"
      }
    },
    {
      "type": "way",
      "id": 1082722307,
      "center": {
        "lat": 12.9498179,
        "lon": 77.586695
      },
      "tags": {
        "leisure": "garden"
      }
    },
    {
      "type": "way",
      "id": 1134063891,
      "center": {
        "lat": 12.9467942,
        "lon": 77.5798276
      },
      "tags": {
        "amenity": "restaurant",
        "building": "yes"
      }
    },
    {
      "type": "way",
      "id": 1167155056,
      "center": {
        "lat": 12.9517967,
        "lon": 77.5730306
      },
      "tags": {
        "leisure": "swimming_pool"
      }
    },
    {
      "type": "way",
      "id": 1186431410,
      "center": {
        "lat": 12.9603662,
        "lon": 77.5871967
      },
      "tags": {
        "amenity": "college",
        "name": "Jain Centre for Management Studies"
      }
    },
    {
      "type": "way",
      "id": 1186431423,
      "center": {
        "lat": 12.9609027,
        "lon": 77.5853359
      },
      "tags": {
        "amenity": "college",
        "name": "Jain University",
        "name:kn": "ಜೈನ ವಿಶ್ವವಿದ್ಯಾಲಯ"
      }
    },
    {
      "type": "way",
      "id": 1186431425,
      "center": {
        "lat": 12.961114,
        "lon": 77.5845032
      },
      "tags": {
        "amenity": "place_of_worship",
        "denomination": "catholic",
        "name": "St. Theresa's Church",
        "name:kn": "ಸೈಂಟ್ ತೆರೇಸ ಚರ್ಚ್",
        "religion": "christian"
      }
    },
    {
      "type": "way",
      "id": 1205832122,
      "center": {
        "lat": 12.9598224,
        "lon": 77.5771411
      },
      "tags": {
        "access": "yes",
        "amenity": "parking",
        "building": "yes",
        "fee": "yes",
        "layer": "1",
        "parking": "multi-storey"
      }
    },
    {
      "type": "way",
      "id": 1208844935,
      "center": {
        "lat": 12.9592494,
        "lon": 77.5755707
      },
      "tags": {
        "amenity": "fuel",
        "brand": "Hindustan Petroleum",
        "brand:wikidata": "Q1619375",
        "name": "HP",
        "official_name": "Hindustan Petroleum"
      }
    },
    {
      "type": "way",
      "id": 1210592626,
      "center": {
        "lat": 12.9473878,
        "lon": 77.5797003
      },
      "tags": {
        "amenity": "fuel",
        "brand": "Gail Gas",
        "fuel:cng": "yes",
        "self_service": "no"
      }
    },
    {
      "type": "way",
      "id": 1220011788,
      "center": {
        "lat": 12.9572851,
        "lon": 77.5750858
      },
      "tags": {
        "amenity": "school",
        "name": "Dr. Abdul Kalam School",
        "name:etymology:wikidata": "Q9513"
      }
    },
    {
      "type": "way",
      "id": 1267610352,
      "center": {
        "lat": 12.9600528,
        "lon": 77.586529
      },
      "tags": {
        "amenity": "events_venue",
        "name": "Sri Godwad Bhavana"
      }
    },
    {
      "type": "way",
      "id": 1296053203,
      "center": {
        "lat": 12.9490876,
        "lon": 77.5807097
      },
      "tags": {
        "amenity": "school",
        "name": "RV Public School",
        "wikidata": "Q22032304"
      }
    },
    {
      "type": "way",
      "id": 1301985510,
      "center": {
        "lat": 12.9546705,
        "lon": 77.574485
      },
      "tags": {
        "access": "permissive",
        "amenity": "parking",
        "parking": "surface"
      }
    },
    {
      "type": "way",
      "id": 1301985511,
      "center": {
        "lat": 12.955734,
        "lon": 77.5744596
      },
      "tags": {
        "access": "permissive",
        "amenity": "parking",
        "parking": "surface"
      }
    },
    {
      "type": "way",
      "id": 1309994351,
      "center": {
        "lat": 12.9599111,
        "lon": 77.5835708
      },
      "tags": {
        "amenity": "fuel",
        "brand": "Shell",
        "name": "Shell",
        "name:kn": "ಶೆಲ್",
        "operator": "Shell"
      }
    },
    {
      "type": "way",
      "id": 1311064558,
      "center": {
        "lat": 12.9606538,
        "lon": 77.5840403
      },
      "tags": {
        "addr:district": "Bengaluru Urban",
        "addr:full": "Chandrika Tower, JC Road, Bengaluru",
        "addr:postcode": "560002",
        "addr:state": "Karnataka",
        "addr:street": "Jayachamaraja Wodeyar Road",
        "amenity": "hospital",
        "healthcare": "hospital",
        "name": "Trustwell Hospitals",
        "source": "Local Knowledge",
        "website": "https://trustwellhospitals.com/"
      }
    },
    {
      "type": "way",
      "id": 1311064569,
      "center": {
        "lat": 12.9588488,
        "lon": 77.5825323
      },
      "tags": {
        "amenity": "fuel",
        "brand": "Bharat Petroleum",
        "brand:wikidata": "Q854826",
        "name": "Bharat Petroleum",
        "name:kn": "ಭಾರತ್ ಪೆಟ್ರೋಲಿಯಂ",
        "operator": "Bharat Petroleum",
        "source": "voice, GPS"
      }
    },
    {
      "type": "way",
      "id": 1312140915,
      "center": {
        "lat": 12.9561783,
        "lon": 77.5768519
      },
      "tags": {
        "amenity": "fuel"
      }
    },
    {
      "type": "way",
      "id": 1396547228,
      "center": {
        "lat": 12.9546653,
        "lon": 77.5796194
      },
      "tags": {
        "amenity": "school",
        "name": "Karnataka Public School"
      }
    }
  ]
}