{
  "area_name": "MCHS Colony",
  "osm_id": 11726861076,
  "osm_type": "node",
  "place_type": "neighbourhood",
  "amenity_count": 319,
  "amenities": [
    {
      "type": "node",
      "id": 308866071,
      "lat": 12.9155759,
      "lon": 77.6349897,
      "tags": {
        "addr:street": "Outer Ring Road",
        "amenity": "hospital",
        "name": "Narayana Hrudayalaya Dental Clinic",
        "name:kn": "ನಾರಾಯಣ ಹೃದಯಾಲಯ ದಂತ ಆಸ್ಪತ್ರೆ"
      }
    },
    {
      "type": "node",
      "id": 308866083,
      "lat": 12.9156177,
      "lon": 77.6347321,
      "tags": {
        "addr:street": "Outer Ring Road",
        "amenity": "bank",
        "atm": "yes",
        "brand": "State Bank of India",
        "brand:wikidata": "Q1340361",
        "brand:wikipedia": "en:State Bank of India",
        "name": "State Bank of India",
        "name:kn": "ಭಾರತೀಯ ಸ್ಟೇಟ್ ಬ್ಯಾಂಕ್",
        "short_name": "SBI",
        "website": "https://www.sbi.co.in"
      }
    },
    {
      "type": "node",
      "id": 946653489,
      "lat": 12.9150732,
      "lon": 77.6197271,
      "tags": {
        "amenity": "place_of_worship",
        "name": "Vinayaka Temple",
        "name:kn": "ವಿನಾಯಕ ದೇವಸ್ಥಾನ",
        "religion": "hindu"
      }
    },
    {
      "type": "node",
      "id": 1467032774,
      "lat": 12.9135109,
      "lon": 77.6245166,
      "tags": {
        "addr:street": "Hosur road",
        "name": "Car & Bike Store",
        "second_hand": "only",
        "shop": "car"
      }
    },
    {
      "type": "node",
      "id": 1469644020,
      "lat": 12.9141932,
      "lon": 77.6241465,
      "tags": {
        "name": "Mahindra showroom",
        "name:kn": "ಮಹಿಂದ್ರ",
        "shop": "car"
      }
    },
    {
      "type": "node",
      "id": 1470544491,
      "lat": 12.9161328,
      "lon": 77.6310764,
      "tags": {
        "name": "Janani Tours",
        "shop": "travel_agency"
      }
    },
    {
      "type": "node",
      "id": 1470544671,
      "lat": 12.9164803,
      "lon": 77.6351968,
      "tags": {
        "check_date": "2024-07-28",
        "name": "My Baby Store",
        "shop": "toys"
      }
    },
    {
      "type": "node",
      "id": 1470546964,
      "lat": 12.9154345,
      "lon": 77.6321713,
      "tags": {
        "name": "Fooddays",
        "shop": "supermarket"
      }
    },
    {
      "type": "node",
      "id": 1470546968,
      "lat": 12.9165276,
      "lon": 77.6354001,
      "tags": {
        "check_date": "2024-07-28",
        "name": "PPS Motors",
        "shop": "car"
      }
    },
    {
      "type": "node",
      "id": 1471683739,
      "lat": 12.9108417,
      "lon": 77.6270457,
      "tags": {
        "brand": "Jaguar",
        "brand:wikidata": "Q21170490",
        "name": "Jaguar Landrover Range Rover",
        "shop": "car"
      }
    },
    {
      "type": "node",
      "id": 1471685731,
      "lat": 12.911347,
      "lon": 77.626597,
      "tags": {
        "addr:housenumber": "Hosur road",
        "brand": "Hero",
        "brand:wikidata": "Q1613763",
        "name": "Hero Motocorp",
        "shop": "motorcycle"
      }
    },
    {
      "type": "node",
      "id": 1471690115,
      "lat": 12.9145174,
      "lon": 77.6239184,
      "tags": {
        "addr:street": "Hosur road",
        "name": "Tara Fiat Service",
        "shop": "car_repair"
      }
    },
    {
      "type": "node",
      "id": 1471710090,
      "lat": 12.9165198,
      "lon": 77.6355672,
      "tags": {
        "amenity": "bank",
        "atm": "yes",
        "brand": "Canara Bank",
        "brand:en": "Canara Bank",
        "brand:hi": "केनरा बैंक",
        "brand:kn": "ಕೆನರಾ ಬ್ಯಾಂಕ್",
        "brand:pa": "ਕੇਨਰਾ ਬੈਂਕ",
        "brand:pnb": "کینرا بینک",
        "brand:ur": "کینرا بینک",
        "brand:wikidata": "Q2003777",
        "brand:wikipedia": "en:Canara Bank",
        "brand:wikipedia:pa": "ਕੇਨਰਾ ਬੈਂਕ",
        "name": "Canara Bank",
        "name:en": "Canara Bank",
        "name:hi": "केनरा बैंक",
        "name:kn": "ಕೆನರಾ ಬ್ಯಾಂಕ್",
        "name:pa": "ਕੇਨਰਾ ਬੈਂਕ",
        "name:pnb": "کینرا بینک",
        "name:ur": "کینرا بینک",
        "website": "https://www.canarabank.com/"
      }
    },
    {
      "type": "node",
      "id": 1471710402,
      "lat": 12.9169457,
      "lon": 77.6340911,
      "tags": {
        "amenity": "place_of_worship",
        "name": "Chowdeshwari Temple",
        "name:kn": "ಚೌಡೇಶ್ವರಿ ದೇವಸ್ಥಾನ",
        "religion": "hindu"
      }
    },
    {
      "type": "node",
      "id": 1471711631,
      "lat": 12.9186059,
      "lon": 77.6306714,
      "tags": {
        "amenity": "bench"
      }
    },
    {
      "type": "node",
      "id": 1471711632,
      "lat": 12.9183883,
      "lon": 77.630395,
      "tags": {
        "amenity": "bench"
      }
    },
    {
      "type": "node",
      "id": 1471711633,
      "lat": 12.917985,
      "lon": 77.6303252,
      "tags": {
        "amenity": "bench"
      }
    },
    {
      "type": "node",
      "id": 1471711634,
      "lat": 12.9181571,
      "lon": 77.6303355,
      "tags": {
        "amenity": "bench"
      }
    },
    {
      "type": "node",
      "id": 1471711635,
      "lat": 12.9187734,
      "lon": 77.6305943,
      "tags": {
        "amenity": "bench"
      }
    },
    {
      "type": "node",
      "id": 1471711637,
      "lat": 12.918104,
      "lon": 77.6305559,
      "tags": {
        "amenity": "bench"
      }
    },
    {
      "type": "node",
      "id": 1471711638,
      "lat": 12.9186427,
      "lon": 77.6304656,
      "tags": {
        "amenity": "bench"
      }
    },
    {
      "type": "node",
      "id": 1471711639,
      "lat": 12.9183472,
      "lon": 77.6306203,
      "tags": {
        "amenity": "bench"
      }
    },
    {
      "type": "node",
      "id": 1471712018,
      "lat": 12.9184754,
      "lon": 77.6321554,
      "tags": {
        "name": "New Sapna Store",
        "shop": "supermarket"
      }
    },
    {
      "type": "node",
      "id": 1471712111,
      "lat": 12.9175661,
      "lon": 77.6319413,
      "tags": {
        "amenity": "pharmacy",
        "brand": "Apollo Pharmacy",
        "brand:wikidata": "Q62562612",
        "healthcare": "pharmacy",
        "name": "Apollo Pharmacy",
        "name:kn": "ಅಪೋಲೋ ಫಾರ್ಮಸಿ"
      }
    },
    {
      "type": "node",
      "id": 1471712151,
      "lat": 12.917678,
      "lon": 77.6317772,
      "tags": {
        "amenity": "doctors",
        "healthcare": "doctor",
        "healthcare:speciality": "gynaecology",
        "name": "Mhaskars Srishti Clinic"
      }
    },
    {
      "type": "node",
      "id": 1471712258,
      "lat": 12.9179577,
      "lon": 77.631855,
      "tags": {
        "name": "Janani Astrology Services",
        "shop": "psychic"
      }
    },
    {
      "type": "node",
      "id": 1471717212,
      "lat": 12.9170218,
      "lon": 77.6292559,
      "tags": {
        "amenity": "restaurant",
        "indoor_seating": "yes",
        "name": "Aranya Restaurant",
        "name:kn": "ಅರಣ್ಯ ರೆಸ್ಟೊರೆಂಟ್",
        "outdoor_seating": "no"
      }
    },
    {
      "type": "node",
      "id": 1471717737,
      "lat": 12.9170321,
      "lon": 77.6289637,
      "tags": {
        "amenity": "atm",
        "fee": "Andhra Bank ATM"
      }
    },
    {
      "type": "node",
      "id": 1471718806,
      "lat": 12.9170375,
      "lon": 77.6289099,
      "tags": {
        "check_date": "2024-10-20",
        "name": "Madhuloka",
        "name:kn": "ಮಧುಲೋಕ",
        "shop": "alcohol"
      }
    },
    {
      "type": "node",
      "id": 1471719697,
      "lat": 12.9186845,
      "lon": 77.630774,
      "tags": {
        "amenity": "hospital",
        "name": "Prerana Dental Clinic"
      }
    },
    {
      "type": "node",
      "id": 1471720698,
      "lat": 12.9180492,
      "lon": 77.6318764,
      "tags": {
        "amenity": "hospital",
        "name": "Mamtha Health Center"
      }
    },
    {
      "type": "node",
      "id": 1471721413,
      "lat": 12.9180673,
      "lon": 77.6306713,
      "tags": {
        "name": "Suma Provision Store",
        "shop": "convenience"
      }
    },
    {
      "type": "node",
      "id": 1472111625,
      "lat": 12.9169725,
      "lon": 77.6300572,
      "tags": {
        "amenity": "hospital",
        "name": "Sagar Dental Clinic"
      }
    },
    {
      "type": "node",
      "id": 1472212762,
      "lat": 12.9090166,
      "lon": 77.6280806,
      "tags": {
        "addr:city": "Bengaluru",
        "amenity": "fuel",
        "brand": "Bharat Petroleum",
        "brand:wikidata": "Q854826",
        "brand:wikipedia": "en:Bharat Petroleum",
        "fuel:diesel": "yes",
        "fuel:petrol": "yes",
        "name": "Bharat Petroleum",
        "operator": "Vasundhara Auto Service",
        "self_service": "no"
      }
    },
    {
      "type": "node",
      "id": 1472880752,
      "lat": 12.9154792,
      "lon": 77.6344183,
      "tags": {
        "amenity": "atm",
        "fee": "SBI"
      }
    },
    {
      "type": "node",
      "id": 1473085346,
      "lat": 12.9123058,
      "lon": 77.6325653,
      "tags": {
        "brand": "Sweet Chariot",
        "delivery": "yes",
        "name": "Sweet Chariot",
        "name:kn": "ಸ್ವೀಟ್ ಚಾರಿಯಟ್",
        "shop": "pastry",
        "takeaway": "yes"
      }
    },
    {
      "type": "node",
      "id": 1473224706,
      "lat": 12.9123293,
      "lon": 77.6326323,
      "tags": {
        "amenity": "pharmacy",
        "brand": "Apollo Pharmacy",
        "brand:wikidata": "Q62562612",
        "healthcare": "pharmacy",
        "name": "Apollo Pharmacy",
        "name:kn": "ಅಪೋಲೋ ಫಾರ್ಮಸಿ"
      }
    },
    {
      "type": "node",
      "id": 1473298102,
      "lat": 12.9226146,
      "lon": 77.6225721,
      "tags": {
        "amenity": "marketplace",
        "check_date": "2025-04-09",
        "name": "Madiwala Market",
        "shop": "seafood"
      }
    },
    {
      "type": "node",
      "id": 1473821278,
      "lat": 12.9183259,
      "lon": 77.6321278,
      "tags": {
        "name": "Priya Cafe",
        "shop": "bakery"
      }
    },
    {
      "type": "node",
      "id": 1474102127,
      "lat": 12.922039,
      "lon": 77.620302,
      "tags": {
        "addr:street": "Hosur road",
        "amenity": "restaurant",
        "name": "Ohris",
        "name:kn": "ಒರಿಸ್"
      }
    },
    {
      "type": "node",
      "id": 1474103046,
      "lat": 12.921876,
      "lon": 77.620493,
      "tags": {
        "addr:street": "Hosur road",
        "amenity": "restaurant",
        "name": "Silver Metro",
        "name:kn": "ಸಿಲ್ವರ್ ಮೆಟ್ರೊ"
      }
    },
    {
      "type": "node",
      "id": 1474104406,
      "lat": 12.9102705,
      "lon": 77.6265538,
      "tags": {
        "addr:street": "Hosur road",
        "amenity": "hospital",
        "check_date": "2024-09-19",
        "healthcare": "hospital",
        "name": "Vasan Eye Care"
      }
    },
    {
      "type": "node",
      "id": 1474317196,
      "lat": 12.9160081,
      "lon": 77.6193573,
      "tags": {
        "addr:district": "Bengaluru Rural",
        "addr:full": "No 72, 35Th Main 1st Cross 100 Ft Ring Road, Btm Layour, 2nd Stage Btm Layout",
        "addr:postcode": "560068",
        "addr:state": "Karnataka",
        "amenity": "hospital",
        "emergency": "yes",
        "healthcare": "hospital",
        "name": "Karanth Speciality Hospital",
        "source": "OpenGovernmentData"
      }
    },
    {
      "type": "node",
      "id": 1474343930,
      "lat": 12.9215958,
      "lon": 77.6202694,
      "tags": {
        "amenity": "fast_food",
        "brand": "McDonald's",
        "brand:pa": "ਮੈਕਡੋਨਲਡ’ਜ਼",
        "brand:ur": "مکڈونلڈز",
        "brand:wikidata": "Q38076",
        "brand:wikipedia": "en:McDonald's",
        "brand:wikipedia:pa": "ਮੈਕਡੋਨਲਡ’ਜ਼",
        "brand:wikipedia:ur": "مکڈونلڈز",
        "check_date": "2024-10-23",
        "cuisine": "burger",
        "name": "McDonald's",
        "name:pa": "ਮੈਕਡੋਨਲਡ’ਜ਼",
        "name:ur": "مکڈونلڈز",
        "payment:cash": "yes",
        "payment:mastercard": "yes",
        "payment:visa": "yes",
        "takeaway": "yes"
      }
    },
    {
      "type": "node",
      "id": 1474433302,
      "lat": 12.9167831,
      "lon": 77.6184931,
      "tags": {
        "name": "Preethi Bakery & Sweets",
        "shop": "bakery"
      }
    },
    {
      "type": "node",
      "id": 1474819060,
      "lat": 12.9147871,
      "lon": 77.6247622,
      "tags": {
        "addr:district": "Bengaluru Rural",
        "addr:full": "No-206, Reddy Building , Roopena Agrahara Opp Roopena Agrahara Bus Stop, Hosur Main Road",
        "addr:postcode": "560068",
        "addr:state": "Karnataka",
        "addr:street": "Hosur road",
        "amenity": "hospital",
        "name": "Aswad Hospital",
        "source": "OpenGovernmentData"
      }
    },
    {
      "type": "node",
      "id": 1474819117,
      "lat": 12.921875,
      "lon": 77.620121,
      "tags": {
        "addr:street": "Hosur road",
        "amenity": "restaurant",
        "name": "Adigas",
        "name:kn": "ಅಡಿಗಾಸ್"
      }
    },
    {
      "type": "node",
      "id": 1613147970,
      "lat": 12.9087203,
      "lon": 77.6275079,
      "tags": {
        "amenity": "fuel",
        "brand": "Indian Oil",
        "brand:wikidata": "Q1289348",
        "brand:wikipedia": "en:Indian Oil Corporation",
        "compressed_air": "yes",
        "name": "Indian Oil",
        "name:kn": "ಇಂಡಿಯನ್ ಆಯಿಲ್"
      }
    },
    {
      "type": "node",
      "id": 1837440175,
      "lat": 12.9169487,
      "lon": 77.6194004,
      "tags": {
        "amenity": "college",
        "name": "Alliance Business School Admin Office"
      }
    },
    {
      "type": "node",
      "id": 2412058808,
      "lat": 12.91201,
      "lon": 77.6323154,
      "tags": {
        "amenity": "bank",
        "atm": "yes",
        "brand": "Allahabad Bank",
        "brand:wikidata": "Q2018840",
        "brand:wikipedia": "en:Allahabad Bank",
        "name": "Allahabad Bank",
        "name:en": "Allahabad Bank",
        "name:kn": "ಅಲ್ಲಹಾಬಾದ್ ಬ್ಯಾಂಕ್",
        "website": "https://www.allahabadbank.in"
      }
    },
    {
      "type": "node",
      "id": 2446926669,
      "lat": 12.9112592,
      "lon": 77.6259903,
      "tags": {
        "amenity": "restaurant"
      }
    },
    {
      "type": "node",
      "id": 2449248039,
      "lat": 12.912146,
      "lon": 77.6253492,
      "tags": {
        "name": "Mahindra",
        "name:kn": "ಮಹಿಂದ್ರ",
        "shop": "car"
      }
    },
    {
      "type": "node",
      "id": 2471287781,
      "lat": 12.9170758,
      "lon": 77.6290832,
      "tags": {
        "amenity": "post_box",
        "brand": "Blue Dart Express",
        "brand:short": "Blue Dart",
        "brand:wikidata": "Q54621493",
        "operator": "Blue Dart Express",
        "operator:short": "Blue Dart",
        "operator:wikidata": "Q54621493"
      }
    },
    {
      "type": "node",
      "id": 2700229002,
      "lat": 12.9219827,
      "lon": 77.6200068,
      "tags": {
        "addr:city": "Bangalore",
        "addr:housenumber": "Total Mall",
        "addr:postcode": "560068",
        "addr:street": "Hosur Road",
        "air_conditioning": "yes",
        "alt_name": "Kentucky Fried Chicken",
        "alt_name:en": "Kentucky Fried Chicken",
        "alt_name:hi": "केंटुकी फ्राइड चिकन",
        "alt_name:pa": "ਕੈਂਟੁਕੀ ਫ੍ਰਾਈਡ ਚਿਕਨ",
        "alt_name:pnb": "کینٹکی فرائیڈ چکن",
        "alt_name:ur": "کینٹکی فرائیڈ چکن",
        "amenity": "fast_food",
        "brand": "KFC",
        "brand:en": "KFC",
        "brand:hi": "केएफसी",
        "brand:pa": "ਕੇਐਫਸੀ",
        "brand:pnb": "کے ایف سی",
        "brand:ur": "کے ایف سی",
        "brand:wikidata": "Q524757",
        "brand:wikipedia": "en:KFC",
        "brand:wikipedia:pa": "ਕੇਐਫਸੀ",
        "brand:wikipedia:ur": "کینٹکی فرائیڈ چکن",
        "check_date": "2024-10-23",
        "cuisine": "chicken",
        "diet:vegetarian": "yes",
        "indoor_seating": "yes",
        "name": "KFC",
        "name:en": "KFC",
        "name:hi": "केएफसी",
        "name:pa": "ਕੇਐਫਸੀ",
        "name:pnb": "کے ایف سی",
        "name:ur": "کے ایف سی",
        "opening_hours": "11:00-23:00",
        "outdoor_seating": "no",
        "payment:cash": "yes",
        "payment:mastercard": "yes",
        "payment:visa": "yes",
        "smoking": "no",
        "takeaway": "yes"
      }
    },
    {
      "type": "node",
      "id": 2901145092,
      "lat": 12.9171114,
      "lon": 77.6337407,
      "tags": {
        "amenity": "restaurant",
        "cuisine": "indian",
        "name": "Manjunatha Refreshments"
      }
    },
    {
      "type": "node",
      "id": 2901145093,
      "lat": 12.9185419,
      "lon": 77.6320535,
      "tags": {
        "name": "Med Plus",
        "shop": "medical_supply"
      }
    },
    {
      "type": "node",
      "id": 2901145730,
      "lat": 12.91519,
      "lon": 77.6355368,
      "tags": {
        "addr:city": "Bengaluru",
        "addr:housenumber": "169/A/170",
        "addr:postcode": "560102",
        "addr:street": "14th Cross Road",
        "amenity": "restaurant",
        "brand": "Empire",
        "capacity": "100",
        "cuisine": "indian",
        "delivery": "yes",
        "name": "Empire",
        "name:kn": "ಎಂಪೈರ್",
        "opening_hours": "11:30-23:30",
        "phone": "080 49652114",
        "smoking": "isolated",
        "takeaway": "yes"
      }
    },
    {
      "type": "node",
      "id": 2901369806,
      "lat": 12.9165146,
      "lon": 77.6355216,
      "tags": {
        "amenity": "restaurant",
        "cuisine": "indian",
        "name": "Swathi Spice and Ice"
      }
    },
    {
      "type": "node",
      "id": 2910639885,
      "lat": 12.9219037,
      "lon": 77.6203113,
      "tags": {
        "check_date": "2024-08-29",
        "name": "Market Square Value Mall",
        "shop": "mall",
        "source": "survey",
        "toilets": "yes"
      }
    },
    {
      "type": "node",
      "id": 3198659800,
      "lat": 12.9169799,
      "lon": 77.6338738,
      "tags": {
        "amenity": "atm",
        "brand": "ICICI Bank",
        "brand:wikidata": "Q1653258",
        "name": "ICICI Bank",
        "name:kn": "ಐಸಿಐಸಿಐ",
        "operator": "ICICI Bank",
        "operator:wikidata": "Q1653258",
        "short_name": "ICICI",
        "website": "https://www.icicibank.com/"
      }
    },
    {
      "type": "node",
      "id": 3198659801,
      "lat": 12.9180396,
      "lon": 77.631926,
      "tags": {
        "amenity": "atm",
        "brand": "HDFC Bank",
        "brand:wikidata": "Q631047",
        "cash_in": "no",
        "name": "HDFC Bank",
        "name:kn": "ಎಚ್ ಡಿ ಎಫ್ ಸಿ",
        "operator": "HDFC Bank",
        "operator:wikidata": "Q631047",
        "short_name": "HDFC"
      }
    },
    {
      "type": "node",
      "id": 3400223639,
      "lat": 12.9125994,
      "lon": 77.6259239,
      "tags": {
        "check_date": "2024-07-28",
        "name": "Sri Mahesh Ceramics",
        "shop": "flooring",
        "source": "survey"
      }
    },
    {
      "type": "node",
      "id": 3680311255,
      "lat": 12.9105606,
      "lon": 77.6326899,
      "tags": {
        "amenity": "fast_food",
        "check_date": "2024-11-30",
        "name": "Southinn"
      }
    },
    {
      "type": "node",
      "id": 4442511855,
      "lat": 12.9161259,
      "lon": 77.6311505,
      "tags": {
        "addr:city": "bangalore",
        "addr:district": "Madurai",
        "addr:full": "#77, Kamarajar Salai,Arasamaram Pillaiyar Koil",
        "addr:housenumber": ".L-168",
        "addr:postcode": "625009",
        "addr:state": "Tamil Nadu",
        "addr:street": "HSR Layout Sector 6",
        "amenity": "hospital",
        "name": "Bhagavathi Hospitals Private Limited",
        "name:kn": "ಭಗವತಿ ಆಸ್ಪತ್ರೆ",
        "phone": "+91-80 4124 5860",
        "source": "OpenGovernmentData"
      }
    },
    {
      "type": "node",
      "id": 4445433361,
      "lat": 12.9073279,
      "lon": 77.6283365,
      "tags": {
        "addr:city": "Bangalore",
        "addr:housenumber": "268/3",
        "addr:postcode": "560068",
        "addr:street": "1st Floor, BVNR Complex, Hosur Main Road, Bommanahalli",
        "amenity": "restaurant",
        "cuisine": "regional",
        "delivery": "yes",
        "name": "Dandes Hyderabad Biryani",
        "opening_hours": "12:00-15:30,18:00-22:30",
        "phone": "080 41667966 080 41636261",
        "smoking": "no",
        "takeaway": "yes"
      }
    },
    {
      "type": "node",
      "id": 4445449989,
      "lat": 12.9121011,
      "lon": 77.6262626,
      "tags": {
        "addr:city": "Bangalore",
        "addr:housenumber": "67/7",
        "addr:postcode": "560068",
        "addr:street": "Rupena Agrahara, Bommanahalli",
        "amenity": "restaurant",
        "check_date": "2024-07-28",
        "cuisine": "regional",
        "delivery": "yes",
        "indoor_seating": "yes",
        "name": "Sardarji Ka Dhaba",
        "opening_hours": "11:00-17:00,19:00-23:30",
        "outdoor_seating": "no",
        "phone": "+91 9886432987",
        "smoking": "no",
        "source": "survey",
        "takeaway": "yes"
      }
    },
    {
      "type": "node",
      "id": 4446317428,
      "lat": 12.915785,
      "lon": 77.6194045,
      "tags": {
        "addr:city": "Bengaluru",
        "addr:postcode": "560068",
        "addr:street": "KAS Officers Colony, Stage 2, BTM 2nd Stage, Karnataka",
        "amenity": "clinic",
        "name": "Ismile Dental & Oral Health Care Centre",
        "phone": "+9198863 99310"
      }
    },
    {
      "type": "node",
      "id": 4446322688,
      "lat": 12.9127062,
      "lon": 77.6201668,
      "tags": {
        "addr:city": "Bengaluru",
        "addr:postcode": "560076",
        "addr:street": "7th Cross, 35th Main, BTM 2nd Stage,, Adjacent DSR Naveen Lake View Apartments, Karnataka",
        "amenity": "hospital",
        "name": "Keva Ayurveda Health Care Pvt Ltd",
        "phone": "080508 01515",
        "website": "https://kevaayurveda.com/"
      }
    },
    {
      "type": "node",
      "id": 4447972412,
      "lat": 12.9067129,
      "lon": 77.6265085,
      "tags": {
        "addr:city": "Bangalore",
        "addr:housenumber": "90/D",
        "addr:postcode": "560068",
        "addr:street": "Bommanahalli Circle, Hosur Main Road",
        "amenity": "hospital",
        "emergency": "yes",
        "name": "Prashanth Hospital",
        "name:kn": "ಪ್ರಶಾಂತ ಆಸ್ಪತ್ರೆ",
        "phone": "080 4150 3714",
        "source": "http://yellowpages.sulekha.com/",
        "website": "https://www.prashanthhospitals.in/"
      }
    },
    {
      "type": "node",
      "id": 4448110384,
      "lat": 12.9159162,
      "lon": 77.6285313,
      "tags": {
        "addr:city": "Bangalore",
        "addr:housenumber": "167",
        "addr:postcode": "560102",
        "addr:street": "Outer Ring Road, Sector 6, HSR Layout",
        "amenity": "pharmacy",
        "name": "Focus Diagnostics Centre & Speciality Clinics",
        "phone": "080670 85400",
        "source": "http://bestofhealthindia.com/",
        "website": "focushealth.in"
      }
    },
    {
      "type": "node",
      "id": 4487220597,
      "lat": 12.9074573,
      "lon": 77.6259561,
      "tags": {
        "addr:city": "Bangalore",
        "addr:housenumber": "#45, 3rd Floor, 69/3",
        "addr:postcode": "560068",
        "addr:street": "6th Main Road",
        "name": "X- Dog Trekking",
        "phone": "099455 55897",
        "shop": "sports",
        "website": "https://xdogtrekking.com/"
      }
    },
    {
      "type": "node",
      "id": 4487950404,
      "lat": 12.9114996,
      "lon": 77.6241693,
      "tags": {
        "addr:city": "Bangalore",
        "addr:housenumber": "37/2",
        "addr:postcode": "560068",
        "addr:street": "Viratnagar Main Road",
        "name": "SLN Super Market",
        "phone": "+(91)-80-33569365",
        "shop": "supermarket"
      }
    },
    {
      "type": "node",
      "id": 4488136102,
      "lat": 12.9149937,
      "lon": 77.6352099,
      "tags": {
        "addr:city": "Bengaluru",
        "addr:postcode": "560102",
        "addr:street": "9th Main Road",
        "name": "Shoba supermarket",
        "opening_hours": "08:00-22:00",
        "phone": "+91 9448879294",
        "shop": "supermarket"
      }
    },
    {
      "type": "node",
      "id": 4488531162,
      "lat": 12.9217519,
      "lon": 77.6205602,
      "tags": {
        "addr:city": "Bangalore",
        "addr:housenumber": "No.24",
        "addr:postcode": "560068",
        "addr:street": "Madiwala Sarjapura Road",
        "beauty": "hair;spa",
        "brand": "Naturals",
        "brand:wikidata": "Q125728261",
        "name": "Naturals Unisex Salon And Spa",
        "opening_hours": "10:00-21:00",
        "phone": "+91-80-33100461",
        "shop": "beauty",
        "website": "https://naturals.in/"
      }
    },
    {
      "type": "node",
      "id": 4565735791,
      "lat": 12.9160728,
      "lon": 77.6272019,
      "tags": {
        "name": "Clay Station",
        "name:en": "Clay Station",
        "opening_hours": "Tu-Su 10:30-13:30, 15:00-18:00",
        "shop": "convenience",
        "website": "https://claystation.in/"
      }
    },
    {
      "type": "node",
      "id": 4695733989,
      "lat": 12.9132492,
      "lon": 77.6351438,
      "tags": {
        "amenity": "cafe",
        "name": "Agarwal Bhavan",
        "name:en": "Agarwal Bhavan"
      }
    },
    {
      "type": "node",
      "id": 4996563703,
      "lat": 12.9171674,
      "lon": 77.6283437,
      "tags": {
        "addr:city": "Bangalore",
        "addr:postcode": "560102",
        "addr:street": "Outer Ring Road",
        "name": "Lemoni Fresh Condiments",
        "shop": "bakery"
      }
    },
    {
      "type": "node",
      "id": 5395290526,
      "lat": 12.9192637,
      "lon": 77.6217728,
      "tags": {
        "amenity": "toilets",
        "check_date": "2025-05-31",
        "fee": "yes"
      }
    },
    {
      "type": "node",
      "id": 5402224023,
      "lat": 12.9105609,
      "lon": 77.6271039,
      "tags": {
        "amenity": "bank",
        "brand": "State Bank of India",
        "brand:wikidata": "Q1340361",
        "name": "State Bank of India",
        "name:kn": "ಭಾರತೀಯ ಸ್ಟೇಟ್ ಬ್ಯಾಂಕ್",
        "short_name": "SBI"
      }
    },
    {
      "type": "node",
      "id": 5402224025,
      "lat": 12.9196251,
      "lon": 77.6214314,
      "tags": {
        "addr:floor": "G",
        "addr:housenumber": "322/1",
        "addr:street": "Hosur Road",
        "check_date": "2025-05-31",
        "level": "0",
        "name": "Ashwini Bar & Restaurant",
        "shop": "alcohol",
        "wheelchair": "no"
      }
    },
    {
      "type": "node",
      "id": 5402302825,
      "lat": 12.9198713,
      "lon": 77.6212353,
      "tags": {
        "check_date": "2025-03-11",
        "name": "RKT Tours & Travels",
        "shop": "travel_agency",
        "source": "survey",
        "wheelchair": "limited"
      }
    },
    {
      "type": "node",
      "id": 5402307922,
      "lat": 12.9142555,
      "lon": 77.6250349,
      "tags": {
        "brand": "Renault",
        "brand:wikidata": "Q6686",
        "check_date": "2025-05-31",
        "name": "Garage Renault",
        "shop": "car_repair"
      }
    },
    {
      "type": "node",
      "id": 5402308122,
      "lat": 12.9144055,
      "lon": 77.6247856,
      "tags": {
        "brand": "Isuzu",
        "brand:wikidata": "Q29803",
        "name": "Isuzu",
        "shop": "car_repair"
      }
    },
    {
      "type": "node",
      "id": 5402308123,
      "lat": 12.9100294,
      "lon": 77.627487,
      "tags": {
        "brand": "Honda",
        "brand:wikidata": "Q9584",
        "check_date": "2025-05-31",
        "name": "Ananda Honda",
        "payment:cash": "yes",
        "payment:mastercard": "yes",
        "payment:visa": "yes",
        "shop": "motorcycle"
      }
    },
    {
      "type": "node",
      "id": 6348981034,
      "lat": 12.9207382,
      "lon": 77.6338341,
      "tags": {
        "amenity": "school",
        "check_date": "2023-06-10",
        "grades": "0-3",
        "isced:level": "2",
        "name": "Government Model Public School Venkatapura",
        "name:kn": "ಸರ್ಕಾರಿ ಮಾದರಿ ಪ್ರಾಥಮಿಕ ಶಾಲೆ ವೆಂಕಟಾಪುರ",
        "operator": "Department of Education",
        "operator:type": "government",
        "school": "primary"
      }
    },
    {
      "type": "node",
      "id": 6349078203,
      "lat": 12.9103875,
      "lon": 77.6249479,
      "tags": {
        "addr:place": "Bommanahalli",
        "amenity": "school",
        "isced:level": "2",
        "name": "Sadhguru Sai Baba HPS Roopena Bommanahalli",
        "name:kn": "ಸಧ್ಗುರು ಸಾಯಿ ಬಾಬಾ ಹಿರಿಯ ಪ್ರಾಥಮಿಕ ಶಾಲೆ ರೂಪೇನಾ ಬೊಮ್ಮನಹಳ್ಳಿ",
        "operator": "Department of Primary and Secondary Education",
        "operator:type": "government",
        "operator:wikidata": "Q111467381",
        "school": "primary"
      }
    },
    {
      "type": "node",
      "id": 6422587417,
      "lat": 12.9080891,
      "lon": 77.6242973,
      "tags": {
        "addr:place": "BommanaHalli",
        "amenity": "school",
        "isced:level": "3",
        "name": "New Cambridge Convent &HS, Bommana Halli",
        "name:kn": "ನ್ಯೂ ಕೇಂಬ್ರಿಜ್ ಕಾನ್ವೆಂಟ್ ಪ್ರೌಢಶಾಲೆ ,ಬೊಮ್ಮನಹಳ್ಳಿ",
        "operator": "Private Un-Aided",
        "school": "Higher Secondary"
      }
    },
    {
      "type": "node",
      "id": 6536815092,
      "lat": 12.9207827,
      "lon": 77.6197807,
      "tags": {
        "addr:place": "Madivala",
        "amenity": "school",
        "isced:level": "3",
        "name": "Kaveri Convent HPS Madivala",
        "name:kn": "ಕಾವೇರಿ ಕಾನ್ವೆಂಟ್ ಹಿರಿಯ ಪ್ರಾಥಮಿಕ ಶಾಲೆ ಮಡಿವಾಳ",
        "operator": "Private Un-Aided",
        "school": "Higher Secondary"
      }
    },
    {
      "type": "node",
      "id": 6690688892,
      "lat": 12.9173053,
      "lon": 77.6330233,
      "tags": {
        "addr:place": "Madiwala",
        "amenity": "school",
        "isced:level": "2",
        "name": "Aditya Venkatapura, Madiwala",
        "name:kn": "ಆದಿತ್ಯ ವೆಂಕಟರಾಪುರ,ಮಡಿವಾಳ",
        "operator": "Private Un-Aided",
        "school": "Higher Primary"
      }
    },
    {
      "type": "node",
      "id": 6702684880,
      "lat": 12.9172814,
      "lon": 77.6319494,
      "tags": {
        "addr:place": "Madiwala",
        "amenity": "school",
        "check_date": "2024-07-28",
        "isced:level": "3",
        "name": "Carmel Garden Public School",
        "name:kn": "ಕಾರ್ಮೆಲ್ ಗಾರ್ಡನ್,ಮಡಿವಾಳ",
        "operator": "Private Un-Aided",
        "school": "Higher Secondary"
      }
    },
    {
      "type": "node",
      "id": 6936708036,
      "lat": 12.9195379,
      "lon": 77.6328425,
      "tags": {
        "addr:district": "Tuticorin",
        "addr:full": "97H/1B, Teachers Colony",
        "addr:postcode": "628008",
        "addr:state": "Tamil Nadu",
        "amenity": "clinic",
        "name": "Maithriye Clinic",
        "source": "OpenGovernmentData"
      }
    },
    {
      "type": "node",
      "id": 6938896388,
      "lat": 12.9079615,
      "lon": 77.6235715,
      "tags": {
        "addr:district": "Bengaluru Rural",
        "addr:full": "No-8, 1st Cross Ngr Layout Roopera Agrahara",
        "addr:postcode": "560068",
        "addr:state": "Karnataka",
        "amenity": "hospital",
        "name": "Mahanth Hospital",
        "source": "OpenGovernmentData"
      }
    },
    {
      "type": "node",
      "id": 6944138102,
      "lat": 12.9074596,
      "lon": 77.6274445,
      "tags": {
        "addr:district": "Bengaluru Rural",
        "addr:full": "69/5B, Hesur Main Road, Bommanahalli, Bangalore",
        "addr:postcode": "560068",
        "addr:state": "Karnataka",
        "amenity": "clinic",
        "name": "Bhaanu Nursing Home",
        "source": "OpenGovernmentData"
      }
    },
    {
      "type": "node",
      "id": 6944290482,
      "lat": 12.9160636,
      "lon": 77.6308219,
      "tags": {
        "addr:district": "Bengaluru Urban",
        "addr:full": "L 168, Sector - 6, Ring Road, Hsr Layout",
        "addr:postcode": "560040",
        "addr:state": "Karnataka",
        "amenity": "hospital",
        "name": "Bhagavathi Multi Speciality Hospital",
        "source": "OpenGovernmentData"
      }
    },
    {
      "type": "node",
      "id": 6944578918,
      "lat": 12.9121673,
      "lon": 77.6347685,
      "tags": {
        "addr:district": "Bengaluru Urban",
        "addr:full": "1127/A, 7th Sector, Near Bda Complex",
        "addr:postcode": "560102",
        "addr:state": "Karnataka",
        "amenity": "doctors",
        "healthcare": "doctor",
        "healthcare:speciality": "ophthalmology",
        "name": "Vasan Eye Care Hospital HSR Layout",
        "operator:type": "private",
        "source": "OpenGovernmentData",
        "website": "http://www.vasaneye.in/"
      }
    },
    {
      "type": "node",
      "id": 6948201258,
      "lat": 12.9208307,
      "lon": 77.6201778,
      "tags": {
        "addr:district": "Bengaluru Rural",
        "addr:full": "321/2A, Hosur Road, Madiwala, Opposite Madiwala Police Station",
        "addr:postcode": "560068",
        "addr:state": "Karnataka",
        "amenity": "clinic",
        "name": "S.M.S. Nursing Home",
        "source": "OpenGovernmentData"
      }
    },
    {
      "type": "node",
      "id": 7164319496,
      "lat": 12.9209511,
      "lon": 77.620137,
      "tags": {
        "amenity": "restaurant",
        "check_date": "2024-08-29",
        "indoor_seating": "yes",
        "name": "Mayur Andra Style Restaraunt",
        "outdoor_seating": "no",
        "source": "survey"
      }
    },
    {
      "type": "node",
      "id": 7164323510,
      "lat": 12.9216966,
      "lon": 77.620318,
      "tags": {
        "check_date": "2024-08-29",
        "name": "Davanam Sarovar Portico Suites",
        "shop": "mall",
        "source": "survey"
      }
    },
    {
      "type": "node",
      "id": 7164324438,
      "lat": 12.9198384,
      "lon": 77.6212804,
      "tags": {
        "check_date": "2025-03-11",
        "name": "SRS Travels",
        "shop": "travel_agency",
        "source": "survey",
        "wheelchair": "no"
      }
    },
    {
      "type": "node",
      "id": 7164330973,
      "lat": 12.9159432,
      "lon": 77.6192416,
      "tags": {
        "amenity": "bank",
        "brand": "HDFC Bank",
        "brand:wikidata": "Q631047",
        "name": "HDFC Bank",
        "short_name": "HDFC"
      }
    },
    {
      "type": "node",
      "id": 7202723905,
      "lat": 12.9102142,
      "lon": 77.6244654,
      "tags": {
        "addr:district": "Bangalore",
        "addr:full": "3rd Main Rd, NGR Layout, Roopena Agrahara, Bommanahalli",
        "addr:postcode": "560068",
        "addr:state": "Karnataka",
        "addr:subdistrict": "Bangalore South",
        "amenity": "hospital",
        "name": "Roopena Agrahara Government Hospital",
        "source": "OpenGovernmentData"
      }
    },
    {
      "type": "node",
      "id": 7294283050,
      "lat": 12.9172609,
      "lon": 77.6281339,
      "tags": {
        "brand": "Škoda",
        "brand:wikidata": "Q29637",
        "name": "Škoda",
        "operator": "Škoda",
        "shop": "car"
      }
    },
    {
      "type": "node",
      "id": 7294283054,
      "lat": 12.9180556,
      "lon": 77.6248053,
      "tags": {
        "name": "Mahindra",
        "name:kn": "ಮಹಿಂದ್ರ",
        "shop": "motorcycle"
      }
    },
    {
      "type": "node",
      "id": 7294283058,
      "lat": 12.9180295,
      "lon": 77.624584,
      "tags": {
        "addr:city": "Bengaluru",
        "addr:country": "IN",
        "addr:postcode": "560102",
        "addr:street": "Outer Ring Road",
        "addr:suburb": "HSR Layout",
        "amenity": "coworking_space",
        "fee": "yes",
        "name": "BHIVE Workspace",
        "office": "coworking",
        "operator": "BHIVE Workspace",
        "website": "https://bhiveworkspace.com"
      }
    },
    {
      "type": "node",
      "id": 7294283059,
      "lat": 12.9179053,
      "lon": 77.6242849,
      "tags": {
        "addr:city": "Bengaluru",
        "addr:country": "IN",
        "addr:housenumber": "192",
        "addr:postcode": "560102",
        "addr:street": "Outer Ring Road",
        "addr:suburb": "HSR Layout",
        "brand": "Comfold",
        "name": "Comfold",
        "operator": "Comfold",
        "shop": "furniture",
        "website": "https://comfold.com"
      }
    },
    {
      "type": "node",
      "id": 7294299935,
      "lat": 12.9179105,
      "lon": 77.6238799,
      "tags": {
        "amenity": "restaurant",
        "indoor_seating": "yes",
        "name": "Lounge 189",
        "outdoor_seating": "no"
      }
    },
    {
      "type": "node",
      "id": 7294299936,
      "lat": 12.9178543,
      "lon": 77.6241066,
      "tags": {
        "amenity": "restaurant",
        "name": "The Aroma"
      }
    },
    {
      "type": "node",
      "id": 7294299937,
      "lat": 12.9178269,
      "lon": 77.6237981,
      "tags": {
        "amenity": "cafe",
        "name": "Cafe Awesome"
      }
    },
    {
      "type": "node",
      "id": 8240285264,
      "lat": 12.9143367,
      "lon": 77.6325783,
      "tags": {
        "name": "Meisterwurst German Sausages and Cuts",
        "shop": "butcher"
      }
    },
    {
      "type": "node",
      "id": 8320252561,
      "lat": 12.9092387,
      "lon": 77.6217341,
      "tags": {
        "amenity": "library",
        "email": "haadibadi@gmail.com",
        "name": "Haadibadi",
        "website": "http://www.haadibadi.org/"
      }
    },
    {
      "type": "node",
      "id": 9648979517,
      "lat": 12.9122935,
      "lon": 77.6333343,
      "tags": {
        "brand": "Louis Philippe",
        "brand:wikidata": "Q18350510",
        "check_date": "2022-05-16",
        "internet_access": "no",
        "name": "Louis Philippe Factory Outlet",
        "payment:mastercard": "yes",
        "payment:visa": "yes",
        "shop": "clothes",
        "wheelchair": "no"
      }
    },
    {
      "type": "node",
      "id": 9742804803,
      "lat": 12.9208365,
      "lon": 77.6337961,
      "tags": {
        "air_conditioning": "yes",
        "check_date": "2022-05-15",
        "internet_access": "no",
        "level": "0",
        "name": "Ramdev Jewellers and Pawn Brokers",
        "name:en": "Ramdev Jewellers and Pawn Brokers",
        "payment:mastercard": "yes",
        "payment:visa": "yes",
        "shop": "jewelry",
        "wheelchair": "yes"
      }
    },
    {
      "type": "node",
      "id": 9858668211,
      "lat": 12.9163445,
      "lon": 77.6239148,
      "tags": {
        "name": "Furlenco",
        "shop": "furniture",
        "website": "https://www.furlenco.com/"
      }
    },
    {
      "type": "node",
      "id": 9858668212,
      "lat": 12.9072883,
      "lon": 77.6291558,
      "tags": {
        "name": "BGauss",
        "note": "Electric Scooters Dealer",
        "shop": "motorcycle",
        "website": "https://www.bgauss.com/"
      }
    },
    {
      "type": "node",
      "id": 9969109517,
      "lat": 12.916802,
      "lon": 77.6318906,
      "tags": {
        "amenity": "toilets",
        "changing_table": "no",
        "fee": "yes",
        "wheelchair": "no"
      }
    },
    {
      "type": "node",
      "id": 10295532236,
      "lat": 12.9240463,
      "lon": 77.6271871,
      "tags": {
        "amenity": "fast_food",
        "brand": "Indira Canteen",
        "brand:wikidata": "Q36164828",
        "cuisine": "south_indian",
        "name": "Indira Canteen",
        "operator": "BBMP",
        "takeaway": "yes"
      }
    },
    {
      "type": "node",
      "id": 10542358702,
      "lat": 12.9198427,
      "lon": 77.6215737,
      "tags": {
        "air_conditioning": "no",
        "check_date": "2024-07-28",
        "internet_access": "no",
        "name": "Royal Travels",
        "shop": "travel_agency",
        "toilets": "yes",
        "toilets:wheelchair": "no",
        "wheelchair": "no"
      }
    },
    {
      "type": "node",
      "id": 10542358703,
      "lat": 12.9198493,
      "lon": 77.6212496,
      "tags": {
        "check_date": "2025-03-11",
        "name": "Patel Condiments",
        "payment:credit_cards": "no",
        "payment:debit_cards": "no",
        "shop": "convenience",
        "source": "survey",
        "wheelchair": "no"
      }
    },
    {
      "type": "node",
      "id": 10542358705,
      "lat": 12.9198425,
      "lon": 77.6214533,
      "tags": {
        "check_date": "2025-03-11",
        "name": "Greenline Travels",
        "shop": "travel_agency",
        "source": "survey",
        "wheelchair": "no"
      }
    },
    {
      "type": "node",
      "id": 10872824029,
      "lat": 12.9160204,
      "lon": 77.6198418,
      "tags": {
        "amenity": "bank",
        "atm": "yes",
        "brand": "Bank of Baroda",
        "brand:wikidata": "Q2003797",
        "name": "Bank of Baroda",
        "operator": "Bank of Baroda"
      }
    },
    {
      "type": "node",
      "id": 11147908529,
      "lat": 12.9123087,
      "lon": 77.6330862,
      "tags": {
        "brand": "Star Bazaar",
        "brand:wikidata": "Q124175958",
        "name": "Star Bazaar",
        "operator": "Tata and Tesco",
        "payment:cash": "yes",
        "payment:credit_cards": "yes",
        "payment:debit_cards": "yes",
        "payment:membership_card": "yes",
        "payment:upi": "yes",
        "shop": "supermarket"
      }
    },
    {
      "type": "node",
      "id": 11164777497,
      "lat": 12.9165851,
      "lon": 77.6195826,
      "tags": {
        "amenity": "bank",
        "brand": "Axis Bank",
        "brand:wikidata": "Q2003549",
        "check_date": "2023-12-04",
        "name": "Axis Bank",
        "name:kn": "ಆಕ್ಸಿಸ್ ಬ್ಯಾಂಕ್"
      }
    },
    {
      "type": "node",
      "id": 11250697610,
      "lat": 12.9127486,
      "lon": 77.6325388,
      "tags": {
        "name": "Adco",
        "shop": "clothes"
      }
    },
    {
      "type": "node",
      "id": 11250697654,
      "lat": 12.9126127,
      "lon": 77.6328172,
      "tags": {
        "brand": "Airtel",
        "brand:wikidata": "Q854867",
        "name": "Airtel",
        "shop": "mobile_phone"
      }
    },
    {
      "type": "node",
      "id": 11250719123,
      "lat": 12.912655,
      "lon": 77.6325493,
      "tags": {
        "amenity": "doctors",
        "healthcare": "doctor",
        "healthcare:speciality": "neurology",
        "name": "Chandini Neuro Specialty Clinic"
      }
    },
    {
      "type": "node",
      "id": 11250726315,
      "lat": 12.9126728,
      "lon": 77.6328115,
      "tags": {
        "name": "Puran Interiors",
        "shop": "interior_decoration"
      }
    },
    {
      "type": "node",
      "id": 11250726425,
      "lat": 12.9129158,
      "lon": 77.6322984,
      "tags": {
        "amenity": "fast_food",
        "brand": "Domino's",
        "brand:wikidata": "Q839466",
        "cuisine": "pizza",
        "name": "Domino's",
        "name:kn": "ಡಾಮಿನೋಸ್",
        "takeaway": "yes"
      }
    },
    {
      "type": "node",
      "id": 11250737409,
      "lat": 12.9126156,
      "lon": 77.6327999,
      "tags": {
        "amenity": "ice_cream",
        "brand:wikidata": "Q124374249",
        "delivery": "yes",
        "name": "Polar Bear Ice Cream",
        "takeaway": "yes"
      }
    },
    {
      "type": "node",
      "id": 11250739211,
      "lat": 12.9126085,
      "lon": 77.6331202,
      "tags": {
        "amenity": "pub",
        "name": "Catchup Pub and Kitchen"
      }
    },
    {
      "type": "node",
      "id": 11250746994,
      "lat": 12.9144813,
      "lon": 77.6325538,
      "tags": {
        "name": "Sufiyan Dates and Nuts",
        "shop": "health_food"
      }
    },
    {
      "type": "node",
      "id": 11250748512,
      "lat": 12.9134255,
      "lon": 77.6325085,
      "tags": {
        "name": "Fitwell - Car Seat Cover Makers",
        "shop": "car_parts"
      }
    },
    {
      "type": "node",
      "id": 11250750534,
      "lat": 12.9131807,
      "lon": 77.6322851,
      "tags": {
        "name": "Titan Eyeplus",
        "shop": "optician"
      }
    },
    {
      "type": "node",
      "id": 11250757272,
      "lat": 12.9125822,
      "lon": 77.6330059,
      "tags": {
        "brand": "Khadim",
        "brand:wikidata": "Q104876652",
        "name": "Khadims",
        "name:bn": "খাদিম",
        "name:en": "Khadims",
        "shop": "shoes"
      }
    },
    {
      "type": "node",
      "id": 11250759679,
      "lat": 12.9126891,
      "lon": 77.6325502,
      "tags": {
        "amenity": "dentist",
        "healthcare": "dentist",
        "name": "Denton Dental Clinic"
      }
    },
    {
      "type": "node",
      "id": 11250759916,
      "lat": 12.9133475,
      "lon": 77.6325187,
      "tags": {
        "name": "Baggana UB Spirits",
        "shop": "alcohol"
      }
    },
    {
      "type": "node",
      "id": 11250760175,
      "lat": 12.9131925,
      "lon": 77.6325549,
      "tags": {
        "amenity": "bank",
        "name": "Sreenidhi Souhardha Sahakari Bank"
      }
    },
    {
      "type": "node",
      "id": 11250766548,
      "lat": 12.9125847,
      "lon": 77.6325628,
      "tags": {
        "name": "Eye World Optician",
        "shop": "optician"
      }
    },
    {
      "type": "node",
      "id": 11250766549,
      "lat": 12.9131528,
      "lon": 77.6325518,
      "tags": {
        "name": "PrintQ",
        "shop": "copyshop"
      }
    },
    {
      "type": "node",
      "id": 11250767001,
      "lat": 12.9132184,
      "lon": 77.6322623,
      "tags": {
        "name": "Space Trend",
        "shop": "interior_decoration"
      }
    },
    {
      "type": "node",
      "id": 11250768948,
      "lat": 12.914311,
      "lon": 77.6322175,
      "tags": {
        "name": "Easyday Club",
        "shop": "supermarket"
      }
    },
    {
      "type": "node",
      "id": 11250773208,
      "lat": 12.9135353,
      "lon": 77.632283,
      "tags": {
        "clothes": "underwear",
        "name": "Jockey",
        "name:kn": "ಜಾಕೀ",
        "shop": "clothes"
      }
    },
    {
      "type": "node",
      "id": 11250773386,
      "lat": 12.9144848,
      "lon": 77.6326525,
      "tags": {
        "name": "Maati Sona Pottery",
        "shop": "pottery"
      }
    },
    {
      "type": "node",
      "id": 11250773703,
      "lat": 12.9142144,
      "lon": 77.6325278,
      "tags": {
        "name": "Rajesh Jewellery Mart",
        "shop": "jewelry"
      }
    },
    {
      "type": "node",
      "id": 11250775969,
      "lat": 12.9140046,
      "lon": 77.6322295,
      "tags": {
        "amenity": "bank",
        "brand": "Jana Small Finance Bank",
        "brand:wikidata": "Q65122274",
        "name": "Jana Small Finance Bank"
      }
    },
    {
      "type": "node",
      "id": 11250781823,
      "lat": 12.9139562,
      "lon": 77.6322007,
      "tags": {
        "amenity": "restaurant",
        "name": "Atthemane Restaurants"
      }
    },
    {
      "type": "node",
      "id": 11250784101,
      "lat": 12.9147007,
      "lon": 77.6328031,
      "tags": {
        "laundry_service": "yes",
        "name": "Wash n Wear",
        "self_service": "yes",
        "shop": "laundry"
      }
    },
    {
      "type": "node",
      "id": 11250788395,
      "lat": 12.9144911,
      "lon": 77.6329266,
      "tags": {
        "amenity": "restaurant",
        "name": "Curries N Fries"
      }
    },
    {
      "type": "node",
      "id": 11250800951,
      "lat": 12.9144882,
      "lon": 77.6328761,
      "tags": {
        "name": "Furrever Happy",
        "shop": "pet"
      }
    },
    {
      "type": "node",
      "id": 11250802192,
      "lat": 12.9159987,
      "lon": 77.6321739,
      "tags": {
        "name": "Axion Computers",
        "shop": "computer"
      }
    },
    {
      "type": "node",
      "id": 11250803686,
      "lat": 12.9144416,
      "lon": 77.6329471,
      "tags": {
        "name": "Celebrations Bake",
        "shop": "bakery"
      }
    },
    {
      "type": "node",
      "id": 11250804964,
      "lat": 12.9151456,
      "lon": 77.6325028,
      "tags": {
        "name": "Metilli",
        "shop": "interior_decoration"
      }
    },
    {
      "type": "node",
      "id": 11250804966,
      "lat": 12.9153592,
      "lon": 77.6321925,
      "tags": {
        "name": "The Smoke Store",
        "shop": "convenience"
      }
    },
    {
      "type": "node",
      "id": 11250809079,
      "lat": 12.9146969,
      "lon": 77.6322477,
      "tags": {
        "name": "Blissclub",
        "shop": "clothes"
      }
    },
    {
      "type": "node",
      "id": 11250809080,
      "lat": 12.9152666,
      "lon": 77.6321844,
      "tags": {
        "amenity": "restaurant",
        "name": "Tawa Ghar Ka"
      }
    },
    {
      "type": "node",
      "id": 11250810299,
      "lat": 12.9173099,
      "lon": 77.6317706,
      "tags": {
        "name": "A Arun Vegetables and Fruits",
        "shop": "farm"
      }
    },
    {
      "type": "node",
      "id": 11250811583,
      "lat": 12.9149523,
      "lon": 77.6321974,
      "tags": {
        "air_conditioning": "yes",
        "amenity": "restaurant",
        "diet:vegetarian": "yes",
        "indoor_seating": "yes",
        "name": "Copper Kitchen",
        "outdoor_seating": "no",
        "payment:credit_cards": "yes",
        "payment:debit_cards": "yes",
        "smoking": "no",
        "wheelchair": "no"
      }
    },
    {
      "type": "node",
      "id": 11250811585,
      "lat": 12.915232,
      "lon": 77.6321995,
      "tags": {
        "name": "Zoroy",
        "shop": "chocolate"
      }
    },
    {
      "type": "node",
      "id": 11250816374,
      "lat": 12.9150191,
      "lon": 77.6325124,
      "tags": {
        "amenity": "clinic",
        "healthcare": "clinic",
        "name": "Epicorium Skin Hair Nail Clinic"
      }
    },
    {
      "type": "node",
      "id": 11250819195,
      "lat": 12.9152006,
      "lon": 77.6322067,
      "tags": {
        "name": "Fresh Knots",
        "shop": "florist"
      }
    },
    {
      "type": "node",
      "id": 11250819485,
      "lat": 12.9150906,
      "lon": 77.6321932,
      "tags": {
        "name": "Sporto",
        "shop": "clothes"
      }
    },
    {
      "type": "node",
      "id": 11250849527,
      "lat": 12.9172545,
      "lon": 77.631759,
      "tags": {
        "name": "Hair n Shape",
        "shop": "hairdresser"
      }
    },
    {
      "type": "node",
      "id": 11250850028,
      "lat": 12.9174466,
      "lon": 77.6317974,
      "tags": {
        "amenity": "fast_food",
        "cuisine": "juice",
        "name": "Lassi n Snacks"
      }
    },
    {
      "type": "node",
      "id": 11250851737,
      "lat": 12.917022,
      "lon": 77.6316023,
      "tags": {
        "name": "Express Hypermarket",
        "shop": "supermarket"
      }
    },
    {
      "type": "node",
      "id": 11250860315,
      "lat": 12.9179914,
      "lon": 77.6319292,
      "tags": {
        "amenity": "fast_food",
        "name": "Slurp it Soup Store"
      }
    },
    {
      "type": "node",
      "id": 11250862712,
      "lat": 12.918348,
      "lon": 77.6320005,
      "tags": {
        "name": "Hello Mobile",
        "shop": "mobile_phone"
      }
    },
    {
      "type": "node",
      "id": 11250867039,
      "lat": 12.9182648,
      "lon": 77.632111,
      "tags": {
        "name": "Sagar Stationery",
        "shop": "stationery"
      }
    },
    {
      "type": "node",
      "id": 11258032862,
      "lat": 12.9127322,
      "lon": 77.635112,
      "tags": {
        "name": "High Street Maghai Paan Shop",
        "shop": "betel"
      }
    },
    {
      "type": "node",
      "id": 11258034031,
      "lat": 12.912748,
      "lon": 77.635114,
      "tags": {
        "amenity": "restaurant",
        "name": "Babai Tiffins HSR High Street"
      }
    },
    {
      "type": "node",
      "id": 11258035416,
      "lat": 12.9128181,
      "lon": 77.6351088,
      "tags": {
        "indoor_seating": "yes",
        "name": "Indian Sweet House",
        "outdoor_seating": "no",
        "shop": "bakery"
      }
    },
    {
      "type": "node",
      "id": 11258036123,
      "lat": 12.9127939,
      "lon": 77.6351149,
      "tags": {
        "amenity": "restaurant",
        "name": "Quickbites"
      }
    },
    {
      "type": "node",
      "id": 11258036375,
      "lat": 12.9127707,
      "lon": 77.6351127,
      "tags": {
        "amenity": "restaurant",
        "name": "Mr. Shawarma & Miss Grills"
      }
    },
    {
      "type": "node",
      "id": 11259449032,
      "lat": 12.9134504,
      "lon": 77.6286677,
      "tags": {
        "addr:city": "Bengaluru",
        "addr:country": "IN",
        "addr:housenumber": "525",
        "addr:place": "Sector 6",
        "addr:postcode": "560102",
        "addr:street": "2nd A Main Road",
        "addr:suburb": "HSR Layout",
        "alt_name": "Fabtolab",
        "email": "store@fabtolab.com",
        "level": "3",
        "name": "Fab.to.lab",
        "opening_hours": "Mo-Fr 09:00-18:30; Sa 09:30-15:00",
        "phone": "+91 6361942383",
        "shop": "electronics",
        "website": "https://www.fabtolab.com/"
      }
    },
    {
      "type": "node",
      "id": 11259899018,
      "lat": 12.9133576,
      "lon": 77.635162,
      "tags": {
        "amenity": "restaurant",
        "indoor_seating": "yes",
        "name": "Aromas of Biryani",
        "outdoor_seating": "no",
        "wheelchair": "no"
      }
    },
    {
      "type": "node",
      "id": 11259899019,
      "lat": 12.914091,
      "lon": 77.6351827,
      "tags": {
        "name": "Amma's Pastries",
        "shop": "confectionery"
      }
    },
    {
      "type": "node",
      "id": 11309805440,
      "lat": 12.9165578,
      "lon": 77.6356311,
      "tags": {
        "check_date": "2023-11-03",
        "name": "Fish Mart",
        "shop": "supermarket"
      }
    },
    {
      "type": "node",
      "id": 11309805441,
      "lat": 12.9170447,
      "lon": 77.6299095,
      "tags": {
        "amenity": "fast_food",
        "check_date": "2023-11-03",
        "name": "New Udupi Grand"
      }
    },
    {
      "type": "node",
      "id": 11333433742,
      "lat": 12.9132992,
      "lon": 77.6255557,
      "tags": {
        "brand": "Vishal Mega Mart",
        "brand:wikidata": "Q126895037",
        "check_date": "2025-05-31",
        "name": "Vishal Mega Mart",
        "payment:cash": "yes",
        "payment:credit_cards": "yes",
        "payment:debit_cards": "yes",
        "shop": "supermarket"
      }
    },
    {
      "type": "node",
      "id": 11333470402,
      "lat": 12.9132676,
      "lon": 77.6256181,
      "tags": {
        "amenity": "fast_food",
        "name": "Sri Guru Raghavendra Juice and Snacks"
      }
    },
    {
      "type": "node",
      "id": 11333476004,
      "lat": 12.9132727,
      "lon": 77.6256232,
      "tags": {
        "amenity": "fast_food",
        "name": "MR fast food"
      }
    },
    {
      "type": "node",
      "id": 11333476005,
      "lat": 12.9132602,
      "lon": 77.6256156,
      "tags": {
        "amenity": "fast_food",
        "name": "Pooja Special North Indian Chats"
      }
    },
    {
      "type": "node",
      "id": 11333480993,
      "lat": 12.9132799,
      "lon": 77.6256326,
      "tags": {
        "name": "Sri Guru Raghavendra sugar cane",
        "shop": "beverages"
      }
    },
    {
      "type": "node",
      "id": 11353617734,
      "lat": 12.9133852,
      "lon": 77.6256151,
      "tags": {
        "amenity": "fast_food",
        "name": "Cafe Hut"
      }
    },
    {
      "type": "node",
      "id": 11380741685,
      "lat": 12.9159436,
      "lon": 77.6187925,
      "tags": {
        "check_date": "2023-11-28",
        "name": "Bengali Fun Foods",
        "shop": "confectionery"
      }
    },
    {
      "type": "node",
      "id": 11395407771,
      "lat": 12.9164764,
      "lon": 77.6175785,
      "tags": {
        "check_date": "2023-12-05",
        "name": "Sri Lakshmi Bakery",
        "shop": "kiosk"
      }
    },
    {
      "type": "node",
      "id": 11395407772,
      "lat": 12.9164639,
      "lon": 77.6175375,
      "tags": {
        "check_date": "2023-12-05",
        "name": "Balaji Helmet Shop",
        "shop": "kiosk"
      }
    },
    {
      "type": "node",
      "id": 11463172583,
      "lat": 12.9241801,
      "lon": 77.6285542,
      "tags": {
        "check_date": "2023-12-28",
        "shop": "tea"
      }
    },
    {
      "type": "node",
      "id": 11478661230,
      "lat": 12.9113014,
      "lon": 77.6326498,
      "tags": {
        "addr:city": "Bengaluru",
        "addr:district": "HSR Layout",
        "addr:housenumber": "1165",
        "addr:postcode": "560102",
        "addr:street": "5th Main Road",
        "air_conditioning": "yes",
        "description": "Bitshala Bitspace is our hackerspace in Bengaluru for Bitcoin, open protocols, privacy and freedom tech builders.\n\nBitshala is a grassroots learning initiative, we help educate and transition Indian developers into Freedom Tech and BOSS (Bitcoin Open Sour",
        "fee": "no",
        "image": "https://media.licdn.com/dms/image/v2/D5622AQELFkSpLtI4NQ/feedshare-shrink_800/B56ZhGEdUCHUAk-/0/1753522231695?e=2147483647&v=beta&t=kKM1trtsgc5WC7vnT_dunjm9Qs62S-vb8X6AkxGBAwM",
        "internet_access": "wlan",
        "internet_access:fee": "customers",
        "leisure": "hackerspace",
        "name": "Bitshala Bitspace",
        "opening_hours": "Mo-Sa 10:00-19:00",
        "source": "GEPTIS",
        "website": "https://x.com/bitshala"
      }
    },
    {
      "type": "node",
      "id": 11530060469,
      "lat": 12.9139447,
      "lon": 77.6322291,
      "tags": {
        "name": "Juice Junction",
        "shop": "beverages"
      }
    },
    {
      "type": "node",
      "id": 11830290144,
      "lat": 12.9124102,
      "lon": 77.6252338,
      "tags": {
        "name": "Arunagiri TVS",
        "shop": "motorcycle"
      }
    },
    {
      "type": "node",
      "id": 11830305646,
      "lat": 12.9119818,
      "lon": 77.6254463,
      "tags": {
        "amenity": "place_of_worship",
        "religion": "hindu"
      }
    },
    {
      "type": "node",
      "id": 11984487708,
      "lat": 12.9106707,
      "lon": 77.6326678,
      "tags": {
        "amenity": "restaurant",
        "check_date": "2024-11-30",
        "name": "Sendhoor Coffee"
      }
    },
    {
      "type": "node",
      "id": 12078449264,
      "lat": 12.9105119,
      "lon": 77.627123,
      "tags": {
        "amenity": "atm",
        "brand": "Kotak Mahindra Bank",
        "brand:wikidata": "Q2040404",
        "cash_in": "no",
        "check_date": "2024-07-28",
        "operator": "Kotak Mahindra Bank",
        "operator:wikidata": "Q2040404",
        "source": "survey"
      }
    },
    {
      "type": "node",
      "id": 12078449265,
      "lat": 12.9079574,
      "lon": 77.6288166,
      "tags": {
        "amenity": "fuel",
        "check_date": "2024-07-28",
        "self_service": "no",
        "source": "survey"
      }
    },
    {
      "type": "node",
      "id": 12143144670,
      "lat": 12.9181788,
      "lon": 77.6339769,
      "tags": {
        "name": "Juice world",
        "shop": "beverages"
      }
    },
    {
      "type": "node",
      "id": 12144440751,
      "lat": 12.920774,
      "lon": 77.6201642,
      "tags": {
        "amenity": "restaurant",
        "check_date": "2024-08-29",
        "indoor_seating": "yes",
        "name": "Nahdi Mandi",
        "outdoor_seating": "no",
        "source": "survey"
      }
    },
    {
      "type": "node",
      "id": 12144440753,
      "lat": 12.9217186,
      "lon": 77.6204743,
      "tags": {
        "air_conditioning": "yes",
        "brand": "Max",
        "brand:wikidata": "Q24939079",
        "check_date": "2024-08-29",
        "name": "Max",
        "payment:cash": "yes",
        "payment:credit_cards": "yes",
        "payment:debit_cards": "yes",
        "shop": "clothes",
        "source": "survey"
      }
    },
    {
      "type": "node",
      "id": 12164898060,
      "lat": 12.9238038,
      "lon": 77.6280066,
      "tags": {
        "amenity": "waste_basket",
        "waste": "trash"
      }
    },
    {
      "type": "node",
      "id": 12164898061,
      "lat": 12.9238009,
      "lon": 77.6279577,
      "tags": {
        "amenity": "shelter",
        "bench": "yes",
        "shelter_type": "public_transport"
      }
    },
    {
      "type": "node",
      "id": 12164898062,
      "lat": 12.9237403,
      "lon": 77.6277015,
      "tags": {
        "amenity": "shelter",
        "bench": "yes",
        "shelter_type": "public_transport"
      }
    },
    {
      "type": "node",
      "id": 12202246108,
      "lat": 12.9196693,
      "lon": 77.6214019,
      "tags": {
        "addr:housenumber": "323",
        "addr:postcode": "560068",
        "addr:street": "Hosur Road",
        "check_date": "2025-05-31",
        "name": "Rathimeena Travels",
        "shop": "travel_agency",
        "website": "https://www.rathimeena.in/"
      }
    },
    {
      "type": "node",
      "id": 12205289240,
      "lat": 12.9117593,
      "lon": 77.6323451,
      "tags": {
        "name": "goodgudi",
        "shop": "stationery"
      }
    },
    {
      "type": "node",
      "id": 12205289553,
      "lat": 12.9114596,
      "lon": 77.6305923,
      "tags": {
        "name": "Roshini's Studio",
        "shop": "beauty"
      }
    },
    {
      "type": "node",
      "id": 12205299936,
      "lat": 12.9113795,
      "lon": 77.6326155,
      "tags": {
        "name": "Sagar Juice and Snacks",
        "shop": "beverages"
      }
    },
    {
      "type": "node",
      "id": 12205299937,
      "lat": 12.9119751,
      "lon": 77.6323279,
      "tags": {
        "alt_name": "Burgermeister",
        "amenity": "cafe",
        "name": "Cuppa Redifined"
      }
    },
    {
      "type": "node",
      "id": 12212780814,
      "lat": 12.9118609,
      "lon": 77.6326125,
      "tags": {
        "amenity": "restaurant",
        "check_date": "2024-11-30",
        "name": "Asha Tiffins"
      }
    },
    {
      "type": "node",
      "id": 12212780815,
      "lat": 12.9107426,
      "lon": 77.6326455,
      "tags": {
        "amenity": "cafe",
        "check_date": "2024-11-30",
        "name": "Tea House"
      }
    },
    {
      "type": "node",
      "id": 12212780816,
      "lat": 12.9104742,
      "lon": 77.6324377,
      "tags": {
        "amenity": "fast_food"
      }
    },
    {
      "type": "node",
      "id": 12212780817,
      "lat": 12.9103743,
      "lon": 77.6323509,
      "tags": {
        "amenity": "restaurant",
        "name": "Kailash Parbat"
      }
    },
    {
      "type": "node",
      "id": 12212780818,
      "lat": 12.9105383,
      "lon": 77.6327368,
      "tags": {
        "amenity": "restaurant",
        "name": "SKP Donne Biriyani"
      }
    },
    {
      "type": "node",
      "id": 12212780819,
      "lat": 12.911564,
      "lon": 77.6308748,
      "tags": {
        "shop": "greengrocer"
      }
    },
    {
      "type": "node",
      "id": 12212780820,
      "lat": 12.9115476,
      "lon": 77.6297825,
      "tags": {
        "addr:housenumber": "1461",
        "addr:street": "17th cross road",
        "name": "Bake N Joy",
        "shop": "bakery"
      }
    },
    {
      "type": "node",
      "id": 12212780821,
      "lat": 12.9118582,
      "lon": 77.6295466,
      "tags": {
        "shop": "bakery"
      }
    },
    {
      "type": "node",
      "id": 12238317018,
      "lat": 12.9158761,
      "lon": 77.6326504,
      "tags": {
        "amenity": "restaurant",
        "name": "China Town"
      }
    },
    {
      "type": "node",
      "id": 12238336221,
      "lat": 12.9103731,
      "lon": 77.6328115,
      "tags": {
        "amenity": "restaurant",
        "name": "Samosa Point"
      }
    },
    {
      "type": "node",
      "id": 12238340021,
      "lat": 12.916027,
      "lon": 77.6324994,
      "tags": {
        "addr:floor": "G",
        "check_date": "2025-08-16",
        "level": "0",
        "name": "Squeeze",
        "shop": "beverages"
      }
    },
    {
      "type": "node",
      "id": 12238349605,
      "lat": 12.9105329,
      "lon": 77.6326851,
      "tags": {
        "amenity": "ice_cream",
        "name": "Kulfi Shulfi"
      }
    },
    {
      "type": "node",
      "id": 12244702994,
      "lat": 12.9117627,
      "lon": 77.6326055,
      "tags": {
        "amenity": "bank",
        "brand": "Ujjivan Small Finance Bank",
        "brand:wikidata": "Q42529272",
        "name": "Ujjivan Small Finance Bank"
      }
    },
    {
      "type": "node",
      "id": 12244734920,
      "lat": 12.9117281,
      "lon": 77.6326118,
      "tags": {
        "amenity": "atm",
        "brand": "Ujjivan Small Finance Bank",
        "brand:wikidata": "Q42529272",
        "name": "Ujjivan",
        "operator": "Ujjivan Small Finance Bank",
        "operator:wikidata": "Q42529272"
      }
    },
    {
      "type": "node",
      "id": 12248235680,
      "lat": 12.908564,
      "lon": 77.6239237,
      "tags": {
        "name": "ALV Fresh Supermarket",
        "shop": "supermarket"
      }
    },
    {
      "type": "node",
      "id": 12248273668,
      "lat": 12.9086283,
      "lon": 77.6236311,
      "tags": {
        "leisure": "fitness_centre",
        "name": "Xtreme Body Fitness"
      }
    },
    {
      "type": "node",
      "id": 12248311200,
      "lat": 12.9106758,
      "lon": 77.6248004,
      "tags": {
        "name": "The Man Cave",
        "shop": "hairdresser"
      }
    },
    {
      "type": "node",
      "id": 12248328810,
      "lat": 12.9108405,
      "lon": 77.6244568,
      "tags": {
        "leisure": "fitness_centre",
        "name": "Smack Fitness"
      }
    },
    {
      "type": "node",
      "id": 12248350601,
      "lat": 12.9093364,
      "lon": 77.6243746,
      "tags": {
        "name": "Clean & Care Laundry",
        "shop": "laundry"
      }
    },
    {
      "type": "node",
      "id": 12270762301,
      "lat": 12.9174543,
      "lon": 77.6275416,
      "tags": {
        "amenity": "bank",
        "atm": "yes",
        "brand": "HDFC Bank",
        "brand:wikidata": "Q631047",
        "check_date": "2024-10-20",
        "name": "HDFC Bank",
        "short_name": "HDFC"
      }
    },
    {
      "type": "node",
      "id": 12270762302,
      "lat": 12.9173626,
      "lon": 77.6278563,
      "tags": {
        "amenity": "bank",
        "brand": "Bank of India",
        "brand:wikidata": "Q2004439",
        "check_date": "2024-10-20",
        "name": "Bank of India"
      }
    },
    {
      "type": "node",
      "id": 12270762303,
      "lat": 12.9173826,
      "lon": 77.6278011,
      "tags": {
        "amenity": "atm",
        "brand": "Bank of India",
        "brand:wikidata": "Q2004439",
        "check_date": "2024-10-20",
        "operator": "Bank of India",
        "operator:wikidata": "Q2004439"
      }
    },
    {
      "type": "node",
      "id": 12270762304,
      "lat": 12.9166014,
      "lon": 77.6349717,
      "tags": {
        "amenity": "clinic",
        "check_date": "2024-10-20",
        "healthcare": "clinic",
        "name": "West Mead Clinic"
      }
    },
    {
      "type": "node",
      "id": 12285338814,
      "lat": 12.9112615,
      "lon": 77.6257353,
      "tags": {
        "brand": "Royal Enfield",
        "brand:wikidata": "Q2668720",
        "check_date": "2024-10-23",
        "name": "Royal Enfield",
        "shop": "motorcycle"
      }
    },
    {
      "type": "node",
      "id": 12285338815,
      "lat": 12.9098456,
      "lon": 77.6266764,
      "tags": {
        "brand": "Maruti Suzuki",
        "brand:wikidata": "Q963718",
        "check_date": "2024-10-23",
        "name": "Maruti Suzuki",
        "shop": "car_repair"
      }
    },
    {
      "type": "node",
      "id": 12285684753,
      "lat": 12.909786,
      "lon": 77.6325956,
      "tags": {
        "amenity": "restaurant",
        "name": "MM Nati Mane"
      }
    },
    {
      "type": "node",
      "id": 12307015095,
      "lat": 12.9106722,
      "lon": 77.6294978,
      "tags": {
        "amenity": "restaurant",
        "name": "Bismilla Biriyani"
      }
    },
    {
      "type": "node",
      "id": 12482471684,
      "lat": 12.9122602,
      "lon": 77.6335967,
      "tags": {
        "amenity": "restaurant",
        "name": "Fish fry day"
      }
    },
    {
      "type": "node",
      "id": 12482474326,
      "lat": 12.9156865,
      "lon": 77.6325101,
      "tags": {
        "amenity": "restaurant",
        "name": "Godavari Cafe"
      }
    },
    {
      "type": "node",
      "id": 12482486284,
      "lat": 12.9152285,
      "lon": 77.6321683,
      "tags": {
        "name": "FreshKnots",
        "shop": "florist"
      }
    },
    {
      "type": "node",
      "id": 12487002474,
      "lat": 12.9121081,
      "lon": 77.6244415,
      "tags": {
        "amenity": "restaurant",
        "name": "Champaran Dhaba"
      }
    },
    {
      "type": "node",
      "id": 12512214800,
      "lat": 12.9159877,
      "lon": 77.6326621,
      "tags": {
        "amenity": "restaurant",
        "name": "Stories 2.0"
      }
    },
    {
      "type": "node",
      "id": 12553261624,
      "lat": 12.9218259,
      "lon": 77.6205566,
      "tags": {
        "addr:city": "Bengaluru",
        "addr:district": "Bengaluru Urban",
        "addr:full": "Hotel Davanam Sarovar Portico Suites, 7th floor, Hosur road Besides Total Mall, Madiwala, Koramangala 2nd Block, Koramangala",
        "addr:postcode": "560068",
        "addr:street": "Hosur Road",
        "name": "Aloe Spa",
        "opening_hours": "Mo-Su 09:00-20:00",
        "operator": "Mr. Bibin",
        "phone": "09986511272",
        "shop": "beauty",
        "website": "https://www.thealoespa.com/"
      }
    },
    {
      "type": "node",
      "id": 12553319439,
      "lat": 12.9217289,
      "lon": 77.6202688,
      "tags": {
        "addr:city": "Bengaluru",
        "addr:district": "Bengaluru Urban",
        "addr:full": "2nd floor, Market Square Mall, Hosur Rd, opp. Madiwala Traffic Police Station, Sidharata Colony, Madiwala, Koramangala 2nd Block, Koramangala",
        "addr:postcode": "560068",
        "addr:street": "Hosur Road",
        "beauty": "spa;massage",
        "name": "Southern Spa Madiwala",
        "opening_hours": "Mo-Su 10:00-21:00",
        "operator": "Mr. Bibin",
        "phone": "09108612001",
        "shop": "beauty",
        "website": "https://southernspa.in/"
      }
    },
    {
      "type": "node",
      "id": 12655246955,
      "lat": 12.9180994,
      "lon": 77.6306025,
      "tags": {
        "amenity": "cafe",
        "name": "Pancharangi Cafe"
      }
    },
    {
      "type": "node",
      "id": 12706360453,
      "lat": 12.907737,
      "lon": 77.6281119,
      "tags": {
        "amenity": "fast_food",
        "check_date": "2025-03-28",
        "name": "Aramane Donne Biryani"
      }
    },
    {
      "type": "node",
      "id": 12850046728,
      "lat": 12.9172785,
      "lon": 77.6179532,
      "tags": {
        "amenity": "place_of_worship",
        "religion": "hindu"
      }
    },
    {
      "type": "node",
      "id": 12862846463,
      "lat": 12.9152164,
      "lon": 77.635537,
      "tags": {
        "amenity": "fast_food",
        "cuisine": "burger",
        "delivery": "yes",
        "name": "Easy Bites by Empire",
        "takeaway": "yes"
      }
    },
    {
      "type": "node",
      "id": 12946230096,
      "lat": 12.9209127,
      "lon": 77.6336572,
      "tags": {
        "amenity": "atm",
        "name": "HDFC ATM"
      }
    },
    {
      "type": "node",
      "id": 12970616822,
      "lat": 12.9182174,
      "lon": 77.6321089,
      "tags": {
        "name": "2Day",
        "shop": "greengrocer"
      }
    },
    {
      "type": "node",
      "id": 12970619866,
      "lat": 12.9181961,
      "lon": 77.6319773,
      "tags": {
        "name": "Viba Chic",
        "shop": "clothes"
      }
    },
    {
      "type": "node",
      "id": 12970637618,
      "lat": 12.9182664,
      "lon": 77.631985,
      "tags": {
        "amenity": "cafe",
        "name": "Puneri Amrutalaya"
      }
    },
    {
      "type": "node",
      "id": 12970637619,
      "lat": 12.917961,
      "lon": 77.6320638,
      "tags": {
        "name": "Sri Balaji Provisional Store",
        "shop": "grocery"
      }
    },
    {
      "type": "node",
      "id": 12970644144,
      "lat": 12.9180092,
      "lon": 77.6319356,
      "tags": {
        "name": "Divine Desserts",
        "shop": "pastry"
      }
    },
    {
      "type": "node",
      "id": 12970649913,
      "lat": 12.9181723,
      "lon": 77.6320893,
      "tags": {
        "name": "S. R. Enterprises",
        "shop": "clothes"
      }
    },
    {
      "type": "node",
      "id": 12970661966,
      "lat": 12.9180068,
      "lon": 77.6320655,
      "tags": {
        "name": "Sri Sai Ram",
        "shop": "grocery"
      }
    },
    {
      "type": "node",
      "id": 12970699698,
      "lat": 12.9178907,
      "lon": 77.6320377,
      "tags": {
        "name": "Face Look",
        "shop": "hairdresser"
      }
    },
    {
      "type": "node",
      "id": 13013588747,
      "lat": 12.9155838,
      "lon": 77.6324992,
      "tags": {
        "addr:city": "Bengaluru",
        "addr:country": "IN",
        "addr:hamlet": "Sector 6",
        "addr:postcode": "560102",
        "addr:street": "5th Main Road",
        "addr:suburb": "HSR Layout",
        "amenity": "restaurant",
        "contact:instagram": "sinonnas",
        "cuisine": "pizza",
        "delivery": "yes",
        "name": "Si Nonna's",
        "reservation": "yes",
        "takeaway": "yes",
        "toilets": "yes",
        "website": "https://sinonnas.com/"
      }
    },
    {
      "type": "node",
      "id": 13040611162,
      "lat": 12.9212472,
      "lon": 77.6333196,
      "tags": {
        "name": "Sri Gajanana Juice Center",
        "shop": "beverages"
      }
    },
    {
      "type": "node",
      "id": 13051018034,
      "lat": 12.9204645,
      "lon": 77.6328936,
      "tags": {
        "name": "Nandini Condiments",
        "shop": "convenience"
      }
    },
    {
      "type": "node",
      "id": 13051046580,
      "lat": 12.9207565,
      "lon": 77.6330227,
      "tags": {
        "name": "Chicken Shop",
        "shop": "butcher"
      }
    },
    {
      "type": "node",
      "id": 13051062184,
      "lat": 12.9205173,
      "lon": 77.6329082,
      "tags": {
        "name": "SLV Hair Dress",
        "shop": "hairdresser"
      }
    },
    {
      "type": "node",
      "id": 13051076615,
      "lat": 12.9205729,
      "lon": 77.6329179,
      "tags": {
        "name": "Maa Kali Fish Centre",
        "phone": "84728005",
        "shop": "butcher"
      }
    },
    {
      "type": "node",
      "id": 13051080332,
      "lat": 12.9205931,
      "lon": 77.6330004,
      "tags": {
        "name": "V. K Iyengar Bakery",
        "shop": "bakery"
      }
    },
    {
      "type": "node",
      "id": 13051081502,
      "lat": 12.9206124,
      "lon": 77.632959,
      "tags": {
        "name": "Y. M. Pork Shop",
        "shop": "butcher"
      }
    },
    {
      "type": "node",
      "id": 13061456634,
      "lat": 12.9209304,
      "lon": 77.6335509,
      "tags": {
        "name": "Pooja Kitchen Gallery",
        "shop": "kitchen"
      }
    },
    {
      "type": "node",
      "id": 13061469624,
      "lat": 12.9209137,
      "lon": 77.6336255,
      "tags": {
        "name": "Ramdev Noveltys",
        "shop": "station"
      }
    },
    {
      "type": "node",
      "id": 13061471713,
      "lat": 12.9208212,
      "lon": 77.6336026,
      "tags": {
        "name": "Hap Daily",
        "shop": "dairy"
      }
    },
    {
      "type": "node",
      "id": 13063810467,
      "lat": 12.9123027,
      "lon": 77.6327926,
      "tags": {
        "amenity": "pharmacy",
        "brand": "Apollo Pharmacy",
        "brand:wikidata": "Q62562612",
        "healthcare": "pharmacy",
        "name": "Apollo Pharmacy"
      }
    },
    {
      "type": "node",
      "id": 13070296261,
      "lat": 12.9166047,
      "lon": 77.620558,
      "tags": {
        "access": "yes",
        "amenity": "motorcycle_parking",
        "capacity": "230",
        "fee": "yes",
        "name": "Silk Board Metro Parking",
        "operator": "BMRCL",
        "parking": "surface"
      }
    },
    {
      "type": "node",
      "id": 13070296262,
      "lat": 12.9106453,
      "lon": 77.6263825,
      "tags": {
        "access": "yes",
        "amenity": "motorcycle_parking",
        "capacity": "85",
        "fee": "yes",
        "name": "Bommanahalli Metro Parking",
        "operator": "BMRCL",
        "parking": "surface"
      }
    },
    {
      "type": "node",
      "id": 13073500028,
      "lat": 12.9159964,
      "lon": 77.6325676,
      "tags": {
        "check_date": "2025-08-16",
        "name": "GC Global Computers",
        "shop": "electronics"
      }
    },
    {
      "type": "way",
      "id": 128220279,
      "center": {
        "lat": 12.9148923,
        "lon": 77.6302032
      },
      "tags": {
        "leisure": "park"
      }
    },
    {
      "type": "way",
      "id": 133820242,
      "center": {
        "lat": 12.9167312,
        "lon": 77.634495
      },
      "tags": {
        "amenity": "college",
        "name": "Vidhya Bharathi College",
        "name:kn": "ವಿದ್ಯ ಭಾರತಿ ಕಾಲೇಜು"
      }
    },
    {
      "type": "way",
      "id": 133883975,
      "center": {
        "lat": 12.9238171,
        "lon": 77.6293555
      },
      "tags": {
        "addr:street": "Sarjapur road",
        "amenity": "college",
        "check_date": "2024-03-28",
        "name": "Krupanidhi College",
        "name:kn": "ಕೃಪಾನಿಧಿ ಕಾಲೇಜು"
      }
    },
    {
      "type": "way",
      "id": 201072740,
      "center": {
        "lat": 12.91675,
        "lon": 77.6192237
      },
      "tags": {
        "leisure": "park",
        "name": "Daniel Park"
      }
    },
    {
      "type": "way",
      "id": 232237163,
      "center": {
        "lat": 12.9170964,
        "lon": 77.6320097
      },
      "tags": {
        "amenity": "school",
        "name": "Carmel Garden Public School",
        "name:kn": "ಕಾರ್ಮೆಲ್ ಗಾರ್ಡನ್,ಮಡಿವಾಳ"
      }
    },
    {
      "type": "way",
      "id": 232237173,
      "center": {
        "lat": 12.918387,
        "lon": 77.6305117
      },
      "tags": {
        "alt_name": "Teacher's Colony Park",
        "full_name": "KL Jayashankar Park",
        "leisure": "park",
        "name": "Jayashankar Park"
      }
    },
    {
      "type": "way",
      "id": 236967890,
      "center": {
        "lat": 12.9078642,
        "lon": 77.627663
      },
      "tags": {
        "check_date": "2024-09-19",
        "name": "Nandi Toyota",
        "shop": "car"
      }
    },
    {
      "type": "way",
      "id": 237089963,
      "center": {
        "lat": 12.912228,
        "lon": 77.6301145
      },
      "tags": {
        "leisure": "park"
      }
    },
    {
      "type": "way",
      "id": 237089969,
      "center": {
        "lat": 12.9107388,
        "lon": 77.6314614
      },
      "tags": {
        "leisure": "park"
      }
    },
    {
      "type": "way",
      "id": 237548188,
      "center": {
        "lat": 12.9110491,
        "lon": 77.6334801
      },
      "tags": {
        "leisure": "park"
      }
    },
    {
      "type": "way",
      "id": 239585279,
      "center": {
        "lat": 12.9219021,
        "lon": 77.620384
      },
      "tags": {
        "addr:street": "Madiwala Sarajpura Road",
        "alt_name": "Madivala Commercial Plaza",
        "landuse": "retail",
        "name": "Market Square Mall",
        "official_name": "BBMP Commercial Plaza",
        "shop": "mall"
      }
    },
    {
      "type": "way",
      "id": 286440340,
      "center": {
        "lat": 12.913746,
        "lon": 77.6349835
      },
      "tags": {
        "amenity": "school",
        "name": "Lawerence School"
      }
    },
    {
      "type": "way",
      "id": 286440341,
      "center": {
        "lat": 12.9137699,
        "lon": 77.6341316
      },
      "tags": {
        "access": "no",
        "leisure": "playground",
        "name": "Lawerence School Grounds"
      }
    },
    {
      "type": "way",
      "id": 313831699,
      "center": {
        "lat": 12.9175448,
        "lon": 77.6291049
      },
      "tags": {
        "addr:city": "Bengaluru",
        "addr:postcode": "560034",
        "addr:street": "5th A Avenue",
        "garden:type": "rosegarden",
        "leisure": "park",
        "name": "Teacher's Colony Park",
        "natural": "grassland",
        "opening_hours": "sunrise-sunset"
      }
    },
    {
      "type": "way",
      "id": 316018421,
      "center": {
        "lat": 12.9128032,
        "lon": 77.6313466
      },
      "tags": {
        "leisure": "park"
      }
    },
    {
      "type": "way",
      "id": 323696990,
      "center": {
        "lat": 12.9209121,
        "lon": 77.6273339
      },
      "tags": {
        "landuse": "recreation_ground",
        "leisure": "common"
      }
    },
    {
      "type": "way",
      "id": 323696991,
      "center": {
        "lat": 12.921851,
        "lon": 77.6274569
      },
      "tags": {
        "landuse": "recreation_ground",
        "leisure": "common"
      }
    },
    {
      "type": "way",
      "id": 323696992,
      "center": {
        "lat": 12.9225036,
        "lon": 77.6246894
      },
      "tags": {
        "landuse": "recreation_ground",
        "leisure": "common"
      }
    },
    {
      "type": "way",
      "id": 323696993,
      "center": {
        "lat": 12.9201346,
        "lon": 77.6316173
      },
      "tags": {
        "leisure": "park"
      }
    },
    {
      "type": "way",
      "id": 323696995,
      "center": {
        "lat": 12.9204015,
        "lon": 77.6201286
      },
      "tags": {
        "amenity": "place_of_worship",
        "landuse": "religious",
        "name": "Jamia Masjid",
        "name:kn": "ಜಮ ಮಸೀದಿ",
        "religion": "muslim"
      }
    },
    {
      "type": "way",
      "id": 323696996,
      "center": {
        "lat": 12.920503,
        "lon": 77.6201341
      },
      "tags": {
        "addr:city": "Bengaluru",
        "addr:postcode": "560068",
        "amenity": "place_of_worship",
        "building": "yes",
        "name": "Jamia Masjid",
        "name:kn": "ಜಮ ಮಸ್ಜಿದ್",
        "name:ur": "جامعہ مسجد",
        "religion": "muslim"
      }
    },
    {
      "type": "way",
      "id": 343648710,
      "center": {
        "lat": 12.9126631,
        "lon": 77.6336353
      },
      "tags": {
        "brand": "Reliance Digital",
        "brand:wikidata": "Q7311012",
        "building": "yes",
        "name": "Reliance Digital",
        "name:kn": "ರಿಲಾಯನ್ಸ್ ಡಿಜಿಟಲ್",
        "shop": "electronics"
      }
    },
    {
      "type": "way",
      "id": 343648711,
      "center": {
        "lat": 12.9126602,
        "lon": 77.6337924
      },
      "tags": {
        "building": "yes",
        "name": "Gazana",
        "shop": "jewelry"
      }
    },
    {
      "type": "way",
      "id": 343961637,
      "center": {
        "lat": 12.9229515,
        "lon": 77.6237459
      },
      "tags": {
        "amenity": "marketplace",
        "name": "Madiwala Market",
        "name:kn": "ಮಡಿವಾಳ"
      }
    },
    {
      "type": "way",
      "id": 348457949,
      "center": {
        "lat": 12.9207876,
        "lon": 77.62083
      },
      "tags": {
        "addr:street": "Hosur Road",
        "amenity": "fuel",
        "brand": "Bharat Petroleum",
        "brand:wikidata": "Q854826",
        "brand:wikipedia": "en:Bharat Petroleum",
        "compressed_air": "yes",
        "fuel:diesel": "yes",
        "fuel:engine_oil": "yes",
        "fuel:petrol": "yes",
        "name": "Bharat Petroleum",
        "name:kn": "ಭಾರತ್ ಪೆಟ್ರೋಲಿಯಂ",
        "operator": "Bharat Petroleum",
        "self_service": "no"
      }
    },
    {
      "type": "way",
      "id": 348457970,
      "center": {
        "lat": 12.9210124,
        "lon": 77.6206703
      },
      "tags": {
        "addr:city": "Bengaluru",
        "addr:district": "Bengaluru Urban",
        "addr:postcode": "560068",
        "addr:street": "Madiwala Road, Santhosapuram, 1st Block Koramangala, Koramangala",
        "amenity": "police",
        "building": "yes",
        "check_date": "2024-08-29",
        "name": "Madiwala Traffic Police Station",
        "name:kn": "ಮಡಿವಾಳ ಸಂಚಾರ ಪೊಲೀಸ್ ಠಾಣೆ",
        "phone": "+91 80 2294 2568",
        "source": "survey"
      }
    },
    {
      "type": "way",
      "id": 487988009,
      "center": {
        "lat": 12.9235742,
        "lon": 77.6305491
      },
      "tags": {
        "leisure": "pitch"
      }
    },
    {
      "type": "way",
      "id": 692207409,
      "center": {
        "lat": 12.9166239,
        "lon": 77.6199309
      },
      "tags": {
        "amenity": "fuel",
        "brand": "Indian Oil",
        "brand:wikidata": "Q1289348",
        "compressed_air": "yes",
        "name": "Indian Oil",
        "name:kn": "ಇಂಡಿಯನ್ ಆಯಿಲ್"
      }
    },
    {
      "type": "way",
      "id": 886187377,
      "center": {
        "lat": 12.914738,
        "lon": 77.6346003
      },
      "tags": {
        "leisure": "park"
      }
    },
    {
      "type": "way",
      "id": 1066726710,
      "center": {
        "lat": 12.9181312,
        "lon": 77.6230925
      },
      "tags": {
        "amenity": "bus_station",
        "bus": "yes",
        "network": "BMTC",
        "operator": "BMTC",
        "public_transport": "station",
        "ref": "Silk Board TTMC"
      }
    },
    {
      "type": "way",
      "id": 1069600848,
      "center": {
        "lat": 12.9189097,
        "lon": 77.622754
      },
      "tags": {
        "amenity": "community_centre",
        "community_centre": "community_hall",
        "landuse": "commercial",
        "name": "Samudaya Bhavan",
        "name:kn": "ಸಮುದಾಯ ಭವನ",
        "source": "https://www.newindianexpress.com/cities/bengaluru/2023/Jul/18/bmrcl-sets-community-hall-for-cops-at-central-silk-board-junction-in-bengaluru-2596040.html"
      }
    },
    {
      "type": "way",
      "id": 1071642356,
      "center": {
        "lat": 12.9126517,
        "lon": 77.6342468
      },
      "tags": {
        "building": "yes",
        "name": "Reliance Trends",
        "name:kn": "ರಿಲಯನ್ಸ್ ಟ್ರೆಂಡ್ಸ್",
        "shop": "clothes"
      }
    },
    {
      "type": "way",
      "id": 1125664997,
      "center": {
        "lat": 12.9170293,
        "lon": 77.6309793
      },
      "tags": {
        "leisure": "park"
      }
    },
    {
      "type": "way",
      "id": 1125892176,
      "center": {
        "lat": 12.9219512,
        "lon": 77.6210144
      },
      "tags": {
        "amenity": "school",
        "check_date": "2024-08-29",
        "name": "Government Model Primary School",
        "name:kn": "ಸರ್ಕಾರಿ ಮಾದರಿ ಪ್ರಾಥಮಿಕ ಶಾಲೆ",
        "operator:type": "government",
        "source": "survey"
      }
    },
    {
      "type": "way",
      "id": 1141414938,
      "center": {
        "lat": 12.9131689,
        "lon": 77.6196209
      },
      "tags": {
        "leisure": "park"
      }
    },
    {
      "type": "way",
      "id": 1208112293,
      "center": {
        "lat": 12.9146596,
        "lon": 77.6227666
      },
      "tags": {
        "access": "private",
        "leisure": "swimming_pool",
        "location": "outdoor",
        "swimming_pool": "outdoor"
      }
    },
    {
      "type": "way",
      "id": 1215278393,
      "center": {
        "lat": 12.9126596,
        "lon": 77.6339369
      },
      "tags": {
        "building": "yes",
        "name": "Neelakanthi",
        "shop": "jewelry"
      }
    },
    {
      "type": "way",
      "id": 1215337275,
      "center": {
        "lat": 12.9129481,
        "lon": 77.6279955
      },
      "tags": {
        "access": "private",
        "leisure": "swimming_pool"
      }
    },
    {
      "type": "way",
      "id": 1219736767,
      "center": {
        "lat": 12.9136447,
        "lon": 77.6280962
      },
      "tags": {
        "building": "yes",
        "layer": "1",
        "shop": "plant_nursery"
      }
    },
    {
      "type": "way",
      "id": 1262069425,
      "center": {
        "lat": 12.9180909,
        "lon": 77.6184638
      },
      "tags": {
        "amenity": "place_of_worship",
        "landuse": "religious",
        "religion": "hindu"
      }
    },
    {
      "type": "way",
      "id": 1262069448,
      "center": {
        "lat": 12.9154922,
        "lon": 77.6303172
      },
      "tags": {
        "leisure": "pitch"
      }
    },
    {
      "type": "way",
      "id": 1262069454,
      "center": {
        "lat": 12.9158877,
        "lon": 77.629413
      },
      "tags": {
        "leisure": "park"
      }
    },
    {
      "type": "way",
      "id": 1262069462,
      "center": {
        "lat": 12.9165092,
        "lon": 77.6266198
      },
      "tags": {
        "leisure": "park"
      }
    },
    {
      "type": "way",
      "id": 1262069463,
      "center": {
        "lat": 12.9157648,
        "lon": 77.6270986
      },
      "tags": {
        "leisure": "park"
      }
    },
    {
      "type": "way",
      "id": 1262069464,
      "center": {
        "lat": 12.9148916,
        "lon": 77.6276169
      },
      "tags": {
        "leisure": "park"
      }
    },
    {
      "type": "way",
      "id": 1262087808,
      "center": {
        "lat": 12.9188146,
        "lon": 77.622777
      },
      "tags": {
        "amenity": "theatre",
        "theatre:type": "amphi"
      }
    },
    {
      "type": "way",
      "id": 1414001461,
      "center": {
        "lat": 12.9156969,
        "lon": 77.6225378
      },
      "tags": {
        "leisure": "sports_centre"
      }
    },
    {
      "type": "way",
      "id": 1421527631,
      "center": {
        "lat": 12.9180287,
        "lon": 77.6304116
      },
      "tags": {
        "leisure": "playground"
      }
    },
    {
      "type": "way",
      "id": 1421713660,
      "center": {
        "lat": 12.9121156,
        "lon": 77.6297859
      },
      "tags": {
        "leisure": "fitness_station",
        "sport": "fitness"
      }
    },
    {
      "type": "way",
      "id": 1422674076,
      "center": {
        "lat": 12.9168008,
        "lon": 77.619929
      },
      "tags": {
        "addr:place": "BTM Layout",
        "alt_name": "Mira's High School",
        "amenity": "school",
        "check_date": "2023-12-05",
        "isced:level": "3",
        "name": "St. Mira's School",
        "name:kn": "ಸೆಂಟ್‌ ಮಿರ್ಸ್ ಪ್ರೌಢಶಾಲೆ,ಬಿ.ಟಿ.ಎಂ ಲೇಔಟ್",
        "operator": "Private Un-Aided",
        "school": "Higher Secondary"
      }
    },
    {
      "type": "way",
      "id": 1446044500,
      "center": {
        "lat": 12.9187999,
        "lon": 77.6334814
      },
      "tags": {
        "amenity": "place_of_worship",
        "landuse": "religious",
        "religion": "hindu"
      }
    },
    {
      "type": "way",
      "id": 1446044638,
      "center": {
        "lat": 12.9168801,
        "lon": 77.6323197
      },
      "tags": {
        "amenity": "place_of_worship",
        "landuse": "religious",
        "name": "Sri Kaveramma and Munishwara Temple",
        "religion": "hindu",
        "wheelchair": "no"
      }
    },
    {
      "type": "way",
      "id": 1446203059,
      "center": {
        "lat": 12.9194779,
        "lon": 77.6324914
      },
      "tags": {
        "addr:place": "Madiwala",
        "amenity": "school",
        "isced:level": "2",
        "name": "Grammer Public HPS Venkarapura, Madiwala",
        "name:kn": "ಗ್ರಾಮರ್ ಪಬ್ಲಿಕ್ ಹಿರಿಯ ಪ್ರಾಥಮಿಕ ಶಾಲೆ ವೆಂಕಟರಾಪುರ, ಮಡಿವಾಳ",
        "operator": "Private Aided",
        "school": "Higher Primary"
      }
    }
  ]
}