{
  "area_name": "MCHS Layout",
  "osm_id": 13033330827,
  "osm_type": "node",
  "place_type": "neighbourhood",
  "amenity_count": 105,
  "amenities": [
    {
      "type": "node",
      "id": 1014674260,
      "lat": 13.0668449,
      "lon": 77.6093403,
      "tags": {
        "amenity": "atm",
        "check_date": "2024-07-08",
        "operator": "Canara Bank"
      }
    },
    {
      "type": "node",
      "id": 5185599992,
      "lat": 13.0757935,
      "lon": 77.6031285,
      "tags": {
        "amenity": "fast_food",
        "name": "Sri Vinayaka hot chip's"
      }
    },
    {
      "type": "node",
      "id": 5185603411,
      "lat": 13.075683,
      "lon": 77.6031267,
      "tags": {
        "amenity": "food_court",
        "name": "Nilgiris",
        "name:kn": "ನೀಲ್ಗಿರೀಸ್"
      }
    },
    {
      "type": "node",
      "id": 5185603451,
      "lat": 13.0756655,
      "lon": 77.6029434,
      "tags": {
        "addr:street": "Jakkur Layout",
        "amenity": "bank",
        "name": "Corporation Bank",
        "name:kn": "ಕಾರ್ಪರೇಷನ್ ಬ್ಯಾಂಕ್",
        "opening_hours": "Mo-Fr 09:00-18:00"
      }
    },
    {
      "type": "node",
      "id": 5524162720,
      "lat": 13.0739659,
      "lon": 77.6039929,
      "tags": {
        "addr:housenumber": "35",
        "addr:street": "4th Cross",
        "name": "Yaway designs",
        "opening_hours": "Mo-Fr 09:00-18:00",
        "shop": "computer"
      }
    },
    {
      "type": "node",
      "id": 5524163947,
      "lat": 13.0756823,
      "lon": 77.6034145,
      "tags": {
        "amenity": "fast_food",
        "name": "Bangarpet chats"
      }
    },
    {
      "type": "node",
      "id": 5524163948,
      "lat": 13.0756865,
      "lon": 77.6037087,
      "tags": {
        "amenity": "restaurant",
        "name": "Shri Mahastri Refreshments"
      }
    },
    {
      "type": "node",
      "id": 5524163949,
      "lat": 13.0755106,
      "lon": 77.6027241,
      "tags": {
        "amenity": "dentist",
        "name": "Anaga dental clinic"
      }
    },
    {
      "type": "node",
      "id": 5524163950,
      "lat": 13.0758553,
      "lon": 77.6017317,
      "tags": {
        "name": "Austin Plywood",
        "shop": "craft"
      }
    },
    {
      "type": "node",
      "id": 5524163952,
      "lat": 13.0728071,
      "lon": 77.6031029,
      "tags": {
        "name": "Nick Salon",
        "shop": "beauty"
      }
    },
    {
      "type": "node",
      "id": 5524163953,
      "lat": 13.0725063,
      "lon": 77.6038452,
      "tags": {
        "addr:city": "Bangalore",
        "addr:country": "IN",
        "addr:housenumber": "9",
        "addr:postcode": "560064",
        "addr:street": "Jakkur Road",
        "addr:suburb": "Jakkur",
        "amenity": "cafe",
        "contact:facebook": "Justrufs",
        "contact:instagram": "JusTrufs",
        "contact:twitter": "JusTrufs",
        "delivery": "yes",
        "email": "info@justrufs.com",
        "name": "Jus Trufs",
        "phone": "+91 9844016984",
        "takeaway": "yes",
        "website": "https://www.justrufs.com/"
      }
    },
    {
      "type": "node",
      "id": 5524163954,
      "lat": 13.0725625,
      "lon": 77.6025498,
      "tags": {
        "name": "Vijay Ceramic",
        "shop": "doityourself"
      }
    },
    {
      "type": "node",
      "id": 5524163956,
      "lat": 13.0727847,
      "lon": 77.6017837,
      "tags": {
        "amenity": "place_of_worship",
        "name": "Sri Sanaischara temple",
        "religion": "hindu"
      }
    },
    {
      "type": "node",
      "id": 5524163957,
      "lat": 13.0687358,
      "lon": 77.6035241,
      "tags": {
        "amenity": "restaurant",
        "name": "Udupi Upahar",
        "name:kn": "ಉಡುಪಿ ಉಪಹಾರ"
      }
    },
    {
      "type": "node",
      "id": 5524163958,
      "lat": 13.0687767,
      "lon": 77.6034496,
      "tags": {
        "amenity": "clinic",
        "name": "Amruth Clinic"
      }
    },
    {
      "type": "node",
      "id": 5524164979,
      "lat": 13.0755514,
      "lon": 77.6041885,
      "tags": {
        "amenity": "restaurant",
        "name": "Hotel Guru Nanak",
        "name:kn": "ಹೊಟೆಲ್ ಗುರು ನಾನಕ್"
      }
    },
    {
      "type": "node",
      "id": 5524164981,
      "lat": 13.0751312,
      "lon": 77.6016233,
      "tags": {
        "name": "Hardware Syndicate",
        "shop": "doityourself"
      }
    },
    {
      "type": "node",
      "id": 5524164982,
      "lat": 13.0728173,
      "lon": 77.6033215,
      "tags": {
        "name": "Athleet",
        "shop": "sports"
      }
    },
    {
      "type": "node",
      "id": 5524164984,
      "lat": 13.0726064,
      "lon": 77.6022452,
      "tags": {
        "amenity": "clinic",
        "name": "Dr Bhanus Skin Clinic"
      }
    },
    {
      "type": "node",
      "id": 5524164985,
      "lat": 13.0728174,
      "lon": 77.6028981,
      "tags": {
        "amenity": "dentist",
        "name": "Zenith Dental"
      }
    },
    {
      "type": "node",
      "id": 5524164987,
      "lat": 13.0687552,
      "lon": 77.6034879,
      "tags": {
        "amenity": "pharmacy",
        "name": "Sri sai sankara pharm"
      }
    },
    {
      "type": "node",
      "id": 5524164988,
      "lat": 13.0693384,
      "lon": 77.6021253,
      "tags": {
        "name": "Slv Iyengar bakery",
        "shop": "bakery"
      }
    },
    {
      "type": "node",
      "id": 5524165023,
      "lat": 13.075489,
      "lon": 77.6028284,
      "tags": {
        "amenity": "atm",
        "name": "Corporation Bank ATM",
        "name:kn": "ಕಾರ್ಪರೇಷನ್ ಬ್ಯಾಂಕ್"
      }
    },
    {
      "type": "node",
      "id": 5524165025,
      "lat": 13.0754431,
      "lon": 77.6016945,
      "tags": {
        "name": "Krona international",
        "shop": "doityourself"
      }
    },
    {
      "type": "node",
      "id": 5524165027,
      "lat": 13.0728093,
      "lon": 77.6032468,
      "tags": {
        "amenity": "pharmacy",
        "name": "Apollo Pharmacy",
        "name:kn": "ಅಪೊಲೋ ಫಾರ್ಮಸಿ"
      }
    },
    {
      "type": "node",
      "id": 5524165028,
      "lat": 13.0725531,
      "lon": 77.602787,
      "tags": {
        "name": "Elegant Car Spa",
        "shop": "car_repair"
      }
    },
    {
      "type": "node",
      "id": 5524165121,
      "lat": 13.0757492,
      "lon": 77.6032744,
      "tags": {
        "name": "Nandhini Milk Parlour",
        "shop": "dairy"
      }
    },
    {
      "type": "node",
      "id": 5524165122,
      "lat": 13.0759489,
      "lon": 77.6018756,
      "tags": {
        "name": "Blue mas butterfly",
        "shop": "clothes"
      }
    },
    {
      "type": "node",
      "id": 5524165123,
      "lat": 13.0728969,
      "lon": 77.6025354,
      "tags": {
        "name": "Appam's",
        "shop": "bakery"
      }
    },
    {
      "type": "node",
      "id": 6650026303,
      "lat": 13.067797,
      "lon": 77.6100303,
      "tags": {
        "amenity": "parking"
      }
    },
    {
      "type": "node",
      "id": 6650026304,
      "lat": 13.0670131,
      "lon": 77.609742,
      "tags": {
        "amenity": "parking"
      }
    },
    {
      "type": "node",
      "id": 6857427227,
      "lat": 13.0705821,
      "lon": 77.613025,
      "tags": {
        "name": "Mantrana",
        "shop": "furniture"
      }
    },
    {
      "type": "node",
      "id": 6857427252,
      "lat": 13.072543,
      "lon": 77.6030995,
      "tags": {
        "amenity": "kindergarten",
        "name": "I Play I Learn"
      }
    },
    {
      "type": "node",
      "id": 6857427253,
      "lat": 13.0725613,
      "lon": 77.6024947,
      "tags": {
        "amenity": "restaurant",
        "name": "Beijing Bites",
        "name:kn": "ಬೀಜಿಂಗ್ ಬೈಟ್ಸ್"
      }
    },
    {
      "type": "node",
      "id": 6857427254,
      "lat": 13.0728382,
      "lon": 77.5962612,
      "tags": {
        "male": "yes",
        "name": "Amog Gents Hair Style",
        "shop": "hairdresser"
      }
    },
    {
      "type": "node",
      "id": 7577248250,
      "lat": 13.0687158,
      "lon": 77.6012664,
      "tags": {
        "addr:district": "Bengaluru Urban",
        "addr:full": "Talacauvery Layout, Jakkuru Layout, Byatarayanapura, Bengaluru",
        "addr:postcode": "560092",
        "addr:state": "Karnataka",
        "amenity": "dentist",
        "name": "Clove Dental",
        "source": "Local Knowledge"
      }
    },
    {
      "type": "node",
      "id": 7577248258,
      "lat": 13.0682242,
      "lon": 77.6044313,
      "tags": {
        "addr:district": "Bengaluru Urban",
        "addr:full": "Amrutahalli, Bengaluru",
        "addr:postcode": "560092",
        "addr:state": "Karnataka",
        "amenity": "clinic",
        "name": "Dr. Shekars Diabetes Speciality Centre",
        "source": "Local Knowledge"
      }
    },
    {
      "type": "node",
      "id": 7577248265,
      "lat": 13.065863,
      "lon": 77.604213,
      "tags": {
        "addr:district": "Bengaluru Urban",
        "addr:full": "Swami Vivekananda Layout, Amrutahalli, Bengaluru",
        "addr:postcode": "560092",
        "addr:state": "Karnataka",
        "amenity": "hospital",
        "name": "Axis Hospital",
        "source": "Local Knowledge"
      }
    },
    {
      "type": "node",
      "id": 9557108715,
      "lat": 13.0727318,
      "lon": 77.604253,
      "tags": {
        "amenity": "restaurant",
        "check_date": "2025-08-02",
        "name": "New Krishna Sagar"
      }
    },
    {
      "type": "node",
      "id": 10574692787,
      "lat": 13.068731,
      "lon": 77.6070893,
      "tags": {
        "access": "permissive",
        "amenity": "parking",
        "name": "Visitor Parking",
        "parking": "surface"
      }
    },
    {
      "type": "node",
      "id": 10731130894,
      "lat": 13.0721001,
      "lon": 77.6053727,
      "tags": {
        "name": "Nandhini Milk Parlour",
        "shop": "dairy"
      }
    },
    {
      "type": "node",
      "id": 10731130895,
      "lat": 13.0722229,
      "lon": 77.6045895,
      "tags": {
        "name": "Reliance Smart",
        "shop": "supermarket"
      }
    },
    {
      "type": "node",
      "id": 10731130896,
      "lat": 13.0725691,
      "lon": 77.6024289,
      "tags": {
        "amenity": "fast_food",
        "cuisine": "pizza",
        "name": "Domino's",
        "name:kn": "ಡಾಮಿನೋಸ್"
      }
    },
    {
      "type": "node",
      "id": 10731130897,
      "lat": 13.0728892,
      "lon": 77.6007459,
      "tags": {
        "amenity": "pharmacy",
        "brand": "MedPlus",
        "brand:wikidata": "Q65684234",
        "healthcare": "pharmacy",
        "name": "MedPlus"
      }
    },
    {
      "type": "node",
      "id": 10731130898,
      "lat": 13.072895,
      "lon": 77.5979094,
      "tags": {
        "amenity": "waste_disposal"
      }
    },
    {
      "type": "node",
      "id": 10731130899,
      "lat": 13.0728937,
      "lon": 77.5979443,
      "tags": {
        "amenity": "waste_disposal"
      }
    },
    {
      "type": "node",
      "id": 10731130900,
      "lat": 13.0728944,
      "lon": 77.5978746,
      "tags": {
        "amenity": "waste_disposal"
      }
    },
    {
      "type": "node",
      "id": 10731130901,
      "lat": 13.0728957,
      "lon": 77.5978397,
      "tags": {
        "amenity": "waste_disposal"
      }
    },
    {
      "type": "node",
      "id": 10984741481,
      "lat": 13.0686356,
      "lon": 77.6083875,
      "tags": {
        "amenity": "theatre",
        "name": "JNCASR Auditorium"
      }
    },
    {
      "type": "node",
      "id": 10984741482,
      "lat": 13.068637,
      "lon": 77.6108859,
      "tags": {
        "amenity": "library",
        "name": "JNCASR Library"
      }
    },
    {
      "type": "node",
      "id": 11061897662,
      "lat": 13.0689716,
      "lon": 77.6051335,
      "tags": {
        "amenity": "parking_entrance",
        "parking": "underground"
      }
    },
    {
      "type": "node",
      "id": 11280734074,
      "lat": 13.0668263,
      "lon": 77.611409,
      "tags": {
        "access": "customers",
        "amenity": "toilets"
      }
    },
    {
      "type": "node",
      "id": 11280734075,
      "lat": 13.0667257,
      "lon": 77.611409,
      "tags": {
        "access": "customers",
        "amenity": "toilets"
      }
    },
    {
      "type": "node",
      "id": 11280734088,
      "lat": 13.0664122,
      "lon": 77.610324,
      "tags": {
        "name": "Ticket Counter",
        "shop": "ticket"
      }
    },
    {
      "type": "node",
      "id": 11280734119,
      "lat": 13.0692816,
      "lon": 77.605767,
      "tags": {
        "amenity": "bench"
      }
    },
    {
      "type": "node",
      "id": 11559367514,
      "lat": 13.0693479,
      "lon": 77.6054768,
      "tags": {
        "amenity": "waste_basket"
      }
    },
    {
      "type": "node",
      "id": 11559397474,
      "lat": 13.0682715,
      "lon": 77.6044424,
      "tags": {
        "check_date": "2024-01-28",
        "name": "Anand Supermarket",
        "shop": "supermarket"
      }
    },
    {
      "type": "node",
      "id": 11559397475,
      "lat": 13.0682968,
      "lon": 77.6043717,
      "tags": {
        "check_date": "2024-01-28",
        "leisure": "fitness_centre",
        "name": "MFit 24 Gym"
      }
    },
    {
      "type": "node",
      "id": 11559397476,
      "lat": 13.0696459,
      "lon": 77.6016015,
      "tags": {
        "amenity": "place_of_worship",
        "check_date": "2024-01-28",
        "religion": "hindu"
      }
    },
    {
      "type": "node",
      "id": 11626854015,
      "lat": 13.0688222,
      "lon": 77.6030968,
      "tags": {
        "check_date": "2024-02-15",
        "shop": "greengrocer"
      }
    },
    {
      "type": "node",
      "id": 11626854016,
      "lat": 13.0687497,
      "lon": 77.6038711,
      "tags": {
        "check_date": "2024-02-15",
        "shop": "butcher"
      }
    },
    {
      "type": "node",
      "id": 11626854017,
      "lat": 13.0681713,
      "lon": 77.6048075,
      "tags": {
        "check_date": "2024-02-15",
        "name": "Anand Supermarket",
        "shop": "supermarket"
      }
    },
    {
      "type": "node",
      "id": 11626854018,
      "lat": 13.0682595,
      "lon": 77.6051875,
      "tags": {
        "check_date": "2024-02-15",
        "shop": "butcher"
      }
    },
    {
      "type": "node",
      "id": 13043346064,
      "lat": 13.071703,
      "lon": 77.6076217,
      "tags": {
        "amenity": "toilets"
      }
    },
    {
      "type": "node",
      "id": 13043346096,
      "lat": 13.073105,
      "lon": 77.5998587,
      "tags": {
        "amenity": "place_of_worship",
        "religion": "hindu"
      }
    },
    {
      "type": "node",
      "id": 13043346101,
      "lat": 13.0730825,
      "lon": 77.6001665,
      "tags": {
        "access": "yes",
        "amenity": "toilets",
        "fee": "yes",
        "operator": "BBMP"
      }
    },
    {
      "type": "way",
      "id": 471741289,
      "center": {
        "lat": 13.0694495,
        "lon": 77.6128966
      },
      "tags": {
        "amenity": "food_court",
        "building": "university",
        "name": "JNCASR Dining"
      }
    },
    {
      "type": "way",
      "id": 635497943,
      "center": {
        "lat": 13.0744999,
        "lon": 77.612131
      },
      "tags": {
        "leisure": "park"
      }
    },
    {
      "type": "way",
      "id": 635498444,
      "center": {
        "lat": 13.0722965,
        "lon": 77.6093847
      },
      "tags": {
        "leisure": "park"
      }
    },
    {
      "type": "way",
      "id": 635499292,
      "center": {
        "lat": 13.0764289,
        "lon": 77.6121499
      },
      "tags": {
        "leisure": "park"
      }
    },
    {
      "type": "way",
      "id": 635499839,
      "center": {
        "lat": 13.0757047,
        "lon": 77.612121
      },
      "tags": {
        "leisure": "park"
      }
    },
    {
      "type": "way",
      "id": 635500584,
      "center": {
        "lat": 13.0769154,
        "lon": 77.6103081
      },
      "tags": {
        "leisure": "park"
      }
    },
    {
      "type": "way",
      "id": 707652260,
      "center": {
        "lat": 13.0673685,
        "lon": 77.6098869
      },
      "tags": {
        "leisure": "garden"
      }
    },
    {
      "type": "way",
      "id": 732317803,
      "center": {
        "lat": 13.0739284,
        "lon": 77.6019706
      },
      "tags": {
        "amenity": "school",
        "name": "Sri Rama Vidyalaya",
        "name:kn": "ಶ್ರೀರಾಮ ವಿದ್ಯಾಲಯ"
      }
    },
    {
      "type": "way",
      "id": 760540412,
      "center": {
        "lat": 13.0723451,
        "lon": 77.6000286
      },
      "tags": {
        "leisure": "playground"
      }
    },
    {
      "type": "way",
      "id": 1112530385,
      "center": {
        "lat": 13.0731527,
        "lon": 77.596779
      },
      "tags": {
        "amenity": "college",
        "name": "Gyan Jyothi, State Bank of India"
      }
    },
    {
      "type": "way",
      "id": 1119328365,
      "center": {
        "lat": 13.0738572,
        "lon": 77.6073454
      },
      "tags": {
        "leisure": "park"
      }
    },
    {
      "type": "way",
      "id": 1134275253,
      "center": {
        "lat": 13.0693287,
        "lon": 77.6062166
      },
      "tags": {
        "leisure": "park"
      }
    },
    {
      "type": "way",
      "id": 1153855769,
      "center": {
        "lat": 13.0715462,
        "lon": 77.607682
      },
      "tags": {
        "amenity": "fuel",
        "brand": "Indian Oil",
        "name": "Indian Oil",
        "name:kn": "ಇಂಡಿಯನ್ ಆಯಿಲ್",
        "operator": "Indian Oil"
      }
    },
    {
      "type": "way",
      "id": 1182968252,
      "center": {
        "lat": 13.0764404,
        "lon": 77.6024283
      },
      "tags": {
        "alt_name": "Rajyoga Retreat Center",
        "amenity": "monastery",
        "healthcare": "alternative",
        "name": "Brahma Kumaris",
        "name:kn": "ಬ್ರಹ್ಮ ಕುಮಾರಿಸ್",
        "religion": "hindu",
        "website": "https://www.brahmakumaris.com/"
      }
    },
    {
      "type": "way",
      "id": 1182968254,
      "center": {
        "lat": 13.0760636,
        "lon": 77.6037727
      },
      "tags": {
        "amenity": "school",
        "name": "Government School",
        "name:kn": "ಸರ್ಕಾರಿ ಶಾಲೆ"
      }
    },
    {
      "type": "way",
      "id": 1182968257,
      "center": {
        "lat": 13.082237,
        "lon": 77.6040651
      },
      "tags": {
        "leisure": "park"
      }
    },
    {
      "type": "way",
      "id": 1182968261,
      "center": {
        "lat": 13.0803587,
        "lon": 77.6053083
      },
      "tags": {
        "leisure": "sports_centre",
        "name": "Sobha Academy"
      }
    },
    {
      "type": "way",
      "id": 1182968264,
      "center": {
        "lat": 13.0812359,
        "lon": 77.6057596
      },
      "tags": {
        "access": "permissive",
        "leisure": "swimming_pool"
      }
    },
    {
      "type": "way",
      "id": 1191446919,
      "center": {
        "lat": 13.0687107,
        "lon": 77.6054659
      },
      "tags": {
        "access": "private",
        "leisure": "swimming_pool"
      }
    },
    {
      "type": "way",
      "id": 1191446934,
      "center": {
        "lat": 13.0698253,
        "lon": 77.6066845
      },
      "tags": {
        "leisure": "pitch",
        "sport": "tennis"
      }
    },
    {
      "type": "way",
      "id": 1191446935,
      "center": {
        "lat": 13.0698083,
        "lon": 77.6069386
      },
      "tags": {
        "leisure": "pitch",
        "sport": "basketball"
      }
    },
    {
      "type": "way",
      "id": 1191446945,
      "center": {
        "lat": 13.0721608,
        "lon": 77.6136619
      },
      "tags": {
        "leisure": "park"
      }
    },
    {
      "type": "way",
      "id": 1217466581,
      "center": {
        "lat": 13.0669584,
        "lon": 77.6101782
      },
      "tags": {
        "leisure": "park"
      }
    },
    {
      "type": "way",
      "id": 1217466591,
      "center": {
        "lat": 13.0698348,
        "lon": 77.607109
      },
      "tags": {
        "leisure": "playground"
      }
    },
    {
      "type": "way",
      "id": 1242739282,
      "center": {
        "lat": 13.0689629,
        "lon": 77.5992193
      },
      "tags": {
        "leisure": "swimming_pool"
      }
    },
    {
      "type": "way",
      "id": 1242739284,
      "center": {
        "lat": 13.0693818,
        "lon": 77.6000667
      },
      "tags": {
        "leisure": "swimming_pool"
      }
    },
    {
      "type": "way",
      "id": 1242739285,
      "center": {
        "lat": 13.0695255,
        "lon": 77.6004818
      },
      "tags": {
        "leisure": "swimming_pool"
      }
    },
    {
      "type": "way",
      "id": 1242739286,
      "center": {
        "lat": 13.0693016,
        "lon": 77.6005905
      },
      "tags": {
        "leisure": "swimming_pool"
      }
    },
    {
      "type": "way",
      "id": 1245810297,
      "center": {
        "lat": 13.0731975,
        "lon": 77.6108611
      },
      "tags": {
        "amenity": "school",
        "name": "VIBGYOR"
      }
    },
    {
      "type": "way",
      "id": 1279568294,
      "center": {
        "lat": 13.0717602,
        "lon": 77.6073535
      },
      "tags": {
        "landuse": "commercial",
        "shop": "car"
      }
    },
    {
      "type": "way",
      "id": 1279609622,
      "center": {
        "lat": 13.0710457,
        "lon": 77.6039104
      },
      "tags": {
        "access": "private",
        "leisure": "swimming_pool"
      }
    },
    {
      "type": "way",
      "id": 1301741034,
      "center": {
        "lat": 13.0646257,
        "lon": 77.6045513
      },
      "tags": {
        "amenity": "place_of_worship",
        "religion": "hindu"
      }
    },
    {
      "type": "way",
      "id": 1379543549,
      "center": {
        "lat": 13.0815615,
        "lon": 77.6013425
      },
      "tags": {
        "access": "private",
        "leisure": "swimming_pool"
      }
    },
    {
      "type": "way",
      "id": 1418253593,
      "center": {
        "lat": 13.0714969,
        "lon": 77.6112732
      },
      "tags": {
        "leisure": "pitch",
        "sport": "tennis"
      }
    },
    {
      "type": "way",
      "id": 1418253609,
      "center": {
        "lat": 13.0738761,
        "lon": 77.6049663
      },
      "tags": {
        "amenity": "community_centre",
        "landuse": "commercial",
        "name": "Bharat Sevashram Sangha"
      }
    },
    {
      "type": "way",
      "id": 1418253622,
      "center": {
        "lat": 13.0730152,
        "lon": 77.608256
      },
      "tags": {
        "leisure": "pitch",
        "sport": "soccer"
      }
    },
    {
      "type": "way",
      "id": 1418253649,
      "center": {
        "lat": 13.0750983,
        "lon": 77.6061091
      },
      "tags": {
        "leisure": "park"
      }
    },
    {
      "type": "way",
      "id": 1418253650,
      "center": {
        "lat": 13.074587,
        "lon": 77.6067104
      },
      "tags": {
        "leisure": "park"
      }
    },
    {
      "type": "way",
      "id": 1419422308,
      "center": {
        "lat": 13.073076,
        "lon": 77.5993277
      },
      "tags": {
        "leisure": "park"
      }
    }
  ]
}