{
  "area_name": "Muneshwara Block",
  "osm_id": 19883449,
  "osm_type": "relation",
  "place_type": "administrative",
  "amenity_count": 4,
  "amenities": [
    {
      "type": "node",
      "id": 6944464994,
      "lat": 12.9559644,
      "lon": 77.5485635,
      "tags": {
        "addr:district": "Bengaluru Urban",
        "addr:full": "Kasturabanagar, Mysore Road , South",
        "addr:postcode": "560026",
        "addr:state": "Karnataka",
        "amenity": "hospital",
        "name": "Azad Nagar Maternity Home",
        "source": "OpenGovernmentData"
      }
    },
    {
      "type": "node",
      "id": 7576958075,
      "lat": 12.945848,
      "lon": 77.548621,
      "tags": {
        "addr:district": "Bengaluru Urban",
        "addr:full": "Muneshwara Block, Banashankari, Bengaluru",
        "addr:state": "Karnataka",
        "amenity": "doctors",
        "name": "BBMP Arogya Kendra",
        "source": "Local Knowledge"
      }
    },
    {
      "type": "node",
      "id": 12734621153,
      "lat": 12.9562108,
      "lon": 77.5476429,
      "tags": {
        "check_date": "2025-04-07",
        "clothes": "men;women;wedding;underwear;traditional;babies;denim;children;maternity;socks;fashion;accessories",
        "name": "Pothys",
        "name:en": "Pothys",
        "payment:cash": "yes",
        "payment:credit_cards": "yes",
        "payment:debit_cards": "yes",
        "payment:upi": "yes",
        "shop": "clothes",
        "wheelchair": "limited"
      }
    },
    {
      "type": "way",
      "id": 362893293,
      "center": {
        "lat": 12.9497423,
        "lon": 77.5484953
      },
      "tags": {
        "leisure": "park"
      }
    }
  ]
}