{
  "area_name": "Muniyappa Layout",
  "osm_id": 3307191849,
  "osm_type": "node",
  "place_type": "neighbourhood",
  "amenity_count": 388,
  "amenities": [
    {
      "type": "node",
      "id": 702681616,
      "lat": 12.9535965,
      "lon": 77.660901,
      "tags": {
        "amenity": "place_of_worship",
        "religion": "hindu",
        "wheelchair": "no"
      }
    },
    {
      "type": "node",
      "id": 844423869,
      "lat": 12.9590966,
      "lon": 77.6544331,
      "tags": {
        "air_conditioning": "yes",
        "amenity": "restaurant",
        "brand": "Pizza Hut",
        "brand:wikidata": "Q191615",
        "cuisine": "pizza",
        "diet:halal": "no",
        "diet:vegan": "no",
        "diet:vegetarian": "yes",
        "indoor_seating": "yes",
        "name": "Pizza Hut",
        "name:kn": "ಪಿಟ್ಸ ಹಟ್",
        "opening_hours": "Mo-Su 11:00-23:00",
        "outdoor_seating": "no",
        "smoking": "no",
        "wheelchair": "no"
      }
    },
    {
      "type": "node",
      "id": 940515833,
      "lat": 12.959041,
      "lon": 77.6564566,
      "tags": {
        "addr:street": "HAL Airport Road",
        "amenity": "restaurant",
        "cuisine": "Andhra",
        "name": "Hyderabad Biryani House",
        "name:kn": "ಹೈದರಾಬಾದ್ ಬಿರಯಾನಿ ಹೌಸ್"
      }
    },
    {
      "type": "node",
      "id": 1091414246,
      "lat": 12.9594188,
      "lon": 77.6486258,
      "tags": {
        "amenity": "restaurant",
        "name": "Matthan",
        "name:kn": "ಮತ್ತನ್"
      }
    },
    {
      "type": "node",
      "id": 1466495360,
      "lat": 12.9600525,
      "lon": 77.6505303,
      "tags": {
        "amenity": "bank",
        "branch": "NAL Main Branch",
        "brand": "State Bank of India",
        "brand:wikidata": "Q1340361",
        "brand:wikipedia": "en:State Bank of India",
        "name": "State Bank of India",
        "name:kn": "ಭಾರತೀಯ ಸ್ಟೇಟ್ ಬ್ಯಾಂಕ್",
        "short_name": "SBI",
        "wheelchair": "no"
      }
    },
    {
      "type": "node",
      "id": 1594750994,
      "lat": 12.9591717,
      "lon": 77.6550416,
      "tags": {
        "amenity": "restaurant",
        "cuisine": "indian",
        "level": "1",
        "name": "Suchitra Biriyani",
        "name:kn": "ಸುಚಿತ್ರ ಬಿರಿಯಾನಿ"
      }
    },
    {
      "type": "node",
      "id": 1594751016,
      "lat": 12.9593995,
      "lon": 77.6574072,
      "tags": {
        "amenity": "toilets",
        "source": "Local knowledge"
      }
    },
    {
      "type": "node",
      "id": 1594751028,
      "lat": 12.9595298,
      "lon": 77.6561326,
      "tags": {
        "amenity": "restaurant",
        "diet:vegetarian": "only",
        "name": "Udupi Park",
        "name:kn": "ಉಡುಪಿ ಪಾರ್ಕ್"
      }
    },
    {
      "type": "node",
      "id": 1760618743,
      "lat": 12.9598393,
      "lon": 77.6500954,
      "tags": {
        "addr:postcode": "560017",
        "addr:street": "Old Airport Road",
        "amenity": "post_office",
        "name": "NAL Sub Office",
        "name:kn": "ಎನ್ ಎ ಎಲ್ ಉಪ ಅಂಚೆ ಕಛೇರಿ",
        "website": "https://www.indiapost.gov.in/"
      }
    },
    {
      "type": "node",
      "id": 1761893916,
      "lat": 12.9598393,
      "lon": 77.6500954,
      "tags": {
        "addr:postcode": "560017",
        "amenity": "post_office",
        "name": "NAL Sub Office",
        "name:kn": "ಎನ್ ಎ ಎಲ್ ಉಪ ಅಂಚೆ ಕಛೇರಿ",
        "wheelchair": "limited"
      }
    },
    {
      "type": "node",
      "id": 2127083897,
      "lat": 12.9605462,
      "lon": 77.6483282,
      "tags": {
        "leisure": "sports_centre",
        "name": "Ameoba Bowling Alley",
        "sport": "9pin"
      }
    },
    {
      "type": "node",
      "id": 3007431020,
      "lat": 12.9591031,
      "lon": 77.6563601,
      "tags": {
        "addr:city": "Bangalore",
        "addr:postcode": "560017",
        "addr:street": "Old Airport Road",
        "amenity": "bank",
        "atm": "yes",
        "brand": "Bandhan Bank",
        "brand:wikidata": "Q1653258",
        "check_date": "2025-11-08",
        "description": "Old Airport Road Branch",
        "name": "Bandhan Bank",
        "name:en": "Bandhan Bank",
        "name:kn": "ಬಂಧನ್ ಬ್ಯಾಂಕ್",
        "opening_hours": "08:00-18:00",
        "website": "https://www.icicibank.com"
      }
    },
    {
      "type": "node",
      "id": 3298073311,
      "lat": 12.9591825,
      "lon": 77.6549606,
      "tags": {
        "fair_trade": "yes",
        "name": "Khadi Katir",
        "shop": "variety_store"
      }
    },
    {
      "type": "node",
      "id": 3298073312,
      "lat": 12.9587059,
      "lon": 77.6554904,
      "tags": {
        "shop": "hardware"
      }
    },
    {
      "type": "node",
      "id": 3298916254,
      "lat": 12.956878,
      "lon": 77.6569913,
      "tags": {
        "name": "Fresh Bakes",
        "shop": "bakery",
        "wheelchair": "no"
      }
    },
    {
      "type": "node",
      "id": 3298916257,
      "lat": 12.9566493,
      "lon": 77.656194,
      "tags": {
        "name": "New Annadata Vegetables",
        "shop": "greengrocer"
      }
    },
    {
      "type": "node",
      "id": 3298916258,
      "lat": 12.9563085,
      "lon": 77.6560269,
      "tags": {
        "amenity": "restaurant",
        "cuisine": "regional",
        "name": "Odia Dyne"
      }
    },
    {
      "type": "node",
      "id": 3298923876,
      "lat": 12.9566382,
      "lon": 77.6560608,
      "tags": {
        "amenity": "recycling",
        "recycling:paper": "yes"
      }
    },
    {
      "type": "node",
      "id": 3300076795,
      "lat": 12.9551944,
      "lon": 77.653336,
      "tags": {
        "name": "Bake Point",
        "shop": "bakery"
      }
    },
    {
      "type": "node",
      "id": 3300076796,
      "lat": 12.9549596,
      "lon": 77.6532881,
      "tags": {
        "amenity": "bar",
        "name": "Darshan Bar"
      }
    },
    {
      "type": "node",
      "id": 3300076797,
      "lat": 12.9559406,
      "lon": 77.6535335,
      "tags": {
        "name": "Easy Supermarket",
        "shop": "supermarket",
        "wheelchair": "no"
      }
    },
    {
      "type": "node",
      "id": 3300076798,
      "lat": 12.9558936,
      "lon": 77.6535219,
      "tags": {
        "amenity": "restaurant",
        "cuisine": "pizza",
        "name": "J's Pastas n Pizzas"
      }
    },
    {
      "type": "node",
      "id": 3300076818,
      "lat": 12.9549835,
      "lon": 77.6532944,
      "tags": {
        "amenity": "atm",
        "brand": "State Bank of India",
        "brand:wikidata": "Q1340361",
        "check_date": "2025-09-30",
        "name": "State Bank of India",
        "operator": "State Bank of India",
        "operator:wikidata": "Q1340361",
        "short_name": "SBI"
      }
    },
    {
      "type": "node",
      "id": 3300077806,
      "lat": 12.9590295,
      "lon": 77.6543829,
      "tags": {
        "name": "Daily Bread",
        "shop": "bakery"
      }
    },
    {
      "type": "node",
      "id": 3300077807,
      "lat": 12.958827,
      "lon": 77.6543248,
      "tags": {
        "brand": "More",
        "brand:wikidata": "Q6910891",
        "diet:halal": "yes",
        "level": "0",
        "name": "More",
        "name:kn": "ಮೋರ್",
        "opening_hours": "Mo-Su 08:00-21:00",
        "operator": "More",
        "shop": "supermarket",
        "wheelchair": "limited"
      }
    },
    {
      "type": "node",
      "id": 3304100395,
      "lat": 12.9598738,
      "lon": 77.6497781,
      "tags": {
        "name": "Rehabilitation Aids Workshop by Women with Disabilities - RAWWD",
        "shop": "medical_supply",
        "website": "https://www.ddpuk.org/rawwd.html"
      }
    },
    {
      "type": "node",
      "id": 3306173192,
      "lat": 12.95682,
      "lon": 77.653741,
      "tags": {
        "amenity": "pharmacy",
        "dispensing": "no"
      }
    },
    {
      "type": "node",
      "id": 3309207333,
      "lat": 12.9571881,
      "lon": 77.6550651,
      "tags": {
        "amenity": "restaurant",
        "cuisine": "meals",
        "name": "Diya Family Restaurant"
      }
    },
    {
      "type": "node",
      "id": 3313847819,
      "lat": 12.9568134,
      "lon": 77.6545474,
      "tags": {
        "amenity": "recycling",
        "recycling:cans": "yes",
        "recycling:glass": "no",
        "recycling:paper": "yes"
      }
    },
    {
      "type": "node",
      "id": 3313847821,
      "lat": 12.9565128,
      "lon": 77.6537159,
      "tags": {
        "amenity": "restaurant",
        "cuisine": "meals",
        "name": "Akshaya Veg"
      }
    },
    {
      "type": "node",
      "id": 3340457186,
      "lat": 12.953121,
      "lon": 77.652908,
      "tags": {
        "amenity": "restaurant",
        "name": "Status"
      }
    },
    {
      "type": "node",
      "id": 3340457188,
      "lat": 12.9530588,
      "lon": 77.652888,
      "tags": {
        "amenity": "restaurant",
        "name": "Udipi Park"
      }
    },
    {
      "type": "node",
      "id": 3340457189,
      "lat": 12.9533697,
      "lon": 77.6525624,
      "tags": {
        "name": "Top in Town",
        "shop": "supermarket",
        "wheelchair": "no"
      }
    },
    {
      "type": "node",
      "id": 3761239273,
      "lat": 12.9597633,
      "lon": 77.6470458,
      "tags": {
        "addr:street": "Old Airport Road",
        "amenity": "restaurant",
        "indoor_seating": "yes",
        "level": "0",
        "name": "Zaitoon",
        "outdoor_seating": "no"
      }
    },
    {
      "type": "node",
      "id": 3761415286,
      "lat": 12.9596795,
      "lon": 77.6566533,
      "tags": {
        "brand": "Maruti Suzuki",
        "brand:wikidata": "Q963718",
        "name": "Maruti Suzuki",
        "name:kn": "ಮಾರುತಿ ಸುಜುಕಿ",
        "shop": "car"
      }
    },
    {
      "type": "node",
      "id": 3761415287,
      "lat": 12.9594965,
      "lon": 77.6569671,
      "tags": {
        "amenity": "atm",
        "brand": "HDFC Bank",
        "brand:wikidata": "Q631047",
        "name": "HDFC Bank",
        "name:kn": "ಎಚ್ ಡಿ ಎಫ್ ಸಿ",
        "operator": "HDFC Bank",
        "operator:wikidata": "Q631047",
        "short_name": "HDFC"
      }
    },
    {
      "type": "node",
      "id": 3761425968,
      "lat": 12.9594544,
      "lon": 77.6506494,
      "tags": {
        "level": "0",
        "name": "Go printers",
        "shop": "Printer"
      }
    },
    {
      "type": "node",
      "id": 3761426230,
      "lat": 12.95947,
      "lon": 77.6505957,
      "tags": {
        "level": "1",
        "name": "Gangu Offset Printers",
        "shop": "Printer"
      }
    },
    {
      "type": "node",
      "id": 3761429336,
      "lat": 12.9592065,
      "lon": 77.6530201,
      "tags": {
        "amenity": "restaurant",
        "level": "0",
        "name": "Golden Plate Restaurant"
      }
    },
    {
      "type": "node",
      "id": 3761459658,
      "lat": 12.9593103,
      "lon": 77.6524844,
      "tags": {
        "amenity": "bank",
        "atm": "yes",
        "brand": "HDFC Bank",
        "brand:wikidata": "Q631047",
        "brand:wikipedia": "en:HDFC Bank",
        "level": "0",
        "name": "HDFC Bank",
        "name:kn": "ಎಚ್ ಡಿ ಎಫ್ ಸಿ",
        "short_name": "HDFC",
        "website": "https://www.hdfcbank.com",
        "wheelchair": "no"
      }
    },
    {
      "type": "node",
      "id": 3761461918,
      "lat": 12.958969,
      "lon": 77.6521143,
      "tags": {
        "brand": "Nilgiri's",
        "brand:wikidata": "Q17079567",
        "name": "Nilgiri's",
        "name:kn": "ನೀಲ್ಗಿರೀಸ್",
        "shop": "supermarket"
      }
    },
    {
      "type": "node",
      "id": 3761463624,
      "lat": 12.9592189,
      "lon": 77.6550673,
      "tags": {
        "amenity": "atm",
        "brand": "Kotak Mahindra Bank",
        "brand:wikidata": "Q2040404",
        "cash_in": "yes",
        "check_date": "2025-09-12",
        "name": "Kotak Mahindra Bank",
        "operator": "Kotak Mahindra Bank",
        "operator:wikidata": "Q2040404"
      }
    },
    {
      "type": "node",
      "id": 3761463625,
      "lat": 12.9592324,
      "lon": 77.6549762,
      "tags": {
        "amenity": "atm",
        "brand": "ICICI Bank",
        "brand:wikidata": "Q1653258",
        "cash_in": "yes",
        "check_date": "2025-09-12",
        "name": "ICICI Bank",
        "name:kn": "ಐಸಿಐಸಿಐ ಬ್ಯಾಂಕು",
        "operator": "ICICI Bank",
        "operator:wikidata": "Q1653258",
        "short_name": "ICICI"
      }
    },
    {
      "type": "node",
      "id": 3761463626,
      "lat": 12.9592219,
      "lon": 77.6550084,
      "tags": {
        "amenity": "cafe",
        "brand": "Cafe Coffee Day",
        "brand:wikidata": "Q5017235",
        "cuisine": "coffee_shop",
        "level": "0",
        "name": "Cafe Coffee Day",
        "name:kn": "ಕಫೆ ಕಾಫಿ ಡೇ",
        "takeaway": "yes"
      }
    },
    {
      "type": "node",
      "id": 3761463627,
      "lat": 12.9592219,
      "lon": 77.6550272,
      "tags": {
        "level": "-1",
        "name": "Khadi Kutir",
        "shop": "clothes"
      }
    },
    {
      "type": "node",
      "id": 3761466913,
      "lat": 12.9592402,
      "lon": 77.6547402,
      "tags": {
        "amenity": "restaurant",
        "cuisine": "Andhra",
        "level": "0",
        "name": "Samruddhi",
        "name:kn": "ಸಮೃದ್ಧಿ"
      }
    },
    {
      "type": "node",
      "id": 3761477898,
      "lat": 12.9592193,
      "lon": 77.654608,
      "tags": {
        "brand": "Naturals",
        "brand:wikidata": "Q125728261",
        "name": "Naturals",
        "shop": "beauty"
      }
    },
    {
      "type": "node",
      "id": 3761482431,
      "lat": 12.9589664,
      "lon": 77.6569874,
      "tags": {
        "addr:floor": "G",
        "air_conditioning": "yes",
        "alt_name": "Kentucky Fried Chicken",
        "alt_name:en": "Kentucky Fried Chicken",
        "alt_name:hi": "केंटुकी फ्राइड चिकन",
        "alt_name:pa": "ਕੈਂਟੁਕੀ ਫ੍ਰਾਈਡ ਚਿਕਨ",
        "alt_name:pnb": "کینٹکی فرائیڈ چکن",
        "alt_name:ur": "کینٹکی فرائیڈ چکن",
        "amenity": "fast_food",
        "brand": "KFC",
        "brand:en": "KFC",
        "brand:hi": "केएफसी",
        "brand:pa": "ਕੇਐਫਸੀ",
        "brand:pnb": "کے ایف سی",
        "brand:ur": "کے ایف سی",
        "brand:wikidata": "Q524757",
        "brand:wikipedia": "en:KFC",
        "brand:wikipedia:pa": "ਕੇਐਫਸੀ",
        "brand:wikipedia:ur": "کینٹکی فرائیڈ چکن",
        "check_date": "2024-10-19",
        "cuisine": "chicken",
        "delivery": "yes",
        "drive_through": "no",
        "indoor_seating": "yes",
        "level": "0",
        "name": "KFC",
        "name:en": "KFC",
        "name:hi": "केएफसी",
        "name:pa": "ਕੇਐਫਸੀ",
        "name:pnb": "کے ایف سی",
        "name:ur": "کے ایف سی",
        "operator": "KFC India",
        "outdoor_seating": "no",
        "smoking": "no",
        "takeaway": "yes"
      }
    },
    {
      "type": "node",
      "id": 3761482432,
      "lat": 12.9590285,
      "lon": 77.6566733,
      "tags": {
        "addr:city": "Bangalore",
        "addr:housenumber": "GF-01",
        "addr:postcode": "560017",
        "addr:street": "Kemp Fort Mall",
        "amenity": "fast_food",
        "brand": "McDonald's",
        "brand:pa": "ਮੈਕਡੋਨਲਡ’ਜ਼",
        "brand:ur": "مکڈونلڈز",
        "brand:wikidata": "Q38076",
        "brand:wikipedia": "en:McDonald's",
        "brand:wikipedia:pa": "ਮੈਕਡੋਨਲਡ’ਜ਼",
        "brand:wikipedia:ur": "مکڈونلڈز",
        "cuisine": "burger",
        "delivery": "yes",
        "drive_through": "no",
        "name": "McDonald's",
        "name:kn": "ಮ್ಯಾಕ್‌ಡೊನಾಲ್ಡ್ಸ್",
        "name:pa": "ਮੈਕਡੋਨਲਡ’ਜ਼",
        "name:ur": "مکڈونلڈز",
        "opening_hours": "10:00-22:00",
        "operator": "McDonald's India",
        "smoking": "no",
        "takeaway": "yes"
      }
    },
    {
      "type": "node",
      "id": 3761490983,
      "lat": 12.9588709,
      "lon": 77.6601223,
      "tags": {
        "level": "0",
        "name": "Sweet Chariots",
        "shop": "bakery"
      }
    },
    {
      "type": "node",
      "id": 3761490984,
      "lat": 12.9588866,
      "lon": 77.660074,
      "tags": {
        "amenity": "bank",
        "brand": "HDFC Bank",
        "brand:wikidata": "Q631047",
        "brand:wikipedia": "en:HDFC Bank",
        "level": "0",
        "name": "HDFC Bank",
        "name:kn": "ಎಚ್. ಡಿ. ಎಫ್. ಸಿ. ಬ್ಯಾಂಕ್",
        "short_name": "HDFC",
        "website": "https://www.hdfcbank.com"
      }
    },
    {
      "type": "node",
      "id": 3761490986,
      "lat": 12.958884,
      "lon": 77.6599587,
      "tags": {
        "amenity": "post_office",
        "brand": "Blue Dart Express",
        "brand:short": "Blue Dart",
        "brand:wikidata": "Q54621493",
        "level": "0",
        "name": "Blue Dart",
        "operator": "Blue Dart Express",
        "operator:short": "Blue Dart",
        "operator:wikidata": "Q54621493"
      }
    },
    {
      "type": "node",
      "id": 3761493875,
      "lat": 12.9588944,
      "lon": 77.6598889,
      "tags": {
        "amenity": "bar",
        "level": "0",
        "name": "Mandarin Hoysala Delux"
      }
    },
    {
      "type": "node",
      "id": 3780780965,
      "lat": 12.9545514,
      "lon": 77.6526553,
      "tags": {
        "amenity": "atm",
        "brand": "ICICI Bank",
        "brand:wikidata": "Q1653258",
        "name": "ICICI Bank",
        "operator": "ICICI Bank",
        "operator:wikidata": "Q1653258",
        "short_name": "ICICI"
      }
    },
    {
      "type": "node",
      "id": 3780780966,
      "lat": 12.954539,
      "lon": 77.6526273,
      "tags": {
        "amenity": "restaurant",
        "name": "Punjabi Bites"
      }
    },
    {
      "type": "node",
      "id": 3780862749,
      "lat": 12.9588223,
      "lon": 77.6594678,
      "tags": {
        "amenity": "restaurant",
        "name": "Good Food"
      }
    },
    {
      "type": "node",
      "id": 3780863426,
      "lat": 12.9588744,
      "lon": 77.6594639,
      "tags": {
        "amenity": "bank",
        "atm": "yes",
        "brand": "Syndicate Bank",
        "brand:wikidata": "Q2004088",
        "level": "0",
        "name": "Syndicate Bank",
        "name:en": "Syndicate Bank",
        "name:kn": "ಸಿಂಡಿಕೇಟ್ ಬ್ಯಾಂಕ್",
        "website": "https://www.syndicatebank.in"
      }
    },
    {
      "type": "node",
      "id": 3780866823,
      "lat": 12.9588464,
      "lon": 77.6594118,
      "tags": {
        "amenity": "place_of_worship",
        "level": "2",
        "name": "Reapers of Christ Church",
        "religion": "christian"
      }
    },
    {
      "type": "node",
      "id": 3803137289,
      "lat": 12.9588866,
      "lon": 77.6596239,
      "tags": {
        "addr:floor": "G",
        "amenity": "fast_food",
        "check_date": "2025-11-26",
        "level": "0",
        "name": "Sri Mylari Fast Food And Tiffin Centrr"
      }
    },
    {
      "type": "node",
      "id": 3803138550,
      "lat": 12.9588797,
      "lon": 77.6596453,
      "tags": {
        "amenity": "driving_school",
        "level": "1",
        "name": "Byrava Motor Driving School"
      }
    },
    {
      "type": "node",
      "id": 3803144668,
      "lat": 12.9596851,
      "lon": 77.6469989,
      "tags": {
        "amenity": "Party Hall",
        "name": "Khayal Banquet Hall"
      }
    },
    {
      "type": "node",
      "id": 3804506763,
      "lat": 12.959884,
      "lon": 77.649722,
      "tags": {
        "level": "0",
        "name": "Cheshire Homes Crafts",
        "shop": "craft"
      }
    },
    {
      "type": "node",
      "id": 3804507829,
      "lat": 12.9595599,
      "lon": 77.6559904,
      "tags": {
        "amenity": "restaurant",
        "level": "1",
        "name": "Raju's Royal"
      }
    },
    {
      "type": "node",
      "id": 3804507964,
      "lat": 12.9595468,
      "lon": 77.6560186,
      "tags": {
        "amenity": "bank",
        "atm": "yes",
        "brand": "Corporation Bank",
        "brand:wikidata": "Q2003387",
        "brand:wikipedia": "en:Corporation Bank",
        "level": "0",
        "name": "Corporation Bank",
        "name:en": "Corporation Bank",
        "name:kn": "ಕಾರ್ಪರೇಷನ್ ಬ್ಯಾಂಕ್",
        "website": "https://corpbank.com/"
      }
    },
    {
      "type": "node",
      "id": 3818420369,
      "lat": 12.95223,
      "lon": 77.6526779,
      "tags": {
        "amenity": "childcare",
        "name": "Little Elly",
        "operator": "Abhyuday Learning"
      }
    },
    {
      "type": "node",
      "id": 3852010270,
      "lat": 12.9587433,
      "lon": 77.6567228,
      "tags": {
        "addr:housenumber": "#1-13",
        "addr:street": "Kemp Fort Mall",
        "check_date": "2024-10-19",
        "clothes": "women",
        "level": "1",
        "name": "Trends Woman",
        "payment:cash": "yes",
        "payment:credit_cards": "yes",
        "payment:debit_cards": "yes",
        "payment:upi": "yes",
        "shop": "clothes"
      }
    },
    {
      "type": "node",
      "id": 3852010271,
      "lat": 12.9591346,
      "lon": 77.6565349,
      "tags": {
        "amenity": "fast_food",
        "brand": "Domino's",
        "brand:ks": "ڈومینوز",
        "brand:pa": "ਡੋਮੀਨੋਜ਼",
        "brand:ur": "ڈومینوز",
        "brand:wikidata": "Q839466",
        "brand:wikipedia": "en:Domino's Pizza",
        "cuisine": "pizza",
        "level": "0",
        "name": "Domino's",
        "name:ks": "ڈومینوز",
        "name:pa": "ਡੋਮੀਨੋਜ਼",
        "name:ur": "ڈومینوز",
        "takeaway": "yes"
      }
    },
    {
      "type": "node",
      "id": 3852022148,
      "lat": 12.9590949,
      "lon": 77.6564893,
      "tags": {
        "level": "0",
        "name": "VLCC",
        "shop": "beauty"
      }
    },
    {
      "type": "node",
      "id": 3853987807,
      "lat": 12.9591214,
      "lon": 77.6575733,
      "tags": {
        "level": "0",
        "name": "SN Fashion",
        "shop": "clothes"
      }
    },
    {
      "type": "node",
      "id": 3853996383,
      "lat": 12.9587335,
      "lon": 77.6598941,
      "tags": {
        "amenity": "post_office",
        "brand": "Desk to Desk Courier & Cargo",
        "brand:short": "DTDC",
        "brand:wikidata": "Q55608802",
        "name": "DTDC Couriers",
        "operator": "Desk to Desk Courier & Cargo",
        "operator:short": "DTDC",
        "operator:wikidata": "Q55608802"
      }
    },
    {
      "type": "node",
      "id": 3853996384,
      "lat": 12.9587325,
      "lon": 77.6600138,
      "tags": {
        "amenity": "post_office",
        "name": "Professional Couriers",
        "operator": "Professional Couriers"
      }
    },
    {
      "type": "node",
      "id": 3854000241,
      "lat": 12.9590612,
      "lon": 77.6577504,
      "tags": {
        "level": "0",
        "name": "Battery Point",
        "shop": "batteries"
      }
    },
    {
      "type": "node",
      "id": 3854000242,
      "lat": 12.9591135,
      "lon": 77.657635,
      "tags": {
        "name": "Apollo",
        "name:kn": "ಅಪೊಲೋ",
        "shop": "tyres"
      }
    },
    {
      "type": "node",
      "id": 3854005755,
      "lat": 12.9592168,
      "lon": 77.6551073,
      "tags": {
        "amenity": "dentist",
        "level": "-1",
        "name": "ATR Dental Clinic"
      }
    },
    {
      "type": "node",
      "id": 3854005756,
      "lat": 12.9592005,
      "lon": 77.6550953,
      "tags": {
        "level": "0",
        "name": "Royal Collection",
        "shop": "clothes"
      }
    },
    {
      "type": "node",
      "id": 3854006370,
      "lat": 12.9592227,
      "lon": 77.6529105,
      "tags": {
        "name": "Clublaptop",
        "service": "dealer;repair",
        "shop": "computer"
      }
    },
    {
      "type": "node",
      "id": 3854018600,
      "lat": 12.9591967,
      "lon": 77.6529263,
      "tags": {
        "amenity": "printer",
        "name": "Printo"
      }
    },
    {
      "type": "node",
      "id": 3854020326,
      "lat": 12.9592005,
      "lon": 77.6528799,
      "tags": {
        "level": "1",
        "name": "Orion Travels",
        "shop": "travel_agency"
      }
    },
    {
      "type": "node",
      "id": 3854020349,
      "lat": 12.9591948,
      "lon": 77.6528986,
      "tags": {
        "amenity": "post_office",
        "brand": "FedEx",
        "brand:wikidata": "Q459477",
        "level": "1",
        "name": "FedEx",
        "operator": "FedEx",
        "shop": "copyshop"
      }
    },
    {
      "type": "node",
      "id": 3854021544,
      "lat": 12.9591707,
      "lon": 77.6529125,
      "tags": {
        "amenity": "clinic",
        "healthcare:speciality": "ayurveda; homeopathy",
        "level": "1",
        "name": "Miracle Homeopathy And Ayurveda"
      }
    },
    {
      "type": "node",
      "id": 3993262523,
      "lat": 12.9572235,
      "lon": 77.655082,
      "tags": {
        "amenity": "fast_food",
        "name": "Ambur Hot Dum Biryani"
      }
    },
    {
      "type": "node",
      "id": 3993262524,
      "lat": 12.9567763,
      "lon": 77.6549886,
      "tags": {
        "name": "Fruits",
        "shop": "greengrocer"
      }
    },
    {
      "type": "node",
      "id": 3993262525,
      "lat": 12.9570978,
      "lon": 77.6549166,
      "tags": {
        "name": "Gents Camp",
        "shop": "clothes"
      }
    },
    {
      "type": "node",
      "id": 3993262526,
      "lat": 12.9568367,
      "lon": 77.6549662,
      "tags": {
        "name": "KP Stores",
        "shop": "convenience"
      }
    },
    {
      "type": "node",
      "id": 3993262527,
      "lat": 12.9570946,
      "lon": 77.6550291,
      "tags": {
        "name": "Ladies Camp",
        "shop": "clothes"
      }
    },
    {
      "type": "node",
      "id": 3993262528,
      "lat": 12.9571333,
      "lon": 77.6549241,
      "tags": {
        "name": "Lifeline's Tender Chicken",
        "shop": "butcher"
      }
    },
    {
      "type": "node",
      "id": 3993262529,
      "lat": 12.957471,
      "lon": 77.6551567,
      "tags": {
        "name": "Mahadev Plastics and Stationers",
        "shop": "stationery"
      }
    },
    {
      "type": "node",
      "id": 3993262530,
      "lat": 12.9566788,
      "lon": 77.6549406,
      "tags": {
        "name": "Rasna Stores",
        "shop": "convenience"
      }
    },
    {
      "type": "node",
      "id": 3993262531,
      "lat": 12.9574628,
      "lon": 77.6550258,
      "tags": {
        "name": "SDK Rice Traders",
        "shop": "rice"
      }
    },
    {
      "type": "node",
      "id": 3993262532,
      "lat": 12.9571574,
      "lon": 77.6550531,
      "tags": {
        "amenity": "fast_food",
        "name": "Santosh Fast Food"
      }
    },
    {
      "type": "node",
      "id": 3993262533,
      "lat": 12.9572026,
      "lon": 77.6550737,
      "tags": {
        "name": "Sri Baghvanthi Fruits and Vegetables",
        "shop": "greengrocer"
      }
    },
    {
      "type": "node",
      "id": 3993262534,
      "lat": 12.9572461,
      "lon": 77.6550927,
      "tags": {
        "name": "Sri Manjunath Enterprises",
        "shop": "mobile_phone"
      }
    },
    {
      "type": "node",
      "id": 3993262535,
      "lat": 12.9571268,
      "lon": 77.6550423,
      "tags": {
        "amenity": "recycling",
        "name": "Sri Vinayaka Old Paper Mart",
        "recycling:paper": "yes",
        "recycling_type": "centre"
      }
    },
    {
      "type": "node",
      "id": 3993262536,
      "lat": 12.9575215,
      "lon": 77.6551676,
      "tags": {
        "name": "Venus Bakes",
        "shop": "bakery"
      }
    },
    {
      "type": "node",
      "id": 3993264659,
      "lat": 12.9569028,
      "lon": 77.6549803,
      "tags": {
        "shop": "stationery"
      }
    },
    {
      "type": "node",
      "id": 3993264680,
      "lat": 12.9571695,
      "lon": 77.6549563,
      "tags": {
        "shop": "greengrocer"
      }
    },
    {
      "type": "node",
      "id": 3993264688,
      "lat": 12.9572445,
      "lon": 77.6549844,
      "tags": {
        "shop": "greengrocer"
      }
    },
    {
      "type": "node",
      "id": 3993281427,
      "lat": 12.9575611,
      "lon": 77.6550565,
      "tags": {
        "amenity": "pharmacy",
        "name": "Aashuhadi Chemists and Druggists"
      }
    },
    {
      "type": "node",
      "id": 3993281428,
      "lat": 12.9578247,
      "lon": 77.6551191,
      "tags": {
        "amenity": "restaurant",
        "cuisine": "meals",
        "name": "Annapoorneshwari Restaurant",
        "name:kn": "ಅನ್ನಪೂರ್ಣೇಶ್ವರಿ"
      }
    },
    {
      "type": "node",
      "id": 3993281429,
      "lat": 12.9578023,
      "lon": 77.6551184,
      "tags": {
        "name": "LJ Iyengar Bakery",
        "shop": "bakery"
      }
    },
    {
      "type": "node",
      "id": 3993281430,
      "lat": 12.9576149,
      "lon": 77.6550687,
      "tags": {
        "name": "Prince Selection",
        "shop": "clothes"
      }
    },
    {
      "type": "node",
      "id": 3993281431,
      "lat": 12.9576577,
      "lon": 77.6550831,
      "tags": {
        "name": "Sri Annapoorna Rice Traders",
        "shop": "rice"
      }
    },
    {
      "type": "node",
      "id": 3993281432,
      "lat": 12.9575422,
      "lon": 77.6550504,
      "tags": {
        "amenity": "clinic",
        "name": "Sshiradi Sai Family Care Clinic"
      }
    },
    {
      "type": "node",
      "id": 4043095731,
      "lat": 12.9587999,
      "lon": 77.6550029,
      "tags": {
        "addr:city": "Bengaluru",
        "addr:housenumber": "15",
        "addr:postcode": "560017",
        "addr:street": "2nd Cross Road",
        "leisure": "sports_centre",
        "level": "1;2",
        "name": "Fitness Mine",
        "opening_hours": "6:00-22:00",
        "sport": "fitness"
      }
    },
    {
      "type": "node",
      "id": 4043095769,
      "lat": 12.9591832,
      "lon": 77.6566535,
      "tags": {
        "amenity": "parking_entrance"
      }
    },
    {
      "type": "node",
      "id": 4043095770,
      "lat": 12.958648,
      "lon": 77.6567863,
      "tags": {
        "addr:city": "Bangalore",
        "addr:housenumber": "97",
        "addr:postcode": "560017",
        "addr:street": "Old Airport Road",
        "level": "2;3",
        "name": "Total",
        "opening_hours": "10:00-20:00",
        "operator": "Total",
        "shop": "supermarket",
        "website": "http://morestore.com/"
      }
    },
    {
      "type": "node",
      "id": 4043095771,
      "lat": 12.9590045,
      "lon": 77.6567837,
      "tags": {
        "addr:housenumber": "GF-04",
        "addr:street": "Kemp Fort Mall",
        "name": "Favourite Shop",
        "phone": "080-22956334",
        "shop": "clothes"
      }
    },
    {
      "type": "node",
      "id": 4043095772,
      "lat": 12.9589476,
      "lon": 77.6566548,
      "tags": {
        "addr:housename": "Kemp Fort Mall",
        "addr:housenumber": "#0-05",
        "brand": "Fila",
        "brand:wikidata": "Q482539",
        "name": "Fila",
        "shop": "clothes"
      }
    },
    {
      "type": "node",
      "id": 4043095773,
      "lat": 12.9588471,
      "lon": 77.6566319,
      "tags": {
        "addr:housenumber": "#0-08",
        "addr:street": "Kemp Fort Mall",
        "alt_name": "You Look Great Salon",
        "name": "YLG",
        "phone": "080-40939761",
        "shop": "beauty"
      }
    },
    {
      "type": "node",
      "id": 4043095774,
      "lat": 12.9587496,
      "lon": 77.6566095,
      "tags": {
        "addr:housenumber": "#0-09",
        "brand": "Bata",
        "brand:wikidata": "Q688082",
        "name": "Bata",
        "name:kn": "ಬಾಟಾ",
        "phone": "080-32569270",
        "shop": "shoes"
      }
    },
    {
      "type": "node",
      "id": 4043095775,
      "lat": 12.9589346,
      "lon": 77.6567677,
      "tags": {
        "addr:housenumber": "#0-12",
        "name": "Bluskin",
        "phone": "080-40911488",
        "shop": "leather"
      }
    },
    {
      "type": "node",
      "id": 4043095776,
      "lat": 12.9588354,
      "lon": 77.6567446,
      "tags": {
        "addr:housenumber": "#0-16",
        "name": "Bombay Dyeing",
        "phone": "808-40918647",
        "shop": "furniture"
      }
    },
    {
      "type": "node",
      "id": 4043095777,
      "lat": 12.9585516,
      "lon": 77.6565629,
      "tags": {
        "addr:housenumber": "#0-17",
        "name": "Eyesense",
        "phone": "080-41526430",
        "shop": "optician"
      }
    },
    {
      "type": "node",
      "id": 4043095778,
      "lat": 12.9586551,
      "lon": 77.6565874,
      "tags": {
        "addr:housenumber": "#0-18",
        "name": "Jockey",
        "phone": "080-40947725",
        "shop": "clothes"
      }
    },
    {
      "type": "node",
      "id": 4043095779,
      "lat": 12.9584345,
      "lon": 77.6565348,
      "tags": {
        "addr:housenumber": "#0-19",
        "name": "Soch",
        "phone": "080-22956333",
        "shop": "clothes"
      }
    },
    {
      "type": "node",
      "id": 4127160593,
      "lat": 12.9554438,
      "lon": 77.6546326,
      "tags": {
        "amenity": "waste_disposal"
      }
    },
    {
      "type": "node",
      "id": 4127160595,
      "lat": 12.9551584,
      "lon": 77.6512286,
      "tags": {
        "addr:city": "Bengaluru",
        "addr:housenumber": "BR plaza",
        "addr:postcode": "560017",
        "addr:street": "SR Layout Main Road",
        "amenity": "dentist",
        "healthcare": "dentist",
        "name": "KDC Dental Clinic",
        "phone": "+918296879540"
      }
    },
    {
      "type": "node",
      "id": 4127160596,
      "lat": 12.9550419,
      "lon": 77.6533125,
      "tags": {
        "addr:housenumber": "22",
        "addr:street": "Wind Tunnel Road",
        "amenity": "pharmacy",
        "name": "Murugeshpalaya Medicals"
      }
    },
    {
      "type": "node",
      "id": 4127160896,
      "lat": 12.9554817,
      "lon": 77.6534635,
      "tags": {
        "addr:housenumber": "5",
        "addr:street": "Wind Tunnel Road",
        "amenity": "pharmacy",
        "healthcare": "pharmacy",
        "name": "Srinivasa Medicals"
      }
    },
    {
      "type": "node",
      "id": 4144220194,
      "lat": 12.9574632,
      "lon": 77.6555523,
      "tags": {
        "amenity": "waste_disposal"
      }
    },
    {
      "type": "node",
      "id": 4144220195,
      "lat": 12.9567595,
      "lon": 77.6552301,
      "tags": {
        "name": "Akshaya Chicken Stall",
        "shop": "butcher"
      }
    },
    {
      "type": "node",
      "id": 4144224189,
      "lat": 12.9575504,
      "lon": 77.6551578,
      "tags": {
        "amenity": "waste_disposal"
      }
    },
    {
      "type": "node",
      "id": 4144224190,
      "lat": 12.9563791,
      "lon": 77.6547681,
      "tags": {
        "addr:housenumber": "1",
        "addr:street": "Ramaiah Lane",
        "name": "Ambili Paints And Hardware",
        "shop": "hardware"
      }
    },
    {
      "type": "node",
      "id": 4144224389,
      "lat": 12.9566762,
      "lon": 77.6550445,
      "tags": {
        "addr:housenumber": "435",
        "addr:street": "1st Cross Road",
        "amenity": "pharmacy",
        "name": "Srivaari Drug House"
      }
    },
    {
      "type": "node",
      "id": 4144224390,
      "lat": 12.956739,
      "lon": 77.6540878,
      "tags": {
        "addr:housenumber": "449",
        "addr:street": "1st Cross Road",
        "name": "Shree Yuga Paints And Hardware",
        "shop": "hardware"
      }
    },
    {
      "type": "node",
      "id": 4204002589,
      "lat": 12.9589543,
      "lon": 77.6521562,
      "tags": {
        "amenity": "restaurant",
        "cuisine": "chinese",
        "name": "Green Onion"
      }
    },
    {
      "type": "node",
      "id": 4307393648,
      "lat": 12.9592405,
      "lon": 77.6528797,
      "tags": {
        "amenity": "pharmacy",
        "healthcare": "pharmacy",
        "name": "Fortis HealthWorld"
      }
    },
    {
      "type": "node",
      "id": 4307399141,
      "lat": 12.9589507,
      "lon": 77.6569142,
      "tags": {
        "branch": "Megastore",
        "brand": "More",
        "brand:wikidata": "Q6910891",
        "check_date": "2024-10-19",
        "level": "2",
        "name": "More",
        "payment:cash": "yes",
        "payment:credit_cards": "yes",
        "payment:debit_cards": "yes",
        "payment:upi": "yes",
        "shop": "supermarket"
      }
    },
    {
      "type": "node",
      "id": 4307400387,
      "lat": 12.9591477,
      "lon": 77.6572742,
      "tags": {
        "amenity": "post_office",
        "name": "Overnite Express",
        "operator": "Overnite Express"
      }
    },
    {
      "type": "node",
      "id": 4310174753,
      "lat": 12.9590499,
      "lon": 77.6575899,
      "tags": {
        "level": "0",
        "name": "Apollo",
        "shop": "tyres"
      }
    },
    {
      "type": "node",
      "id": 4310174930,
      "lat": 12.959125,
      "lon": 77.6574397,
      "tags": {
        "amenity": "place_of_worship",
        "level": "0",
        "religion": "hindu"
      }
    },
    {
      "type": "node",
      "id": 4314330393,
      "lat": 12.9553733,
      "lon": 77.6544226,
      "tags": {
        "name": "Image Mens Beauty Saloon",
        "shop": "hairdresser"
      }
    },
    {
      "type": "node",
      "id": 4314374490,
      "lat": 12.9551807,
      "lon": 77.6547201,
      "tags": {
        "addr:housenumber": "147",
        "name": "Muthu Store",
        "shop": "convenience"
      }
    },
    {
      "type": "node",
      "id": 4323525290,
      "lat": 12.9573491,
      "lon": 77.6551061,
      "tags": {
        "amenity": "fast_food",
        "name": "Beri-to"
      }
    },
    {
      "type": "node",
      "id": 4405318789,
      "lat": 12.9578101,
      "lon": 77.6550929,
      "tags": {
        "amenity": "fast_food",
        "name": "New Kolkata Food",
        "name:en": "New Kolkata Food"
      }
    },
    {
      "type": "node",
      "id": 4445119859,
      "lat": 12.9462787,
      "lon": 77.647749,
      "tags": {
        "addr:city": "bengaluru",
        "addr:postcode": "560017",
        "addr:street": "Challaghatta",
        "name": "Sunland Boutique",
        "shop": "clothes"
      }
    },
    {
      "type": "node",
      "id": 4445126004,
      "lat": 12.9463798,
      "lon": 77.649199,
      "tags": {
        "addr:city": "bengaluru",
        "addr:housenumber": "NA402,",
        "addr:postcode": "560017",
        "addr:street": "Sriram Spandhana, Challaghatta Jct Rd",
        "name": "Buffet Daily Fresh",
        "phone": "+9190081 71212",
        "shop": "butcher"
      }
    },
    {
      "type": "node",
      "id": 4445137284,
      "lat": 12.9458292,
      "lon": 77.650581,
      "tags": {
        "addr:city": "bengaluru",
        "addr:postcode": "560017",
        "addr:street": "Challaghatta",
        "name": "Government Hardware",
        "shop": "hardware"
      }
    },
    {
      "type": "node",
      "id": 4445148618,
      "lat": 12.9453705,
      "lon": 77.6490422,
      "tags": {
        "addr:city": "bengaluru",
        "addr:postcode": "560017",
        "addr:street": "Challaghatta Jct Rd, Challaghatta,",
        "amenity": "car_wash",
        "name": "Car Clinic"
      }
    },
    {
      "type": "node",
      "id": 4447060354,
      "lat": 12.9443978,
      "lon": 77.6514662,
      "tags": {
        "addr:city": "BENGALURU",
        "addr:postcode": "560037",
        "addr:street": "Challaghatta",
        "amenity": "car_wash",
        "name": "Car & Bike Wash, WorkShop"
      }
    },
    {
      "type": "node",
      "id": 4447079175,
      "lat": 12.9455409,
      "lon": 77.6493327,
      "tags": {
        "addr:city": "bengaluru",
        "addr:postcode": "560037",
        "addr:street": "Challaghatta Main Road, Challaghatta,Yemlur-Post",
        "name": "Akshaya Beauty Salon & Boutiqu",
        "phone": "+91 93415 75390",
        "shop": "clothes"
      }
    },
    {
      "type": "node",
      "id": 4447086337,
      "lat": 12.9443025,
      "lon": 77.6525847,
      "tags": {
        "addr:city": "BENGALURU",
        "addr:postcode": "560037",
        "addr:street": "Challaghatta",
        "name": "Ideal Supermarket",
        "phone": "+91 96865 99611",
        "shop": "supermarket"
      }
    },
    {
      "type": "node",
      "id": 4472344002,
      "lat": 12.9544918,
      "lon": 77.6490249,
      "tags": {
        "addr:housenumber": "9",
        "addr:street": "3rd Cross Road",
        "amenity": "restaurant",
        "name": "Hitel Tadka",
        "name:en": "Hitel Tadka"
      }
    },
    {
      "type": "node",
      "id": 4489383740,
      "lat": 12.9590273,
      "lon": 77.6548835,
      "tags": {
        "addr:city": "Bangalore",
        "addr:postcode": "560017",
        "addr:street": "Jain Arcade, 2nd Main Rd, Kaveri Nagar, Murgesh Pallya,",
        "leisure": "sports_centre",
        "name": "Ace Cricketer",
        "opening_hours": "09:30-20:00",
        "phone": "08042098300",
        "sport": "cricket"
      }
    },
    {
      "type": "node",
      "id": 4489719182,
      "lat": 12.9564849,
      "lon": 77.6565241,
      "tags": {
        "addr:city": "Bangalore",
        "addr:housenumber": "28",
        "addr:postcode": "560017",
        "addr:street": ", 2nd Main, K R Garden, Murgesh Pallya, Bengaluru, Karnataka",
        "leisure": "sports_centre",
        "name": "Rigid Fitness Centre",
        "opening_hours": "5:30-22:00",
        "phone": "096204 33808"
      }
    },
    {
      "type": "node",
      "id": 4558992341,
      "lat": 12.9587913,
      "lon": 77.6466804,
      "tags": {
        "amenity": "place_of_worship",
        "religion": "hindu"
      }
    },
    {
      "type": "node",
      "id": 4595659590,
      "lat": 12.9563554,
      "lon": 77.65491,
      "tags": {
        "amenity": "doctors",
        "name": "Bhadra Homeopathic Forum",
        "name:en": "Bhadra Homeopathic Forum",
        "website": "https://www.bhadrahomeo.com/"
      }
    },
    {
      "type": "node",
      "id": 4631318304,
      "lat": 12.959065,
      "lon": 77.6536363,
      "tags": {
        "amenity": "place_of_worship",
        "name": "My Clinic - Temple",
        "religion": "hindu"
      }
    },
    {
      "type": "node",
      "id": 4694045563,
      "lat": 12.9591965,
      "lon": 77.6549169,
      "tags": {
        "amenity": "restaurant",
        "cuisine": "regional",
        "delivery": "yes",
        "name": "Box8",
        "outdoor_seating": "no"
      }
    },
    {
      "type": "node",
      "id": 4694045569,
      "lat": 12.9589566,
      "lon": 77.6553832,
      "tags": {
        "amenity": "fast_food",
        "cuisine": "juice",
        "name": "Juicy",
        "outdoor_seating": "yes",
        "takeaway": "no"
      }
    },
    {
      "type": "node",
      "id": 4694045570,
      "lat": 12.9589828,
      "lon": 77.6552673,
      "tags": {
        "amenity": "fast_food",
        "cuisine": "fried_chicken",
        "delivery": "yes",
        "drive_through": "no",
        "name": "Meat And Eat",
        "outdoor_seating": "yes",
        "takeaway": "yes"
      }
    },
    {
      "type": "node",
      "id": 4694045571,
      "lat": 12.9588377,
      "lon": 77.6551114,
      "tags": {
        "amenity": "restaurant",
        "cuisine": "coastal",
        "name": "Shree Durga Restaurant"
      }
    },
    {
      "type": "node",
      "id": 4706665990,
      "lat": 12.9546275,
      "lon": 77.6529945,
      "tags": {
        "amenity": "fast_food",
        "name": "New Tasty Magic",
        "name:en": "New Tasty Magic"
      }
    },
    {
      "type": "node",
      "id": 4782936621,
      "lat": 12.9602976,
      "lon": 77.655697,
      "tags": {
        "name": "SM Stores",
        "name:en": "SM Stores",
        "shop": "convenience"
      }
    },
    {
      "type": "node",
      "id": 4791783630,
      "lat": 12.9563949,
      "lon": 77.6545494,
      "tags": {
        "name": "HMS Cycle Mart",
        "name:en": "HMS Cycle Mart",
        "shop": "bicycle"
      }
    },
    {
      "type": "node",
      "id": 5003213722,
      "lat": 12.9549547,
      "lon": 77.6511081,
      "tags": {
        "name": "Sri Surya Provision",
        "name:en": "Sri Surya Provision",
        "shop": "convenience"
      }
    },
    {
      "type": "node",
      "id": 5106809421,
      "lat": 12.9597752,
      "lon": 77.6569127,
      "tags": {
        "addr:district": "Bengaluru Urban",
        "addr:full": "#115,Kodihalli,Old Airport Road",
        "addr:postcode": "560001",
        "addr:state": "Karnataka",
        "amenity": "hospital",
        "healthcare": "hospital",
        "name": "Cloudnine Hospital Pvt. Ltd.",
        "name:en": "cloud nine",
        "source": "OpenGovernmentData"
      }
    },
    {
      "type": "node",
      "id": 5128229253,
      "lat": 12.958338,
      "lon": 77.6594267,
      "tags": {
        "shop": "pet",
        "wheelchair": "no"
      }
    },
    {
      "type": "node",
      "id": 5300706223,
      "lat": 12.9588087,
      "lon": 77.6553625,
      "tags": {
        "amenity": "fast_food",
        "name": "Nukkad Point",
        "phone": "9653057371"
      }
    },
    {
      "type": "node",
      "id": 5301660323,
      "lat": 12.9548569,
      "lon": 77.6608219,
      "tags": {
        "amenity": "community_centre",
        "name": "Marriage Hall",
        "wheelchair": "no"
      }
    },
    {
      "type": "node",
      "id": 5301664922,
      "lat": 12.9549429,
      "lon": 77.6610471,
      "tags": {
        "amenity": "childcare",
        "check_date": "2025-09-30",
        "name": "Early Spring Daycare"
      }
    },
    {
      "type": "node",
      "id": 5301671923,
      "lat": 12.9547673,
      "lon": 77.6611373,
      "tags": {
        "female": "yes",
        "name": "VNS Beauty Saloon",
        "shop": "hairdresser"
      }
    },
    {
      "type": "node",
      "id": 5301679121,
      "lat": 12.9552929,
      "lon": 77.6617335,
      "tags": {
        "amenity": "childcare",
        "name": "A Step Above"
      }
    },
    {
      "type": "node",
      "id": 5301679122,
      "lat": 12.9571008,
      "lon": 77.659607,
      "tags": {
        "amenity": "place_of_worship",
        "name": "Shirdi Sai Temple",
        "religion": "hindu"
      }
    },
    {
      "type": "node",
      "id": 5301681924,
      "lat": 12.9569737,
      "lon": 77.6603068,
      "tags": {
        "amenity": "place_of_worship"
      }
    },
    {
      "type": "node",
      "id": 5301687521,
      "lat": 12.9568097,
      "lon": 77.6604327,
      "tags": {
        "addr:floor": "G",
        "check_date": "2025-11-08",
        "level": "0",
        "name": "Real Mart",
        "shop": "supermarket",
        "wheelchair": "limited"
      }
    },
    {
      "type": "node",
      "id": 5301688321,
      "lat": 12.9567588,
      "lon": 77.6604135,
      "tags": {
        "check_date": "2025-11-11",
        "name": "Fresh Cut Fruits And Vegetables",
        "shop": "greengrocer"
      }
    },
    {
      "type": "node",
      "id": 5301689821,
      "lat": 12.9572728,
      "lon": 77.6594742,
      "tags": {
        "addr:floor": "G",
        "check_date": "2025-11-08",
        "level": "0",
        "name": "Modern Looks",
        "shop": "hairdresser",
        "wheelchair": "no"
      }
    },
    {
      "type": "node",
      "id": 5301707426,
      "lat": 12.9548871,
      "lon": 77.6587436,
      "tags": {
        "name": "Thriveni Home needs",
        "shop": "supermarket",
        "wheelchair": "limited"
      }
    },
    {
      "type": "node",
      "id": 5301708721,
      "lat": 12.9550479,
      "lon": 77.6587722,
      "tags": {
        "amenity": "childcare",
        "name": "Kids Castle Preschool"
      }
    },
    {
      "type": "node",
      "id": 5301733806,
      "lat": 12.9554205,
      "lon": 77.6570788,
      "tags": {
        "name": "A to Z Supermarket",
        "shop": "supermarket"
      }
    },
    {
      "type": "node",
      "id": 5301733807,
      "lat": 12.9553571,
      "lon": 77.657218,
      "tags": {
        "amenity": "doctors",
        "healthcare": "doctor",
        "healthcare:speciality": "ophthalmology",
        "name": "S Pandu"
      }
    },
    {
      "type": "node",
      "id": 5301738041,
      "lat": 12.95567,
      "lon": 77.6603682,
      "tags": {
        "name": "Le Gateau - The Cake Shop",
        "shop": "pastry",
        "website": "https://legateaucakes.com/"
      }
    },
    {
      "type": "node",
      "id": 5338860623,
      "lat": 12.9573482,
      "lon": 77.6604818,
      "tags": {
        "male": "yes",
        "name": "Thirumala Hair Saloon",
        "shop": "hairdresser"
      }
    },
    {
      "type": "node",
      "id": 5338860624,
      "lat": 12.9579875,
      "lon": 77.6605628,
      "tags": {
        "name": "Greenland Bakery",
        "shop": "convenience"
      }
    },
    {
      "type": "node",
      "id": 5338873922,
      "lat": 12.9562948,
      "lon": 77.6603436,
      "tags": {
        "addr:floor": "G",
        "amenity": "pharmacy",
        "brand": "MedPlus",
        "brand:wikidata": "Q65684234",
        "check_date": "2025-11-23",
        "healthcare": "pharmacy",
        "level": "0",
        "name": "MedPlus",
        "name:kn": "ಮೆಡ್ ಪ್ಲಸ್",
        "wheelchair": "no"
      }
    },
    {
      "type": "node",
      "id": 5338879922,
      "lat": 12.9563662,
      "lon": 77.6603503,
      "tags": {
        "addr:floor": "G",
        "check_date": "2025-11-23",
        "level": "0",
        "name": "Star New Fashion",
        "shop": "tailor"
      }
    },
    {
      "type": "node",
      "id": 5338879923,
      "lat": 12.9569548,
      "lon": 77.660501,
      "tags": {
        "amenity": "dentist",
        "name": "Oral Health"
      }
    },
    {
      "type": "node",
      "id": 5338886122,
      "lat": 12.957399,
      "lon": 77.6604826,
      "tags": {
        "name": "ST Chicken Centre",
        "shop": "butcher"
      }
    },
    {
      "type": "node",
      "id": 5338886123,
      "lat": 12.9573744,
      "lon": 77.6604872,
      "tags": {
        "name": "ST Fish Centre",
        "shop": "butcher"
      }
    },
    {
      "type": "node",
      "id": 5338886124,
      "lat": 12.9583645,
      "lon": 77.6605889,
      "tags": {
        "name": "Ambika Stores",
        "shop": "convenience"
      }
    },
    {
      "type": "node",
      "id": 5343196921,
      "lat": 12.9537386,
      "lon": 77.6529198,
      "tags": {
        "name": "Brakez",
        "shop": "car_repair"
      }
    },
    {
      "type": "node",
      "id": 5343197021,
      "lat": 12.9534102,
      "lon": 77.6528653,
      "tags": {
        "amenity": "atm",
        "brand": "HDFC Bank",
        "brand:wikidata": "Q631047",
        "name": "HDFC Bank",
        "operator": "HDFC Bank",
        "operator:wikidata": "Q631047",
        "short_name": "HDFC"
      }
    },
    {
      "type": "node",
      "id": 5555282740,
      "lat": 12.9589144,
      "lon": 77.6470245,
      "tags": {
        "addr:city": "Bangalore",
        "addr:housenumber": "B-36, Oxford Towers",
        "addr:postcode": "560008",
        "addr:street": "Kodihalli",
        "name": "Carista",
        "opening_hours": "Mo-Su 10:00-18:00",
        "payment:credit_cards": "yes",
        "payment:debit_cards": "yes",
        "phone": "+919019123124",
        "service:vehicle:car_repair": "yes",
        "service:vehicle:oil_change": "yes",
        "shop": "car_repair",
        "website": "https://carista.in"
      }
    },
    {
      "type": "node",
      "id": 6057940185,
      "lat": 12.9557962,
      "lon": 77.6535068,
      "tags": {
        "name": "Sri Sadguru Sai Medicals",
        "shop": "chemist"
      }
    },
    {
      "type": "node",
      "id": 6886594716,
      "lat": 12.9587377,
      "lon": 77.6490927,
      "tags": {
        "addr:city": "Bengaluru",
        "addr:district": "BENGALURU URBAN",
        "addr:full": "No. 98, Rustombagh, HAL Airport Road",
        "addr:postcode": "560017",
        "addr:state": "Karnataka",
        "amenity": "blood_bank",
        "contact:helpline": "1800 3001 4000",
        "contact:mobile": "9845768593",
        "contact:phone": "8025024357",
        "email": "bloodbank@manipalhospitals.com",
        "fax": "080 2526 6757",
        "name": "Manipal Hospital Transfusion Services Blood Bank",
        "opening_hours": "24/7",
        "operator:type": "private",
        "source": "OpenGovernmentData",
        "website": "https://www.manipalhospitals.com"
      }
    },
    {
      "type": "node",
      "id": 7572526689,
      "lat": 12.955763,
      "lon": 77.654655,
      "tags": {
        "addr:district": "Bengaluru Urban",
        "addr:full": "K R Garden, Murgesh Pallya, Bengaluru",
        "addr:postcode": "560017",
        "addr:state": "Karnataka",
        "amenity": "clinic",
        "name": "Bhadrahomeo",
        "source": "Local Knowledge"
      }
    },
    {
      "type": "node",
      "id": 7572526690,
      "lat": 12.957269,
      "lon": 77.653945,
      "tags": {
        "addr:district": "Bengaluru Urban",
        "addr:full": "Kaveri Nagar, Murgesh Pallya, Bengaluru",
        "addr:postcode": "560017",
        "addr:state": "Karnataka",
        "amenity": "hospital",
        "name": "OJUS Multi Speciality Hospital",
        "source": "Local Knowledge",
        "wheelchair": "limited"
      }
    },
    {
      "type": "node",
      "id": 7572526694,
      "lat": 12.9586811,
      "lon": 77.6598023,
      "tags": {
        "addr:district": "Bengaluru Urban",
        "addr:full": "SNS Arcade, Bengaluru",
        "addr:postcode": "560017",
        "addr:state": "Karnataka",
        "amenity": "clinic",
        "name": "Dr. K Monika Yadav Clinic",
        "source": "Local Knowledge"
      }
    },
    {
      "type": "node",
      "id": 7572526706,
      "lat": 12.9605494,
      "lon": 77.6493794,
      "tags": {
        "addr:district": "Bengaluru Urban",
        "addr:full": "BDA Layout, HAL, Bengaluru",
        "addr:postcode": "560008",
        "addr:state": "Karnataka",
        "amenity": "dentist",
        "name": "Pari's Dental Clinic",
        "source": "Local Knowledge"
      }
    },
    {
      "type": "node",
      "id": 7572526712,
      "lat": 12.9548249,
      "lon": 77.6493844,
      "tags": {
        "addr:district": "Bengaluru Urban",
        "addr:full": "Bellandur, Bengaluru",
        "addr:postcode": "560017",
        "addr:state": "Karnataka",
        "amenity": "clinic",
        "name": "Medivision Clinic",
        "source": "Local Knowledge"
      }
    },
    {
      "type": "node",
      "id": 7572526736,
      "lat": 12.9557318,
      "lon": 77.6601889,
      "tags": {
        "addr:district": "Bengaluru Urban",
        "addr:full": "Vinayaka Nagar, Murgesh Pallya, Bengaluru",
        "addr:postcode": "560017",
        "addr:state": "Karnataka",
        "amenity": "clinic",
        "name": "Pandu Eye Clinic",
        "source": "Local Knowledge"
      }
    },
    {
      "type": "node",
      "id": 7572526745,
      "lat": 12.9561278,
      "lon": 77.6591485,
      "tags": {
        "addr:district": "Bengaluru Urban",
        "addr:full": "Vinayak Nagar, Konena Agrahara, Murgesh Pallya, Bengaluru",
        "addr:postcode": "560017",
        "addr:state": "Karnataka",
        "amenity": "clinic",
        "healthcare": "clinic",
        "name": "Deepak Clinic",
        "source": "Local Knowledge"
      }
    },
    {
      "type": "node",
      "id": 7572526758,
      "lat": 12.9566333,
      "lon": 77.653738,
      "tags": {
        "addr:district": "Bengaluru Urban",
        "addr:full": "K R Garden, Murgesh Pallya, Bengaluru",
        "addr:postcode": "560017",
        "addr:state": "Karnataka",
        "amenity": "clinic",
        "name": "AR Diagnostic Healthcare and Polyclinic",
        "source": "Local Knowledge"
      }
    },
    {
      "type": "node",
      "id": 7572526790,
      "lat": 12.95506,
      "lon": 77.6581598,
      "tags": {
        "addr:district": "Bengaluru Urban",
        "addr:full": "Murgesh Pallya, Bengaluru",
        "addr:postcode": "560017",
        "addr:state": "Karnataka",
        "amenity": "doctors",
        "name": "Dr. Sachith Abraham",
        "source": "Local Knowledge"
      }
    },
    {
      "type": "node",
      "id": 7572526798,
      "lat": 12.9583212,
      "lon": 77.659636,
      "tags": {
        "addr:district": "Bengaluru Urban",
        "addr:full": "Konena Agrahara, Murgesh Pallya, Bengaluru",
        "addr:postcode": "560017",
        "addr:state": "Karnataka",
        "amenity": "hospital",
        "healthcare": "hospital",
        "name": "Dr. Hemant Agrawal",
        "source": "Local Knowledge"
      }
    },
    {
      "type": "node",
      "id": 7572526802,
      "lat": 12.958861,
      "lon": 77.654322,
      "tags": {
        "addr:district": "Bengaluru Urban",
        "addr:full": "Kaveri Nagar, Murgesh Pallya, Bengaluru",
        "addr:postcode": "560017",
        "addr:state": "Karnataka",
        "amenity": "hospital",
        "name": "Miracle Hopital",
        "source": "Local Knowledge",
        "wheelchair": "limited"
      }
    },
    {
      "type": "node",
      "id": 8277238199,
      "lat": 12.9579281,
      "lon": 77.6485471,
      "tags": {
        "addr:city": "Bengaluru",
        "addr:postcode": "560022",
        "addr:street": "People Tree Hospitals, Metro Stop, 2, Tumkur Rd, Next to, Goraguntepalya, Yeswanthpur",
        "amenity": "clinic",
        "healthcare": "clinic",
        "healthcare:speciality": "Arthroscopy_and_Orthopedics",
        "name": "Dr. Srikanth KP",
        "website": "https://www.orthodrsrikanthkp.in/"
      }
    },
    {
      "type": "node",
      "id": 9803471813,
      "lat": 12.9554823,
      "lon": 77.6534434,
      "tags": {
        "addr:city": "Bengaluru",
        "addr:housenumber": "First Floor, Lakshmi Complex",
        "addr:postcode": "560017",
        "addr:street": "Wind Tunnel Road",
        "amenity": "dentist",
        "healthcare": "dentist",
        "name": "Banyan Dental Care",
        "opening_hours": "Mo-Sa 10:30-14:00,16:00-20:00 || \"on appointment\"",
        "phone": "+918971567992"
      }
    },
    {
      "type": "node",
      "id": 9803506430,
      "lat": 12.9551267,
      "lon": 77.651222,
      "tags": {
        "addr:city": "Bengaluru",
        "addr:housenumber": "BR Plaza",
        "addr:postcode": "560017",
        "addr:street": "SR Layout Main Road",
        "name": "Nextdoor Pharma",
        "shop": "chemist"
      }
    },
    {
      "type": "node",
      "id": 9950452463,
      "lat": 12.953323,
      "lon": 77.6498665,
      "tags": {
        "amenity": "food_court",
        "name": "Canteen",
        "operator": "IndiQube"
      }
    },
    {
      "type": "node",
      "id": 9950452470,
      "lat": 12.9532811,
      "lon": 77.6492549,
      "tags": {
        "access": "permissive",
        "amenity": "parking_entrance",
        "parking": "underground"
      }
    },
    {
      "type": "node",
      "id": 10051816950,
      "lat": 12.9587633,
      "lon": 77.6543892,
      "tags": {
        "air_conditioning": "yes",
        "amenity": "pub",
        "indoor_seating": "yes",
        "name": "Otto's",
        "opening_hours": "Mo-Su 12:00-01:00",
        "outdoor_seating": "yes",
        "payment:credit_cards": "yes",
        "payment:debit_cards": "yes",
        "smoking": "outside",
        "wheelchair": "limited"
      }
    },
    {
      "type": "node",
      "id": 10600476810,
      "lat": 12.9484649,
      "lon": 77.6454771,
      "tags": {
        "amenity": "restaurant",
        "name": "Seta"
      }
    },
    {
      "type": "node",
      "id": 10606504170,
      "lat": 12.9594955,
      "lon": 77.6556645,
      "tags": {
        "check_date": "2025-11-19",
        "name": "Kurl on",
        "shop": "bed"
      }
    },
    {
      "type": "node",
      "id": 10606688619,
      "lat": 12.9591479,
      "lon": 77.6568349,
      "tags": {
        "amenity": "cafe",
        "indoor_seating": "no",
        "internet_access": "no",
        "name": "Frozen bottle",
        "outdoor_seating": "no",
        "takeaway": "only"
      }
    },
    {
      "type": "node",
      "id": 10606721485,
      "lat": 12.9545096,
      "lon": 77.6527942,
      "tags": {
        "amenity": "cafe",
        "cuisine": "tea",
        "name": "Sharon Tea Stall",
        "outdoor_seating": "yes"
      }
    },
    {
      "type": "node",
      "id": 10606721486,
      "lat": 12.9577341,
      "lon": 77.6551766,
      "tags": {
        "amenity": "cafe",
        "cuisine": "tea",
        "name": "Sharon Tea stall",
        "outdoor_seating": "yes"
      }
    },
    {
      "type": "node",
      "id": 10606721487,
      "lat": 12.9567399,
      "lon": 77.6536857,
      "tags": {
        "air_conditioning": "yes",
        "amenity": "restaurant",
        "cuisine": "indian",
        "diet:halal": "no",
        "diet:vegan": "yes",
        "diet:vegetarian": "yes",
        "indoor_seating": "yes",
        "name": "New Udipi Garden",
        "opening_hours": "Mo-Su 07:00-23:00",
        "outdoor_seating": "yes",
        "payment:credit_cards": "no",
        "payment:debit_cards": "no",
        "smoking": "outside",
        "wheelchair": "no"
      }
    },
    {
      "type": "node",
      "id": 10607547214,
      "lat": 12.9595272,
      "lon": 77.6564161,
      "tags": {
        "amenity": "atm",
        "bank": "yes bank",
        "brand": "Yes Bank",
        "brand:wikidata": "Q2040394",
        "cash_in": "no",
        "check_date": "2025-09-13",
        "name": "Yes Bank",
        "operator": "Yes Bank",
        "operator:wikidata": "Q2040394"
      }
    },
    {
      "type": "node",
      "id": 10610496311,
      "lat": 12.9591066,
      "lon": 77.6545193,
      "tags": {
        "air_conditioning": "yes",
        "amenity": "ice_cream",
        "brand": "Baskin-Robbins",
        "brand:wikidata": "Q584601",
        "cuisine": "ice_cream",
        "diet:halal": "no",
        "diet:vegan": "no",
        "indoor_seating": "yes",
        "name": "Baskin-Robbins",
        "name:kn": "ಬಸ್ಕಿನ್ ರಾಬಿನ್ಸ್",
        "opening_hours": "Mo-Su 11:00-23:00",
        "outdoor_seating": "no",
        "smoking": "no",
        "wheelchair": "no"
      }
    },
    {
      "type": "node",
      "id": 10651879010,
      "lat": 12.9553102,
      "lon": 77.6486592,
      "tags": {
        "amenity": "cafe",
        "name": "Madouk Cafe"
      }
    },
    {
      "type": "node",
      "id": 10651895592,
      "lat": 12.9529477,
      "lon": 77.657206,
      "tags": {
        "name": "Real mart",
        "shop": "supermarket"
      }
    },
    {
      "type": "node",
      "id": 10651895593,
      "lat": 12.9578892,
      "lon": 77.6492318,
      "tags": {
        "amenity": "atm",
        "brand": "Canara Bank",
        "brand:en": "Canara Bank",
        "brand:hi": "केनरा बैंक",
        "brand:kn": "ಕೆನರಾ ಬ್ಯಾಂಕ್",
        "brand:pa": "ਕੇਨਰਾ ਬੈਂਕ",
        "brand:pnb": "کینرا بینک",
        "brand:ur": "کینرا بینک",
        "brand:wikidata": "Q2003777",
        "name": "Canara Bank",
        "name:en": "Canara Bank",
        "name:hi": "केनरा बैंक",
        "name:kn": "ಕೆನರಾ ಬ್ಯಾಂಕ್",
        "name:pa": "ਕੇਨਰਾ ਬੈਂਕ",
        "name:pnb": "کینرا بینک",
        "name:ur": "کینرا بینک",
        "operator": "Canara Bank",
        "operator:wikidata": "Q2003777"
      }
    },
    {
      "type": "node",
      "id": 10651903499,
      "lat": 12.9598179,
      "lon": 77.6502474,
      "tags": {
        "amenity": "atm",
        "brand": "State Bank of India",
        "brand:wikidata": "Q1340361",
        "name": "SBI ATM",
        "name:kn": "ಎಸ್ ಬಿ ಐ",
        "operator": "State Bank of India",
        "operator:wikidata": "Q1340361",
        "short_name": "SBI"
      }
    },
    {
      "type": "node",
      "id": 10651904288,
      "lat": 12.9540621,
      "lon": 77.6527819,
      "tags": {
        "amenity": "bar",
        "name": "Gawky goose"
      }
    },
    {
      "type": "node",
      "id": 10964514741,
      "lat": 12.9535497,
      "lon": 77.652907,
      "tags": {
        "amenity": "restaurant",
        "cuisine": "chinese;japanese;asian",
        "diet:non-vegetarian": "yes",
        "diet:vegetarian": "yes",
        "name": "Retro chinese cuisine"
      }
    },
    {
      "type": "node",
      "id": 10967712205,
      "lat": 12.9606019,
      "lon": 77.6493201,
      "tags": {
        "amenity": "bank",
        "brand": "Axis Bank",
        "brand:wikidata": "Q2003549",
        "brand:wikipedia": "en:Axis Bank",
        "name": "Axis Bank",
        "name:kn": "ಆಕ್ಸಿಸ್ ಬ್ಯಾಂಕ್",
        "survey:date": "2023-06-10"
      }
    },
    {
      "type": "node",
      "id": 11527287657,
      "lat": 12.9504123,
      "lon": 77.6445772,
      "tags": {
        "access": "private",
        "amenity": "parking",
        "parking": "surface"
      }
    },
    {
      "type": "node",
      "id": 11527886862,
      "lat": 12.9558467,
      "lon": 77.6477073,
      "tags": {
        "amenity": "bbq"
      }
    },
    {
      "type": "node",
      "id": 11527886926,
      "lat": 12.9545894,
      "lon": 77.6482565,
      "tags": {
        "access": "private",
        "amenity": "parking_entrance",
        "parking": "underground"
      }
    },
    {
      "type": "node",
      "id": 11527886929,
      "lat": 12.9544372,
      "lon": 77.6481935,
      "tags": {
        "access": "private",
        "amenity": "parking_entrance",
        "parking": "underground"
      }
    },
    {
      "type": "node",
      "id": 11534808272,
      "lat": 12.9603913,
      "lon": 77.6479068,
      "tags": {
        "amenity": "restaurant",
        "check_date": "2024-01-21",
        "contact:instagram": "https://www.instagram.com/kokorestaurants",
        "cuisine": "asian",
        "name": "KOKO",
        "phone": "+91 98441 94747",
        "website": "https://www.kokorestaurants.com/"
      }
    },
    {
      "type": "node",
      "id": 11581390633,
      "lat": 12.9553287,
      "lon": 77.648507,
      "tags": {
        "amenity": "bench",
        "backrest": "yes",
        "material": "stone",
        "seats": "2"
      }
    },
    {
      "type": "node",
      "id": 11581390634,
      "lat": 12.9558937,
      "lon": 77.648458,
      "tags": {
        "amenity": "bench",
        "backrest": "yes",
        "material": "stone",
        "seats": "2"
      }
    },
    {
      "type": "node",
      "id": 11581390635,
      "lat": 12.9546124,
      "lon": 77.6484713,
      "tags": {
        "amenity": "bench",
        "backrest": "yes",
        "material": "stone",
        "seats": "2"
      }
    },
    {
      "type": "node",
      "id": 11581391769,
      "lat": 12.9547046,
      "lon": 77.6486408,
      "tags": {
        "check_date": "2024-02-03",
        "name": "Citi Food Centre",
        "shop": "supermarket"
      }
    },
    {
      "type": "node",
      "id": 11780419279,
      "lat": 12.9591566,
      "lon": 77.6549225,
      "tags": {
        "name": "Cycle World",
        "service:bicycle:repair": "yes",
        "service:bicycle:retail": "yes",
        "shop": "bicycle"
      }
    },
    {
      "type": "node",
      "id": 11822465875,
      "lat": 12.9591238,
      "lon": 77.651696,
      "tags": {
        "amenity": "place_of_worship",
        "denomination": "protestant",
        "level": "4",
        "name": "Ashraya Bangalore Central",
        "phone": "+91 88616 10003",
        "religion": "christian",
        "service_times": "Su 10:30-12:15"
      }
    },
    {
      "type": "node",
      "id": 12269060696,
      "lat": 12.9586227,
      "lon": 77.6567075,
      "tags": {
        "check_date": "2024-10-19",
        "clothes": "men;women;children",
        "level": "1",
        "name": "EasyBüy",
        "payment:cash": "yes",
        "payment:credit_cards": "yes",
        "payment:debit_cards": "yes",
        "payment:upi": "yes",
        "shop": "clothes"
      }
    },
    {
      "type": "node",
      "id": 12866892913,
      "lat": 12.956793,
      "lon": 77.6478146,
      "tags": {
        "amenity": "kindergarten",
        "name": "The Green Pocket"
      }
    },
    {
      "type": "node",
      "id": 12866892914,
      "lat": 12.9567864,
      "lon": 77.6477462,
      "tags": {
        "name": "Pet Steppin'",
        "shop": "pet_grooming"
      }
    },
    {
      "type": "node",
      "id": 12866892915,
      "lat": 12.9568413,
      "lon": 77.647765,
      "tags": {
        "name": "White Mantra Spa and Salon",
        "shop": "beauty"
      }
    },
    {
      "type": "node",
      "id": 13289018378,
      "lat": 12.9572645,
      "lon": 77.6594333,
      "tags": {
        "addr:floor": "G",
        "amenity": "fast_food",
        "check_date": "2025-12-02",
        "drive_through": "no",
        "level": "0",
        "name": "Momos And Stuff",
        "wheelchair": "no"
      }
    },
    {
      "type": "node",
      "id": 13289040181,
      "lat": 12.959105,
      "lon": 77.6577057,
      "tags": {
        "check_date": "2025-11-08",
        "name": "K. A. Mani Auto Works",
        "shop": "motorcycle_repair"
      }
    },
    {
      "type": "node",
      "id": 13289040182,
      "lat": 12.9590696,
      "lon": 77.6573858,
      "tags": {
        "check_date": "2025-11-08",
        "name": "Dhanlaxmi Boutique & 1 Gram Gold Coverings",
        "shop": "jewelry",
        "wheelchair": "no"
      }
    },
    {
      "type": "node",
      "id": 13289040183,
      "lat": 12.9590781,
      "lon": 77.6573249,
      "tags": {
        "alt_name": "Sapna Beauty Parlor",
        "check_date": "2025-11-08",
        "name": "Glow Herbal Beauty Parlor",
        "shop": "beauty"
      }
    },
    {
      "type": "node",
      "id": 13289040184,
      "lat": 12.9590437,
      "lon": 77.6555455,
      "tags": {
        "check_date": "2025-11-08",
        "name": "HKGN Mutton Center",
        "shop": "butcher"
      }
    },
    {
      "type": "node",
      "id": 13289040187,
      "lat": 12.9590938,
      "lon": 77.6555647,
      "tags": {
        "check_date": "2025-11-08",
        "name": "Classic Chicken Center",
        "shop": "butcher"
      }
    },
    {
      "type": "node",
      "id": 13289040188,
      "lat": 12.959026,
      "lon": 77.6569594,
      "tags": {
        "check_date": "2025-11-08",
        "name": "Boba Bhai",
        "shop": "beverages"
      }
    },
    {
      "type": "node",
      "id": 13289040190,
      "lat": 12.9590714,
      "lon": 77.6577061,
      "tags": {
        "addr:floor": "1",
        "check_date": "2025-11-08",
        "level": "1",
        "name": "S. P Tailor",
        "shop": "tailor"
      }
    },
    {
      "type": "node",
      "id": 13326178065,
      "lat": 12.9588803,
      "lon": 77.6597263,
      "tags": {
        "addr:floor": "G",
        "check_date": "2025-11-26",
        "level": "0",
        "name": "SSB TVS",
        "shop": "motorcycle"
      }
    },
    {
      "type": "node",
      "id": 13326178068,
      "lat": 12.957562,
      "lon": 77.6593206,
      "tags": {
        "check_date": "2025-11-23",
        "name": "SSB TVS",
        "shop": "motorcycle"
      }
    },
    {
      "type": "node",
      "id": 13326178070,
      "lat": 12.9586853,
      "lon": 77.6594493,
      "tags": {
        "check_date": "2025-11-23",
        "hairdresser": "barber",
        "name": "Paras Barber Shop",
        "shop": "hairdresser"
      }
    },
    {
      "type": "node",
      "id": 13326178072,
      "lat": 12.9579942,
      "lon": 77.6595177,
      "tags": {
        "addr:floor": "G",
        "check_date": "2025-11-23",
        "level": "0",
        "name": "Annapoorna Rice Traders",
        "shop": "rice",
        "wheelchair": "no"
      }
    },
    {
      "type": "node",
      "id": 13349124385,
      "lat": 12.9573315,
      "lon": 77.6594447,
      "tags": {
        "check_date": "2025-12-02",
        "name": "Diva's",
        "shop": "tailor",
        "wheelchair": "no"
      }
    },
    {
      "type": "way",
      "id": 28452979,
      "center": {
        "lat": 12.9517345,
        "lon": 77.6473911
      },
      "tags": {
        "alt_name": "KGA Golf Course",
        "golf:course": "18_hole",
        "leisure": "golf_course",
        "name": "Karnataka Golf Association Golf Course",
        "short_name": "KGA",
        "start_date": "1986-12-28",
        "website": "https://kga.in"
      }
    },
    {
      "type": "way",
      "id": 122918713,
      "center": {
        "lat": 12.9578114,
        "lon": 77.6583092
      },
      "tags": {
        "amenity": "college",
        "check_date": "2025-09-30",
        "name": "Vishweshwaraiah College",
        "name:etymology:wikidata": "Q741700",
        "name:kn": "ವಿಶ್ವೇಶ್ವರಯ್ಯ ಕಾಲೇಜು",
        "wheelchair": "limited"
      }
    },
    {
      "type": "way",
      "id": 133061662,
      "center": {
        "lat": 12.9581916,
        "lon": 77.6481504
      },
      "tags": {
        "access": "private",
        "amenity": "parking",
        "name": "Parking for Doctors and Staff",
        "parking": "surface"
      }
    },
    {
      "type": "way",
      "id": 133061664,
      "center": {
        "lat": 12.9587074,
        "lon": 77.6490296
      },
      "tags": {
        "addr:district": "Bengaluru Urban",
        "addr:full": "No. 98, Rusthom Bhag, Airport Road",
        "addr:postcode": "560017",
        "addr:state": "Karnataka",
        "amenity": "hospital",
        "building": "hospital",
        "emergency": "yes",
        "healthcare": "hospital",
        "name": "Manipal Hospital, Bengaluru Urban",
        "name:kn": "ಮಣಿಪಾಲ ಆಸ್ಪತ್ರೆ ಬೆಂಗಳೂರು",
        "source": "OpenGovernmentData",
        "wheelchair": "yes"
      }
    },
    {
      "type": "way",
      "id": 133061665,
      "center": {
        "lat": 12.9578573,
        "lon": 77.6477536
      },
      "tags": {
        "access": "customers",
        "amenity": "parking",
        "name": "Visitors' Parking",
        "name:kn": "ವಿಮಾನ ನಿಲ್ದಾಣ",
        "parking": "surface"
      }
    },
    {
      "type": "way",
      "id": 133355000,
      "center": {
        "lat": 12.9586436,
        "lon": 77.6567676
      },
      "tags": {
        "addr:city": "Bangalore",
        "addr:housenumber": "97",
        "addr:postcode": "560017",
        "addr:street": "Old Airport Road",
        "alt_name": "Total Mall",
        "building": "retail",
        "building:levels": "5",
        "name": "Kemp Fort Mall",
        "old_name": "Kemp Fort",
        "opening_hours": "10:00-22:00",
        "shop": "mall"
      }
    },
    {
      "type": "way",
      "id": 135262255,
      "center": {
        "lat": 12.9585777,
        "lon": 77.6481409
      },
      "tags": {
        "amenity": "hospital",
        "healthcare": "hospital",
        "name": "Manipal Hospital",
        "name:kn": "ಮಣಿಪಾಲ ಆಸ್ಪತ್ರೆ",
        "start_date": "1991",
        "wheelchair": "yes"
      }
    },
    {
      "type": "way",
      "id": 154378359,
      "center": {
        "lat": 12.9565931,
        "lon": 77.6449306
      },
      "tags": {
        "access": "private",
        "leisure": "swimming_pool"
      }
    },
    {
      "type": "way",
      "id": 303494087,
      "center": {
        "lat": 12.9589516,
        "lon": 77.6555912
      },
      "tags": {
        "amenity": "place_of_worship",
        "denomination": "sunni",
        "name": "Murugeshpalya Jama Masjid",
        "name:kn": "ಜಾಮ ಮಸೀದಿ ಮುರುಗೇಶಪಾಳ್ಯ",
        "religion": "muslim",
        "wheelchair": "no"
      }
    },
    {
      "type": "way",
      "id": 323010661,
      "center": {
        "lat": 12.9565275,
        "lon": 77.6551692
      },
      "tags": {
        "amenity": "place_of_worship",
        "religion": "hindu",
        "wheelchair": "no"
      }
    },
    {
      "type": "way",
      "id": 323010668,
      "center": {
        "lat": 12.957933,
        "lon": 77.6551293
      },
      "tags": {
        "addr:housenumber": "72",
        "amenity": "place_of_worship",
        "building": "temple",
        "name": "Murugan Temple",
        "name:en": "Sree Subramani Swami Temple",
        "name:kn": "ಮುರುಗನ್ ದೇವಸ್ಥಾನ",
        "religion": "hindu"
      }
    },
    {
      "type": "way",
      "id": 323120232,
      "center": {
        "lat": 12.959065,
        "lon": 77.6500108
      },
      "tags": {
        "amenity": "school",
        "name": "Seventh Day Adventist School",
        "name:kn": "ಸೆವೆಂತ್ ಡೇ ಅಡ್ವೆನ್ಟಿಸ್ಟ್ ಪ್ರೌಡ ಶಾಲೆ"
      }
    },
    {
      "type": "way",
      "id": 323120233,
      "center": {
        "lat": 12.9594167,
        "lon": 77.649905
      },
      "tags": {
        "addr:street": "Rustum Bagh Main Road",
        "amenity": "place_of_worship",
        "building": "yes",
        "name": "Seventh Day Adventist Church",
        "name:kn": "ಸೆವೆಂತ್ ಡೇ ಅಡ್ವೆಂಟಿಸ್ಟ್ ಪ್ರೌಢ ಚರ್ಚ್",
        "religion": "christian"
      }
    },
    {
      "type": "way",
      "id": 323120612,
      "center": {
        "lat": 12.9574386,
        "lon": 77.6485324
      },
      "tags": {
        "amenity": "school",
        "email": "secretary.deafaidsociety@gmail.com",
        "landuse": "education",
        "name": "Sheila Kothavala Institute for the Deaf",
        "phone": "+91 080 2526 2274",
        "short_name": "SKID",
        "start_date": "1966",
        "website": "https://deafaidsociety.in/"
      }
    },
    {
      "type": "way",
      "id": 323121670,
      "center": {
        "lat": 12.9579118,
        "lon": 77.6564209
      },
      "tags": {
        "addr:city": "Bangalore",
        "addr:postcode": "560037",
        "addr:street": "Yemalur Main road, yemalur, belandur,",
        "amenity": "place_of_worship",
        "name": "Shivoham Shiva Temple",
        "name:kn": "ಶಿವ ದೇವಸ್ಥಾನ",
        "religion": "hindu",
        "statue": "yes",
        "wheelchair": "no"
      }
    },
    {
      "type": "way",
      "id": 323217256,
      "center": {
        "lat": 12.9556062,
        "lon": 77.6534682
      },
      "tags": {
        "amenity": "school",
        "name": "Sophia School",
        "name:kn": "ಸೋಫಿಯ ಶಾಲೆ"
      }
    },
    {
      "type": "way",
      "id": 323217758,
      "center": {
        "lat": 12.958415,
        "lon": 77.656206
      },
      "tags": {
        "amenity": "parking"
      }
    },
    {
      "type": "way",
      "id": 323591511,
      "center": {
        "lat": 12.9584417,
        "lon": 77.6555701
      },
      "tags": {
        "amenity": "place_of_worship",
        "name": "St. Barnabas Church",
        "name:kn": "ಬರ್ನಬಸ್ ಚರ್ಚ್",
        "religion": "christian"
      }
    },
    {
      "type": "way",
      "id": 323745541,
      "center": {
        "lat": 12.954788,
        "lon": 77.6607783
      },
      "tags": {
        "amenity": "place_of_worship",
        "name": "Sri Munishwara Swamy Temple",
        "name:kn": "ಶ್ರೀ ಮುನೀಶ್ವರ ಸ್ವಾಮಿ ದೇವಸ್ಥಾನ",
        "religion": "hindu",
        "wheelchair": "limited"
      }
    },
    {
      "type": "way",
      "id": 323946081,
      "center": {
        "lat": 12.9552772,
        "lon": 77.6607528
      },
      "tags": {
        "leisure": "common"
      }
    },
    {
      "type": "way",
      "id": 323950618,
      "center": {
        "lat": 12.9532604,
        "lon": 77.6600385
      },
      "tags": {
        "amenity": "kindergarten",
        "name": "Kidzee Nursery",
        "wheelchair": "yes"
      }
    },
    {
      "type": "way",
      "id": 324698160,
      "center": {
        "lat": 12.9611072,
        "lon": 77.6574902
      },
      "tags": {
        "leisure": "playground"
      }
    },
    {
      "type": "way",
      "id": 347019214,
      "center": {
        "lat": 12.9590795,
        "lon": 77.6532951
      },
      "tags": {
        "addr:city": "Kodihalli, Bangalore",
        "addr:street": "HAL Airport Road",
        "amenity": "fuel",
        "brand": "Hindustan Petroleum",
        "brand:wikidata": "Q1619375",
        "check_date": "2024-12-17",
        "compressed_air": "yes",
        "name": "HP",
        "name:kn": "ಹಿಂದುಸ್ತಾನ್ ಪೆಟ್ರೋಲಿಯಂ",
        "official_name": "Hindustan Petroleum",
        "wheelchair": "yes"
      }
    },
    {
      "type": "way",
      "id": 348127789,
      "center": {
        "lat": 12.9561565,
        "lon": 77.6618459
      },
      "tags": {
        "amenity": "place_of_worship",
        "building": "yes",
        "name": "Temple",
        "wheelchair": "limited"
      }
    },
    {
      "type": "way",
      "id": 355083406,
      "center": {
        "lat": 12.9588149,
        "lon": 77.6587926
      },
      "tags": {
        "addr:city": "Bangalore",
        "addr:district": "Bengaluru Urban",
        "addr:postcode": "560017",
        "addr:street": "Murugeshpalya, Konena Agrahara",
        "alt_name": "Swathamya Arogya Kendra",
        "amenity": "clinic",
        "building": "yes",
        "healthcare": "clinic",
        "name": "BBMP Primary Health Center",
        "name:kn": "ಬೃ. ಬೆ. ಮ. ಪಾ. ಪ್ರಾಥಮಿಕ ಆರೋಗ್ಯ ಕೇಂದ್ರ"
      }
    },
    {
      "type": "way",
      "id": 355088646,
      "center": {
        "lat": 12.9576684,
        "lon": 77.6516974
      },
      "tags": {
        "access": "private",
        "leisure": "swimming_pool",
        "wheelchair": "no"
      }
    },
    {
      "type": "way",
      "id": 362931827,
      "center": {
        "lat": 12.9607435,
        "lon": 77.6487378
      },
      "tags": {
        "leisure": "park"
      }
    },
    {
      "type": "way",
      "id": 372545827,
      "center": {
        "lat": 12.9591543,
        "lon": 77.6464476
      },
      "tags": {
        "amenity": "hospital",
        "name": "BBMP Primary Health Center",
        "name:kn": "ಪ್ರಾಥಮಿಕ ಆರೋಗ್ಯ ಕೇಂದ್ರ"
      }
    },
    {
      "type": "way",
      "id": 374695604,
      "center": {
        "lat": 12.9556461,
        "lon": 77.6523576
      },
      "tags": {
        "leisure": "pitch",
        "lit": "no",
        "sport": "multi",
        "surface": "dirt"
      }
    },
    {
      "type": "way",
      "id": 387461393,
      "center": {
        "lat": 12.9461195,
        "lon": 77.6485712
      },
      "tags": {
        "leisure": "common"
      }
    },
    {
      "type": "way",
      "id": 387461395,
      "center": {
        "lat": 12.9450775,
        "lon": 77.6519189
      },
      "tags": {
        "amenity": "school",
        "email": "admissions@nalapadacademy.in",
        "name": "Nalapad Academy",
        "phone": "+91 91208 88888",
        "school:gender": "mixed",
        "website": "https://nalapadacademy.in/"
      }
    },
    {
      "type": "way",
      "id": 387461397,
      "center": {
        "lat": 12.9451617,
        "lon": 77.6489469
      },
      "tags": {
        "amenity": "place_of_worship",
        "building": "temple",
        "religion": "hindu"
      }
    },
    {
      "type": "way",
      "id": 411036492,
      "center": {
        "lat": 12.9544056,
        "lon": 77.6535286
      },
      "tags": {
        "access": "permissive",
        "amenity": "place_of_worship",
        "building": "temple",
        "religion": "hindu"
      }
    },
    {
      "type": "way",
      "id": 454704218,
      "center": {
        "lat": 12.9568828,
        "lon": 77.6498356
      },
      "tags": {
        "amenity": "place_of_worship",
        "name": "St. Peter's Church",
        "name:en": "St. Peter's Church",
        "name:kn": "ಸೈಂಟ್ ಪೀಟರ್ಸ್ ಚರ್ಚ್",
        "religion": "christian"
      }
    },
    {
      "type": "way",
      "id": 460225726,
      "center": {
        "lat": 12.9599472,
        "lon": 77.6495855
      },
      "tags": {
        "addr:city": "Kodihalli, Bangalore",
        "addr:street": "HAL Airport Road",
        "amenity": "fuel",
        "brand": "Bharat Petroleum",
        "brand:wikidata": "Q854826",
        "check_date": "2024-12-17",
        "compressed_air": "yes",
        "fuel:diesel": "yes",
        "landuse": "retail",
        "name": "Bharat Petroleum",
        "name:kn": "ಭಾರತ್ ಪೆಟ್ರೋಲಿಯಂ",
        "wheelchair": "yes"
      }
    },
    {
      "type": "way",
      "id": 460225728,
      "center": {
        "lat": 12.9599956,
        "lon": 77.649864
      },
      "tags": {
        "amenity": "social_facility",
        "building": "apartments",
        "name": "Cheshire Homes",
        "social_facility": "group_home"
      }
    },
    {
      "type": "way",
      "id": 460225729,
      "center": {
        "lat": 12.9593062,
        "lon": 77.6493022
      },
      "tags": {
        "amenity": "parking",
        "parking": "surface"
      }
    },
    {
      "type": "way",
      "id": 460225760,
      "center": {
        "lat": 12.9588971,
        "lon": 77.6461063
      },
      "tags": {
        "leisure": "common",
        "natural": "scrub"
      }
    },
    {
      "type": "way",
      "id": 460225764,
      "center": {
        "lat": 12.9585638,
        "lon": 77.6463925
      },
      "tags": {
        "amenity": "place_of_worship",
        "building": "yes",
        "name": "Abhaya Anjaneya Swamy Temple",
        "name:en": "Abhaya Anjaneya Swamy Temple",
        "name:kn": "ಅಭಯ ಅಂಜನೇಯ ದೇವಸ್ಥಾನ",
        "religion": "hindu"
      }
    },
    {
      "type": "way",
      "id": 468620531,
      "center": {
        "lat": 12.9590139,
        "lon": 77.6535055
      },
      "tags": {
        "leisure": "park",
        "name": "Small Park, used by local residents"
      }
    },
    {
      "type": "way",
      "id": 475682002,
      "center": {
        "lat": 12.9591659,
        "lon": 77.6546941
      },
      "tags": {
        "addr:city": "Bangalore",
        "addr:housenumber": "122/103",
        "addr:postcode": "560017",
        "addr:street": "Kodihalli Village, 124, HAL Old Airport Rd, Murugeshpalya, Kaveri Nagar",
        "amenity": "restaurant",
        "building": "yes",
        "check_date": "2025-11-05",
        "indoor_seating": "yes",
        "name": "Central Bar District",
        "outdoor_seating": "yes"
      }
    },
    {
      "type": "way",
      "id": 475682007,
      "center": {
        "lat": 12.959168,
        "lon": 77.654809
      },
      "tags": {
        "amenity": "parking",
        "name": "Bhagini Parking Lot",
        "parking": "surface"
      }
    },
    {
      "type": "way",
      "id": 477727140,
      "center": {
        "lat": 12.9555065,
        "lon": 77.6555509
      },
      "tags": {
        "access": "private",
        "leisure": "swimming_pool"
      }
    },
    {
      "type": "way",
      "id": 478206997,
      "center": {
        "lat": 12.9589395,
        "lon": 77.6555707
      },
      "tags": {
        "amenity": "place_of_worship",
        "building": "mosque",
        "religion": "muslim"
      }
    },
    {
      "type": "way",
      "id": 478206998,
      "center": {
        "lat": 12.9584337,
        "lon": 77.6555704
      },
      "tags": {
        "amenity": "place_of_worship",
        "building": "church",
        "religion": "christian"
      }
    },
    {
      "type": "way",
      "id": 1085949509,
      "center": {
        "lat": 12.952916,
        "lon": 77.6501907
      },
      "tags": {
        "leisure": "garden"
      }
    },
    {
      "type": "way",
      "id": 1085949518,
      "center": {
        "lat": 12.9530131,
        "lon": 77.6495895
      },
      "tags": {
        "access": "permissive",
        "amenity": "parking",
        "parking": "surface"
      }
    },
    {
      "type": "way",
      "id": 1137152700,
      "center": {
        "lat": 12.9483753,
        "lon": 77.6456232
      },
      "tags": {
        "access": "customers",
        "leisure": "swimming_pool"
      }
    },
    {
      "type": "way",
      "id": 1137903957,
      "center": {
        "lat": 12.9522525,
        "lon": 77.6522708
      },
      "tags": {
        "amenity": "restaurant",
        "building": "yes",
        "cuisine": "indian",
        "name": "Haveli",
        "name:kn": "ಹಾವೇಲಿ"
      }
    },
    {
      "type": "way",
      "id": 1206050013,
      "center": {
        "lat": 12.9526707,
        "lon": 77.6496638
      },
      "tags": {
        "leisure": "sports_centre"
      }
    },
    {
      "type": "way",
      "id": 1206050016,
      "center": {
        "lat": 12.9542969,
        "lon": 77.6524849
      },
      "tags": {
        "access": "permissive",
        "amenity": "parking",
        "parking": "surface"
      }
    },
    {
      "type": "way",
      "id": 1240674145,
      "center": {
        "lat": 12.9487312,
        "lon": 77.6453439
      },
      "tags": {
        "leisure": "garden"
      }
    },
    {
      "type": "way",
      "id": 1240674153,
      "center": {
        "lat": 12.9521386,
        "lon": 77.6443212
      },
      "tags": {
        "leisure": "park"
      }
    },
    {
      "type": "way",
      "id": 1240674161,
      "center": {
        "lat": 12.9516114,
        "lon": 77.6441377
      },
      "tags": {
        "access": "private",
        "amenity": "parking",
        "parking": "surface"
      }
    },
    {
      "type": "way",
      "id": 1240707064,
      "center": {
        "lat": 12.9533588,
        "lon": 77.6496884
      },
      "tags": {
        "access": "private",
        "leisure": "swimming_pool"
      }
    },
    {
      "type": "way",
      "id": 1240738070,
      "center": {
        "lat": 12.9550407,
        "lon": 77.6469052
      },
      "tags": {
        "leisure": "park"
      }
    },
    {
      "type": "way",
      "id": 1240738079,
      "center": {
        "lat": 12.9546103,
        "lon": 77.6475375
      },
      "tags": {
        "amenity": "bench"
      }
    },
    {
      "type": "way",
      "id": 1240738080,
      "center": {
        "lat": 12.9552608,
        "lon": 77.6472361
      },
      "tags": {
        "amenity": "bench"
      }
    },
    {
      "type": "way",
      "id": 1240738081,
      "center": {
        "lat": 12.9555753,
        "lon": 77.6465387
      },
      "tags": {
        "amenity": "bench"
      }
    },
    {
      "type": "way",
      "id": 1240738085,
      "center": {
        "lat": 12.9547292,
        "lon": 77.6484295
      },
      "tags": {
        "access": "private",
        "leisure": "swimming_pool"
      }
    },
    {
      "type": "way",
      "id": 1240738086,
      "center": {
        "lat": 12.9548821,
        "lon": 77.6484636
      },
      "tags": {
        "access": "private",
        "leisure": "swimming_pool"
      }
    },
    {
      "type": "way",
      "id": 1240738087,
      "center": {
        "lat": 12.9549306,
        "lon": 77.6484597
      },
      "tags": {
        "access": "private",
        "leisure": "swimming_pool"
      }
    },
    {
      "type": "way",
      "id": 1240738088,
      "center": {
        "lat": 12.9551389,
        "lon": 77.6484469
      },
      "tags": {
        "access": "private",
        "leisure": "swimming_pool"
      }
    },
    {
      "type": "way",
      "id": 1240738089,
      "center": {
        "lat": 12.9551874,
        "lon": 77.648443
      },
      "tags": {
        "access": "private",
        "leisure": "swimming_pool"
      }
    },
    {
      "type": "way",
      "id": 1240738090,
      "center": {
        "lat": 12.9553827,
        "lon": 77.6484321
      },
      "tags": {
        "access": "private",
        "leisure": "swimming_pool"
      }
    },
    {
      "type": "way",
      "id": 1240738091,
      "center": {
        "lat": 12.9554312,
        "lon": 77.6484282
      },
      "tags": {
        "access": "private",
        "leisure": "swimming_pool"
      }
    },
    {
      "type": "way",
      "id": 1240738092,
      "center": {
        "lat": 12.9556212,
        "lon": 77.6484133
      },
      "tags": {
        "access": "private",
        "leisure": "swimming_pool"
      }
    },
    {
      "type": "way",
      "id": 1240738093,
      "center": {
        "lat": 12.9556697,
        "lon": 77.6484095
      },
      "tags": {
        "access": "private",
        "leisure": "swimming_pool"
      }
    },
    {
      "type": "way",
      "id": 1240738094,
      "center": {
        "lat": 12.9558571,
        "lon": 77.6483939
      },
      "tags": {
        "access": "private",
        "leisure": "swimming_pool"
      }
    },
    {
      "type": "way",
      "id": 1240738095,
      "center": {
        "lat": 12.9559056,
        "lon": 77.64839
      },
      "tags": {
        "access": "private",
        "leisure": "swimming_pool"
      }
    },
    {
      "type": "way",
      "id": 1240738096,
      "center": {
        "lat": 12.95584,
        "lon": 77.6481502
      },
      "tags": {
        "access": "private",
        "leisure": "swimming_pool"
      }
    },
    {
      "type": "way",
      "id": 1240738097,
      "center": {
        "lat": 12.9556707,
        "lon": 77.6478068
      },
      "tags": {
        "access": "private",
        "leisure": "swimming_pool"
      }
    },
    {
      "type": "way",
      "id": 1240738098,
      "center": {
        "lat": 12.9557156,
        "lon": 77.6477876
      },
      "tags": {
        "access": "private",
        "leisure": "swimming_pool"
      }
    },
    {
      "type": "way",
      "id": 1240738099,
      "center": {
        "lat": 12.9554518,
        "lon": 77.6478986
      },
      "tags": {
        "access": "private",
        "leisure": "swimming_pool"
      }
    },
    {
      "type": "way",
      "id": 1240738100,
      "center": {
        "lat": 12.9554967,
        "lon": 77.6478795
      },
      "tags": {
        "access": "private",
        "leisure": "swimming_pool"
      }
    },
    {
      "type": "way",
      "id": 1240738101,
      "center": {
        "lat": 12.9552257,
        "lon": 77.6479911
      },
      "tags": {
        "access": "private",
        "leisure": "swimming_pool"
      }
    },
    {
      "type": "way",
      "id": 1240738102,
      "center": {
        "lat": 12.9552706,
        "lon": 77.647972
      },
      "tags": {
        "access": "private",
        "leisure": "swimming_pool"
      }
    },
    {
      "type": "way",
      "id": 1240738103,
      "center": {
        "lat": 12.9550028,
        "lon": 77.6480884
      },
      "tags": {
        "access": "private",
        "leisure": "swimming_pool"
      }
    },
    {
      "type": "way",
      "id": 1240738104,
      "center": {
        "lat": 12.9550478,
        "lon": 77.6480692
      },
      "tags": {
        "access": "private",
        "leisure": "swimming_pool"
      }
    },
    {
      "type": "way",
      "id": 1240738105,
      "center": {
        "lat": 12.9546088,
        "lon": 77.6481118
      },
      "tags": {
        "access": "private",
        "leisure": "swimming_pool"
      }
    },
    {
      "type": "way",
      "id": 1240738106,
      "center": {
        "lat": 12.9546537,
        "lon": 77.6480927
      },
      "tags": {
        "access": "private",
        "leisure": "swimming_pool"
      }
    },
    {
      "type": "way",
      "id": 1240738107,
      "center": {
        "lat": 12.9548427,
        "lon": 77.648018
      },
      "tags": {
        "access": "private",
        "leisure": "swimming_pool"
      }
    },
    {
      "type": "way",
      "id": 1240738108,
      "center": {
        "lat": 12.9548877,
        "lon": 77.6479988
      },
      "tags": {
        "access": "private",
        "leisure": "swimming_pool"
      }
    },
    {
      "type": "way",
      "id": 1240738109,
      "center": {
        "lat": 12.9550701,
        "lon": 77.6479248
      },
      "tags": {
        "access": "private",
        "leisure": "swimming_pool"
      }
    },
    {
      "type": "way",
      "id": 1240738110,
      "center": {
        "lat": 12.9551151,
        "lon": 77.6479056
      },
      "tags": {
        "access": "private",
        "leisure": "swimming_pool"
      }
    },
    {
      "type": "way",
      "id": 1240738111,
      "center": {
        "lat": 12.9552892,
        "lon": 77.647836
      },
      "tags": {
        "access": "private",
        "leisure": "swimming_pool"
      }
    },
    {
      "type": "way",
      "id": 1240738112,
      "center": {
        "lat": 12.9553338,
        "lon": 77.6478159
      },
      "tags": {
        "access": "private",
        "leisure": "swimming_pool"
      }
    },
    {
      "type": "way",
      "id": 1240738113,
      "center": {
        "lat": 12.9556821,
        "lon": 77.6476738
      },
      "tags": {
        "access": "private",
        "leisure": "swimming_pool"
      }
    },
    {
      "type": "way",
      "id": 1240738114,
      "center": {
        "lat": 12.9555199,
        "lon": 77.647743
      },
      "tags": {
        "access": "private",
        "leisure": "swimming_pool"
      }
    },
    {
      "type": "way",
      "id": 1240738115,
      "center": {
        "lat": 12.9555644,
        "lon": 77.647723
      },
      "tags": {
        "access": "private",
        "leisure": "swimming_pool"
      }
    },
    {
      "type": "way",
      "id": 1240738116,
      "center": {
        "lat": 12.9559319,
        "lon": 77.6474718
      },
      "tags": {
        "access": "private",
        "leisure": "swimming_pool"
      }
    },
    {
      "type": "way",
      "id": 1240738117,
      "center": {
        "lat": 12.9559805,
        "lon": 77.647472
      },
      "tags": {
        "access": "private",
        "leisure": "swimming_pool"
      }
    },
    {
      "type": "way",
      "id": 1240738118,
      "center": {
        "lat": 12.9561749,
        "lon": 77.647477
      },
      "tags": {
        "access": "private",
        "leisure": "swimming_pool"
      }
    },
    {
      "type": "way",
      "id": 1240738119,
      "center": {
        "lat": 12.9562235,
        "lon": 77.6474769
      },
      "tags": {
        "access": "private",
        "leisure": "swimming_pool"
      }
    },
    {
      "type": "way",
      "id": 1240738120,
      "center": {
        "lat": 12.9560807,
        "lon": 77.6471672
      },
      "tags": {
        "access": "private",
        "leisure": "swimming_pool"
      }
    },
    {
      "type": "way",
      "id": 1240738121,
      "center": {
        "lat": 12.9560167,
        "lon": 77.6469697
      },
      "tags": {
        "access": "private",
        "leisure": "swimming_pool"
      }
    },
    {
      "type": "way",
      "id": 1240738122,
      "center": {
        "lat": 12.9560002,
        "lon": 77.6469228
      },
      "tags": {
        "access": "private",
        "leisure": "swimming_pool"
      }
    },
    {
      "type": "way",
      "id": 1240738123,
      "center": {
        "lat": 12.9559324,
        "lon": 77.6467126
      },
      "tags": {
        "access": "private",
        "leisure": "swimming_pool"
      }
    },
    {
      "type": "way",
      "id": 1240738124,
      "center": {
        "lat": 12.9559159,
        "lon": 77.6466656
      },
      "tags": {
        "access": "private",
        "leisure": "swimming_pool"
      }
    },
    {
      "type": "way",
      "id": 1240738125,
      "center": {
        "lat": 12.9556101,
        "lon": 77.6466544
      },
      "tags": {
        "leisure": "garden"
      }
    },
    {
      "type": "way",
      "id": 1240738126,
      "center": {
        "lat": 12.9556069,
        "lon": 77.6467793
      },
      "tags": {
        "access": "private",
        "leisure": "swimming_pool"
      }
    },
    {
      "type": "way",
      "id": 1240738127,
      "center": {
        "lat": 12.9555853,
        "lon": 77.6468349
      },
      "tags": {
        "access": "private",
        "leisure": "swimming_pool"
      }
    },
    {
      "type": "way",
      "id": 1240738128,
      "center": {
        "lat": 12.9555154,
        "lon": 77.6470455
      },
      "tags": {
        "access": "private",
        "leisure": "swimming_pool"
      }
    },
    {
      "type": "way",
      "id": 1240738129,
      "center": {
        "lat": 12.9554945,
        "lon": 77.6471031
      },
      "tags": {
        "access": "private",
        "leisure": "swimming_pool"
      }
    },
    {
      "type": "way",
      "id": 1240738130,
      "center": {
        "lat": 12.9554292,
        "lon": 77.647311
      },
      "tags": {
        "access": "private",
        "leisure": "swimming_pool"
      }
    },
    {
      "type": "way",
      "id": 1240738131,
      "center": {
        "lat": 12.9553566,
        "lon": 77.6474398
      },
      "tags": {
        "access": "private",
        "leisure": "swimming_pool"
      }
    },
    {
      "type": "way",
      "id": 1240738132,
      "center": {
        "lat": 12.9553043,
        "lon": 77.6474612
      },
      "tags": {
        "access": "private",
        "leisure": "swimming_pool"
      }
    },
    {
      "type": "way",
      "id": 1240738133,
      "center": {
        "lat": 12.955107,
        "lon": 77.647549
      },
      "tags": {
        "access": "private",
        "leisure": "swimming_pool"
      }
    },
    {
      "type": "way",
      "id": 1240738134,
      "center": {
        "lat": 12.9550534,
        "lon": 77.6475685
      },
      "tags": {
        "access": "private",
        "leisure": "swimming_pool"
      }
    },
    {
      "type": "way",
      "id": 1240738135,
      "center": {
        "lat": 12.9548482,
        "lon": 77.6476463
      },
      "tags": {
        "access": "private",
        "leisure": "swimming_pool"
      }
    },
    {
      "type": "way",
      "id": 1240738136,
      "center": {
        "lat": 12.9547953,
        "lon": 77.6476644
      },
      "tags": {
        "access": "private",
        "leisure": "swimming_pool"
      }
    },
    {
      "type": "way",
      "id": 1240738137,
      "center": {
        "lat": 12.9546005,
        "lon": 77.6477627
      },
      "tags": {
        "access": "private",
        "leisure": "swimming_pool"
      }
    },
    {
      "type": "way",
      "id": 1240738138,
      "center": {
        "lat": 12.9545463,
        "lon": 77.6477819
      },
      "tags": {
        "access": "private",
        "leisure": "swimming_pool"
      }
    },
    {
      "type": "way",
      "id": 1240738153,
      "center": {
        "lat": 12.9544768,
        "lon": 77.6476955
      },
      "tags": {
        "leisure": "garden"
      }
    },
    {
      "type": "way",
      "id": 1240738154,
      "center": {
        "lat": 12.9545866,
        "lon": 77.6476533
      },
      "tags": {
        "leisure": "garden"
      }
    },
    {
      "type": "way",
      "id": 1240738155,
      "center": {
        "lat": 12.9547235,
        "lon": 77.6475879
      },
      "tags": {
        "leisure": "garden"
      }
    },
    {
      "type": "way",
      "id": 1240738156,
      "center": {
        "lat": 12.9548423,
        "lon": 77.6475336
      },
      "tags": {
        "leisure": "garden"
      }
    },
    {
      "type": "way",
      "id": 1240738157,
      "center": {
        "lat": 12.9549744,
        "lon": 77.64748
      },
      "tags": {
        "leisure": "garden"
      }
    },
    {
      "type": "way",
      "id": 1240738158,
      "center": {
        "lat": 12.9551026,
        "lon": 77.6474258
      },
      "tags": {
        "leisure": "garden"
      }
    },
    {
      "type": "way",
      "id": 1240738159,
      "center": {
        "lat": 12.9552289,
        "lon": 77.6473839
      },
      "tags": {
        "leisure": "garden"
      }
    },
    {
      "type": "way",
      "id": 1240738160,
      "center": {
        "lat": 12.95535,
        "lon": 77.6473588
      },
      "tags": {
        "leisure": "garden"
      }
    },
    {
      "type": "way",
      "id": 1240738161,
      "center": {
        "lat": 12.9553786,
        "lon": 77.6472407
      },
      "tags": {
        "leisure": "garden"
      }
    },
    {
      "type": "way",
      "id": 1240738162,
      "center": {
        "lat": 12.9554091,
        "lon": 77.6471136
      },
      "tags": {
        "leisure": "garden"
      }
    },
    {
      "type": "way",
      "id": 1240738163,
      "center": {
        "lat": 12.9554541,
        "lon": 77.6469811
      },
      "tags": {
        "leisure": "garden"
      }
    },
    {
      "type": "way",
      "id": 1240738164,
      "center": {
        "lat": 12.9554993,
        "lon": 77.6468475
      },
      "tags": {
        "leisure": "garden"
      }
    },
    {
      "type": "way",
      "id": 1240738166,
      "center": {
        "lat": 12.955867,
        "lon": 77.6477046
      },
      "tags": {
        "amenity": "bench"
      }
    },
    {
      "type": "way",
      "id": 1240738167,
      "center": {
        "lat": 12.9554104,
        "lon": 77.6481692
      },
      "tags": {
        "leisure": "playground"
      }
    },
    {
      "type": "way",
      "id": 1240738169,
      "center": {
        "lat": 12.9553674,
        "lon": 77.6481492
      },
      "tags": {
        "leisure": "garden"
      }
    },
    {
      "type": "way",
      "id": 1240738171,
      "center": {
        "lat": 12.9557935,
        "lon": 77.647136
      },
      "tags": {
        "amenity": "bench"
      }
    },
    {
      "type": "way",
      "id": 1240738172,
      "center": {
        "lat": 12.9556922,
        "lon": 77.6473361
      },
      "tags": {
        "amenity": "bench"
      }
    },
    {
      "type": "way",
      "id": 1240738183,
      "center": {
        "lat": 12.9558489,
        "lon": 77.6471416
      },
      "tags": {
        "leisure": "garden"
      }
    },
    {
      "type": "way",
      "id": 1240738184,
      "center": {
        "lat": 12.9556478,
        "lon": 77.6473691
      },
      "tags": {
        "leisure": "garden"
      }
    },
    {
      "type": "way",
      "id": 1240738185,
      "center": {
        "lat": 12.9557458,
        "lon": 77.6470988
      },
      "tags": {
        "leisure": "playground"
      }
    },
    {
      "type": "way",
      "id": 1263618604,
      "center": {
        "lat": 12.9595538,
        "lon": 77.6466386
      },
      "tags": {
        "amenity": "parking",
        "parking": "surface"
      }
    },
    {
      "type": "way",
      "id": 1293122628,
      "center": {
        "lat": 12.9573565,
        "lon": 77.6500043
      },
      "tags": {
        "leisure": "park"
      }
    },
    {
      "type": "way",
      "id": 1304449374,
      "center": {
        "lat": 12.9584949,
        "lon": 77.6469696
      },
      "tags": {
        "access": "customers",
        "amenity": "parking",
        "name": "Visitors' Parking",
        "name:kn": "ವಿಮಾನ ನಿಲ್ದಾಣ",
        "parking": "surface"
      }
    },
    {
      "type": "way",
      "id": 1304449377,
      "center": {
        "lat": 12.9598015,
        "lon": 77.6472637
      },
      "tags": {
        "access": "private",
        "amenity": "parking",
        "parking": "surface"
      }
    },
    {
      "type": "way",
      "id": 1304492133,
      "center": {
        "lat": 12.9531953,
        "lon": 77.6489493
      },
      "tags": {
        "access": "private",
        "amenity": "parking",
        "parking": "surface"
      }
    },
    {
      "type": "way",
      "id": 1304492134,
      "center": {
        "lat": 12.9531377,
        "lon": 77.6485478
      },
      "tags": {
        "access": "private",
        "leisure": "swimming_pool"
      }
    },
    {
      "type": "way",
      "id": 1442752702,
      "center": {
        "lat": 12.9610515,
        "lon": 77.6573651
      },
      "tags": {
        "leisure": "playground"
      }
    },
    {
      "type": "way",
      "id": 1443516538,
      "center": {
        "lat": 12.9540143,
        "lon": 77.6600548
      },
      "tags": {
        "amenity": "place_of_worship",
        "building": "yes",
        "name": "Shakti Vinayaka Temple",
        "name:kn": "ಶಕ್ತ ವಿನಾಯಕ",
        "religion": "hindu",
        "wheelchair": "no"
      }
    },
    {
      "type": "way",
      "id": 1443516585,
      "center": {
        "lat": 12.9540323,
        "lon": 77.6620382
      },
      "tags": {
        "amenity": "school",
        "name": "Sophie Nursery Primary and High School",
        "wheelchair": "limited"
      }
    }
  ]
}