{
  "area_name": "Munnenkolalu",
  "osm_id": 19883434,
  "osm_type": "relation",
  "place_type": "administrative",
  "amenity_count": 223,
  "amenities": [
    {
      "type": "node",
      "id": 515736893,
      "lat": 12.9504549,
      "lon": 77.6999246,
      "tags": {
        "addr:city": "Marathahalli, Bangalore",
        "addr:housename": "Sri Sapthagiri Complex",
        "addr:housenumber": "90/3",
        "addr:postcode": "560034",
        "addr:street": "Outer Ring Road (Opp. Innovative Multiplex)",
        "amenity": "restaurant",
        "cuisine": "chinese",
        "indoor_seating": "yes",
        "level": "0",
        "name": "Yo China",
        "name:kn": "ಯೊ ಚೈನ",
        "outdoor_seating": "no",
        "phone": "+91-80-40980666",
        "website": "http://www.yo-china.com/"
      }
    },
    {
      "type": "node",
      "id": 585148096,
      "lat": 12.9558807,
      "lon": 77.7127803,
      "tags": {
        "amenity": "restaurant",
        "check_date": "2025-09-03",
        "cuisine": "indian",
        "name": "Golconda Chimney",
        "name:kn": "ಗೊಲ್ಕೊಂಡ ಚಿಮಿನಿ",
        "phone": "+91 80 30623434"
      }
    },
    {
      "type": "node",
      "id": 975680681,
      "lat": 12.9559302,
      "lon": 77.7112689,
      "tags": {
        "addr:city": "Bangalore",
        "addr:street": "Varthur Road",
        "amenity": "hospital",
        "emergency": "yes",
        "healthcare": "hospital",
        "name": "Yashomathi Hospitals"
      }
    },
    {
      "type": "node",
      "id": 984208326,
      "lat": 12.9497553,
      "lon": 77.6998051,
      "tags": {
        "addr:city": "Marathahalli, Bangalore",
        "addr:housenumber": "90/4 (1st Floor)",
        "addr:postcode": "560037",
        "addr:street": "Outer Ring Road",
        "amenity": "restaurant",
        "indoor_seating": "yes",
        "level": "1",
        "outdoor_seating": "no"
      }
    },
    {
      "type": "node",
      "id": 1024500710,
      "lat": 12.9494661,
      "lon": 77.7026457,
      "tags": {
        "amenity": "college",
        "name": "Dr. Shyamala Reddy Dental College"
      }
    },
    {
      "type": "node",
      "id": 1137521788,
      "lat": 12.9454128,
      "lon": 77.7104038,
      "tags": {
        "amenity": "parking",
        "name": "Vagdevi School Parking"
      }
    },
    {
      "type": "node",
      "id": 1196677392,
      "lat": 12.949723,
      "lon": 77.699799,
      "tags": {
        "addr:city": "Marathahalli, Bangalore",
        "addr:postcode": "560037",
        "addr:street": "Outer Ring Road",
        "amenity": "bank",
        "atm": "yes",
        "brand": "ICICI Bank",
        "brand:wikidata": "Q1653258",
        "check_date": "2023-08-05",
        "name": "ICICI Bank",
        "name:en": "ICICI Bank",
        "name:kn": "ಐಸಿಐಸಿಐ ಬ್ಯಾಂಕು",
        "short_name": "ICICI",
        "website": "https://www.icicibank.com"
      }
    },
    {
      "type": "node",
      "id": 1506418133,
      "lat": 12.9529636,
      "lon": 77.7004169,
      "tags": {
        "name": "Girias Electronics",
        "payment:credit_cards": "yes",
        "payment:debit_cards": "yes",
        "shop": "hifi",
        "wheelchair": "no"
      }
    },
    {
      "type": "node",
      "id": 1837245438,
      "lat": 12.9559516,
      "lon": 77.7115294,
      "tags": {
        "name": "Car Care",
        "shop": "car_parts"
      }
    },
    {
      "type": "node",
      "id": 1848054126,
      "lat": 12.9519912,
      "lon": 77.706771,
      "tags": {
        "amenity": "school",
        "name": "Government School Munekolala",
        "name:kn": "ಸರ್ಕಾರಿ ಶಾಲೆ ಮುನೆಕೊಲ"
      }
    },
    {
      "type": "node",
      "id": 2319910802,
      "lat": 12.9527992,
      "lon": 77.7003542,
      "tags": {
        "name": "Acer Mall",
        "shop": "electronics"
      }
    },
    {
      "type": "node",
      "id": 2319910815,
      "lat": 12.9528356,
      "lon": 77.7003615,
      "tags": {
        "amenity": "ice_cream",
        "indoor_seating": "yes",
        "name": "Iceberg",
        "outdoor_seating": "no"
      }
    },
    {
      "type": "node",
      "id": 2319910853,
      "lat": 12.9504876,
      "lon": 77.6999864,
      "tags": {
        "amenity": "pub",
        "level": "3",
        "name": "Purple Haze"
      }
    },
    {
      "type": "node",
      "id": 2510955873,
      "lat": 12.955947,
      "lon": 77.7117133,
      "tags": {
        "amenity": "restaurant",
        "check_date": "2025-09-03",
        "name": "Bageecha Family Restaurant",
        "phone": "+91 80 2852 5124",
        "website": "http://www.bageecha.net.in/"
      }
    },
    {
      "type": "node",
      "id": 2534917862,
      "lat": 12.9560226,
      "lon": 77.7091896,
      "tags": {
        "amenity": "place_of_worship",
        "check_date": "2025-09-03",
        "name": "Sri Muneeshwara Temple",
        "name:kn": "ಮುನೇಶ್ವರ ದೇವಸ್ಥಾನ",
        "religion": "hindu"
      }
    },
    {
      "type": "node",
      "id": 2653583620,
      "lat": 12.9525408,
      "lon": 77.7060929,
      "tags": {
        "amenity": "bank",
        "brand": "State Bank of India",
        "brand:wikidata": "Q1340361",
        "name": "State Bank of India",
        "short_name": "SBI"
      }
    },
    {
      "type": "node",
      "id": 2678583205,
      "lat": 12.948708,
      "lon": 77.707873,
      "tags": {
        "amenity": "pharmacy"
      }
    },
    {
      "type": "node",
      "id": 2678583342,
      "lat": 12.9486097,
      "lon": 77.707873,
      "tags": {
        "amenity": "clinic",
        "name": "Sanjeevini Clinic"
      }
    },
    {
      "type": "node",
      "id": 2678583395,
      "lat": 12.9489302,
      "lon": 77.7085732,
      "tags": {
        "amenity": "clinic",
        "name": "unknown clinic"
      }
    },
    {
      "type": "node",
      "id": 3150184719,
      "lat": 12.9547536,
      "lon": 77.7100815,
      "tags": {
        "addr:city": "Bangalore",
        "addr:housenumber": "36",
        "addr:postcode": "560037",
        "addr:street": "2nd Cross",
        "amenity": "dojo",
        "name": "M S Gurukkal's Kalari Academy",
        "opening_hours": "06:00-19:00",
        "sport": "Kalaripayattu,_Martial_Arts"
      }
    },
    {
      "type": "node",
      "id": 3197266302,
      "lat": 12.9546272,
      "lon": 77.7051109,
      "tags": {
        "amenity": "atm",
        "brand": "State Bank of India",
        "brand:wikidata": "Q1340361",
        "name": "State Bank of India",
        "name:kn": "ಭಾರತೀಯ ಸ್ಟೇಟ್ ಬ್ಯಾಂಕ್",
        "operator": "State Bank of India",
        "operator:wikidata": "Q1340361",
        "short_name": "SBI",
        "wheelchair": "no"
      }
    },
    {
      "type": "node",
      "id": 3261284861,
      "lat": 12.9556751,
      "lon": 77.7124115,
      "tags": {
        "brand": "Westside",
        "brand:wikidata": "Q123376384",
        "level": "2",
        "name": "Westside",
        "shop": "clothes"
      }
    },
    {
      "type": "node",
      "id": 3540823601,
      "lat": 12.9496216,
      "lon": 77.6997317,
      "tags": {
        "air_conditioning": "yes",
        "amenity": "restaurant",
        "check_date": "2025-07-04",
        "cuisine": "regional",
        "diet:vegetarian": "yes",
        "indoor_seating": "yes",
        "level": "0;1;2",
        "name": "Meghana Foods",
        "outdoor_seating": "no",
        "payment:credit_cards": "yes",
        "payment:debit_cards": "yes",
        "smoking": "no"
      }
    },
    {
      "type": "node",
      "id": 3541742496,
      "lat": 12.9506209,
      "lon": 77.6999061,
      "tags": {
        "air_conditioning": "yes",
        "amenity": "restaurant",
        "bar": "no",
        "check_date": "2025-01-22",
        "check_date:diet:vegetarian": "2025-01-22",
        "cuisine": "regional",
        "diet:vegetarian": "yes",
        "highchair": "no",
        "indoor_seating": "yes",
        "internet_access": "no",
        "level": "1",
        "name": "Anjappar",
        "outdoor_seating": "no",
        "payment:mastercard": "yes",
        "payment:visa": "yes",
        "smoking": "no",
        "source": "survey",
        "takeaway": "yes",
        "toilets": "yes"
      }
    },
    {
      "type": "node",
      "id": 3541742497,
      "lat": 12.9504495,
      "lon": 77.6999604,
      "tags": {
        "amenity": "restaurant",
        "level": "2",
        "name": "Spice World"
      }
    },
    {
      "type": "node",
      "id": 3541742498,
      "lat": 12.9504952,
      "lon": 77.699942,
      "tags": {
        "amenity": "restaurant",
        "level": "4",
        "name": "Jimi's"
      }
    },
    {
      "type": "node",
      "id": 3541837747,
      "lat": 12.9527009,
      "lon": 77.7003351,
      "tags": {
        "amenity": "restaurant",
        "cuisine": "regional",
        "name": "Hotel Chettinadu Foods"
      }
    },
    {
      "type": "node",
      "id": 3541837748,
      "lat": 12.9525362,
      "lon": 77.7002962,
      "tags": {
        "indoor_seating": "no",
        "outdoor_seating": "no",
        "shop": "bakery",
        "takeaway": "only"
      }
    },
    {
      "type": "node",
      "id": 3541837749,
      "lat": 12.9525781,
      "lon": 77.7002989,
      "tags": {
        "amenity": "pharmacy",
        "name": "Nandi Pharma"
      }
    },
    {
      "type": "node",
      "id": 3541837750,
      "lat": 12.9526264,
      "lon": 77.7003109,
      "tags": {
        "amenity": "restaurant",
        "name": "Star Ambur Biryani"
      }
    },
    {
      "type": "node",
      "id": 3541852017,
      "lat": 12.9522121,
      "lon": 77.7002358,
      "tags": {
        "level": "0,1",
        "name": "Godrej Interio",
        "shop": "furniture"
      }
    },
    {
      "type": "node",
      "id": 3541856181,
      "lat": 12.9521977,
      "lon": 77.7002345,
      "tags": {
        "level": "0",
        "name": "Computer Store",
        "shop": "electronics"
      }
    },
    {
      "type": "node",
      "id": 3541860633,
      "lat": 12.952118,
      "lon": 77.7002171,
      "tags": {
        "level": "0",
        "name": "Auto Pulse Bajaj",
        "phone": "080 4147 8287",
        "shop": "motorcycle"
      }
    },
    {
      "type": "node",
      "id": 3541860634,
      "lat": 12.9521585,
      "lon": 77.7002251,
      "tags": {
        "level": "1",
        "name": "digiTechh",
        "shop": "electronics"
      }
    },
    {
      "type": "node",
      "id": 3541860635,
      "lat": 12.9521141,
      "lon": 77.7002412,
      "tags": {
        "level": "2",
        "name": "Four Wall",
        "shop": "kitchen_stove_&_hob"
      }
    },
    {
      "type": "node",
      "id": 3541866754,
      "lat": 12.9519481,
      "lon": 77.7001835,
      "tags": {
        "amenity": "restaurant",
        "cuisine": "Andhra",
        "name": "Vaikuntam",
        "name:kn": "ವೈಕುಂಟಂ"
      }
    },
    {
      "type": "node",
      "id": 3541866755,
      "lat": 12.9519037,
      "lon": 77.7001715,
      "tags": {
        "amenity": "restaurant",
        "cuisine": "Multi-cuisine",
        "name": "Rajbhog"
      }
    },
    {
      "type": "node",
      "id": 3541866756,
      "lat": 12.9518644,
      "lon": 77.700154,
      "tags": {
        "amenity": "community_centre",
        "level": "2",
        "name": "Akshaya",
        "name:kn": "ಅಕ್ಷಯ"
      }
    },
    {
      "type": "node",
      "id": 3541874777,
      "lat": 12.9517821,
      "lon": 77.7001004,
      "tags": {
        "amenity": "restaurant",
        "check_date": "2025-07-04",
        "cuisine": "Punjabi",
        "indoor_seating": "yes",
        "name": "Tandoori Junction",
        "outdoor_seating": "no"
      }
    },
    {
      "type": "node",
      "id": 3541874778,
      "lat": 12.9517442,
      "lon": 77.700091,
      "tags": {
        "amenity": "pub",
        "check_date": "2025-07-04",
        "level": "0",
        "name": "Bhagini Palace"
      }
    },
    {
      "type": "node",
      "id": 3541884417,
      "lat": 12.95162,
      "lon": 77.7000655,
      "tags": {
        "brand": "LG",
        "brand:wikidata": "Q162345",
        "level": "0",
        "name": "LG",
        "shop": "electronics"
      }
    },
    {
      "type": "node",
      "id": 3541884418,
      "lat": 12.9515881,
      "lon": 77.7000708,
      "tags": {
        "amenity": "restaurant",
        "cuisine": "Andhra",
        "level": "1",
        "name": "Nanda's",
        "working": "no"
      }
    },
    {
      "type": "node",
      "id": 3541884419,
      "lat": 12.9515691,
      "lon": 77.7000494,
      "tags": {
        "level": "2",
        "name": "v3 slim care",
        "shop": "beauty"
      }
    },
    {
      "type": "node",
      "id": 3541965709,
      "lat": 12.951441,
      "lon": 77.700056,
      "tags": {
        "level": "0",
        "shop": "furniture"
      }
    },
    {
      "type": "node",
      "id": 3541965710,
      "lat": 12.9512338,
      "lon": 77.7000138,
      "tags": {
        "name": "Furniture Home",
        "shop": "furniture"
      }
    },
    {
      "type": "node",
      "id": 3541965711,
      "lat": 12.9510979,
      "lon": 77.7000272,
      "tags": {
        "level": "0;1",
        "name": "Unilet",
        "shop": "electronics"
      }
    },
    {
      "type": "node",
      "id": 3541965712,
      "lat": 12.9510561,
      "lon": 77.7000084,
      "tags": {
        "level": "2",
        "name": "Slim Talk Studio",
        "shop": "beauty"
      }
    },
    {
      "type": "node",
      "id": 3541965714,
      "lat": 12.9509672,
      "lon": 77.7000084,
      "tags": {
        "level": "0",
        "name": "Titan Helios",
        "shop": "watches",
        "website": "https://stores.titan.co.in/titan-world-watch-shop-marathahalli-bengaluru-186756/Home"
      }
    },
    {
      "type": "node",
      "id": 3541965715,
      "lat": 12.9509228,
      "lon": 77.7000326,
      "tags": {
        "level": "2",
        "name": "Body Cover",
        "shop": "beauty"
      }
    },
    {
      "type": "node",
      "id": 3541965716,
      "lat": 12.9507921,
      "lon": 77.6999065,
      "tags": {
        "level": "0",
        "name": "Coir",
        "shop": "mattresses"
      }
    },
    {
      "type": "node",
      "id": 3541965717,
      "lat": 12.9507193,
      "lon": 77.699921,
      "tags": {
        "amenity": "ice_cream",
        "indoor_seating": "yes",
        "name": "Cream Stone",
        "outdoor_seating": "no"
      }
    },
    {
      "type": "node",
      "id": 3808503389,
      "lat": 12.9482242,
      "lon": 77.6994937,
      "tags": {
        "check_date": "2023-08-05",
        "name": "Blue Decor",
        "shop": "furniture"
      }
    },
    {
      "type": "node",
      "id": 4039838374,
      "lat": 12.9477767,
      "lon": 77.7090085,
      "tags": {
        "amenity": "pharmacy",
        "dispensing": "yes",
        "healthcare": "pharmacy"
      }
    },
    {
      "type": "node",
      "id": 4039859588,
      "lat": 12.9481296,
      "lon": 77.7090944,
      "tags": {
        "amenity": "fast_food",
        "cuisine": "bakery",
        "name": "Bakery"
      }
    },
    {
      "type": "node",
      "id": 4040026797,
      "lat": 12.9457071,
      "lon": 77.7104283,
      "tags": {
        "amenity": "atm",
        "brand": "State Bank of India",
        "brand:wikidata": "Q1340361",
        "name": "State Bank of India",
        "name:kn": "ಭಾರತೀಯ ಸ್ಟೇಟ್ ಬ್ಯಾಂಕ್",
        "operator": "State Bank of India",
        "operator:wikidata": "Q1340361",
        "short_name": "SBI"
      }
    },
    {
      "type": "node",
      "id": 4040026799,
      "lat": 12.946788,
      "lon": 77.710494,
      "tags": {
        "shop": "bakery"
      }
    },
    {
      "type": "node",
      "id": 4040026800,
      "lat": 12.9467998,
      "lon": 77.7103975,
      "tags": {
        "name": "Amrita Travel Agency",
        "shop": "travel_agency"
      }
    },
    {
      "type": "node",
      "id": 4040026801,
      "lat": 12.9465632,
      "lon": 77.7087855,
      "tags": {
        "shop": "bakery"
      }
    },
    {
      "type": "node",
      "id": 4040026802,
      "lat": 12.9466573,
      "lon": 77.7087976,
      "tags": {
        "name": "Ramesh Stores",
        "shop": "houseware"
      }
    },
    {
      "type": "node",
      "id": 4040026803,
      "lat": 12.9470899,
      "lon": 77.7089263,
      "tags": {
        "name": "Haircut",
        "shop": "hairdresser"
      }
    },
    {
      "type": "node",
      "id": 4040026804,
      "lat": 12.9471435,
      "lon": 77.7089156,
      "tags": {
        "shop": "laundry"
      }
    },
    {
      "type": "node",
      "id": 4040026805,
      "lat": 12.9473644,
      "lon": 77.7089276,
      "tags": {
        "name": "guru bakery",
        "shop": "bakery"
      }
    },
    {
      "type": "node",
      "id": 4040026806,
      "lat": 12.9485002,
      "lon": 77.7079567,
      "tags": {
        "amenity": "taxi",
        "name": "Auto Stand",
        "name:kn": "ಆಟೋ ನಿಲ್ದಾಣ"
      }
    },
    {
      "type": "node",
      "id": 4040026807,
      "lat": 12.9510234,
      "lon": 77.7066549,
      "tags": {
        "amenity": "pharmacy",
        "name": "Chirayu medical shop"
      }
    },
    {
      "type": "node",
      "id": 4040026808,
      "lat": 12.9523701,
      "lon": 77.7063914,
      "tags": {
        "leisure": "sports_centre"
      }
    },
    {
      "type": "node",
      "id": 4040026809,
      "lat": 12.9524001,
      "lon": 77.7060279,
      "tags": {
        "amenity": "bicycle_repair_station",
        "name": "bike repiar"
      }
    },
    {
      "type": "node",
      "id": 4040026810,
      "lat": 12.9525488,
      "lon": 77.7058831,
      "tags": {
        "amenity": "restaurant"
      }
    },
    {
      "type": "node",
      "id": 4040031904,
      "lat": 12.9562384,
      "lon": 77.708926,
      "tags": {
        "amenity": "taxi",
        "name": "Autorickshaw Stand",
        "name:kn": "ಆಟೋ ನಿಲ್ದಾಣ"
      }
    },
    {
      "type": "node",
      "id": 4040031906,
      "lat": 12.9562405,
      "lon": 77.7086508,
      "tags": {
        "name": "Auto Parts",
        "shop": "car_repair"
      }
    },
    {
      "type": "node",
      "id": 4040044245,
      "lat": 12.9482372,
      "lon": 77.7059827,
      "tags": {
        "amenity": "dentist"
      }
    },
    {
      "type": "node",
      "id": 4270189594,
      "lat": 12.9557961,
      "lon": 77.7130228,
      "tags": {
        "addr:street": "Varthur Road",
        "check_date": "2025-09-03",
        "name": "Reliance trends",
        "shop": "clothes"
      }
    },
    {
      "type": "node",
      "id": 4270196994,
      "lat": 12.9555803,
      "lon": 77.7130382,
      "tags": {
        "addr:street": "I T P L Main Road",
        "amenity": "restaurant",
        "name": "Kritunga restaurant"
      }
    },
    {
      "type": "node",
      "id": 4270238689,
      "lat": 12.9553742,
      "lon": 77.7124418,
      "tags": {
        "addr:street": "I T P L Main Road",
        "check_date": "2025-06-25",
        "name": "Star Bazar",
        "shop": "supermarket"
      }
    },
    {
      "type": "node",
      "id": 4417323286,
      "lat": 12.9488637,
      "lon": 77.7079123,
      "tags": {
        "amenity": "atm",
        "brand": "Andhra Bank",
        "brand:wikidata": "Q2003476",
        "name": "Andhra Bank",
        "name:kn": "ಆಂಧ್ರ ಬ್ಯಾಂಕ್",
        "operator": "Andhra Bank",
        "operator:wikidata": "Q2003476"
      }
    },
    {
      "type": "node",
      "id": 4417324574,
      "lat": 12.9505911,
      "lon": 77.7067288,
      "tags": {
        "amenity": "atm",
        "brand": "HDFC Bank",
        "brand:wikidata": "Q631047",
        "name": "HDFC Bank",
        "name:kn": "ಎಚ್. ಡಿ. ಎಫ್. ಸಿ. ಬ್ಯಾಂಕ್",
        "operator": "HDFC Bank",
        "operator:wikidata": "Q631047",
        "short_name": "HDFC"
      }
    },
    {
      "type": "node",
      "id": 4417324575,
      "lat": 12.948782,
      "lon": 77.7079398,
      "tags": {
        "amenity": "atm",
        "brand": "Canara Bank",
        "brand:en": "Canara Bank",
        "brand:hi": "केनरा बैंक",
        "brand:kn": "ಕೆನರಾ ಬ್ಯಾಂಕ್",
        "brand:pa": "ਕੇਨਰਾ ਬੈਂਕ",
        "brand:pnb": "کینرا بینک",
        "brand:ur": "کینرا بینک",
        "brand:wikidata": "Q2003777",
        "name": "Canara Bank",
        "name:en": "Canara Bank",
        "name:hi": "केनरा बैंक",
        "name:kn": "ಕೆನರಾ ಬ್ಯಾಂಕ್",
        "name:pa": "ਕੇਨਰਾ ਬੈਂਕ",
        "name:pnb": "کینرا بینک",
        "name:ur": "کینرا بینک",
        "operator": "Canara Bank",
        "operator:wikidata": "Q2003777"
      }
    },
    {
      "type": "node",
      "id": 4417324576,
      "lat": 12.9488191,
      "lon": 77.7079318,
      "tags": {
        "amenity": "atm",
        "brand": "Axis Bank",
        "brand:wikidata": "Q2003549",
        "name": "Axis Bank",
        "name:kn": "ಆಕ್ಸಿಸ್ ಬ್ಯಾಂಕ್",
        "operator": "Axis Bank",
        "operator:wikidata": "Q2003549"
      }
    },
    {
      "type": "node",
      "id": 4417324577,
      "lat": 12.9485406,
      "lon": 77.7079061,
      "tags": {
        "name": "Surya bakery",
        "shop": "bakery"
      }
    },
    {
      "type": "node",
      "id": 4417324578,
      "lat": 12.9512869,
      "lon": 77.7065308,
      "tags": {
        "amenity": "atm",
        "brand": "ICICI Bank",
        "brand:wikidata": "Q1653258",
        "name": "ICICI Bank",
        "operator": "ICICI Bank",
        "operator:wikidata": "Q1653258",
        "short_name": "ICICI"
      }
    },
    {
      "type": "node",
      "id": 4417324580,
      "lat": 12.9526893,
      "lon": 77.7059193,
      "tags": {
        "name": "Car repairs",
        "shop": "car_repair"
      }
    },
    {
      "type": "node",
      "id": 4417324581,
      "lat": 12.9559406,
      "lon": 77.7051134,
      "tags": {
        "amenity": "atm",
        "brand": "South Indian Bank",
        "brand:wikidata": "Q2044973",
        "name": "South Indian Bank",
        "operator": "South Indian Bank",
        "operator:wikidata": "Q2044973",
        "wheelchair": "no"
      }
    },
    {
      "type": "node",
      "id": 4417325091,
      "lat": 12.9489759,
      "lon": 77.708104,
      "tags": {
        "description": "sweets shop",
        "name": "Sangam sweets",
        "shop": "bakery"
      }
    },
    {
      "type": "node",
      "id": 4417325162,
      "lat": 12.9489452,
      "lon": 77.7082197,
      "tags": {
        "amenity": "pharmacy",
        "name": "Krishna medicals"
      }
    },
    {
      "type": "node",
      "id": 4417325164,
      "lat": 12.9516961,
      "lon": 77.7064343,
      "tags": {
        "amenity": "pharmacy",
        "name": "Navkar medicals"
      }
    },
    {
      "type": "node",
      "id": 4417325575,
      "lat": 12.9563432,
      "lon": 77.7052006,
      "tags": {
        "name": "White collar",
        "shop": "laundry"
      }
    },
    {
      "type": "node",
      "id": 4417325591,
      "lat": 12.948787,
      "lon": 77.708447,
      "tags": {
        "name": "Kmf nandini milk shop",
        "shop": "dairy"
      }
    },
    {
      "type": "node",
      "id": 4417325592,
      "lat": 12.9486948,
      "lon": 77.7080762,
      "tags": {
        "amenity": "bus_station",
        "name": "Munekolala bus stand",
        "name:kn": "ಮುನೆಕೊಲ"
      }
    },
    {
      "type": "node",
      "id": 4417325593,
      "lat": 12.9481798,
      "lon": 77.7080129,
      "tags": {
        "leisure": "fitness_centre",
        "name": "Gym"
      }
    },
    {
      "type": "node",
      "id": 4417325594,
      "lat": 12.9483032,
      "lon": 77.7090998,
      "tags": {
        "name": "Iyengar bakery",
        "shop": "bakery"
      }
    },
    {
      "type": "node",
      "id": 4417326240,
      "lat": 12.9458064,
      "lon": 77.710759,
      "tags": {
        "amenity": "school",
        "name": "Vagdevi Vilas super school"
      }
    },
    {
      "type": "node",
      "id": 4444250037,
      "lat": 12.9478299,
      "lon": 77.6993579,
      "tags": {
        "addr:city": "Bangalore",
        "addr:housenumber": "88",
        "addr:postcode": "560037",
        "addr:street": "Outer Ring Road",
        "amenity": "restaurant",
        "check_date": "2023-08-15",
        "delivery": "yes",
        "indoor_seating": "yes",
        "level": "3",
        "name": "Kritunga Restaurant",
        "opening_hours": "12:00-16:00, 19:00-23:00",
        "outdoor_seating": "no",
        "payment:credit_cards": "yes",
        "payment:debit_cards": "yes",
        "phone": "+91 80 6566 5999",
        "smoking": "no",
        "takeaway": "yes",
        "wheelchair": "no"
      }
    },
    {
      "type": "node",
      "id": 4444328401,
      "lat": 12.9490913,
      "lon": 77.6996578,
      "tags": {
        "addr:postcode": "560037",
        "amenity": "restaurant",
        "check_date": "2025-07-04",
        "cuisine": "regional",
        "delivery": "yes",
        "indoor_seating": "yes",
        "level": "1",
        "name": "Nandhana Palace",
        "opening_hours": "11:00-15:30, 18:30-23:00",
        "outdoor_seating": "no",
        "payment:cash": "yes",
        "payment:credit_cards": "yes",
        "payment:debit_cards": "yes",
        "phone": "+91 80 6444 4455",
        "smoking": "no",
        "source": "survey",
        "takeaway": "yes",
        "website": "www.nandhanahotels.com"
      }
    },
    {
      "type": "node",
      "id": 4446033865,
      "lat": 12.948849,
      "lon": 77.7078682,
      "tags": {
        "addr:city": "Bengaluru",
        "addr:housenumber": "106/87",
        "addr:postcode": "560037",
        "addr:street": "Raja Building, Munnekolala Last Bengaluru,, Thubarahalli, Marathahalli,Karnataka",
        "amenity": "pharmacy",
        "name": "Sri Lakshmi Pharma And General Store",
        "phone": "+9197382 56718"
      }
    },
    {
      "type": "node",
      "id": 4446060500,
      "lat": 12.9486405,
      "lon": 77.7037644,
      "tags": {
        "addr:city": "Bengaluru",
        "addr:housenumber": "37",
        "addr:postcode": "560037",
        "addr:street": "Ganapa Nilaya, SGR Dental College Road, Maruthi Layout, Kasavanahalli Village, Marathahalli, Karnataka",
        "amenity": "pharmacy",
        "brand": "MedPlus",
        "brand:wikidata": "Q65684234",
        "healthcare": "pharmacy",
        "name": "MedPlus",
        "name:kn": "ಮೆಡ್‍ಪ್ಲಸ್",
        "phone": "080 4217 0031",
        "website": "https://www.medplusmart.com"
      }
    },
    {
      "type": "node",
      "id": 4446085886,
      "lat": 12.9482486,
      "lon": 77.7047648,
      "tags": {
        "addr:city": "Bengaluru",
        "addr:postcode": "560037",
        "addr:street": "SGR Dental College Rd, Belandur, Marathahalli, Karnataka",
        "amenity": "pharmacy",
        "name": "Trust Chemists & Druggists",
        "phone": "080 2254 5129",
        "website": "https://www.trustpharmacy.co.in/"
      }
    },
    {
      "type": "node",
      "id": 4446234513,
      "lat": 12.9525048,
      "lon": 77.7061945,
      "tags": {
        "addr:city": "Bengaluru",
        "addr:postcode": "560037",
        "addr:street": "First Floor, Trilochan Complex, Opp Govt School, Munnekolala Main Road, Marthahalli, Karnataka",
        "amenity": "clinic",
        "name": "Family Care Homeopathy Clinic & Pharmacy",
        "phone": "080 3255 2975",
        "website": "family-care.in"
      }
    },
    {
      "type": "node",
      "id": 4446238233,
      "lat": 12.9525519,
      "lon": 77.7059853,
      "tags": {
        "addr:city": "Bengaluru",
        "addr:postcode": "560037",
        "addr:street": "Triloachan Complex , Munekollalu main road , Munekollal",
        "amenity": "clinic",
        "name": "Family Dental care",
        "phone": "+919886130837"
      }
    },
    {
      "type": "node",
      "id": 4446242239,
      "lat": 12.949095,
      "lon": 77.7078158,
      "tags": {
        "addr:city": "Bengaluru",
        "addr:postcode": "560037",
        "addr:street": "Munnekollal Main Rd, Munnekollal, Karnataka",
        "amenity": "pharmacy",
        "name": "Patanjali Prakritika Bazaar Shop",
        "phone": "+91097427 66401"
      }
    },
    {
      "type": "node",
      "id": 4446277436,
      "lat": 12.9487633,
      "lon": 77.7078643,
      "tags": {
        "addr:city": "Bengaluru",
        "addr:postcode": "560037",
        "addr:street": "Thubarahalli, Munnekollal,Karnataka",
        "amenity": "pharmacy",
        "name": "Slv Medical Store",
        "phone": "+919980077242"
      }
    },
    {
      "type": "node",
      "id": 4446861327,
      "lat": 12.9523153,
      "lon": 77.7002928,
      "tags": {
        "addr:city": "Bengaluru",
        "addr:housenumber": "92/6",
        "addr:postcode": "560037",
        "addr:street": "3rd floor, Outer Ring Road Chandra Layout, Opp Innovative Multiplex, Marathahalli, Karnataka",
        "amenity": "clinic",
        "name": "Derma Solutions",
        "phone": "+9197412 23217",
        "website": "https://www.dermasolutions.co.in/"
      }
    },
    {
      "type": "node",
      "id": 4446905132,
      "lat": 12.9557846,
      "lon": 77.7050853,
      "tags": {
        "addr:city": "bangalore",
        "addr:housenumber": "103p",
        "addr:postcode": "560037",
        "addr:street": "Munnekolala Varthur Road",
        "amenity": "pharmacy",
        "name": "Lions Airport City Medicals",
        "phone": "+9190604 48812",
        "wheelchair": "no"
      }
    },
    {
      "type": "node",
      "id": 4447101867,
      "lat": 12.9499525,
      "lon": 77.700234,
      "tags": {
        "addr:city": "Marathahalli, Bangalore",
        "addr:postcode": "560037",
        "addr:street": "SGR Dental, College Road, Munnekollal, Marathahalli",
        "amenity": "restaurant",
        "cuisine": "regional",
        "delivery": "yes",
        "name": "Punjabi Dawat",
        "opening_hours": "11:00-16:00,19:00-23:00",
        "phone": "+91 7338330821",
        "smoking": "no",
        "takeaway": "yes"
      }
    },
    {
      "type": "node",
      "id": 4487929798,
      "lat": 12.9558317,
      "lon": 77.7115223,
      "tags": {
        "addr:city": "Bangalore",
        "addr:full": "Saroj Square, Marathahalli Main Road, Whitefield, Silver Springs Layout, Munnekollal, Bengaluru, Karnataka;Saroj Square, Marathahalli Main Road, Whitefield, Silver Springs Layout, Munnekollal",
        "addr:housenumber": "2nd Floor",
        "addr:postcode": "560037;560066",
        "addr:street": "Varthur Road",
        "leisure": "sports_centre",
        "name": "Snap Fitness",
        "opening_hours": "06:00 -21:00",
        "phone": "095384 47777",
        "sport": "gymnastics"
      }
    },
    {
      "type": "node",
      "id": 4488134543,
      "lat": 12.9487318,
      "lon": 77.7035738,
      "tags": {
        "addr:city": "Bengaluru",
        "addr:housenumber": "11,12",
        "addr:postcode": "560037",
        "addr:street": "Sgr Dental College Main Road, Munnekolala, Marathahalli",
        "name": "Athulya Home Needs",
        "opening_hours": "08:30-22:30",
        "phone": "(91)-80-40980585",
        "shop": "supermarket"
      }
    },
    {
      "type": "node",
      "id": 4488353602,
      "lat": 12.9492413,
      "lon": 77.7023924,
      "tags": {
        "addr:city": "Bangalore",
        "addr:housenumber": "24",
        "addr:postcode": "560037",
        "addr:street": "Munekollal",
        "name": "Miami Supermarket",
        "phone": "(91)-80-41316222",
        "shop": "supermarket"
      }
    },
    {
      "type": "node",
      "id": 4488473950,
      "lat": 12.9509399,
      "lon": 77.7150958,
      "tags": {
        "addr:city": "Bangalore",
        "addr:housenumber": "154",
        "addr:postcode": "560037",
        "addr:street": "Shiridi Sai Nagar Main Road, 10th Cross, Kundalahalli",
        "name": "Relation Super Market",
        "phone": "(91)-80-65778575",
        "shop": "supermarket"
      }
    },
    {
      "type": "node",
      "id": 4489900902,
      "lat": 12.9510561,
      "lon": 77.7000084,
      "tags": {
        "addr:city": "Bengaluru",
        "addr:housenumber": "545",
        "addr:postcode": "560038",
        "addr:street": "1st Floor, CMH Road, Indiranagar",
        "leisure": "sports_centre",
        "name": "Ezee Slim",
        "opening_hours": "09:00-21:30",
        "phone": "080-33294286",
        "sport": "gymnastics"
      }
    },
    {
      "type": "node",
      "id": 4489929763,
      "lat": 12.9558912,
      "lon": 77.7111725,
      "tags": {
        "addr:city": "Bangalore",
        "addr:housenumber": "25",
        "addr:postcode": "560036",
        "addr:street": "Devasandra Main Road, Krishnarajapuram",
        "name": "V L Care",
        "opening_hours": "10:00-21:00",
        "phone": "(91)-80-33294401",
        "shop": "beauty"
      }
    },
    {
      "type": "node",
      "id": 4489943956,
      "lat": 12.9524548,
      "lon": 77.7063302,
      "tags": {
        "addr:city": "Bengaluru,",
        "addr:postcode": "560037",
        "addr:street": "\" Rajasree Layout, Gandhi Nagar, Munnekollal, Karnataka",
        "leisure": "sports_centre",
        "name": "Fitness Goal",
        "opening_hours": "5:30-22:00",
        "phone": "097412 11662"
      }
    },
    {
      "type": "node",
      "id": 4490478977,
      "lat": 12.9498917,
      "lon": 77.7005393,
      "tags": {
        "addr:city": "Marathahalli, Bangalore",
        "addr:housenumber": "1",
        "addr:postcode": "560037",
        "addr:street": "S G R Dental College Road",
        "leisure": "fitness_centre",
        "name": "Shapes Gym",
        "opening_hours": "6:00-21:00",
        "phone": "8884589448"
      }
    },
    {
      "type": "node",
      "id": 4635146942,
      "lat": 12.9487521,
      "lon": 77.7092076,
      "tags": {
        "name": "Grand Mini Bazaar",
        "shop": "supermarket"
      }
    },
    {
      "type": "node",
      "id": 4635146966,
      "lat": 12.9559476,
      "lon": 77.711571,
      "tags": {
        "amenity": "fast_food",
        "brand": "Domino's",
        "brand:ks": "ڈومینوز",
        "brand:pa": "ਡੋਮੀਨੋਜ਼",
        "brand:ur": "ڈومینوز",
        "brand:wikidata": "Q839466",
        "brand:wikipedia": "en:Domino's Pizza",
        "cuisine": "pizza",
        "name": "Domino's",
        "name:kn": "ಡಾಮಿನೋಸ್",
        "name:ks": "ڈومینوز",
        "name:pa": "ਡੋਮੀਨੋਜ਼",
        "name:ur": "ڈومینوز",
        "takeaway": "yes"
      }
    },
    {
      "type": "node",
      "id": 4635146994,
      "lat": 12.9487476,
      "lon": 77.7084681,
      "tags": {
        "name": "KMF stall",
        "shop": "dairy"
      }
    },
    {
      "type": "node",
      "id": 4635147127,
      "lat": 12.9489483,
      "lon": 77.7081017,
      "tags": {
        "name": "Sangam sweets",
        "shop": "bakery"
      }
    },
    {
      "type": "node",
      "id": 4635147128,
      "lat": 12.9489389,
      "lon": 77.7083529,
      "tags": {
        "amenity": "pharmacy"
      }
    },
    {
      "type": "node",
      "id": 4697503711,
      "lat": 12.9487043,
      "lon": 77.7045923,
      "tags": {
        "addr:street": "S G R Dental College Road",
        "amenity": "place_of_worship",
        "name": "Mar Thoma Church",
        "name:kn": "ಮರ್ ತೋಮ ಚರ್ಚ್",
        "religion": "christian"
      }
    },
    {
      "type": "node",
      "id": 4697503712,
      "lat": 12.9470757,
      "lon": 77.703573,
      "tags": {
        "addr:city": "Bangalore",
        "addr:housenumber": "5th Cross",
        "addr:postcode": "560037",
        "addr:street": "S G R Dental College Road",
        "name": "RK Bakery",
        "shop": "bakery"
      }
    },
    {
      "type": "node",
      "id": 5122060721,
      "lat": 12.9519348,
      "lon": 77.7027723,
      "tags": {
        "shop": "department_store"
      }
    },
    {
      "type": "node",
      "id": 5283774965,
      "lat": 12.9486296,
      "lon": 77.7156074,
      "tags": {
        "amenity": "restaurant",
        "name": "Sri Lakshmi Vaibav Hotel"
      }
    },
    {
      "type": "node",
      "id": 5967273100,
      "lat": 12.9555768,
      "lon": 77.7144617,
      "tags": {
        "addr:street": "Varthur Road",
        "brand": "Bhima Jewellers",
        "brand:wikidata": "Q17004889",
        "name": "Bhima Jewellers",
        "operator": "Bhima",
        "shop": "jewelry",
        "website": "https://www.bhima.in"
      }
    },
    {
      "type": "node",
      "id": 5988311580,
      "lat": 12.9497607,
      "lon": 77.6997785,
      "tags": {
        "addr:city": "Marathahalli, Bangalore",
        "addr:housenumber": "90/4 Above ICICI Bank 3rd Floor",
        "addr:postcode": "560037",
        "addr:street": "Outer Ring Road",
        "amenity": "prep_school",
        "description": "ertification Courses in Bangalore, Best Training in Bangalore, IT Courses Training in Bangalore, Training Courses Center in Bangalore, IT Training Institutes in Bangalore, Training in Bangalore, IT Course in Bangalore",
        "email": "sgraph.bnglr@gmail.com",
        "name": "Sgraph Infotech",
        "phone": "9620885025",
        "website": "http://www.sgraphinfotech.com/"
      }
    },
    {
      "type": "node",
      "id": 6690503527,
      "lat": 12.9512385,
      "lon": 77.7154097,
      "tags": {
        "addr:city": "Bangalore",
        "addr:postcode": "560037",
        "addr:street": "SAi Baba Temple Road",
        "amenity": "cafe",
        "cuisine": "sandwich;ice_cream",
        "internet_access": "no",
        "name": "Lassi Corner",
        "outdoor_seating": "yes"
      }
    },
    {
      "type": "node",
      "id": 6690503530,
      "lat": 12.9502438,
      "lon": 77.7155138,
      "tags": {
        "addr:city": "Bangalore",
        "addr:postcode": "560037",
        "addr:street": "Sai Baba Temple Road",
        "amenity": "cafe",
        "cuisine": "juice",
        "internet_access": "no",
        "name": "Energizer",
        "outdoor_seating": "no"
      }
    },
    {
      "type": "node",
      "id": 6690507097,
      "lat": 12.9496783,
      "lon": 77.7155698,
      "tags": {
        "addr:city": "Bangalore",
        "addr:postcode": "560037",
        "addr:street": "Sai Baba temple Road",
        "leisure": "fitness_centre",
        "name": "BurnOut Fitness",
        "sport": "Zumba;gym"
      }
    },
    {
      "type": "node",
      "id": 6938889541,
      "lat": 12.9551501,
      "lon": 77.7051643,
      "tags": {
        "addr:district": "Bengaluru Urban",
        "addr:full": "#103, Munnekolal, Verthur Road, Marthahalli Post",
        "addr:postcode": "560037",
        "addr:state": "Karnataka",
        "amenity": "hospital",
        "name": "Lions Airport City Hospital",
        "source": "OpenGovernmentData"
      }
    },
    {
      "type": "node",
      "id": 9810748011,
      "lat": 12.9518521,
      "lon": 77.7001674,
      "tags": {
        "amenity": "restaurant",
        "name": "Sri Udupi Park"
      }
    },
    {
      "type": "node",
      "id": 9862549613,
      "lat": 12.9483579,
      "lon": 77.6995725,
      "tags": {
        "air_conditioning": "yes",
        "amenity": "cafe",
        "brand": "Chai Point",
        "brand:wikidata": "Q28173415",
        "check_date": "2023-08-05",
        "cuisine": "coffee_shop",
        "diet:vegetarian": "yes",
        "indoor_seating": "yes",
        "name": "Chai Point",
        "outdoor_seating": "no",
        "smoking": "no",
        "takeaway": "yes"
      }
    },
    {
      "type": "node",
      "id": 9907630895,
      "lat": 12.9556256,
      "lon": 77.7143746,
      "tags": {
        "amenity": "pub",
        "check_date": "2025-09-03",
        "name": "Gilly's",
        "wheelchair": "no"
      }
    },
    {
      "type": "node",
      "id": 9920825248,
      "lat": 12.9557749,
      "lon": 77.712302,
      "tags": {
        "amenity": "bureau_de_change",
        "name": "Oak Forex"
      }
    },
    {
      "type": "node",
      "id": 9921945891,
      "lat": 12.9533575,
      "lon": 77.7004454,
      "tags": {
        "air_conditioning": "yes",
        "amenity": "restaurant",
        "indoor_seating": "yes",
        "name": "Le Arabia",
        "outdoor_seating": "no"
      }
    },
    {
      "type": "node",
      "id": 9922275694,
      "lat": 12.9505181,
      "lon": 77.6998945,
      "tags": {
        "amenity": "restaurant",
        "check_date": "2023-07-20",
        "indoor_seating": "yes",
        "name": "Leon Grill",
        "outdoor_seating": "no",
        "smoking": "no",
        "source": "survey"
      }
    },
    {
      "type": "node",
      "id": 10560318075,
      "lat": 12.9508641,
      "lon": 77.6999032,
      "tags": {
        "amenity": "fast_food",
        "brand": "Five Star Chicken",
        "brand:wikidata": "Q127784422",
        "cuisine": "chicken",
        "delivery": "yes",
        "name": "Five Star Chicken",
        "takeaway": "yes"
      }
    },
    {
      "type": "node",
      "id": 10676221168,
      "lat": 12.9556822,
      "lon": 77.7125439,
      "tags": {
        "brand": "Zudio",
        "brand:wikidata": "Q123375926",
        "check_date": "2025-09-03",
        "name": "Zudio",
        "shop": "clothes"
      }
    },
    {
      "type": "node",
      "id": 10894000280,
      "lat": 12.9496804,
      "lon": 77.7154773,
      "tags": {
        "name": "Pepper Leaf",
        "shop": "furniture"
      }
    },
    {
      "type": "node",
      "id": 11091793275,
      "lat": 12.9478749,
      "lon": 77.6993722,
      "tags": {
        "air_conditioning": "yes",
        "brand": "Tanishq",
        "brand:en": "Tanishq",
        "brand:wikidata": "Q13117711",
        "check_date": "2025-07-04",
        "internet_access": "no",
        "level": "0;1",
        "name": "Tanishq",
        "name:en": "Tanishq",
        "opening_hours": "10:30-20:00",
        "payment:credit_cards": "yes",
        "payment:debit_cards": "yes",
        "second_hand": "no",
        "shop": "jewelry",
        "stroller": "no",
        "toilets": "yes",
        "wheelchair": "no"
      }
    },
    {
      "type": "node",
      "id": 11091793276,
      "lat": 12.9482616,
      "lon": 77.6995071,
      "tags": {
        "brand": "Lenskart",
        "brand:wikidata": "Q17068753",
        "check_date": "2025-07-04",
        "name": "Lenskart",
        "payment:cash": "yes",
        "payment:credit_cards": "yes",
        "payment:debit_cards": "yes",
        "shop": "optician",
        "source": "survey",
        "wheelchair": "no"
      }
    },
    {
      "type": "node",
      "id": 11091793277,
      "lat": 12.948416,
      "lon": 77.6995832,
      "tags": {
        "amenity": "restaurant",
        "check_date": "2023-08-05",
        "indoor_seating": "yes",
        "name": "Narmada",
        "outdoor_seating": "no"
      }
    },
    {
      "type": "node",
      "id": 11091793278,
      "lat": 12.9483972,
      "lon": 77.6995419,
      "tags": {
        "check_date": "2023-08-05",
        "name": "Caratlane",
        "payment:credit_cards": "yes",
        "payment:debit_cards": "yes",
        "shop": "jewelry"
      }
    },
    {
      "type": "node",
      "id": 11091793279,
      "lat": 12.9481825,
      "lon": 77.6994806,
      "tags": {
        "check_date": "2025-07-04",
        "name": "Reliance Jewels",
        "payment:cash": "yes",
        "payment:credit_cards": "yes",
        "payment:debit_cards": "yes",
        "shop": "jewelry",
        "source": "survey",
        "wheelchair": "no"
      }
    },
    {
      "type": "node",
      "id": 11091793280,
      "lat": 12.9481479,
      "lon": 77.6994712,
      "tags": {
        "amenity": "restaurant",
        "check_date": "2023-08-05",
        "indoor_seating": "yes",
        "name": "Dindigul Thalappakatti",
        "outdoor_seating": "no",
        "payment:credit_cards": "yes",
        "payment:debit_cards": "yes",
        "smoking": "no",
        "source": "survey"
      }
    },
    {
      "type": "node",
      "id": 11091793281,
      "lat": 12.9479499,
      "lon": 77.6993993,
      "tags": {
        "brand": "Samsung",
        "brand:wikidata": "Q20718",
        "check_date": "2023-08-15",
        "name": "Samsung SmartPlaza - ABM Incorporation",
        "payment:credit_cards": "yes",
        "payment:debit_cards": "yes",
        "shop": "electronics",
        "wheelchair": "no"
      }
    },
    {
      "type": "node",
      "id": 11091793282,
      "lat": 12.9479011,
      "lon": 77.6993831,
      "tags": {
        "check_date": "2023-08-15",
        "name": "Mia by Tanishq",
        "opening_hours": "Mo-Su 10:30-20:00",
        "payment:credit_cards": "yes",
        "payment:debit_cards": "yes",
        "shop": "jewelry",
        "wheelchair": "no"
      }
    },
    {
      "type": "node",
      "id": 11091793284,
      "lat": 12.9484875,
      "lon": 77.6995739,
      "tags": {
        "check_date": "2023-08-05",
        "name": "Manyavar & Mohey",
        "payment:credit_cards": "yes",
        "payment:debit_cards": "yes",
        "shop": "clothes",
        "source": "survey"
      }
    },
    {
      "type": "node",
      "id": 11091793285,
      "lat": 12.9480099,
      "lon": 77.6994392,
      "tags": {
        "amenity": "restaurant",
        "check_date": "2023-08-15",
        "indoor_seating": "yes",
        "level": "2",
        "name": "Gismat Jail Mandi",
        "outdoor_seating": "no",
        "payment:credit_cards": "yes",
        "payment:debit_cards": "yes",
        "wheelchair": "no"
      }
    },
    {
      "type": "node",
      "id": 11265893585,
      "lat": 12.9487,
      "lon": 77.7090814,
      "tags": {
        "name": "R K Electrical shop",
        "shop": "yes"
      }
    },
    {
      "type": "node",
      "id": 11265893586,
      "lat": 12.9486552,
      "lon": 77.7091227,
      "tags": {
        "name": "Vegetable shop",
        "shop": "yes"
      }
    },
    {
      "type": "node",
      "id": 11265893587,
      "lat": 12.9486149,
      "lon": 77.709117,
      "tags": {
        "name": "Bakery",
        "shop": "bakery"
      }
    },
    {
      "type": "node",
      "id": 11265893588,
      "lat": 12.9485366,
      "lon": 77.7091066,
      "tags": {
        "name": "Tent Shop",
        "shop": "yes"
      }
    },
    {
      "type": "node",
      "id": 11265893589,
      "lat": 12.9484717,
      "lon": 77.7090951,
      "tags": {
        "name": "Hardware and Sanitary Store",
        "shop": "yes"
      }
    },
    {
      "type": "node",
      "id": 11265893590,
      "lat": 12.9483945,
      "lon": 77.709102,
      "tags": {
        "name": "Hot Chips and Mixture shop",
        "shop": "yes"
      }
    },
    {
      "type": "node",
      "id": 11265893591,
      "lat": 12.9483587,
      "lon": 77.7091009,
      "tags": {
        "name": "Travels and DTH recharge",
        "shop": "yes"
      }
    },
    {
      "type": "node",
      "id": 11265911717,
      "lat": 12.9473511,
      "lon": 77.7089272,
      "tags": {
        "check_date": "2025-06-13",
        "office": "estate_agent",
        "shop": "estate_agent"
      }
    },
    {
      "type": "node",
      "id": 11265911718,
      "lat": 12.9482473,
      "lon": 77.7090971,
      "tags": {
        "name": "Hi Tech Stationery and Fancy Store",
        "shop": "yes"
      }
    },
    {
      "type": "node",
      "id": 11738548025,
      "lat": 12.9557376,
      "lon": 77.7147202,
      "tags": {
        "amenity": "post_box",
        "operator": "India Post",
        "operator:wikidata": "Q3519720"
      }
    },
    {
      "type": "node",
      "id": 11811087976,
      "lat": 12.9506397,
      "lon": 77.6999903,
      "tags": {
        "amenity": "restaurant",
        "cuisine": "burger",
        "delivery": "yes",
        "name": "Mr. Philly's American Cheeseburgers",
        "takeaway": "yes"
      }
    },
    {
      "type": "node",
      "id": 12049142299,
      "lat": 12.9518751,
      "lon": 77.7002187,
      "tags": {
        "amenity": "restaurant",
        "indoor_seating": "yes",
        "name": "The Ramanatheswaram Cafe",
        "outdoor_seating": "no"
      }
    },
    {
      "type": "node",
      "id": 12078774435,
      "lat": 12.9471553,
      "lon": 77.6991682,
      "tags": {
        "amenity": "restaurant",
        "bar": "yes",
        "check_date": "2025-07-04",
        "indoor_seating": "yes",
        "name": "An Te Ra",
        "outdoor_seating": "no",
        "payment:cash": "yes",
        "payment:credit_cards": "yes",
        "payment:debit_cards": "yes",
        "source": "survey",
        "wheelchair": "no"
      }
    },
    {
      "type": "node",
      "id": 12325165986,
      "lat": 12.9509819,
      "lon": 77.7034443,
      "tags": {
        "amenity": "fast_food",
        "check_date": "2024-11-09",
        "drive_through": "yes",
        "name": "Kumar Karam Dosa"
      }
    },
    {
      "type": "node",
      "id": 12343238235,
      "lat": 12.9485879,
      "lon": 77.70172,
      "tags": {
        "name": "Raj Provisions Store",
        "shop": "convenience"
      }
    },
    {
      "type": "node",
      "id": 12366484704,
      "lat": 12.9490035,
      "lon": 77.7014557,
      "tags": {
        "check_date": "2024-11-15",
        "name": "New Keerthi Bakery",
        "shop": "bakery"
      }
    },
    {
      "type": "node",
      "id": 12366484705,
      "lat": 12.9494209,
      "lon": 77.7016398,
      "tags": {
        "brand": "7-Eleven",
        "brand:wikidata": "Q259340",
        "check_date": "2024-11-15",
        "name": "7-Eleven",
        "shop": "convenience"
      }
    },
    {
      "type": "node",
      "id": 12366484706,
      "lat": 12.9496859,
      "lon": 77.7015241,
      "tags": {
        "amenity": "pharmacy",
        "check_date": "2024-11-15",
        "healthcare": "pharmacy",
        "name": "Ram Medicals"
      }
    },
    {
      "type": "node",
      "id": 12366484707,
      "lat": 12.9498195,
      "lon": 77.7008092,
      "tags": {
        "amenity": "pharmacy",
        "brand": "MedPlus",
        "brand:wikidata": "Q65684234",
        "check_date": "2024-11-15",
        "healthcare": "pharmacy",
        "name": "MedPlus"
      }
    },
    {
      "type": "node",
      "id": 12366484708,
      "lat": 12.9500379,
      "lon": 77.700756,
      "tags": {
        "check_date": "2024-11-15",
        "clothes": "underwear",
        "name": "Ramdev Fashion Zone",
        "shop": "clothes"
      }
    },
    {
      "type": "node",
      "id": 12506480655,
      "lat": 12.9532625,
      "lon": 77.7151999,
      "tags": {
        "amenity": "bank",
        "atm": "yes",
        "brand": "HDFC Bank",
        "brand:wikidata": "Q631047",
        "name": "HDFC Bank",
        "name:kn": "ಎಚ್ ಡಿ ಎಫ್ ಸಿ",
        "short_name": "HDFC"
      }
    },
    {
      "type": "node",
      "id": 12538080538,
      "lat": 12.9457917,
      "lon": 77.7105538,
      "tags": {
        "amenity": "atm",
        "brand": "State Bank of India",
        "brand:wikidata": "Q1340361",
        "operator": "State Bank of India",
        "operator:wikidata": "Q1340361",
        "short_name": "SBI"
      }
    },
    {
      "type": "node",
      "id": 12539122837,
      "lat": 12.950865,
      "lon": 77.7000867,
      "tags": {
        "amenity": "restaurant",
        "name": "Helen's Place"
      }
    },
    {
      "type": "node",
      "id": 12795811355,
      "lat": 12.9469174,
      "lon": 77.6992165,
      "tags": {
        "amenity": "restaurant",
        "bar": "yes",
        "name": "Shift Rooftop Bar & Kitchen",
        "outdoor_seating": "roof"
      }
    },
    {
      "type": "node",
      "id": 13071984336,
      "lat": 12.9507765,
      "lon": 77.7154034,
      "tags": {
        "amenity": "fast_food",
        "check_date": "2025-08-09",
        "name": "Kalinga"
      }
    },
    {
      "type": "node",
      "id": 13071984337,
      "lat": 12.9505546,
      "lon": 77.7154416,
      "tags": {
        "check_date": "2025-08-09",
        "name": "KPN Fresh",
        "shop": "greengrocer"
      }
    },
    {
      "type": "node",
      "id": 13288585565,
      "lat": 12.9509627,
      "lon": 77.7001091,
      "tags": {
        "amenity": "bar",
        "name": "One Floor Down"
      }
    },
    {
      "type": "way",
      "id": 44883673,
      "center": {
        "lat": 12.9443843,
        "lon": 77.7100884
      },
      "tags": {
        "addr:city": "Munnekolalu, Marathahalli",
        "addr:housenumber": "77/2",
        "addr:postcode": "560037",
        "amenity": "school",
        "barrier": "wall",
        "email": "info@vvi.edu.in",
        "name": "Vagdevi Vilas School",
        "name:kn": "ವಾಗ್ದೇವಿ ವಿಲಾಸ ಶಾಲೆ",
        "phone": "+91-80-6560 5850;+91-80-2849 5850;+91-80-2849 5851",
        "website": "https://vvi.edu.in/"
      }
    },
    {
      "type": "way",
      "id": 140997492,
      "center": {
        "lat": 12.955008,
        "lon": 77.7130862
      },
      "tags": {
        "building": "retail",
        "name": "LightsPro",
        "shop": "gift"
      }
    },
    {
      "type": "way",
      "id": 144506697,
      "center": {
        "lat": 12.9447836,
        "lon": 77.7103242
      },
      "tags": {
        "leisure": "pitch",
        "surface": "sand"
      }
    },
    {
      "type": "way",
      "id": 144528755,
      "center": {
        "lat": 12.944508,
        "lon": 77.7099553
      },
      "tags": {
        "leisure": "pitch",
        "sport": "basketball"
      }
    },
    {
      "type": "way",
      "id": 144528760,
      "center": {
        "lat": 12.944766,
        "lon": 77.7099523
      },
      "tags": {
        "amenity": "fast_food",
        "building": "yes",
        "fast_food": "cafeteria",
        "name": "Vagdevi School Canteen",
        "name:kn": "ವಾಗ್ದೇವಿ ಸ್ಕೂಲ್ ಕ್ಯಾಂಟೀನ್"
      }
    },
    {
      "type": "way",
      "id": 174046849,
      "center": {
        "lat": 12.9518935,
        "lon": 77.7067568
      },
      "tags": {
        "amenity": "school"
      }
    },
    {
      "type": "way",
      "id": 223045575,
      "center": {
        "lat": 12.9502559,
        "lon": 77.699931
      },
      "tags": {
        "building": "yes",
        "check_date": "2025-09-03",
        "name": "Adishwar",
        "name:kn": "ಅದಿಶ್ವರ್",
        "shop": "electronics",
        "wheelchair": "no"
      }
    },
    {
      "type": "way",
      "id": 223045577,
      "center": {
        "lat": 12.9523885,
        "lon": 77.7003179
      },
      "tags": {
        "amenity": "restaurant",
        "building": "commercial",
        "indoor_seating": "yes",
        "name": "Biryani Zone",
        "name:kn": "ಬಿರಿಯಾನಿ ಜೋನ್",
        "outdoor_seating": "no"
      }
    },
    {
      "type": "way",
      "id": 223045578,
      "center": {
        "lat": 12.9503673,
        "lon": 77.699956
      },
      "tags": {
        "building": "yes",
        "check_date": "2024-03-06",
        "name": "Featherlite Furniture",
        "shop": "furniture"
      }
    },
    {
      "type": "way",
      "id": 223045582,
      "center": {
        "lat": 12.9488822,
        "lon": 77.6996955
      },
      "tags": {
        "building": "yes",
        "building:levels": "4",
        "check_date": "2023-08-05",
        "disused:shop": "furniture",
        "name": "Bluestone Jewellery",
        "shop": "jewelry"
      }
    },
    {
      "type": "way",
      "id": 223045583,
      "center": {
        "lat": 12.9531178,
        "lon": 77.7004459
      },
      "tags": {
        "building": "yes",
        "building:levels": "4",
        "name": "Sofa & More",
        "shop": "furniture",
        "wheelchair": "no"
      }
    },
    {
      "type": "way",
      "id": 223045598,
      "center": {
        "lat": 12.948681,
        "lon": 77.6996665
      },
      "tags": {
        "addr:city": "Marathahalli, Bangalore",
        "building": "retail",
        "building:levels": "3",
        "check_date": "2025-07-04",
        "level": "0;1;2",
        "name": "Pai Electronics",
        "payment:cash": "yes",
        "payment:credit_cards": "yes",
        "payment:debit_cards": "yes",
        "shop": "electronics"
      }
    },
    {
      "type": "way",
      "id": 223045609,
      "center": {
        "lat": 12.9499459,
        "lon": 77.6998972
      },
      "tags": {
        "addr:city": "Marathahalli, Bangalore",
        "building": "retail",
        "check_date": "2025-07-04",
        "name": "Livspace",
        "shop": "interior_decoration"
      }
    },
    {
      "type": "way",
      "id": 232853563,
      "center": {
        "lat": 12.9443674,
        "lon": 77.7105774
      },
      "tags": {
        "leisure": "swimming_pool",
        "sport": "swimming"
      }
    },
    {
      "type": "way",
      "id": 259894700,
      "center": {
        "lat": 12.9533244,
        "lon": 77.7149448
      },
      "tags": {
        "amenity": "school",
        "building": "yes",
        "name": "Sarah Montessori"
      }
    },
    {
      "type": "way",
      "id": 259894713,
      "center": {
        "lat": 12.9483642,
        "lon": 77.7133483
      },
      "tags": {
        "amenity": "place_of_worship",
        "building": "yes",
        "denomination": "hindu",
        "name": "Shirdi Sai Baba Temple",
        "name:kn": "ಶಿರ್ಡಿ ಸಾಯಿಬಾಬಾ ದೇವಸ್ಥಾನ",
        "religion": "hindu"
      }
    },
    {
      "type": "way",
      "id": 262198741,
      "center": {
        "lat": 12.9555043,
        "lon": 77.7053083
      },
      "tags": {
        "amenity": "hospital",
        "building": "yes",
        "healthcare": "hospital",
        "name": "Lions Seva Hospital"
      }
    },
    {
      "type": "way",
      "id": 343744205,
      "center": {
        "lat": 12.9509291,
        "lon": 77.7000384
      },
      "tags": {
        "building": "commercial",
        "shop": "yes"
      }
    },
    {
      "type": "way",
      "id": 343747366,
      "center": {
        "lat": 12.9514691,
        "lon": 77.7022339
      },
      "tags": {
        "building": "yes",
        "name": "Mahindra Auto Service Center",
        "shop": "car_repair"
      }
    },
    {
      "type": "way",
      "id": 346740473,
      "center": {
        "lat": 12.9517972,
        "lon": 77.7007287
      },
      "tags": {
        "addr:city": "Bangalore",
        "addr:country": "IN",
        "addr:housenumber": "108/2",
        "addr:postcode": "560037",
        "addr:street": "1st Main Road",
        "addr:suburb": "Marathahalli",
        "amenity": "pub",
        "building": "yes",
        "contact:facebook": "Long-Boat-Brewery",
        "contact:instagram": "longboat.brewery",
        "email": "contact@longboatbrewing.com",
        "name": "Long Boat Brewing Co.",
        "opening_hours": "12:00-01:00",
        "phone": "+91 080473 60054",
        "website": "https://www.longboatbrewing.com/"
      }
    },
    {
      "type": "way",
      "id": 346777554,
      "center": {
        "lat": 12.9480088,
        "lon": 77.7086993
      },
      "tags": {
        "amenity": "place_of_worship",
        "name": "Lakshmi Narayana Temple",
        "name:kn": "ಲಕ್ಷ್ಮೀನಾರಾಯಣ ದೇವಸ್ಥಾನ",
        "religion": "hindu"
      }
    },
    {
      "type": "way",
      "id": 346797021,
      "center": {
        "lat": 12.9558154,
        "lon": 77.7081084
      },
      "tags": {
        "leisure": "swimming_pool"
      }
    },
    {
      "type": "way",
      "id": 346829024,
      "center": {
        "lat": 12.953485,
        "lon": 77.708708
      },
      "tags": {
        "amenity": "place_of_worship",
        "building": "yes",
        "name": "Muneshwara Swami Temple",
        "name:kn": "ಮುನೇಶ್ವರ ಸ್ವಾಮಿ ದೇವಾಲಯ",
        "religion": "hindu"
      }
    },
    {
      "type": "way",
      "id": 346829260,
      "center": {
        "lat": 12.9482875,
        "lon": 77.7079487
      },
      "tags": {
        "amenity": "place_of_worship",
        "building": "yes",
        "name": "Mariyamma Temple",
        "name:kn": "ಮಾರಿಯಮ್ಮ ದೇವಸ್ಥಾನ",
        "religion": "hindu"
      }
    },
    {
      "type": "way",
      "id": 347971457,
      "center": {
        "lat": 12.9488166,
        "lon": 77.6996797
      },
      "tags": {
        "building": "yes",
        "check_date": "2023-08-05",
        "name": "Milan Furniture Store",
        "shop": "furniture"
      }
    },
    {
      "type": "way",
      "id": 401595339,
      "center": {
        "lat": 12.9456431,
        "lon": 77.7109554
      },
      "tags": {
        "building": "yes",
        "name": "Ayyappa Bakery",
        "name:kn": "ಅಯ್ಯಪ್ಪ ಬೇಕರಿ",
        "shop": "bakery"
      }
    },
    {
      "type": "way",
      "id": 401595340,
      "center": {
        "lat": 12.9457189,
        "lon": 77.7109769
      },
      "tags": {
        "building": "yes",
        "name": "Smile Super Market",
        "shop": "supermarket"
      }
    },
    {
      "type": "way",
      "id": 469369830,
      "center": {
        "lat": 12.9495413,
        "lon": 77.7027147
      },
      "tags": {
        "amenity": "place_of_worship",
        "building": "yes",
        "name": "Ganesha Temple",
        "name:kn": "ಗಣೇಶ ದೇವಸ್ಥಾನ",
        "religion": "hindu"
      }
    },
    {
      "type": "way",
      "id": 476030209,
      "center": {
        "lat": 12.9471035,
        "lon": 77.7014593
      },
      "tags": {
        "amenity": "school",
        "name": "Chaintanya School",
        "name:kn": "ಚೈತನ್ಯ ಶಾಲೆ"
      }
    },
    {
      "type": "way",
      "id": 1066506649,
      "center": {
        "lat": 12.9513535,
        "lon": 77.7014649
      },
      "tags": {
        "building": "yes",
        "fee": "yes",
        "leisure": "sports_centre",
        "name": "Orchid Sports Academy",
        "phone": "+91 090193 44999",
        "sport": "badminton"
      }
    },
    {
      "type": "way",
      "id": 1085409205,
      "center": {
        "lat": 12.9534504,
        "lon": 77.7124313
      },
      "tags": {
        "leisure": "swimming_pool"
      }
    },
    {
      "type": "way",
      "id": 1085409208,
      "center": {
        "lat": 12.9528571,
        "lon": 77.7124862
      },
      "tags": {
        "access": "private",
        "leisure": "swimming_pool"
      }
    },
    {
      "type": "way",
      "id": 1085409220,
      "center": {
        "lat": 12.9556043,
        "lon": 77.7109803
      },
      "tags": {
        "access": "private",
        "leisure": "swimming_pool"
      }
    },
    {
      "type": "way",
      "id": 1193082966,
      "center": {
        "lat": 12.9554768,
        "lon": 77.7117502
      },
      "tags": {
        "amenity": "restaurant",
        "building": "commercial",
        "contact:instagram": "zodiacbarandkitchen",
        "name": "Zodiac Bar and Kitchen",
        "smoking": "separated"
      }
    },
    {
      "type": "way",
      "id": 1194928870,
      "center": {
        "lat": 12.9562737,
        "lon": 77.7063517
      },
      "tags": {
        "building": "yes",
        "name": "Mandava",
        "shop": "jewelry"
      }
    },
    {
      "type": "way",
      "id": 1215908727,
      "center": {
        "lat": 12.9470775,
        "lon": 77.7088212
      },
      "tags": {
        "building": "yes",
        "name": "Sri Sai Jaganath Fruits & Vegetables",
        "shop": "grocery"
      }
    },
    {
      "type": "way",
      "id": 1262043648,
      "center": {
        "lat": 12.9549405,
        "lon": 77.7147246
      },
      "tags": {
        "access": "private",
        "leisure": "swimming_pool"
      }
    },
    {
      "type": "way",
      "id": 1283518588,
      "center": {
        "lat": 12.9511764,
        "lon": 77.7006059
      },
      "tags": {
        "amenity": "parking",
        "parking": "surface"
      }
    },
    {
      "type": "way",
      "id": 1283518591,
      "center": {
        "lat": 12.9516302,
        "lon": 77.7014886
      },
      "tags": {
        "amenity": "parking",
        "parking": "surface"
      }
    },
    {
      "type": "way",
      "id": 1283518592,
      "center": {
        "lat": 12.951704,
        "lon": 77.7011269
      },
      "tags": {
        "amenity": "parking",
        "parking": "surface"
      }
    },
    {
      "type": "way",
      "id": 1283518595,
      "center": {
        "lat": 12.9513922,
        "lon": 77.702803
      },
      "tags": {
        "amenity": "parking",
        "parking": "surface"
      }
    },
    {
      "type": "way",
      "id": 1290202940,
      "center": {
        "lat": 12.9469875,
        "lon": 77.6990939
      },
      "tags": {
        "air_conditioning": "yes",
        "amenity": "fast_food",
        "branch": "Marathahalli",
        "building": "yes",
        "check_date": "2025-07-04",
        "diet:vegetarian": "yes",
        "indoor_seating": "yes",
        "name": "Leon's Burgers & Wings",
        "outdoor_seating": "no",
        "payment:cash": "yes",
        "payment:credit_cards": "yes",
        "payment:debit_cards": "yes",
        "smoking": "no",
        "source": "survey",
        "takeaway": "yes",
        "wheelchair": "no"
      }
    },
    {
      "type": "way",
      "id": 1334165085,
      "center": {
        "lat": 12.9517505,
        "lon": 77.7024581
      },
      "tags": {
        "amenity": "charging_station",
        "brand": "Jio BP",
        "operator": "Jio BP"
      }
    },
    {
      "type": "way",
      "id": 1338993115,
      "center": {
        "lat": 12.9507664,
        "lon": 77.7087812
      },
      "tags": {
        "building": "sports_hall",
        "fee": "yes",
        "leisure": "sports_centre",
        "name": "Rams Sports Arena",
        "sport": "badminton"
      }
    },
    {
      "type": "way",
      "id": 1343417360,
      "center": {
        "lat": 12.9445486,
        "lon": 77.7106268
      },
      "tags": {
        "leisure": "swimming_pool"
      }
    },
    {
      "type": "way",
      "id": 1343417382,
      "center": {
        "lat": 12.9437086,
        "lon": 77.7100059
      },
      "tags": {
        "amenity": "fountain",
        "drinking_water": "no",
        "fountain": "decorative"
      }
    },
    {
      "type": "way",
      "id": 1353077792,
      "center": {
        "lat": 12.95156,
        "lon": 77.700472
      },
      "tags": {
        "access": "customers",
        "amenity": "parking",
        "parking": "surface"
      }
    },
    {
      "type": "way",
      "id": 1396516919,
      "center": {
        "lat": 12.9466011,
        "lon": 77.7106704
      },
      "tags": {
        "building": "yes",
        "name": "Topsy",
        "operator": "Topsy",
        "shop": "supermarket"
      }
    },
    {
      "type": "way",
      "id": 1434043752,
      "center": {
        "lat": 12.9524245,
        "lon": 77.7075672
      },
      "tags": {
        "leisure": "sports_centre",
        "sport": "tennis;basketball"
      }
    },
    {
      "type": "way",
      "id": 1434043775,
      "center": {
        "lat": 12.9536276,
        "lon": 77.706051
      },
      "tags": {
        "access": "private",
        "leisure": "playground"
      }
    },
    {
      "type": "way",
      "id": 1434043776,
      "center": {
        "lat": 12.9536197,
        "lon": 77.7058868
      },
      "tags": {
        "access": "private",
        "leisure": "swimming_pool"
      }
    },
    {
      "type": "way",
      "id": 1443415979,
      "center": {
        "lat": 12.952273,
        "lon": 77.7147319
      },
      "tags": {
        "access": "private",
        "leisure": "playground"
      }
    }
  ]
}