{
  "area_name": "N.S Palya",
  "osm_id": 19883408,
  "osm_type": "relation",
  "place_type": "administrative",
  "amenity_count": 69,
  "amenities": [
    {
      "type": "node",
      "id": 946825833,
      "lat": 12.9066923,
      "lon": 77.6129725,
      "tags": {
        "amenity": "place_of_worship",
        "name": "Lord Shiva Temple",
        "name:kn": "ಶಿವ ದೇವಸ್ಥಾನ",
        "religion": "hindu"
      }
    },
    {
      "type": "node",
      "id": 946825835,
      "lat": 12.9080346,
      "lon": 77.613565,
      "tags": {
        "amenity": "place_of_worship",
        "name": "Masjid Quba",
        "name:kn": "ಕುಬ ಮಸೀದಿ",
        "religion": "muslim"
      }
    },
    {
      "type": "node",
      "id": 946825839,
      "lat": 12.9057731,
      "lon": 77.6125928,
      "tags": {
        "amenity": "place_of_worship",
        "name": "Durga Temple",
        "name:kn": "ದುರ್ಗಾ ದೇವಸ್ಥಾನ",
        "religion": "hindu"
      }
    },
    {
      "type": "node",
      "id": 951203526,
      "lat": 12.9086369,
      "lon": 77.6105652,
      "tags": {
        "amenity": "police",
        "name": "Mico Layout Police Station",
        "name:kn": "ಮಿಕೋ ಬಡಾವಣೆ ಆರಕ್ಷಕ",
        "wheelchair": "yes"
      }
    },
    {
      "type": "node",
      "id": 1388103603,
      "lat": 12.9115937,
      "lon": 77.6062818,
      "tags": {
        "amenity": "pharmacy",
        "healthcare": "pharmacy",
        "name": "Aravind Medicals and General stores"
      }
    },
    {
      "type": "node",
      "id": 1388103622,
      "lat": 12.9106552,
      "lon": 77.6063086,
      "tags": {
        "addr:city": "Bangalore",
        "addr:floor": "1",
        "addr:housenumber": "107",
        "addr:postcode": "560076",
        "addr:street": "7th Main Road",
        "air_conditioning": "no",
        "currency:INR": "yes",
        "internet_access": "no",
        "name": "Homeneeds",
        "opening_hours": "Mo-Su 10:00-22:00",
        "payment:cash": "yes",
        "payment:credit_cards": "yes",
        "payment:debit_cards": "yes",
        "phone": "80-33618025",
        "shop": "supermarket",
        "source": "local knowledge",
        "stroller": "no",
        "toilets": "no",
        "wheelchair": "limited"
      }
    },
    {
      "type": "node",
      "id": 1396823314,
      "lat": 12.9116247,
      "lon": 77.6026978,
      "tags": {
        "amenity": "place_of_worship",
        "name": "Rama Temple",
        "name:kn": "ರಾಮ ದೇವಸ್ಥಾನ",
        "religion": "hindu"
      }
    },
    {
      "type": "node",
      "id": 1397247990,
      "lat": 12.9117638,
      "lon": 77.6010896,
      "tags": {
        "leisure": "sports_centre",
        "name": "Reliance Club"
      }
    },
    {
      "type": "node",
      "id": 1463765899,
      "lat": 12.9062514,
      "lon": 77.6097829,
      "tags": {
        "amenity": "place_of_worship",
        "name": "Madinanagar Mosque",
        "religion": "muslim"
      }
    },
    {
      "type": "node",
      "id": 1727331669,
      "lat": 12.9057909,
      "lon": 77.6072561,
      "tags": {
        "amenity": "car_wash"
      }
    },
    {
      "type": "node",
      "id": 1752304494,
      "lat": 12.9054349,
      "lon": 77.612819,
      "tags": {
        "access": "yes",
        "amenity": "parking",
        "parking": "surface"
      }
    },
    {
      "type": "node",
      "id": 2901127015,
      "lat": 12.9117776,
      "lon": 77.6006489,
      "tags": {
        "addr:street": "2nd Main",
        "amenity": "restaurant",
        "cuisine": "indian",
        "name": "Udupi Krishna Vihar",
        "name:en": "Sri Chaitanya Grand",
        "smoking": "no",
        "wheelchair": "limited"
      }
    },
    {
      "type": "node",
      "id": 3392655752,
      "lat": 12.9116521,
      "lon": 77.6002227,
      "tags": {
        "name": "Girias",
        "name:kn": "ಗಿರ್ಯಾಸ್",
        "shop": "electronics"
      }
    },
    {
      "type": "node",
      "id": 3401671688,
      "lat": 12.9115865,
      "lon": 77.6002227,
      "tags": {
        "amenity": "restaurant",
        "name": "Hotel Aradhana"
      }
    },
    {
      "type": "node",
      "id": 3401695387,
      "lat": 12.9107034,
      "lon": 77.6002334,
      "tags": {
        "shop": "yes"
      }
    },
    {
      "type": "node",
      "id": 3401699861,
      "lat": 12.9109162,
      "lon": 77.600202,
      "tags": {
        "amenity": "fast_food",
        "cuisine": "kebab",
        "name": "New Kabab Zone"
      }
    },
    {
      "type": "node",
      "id": 3401699875,
      "lat": 12.9109842,
      "lon": 77.6001833,
      "tags": {
        "amenity": "fast_food",
        "name": "Brahmashree Juice and Condiments"
      }
    },
    {
      "type": "node",
      "id": 3403067273,
      "lat": 12.9110992,
      "lon": 77.6001886,
      "tags": {
        "amenity": "fast_food",
        "name": "Kebab"
      }
    },
    {
      "type": "node",
      "id": 3403067274,
      "lat": 12.9112404,
      "lon": 77.6001886,
      "tags": {
        "amenity": "bar",
        "building": "restaurant",
        "name": "Sri Nanjundeshwara bar and restaurant"
      }
    },
    {
      "type": "node",
      "id": 3403067275,
      "lat": 12.9113058,
      "lon": 77.6001591,
      "tags": {
        "amenity": "restaurant",
        "building": "restaurant",
        "name": "Shri Lakshmi Darshini"
      }
    },
    {
      "type": "node",
      "id": 3403067459,
      "lat": 12.9112273,
      "lon": 77.6001377,
      "tags": {
        "amenity": "fast_food",
        "name": "Kebab"
      }
    },
    {
      "type": "node",
      "id": 3403067460,
      "lat": 12.9113345,
      "lon": 77.6001135,
      "tags": {
        "amenity": "restaurant",
        "building": "restaurant",
        "name": "Prasanna bar and restaurant"
      }
    },
    {
      "type": "node",
      "id": 3403067697,
      "lat": 12.9110469,
      "lon": 77.6001538,
      "tags": {
        "amenity": "fast_food",
        "name": "Kebab"
      }
    },
    {
      "type": "node",
      "id": 3424841452,
      "lat": 12.9079522,
      "lon": 77.6062306,
      "tags": {
        "amenity": "pharmacy",
        "healthcare": "pharmacy",
        "name": "Reddy's Pharma",
        "wheelchair": "limited"
      }
    },
    {
      "type": "node",
      "id": 3424841457,
      "lat": 12.9090104,
      "lon": 77.606404,
      "tags": {
        "amenity": "pharmacy",
        "brand": "Apollo Pharmacy",
        "brand:wikidata": "Q62562612",
        "healthcare": "pharmacy",
        "name": "Apollo Pharmacy",
        "name:kn": "ಅಪೋಲೋ ಫಾರ್ಮಸಿ"
      }
    },
    {
      "type": "node",
      "id": 4443260812,
      "lat": 12.9077046,
      "lon": 77.6080359,
      "tags": {
        "addr:city": "Bangalore",
        "addr:housenumber": "12, 17th Cross",
        "addr:postcode": "560076",
        "addr:street": "13th Main Road, 2nd Stage, BTM",
        "amenity": "restaurant",
        "cuisine": "regional",
        "name": "North Indian Restaurant",
        "opening_hours": "09:00-00:30",
        "smoking": "no"
      }
    },
    {
      "type": "node",
      "id": 4444988626,
      "lat": 12.9060641,
      "lon": 77.6049776,
      "tags": {
        "addr:city": "bangalore",
        "addr:housenumber": "#349/352/6/1/1",
        "addr:postcode": "560070",
        "addr:street": "Main Road, Chandra Layout, Vijayanagar,",
        "amenity": "hospital",
        "healthcare": "hospital",
        "name": "Anurag Medical Centre"
      }
    },
    {
      "type": "node",
      "id": 4455548989,
      "lat": 12.9060218,
      "lon": 77.6078972,
      "tags": {
        "amenity": "post_box",
        "name": "BlueDart & DHL",
        "name:en": "BlueDart & DHL",
        "wheelchair": "limited"
      }
    },
    {
      "type": "node",
      "id": 4487952843,
      "lat": 12.9102884,
      "lon": 77.6039944,
      "tags": {
        "addr:city": "Bengaluru",
        "addr:district": "Bengaluru",
        "addr:housenumber": "28/1",
        "addr:postcode": "560076",
        "addr:street": "4th Main Road, N.S Palya",
        "name": "M.N.C SPORTS",
        "phone": "09591696131",
        "shop": "sports"
      }
    },
    {
      "type": "node",
      "id": 4489436831,
      "lat": 12.9090478,
      "lon": 77.6062393,
      "tags": {
        "addr:city": "Bangalore",
        "addr:housenumber": "#45",
        "addr:postcode": "560076",
        "addr:street": "7th Main Road, N S Palya, BTM Layout 2nd Stage,",
        "name": "Ramdev Sports",
        "opening_hours": "09:30-21:30",
        "phone": "+917090955586",
        "shop": "sports"
      }
    },
    {
      "type": "node",
      "id": 4489689941,
      "lat": 12.9051928,
      "lon": 77.6113706,
      "tags": {
        "addr:city": "Bangalore",
        "addr:housenumber": "37/1",
        "addr:postcode": "560076",
        "addr:street": "16th Main Road",
        "name": "Heritage Fresh",
        "phone": "(91)-40-44249590",
        "shop": "supermarket",
        "website": "https://www.heritagefoods.in/"
      }
    },
    {
      "type": "node",
      "id": 4970242425,
      "lat": 12.9073289,
      "lon": 77.6108913,
      "tags": {
        "addr:housenumber": "56/57/25",
        "addr:postcode": "560076",
        "addr:street": "16th Main Road",
        "leisure": "fitness_centre",
        "name": "Venus Fitness",
        "name:en": "Venus Fitness",
        "opening_hours": "24/7"
      }
    },
    {
      "type": "node",
      "id": 6347037472,
      "lat": 12.9087935,
      "lon": 77.6045543,
      "tags": {
        "addr:place": "NS palya",
        "amenity": "school",
        "isced:level": "2",
        "name": "GHPS NS Palya",
        "name:kn": "ಸರ್ಕಾರಿ ಹಿರಿಯ ಪ್ರಾಥಮಿಕ ಶಾಲೆ ಎನ್ಎಸ್ ಪಾಳ್ಯ",
        "operator": "Department of Education",
        "school": "primary",
        "wheelchair": "no"
      }
    },
    {
      "type": "node",
      "id": 6347046521,
      "lat": 12.9066742,
      "lon": 77.6109339,
      "tags": {
        "amenity": "school",
        "isced:level": "2",
        "name": "BET Mahadeshwar Nagar",
        "name:kn": "ಬಿ.ಇ.ಟಿ ಮಹದೇಶ್ವರ ನಗರ",
        "operator": "Department of Education",
        "school": "primary"
      }
    },
    {
      "type": "node",
      "id": 6349534102,
      "lat": 12.9116316,
      "lon": 77.6023166,
      "tags": {
        "addr:place": "Byrasandra",
        "amenity": "school",
        "isced:level": "2",
        "name": "Sangameshwara HPS Byrasandra",
        "name:kn": "ಸಂಗಮೇಶ್ವರ ಹಿರಿಯ ಪ್ರಾಥಮಿಕ ಶಾಲೆ ಬೈರಸಂದ್ರ",
        "operator": "Pvt. Aided",
        "school": "primary"
      }
    },
    {
      "type": "node",
      "id": 6406473545,
      "lat": 12.9071902,
      "lon": 77.6067335,
      "tags": {
        "addr:place": "BTM Layout",
        "amenity": "school",
        "isced:level": "2",
        "name": "Hillside Public LPS Ns Palya, B T M Layout W No 65",
        "name:kn": "ಹಿಲ್‌ಸೈಡ್ ಪಬ್ಲಿಕ್ ಕಿರಿಯ ಪ್ರಾಥಮಿಕ ಶಾಲೆ ಎನ್.ಎಸ್ ಪಾಳ್ಯ , ಬಿ.ಟಿ.ಎಂ. ಲೇಔಟ್",
        "operator": "Private Un-Aided",
        "school": "Higher secondary",
        "wheelchair": "limited"
      }
    },
    {
      "type": "node",
      "id": 6406473546,
      "lat": 12.9087576,
      "lon": 77.6025747,
      "tags": {
        "addr:place": "BTM Layout",
        "amenity": "school",
        "isced:level": "2",
        "name": "Sri Balamuri Vidya Samste LPS, B T M Layout W No 65",
        "name:kn": "ಶ್ರೀ ಬಲಮುರಿ ವಿದ್ಯಾ ಸಂಸ್ಥೆ ಕಿರಿಯ ಪ್ರಾಥಮಿಕ ಶಾಲೆ, ಬಿ.ಟಿ.ಎಂ. ಲೇಔಟ್",
        "operator": "Pvt. Unaided",
        "school": "Higher Primary"
      }
    },
    {
      "type": "node",
      "id": 6408161122,
      "lat": 12.9063746,
      "lon": 77.6097578,
      "tags": {
        "amenity": "school",
        "isced:level": "1",
        "name": "GLPS(U) Madina Nagar, B T M Layout W No 65",
        "name:kn": "ಸರ್ಕಾರಿ ಕಿರಿಯ ಪ್ರಾಥಮಿಕ ಶಾಲೆ,ಮದಿನಾ ನಗರ,ಬಿ.ಟಿ.ಎಂ.ಲೇಔಟ್",
        "operator": "Department of Education",
        "school": "primary"
      }
    },
    {
      "type": "node",
      "id": 6408164827,
      "lat": 12.9105841,
      "lon": 77.6008291,
      "tags": {
        "addr:place": "BTM Layout",
        "amenity": "school",
        "isced:level": "3",
        "name": "Green Paschers KHPS Ns Palya, B T M Layout W No 65",
        "name:kn": "ಗ್ರೀನ್ ಪಾಸೇರ್ಸ್ ಕೆಎಚ್ಪಿಎಸ್ ಎನ್ಎಸ್ ಪಾಳ್ಯ, ಬಿ.ಟಿ.ಎಂ ಲೇಔಟ್",
        "operator": "Private Un-Aided",
        "school": "Higher secondary"
      }
    },
    {
      "type": "node",
      "id": 6408863490,
      "lat": 12.9090967,
      "lon": 77.6121578,
      "tags": {
        "addr:place": "BTM Layout",
        "amenity": "school",
        "isced:level": "3",
        "name": "M E S HPS Kuvempunagar, B T M Layout W No 65",
        "name:kn": "ಎಂ.ಇ.ಎಸ್. ಹಿರಿಯ ಪ್ರಾಥಮಿಕ ಶಾಲೆ ಕುವೆಂಪುನಗರ, ಬಿ.ಟಿ.ಎಂ ಲೇಔಟ್",
        "operator": "Private Un-Aided",
        "school": "Higher Secondary"
      }
    },
    {
      "type": "node",
      "id": 6408962857,
      "lat": 12.9061539,
      "lon": 77.6112382,
      "tags": {
        "addr:place": "BTM Layout",
        "amenity": "school",
        "isced:level": "2",
        "name": "Star Ablaze Trust Sch, B T M Layout W No 65",
        "name:kn": "ಸ್ಟಾರ್ ಅಬ್ಲೇಸ್ ಟ್ರಸ್ಟ್ ಶಾಲೆ ,ಬಿ.ಟಿ.ಎಂ ಲೇಔಟ್",
        "operator": "Private Un-Aided",
        "school": "Higher Primary"
      }
    },
    {
      "type": "node",
      "id": 7572669031,
      "lat": 12.9056165,
      "lon": 77.6122688,
      "tags": {
        "addr:district": "Bengaluru Urban",
        "addr:full": "EWS Colony, BTM Layout, Bengaluru",
        "addr:postcode": "560076",
        "addr:state": "Karnataka",
        "amenity": "hospital",
        "name": "Sri Venkateswara Hospital",
        "source": "Local Knowledge"
      }
    },
    {
      "type": "node",
      "id": 7579924749,
      "lat": 12.907377,
      "lon": 77.6040762,
      "tags": {
        "addr:district": "Bengaluru Urban",
        "addr:full": "Abbaappa Layout, BTM Layout, Bengaluru",
        "addr:postcode": "560076",
        "addr:state": "Karnataka",
        "amenity": "clinic",
        "healthcare": "clinic",
        "name": "Ashya Clinic",
        "source": "Local Knowledge"
      }
    },
    {
      "type": "node",
      "id": 7579924782,
      "lat": 12.9082942,
      "lon": 77.6050646,
      "tags": {
        "addr:district": "Bengaluru Urban",
        "addr:full": "Mahadeshwara Nagar, BTM, Bengaluru",
        "addr:postcode": "560076",
        "addr:state": "Karnataka",
        "amenity": "clinic",
        "healthcare": "clinic",
        "name": "Bharat Clinic",
        "source": "Local Knowledge"
      }
    },
    {
      "type": "node",
      "id": 7653024618,
      "lat": 12.9072819,
      "lon": 77.6065286,
      "tags": {
        "amenity": "place_of_worship",
        "name": "ECI Church",
        "religion": "christian",
        "wheelchair": "no"
      }
    },
    {
      "type": "node",
      "id": 7653024619,
      "lat": 12.9061272,
      "lon": 77.611286,
      "tags": {
        "amenity": "place_of_worship",
        "name": "Kerala Mosque",
        "religion": "muslim"
      }
    },
    {
      "type": "node",
      "id": 11683469597,
      "lat": 12.9059999,
      "lon": 77.6126561,
      "tags": {
        "amenity": "restaurant",
        "check_date": "2024-03-02",
        "internet_access": "no",
        "name": "Salt Lake",
        "payment:cash": "yes",
        "payment:credit_cards": "yes",
        "payment:debit_cards": "yes",
        "wheelchair": "no"
      }
    },
    {
      "type": "node",
      "id": 11683480459,
      "lat": 12.9053681,
      "lon": 77.6115665,
      "tags": {
        "check_date": "2024-03-02",
        "description": "BTM 2nd stage",
        "internet_access": "no",
        "name": "Royal Enfield Service Centre",
        "payment:cash": "yes",
        "payment:credit_cards": "yes",
        "payment:debit_cards": "yes",
        "phone": "+91 79960 00040",
        "shop": "motorcycle_repair",
        "wheelchair": "no"
      }
    },
    {
      "type": "node",
      "id": 11683480460,
      "lat": 12.9053934,
      "lon": 77.6114094,
      "tags": {
        "check_date": "2024-03-02",
        "internet_access": "no",
        "name": "Wheels On Street",
        "payment:cash": "yes",
        "payment:credit_cards": "yes",
        "payment:debit_cards": "yes",
        "phone": "+91 98869 79622",
        "shop": "motorcycle",
        "wheelchair": "yes"
      }
    },
    {
      "type": "node",
      "id": 11683480461,
      "lat": 12.9052408,
      "lon": 77.6115512,
      "tags": {
        "brand": "Royal Enfield",
        "brand:wikidata": "Q2668720",
        "check_date": "2024-03-02",
        "internet_access": "wlan",
        "internet_access:fee": "customers",
        "name": "Royal Enfield Showroom",
        "payment:cash": "yes",
        "payment:credit_cards": "yes",
        "payment:debit_cards": "yes",
        "shop": "motorcycle",
        "wheelchair": "no"
      }
    },
    {
      "type": "node",
      "id": 11683483665,
      "lat": 12.905095,
      "lon": 77.612091,
      "tags": {
        "amenity": "pharmacy",
        "check_date": "2024-03-02",
        "healthcare": "pharmacy",
        "internet_access": "no",
        "name": "Asha Pharma",
        "payment:cash": "yes",
        "payment:credit_cards": "yes",
        "payment:debit_cards": "yes",
        "wheelchair": "yes"
      }
    },
    {
      "type": "node",
      "id": 11946809266,
      "lat": 12.9069046,
      "lon": 77.6040856,
      "tags": {
        "name": "Olive Mart Supermarket",
        "shop": "supermarket",
        "wheelchair": "no"
      }
    },
    {
      "type": "node",
      "id": 12208522216,
      "lat": 12.9071301,
      "lon": 77.6130988,
      "tags": {
        "amenity": "cafe",
        "contact:instagram": "brewinguntoldstories",
        "cuisine": "coffee_shop",
        "name": "Brewing Untold Stories"
      }
    },
    {
      "type": "node",
      "id": 12338274501,
      "lat": 12.9053383,
      "lon": 77.6105791,
      "tags": {
        "addr:postcode": "560076",
        "addr:street": "13th Main Road",
        "amenity": "restaurant",
        "name": "Rbp Greens garden bar and restaurant"
      }
    },
    {
      "type": "node",
      "id": 13130546131,
      "lat": 12.9072691,
      "lon": 77.6059652,
      "tags": {
        "addr:city": "Bengaluru",
        "addr:district": "Bengaluru Urban",
        "addr:housenumber": "9-8",
        "addr:postcode": "560076",
        "addr:street": "19th Cross Road",
        "leisure": "fitness_centre",
        "name": "Jaguar Fitness",
        "opening_hours": "Mo-Sa 05:00-24:00. Su 05:00-22:00",
        "phone": "9986777944",
        "sport": "fitness;gymnastics;yoga;exercise"
      }
    },
    {
      "type": "node",
      "id": 13130546132,
      "lat": 12.9072633,
      "lon": 77.6060977,
      "tags": {
        "addr:city": "Bengaluru",
        "addr:district": "Bengaluru Urban",
        "addr:housenumber": "256/1-4",
        "addr:postcode": "560076",
        "addr:street": "7th Main Road",
        "name": "VMart Supermarket",
        "opening_hours": "Mo-Su 10:00-21:30",
        "payment:cash": "yes",
        "payment:contactless": "yes",
        "payment:credit_cards": "yes",
        "payment:debit_cards": "yes",
        "payment:google_pay": "yes",
        "payment:mastercard": "yes",
        "payment:paypal": "yes",
        "payment:visa": "yes",
        "shop": "supermarket"
      }
    },
    {
      "type": "way",
      "id": 81254175,
      "center": {
        "lat": 12.9086692,
        "lon": 77.6120175
      },
      "tags": {
        "access": "customers",
        "leisure": "playground"
      }
    },
    {
      "type": "way",
      "id": 81254216,
      "center": {
        "lat": 12.9081078,
        "lon": 77.6118843
      },
      "tags": {
        "leisure": "park"
      }
    },
    {
      "type": "way",
      "id": 333052404,
      "center": {
        "lat": 12.9105446,
        "lon": 77.6004163
      },
      "tags": {
        "building": "commercial",
        "name": "Prasiddhi Silks",
        "shop": "clothes"
      }
    },
    {
      "type": "way",
      "id": 333052556,
      "center": {
        "lat": 12.9103586,
        "lon": 77.600474
      },
      "tags": {
        "amenity": "hospital",
        "building": "yes",
        "healthcare": "hospital",
        "name": "Dr. Agarwal's Eye Hospital",
        "operator": "Dr. Agarwal's Eye Hospital",
        "operator:type": "private",
        "operator:wikidata": "Q17052044"
      }
    },
    {
      "type": "way",
      "id": 334548998,
      "center": {
        "lat": 12.90544,
        "lon": 77.6115348
      },
      "tags": {
        "amenity": "place_of_worship",
        "name": "Anjaneya Temple",
        "name:kn": "ಆಂಜನೇಯ ದೇವಸ್ಥಾನ",
        "religion": "hindu",
        "wheelchair": "no"
      }
    },
    {
      "type": "way",
      "id": 334548999,
      "center": {
        "lat": 12.9070807,
        "lon": 77.6063246
      },
      "tags": {
        "amenity": "food_court",
        "internet_access": "no",
        "name": "Kabab Zone"
      }
    },
    {
      "type": "way",
      "id": 335370086,
      "center": {
        "lat": 12.9093177,
        "lon": 77.6063448
      },
      "tags": {
        "building": "yes",
        "name": "Bake '26'",
        "opening_hours": "Mo-Su 08:00-22:00",
        "payment:credit_cards": "no",
        "payment:debit_cards": "no",
        "shop": "bakery",
        "wheelchair": "no"
      }
    },
    {
      "type": "way",
      "id": 335371169,
      "center": {
        "lat": 12.9086553,
        "lon": 77.6080209
      },
      "tags": {
        "building": "yes",
        "name": "HKGN Chicken shop",
        "shop": "Chicken",
        "wheelchair": "no"
      }
    },
    {
      "type": "way",
      "id": 348267432,
      "center": {
        "lat": 12.9071389,
        "lon": 77.6108901
      },
      "tags": {
        "building": "yes",
        "leisure": "fitness_centre",
        "name": "Planet Fitness"
      }
    },
    {
      "type": "way",
      "id": 349794011,
      "center": {
        "lat": 12.908585,
        "lon": 77.6106985
      },
      "tags": {
        "amenity": "police",
        "building": "yes",
        "name": "Mico Layout Police Station"
      }
    },
    {
      "type": "way",
      "id": 674036333,
      "center": {
        "lat": 12.9093593,
        "lon": 77.6023033
      },
      "tags": {
        "brand": "Maruti",
        "building": "yes",
        "name": "Classic Transport Solution",
        "name:kn": "ಕ್ಲಾಸಿಕ್ ಟ್ರಾನ್ಸ್ಪೋರ್ಟ್ ಸೊಲ್ಯೂಷನ್",
        "payment:cash": "yes",
        "payment:credit_cards": "yes",
        "payment:debit_cards": "yes",
        "payment:paytm": "yes",
        "service:vehicle:body_repair": "yes",
        "service:vehicle:painting": "yes",
        "shop": "car_repair"
      }
    },
    {
      "type": "way",
      "id": 1005188719,
      "center": {
        "lat": 12.9072404,
        "lon": 77.6108895
      },
      "tags": {
        "amenity": "restaurant",
        "building": "yes",
        "cuisine": "indian;regional",
        "name": "Kalingas"
      }
    },
    {
      "type": "way",
      "id": 1265835948,
      "center": {
        "lat": 12.9095516,
        "lon": 77.6137211
      },
      "tags": {
        "leisure": "park",
        "name": "Madiwala Lake Park"
      }
    }
  ]
}