{
  "area_name": "Nagarbhavi",
  "osm_id": 19883499,
  "osm_type": "relation",
  "place_type": "administrative",
  "amenity_count": 76,
  "amenities": [
    {
      "type": "node",
      "id": 1463510108,
      "lat": 12.9582352,
      "lon": 77.517911,
      "tags": {
        "amenity": "school",
        "name": "Bangalore Blaze Girls High School"
      }
    },
    {
      "type": "node",
      "id": 1463512600,
      "lat": 12.9527146,
      "lon": 77.5138394,
      "tags": {
        "amenity": "post_office",
        "name": "Post Office",
        "name:kn": "ಅಂಚೆ ಕಛೇರಿ"
      }
    },
    {
      "type": "node",
      "id": 1463519407,
      "lat": 12.9410456,
      "lon": 77.515395,
      "tags": {
        "leisure": "pitch",
        "name": "Sports Authority of India"
      }
    },
    {
      "type": "node",
      "id": 1463529628,
      "lat": 12.9368003,
      "lon": 77.5169615,
      "tags": {
        "amenity": "restaurant",
        "name": "The Club",
        "name:kn": "ದಿ ಕ್ಲಬ್"
      }
    },
    {
      "type": "node",
      "id": 1463547121,
      "lat": 12.9368996,
      "lon": 77.5172029,
      "tags": {
        "amenity": "bar",
        "name": "KC'S Club"
      }
    },
    {
      "type": "node",
      "id": 1463800553,
      "lat": 12.9565002,
      "lon": 77.5183806,
      "tags": {
        "name": "Speed Top TVS",
        "shop": "motorcycle"
      }
    },
    {
      "type": "node",
      "id": 3799002966,
      "lat": 12.9365363,
      "lon": 77.5167879,
      "tags": {
        "amenity": "restaurant",
        "cuisine": "regional",
        "diet:vegetarian": "only",
        "indoor_seating": "yes",
        "name": "Sri Krishna Nandagokula Veg",
        "outdoor_seating": "no",
        "smoking": "no"
      }
    },
    {
      "type": "node",
      "id": 4447155158,
      "lat": 12.957572,
      "lon": 77.5184436,
      "tags": {
        "addr:city": "Bangalore",
        "addr:district": "Bengaluru Urban",
        "addr:full": "No3 Ist Cross Janabharathi Road Nagarabhvi Circle",
        "addr:postcode": "560072",
        "addr:state": "Karnataka",
        "addr:street": "Nagarabhavi Road",
        "amenity": "hospital",
        "name": "S K Hospital, Bengaluru Urban",
        "phone": "080 2321 3699",
        "source": "OpenGovernmentData"
      }
    },
    {
      "type": "node",
      "id": 4489855607,
      "lat": 12.9576641,
      "lon": 77.518908,
      "tags": {
        "addr:city": "Bengaluru",
        "addr:housenumber": "28,",
        "addr:postcode": "560072",
        "addr:street": "Second floor, Ganesha complex, Gnana bharathi main road, nagarbavi circle, above Axis bank, Teachers Colony, Chandra Layout, , Karnataka",
        "leisure": "sports_centre",
        "name": "Eagle Fitness",
        "opening_hours": "5:00-22:00",
        "phone": "084531 00009",
        "sport": "gymnasium"
      }
    },
    {
      "type": "node",
      "id": 5109209999,
      "lat": 12.9368059,
      "lon": 77.517737,
      "tags": {
        "amenity": "bank",
        "atm": "yes",
        "brand": "Canara Bank",
        "brand:pa": "ਕੇਨਰਾ ਬੈਂਕ",
        "brand:ur": "کینرا بینک",
        "brand:wikidata": "Q2003777",
        "brand:wikipedia": "en:Canara Bank",
        "brand:wikipedia:pa": "ਕੇਨਰਾ ਬੈਂਕ",
        "name": "Canara Bank",
        "name:kn": "ಕೆನರಾ ಬ್ಯಾಂಕ್",
        "name:pa": "ਕੇਨਰਾ ਬੈਂਕ",
        "name:ur": "کینرا بینک"
      }
    },
    {
      "type": "node",
      "id": 6355866004,
      "lat": 12.9552984,
      "lon": 77.5171196,
      "tags": {
        "amenity": "restaurant",
        "name": "Canteen NLSIU"
      }
    },
    {
      "type": "node",
      "id": 6938679850,
      "lat": 12.9575968,
      "lon": 77.5189881,
      "tags": {
        "addr:district": "Bengaluru Urban",
        "addr:full": "227/A, Vidyagiri Layout, Next To Axis Bank, Nagarabhavi Circle",
        "addr:postcode": "560072",
        "addr:state": "Karnataka",
        "amenity": "clinic",
        "name": "Akshaya Nethralaya, Nagarabhavi Circle",
        "operator:type": "private",
        "source": "OpenGovernmentData",
        "website": "http://dpal.kar.nic.in/Kanunu%20padakosha%20PDF%20Files/Recognised%20Hospitals.pdf"
      }
    },
    {
      "type": "node",
      "id": 6952164914,
      "lat": 12.9365435,
      "lon": 77.5176752,
      "tags": {
        "name": "Nistula Gifts",
        "shop": "garden_centre"
      }
    },
    {
      "type": "node",
      "id": 6952164915,
      "lat": 12.9366068,
      "lon": 77.5176248,
      "tags": {
        "amenity": "restaurant",
        "name": "Eastwind (Delicious Biryani)"
      }
    },
    {
      "type": "node",
      "id": 6952164916,
      "lat": 12.9365611,
      "lon": 77.5175464,
      "tags": {
        "name": "Kajaria Eternity World",
        "shop": "interior_decoration"
      }
    },
    {
      "type": "node",
      "id": 6952164918,
      "lat": 12.9364637,
      "lon": 77.5159062,
      "tags": {
        "amenity": "fuel",
        "name": "Go Gas",
        "operator": "Go Gas"
      }
    },
    {
      "type": "node",
      "id": 7572526783,
      "lat": 12.9639829,
      "lon": 77.5188899,
      "tags": {
        "addr:district": "Bengaluru Urban",
        "addr:full": "Govindrajanagar, Anubhav Nagar, Mudalapalya, Vijayanagar, Bengaluru",
        "addr:postcode": "560072",
        "addr:state": "Karnataka",
        "amenity": "hospital",
        "name": "Government Hospital",
        "name:kn": "ಸರ್ಕಾರಿ ಆಸ್ಪತ್ರೆ",
        "source": "Local Knowledge"
      }
    },
    {
      "type": "node",
      "id": 7572526787,
      "lat": 12.9637162,
      "lon": 77.5188263,
      "tags": {
        "addr:district": "Bengaluru Urban",
        "addr:full": "Govindaraja Nagar Ward, Garden Villas, Vijayanagar, Bengaluru",
        "addr:postcode": "560072",
        "addr:state": "Karnataka",
        "amenity": "hospital",
        "name": "Shanthakumari Hospital",
        "source": "Local Knowledge"
      }
    },
    {
      "type": "node",
      "id": 8187133377,
      "lat": 12.9600148,
      "lon": 77.5195184,
      "tags": {
        "amenity": "vending_machine",
        "name": "Water ATM",
        "operator": "BBMP",
        "vending": "water"
      }
    },
    {
      "type": "node",
      "id": 8240257735,
      "lat": 12.9593847,
      "lon": 77.5156742,
      "tags": {
        "name": "Hafele Appliances",
        "shop": "hardware"
      }
    },
    {
      "type": "node",
      "id": 8240257740,
      "lat": 12.9584933,
      "lon": 77.5173345,
      "tags": {
        "amenity": "fuel",
        "brand": "Indian Oil",
        "brand:wikidata": "Q1289348",
        "brand:wikipedia": "en:Indian Oil Corporation",
        "name": "Indian Oil",
        "operator": "Indian Oil"
      }
    },
    {
      "type": "node",
      "id": 8240257741,
      "lat": 12.9581431,
      "lon": 77.5184168,
      "tags": {
        "amenity": "fast_food",
        "name": "SLV Grand"
      }
    },
    {
      "type": "node",
      "id": 8240257743,
      "lat": 12.9575196,
      "lon": 77.518622,
      "tags": {
        "name": "Baker's Bay",
        "shop": "bakery"
      }
    },
    {
      "type": "node",
      "id": 8240257744,
      "lat": 12.9571916,
      "lon": 77.518563,
      "tags": {
        "amenity": "fast_food",
        "cuisine": "pizza",
        "name": "Oyalo Pizza"
      }
    },
    {
      "type": "node",
      "id": 8240257745,
      "lat": 12.9567538,
      "lon": 77.5184812,
      "tags": {
        "amenity": "fast_food",
        "brand": "Five Star Chicken",
        "cuisine": "chicken",
        "delivery": "yes",
        "name": "Five Star Chicken",
        "takeaway": "yes"
      }
    },
    {
      "type": "node",
      "id": 8240257746,
      "lat": 12.9560558,
      "lon": 77.5184074,
      "tags": {
        "amenity": "fast_food",
        "name": "Utsav Donne Biryani Mane"
      }
    },
    {
      "type": "node",
      "id": 8240257747,
      "lat": 12.9557788,
      "lon": 77.5182766,
      "tags": {
        "amenity": "bank",
        "atm": "yes",
        "brand": "Union Bank of India",
        "brand:wikidata": "Q2004078",
        "name": "Union Bank of India",
        "name:kn": "ಯೂನಿಯನ್ ಬ್ಯಾಂಕ್"
      }
    },
    {
      "type": "node",
      "id": 9688306968,
      "lat": 12.9557239,
      "lon": 77.5177181,
      "tags": {
        "amenity": "clinic",
        "name": "NLSIU Health Center"
      }
    },
    {
      "type": "node",
      "id": 9688311022,
      "lat": 12.9529243,
      "lon": 77.5162442,
      "tags": {
        "amenity": "cafe",
        "name": "Air Cafe"
      }
    },
    {
      "type": "node",
      "id": 9690149040,
      "lat": 12.9585992,
      "lon": 77.5123107,
      "tags": {
        "amenity": "shelter",
        "shelter_type": "gazebo"
      }
    },
    {
      "type": "node",
      "id": 10574570483,
      "lat": 12.9432577,
      "lon": 77.5162965,
      "tags": {
        "leisure": "golf_course",
        "name": "Sports Authority of India Golf Club"
      }
    },
    {
      "type": "node",
      "id": 11187076218,
      "lat": 12.9560242,
      "lon": 77.5121337,
      "tags": {
        "amenity": "shelter",
        "shelter_type": "gazebo"
      }
    },
    {
      "type": "node",
      "id": 11187080719,
      "lat": 12.9519885,
      "lon": 77.5191101,
      "tags": {
        "amenity": "shelter",
        "shelter_type": "gazebo"
      }
    },
    {
      "type": "node",
      "id": 11187080733,
      "lat": 12.9519585,
      "lon": 77.5213672,
      "tags": {
        "amenity": "shelter",
        "shelter_type": "gazebo"
      }
    },
    {
      "type": "node",
      "id": 11881863386,
      "lat": 12.9524277,
      "lon": 77.5153725,
      "tags": {
        "amenity": "cafe",
        "internet_access": "yes",
        "internet_access:fee": "no",
        "name": "Sunrise Cafe",
        "opening_hours": "Mo-Su 09:00-21:00",
        "outdoor_seating": "yes"
      }
    },
    {
      "type": "node",
      "id": 11881863398,
      "lat": 12.9536556,
      "lon": 77.5160491,
      "tags": {
        "amenity": "food_court",
        "name": "Mess A"
      }
    },
    {
      "type": "node",
      "id": 11942317504,
      "lat": 12.9500853,
      "lon": 77.5268298,
      "tags": {
        "addr:floor": "1",
        "check_date": "2024-05-29",
        "leisure": "fitness_centre",
        "level": "1",
        "name": "Zain Muscle Fitness Studio",
        "name:en": "Zain Muscle Fitness Studio"
      }
    },
    {
      "type": "node",
      "id": 11942324327,
      "lat": 12.9497383,
      "lon": 77.5267613,
      "tags": {
        "addr:floor": "G",
        "amenity": "pharmacy",
        "check_date": "2024-05-29",
        "healthcare": "pharmacy",
        "level": "0",
        "name": "New Bright Pharma",
        "name:en": "New Bright Pharma"
      }
    },
    {
      "type": "node",
      "id": 11942324328,
      "lat": 12.9496882,
      "lon": 77.5267609,
      "tags": {
        "addr:floor": "G",
        "amenity": "atm",
        "brand": "Axis Bank",
        "brand:wikidata": "Q2003549",
        "cash_in": "no",
        "check_date": "2024-05-29",
        "currency:INR": "yes",
        "level": "0",
        "operator": "Axis Bank",
        "operator:wikidata": "Q2003549"
      }
    },
    {
      "type": "node",
      "id": 11942360704,
      "lat": 12.9509385,
      "lon": 77.5269843,
      "tags": {
        "addr:floor": "G",
        "amenity": "pharmacy",
        "check_date": "2024-05-29",
        "healthcare": "pharmacy",
        "level": "0",
        "name": "Karnataka Medicals",
        "name:en": "Karnataka Medicals"
      }
    },
    {
      "type": "node",
      "id": 11942360705,
      "lat": 12.9509595,
      "lon": 77.5269319,
      "tags": {
        "addr:floor": "G",
        "amenity": "dentist",
        "check_date": "2024-05-29",
        "healthcare": "dentist",
        "level": "0",
        "name": "UDC Dental Clinic",
        "name:en": "UDC Dental Clinic",
        "wheelchair": "limited"
      }
    },
    {
      "type": "node",
      "id": 11942373757,
      "lat": 12.9502373,
      "lon": 77.5268567,
      "tags": {
        "addr:floor": "G",
        "amenity": "bar",
        "check_date": "2024-05-29",
        "level": "0",
        "name": "Ravi Bar and Restaurant",
        "name:en": "Ravi Bar and Restaurant"
      }
    },
    {
      "type": "node",
      "id": 12921191767,
      "lat": 12.9499098,
      "lon": 77.5219642,
      "tags": {
        "addr:floor": "G",
        "addr:postcode": "560039",
        "air_conditioning": "no",
        "amenity": "fast_food",
        "brand": "Indira Canteen",
        "brand:wikidata": "Q36164828",
        "check_date": "2025-06-17",
        "cuisine": "south_indian",
        "diet:vegetarian": "yes",
        "drive_through": "yes",
        "highchair": "no",
        "internet_access": "no",
        "level": "0",
        "name": "Indira Canteen Ward 131",
        "name:en": "Indira Canteen",
        "opening_hours": "07:00-10:00,12:00-15:00,19:30-21:30",
        "operator": "BBMP",
        "organic": "no",
        "outdoor_seating": "yes",
        "payment:cards": "no",
        "payment:cash": "yes",
        "payment:credit_cards": "no",
        "payment:debit_cards": "no",
        "smoking": "no",
        "source": "local knowledge",
        "takeaway": "yes",
        "wheelchair": "no"
      }
    },
    {
      "type": "node",
      "id": 12921290213,
      "lat": 12.9511919,
      "lon": 77.5210601,
      "tags": {
        "addr:floor": "G",
        "amenity": "place_of_worship",
        "check_date": "2025-06-17",
        "internet_access": "no",
        "level": "0",
        "name": "Sri Kailaseshwara Temple",
        "name:en": "Sri Kailaseshwara Temple",
        "payment:cards": "no",
        "payment:cash": "yes",
        "payment:credit_cards": "no",
        "payment:debit_cards": "no",
        "religion": "hindu",
        "wheelchair": "no"
      }
    },
    {
      "type": "node",
      "id": 12921290214,
      "lat": 12.9507653,
      "lon": 77.5201767,
      "tags": {
        "addr:floor": "0, 1, 2",
        "amenity": "library",
        "check_date": "2025-06-17",
        "internet_access": "no",
        "level": "0",
        "name": "Public Library - Suvarna Layout",
        "name:en": "Public Library - Suvarna Layout",
        "opening_hours": "Mo,Tu[2,4],PH off; Tu-Su 10:00-17:00",
        "operator:type": "government",
        "payment:cards": "no",
        "payment:cash": "yes",
        "payment:credit_cards": "no",
        "payment:debit_cards": "no",
        "wheelchair": "no"
      }
    },
    {
      "type": "way",
      "id": 139524235,
      "center": {
        "lat": 12.9515573,
        "lon": 77.5191202
      },
      "tags": {
        "leisure": "park"
      }
    },
    {
      "type": "way",
      "id": 139525041,
      "center": {
        "lat": 12.9421101,
        "lon": 77.5162017
      },
      "tags": {
        "access": "private",
        "leisure": "swimming_pool",
        "sport": "swimming"
      }
    },
    {
      "type": "way",
      "id": 139525048,
      "center": {
        "lat": 12.9416601,
        "lon": 77.5160465
      },
      "tags": {
        "access": "private",
        "leisure": "swimming_pool",
        "sport": "swimming"
      }
    },
    {
      "type": "way",
      "id": 244503172,
      "center": {
        "lat": 12.9489369,
        "lon": 77.5209385
      },
      "tags": {
        "leisure": "park"
      }
    },
    {
      "type": "way",
      "id": 345854758,
      "center": {
        "lat": 12.9528585,
        "lon": 77.5158172
      },
      "tags": {
        "access": "permissive",
        "amenity": "library",
        "building": "university",
        "level": "0;1;2;3",
        "name": "Shri Narayan Rao National Law Library"
      }
    },
    {
      "type": "way",
      "id": 345858756,
      "center": {
        "lat": 12.9518907,
        "lon": 77.5145626
      },
      "tags": {
        "amenity": "food_court",
        "building": "university",
        "name": "Mess B"
      }
    },
    {
      "type": "way",
      "id": 345906113,
      "center": {
        "lat": 12.9579223,
        "lon": 77.5185445
      },
      "tags": {
        "amenity": "restaurant",
        "building": "yes",
        "check_date": "2024-11-23",
        "name": "Palate Restaurant"
      }
    },
    {
      "type": "way",
      "id": 388178594,
      "center": {
        "lat": 12.96327,
        "lon": 77.5190795
      },
      "tags": {
        "leisure": "park",
        "name": "Garden Villas Park"
      }
    },
    {
      "type": "way",
      "id": 742634569,
      "center": {
        "lat": 12.9383779,
        "lon": 77.5158747
      },
      "tags": {
        "access": "private",
        "amenity": "parking"
      }
    },
    {
      "type": "way",
      "id": 772183062,
      "center": {
        "lat": 12.9509599,
        "lon": 77.5141937
      },
      "tags": {
        "leisure": "pitch",
        "name": "National Law College Ground",
        "sport": "athletics"
      }
    },
    {
      "type": "way",
      "id": 1054241399,
      "center": {
        "lat": 12.9533833,
        "lon": 77.5138572
      },
      "tags": {
        "amenity": "college",
        "name": "Institute for Social and Economic Change",
        "start_date": "1972",
        "website": "https://www.isec.ac.in/",
        "wikidata": "Q6039639",
        "wikipedia": "en:Institute for Social and Economic Change"
      }
    },
    {
      "type": "way",
      "id": 1054241400,
      "center": {
        "lat": 12.9526644,
        "lon": 77.5160362
      },
      "tags": {
        "leisure": "park"
      }
    },
    {
      "type": "way",
      "id": 1054241405,
      "center": {
        "lat": 12.9509887,
        "lon": 77.5138484
      },
      "tags": {
        "amenity": "theatre"
      }
    },
    {
      "type": "way",
      "id": 1054241422,
      "center": {
        "lat": 12.9490068,
        "lon": 77.5177379
      },
      "tags": {
        "amenity": "library",
        "building": "university",
        "name": "BASE Library"
      }
    },
    {
      "type": "way",
      "id": 1054241424,
      "center": {
        "lat": 12.9495923,
        "lon": 77.5167239
      },
      "tags": {
        "addr:city": "Bangalore",
        "addr:postcode": "560072",
        "addr:street": "National Law School of India University Nagarbhavi, P.O. Bag, 7201, Teachers Colony, Naagarabhaavi",
        "amenity": "theatre",
        "building": "university",
        "name": "BASE Auditorium"
      }
    },
    {
      "type": "way",
      "id": 1054241426,
      "center": {
        "lat": 12.9551799,
        "lon": 77.5173569
      },
      "tags": {
        "leisure": "park"
      }
    },
    {
      "type": "way",
      "id": 1054241429,
      "center": {
        "lat": 12.9556832,
        "lon": 77.5172886
      },
      "tags": {
        "leisure": "pitch",
        "sport": "volleyball"
      }
    },
    {
      "type": "way",
      "id": 1054241430,
      "center": {
        "lat": 12.9556924,
        "lon": 77.5174411
      },
      "tags": {
        "leisure": "pitch",
        "sport": "basketball"
      }
    },
    {
      "type": "way",
      "id": 1054241431,
      "center": {
        "lat": 12.9554399,
        "lon": 77.5179907
      },
      "tags": {
        "leisure": "pitch",
        "sport": "tennis",
        "surface": "clay"
      }
    },
    {
      "type": "way",
      "id": 1054241433,
      "center": {
        "lat": 12.9529327,
        "lon": 77.5159691
      },
      "tags": {
        "alt_name": "National Law School",
        "amenity": "university",
        "barrier": "wall",
        "email": "contactus@nls.ac.in",
        "fixme": "Accurate boundary",
        "name": "National Law School of India University",
        "name:kn": "ರಾಷ್ಟ್ರೀಯ ಕಾನೂನು ವಿಶ್ವವಿದ್ಯಾಲಯ",
        "short_name": "NLSIU",
        "start_date": "1986",
        "website": "https://www.nls.ac.in/",
        "wikidata": "Q3067635",
        "wikipedia": "en:National Law School of India University"
      }
    },
    {
      "type": "way",
      "id": 1054488995,
      "center": {
        "lat": 12.9583598,
        "lon": 77.5122123
      },
      "tags": {
        "leisure": "park"
      }
    },
    {
      "type": "way",
      "id": 1054489018,
      "center": {
        "lat": 12.9543196,
        "lon": 77.5171339
      },
      "tags": {
        "access": "permissive",
        "amenity": "parking",
        "fee": "no",
        "operator": "NLSIU",
        "parking": "surface"
      }
    },
    {
      "type": "way",
      "id": 1054489019,
      "center": {
        "lat": 12.951586,
        "lon": 77.5151076
      },
      "tags": {
        "leisure": "pitch",
        "sport": "tennis"
      }
    },
    {
      "type": "way",
      "id": 1054489022,
      "center": {
        "lat": 12.9525207,
        "lon": 77.5188218
      },
      "tags": {
        "addr:hamlet": "Jnana Bharthi Layout",
        "addr:suburb": "Valgerahalli",
        "amenity": "college",
        "fixme": "Verify boundaries/location",
        "name": "Maulana Azad National Urdu University",
        "name:etymology:wikidata": "Q196617",
        "name:kn": "ಮೌಲಾನಾ ಆಜಾದ್ ಉರ್ದು ವಿಶ್ವವಿದ್ಯಾಲಯ"
      }
    },
    {
      "type": "way",
      "id": 1207060123,
      "center": {
        "lat": 12.9599414,
        "lon": 77.5160068
      },
      "tags": {
        "leisure": "park"
      }
    },
    {
      "type": "way",
      "id": 1207332522,
      "center": {
        "lat": 12.9495379,
        "lon": 77.5157179
      },
      "tags": {
        "leisure": "park"
      }
    },
    {
      "type": "way",
      "id": 1207332545,
      "center": {
        "lat": 12.9508573,
        "lon": 77.5238529
      },
      "tags": {
        "amenity": "community_centre"
      }
    },
    {
      "type": "way",
      "id": 1207332547,
      "center": {
        "lat": 12.9518402,
        "lon": 77.5213572
      },
      "tags": {
        "leisure": "park"
      }
    },
    {
      "type": "way",
      "id": 1207332837,
      "center": {
        "lat": 12.9560716,
        "lon": 77.5121463
      },
      "tags": {
        "leisure": "park"
      }
    },
    {
      "type": "way",
      "id": 1217247604,
      "center": {
        "lat": 12.959927,
        "lon": 77.5164926
      },
      "tags": {
        "amenity": "school",
        "name": "Jindal Government School",
        "name:kn": "ಜಿಂದಾಲ್ ಸರ್ಕಾರಿ ಶಾಲೆ"
      }
    },
    {
      "type": "way",
      "id": 1219767937,
      "center": {
        "lat": 12.9401469,
        "lon": 77.518104
      },
      "tags": {
        "amenity": "shelter",
        "building": "yes",
        "shelter_type": "public_transport"
      }
    }
  ]
}