{
  "area_name": "Naganathapura",
  "osm_id": 19883299,
  "osm_type": "relation",
  "place_type": "administrative",
  "amenity_count": 38,
  "amenities": [
    {
      "type": "node",
      "id": 267217171,
      "lat": 12.8749338,
      "lon": 77.6688773,
      "tags": {
        "amenity": "telephone",
        "created_by": "JOSM"
      }
    },
    {
      "type": "node",
      "id": 6349022511,
      "lat": 12.8814541,
      "lon": 77.6674463,
      "tags": {
        "addr:place": "Parappana Agrahara",
        "amenity": "school",
        "isced:level": "2",
        "name": "GHPS Parappana Agrahara Centra",
        "name:kn": "ಸರ್ಕಾರಿ ಹಿರಿಯ ಪ್ರಾಥಮಿಕ ಶಾಲೆ ಪರಪ್ಪನ ಅಗ್ರಹಾರ",
        "operator": "Department of Education",
        "school": "primary"
      }
    },
    {
      "type": "node",
      "id": 6494392041,
      "lat": 12.8775539,
      "lon": 77.6700895,
      "tags": {
        "addr:place": "Ellikunte",
        "amenity": "school",
        "isced": "2",
        "name": "New Shanthiniketan Eng Convent",
        "name:kn": "ನ್ಯೂ ಶಾಂತಿನಿಕೇತನ ಆಂಗ್ಲ ಕಾನ್ವೆಂಟ್, ಎಳ್ಳುಕುಂಟೆ",
        "operator": "Private Un-Aided",
        "school": "Higher Primary"
      }
    },
    {
      "type": "node",
      "id": 6631456960,
      "lat": 12.8764083,
      "lon": 77.6716475,
      "tags": {
        "amenity": "fuel",
        "brand": "Indian Oil",
        "brand:wikidata": "Q1289348",
        "brand:wikipedia": "en:Indian Oil Corporation",
        "name": "Indian Oil",
        "name:kn": "ಇಂಡಿಯನ್ ಆಯಿಲ್"
      }
    },
    {
      "type": "node",
      "id": 6745433500,
      "lat": 12.8717726,
      "lon": 77.6714141,
      "tags": {
        "addr:place": "Naganathapura",
        "amenity": "school",
        "isced:level": "3",
        "name": "BES Naganathapura",
        "name:kn": "ಬಿ.ಇ.ಎಸ್ ನಾಗನಾಥಪುರ, ನಾಗನಾಥಪುರ",
        "operator": "Private Un-Aided",
        "school": "Higher Secondary"
      }
    },
    {
      "type": "node",
      "id": 6745434171,
      "lat": 12.8717058,
      "lon": 77.6687097,
      "tags": {
        "addr:place": "Naganathapura",
        "amenity": "school",
        "isced:level": "2",
        "name": "Sahana Vidya Mandira",
        "name:kn": "ಸಹನಾ ವಿದ್ಯಾ ಮಂದಿರ, ನಾಗನಾಥಪುರ",
        "operator": "Private Un-Aided",
        "school": "Higher Primary"
      }
    },
    {
      "type": "node",
      "id": 6745841071,
      "lat": 12.8821255,
      "lon": 77.6559921,
      "tags": {
        "addr:place": "Parappana Agrahara",
        "amenity": "school",
        "isced:level": "3",
        "name": "Shree Vidyanikethan",
        "name:kn": "ಶ್ರೀ ವಿದ್ಯಾನಿಕೇತನ, ಪರಪ್ಪನ ಅಗ್ರಹಾರ",
        "operator": "Private Un-Aided",
        "school": "Higher Secondary"
      }
    },
    {
      "type": "node",
      "id": 6745848093,
      "lat": 12.8817347,
      "lon": 77.6597705,
      "tags": {
        "addr:place": "Parappana Agrahara",
        "amenity": "school",
        "isced:level": "1",
        "name": "GLPS Parappana Agrahara",
        "name:kn": "ಸರ್ಕಾರಿ ಕಿರಿಯ ಪ್ರಾಥಮಿಕ ಶಾಲೆ ಪರಪ್ಪನ ಅಗ್ರಹಾರ",
        "operator": "Department of Education",
        "school": "primary"
      }
    },
    {
      "type": "node",
      "id": 6944290477,
      "lat": 12.8705439,
      "lon": 77.6595353,
      "tags": {
        "addr:district": "Bengaluru Rural",
        "addr:full": "Bommanahalli, Hosur Road",
        "addr:postcode": "560068",
        "addr:state": "Karnataka",
        "amenity": "hospital",
        "name": "Blossom Hospital",
        "source": "OpenGovernmentData",
        "website": "https://blossomhospitals.com/"
      }
    },
    {
      "type": "node",
      "id": 11680912575,
      "lat": 12.8760205,
      "lon": 77.6705852,
      "tags": {
        "amenity": "place_of_worship",
        "denomination": "sunni",
        "name": "Masjid-e-Alhadi",
        "religion": "muslim"
      }
    },
    {
      "type": "node",
      "id": 11688074393,
      "lat": 12.8742324,
      "lon": 77.6675529,
      "tags": {
        "amenity": "place_of_worship",
        "name": "Hanuman Temple",
        "name:kn": "ಹನುಮಂತ ದೇವಸ್ಥಾನ",
        "religion": "hindu"
      }
    },
    {
      "type": "node",
      "id": 11688074831,
      "lat": 12.8756646,
      "lon": 77.6707057,
      "tags": {
        "amenity": "restaurant",
        "diet:vegetarian": "yes",
        "name": "Sri Vishnu Grand"
      }
    },
    {
      "type": "node",
      "id": 11688074832,
      "lat": 12.8755609,
      "lon": 77.6705991,
      "tags": {
        "amenity": "fast_food",
        "cuisine": "juice",
        "name": "Udupi Juice Junction"
      }
    },
    {
      "type": "node",
      "id": 11700164026,
      "lat": 12.8804891,
      "lon": 77.6552588,
      "tags": {
        "addr:city": "Electronic city post",
        "addr:housenumber": "13-14/1",
        "addr:postcode": "560100",
        "addr:street": "Haralur Road",
        "amenity": "hospital",
        "healthcare": "dentist",
        "healthcare:speciality": "dentist",
        "name": "Smile Smart Dental & Implant Centre",
        "operator": "Smile Smart Dental",
        "operator:type": "private"
      }
    },
    {
      "type": "node",
      "id": 12270754746,
      "lat": 12.8699827,
      "lon": 77.6595828,
      "tags": {
        "amenity": "atm",
        "brand": "Karnataka Bank",
        "brand:wikidata": "Q2042632",
        "check_date": "2024-10-20",
        "operator": "Karnataka Bank",
        "operator:wikidata": "Q2042632"
      }
    },
    {
      "type": "node",
      "id": 12270754751,
      "lat": 12.878507,
      "lon": 77.6550824,
      "tags": {
        "amenity": "pharmacy",
        "check_date": "2024-10-20",
        "healthcare": "pharmacy",
        "name": "Aster Pharmacy"
      }
    },
    {
      "type": "node",
      "id": 13139145035,
      "lat": 12.8846606,
      "lon": 77.6685977,
      "tags": {
        "access": "private",
        "amenity": "parking_entrance",
        "parking": "underground"
      }
    },
    {
      "type": "way",
      "id": 55338929,
      "center": {
        "lat": 12.8785163,
        "lon": 77.6652056
      },
      "tags": {
        "amenity": "prison",
        "barrier": "wall"
      }
    },
    {
      "type": "way",
      "id": 55338950,
      "center": {
        "lat": 12.8801432,
        "lon": 77.6655733
      },
      "tags": {
        "alt_name": "Parappana Agrahara Central Jail",
        "amenity": "prison",
        "name": "Bangalore Central Jail",
        "name:kn": "ಪರಪ್ಪನ ಅಗ್ರಹಾರ ಕೇಂದ್ರ ಕಾರಾಗೃಹ",
        "official_name": "Central Prison, Bangalore",
        "start_date": "1997",
        "wikipedia": "en:Central Prison, Bangalore"
      }
    },
    {
      "type": "way",
      "id": 691215096,
      "center": {
        "lat": 12.871497,
        "lon": 77.6627463
      },
      "tags": {
        "amenity": "food_court",
        "building": "yes",
        "name": "Canteen"
      }
    },
    {
      "type": "way",
      "id": 691215097,
      "center": {
        "lat": 12.8714414,
        "lon": 77.6619139
      },
      "tags": {
        "access": "customers",
        "amenity": "parking",
        "operator": "Visitor Parking"
      }
    },
    {
      "type": "way",
      "id": 691215109,
      "center": {
        "lat": 12.8712514,
        "lon": 77.6621796
      },
      "tags": {
        "amenity": "shelter",
        "building": "yes",
        "shelter_type": "gazebo"
      }
    },
    {
      "type": "way",
      "id": 691215110,
      "center": {
        "lat": 12.8712397,
        "lon": 77.6622817
      },
      "tags": {
        "amenity": "shelter",
        "building": "yes",
        "shelter_type": "gazebo"
      }
    },
    {
      "type": "way",
      "id": 691215112,
      "center": {
        "lat": 12.8712711,
        "lon": 77.6624169
      },
      "tags": {
        "leisure": "park"
      }
    },
    {
      "type": "way",
      "id": 691215114,
      "center": {
        "lat": 12.8708576,
        "lon": 77.6625953
      },
      "tags": {
        "leisure": "garden"
      }
    },
    {
      "type": "way",
      "id": 691215117,
      "center": {
        "lat": 12.8710144,
        "lon": 77.6614272
      },
      "tags": {
        "access": "no",
        "amenity": "parking",
        "bicycle_parking": "yes",
        "motorcycle": "yes"
      }
    },
    {
      "type": "way",
      "id": 1065763489,
      "center": {
        "lat": 12.8808799,
        "lon": 77.6731674
      },
      "tags": {
        "building": "yes",
        "fee": "yes",
        "leisure": "sports_centre",
        "name": "Elevate",
        "payment:cash": "yes",
        "payment:upi": "yes",
        "sport": "climbing"
      }
    },
    {
      "type": "way",
      "id": 1150351161,
      "center": {
        "lat": 12.8671096,
        "lon": 77.6666393
      },
      "tags": {
        "leisure": "swimming_pool"
      }
    },
    {
      "type": "way",
      "id": 1150351162,
      "center": {
        "lat": 12.8664688,
        "lon": 77.6664641
      },
      "tags": {
        "leisure": "playground"
      }
    },
    {
      "type": "way",
      "id": 1256468545,
      "center": {
        "lat": 12.8764449,
        "lon": 77.6716449
      },
      "tags": {
        "amenity": "fuel",
        "name": "Aum Petroleum"
      }
    },
    {
      "type": "way",
      "id": 1299914671,
      "center": {
        "lat": 12.8844038,
        "lon": 77.6690852
      },
      "tags": {
        "leisure": "pitch",
        "sport": "tennis"
      }
    },
    {
      "type": "way",
      "id": 1429319205,
      "center": {
        "lat": 12.878125,
        "lon": 77.6730139
      },
      "tags": {
        "access": "private",
        "leisure": "swimming_pool"
      }
    },
    {
      "type": "way",
      "id": 1429319211,
      "center": {
        "lat": 12.878376,
        "lon": 77.6721857
      },
      "tags": {
        "leisure": "pitch",
        "sport": "tennis"
      }
    },
    {
      "type": "way",
      "id": 1429319353,
      "center": {
        "lat": 12.8846213,
        "lon": 77.6687774
      },
      "tags": {
        "access": "private",
        "leisure": "pitch",
        "sport": "cricket_nets"
      }
    },
    {
      "type": "way",
      "id": 1429319354,
      "center": {
        "lat": 12.8843763,
        "lon": 77.6683183
      },
      "tags": {
        "access": "private",
        "leisure": "playground"
      }
    },
    {
      "type": "way",
      "id": 1429319376,
      "center": {
        "lat": 12.8782997,
        "lon": 77.6714666
      },
      "tags": {
        "access": "private",
        "amenity": "theatre",
        "theatre:type": "amphi"
      }
    },
    {
      "type": "way",
      "id": 1429319378,
      "center": {
        "lat": 12.8788367,
        "lon": 77.6717578
      },
      "tags": {
        "access": "private",
        "leisure": "swimming_pool"
      }
    },
    {
      "type": "way",
      "id": 1429319379,
      "center": {
        "lat": 12.8788873,
        "lon": 77.6711404
      },
      "tags": {
        "access": "private",
        "leisure": "swimming_pool"
      }
    }
  ]
}