{
  "area_name": "Nagavara",
  "osm_id": 2463849020,
  "osm_type": "node",
  "place_type": "suburb",
  "amenity_count": 172,
  "amenities": [
    {
      "type": "node",
      "id": 331399283,
      "lat": 13.0435474,
      "lon": 77.6213088,
      "tags": {
        "amenity": "fountain"
      }
    },
    {
      "type": "node",
      "id": 3207060489,
      "lat": 13.0413885,
      "lon": 77.6223832,
      "tags": {
        "amenity": "restaurant",
        "cuisine": "Hyderabadi_Biryani",
        "name": "Biryani House"
      }
    },
    {
      "type": "node",
      "id": 3207060835,
      "lat": 13.036587,
      "lon": 77.6281147,
      "tags": {
        "shop": "car"
      }
    },
    {
      "type": "node",
      "id": 3328011093,
      "lat": 13.04098,
      "lon": 77.6243953,
      "tags": {
        "addr:city": "Bengaluru",
        "addr:postcode": "560045",
        "addr:street": "Thanisandra Main Road",
        "amenity": "restaurant",
        "brand": "Adyar Ananda Bhavan",
        "brand:wikidata": "Q15178238",
        "cuisine": "regional",
        "name": "Adyar Ananda Bhavan",
        "name:kn": "ಆದ್ಯಾರ್ ಆನಂದ ಭವನ",
        "phone": "918025448999",
        "shop": "confectionery",
        "website": "https://aabsweets.com"
      }
    },
    {
      "type": "node",
      "id": 3451594563,
      "lat": 13.0452129,
      "lon": 77.626801,
      "tags": {
        "amenity": "cinema",
        "name": "PVR"
      }
    },
    {
      "type": "node",
      "id": 4443466902,
      "lat": 13.0454631,
      "lon": 77.626723,
      "tags": {
        "addr:city": "Bangalore",
        "addr:housenumber": "Survey No. 132P, 133P, & 134P, Nagawara Junction",
        "addr:postcode": "560077",
        "addr:street": "Thanisandra Main Road",
        "level": "0",
        "name": "Jammals",
        "opening_hours": "10:30-23:00",
        "phone": "9343758146",
        "shop": "kitchen"
      }
    },
    {
      "type": "node",
      "id": 4443476633,
      "lat": 13.0454286,
      "lon": 77.6269247,
      "tags": {
        "addr:city": "Bangalore",
        "addr:housenumber": "Survey No. 132P, 133P, & 134P, Nagawara Junction, Manayata Tech Park",
        "addr:postcode": "560077",
        "addr:street": "Thanisandra Main Road",
        "level": "0",
        "name": "Reliance Digital",
        "name:kn": "ರಿಲಾಯನ್ಸ್ ಡಿಜಿಟಲ್",
        "opening_hours": "10:00-22:00",
        "phone": "80672 94052",
        "shop": "electronics",
        "website": "https://www.reliancedigital.in/"
      }
    },
    {
      "type": "node",
      "id": 4443479591,
      "lat": 13.045532,
      "lon": 77.6268185,
      "tags": {
        "addr:city": "Bangalore",
        "addr:housenumber": "Survey No. 132P, 133P, & 134P, Nagawara Junction, Manayata Tech Park",
        "addr:postcode": "560077",
        "addr:street": "Thanisandra Main Road",
        "level": "0",
        "name": "I centre",
        "opening_hours": "10:00-22:00",
        "phone": "8067294099",
        "shop": "electronics",
        "website": "www.icentre.co.in"
      }
    },
    {
      "type": "node",
      "id": 4443483171,
      "lat": 13.0456769,
      "lon": 77.6267017,
      "tags": {
        "addr:city": "Bangalore",
        "addr:housenumber": "Survey No. 132P, 133P, & 134P, Nagawara Junction, Manayata Tech Park",
        "addr:postcode": "560077",
        "addr:street": "Thanisandra Main Road",
        "level": "1",
        "name": "Sapna Book House",
        "opening_hours": "10:00-22:30",
        "phone": "80672 941 51",
        "shop": "books",
        "website": "https://www.sapnaonline.com"
      }
    },
    {
      "type": "node",
      "id": 4443491273,
      "lat": 13.0456386,
      "lon": 77.6267858,
      "tags": {
        "addr:city": "Bangalore",
        "addr:housenumber": "Survey No. 132P, 133P, & 134P, Nagawara Junction, Manayata Tech Park",
        "addr:postcode": "560077",
        "addr:street": "Thanisandra Main Road",
        "amenity": "cinema",
        "level": "1",
        "name": "PVR entertainment",
        "opening_hours": "10:00-22:30",
        "phone": "092380 23889",
        "website": "https://www.pvrcinemas.com/"
      }
    },
    {
      "type": "node",
      "id": 4443640798,
      "lat": 13.0456619,
      "lon": 77.6267384,
      "tags": {
        "addr:city": "Bangalore",
        "addr:housenumber": "Survey No. 132P, 133P, & 134P, Nagawara Junction, Manayata Tech Park",
        "addr:postcode": "560077",
        "addr:street": "Thanisandra Main Road",
        "level": "1",
        "name": "Payless Shoe Store",
        "opening_hours": "10:00-22:30",
        "phone": "080672 94444",
        "shop": "shoes"
      }
    },
    {
      "type": "node",
      "id": 4443641881,
      "lat": 13.0456514,
      "lon": 77.626682,
      "tags": {
        "addr:city": "Bangalore",
        "addr:housenumber": "Survey No. 132P, 133P, & 134P, Nagawara Junction, Manayata Tech Park",
        "addr:postcode": "560077",
        "addr:street": "Thanisandra Main Road",
        "level": "1",
        "name": "Reliance trendz",
        "opening_hours": "10:00-22:00",
        "phone": "8067294066",
        "shop": "clothes",
        "website": "https://www.ril.com/"
      }
    },
    {
      "type": "node",
      "id": 4443649876,
      "lat": 13.0456488,
      "lon": 77.626725,
      "tags": {
        "addr:city": "Bangalore",
        "addr:housenumber": "Survey No. 132P, 133P, & 134P, Nagawara Junction, Manayata Tech Park",
        "addr:postcode": "560077",
        "addr:street": "Thanisandra Main Road",
        "level": "1",
        "name": "Wood Land",
        "opening_hours": "10:00-22:30",
        "phone": "8022682216",
        "shop": "shoes",
        "website": "woodlandworldwide.com/"
      }
    },
    {
      "type": "node",
      "id": 4443656651,
      "lat": 13.0455861,
      "lon": 77.6267196,
      "tags": {
        "addr:city": "Bangalore",
        "addr:housenumber": "Survey No. 132P, 133P, & 134P, Nagawara Junction, Manayata Tech Park",
        "addr:postcode": "560077",
        "addr:street": "Thanisandra Main Road",
        "name": "Reliance Foot Prints",
        "opening_hours": "10:00-22:30",
        "phone": "9035055654",
        "shop": "shoes",
        "website": "www.reliancefootprint.com"
      }
    },
    {
      "type": "node",
      "id": 4443690733,
      "lat": 13.0454706,
      "lon": 77.6268156,
      "tags": {
        "addr:city": "Bangalore",
        "addr:housenumber": "Survey No. 132P, 133P, & 134P, Nagawara Junction, Manayata Tech Park",
        "addr:postcode": "560077",
        "addr:street": "Thanisandra Main Road",
        "level": "0",
        "name": "Health And Glow",
        "opening_hours": "10:00-22:30",
        "phone": "8032562821",
        "shop": "cosmetics",
        "website": "www.healthandglow.in/"
      }
    },
    {
      "type": "node",
      "id": 4443700234,
      "lat": 13.0454341,
      "lon": 77.6267753,
      "tags": {
        "addr:city": "Bangalore",
        "addr:housenumber": "Survey No. 132P, 133P, & 134P, Nagawara Junction, Manayata Tech Park",
        "addr:postcode": "560077",
        "addr:street": "Thanisandra Main Road",
        "brand": "Spar",
        "brand:wikidata": "Q610492",
        "brand:wikipedia": "en:Spar (retailer)",
        "level": "0",
        "name": "Spar",
        "opening_hours": "10:00-22:30",
        "organic": "yes",
        "payment:credit_cards": "yes",
        "payment:debit_cards": "yes",
        "phone": "8067294041",
        "shop": "supermarket",
        "website": "http://sparindia.org.in/locations/"
      }
    },
    {
      "type": "node",
      "id": 4443710312,
      "lat": 13.0453766,
      "lon": 77.6267807,
      "tags": {
        "addr:city": "Bangalore",
        "addr:housenumber": "Survey No. 132P, 133P, & 134P, Nagawara Junction, Manayata Tech Park",
        "addr:postcode": "560077",
        "addr:street": "Thanisandra Main Road",
        "level": "2",
        "name": "Bombay Dyeing",
        "name:kn": "ಬೊಂಬೆ ಡೈಯಿಂಗ್",
        "opening_hours": "10:00-22:30",
        "phone": "9611293174",
        "shop": "furniture",
        "website": "https://bombaydyeing.com/"
      }
    },
    {
      "type": "node",
      "id": 4443729759,
      "lat": 13.0454262,
      "lon": 77.626711,
      "tags": {
        "addr:city": "Bangalore",
        "addr:housenumber": "Survey No. 132P, 133P, & 134P, Nagawara Junction, Manayata Tech Park, Thanisandra 100 Feet Main Road, Kasba Hobli, MS Ramaiah North City, Manayata Tech Park",
        "addr:postcode": "560077",
        "addr:street": "Thanisandra Main Road",
        "name": "Jockey",
        "opening_hours": "10:00-22:30",
        "phone": "8067294026",
        "shop": "clothes",
        "website": "https://www.jockeyindia.com/stores/karnataka/bangalore"
      }
    },
    {
      "type": "node",
      "id": 4443741405,
      "lat": 13.0453792,
      "lon": 77.6267297,
      "tags": {
        "addr:city": "Bangalore",
        "addr:housenumber": "Survey No. 132P, 133P, & 134P, Nagawara Junction, Manayata Tech Park",
        "addr:postcode": "560077",
        "addr:street": "Thanisandra Main Road",
        "level": "1",
        "name": "Max",
        "opening_hours": "10:00-22:30",
        "phone": "080672 94015",
        "shop": "clothes",
        "website": "www.maxfashionindia.com/"
      }
    },
    {
      "type": "node",
      "id": 4443755486,
      "lat": 13.0453896,
      "lon": 77.6268558,
      "tags": {
        "addr:city": "Bangalore",
        "addr:housenumber": "Survey No. 132P, 133P, & 134P, Nagawara Junction, Manayata Tech Park",
        "addr:postcode": "560077",
        "addr:street": "Thanisandra Main Road",
        "name": "Mom And Me",
        "opening_hours": "10:00-22:30",
        "shop": "clothes",
        "website": "https://www.babyoye.com/b/Mom-&-Me"
      }
    },
    {
      "type": "node",
      "id": 4443775380,
      "lat": 13.0453266,
      "lon": 77.6267172,
      "tags": {
        "addr:city": "Bangalore",
        "addr:housenumber": "Survey No. 132P, 133P, & 134P, Nagawara Junction, Manayata Tech Park",
        "addr:postcode": "560077",
        "addr:street": "Thanisandra Main Road",
        "level": "0",
        "name": "levis",
        "opening_hours": "10:00-22:30",
        "shop": "clothes",
        "website": "https://www.levi.in/"
      }
    },
    {
      "type": "node",
      "id": 4445701544,
      "lat": 13.0453348,
      "lon": 77.626837,
      "tags": {
        "addr:city": "Bangalore",
        "addr:housenumber": "Survey No. 132P, 133P, & 134P, Nagawara Junction, Manayata Tech Park",
        "addr:postcode": "560077",
        "addr:street": "Thanisandra Main Road",
        "name": "Gravity",
        "opening_hours": "10:00-21:30",
        "phone": "+918067294041",
        "shop": "clothes",
        "website": "www.gravityclothing.com"
      }
    },
    {
      "type": "node",
      "id": 4445743378,
      "lat": 13.0452903,
      "lon": 77.6266198,
      "tags": {
        "addr:city": "Bangalore",
        "addr:housenumber": "Survey No. 132P, 133P, & 134P, Nagawara Junction, Manayata Tech Park",
        "addr:postcode": "560077",
        "addr:street": "Thanisandra Main Road",
        "level": "0",
        "name": "Puma",
        "name:kn": "ಪೂಮ",
        "opening_hours": "10:00-21:30",
        "phone": "+918060603331",
        "shop": "sports",
        "website": "www.pumastore.com"
      }
    },
    {
      "type": "node",
      "id": 4445767359,
      "lat": 13.0452407,
      "lon": 77.6265876,
      "tags": {
        "addr:city": "Bangalore",
        "addr:housenumber": "Survey No. 132P, 133P, & 134P, Nagawara Junction, Manayata Tech Park",
        "addr:postcode": "560077",
        "addr:street": "Thanisandra Main Road",
        "level": "1",
        "name": "people",
        "opening_hours": "10:00-21:30",
        "phone": "08067294034",
        "shop": "clothes",
        "website": "https://www.peopleonline.co.in/"
      }
    },
    {
      "type": "node",
      "id": 4445774901,
      "lat": 13.0452041,
      "lon": 77.6265447,
      "tags": {
        "addr:city": "Bangalore",
        "addr:housenumber": "Survey No. 132P, 133P, & 134P, Nagawara Junction, Manayata Tech Park",
        "addr:postcode": "560077",
        "addr:street": "Thanisandra Main Road",
        "level": "1",
        "name": "Planet Fashion",
        "opening_hours": "10:00-21:30",
        "phone": "+918067294028",
        "shop": "clothes",
        "website": "https://www.planetfashion.in/"
      }
    },
    {
      "type": "node",
      "id": 4445786915,
      "lat": 13.0451728,
      "lon": 77.6265313,
      "tags": {
        "addr:city": "Bangalore",
        "addr:housenumber": "Survey No. 132P, 133P, & 134P, Nagawara Junction, Manayata Tech Park",
        "addr:postcode": "560077",
        "addr:street": "Thanisandra Main Road",
        "level": "1",
        "name": "Arrow",
        "opening_hours": "10:00-9:30",
        "phone": "+918067294029",
        "shop": "clothes",
        "website": "www.arrowlife.com"
      }
    },
    {
      "type": "node",
      "id": 4447462331,
      "lat": 13.0455777,
      "lon": 77.6266626,
      "tags": {
        "addr:city": "Bangalore",
        "addr:housenumber": "Survey No. 132P, 133P, & 134P, Nagawara Junction, Manayata Tech Park",
        "addr:postcode": "560077",
        "addr:street": "Thanisandra Main Road",
        "level": "1",
        "name": "Arrow",
        "name:kn": "ಅರ್ರೊ",
        "opening_hours": "10:00-21:30",
        "phone": "8067294029",
        "shop": "clothes",
        "website": "http://www.arrowlife.com/"
      }
    },
    {
      "type": "node",
      "id": 4447466739,
      "lat": 13.0452694,
      "lon": 77.6267082,
      "tags": {
        "addr:city": "Bangalore",
        "addr:housenumber": "Survey No. 132P, 133P, & 134P, Nagawara Junction, Manayata Tech Park",
        "addr:postcode": "560077",
        "addr:street": "Thanisandra Main Road",
        "level": "0",
        "name": "Louis Phillppe",
        "opening_hours": "10:00-21:30",
        "phone": "8067294004",
        "shop": "clothes",
        "website": "https://www.louisphilippe.com"
      }
    },
    {
      "type": "node",
      "id": 4447480121,
      "lat": 13.0454837,
      "lon": 77.6266492,
      "tags": {
        "addr:city": "Bangalore",
        "addr:housenumber": "Survey No. 132P, 133P, & 134P, Nagawara Junction, Manayata Tech Park",
        "addr:postcode": "560077",
        "addr:street": "Thanisandra Main Road",
        "level": "1",
        "name": "Peter England",
        "name:kn": "ಪೀಟರ್ ಇಂಗ್ಲೆಂಡ್",
        "opening_hours": "10:00-21:30",
        "phone": "8067294003",
        "shop": "clothes",
        "website": "https://www.peterengland.com/"
      }
    },
    {
      "type": "node",
      "id": 4447480316,
      "lat": 13.0453218,
      "lon": 77.6269445,
      "tags": {
        "addr:city": "Bangalore",
        "addr:housenumber": "Survey No. 132P, 133P, & 134P, Nagawara Junction, Manayata Tech Park",
        "addr:postcode": "560077",
        "addr:street": "Thanisandra Main Road",
        "name": "Adidas",
        "name:kn": "ಅಡಿಡಾಸ್",
        "opening_hours": "10:00-21:30",
        "phone": "80672 94444",
        "shop": "clothes",
        "website": "www.adidas.com"
      }
    },
    {
      "type": "node",
      "id": 4447484455,
      "lat": 13.0452459,
      "lon": 77.6266974,
      "tags": {
        "addr:city": "Bangalore",
        "addr:housenumber": "Survey No. 132P, 133P, & 134P, Nagawara Junction, Manayata Tech Park",
        "addr:postcode": "560077",
        "addr:street": "Thanisandra Main Road",
        "level": "1",
        "name": "Aurelia",
        "name:kn": "ಅರೆಲಿಯ",
        "opening_hours": "10:00-21:30",
        "phone": "8067294081",
        "shop": "clothes",
        "website": "https://www.aurelia.com/"
      }
    },
    {
      "type": "node",
      "id": 4447486769,
      "lat": 13.045144,
      "lon": 77.6267189,
      "tags": {
        "shop": "clothes"
      }
    },
    {
      "type": "node",
      "id": 4447486770,
      "lat": 13.0451657,
      "lon": 77.6267882,
      "tags": {
        "addr:city": "Bangalore",
        "addr:housenumber": "Survey No. 132P, 133P, & 134P, Nagawara Junction, Manayata Tech Park",
        "addr:postcode": "560077",
        "addr:street": "Thanisandra Main Road",
        "level": "2",
        "name": "Soch",
        "opening_hours": "10:00-21:30",
        "phone": "8067294005",
        "shop": "clothes",
        "website": "www.sochstudio.com"
      }
    },
    {
      "type": "node",
      "id": 4447488298,
      "lat": 13.0452896,
      "lon": 77.6269201,
      "tags": {
        "addr:city": "Bangalore",
        "addr:housenumber": "Survey No. 132P, 133P, & 134P, Nagawara Junction, Manayata Tech Park",
        "addr:postcode": "560077",
        "addr:street": "Thanisandra Main Road",
        "level": "2",
        "name": "Melange",
        "opening_hours": "10:00-21:30",
        "phone": "080 4039 9000",
        "shop": "clothes",
        "website": "www.melange.com"
      }
    },
    {
      "type": "node",
      "id": 4447492201,
      "lat": 13.045145,
      "lon": 77.6265266,
      "tags": {
        "addr:city": "Bangalore",
        "addr:housenumber": "Survey No. 132P, 133P, & 134P, Nagawara Junction, Manayata Tech Park",
        "addr:postcode": "560077",
        "addr:street": "Thanisandra Main Road",
        "level": "2",
        "name": "mustard",
        "opening_hours": "10:00-21:30",
        "phone": "8067294060",
        "shop": "clothes",
        "website": "https://www.mustardfashion.com/"
      }
    },
    {
      "type": "node",
      "id": 4447495451,
      "lat": 13.0450945,
      "lon": 77.6265054,
      "tags": {
        "addr:city": "Bangalore",
        "addr:housenumber": "Survey No. 132P, 133P, & 134P, Nagawara Junction, Manayata Tech Park",
        "addr:postcode": "560077",
        "addr:street": "Thanisandra Main Road",
        "amenity": "cafe",
        "cuisine": "cafe",
        "internet_access": "wlan",
        "level": "3",
        "name": "Cafe Coffee Day",
        "name:kn": "ಕಫೆ ಕಾಫಿ ಡೇ",
        "opening_hours": "10:00-21:30",
        "phone": "74832 95691",
        "smoking": "no",
        "website": "https://www.cafecoffeeday.com/"
      }
    },
    {
      "type": "node",
      "id": 4504293889,
      "lat": 13.0400011,
      "lon": 77.6256898,
      "tags": {
        "name": "HKGN Stores",
        "name:en": "HKGN Stores",
        "shop": "convenience"
      }
    },
    {
      "type": "node",
      "id": 4586355538,
      "lat": 13.0450568,
      "lon": 77.6265787,
      "tags": {
        "addr:city": "Bangalore",
        "addr:postcode": "560077",
        "addr:street": "Thanisandra Main Road",
        "amenity": "cafe",
        "cuisine": "dessert",
        "name": "Ibaco",
        "name:kn": "ಐಬಾಕೊ",
        "opening_hours": "11:00 - 23:00"
      }
    },
    {
      "type": "node",
      "id": 4973098285,
      "lat": 13.0408726,
      "lon": 77.620387,
      "tags": {
        "amenity": "fast_food",
        "brand": "Domino's",
        "brand:ks": "ڈومینوز",
        "brand:pa": "ਡੋਮੀਨੋਜ਼",
        "brand:ur": "ڈومینوز",
        "brand:wikidata": "Q839466",
        "brand:wikipedia": "en:Domino's Pizza",
        "check_date": "2025-06-14",
        "cuisine": "pizza",
        "name": "Domino's",
        "name:ks": "ڈومینوز",
        "name:pa": "ਡੋਮੀਨੋਜ਼",
        "name:ur": "ڈومینوز",
        "takeaway": "yes"
      }
    },
    {
      "type": "node",
      "id": 4973098286,
      "lat": 13.0408987,
      "lon": 77.6207343,
      "tags": {
        "amenity": "fast_food",
        "name": "Meghana Biryani"
      }
    },
    {
      "type": "node",
      "id": 4973098288,
      "lat": 13.041096,
      "lon": 77.623894,
      "tags": {
        "name": "Idea",
        "name:kn": "ಐಡಿಯಾ",
        "shop": "mobile_phone"
      }
    },
    {
      "type": "node",
      "id": 4973098289,
      "lat": 13.0410176,
      "lon": 77.624008,
      "tags": {
        "name": "Diamond Beauty Parlour",
        "shop": "beauty"
      }
    },
    {
      "type": "node",
      "id": 4973098291,
      "lat": 13.0412607,
      "lon": 77.6245538,
      "tags": {
        "name": "Chef Baker's",
        "shop": "bakery"
      }
    },
    {
      "type": "node",
      "id": 4973098292,
      "lat": 13.0456035,
      "lon": 77.6267868,
      "tags": {
        "amenity": "fast_food",
        "brand": "McDonald's",
        "brand:pa": "ਮੈਕਡੋਨਲਡ’ਜ਼",
        "brand:ur": "مکڈونلڈز",
        "brand:wikidata": "Q38076",
        "brand:wikipedia": "en:McDonald's",
        "brand:wikipedia:pa": "ਮੈਕਡੋਨਲਡ’ਜ਼",
        "brand:wikipedia:ur": "مکڈونلڈز",
        "cuisine": "burger",
        "name": "McDonald's",
        "name:kn": "ಮ್ಯಾಕ್‌ಡೊನಾಲ್ಡ್ಸ್",
        "name:pa": "ਮੈਕਡੋਨਲਡ’ਜ਼",
        "name:ur": "مکڈونلڈز"
      }
    },
    {
      "type": "node",
      "id": 4973098293,
      "lat": 13.0454872,
      "lon": 77.6269262,
      "tags": {
        "amenity": "fast_food",
        "brand": "Burger King",
        "brand:pa": "ਬਰਗਰ ਕਿੰਗ",
        "brand:ur": "برگر کنگ",
        "brand:wikidata": "Q177054",
        "brand:wikipedia": "en:Burger King",
        "brand:wikipedia:pa": "ਬਰਗਰ ਕਿੰਗ",
        "brand:wikipedia:ur": "برگر کنگ",
        "cuisine": "burger",
        "name": "Burger King",
        "name:kn": "ಬರ್ಗರ್ ಕಿಂಗ್",
        "name:pa": "ਬਰਗਰ ਕਿੰਗ",
        "name:ru": "Бургер Кинг",
        "name:ur": "برگر کنگ",
        "takeaway": "yes"
      }
    },
    {
      "type": "node",
      "id": 4973098294,
      "lat": 13.0453918,
      "lon": 77.6270134,
      "tags": {
        "amenity": "restaurant",
        "name": "Felicita"
      }
    },
    {
      "type": "node",
      "id": 4987609421,
      "lat": 13.03269,
      "lon": 77.6305228,
      "tags": {
        "amenity": "college",
        "name": "Vbr pu college",
        "name:en": "Vbr pu college"
      }
    },
    {
      "type": "node",
      "id": 5286949431,
      "lat": 13.0413718,
      "lon": 77.6218064,
      "tags": {
        "amenity": "fuel",
        "brand": "Indian Oil",
        "brand:wikidata": "Q1289348",
        "brand:wikipedia": "en:Indian Oil Corporation",
        "name": "Indian Oil",
        "name:kn": "ಇಂಡಿಯನ್ ಆಯಿಲ್"
      }
    },
    {
      "type": "node",
      "id": 5286949432,
      "lat": 13.0409375,
      "lon": 77.6223743,
      "tags": {
        "amenity": "atm",
        "brand": "State Bank of India",
        "brand:wikidata": "Q1340361",
        "name": "State Bank of India",
        "operator": "State Bank of India",
        "operator:wikidata": "Q1340361",
        "short_name": "SBI"
      }
    },
    {
      "type": "node",
      "id": 5286949433,
      "lat": 13.0400332,
      "lon": 77.6241619,
      "tags": {
        "amenity": "toilets"
      }
    },
    {
      "type": "node",
      "id": 5295004543,
      "lat": 13.0454415,
      "lon": 77.6269767,
      "tags": {
        "amenity": "fast_food",
        "brand": "Domino's",
        "brand:ks": "ڈومینوز",
        "brand:pa": "ਡੋਮੀਨੋਜ਼",
        "brand:ur": "ڈومینوز",
        "brand:wikidata": "Q839466",
        "brand:wikipedia": "en:Domino's Pizza",
        "cuisine": "pizza",
        "name": "Domino's",
        "name:kn": "ಡಾಮಿನೋಸ್",
        "name:ks": "ڈومینوز",
        "name:pa": "ਡੋਮੀਨੋਜ਼",
        "name:ur": "ڈومینوز"
      }
    },
    {
      "type": "node",
      "id": 5418365221,
      "lat": 13.0452657,
      "lon": 77.6209798,
      "tags": {
        "amenity": "bank",
        "brand": "Axis Bank",
        "brand:wikidata": "Q2003549",
        "name": "Axis Bank",
        "name:kn": "ಆಕ್ಸಿಸ್ ಬ್ಯಾಂಕ್"
      }
    },
    {
      "type": "node",
      "id": 5418989025,
      "lat": 13.0451508,
      "lon": 77.6209471,
      "tags": {
        "amenity": "fast_food",
        "brand": "Domino's",
        "brand:ks": "ڈومینوز",
        "brand:pa": "ਡੋਮੀਨੋਜ਼",
        "brand:ur": "ڈومینوز",
        "brand:wikidata": "Q839466",
        "brand:wikipedia": "en:Domino's Pizza",
        "cuisine": "pizza",
        "name": "Domino's",
        "name:kn": "ಡಾಮಿನೋಸ್",
        "name:ks": "ڈومینوز",
        "name:pa": "ਡੋਮੀਨੋਜ਼",
        "name:ur": "ڈومینوز",
        "takeaway": "yes"
      }
    },
    {
      "type": "node",
      "id": 5418989026,
      "lat": 13.0447975,
      "lon": 77.6208872,
      "tags": {
        "alt_name": "Dunkin' Donuts",
        "amenity": "fast_food",
        "brand": "Dunkin'",
        "brand:wikidata": "Q847743",
        "brand:wikipedia": "en:Dunkin' Donuts",
        "cuisine": "donut;coffee_shop",
        "name": "Dunkin'",
        "takeaway": "yes"
      }
    },
    {
      "type": "node",
      "id": 5418989524,
      "lat": 13.0448386,
      "lon": 77.620895,
      "tags": {
        "amenity": "cafe",
        "brand": "Cafe Coffee Day",
        "brand:wikidata": "Q5017235",
        "cuisine": "coffee_shop",
        "name": "Cafe Coffee Day",
        "name:kn": "ಕಫೆ ಕಾಫಿ ಡೇ",
        "takeaway": "yes"
      }
    },
    {
      "type": "node",
      "id": 5420443541,
      "lat": 13.0446064,
      "lon": 77.6209898,
      "tags": {
        "amenity": "restaurant"
      }
    },
    {
      "type": "node",
      "id": 5420443542,
      "lat": 13.0447475,
      "lon": 77.6210234,
      "tags": {
        "level": "1",
        "shop": "hairdresser"
      }
    },
    {
      "type": "node",
      "id": 5420443543,
      "lat": 13.0446352,
      "lon": 77.6208812,
      "tags": {
        "amenity": "pub",
        "internet_access": "no",
        "level": "1",
        "name": "Slug"
      }
    },
    {
      "type": "node",
      "id": 5490195921,
      "lat": 13.0392606,
      "lon": 77.6296949,
      "tags": {
        "addr:postcode": "560043",
        "addr:street": "19th Main Road",
        "name": "दक्षिता दूध",
        "name:en": "Dakshita Milk Parlour",
        "opening_hours": "Mo-Su 08:00-19:00",
        "shop": "beverages"
      }
    },
    {
      "type": "node",
      "id": 5966255481,
      "lat": 13.0408554,
      "lon": 77.6244043,
      "tags": {
        "name": "Heena Furnitures",
        "shop": "furniture"
      }
    },
    {
      "type": "node",
      "id": 5966255482,
      "lat": 13.0411194,
      "lon": 77.624478,
      "tags": {
        "amenity": "restaurant",
        "name": "Zaica Dine & Wine"
      }
    },
    {
      "type": "node",
      "id": 5966255483,
      "lat": 13.041054,
      "lon": 77.624476,
      "tags": {
        "amenity": "community_centre",
        "name": "Sapthagiri Party Hall"
      }
    },
    {
      "type": "node",
      "id": 5966255484,
      "lat": 13.0412239,
      "lon": 77.6245156,
      "tags": {
        "amenity": "restaurant",
        "cuisine": "regional",
        "name": "Baithaa"
      }
    },
    {
      "type": "node",
      "id": 6938005237,
      "lat": 13.0370143,
      "lon": 77.6238732,
      "tags": {
        "addr:district": "Bengaluru Urban",
        "addr:full": "#978, 18Th Cross,14Th Main, 5Th Block, 1st Stage,H.B.R.Layout",
        "addr:postcode": "560043",
        "addr:state": "Karnataka",
        "amenity": "hospital",
        "name": "Sri Sai Hospital, Bengaluru Urban",
        "source": "OpenGovernmentData"
      }
    },
    {
      "type": "node",
      "id": 6938695174,
      "lat": 13.0398217,
      "lon": 77.6230843,
      "tags": {
        "addr:district": "Bengaluru Urban",
        "addr:full": "Nagarwara",
        "addr:postcode": "560045",
        "addr:state": "Karnataka",
        "amenity": "hospital",
        "name": "J M J Hospital, Bengaluru Urban",
        "source": "OpenGovernmentData"
      }
    },
    {
      "type": "node",
      "id": 6948432486,
      "lat": 13.0342147,
      "lon": 77.6287343,
      "tags": {
        "addr:street": "Outer Ring Road",
        "check_date": "2025-06-14",
        "name": "Prestige",
        "shop": "houseware"
      }
    },
    {
      "type": "node",
      "id": 6948470987,
      "lat": 13.0355929,
      "lon": 77.6285283,
      "tags": {
        "addr:street": "Outer Ring Road",
        "amenity": "cafe",
        "brand": "Cafe Coffee Day",
        "brand:wikidata": "Q5017235",
        "check_date": "2024-03-04",
        "cuisine": "coffee_shop",
        "name": "Cafe Coffee Day",
        "name:kn": "ಕಫೆ ಕಾಫಿ ಡೇ",
        "payment:cash": "yes",
        "payment:credit_cards": "yes",
        "payment:debit_cards": "yes",
        "source": "survey",
        "takeaway": "yes",
        "wheelchair": "no"
      }
    },
    {
      "type": "node",
      "id": 6950412317,
      "lat": 13.029607,
      "lon": 77.6275328,
      "tags": {
        "addr:district": "Bengaluru Urban",
        "addr:full": "#797, 10Th Main, 1st Stage, 3Road Block, Hbr Layout, Kalyan Nagar Post, Near Hbr Layout-Bda",
        "addr:postcode": "560043",
        "addr:state": "Karnataka",
        "amenity": "clinic",
        "name": "Sakaria Healthcare Pvt. Ltd.",
        "source": "OpenGovernmentData",
        "wheelchair": "yes"
      }
    },
    {
      "type": "node",
      "id": 6961249685,
      "lat": 13.0406981,
      "lon": 77.6242926,
      "tags": {
        "amenity": "bureau_de_change",
        "name": "Currency Exchange"
      }
    },
    {
      "type": "node",
      "id": 7216398518,
      "lat": 13.0406271,
      "lon": 77.6236064,
      "tags": {
        "amenity": "fast_food",
        "cuisine": "burger",
        "name": "Burwinger"
      }
    },
    {
      "type": "node",
      "id": 7216399003,
      "lat": 13.0337466,
      "lon": 77.6288822,
      "tags": {
        "amenity": "bank",
        "atm": "yes",
        "brand": "Axis Bank",
        "brand:wikidata": "Q2003549",
        "check_date": "2025-06-14",
        "name": "Axis Bank",
        "name:kn": "ಆಕ್ಸಿಸ್ ಬ್ಯಾಂಕ್",
        "operator": "Axis Bank",
        "wheelchair": "no"
      }
    },
    {
      "type": "node",
      "id": 7216399004,
      "lat": 13.0334957,
      "lon": 77.6297419,
      "tags": {
        "name": "Ajfan Dates and Nuts",
        "shop": "convenience"
      }
    },
    {
      "type": "node",
      "id": 7216399005,
      "lat": 13.0324642,
      "lon": 77.6295514,
      "tags": {
        "amenity": "bench",
        "backrest": "yes"
      }
    },
    {
      "type": "node",
      "id": 7216399006,
      "lat": 13.0326713,
      "lon": 77.6294374,
      "tags": {
        "amenity": "bench",
        "backrest": "yes"
      }
    },
    {
      "type": "node",
      "id": 7216399007,
      "lat": 13.0328503,
      "lon": 77.6293489,
      "tags": {
        "amenity": "bench",
        "backrest": "yes"
      }
    },
    {
      "type": "node",
      "id": 7216399008,
      "lat": 13.0330241,
      "lon": 77.6292779,
      "tags": {
        "amenity": "bench",
        "backrest": "yes"
      }
    },
    {
      "type": "node",
      "id": 7216699835,
      "lat": 13.0412578,
      "lon": 77.6168941,
      "tags": {
        "addr:city": "Bengaluru",
        "addr:country": "IN",
        "addr:street": "Outer Ring Road",
        "addr:suburb": "Nagavara",
        "amenity": "coworking_space",
        "fee": "yes",
        "name": "Workshaala",
        "office": "coworking",
        "website": "https://workshaala.com"
      }
    },
    {
      "type": "node",
      "id": 7216699930,
      "lat": 13.0414329,
      "lon": 77.620731,
      "tags": {
        "amenity": "fast_food",
        "cuisine": "juice",
        "name": "Lassi Shop"
      }
    },
    {
      "type": "node",
      "id": 7232653689,
      "lat": 13.0409247,
      "lon": 77.6225422,
      "tags": {
        "amenity": "fast_food",
        "name": "La Zizone"
      }
    },
    {
      "type": "node",
      "id": 7256985308,
      "lat": 13.0407965,
      "lon": 77.616876,
      "tags": {
        "amenity": "atm",
        "brand": "State Bank of India",
        "brand:wikidata": "Q1340361",
        "operator": "State Bank of India",
        "operator:wikidata": "Q1340361",
        "short_name": "SBI"
      }
    },
    {
      "type": "node",
      "id": 7256985313,
      "lat": 13.040834,
      "lon": 77.6197195,
      "tags": {
        "amenity": "restaurant",
        "name": "Ancient Hyderabad"
      }
    },
    {
      "type": "node",
      "id": 7256985314,
      "lat": 13.0413703,
      "lon": 77.6219407,
      "tags": {
        "amenity": "restaurant",
        "name": "Food Castle"
      }
    },
    {
      "type": "node",
      "id": 7256985323,
      "lat": 13.0361167,
      "lon": 77.6283119,
      "tags": {
        "name": "Urban Habits",
        "shop": "furniture"
      }
    },
    {
      "type": "node",
      "id": 7256985351,
      "lat": 13.0336865,
      "lon": 77.6295394,
      "tags": {
        "name": "Kärcher",
        "phone": "1800 1234 180",
        "shop": "electronics",
        "website": "https://www.kaercher.com/in/"
      }
    },
    {
      "type": "node",
      "id": 7577248182,
      "lat": 13.037942,
      "lon": 77.62326,
      "tags": {
        "addr:district": "Bengaluru Urban",
        "addr:full": "Bengaluru",
        "addr:postcode": "560045",
        "addr:state": "Karnataka",
        "amenity": "clinic",
        "name": "Chethana Eye Clinic",
        "source": "Local Knowledge"
      }
    },
    {
      "type": "node",
      "id": 7577248211,
      "lat": 13.040826,
      "lon": 77.6189605,
      "tags": {
        "addr:district": "Bengaluru Urban",
        "addr:full": "Nagawara, Bengaluru",
        "addr:postcode": "560045",
        "addr:state": "Karnataka",
        "amenity": "clinic",
        "fixme": "Find actual location",
        "name": "KMC Multispeciality Clinic",
        "source": "Local Knowledge"
      }
    },
    {
      "type": "node",
      "id": 7577248274,
      "lat": 13.0316687,
      "lon": 77.6230459,
      "tags": {
        "addr:district": "Bengaluru Urban",
        "addr:full": "HBR Layout, Bengaluru",
        "addr:postcode": "560043",
        "addr:state": "Karnataka",
        "amenity": "clinic",
        "name": "Jawad ENT Clinic",
        "source": "Local Knowledge"
      }
    },
    {
      "type": "node",
      "id": 7577248277,
      "lat": 13.029101,
      "lon": 77.620568,
      "tags": {
        "addr:district": "Bengaluru Urban",
        "addr:full": "Kadugondanahalli, Bengaluru",
        "addr:postcode": "560045",
        "addr:state": "Karnataka",
        "amenity": "hospital",
        "name": "Pranam Dental Hospital",
        "source": "Local Knowledge"
      }
    },
    {
      "type": "node",
      "id": 8359629929,
      "lat": 13.0354947,
      "lon": 77.6285885,
      "tags": {
        "name": "Furniture Point",
        "shop": "furniture"
      }
    },
    {
      "type": "node",
      "id": 9527967749,
      "lat": 13.0415766,
      "lon": 77.6204588,
      "tags": {
        "amenity": "charging_station"
      }
    },
    {
      "type": "node",
      "id": 9527967763,
      "lat": 13.0414029,
      "lon": 77.6227494,
      "tags": {
        "amenity": "restaurant",
        "name": "Orange Leaf"
      }
    },
    {
      "type": "node",
      "id": 9527967779,
      "lat": 13.0370182,
      "lon": 77.6278442,
      "tags": {
        "amenity": "clinic",
        "name": "Navashakthi Nethralaya"
      }
    },
    {
      "type": "node",
      "id": 9527967792,
      "lat": 13.0347161,
      "lon": 77.6290365,
      "tags": {
        "name": "Olayaan",
        "shop": "furniture"
      }
    },
    {
      "type": "node",
      "id": 9527967797,
      "lat": 13.0332592,
      "lon": 77.6297969,
      "tags": {
        "name": "Furniture Store",
        "shop": "furniture"
      }
    },
    {
      "type": "node",
      "id": 9527967810,
      "lat": 13.0311713,
      "lon": 77.6272997,
      "tags": {
        "name": "Coffee Mechanics",
        "shop": "coffee",
        "wheelchair": "yes"
      }
    },
    {
      "type": "node",
      "id": 9590333379,
      "lat": 13.0414094,
      "lon": 77.6215772,
      "tags": {
        "amenity": "restaurant",
        "cuisine": "indian",
        "name": "Biriyani Zone"
      }
    },
    {
      "type": "node",
      "id": 9739831278,
      "lat": 13.0344639,
      "lon": 77.6291947,
      "tags": {
        "amenity": "hospital",
        "name": "Altius Hospital"
      }
    },
    {
      "type": "node",
      "id": 9811266167,
      "lat": 13.0426637,
      "lon": 77.6195428,
      "tags": {
        "addr:city": "Bengaluru",
        "addr:country": "IN",
        "addr:postcode": "560045",
        "addr:street": "Outer Ring Road",
        "addr:suburb": "Nagavara",
        "amenity": "coworking_space",
        "branch": "Manyata",
        "brand": "WeWork",
        "brand:wikidata": "Q19995004",
        "fee": "yes",
        "name": "WeWork Manyata",
        "office": "coworking",
        "opening_hours": "24/7",
        "operator": "WeWork",
        "website": "https://wework.co.in/bangalore/hebbal/manyata-tech-park/"
      }
    },
    {
      "type": "node",
      "id": 10032026861,
      "lat": 13.040585,
      "lon": 77.6196662,
      "tags": {
        "amenity": "restaurant",
        "contact:instagram": "thewoodpegger",
        "name": "The Woodpegger"
      }
    },
    {
      "type": "node",
      "id": 10291118230,
      "lat": 13.0456346,
      "lon": 77.621195,
      "tags": {
        "addr:city": "Bengaluru",
        "addr:country": "IN",
        "addr:housename": "Manyata Tech Park",
        "addr:postcode": "560045",
        "addr:street": "Outer Ring Road",
        "addr:suburb": "Nagavara",
        "addr:unit": "Mfar Greenheart",
        "amenity": "coworking_space",
        "brand": "The Executive Centre",
        "email": "bangalore@executivecentre.com",
        "fee": "yes",
        "level": "7",
        "name": "The Executive Centre",
        "office": "coworking",
        "operator": "The Executive Centre",
        "phone": "+91 80 6781 9999",
        "website": "https://www.executivecentre.com/en-in/office-space/bangalore-mfar-greenheart/"
      }
    },
    {
      "type": "node",
      "id": 11229746065,
      "lat": 13.0415009,
      "lon": 77.6196219,
      "tags": {
        "amenity": "cafe",
        "brand": "Third Wave Coffee Roasters",
        "brand:wikidata": "Q7785004",
        "cuisine": "coffee_shop",
        "delivery": "yes",
        "name": "Third Wave Coffee Roasters",
        "takeaway": "yes"
      }
    },
    {
      "type": "node",
      "id": 11229746066,
      "lat": 13.0415139,
      "lon": 77.6194583,
      "tags": {
        "amenity": "restaurant",
        "cuisine": "italian",
        "name": "Toscano"
      }
    },
    {
      "type": "node",
      "id": 11475302430,
      "lat": 13.0417334,
      "lon": 77.6196407,
      "tags": {
        "amenity": "pub",
        "contact:instagram": "biergartenbangalore",
        "cuisine": "pizza;regional;sandwich;burger",
        "delivery": "no",
        "name": "Biergarten Brewery & Kitchen",
        "smoking": "isolated",
        "takeaway": "yes"
      }
    },
    {
      "type": "node",
      "id": 11696226853,
      "lat": 13.0440956,
      "lon": 77.6218213,
      "tags": {
        "amenity": "parking_entrance",
        "parking": "underground"
      }
    },
    {
      "type": "node",
      "id": 11696226859,
      "lat": 13.0453054,
      "lon": 77.6199532,
      "tags": {
        "amenity": "parking_entrance",
        "parking": "underground"
      }
    },
    {
      "type": "node",
      "id": 11696226868,
      "lat": 13.0419372,
      "lon": 77.6196541,
      "tags": {
        "amenity": "restaurant",
        "name": "Nagavara Social"
      }
    },
    {
      "type": "node",
      "id": 11811087970,
      "lat": 13.0418236,
      "lon": 77.6194368,
      "tags": {
        "amenity": "restaurant",
        "name": "Daily Sushi"
      }
    },
    {
      "type": "node",
      "id": 11811087971,
      "lat": 13.0418536,
      "lon": 77.6196474,
      "tags": {
        "amenity": "restaurant",
        "name": "Bombay Curry House"
      }
    },
    {
      "type": "node",
      "id": 11878470075,
      "lat": 13.0441258,
      "lon": 77.6259832,
      "tags": {
        "brand": "Chroma",
        "check_date": "2024-05-04",
        "shop": "electronics"
      }
    },
    {
      "type": "node",
      "id": 11878470076,
      "lat": 13.0441052,
      "lon": 77.6259727,
      "tags": {
        "brand": "cult.fit",
        "brand:wikidata": "Q121289250",
        "check_date": "2024-05-04",
        "leisure": "fitness_centre",
        "name": "cult.fit"
      }
    },
    {
      "type": "node",
      "id": 11878470077,
      "lat": 13.0419502,
      "lon": 77.6247788,
      "tags": {
        "amenity": "pharmacy",
        "check_date": "2024-05-04",
        "healthcare": "pharmacy",
        "name": "Medishop"
      }
    },
    {
      "type": "node",
      "id": 11878470078,
      "lat": 13.0418385,
      "lon": 77.6246847,
      "tags": {
        "amenity": "school",
        "check_date": "2024-05-04",
        "name": "SJM Public School"
      }
    },
    {
      "type": "node",
      "id": 12020449758,
      "lat": 13.0416067,
      "lon": 77.6196259,
      "tags": {
        "air_conditioning": "yes",
        "amenity": "restaurant",
        "cuisine": "mexican",
        "indoor_seating": "yes",
        "name": "Sanchez",
        "opening_hours": "12:00-00:00",
        "outdoor_seating": "no",
        "phone": "+91 96060 71430"
      }
    },
    {
      "type": "node",
      "id": 12027541895,
      "lat": 13.0404766,
      "lon": 77.6191056,
      "tags": {
        "brand": "Zudio",
        "brand:wikidata": "Q123375926",
        "name": "Zudio",
        "shop": "clothes"
      }
    },
    {
      "type": "node",
      "id": 12027541932,
      "lat": 13.0435495,
      "lon": 77.6181118,
      "tags": {
        "amenity": "parking_entrance",
        "parking": "underground"
      }
    },
    {
      "type": "node",
      "id": 12208504074,
      "lat": 13.040747,
      "lon": 77.6199961,
      "tags": {
        "amenity": "pub",
        "name": "AEIOU"
      }
    },
    {
      "type": "node",
      "id": 12260570015,
      "lat": 13.0420326,
      "lon": 77.6194409,
      "tags": {
        "amenity": "restaurant",
        "cuisine": "regional",
        "name": "Bombay Brasserie"
      }
    },
    {
      "type": "node",
      "id": 12265540383,
      "lat": 13.0381967,
      "lon": 77.6235456,
      "tags": {
        "check_date": "2024-10-19",
        "name": "Sri Iyyengar Bakery",
        "shop": "bakery"
      }
    },
    {
      "type": "node",
      "id": 12265540823,
      "lat": 13.0392401,
      "lon": 77.6237335,
      "tags": {
        "check_date": "2024-10-19",
        "name": "Green Mobille Enterprises",
        "shop": "mobile_phone"
      }
    },
    {
      "type": "node",
      "id": 12265540824,
      "lat": 13.0392724,
      "lon": 77.6239011,
      "tags": {
        "check_date": "2024-10-19",
        "name": "A1 Power Tools And Hardware",
        "shop": "hardware"
      }
    },
    {
      "type": "node",
      "id": 12265540825,
      "lat": 13.0393774,
      "lon": 77.6240079,
      "tags": {
        "check_date": "2024-10-19",
        "name": "Delux Hardware And Paints",
        "shop": "hardware"
      }
    },
    {
      "type": "node",
      "id": 12265548493,
      "lat": 13.0358602,
      "lon": 77.6229561,
      "tags": {
        "amenity": "fuel",
        "name": "Bharat Petroleum"
      }
    },
    {
      "type": "node",
      "id": 12265558564,
      "lat": 13.0313563,
      "lon": 77.6209401,
      "tags": {
        "amenity": "school",
        "fixme": "location",
        "name": "St. Frazer High School"
      }
    },
    {
      "type": "node",
      "id": 12265573536,
      "lat": 13.0322329,
      "lon": 77.6216892,
      "tags": {
        "name": "Nova Gold Covering",
        "shop": "jewelry"
      }
    },
    {
      "type": "node",
      "id": 12265584625,
      "lat": 13.0348006,
      "lon": 77.6230232,
      "tags": {
        "name": "Uni Gas",
        "shop": "fuel"
      }
    },
    {
      "type": "node",
      "id": 12450977225,
      "lat": 13.0413862,
      "lon": 77.6216592,
      "tags": {
        "amenity": "fast_food",
        "check_date": "2024-12-25",
        "name": "The Taste of Bengal"
      }
    },
    {
      "type": "node",
      "id": 12450977226,
      "lat": 13.0413867,
      "lon": 77.6217785,
      "tags": {
        "amenity": "fast_food",
        "check_date": "2024-12-25",
        "name": "Kakatiya Foods"
      }
    },
    {
      "type": "node",
      "id": 12450977227,
      "lat": 13.0413968,
      "lon": 77.6223288,
      "tags": {
        "check_date": "2024-12-25",
        "name": "The Liquor Store",
        "shop": "alcohol"
      }
    },
    {
      "type": "node",
      "id": 12450999452,
      "lat": 13.0378554,
      "lon": 77.6266436,
      "tags": {
        "amenity": "dentist",
        "check_date": "2024-12-25",
        "healthcare": "dentist",
        "name": "Plaza Dental Care"
      }
    },
    {
      "type": "node",
      "id": 12450999453,
      "lat": 13.0328536,
      "lon": 77.6300149,
      "tags": {
        "brand": "Nissan",
        "brand:wikidata": "Q20165",
        "check_date": "2024-12-25",
        "name": "Nissan",
        "shop": "car"
      }
    },
    {
      "type": "node",
      "id": 12461000329,
      "lat": 13.0416197,
      "lon": 77.6194652,
      "tags": {
        "amenity": "cafe",
        "brand": "Theobroma",
        "brand:wikidata": "Q124374469",
        "delivery": "yes",
        "name": "Theobroma",
        "shop": "pastry",
        "takeaway": "yes"
      }
    },
    {
      "type": "node",
      "id": 12461000330,
      "lat": 13.0420275,
      "lon": 77.6196581,
      "tags": {
        "addr:city": "Bangalore",
        "addr:country": "IN",
        "addr:place": "Manyata Tech Park",
        "addr:suburb": "Nagavara",
        "amenity": "restaurant",
        "contact:facebook": "nasiandmee",
        "contact:instagram": "nasiandmee",
        "cuisine": "asian",
        "delivery": "yes",
        "name": "Nasi and Mee",
        "official_name": "Nasi and Mee Asian Canteen",
        "outdoor_seating": "yes",
        "takeaway": "yes",
        "website": "https://www.nasiandmee.co.in/"
      }
    },
    {
      "type": "node",
      "id": 12570933738,
      "lat": 13.040249,
      "lon": 77.6241636,
      "tags": {
        "access": "yes",
        "amenity": "toilets",
        "fee": "yes"
      }
    },
    {
      "type": "node",
      "id": 12622264508,
      "lat": 13.0400691,
      "lon": 77.624792,
      "tags": {
        "addr:city": "Bengaluru",
        "addr:district": "Bengaluru Urban",
        "addr:full": "Image diagnostics,#1073,2nd floor, Nagawara signal, 5th Block, 1st Stage, HBR Layout, Bengaluru, Karnataka 560045",
        "addr:postcode": "560045",
        "addr:street": "Nagawara Main Road",
        "amenity": "dentist",
        "healthcare": "dentist",
        "healthcare:speciality": "orthodontics;general;per;periodontist;implantologist",
        "name": "EVA Esthetic & Implant Dental Centre",
        "opening_hours": "24/7",
        "operator": "Dr John James",
        "website": "https://evaestheticandimplantdental.com/"
      }
    },
    {
      "type": "node",
      "id": 12918743589,
      "lat": 13.0349489,
      "lon": 77.6289414,
      "tags": {
        "check_date": "2025-06-15",
        "name": "Nilambur Furniture",
        "shop": "furniture"
      }
    },
    {
      "type": "way",
      "id": 37692459,
      "center": {
        "lat": 13.0352768,
        "lon": 77.6264044
      },
      "tags": {
        "boundary": "protected_area",
        "leisure": "nature_reserve",
        "name": "Hennur Biodiversity Park",
        "name:kn": "ಹೆಣ್ಣೂರು ಕೆರೆ ಜೀವ ವೈವಿಧ್ಯ ವನ",
        "natural": "wood"
      }
    },
    {
      "type": "way",
      "id": 183863413,
      "center": {
        "lat": 13.0304973,
        "lon": 77.6223395
      },
      "tags": {
        "addr:street": "Nagawara Main Road",
        "amenity": "college",
        "name": "Darul Uloom Sabeelur Rashad Arabic College"
      }
    },
    {
      "type": "way",
      "id": 184943581,
      "center": {
        "lat": 13.0362002,
        "lon": 77.619781
      },
      "tags": {
        "amenity": "college",
        "landuse": "education",
        "name": "HKBK College of Engineering",
        "name:kn": "ಎಚ್ ಕೆ ಬಿ ಕೆ ಇಂಜಿನಿಯರಿಂಗ್ ಕಾಲೇಜು",
        "wheelchair": "yes"
      }
    },
    {
      "type": "way",
      "id": 188030764,
      "center": {
        "lat": 13.032747,
        "lon": 77.6293274
      },
      "tags": {
        "leisure": "park",
        "name": "BDA Park"
      }
    },
    {
      "type": "way",
      "id": 346726965,
      "center": {
        "lat": 13.0350694,
        "lon": 77.6198957
      },
      "tags": {
        "amenity": "restaurant",
        "building": "yes",
        "name": "HKBK Hostel Mess"
      }
    },
    {
      "type": "way",
      "id": 491335685,
      "center": {
        "lat": 13.0459998,
        "lon": 77.6200361
      },
      "tags": {
        "amenity": "parking",
        "building": "yes",
        "parking": "multi-storey"
      }
    },
    {
      "type": "way",
      "id": 726880525,
      "center": {
        "lat": 13.0443624,
        "lon": 77.6219702
      },
      "tags": {
        "amenity": "theatre",
        "operator": "Embassy Group",
        "theatre:type": "amphi"
      }
    },
    {
      "type": "way",
      "id": 772906283,
      "center": {
        "lat": 13.03797,
        "lon": 77.6253276
      },
      "tags": {
        "access": "yes",
        "leisure": "playground",
        "name": "Dr. B R Ambedkar Play Ground"
      }
    },
    {
      "type": "way",
      "id": 772934838,
      "center": {
        "lat": 13.0420137,
        "lon": 77.6166973
      },
      "tags": {
        "access": "customers",
        "amenity": "parking",
        "parking": "surface"
      }
    },
    {
      "type": "way",
      "id": 772934839,
      "center": {
        "lat": 13.0391538,
        "lon": 77.6183077
      },
      "tags": {
        "amenity": "school",
        "check_date": "2025-06-14",
        "name": "The Indian Public School"
      }
    },
    {
      "type": "way",
      "id": 772934851,
      "center": {
        "lat": 13.0414443,
        "lon": 77.6205262
      },
      "tags": {
        "alt_name": "Jay Hanuman Service Station",
        "amenity": "fuel",
        "brand": "Indian Oil",
        "brand:wikidata": "Q1289348",
        "building": "roof",
        "layer": "1",
        "name": "Indian Oil",
        "name:kn": "ಇಂಡಿಯನ್ ಆಯಿಲ್",
        "operator": "Indian Oil"
      }
    },
    {
      "type": "way",
      "id": 777618530,
      "center": {
        "lat": 13.0350964,
        "lon": 77.6279689
      },
      "tags": {
        "access": "yes",
        "leisure": "playground"
      }
    },
    {
      "type": "way",
      "id": 777618532,
      "center": {
        "lat": 13.0323295,
        "lon": 77.6295156
      },
      "tags": {
        "access": "yes",
        "leisure": "playground"
      }
    },
    {
      "type": "way",
      "id": 1034261995,
      "center": {
        "lat": 13.0425565,
        "lon": 77.620035
      },
      "tags": {
        "amenity": "events_venue",
        "building": "yes",
        "name": "Manyata Convention Centre"
      }
    },
    {
      "type": "way",
      "id": 1097428090,
      "center": {
        "lat": 13.0426074,
        "lon": 77.6316556
      },
      "tags": {
        "leisure": "park"
      }
    },
    {
      "type": "way",
      "id": 1172705742,
      "center": {
        "lat": 13.0439074,
        "lon": 77.6254342
      },
      "tags": {
        "brand": "Volkswagen",
        "brand:wikidata": "Q246",
        "check_date": "2024-05-04",
        "name": "Volkswagen Bangalore North",
        "shop": "car"
      }
    },
    {
      "type": "way",
      "id": 1186887011,
      "center": {
        "lat": 13.0422377,
        "lon": 77.6169516
      },
      "tags": {
        "amenity": "events_venue",
        "landuse": "commercial",
        "name": "Manpho Convention Centre"
      }
    },
    {
      "type": "way",
      "id": 1202598176,
      "center": {
        "lat": 13.042322,
        "lon": 77.6303916
      },
      "tags": {
        "leisure": "playground"
      }
    },
    {
      "type": "way",
      "id": 1250225444,
      "center": {
        "lat": 13.0393673,
        "lon": 77.6276175
      },
      "tags": {
        "leisure": "park"
      }
    },
    {
      "type": "way",
      "id": 1258088711,
      "center": {
        "lat": 13.0440642,
        "lon": 77.6189822
      },
      "tags": {
        "leisure": "garden"
      }
    },
    {
      "type": "way",
      "id": 1258088712,
      "center": {
        "lat": 13.0449487,
        "lon": 77.6191746
      },
      "tags": {
        "leisure": "garden"
      }
    },
    {
      "type": "way",
      "id": 1262435451,
      "center": {
        "lat": 13.0357385,
        "lon": 77.620272
      },
      "tags": {
        "access": "students",
        "leisure": "pitch",
        "lit": "yes",
        "name": "HKBK basketball court",
        "sport": "basketball"
      }
    },
    {
      "type": "way",
      "id": 1262435886,
      "center": {
        "lat": 13.0375699,
        "lon": 77.6196888
      },
      "tags": {
        "amenity": "parking",
        "operator": "HKBK",
        "operator:type": "university",
        "parking": "surface",
        "surface": "paved"
      }
    },
    {
      "type": "way",
      "id": 1262436364,
      "center": {
        "lat": 13.03761,
        "lon": 77.6193144
      },
      "tags": {
        "leisure": "pitch",
        "lit": "yes",
        "name": "HKBK Football ground",
        "sport": "soccer",
        "surface": "ground"
      }
    },
    {
      "type": "way",
      "id": 1262437141,
      "center": {
        "lat": 13.0352341,
        "lon": 77.6200897
      },
      "tags": {
        "amenity": "restaurant",
        "building": "yes",
        "name": "HKBK Mess"
      }
    },
    {
      "type": "way",
      "id": 1262437142,
      "center": {
        "lat": 13.0369675,
        "lon": 77.6197695
      },
      "tags": {
        "amenity": "restaurant",
        "building": "yes",
        "name": "HKBK canteen"
      }
    },
    {
      "type": "way",
      "id": 1273452287,
      "center": {
        "lat": 13.0325874,
        "lon": 77.6310675
      },
      "tags": {
        "access": "private",
        "amenity": "parking",
        "parking": "surface"
      }
    },
    {
      "type": "way",
      "id": 1273452295,
      "center": {
        "lat": 13.0320661,
        "lon": 77.6305706
      },
      "tags": {
        "access": "private",
        "amenity": "parking",
        "parking": "surface"
      }
    },
    {
      "type": "way",
      "id": 1273452296,
      "center": {
        "lat": 13.0322544,
        "lon": 77.6307657
      },
      "tags": {
        "access": "private",
        "amenity": "parking",
        "parking": "surface"
      }
    },
    {
      "type": "way",
      "id": 1284773488,
      "center": {
        "lat": 13.0405542,
        "lon": 77.6185896
      },
      "tags": {
        "amenity": "fuel",
        "fuel:cng": "yes",
        "name": "GAIL Gas Station"
      }
    },
    {
      "type": "way",
      "id": 1298275285,
      "center": {
        "lat": 13.0404094,
        "lon": 77.6159369
      },
      "tags": {
        "access": "private",
        "amenity": "parking",
        "parking": "surface"
      }
    },
    {
      "type": "way",
      "id": 1298275345,
      "center": {
        "lat": 13.0427642,
        "lon": 77.6200805
      },
      "tags": {
        "access": "private",
        "leisure": "swimming_pool"
      }
    },
    {
      "type": "way",
      "id": 1311756276,
      "center": {
        "lat": 13.0443092,
        "lon": 77.6266882
      },
      "tags": {
        "amenity": "fuel",
        "brand:wikidata": "Q1289348",
        "check_date": "2024-05-04",
        "self_service": "no"
      }
    },
    {
      "type": "way",
      "id": 1343677903,
      "center": {
        "lat": 13.0425437,
        "lon": 77.6162011
      },
      "tags": {
        "addr:city": "Bengaluru",
        "addr:street": "Outer Ring Road",
        "addr:suburb": "Nagavara",
        "amenity": "pub",
        "capacity": "1500",
        "contact:instagram": "icbindiancraftbrewery",
        "landuse": "commercial",
        "microbrewery": "yes",
        "name": "ICB Indian Craft Brewery",
        "website": "https://icb.beer/"
      }
    },
    {
      "type": "way",
      "id": 1364056334,
      "center": {
        "lat": 13.0414705,
        "lon": 77.6263227
      },
      "tags": {
        "amenity": "events_venue",
        "landuse": "commercial",
        "name": "Sri Lakshmi Srinivasa Kalyana Mantapa"
      }
    },
    {
      "type": "way",
      "id": 1364056392,
      "center": {
        "lat": 13.0424074,
        "lon": 77.6306024
      },
      "tags": {
        "leisure": "playground"
      }
    },
    {
      "type": "way",
      "id": 1373341035,
      "center": {
        "lat": 13.0328568,
        "lon": 77.6306636
      },
      "tags": {
        "amenity": "school",
        "name": "Heritage International School"
      }
    }
  ]
}