{
  "area_name": "Nagarabhavi",
  "osm_id": 1285911548,
  "osm_type": "node",
  "place_type": "suburb",
  "amenity_count": 97,
  "amenities": [
    {
      "type": "node",
      "id": 1463507632,
      "lat": 12.9746134,
      "lon": 77.5129757,
      "tags": {
        "addr:district": "Bengaluru Urban",
        "addr:full": "No-5, 20 Th Cross, Malagala Under Pass Ring Road",
        "addr:postcode": "560091",
        "addr:state": "Karnataka",
        "addr:subdistrict": "Nagarbhavi",
        "amenity": "hospital",
        "name": "Vasan Eye Care Hospital, Nagarabhavi",
        "name:kn": "ವಿಜಯ ನೇತ್ರಾಲಯ",
        "operator:type": "private",
        "source": "OpenGovernmentData",
        "website": "http://www.vasaneye.in/"
      }
    },
    {
      "type": "node",
      "id": 1581348944,
      "lat": 12.9607559,
      "lon": 77.5070056,
      "tags": {
        "addr:city": "Bangalore",
        "addr:postcode": "560072",
        "addr:street": "Mallathahalli Road",
        "name": "MK Ahmed Super Market",
        "organic": "yes",
        "shop": "supermarket",
        "website": "https://www.mkretail.com/"
      }
    },
    {
      "type": "node",
      "id": 1581434245,
      "lat": 12.9606694,
      "lon": 77.5122249,
      "tags": {
        "addr:street": "Nagarbhavi 80 Feet Road",
        "name": "Shoprite",
        "shop": "supermarket"
      }
    },
    {
      "type": "node",
      "id": 1778854605,
      "lat": 12.9603129,
      "lon": 77.513258,
      "tags": {
        "amenity": "restaurant",
        "cuisine": "indian",
        "name": "Ron-Inn Bar & Restaurant",
        "name:kn": "ರೊ-ಇನ್ ಬಾರ್ & ರೆಸ್ಟೋರೆಂಟ್"
      }
    },
    {
      "type": "node",
      "id": 1778854609,
      "lat": 12.9606716,
      "lon": 77.5125104,
      "tags": {
        "alt_name": "Nammoora Thindi",
        "amenity": "fast_food",
        "cuisine": "regional",
        "designation": "Darshini",
        "diet:vegetarian": "only",
        "name": "Nammura Tindi"
      }
    },
    {
      "type": "node",
      "id": 1778854659,
      "lat": 12.9608906,
      "lon": 77.5106429,
      "tags": {
        "amenity": "fuel",
        "brand": "BP",
        "name": "Petro / Gas  Station"
      }
    },
    {
      "type": "node",
      "id": 2212451363,
      "lat": 12.9608966,
      "lon": 77.5075094,
      "tags": {
        "amenity": "restaurant",
        "name": "Swathi Restaurant"
      }
    },
    {
      "type": "node",
      "id": 2212459207,
      "lat": 12.9613237,
      "lon": 77.511726,
      "tags": {
        "addr:district": "Bengaluru Urban",
        "addr:full": "# 611 /612, Nagarabhavi Main Road",
        "addr:postcode": "560072",
        "addr:state": "Karnataka",
        "addr:subdistrict": "Nagarbhavi",
        "amenity": "hospital",
        "name": "Panacea Hospital, Nagarabhavi",
        "operator:type": "private",
        "source": "OpenGovernmentData",
        "website": "http://www.panaceahospital.com/"
      }
    },
    {
      "type": "node",
      "id": 4447127001,
      "lat": 12.9705987,
      "lon": 77.5153346,
      "tags": {
        "addr:city": "Bangalore",
        "addr:postcode": "560072",
        "addr:street": "6th cross Rd, Teachers Colony, Nagarbhavi",
        "amenity": "pharmacy",
        "name": "Careongo Pharmacy Teachers Colony",
        "phone": "+91 89998 08080"
      }
    },
    {
      "type": "node",
      "id": 4447142720,
      "lat": 12.9706209,
      "lon": 77.5151893,
      "tags": {
        "addr:city": "Bangalore",
        "addr:housenumber": "63",
        "addr:postcode": "560072",
        "addr:street": ", Byraveshwara Nagar, 2nd Main, Moodalapalya, Nagarabhavi Main Road, 2nd Block, Govindaraja Nagar Ward",
        "amenity": "hospital",
        "name": "Dhanush Hospital",
        "name:kn": "ಧನುಷ್ ಆಸ್ಪತ್ರೆ",
        "phone": "080 2318 5544"
      }
    },
    {
      "type": "node",
      "id": 4488421295,
      "lat": 12.9611063,
      "lon": 77.5089279,
      "tags": {
        "addr:city": "Bangalore",
        "addr:housenumber": "#626",
        "addr:postcode": "560072",
        "addr:street": "Mallathahalli Road",
        "name": "Greens Unisex Salon And Spa Professionals",
        "opening_hours": "08:30-20:30",
        "phone": "+91-80-33566078",
        "shop": "beauty"
      }
    },
    {
      "type": "node",
      "id": 4490281981,
      "lat": 12.9626119,
      "lon": 77.5083845,
      "tags": {
        "addr:city": "Bangalore",
        "addr:housenumber": "No 690,",
        "addr:postcode": "560072",
        "addr:street": "1st Floor, 80 Feet Road,Vinayaka Layout, Nagarbhavi,",
        "name": "Green Trends Unisex Salon and Spa",
        "opening_hours": "09:30-21:00",
        "phone": "91)-80-33700880",
        "shop": "beauty",
        "website": "https://www.mygreentrends.in/"
      }
    },
    {
      "type": "node",
      "id": 6938695149,
      "lat": 12.9579894,
      "lon": 77.5114394,
      "tags": {
        "addr:district": "Bengaluru Urban",
        "addr:full": "54, 4th cross,4th main, NGEF Layout, Nrupathunganagar, Nagarabhavi, Bengaluru, Karnataka 560072",
        "addr:postcode": "560072",
        "addr:state": "Karnataka",
        "amenity": "hospital",
        "name": "Chandana Hospital",
        "source": "OpenGovernmentData"
      }
    },
    {
      "type": "node",
      "id": 6948391975,
      "lat": 12.9705902,
      "lon": 77.5108503,
      "tags": {
        "addr:district": "Bengaluru Urban",
        "addr:full": "No. 86, 2nd Main,16Th D Cross,Malagala,Inner Ring Road,Underpass, Nagarabhavi 2nd Stag",
        "addr:postcode": "560072",
        "addr:state": "Karnataka",
        "amenity": "hospital",
        "name": "Deepashri Hospital",
        "source": "OpenGovernmentData"
      }
    },
    {
      "type": "node",
      "id": 7208502285,
      "lat": 12.9725821,
      "lon": 77.5117195,
      "tags": {
        "amenity": "pharmacy",
        "name": "Moulya Medicals"
      }
    },
    {
      "type": "node",
      "id": 7208502385,
      "lat": 12.9727456,
      "lon": 77.511896,
      "tags": {
        "amenity": "restaurant",
        "name": "By2coffee"
      }
    },
    {
      "type": "node",
      "id": 7572526744,
      "lat": 12.9623461,
      "lon": 77.5109494,
      "tags": {
        "addr:district": "Bengaluru Urban",
        "addr:full": "Naagarabhaavi, Bengaluru",
        "addr:postcode": "560056",
        "addr:state": "Karnataka",
        "amenity": "clinic",
        "name": "Cosmic Health Centre",
        "source": "Local Knowledge"
      }
    },
    {
      "type": "node",
      "id": 7572526761,
      "lat": 12.9695445,
      "lon": 77.5154183,
      "tags": {
        "addr:district": "Bengaluru Urban",
        "addr:full": "Shivananda Nagar, Govindaraja Nagar Ward, Bengaluru",
        "addr:postcode": "560072",
        "addr:state": "Karnataka",
        "amenity": "dentist",
        "name": "Murali dental clinic",
        "source": "Local Knowledge"
      }
    },
    {
      "type": "node",
      "id": 7572526783,
      "lat": 12.9639829,
      "lon": 77.5188899,
      "tags": {
        "addr:district": "Bengaluru Urban",
        "addr:full": "Govindrajanagar, Anubhav Nagar, Mudalapalya, Vijayanagar, Bengaluru",
        "addr:postcode": "560072",
        "addr:state": "Karnataka",
        "amenity": "hospital",
        "name": "Government Hospital",
        "name:kn": "ಸರ್ಕಾರಿ ಆಸ್ಪತ್ರೆ",
        "source": "Local Knowledge"
      }
    },
    {
      "type": "node",
      "id": 7572526787,
      "lat": 12.9637162,
      "lon": 77.5188263,
      "tags": {
        "addr:district": "Bengaluru Urban",
        "addr:full": "Govindaraja Nagar Ward, Garden Villas, Vijayanagar, Bengaluru",
        "addr:postcode": "560072",
        "addr:state": "Karnataka",
        "amenity": "hospital",
        "name": "Shanthakumari Hospital",
        "source": "Local Knowledge"
      }
    },
    {
      "type": "node",
      "id": 7572526797,
      "lat": 12.9745782,
      "lon": 77.5130087,
      "tags": {
        "addr:district": "Bengaluru Urban",
        "addr:full": "Marilingappa Extension, Naagarabhaavi, Bengaluru",
        "addr:postcode": "560091",
        "addr:state": "Karnataka",
        "amenity": "clinic",
        "name": "Vijaya Netralaya",
        "source": "Local Knowledge"
      }
    },
    {
      "type": "node",
      "id": 7972177569,
      "lat": 12.9698416,
      "lon": 77.5082103,
      "tags": {
        "amenity": "college",
        "name": "NRI Institute",
        "phone": "9448524579"
      }
    },
    {
      "type": "node",
      "id": 7976322073,
      "lat": 12.9699359,
      "lon": 77.5077552,
      "tags": {
        "amenity": "school",
        "name": "St. Jhons high school",
        "phone": "+918023210044"
      }
    },
    {
      "type": "node",
      "id": 8187133377,
      "lat": 12.9600148,
      "lon": 77.5195184,
      "tags": {
        "amenity": "vending_machine",
        "name": "Water ATM",
        "operator": "BBMP",
        "vending": "water"
      }
    },
    {
      "type": "node",
      "id": 8187963493,
      "lat": 12.9737273,
      "lon": 77.5098419,
      "tags": {
        "addr:full": "1st Main Road 702 II nd MAIN II nd STAGE, 11th Block, Marilingappa Extension, Naagarabhaavi, Bengaluru, Karnataka",
        "addr:state": "Karnataka",
        "amenity": "bank",
        "brand": "Allahabad Bank",
        "brand:wikidata": "Q2018840",
        "name": "Allahabad Bank",
        "name:kn": "ಅಲ್ಲಹಾಬಾದ್ ಬ್ಯಾಂಕ್"
      }
    },
    {
      "type": "node",
      "id": 8187963554,
      "lat": 12.967716,
      "lon": 77.5054094,
      "tags": {
        "addr:full": "No.19/6, Ring Road, Papareddy Palya, Nagarabhavi 2Nd Stage, Annapurneshwari Nagar, Papareddipalya, Annapurneshwari Nagar, Bengaluru, Karnataka",
        "addr:state": "Karnataka",
        "amenity": "bank",
        "brand": "Andhra Bank",
        "brand:wikidata": "Q2003476",
        "name": "Andhra Bank",
        "name:kn": "ಆಂಧ್ರ ಬ್ಯಾಂಕ್"
      }
    },
    {
      "type": "node",
      "id": 8187963620,
      "lat": 12.9605743,
      "lon": 77.5127492,
      "tags": {
        "addr:full": "607, 80 Feet Main Rd, NGEF Layout, 2nd Stage, Naagarabhaavi, Bengaluru, Karnataka",
        "addr:state": "Karnataka",
        "amenity": "bank",
        "brand": "State Bank of India",
        "brand:wikidata": "Q1340361",
        "name": "State Bank of India",
        "short_name": "SBI"
      }
    },
    {
      "type": "node",
      "id": 8240257732,
      "lat": 12.9730288,
      "lon": 77.512752,
      "tags": {
        "name": "Track & Trail",
        "shop": "bicycle"
      }
    },
    {
      "type": "node",
      "id": 8240257734,
      "lat": 12.963427,
      "lon": 77.5120881,
      "tags": {
        "name": "Car Way",
        "shop": "car_repair"
      }
    },
    {
      "type": "node",
      "id": 8240257735,
      "lat": 12.9593847,
      "lon": 77.5156742,
      "tags": {
        "name": "Hafele Appliances",
        "shop": "hardware"
      }
    },
    {
      "type": "node",
      "id": 8240257740,
      "lat": 12.9584933,
      "lon": 77.5173345,
      "tags": {
        "amenity": "fuel",
        "brand": "Indian Oil",
        "brand:wikidata": "Q1289348",
        "brand:wikipedia": "en:Indian Oil Corporation",
        "name": "Indian Oil",
        "operator": "Indian Oil"
      }
    },
    {
      "type": "node",
      "id": 9654252385,
      "lat": 12.9718226,
      "lon": 77.5078985,
      "tags": {
        "amenity": "bar",
        "name": "Purab Restobar"
      }
    },
    {
      "type": "node",
      "id": 9654252386,
      "lat": 12.9701824,
      "lon": 77.5068243,
      "tags": {
        "amenity": "bank",
        "atm": "yes",
        "brand": "State Bank of India",
        "brand:wikidata": "Q1340361",
        "name": "State Bank of India",
        "operator": "State Bank of India",
        "short_name": "SBI"
      }
    },
    {
      "type": "node",
      "id": 9690149040,
      "lat": 12.9585992,
      "lon": 77.5123107,
      "tags": {
        "amenity": "shelter",
        "shelter_type": "gazebo"
      }
    },
    {
      "type": "node",
      "id": 9690149065,
      "lat": 12.9595232,
      "lon": 77.5141722,
      "tags": {
        "amenity": "shelter",
        "shelter_type": "gazebo"
      }
    },
    {
      "type": "node",
      "id": 11108947155,
      "lat": 12.9677851,
      "lon": 77.5054415,
      "tags": {
        "addr:city": "bengaluru",
        "addr:district": "bengaluru urban",
        "addr:housenumber": "19/6",
        "addr:postcode": "560072",
        "addr:street": "Nagarabhavi 2nd Stage, Papareddipalya, Annapurneshwari Nagar",
        "amenity": "theatre",
        "name": "Chaplin Hut - Private Theater Nagarbhavi",
        "website": "https://www.chaplinhut.com/"
      }
    },
    {
      "type": "node",
      "id": 11278785734,
      "lat": 12.9641288,
      "lon": 77.5090183,
      "tags": {
        "amenity": "shelter",
        "shelter_type": "gazebo"
      }
    },
    {
      "type": "node",
      "id": 11385217932,
      "lat": 12.9596032,
      "lon": 77.5112481,
      "tags": {
        "addr:district": "Bengaluru Urban",
        "addr:full": "No 23, 80 Feet Road, Gurukrupa Layout",
        "addr:postcode": "560072",
        "addr:state": "Karnataka",
        "addr:subdistrict": "Nagarbhavi",
        "amenity": "hospital",
        "healthcare": "hospital",
        "healthcare:speciality": "multi speciality",
        "name": "Fortis Hospital, Nagarbhavi",
        "name:kn": "ಫೋರ್ಟಿಸ್ ಆಸ್ಪತ್ರೆ",
        "operator:type": "private",
        "source": "OpenGovernmentData",
        "website": "https://www.fortishealthcare.com/"
      }
    },
    {
      "type": "node",
      "id": 12862846455,
      "lat": 12.9608144,
      "lon": 77.5119092,
      "tags": {
        "amenity": "fast_food",
        "cuisine": "burger;wings;chicken",
        "delivery": "yes",
        "name": "Big Guys: Wings & More",
        "takeaway": "yes"
      }
    },
    {
      "type": "node",
      "id": 12989944583,
      "lat": 12.9663035,
      "lon": 77.5090733,
      "tags": {
        "amenity": "cafe",
        "name": "Cafe 363 x Neu Leaves"
      }
    },
    {
      "type": "node",
      "id": 12989944584,
      "lat": 12.9660814,
      "lon": 77.5093295,
      "tags": {
        "amenity": "cafe",
        "brand": "Starbucks",
        "brand:wikidata": "Q37158",
        "cuisine": "coffee_shop",
        "name": "Starbucks",
        "official_name": "Starbucks Coffee",
        "takeaway": "yes"
      }
    },
    {
      "type": "node",
      "id": 12990000217,
      "lat": 12.9637093,
      "lon": 77.5064206,
      "tags": {
        "amenity": "college",
        "name": "AIT Information Science"
      }
    },
    {
      "type": "node",
      "id": 12990000218,
      "lat": 12.963759,
      "lon": 77.5057876,
      "tags": {
        "amenity": "theatre",
        "name": "AIT Amphithatre",
        "theatre:type": "amphi"
      }
    },
    {
      "type": "node",
      "id": 12990000219,
      "lat": 12.963542,
      "lon": 77.505565,
      "tags": {
        "amenity": "college",
        "name": "AIT Medical Electronics"
      }
    },
    {
      "type": "node",
      "id": 12990000220,
      "lat": 12.9640334,
      "lon": 77.5065815,
      "tags": {
        "amenity": "college",
        "name": "AIT Mechanical Engineering"
      }
    },
    {
      "type": "node",
      "id": 12990000221,
      "lat": 12.9647601,
      "lon": 77.5068685,
      "tags": {
        "amenity": "college",
        "name": "AIT Civil Engineering"
      }
    },
    {
      "type": "node",
      "id": 12990000222,
      "lat": 12.9645993,
      "lon": 77.5052176,
      "tags": {
        "amenity": "fast_food",
        "name": "AIT Canteen"
      }
    },
    {
      "type": "node",
      "id": 12990000223,
      "lat": 12.9646529,
      "lon": 77.5056025,
      "tags": {
        "amenity": "library",
        "name": "AIT Library"
      }
    },
    {
      "type": "way",
      "id": 113384298,
      "center": {
        "lat": 12.9646119,
        "lon": 77.5066686
      },
      "tags": {
        "alt_name": "AIT",
        "amenity": "college",
        "barrier": "wall",
        "landuse": "college",
        "material": "concrete",
        "name": "Dr. Ambedkar Institute of Technology",
        "name:etymology:wikidata": "Q231690",
        "name:kn": "ಡಾ. ಅಂಬೇಡ್ಕರ್ ಇನ್ಸ್ಟಿಟ್ಯೂಟ್ ಆಫ್ ಟೆಕ್ನಾಲಜಿ",
        "wikidata": "Q5303957"
      }
    },
    {
      "type": "way",
      "id": 113391316,
      "center": {
        "lat": 12.9617018,
        "lon": 77.5054207
      },
      "tags": {
        "amenity": "college",
        "name": "Indian Institute of Plantation Management",
        "short_name": "IIPM",
        "website": "https://iimpb.edu.in"
      }
    },
    {
      "type": "way",
      "id": 140374686,
      "center": {
        "lat": 12.9680366,
        "lon": 77.5178655
      },
      "tags": {
        "leisure": "park"
      }
    },
    {
      "type": "way",
      "id": 172667027,
      "center": {
        "lat": 12.9670655,
        "lon": 77.5201346
      },
      "tags": {
        "amenity": "place_of_worship",
        "building": "yes",
        "name": "Muneshwara Temple",
        "name:kn": "ಮುನೇಶ್ವರ ದೇವಸ್ಥಾನ",
        "religion": "hindu",
        "wheelchair": "no"
      }
    },
    {
      "type": "way",
      "id": 315329959,
      "center": {
        "lat": 12.965594,
        "lon": 77.5063641
      },
      "tags": {
        "leisure": "stadium",
        "name": "Dr. AIT College Ground",
        "sport": "multi"
      }
    },
    {
      "type": "way",
      "id": 345947957,
      "center": {
        "lat": 12.9632056,
        "lon": 77.5144389
      },
      "tags": {
        "amenity": "place_of_worship",
        "religion": "hindu"
      }
    },
    {
      "type": "way",
      "id": 345948416,
      "center": {
        "lat": 12.9670861,
        "lon": 77.5101906
      },
      "tags": {
        "amenity": "place_of_worship",
        "building": "yes",
        "name": "St. Paul's Methodist Church",
        "religion": "christian"
      }
    },
    {
      "type": "way",
      "id": 388178594,
      "center": {
        "lat": 12.96327,
        "lon": 77.5190795
      },
      "tags": {
        "leisure": "park",
        "name": "Garden Villas Park"
      }
    },
    {
      "type": "way",
      "id": 482598733,
      "center": {
        "lat": 12.963609,
        "lon": 77.5062218
      },
      "tags": {
        "leisure": "garden"
      }
    },
    {
      "type": "way",
      "id": 482598734,
      "center": {
        "lat": 12.9632229,
        "lon": 77.5060963
      },
      "tags": {
        "leisure": "garden"
      }
    },
    {
      "type": "way",
      "id": 1050578228,
      "center": {
        "lat": 12.9736685,
        "lon": 77.5091585
      },
      "tags": {
        "amenity": "clinic",
        "name": "Kanva Diagnostics"
      }
    },
    {
      "type": "way",
      "id": 1054488994,
      "center": {
        "lat": 12.962044,
        "lon": 77.5137625
      },
      "tags": {
        "leisure": "park"
      }
    },
    {
      "type": "way",
      "id": 1054488995,
      "center": {
        "lat": 12.9583598,
        "lon": 77.5122123
      },
      "tags": {
        "leisure": "park"
      }
    },
    {
      "type": "way",
      "id": 1054488996,
      "center": {
        "lat": 12.959739,
        "lon": 77.5121956
      },
      "tags": {
        "leisure": "park"
      }
    },
    {
      "type": "way",
      "id": 1054489000,
      "center": {
        "lat": 12.9594493,
        "lon": 77.5142171
      },
      "tags": {
        "leisure": "park"
      }
    },
    {
      "type": "way",
      "id": 1207060119,
      "center": {
        "lat": 12.9658122,
        "lon": 77.508785
      },
      "tags": {
        "leisure": "park"
      }
    },
    {
      "type": "way",
      "id": 1207060120,
      "center": {
        "lat": 12.9659167,
        "lon": 77.5098632
      },
      "tags": {
        "amenity": "school"
      }
    },
    {
      "type": "way",
      "id": 1207060121,
      "center": {
        "lat": 12.9641393,
        "lon": 77.5090572
      },
      "tags": {
        "leisure": "park"
      }
    },
    {
      "type": "way",
      "id": 1207060123,
      "center": {
        "lat": 12.9599414,
        "lon": 77.5160068
      },
      "tags": {
        "leisure": "park"
      }
    },
    {
      "type": "way",
      "id": 1207060124,
      "center": {
        "lat": 12.9629474,
        "lon": 77.5143455
      },
      "tags": {
        "amenity": "place_of_worship",
        "name": "Hanumagiri Temple",
        "religion": "hindu"
      }
    },
    {
      "type": "way",
      "id": 1207060125,
      "center": {
        "lat": 12.9661781,
        "lon": 77.5165594
      },
      "tags": {
        "leisure": "park"
      }
    },
    {
      "type": "way",
      "id": 1207060126,
      "center": {
        "lat": 12.9688314,
        "lon": 77.514486
      },
      "tags": {
        "leisure": "park",
        "name": "Nagarbavi 2nd Stage BDA Park",
        "name:en": "Mahatma Gandhi BDA Park",
        "opening_hours": "sunrise-sunset",
        "operator": "Park",
        "operator:type": "public"
      }
    },
    {
      "type": "way",
      "id": 1207060129,
      "center": {
        "lat": 12.9710574,
        "lon": 77.5160685
      },
      "tags": {
        "leisure": "park"
      }
    },
    {
      "type": "way",
      "id": 1207332830,
      "center": {
        "lat": 12.9585917,
        "lon": 77.5108265
      },
      "tags": {
        "leisure": "park"
      }
    },
    {
      "type": "way",
      "id": 1217243764,
      "center": {
        "lat": 12.9730589,
        "lon": 77.5123081
      },
      "tags": {
        "leisure": "park"
      }
    },
    {
      "type": "way",
      "id": 1217247604,
      "center": {
        "lat": 12.959927,
        "lon": 77.5164926
      },
      "tags": {
        "amenity": "school",
        "name": "Jindal Government School",
        "name:kn": "ಜಿಂದಾಲ್ ಸರ್ಕಾರಿ ಶಾಲೆ"
      }
    },
    {
      "type": "way",
      "id": 1217247613,
      "center": {
        "lat": 12.9665204,
        "lon": 77.5084437
      },
      "tags": {
        "leisure": "park"
      }
    },
    {
      "type": "way",
      "id": 1217247618,
      "center": {
        "lat": 12.9640191,
        "lon": 77.5111413
      },
      "tags": {
        "amenity": "community_centre",
        "landuse": "commercial",
        "name": "Terige Bhavana"
      }
    },
    {
      "type": "way",
      "id": 1217247620,
      "center": {
        "lat": 12.9665401,
        "lon": 77.5116811
      },
      "tags": {
        "leisure": "garden"
      }
    },
    {
      "type": "way",
      "id": 1217247623,
      "center": {
        "lat": 12.9659239,
        "lon": 77.5119186
      },
      "tags": {
        "amenity": "place_of_worship",
        "religion": "hindu"
      }
    },
    {
      "type": "way",
      "id": 1217247632,
      "center": {
        "lat": 12.9644062,
        "lon": 77.5092819
      },
      "tags": {
        "name": "Dhobi Ghat",
        "name:kn": "ಧೋಬಿ ಘಾಟ್",
        "shop": "laundry"
      }
    },
    {
      "type": "way",
      "id": 1217247634,
      "center": {
        "lat": 12.9654109,
        "lon": 77.5100015
      },
      "tags": {
        "amenity": "police"
      }
    },
    {
      "type": "way",
      "id": 1217247636,
      "center": {
        "lat": 12.9687638,
        "lon": 77.5111427
      },
      "tags": {
        "amenity": "place_of_worship",
        "religion": "hindu"
      }
    },
    {
      "type": "way",
      "id": 1217247637,
      "center": {
        "lat": 12.971341,
        "lon": 77.5098726
      },
      "tags": {
        "leisure": "park"
      }
    },
    {
      "type": "way",
      "id": 1217247638,
      "center": {
        "lat": 12.9702569,
        "lon": 77.5094622
      },
      "tags": {
        "leisure": "park"
      }
    },
    {
      "type": "way",
      "id": 1217247639,
      "center": {
        "lat": 12.971026,
        "lon": 77.5087448
      },
      "tags": {
        "leisure": "playground"
      }
    },
    {
      "type": "way",
      "id": 1280602413,
      "center": {
        "lat": 12.9664434,
        "lon": 77.5047496
      },
      "tags": {
        "amenity": "fuel"
      }
    },
    {
      "type": "way",
      "id": 1280602500,
      "center": {
        "lat": 12.9628618,
        "lon": 77.5079085
      },
      "tags": {
        "amenity": "language_school"
      }
    },
    {
      "type": "way",
      "id": 1370235930,
      "center": {
        "lat": 12.9589141,
        "lon": 77.5097478
      },
      "tags": {
        "amenity": "place_of_worship",
        "religion": "hindu"
      }
    },
    {
      "type": "way",
      "id": 1413520211,
      "center": {
        "lat": 12.9665819,
        "lon": 77.5053465
      },
      "tags": {
        "amenity": "fuel"
      }
    },
    {
      "type": "way",
      "id": 1413520212,
      "center": {
        "lat": 12.9658751,
        "lon": 77.5045692
      },
      "tags": {
        "amenity": "fuel"
      }
    },
    {
      "type": "way",
      "id": 1413520219,
      "center": {
        "lat": 12.9638786,
        "lon": 77.5056961
      },
      "tags": {
        "leisure": "garden"
      }
    },
    {
      "type": "way",
      "id": 1413520243,
      "center": {
        "lat": 12.9632805,
        "lon": 77.5065117
      },
      "tags": {
        "access": "private",
        "amenity": "parking",
        "parking": "surface"
      }
    },
    {
      "type": "way",
      "id": 1413520245,
      "center": {
        "lat": 12.9631615,
        "lon": 77.5054283
      },
      "tags": {
        "amenity": "shelter",
        "shelter_type": "gazebo"
      }
    },
    {
      "type": "way",
      "id": 1413520246,
      "center": {
        "lat": 12.963083,
        "lon": 77.5053155
      },
      "tags": {
        "leisure": "garden"
      }
    },
    {
      "type": "way",
      "id": 1413520248,
      "center": {
        "lat": 12.9649791,
        "lon": 77.5060482
      },
      "tags": {
        "leisure": "sports_centre",
        "name": "Dr. AIT Indoor Stadium",
        "sport": "basketball"
      }
    },
    {
      "type": "way",
      "id": 1419884035,
      "center": {
        "lat": 12.96749,
        "lon": 77.5178065
      },
      "tags": {
        "leisure": "park"
      }
    },
    {
      "type": "way",
      "id": 1419884037,
      "center": {
        "lat": 12.9667865,
        "lon": 77.5160551
      },
      "tags": {
        "amenity": "bus_station",
        "name": "Bande Maramma"
      }
    },
    {
      "type": "way",
      "id": 1419894208,
      "center": {
        "lat": 12.9634263,
        "lon": 77.5120864
      },
      "tags": {
        "amenity": "bus_station"
      }
    }
  ]
}