{
  "area_name": "Nalwadi Krishnaraja Wadiyar Ward",
  "osm_id": 19883308,
  "osm_type": "relation",
  "place_type": "administrative",
  "amenity_count": 92,
  "amenities": [
    {
      "type": "node",
      "id": 2011784504,
      "lat": 13.0094405,
      "lon": 77.5467085,
      "tags": {
        "leisure": "common",
        "name": "GA Res"
      }
    },
    {
      "type": "node",
      "id": 2027760047,
      "lat": 13.0250549,
      "lon": 77.546176,
      "tags": {
        "amenity": "bank",
        "atm": "yes",
        "brand": "Andhra Bank",
        "brand:wikidata": "Q2003476",
        "brand:wikipedia": "en:Andhra Bank",
        "name": "Andhra Bank",
        "name:en": "Andhra Bank",
        "name:kn": "ಆಂಧ್ರ ಬ್ಯಾಂಕ್",
        "website": "https://www.andhrabank.in"
      }
    },
    {
      "type": "node",
      "id": 2027760048,
      "lat": 13.024952,
      "lon": 77.5463641,
      "tags": {
        "amenity": "bank",
        "atm": "yes",
        "brand": "Axis Bank",
        "brand:wikidata": "Q2003549",
        "brand:wikipedia": "en:Axis Bank",
        "name": "Axis Bank",
        "name:en": "Axis Bank",
        "name:kn": "ಆಕ್ಸಿಸ್ ಬ್ಯಾಂಕ್",
        "website": "https://www.axisbank.com"
      }
    },
    {
      "type": "node",
      "id": 2027760049,
      "lat": 13.0240517,
      "lon": 77.5479481,
      "tags": {
        "amenity": "bank",
        "atm": "yes",
        "brand": "Bank of Baroda",
        "brand:wikidata": "Q2003797",
        "brand:wikipedia": "en:Bank of Baroda",
        "name": "Bank of Baroda",
        "name:en": "Bank of Baroda",
        "name:kn": "ಬ್ಯಾಂಕ್ ಆಫ್ ಬರೋಡ",
        "short_name": "BoB",
        "website": "http://www.bankofbaroda.com"
      }
    },
    {
      "type": "node",
      "id": 2027760050,
      "lat": 13.0250934,
      "lon": 77.5461198,
      "tags": {
        "amenity": "bank",
        "atm": "yes",
        "brand": "Canara Bank",
        "brand:en": "Canara Bank",
        "brand:hi": "केनरा बैंक",
        "brand:kn": "ಕೆನರಾ ಬ್ಯಾಂಕ್",
        "brand:pa": "ਕੇਨਰਾ ਬੈਂਕ",
        "brand:pnb": "کینرا بینک",
        "brand:ur": "کینرا بینک",
        "brand:wikidata": "Q2003777",
        "brand:wikipedia": "en:Canara Bank",
        "brand:wikipedia:pa": "ਕੇਨਰਾ ਬੈਂਕ",
        "name": "Canara Bank",
        "name:en": "Canara Bank",
        "name:hi": "केनरा बैंक",
        "name:kn": "ಕೆನರಾ ಬ್ಯಾಂಕ್",
        "name:pa": "ਕੇਨਰਾ ਬੈਂਕ",
        "name:pnb": "کینرا بینک",
        "name:ur": "کینرا بینک",
        "website": "https://www.canarabank.com/"
      }
    },
    {
      "type": "node",
      "id": 2027760051,
      "lat": 13.023952,
      "lon": 77.5481032,
      "tags": {
        "amenity": "bank",
        "atm": "yes",
        "brand": "Corporation Bank",
        "brand:wikidata": "Q2003387",
        "brand:wikipedia": "en:Corporation Bank",
        "name": "Corporation Bank",
        "name:en": "Corporation Bank",
        "name:kn": "ಕಾರ್ಪರೇಷನ್ ಬ್ಯಾಂಕ್",
        "website": "https://corpbank.com/"
      }
    },
    {
      "type": "node",
      "id": 2027760052,
      "lat": 13.0248684,
      "lon": 77.5465159,
      "tags": {
        "amenity": "bank",
        "atm": "yes",
        "brand": "ICICI Bank",
        "brand:wikidata": "Q1653258",
        "name": "ICICI Bank",
        "name:en": "ICICI Bank",
        "name:kn": "ಐಸಿಐಸಿಐ ಬ್ಯಾಂಕು",
        "short_name": "ICICI",
        "website": "https://www.icicibank.com"
      }
    },
    {
      "type": "node",
      "id": 2027760053,
      "lat": 13.0251231,
      "lon": 77.5460394,
      "tags": {
        "addr:city": "Bangalore",
        "addr:postcode": "560022",
        "addr:street": "Tumkur Road",
        "amenity": "bank",
        "atm": "no",
        "name": "LIC (61U/CB-20)"
      }
    },
    {
      "type": "node",
      "id": 2027760054,
      "lat": 13.0237386,
      "lon": 77.5481786,
      "tags": {
        "amenity": "bank",
        "atm": "yes",
        "brand": "State Bank of India",
        "brand:wikidata": "Q1340361",
        "brand:wikipedia": "en:State Bank of India",
        "name": "State Bank of India",
        "name:kn": "ಭಾರತೀಯ ಸ್ಟೇಟ್ ಬ್ಯಾಂಕ್",
        "short_name": "SBI",
        "website": "https://www.sbi.co.in"
      }
    },
    {
      "type": "node",
      "id": 2027760055,
      "lat": 13.024923,
      "lon": 77.5464169,
      "tags": {
        "amenity": "bank",
        "atm": "yes",
        "name": "Union Bank",
        "name:kn": "ಯೂನಿಯನ್ ಬ್ಯಾಂಕ್"
      }
    },
    {
      "type": "node",
      "id": 2090807102,
      "lat": 13.0106887,
      "lon": 77.546525,
      "tags": {
        "amenity": "post_office",
        "name": "Mahalakshmi Layout Post Office",
        "operator": "India Post",
        "operator:wikidata": "Q3519720"
      }
    },
    {
      "type": "node",
      "id": 3391133323,
      "lat": 13.0161215,
      "lon": 77.5438434,
      "tags": {
        "amenity": "pharmacy",
        "name": "SLN medical and general stores",
        "name:kn": "ಎಸ್‌ಎಲ್‌ಎನ್ ಮೆಡಿಕಲ್ ಮತ್ತು ಜೆನರಲ್ ಸ್ಟೋರ್ಸ್"
      }
    },
    {
      "type": "node",
      "id": 3639546814,
      "lat": 13.0210793,
      "lon": 77.551924,
      "tags": {
        "name": "VRL Yeshwantpur",
        "shop": "travel_agency"
      }
    },
    {
      "type": "node",
      "id": 3639546857,
      "lat": 13.0211211,
      "lon": 77.5519025,
      "tags": {
        "name": "SRS Yeshwantpur",
        "shop": "travel_agency"
      }
    },
    {
      "type": "node",
      "id": 4446726399,
      "lat": 13.014751,
      "lon": 77.5490654,
      "tags": {
        "addr:city": "bangalore",
        "addr:housenumber": "7",
        "addr:postcode": "560086,",
        "addr:street": "2nd stage a.g,b layout, Yeshwanthpur Industrial Suburb, Mahalakshmi Layout,",
        "amenity": "pharmacy",
        "name": "Sri Ranga Medicals",
        "phone": "+91 99020 91732"
      }
    },
    {
      "type": "node",
      "id": 4585188110,
      "lat": 13.0153525,
      "lon": 77.5440212,
      "tags": {
        "amenity": "atm",
        "brand": "ICICI Bank",
        "brand:wikidata": "Q1653258",
        "name": "ICICI Bank",
        "name:kn": "ಐಸಿಐಸಿಐ ಬ್ಯಾಂಕು",
        "operator": "ICICI Bank",
        "operator:wikidata": "Q1653258",
        "short_name": "ICICI"
      }
    },
    {
      "type": "node",
      "id": 4585188111,
      "lat": 13.0170171,
      "lon": 77.5434268,
      "tags": {
        "amenity": "atm",
        "brand": "Axis Bank",
        "brand:wikidata": "Q2003549",
        "name": "Axis Bank",
        "name:kn": "ಆಕ್ಸಿಸ್ ಬ್ಯಾಂಕ್ ಎಟಿಎಂ",
        "operator": "Axis Bank",
        "operator:wikidata": "Q2003549"
      }
    },
    {
      "type": "node",
      "id": 5174994723,
      "lat": 13.0143834,
      "lon": 77.5537728,
      "tags": {
        "brand": "Hyundai",
        "brand:wikidata": "Q55931",
        "name": "Hyundai",
        "name:kn": "ಹ್ಯುಂಡೈ",
        "shop": "car"
      }
    },
    {
      "type": "node",
      "id": 5295212540,
      "lat": 13.0158202,
      "lon": 77.5535453,
      "tags": {
        "name": "Sudarshan Automobiles",
        "shop": "car"
      }
    },
    {
      "type": "node",
      "id": 6570421948,
      "lat": 13.0152385,
      "lon": 77.5536865,
      "tags": {
        "name": "Stellar Furniture",
        "shop": "furniture"
      }
    },
    {
      "type": "node",
      "id": 6570421950,
      "lat": 13.0126349,
      "lon": 77.552346,
      "tags": {
        "name": "Nandini Swadista Loka",
        "shop": "dairy"
      }
    },
    {
      "type": "node",
      "id": 6570421951,
      "lat": 13.0128249,
      "lon": 77.5533294,
      "tags": {
        "amenity": "atm",
        "brand": "Union Bank",
        "operator": "Union Bank"
      }
    },
    {
      "type": "node",
      "id": 6807544243,
      "lat": 13.01636,
      "lon": 77.5425306,
      "tags": {
        "access": "yes",
        "leisure": "playground",
        "name": "Public Playground near Ganesha temple"
      }
    },
    {
      "type": "node",
      "id": 6944437383,
      "lat": 13.0195733,
      "lon": 77.5419559,
      "tags": {
        "addr:district": "Bengaluru Urban",
        "addr:full": "# 141/142, 1st Main, Krishnandanagar, Khb Colony",
        "addr:postcode": "560096",
        "addr:state": "Karnataka",
        "addr:subdistrict": "Nandini Layout",
        "amenity": "hospital",
        "email": "info@rakshahospital.in",
        "name": "Raksha Multispeciality Hospital",
        "operator:type": "private",
        "source": "OpenGovernmentData",
        "website": "http://www.rakshahospital.in/"
      }
    },
    {
      "type": "node",
      "id": 6944449930,
      "lat": 13.0195955,
      "lon": 77.5419813,
      "tags": {
        "addr:district": "Bengaluru Urban",
        "addr:full": "18/17,Cambridge Road,Ulsoor",
        "addr:postcode": "560038",
        "addr:state": "Karnataka",
        "amenity": "hospital",
        "name": "Cambridge Hospital",
        "source": "OpenGovernmentData"
      }
    },
    {
      "type": "node",
      "id": 7087593301,
      "lat": 13.0124802,
      "lon": 77.5525667,
      "tags": {
        "name": "Mysore Sandal Soap Factory Outlet",
        "shop": "perfumery"
      }
    },
    {
      "type": "node",
      "id": 7215549915,
      "lat": 13.0206859,
      "lon": 77.5521442,
      "tags": {
        "amenity": "fuel",
        "brand": "Hindustan Petroleum",
        "brand:wikidata": "Q1619375",
        "name": "Hindustan Petroleum",
        "name:kn": "ಹಿಂದುಸ್ತಾನ್ ಪೆಟ್ರೋಲಿಯಂ",
        "official_name": "Hindustan Petroleum",
        "operator": "Hindustan Petroleum"
      }
    },
    {
      "type": "node",
      "id": 7215549993,
      "lat": 13.0193398,
      "lon": 77.5505787,
      "tags": {
        "access": "private",
        "amenity": "parking",
        "parking": "underground"
      }
    },
    {
      "type": "node",
      "id": 7215550017,
      "lat": 13.0145277,
      "lon": 77.5537683,
      "tags": {
        "leisure": "sports_centre",
        "name": "Tactical Arenas",
        "sport": "laser_tag"
      }
    },
    {
      "type": "node",
      "id": 7215550018,
      "lat": 13.0141468,
      "lon": 77.5539313,
      "tags": {
        "amenity": "waste_basket"
      }
    },
    {
      "type": "node",
      "id": 7215550054,
      "lat": 13.0139214,
      "lon": 77.5536597,
      "tags": {
        "access": "customers",
        "amenity": "parking",
        "fee": "no",
        "parking": "surface"
      }
    },
    {
      "type": "node",
      "id": 7215550055,
      "lat": 13.0140926,
      "lon": 77.5536704,
      "tags": {
        "amenity": "motorcycle_parking",
        "covered": "no"
      }
    },
    {
      "type": "node",
      "id": 7296694721,
      "lat": 13.0245835,
      "lon": 77.5466913,
      "tags": {
        "brand": "Kia",
        "brand:wikidata": "Q35349",
        "name": "Kia",
        "operator": "Kia",
        "shop": "car"
      }
    },
    {
      "type": "node",
      "id": 7927991185,
      "lat": 13.0116909,
      "lon": 77.5468543,
      "tags": {
        "addr:housenumber": "9/6",
        "addr:postcode": "560086",
        "addr:street": "4th Cross Rd, Mahalakshmipuram Layout, Mahalakshmi Layout",
        "amenity": "school",
        "email": "communications.oisml@orchids.edu.in",
        "name": "Orchids The International School - Mahalakshmi Layout",
        "opening_hours": "Mo-Su 09:00-18:30",
        "operator": "Orchids International School",
        "phone": "9513731352",
        "website": "https://www.orchidsinternationalschool.com/bangalore-branches/mahalakshmi-layout/"
      }
    },
    {
      "type": "node",
      "id": 8887097194,
      "lat": 13.013775,
      "lon": 77.5481048,
      "tags": {
        "amenity": "restaurant",
        "cuisine": "regional",
        "delivery": "yes",
        "diet:vegan": "yes",
        "diet:vegetarian": "yes",
        "name": "The Circus Canteen",
        "takeaway": "yes"
      }
    },
    {
      "type": "node",
      "id": 9195695305,
      "lat": 13.0152595,
      "lon": 77.5487754,
      "tags": {
        "amenity": "place_of_worship",
        "religion": "hindu"
      }
    },
    {
      "type": "node",
      "id": 9197307506,
      "lat": 13.011525,
      "lon": 77.5505497,
      "tags": {
        "access": "yes",
        "amenity": "toilets",
        "operator": "BBMP"
      }
    },
    {
      "type": "node",
      "id": 9200349512,
      "lat": 13.0137953,
      "lon": 77.5485642,
      "tags": {
        "access": "permissive",
        "amenity": "toilets",
        "female": "yes",
        "male": "yes"
      }
    },
    {
      "type": "node",
      "id": 9739870047,
      "lat": 13.0154858,
      "lon": 77.5537301,
      "tags": {
        "amenity": "bicycle_rental",
        "brand": "Yulu",
        "brand:wikidata": "Q104871276",
        "name": "Yulu",
        "network": "Yulu",
        "network:wikidata": "Q104871276",
        "note": "Rents electric miniscooters",
        "operator": "Yulu"
      }
    },
    {
      "type": "node",
      "id": 9912087560,
      "lat": 13.0209907,
      "lon": 77.5517714,
      "tags": {
        "name": "Sofas and More Stanley",
        "shop": "furniture"
      }
    },
    {
      "type": "node",
      "id": 9942510003,
      "lat": 13.0220475,
      "lon": 77.5514003,
      "tags": {
        "amenity": "bus_station",
        "name": "KSRTC Pickup Point",
        "website": "ksrtc.in"
      }
    },
    {
      "type": "node",
      "id": 11337052384,
      "lat": 13.0146834,
      "lon": 77.5538978,
      "tags": {
        "access": "customers",
        "amenity": "drinking_water",
        "fee": "no",
        "fountain": "bubbler",
        "layer": "1",
        "level": "1"
      }
    },
    {
      "type": "node",
      "id": 11365507638,
      "lat": 13.0147854,
      "lon": 77.5538374,
      "tags": {
        "access": "customers",
        "amenity": "toilets",
        "check_date": "2024-07-27",
        "level": "1",
        "operator": "BMRCL"
      }
    },
    {
      "type": "node",
      "id": 11909709673,
      "lat": 13.0140347,
      "lon": 77.553912,
      "tags": {
        "amenity": "clock",
        "display": "analog",
        "support": "wall_mounted",
        "visibility": "house"
      }
    },
    {
      "type": "node",
      "id": 11949185908,
      "lat": 13.0140694,
      "lon": 77.554019,
      "tags": {
        "amenity": "vending_machine",
        "check_date": "2024-06-01",
        "level": "1"
      }
    },
    {
      "type": "node",
      "id": 11998178511,
      "lat": 13.0221896,
      "lon": 77.5509196,
      "tags": {
        "amenity": "restaurant",
        "check_date": "2024-06-21",
        "name": "Konkan Express"
      }
    },
    {
      "type": "node",
      "id": 12016136798,
      "lat": 13.014172,
      "lon": 77.5539912,
      "tags": {
        "amenity": "atm",
        "brand": "State Bank of India",
        "brand:wikidata": "Q1340361",
        "check_date": "2024-07-27",
        "covered": "yes",
        "indoor": "yes",
        "level": "1",
        "lit": "yes",
        "name": "State Bank of India",
        "operator": "State Bank of India",
        "operator:wikidata": "Q1340361",
        "short_name": "SBI"
      }
    },
    {
      "type": "node",
      "id": 12150953167,
      "lat": 13.0195518,
      "lon": 77.5527632,
      "tags": {
        "amenity": "fuel",
        "brand": "TotalEnergies",
        "brand:wikidata": "Q154037",
        "name": "TotalEnergies"
      }
    },
    {
      "type": "node",
      "id": 12979079073,
      "lat": 13.0243275,
      "lon": 77.5441888,
      "tags": {
        "access": "private",
        "amenity": "parking_entrance",
        "parking": "underground"
      }
    },
    {
      "type": "node",
      "id": 12979079074,
      "lat": 13.0240047,
      "lon": 77.5449572,
      "tags": {
        "access": "private",
        "amenity": "parking_entrance",
        "parking": "underground"
      }
    },
    {
      "type": "way",
      "id": 37838218,
      "center": {
        "lat": 13.0217758,
        "lon": 77.5478499
      },
      "tags": {
        "alt_name": "Yeshwanthpur APMC Yard",
        "amenity": "marketplace",
        "fixme": "Should landuse be industrial or marketplace?",
        "name": "Yeshwantpur RMC Yard"
      }
    },
    {
      "type": "way",
      "id": 96682580,
      "center": {
        "lat": 13.0132485,
        "lon": 77.550709
      },
      "tags": {
        "addr:postcode": "560022",
        "leisure": "park",
        "name": "Renaissance Temple Bells Apartments"
      }
    },
    {
      "type": "way",
      "id": 142344598,
      "center": {
        "lat": 13.0138889,
        "lon": 77.5416642
      },
      "tags": {
        "leisure": "park"
      }
    },
    {
      "type": "way",
      "id": 308836205,
      "center": {
        "lat": 13.0158948,
        "lon": 77.5451364
      },
      "tags": {
        "alt_name": "Yeshwanthpur Yard Market",
        "amenity": "marketplace",
        "landuse": "retail",
        "name": "Yeshwanthpur APMC Market",
        "opening_hours": "Mo-Su 05:30-13:00"
      }
    },
    {
      "type": "way",
      "id": 323930527,
      "center": {
        "lat": 13.0216704,
        "lon": 77.5512945
      },
      "tags": {
        "amenity": "cinema",
        "building": "yes",
        "name": "Govardhana",
        "name:kn": "ಗೋವರ್ಧನ",
        "wheelchair": "limited"
      }
    },
    {
      "type": "way",
      "id": 332071364,
      "center": {
        "lat": 13.0161475,
        "lon": 77.5438849
      },
      "tags": {
        "amenity": "pharmacy",
        "building": "yes",
        "name": "Sln Medical And General Stores"
      }
    },
    {
      "type": "way",
      "id": 346433329,
      "center": {
        "lat": 13.0090863,
        "lon": 77.5437204
      },
      "tags": {
        "amenity": "place_of_worship",
        "building": "yes",
        "name": "Vasavi Temple",
        "name:kn": "ವಾಸವಿ ದೇವಸ್ಥಾನ",
        "religion": "hindu"
      }
    },
    {
      "type": "way",
      "id": 346807086,
      "center": {
        "lat": 13.0161578,
        "lon": 77.5425544
      },
      "tags": {
        "amenity": "place_of_worship",
        "building": "yes",
        "denomination": "hindu",
        "name": "Vinayaka Temple",
        "name:kn": "ವಿನಾಯಕ ದೇವಸ್ಥಾನ",
        "religion": "hindu"
      }
    },
    {
      "type": "way",
      "id": 346807180,
      "center": {
        "lat": 13.0161865,
        "lon": 77.5426606
      },
      "tags": {
        "amenity": "place_of_worship",
        "building": "yes",
        "denomination": "hindu",
        "name": "Vidyashankara Temple",
        "name:kn": "ವಿದ್ಯಾಶಂಕರ ದೇವಾಲಯ",
        "religion": "hindu"
      }
    },
    {
      "type": "way",
      "id": 347022438,
      "center": {
        "lat": 13.0170979,
        "lon": 77.5458933
      },
      "tags": {
        "building": "yes",
        "name": "Tiles Shop",
        "roof:material": "metal",
        "shop": "tiles"
      }
    },
    {
      "type": "way",
      "id": 347055001,
      "center": {
        "lat": 13.0198969,
        "lon": 77.5515246
      },
      "tags": {
        "amenity": "cinema",
        "building": "yes",
        "name": "Ullas Theater"
      }
    },
    {
      "type": "way",
      "id": 349519495,
      "center": {
        "lat": 13.0153835,
        "lon": 77.5461691
      },
      "tags": {
        "amenity": "place_of_worship",
        "building": "yes",
        "name": "Sai Baba Temple",
        "name:kn": "ಸಾಯಿಬಾಬಾ ದೇವಸ್ಥಾನ",
        "religion": "hindu"
      }
    },
    {
      "type": "way",
      "id": 363067571,
      "center": {
        "lat": 13.0160649,
        "lon": 77.5427512
      },
      "tags": {
        "access": "yes",
        "leisure": "park",
        "name": "Ganesha Temple Park",
        "opening_hours": "sunrise-sunset"
      }
    },
    {
      "type": "way",
      "id": 726095464,
      "center": {
        "lat": 13.0177672,
        "lon": 77.5417058
      },
      "tags": {
        "amenity": "hospital",
        "healthcare": "hospital"
      }
    },
    {
      "type": "way",
      "id": 758864876,
      "center": {
        "lat": 13.0108678,
        "lon": 77.549346
      },
      "tags": {
        "access": "customers",
        "amenity": "parking",
        "fee": "yes",
        "parking": "surface"
      }
    },
    {
      "type": "way",
      "id": 766598699,
      "center": {
        "lat": 13.013451,
        "lon": 77.5505413
      },
      "tags": {
        "access": "private",
        "leisure": "swimming_pool"
      }
    },
    {
      "type": "way",
      "id": 772827140,
      "center": {
        "lat": 13.0198197,
        "lon": 77.5518866
      },
      "tags": {
        "leisure": "sports_centre"
      }
    },
    {
      "type": "way",
      "id": 772827141,
      "center": {
        "lat": 13.0207065,
        "lon": 77.5512988
      },
      "tags": {
        "access": "permissive",
        "leisure": "swimming_pool"
      }
    },
    {
      "type": "way",
      "id": 772827153,
      "center": {
        "lat": 13.0197938,
        "lon": 77.5504748
      },
      "tags": {
        "leisure": "garden"
      }
    },
    {
      "type": "way",
      "id": 780917607,
      "center": {
        "lat": 13.0114608,
        "lon": 77.5504152
      },
      "tags": {
        "amenity": "fast_food",
        "brand": "Indira Canteen",
        "brand:wikidata": "Q36164828",
        "cuisine": "south_indian",
        "name": "Indira Canteen",
        "operator": "BBMP",
        "takeaway": "yes"
      }
    },
    {
      "type": "way",
      "id": 796369059,
      "center": {
        "lat": 13.0174951,
        "lon": 77.5492427
      },
      "tags": {
        "leisure": "park"
      }
    },
    {
      "type": "way",
      "id": 995864557,
      "center": {
        "lat": 13.0169663,
        "lon": 77.5488401
      },
      "tags": {
        "amenity": "community_centre",
        "name": "RG Royal Convention Hall"
      }
    },
    {
      "type": "way",
      "id": 996044808,
      "center": {
        "lat": 13.0123796,
        "lon": 77.5516099
      },
      "tags": {
        "brand": "Toyota",
        "brand:wikidata": "Q53268",
        "landuse": "commercial",
        "name": "Ravindu Toyota",
        "name:kn": "ರವಿಂದು ಟೋಯೋಟಾ",
        "shop": "car"
      }
    },
    {
      "type": "way",
      "id": 996044809,
      "center": {
        "lat": 13.011919,
        "lon": 77.5510057
      },
      "tags": {
        "amenity": "community_centre",
        "name": "Kalyana Mantapa",
        "name:kn": "ಕಲ್ಯಾಣ ಮಂಟಪ"
      }
    },
    {
      "type": "way",
      "id": 996359567,
      "center": {
        "lat": 13.0137094,
        "lon": 77.5486075
      },
      "tags": {
        "leisure": "garden"
      }
    },
    {
      "type": "way",
      "id": 1081463159,
      "center": {
        "lat": 13.0233372,
        "lon": 77.5486181
      },
      "tags": {
        "amenity": "community_centre",
        "community_centre": "community_hall",
        "landuse": "commercial",
        "name": "Raitha Bhavan",
        "name:kn": "ರೈತ ಭವನ"
      }
    },
    {
      "type": "way",
      "id": 1081463161,
      "center": {
        "lat": 13.0195942,
        "lon": 77.5526995
      },
      "tags": {
        "amenity": "fuel",
        "brand": "Total",
        "brand:wikidata": "Q154037",
        "name": "Total",
        "operator": "Total"
      }
    },
    {
      "type": "way",
      "id": 1086046636,
      "center": {
        "lat": 13.0153636,
        "lon": 77.5502063
      },
      "tags": {
        "leisure": "park"
      }
    },
    {
      "type": "way",
      "id": 1106402218,
      "center": {
        "lat": 13.0157527,
        "lon": 77.5538475
      },
      "tags": {
        "garden:style": "landscaping",
        "leisure": "garden"
      }
    },
    {
      "type": "way",
      "id": 1119221389,
      "center": {
        "lat": 13.0138015,
        "lon": 77.5483561
      },
      "tags": {
        "addr:city": "Bangalore",
        "addr:housenumber": "12/2",
        "addr:place": "Yeshwantpur Industrial Estate",
        "addr:postcode": "560086",
        "amenity": "events_venue",
        "contact:facebook": "https://www.facebook.com/blrcreativecircus",
        "contact:instagram": "https://www.instagram.com/blrcreativecircus",
        "contact:linkedin": "https://www.linkedin.com/company/bangalore-creative-circus/about/",
        "email": "info@blrcreativecircus.com",
        "fixme": "Landuse boundaries",
        "landuse": "commercial",
        "name": "Bangalore Creative Circus",
        "phone": "+91 9591668282",
        "website": "https://www.blrcreativecircus.com"
      }
    },
    {
      "type": "way",
      "id": 1134831513,
      "center": {
        "lat": 13.0226214,
        "lon": 77.5499132
      },
      "tags": {
        "amenity": "fire_station",
        "name": "Fire Station",
        "name:kn": "ಅಗ್ನಿಶಾಮಕ ಠಾಣೆ"
      }
    },
    {
      "type": "way",
      "id": 1239610848,
      "center": {
        "lat": 13.0147779,
        "lon": 77.552739
      },
      "tags": {
        "leisure": "park"
      }
    },
    {
      "type": "way",
      "id": 1293369513,
      "center": {
        "lat": 13.0095183,
        "lon": 77.5438022
      },
      "tags": {
        "leisure": "playground"
      }
    },
    {
      "type": "way",
      "id": 1293792969,
      "center": {
        "lat": 13.0128398,
        "lon": 77.5515126
      },
      "tags": {
        "leisure": "pitch",
        "sport": "tennis"
      }
    },
    {
      "type": "way",
      "id": 1294790827,
      "center": {
        "lat": 13.0260208,
        "lon": 77.5442652
      },
      "tags": {
        "amenity": "fuel",
        "brand": "Indian Oil",
        "brand:wikidata": "Q1289348",
        "brand:wikipedia": "en:Indian Oil Corporation",
        "compressed_air": "yes",
        "name": "Indian Oil",
        "name:kn": "ಇಂಡಿಯನ್ ಆಯಿಲ್"
      }
    },
    {
      "type": "way",
      "id": 1294790835,
      "center": {
        "lat": 13.0242563,
        "lon": 77.5446736
      },
      "tags": {
        "leisure": "garden"
      }
    },
    {
      "type": "way",
      "id": 1294790838,
      "center": {
        "lat": 13.0243052,
        "lon": 77.5468919
      },
      "tags": {
        "amenity": "marketplace",
        "fixme": "Should landuse be industrial or marketplace?",
        "landuse": "commercial",
        "name": "Hotel Leroy Grand",
        "tourism": "hotel"
      }
    },
    {
      "type": "way",
      "id": 1294790841,
      "center": {
        "lat": 13.0240773,
        "lon": 77.5473789
      },
      "tags": {
        "amenity": "fuel",
        "brand": "Shell",
        "brand:wikidata": "Q110716465",
        "landuse": "commercial",
        "name": "Shell",
        "name:kn": "ಶೆಲ್"
      }
    },
    {
      "type": "way",
      "id": 1337306136,
      "center": {
        "lat": 13.0109757,
        "lon": 77.5463778
      },
      "tags": {
        "access": "private",
        "leisure": "swimming_pool"
      }
    },
    {
      "type": "way",
      "id": 1412397762,
      "center": {
        "lat": 13.0232123,
        "lon": 77.5439752
      },
      "tags": {
        "leisure": "garden"
      }
    },
    {
      "type": "way",
      "id": 1412397770,
      "center": {
        "lat": 13.0231339,
        "lon": 77.5441802
      },
      "tags": {
        "access": "private",
        "leisure": "pitch"
      }
    },
    {
      "type": "way",
      "id": 1412397771,
      "center": {
        "lat": 13.0231639,
        "lon": 77.5444808
      },
      "tags": {
        "access": "private",
        "leisure": "pitch"
      }
    }
  ]
}