{
  "area_name": "Narayana Nagara",
  "osm_id": 10931529974,
  "osm_type": "node",
  "place_type": "neighbourhood",
  "amenity_count": 132,
  "amenities": [
    {
      "type": "node",
      "id": 1318917184,
      "lat": 12.8853559,
      "lon": 77.5554648,
      "tags": {
        "amenity": "bar",
        "name": "Shiva Bar"
      }
    },
    {
      "type": "node",
      "id": 3037310855,
      "lat": 12.8827229,
      "lon": 77.5466715,
      "tags": {
        "addr:city": "Bangalore",
        "addr:housenumber": "28",
        "addr:postcode": "560062",
        "addr:street": "Kanakapura Road",
        "amenity": "hospital",
        "healthcare": "hospital",
        "name": "Aikya Healthcare"
      }
    },
    {
      "type": "node",
      "id": 5824798393,
      "lat": 12.8876502,
      "lon": 77.5525271,
      "tags": {
        "amenity": "atm",
        "brand": "Canara Bank",
        "brand:en": "Canara Bank",
        "brand:hi": "केनरा बैंक",
        "brand:kn": "ಕೆನರಾ ಬ್ಯಾಂಕ್",
        "brand:pa": "ਕੇਨਰਾ ਬੈਂਕ",
        "brand:pnb": "کینرا بینک",
        "brand:ur": "کینرا بینک",
        "brand:wikidata": "Q2003777",
        "drive_through": "no",
        "name:en": "Canara Bank",
        "name:hi": "केनरा बैंक",
        "name:kn": "ಕೆನರಾ ಬ್ಯಾಂಕ್",
        "name:pa": "ਕੇਨਰਾ ਬੈਂਕ",
        "name:pnb": "کینرا بینک",
        "name:ur": "کینرا بینک",
        "opening_hours": "00:00-24:00",
        "operator": "Canara Bank",
        "operator:wikidata": "Q2003777"
      }
    },
    {
      "type": "node",
      "id": 5824798394,
      "lat": 12.8876505,
      "lon": 77.5507441,
      "tags": {
        "amenity": "atm",
        "drive_through": "no",
        "opening_hours": "00:00-24:00",
        "operator": "Bank of India, City Engineering College Branch"
      }
    },
    {
      "type": "node",
      "id": 5824798395,
      "lat": 12.8876583,
      "lon": 77.5507012,
      "tags": {
        "amenity": "bank",
        "branch": "City Engineering College Branch",
        "brand": "Bank of India",
        "brand:wikidata": "Q2004439",
        "name": "Bank of India"
      }
    },
    {
      "type": "node",
      "id": 5825107702,
      "lat": 12.8839298,
      "lon": 77.5508279,
      "tags": {
        "amenity": "compressed_air"
      }
    },
    {
      "type": "node",
      "id": 5825107714,
      "lat": 12.8856849,
      "lon": 77.555324,
      "tags": {
        "amenity": "compressed_air"
      }
    },
    {
      "type": "node",
      "id": 7105191687,
      "lat": 12.8834749,
      "lon": 77.550013,
      "tags": {
        "addr:street": "Kanakapura Road",
        "amenity": "restaurant",
        "cuisine": "Andhara;Karnataka_Coastal;seafood",
        "diet:non-vegetarian": "yes",
        "diet:vegetarian": "yes",
        "name": "Sindhoor",
        "name:ta": "சிந்தூர்"
      }
    },
    {
      "type": "node",
      "id": 9884952776,
      "lat": 12.8832909,
      "lon": 77.5500857,
      "tags": {
        "addr:city": "Bengaluru",
        "addr:housenumber": "766",
        "addr:postcode": "560062",
        "addr:street": "Narayana Nagar, 1st Block, Doddakallasandra Village, Kanakapura Road",
        "amenity": "hospital",
        "check_date": "2024-10-19",
        "description": "Maternity & Kids Hospital",
        "emergency": "yes",
        "healthcare": "hospital",
        "healthcare:speciality": "gynaecology;pulmonology;paediatrics;dermatology;dentistry;physiotherapy;fertility",
        "name": "Cloudnine Hospital",
        "operator:type": "private",
        "phone": "9972999729",
        "website": "https://www.cloudninecare.com"
      }
    },
    {
      "type": "node",
      "id": 9887411597,
      "lat": 12.8830755,
      "lon": 77.549322,
      "tags": {
        "addr:city": "Bengaluru",
        "addr:postcode": "560062",
        "addr:street": "Kanakapura Road",
        "amenity": "fast_food",
        "cuisine": "sandwich;chaats;regional;burger;pizza;indian",
        "diet:vegetarian": "yes",
        "drive_through": "yes",
        "name": "Hari Super Sandwich",
        "name:ta": "ஹரி சூப்பர் சான்ட்விச்",
        "opening_hours": "Mo-Su 11:30-21:30"
      }
    },
    {
      "type": "node",
      "id": 9887411598,
      "lat": 12.8832022,
      "lon": 77.5485669,
      "tags": {
        "addr:city": "Bengaluru",
        "addr:postcode": "560062",
        "addr:street": "Kanakapura Road",
        "amenity": "restaurant",
        "cuisine": "regional;chinese;indian",
        "diet:vegetarian": "yes",
        "name": "Krishnam Udupi Hotel",
        "name:ta": "க்ருஷ்ணம் உடுப்பி"
      }
    },
    {
      "type": "node",
      "id": 9953056788,
      "lat": 12.8830731,
      "lon": 77.5486374,
      "tags": {
        "addr:city": "Bengaluru",
        "addr:postcode": "560062",
        "addr:street": "Swamy Vivekanandha Road",
        "amenity": "restaurant",
        "name": "Onesta Italian",
        "name:ta": "ஒனெஸ்டா"
      }
    },
    {
      "type": "node",
      "id": 9953114227,
      "lat": 12.88339,
      "lon": 77.5494057,
      "tags": {
        "name": "Lassi Shop",
        "shop": "beverages"
      }
    },
    {
      "type": "node",
      "id": 9953122391,
      "lat": 12.8833095,
      "lon": 77.54906,
      "tags": {
        "amenity": "ice_cream",
        "name": "Dessert Crunch",
        "name:ta": "டெசர்ட் க்ரன்ச்"
      }
    },
    {
      "type": "node",
      "id": 9953122392,
      "lat": 12.8833886,
      "lon": 77.5493843,
      "tags": {
        "addr:street": "Doddakallasandra, Kanakapura Road",
        "name": "Ratnadeep Supermarket",
        "name:ta": "ரத்னதீப் சூப்பர்மார்க்கெட்",
        "shop": "supermarket"
      }
    },
    {
      "type": "node",
      "id": 10235855716,
      "lat": 12.8876086,
      "lon": 77.5622642,
      "tags": {
        "leisure": "amusement_arcade",
        "name": "Tridom"
      }
    },
    {
      "type": "node",
      "id": 10285017654,
      "lat": 12.8831068,
      "lon": 77.5486654,
      "tags": {
        "addr:city": "Bengaluru",
        "addr:postcode": "560062",
        "addr:street": "Swamy Vivekanandha Road",
        "amenity": "restaurant",
        "name": "Empire Restaurant",
        "name:ta": "எம்பையர் ரெஸ்டாரன்ட்"
      }
    },
    {
      "type": "node",
      "id": 10285017655,
      "lat": 12.8829353,
      "lon": 77.5487865,
      "tags": {
        "addr:city": "Bengaluru",
        "addr:postcode": "560062",
        "addr:street": "Swamy Vivekanandha Road",
        "amenity": "restaurant",
        "name": "Barbeque Nation",
        "name:kn": "ಬರ್ಬಕ್ಯು ನೇಶನ್"
      }
    },
    {
      "type": "node",
      "id": 10285017668,
      "lat": 12.8837021,
      "lon": 77.5486217,
      "tags": {
        "addr:city": "Bengaluru",
        "addr:postcode": "560062",
        "addr:street": "Kanakapura Road",
        "amenity": "restaurant",
        "cuisine": "regional;south_indian;north_indian;chinese",
        "diet:vegetarian": "yes",
        "name": "Adayar Ananda Bhavan (A2B)",
        "name:ta": "அடையார் ஆனந்த பவன்"
      }
    },
    {
      "type": "node",
      "id": 10889877198,
      "lat": 12.8826704,
      "lon": 77.5466728,
      "tags": {
        "addr:city": "Doddakallasandra",
        "addr:district": "Bengaluru",
        "addr:postcode": "560062",
        "addr:street": "Kanakapura Road",
        "amenity": "pharmacy",
        "healthcare": "pharmacy",
        "name": "Life Care Medicals"
      }
    },
    {
      "type": "node",
      "id": 10990040065,
      "lat": 12.8874779,
      "lon": 77.5624412,
      "tags": {
        "name": "Shaya",
        "shop": "jewelry"
      }
    },
    {
      "type": "node",
      "id": 11619085867,
      "lat": 12.8825682,
      "lon": 77.5466598,
      "tags": {
        "addr:street": "Kanakapura Road",
        "amenity": "restaurant",
        "cuisine": "indian;regional;sandwich;tea",
        "diet:vegetarian": "yes",
        "name": "Namma Adigas (Veg)",
        "name:ta": "நம்ம அடிகாஸ்",
        "opening_hours": "Mo-Su 07:00-22:30",
        "self_service": "yes"
      }
    },
    {
      "type": "node",
      "id": 11619096954,
      "lat": 12.8823832,
      "lon": 77.5466504,
      "tags": {
        "addr:street": "Kanakapura Road, Bangalore",
        "amenity": "restaurant",
        "name": "Anand Sweets"
      }
    },
    {
      "type": "node",
      "id": 11622549658,
      "lat": 12.8829107,
      "lon": 77.5488753,
      "tags": {
        "addr:city": "Bengaluru",
        "addr:postcode": "560062",
        "addr:street": "Swamy Vivekanandha Road",
        "brand": "cult.fit",
        "brand:wikidata": "Q121289250",
        "leisure": "fitness_centre",
        "name": "cult.fit",
        "website": "https://www.cult.fit"
      }
    },
    {
      "type": "node",
      "id": 11622549659,
      "lat": 12.8829534,
      "lon": 77.5488406,
      "tags": {
        "addr:city": "Doddakallasandra",
        "addr:district": "Bengaluru",
        "addr:housenumber": "5",
        "addr:postcode": "560062",
        "addr:street": "Swamy Vivekanandha Road",
        "amenity": "ice_cream",
        "mobile": "9591692958",
        "name": "Frozen Bottle",
        "outdoor_seating": "no",
        "website": "https://store.frozenbottle.com/frozen-bottle/milkshake-and-ice-cream-cafe-in-bengaluru/milkshake-and-ice-cream-cafe-in-doddakallasandra/frozen-bottle-in-doddakallasandra-bengaluru--20169a6d-a6d5-4040-96b6-3402bf8b5f7f/home",
        "website:menu": "https://store.frozenbottle.com/frozen-bottle/milkshake-and-ice-cream-cafe-in-bengaluru/milkshake-and-ice-cream-cafe-in-doddakallasandra/frozen-bottle-in-doddakallasandra-bengaluru--20169a6d-a6d5-4040-96b6-3402bf8b5f7f/home"
      }
    },
    {
      "type": "node",
      "id": 11869384815,
      "lat": 12.8835095,
      "lon": 77.550214,
      "tags": {
        "addr:street": "Kanakapura Road",
        "amenity": "hospital",
        "description": "Multi speciality hospital",
        "name": "Dhee Hospital",
        "website": "https://dheehospitals.com/"
      }
    },
    {
      "type": "node",
      "id": 11913147716,
      "lat": 12.8816697,
      "lon": 77.5506451,
      "tags": {
        "addr:city": "Doddakallasandra",
        "addr:district": "Bengaluru",
        "addr:postcode": "560062",
        "addr:street": "Swamy Vivekanandha Road",
        "amenity": "cafe",
        "cuisine": "coffee_shop;noodle;sandwich;regional",
        "dog": "no",
        "indoor_seating": "yes",
        "internet_access": "no",
        "name": "Malgudi Amrutha Chaha",
        "opening_hours": "Mo 07:00-21:00; We-Su 07:00-21:00",
        "outdoor_seating": "yes",
        "panoramax": "50d65335-3fa9-40e3-93b6-f2da8b1abb4e",
        "payment:cards": "yes",
        "payment:cash": "yes",
        "payment:qr_code": "yes",
        "service:electricity": "ask",
        "smoking": "no"
      }
    },
    {
      "type": "node",
      "id": 11966054963,
      "lat": 12.8876321,
      "lon": 77.5526322,
      "tags": {
        "amenity": "pharmacy",
        "name": "Sukrith Medicals"
      }
    },
    {
      "type": "node",
      "id": 11980645975,
      "lat": 12.8872057,
      "lon": 77.5542239,
      "tags": {
        "shop": "convenience"
      }
    },
    {
      "type": "node",
      "id": 11980645976,
      "lat": 12.8872263,
      "lon": 77.5541857,
      "tags": {
        "amenity": "dentist"
      }
    },
    {
      "type": "node",
      "id": 11980710028,
      "lat": 12.8876381,
      "lon": 77.5525922,
      "tags": {
        "name": "By2Juice",
        "shop": "beverages"
      }
    },
    {
      "type": "node",
      "id": 11980710029,
      "lat": 12.8876433,
      "lon": 77.552562,
      "tags": {
        "shop": "tea",
        "wheelchair": "no"
      }
    },
    {
      "type": "node",
      "id": 11980710030,
      "lat": 12.8876554,
      "lon": 77.5524969,
      "tags": {
        "beauty": "*",
        "female": "yes",
        "male": "yes",
        "shop": "hairdresser"
      }
    },
    {
      "type": "node",
      "id": 11980736076,
      "lat": 12.8876044,
      "lon": 77.5528634,
      "tags": {
        "shop": "bakery"
      }
    },
    {
      "type": "node",
      "id": 11980736077,
      "lat": 12.8876269,
      "lon": 77.552738,
      "tags": {
        "craft": "dressmaker",
        "shop": "fabric",
        "tailor": "alternation_service"
      }
    },
    {
      "type": "node",
      "id": 12022709091,
      "lat": 12.8881741,
      "lon": 77.5518727,
      "tags": {
        "access": "private",
        "amenity": "parking_entrance",
        "parking": "underground"
      }
    },
    {
      "type": "node",
      "id": 12022709098,
      "lat": 12.8890081,
      "lon": 77.5520658,
      "tags": {
        "access": "private",
        "amenity": "parking_entrance",
        "parking": "underground"
      }
    },
    {
      "type": "node",
      "id": 12151512022,
      "lat": 12.8857538,
      "lon": 77.5569183,
      "tags": {
        "amenity": "fuel",
        "brand": "Hindustan Petroleum",
        "brand:wikidata": "Q1619375",
        "name": "HP",
        "official_name": "Hindustan Petroleum"
      }
    },
    {
      "type": "node",
      "id": 12164851525,
      "lat": 12.8795039,
      "lon": 77.5523243,
      "tags": {
        "amenity": "parking_entrance"
      }
    },
    {
      "type": "node",
      "id": 12164914045,
      "lat": 12.887545,
      "lon": 77.5532655,
      "tags": {
        "amenity": "parking_entrance"
      }
    },
    {
      "type": "node",
      "id": 12164914047,
      "lat": 12.8876081,
      "lon": 77.5529477,
      "tags": {
        "amenity": "parking_entrance"
      }
    },
    {
      "type": "node",
      "id": 12169023077,
      "lat": 12.8894274,
      "lon": 77.5563647,
      "tags": {
        "amenity": "charging_station",
        "description": "Swapping station for EV batteries.",
        "name": "Battery Swapping Station",
        "opening_hours": "24/7"
      }
    },
    {
      "type": "node",
      "id": 12175217966,
      "lat": 12.8819212,
      "lon": 77.550347,
      "tags": {
        "amenity": "dentist",
        "name": "Smile View Dental"
      }
    },
    {
      "type": "node",
      "id": 12207077475,
      "lat": 12.887406,
      "lon": 77.5625392,
      "tags": {
        "addr:floor": "G, 1",
        "check_date": "2024-09-28",
        "name": "H&M",
        "payment:cash": "yes",
        "payment:credit_cards": "yes",
        "payment:debit_cards": "yes",
        "payment:google_pay": "yes",
        "payment:upi": "yes",
        "shop": "clothes",
        "wheelchair": "yes"
      }
    },
    {
      "type": "node",
      "id": 12323456989,
      "lat": 12.8799184,
      "lon": 77.5535523,
      "tags": {
        "addr:street": "Swami Vivekananda Road, Off Kanakapura Road, Doddakallandra, Bengaluru",
        "name": "ItsyBitsy",
        "shop": "craft",
        "website": "https://itsybitsy.in"
      }
    },
    {
      "type": "node",
      "id": 12323521698,
      "lat": 12.8798391,
      "lon": 77.5536018,
      "tags": {
        "name": "Royal Touch Mens Salon",
        "shop": "beauty"
      }
    },
    {
      "type": "node",
      "id": 12323528963,
      "lat": 12.8799238,
      "lon": 77.5535447,
      "tags": {
        "amenity": "pharmacy",
        "name": "Aloha Pharmacy"
      }
    },
    {
      "type": "node",
      "id": 12323610631,
      "lat": 12.8799756,
      "lon": 77.5535431,
      "tags": {
        "addr:city": "Doddakallasandra",
        "addr:district": "Bengaluru",
        "addr:street": "Swamy Vivekanandha Road",
        "name": "Amma Pastries",
        "payment:cash": "yes",
        "payment:upi": "yes",
        "shop": "bakery"
      }
    },
    {
      "type": "node",
      "id": 12395928080,
      "lat": 12.8873851,
      "lon": 77.5620496,
      "tags": {
        "air_conditioning": "yes",
        "amenity": "pub",
        "contact:instagram": "ironhill_kanakapuraroad",
        "craft": "brewery",
        "indoor_seating": "yes",
        "microbrewery": "yes",
        "name": "Iron Hill Bengaluru",
        "opening_hours": "Mo-Su 12:00-01:00",
        "payment:credit_cards": "yes",
        "payment:debit_cards": "yes",
        "smoking": "separated",
        "toilets": "yes",
        "wheelchair": "limited"
      }
    },
    {
      "type": "node",
      "id": 12422650848,
      "lat": 12.8872468,
      "lon": 77.5623226,
      "tags": {
        "air_conditioning": "yes",
        "amenity": "restaurant",
        "check_date": "2024-12-14",
        "cuisine": "regional;indian",
        "diet:vegan": "yes",
        "diet:vegetarian": "yes",
        "name": "Street Storyss",
        "toilets": "yes"
      }
    },
    {
      "type": "node",
      "id": 12750076857,
      "lat": 12.8838746,
      "lon": 77.5505854,
      "tags": {
        "addr:street": "Doddakalasandra Main Road, Kanakapura Road, Narayana Nagar 1st Block",
        "clothes": "sports",
        "contact:email": "thesportsshop22@gmail.con",
        "name": "The Sports Shop",
        "opening_hours": "Mo-Su 09:00-21:00",
        "phone": "7760040064",
        "shop": "sports"
      }
    },
    {
      "type": "node",
      "id": 12912580246,
      "lat": 12.8816585,
      "lon": 77.5506615,
      "tags": {
        "addr:city": "Doddakallasandra",
        "addr:district": "Bengaluru",
        "addr:postcode": "560062",
        "addr:street": "Swamy Vivekanandha Road",
        "amenity": "ice_cream",
        "name": "Meltin Desires",
        "outdoor_seating": "no",
        "panoramax": "4f44a488-c308-409a-8af6-dbf785a296cf"
      }
    },
    {
      "type": "node",
      "id": 12926821076,
      "lat": 12.8877368,
      "lon": 77.5527254,
      "tags": {
        "name": "Hasiru Thotta",
        "opening_hours": "06:30-22:00",
        "shop": "greengrocer"
      }
    },
    {
      "type": "node",
      "id": 13088942192,
      "lat": 12.8861135,
      "lon": 77.5490302,
      "tags": {
        "access": "private",
        "amenity": "parking_entrance",
        "parking": "underground"
      }
    },
    {
      "type": "node",
      "id": 13088942193,
      "lat": 12.885623,
      "lon": 77.5502601,
      "tags": {
        "access": "private",
        "amenity": "parking_entrance",
        "parking": "underground"
      }
    },
    {
      "type": "node",
      "id": 13149575752,
      "lat": 12.879743,
      "lon": 77.5537562,
      "tags": {
        "amenity": "pharmacy",
        "name": "Medplus Pharmacy"
      }
    },
    {
      "type": "node",
      "id": 13208696269,
      "lat": 12.8814887,
      "lon": 77.5462598,
      "tags": {
        "addr:street": "Kanakapura Road, Doddakallasandra, Bengaluru",
        "name": "Style 365 Studio Salon",
        "shop": "beauty"
      }
    },
    {
      "type": "node",
      "id": 13208732222,
      "lat": 12.8815792,
      "lon": 77.5463047,
      "tags": {
        "addr:street": "Kanakapura Road, Doddakallasandra, Bengaluru",
        "amenity": "dentist",
        "healthcare": "dentist",
        "name": "Apollo Dental",
        "phone": "8310463413"
      }
    },
    {
      "type": "node",
      "id": 13208738219,
      "lat": 12.8814643,
      "lon": 77.5462756,
      "tags": {
        "addr:street": "Kanakapura Road, Doddakallasandra, Bengaluru",
        "name": "Caratlane",
        "shop": "jewelry"
      }
    },
    {
      "type": "node",
      "id": 13208776815,
      "lat": 12.8810666,
      "lon": 77.5463894,
      "tags": {
        "addr:street": "Kanakapura Road, Doddakallasandra, Bengaluru",
        "name": "Bunny Bakers",
        "shop": "bakery"
      }
    },
    {
      "type": "node",
      "id": 13208784481,
      "lat": 12.8811191,
      "lon": 77.5467138,
      "tags": {
        "addr:street": "Kanakapura Road, Doddakallasandra, Bengaluru",
        "name": "PPS Motors (Mahindra Showroom)",
        "shop": "car"
      }
    },
    {
      "type": "node",
      "id": 13229636571,
      "lat": 12.8807481,
      "lon": 77.5464237,
      "tags": {
        "addr:city": "Bangalore",
        "addr:postcode": "560062",
        "addr:street": "Kanakapura Road",
        "clothes": "women;men;children;workwear;denim;babies",
        "name": "Reliance Trends",
        "operator": "Reliance",
        "shop": "clothes"
      }
    },
    {
      "type": "node",
      "id": 13251341683,
      "lat": 12.8837389,
      "lon": 77.5483971,
      "tags": {
        "addr:city": "Doddakallasandra",
        "addr:district": "Bengaluru",
        "addr:postcode": "560062",
        "addr:street": "Kanakapura Road",
        "amenity": "restaurant",
        "name": "Kebab Mahal"
      }
    },
    {
      "type": "node",
      "id": 13318770370,
      "lat": 12.8871772,
      "lon": 77.5587934,
      "tags": {
        "proposed:name": "IKEA",
        "shop": "proposed:furniture"
      }
    },
    {
      "type": "way",
      "id": 117804907,
      "center": {
        "lat": 12.8845424,
        "lon": 77.5545324
      },
      "tags": {
        "amenity": "theatre",
        "name": "Shankaraa",
        "name:kn": "ಶಂಕರಾ"
      }
    },
    {
      "type": "way",
      "id": 118414979,
      "center": {
        "lat": 12.8887443,
        "lon": 77.5506312
      },
      "tags": {
        "amenity": "college",
        "name": "City Engineering College",
        "name:kn": "ಸಿಟಿ ಇಂಜಿನಿಯರಿಂಗ್ ಕಾಲೇಜು",
        "wikidata": "Q5123156",
        "wikimedia_commons": "Category:City Engineering College",
        "wikipedia": "en:City Engineering College"
      }
    },
    {
      "type": "way",
      "id": 307414834,
      "center": {
        "lat": 12.8846993,
        "lon": 77.5513878
      },
      "tags": {
        "amenity": "school",
        "building": "yes",
        "name": "Ekya",
        "name:kn": "ಏಕ್ಯಾ ಶಾಲೆ",
        "source": "GPS"
      }
    },
    {
      "type": "way",
      "id": 347598811,
      "center": {
        "lat": 12.8837746,
        "lon": 77.5507523
      },
      "tags": {
        "addr:city": "Doddakallasandra",
        "addr:district": "Bengaluru",
        "addr:housenumber": "62",
        "addr:postcode": "560062",
        "addr:street": "Kanakapura Road",
        "amenity": "fuel",
        "brand": "Indian Oil",
        "brand:wikidata": "Q1289348",
        "building": "yes",
        "compressed_air": "yes",
        "fuel:diesel": "yes",
        "fuel:octane_91": "yes",
        "fuel:octane_95": "yes",
        "name": "Sree Shakthi Filling Station (Indian Oil)",
        "opening_hours": "Mo-Su 06:00-23:00",
        "operator": "Indian Oil Corporation",
        "payment:cash": "yes",
        "payment:mastercard": "yes",
        "payment:visa": "yes",
        "self_service": "no"
      }
    },
    {
      "type": "way",
      "id": 362882629,
      "center": {
        "lat": 12.8783453,
        "lon": 77.5563216
      },
      "tags": {
        "leisure": "park"
      }
    },
    {
      "type": "way",
      "id": 362882630,
      "center": {
        "lat": 12.8790983,
        "lon": 77.5579758
      },
      "tags": {
        "leisure": "park"
      }
    },
    {
      "type": "way",
      "id": 362882696,
      "center": {
        "lat": 12.883375,
        "lon": 77.5549854
      },
      "tags": {
        "leisure": "park"
      }
    },
    {
      "type": "way",
      "id": 362882712,
      "center": {
        "lat": 12.8801869,
        "lon": 77.5488096
      },
      "tags": {
        "leisure": "park"
      }
    },
    {
      "type": "way",
      "id": 616049864,
      "center": {
        "lat": 12.8856584,
        "lon": 77.5526591
      },
      "tags": {
        "building": "retail",
        "description": "Mantri Mall Kanakpura Road",
        "name": "Mantri Mall Kanakpura Road",
        "operator": "Mantri Builders",
        "shop": "mall"
      }
    },
    {
      "type": "way",
      "id": 616079614,
      "center": {
        "lat": 12.8860843,
        "lon": 77.5565707
      },
      "tags": {
        "building": "commercial",
        "second_hand": "only",
        "service": "dealer",
        "shop": "car"
      }
    },
    {
      "type": "way",
      "id": 616087677,
      "center": {
        "lat": 12.885939,
        "lon": 77.5563652
      },
      "tags": {
        "amenity": "place_of_worship",
        "religion": "hindu"
      }
    },
    {
      "type": "way",
      "id": 616087679,
      "center": {
        "lat": 12.8859906,
        "lon": 77.555902
      },
      "tags": {
        "building": "commercial",
        "name": "Big Market",
        "opening_hours": "07:30-22:00",
        "shop": "supermarket"
      }
    },
    {
      "type": "way",
      "id": 627957762,
      "center": {
        "lat": 12.8883776,
        "lon": 77.5517564
      },
      "tags": {
        "leisure": "park"
      }
    },
    {
      "type": "way",
      "id": 710637794,
      "center": {
        "lat": 12.8739355,
        "lon": 77.5595153
      },
      "tags": {
        "amenity": "school",
        "email": "info@mutha.edu.in",
        "name": "The Mutha School",
        "operator": "Mutha Foundation",
        "operator:type": "private",
        "phone": "+91 99450 27007",
        "school:gender": "mixed",
        "website": "https://mutha.edu.in"
      }
    },
    {
      "type": "way",
      "id": 775660950,
      "center": {
        "lat": 12.8864076,
        "lon": 77.5614211
      },
      "tags": {
        "leisure": "garden"
      }
    },
    {
      "type": "way",
      "id": 775660951,
      "center": {
        "lat": 12.8864946,
        "lon": 77.5610012
      },
      "tags": {
        "leisure": "garden"
      }
    },
    {
      "type": "way",
      "id": 775660952,
      "center": {
        "lat": 12.886917,
        "lon": 77.561549
      },
      "tags": {
        "leisure": "garden"
      }
    },
    {
      "type": "way",
      "id": 775660953,
      "center": {
        "lat": 12.8862624,
        "lon": 77.5619268
      },
      "tags": {
        "leisure": "garden"
      }
    },
    {
      "type": "way",
      "id": 775660954,
      "center": {
        "lat": 12.8859631,
        "lon": 77.5610453
      },
      "tags": {
        "leisure": "garden"
      }
    },
    {
      "type": "way",
      "id": 775660961,
      "center": {
        "lat": 12.88687,
        "lon": 77.5611779
      },
      "tags": {
        "leisure": "playground"
      }
    },
    {
      "type": "way",
      "id": 775660968,
      "center": {
        "lat": 12.8865726,
        "lon": 77.5616251
      },
      "tags": {
        "leisure": "sports_centre"
      }
    },
    {
      "type": "way",
      "id": 775660969,
      "center": {
        "lat": 12.886215,
        "lon": 77.5615524
      },
      "tags": {
        "leisure": "park"
      }
    },
    {
      "type": "way",
      "id": 775660970,
      "center": {
        "lat": 12.886384,
        "lon": 77.5615993
      },
      "tags": {
        "access": "private",
        "leisure": "swimming_pool"
      }
    },
    {
      "type": "way",
      "id": 775660975,
      "center": {
        "lat": 12.8853869,
        "lon": 77.5630045
      },
      "tags": {
        "leisure": "garden"
      }
    },
    {
      "type": "way",
      "id": 775660976,
      "center": {
        "lat": 12.8833467,
        "lon": 77.560624
      },
      "tags": {
        "addr:city": "Bengaluru",
        "addr:country": "IN",
        "addr:housenumber": "28/4",
        "addr:postcode": "560062",
        "addr:street": "Kanakapura Road",
        "addr:suburb": "Doddakalasandra",
        "amenity": "school",
        "email": "cbsedks@kumarans.org",
        "name": "Sri Kumaran Children's Academy",
        "phone": "+91 80 2632 1077",
        "school:gender": "mixed",
        "website": "https://cbse-dks.kumarans.org/"
      }
    },
    {
      "type": "way",
      "id": 775660977,
      "center": {
        "lat": 12.8860523,
        "lon": 77.5621844
      },
      "tags": {
        "leisure": "pitch",
        "sport": "tennis"
      }
    },
    {
      "type": "way",
      "id": 775660978,
      "center": {
        "lat": 12.8848802,
        "lon": 77.5642115
      },
      "tags": {
        "leisure": "pitch",
        "sport": "basketball"
      }
    },
    {
      "type": "way",
      "id": 775660979,
      "center": {
        "lat": 12.885589,
        "lon": 77.5635214
      },
      "tags": {
        "access": "private",
        "leisure": "swimming_pool"
      }
    },
    {
      "type": "way",
      "id": 775660980,
      "center": {
        "lat": 12.8856451,
        "lon": 77.5625834
      },
      "tags": {
        "leisure": "garden"
      }
    },
    {
      "type": "way",
      "id": 775660983,
      "center": {
        "lat": 12.8856156,
        "lon": 77.5633554
      },
      "tags": {
        "access": "private",
        "leisure": "swimming_pool"
      }
    },
    {
      "type": "way",
      "id": 775660997,
      "center": {
        "lat": 12.8881564,
        "lon": 77.5629073
      },
      "tags": {
        "addr:city": "Bengaluru",
        "addr:postcode": "560062",
        "addr:street": "Kanakapura Road",
        "alt_name": "Forum Kanakapura",
        "landuse": "retail",
        "name": "Prestige Forum Falcon City Mall",
        "name:ta": "ப்ரிஸ்டீஜ் ஃபோரம் ஃபால்கான் சிட்டி மால்",
        "shop": "mall"
      }
    },
    {
      "type": "way",
      "id": 781680964,
      "center": {
        "lat": 12.8765446,
        "lon": 77.5538949
      },
      "tags": {
        "leisure": "sports_centre"
      }
    },
    {
      "type": "way",
      "id": 1078511721,
      "center": {
        "lat": 12.8830578,
        "lon": 77.5498926
      },
      "tags": {
        "addr:city": "Bengaluru",
        "addr:housenumber": "764",
        "addr:postcode": "560062",
        "addr:street": "Narayana Nagar, 1st Block, Kanakapura Road",
        "building": "yes",
        "name": "My Car Multi Brand",
        "opening_hours": "Mo-Sa 09:00-19:00",
        "phone": "9945888417",
        "shop": "car_repair",
        "website": "https://mycarmultibrand.com/"
      }
    },
    {
      "type": "way",
      "id": 1124698768,
      "center": {
        "lat": 12.8836301,
        "lon": 77.5486371
      },
      "tags": {
        "amenity": "parking"
      }
    },
    {
      "type": "way",
      "id": 1149374502,
      "center": {
        "lat": 12.8845924,
        "lon": 77.5627856
      },
      "tags": {
        "amenity": "fountain",
        "drinking_water": "no"
      }
    },
    {
      "type": "way",
      "id": 1176579511,
      "center": {
        "lat": 12.8747508,
        "lon": 77.5609211
      },
      "tags": {
        "amenity": "place_of_worship",
        "name": "Avalahalli Masjid",
        "name:kn": "ಅವಲಹಳ್ಳಿ ಮಸ್ಜಿದ್",
        "religion": "muslim"
      }
    },
    {
      "type": "way",
      "id": 1176579513,
      "center": {
        "lat": 12.8758843,
        "lon": 77.5615653
      },
      "tags": {
        "amenity": "school",
        "name": "Doddakalasandra Government High School"
      }
    },
    {
      "type": "way",
      "id": 1176579517,
      "center": {
        "lat": 12.8786008,
        "lon": 77.5555302
      },
      "tags": {
        "amenity": "place_of_worship",
        "religion": "hindu"
      }
    },
    {
      "type": "way",
      "id": 1176579522,
      "center": {
        "lat": 12.8787667,
        "lon": 77.5597161
      },
      "tags": {
        "leisure": "park"
      }
    },
    {
      "type": "way",
      "id": 1183470408,
      "center": {
        "lat": 12.8873478,
        "lon": 77.5630005
      },
      "tags": {
        "leisure": "park"
      }
    },
    {
      "type": "way",
      "id": 1213306738,
      "center": {
        "lat": 12.8849761,
        "lon": 77.5527634
      },
      "tags": {
        "access": "permissive",
        "amenity": "parking",
        "charge": "35 INR",
        "fee": "yes",
        "parking": "surface",
        "payment:cash": "yes",
        "payment:upi": "yes",
        "surface": "concrete"
      }
    },
    {
      "type": "way",
      "id": 1238059508,
      "center": {
        "lat": 12.884562,
        "lon": 77.5627726
      },
      "tags": {
        "leisure": "park"
      }
    },
    {
      "type": "way",
      "id": 1238059509,
      "center": {
        "lat": 12.8854319,
        "lon": 77.5637401
      },
      "tags": {
        "access": "private",
        "leisure": "swimming_pool"
      }
    },
    {
      "type": "way",
      "id": 1238059510,
      "center": {
        "lat": 12.886537,
        "lon": 77.563214
      },
      "tags": {
        "leisure": "park"
      }
    },
    {
      "type": "way",
      "id": 1242574024,
      "center": {
        "lat": 12.8804372,
        "lon": 77.5552609
      },
      "tags": {
        "leisure": "park"
      }
    },
    {
      "type": "way",
      "id": 1263387780,
      "center": {
        "lat": 12.8763876,
        "lon": 77.5491073
      },
      "tags": {
        "leisure": "park"
      }
    },
    {
      "type": "way",
      "id": 1263387781,
      "center": {
        "lat": 12.875914,
        "lon": 77.5489599
      },
      "tags": {
        "leisure": "park"
      }
    },
    {
      "type": "way",
      "id": 1297667819,
      "center": {
        "lat": 12.8890269,
        "lon": 77.5511308
      },
      "tags": {
        "access": "private",
        "leisure": "swimming_pool"
      }
    },
    {
      "type": "way",
      "id": 1297667822,
      "center": {
        "lat": 12.8876219,
        "lon": 77.5510935
      },
      "tags": {
        "access": "permissive",
        "amenity": "parking",
        "parking": "surface"
      }
    },
    {
      "type": "way",
      "id": 1297667823,
      "center": {
        "lat": 12.8886203,
        "lon": 77.5517818
      },
      "tags": {
        "leisure": "playground"
      }
    },
    {
      "type": "way",
      "id": 1297667920,
      "center": {
        "lat": 12.885716,
        "lon": 77.555222
      },
      "tags": {
        "amenity": "fuel",
        "fuel:diesel": "yes",
        "fuel:octane_80": "yes",
        "fuel:octane_91": "yes",
        "opening_hours": "00:00-24:00",
        "operator": "Bharath Petrolium Corporation Limited",
        "payment:american_express": "no",
        "payment:cash": "yes",
        "payment:mastercard": "yes",
        "payment:visa": "yes",
        "self_service": "no"
      }
    },
    {
      "type": "way",
      "id": 1297667921,
      "center": {
        "lat": 12.8855934,
        "lon": 77.5548424
      },
      "tags": {
        "amenity": "fuel"
      }
    },
    {
      "type": "way",
      "id": 1307304768,
      "center": {
        "lat": 12.8849611,
        "lon": 77.5640955
      },
      "tags": {
        "access": "private",
        "amenity": "parking",
        "parking": "surface"
      }
    },
    {
      "type": "way",
      "id": 1307304769,
      "center": {
        "lat": 12.8862635,
        "lon": 77.5623688
      },
      "tags": {
        "access": "private",
        "amenity": "parking",
        "parking": "surface"
      }
    },
    {
      "type": "way",
      "id": 1347917770,
      "center": {
        "lat": 12.8808484,
        "lon": 77.5532915
      },
      "tags": {
        "leisure": "park"
      }
    },
    {
      "type": "way",
      "id": 1349974770,
      "center": {
        "lat": 12.8754391,
        "lon": 77.5517706
      },
      "tags": {
        "leisure": "park"
      }
    },
    {
      "type": "way",
      "id": 1349974772,
      "center": {
        "lat": 12.884623,
        "lon": 77.5513579
      },
      "tags": {
        "amenity": "school"
      }
    },
    {
      "type": "way",
      "id": 1349974789,
      "center": {
        "lat": 12.8836678,
        "lon": 77.5461093
      },
      "tags": {
        "amenity": "college",
        "name": "Hillside College of Nursing"
      }
    },
    {
      "type": "way",
      "id": 1349974796,
      "center": {
        "lat": 12.8806176,
        "lon": 77.5465073
      },
      "tags": {
        "amenity": "school",
        "name": "Siddaganga National School",
        "name:kn": "ಸಿದ್ದಗಂಗ ಶಾಲೆ"
      }
    },
    {
      "type": "way",
      "id": 1384900335,
      "center": {
        "lat": 12.886637,
        "lon": 77.5493263
      },
      "tags": {
        "access": "private",
        "leisure": "swimming_pool"
      }
    },
    {
      "type": "way",
      "id": 1384900336,
      "center": {
        "lat": 12.8865824,
        "lon": 77.5502213
      },
      "tags": {
        "access": "private",
        "leisure": "park"
      }
    },
    {
      "type": "way",
      "id": 1424094713,
      "center": {
        "lat": 12.8858245,
        "lon": 77.5496936
      },
      "tags": {
        "access": "private",
        "amenity": "parking",
        "orientation": "perpendicular",
        "parking": "street_side"
      }
    },
    {
      "type": "way",
      "id": 1424094714,
      "center": {
        "lat": 12.886193,
        "lon": 77.5489442
      },
      "tags": {
        "access": "private",
        "amenity": "parking",
        "orientation": "perpendicular",
        "parking": "street_side"
      }
    },
    {
      "type": "way",
      "id": 1424160952,
      "center": {
        "lat": 12.8863402,
        "lon": 77.5510479
      },
      "tags": {
        "access": "private",
        "leisure": "swimming_pool"
      }
    },
    {
      "type": "way",
      "id": 1441801593,
      "center": {
        "lat": 12.8813854,
        "lon": 77.5461367
      },
      "tags": {
        "access": "customers",
        "amenity": "parking",
        "fee": "no",
        "parking": "surface",
        "surface": "ground"
      }
    },
    {
      "type": "way",
      "id": 1441801779,
      "center": {
        "lat": 12.881199,
        "lon": 77.5465635
      },
      "tags": {
        "access": "customers",
        "amenity": "parking",
        "parking": "surface",
        "surface": "concrete"
      }
    },
    {
      "type": "way",
      "id": 1444118017,
      "center": {
        "lat": 12.883621,
        "lon": 77.5484171
      },
      "tags": {
        "access": "customers",
        "amenity": "parking",
        "parking": "surface",
        "surface": "concrete"
      }
    },
    {
      "type": "way",
      "id": 1444119169,
      "center": {
        "lat": 12.8825505,
        "lon": 77.5466982
      },
      "tags": {
        "access": "customers",
        "amenity": "parking",
        "capacity": "4",
        "fee": "no",
        "parking": "street_side",
        "surface": "paving_stones"
      }
    }
  ]
}