{
  "area_name": "Neelasandra",
  "osm_id": 19883305,
  "osm_type": "relation",
  "place_type": "administrative",
  "amenity_count": 15,
  "amenities": [
    {
      "type": "node",
      "id": 671960254,
      "lat": 12.952612,
      "lon": 77.6145588,
      "tags": {
        "amenity": "recycling",
        "name": "Nazeer Aahamad"
      }
    },
    {
      "type": "node",
      "id": 671960262,
      "lat": 12.9528804,
      "lon": 77.6152377,
      "tags": {
        "amenity": "recycling",
        "name": "Chinni Raju"
      }
    },
    {
      "type": "node",
      "id": 672011674,
      "lat": 12.9515185,
      "lon": 77.6142644,
      "tags": {
        "amenity": "recycling",
        "description": "dumpsite"
      }
    },
    {
      "type": "node",
      "id": 672011678,
      "lat": 12.9517365,
      "lon": 77.6139065,
      "tags": {
        "amenity": "recycling",
        "description": "dumpsite"
      }
    },
    {
      "type": "node",
      "id": 672011694,
      "lat": 12.9511406,
      "lon": 77.6174732,
      "tags": {
        "amenity": "recycling",
        "name": "Kumar"
      }
    },
    {
      "type": "node",
      "id": 672011697,
      "lat": 12.95132,
      "lon": 77.6171638,
      "tags": {
        "amenity": "recycling",
        "description": "dumpsite"
      }
    },
    {
      "type": "node",
      "id": 672011699,
      "lat": 12.9518495,
      "lon": 77.6179311,
      "tags": {
        "amenity": "recycling",
        "description": "dumpsite"
      }
    },
    {
      "type": "node",
      "id": 672011700,
      "lat": 12.9527732,
      "lon": 77.6173961,
      "tags": {
        "amenity": "recycling",
        "description": "dumpsite"
      }
    },
    {
      "type": "node",
      "id": 672011704,
      "lat": 12.9530481,
      "lon": 77.6159168,
      "tags": {
        "amenity": "recycling",
        "name": "Sapha"
      }
    },
    {
      "type": "node",
      "id": 672011707,
      "lat": 12.9537341,
      "lon": 77.6168951,
      "tags": {
        "amenity": "recycling",
        "name": "Palani"
      }
    },
    {
      "type": "node",
      "id": 672011711,
      "lat": 12.9529841,
      "lon": 77.6175394,
      "tags": {
        "amenity": "recycling",
        "name": "Muniswamy"
      }
    },
    {
      "type": "node",
      "id": 6420920996,
      "lat": 12.9517387,
      "lon": 77.6130259,
      "tags": {
        "addr:place": "Austin Town",
        "amenity": "school",
        "isced:level": "3",
        "name": "Elight HS, Austin Town W No 71",
        "name:kn": "ಎಲೈಟ್ ಪ್ರೌಢಶಾಲೆ, ಆಸ್ಟಿನ್‌ಟೌನ್‌",
        "operator": "Private Un-Aided",
        "school": "Higher Secondary"
      }
    },
    {
      "type": "node",
      "id": 6734977227,
      "lat": 12.950636,
      "lon": 77.613165,
      "tags": {
        "addr:place": "Neelasandra",
        "amenity": "school",
        "isced:level": "3",
        "name": "Bright English HPS",
        "name:kn": "ಬ್ರೈಟ್ ಆಂಗ್ಲ ಹಿರಿಯ ಪ್ರಾಥಮಿಕ ಶಾಲೆ,ನೀಲಸಂದ್ರ",
        "operator": "Private Un-Aided",
        "school": "Higher Secondary"
      }
    },
    {
      "type": "node",
      "id": 6948552667,
      "lat": 12.9526616,
      "lon": 77.61503,
      "tags": {
        "addr:district": "Bengaluru Urban",
        "addr:full": "#20, 7Th Cross Rosegarden, Neelasandra",
        "addr:postcode": "560047",
        "addr:state": "Karnataka",
        "amenity": "hospital",
        "name": "Get Well Hospital",
        "source": "OpenGovernmentData"
      }
    },
    {
      "type": "way",
      "id": 411057600,
      "center": {
        "lat": 12.9535915,
        "lon": 77.6174661
      },
      "tags": {
        "amenity": "parking"
      }
    }
  ]
}