{
  "area_name": "New Baiyyappanahalli Extension",
  "osm_id": 5519076249,
  "osm_type": "node",
  "place_type": "neighbourhood",
  "amenity_count": 363,
  "amenities": [
    {
      "type": "node",
      "id": 844462412,
      "lat": 12.983019,
      "lon": 77.6384106,
      "tags": {
        "amenity": "police",
        "name": "Indira Nagar Police Station",
        "name:kn": "ಇಂದಿರಾನಗರ ಆರಕ್ಷಕ ಠಾಣೆ"
      }
    },
    {
      "type": "node",
      "id": 1078369539,
      "lat": 12.980808,
      "lon": 77.6406008,
      "tags": {
        "addr:street": "100 Feet Road",
        "amenity": "fast_food",
        "brand": "Domino's",
        "brand:ks": "ڈومینوز",
        "brand:pa": "ਡੋਮੀਨੋਜ਼",
        "brand:ur": "ڈومینوز",
        "brand:wikidata": "Q839466",
        "brand:wikipedia": "en:Domino's Pizza",
        "cuisine": "pizza",
        "name": "Domino's",
        "name:ks": "ڈومینوز",
        "name:pa": "ਡੋਮੀਨੋਜ਼",
        "name:ur": "ڈومینوز",
        "takeaway": "yes"
      }
    },
    {
      "type": "node",
      "id": 1078369543,
      "lat": 12.980115,
      "lon": 77.6405511,
      "tags": {
        "addr:street": "100 Feet Road",
        "amenity": "restaurant",
        "cuisine": "indian",
        "name": "Kund",
        "name:kn": "ಕುಂದ್"
      }
    },
    {
      "type": "node",
      "id": 1138468595,
      "lat": 12.9783335,
      "lon": 77.644369,
      "tags": {
        "addr:city": "Bengaluru",
        "addr:housenumber": "716",
        "addr:postcode": "560038",
        "addr:street": "Chinmaya Mission Hospital Road",
        "amenity": "arts_centre",
        "name": "Goethe-Institut Max Müller Bhavan",
        "phone": "+91 80 25205305",
        "website": "https://www.goethe.de/ins/in/en/sta/ban.html"
      }
    },
    {
      "type": "node",
      "id": 1138469390,
      "lat": 12.9787173,
      "lon": 77.643786,
      "tags": {
        "addr:street": "Chinmaya Mission Hospital Road",
        "name": "Bandhej",
        "shop": "clothes"
      }
    },
    {
      "type": "node",
      "id": 1328610585,
      "lat": 12.9790183,
      "lon": 77.6423007,
      "tags": {
        "shop": "florist"
      }
    },
    {
      "type": "node",
      "id": 1328610588,
      "lat": 12.9793502,
      "lon": 77.6421411,
      "tags": {
        "amenity": "restaurant",
        "name": "Sue's Kitchen",
        "name:kn": "ಸೂಸ್ ಕಿಚನ್"
      }
    },
    {
      "type": "node",
      "id": 1328610603,
      "lat": 12.9786915,
      "lon": 77.6430065,
      "tags": {
        "brand": "Max",
        "brand:wikidata": "Q24939079",
        "name": "Max",
        "shop": "clothes",
        "wheelchair": "no"
      }
    },
    {
      "type": "node",
      "id": 1328610618,
      "lat": 12.9787281,
      "lon": 77.6449298,
      "tags": {
        "addr:city": "Bengaluru",
        "addr:postcode": "560038",
        "addr:street": "Chinmaya Mission Hospital Road",
        "name": "M K Retail",
        "organic": "yes",
        "shop": "supermarket",
        "website": "https://www.mkretail.com/"
      }
    },
    {
      "type": "node",
      "id": 1328610672,
      "lat": 12.9787344,
      "lon": 77.6451837,
      "tags": {
        "amenity": "pharmacy"
      }
    },
    {
      "type": "node",
      "id": 1328610680,
      "lat": 12.978987,
      "lon": 77.6427942,
      "tags": {
        "shop": "florist"
      }
    },
    {
      "type": "node",
      "id": 1328610690,
      "lat": 12.979687,
      "lon": 77.6422424,
      "tags": {
        "name": "Bimal Maruti Sai Service Station",
        "shop": "car_repair"
      }
    },
    {
      "type": "node",
      "id": 1328610696,
      "lat": 12.9790909,
      "lon": 77.6467497,
      "tags": {
        "addr:street": "80 Feet Road(Sir C.V. Raman Hospital Road)",
        "name": "Sapna Book House",
        "shop": "books"
      }
    },
    {
      "type": "node",
      "id": 1328610703,
      "lat": 12.9790062,
      "lon": 77.6428583,
      "tags": {
        "addr:housenumber": "99",
        "brand": "HOPCOMS",
        "brand:wikidata": "Q22908959",
        "building": "yes",
        "building:levels": "1",
        "name": "HOPCOMS",
        "name:kn": "ಹಾಪ್ ಕಾಮ್ಸ್",
        "opening_hours": "09:30-13:30,16:30-20:30",
        "organic": "no",
        "shop": "greengrocer",
        "wheelchair": "no"
      }
    },
    {
      "type": "node",
      "id": 1436125689,
      "lat": 12.9926382,
      "lon": 77.6506116,
      "tags": {
        "amenity": "place_of_worship",
        "name": "Ganesha Temple",
        "name:kn": "ಗಣೇಶ ದೇವಸ್ಥಾನ",
        "religion": "hindu"
      }
    },
    {
      "type": "node",
      "id": 1474220544,
      "lat": 12.978729,
      "lon": 77.6439064,
      "tags": {
        "addr:street": "Chinmaya Mission Hospital Road",
        "amenity": "cafe",
        "cuisine": "coffee_shop",
        "name": "Beanlore Coffee Roasters",
        "takeaway": "yes"
      }
    },
    {
      "type": "node",
      "id": 1474220545,
      "lat": 12.9786454,
      "lon": 77.6425241,
      "tags": {
        "name": "P N Rao",
        "shop": "clothes",
        "wheelchair": "no"
      }
    },
    {
      "type": "node",
      "id": 1474220548,
      "lat": 12.9787052,
      "lon": 77.6443155,
      "tags": {
        "addr:street": "Chinmaya Mission Hospital Road",
        "amenity": "clinic",
        "name": "Heart lung clinic"
      }
    },
    {
      "type": "node",
      "id": 1474220550,
      "lat": 12.9783144,
      "lon": 77.6444829,
      "tags": {
        "addr:street": "Chinmaya Mission Hospital Road",
        "name": "Flying machine",
        "shop": "clothes"
      }
    },
    {
      "type": "node",
      "id": 1474220554,
      "lat": 12.9786742,
      "lon": 77.6427655,
      "tags": {
        "addr:housenumber": "496",
        "addr:street": "CMH road",
        "amenity": "cafe",
        "brand": "Chai Point",
        "brand:wikidata": "Q28173415",
        "brand:wikipedia": "en:Café Coffee Day",
        "cuisine": "coffee_shop",
        "name": "Chai Point",
        "name:kn": "ಕೆಫೆ ಕಾಫೀ ಡೇ",
        "takeaway": "yes",
        "wheelchair": "limited"
      }
    },
    {
      "type": "node",
      "id": 1474220558,
      "lat": 12.9787161,
      "lon": 77.643658,
      "tags": {
        "addr:street": "Chinmaya Mission Hospital Road",
        "name": "People",
        "shop": "clothes"
      }
    },
    {
      "type": "node",
      "id": 1474220578,
      "lat": 12.9785945,
      "lon": 77.6444292,
      "tags": {
        "amenity": "parking",
        "capacity": "10"
      }
    },
    {
      "type": "node",
      "id": 1474220580,
      "lat": 12.9786857,
      "lon": 77.6450948,
      "tags": {
        "amenity": "atm",
        "brand": "State Bank of India",
        "brand:wikidata": "Q1340361",
        "fee": "no",
        "name": "State Bank of India",
        "opening_hours": "24/7",
        "operator": "State Bank of India",
        "operator:wikidata": "Q1340361",
        "short_name": "SBI"
      }
    },
    {
      "type": "node",
      "id": 1474220581,
      "lat": 12.9783314,
      "lon": 77.6448308,
      "tags": {
        "amenity": "bank",
        "atm": "yes",
        "brand": "Andhra Bank",
        "brand:wikidata": "Q2003476",
        "brand:wikipedia": "en:Andhra Bank",
        "name": "Andhra Bank",
        "name:en": "Andhra Bank",
        "name:kn": "ಆಂಧ್ರ ಬ್ಯಾಂಕ್",
        "website": "https://www.andhrabank.in"
      }
    },
    {
      "type": "node",
      "id": 1474220588,
      "lat": 12.9783513,
      "lon": 77.6456344,
      "tags": {
        "amenity": "pharmacy",
        "check_date": "2023-11-09",
        "dispensing": "yes",
        "healthcare": "pharmacy",
        "name": "Sri Kirshna Pharmacy",
        "phone": "+91 91643 45443"
      }
    },
    {
      "type": "node",
      "id": 1474220589,
      "lat": 12.9787241,
      "lon": 77.6440375,
      "tags": {
        "name": "Planet fashion",
        "shop": "clothes"
      }
    },
    {
      "type": "node",
      "id": 1966567921,
      "lat": 12.9839078,
      "lon": 77.6393924,
      "tags": {
        "name": "Vimal Motors - Hero Bike Showroom",
        "shop": "motorcycle"
      }
    },
    {
      "type": "node",
      "id": 1966567939,
      "lat": 12.9838582,
      "lon": 77.6391805,
      "tags": {
        "name": "Haiku Honda Sales & Service",
        "shop": "motorcycle"
      }
    },
    {
      "type": "node",
      "id": 2198288204,
      "lat": 12.978669,
      "lon": 77.6440415,
      "tags": {
        "addr:street": "Chinmaya Mission Hospital Road",
        "amenity": "restaurant",
        "diet:vegetarian": "only",
        "name": "Mast Kalander",
        "name:kn": "ಮಸ್ತ್ ಕಲಂದರ್"
      }
    },
    {
      "type": "node",
      "id": 3207060697,
      "lat": 12.9889394,
      "lon": 77.6478522,
      "tags": {
        "amenity": "place_of_worship"
      }
    },
    {
      "type": "node",
      "id": 3309380179,
      "lat": 12.9821515,
      "lon": 77.6387449,
      "tags": {
        "amenity": "atm",
        "brand": "Axis Bank",
        "brand:wikidata": "Q2003549",
        "name": "Axis Bank",
        "name:kn": "ಅಕ್ಸಿಸ್ ಬ್ಯಾಂಕ್",
        "operator": "Axis Bank",
        "operator:wikidata": "Q2003549"
      }
    },
    {
      "type": "node",
      "id": 3369857851,
      "lat": 12.9805426,
      "lon": 77.6405571,
      "tags": {
        "amenity": "restaurant",
        "name": "MTR 1924",
        "wheelchair": "yes"
      }
    },
    {
      "type": "node",
      "id": 3370023217,
      "lat": 12.9818761,
      "lon": 77.6392402,
      "tags": {
        "amenity": "post_office",
        "name": "First Flight Couriers Ltd.",
        "website": "https://firstflight.net/"
      }
    },
    {
      "type": "node",
      "id": 3370023218,
      "lat": 12.9816228,
      "lon": 77.6392476,
      "tags": {
        "amenity": "fast_food",
        "name": "Nakshatra Condiments Mess & Fast Food"
      }
    },
    {
      "type": "node",
      "id": 3370023222,
      "lat": 12.9817781,
      "lon": 77.6392319,
      "tags": {
        "addr:city": "Bangalore",
        "addr:housenumber": "3",
        "addr:postcode": "560038",
        "addr:street": "9th Cross",
        "amenity": "post_office",
        "name": "The Professional Couriers"
      }
    },
    {
      "type": "node",
      "id": 3370023223,
      "lat": 12.9816772,
      "lon": 77.6392319,
      "tags": {
        "addr:city": "Bangalore",
        "addr:housenumber": "2",
        "addr:postcode": "560038",
        "addr:street": "9th Cross",
        "name": "Woofs & Meows",
        "phone": "919886645468",
        "shop": "pet"
      }
    },
    {
      "type": "node",
      "id": 3370028599,
      "lat": 12.9783994,
      "lon": 77.6443108,
      "tags": {
        "addr:street": "Chinmaya Mission Hospital Road",
        "amenity": "restaurant",
        "cuisine": "german",
        "name": "Cafe Max"
      }
    },
    {
      "type": "node",
      "id": 3370028600,
      "lat": 12.9782063,
      "lon": 77.6443594,
      "tags": {
        "amenity": "library",
        "name": "Max Muller Bhavan",
        "name:kn": "ಮಾಕ್ಸ್ ಮುಲ್ಲರ್ ಭವನ"
      }
    },
    {
      "type": "node",
      "id": 3370028601,
      "lat": 12.978257,
      "lon": 77.6443355,
      "tags": {
        "addr:street": "Chinmaya Mission Hospital Road",
        "amenity": "theatre",
        "name": "Max Muller Bhavan",
        "name:kn": "ಮಾಕ್ಸ್ ಮುಲ್ಲರ್ ಭವನ"
      }
    },
    {
      "type": "node",
      "id": 3370054594,
      "lat": 12.9782563,
      "lon": 77.6447177,
      "tags": {
        "addr:street": "Chinmaya Mission Hospital Road",
        "leisure": "sports_centre",
        "name": "Healing Arts Centre"
      }
    },
    {
      "type": "node",
      "id": 3370054596,
      "lat": 12.9782252,
      "lon": 77.644835,
      "tags": {
        "addr:street": "Chinmaya Mission Hospital Road",
        "brand": "Thomas Cook",
        "brand:wikidata": "Q2141800",
        "brand:wikipedia": "en:Thomas Cook Group",
        "name": "Thomas Cook",
        "name:kn": "ತೋಮಸ್ ಕುಕ್",
        "shop": "travel_agency"
      }
    },
    {
      "type": "node",
      "id": 3370054597,
      "lat": 12.9782601,
      "lon": 77.6448569,
      "tags": {
        "name": "YLG Salon & Spa",
        "shop": "hairdresser"
      }
    },
    {
      "type": "node",
      "id": 3370055419,
      "lat": 12.9819953,
      "lon": 77.6392223,
      "tags": {
        "name": "MedPlus",
        "name:kn": "ಮೆಡ್ ಪ್ಲಸ್",
        "shop": "chemist"
      }
    },
    {
      "type": "node",
      "id": 3370055424,
      "lat": 12.98229,
      "lon": 77.6395362,
      "tags": {
        "name": "Airtel",
        "name:kn": "ಏರ್ಟೆಲ್",
        "shop": "mobile_phone"
      }
    },
    {
      "type": "node",
      "id": 3370083355,
      "lat": 12.9823857,
      "lon": 77.6380474,
      "tags": {
        "amenity": "bank",
        "atm": "yes",
        "brand": "Canara Bank",
        "brand:en": "Canara Bank",
        "brand:hi": "केनरा बैंक",
        "brand:kn": "ಕೆನರಾ ಬ್ಯಾಂಕ್",
        "brand:pa": "ਕੇਨਰਾ ਬੈਂਕ",
        "brand:pnb": "کینرا بینک",
        "brand:ur": "کینرا بینک",
        "brand:wikidata": "Q2003777",
        "brand:wikipedia": "en:Canara Bank",
        "brand:wikipedia:pa": "ਕੇਨਰਾ ਬੈਂਕ",
        "name": "Canara Bank",
        "name:en": "Canara Bank",
        "name:hi": "केनरा बैंक",
        "name:kn": "ಕೆನರಾ ಬ್ಯಾಂಕ್",
        "name:pa": "ਕੇਨਰਾ ਬੈਂਕ",
        "name:pnb": "کینرا بینک",
        "name:ur": "کینرا بینک",
        "website": "https://www.canarabank.com/"
      }
    },
    {
      "type": "node",
      "id": 3370084882,
      "lat": 12.9783782,
      "lon": 77.6455915,
      "tags": {
        "addr:street": "Chinmaya Mission Hospital Road",
        "name": "Cake Genie",
        "shop": "confectionery"
      }
    },
    {
      "type": "node",
      "id": 3370084883,
      "lat": 12.9783539,
      "lon": 77.6454699,
      "tags": {
        "amenity": "clinic",
        "healthcare": "clinic",
        "name": "ClinRad"
      }
    },
    {
      "type": "node",
      "id": 3370084884,
      "lat": 12.9783475,
      "lon": 77.6452371,
      "tags": {
        "addr:city": "Bengaluru",
        "addr:housenumber": "#723",
        "addr:postcode": "560038",
        "addr:street": "1st Floor, Chinmaya Mission Hospital Road, 1st Stage, Indira Nagar, Above Siemens Showroom",
        "amenity": "clinic",
        "name": "Nationwide",
        "phone": "080 4121 5150"
      }
    },
    {
      "type": "node",
      "id": 3370115616,
      "lat": 12.9821416,
      "lon": 77.6395695,
      "tags": {
        "name": "Cut & Create Unisex Salon",
        "shop": "hairdresser"
      }
    },
    {
      "type": "node",
      "id": 3370115618,
      "lat": 12.9821282,
      "lon": 77.6395715,
      "tags": {
        "amenity": "restaurant",
        "name": "Istanbul Doner Turkish Grill"
      }
    },
    {
      "type": "node",
      "id": 3370115620,
      "lat": 12.9816712,
      "lon": 77.6402228,
      "tags": {
        "addr:city": "Bangalore",
        "addr:housenumber": "264",
        "addr:street": "6th Cross",
        "name": "N.R. Bombay Ladies Taylor",
        "shop": "tailor"
      }
    },
    {
      "type": "node",
      "id": 3370171472,
      "lat": 12.9808875,
      "lon": 77.6391191,
      "tags": {
        "amenity": "dentist",
        "name": "Dental Care Centre"
      }
    },
    {
      "type": "node",
      "id": 3370171475,
      "lat": 12.9822114,
      "lon": 77.6391056,
      "tags": {
        "amenity": "restaurant",
        "name": "Food Town"
      }
    },
    {
      "type": "node",
      "id": 3370171478,
      "lat": 12.9821708,
      "lon": 77.6391056,
      "tags": {
        "amenity": "juice_bar",
        "name": "Kwality Juice Center"
      }
    },
    {
      "type": "node",
      "id": 3370171480,
      "lat": 12.9820581,
      "lon": 77.6396986,
      "tags": {
        "amenity": "pharmacy",
        "name": "Sagar Ayur Pharma"
      }
    },
    {
      "type": "node",
      "id": 3370230942,
      "lat": 12.9820577,
      "lon": 77.6404784,
      "tags": {
        "amenity": "dentist",
        "name": "Athos",
        "phone": "7813004040",
        "website": "http://www.athoz.org"
      }
    },
    {
      "type": "node",
      "id": 3370230949,
      "lat": 12.9808189,
      "lon": 77.6409999,
      "tags": {
        "amenity": "fast_food",
        "cuisine": "chicken",
        "name": "Five Star Cafe"
      }
    },
    {
      "type": "node",
      "id": 3370230950,
      "lat": 12.9815418,
      "lon": 77.6410162,
      "tags": {
        "amenity": "post_office",
        "check_date": "2025-03-12",
        "name": "India Post",
        "name:kn": "ಅಂಚೆ ಕಛೇರಿ",
        "operator": "India Post",
        "operator:wikidata": "Q3519720",
        "postal_code": "560038"
      }
    },
    {
      "type": "node",
      "id": 3370230959,
      "lat": 12.9810383,
      "lon": 77.6410084,
      "tags": {
        "leisure": "spa",
        "name": "Sparha",
        "shop": "beauty"
      }
    },
    {
      "type": "node",
      "id": 3370230962,
      "lat": 12.9801857,
      "lon": 77.641008,
      "tags": {
        "amenity": "bank",
        "name": "kotak"
      }
    },
    {
      "type": "node",
      "id": 3370230964,
      "lat": 12.9801511,
      "lon": 77.6410051,
      "tags": {
        "amenity": "atm"
      }
    },
    {
      "type": "node",
      "id": 3371304648,
      "lat": 12.9801713,
      "lon": 77.6405925,
      "tags": {
        "amenity": "restaurant",
        "name": "Barebones"
      }
    },
    {
      "type": "node",
      "id": 3371304651,
      "lat": 12.9816267,
      "lon": 77.6404828,
      "tags": {
        "amenity": "bank",
        "atm": "yes",
        "brand": "Federal Bank",
        "brand:wikidata": "Q2044983",
        "brand:wikipedia": "en:Federal Bank",
        "name": "Federal Bank",
        "name:en": "Federal Bank",
        "name:kn": "ಫೆಡೆರಲ್ ಬ್ಯಾಂಕ್",
        "website": "https://www.federalbank.co.in"
      }
    },
    {
      "type": "node",
      "id": 3371304652,
      "lat": 12.9817742,
      "lon": 77.640521,
      "tags": {
        "amenity": "bank",
        "atm": "yes",
        "brand": "Karur Vysya Bank",
        "brand:wikidata": "Q6373724",
        "brand:wikipedia": "en:Karur Vysya Bank",
        "name": "Karur Vysya Bank",
        "name:en": "Karur Vysya Bank",
        "name:kn": "ಕರೂರು ವೈಶ್ಯ ಬ್ಯಾಂಕ್",
        "short_name": "KVB",
        "website": "https://www.kvb.co.in"
      }
    },
    {
      "type": "node",
      "id": 3380959471,
      "lat": 12.9821972,
      "lon": 77.6388396,
      "tags": {
        "amenity": "restaurant",
        "level": "1",
        "name": "Punjabi Rasoi",
        "website": "https://www.thepunjabirasoi.com/"
      }
    },
    {
      "type": "node",
      "id": 3389094364,
      "lat": 12.9824741,
      "lon": 77.6381006,
      "tags": {
        "amenity": "college",
        "name": "Business Excellence Institute"
      }
    },
    {
      "type": "node",
      "id": 3389118174,
      "lat": 12.982417,
      "lon": 77.6383557,
      "tags": {
        "amenity": "dentist",
        "name": "Devaki Dental Clinic"
      }
    },
    {
      "type": "node",
      "id": 3389118175,
      "lat": 12.9826128,
      "lon": 77.638292,
      "tags": {
        "amenity": "fast_food",
        "name": "Indira Food Court"
      }
    },
    {
      "type": "node",
      "id": 3389118182,
      "lat": 12.9826636,
      "lon": 77.6386451,
      "tags": {
        "addr:housenumber": "631",
        "amenity": "doctors",
        "healthcare:speciality": "paediatrics",
        "name": "Dr NVS Krishnan"
      }
    },
    {
      "type": "node",
      "id": 3389118184,
      "lat": 12.9827342,
      "lon": 77.6396804,
      "tags": {
        "addr:housenumber": "640",
        "addr:street": "1st Main",
        "amenity": "clinic",
        "name": "Samatvam Diabeties Center"
      }
    },
    {
      "type": "node",
      "id": 3389118795,
      "lat": 12.9827721,
      "lon": 77.6404905,
      "tags": {
        "name": "Travel Solutions",
        "shop": "travel_agency"
      }
    },
    {
      "type": "node",
      "id": 3389118797,
      "lat": 12.9828426,
      "lon": 77.6404905,
      "tags": {
        "name": "FR Bakery",
        "shop": "bakery"
      }
    },
    {
      "type": "node",
      "id": 3389131740,
      "lat": 12.9822237,
      "lon": 77.6389424,
      "tags": {
        "name": "Harris Wines",
        "shop": "alcohol"
      }
    },
    {
      "type": "node",
      "id": 3389131741,
      "lat": 12.9822296,
      "lon": 77.6388622,
      "tags": {
        "brand": "LG",
        "brand:wikidata": "Q162345",
        "name": "LG",
        "shop": "electronics"
      }
    },
    {
      "type": "node",
      "id": 3389131742,
      "lat": 12.9821999,
      "lon": 77.6383332,
      "tags": {
        "amenity": "fast_food",
        "name": "Roll Khazana"
      }
    },
    {
      "type": "node",
      "id": 3389131746,
      "lat": 12.9822012,
      "lon": 77.6382936,
      "tags": {
        "amenity": "restaurant",
        "name": "Curries and Pickles"
      }
    },
    {
      "type": "node",
      "id": 3389138576,
      "lat": 12.9825619,
      "lon": 77.639917,
      "tags": {
        "amenity": "clinic"
      }
    },
    {
      "type": "node",
      "id": 3389141887,
      "lat": 12.9828232,
      "lon": 77.6405058,
      "tags": {
        "name": "Muthoot Finance",
        "name:kn": "ಮುತೂಟ್ ಫೈನಾನ್ಸ್",
        "shop": "money_lender"
      }
    },
    {
      "type": "node",
      "id": 3470923201,
      "lat": 12.9819249,
      "lon": 77.6395066,
      "tags": {
        "amenity": "restaurant",
        "cuisine": "regional",
        "name": "Annapoorneshwari Mess"
      }
    },
    {
      "type": "node",
      "id": 3556033536,
      "lat": 12.9821981,
      "lon": 77.6380258,
      "tags": {
        "name": "Ashoka Tyre Centre",
        "shop": "tyres"
      }
    },
    {
      "type": "node",
      "id": 3556033537,
      "lat": 12.9821893,
      "lon": 77.638025,
      "tags": {
        "amenity": "bank",
        "atm": "yes",
        "name": "Bharath Co-Operative bank"
      }
    },
    {
      "type": "node",
      "id": 3556033541,
      "lat": 12.9821986,
      "lon": 77.6380654,
      "tags": {
        "name": "Panickers Tours and Travels",
        "shop": "travel_agency"
      }
    },
    {
      "type": "node",
      "id": 3556103530,
      "lat": 12.9825704,
      "lon": 77.6382982,
      "tags": {
        "name": "AJS Telecom",
        "shop": "yes"
      }
    },
    {
      "type": "node",
      "id": 3556103531,
      "lat": 12.9826672,
      "lon": 77.6381036,
      "tags": {
        "amenity": "hospital",
        "name": "ALDOS Medical Service Pvt LTD"
      }
    },
    {
      "type": "node",
      "id": 3556103532,
      "lat": 12.9826388,
      "lon": 77.6381412,
      "tags": {
        "name": "Car Museum",
        "shop": "car"
      }
    },
    {
      "type": "node",
      "id": 3556103533,
      "lat": 12.9825295,
      "lon": 77.6382903,
      "tags": {
        "name": "Cuts & Curls Beauty Parlor",
        "shop": "beauty"
      }
    },
    {
      "type": "node",
      "id": 3556103538,
      "lat": 12.9827015,
      "lon": 77.63814,
      "tags": {
        "name": "Rebeni Beauty Salon",
        "shop": "beauty"
      }
    },
    {
      "type": "node",
      "id": 3556124473,
      "lat": 12.9822182,
      "lon": 77.6385728,
      "tags": {
        "amenity": "restaurant",
        "cuisine": "indian",
        "name": "Ambur Biriyani",
        "name:kn": "ಅಂಬುರ್ ಬಿರಿಯಾನಿ"
      }
    },
    {
      "type": "node",
      "id": 3556124475,
      "lat": 12.9821782,
      "lon": 77.6381107,
      "tags": {
        "amenity": "clinic",
        "name": "Cosmetic Dental clinic"
      }
    },
    {
      "type": "node",
      "id": 3556124476,
      "lat": 12.9822235,
      "lon": 77.6390347,
      "tags": {
        "amenity": "cafe",
        "name": "Juicea- Fresh juice and ice creams"
      }
    },
    {
      "type": "node",
      "id": 3556124477,
      "lat": 12.9822205,
      "lon": 77.6387775,
      "tags": {
        "name": "KSRTC Travel House",
        "shop": "travel_agency"
      }
    },
    {
      "type": "node",
      "id": 3556124478,
      "lat": 12.9821904,
      "lon": 77.6381375,
      "tags": {
        "name": "Lakshmi Electrical",
        "shop": "travel_agency"
      }
    },
    {
      "type": "node",
      "id": 3556124479,
      "lat": 12.9822393,
      "lon": 77.6388434,
      "tags": {
        "name": "Mahalakshmi Tours and Travels",
        "shop": "travel_agency"
      }
    },
    {
      "type": "node",
      "id": 3556124480,
      "lat": 12.9821489,
      "lon": 77.638143,
      "tags": {
        "name": "Moies Beauty and Hair Salon",
        "shop": "beauty"
      }
    },
    {
      "type": "node",
      "id": 3556124481,
      "lat": 12.98224,
      "lon": 77.6388146,
      "tags": {
        "name": "Profile Unisex Salon",
        "shop": "beauty"
      }
    },
    {
      "type": "node",
      "id": 3556124482,
      "lat": 12.9822182,
      "lon": 77.6385173,
      "tags": {
        "name": "Rajesh Travels",
        "shop": "travel_agency"
      }
    },
    {
      "type": "node",
      "id": 3556124483,
      "lat": 12.9822172,
      "lon": 77.6385545,
      "tags": {
        "name": "SRS Travels",
        "shop": "travel_agency"
      }
    },
    {
      "type": "node",
      "id": 3556124484,
      "lat": 12.9822049,
      "lon": 77.6383186,
      "tags": {
        "name": "Trinity Air Travelk and Tours Pvt LTD",
        "shop": "travel_agency"
      }
    },
    {
      "type": "node",
      "id": 3556124485,
      "lat": 12.9822166,
      "lon": 77.6385392,
      "tags": {
        "name": "Vijaya Nanda Travels",
        "shop": "travel_agency"
      }
    },
    {
      "type": "node",
      "id": 3556124491,
      "lat": 12.98224,
      "lon": 77.6387852,
      "tags": {
        "amenity": "atm",
        "brand": "ING Vysya ATM"
      }
    },
    {
      "type": "node",
      "id": 3556124492,
      "lat": 12.9822309,
      "lon": 77.6388012,
      "tags": {
        "amenity": "atm",
        "brand": "Kotak Mahindra ATM"
      }
    },
    {
      "type": "node",
      "id": 3556130016,
      "lat": 12.9824362,
      "lon": 77.6385585,
      "tags": {
        "leisure": "sports_centre",
        "name": "APPU Gym Factory"
      }
    },
    {
      "type": "node",
      "id": 3556256977,
      "lat": 12.9819807,
      "lon": 77.6383683,
      "tags": {
        "addr:street": "11th Cross Road",
        "air_conditioning": "yes",
        "amenity": "place_of_worship",
        "building": "yes",
        "denomination": "mormon",
        "name": "The Church of Jesus Christ of Latter-day Saints",
        "religion": "christian"
      }
    },
    {
      "type": "node",
      "id": 3556341351,
      "lat": 12.9822569,
      "lon": 77.6393124,
      "tags": {
        "amenity": "restaurant",
        "cuisine": "indian",
        "name": "Al Zaid",
        "service": "insurance"
      }
    },
    {
      "type": "node",
      "id": 3556364747,
      "lat": 12.9817047,
      "lon": 77.6399478,
      "tags": {
        "addr:housename": "Aramex",
        "amenity": "post_office"
      }
    },
    {
      "type": "node",
      "id": 3556364750,
      "lat": 12.9823138,
      "lon": 77.6399023,
      "tags": {
        "amenity": "library",
        "name": "Rajesh circulating library"
      }
    },
    {
      "type": "node",
      "id": 3725656677,
      "lat": 12.9827789,
      "lon": 77.6405257,
      "tags": {
        "amenity": "pharmacy",
        "name": "Padam Pharma"
      }
    },
    {
      "type": "node",
      "id": 3725661958,
      "lat": 12.9811664,
      "lon": 77.6405443,
      "tags": {
        "amenity": "bank",
        "name": "Karnataka State Cooperative Apex Bank"
      }
    },
    {
      "type": "node",
      "id": 3725701348,
      "lat": 12.982438,
      "lon": 77.6414586,
      "tags": {
        "amenity": "toilets",
        "fee": "yes"
      }
    },
    {
      "type": "node",
      "id": 3725861636,
      "lat": 12.9816481,
      "lon": 77.642258,
      "tags": {
        "name": "SS Store",
        "shop": "convenience"
      }
    },
    {
      "type": "node",
      "id": 3726120743,
      "lat": 12.981682,
      "lon": 77.6394877,
      "tags": {
        "amenity": "cafe",
        "cuisine": "tea",
        "name": "Chai Gali"
      }
    },
    {
      "type": "node",
      "id": 3726126335,
      "lat": 12.9841436,
      "lon": 77.6412653,
      "tags": {
        "name": "Ashwini Car Bazar",
        "second_hand": "only",
        "shop": "car"
      }
    },
    {
      "type": "node",
      "id": 3726126336,
      "lat": 12.983827,
      "lon": 77.6408412,
      "tags": {
        "name": "Radha Wines",
        "shop": "alcohol"
      }
    },
    {
      "type": "node",
      "id": 3726126337,
      "lat": 12.9841012,
      "lon": 77.6410913,
      "tags": {
        "name": "Superior Motors",
        "shop": "car_parts"
      }
    },
    {
      "type": "node",
      "id": 3726130209,
      "lat": 12.9830655,
      "lon": 77.6408025,
      "tags": {
        "amenity": "place_of_worship",
        "religion": "hindu"
      }
    },
    {
      "type": "node",
      "id": 3726162437,
      "lat": 12.9794578,
      "lon": 77.6411064,
      "tags": {
        "name": "Hum India Fashion",
        "shop": "clothes",
        "wheelchair": "yes"
      }
    },
    {
      "type": "node",
      "id": 3726162464,
      "lat": 12.979926,
      "lon": 77.6413172,
      "tags": {
        "amenity": "community_centre"
      }
    },
    {
      "type": "node",
      "id": 3837000798,
      "lat": 12.9822382,
      "lon": 77.6385141,
      "tags": {
        "amenity": "waste_basket"
      }
    },
    {
      "type": "node",
      "id": 3837015994,
      "lat": 12.9792707,
      "lon": 77.6426443,
      "tags": {
        "addr:street": "Sri Krishna Temple Road",
        "amenity": "restaurant",
        "cuisine": "chinese",
        "delivery": "no",
        "level": "0",
        "name": "Wanley Restaurant",
        "smoking": "no",
        "takeaway": "yes"
      }
    },
    {
      "type": "node",
      "id": 3837026832,
      "lat": 12.9792825,
      "lon": 77.6425169,
      "tags": {
        "addr:street": "Sri Krishna Temple Road",
        "amenity": "restaurant",
        "cuisine": "regional",
        "level": "0;2",
        "name": "Viceroy's Sarathi",
        "smoking": "yes"
      }
    },
    {
      "type": "node",
      "id": 3837030325,
      "lat": 12.980827,
      "lon": 77.6397762,
      "tags": {
        "amenity": "library",
        "name": "Indiranagar Library",
        "name:kn": "ಇಂದಿರಾನಗರ ಗ್ರಂಥಾಲಯ",
        "operator": "BBMP",
        "wheelchair": "no"
      }
    },
    {
      "type": "node",
      "id": 3987463423,
      "lat": 12.9812365,
      "lon": 77.6467545,
      "tags": {
        "addr:housenumber": "3",
        "addr:street": "4th Cross Road",
        "craft": "glaziery",
        "name": "Glasscrafters India",
        "shop": "craft",
        "website": "https://www.glasscrafters.in/"
      }
    },
    {
      "type": "node",
      "id": 3987463424,
      "lat": 12.9812609,
      "lon": 77.6468052,
      "tags": {
        "addr:housenumber": "3",
        "addr:landmark": "Above Glasscrafters",
        "addr:street": "3rd Cross Road",
        "amenity": "arts_centre",
        "name": "Maraa",
        "website": "https://maraa.in/"
      }
    },
    {
      "type": "node",
      "id": 4030163471,
      "lat": 12.9816047,
      "lon": 77.6385268,
      "tags": {
        "access": "private",
        "amenity": "bicycle_parking",
        "bicycle_parking": "wall_loops",
        "name": "Nilenso Cycle Stand",
        "operator": "Nilenso Software",
        "supervised": "yes"
      }
    },
    {
      "type": "node",
      "id": 4059440074,
      "lat": 12.9787278,
      "lon": 77.6435358,
      "tags": {
        "addr:city": "Bengaluru",
        "addr:housenumber": "501",
        "addr:postcode": "560038",
        "addr:street": "Chinmaya Mission Hospital Road",
        "alt_name": "Onesta",
        "amenity": "restaurant",
        "capacity": "100",
        "cuisine": "pizza",
        "delivery": "yes",
        "level": "3",
        "name": "Onestà",
        "opening_hours": "12:30-23:00",
        "phone": "+918049653087",
        "smoking": "no",
        "takeaway": "yes",
        "website": "http://www.onesta-onesta.com/",
        "wheelchair": "limited"
      }
    },
    {
      "type": "node",
      "id": 4101446720,
      "lat": 12.979514,
      "lon": 77.6410806,
      "tags": {
        "amenity": "ice_cream",
        "brand": "Menchie's",
        "brand:wikidata": "Q6816528",
        "cuisine": "frozen_yogurt",
        "name": "Menchie's"
      }
    },
    {
      "type": "node",
      "id": 4101450023,
      "lat": 12.9792577,
      "lon": 77.6415104,
      "tags": {
        "amenity": "fast_food",
        "name": "Indian Biryani"
      }
    },
    {
      "type": "node",
      "id": 4101450024,
      "lat": 12.9792663,
      "lon": 77.6417619,
      "tags": {
        "amenity": "fast_food",
        "name": "Halli Mani Rotti"
      }
    },
    {
      "type": "node",
      "id": 4101452150,
      "lat": 12.979242,
      "lon": 77.6414173,
      "tags": {
        "amenity": "fast_food",
        "diet:vegetarian": "yes",
        "name": "Chaithanya"
      }
    },
    {
      "type": "node",
      "id": 4101455402,
      "lat": 12.9792377,
      "lon": 77.6418762,
      "tags": {
        "name": "Mubarak Mutton Stall",
        "shop": "butcher"
      }
    },
    {
      "type": "node",
      "id": 4101455403,
      "lat": 12.9792498,
      "lon": 77.6423072,
      "tags": {
        "brand": "Hyundai",
        "brand:wikidata": "Q55931",
        "name": "Hyundai",
        "name:kn": "ಹ್ಯುಂಡೈ",
        "shop": "car_repair"
      }
    },
    {
      "type": "node",
      "id": 4101455695,
      "lat": 12.9794239,
      "lon": 77.6410814,
      "tags": {
        "amenity": "car_wash",
        "name": "The Car Laundry"
      }
    },
    {
      "type": "node",
      "id": 4101455698,
      "lat": 12.979213,
      "lon": 77.6413298,
      "tags": {
        "amenity": "pharmacy",
        "name": "3G Medicals"
      }
    },
    {
      "type": "node",
      "id": 4101455700,
      "lat": 12.9792652,
      "lon": 77.6417334,
      "tags": {
        "name": "Fabulous Collections",
        "shop": "leather"
      }
    },
    {
      "type": "node",
      "id": 4101531445,
      "lat": 12.9792883,
      "lon": 77.6429513,
      "tags": {
        "amenity": "clinic",
        "name": "Dr. Rama's Test Tube Baby Centre"
      }
    },
    {
      "type": "node",
      "id": 4101531446,
      "lat": 12.97927,
      "lon": 77.6427877,
      "tags": {
        "amenity": "bank",
        "atm": "yes",
        "name": "Tumkur Grain Merchants Co-Operative Bank LTD"
      }
    },
    {
      "type": "node",
      "id": 4101616562,
      "lat": 12.9790839,
      "lon": 77.6438666,
      "tags": {
        "amenity": "fast_food",
        "cuisine": "indian",
        "name": "Juice Junction",
        "outdoor_seating": "yes",
        "takeaway": "yes"
      }
    },
    {
      "type": "node",
      "id": 4101616563,
      "lat": 12.9790622,
      "lon": 77.6438679,
      "tags": {
        "name": "Kia",
        "shop": "clothes"
      }
    },
    {
      "type": "node",
      "id": 4101616564,
      "lat": 12.9790839,
      "lon": 77.6438827,
      "tags": {
        "name": "One More Video",
        "shop": "music",
        "wheelchair": "yes"
      }
    },
    {
      "type": "node",
      "id": 4101616565,
      "lat": 12.9790633,
      "lon": 77.6439187,
      "tags": {
        "amenity": "school",
        "name": "Rose of Sharon Nursery School"
      }
    },
    {
      "type": "node",
      "id": 4101616570,
      "lat": 12.9790601,
      "lon": 77.6435992,
      "tags": {
        "amenity": "atm",
        "brand": "State Bank of India",
        "brand:wikidata": "Q1340361",
        "check_date": "2023-01-04",
        "opening_hours": "24/7",
        "operator": "State Bank of India",
        "operator:wikidata": "Q1340361",
        "short_name": "SBI"
      }
    },
    {
      "type": "node",
      "id": 4101638475,
      "lat": 12.9790679,
      "lon": 77.6440136,
      "tags": {
        "amenity": "ice_cream",
        "name": "Milano Ice Cream",
        "opening_hours": "Mo-Su,PH 08:00-23:00",
        "outdoor_seating": "no",
        "takeaway": "yes"
      }
    },
    {
      "type": "node",
      "id": 4101638476,
      "lat": 12.9790843,
      "lon": 77.6438987,
      "tags": {
        "name": "Pawan Tailor",
        "shop": "tailor"
      }
    },
    {
      "type": "node",
      "id": 4101957722,
      "lat": 12.9793159,
      "lon": 77.6440332,
      "tags": {
        "name": "Bogineni",
        "shop": "clothes"
      }
    },
    {
      "type": "node",
      "id": 4101957723,
      "lat": 12.9793184,
      "lon": 77.6435354,
      "tags": {
        "amenity": "restaurant",
        "name": "Hotel Orange tree Residency"
      }
    },
    {
      "type": "node",
      "id": 4101957724,
      "lat": 12.9792939,
      "lon": 77.6436088,
      "tags": {
        "name": "New Sentiment Florist",
        "shop": "florist"
      }
    },
    {
      "type": "node",
      "id": 4101957725,
      "lat": 12.9792765,
      "lon": 77.6431666,
      "tags": {
        "brand": "Nilgiri's",
        "brand:wikidata": "Q17079567",
        "building:levels": "2",
        "name": "Nilgiri's",
        "name:kn": "ನೀಲ್ಗಿರೀಸ್",
        "shop": "supermarket"
      }
    },
    {
      "type": "node",
      "id": 4101957726,
      "lat": 12.9792948,
      "lon": 77.6433912,
      "tags": {
        "amenity": "school",
        "name": "Rakum school for blind"
      }
    },
    {
      "type": "node",
      "id": 4101957728,
      "lat": 12.9793017,
      "lon": 77.6436594,
      "tags": {
        "amenity": "cafe",
        "name": "Spoonful Sugar Pastisserie & cafè"
      }
    },
    {
      "type": "node",
      "id": 4101957729,
      "lat": 12.9793306,
      "lon": 77.6443452,
      "tags": {
        "amenity": "bank",
        "atm": "yes",
        "branch": "Indiranagar",
        "name": "The National Co-Operative Bank Ltd."
      }
    },
    {
      "type": "node",
      "id": 4101957736,
      "lat": 12.9793201,
      "lon": 77.6442365,
      "tags": {
        "amenity": "atm",
        "check_date": "2022-12-22",
        "operator": "The Co-Operative bank LTD"
      }
    },
    {
      "type": "node",
      "id": 4101994940,
      "lat": 12.9787137,
      "lon": 77.6427502,
      "tags": {
        "addr:housenumber": "496",
        "addr:street": "CMH road",
        "name": "Oliva Salon",
        "shop": "beauty"
      }
    },
    {
      "type": "node",
      "id": 4102048400,
      "lat": 12.9790201,
      "lon": 77.6419756,
      "tags": {
        "amenity": "restaurant",
        "name": "Coorg Restaurant"
      }
    },
    {
      "type": "node",
      "id": 4102048405,
      "lat": 12.9789992,
      "lon": 77.6424343,
      "tags": {
        "shop": "clothes"
      }
    },
    {
      "type": "node",
      "id": 4102107044,
      "lat": 12.9792599,
      "lon": 77.6415626,
      "tags": {
        "name": "Cake Palace",
        "shop": "bakery"
      }
    },
    {
      "type": "node",
      "id": 4102107045,
      "lat": 12.9792429,
      "lon": 77.6421232,
      "tags": {
        "name": "Car Racing Works",
        "shop": "repair"
      }
    },
    {
      "type": "node",
      "id": 4102107046,
      "lat": 12.9793082,
      "lon": 77.6418147,
      "tags": {
        "amenity": "post_office",
        "brand": "Desk to Desk Courier & Cargo",
        "brand:short": "DTDC",
        "brand:wikidata": "Q55608802",
        "name": "DTDC Couriers",
        "operator": "Desk to Desk Courier & Cargo",
        "operator:short": "DTDC",
        "operator:wikidata": "Q55608802"
      }
    },
    {
      "type": "node",
      "id": 4102107048,
      "lat": 12.9792625,
      "lon": 77.6418348,
      "tags": {
        "name": "Mahalakshmi Fancy Stores",
        "shop": "yes"
      }
    },
    {
      "type": "node",
      "id": 4102107049,
      "lat": 12.979269,
      "lon": 77.6413198,
      "tags": {
        "name": "Pinnacle Computers",
        "shop": "computer"
      }
    },
    {
      "type": "node",
      "id": 4102107050,
      "lat": 12.9792481,
      "lon": 77.6421915,
      "tags": {
        "amenity": "fast_food",
        "name": "Punjab Khazana"
      }
    },
    {
      "type": "node",
      "id": 4102107051,
      "lat": 12.9792638,
      "lon": 77.6416202,
      "tags": {
        "name": "Sri Ganesha Fruit Juice Centre",
        "shop": "juice"
      }
    },
    {
      "type": "node",
      "id": 4433880985,
      "lat": 12.9798731,
      "lon": 77.6403726,
      "tags": {
        "name": "Buttercups",
        "shop": "clothes"
      }
    },
    {
      "type": "node",
      "id": 4433880986,
      "lat": 12.9798757,
      "lon": 77.6403136,
      "tags": {
        "name": "Shraddha Ponappa",
        "shop": "boutique"
      }
    },
    {
      "type": "node",
      "id": 4433883068,
      "lat": 12.9821965,
      "lon": 77.6380533,
      "tags": {
        "name": "Sharon's Tea Stall",
        "shop": "tea"
      }
    },
    {
      "type": "node",
      "id": 4445599295,
      "lat": 12.982376,
      "lon": 77.6381162,
      "tags": {
        "amenity": "restaurant"
      }
    },
    {
      "type": "node",
      "id": 4446234535,
      "lat": 12.9783265,
      "lon": 77.6450388,
      "tags": {
        "addr:city": "Bengaluru",
        "addr:housenumber": "723",
        "addr:postcode": "560038",
        "addr:street": "1st Floor, Chinmaya Mission Hospital Road, 1st Stage, Indira Nagar, Above Siemens Showroom",
        "amenity": "clinic",
        "name": "Nationwide Indira Nagar Clinic",
        "phone": "080 4121 5150",
        "website": "nationwidedocs.org"
      }
    },
    {
      "type": "node",
      "id": 4457262461,
      "lat": 12.9824168,
      "lon": 77.6383387,
      "tags": {
        "amenity": "fast_food",
        "cuisine": "juice",
        "diet:vegan": "yes",
        "diet:vegetarian": "yes",
        "drive_through": "no",
        "name": "Juice Cafe"
      }
    },
    {
      "type": "node",
      "id": 4457262462,
      "lat": 12.9821967,
      "lon": 77.6381186,
      "tags": {
        "name": "King's Tattoo supply",
        "shop": "tattoo"
      }
    },
    {
      "type": "node",
      "id": 4457272193,
      "lat": 12.9794606,
      "lon": 77.6467914,
      "tags": {
        "amenity": "restaurant",
        "name": "Chakum Chukum"
      }
    },
    {
      "type": "node",
      "id": 4457272198,
      "lat": 12.9793017,
      "lon": 77.6435258,
      "tags": {
        "name": "Mirador",
        "shop": "furniture"
      }
    },
    {
      "type": "node",
      "id": 4457721688,
      "lat": 12.9824862,
      "lon": 77.6393384,
      "tags": {
        "amenity": "cafe",
        "name": "Teal Door Cafe"
      }
    },
    {
      "type": "node",
      "id": 4472415493,
      "lat": 12.980691,
      "lon": 77.6472706,
      "tags": {
        "amenity": "place_of_worship",
        "name": "Sri Varasiddhi Vinayagar Koil",
        "name:en": "Sri Varasiddhi Vinayagar Koil",
        "religion": "hindu"
      }
    },
    {
      "type": "node",
      "id": 4472435397,
      "lat": 12.9808002,
      "lon": 77.6463862,
      "tags": {
        "amenity": "place_of_worship",
        "name": "St Michael The Archangel",
        "name:en": "St Michael The Archangel",
        "religion": "christian"
      }
    },
    {
      "type": "node",
      "id": 4472583689,
      "lat": 12.9807472,
      "lon": 77.6468064,
      "tags": {
        "amenity": "place_of_worship",
        "name": "Martha Memorial Prayer Hall",
        "name:en": "Martha Memorial Prayer Hall",
        "religion": "christian"
      }
    },
    {
      "type": "node",
      "id": 4472599289,
      "lat": 12.9803998,
      "lon": 77.6466782,
      "tags": {
        "amenity": "clinic",
        "healthcare": "alternative",
        "name": "Center for Holistic Development",
        "name:en": "Center for Holistic Development"
      }
    },
    {
      "type": "node",
      "id": 4488014615,
      "lat": 12.9820595,
      "lon": 77.6387542,
      "tags": {
        "addr:city": "Bangalore",
        "addr:housenumber": "3",
        "addr:postcode": "560038",
        "addr:street": "9th Cross Rd, 2nd Stage, Indira Nagar II Stage, Hoysala Nagar, Indiranagar",
        "name": "Roox Sportswear",
        "opening_hours": "11:00-20:00",
        "phone": "080 4805 0633",
        "shop": "sports"
      }
    },
    {
      "type": "node",
      "id": 4488066327,
      "lat": 12.9786739,
      "lon": 77.6432802,
      "tags": {
        "addr:city": "Bengaluru",
        "addr:housenumber": "500",
        "addr:postcode": "560038",
        "addr:street": "Chinmaya Mission Hospital Rd, Bhadrappa Layout, Indira Nagar 1st Stage, Stage 1, Indiranagar",
        "name": "Aarthi diagnostics",
        "opening_hours": "09:00-17:00",
        "phone": "080 4113 2068",
        "shop": "medical_supply"
      }
    },
    {
      "type": "node",
      "id": 4488075217,
      "lat": 12.9817439,
      "lon": 77.6449707,
      "tags": {
        "addr:city": "Bangalore",
        "addr:housenumber": "68/3, 1st Floor",
        "addr:postcode": "560038",
        "addr:street": "4th Cross B, Michael Palya, 80 Feet Road",
        "level": "1",
        "name": "Cycling Boutique",
        "opening_hours": "11:00-20:00",
        "phone": "082772 76424",
        "service:bicycle:repair": "yes",
        "service:bicycle:retail": "yes",
        "shop": "bicycle",
        "website": "https://www.cyclingboutique.in/"
      }
    },
    {
      "type": "node",
      "id": 4489777058,
      "lat": 12.9810218,
      "lon": 77.640508,
      "tags": {
        "addr:city": "Bangalore",
        "addr:housenumber": "#307",
        "addr:postcode": "560008",
        "addr:street": "5th Floor 100 Feet Road, Indira Nagar, Bhadrappa Layout, Binnamangala, Stage 1, Indiranagar",
        "leisure": "sports_centre",
        "name": "The Tribe Fitness Club",
        "opening_hours": "6:00-22:30",
        "phone": "9902003001",
        "sport": "gymnastics",
        "website": "https://thetribefitness.com/"
      }
    },
    {
      "type": "node",
      "id": 4489896393,
      "lat": 12.9797044,
      "lon": 77.6462553,
      "tags": {
        "addr:city": "Bangalore",
        "addr:housenumber": "2726",
        "addr:postcode": "560038",
        "addr:street": "indranagar",
        "name": "Aurah Spa And Salon",
        "opening_hours": "09:00-21:00",
        "phone": "9986835830",
        "shop": "beauty"
      }
    },
    {
      "type": "node",
      "id": 4489903689,
      "lat": 12.9822134,
      "lon": 77.6386869,
      "tags": {
        "addr:city": "Bangalore",
        "addr:housenumber": "620",
        "addr:postcode": "560038",
        "addr:street": "Indiranagar Double Road",
        "name": "Blanca Paloma",
        "opening_hours": "09:00-21:00",
        "phone": "8904174087",
        "shop": "beauty"
      }
    },
    {
      "type": "node",
      "id": 4878036555,
      "lat": 12.9806921,
      "lon": 77.6410053,
      "tags": {
        "addr:city": "Bangalore",
        "addr:country": "IN",
        "addr:street": "100 Feeet Road",
        "addr:suburb": "Indiranagar",
        "amenity": "restaurant",
        "name": "three dots and a dash"
      }
    },
    {
      "type": "node",
      "id": 4901462721,
      "lat": 12.9792509,
      "lon": 77.6417976,
      "tags": {
        "amenity": "fast_food",
        "name": "Vasavi Super Sandwich",
        "name:en": "Vasavi Super Sandwich"
      }
    },
    {
      "type": "node",
      "id": 4901462722,
      "lat": 12.9796156,
      "lon": 77.6413767,
      "tags": {
        "shop": "convenience"
      }
    },
    {
      "type": "node",
      "id": 4901463121,
      "lat": 12.9795969,
      "lon": 77.6416948,
      "tags": {
        "shop": "convenience"
      }
    },
    {
      "type": "node",
      "id": 4914346837,
      "lat": 12.9822891,
      "lon": 77.6394663,
      "tags": {
        "amenity": "restaurant",
        "cuisine": "indian",
        "internet_access": "no",
        "name": "Chaithanya Express",
        "smoking": "no",
        "wheelchair": "yes"
      }
    },
    {
      "type": "node",
      "id": 5100015673,
      "lat": 12.9815851,
      "lon": 77.6423856,
      "tags": {
        "shop": "bakery"
      }
    },
    {
      "type": "node",
      "id": 5100468688,
      "lat": 12.9791205,
      "lon": 77.646913,
      "tags": {
        "shop": "supermarket"
      }
    },
    {
      "type": "node",
      "id": 5155524813,
      "lat": 12.9824904,
      "lon": 77.6394729,
      "tags": {
        "amenity": "fast_food",
        "cuisine": "juice",
        "name": "Juicemaker"
      }
    },
    {
      "type": "node",
      "id": 5164784059,
      "lat": 12.9792913,
      "lon": 77.6439784,
      "tags": {
        "name": "Karisma Gems and Jewels",
        "shop": "jewelry"
      }
    },
    {
      "type": "node",
      "id": 5164855027,
      "lat": 12.9810088,
      "lon": 77.6477499,
      "tags": {
        "amenity": "bench"
      }
    },
    {
      "type": "node",
      "id": 5164855028,
      "lat": 12.981032,
      "lon": 77.6476959,
      "tags": {
        "amenity": "bench",
        "backrest": "yes"
      }
    },
    {
      "type": "node",
      "id": 5164855029,
      "lat": 12.9811352,
      "lon": 77.6476672,
      "tags": {
        "amenity": "bench",
        "backrest": "yes"
      }
    },
    {
      "type": "node",
      "id": 5164855030,
      "lat": 12.9811163,
      "lon": 77.647541,
      "tags": {
        "amenity": "bench",
        "highway": "street_lamp",
        "material": "concrete",
        "power": "pole"
      }
    },
    {
      "type": "node",
      "id": 5164913256,
      "lat": 12.9807333,
      "lon": 77.6460337,
      "tags": {
        "amenity": "pharmacy",
        "name": "NS Medicals"
      }
    },
    {
      "type": "node",
      "id": 5164915543,
      "lat": 12.981241,
      "lon": 77.6462009,
      "tags": {
        "amenity": "restaurant",
        "name": "Madhuram Andhra Restaurant"
      }
    },
    {
      "type": "node",
      "id": 5164983603,
      "lat": 12.9810738,
      "lon": 77.6459692,
      "tags": {
        "amenity": "pharmacy",
        "name": "AK Medicals"
      }
    },
    {
      "type": "node",
      "id": 5165031721,
      "lat": 12.982199,
      "lon": 77.6457258,
      "tags": {
        "description": "Airconditioning System",
        "name": "Blue Star",
        "shop": "appliance"
      }
    },
    {
      "type": "node",
      "id": 5172890495,
      "lat": 12.9793827,
      "lon": 77.6441634,
      "tags": {
        "name": "Xerox",
        "shop": "copyshop"
      }
    },
    {
      "type": "node",
      "id": 5179373223,
      "lat": 12.9928759,
      "lon": 77.6406044,
      "tags": {
        "addr:postcode": "560033",
        "addr:street": "Sanjay Gandhi Nagar",
        "amenity": "place_of_worship",
        "name": "True Jesus Church",
        "religion": "christian"
      }
    },
    {
      "type": "node",
      "id": 5276811322,
      "lat": 12.9815512,
      "lon": 77.6405193,
      "tags": {
        "addr:city": "Bangalore",
        "addr:housenumber": "313",
        "addr:street": "100 Feet Road",
        "amenity": "studio",
        "leisure": "dance",
        "name": "Chinmudra"
      }
    },
    {
      "type": "node",
      "id": 5469180622,
      "lat": 12.9807871,
      "lon": 77.6446138,
      "tags": {
        "amenity": "place_of_worship",
        "name": "Yellamma Temple",
        "religion": "hindu"
      }
    },
    {
      "type": "node",
      "id": 5469201421,
      "lat": 12.9812055,
      "lon": 77.6458221,
      "tags": {
        "name": "Naaris",
        "shop": "clothes"
      }
    },
    {
      "type": "node",
      "id": 5484213721,
      "lat": 12.9833919,
      "lon": 77.6404162,
      "tags": {
        "name": "LBB - Life Behind Bars",
        "shop": "bicycle"
      }
    },
    {
      "type": "node",
      "id": 5484224921,
      "lat": 12.9872906,
      "lon": 77.6435028,
      "tags": {
        "amenity": "place_of_worship",
        "name": "Rishi Temple",
        "name:en": "Munishwar Temple",
        "religion": "hindu"
      }
    },
    {
      "type": "node",
      "id": 5484234721,
      "lat": 12.98714,
      "lon": 77.6440967,
      "tags": {
        "amenity": "place_of_worship",
        "name": "Temple",
        "name:kn": "ದೇವಸ್ಥಾನ",
        "religion": "hindu"
      }
    },
    {
      "type": "node",
      "id": 5484243422,
      "lat": 12.9867569,
      "lon": 77.6470711,
      "tags": {
        "amenity": "theatre",
        "name": "Santhe Open Air theatre"
      }
    },
    {
      "type": "node",
      "id": 5485715121,
      "lat": 12.9875113,
      "lon": 77.6448603,
      "tags": {
        "amenity": "place_of_worship",
        "name": "Temple",
        "name:kn": "ದೇವಸ್ಥಾನ",
        "religion": "hindu"
      }
    },
    {
      "type": "node",
      "id": 5711066684,
      "lat": 12.9806974,
      "lon": 77.6405653,
      "tags": {
        "amenity": "restaurant",
        "check_date": "2024-09-06",
        "cuisine": "italian",
        "name": "Truffles",
        "name:kn": "ಟ್ರಫಲ್ಸ್"
      }
    },
    {
      "type": "node",
      "id": 6063102085,
      "lat": 12.978657,
      "lon": 77.6452907,
      "tags": {
        "addr:street": "Chinmaya Mission Hospital Road",
        "amenity": "cafe",
        "name": "Third Wave"
      }
    },
    {
      "type": "node",
      "id": 6397870986,
      "lat": 12.9806794,
      "lon": 77.6405105,
      "tags": {
        "amenity": "restaurant",
        "name": "Pulimanchi"
      }
    },
    {
      "type": "node",
      "id": 6422580186,
      "lat": 12.9861391,
      "lon": 77.6463483,
      "tags": {
        "amenity": "atm",
        "brand": "South Indian Bank",
        "brand:wikidata": "Q2044973",
        "cash_in": "no",
        "name": "South Indian Bank",
        "operator": "South Indian Bank",
        "operator:wikidata": "Q2044973"
      }
    },
    {
      "type": "node",
      "id": 6422664985,
      "lat": 12.9812549,
      "lon": 77.6405264,
      "tags": {
        "addr:city": "Bangalore",
        "addr:housenumber": "311",
        "addr:postcode": "560038",
        "addr:street": "100 Feet Road",
        "addr:suburb": "Indiranagar",
        "amenity": "restaurant",
        "cuisine": "punjabi",
        "name": "Punjabi Rasoi"
      }
    },
    {
      "type": "node",
      "id": 6484718432,
      "lat": 12.9808658,
      "lon": 77.6460187,
      "tags": {
        "amenity": "fast_food",
        "name": "Shri Vinayaka Hot Chips"
      }
    },
    {
      "type": "node",
      "id": 6484718433,
      "lat": 12.9893034,
      "lon": 77.6528791,
      "tags": {
        "amenity": "bicycle_rental",
        "name": "DULT Bike Share Point"
      }
    },
    {
      "type": "node",
      "id": 6702708923,
      "lat": 12.9822733,
      "lon": 77.6392502,
      "tags": {
        "amenity": "cafe",
        "name": "Kaapi Right"
      }
    },
    {
      "type": "node",
      "id": 6702711742,
      "lat": 12.9822477,
      "lon": 77.6389715,
      "tags": {
        "amenity": "restaurant",
        "name": "Ambur Biriyani",
        "name:kn": "ಅಂಬುರ್ ಬಿರಿಯಾನಿ"
      }
    },
    {
      "type": "node",
      "id": 6860280754,
      "lat": 12.9805839,
      "lon": 77.6445392,
      "tags": {
        "amenity": "bench",
        "backrest": "yes"
      }
    },
    {
      "type": "node",
      "id": 6860280755,
      "lat": 12.9803935,
      "lon": 77.6449945,
      "tags": {
        "amenity": "bench",
        "backrest": "yes"
      }
    },
    {
      "type": "node",
      "id": 6860294879,
      "lat": 12.9804608,
      "lon": 77.6449938,
      "tags": {
        "amenity": "bench",
        "backrest": "yes"
      }
    },
    {
      "type": "node",
      "id": 6860299757,
      "lat": 12.9801979,
      "lon": 77.6447181,
      "tags": {
        "amenity": "bench",
        "backrest": "yes"
      }
    },
    {
      "type": "node",
      "id": 6860304977,
      "lat": 12.9805785,
      "lon": 77.6449896,
      "tags": {
        "amenity": "bench",
        "backrest": "yes"
      }
    },
    {
      "type": "node",
      "id": 6860304978,
      "lat": 12.9802052,
      "lon": 77.644821,
      "tags": {
        "amenity": "bench",
        "backrest": "yes"
      }
    },
    {
      "type": "node",
      "id": 6860307502,
      "lat": 12.9804951,
      "lon": 77.6445551,
      "tags": {
        "amenity": "bench",
        "backrest": "yes"
      }
    },
    {
      "type": "node",
      "id": 6860307675,
      "lat": 12.9804237,
      "lon": 77.6445705,
      "tags": {
        "amenity": "bench",
        "backrest": "yes"
      }
    },
    {
      "type": "node",
      "id": 6860307803,
      "lat": 12.9807839,
      "lon": 77.6448797,
      "tags": {
        "amenity": "bench",
        "backrest": "yes"
      }
    },
    {
      "type": "node",
      "id": 6860308596,
      "lat": 12.9806804,
      "lon": 77.6445253,
      "tags": {
        "amenity": "bench",
        "backrest": "yes"
      }
    },
    {
      "type": "node",
      "id": 6860310797,
      "lat": 12.9803378,
      "lon": 77.6449974,
      "tags": {
        "amenity": "bench",
        "backrest": "yes"
      }
    },
    {
      "type": "node",
      "id": 6860312638,
      "lat": 12.9802172,
      "lon": 77.6448878,
      "tags": {
        "amenity": "bench",
        "backrest": "yes"
      }
    },
    {
      "type": "node",
      "id": 6860314740,
      "lat": 12.9806826,
      "lon": 77.6449803,
      "tags": {
        "amenity": "bench",
        "backrest": "yes"
      }
    },
    {
      "type": "node",
      "id": 6860314794,
      "lat": 12.9806618,
      "lon": 77.6448404,
      "tags": {
        "access": "yes",
        "leisure": "playground"
      }
    },
    {
      "type": "node",
      "id": 6860316590,
      "lat": 12.9807596,
      "lon": 77.6446317,
      "tags": {
        "amenity": "bench",
        "backrest": "yes"
      }
    },
    {
      "type": "node",
      "id": 6860317725,
      "lat": 12.9805278,
      "lon": 77.644988,
      "tags": {
        "amenity": "bench",
        "backrest": "yes"
      }
    },
    {
      "type": "node",
      "id": 6860318795,
      "lat": 12.9802135,
      "lon": 77.644665,
      "tags": {
        "amenity": "bench",
        "backrest": "yes"
      }
    },
    {
      "type": "node",
      "id": 6892877471,
      "lat": 12.9822473,
      "lon": 77.6390337,
      "tags": {
        "amenity": "restaurant",
        "name": "Sendhoor Coffee"
      }
    },
    {
      "type": "node",
      "id": 6892877472,
      "lat": 12.9825113,
      "lon": 77.639593,
      "tags": {
        "amenity": "ice_cream",
        "name": "The Micro Creamery"
      }
    },
    {
      "type": "node",
      "id": 6982401116,
      "lat": 12.9811255,
      "lon": 77.6477928,
      "tags": {
        "amenity": "bench"
      }
    },
    {
      "type": "node",
      "id": 7114507519,
      "lat": 12.9812279,
      "lon": 77.6476582,
      "tags": {
        "blind": "no",
        "fitness_station": "fitness_station",
        "leisure": "fitness_station",
        "wheelchair": "limited"
      }
    },
    {
      "type": "node",
      "id": 7114507520,
      "lat": 12.9812222,
      "lon": 77.646495,
      "tags": {
        "addr:street": "5th Cross Road",
        "name": "N C Condiments",
        "shop": "convenience"
      }
    },
    {
      "type": "node",
      "id": 7114507522,
      "lat": 12.9808721,
      "lon": 77.6462154,
      "tags": {
        "shop": "hairdresser"
      }
    },
    {
      "type": "node",
      "id": 7122031685,
      "lat": 12.9825676,
      "lon": 77.6393698,
      "tags": {
        "amenity": "restaurant",
        "name": "A Naidu's Ootada Mane"
      }
    },
    {
      "type": "node",
      "id": 7138678425,
      "lat": 12.9805497,
      "lon": 77.6448333,
      "tags": {
        "leisure": "fitness_station"
      }
    },
    {
      "type": "node",
      "id": 7213545443,
      "lat": 12.9946362,
      "lon": 77.6418177,
      "tags": {
        "addr:street": "G. Baiyapanahalli",
        "amenity": "community_centre",
        "description": "Community Center managed by DRRT and AVAS.",
        "name": "Drishya Kalika Kendra",
        "website": "http://www.dwarakaonline.com/Html/DRRT.htm"
      }
    },
    {
      "type": "node",
      "id": 7304811860,
      "lat": 12.9814907,
      "lon": 77.6457319,
      "tags": {
        "addr:city": "Bengaluru",
        "addr:country": "IN",
        "addr:housename": "George Thangiah Complex",
        "addr:housenumber": "21",
        "addr:postcode": "560038",
        "addr:street": "80 Feet Road",
        "addr:suburb": "Indiranagar",
        "amenity": "coworking_space",
        "check_date": "2023-11-08",
        "fee": "yes",
        "internet_access": "yes",
        "internet_access:fee": "customers",
        "name": "91 Springboard",
        "name:en": "91 Springboard",
        "office": "coworking",
        "operator": "91springboard",
        "website": "https://www.91springboard.com"
      }
    },
    {
      "type": "node",
      "id": 8244271796,
      "lat": 12.9790136,
      "lon": 77.642347,
      "tags": {
        "addr:city": "Bengaluru",
        "addr:country": "IN",
        "addr:hamlet": "Defence Colony",
        "addr:street": "Sri Krishna Temple Road",
        "addr:suburb": "Indiranagar",
        "amenity": "cafe",
        "contact:instagram": "@happybellybakes",
        "delivery": "yes",
        "name": "Happy Belly Bakes",
        "name:kn": "ಹ್ಯಾಪಿ ಬೆಲ್ಲಿ",
        "shop": "bakery",
        "takeaway": "yes",
        "website": "https://happybellybakes.com"
      }
    },
    {
      "type": "node",
      "id": 9545465489,
      "lat": 12.9817985,
      "lon": 77.6409705,
      "tags": {
        "addr:floor": "G",
        "addr:housenumber": "847/A",
        "addr:street": "100 Feet Road",
        "amenity": "fast_food",
        "brand": "The Rameshwaram Cafe",
        "brand:wikidata": "Q124374630",
        "capacity": "400",
        "check_date": "2024-11-07",
        "contact:instagram": "therameshwaramcafe",
        "cuisine": "south_indian",
        "diet:vegetarian": "yes",
        "drive_through": "no",
        "indoor_seating": "yes",
        "level": "0",
        "name": "The Rameshwaram Cafe",
        "opening_hours": "05:00-01:00",
        "outdoor_seating": "yes",
        "payment:credit_cards": "yes",
        "payment:debit_cards": "yes",
        "start_date": "2024-11-08",
        "takeaway": "yes",
        "website": "https://therameshwaramcafe.org"
      }
    },
    {
      "type": "node",
      "id": 9892036251,
      "lat": 12.9802897,
      "lon": 77.6405485,
      "tags": {
        "addr:country": "IN",
        "addr:housenumber": "303",
        "addr:street": "100 Feet Road",
        "addr:suburb": "Indiranagar",
        "amenity": "restaurant",
        "cuisine": "kebab",
        "name": "Zama"
      }
    },
    {
      "type": "node",
      "id": 9892041720,
      "lat": 12.9790194,
      "lon": 77.6438034,
      "tags": {
        "addr:number": "462",
        "amenity": "restaurant",
        "contact:instagram": "bakingbad_pizza",
        "cuisine": "pizza",
        "delivery": "yes",
        "name": "Baking Bad",
        "takeaway": "yes"
      }
    },
    {
      "type": "node",
      "id": 9908694114,
      "lat": 12.9801263,
      "lon": 77.6405968,
      "tags": {
        "amenity": "restaurant",
        "cuisine": "asian",
        "name": "Dofu"
      }
    },
    {
      "type": "node",
      "id": 9908694115,
      "lat": 12.9806167,
      "lon": 77.6410098,
      "tags": {
        "amenity": "restaurant",
        "cuisine": "thai",
        "name": "Thai Basil"
      }
    },
    {
      "type": "node",
      "id": 9908694116,
      "lat": 12.9809732,
      "lon": 77.6410038,
      "tags": {
        "amenity": "cafe",
        "contact:instagram": "paperandpieblr",
        "name": "Paper & Pie"
      }
    },
    {
      "type": "node",
      "id": 10051816954,
      "lat": 12.9812467,
      "lon": 77.6462366,
      "tags": {
        "amenity": "restaurant",
        "delivery": "only",
        "diet:vegan": "yes",
        "name": "Bergamot"
      }
    },
    {
      "type": "node",
      "id": 10075729572,
      "lat": 12.9824601,
      "lon": 77.6384512,
      "tags": {
        "addr:country": "IN",
        "addr:hamlet": "ST Bed Layout",
        "addr:postcode": "560095",
        "addr:suburb": "Koramangala",
        "amenity": "cafe",
        "check_date": "2024-11-10",
        "contact:instagram": "brezelhaus.craftery",
        "cuisine": "german",
        "delivery": "yes",
        "email": "info@germanbrezelhaus.com",
        "full_name": "German BrezelHaus - Bakery & Bistro",
        "mobile": "+91 6363343907",
        "name": "German BrezelHaus",
        "opening_hours": "Tu-Su 10:00-20:00",
        "outdoor_seating": "yes",
        "phone": "+91 63637 85582",
        "shop": "bakery",
        "start_date": "2024-11",
        "takeaway": "yes",
        "website": "https://www.germanbrezelhaus.com/"
      }
    },
    {
      "type": "node",
      "id": 10195307517,
      "lat": 12.9809864,
      "lon": 77.6462097,
      "tags": {
        "amenity": "restaurant",
        "cuisine": "indian",
        "name": "Dal Rotti Sabji",
        "name:en": "Dal Rotti Sabji",
        "opening_hours": "11:00-16:00,18:30-22:30; Sa off",
        "survey:date": "2022-11-17"
      }
    },
    {
      "type": "node",
      "id": 10197286017,
      "lat": 12.9801188,
      "lon": 77.6404801,
      "tags": {
        "addr:street": "5th Main Road",
        "amenity": "restaurant",
        "cuisine": "indian",
        "name": "Paratha Plaza",
        "phone": "9740258348"
      }
    },
    {
      "type": "node",
      "id": 10224421217,
      "lat": 12.9809983,
      "lon": 77.6462098,
      "tags": {
        "addr:street": "80 Feet Road",
        "amenity": "fast_food",
        "check_date": "2023-11-29",
        "cuisine": "sandwich;juice",
        "diet:vegetarian": "yes",
        "name": "Ganesh Juice Center",
        "name:en": "Ganesh Juice Center",
        "payment:cards": "no",
        "payment:cash": "yes",
        "payment:credit_cards": "no",
        "payment:debit_cards": "no",
        "survey:date": "2022-11-29",
        "takeaway": "yes",
        "wheelchair": "no"
      }
    },
    {
      "type": "node",
      "id": 10280775106,
      "lat": 12.9802975,
      "lon": 77.6405874,
      "tags": {
        "amenity": "pub",
        "microbrewery": "yes",
        "name": "Mac's Brewhouse"
      }
    },
    {
      "type": "node",
      "id": 10297771171,
      "lat": 12.981311,
      "lon": 77.6405264,
      "tags": {
        "amenity": "cafe",
        "name": "Playful Palette Bistro"
      }
    },
    {
      "type": "node",
      "id": 10302909510,
      "lat": 12.9807162,
      "lon": 77.6462726,
      "tags": {
        "addr:street": "80 Feet Road",
        "amenity": "restaurant",
        "cuisine": "chinese",
        "name": "Red Box"
      }
    },
    {
      "type": "node",
      "id": 10302909511,
      "lat": 12.9811088,
      "lon": 77.6459915,
      "tags": {
        "addr:street": "80 Feet Road",
        "check_date": "2023-11-29",
        "internet_access": "no",
        "name": "Chitra Bakery",
        "payment:cards": "no",
        "payment:cash": "yes",
        "payment:credit_cards": "no",
        "payment:debit_cards": "no",
        "shop": "bakery",
        "wheelchair": "no"
      }
    },
    {
      "type": "node",
      "id": 10304981609,
      "lat": 12.9792247,
      "lon": 77.6420952,
      "tags": {
        "addr:street": "Sri Krishna Temple Road",
        "male": "yes",
        "name": "Marvel Men's Beauty Saloon",
        "shop": "hairdresser"
      }
    },
    {
      "type": "node",
      "id": 10305069309,
      "lat": 12.9804662,
      "lon": 77.6460886,
      "tags": {
        "addr:street": "80 Feet Road",
        "shop": "bakery"
      }
    },
    {
      "type": "node",
      "id": 11131430565,
      "lat": 12.9786327,
      "lon": 77.6426351,
      "tags": {
        "brand": "Nature's Basket",
        "brand:wikidata": "Q28174237",
        "name": "Nature's Basket",
        "shop": "supermarket"
      }
    },
    {
      "type": "node",
      "id": 11244970336,
      "lat": 12.9819026,
      "lon": 77.6392426,
      "tags": {
        "check_date": "2023-10-07",
        "name": "isle of salon",
        "shop": "beauty"
      }
    },
    {
      "type": "node",
      "id": 11245019773,
      "lat": 12.9803251,
      "lon": 77.6409965,
      "tags": {
        "amenity": "pub",
        "check_date": "2023-10-07",
        "name": "Buffalo Wild Wings"
      }
    },
    {
      "type": "node",
      "id": 11245328399,
      "lat": 12.9803772,
      "lon": 77.6411265,
      "tags": {
        "amenity": "parking_entrance",
        "parking": "underground"
      }
    },
    {
      "type": "node",
      "id": 11275493814,
      "lat": 12.9801839,
      "lon": 77.6464793,
      "tags": {
        "amenity": "fast_food",
        "check_date": "2023-10-19",
        "name": "WoW China"
      }
    },
    {
      "type": "node",
      "id": 11282630507,
      "lat": 12.9857293,
      "lon": 77.644488,
      "tags": {
        "amenity": "fast_food",
        "check_date": "2023-11-11",
        "drive_through": "no",
        "name": "Shraddha Cafe"
      }
    },
    {
      "type": "node",
      "id": 11336333627,
      "lat": 12.9782983,
      "lon": 77.6459051,
      "tags": {
        "addr:housenumber": "726",
        "addr:street": "Chinmaya Mission Hospital Road",
        "amenity": "pharmacy",
        "check_date": "2023-11-09",
        "healthcare": "pharmacy",
        "name": "Trust Pharmacy Counter CMH",
        "payment:cash": "yes",
        "payment:mastercard": "yes",
        "payment:visa": "yes"
      }
    },
    {
      "type": "node",
      "id": 11497059470,
      "lat": 12.9786533,
      "lon": 77.645535,
      "tags": {
        "check_date": "2024-01-07",
        "name": "Lawrence & Mayo",
        "shop": "optician"
      }
    },
    {
      "type": "node",
      "id": 11497059471,
      "lat": 12.9786575,
      "lon": 77.6453982,
      "tags": {
        "amenity": "pharmacy",
        "check_date": "2024-01-07",
        "healthcare": "pharmacy",
        "name": "Medicine House"
      }
    },
    {
      "type": "node",
      "id": 11497411805,
      "lat": 12.9823643,
      "lon": 77.6460998,
      "tags": {
        "access": "private",
        "amenity": "parking_entrance",
        "parking": "underground"
      }
    },
    {
      "type": "node",
      "id": 11539167043,
      "lat": 12.9804753,
      "lon": 77.6410507,
      "tags": {
        "amenity": "fast_food",
        "cuisine": "burger",
        "name": "Leon Grill"
      }
    },
    {
      "type": "node",
      "id": 11539167044,
      "lat": 12.9804302,
      "lon": 77.6410373,
      "tags": {
        "amenity": "restaurant",
        "cuisine": "asian",
        "name": "Yuki"
      }
    },
    {
      "type": "node",
      "id": 11578469506,
      "lat": 12.980087,
      "lon": 77.6461181,
      "tags": {
        "addr:floor": "G",
        "amenity": "restaurant",
        "check_date": "2024-02-02",
        "contact:instagram": "https://www.instagram.com/pijja_global",
        "level": "0",
        "name": "Pijja"
      }
    },
    {
      "type": "node",
      "id": 11886877342,
      "lat": 12.9793481,
      "lon": 77.6448841,
      "tags": {
        "amenity": "atm",
        "brand": "HDFC Bank",
        "brand:wikidata": "Q631047",
        "name": "HDFC Bank",
        "name:kn": "ಎಚ್ ಡಿ ಎಫ್ ಸಿ",
        "operator": "HDFC Bank",
        "operator:wikidata": "Q631047",
        "short_name": "HDFC"
      }
    },
    {
      "type": "node",
      "id": 12072809117,
      "lat": 12.980898,
      "lon": 77.6405223,
      "tags": {
        "amenity": "bank",
        "brand": "Kotak Mahindra Bank",
        "brand:wikidata": "Q2040404",
        "name": "Kotak Mahindra Bank",
        "operator": "Kotak Mahindra Bank",
        "operator:wikidata": "Q2040404"
      }
    },
    {
      "type": "node",
      "id": 12145301148,
      "lat": 12.9806604,
      "lon": 77.6410844,
      "tags": {
        "amenity": "restaurant",
        "name": "Tovo"
      }
    },
    {
      "type": "node",
      "id": 12158796350,
      "lat": 12.9811678,
      "lon": 77.6404826,
      "tags": {
        "addr:floor": "2",
        "addr:housenumber": "311",
        "addr:street": "100 Feet Road",
        "amenity": "restaurant",
        "check_date": "2025-11-01",
        "check_date:opening_hours": "2025-11-01",
        "cuisine": "japanese",
        "level": "2",
        "name": "Izanagi",
        "opening_hours": "Mo-Su 11:00-22:30"
      }
    },
    {
      "type": "node",
      "id": 12204998929,
      "lat": 12.982675,
      "lon": 77.6460741,
      "tags": {
        "access": "private",
        "amenity": "parking_entrance",
        "parking": "underground"
      }
    },
    {
      "type": "node",
      "id": 12320285695,
      "lat": 12.9802567,
      "lon": 77.6404701,
      "tags": {
        "addr:floor": "G",
        "addr:housenumber": "303",
        "addr:street": "100 Feet Road",
        "amenity": "restaurant",
        "check_date": "2024-11-07",
        "contact:instagram": "https://www.instagram.com/cracklekitchen.blr",
        "level": "0",
        "name": "Crackle Kitchen",
        "opening_hours": "Tu-Su 19:00-23:00",
        "reservation": "required",
        "website": "https://cracklekitchen.com"
      }
    },
    {
      "type": "node",
      "id": 12377673992,
      "lat": 12.9851146,
      "lon": 77.6441816,
      "tags": {
        "amenity": "bicycle_parking",
        "covered": "yes",
        "name": "Trin Trin Hub"
      }
    },
    {
      "type": "node",
      "id": 12377673993,
      "lat": 12.9851534,
      "lon": 77.644174,
      "tags": {
        "amenity": "bicycle_repair_station",
        "service:bicycle:pump": "yes",
        "service:bicycle:screwdriver": "yes",
        "service:bicycle:tools": "yes"
      }
    },
    {
      "type": "node",
      "id": 12520049852,
      "lat": 12.980066,
      "lon": 77.6460933,
      "tags": {
        "addr:city": "Bengaluru",
        "addr:postcode": "560038",
        "addr:street": "80 Feet Rd, Kalyan Nagar, Indira Nagar 1st Stage, H Colony, Indiranagar",
        "amenity": "dentist",
        "healthcare": "dentist",
        "name": "Dentalign"
      }
    },
    {
      "type": "node",
      "id": 12521903069,
      "lat": 12.9799611,
      "lon": 77.6465523,
      "tags": {
        "amenity": "restaurant",
        "brand": "Brik Oven",
        "brand:wikidata": "Q124374702",
        "cuisine": "pizza",
        "delivery": "yes",
        "level": "5",
        "name": "Brik Oven",
        "takeaway": "yes"
      }
    },
    {
      "type": "node",
      "id": 12528689221,
      "lat": 12.980573,
      "lon": 77.6459843,
      "tags": {
        "addr:city": "Bengaluru",
        "addr:housenumber": "5",
        "addr:postcode": "560038",
        "addr:street": "80feet Road, Michael Palya, Indiranagar",
        "name": "New Frosty's",
        "shop": "greengrocer"
      }
    },
    {
      "type": "node",
      "id": 12633608555,
      "lat": 12.9802784,
      "lon": 77.6404705,
      "tags": {
        "amenity": "restaurant",
        "check_date": "2025-03-03",
        "cuisine": "asian",
        "name": "ilumi"
      }
    },
    {
      "type": "node",
      "id": 12765417552,
      "lat": 12.9820044,
      "lon": 77.639348,
      "tags": {
        "addr:city": "Bengaluru",
        "addr:housenumber": "No. 12, 2nd Floor",
        "addr:postcode": "560038",
        "addr:street": "8th Cross Road - Zain Burj",
        "name": "fcom india",
        "opening_hours": "Mo-Sat 09:30-21:00",
        "operator": "Poornima Sathya  Narayanan",
        "payment:cash": "yes",
        "payment:credit_cards": "yes",
        "payment:debit_cards": "yes",
        "payment:google_pay": "yes",
        "payment:mastercard": "yes",
        "payment:paytm": "yes",
        "payment:visa": "yes",
        "phone": "+91 9108902222",
        "shop": "tailor",
        "website": "https://fcomindia.com/"
      }
    },
    {
      "type": "node",
      "id": 12925049080,
      "lat": 12.9907716,
      "lon": 77.6525114,
      "tags": {
        "check_date": "2025-07-05",
        "name": "Amul",
        "shop": "dairy"
      }
    },
    {
      "type": "node",
      "id": 12927909816,
      "lat": 12.9806176,
      "lon": 77.6410825,
      "tags": {
        "amenity": "pub",
        "name": "Amicii"
      }
    },
    {
      "type": "node",
      "id": 12927909818,
      "lat": 12.9805101,
      "lon": 77.6410277,
      "tags": {
        "addr:city": "Bengaluru",
        "addr:country": "IN",
        "amenity": "restaurant",
        "contact:instagram": "sinonnas",
        "cuisine": "pizza",
        "delivery": "yes",
        "image:menu": "3534798b-898a-4d73-9347-d4d69fe386cb",
        "name": "Si Nonna's",
        "panoramax": "bedfc2b3-c2bd-452c-869f-3e4afc5ee7f0",
        "reservation": "yes",
        "takeaway": "yes",
        "toilets": "yes",
        "website": "https://sinonnas.com/"
      }
    },
    {
      "type": "node",
      "id": 12943349329,
      "lat": 12.9922574,
      "lon": 77.6519519,
      "tags": {
        "amenity": "bicycle_parking",
        "bicycle_parking": "rack",
        "brand": "Trin Trin"
      }
    },
    {
      "type": "node",
      "id": 13013588703,
      "lat": 12.9801659,
      "lon": 77.6405388,
      "tags": {
        "amenity": "bar",
        "name": "Mirth"
      }
    },
    {
      "type": "node",
      "id": 13062869347,
      "lat": 12.978323,
      "lon": 77.644993,
      "tags": {
        "amenity": "cafe",
        "brand": "Starbucks",
        "brand:wikidata": "Q37158",
        "cuisine": "coffee_shop",
        "level": "0",
        "name": "Starbucks",
        "official_name": "Starbucks Coffee",
        "takeaway": "yes"
      }
    },
    {
      "type": "node",
      "id": 13114307278,
      "lat": 12.9826019,
      "lon": 77.6403629,
      "tags": {
        "amenity": "cafe",
        "check_date": "2025-09-02",
        "name": "Casa Fresco"
      }
    },
    {
      "type": "node",
      "id": 13150233401,
      "lat": 12.9825451,
      "lon": 77.6394685,
      "tags": {
        "amenity": "events_venue",
        "name": "The MAD Bunker"
      }
    },
    {
      "type": "node",
      "id": 13271762068,
      "lat": 12.982612,
      "lon": 77.6379403,
      "tags": {
        "amenity": "vehicle_inspection",
        "check_date": "2025-10-31",
        "name": "Pollution Under Control Checking"
      }
    },
    {
      "type": "node",
      "id": 13287325356,
      "lat": 12.98227,
      "lon": 77.6393458,
      "tags": {
        "amenity": "restaurant",
        "name": "Biryani biryani"
      }
    },
    {
      "type": "node",
      "id": 13287328700,
      "lat": 12.9822844,
      "lon": 77.6395739,
      "tags": {
        "amenity": "restaurant",
        "name": "1966 - The Mumbai Cafe",
        "panoramax": "7aa19667-b561-47c1-8e9f-799e6dff2b87"
      }
    },
    {
      "type": "node",
      "id": 13287336882,
      "lat": 12.9820427,
      "lon": 77.6395746,
      "tags": {
        "amenity": "fast_food",
        "name": "Thatha Tea",
        "panoramax": "0a88fdaf-13a2-4961-afd1-654d9ee57e28"
      }
    },
    {
      "type": "node",
      "id": 13287348278,
      "lat": 12.9822657,
      "lon": 77.6391993,
      "tags": {
        "amenity": "restaurant",
        "name": "Namma Hallimane"
      }
    },
    {
      "type": "node",
      "id": 13287354615,
      "lat": 12.9821915,
      "lon": 77.6391924,
      "tags": {
        "amenity": "restaurant",
        "name": "Al Baik Biryani"
      }
    },
    {
      "type": "way",
      "id": 35133587,
      "center": {
        "lat": 12.9779337,
        "lon": 77.6461885
      },
      "tags": {
        "amenity": "hospital",
        "emergency": "yes",
        "healthcare": "hospital",
        "name": "Chinmaya Mission Hospital",
        "name:kn": "ಚಿನ್ಮಯ ಮಿಷನ್ ಆಸ್ಪತ್ರೆ",
        "phone": "+91 80 2502 6100",
        "website": "https://www.chinmayamission.com/what-we-do/institutes/chinmaya-mission-hospital-chinmaya-mission-of-nursing/",
        "wheelchair": "yes"
      }
    },
    {
      "type": "way",
      "id": 35311978,
      "center": {
        "lat": 12.9822274,
        "lon": 77.6533084
      },
      "tags": {
        "amenity": "research_institute",
        "check_date": "2024-11-10",
        "landuse": "industrial",
        "name": "Gas Turbine Research Establishment",
        "name:kn": "ಆವಿ ನೀರುಗಾಲಿ ಸಂಶೋಧನ ನೆಲೆ",
        "operator:type": "military",
        "short_name": "GTRE",
        "start_date": "1961",
        "wikidata": "Q5526315",
        "wikimedia_commons": "Category:GTRE aircraft engines",
        "wikipedia": "en:Gas Turbine Research Establishment"
      }
    },
    {
      "type": "way",
      "id": 41499025,
      "center": {
        "lat": 12.9808636,
        "lon": 77.642648
      },
      "tags": {
        "addr:city": "Indira Nagar, Bangalore",
        "addr:street": "100 Feet Road",
        "amenity": "school",
        "name": "Spastics Society of Karnataka"
      }
    },
    {
      "type": "way",
      "id": 41722454,
      "center": {
        "lat": 12.9781152,
        "lon": 77.6505224
      },
      "tags": {
        "amenity": "research_institute",
        "landuse": "industrial",
        "name": "Aeronautical Development Establishment",
        "short_name": "ADE",
        "wikidata": "Q4688350",
        "wikipedia": "en:Aeronautical Development Establishment"
      }
    },
    {
      "type": "way",
      "id": 135266042,
      "center": {
        "lat": 12.9829238,
        "lon": 77.6446972
      },
      "tags": {
        "amenity": "hospital",
        "healthcare": "hospital",
        "name": "Indiranagar Government Hospital",
        "name:kn": "ಇಂದಿರಾನಗರ ಸರ್ಕಾರಿ ಆಸ್ಪತ್ರೆ"
      }
    },
    {
      "type": "way",
      "id": 135266048,
      "center": {
        "lat": 12.985557,
        "lon": 77.6466045
      },
      "tags": {
        "addr:postcode": "560038",
        "amenity": "college",
        "name": "Montfort College",
        "name:kn": "ಮೊಂಟ್ ಫೊರ್ಟ್ ಕಾಲೇಜು"
      }
    },
    {
      "type": "way",
      "id": 135266052,
      "center": {
        "lat": 12.9852683,
        "lon": 77.6456101
      },
      "tags": {
        "amenity": "place_of_worship",
        "name": "Resurrection Church",
        "religion": "christian",
        "source": "self"
      }
    },
    {
      "type": "way",
      "id": 135266053,
      "center": {
        "lat": 12.9831382,
        "lon": 77.6463314
      },
      "tags": {
        "addr:street": "80 Feet Road",
        "amenity": "monastery",
        "community:gender": "female",
        "denomination": "catholic",
        "landuse": "religious",
        "monastery:type": "convent",
        "name": "Dominican Sisters of the Presentation",
        "religion": "christian"
      }
    },
    {
      "type": "way",
      "id": 135266054,
      "center": {
        "lat": 12.9858359,
        "lon": 77.6475563
      },
      "tags": {
        "amenity": "school",
        "name": "Fusco's School",
        "name:kn": "ಫೊಸ್ಕೊಸ್ ಶಾಲೆ"
      }
    },
    {
      "type": "way",
      "id": 135266057,
      "center": {
        "lat": 12.9839262,
        "lon": 77.6436191
      },
      "tags": {
        "amenity": "hospital",
        "healthcare": "hospital",
        "name": "Isolation Hospital",
        "name:kn": "ಐಸೊಲೇಶನ್ ಆಸ್ಪತ್ರೆ"
      }
    },
    {
      "type": "way",
      "id": 135266058,
      "center": {
        "lat": 12.9844576,
        "lon": 77.6464785
      },
      "tags": {
        "amenity": "social_facility",
        "name": "St. Michael's Home",
        "social_facility": "shelter"
      }
    },
    {
      "type": "way",
      "id": 135270813,
      "center": {
        "lat": 12.9864155,
        "lon": 77.6437586
      },
      "tags": {
        "addr:district": "Bengaluru Urban",
        "addr:full": "Old Madras Road",
        "addr:postcode": "560002",
        "addr:state": "Karnataka",
        "amenity": "hospital",
        "name": "Epidemic Disesase Hospital",
        "source": "OpenGovernmentData"
      }
    },
    {
      "type": "way",
      "id": 148042611,
      "center": {
        "lat": 12.9899813,
        "lon": 77.653186
      },
      "tags": {
        "access": "yes",
        "amenity": "parking",
        "fee": "yes",
        "parking": "surface"
      }
    },
    {
      "type": "way",
      "id": 164048206,
      "center": {
        "lat": 12.9858246,
        "lon": 77.6429529
      },
      "tags": {
        "amenity": "hospital",
        "emergency": "no",
        "name": "Isolation Hospital",
        "name:kn": "ಐಸೊಲೇಶನ್ ಆಸ್ಪತ್ರೆ"
      }
    },
    {
      "type": "way",
      "id": 182149856,
      "center": {
        "lat": 12.9853837,
        "lon": 77.6477907
      },
      "tags": {
        "leisure": "playground"
      }
    },
    {
      "type": "way",
      "id": 185964975,
      "center": {
        "lat": 12.9838517,
        "lon": 77.6392092
      },
      "tags": {
        "brand": "Honda",
        "brand:wikidata": "Q9584",
        "building": "yes",
        "name": "Haiku Honda Showroom",
        "shop": "motorcycle"
      }
    },
    {
      "type": "way",
      "id": 309936964,
      "center": {
        "lat": 12.9811042,
        "lon": 77.647751
      },
      "tags": {
        "description": "New Thrippasandra , word number 58",
        "leisure": "park",
        "name": "BM Kaval Childrens Park"
      }
    },
    {
      "type": "way",
      "id": 331330194,
      "center": {
        "lat": 12.9800897,
        "lon": 77.6403029
      },
      "tags": {
        "addr:housenumber": "278",
        "amenity": "school",
        "building": "yes",
        "name": "Rhythms Institute of Fine Arts"
      }
    },
    {
      "type": "way",
      "id": 331352075,
      "center": {
        "lat": 12.9830254,
        "lon": 77.6384064
      },
      "tags": {
        "amenity": "police",
        "name": "Indira Nagar Police Station",
        "name:kn": "ಇಂದಿರಾನಗರ ಆರಕ್ಷಕ ಠಾಣೆ"
      }
    },
    {
      "type": "way",
      "id": 331365004,
      "center": {
        "lat": 12.9821794,
        "lon": 77.6383543
      },
      "tags": {
        "addr:housenumber": "99",
        "addr:street": "11th Cross Road",
        "building": "yes",
        "name": "Sri Sai Dhanlakshmi Store",
        "shop": "yes"
      }
    },
    {
      "type": "way",
      "id": 331367432,
      "center": {
        "lat": 12.9809864,
        "lon": 77.6400251
      },
      "tags": {
        "building": "yes",
        "name": "HOPCOMS",
        "name:kn": "ಹಾಪ್ ಕಾಮ್ಸ್",
        "shop": "convenience"
      }
    },
    {
      "type": "way",
      "id": 331367433,
      "center": {
        "lat": 12.9808839,
        "lon": 77.6399936
      },
      "tags": {
        "alt_name": "KMF Mother Dairy",
        "building": "yes",
        "name": "Nandhini Shoppe",
        "shop": "convenience"
      }
    },
    {
      "type": "way",
      "id": 331368921,
      "center": {
        "lat": 12.9815569,
        "lon": 77.6416871
      },
      "tags": {
        "amenity": "place_of_worship",
        "building": "mosque",
        "name": "Masjid-e Ummul Hasnin",
        "name:kn": "ಮಸ್ಜೀದ್ ಎ ಉಮ್ಮೂಲ್ ಹಾಸ್ನಿನ್",
        "religion": "muslim"
      }
    },
    {
      "type": "way",
      "id": 331683237,
      "center": {
        "lat": 12.9841014,
        "lon": 77.6445
      },
      "tags": {
        "leisure": "garden"
      }
    },
    {
      "type": "way",
      "id": 331683238,
      "center": {
        "lat": 12.9819678,
        "lon": 77.6445368
      },
      "tags": {
        "amenity": "school",
        "name": "Resurrection School"
      }
    },
    {
      "type": "way",
      "id": 331683279,
      "center": {
        "lat": 12.9823041,
        "lon": 77.6409618
      },
      "tags": {
        "addr:housenumber": "850/1",
        "brand": "Mahindra and Mahindra",
        "building": "commercial",
        "building:levels": "5",
        "name": "Mahindra and Mahindra",
        "name:kn": "ಮಹೀಂದ್ರಾ & ಮಹೀಂದ್ರಾ",
        "not:brand:wikidata": "Q9584",
        "shop": "car"
      }
    },
    {
      "type": "way",
      "id": 346438296,
      "center": {
        "lat": 12.9789772,
        "lon": 77.646242
      },
      "tags": {
        "amenity": "place_of_worship",
        "building": "temple",
        "religion": "hindu"
      }
    },
    {
      "type": "way",
      "id": 347117994,
      "center": {
        "lat": 12.9816506,
        "lon": 77.6431558
      },
      "tags": {
        "addr:housenumber": "24",
        "amenity": "school",
        "name": "Sarkari Hiriya Prarthmik Shale",
        "name:kn": "ಸರ್ಕಾರಿ ಹಿರಿಯ ಪ್ರಾಥಮಿಕ ಶಾಲೆ"
      }
    },
    {
      "type": "way",
      "id": 347118960,
      "center": {
        "lat": 12.9822266,
        "lon": 77.6415193
      },
      "tags": {
        "addr:street": "Hutting colony",
        "amenity": "clinic",
        "building": "yes",
        "healthcare": "clinic",
        "name": "Kairali Ayurvedic and Treatment Center"
      }
    },
    {
      "type": "way",
      "id": 347120476,
      "center": {
        "lat": 12.9793615,
        "lon": 77.6448544
      },
      "tags": {
        "addr:city": "Indira Nagar, Bangalore",
        "addr:postcode": "560038",
        "addr:street": "Sri Krishna Temple Road",
        "amenity": "bank",
        "atm": "yes",
        "brand": "HDFC Bank",
        "brand:wikidata": "Q631047",
        "building": "yes",
        "building:levels": "3",
        "name": "HDFC Bank",
        "name:kn": "ಎಚ್ ಡಿ ಎಫ್ ಸಿ",
        "operator": "HDFC",
        "short_name": "HDFC"
      }
    },
    {
      "type": "way",
      "id": 347120731,
      "center": {
        "lat": 12.9807106,
        "lon": 77.646011
      },
      "tags": {
        "amenity": "hospital",
        "building": "yes",
        "healthcare": "hospital",
        "name": "MS Diabetes Speciality Center"
      }
    },
    {
      "type": "way",
      "id": 347120998,
      "center": {
        "lat": 12.9793675,
        "lon": 77.6449639
      },
      "tags": {
        "building": "yes",
        "building:levels": "3",
        "name": "CakeWalk",
        "shop": "pastry"
      }
    },
    {
      "type": "way",
      "id": 349837339,
      "center": {
        "lat": 12.9819644,
        "lon": 77.6383539
      },
      "tags": {
        "addr:housenumber": "97",
        "addr:street": "11th Cross Road",
        "air_conditioning": "yes",
        "amenity": "place_of_worship",
        "building": "yes",
        "denomination": "mormon",
        "name": "The Church of Jesus Christ of Latter-day Saints",
        "religion": "christian"
      }
    },
    {
      "type": "way",
      "id": 352542275,
      "center": {
        "lat": 12.981533,
        "lon": 77.6433227
      },
      "tags": {
        "addr:housenumber": "49",
        "amenity": "place_of_worship",
        "building": "yes",
        "name": "Sree Balamuri Vinayaka Temple",
        "name:kn": "ಬಲಮುರಿ ವಿನಾಯಕ ದೇವಸ್ಥಾನ",
        "religion": "hindu"
      }
    },
    {
      "type": "way",
      "id": 352542294,
      "center": {
        "lat": 12.9789696,
        "lon": 77.643637
      },
      "tags": {
        "addr:number": "463",
        "amenity": "bank",
        "atm": "yes",
        "building": "yes",
        "building:levels": "4",
        "operator": "State Bank of Mysore"
      }
    },
    {
      "type": "way",
      "id": 360224893,
      "center": {
        "lat": 12.9797638,
        "lon": 77.6410704
      },
      "tags": {
        "amenity": "place_of_worship",
        "name": "Sundara Anjaneya Temple",
        "name:kn": "ಸುಂದರ ಆಂಜನೇಯ ದೇವಸ್ಥಾನ",
        "religion": "hindu"
      }
    },
    {
      "type": "way",
      "id": 362931600,
      "center": {
        "lat": 12.9804964,
        "lon": 77.6447792
      },
      "tags": {
        "leisure": "park",
        "name": "BM Kaval Park"
      }
    },
    {
      "type": "way",
      "id": 368277498,
      "center": {
        "lat": 12.9789193,
        "lon": 77.6461244
      },
      "tags": {
        "alt_name": "Deenabandu Devastanam",
        "amenity": "place_of_worship",
        "check_date": "2023-09-12",
        "landuse": "religious",
        "name": "Shri Krishna Temple",
        "name:kn": "ಕೃಷ್ಣ ದೇವಸ್ಥಾನ",
        "religion": "hindu"
      }
    },
    {
      "type": "way",
      "id": 368723168,
      "center": {
        "lat": 12.9834613,
        "lon": 77.6408291
      },
      "tags": {
        "amenity": "fuel",
        "brand": "Total",
        "brand:wikidata": "Q154037",
        "name": "Total"
      }
    },
    {
      "type": "way",
      "id": 368769034,
      "center": {
        "lat": 12.9843194,
        "lon": 77.64195
      },
      "tags": {
        "amenity": "place_of_worship",
        "name": "Sri Balamuri Ganapathy Temple",
        "name:kn": "ಶ್ರೀ ಬಲಮುರಿ ಗಣಪತಿ ದೇವಸ್ತಾನ",
        "religion": "hindu",
        "wheelchair": "no"
      }
    },
    {
      "type": "way",
      "id": 368769036,
      "center": {
        "lat": 12.9834025,
        "lon": 77.6413926
      },
      "tags": {
        "amenity": "place_of_worship",
        "name": "ZFG Church",
        "religion": "christian"
      }
    },
    {
      "type": "way",
      "id": 368769670,
      "center": {
        "lat": 12.9815743,
        "lon": 77.6417388
      },
      "tags": {
        "amenity": "place_of_worship",
        "name": "Masjid-e Ummul Hasnin",
        "name:kn": "ಮಸ್ಜೀದ್ ಎ ಉಮ್ಮೂಲ್ ಹಾಸ್ನಿನ್",
        "religion": "muslim"
      }
    },
    {
      "type": "way",
      "id": 368769672,
      "center": {
        "lat": 12.9816078,
        "lon": 77.641494
      },
      "tags": {
        "amenity": "school",
        "name": "Silicon City Public School"
      }
    },
    {
      "type": "way",
      "id": 368772813,
      "center": {
        "lat": 12.980089,
        "lon": 77.6426774
      },
      "tags": {
        "amenity": "school",
        "name": "Hamsadhwani School for Hearing Impaired",
        "name:kn": "ಹಂಸಧ್ವನಿ ಶಾಲೆ"
      }
    },
    {
      "type": "way",
      "id": 368773887,
      "center": {
        "lat": 12.9798743,
        "lon": 77.6412713
      },
      "tags": {
        "amenity": "place_of_worship",
        "name": "Shree Adi Kempamma Adi Muthyalamma Temple",
        "religion": "hindu"
      }
    },
    {
      "type": "way",
      "id": 408152820,
      "center": {
        "lat": 12.9789473,
        "lon": 77.6428572
      },
      "tags": {
        "leisure": "park"
      }
    },
    {
      "type": "way",
      "id": 408159169,
      "center": {
        "lat": 12.9794794,
        "lon": 77.6460622
      },
      "tags": {
        "amenity": "college",
        "building": "yes",
        "building:levels": "3",
        "name": "International Instittute of Hotel Management"
      }
    },
    {
      "type": "way",
      "id": 408159171,
      "center": {
        "lat": 12.9794893,
        "lon": 77.6462176
      },
      "tags": {
        "addr:housenumber": "873",
        "amenity": "college",
        "building": "yes",
        "building:levels": "3",
        "name": "International Instittute of Hotel Management"
      }
    },
    {
      "type": "way",
      "id": 422656532,
      "center": {
        "lat": 12.9804902,
        "lon": 77.6464008
      },
      "tags": {
        "amenity": "restaurant",
        "building": "yes",
        "name": "Krishna Sagar Veg Restaurant"
      }
    },
    {
      "type": "way",
      "id": 469398746,
      "center": {
        "lat": 12.9850316,
        "lon": 77.6446654
      },
      "tags": {
        "access": "yes",
        "amenity": "parking",
        "fee": "yes",
        "name": "S V Road Metro Station Parking",
        "parking": "surface"
      }
    },
    {
      "type": "way",
      "id": 469658778,
      "center": {
        "lat": 12.99152,
        "lon": 77.6515824
      },
      "tags": {
        "amenity": "parking",
        "name": "Byappanahalli Station Parking",
        "parking": "surface"
      }
    },
    {
      "type": "way",
      "id": 511015042,
      "center": {
        "lat": 12.9809827,
        "lon": 77.6396668
      },
      "tags": {
        "addr:city": "Bangalore",
        "addr:postcode": "560038",
        "addr:street": "9TH Cross, 1ST Stage Indiranagar,, Opp to Rasmi clinic, Indiranagar",
        "barrier": "wall",
        "leisure": "pitch",
        "name": "Indiranagar Basketball Club",
        "phone": "+9195351 10609",
        "sport": "basketball"
      }
    },
    {
      "type": "way",
      "id": 575099721,
      "center": {
        "lat": 12.9852477,
        "lon": 77.645469
      },
      "tags": {
        "amenity": "place_of_worship",
        "building": "church",
        "religion": "christian"
      }
    },
    {
      "type": "way",
      "id": 575100604,
      "center": {
        "lat": 12.9830279,
        "lon": 77.645402
      },
      "tags": {
        "leisure": "garden"
      }
    },
    {
      "type": "way",
      "id": 761473411,
      "center": {
        "lat": 12.9811092,
        "lon": 77.647736
      },
      "tags": {
        "access": "yes",
        "leisure": "playground"
      }
    },
    {
      "type": "way",
      "id": 1060190458,
      "center": {
        "lat": 12.9924123,
        "lon": 77.6525093
      },
      "tags": {
        "access": "customers",
        "amenity": "parking",
        "fee": "yes",
        "name": "Byappanahalli Station Parking",
        "operator": "BMRCL",
        "parking": "surface"
      }
    },
    {
      "type": "way",
      "id": 1068769789,
      "center": {
        "lat": 12.9827132,
        "lon": 77.6378208
      },
      "tags": {
        "amenity": "fuel",
        "brand": "Indian Oil",
        "brand:wikidata": "Q1289348",
        "compressed_air": "yes",
        "name": "Indian Oil",
        "name:kn": "ಇಂಡಿಯನ್ ಆಯಿಲ್"
      }
    },
    {
      "type": "way",
      "id": 1282005301,
      "center": {
        "lat": 12.9813882,
        "lon": 77.6404639
      },
      "tags": {
        "amenity": "parking",
        "parking": "surface"
      }
    },
    {
      "type": "way",
      "id": 1310467013,
      "center": {
        "lat": 12.9827472,
        "lon": 77.6467916
      },
      "tags": {
        "access": "private",
        "leisure": "swimming_pool"
      }
    },
    {
      "type": "way",
      "id": 1427358318,
      "center": {
        "lat": 12.9824663,
        "lon": 77.6467777
      },
      "tags": {
        "access": "private",
        "leisure": "pitch",
        "sport": "basketball"
      }
    },
    {
      "type": "way",
      "id": 1427358319,
      "center": {
        "lat": 12.9823632,
        "lon": 77.646304
      },
      "tags": {
        "leisure": "playground"
      }
    }
  ]
}