{
  "area_name": "New Tavarekere",
  "osm_id": 19883486,
  "osm_type": "relation",
  "place_type": "administrative",
  "amenity_count": 98,
  "amenities": [
    {
      "type": "node",
      "id": 1470532623,
      "lat": 12.9227705,
      "lon": 77.6142078,
      "tags": {
        "amenity": "restaurant",
        "cuisine": "indian",
        "name": "Tasty Restaurant",
        "name:kn": "ಟೆಸ್ಟಿ ರೆಸ್ಟೊರೆಂಟ್"
      }
    },
    {
      "type": "node",
      "id": 1470533215,
      "lat": 12.9232149,
      "lon": 77.612864,
      "tags": {
        "name": "Food City Super Market",
        "shop": "supermarket"
      }
    },
    {
      "type": "node",
      "id": 1470626482,
      "lat": 12.9198254,
      "lon": 77.6127816,
      "tags": {
        "amenity": "restaurant",
        "check_date": "2023-10-27",
        "name": "Sweet Revenge Cafe"
      }
    },
    {
      "type": "node",
      "id": 1474444937,
      "lat": 12.9229035,
      "lon": 77.6134614,
      "tags": {
        "addr:street": "Chocolate Factory Road",
        "amenity": "restaurant",
        "cuisine": "indian",
        "name": "Aswini Hotel",
        "name:kn": "ಅಶ್ವಿನಿ ಹೋಟೆಲ್"
      }
    },
    {
      "type": "node",
      "id": 1474445664,
      "lat": 12.9231702,
      "lon": 77.6126406,
      "tags": {
        "addr:street": "Chocolate Factory Road",
        "amenity": "restaurant",
        "cuisine": "indian",
        "name": "Andra Curry Point",
        "name:kn": "ಆಂಧ್ರ ಕರ್ರಿ ಪಾಯಿಂಟ್"
      }
    },
    {
      "type": "node",
      "id": 1474446679,
      "lat": 12.9234682,
      "lon": 77.611734,
      "tags": {
        "name": "Bake O Fresh Bakery",
        "shop": "bakery"
      }
    },
    {
      "type": "node",
      "id": 1474449391,
      "lat": 12.9239335,
      "lon": 77.61116,
      "tags": {
        "addr:district": "Bengaluru Urban",
        "addr:full": "#22, 1st Main, Chocolate Factory Road , Tavarekere Btm Layout",
        "addr:postcode": "560029",
        "addr:state": "Karnataka",
        "amenity": "hospital",
        "healthcare": "hospital",
        "name": "Spurthy Hospital",
        "source": "OpenGovernmentData"
      }
    },
    {
      "type": "node",
      "id": 1474449978,
      "lat": 12.9245296,
      "lon": 77.6094944,
      "tags": {
        "amenity": "atm",
        "brand": "Federal Bank",
        "brand:wikidata": "Q2044983",
        "name": "Federal Bank",
        "operator": "Federal Bank",
        "operator:wikidata": "Q2044983"
      }
    },
    {
      "type": "node",
      "id": 1474450888,
      "lat": 12.9243597,
      "lon": 77.6094434,
      "tags": {
        "amenity": "atm",
        "brand": "HDFC Bank",
        "brand:wikidata": "Q631047",
        "name": "HDFC Bank",
        "operator": "HDFC Bank",
        "operator:wikidata": "Q631047",
        "short_name": "HDFC"
      }
    },
    {
      "type": "node",
      "id": 1738015015,
      "lat": 12.9206732,
      "lon": 77.6123589,
      "tags": {
        "amenity": "restaurant",
        "name": "Pongal Veg Cafe",
        "name:kn": "ಪೊಂಗಲ್ ವೆಜ್ ಕೆಫೆ"
      }
    },
    {
      "type": "node",
      "id": 1738015121,
      "lat": 12.9197873,
      "lon": 77.6122951,
      "tags": {
        "amenity": "fast_food",
        "brand": "Domino's",
        "brand:ks": "ڈومینوز",
        "brand:pa": "ਡੋਮੀਨੋਜ਼",
        "brand:ur": "ڈومینوز",
        "brand:wikidata": "Q839466",
        "brand:wikipedia": "en:Domino's Pizza",
        "cuisine": "pizza",
        "name": "Domino's",
        "name:kn": "ಡಾಮಿನೋಸ್",
        "name:ks": "ڈومینوز",
        "name:pa": "ਡੋਮੀਨੋਜ਼",
        "name:ur": "ڈومینوز",
        "takeaway": "yes"
      }
    },
    {
      "type": "node",
      "id": 3016052472,
      "lat": 12.9205278,
      "lon": 77.6131342,
      "tags": {
        "amenity": "atm",
        "brand": "IDBI Bank",
        "brand:wikidata": "Q3633485",
        "operator": "IDBI Bank",
        "operator:wikidata": "Q3633485",
        "short_name": "IDBI"
      }
    },
    {
      "type": "node",
      "id": 3072178335,
      "lat": 12.9230428,
      "lon": 77.6144646,
      "tags": {
        "amenity": "atm",
        "brand": "Axis Bank",
        "brand:wikidata": "Q2003549",
        "name": "Axis Bank",
        "operator": "Axis Bank",
        "operator:wikidata": "Q2003549"
      }
    },
    {
      "type": "node",
      "id": 3264822806,
      "lat": 12.9167733,
      "lon": 77.6110998,
      "tags": {
        "amenity": "school",
        "name": "Good To Excellence"
      }
    },
    {
      "type": "node",
      "id": 3496876622,
      "lat": 12.9166871,
      "lon": 77.6140512,
      "tags": {
        "brand": "Tata",
        "brand:wikidata": "Q188514",
        "name": "Prerana Motors",
        "shop": "car"
      }
    },
    {
      "type": "node",
      "id": 3702281012,
      "lat": 12.9195986,
      "lon": 77.608563,
      "tags": {
        "amenity": "college",
        "name": "Wisdom International School"
      }
    },
    {
      "type": "node",
      "id": 4487928981,
      "lat": 12.9220614,
      "lon": 77.6138971,
      "tags": {
        "addr:city": "Banglore",
        "addr:postcode": "560029",
        "addr:street": "Maruthi Nagar Main Road",
        "name": "Rohit Sports",
        "phone": "096328 29008",
        "shop": "sports",
        "website": "https://badmintoncentral.com/"
      }
    },
    {
      "type": "node",
      "id": 4487955778,
      "lat": 12.9221959,
      "lon": 77.6139551,
      "tags": {
        "addr:city": "Banglore",
        "addr:postcode": "560029",
        "addr:street": "Opp KEB office, Maruthi Nagar, Btm 1st Stage",
        "name": "Rohit Sports",
        "opening_hours": "11:00-20:45",
        "phone": "+9196328 29008",
        "shop": "sports"
      }
    },
    {
      "type": "node",
      "id": 4489695459,
      "lat": 12.9219965,
      "lon": 77.6139151,
      "tags": {
        "addr:city": "Banglore",
        "addr:housenumber": "05",
        "addr:postcode": "560068",
        "addr:street": "1st Main, 4th Cross, Maruthi Nagar, Near-RS High School, Madiwala, Chikka Madivala, 1st Stage, BTM Layout",
        "leisure": "sports_centre",
        "name": "The Fitness Zone",
        "opening_hours": "5:30-21:30",
        "phone": "+91-080 2553 3091",
        "sport": "gymnastics",
        "website": "https://www.thefitnesszone.in/"
      }
    },
    {
      "type": "node",
      "id": 4489841339,
      "lat": 12.9216426,
      "lon": 77.6123398,
      "tags": {
        "addr:city": "Banglore",
        "addr:housenumber": "324",
        "addr:postcode": "560029",
        "addr:street": "7th Main Rd, Stage 2, BTM Layout",
        "leisure": "sports_centre",
        "name": "play on fitness bangalore",
        "opening_hours": "05:30-23:00",
        "phone": "9901089431",
        "sport": "gymnastics",
        "website": "playonfitness.in"
      }
    },
    {
      "type": "node",
      "id": 4489848534,
      "lat": 12.9245268,
      "lon": 77.6098595,
      "tags": {
        "addr:city": "bangalore",
        "addr:housenumber": "Shop No:H1/1-2",
        "addr:street": "1st Cross,Tavarekere, Chocolate Factory Rd, Maruti Nagar, Stage 1, BTM Layout",
        "leisure": "sports_centre",
        "name": "Fitness Maniac",
        "opening_hours": "10:00-21:00",
        "phone": "9845725015",
        "sport": "gymnastics",
        "website": "fitnessmaniacgym.com"
      }
    },
    {
      "type": "node",
      "id": 4489902389,
      "lat": 12.9222104,
      "lon": 77.6106061,
      "tags": {
        "addr:city": "Banglore",
        "addr:postcode": "560029",
        "addr:street": "Tavarekere Main Rd, Narayan Gowda Layout, 1st Stage, BTM Layout,",
        "leisure": "sports_centre",
        "name": "Hi Tech Gym",
        "opening_hours": "05:00-22:00",
        "phone": "098863 88813",
        "sport": "gymnastics",
        "website": "https://www.gymchalo.com/"
      }
    },
    {
      "type": "node",
      "id": 4489911938,
      "lat": 12.9220361,
      "lon": 77.6104841,
      "tags": {
        "addr:city": "Bengaluru",
        "addr:housenumber": "#88/26,",
        "addr:postcode": "560029",
        "addr:street": "1st Floor, Mariyappa Building, bus Stop near Banyan Tree, Narayan Gowda Layout, Tavarekere, Suddagunte Palya, , Karnataka",
        "leisure": "sports_centre",
        "name": "Sinew Fitness",
        "opening_hours": "5:30-22:00"
      }
    },
    {
      "type": "node",
      "id": 6024722727,
      "lat": 12.9170401,
      "lon": 77.6097678,
      "tags": {
        "amenity": "toilets"
      }
    },
    {
      "type": "node",
      "id": 6348998895,
      "lat": 12.9199038,
      "lon": 77.6087264,
      "tags": {
        "amenity": "school",
        "name": "GUHPS  New Tavarekere",
        "name:kn": "ಸರ್ಕಾರಿ ಉರ್ದು ಹಿರಿಯ ಪ್ರಾಥಮಿಕ ಶಾಲೆ ಹೊಸ ತಾವರೆಕೆರೆ",
        "operator": "Department of Education",
        "school": "primary"
      }
    },
    {
      "type": "node",
      "id": 6349000293,
      "lat": 12.9218216,
      "lon": 77.61023,
      "tags": {
        "amenity": "school",
        "isced:level": "2",
        "name": "GHPS Tavarekere",
        "name:kn": "ಸರ್ಕಾರಿ ಹಿರಿಯ ಪ್ರಾಥಮಿಕ ಶಾಲೆ ತಾವರೆಕೆರೆ",
        "operator": "Department of Education",
        "school": "primary"
      }
    },
    {
      "type": "node",
      "id": 6433700556,
      "lat": 12.9195777,
      "lon": 77.6101519,
      "tags": {
        "brand": "HOPCOMS",
        "brand:wikidata": "Q22908959",
        "name": "HOPCOMS",
        "name:kn": "ಹಾಪ್ ಕಾಮ್ಸ್",
        "shop": "greengrocer"
      }
    },
    {
      "type": "node",
      "id": 6536965027,
      "lat": 12.9237085,
      "lon": 77.6116936,
      "tags": {
        "addr:place": "Madivala",
        "amenity": "school",
        "isced": "3",
        "name": "A V S Convent, Madiwala",
        "name:kn": "ಎ.ವಿ.ಎಸ್ ಕಾನ್ವೆಂಟ್,ಮಡಿವಾಳ",
        "operator": "Private Un-Aided",
        "school": "Higher Secondary"
      }
    },
    {
      "type": "node",
      "id": 6690648242,
      "lat": 12.9205575,
      "lon": 77.6088459,
      "tags": {
        "addr:place": "Madiwala",
        "amenity": "school",
        "isced:level": "1",
        "name": "Kamala Neharu Gandhi Tavarekere,Primary school Madiwala",
        "name:kn": "ಕಮಲಾ ನೆಹರು ಗಾಂಧಿ ಪ್ರಾಥಮಿಕ ಶಾಲೆ,ತವೆರೆಕೆರೆ,ಮಡಿವಾಳ",
        "operator": "Private Un-Aided",
        "school": "primary"
      }
    },
    {
      "type": "node",
      "id": 6690692245,
      "lat": 12.9228196,
      "lon": 77.6095716,
      "tags": {
        "addr:place": "Madiwala",
        "amenity": "school",
        "isced:level": "3",
        "name": "Indira Convent HS, Madiwala",
        "name:kn": "ಇಂದಿರಾ ಕಾನ್ವೆಂಟ್ ಪ್ರೌಢಶಾಲೆ,ಮಡಿವಾಳ",
        "operator": "Private Un-Aided",
        "school": "Higher Secondary"
      }
    },
    {
      "type": "node",
      "id": 7579924742,
      "lat": 12.9191848,
      "lon": 77.6104644,
      "tags": {
        "addr:district": "Bengaluru Urban",
        "addr:full": "Tavarekere, Madiwala, Bengaluru",
        "addr:postcode": "560029",
        "addr:state": "Karnataka",
        "amenity": "clinic",
        "name": "Amba Laser Clinic",
        "source": "Local Knowledge"
      }
    },
    {
      "type": "node",
      "id": 7579924757,
      "lat": 12.9190762,
      "lon": 77.6092154,
      "tags": {
        "addr:district": "Bengaluru Urban",
        "addr:full": "Tavarekere, Aicobo Nagar, BTM Layout, Bengaluru",
        "addr:postcode": "560029",
        "addr:state": "Karnataka",
        "amenity": "clinic",
        "name": "Dr. Santosh Clinic",
        "source": "Local Knowledge"
      }
    },
    {
      "type": "node",
      "id": 7579924765,
      "lat": 12.9221202,
      "lon": 77.610766,
      "tags": {
        "addr:district": "Bengaluru Urban",
        "addr:full": "Madiwala, Bengaluru",
        "addr:postcode": "560068",
        "addr:state": "Karnataka",
        "amenity": "clinic",
        "healthcare": "clinic",
        "name": "Sri Jyoti Eye Clinic",
        "source": "Local Knowledge"
      }
    },
    {
      "type": "node",
      "id": 7579924779,
      "lat": 12.923857,
      "lon": 77.611355,
      "tags": {
        "addr:district": "Bengaluru Urban",
        "addr:full": "Taverekere, Bengaluru",
        "addr:postcode": "560029",
        "addr:state": "Karnataka",
        "amenity": "hospital",
        "name": "Spurthy Hospital",
        "source": "Local Knowledge"
      }
    },
    {
      "type": "node",
      "id": 10853180824,
      "lat": 12.9167576,
      "lon": 77.612333,
      "tags": {
        "addr:district": "banglore",
        "amenity": "bar",
        "brewery": "yes",
        "min_age": "18",
        "name": "New Friends Restaurant",
        "opening_hours": "Mo-Su 08:00-23:00",
        "wheelchair": "no"
      }
    },
    {
      "type": "node",
      "id": 11286212936,
      "lat": 12.916907,
      "lon": 77.6102709,
      "tags": {
        "access": "yes",
        "amenity": "charging_station",
        "brand": "BESCOM",
        "capacity": "2",
        "operator": "BESCOM"
      }
    },
    {
      "type": "node",
      "id": 11290801950,
      "lat": 12.9167061,
      "lon": 77.6125725,
      "tags": {
        "brand": "Honda",
        "brand:wikidata": "Q9584",
        "name": "Saphire Honda",
        "shop": "motorcycle"
      }
    },
    {
      "type": "node",
      "id": 11290801951,
      "lat": 12.9167344,
      "lon": 77.6121979,
      "tags": {
        "brand": "Bajaj",
        "brand:wikidata": "Q10910065",
        "name": "Amba Bajaj",
        "name:kn": "ಅಂಬ ಬಜಾಜ್",
        "shop": "motorcycle"
      }
    },
    {
      "type": "node",
      "id": 11309805450,
      "lat": 12.9167851,
      "lon": 77.6106449,
      "tags": {
        "amenity": "dentist",
        "check_date": "2023-11-03",
        "healthcare": "dentist",
        "name": "Dental Clinic"
      }
    },
    {
      "type": "node",
      "id": 11662314077,
      "lat": 12.9230141,
      "lon": 77.6144364,
      "tags": {
        "name": "Kanti Sweets",
        "shop": "confectionery"
      }
    },
    {
      "type": "node",
      "id": 11662314078,
      "lat": 12.9229366,
      "lon": 77.6143855,
      "tags": {
        "name": "Pai Mobiles",
        "shop": "mobile_phone"
      }
    },
    {
      "type": "node",
      "id": 12088455650,
      "lat": 12.9207693,
      "lon": 77.6132181,
      "tags": {
        "amenity": "restaurant",
        "name": "Muthashy's Restaurant"
      }
    },
    {
      "type": "node",
      "id": 13013958067,
      "lat": 12.9173863,
      "lon": 77.6089494,
      "tags": {
        "amenity": "pub",
        "name": "Boozy Dozzy"
      }
    },
    {
      "type": "node",
      "id": 13061848402,
      "lat": 12.9188057,
      "lon": 77.6104406,
      "tags": {
        "addr:street": "16th Main Road",
        "name": "KPN Fresh",
        "shop": "grocery"
      }
    },
    {
      "type": "node",
      "id": 13061852701,
      "lat": 12.9185982,
      "lon": 77.6104487,
      "tags": {
        "addr:street": "16th Main Road",
        "amenity": "school",
        "name": "Kidzee"
      }
    },
    {
      "type": "node",
      "id": 13061852801,
      "lat": 12.9188448,
      "lon": 77.6104372,
      "tags": {
        "addr:housenumber": "2 floor",
        "addr:street": "16th Main Road",
        "leisure": "fitness_centre",
        "name": "Cult"
      }
    },
    {
      "type": "node",
      "id": 13070296260,
      "lat": 12.9166478,
      "lon": 77.6081863,
      "tags": {
        "access": "yes",
        "amenity": "motorcycle_parking",
        "capacity": "216",
        "fee": "yes",
        "name": "BTM Layout Metro Parking",
        "operator": "BMRCL",
        "parking": "surface"
      }
    },
    {
      "type": "node",
      "id": 13073475396,
      "lat": 12.9196867,
      "lon": 77.6100483,
      "tags": {
        "amenity": "toilets",
        "check_date": "2025-08-16"
      }
    },
    {
      "type": "node",
      "id": 13073475397,
      "lat": 12.9194616,
      "lon": 77.6101447,
      "tags": {
        "leisure": "fitness_station",
        "sport": "fitness"
      }
    },
    {
      "type": "node",
      "id": 13073475398,
      "lat": 12.919287,
      "lon": 77.6101473,
      "tags": {
        "amenity": "bench",
        "armrest": "yes",
        "backrest": "yes",
        "seats": "2"
      }
    },
    {
      "type": "node",
      "id": 13073475399,
      "lat": 12.919243,
      "lon": 77.6101458,
      "tags": {
        "amenity": "bench",
        "armrest": "yes",
        "backrest": "yes",
        "seats": "2"
      }
    },
    {
      "type": "node",
      "id": 13073475400,
      "lat": 12.9191796,
      "lon": 77.6101436,
      "tags": {
        "amenity": "bench",
        "armrest": "yes",
        "backrest": "yes",
        "seats": "2"
      }
    },
    {
      "type": "node",
      "id": 13073503059,
      "lat": 12.9194397,
      "lon": 77.6098966,
      "tags": {
        "amenity": "shelter",
        "shelter_type": "gazebo"
      }
    },
    {
      "type": "node",
      "id": 13073505381,
      "lat": 12.9197769,
      "lon": 77.6120301,
      "tags": {
        "amenity": "kindergarten",
        "check_date": "2025-08-16"
      }
    },
    {
      "type": "node",
      "id": 13073507650,
      "lat": 12.9196986,
      "lon": 77.6108069,
      "tags": {
        "check_date": "2025-08-16",
        "name": "Digisol",
        "phone": "08026789042",
        "shop": "electrical",
        "website": "https://www.digisol.com"
      }
    },
    {
      "type": "node",
      "id": 13073507651,
      "lat": 12.9196735,
      "lon": 77.6110805,
      "tags": {
        "amenity": "cafe",
        "check_date": "2025-08-16",
        "name": "The Anjanadri Cafe"
      }
    },
    {
      "type": "node",
      "id": 13073507652,
      "lat": 12.9196668,
      "lon": 77.6111457,
      "tags": {
        "amenity": "cafe",
        "check_date": "2025-08-16",
        "name": "Thata Tea"
      }
    },
    {
      "type": "node",
      "id": 13073507653,
      "lat": 12.9196623,
      "lon": 77.6113209,
      "tags": {
        "amenity": "restaurant",
        "check_date": "2025-08-16",
        "name": "Shiva's Mess"
      }
    },
    {
      "type": "node",
      "id": 13073507654,
      "lat": 12.9196629,
      "lon": 77.6114297,
      "tags": {
        "check_date": "2025-08-16",
        "name": "Palace Men's Parlour",
        "shop": "hairdresser"
      }
    },
    {
      "type": "node",
      "id": 13073507655,
      "lat": 12.919654,
      "lon": 77.6114829,
      "tags": {
        "amenity": "fast_food",
        "check_date": "2025-08-16",
        "cuisine": "juice",
        "name": "Sri Gajana Fruit Juice Center"
      }
    },
    {
      "type": "node",
      "id": 13073507656,
      "lat": 12.9196523,
      "lon": 77.6115636,
      "tags": {
        "amenity": "restaurant",
        "check_date": "2025-08-16",
        "diet:halal": "yes",
        "name": "Ambur Hot Sum Biryani"
      }
    },
    {
      "type": "node",
      "id": 13073507801,
      "lat": 12.9190712,
      "lon": 77.6100176,
      "tags": {
        "amenity": "bench",
        "armrest": "yes",
        "backrest": "yes",
        "seats": "2"
      }
    },
    {
      "type": "node",
      "id": 13073507802,
      "lat": 12.9190418,
      "lon": 77.6100166,
      "tags": {
        "amenity": "bench",
        "backrest": "yes",
        "seats": "2"
      }
    },
    {
      "type": "node",
      "id": 13073507803,
      "lat": 12.9189971,
      "lon": 77.6100151,
      "tags": {
        "amenity": "bench",
        "backrest": "yes",
        "seats": "2"
      }
    },
    {
      "type": "node",
      "id": 13073507804,
      "lat": 12.9189695,
      "lon": 77.6099964,
      "tags": {
        "amenity": "bench",
        "backrest": "yes",
        "seats": "2"
      }
    },
    {
      "type": "node",
      "id": 13073507805,
      "lat": 12.9189345,
      "lon": 77.6100129,
      "tags": {
        "amenity": "bench",
        "backrest": "yes",
        "seats": "2"
      }
    },
    {
      "type": "node",
      "id": 13073507806,
      "lat": 12.9189007,
      "lon": 77.6100118,
      "tags": {
        "amenity": "bench",
        "backrest": "yes",
        "seats": "2"
      }
    },
    {
      "type": "node",
      "id": 13073507807,
      "lat": 12.918864,
      "lon": 77.6100105,
      "tags": {
        "amenity": "bench",
        "backrest": "yes",
        "seats": "2"
      }
    },
    {
      "type": "node",
      "id": 13073507808,
      "lat": 12.9188186,
      "lon": 77.6097984,
      "tags": {
        "amenity": "bench",
        "backrest": "yes",
        "seats": "2"
      }
    },
    {
      "type": "node",
      "id": 13073507809,
      "lat": 12.9188356,
      "lon": 77.6097993,
      "tags": {
        "amenity": "bench",
        "backrest": "yes",
        "seats": "2"
      }
    },
    {
      "type": "node",
      "id": 13073507810,
      "lat": 12.9188824,
      "lon": 77.6098016,
      "tags": {
        "amenity": "bench",
        "backrest": "yes",
        "seats": "2"
      }
    },
    {
      "type": "node",
      "id": 13073507811,
      "lat": 12.918898,
      "lon": 77.6098024,
      "tags": {
        "amenity": "bench",
        "backrest": "yes",
        "seats": "2"
      }
    },
    {
      "type": "node",
      "id": 13073507812,
      "lat": 12.9194432,
      "lon": 77.6098015,
      "tags": {
        "leisure": "fitness_station",
        "sport": "fitness"
      }
    },
    {
      "type": "node",
      "id": 13074467279,
      "lat": 12.9196066,
      "lon": 77.6117154,
      "tags": {
        "name": "Deals and Wheels",
        "shop": "car_repair"
      }
    },
    {
      "type": "node",
      "id": 13074467280,
      "lat": 12.9196523,
      "lon": 77.6114056,
      "tags": {
        "name": "Bhavani Sweets",
        "shop": "confectionery"
      }
    },
    {
      "type": "node",
      "id": 13074488693,
      "lat": 12.9189628,
      "lon": 77.6098365,
      "tags": {
        "amenity": "bench",
        "seats": "2"
      }
    },
    {
      "type": "node",
      "id": 13074488694,
      "lat": 12.9189484,
      "lon": 77.6098587,
      "tags": {
        "amenity": "bench",
        "seats": "2"
      }
    },
    {
      "type": "node",
      "id": 13074488695,
      "lat": 12.9189641,
      "lon": 77.6098841,
      "tags": {
        "amenity": "bench",
        "seats": "2"
      }
    },
    {
      "type": "node",
      "id": 13074488696,
      "lat": 12.9189942,
      "lon": 77.6098841,
      "tags": {
        "amenity": "bench",
        "seats": "2"
      }
    },
    {
      "type": "node",
      "id": 13074488697,
      "lat": 12.9190092,
      "lon": 77.609862,
      "tags": {
        "amenity": "bench",
        "seats": "2"
      }
    },
    {
      "type": "node",
      "id": 13074488698,
      "lat": 12.9189969,
      "lon": 77.6098409,
      "tags": {
        "amenity": "bench",
        "seats": "2"
      }
    },
    {
      "type": "node",
      "id": 13074488699,
      "lat": 12.9189825,
      "lon": 77.6098607,
      "tags": {
        "amenity": "shelter",
        "shelter_type": "gazebo"
      }
    },
    {
      "type": "node",
      "id": 13074488700,
      "lat": 12.91942,
      "lon": 77.6098724,
      "tags": {
        "amenity": "bench",
        "seats": "2"
      }
    },
    {
      "type": "node",
      "id": 13074488701,
      "lat": 12.9194056,
      "lon": 77.6098945,
      "tags": {
        "amenity": "bench",
        "seats": "2"
      }
    },
    {
      "type": "node",
      "id": 13074488702,
      "lat": 12.9194213,
      "lon": 77.60992,
      "tags": {
        "amenity": "bench",
        "seats": "2"
      }
    },
    {
      "type": "node",
      "id": 13074488703,
      "lat": 12.9194513,
      "lon": 77.60992,
      "tags": {
        "amenity": "bench",
        "seats": "2"
      }
    },
    {
      "type": "node",
      "id": 13074488704,
      "lat": 12.9194664,
      "lon": 77.6098979,
      "tags": {
        "amenity": "bench",
        "seats": "2"
      }
    },
    {
      "type": "node",
      "id": 13074488705,
      "lat": 12.9194541,
      "lon": 77.6098768,
      "tags": {
        "amenity": "bench",
        "seats": "2"
      }
    },
    {
      "type": "node",
      "id": 13108162629,
      "lat": 12.9167462,
      "lon": 77.6110379,
      "tags": {
        "amenity": "bank",
        "atm": "yes",
        "brand": "ICICI Bank",
        "brand:wikidata": "Q1653258",
        "check_date": "2025-08-30",
        "name": "ICICI Bank",
        "short_name": "ICICI",
        "wheelchair": "no"
      }
    },
    {
      "type": "way",
      "id": 125862469,
      "center": {
        "lat": 12.9178254,
        "lon": 77.6104897
      },
      "tags": {
        "leisure": "park",
        "name": "Udupi Garden Park",
        "opening_hours": "Mo-Su 05:00-10:00, Mo-Su 18:00-20:00"
      }
    },
    {
      "type": "way",
      "id": 125862474,
      "center": {
        "lat": 12.9192245,
        "lon": 77.6099548
      },
      "tags": {
        "barrier": "fence",
        "leisure": "park",
        "name": "BTM Park",
        "opening_hours": "Mo-Su 05:00-10:00, Mo-Su 18:00-20:00"
      }
    },
    {
      "type": "way",
      "id": 348197609,
      "center": {
        "lat": 12.9204387,
        "lon": 77.6087266
      },
      "tags": {
        "amenity": "place_of_worship",
        "building": "yes",
        "name": "Madeena Masjid",
        "name:kn": "ಮದೀನ ಮಸ್ಜಿದ್",
        "religion": "muslim"
      }
    },
    {
      "type": "way",
      "id": 348204163,
      "center": {
        "lat": 12.9169249,
        "lon": 77.6097614
      },
      "tags": {
        "amenity": "fuel",
        "brand": "Bharath Petroleum",
        "compressed_air": "yes",
        "name": "Advaith",
        "name:kn": "ಅದ್ವೈತ",
        "wheelchair": "limited"
      }
    },
    {
      "type": "way",
      "id": 348535509,
      "center": {
        "lat": 12.9167402,
        "lon": 77.6135797
      },
      "tags": {
        "access": "customers",
        "amenity": "parking"
      }
    },
    {
      "type": "way",
      "id": 348535547,
      "center": {
        "lat": 12.9169782,
        "lon": 77.6137437
      },
      "tags": {
        "amenity": "parking",
        "parking": "surface"
      }
    },
    {
      "type": "way",
      "id": 639368292,
      "center": {
        "lat": 12.9168827,
        "lon": 77.609506
      },
      "tags": {
        "addr:housenumber": "3",
        "amenity": "restaurant",
        "brand": "Adyar Ananda Bhavan",
        "brand:wikidata": "Q15178238",
        "building": "yes",
        "cuisine": "regional",
        "name": "Adyar Ananda Bhavan",
        "name:kn": "ಆದ್ಯಾರ್ ಆನಂದ ಭವನ",
        "opening_hours": "Mo-Su 07:00-23:00",
        "phone": "+91 073388 16688",
        "shop": "confectionery",
        "smoking": "no",
        "website": "https://aabsweets.in"
      }
    },
    {
      "type": "way",
      "id": 1422674088,
      "center": {
        "lat": 12.9191595,
        "lon": 77.6097836
      },
      "tags": {
        "leisure": "playground"
      }
    },
    {
      "type": "way",
      "id": 1422674089,
      "center": {
        "lat": 12.9189943,
        "lon": 77.609774
      },
      "tags": {
        "leisure": "playground"
      }
    }
  ]
}