{
  "area_name": "Nyayanga Badavane",
  "osm_id": 19883343,
  "osm_type": "relation",
  "place_type": "administrative",
  "amenity_count": 101,
  "amenities": [
    {
      "type": "node",
      "id": 1471774580,
      "lat": 13.0933012,
      "lon": 77.5825281,
      "tags": {
        "brand": "Kanti Sweets",
        "brand:wikidata": "Q124374180",
        "indoor_seating": "yes",
        "level": "0",
        "name": "Kanti Sweets",
        "outdoor_seating": "yes",
        "pastry": "yes",
        "shop": "bakery"
      }
    },
    {
      "type": "node",
      "id": 1471795956,
      "lat": 13.0950433,
      "lon": 77.5942125,
      "tags": {
        "amenity": "fast_food",
        "name": "Idli Express"
      }
    },
    {
      "type": "node",
      "id": 1868207640,
      "lat": 13.0835344,
      "lon": 77.5848473,
      "tags": {
        "amenity": "fast_food",
        "diet:vegetarian": "only",
        "name": "Pranav Upahara"
      }
    },
    {
      "type": "node",
      "id": 1868211653,
      "lat": 13.0823952,
      "lon": 77.5880175,
      "tags": {
        "name": "Aashirvad Department Stores",
        "shop": "supermarket"
      }
    },
    {
      "type": "node",
      "id": 1868211667,
      "lat": 13.0814599,
      "lon": 77.5881516,
      "tags": {
        "name": "Smart",
        "shop": "supermarket"
      }
    },
    {
      "type": "node",
      "id": 1868766407,
      "lat": 13.0810953,
      "lon": 77.5886994,
      "tags": {
        "amenity": "atm",
        "brand": "ICICI Bank",
        "brand:wikidata": "Q1653258",
        "operator": "ICICI Bank",
        "operator:wikidata": "Q1653258",
        "short_name": "ICICI"
      }
    },
    {
      "type": "node",
      "id": 1868767189,
      "lat": 13.0828092,
      "lon": 77.5880986,
      "tags": {
        "amenity": "school",
        "name": "Jnanadeepika School",
        "name:kn": "ಜ್ಞಾನದೀಪಿಕ ಶಾಲೆ"
      }
    },
    {
      "type": "node",
      "id": 1868804807,
      "lat": 13.0879495,
      "lon": 77.5861667,
      "tags": {
        "amenity": "place_of_worship",
        "name": "Shanishwara Temple",
        "name:kn": "ಶನೇಶ್ವರ ದೇವಸ್ಥಾನ",
        "religion": "hindu"
      }
    },
    {
      "type": "node",
      "id": 1868814393,
      "lat": 13.0811411,
      "lon": 77.5879745,
      "tags": {
        "amenity": "atm",
        "brand": "State Bank of India",
        "brand:wikidata": "Q1340361",
        "name": "SBI",
        "name:kn": "ಭಾರತೀಯ ಸ್ಟೇಟ್ ಬ್ಯಾಂಕ್",
        "operator": "State Bank of India",
        "operator:wikidata": "Q1340361",
        "short_name": "SBI"
      }
    },
    {
      "type": "node",
      "id": 1868817336,
      "lat": 13.0814337,
      "lon": 77.5880604,
      "tags": {
        "amenity": "pharmacy",
        "name": "Mediplus"
      }
    },
    {
      "type": "node",
      "id": 1868820078,
      "lat": 13.0797146,
      "lon": 77.5876527,
      "tags": {
        "amenity": "pharmacy",
        "name": "Siddheshwara Medicals, Judicial Layout, Allalasandra, Bangalore"
      }
    },
    {
      "type": "node",
      "id": 3994774226,
      "lat": 13.0811323,
      "lon": 77.584154,
      "tags": {
        "shop": "bakery"
      }
    },
    {
      "type": "node",
      "id": 3994774227,
      "lat": 13.0813597,
      "lon": 77.5839205,
      "tags": {
        "shop": "supermarket"
      }
    },
    {
      "type": "node",
      "id": 3994774229,
      "lat": 13.0814825,
      "lon": 77.5881095,
      "tags": {
        "amenity": "pharmacy",
        "brand": "MedPlus",
        "brand:wikidata": "Q65684234",
        "healthcare": "pharmacy",
        "name": "MedPlus"
      }
    },
    {
      "type": "node",
      "id": 4207077831,
      "lat": 13.0807749,
      "lon": 77.5879758,
      "tags": {
        "amenity": "atm",
        "brand": "Indian Bank",
        "brand:wikidata": "Q2003789",
        "name": "Indian Bank",
        "operator": "Indian Bank",
        "operator:wikidata": "Q2003789"
      }
    },
    {
      "type": "node",
      "id": 4207077832,
      "lat": 13.0814685,
      "lon": 77.5882534,
      "tags": {
        "amenity": "atm",
        "brand": "Axis Bank",
        "brand:wikidata": "Q2003549",
        "name": "Axis Bank",
        "name:kn": "ಆಕ್ಸಿಸ್ ಬ್ಯಾಂಕ್",
        "operator": "Axis Bank",
        "operator:wikidata": "Q2003549"
      }
    },
    {
      "type": "node",
      "id": 4207077833,
      "lat": 13.0822621,
      "lon": 77.5877293,
      "tags": {
        "amenity": "Syndicate bank"
      }
    },
    {
      "type": "node",
      "id": 4208532145,
      "lat": 13.092746,
      "lon": 77.5822152,
      "tags": {
        "amenity": "pharmacy",
        "name": "Care Pharma"
      }
    },
    {
      "type": "node",
      "id": 4208532152,
      "lat": 13.0931574,
      "lon": 77.5824215,
      "tags": {
        "name": "Black & White",
        "shop": "alcohol"
      }
    },
    {
      "type": "node",
      "id": 4834827722,
      "lat": 13.0865943,
      "lon": 77.5912059,
      "tags": {
        "amenity": "restaurant",
        "name": "9th Mile Dhaba",
        "name:en": "9th Mile Dhaba"
      }
    },
    {
      "type": "node",
      "id": 5964485847,
      "lat": 13.0938786,
      "lon": 77.594727,
      "tags": {
        "addr:postcode": "560064",
        "addr:street": "Bhagyada Bagilu Road",
        "brand": "Spar",
        "brand:wikidata": "Q610492",
        "name": "Spar",
        "organic": "yes",
        "shop": "supermarket",
        "website": "https://www.sparindia.com/",
        "wheelchair": "yes"
      }
    },
    {
      "type": "node",
      "id": 5964485853,
      "lat": 13.096768,
      "lon": 77.5924243,
      "tags": {
        "name": "Sleepwell Shoppe",
        "shop": "bed"
      }
    },
    {
      "type": "node",
      "id": 6938777940,
      "lat": 13.0945892,
      "lon": 77.594104,
      "tags": {
        "addr:district": "Bengaluru Urban",
        "addr:full": "No 150/3 Jnrt Mansion B.B. Road",
        "addr:postcode": "560064",
        "addr:state": "Karnataka",
        "amenity": "hospital",
        "check_date": "2024-09-27",
        "name": "North City CT Scan",
        "source": "OpenGovernmentData"
      }
    },
    {
      "type": "node",
      "id": 6992361985,
      "lat": 13.0941517,
      "lon": 77.5954046,
      "tags": {
        "air_conditioning": "yes",
        "amenity": "cinema",
        "brand": "INOX Leisure",
        "brand:wikidata": "Q5972349",
        "name": "INOX",
        "short_name": "INOX",
        "toilets:access": "customers",
        "toilets:wheelchair": "designated",
        "website": "https://www.inoxmovies.com",
        "wheelchair": "no"
      }
    },
    {
      "type": "node",
      "id": 7228221939,
      "lat": 13.0951352,
      "lon": 77.5956765,
      "tags": {
        "access": "permissive",
        "amenity": "parking"
      }
    },
    {
      "type": "node",
      "id": 7228221942,
      "lat": 13.094328,
      "lon": 77.5945392,
      "tags": {
        "access": "permissive",
        "amenity": "parking"
      }
    },
    {
      "type": "node",
      "id": 7228221958,
      "lat": 13.0940615,
      "lon": 77.5959621,
      "tags": {
        "access": "permissive",
        "amenity": "parking"
      }
    },
    {
      "type": "node",
      "id": 7579683252,
      "lat": 13.0938081,
      "lon": 77.5804166,
      "tags": {
        "addr:district": "Bengaluru Urban",
        "addr:full": "Chikka Bommasandra, Yelahanka, Bengaluru",
        "addr:postcode": "560065",
        "addr:state": "Karnataka",
        "amenity": "hospital",
        "name": "Kushi Hospital",
        "source": "Local Knowledge"
      }
    },
    {
      "type": "node",
      "id": 10302703774,
      "lat": 13.0943149,
      "lon": 77.5950327,
      "tags": {
        "amenity": "fast_food",
        "brand": "Popeyes",
        "brand:wikidata": "Q1330910",
        "brand:wikipedia": "en:Popeyes",
        "cuisine": "chicken",
        "delivery": "yes",
        "indoor_seating": "yes",
        "name": "Popeyes",
        "official_name": "Popeyes Louisiana Kitchen",
        "takeaway": "yes",
        "website": "https://www.popeyes.in/"
      }
    },
    {
      "type": "node",
      "id": 10600476805,
      "lat": 13.0945187,
      "lon": 77.5949442,
      "tags": {
        "addr:city": "Bangalore",
        "addr:country": "IN",
        "addr:housename": "The Galleria Mall",
        "addr:postcode": "560064",
        "addr:street": "Yelahanka Road",
        "addr:suburb": "Yelahanka",
        "amenity": "restaurant",
        "contact:facebook": "nasiandmee",
        "contact:instagram": "nasiandmee",
        "cuisine": "asian",
        "delivery": "yes",
        "level": "3",
        "name": "Nasi and Mee",
        "official_name": "Nasi and Mee Asian Canteen",
        "takeaway": "yes",
        "website": "https://www.nasiandmee.co.in/",
        "wheelchair": "yes"
      }
    },
    {
      "type": "node",
      "id": 10685071182,
      "lat": 13.0945273,
      "lon": 77.5953799,
      "tags": {
        "name": "Plum Goodness",
        "shop": "beauty",
        "website": "https://plumgoodness.com/",
        "wheelchair": "yes"
      }
    },
    {
      "type": "node",
      "id": 11054110922,
      "lat": 13.0927841,
      "lon": 77.593926,
      "tags": {
        "contact:website": "https://www.westside.com/",
        "name": "Westside",
        "shop": "clothes",
        "wheelchair": "yes"
      }
    },
    {
      "type": "node",
      "id": 11054110923,
      "lat": 13.0928279,
      "lon": 77.59389,
      "tags": {
        "name": "HomeTown",
        "shop": "furniture"
      }
    },
    {
      "type": "node",
      "id": 11054110924,
      "lat": 13.0931578,
      "lon": 77.5939788,
      "tags": {
        "brand": "Urban Ladder",
        "brand:wikidata": "Q18357397",
        "name": "Urban Ladder",
        "shop": "furniture"
      }
    },
    {
      "type": "node",
      "id": 11054110925,
      "lat": 13.0933683,
      "lon": 77.5939798,
      "tags": {
        "name": "Pai furniture",
        "shop": "furniture"
      }
    },
    {
      "type": "node",
      "id": 11054110926,
      "lat": 13.093505,
      "lon": 77.5940134,
      "tags": {
        "name": "Pai International",
        "shop": "electronics",
        "website": "https://www.paiinternational.in/",
        "wheelchair": "no"
      }
    },
    {
      "type": "node",
      "id": 11445505022,
      "lat": 13.0946893,
      "lon": 77.5802426,
      "tags": {
        "check_date": "2023-12-23",
        "name": "New Looks Opticals",
        "shop": "optician"
      }
    },
    {
      "type": "node",
      "id": 11445621455,
      "lat": 13.0949342,
      "lon": 77.5799615,
      "tags": {
        "amenity": "dentist",
        "check_date": "2023-12-23",
        "healthcare": "dentist",
        "name": "Veda Dental Clinic"
      }
    },
    {
      "type": "node",
      "id": 11445709029,
      "lat": 13.0948564,
      "lon": 77.5800486,
      "tags": {
        "check_date": "2023-12-23",
        "clothes": "underwear",
        "name": "Damensch",
        "shop": "clothes"
      }
    },
    {
      "type": "node",
      "id": 11445712780,
      "lat": 13.0947952,
      "lon": 77.5788924,
      "tags": {
        "check_date": "2023-12-23",
        "name": "Chamundi automobiles",
        "shop": "car_repair"
      }
    },
    {
      "type": "node",
      "id": 11445715301,
      "lat": 13.0950478,
      "lon": 77.5791087,
      "tags": {
        "check_date": "2023-12-23",
        "name": "Vivan Nandini Parlour",
        "shop": "dairy"
      }
    },
    {
      "type": "node",
      "id": 11445732991,
      "lat": 13.0953546,
      "lon": 77.5795116,
      "tags": {
        "check_date": "2023-12-23",
        "name": "Asha Sweets",
        "shop": "kiosk"
      }
    },
    {
      "type": "node",
      "id": 11445732992,
      "lat": 13.0950131,
      "lon": 77.5798847,
      "tags": {
        "check_date": "2023-12-23",
        "name": "Manjunatha Cycle Store",
        "shop": "bicycle"
      }
    },
    {
      "type": "node",
      "id": 11445747882,
      "lat": 13.0948257,
      "lon": 77.5800923,
      "tags": {
        "amenity": "restaurant",
        "check_date": "2023-12-23",
        "name": "Mandya Military hotel"
      }
    },
    {
      "type": "node",
      "id": 11448912544,
      "lat": 13.0937722,
      "lon": 77.5816744,
      "tags": {
        "amenity": "pharmacy",
        "brand": "Apollo Pharmacy",
        "brand:wikidata": "Q62562612",
        "check_date": "2023-12-23",
        "healthcare": "pharmacy",
        "name": "Apollo Pharmacy"
      }
    },
    {
      "type": "node",
      "id": 12040146268,
      "lat": 13.0925686,
      "lon": 77.5870061,
      "tags": {
        "female": "yes",
        "male": "yes",
        "name": "The Graceful Touch",
        "shop": "hairdresser"
      }
    },
    {
      "type": "node",
      "id": 12040191227,
      "lat": 13.0928385,
      "lon": 77.588681,
      "tags": {
        "amenity": "dentist",
        "healthcare": "dentist",
        "healthcare:speciality": "orthodontics",
        "name": "Clinica Dental & Orthodontics"
      }
    },
    {
      "type": "node",
      "id": 12040195124,
      "lat": 13.092557,
      "lon": 77.58692,
      "tags": {
        "indoor_seating": "no",
        "name": "Amma Pastries",
        "outdoor_seating": "no",
        "shop": "bakery",
        "takeaway": "only"
      }
    },
    {
      "type": "node",
      "id": 12058652875,
      "lat": 13.0924738,
      "lon": 77.5871063,
      "tags": {
        "cuisine": "ice_cream",
        "name": "RRV Enterprises",
        "shop": "wholesale",
        "wholesale": "food"
      }
    },
    {
      "type": "node",
      "id": 12058682958,
      "lat": 13.0926026,
      "lon": 77.5854229,
      "tags": {
        "amenity": "bank",
        "name": "DCB Bank",
        "name:kn": "ಡಿಸಿಬಿ ಬ್ಯಾಂಕ್"
      }
    },
    {
      "type": "node",
      "id": 12150675616,
      "lat": 13.0927823,
      "lon": 77.5879388,
      "tags": {
        "amenity": "bench",
        "backrest": "yes",
        "material": "stone"
      }
    },
    {
      "type": "node",
      "id": 12261041522,
      "lat": 13.0940929,
      "lon": 77.5810989,
      "tags": {
        "amenity": "atm",
        "brand": "Bank of India",
        "brand:wikidata": "Q2004439",
        "indoor": "yes",
        "operator": "Bank of India",
        "operator:wikidata": "Q2004439"
      }
    },
    {
      "type": "node",
      "id": 12379439187,
      "lat": 13.0925019,
      "lon": 77.5864596,
      "tags": {
        "amenity": "cafe",
        "indoor_seating": "no",
        "level": "4",
        "name": "The Lake Theory",
        "outdoor_seating": "yes"
      }
    },
    {
      "type": "node",
      "id": 12379448128,
      "lat": 13.0924756,
      "lon": 77.5864608,
      "tags": {
        "addr:street": "15th A Cross Road",
        "brand": "Ola",
        "level": "0",
        "name": "Ola",
        "shop": "scooter"
      }
    },
    {
      "type": "node",
      "id": 12508880935,
      "lat": 13.0929428,
      "lon": 77.5838981,
      "tags": {
        "name": "Bharath Cycle Hub",
        "service:bicycle:repair": "yes",
        "service:bicycle:retail": "yes",
        "service:bicycle:second_hand": "yes",
        "shop": "bicycle"
      }
    },
    {
      "type": "node",
      "id": 12809397081,
      "lat": 13.0943593,
      "lon": 77.5953948,
      "tags": {
        "addr:city": "Bengaluru",
        "addr:floor": "3",
        "amenity": "bar",
        "name": "Jollygunj",
        "toilets": "yes"
      }
    },
    {
      "type": "node",
      "id": 13013588710,
      "lat": 13.0927605,
      "lon": 77.5937399,
      "tags": {
        "amenity": "restaurant",
        "name": "Dolphins Bar and Kitchen 1977"
      }
    },
    {
      "type": "node",
      "id": 13076085261,
      "lat": 13.0926847,
      "lon": 77.5849671,
      "tags": {
        "name": "Resilience Kart",
        "phone": "+91 7899338432",
        "shop": "wholesale"
      }
    },
    {
      "type": "node",
      "id": 13076096084,
      "lat": 13.0926418,
      "lon": 77.5851813,
      "tags": {
        "name": "Sangam Hardware",
        "phone": "+91 8073704076",
        "shop": "hardware"
      }
    },
    {
      "type": "node",
      "id": 13241041576,
      "lat": 13.0926727,
      "lon": 77.5875975,
      "tags": {
        "contact:email": "a6techtown@gmail.com",
        "name": "A6 Tech Town",
        "phone": "+917090001979",
        "shop": "computer"
      }
    },
    {
      "type": "node",
      "id": 13331918925,
      "lat": 13.0951741,
      "lon": 77.5795299,
      "tags": {
        "amenity": "atm",
        "indoor": "yes",
        "operator": "TJSB Sahakari Bank Ltd."
      }
    },
    {
      "type": "way",
      "id": 41206188,
      "center": {
        "lat": 13.09101,
        "lon": 77.5874633
      },
      "tags": {
        "fishing": "permit",
        "leisure": "park",
        "name": "Allalasandra Lake",
        "natural": "water",
        "water": "lake"
      }
    },
    {
      "type": "way",
      "id": 42655444,
      "center": {
        "lat": 13.0942029,
        "lon": 77.5951482
      },
      "tags": {
        "landuse": "retail",
        "name": "The Galleria Mall",
        "opening_hours": "Mo-Fr 11:00-22:00; Sa,Su 10:00-22:00",
        "shop": "mall",
        "wheelchair": "yes"
      }
    },
    {
      "type": "way",
      "id": 82508422,
      "center": {
        "lat": 13.083563,
        "lon": 77.5908706
      },
      "tags": {
        "amenity": "college",
        "landuse": "farmland",
        "name": "Central Institute of Medicinal and Aromatic Plants",
        "name:kn": "ಕೇಂದ್ರಿಯ ಔಷಧೀಯ ಮತ್ತು ಸುವಾಸನೆ ಗಿಡಮೂಲಿಕೆಗಳ ಸಂಸ್ಥೆ"
      }
    },
    {
      "type": "way",
      "id": 345926521,
      "center": {
        "lat": 13.0930212,
        "lon": 77.5833128
      },
      "tags": {
        "access": "customers",
        "addr:housenumber": "299",
        "addr:street": "15th A Cross Road",
        "amenity": "parking",
        "fee": "no",
        "park_ride": "no",
        "parking": "surface"
      }
    },
    {
      "type": "way",
      "id": 345926542,
      "center": {
        "lat": 13.0943148,
        "lon": 77.58071
      },
      "tags": {
        "amenity": "hospital",
        "building": "hospital",
        "check_date": "2024-07-16",
        "name": "Dr. Agarwal Eye Hospital"
      }
    },
    {
      "type": "way",
      "id": 345947097,
      "center": {
        "lat": 13.093193,
        "lon": 77.5790758
      },
      "tags": {
        "amenity": "place_of_worship",
        "building": "temple",
        "religion": "hindu"
      }
    },
    {
      "type": "way",
      "id": 345947206,
      "center": {
        "lat": 13.0933589,
        "lon": 77.5791287
      },
      "tags": {
        "amenity": "place_of_worship",
        "building": "temple",
        "religion": "hindu"
      }
    },
    {
      "type": "way",
      "id": 345947269,
      "center": {
        "lat": 13.0913886,
        "lon": 77.5809139
      },
      "tags": {
        "amenity": "place_of_worship",
        "building": "temple"
      }
    },
    {
      "type": "way",
      "id": 345954381,
      "center": {
        "lat": 13.0899693,
        "lon": 77.5830596
      },
      "tags": {
        "amenity": "fast_food",
        "building": "yes"
      }
    },
    {
      "type": "way",
      "id": 363612211,
      "center": {
        "lat": 13.0863776,
        "lon": 77.5919964
      },
      "tags": {
        "alt_name": "Orchid Hotel",
        "landuse": "commercial",
        "leisure": "resort",
        "name": "Royal Orchid Hotel and Convention Centre",
        "swimming_pool": "outdoor",
        "tourism": "hotel"
      }
    },
    {
      "type": "way",
      "id": 396653999,
      "center": {
        "lat": 13.0776642,
        "lon": 77.5889375
      },
      "tags": {
        "leisure": "park"
      }
    },
    {
      "type": "way",
      "id": 420690859,
      "center": {
        "lat": 13.0844418,
        "lon": 77.5850569
      },
      "tags": {
        "amenity": "school",
        "building": "yes"
      }
    },
    {
      "type": "way",
      "id": 420763494,
      "center": {
        "lat": 13.0921608,
        "lon": 77.5901323
      },
      "tags": {
        "bicycle": "no",
        "bicycle:signed": "yes",
        "bridge": "yes",
        "highway": "footway",
        "layer": "1",
        "leisure": "track",
        "level": "1",
        "lit": "yes",
        "smoothness": "good",
        "sport": "running",
        "surface": "concrete"
      }
    },
    {
      "type": "way",
      "id": 420767450,
      "center": {
        "lat": 13.0894224,
        "lon": 77.5836289
      },
      "tags": {
        "amenity": "grave_yard"
      }
    },
    {
      "type": "way",
      "id": 420777805,
      "center": {
        "lat": 13.0866878,
        "lon": 77.5916755
      },
      "tags": {
        "leisure": "swimming_pool",
        "name": "Royal Orchid"
      }
    },
    {
      "type": "way",
      "id": 420783478,
      "center": {
        "lat": 13.0832451,
        "lon": 77.587491
      },
      "tags": {
        "leisure": "park"
      }
    },
    {
      "type": "way",
      "id": 774716165,
      "center": {
        "lat": 13.0945363,
        "lon": 77.5958351
      },
      "tags": {
        "leisure": "pitch",
        "sport": "basketball"
      }
    },
    {
      "type": "way",
      "id": 774716166,
      "center": {
        "lat": 13.0936935,
        "lon": 77.5950196
      },
      "tags": {
        "leisure": "garden"
      }
    },
    {
      "type": "way",
      "id": 774716167,
      "center": {
        "lat": 13.0932807,
        "lon": 77.5957476
      },
      "tags": {
        "access": "private",
        "leisure": "swimming_pool"
      }
    },
    {
      "type": "way",
      "id": 774716169,
      "center": {
        "lat": 13.0943371,
        "lon": 77.5958748
      },
      "tags": {
        "leisure": "pitch",
        "sport": "tennis"
      }
    },
    {
      "type": "way",
      "id": 774716173,
      "center": {
        "lat": 13.095358,
        "lon": 77.5938103
      },
      "tags": {
        "amenity": "police",
        "check_date": "2024-07-16",
        "name": "Yelahanka Police Station",
        "name:kn": "ಯಲಹಂಕ ಆರಕ್ಷಕ ಠಾಣೆ"
      }
    },
    {
      "type": "way",
      "id": 774716191,
      "center": {
        "lat": 13.0906131,
        "lon": 77.5894337
      },
      "tags": {
        "leisure": "sports_centre",
        "name": "Atal Bihari Vajpayee Swim Centre",
        "name:etymology:wikidata": "Q233289",
        "sport": "swimming",
        "swimming_pool": "outdoor"
      }
    },
    {
      "type": "way",
      "id": 774716193,
      "center": {
        "lat": 13.0912753,
        "lon": 77.5935109
      },
      "tags": {
        "brand": "Suzuki",
        "landuse": "commercial",
        "name": "Nexa",
        "shop": "car"
      }
    },
    {
      "type": "way",
      "id": 1119921709,
      "center": {
        "lat": 13.0892036,
        "lon": 77.5893317
      },
      "tags": {
        "amenity": "recycling",
        "name": "Dry Waste Collection Center",
        "recycling_type": "centre"
      }
    },
    {
      "type": "way",
      "id": 1186494030,
      "center": {
        "lat": 13.0908619,
        "lon": 77.5873938
      },
      "tags": {
        "leisure": "park"
      }
    },
    {
      "type": "way",
      "id": 1186494032,
      "center": {
        "lat": 13.0905915,
        "lon": 77.5893921
      },
      "tags": {
        "access": "permissive",
        "leisure": "swimming_pool",
        "name": "Allalasandra Swimming Pool",
        "name:kn": "ಅಲ್ಲಾಳಸಂದ್ರ ಈಜುಕೊಳ"
      }
    },
    {
      "type": "way",
      "id": 1186494033,
      "center": {
        "lat": 13.0899377,
        "lon": 77.5891319
      },
      "tags": {
        "building": "sports_hall",
        "leisure": "sports_centre",
        "name": "Kranthiveera Sangollirayanna Indoor Badminton Court",
        "name:etymology:wikidata": "Q10983724",
        "sport": "badminton",
        "swimming_pool": "no"
      }
    },
    {
      "type": "way",
      "id": 1186494035,
      "center": {
        "lat": 13.0874394,
        "lon": 77.5895866
      },
      "tags": {
        "amenity": "college",
        "name": "Manipal Institute of Regenerative Medicine"
      }
    },
    {
      "type": "way",
      "id": 1205497170,
      "center": {
        "lat": 13.0929116,
        "lon": 77.5892036
      },
      "tags": {
        "addr:city": "Bangalore",
        "addr:housenumber": "981",
        "addr:postcode": "560064",
        "addr:street": "12th A Main Road",
        "amenity": "bank",
        "building": "commercial",
        "name": "Bharath Co-Operative Bank",
        "phone": "+91 80 2856 2074",
        "wheelchair": "no"
      }
    },
    {
      "type": "way",
      "id": 1231715974,
      "center": {
        "lat": 13.0939133,
        "lon": 77.5787692
      },
      "tags": {
        "amenity": "school",
        "check_date": "2023-12-23",
        "name": "SJV World School",
        "old_name": "Brite Educational Institutition"
      }
    },
    {
      "type": "way",
      "id": 1231728189,
      "center": {
        "lat": 13.0947449,
        "lon": 77.5795031
      },
      "tags": {
        "leisure": "park"
      }
    },
    {
      "type": "way",
      "id": 1231885686,
      "center": {
        "lat": 13.0934716,
        "lon": 77.5822332
      },
      "tags": {
        "building": "retail",
        "name": "SiriSamruddhi Gold Palace",
        "shop": "jewelry"
      }
    },
    {
      "type": "way",
      "id": 1233497387,
      "center": {
        "lat": 13.0937447,
        "lon": 77.5814112
      },
      "tags": {
        "leisure": "park"
      }
    },
    {
      "type": "way",
      "id": 1243274910,
      "center": {
        "lat": 13.0872617,
        "lon": 77.5921952
      },
      "tags": {
        "amenity": "fuel",
        "brand": "Nayara",
        "brand:wikidata": "Q5399377",
        "name": "Nayara"
      }
    },
    {
      "type": "way",
      "id": 1243274913,
      "center": {
        "lat": 13.086954,
        "lon": 77.5907296
      },
      "tags": {
        "access": "private",
        "amenity": "parking",
        "parking": "surface"
      }
    },
    {
      "type": "way",
      "id": 1272689206,
      "center": {
        "lat": 13.092155,
        "lon": 77.5944272
      },
      "tags": {
        "amenity": "fuel",
        "brand": "Hindustan Petroleum",
        "brand:wikidata": "Q1619375",
        "landuse": "commercial",
        "name": "HP",
        "name:kn": "ಹಿಂದುಸ್ತಾನ್ ಪೆಟ್ರೋಲಿಯಂ",
        "official_name": "Hindustan Petroleum"
      }
    },
    {
      "type": "way",
      "id": 1298823129,
      "center": {
        "lat": 13.0924907,
        "lon": 77.5863327
      },
      "tags": {
        "addr:district": "Bengaluru Urban",
        "addr:housenumber": "971/24",
        "addr:postcode": "560064",
        "addr:state": "Karnataka",
        "addr:street": "15th A Cross",
        "amenity": "hospital",
        "building": "hospital",
        "building:colour": "#cccccc",
        "building:levels": "4",
        "name": "Chaitanya Medical Centre Maternity and Surgical Care",
        "opening_hours": "24/7",
        "roof:levels": "1",
        "roof:shape": "flat",
        "source": "OpenGovernmentData",
        "wheelchair": "yes"
      }
    },
    {
      "type": "way",
      "id": 1307863852,
      "center": {
        "lat": 13.0926897,
        "lon": 77.5848338
      },
      "tags": {
        "addr:housenumber": "971/37",
        "addr:street": "15th A Cross Road",
        "amenity": "clinic",
        "building": "hospital",
        "healthcare:speciality": "ophthalmology",
        "name": "Abhishek Nethradhama",
        "opening_hours": "Mo-Sa 10:30-14:30,16:30-19:30",
        "phone": "+917795715203",
        "wheelchair": "yes"
      }
    },
    {
      "type": "way",
      "id": 1324157726,
      "center": {
        "lat": 13.0875097,
        "lon": 77.5922646
      },
      "tags": {
        "amenity": "fuel",
        "brand": "Essar",
        "brand:wikidata": "Q5399372",
        "brand:wikipedia": "https://en.m.wikipedia.org/wiki/Essar_Energy",
        "name": "Essar"
      }
    },
    {
      "type": "way",
      "id": 1324159678,
      "center": {
        "lat": 13.0901538,
        "lon": 77.5892316
      },
      "tags": {
        "access": "customers",
        "amenity": "parking",
        "park_ride": "no",
        "parking": "surface",
        "surface": "paving_stones"
      }
    }
  ]
}