{
  "area_name": "Okalipuram",
  "osm_id": 19884559,
  "osm_type": "relation",
  "place_type": "administrative",
  "amenity_count": 7,
  "amenities": [
    {
      "type": "node",
      "id": 5168560646,
      "lat": 12.9821863,
      "lon": 77.5660957,
      "tags": {
        "amenity": "atm",
        "brand": "Axis Bank",
        "brand:wikidata": "Q2003549",
        "name": "Axis Bank",
        "operator": "Axis Bank",
        "operator:wikidata": "Q2003549"
      }
    },
    {
      "type": "node",
      "id": 5470238026,
      "lat": 12.98542,
      "lon": 77.563284,
      "tags": {
        "leisure": "fitness_station"
      }
    },
    {
      "type": "node",
      "id": 6681215507,
      "lat": 12.9822565,
      "lon": 77.5656304,
      "tags": {
        "name": "Vega Helmets",
        "shop": "motorcycle"
      }
    },
    {
      "type": "node",
      "id": 7043907085,
      "lat": 12.9823104,
      "lon": 77.5652838,
      "tags": {
        "amenity": "dentist",
        "name": "Parhi's International Dental Centre",
        "name:en": "Pathi's International Dental Centre"
      }
    },
    {
      "type": "node",
      "id": 9909999109,
      "lat": 12.9823349,
      "lon": 77.5653427,
      "tags": {
        "name": "Leo Leon Lightings",
        "shop": "lighting"
      }
    },
    {
      "type": "way",
      "id": 191035682,
      "center": {
        "lat": 12.9830124,
        "lon": 77.5618384
      },
      "tags": {
        "addr:city": "Bangalore",
        "addr:street": "Link Road",
        "amenity": "cinema",
        "name": "Sujatha Theater",
        "name:kn": "ಸುಜತಾ",
        "wheelchair": "no"
      }
    },
    {
      "type": "way",
      "id": 1047549733,
      "center": {
        "lat": 12.9822336,
        "lon": 77.5664076
      },
      "tags": {
        "amenity": "fuel",
        "brand": "Shell",
        "brand:wikidata": "Q110716465",
        "compressed_air": "yes",
        "name": "Shell",
        "name:kn": "ಶೆಲ್",
        "operator": "Shell"
      }
    }
  ]
}