{
  "area_name": "P R Layout",
  "osm_id": 3222889690,
  "osm_type": "node",
  "place_type": "neighbourhood",
  "amenity_count": 521,
  "amenities": [
    {
      "type": "node",
      "id": 413368456,
      "lat": 12.9563782,
      "lon": 77.7108662,
      "tags": {
        "addr:housenumber": "35/1A",
        "addr:postcode": "560037",
        "addr:street": "Varthur Road",
        "amenity": "restaurant",
        "cuisine": "chinese",
        "phone": "+91-80-28540039"
      }
    },
    {
      "type": "node",
      "id": 513394998,
      "lat": 12.9528644,
      "lon": 77.6994421,
      "tags": {
        "addr:city": "Marathahalli, Bangalore",
        "addr:street": "Outer Ring Road",
        "name": "Danube Home",
        "shop": "furniture"
      }
    },
    {
      "type": "node",
      "id": 515736893,
      "lat": 12.9504549,
      "lon": 77.6999246,
      "tags": {
        "addr:city": "Marathahalli, Bangalore",
        "addr:housename": "Sri Sapthagiri Complex",
        "addr:housenumber": "90/3",
        "addr:postcode": "560034",
        "addr:street": "Outer Ring Road (Opp. Innovative Multiplex)",
        "amenity": "restaurant",
        "cuisine": "chinese",
        "indoor_seating": "yes",
        "level": "0",
        "name": "Yo China",
        "name:kn": "ಯೊ ಚೈನ",
        "outdoor_seating": "no",
        "phone": "+91-80-40980666",
        "website": "http://www.yo-china.com/"
      }
    },
    {
      "type": "node",
      "id": 975680681,
      "lat": 12.9559302,
      "lon": 77.7112689,
      "tags": {
        "addr:city": "Bangalore",
        "addr:street": "Varthur Road",
        "amenity": "hospital",
        "emergency": "yes",
        "healthcare": "hospital",
        "name": "Yashomathi Hospitals"
      }
    },
    {
      "type": "node",
      "id": 984208326,
      "lat": 12.9497553,
      "lon": 77.6998051,
      "tags": {
        "addr:city": "Marathahalli, Bangalore",
        "addr:housenumber": "90/4 (1st Floor)",
        "addr:postcode": "560037",
        "addr:street": "Outer Ring Road",
        "amenity": "restaurant",
        "indoor_seating": "yes",
        "level": "1",
        "outdoor_seating": "no"
      }
    },
    {
      "type": "node",
      "id": 1024500710,
      "lat": 12.9494661,
      "lon": 77.7026457,
      "tags": {
        "amenity": "college",
        "name": "Dr. Shyamala Reddy Dental College"
      }
    },
    {
      "type": "node",
      "id": 1038847086,
      "lat": 12.9589311,
      "lon": 77.7014273,
      "tags": {
        "amenity": "place_of_worship",
        "check_date": "2023-12-28",
        "name": "Anjaneya Temple",
        "name:kn": "ಆಂಜನೇಯ ದೇವಸ್ಥಾನ",
        "religion": "hindu",
        "wheelchair": "limited"
      }
    },
    {
      "type": "node",
      "id": 1047248383,
      "lat": 12.9570571,
      "lon": 77.7091042,
      "tags": {
        "addr:city": "Marathhalli",
        "addr:postcode": "560037",
        "addr:street": "HAL Airport Road (near Marathahalli Bridge)",
        "amenity": "restaurant",
        "name": "Spice Garden",
        "name:kn": "ಸ್ಪೈಸ್ ಗಾರ್ಡನ್",
        "phone": "+91-80-28476688;+91-80-65636522;+91-80-41705020",
        "wheelchair": "limited"
      }
    },
    {
      "type": "node",
      "id": 1135052608,
      "lat": 12.9611813,
      "lon": 77.7054148,
      "tags": {
        "amenity": "pharmacy"
      }
    },
    {
      "type": "node",
      "id": 1150839598,
      "lat": 12.9568527,
      "lon": 77.6990468,
      "tags": {
        "addr:district": "Bengaluru Urban",
        "addr:full": "93/1, 565, Srinivasa Complex Ring Road Attached To Main Road",
        "addr:postcode": "560037",
        "addr:state": "Karnataka",
        "addr:street": "Varthur Road",
        "amenity": "hospital",
        "level": "0",
        "name": "New Akshay Mallya Hospital",
        "source": "OpenGovernmentData"
      }
    },
    {
      "type": "node",
      "id": 1150839601,
      "lat": 12.9569453,
      "lon": 77.6992375,
      "tags": {
        "addr:street": "Varthur Road",
        "brand": "Puma",
        "brand:wikidata": "Q157064",
        "name": "Puma",
        "name:kn": "ಪೂಮ",
        "shop": "clothes"
      }
    },
    {
      "type": "node",
      "id": 1150839607,
      "lat": 12.956906,
      "lon": 77.698972,
      "tags": {
        "addr:street": "Varthur Road",
        "name": "Happy Mart",
        "shop": "convenience"
      }
    },
    {
      "type": "node",
      "id": 1150839622,
      "lat": 12.9569514,
      "lon": 77.6992246,
      "tags": {
        "addr:street": "Varthur Road",
        "brand": "Reebok",
        "brand:wikidata": "Q466183",
        "name": "Reebok",
        "shop": "clothes"
      }
    },
    {
      "type": "node",
      "id": 1150839626,
      "lat": 12.9568693,
      "lon": 77.6987024,
      "tags": {
        "addr:street": "Varthur Road",
        "name": "Lilliput",
        "shop": "clothes"
      }
    },
    {
      "type": "node",
      "id": 1168221740,
      "lat": 12.9570622,
      "lon": 77.7087772,
      "tags": {
        "amenity": "restaurant",
        "brand": "Pizza Hut",
        "brand:wikidata": "Q191615",
        "cuisine": "pizza",
        "name": "Pizza Hut",
        "name:kn": "ಪಿಟ್ಸ ಹಟ್",
        "smoking": "no"
      }
    },
    {
      "type": "node",
      "id": 1196677392,
      "lat": 12.949723,
      "lon": 77.699799,
      "tags": {
        "addr:city": "Marathahalli, Bangalore",
        "addr:postcode": "560037",
        "addr:street": "Outer Ring Road",
        "amenity": "bank",
        "atm": "yes",
        "brand": "ICICI Bank",
        "brand:wikidata": "Q1653258",
        "check_date": "2023-08-05",
        "name": "ICICI Bank",
        "name:en": "ICICI Bank",
        "name:kn": "ಐಸಿಐಸಿಐ ಬ್ಯಾಂಕು",
        "short_name": "ICICI",
        "website": "https://www.icicibank.com"
      }
    },
    {
      "type": "node",
      "id": 1260719442,
      "lat": 12.9531128,
      "lon": 77.6998042,
      "tags": {
        "name": "Hitech Communication",
        "operator": "Nokia",
        "shop": "mobile_phone"
      }
    },
    {
      "type": "node",
      "id": 1275552778,
      "lat": 12.949666,
      "lon": 77.6991298,
      "tags": {
        "addr:city": "Marathahalli, Bangalore",
        "addr:street": "Outer Ring Road",
        "check_date": "2023-09-19",
        "name": "Damro",
        "shop": "furniture"
      }
    },
    {
      "type": "node",
      "id": 1428600902,
      "lat": 12.9573067,
      "lon": 77.7087044,
      "tags": {
        "addr:city": "Marathahalli, Bangalore",
        "addr:housenumber": "S1,S2",
        "addr:street": "Spice Garden Compound Road",
        "amenity": "hospital",
        "check_date": "2024-08-25",
        "emergency": "no",
        "name": "Tenet diagnostics"
      }
    },
    {
      "type": "node",
      "id": 1428601793,
      "lat": 12.9573761,
      "lon": 77.7086858,
      "tags": {
        "addr:city": "Marathahalli, Bangalore",
        "amenity": "pharmacy",
        "name": "Trust Pharmacy"
      }
    },
    {
      "type": "node",
      "id": 1464786131,
      "lat": 12.9567592,
      "lon": 77.708841,
      "tags": {
        "name": "Village Hypermart",
        "shop": "supermarket"
      }
    },
    {
      "type": "node",
      "id": 1465206235,
      "lat": 12.9565185,
      "lon": 77.6979303,
      "tags": {
        "name": "Citizen Bakery",
        "shop": "bakery"
      }
    },
    {
      "type": "node",
      "id": 1465208705,
      "lat": 12.9560062,
      "lon": 77.6979089,
      "tags": {
        "amenity": "bar",
        "name": "Tirumala Bar And Resturant"
      }
    },
    {
      "type": "node",
      "id": 1465210892,
      "lat": 12.955452,
      "lon": 77.697866,
      "tags": {
        "amenity": "restaurant",
        "name": "Megha Restaurant",
        "name:kn": "ಮೇಘ ರೆಸ್ಟೋರೆಂಟ್"
      }
    },
    {
      "type": "node",
      "id": 1465217391,
      "lat": 12.9548561,
      "lon": 77.6981235,
      "tags": {
        "addr:housename": "little flower bakery",
        "addr:street": "Tuasi theater rd, 3rd cross, Marathalli east",
        "name": "Little Flower Bakery",
        "shop": "bakery"
      }
    },
    {
      "type": "node",
      "id": 1506418133,
      "lat": 12.9529636,
      "lon": 77.7004169,
      "tags": {
        "name": "Girias Electronics",
        "payment:credit_cards": "yes",
        "payment:debit_cards": "yes",
        "shop": "hifi",
        "wheelchair": "no"
      }
    },
    {
      "type": "node",
      "id": 1657041179,
      "lat": 12.957444,
      "lon": 77.7091287,
      "tags": {
        "amenity": "restaurant",
        "name": "Holly Flames",
        "name:kn": "ಹಾಲಿ ಫ್ಲೇಮ್ಸ್"
      }
    },
    {
      "type": "node",
      "id": 1657041224,
      "lat": 12.957695,
      "lon": 77.709012,
      "tags": {
        "amenity": "cafe",
        "cuisine": "coffee_shop",
        "name": "Vista Lounge"
      }
    },
    {
      "type": "node",
      "id": 1752226886,
      "lat": 12.9535994,
      "lon": 77.6980241,
      "tags": {
        "alt_name": "Tulashi Restaurant",
        "amenity": "restaurant",
        "cuisine": "Odia",
        "name": "Odia Mess",
        "name:kn": "ಒಡಿಯ ಮೆಸ್"
      }
    },
    {
      "type": "node",
      "id": 1752570100,
      "lat": 12.9573026,
      "lon": 77.7006958,
      "tags": {
        "amenity": "bank",
        "brand": "State Bank of India",
        "brand:wikidata": "Q1340361",
        "brand:wikipedia": "en:State Bank of India",
        "check_date": "2023-08-05",
        "name": "State Bank of India",
        "name:kn": "ಭಾರತೀಯ ಸ್ಟೇಟ್ ಬ್ಯಾಂಕ್",
        "short_name": "SBI",
        "website": "https://www.sbi.co.in",
        "wheelchair": "no"
      }
    },
    {
      "type": "node",
      "id": 1752602639,
      "lat": 12.9572537,
      "lon": 77.7006526,
      "tags": {
        "amenity": "atm",
        "branch": "24x7 e Lobby",
        "brand": "State Bank of India",
        "brand:wikidata": "Q1340361",
        "check_date": "2023-08-05",
        "fee": "no",
        "name": "State Bank of India",
        "name:kn": "ಎಸ್ ಬಿ ಐ",
        "operator": "State Bank of India",
        "operator:wikidata": "Q1340361",
        "short_name": "SBI",
        "wheelchair": "no"
      }
    },
    {
      "type": "node",
      "id": 1752648998,
      "lat": 12.9557166,
      "lon": 77.6979892,
      "tags": {
        "amenity": "pharmacy",
        "check_date": "2025-11-15",
        "wheelchair": "no"
      }
    },
    {
      "type": "node",
      "id": 1752649580,
      "lat": 12.9536608,
      "lon": 77.6980039,
      "tags": {
        "amenity": "pharmacy",
        "wheelchair": "no"
      }
    },
    {
      "type": "node",
      "id": 1752650060,
      "lat": 12.9559362,
      "lon": 77.6975091,
      "tags": {
        "shop": "kiosk"
      }
    },
    {
      "type": "node",
      "id": 1752651317,
      "lat": 12.9560469,
      "lon": 77.6979205,
      "tags": {
        "shop": "greengrocer"
      }
    },
    {
      "type": "node",
      "id": 1837245438,
      "lat": 12.9559516,
      "lon": 77.7115294,
      "tags": {
        "name": "Car Care",
        "shop": "car_parts"
      }
    },
    {
      "type": "node",
      "id": 1848054126,
      "lat": 12.9519912,
      "lon": 77.706771,
      "tags": {
        "amenity": "school",
        "name": "Government School Munekolala",
        "name:kn": "ಸರ್ಕಾರಿ ಶಾಲೆ ಮುನೆಕೊಲ"
      }
    },
    {
      "type": "node",
      "id": 2105029468,
      "lat": 12.9571022,
      "lon": 77.7022467,
      "tags": {
        "name": "Chemmannur Jewelry",
        "shop": "jewelry"
      }
    },
    {
      "type": "node",
      "id": 2230257224,
      "lat": 12.9497606,
      "lon": 77.6991216,
      "tags": {
        "addr:city": "Marathahalli",
        "addr:street": "Outer Ring Road",
        "amenity": "bank",
        "atm": "yes",
        "brand": "ICICI Bank",
        "brand:wikidata": "Q1653258",
        "name": "ICICI Bank",
        "name:kn": "ಐಸಿಐಸಿಐ ಬ್ಯಾಂಕು",
        "short_name": "ICICI"
      }
    },
    {
      "type": "node",
      "id": 2319910802,
      "lat": 12.9527992,
      "lon": 77.7003542,
      "tags": {
        "name": "Acer Mall",
        "shop": "electronics"
      }
    },
    {
      "type": "node",
      "id": 2319910810,
      "lat": 12.9576091,
      "lon": 77.7009192,
      "tags": {
        "amenity": "bank",
        "brand": "Canara Bank",
        "brand:en": "Canara Bank",
        "brand:hi": "केनरा बैंक",
        "brand:kn": "ಕೆನರಾ ಬ್ಯಾಂಕ್",
        "brand:pa": "ਕੇਨਰਾ ਬੈਂਕ",
        "brand:pnb": "کینرا بینک",
        "brand:ur": "کینرا بینک",
        "brand:wikidata": "Q2003777",
        "brand:wikipedia": "en:Canara Bank",
        "brand:wikipedia:pa": "ਕੇਨਰਾ ਬੈਂਕ",
        "name": "Canara Bank",
        "name:en": "Canara Bank",
        "name:hi": "केनरा बैंक",
        "name:kn": "ಕೆನರಾ ಬ್ಯಾಂಕ್",
        "name:pa": "ਕੇਨਰਾ ਬੈਂਕ",
        "name:pnb": "کینرا بینک",
        "name:ur": "کینرا بینک",
        "website": "https://www.canarabank.com/"
      }
    },
    {
      "type": "node",
      "id": 2319910815,
      "lat": 12.9528356,
      "lon": 77.7003615,
      "tags": {
        "amenity": "ice_cream",
        "indoor_seating": "yes",
        "name": "Iceberg",
        "outdoor_seating": "no"
      }
    },
    {
      "type": "node",
      "id": 2319910827,
      "lat": 12.9608453,
      "lon": 77.7012326,
      "tags": {
        "amenity": "bank",
        "atm": "yes",
        "brand": "IndusInd Bank",
        "brand:wikidata": "Q2040323",
        "brand:wikipedia": "en:IndusInd Bank",
        "check_date": "2025-04-04",
        "name": "IndusInd Bank",
        "name:en": "IndusInd Bank",
        "website": "https://www.indusind.com",
        "wheelchair": "no"
      }
    },
    {
      "type": "node",
      "id": 2319910852,
      "lat": 12.9605015,
      "lon": 77.7016821,
      "tags": {
        "addr:floor": "3",
        "amenity": "restaurant",
        "check_date": "2023-07-08",
        "indoor_seating": "yes",
        "level": "3",
        "name": "Nizam's Biryani House",
        "outdoor_seating": "no",
        "source": "survey",
        "wheelchair": "no"
      }
    },
    {
      "type": "node",
      "id": 2319910853,
      "lat": 12.9504876,
      "lon": 77.6999864,
      "tags": {
        "amenity": "pub",
        "level": "3",
        "name": "Purple Haze"
      }
    },
    {
      "type": "node",
      "id": 2319910855,
      "lat": 12.9611673,
      "lon": 77.7012927,
      "tags": {
        "name": "Reliance Mobile Store",
        "shop": "mobile_phone",
        "wheelchair": "no"
      }
    },
    {
      "type": "node",
      "id": 2319910861,
      "lat": 12.9609553,
      "lon": 77.7012529,
      "tags": {
        "amenity": "bank",
        "atm": "yes",
        "brand": "State Bank of India",
        "brand:wikidata": "Q1340361",
        "brand:wikipedia": "en:State Bank of India",
        "name": "State Bank of India",
        "name:kn": "ಭಾರತೀಯ ಸ್ಟೇಟ್ ಬ್ಯಾಂಕ್",
        "short_name": "SBI",
        "website": "https://www.sbi.co.in",
        "wheelchair": "no"
      }
    },
    {
      "type": "node",
      "id": 2319910863,
      "lat": 12.9567268,
      "lon": 77.7017644,
      "tags": {
        "amenity": "restaurant",
        "name": "Suchitra Biryani",
        "wheelchair": "no"
      }
    },
    {
      "type": "node",
      "id": 2319910871,
      "lat": 12.9616519,
      "lon": 77.7019055,
      "tags": {
        "name": "iDeal Drapes N Decor",
        "shop": "furniture"
      }
    },
    {
      "type": "node",
      "id": 2319911059,
      "lat": 12.9604135,
      "lon": 77.701674,
      "tags": {
        "amenity": "bank",
        "atm": "yes",
        "brand": "Karnataka Bank",
        "brand:wikidata": "Q2042632",
        "name": "Karnataka Bank",
        "operator": "Karnataka Bank"
      }
    },
    {
      "type": "node",
      "id": 2510955873,
      "lat": 12.955947,
      "lon": 77.7117133,
      "tags": {
        "amenity": "restaurant",
        "check_date": "2025-09-03",
        "name": "Bageecha Family Restaurant",
        "phone": "+91 80 2852 5124",
        "website": "http://www.bageecha.net.in/"
      }
    },
    {
      "type": "node",
      "id": 2534917862,
      "lat": 12.9560226,
      "lon": 77.7091896,
      "tags": {
        "amenity": "place_of_worship",
        "check_date": "2025-09-03",
        "name": "Sri Muneeshwara Temple",
        "name:kn": "ಮುನೇಶ್ವರ ದೇವಸ್ಥಾನ",
        "religion": "hindu"
      }
    },
    {
      "type": "node",
      "id": 2653583620,
      "lat": 12.9525408,
      "lon": 77.7060929,
      "tags": {
        "amenity": "bank",
        "brand": "State Bank of India",
        "brand:wikidata": "Q1340361",
        "name": "State Bank of India",
        "short_name": "SBI"
      }
    },
    {
      "type": "node",
      "id": 2678554080,
      "lat": 12.957602,
      "lon": 77.7086578,
      "tags": {
        "amenity": "studio",
        "name": "G K Vale",
        "type": "Photo_Studio"
      }
    },
    {
      "type": "node",
      "id": 2678556603,
      "lat": 12.9569985,
      "lon": 77.7032975,
      "tags": {
        "amenity": "restaurant",
        "name": "New Tandoori Point",
        "wheelchair": "no"
      }
    },
    {
      "type": "node",
      "id": 2678583205,
      "lat": 12.948708,
      "lon": 77.707873,
      "tags": {
        "amenity": "pharmacy"
      }
    },
    {
      "type": "node",
      "id": 2678583342,
      "lat": 12.9486097,
      "lon": 77.707873,
      "tags": {
        "amenity": "clinic",
        "name": "Sanjeevini Clinic"
      }
    },
    {
      "type": "node",
      "id": 2678583395,
      "lat": 12.9489302,
      "lon": 77.7085732,
      "tags": {
        "amenity": "clinic",
        "name": "unknown clinic"
      }
    },
    {
      "type": "node",
      "id": 2841260105,
      "lat": 12.956702,
      "lon": 77.708882,
      "tags": {
        "amenity": "atm",
        "brand": "South Indian Bank",
        "brand:wikidata": "Q2044973",
        "drive_through": "no",
        "name": "South Indian Bank",
        "operator": "South Indian Bank",
        "operator:wikidata": "Q2044973",
        "wheelchair": "no"
      }
    },
    {
      "type": "node",
      "id": 2841270901,
      "lat": 12.9567291,
      "lon": 77.7087726,
      "tags": {
        "addr:postcode": "560037",
        "addr:state": "KARNATAKA",
        "addr:street": "Varthur Road",
        "amenity": "fast_food",
        "cuisine": "indian",
        "drive_in": "no",
        "drive_through": "no",
        "internet_access": "no",
        "name": "Puchkas Chaat Shop",
        "wheelchair": "no"
      }
    },
    {
      "type": "node",
      "id": 2841271801,
      "lat": 12.956521,
      "lon": 77.709481,
      "tags": {
        "addr:city": "Marathhalli",
        "addr:street": "Varthur Road",
        "check_date": "2024-04-22",
        "name": "Sweet Chariot",
        "shop": "bakery",
        "wheelchair": "no"
      }
    },
    {
      "type": "node",
      "id": 3150184719,
      "lat": 12.9547536,
      "lon": 77.7100815,
      "tags": {
        "addr:city": "Bangalore",
        "addr:housenumber": "36",
        "addr:postcode": "560037",
        "addr:street": "2nd Cross",
        "amenity": "dojo",
        "name": "M S Gurukkal's Kalari Academy",
        "opening_hours": "06:00-19:00",
        "sport": "Kalaripayattu,_Martial_Arts"
      }
    },
    {
      "type": "node",
      "id": 3197266302,
      "lat": 12.9546272,
      "lon": 77.7051109,
      "tags": {
        "amenity": "atm",
        "brand": "State Bank of India",
        "brand:wikidata": "Q1340361",
        "name": "State Bank of India",
        "name:kn": "ಭಾರತೀಯ ಸ್ಟೇಟ್ ಬ್ಯಾಂಕ್",
        "operator": "State Bank of India",
        "operator:wikidata": "Q1340361",
        "short_name": "SBI",
        "wheelchair": "no"
      }
    },
    {
      "type": "node",
      "id": 3205833586,
      "lat": 12.9599335,
      "lon": 77.7026354,
      "tags": {
        "amenity": "prep_school",
        "name": "Hindustan Electronics Academy"
      }
    },
    {
      "type": "node",
      "id": 3205834304,
      "lat": 12.9596512,
      "lon": 77.7026729,
      "tags": {
        "amenity": "school",
        "name:ta": "அரசு ஆரம்ப பள்ளி"
      }
    },
    {
      "type": "node",
      "id": 3236445693,
      "lat": 12.9480965,
      "lon": 77.6987354,
      "tags": {
        "air_conditioning": "yes",
        "alt_name": "Kentucky Fried Chicken",
        "alt_name:en": "Kentucky Fried Chicken",
        "alt_name:hi": "केंटुकी फ्राइड चिकन",
        "alt_name:pa": "ਕੈਂਟੁਕੀ ਫ੍ਰਾਈਡ ਚਿਕਨ",
        "alt_name:pnb": "کینٹکی فرائیڈ چکن",
        "alt_name:ur": "کینٹکی فرائیڈ چکن",
        "amenity": "fast_food",
        "brand": "KFC",
        "brand:en": "KFC",
        "brand:hi": "केएफसी",
        "brand:pa": "ਕੇਐਫਸੀ",
        "brand:pnb": "کے ایف سی",
        "brand:ur": "کے ایف سی",
        "brand:wikidata": "Q524757",
        "brand:wikipedia": "en:KFC",
        "brand:wikipedia:pa": "ਕੇਐਫਸੀ",
        "brand:wikipedia:ur": "کینٹکی فرائیڈ چکن",
        "check_date": "2023-08-15",
        "cuisine": "chicken",
        "delivery": "yes",
        "diet:vegetarian": "yes",
        "indoor_seating": "yes",
        "name": "KFC",
        "name:en": "KFC",
        "name:hi": "केएफसी",
        "name:pa": "ਕੇਐਫਸੀ",
        "name:pnb": "کے ایف سی",
        "name:ur": "کے ایف سی",
        "outdoor_seating": "no",
        "payment:credit_cards": "yes",
        "payment:debit_cards": "yes",
        "smoking": "no",
        "takeaway": "yes"
      }
    },
    {
      "type": "node",
      "id": 3236447734,
      "lat": 12.9571171,
      "lon": 77.702098,
      "tags": {
        "name": "Gili Diamond",
        "shop": "jewelry"
      }
    },
    {
      "type": "node",
      "id": 3327855633,
      "lat": 12.9575217,
      "lon": 77.7009254,
      "tags": {
        "amenity": "atm",
        "brand": "Canara Bank",
        "brand:en": "Canara Bank",
        "brand:hi": "केनरा बैंक",
        "brand:kn": "ಕೆನರಾ ಬ್ಯಾಂಕ್",
        "brand:pa": "ਕੇਨਰਾ ਬੈਂਕ",
        "brand:pnb": "کینرا بینک",
        "brand:ur": "کینرا بینک",
        "brand:wikidata": "Q2003777",
        "brand:wikipedia": "en:Canara Bank",
        "brand:wikipedia:pa": "ਕੇਨਰਾ ਬੈਂਕ",
        "name": "Canara Bank",
        "name:en": "Canara Bank",
        "name:hi": "केनरा बैंक",
        "name:kn": "ಕೆನರಾ ಬ್ಯಾಂಕ್",
        "name:pa": "ਕੇਨਰਾ ਬੈਂਕ",
        "name:pnb": "کینرا بینک",
        "name:ur": "کینرا بینک",
        "operator": "Canara Bank",
        "operator:wikidata": "Q2003777"
      }
    },
    {
      "type": "node",
      "id": 3327855634,
      "lat": 12.9571178,
      "lon": 77.7017117,
      "tags": {
        "amenity": "bank",
        "brand": "State Bank of India",
        "brand:wikidata": "Q1340361",
        "brand:wikipedia": "en:State Bank of India",
        "level": "1",
        "name": "State Bank of India",
        "name:kn": "ಭಾರತೀಯ ಸ್ಟೇಟ್ ಬ್ಯಾಂಕ್",
        "short_name": "SBI",
        "website": "https://www.sbi.co.in"
      }
    },
    {
      "type": "node",
      "id": 3327855635,
      "lat": 12.9572002,
      "lon": 77.7016323,
      "tags": {
        "amenity": "atm",
        "brand": "State Bank of India",
        "brand:wikidata": "Q1340361",
        "cash_in": "no",
        "check_date": "2022-06-09",
        "level": "0",
        "name": "State Bank of India",
        "name:kn": "ಎಸ್ ಬಿ ಐ",
        "operator": "State Bank of India",
        "operator:wikidata": "Q1340361",
        "short_name": "SBI"
      }
    },
    {
      "type": "node",
      "id": 3540823601,
      "lat": 12.9496216,
      "lon": 77.6997317,
      "tags": {
        "air_conditioning": "yes",
        "amenity": "restaurant",
        "check_date": "2025-07-04",
        "cuisine": "regional",
        "diet:vegetarian": "yes",
        "indoor_seating": "yes",
        "level": "0;1;2",
        "name": "Meghana Foods",
        "outdoor_seating": "no",
        "payment:credit_cards": "yes",
        "payment:debit_cards": "yes",
        "smoking": "no"
      }
    },
    {
      "type": "node",
      "id": 3541605986,
      "lat": 12.9481695,
      "lon": 77.6986773,
      "tags": {
        "amenity": "restaurant",
        "indoor_seating": "yes",
        "name": "Barbecue Nation",
        "outdoor_seating": "no"
      }
    },
    {
      "type": "node",
      "id": 3541605987,
      "lat": 12.9481519,
      "lon": 77.6985843,
      "tags": {
        "amenity": "fast_food",
        "cuisine": "Dosa",
        "name": "99 varieties of dosa"
      }
    },
    {
      "type": "node",
      "id": 3541606641,
      "lat": 12.9481681,
      "lon": 77.6987599,
      "tags": {
        "amenity": "fast_food",
        "brand": "Wow! Momo",
        "brand:wikidata": "Q8037446",
        "cuisine": "momo",
        "indoor_seating": "yes",
        "name": "Wow! Momo",
        "outdoor_seating": "no",
        "takeaway": "yes"
      }
    },
    {
      "type": "node",
      "id": 3541633255,
      "lat": 12.9497864,
      "lon": 77.6990755,
      "tags": {
        "amenity": "restaurant",
        "cuisine": "Andhra",
        "level": "1",
        "name": "Minakshi",
        "name:kn": "ಮೀನಾಕ್ಷಿ"
      }
    },
    {
      "type": "node",
      "id": 3541633264,
      "lat": 12.9498556,
      "lon": 77.6991666,
      "tags": {
        "brand": "Reliance Digital",
        "brand:wikidata": "Q7311012",
        "level": "0,1",
        "name": "Reliance Digital",
        "name:kn": "ರಿಲಾಯನ್ಸ್ ಡಿಜಿಟಲ್",
        "shop": "electronics"
      }
    },
    {
      "type": "node",
      "id": 3541633265,
      "lat": 12.9498417,
      "lon": 77.6991292,
      "tags": {
        "leisure": "sports_centre",
        "level": "2",
        "name": "Bangalore Players Club"
      }
    },
    {
      "type": "node",
      "id": 3541742496,
      "lat": 12.9506209,
      "lon": 77.6999061,
      "tags": {
        "air_conditioning": "yes",
        "amenity": "restaurant",
        "bar": "no",
        "check_date": "2025-01-22",
        "check_date:diet:vegetarian": "2025-01-22",
        "cuisine": "regional",
        "diet:vegetarian": "yes",
        "highchair": "no",
        "indoor_seating": "yes",
        "internet_access": "no",
        "level": "1",
        "name": "Anjappar",
        "outdoor_seating": "no",
        "payment:mastercard": "yes",
        "payment:visa": "yes",
        "smoking": "no",
        "source": "survey",
        "takeaway": "yes",
        "toilets": "yes"
      }
    },
    {
      "type": "node",
      "id": 3541742497,
      "lat": 12.9504495,
      "lon": 77.6999604,
      "tags": {
        "amenity": "restaurant",
        "level": "2",
        "name": "Spice World"
      }
    },
    {
      "type": "node",
      "id": 3541742498,
      "lat": 12.9504952,
      "lon": 77.699942,
      "tags": {
        "amenity": "restaurant",
        "level": "4",
        "name": "Jimi's"
      }
    },
    {
      "type": "node",
      "id": 3541784346,
      "lat": 12.9510313,
      "lon": 77.6993866,
      "tags": {
        "brand": "Bata",
        "brand:wikidata": "Q688082",
        "name": "Bata",
        "name:kn": "ಬಾಟಾ",
        "shop": "shoes"
      }
    },
    {
      "type": "node",
      "id": 3541784355,
      "lat": 12.9512457,
      "lon": 77.6994108,
      "tags": {
        "check_date": "2023-07-20",
        "level": "0",
        "name": "Wood You Furniture Gallery",
        "shop": "furniture",
        "source": "survey"
      }
    },
    {
      "type": "node",
      "id": 3541784356,
      "lat": 12.9512065,
      "lon": 77.6994054,
      "tags": {
        "amenity": "restaurant",
        "check_date": "2023-07-20",
        "cuisine": "Andhra",
        "indoor_seating": "yes",
        "level": "1",
        "name": "Barkaas Indo Arabic Restaurant",
        "outdoor_seating": "no",
        "source": "survey"
      }
    },
    {
      "type": "node",
      "id": 3541784357,
      "lat": 12.9512522,
      "lon": 77.6993745,
      "tags": {
        "amenity": "clinic",
        "check_date": "2023-07-20",
        "healthcare:speciality": "fertility",
        "level": "2",
        "name": "Mannat Fertility Clinic",
        "source": "survey"
      }
    },
    {
      "type": "node",
      "id": 3541798346,
      "lat": 12.951694,
      "lon": 77.6994711,
      "tags": {
        "amenity": "pub",
        "level": "0",
        "name": "House of Spirit"
      }
    },
    {
      "type": "node",
      "id": 3541798347,
      "lat": 12.9517397,
      "lon": 77.6994832,
      "tags": {
        "amenity": "hospital",
        "healthcare": "hospital",
        "level": "1",
        "name": "Sanghi Medical Centre (P) Ltd"
      }
    },
    {
      "type": "node",
      "id": 3541798348,
      "lat": 12.9517332,
      "lon": 77.6994362,
      "tags": {
        "amenity": "restaurant",
        "level": "4",
        "name": "Wareabouts Grill & Lounge"
      }
    },
    {
      "type": "node",
      "id": 3541798349,
      "lat": 12.9531017,
      "lon": 77.6998005,
      "tags": {
        "level": "1",
        "name": "Gilma",
        "shop": "Kitchen_stoves_and_hobs"
      }
    },
    {
      "type": "node",
      "id": 3541804536,
      "lat": 12.9530775,
      "lon": 77.6997915,
      "tags": {
        "amenity": "dentist",
        "level": "1",
        "name": "32 Smiles"
      }
    },
    {
      "type": "node",
      "id": 3541804537,
      "lat": 12.9530628,
      "lon": 77.6997905,
      "tags": {
        "level": "1",
        "name": "FOSROC",
        "shop": "Construction_solutions"
      }
    },
    {
      "type": "node",
      "id": 3541804538,
      "lat": 12.953056,
      "lon": 77.6997932,
      "tags": {
        "level": "1",
        "name": "New Vishwas",
        "shop": "hardware"
      }
    },
    {
      "type": "node",
      "id": 3541804539,
      "lat": 12.9530285,
      "lon": 77.6997871,
      "tags": {
        "level": "1",
        "name": "Karnataka Home appliances",
        "shop": "electronics"
      }
    },
    {
      "type": "node",
      "id": 3541805767,
      "lat": 12.9532301,
      "lon": 77.699786,
      "tags": {
        "level": "0",
        "name": "Chef Baker's",
        "shop": "bakery"
      }
    },
    {
      "type": "node",
      "id": 3541837747,
      "lat": 12.9527009,
      "lon": 77.7003351,
      "tags": {
        "amenity": "restaurant",
        "cuisine": "regional",
        "name": "Hotel Chettinadu Foods"
      }
    },
    {
      "type": "node",
      "id": 3541837748,
      "lat": 12.9525362,
      "lon": 77.7002962,
      "tags": {
        "indoor_seating": "no",
        "outdoor_seating": "no",
        "shop": "bakery",
        "takeaway": "only"
      }
    },
    {
      "type": "node",
      "id": 3541837749,
      "lat": 12.9525781,
      "lon": 77.7002989,
      "tags": {
        "amenity": "pharmacy",
        "name": "Nandi Pharma"
      }
    },
    {
      "type": "node",
      "id": 3541837750,
      "lat": 12.9526264,
      "lon": 77.7003109,
      "tags": {
        "amenity": "restaurant",
        "name": "Star Ambur Biryani"
      }
    },
    {
      "type": "node",
      "id": 3541852017,
      "lat": 12.9522121,
      "lon": 77.7002358,
      "tags": {
        "level": "0,1",
        "name": "Godrej Interio",
        "shop": "furniture"
      }
    },
    {
      "type": "node",
      "id": 3541856181,
      "lat": 12.9521977,
      "lon": 77.7002345,
      "tags": {
        "level": "0",
        "name": "Computer Store",
        "shop": "electronics"
      }
    },
    {
      "type": "node",
      "id": 3541860633,
      "lat": 12.952118,
      "lon": 77.7002171,
      "tags": {
        "level": "0",
        "name": "Auto Pulse Bajaj",
        "phone": "080 4147 8287",
        "shop": "motorcycle"
      }
    },
    {
      "type": "node",
      "id": 3541860634,
      "lat": 12.9521585,
      "lon": 77.7002251,
      "tags": {
        "level": "1",
        "name": "digiTechh",
        "shop": "electronics"
      }
    },
    {
      "type": "node",
      "id": 3541860635,
      "lat": 12.9521141,
      "lon": 77.7002412,
      "tags": {
        "level": "2",
        "name": "Four Wall",
        "shop": "kitchen_stove_&_hob"
      }
    },
    {
      "type": "node",
      "id": 3541866754,
      "lat": 12.9519481,
      "lon": 77.7001835,
      "tags": {
        "amenity": "restaurant",
        "cuisine": "Andhra",
        "name": "Vaikuntam",
        "name:kn": "ವೈಕುಂಟಂ"
      }
    },
    {
      "type": "node",
      "id": 3541866755,
      "lat": 12.9519037,
      "lon": 77.7001715,
      "tags": {
        "amenity": "restaurant",
        "cuisine": "Multi-cuisine",
        "name": "Rajbhog"
      }
    },
    {
      "type": "node",
      "id": 3541866756,
      "lat": 12.9518644,
      "lon": 77.700154,
      "tags": {
        "amenity": "community_centre",
        "level": "2",
        "name": "Akshaya",
        "name:kn": "ಅಕ್ಷಯ"
      }
    },
    {
      "type": "node",
      "id": 3541874777,
      "lat": 12.9517821,
      "lon": 77.7001004,
      "tags": {
        "amenity": "restaurant",
        "check_date": "2025-07-04",
        "cuisine": "Punjabi",
        "indoor_seating": "yes",
        "name": "Tandoori Junction",
        "outdoor_seating": "no"
      }
    },
    {
      "type": "node",
      "id": 3541874778,
      "lat": 12.9517442,
      "lon": 77.700091,
      "tags": {
        "amenity": "pub",
        "check_date": "2025-07-04",
        "level": "0",
        "name": "Bhagini Palace"
      }
    },
    {
      "type": "node",
      "id": 3541884417,
      "lat": 12.95162,
      "lon": 77.7000655,
      "tags": {
        "brand": "LG",
        "brand:wikidata": "Q162345",
        "level": "0",
        "name": "LG",
        "shop": "electronics"
      }
    },
    {
      "type": "node",
      "id": 3541884418,
      "lat": 12.9515881,
      "lon": 77.7000708,
      "tags": {
        "amenity": "restaurant",
        "cuisine": "Andhra",
        "level": "1",
        "name": "Nanda's",
        "working": "no"
      }
    },
    {
      "type": "node",
      "id": 3541884419,
      "lat": 12.9515691,
      "lon": 77.7000494,
      "tags": {
        "level": "2",
        "name": "v3 slim care",
        "shop": "beauty"
      }
    },
    {
      "type": "node",
      "id": 3541965709,
      "lat": 12.951441,
      "lon": 77.700056,
      "tags": {
        "level": "0",
        "shop": "furniture"
      }
    },
    {
      "type": "node",
      "id": 3541965710,
      "lat": 12.9512338,
      "lon": 77.7000138,
      "tags": {
        "name": "Furniture Home",
        "shop": "furniture"
      }
    },
    {
      "type": "node",
      "id": 3541965711,
      "lat": 12.9510979,
      "lon": 77.7000272,
      "tags": {
        "level": "0;1",
        "name": "Unilet",
        "shop": "electronics"
      }
    },
    {
      "type": "node",
      "id": 3541965712,
      "lat": 12.9510561,
      "lon": 77.7000084,
      "tags": {
        "level": "2",
        "name": "Slim Talk Studio",
        "shop": "beauty"
      }
    },
    {
      "type": "node",
      "id": 3541965714,
      "lat": 12.9509672,
      "lon": 77.7000084,
      "tags": {
        "level": "0",
        "name": "Titan Helios",
        "shop": "watches",
        "website": "https://stores.titan.co.in/titan-world-watch-shop-marathahalli-bengaluru-186756/Home"
      }
    },
    {
      "type": "node",
      "id": 3541965715,
      "lat": 12.9509228,
      "lon": 77.7000326,
      "tags": {
        "level": "2",
        "name": "Body Cover",
        "shop": "beauty"
      }
    },
    {
      "type": "node",
      "id": 3541965716,
      "lat": 12.9507921,
      "lon": 77.6999065,
      "tags": {
        "level": "0",
        "name": "Coir",
        "shop": "mattresses"
      }
    },
    {
      "type": "node",
      "id": 3541965717,
      "lat": 12.9507193,
      "lon": 77.699921,
      "tags": {
        "amenity": "ice_cream",
        "indoor_seating": "yes",
        "name": "Cream Stone",
        "outdoor_seating": "no"
      }
    },
    {
      "type": "node",
      "id": 3606926074,
      "lat": 12.9563135,
      "lon": 77.700711,
      "tags": {
        "check_date": "2025-06-25",
        "level": "0",
        "name": "RR Cycle Mart",
        "shop": "bicycle",
        "wheelchair": "no"
      }
    },
    {
      "type": "node",
      "id": 3761268951,
      "lat": 12.9571037,
      "lon": 77.7008753,
      "tags": {
        "check_date": "2023-08-05",
        "level": "0",
        "name": "New Jagat Associates",
        "shop": "mobile_phone",
        "source": "survey",
        "toilets": "no"
      }
    },
    {
      "type": "node",
      "id": 3761286869,
      "lat": 12.956351,
      "lon": 77.7007162,
      "tags": {
        "check_date": "2023-08-06",
        "level": "1",
        "name": "Panicker's Travels & Real Estate",
        "shop": "travel_agency"
      }
    },
    {
      "type": "node",
      "id": 3761299366,
      "lat": 12.9570945,
      "lon": 77.7009028,
      "tags": {
        "level": "0",
        "name": "Hot Spot",
        "shop": "mobile_phone"
      }
    },
    {
      "type": "node",
      "id": 3761304078,
      "lat": 12.9571024,
      "lon": 77.7008445,
      "tags": {
        "brand": "Samsonite",
        "brand:wikidata": "Q1203426",
        "level": "0",
        "name": "Samsonite- American Tourister Factory Outlet",
        "shop": "bag"
      }
    },
    {
      "type": "node",
      "id": 3761304085,
      "lat": 12.9571142,
      "lon": 77.7007048,
      "tags": {
        "level": "0",
        "name": "Anu Opticians",
        "shop": "optician"
      }
    },
    {
      "type": "node",
      "id": 3761306339,
      "lat": 12.957105,
      "lon": 77.7008014,
      "tags": {
        "level": "0",
        "name": "The Phone Store",
        "shop": "mobile_phone"
      }
    },
    {
      "type": "node",
      "id": 3761309507,
      "lat": 12.9565818,
      "lon": 77.7007699,
      "tags": {
        "check_date": "2023-08-06",
        "level": "0",
        "name": "I-Fab",
        "shop": "bag"
      }
    },
    {
      "type": "node",
      "id": 3761309916,
      "lat": 12.9567092,
      "lon": 77.7008303,
      "tags": {
        "level": "1",
        "name": "Little Dreams",
        "shop": "gift",
        "wheelchair": "limited"
      }
    },
    {
      "type": "node",
      "id": 3761357857,
      "lat": 12.9565641,
      "lon": 77.7007646,
      "tags": {
        "check_date": "2023-08-06",
        "level": "0",
        "name": "Veda Optical Gallery",
        "shop": "optician",
        "wheelchair": "no"
      }
    },
    {
      "type": "node",
      "id": 3783578335,
      "lat": 12.956742,
      "lon": 77.7018997,
      "tags": {
        "name": "Nandi Hardware & Sanitaryware",
        "shop": "hardware",
        "wheelchair": "no"
      }
    },
    {
      "type": "node",
      "id": 3783578336,
      "lat": 12.956742,
      "lon": 77.7019319,
      "tags": {
        "name": "Sun Times",
        "shop": "watches"
      }
    },
    {
      "type": "node",
      "id": 3783584167,
      "lat": 12.9568555,
      "lon": 77.7011085,
      "tags": {
        "amenity": "police",
        "check_date": "2023-08-05",
        "name": "Traffic Police Cabin"
      }
    },
    {
      "type": "node",
      "id": 3783586442,
      "lat": 12.9570986,
      "lon": 77.7017274,
      "tags": {
        "level": "0",
        "name": "Eye Life Opticians",
        "shop": "optician"
      }
    },
    {
      "type": "node",
      "id": 3783592591,
      "lat": 12.9571142,
      "lon": 77.7016469,
      "tags": {
        "brand": "Liberty",
        "brand:wikidata": "Q6541947",
        "check_date": "2025-06-14",
        "level": "0",
        "name": "Liberty Exclusive Showroom",
        "shop": "shoes"
      }
    },
    {
      "type": "node",
      "id": 3784885354,
      "lat": 12.9571174,
      "lon": 77.7005747,
      "tags": {
        "level": "0",
        "name": "SmartCafe",
        "shop": "mobile_phone"
      }
    },
    {
      "type": "node",
      "id": 3784893363,
      "lat": 12.9571626,
      "lon": 77.7000533,
      "tags": {
        "check_date": "2024-12-29",
        "level": "0,1",
        "name": "Farico",
        "shop": "fabric"
      }
    },
    {
      "type": "node",
      "id": 3785981721,
      "lat": 12.9571169,
      "lon": 77.700724,
      "tags": {
        "check_date": "2025-06-14",
        "level": "0",
        "name": "Sangeetha Mobiles",
        "name:kn": "ಸಂಗೀತ",
        "payment:mastercard": "yes",
        "payment:visa": "yes",
        "shop": "mobile_phone"
      }
    },
    {
      "type": "node",
      "id": 3785986687,
      "lat": 12.9571497,
      "lon": 77.7001515,
      "tags": {
        "check_date": "2024-12-29",
        "level": "0,1",
        "name": "The Raymonds Shop",
        "shop": "clothes"
      }
    },
    {
      "type": "node",
      "id": 3786002759,
      "lat": 12.9571939,
      "lon": 77.7000016,
      "tags": {
        "level": "0,-1",
        "name": "Woodlands Factory Outlet",
        "shop": "shoes"
      }
    },
    {
      "type": "node",
      "id": 3786002836,
      "lat": 12.9571939,
      "lon": 77.6999801,
      "tags": {
        "name": "BSA",
        "shop": "bicycle"
      }
    },
    {
      "type": "node",
      "id": 3786002837,
      "lat": 12.9571782,
      "lon": 77.6998621,
      "tags": {
        "name": "Live In Jeans",
        "shop": "clothes"
      }
    },
    {
      "type": "node",
      "id": 3797612835,
      "lat": 12.9566572,
      "lon": 77.7013888,
      "tags": {
        "level": "0,1",
        "name": "Srinivasa Enterprises",
        "shop": "hardware",
        "wheelchair": "no"
      }
    },
    {
      "type": "node",
      "id": 3803200447,
      "lat": 12.9571303,
      "lon": 77.701865,
      "tags": {
        "amenity": "restaurant",
        "check_date": "2025-09-03",
        "cuisine": "Andhra",
        "name": "Bhagini Deluxe"
      }
    },
    {
      "type": "node",
      "id": 3803201072,
      "lat": 12.9571332,
      "lon": 77.7018887,
      "tags": {
        "amenity": "restaurant",
        "cuisine": "Andhra",
        "name": "Vaikuntam",
        "name:kn": "ವೈಕುಂಟಂ"
      }
    },
    {
      "type": "node",
      "id": 3803204973,
      "lat": 12.9571137,
      "lon": 77.701818,
      "tags": {
        "name": "Shoba",
        "shop": "supermarket"
      }
    },
    {
      "type": "node",
      "id": 3803761227,
      "lat": 12.9577457,
      "lon": 77.7009447,
      "tags": {
        "amenity": "pub",
        "level": "2",
        "name": "Shakespeare's Pub"
      }
    },
    {
      "type": "node",
      "id": 3803767316,
      "lat": 12.9572912,
      "lon": 77.7009165,
      "tags": {
        "amenity": "events_venue",
        "level": "1",
        "name": "Krishna Vaibhav Party Hall and Dining Hall"
      }
    },
    {
      "type": "node",
      "id": 3803774587,
      "lat": 12.9571159,
      "lon": 77.7017731,
      "tags": {
        "level": "2",
        "name": "Lighting Palace",
        "shop": "lighting"
      }
    },
    {
      "type": "node",
      "id": 3803777261,
      "lat": 12.9571564,
      "lon": 77.7018603,
      "tags": {
        "amenity": "pub",
        "cuisine": "Andhra",
        "level": "3",
        "name": "Kadambini"
      }
    },
    {
      "type": "node",
      "id": 3805138252,
      "lat": 12.9572917,
      "lon": 77.7009166,
      "tags": {
        "amenity": "restaurant",
        "check_date": "2023-08-05",
        "level": "0",
        "name": "Udupi Vaibhava",
        "name:kn": "ಕೃಷ್ಣ ವೈಭವ",
        "source": "survey"
      }
    },
    {
      "type": "node",
      "id": 3805147819,
      "lat": 12.9573679,
      "lon": 77.7009184,
      "tags": {
        "amenity": "restaurant",
        "level": "0",
        "name": "Krishna Vaibhava",
        "name:kn": "ಕೃಷ್ಣ ವೈಭವ"
      }
    },
    {
      "type": "node",
      "id": 3805157267,
      "lat": 12.9577112,
      "lon": 77.7009592,
      "tags": {
        "amenity": "clinic",
        "level": "1",
        "name": "Dr. Batra's Clinic"
      }
    },
    {
      "type": "node",
      "id": 3805157268,
      "lat": 12.9577434,
      "lon": 77.7008842,
      "tags": {
        "level": "1",
        "name": "Probikes & Fitness",
        "shop": "bicycle"
      }
    },
    {
      "type": "node",
      "id": 3805159716,
      "lat": 12.957795,
      "lon": 77.7009621,
      "tags": {
        "check_date": "2022-07-23",
        "level": "0",
        "name": "Khazana Jewellery",
        "shop": "jewelry"
      }
    },
    {
      "type": "node",
      "id": 3805531457,
      "lat": 12.9571982,
      "lon": 77.69979,
      "tags": {
        "level": "0",
        "name": "VIP Outlet",
        "shop": "bag"
      }
    },
    {
      "type": "node",
      "id": 3805531458,
      "lat": 12.9571877,
      "lon": 77.6997993,
      "tags": {
        "level": "1",
        "name": "Jawed Habib Hair & Beauty",
        "shop": "hairdresser"
      }
    },
    {
      "type": "node",
      "id": 3805617087,
      "lat": 12.956735,
      "lon": 77.6982165,
      "tags": {
        "name": "Lotto",
        "shop": "shoes"
      }
    },
    {
      "type": "node",
      "id": 3805617088,
      "lat": 12.9567642,
      "lon": 77.6982646,
      "tags": {
        "brand": "Fila",
        "brand:wikidata": "Q482539",
        "level": "0,_-1",
        "name": "Fila",
        "shop": "clothes"
      }
    },
    {
      "type": "node",
      "id": 3805617089,
      "lat": 12.9567912,
      "lon": 77.6982225,
      "tags": {
        "brand": "Levi's",
        "brand:wikidata": "Q127962",
        "clothes": "denim;men;women",
        "name": "Levi's",
        "shop": "clothes"
      }
    },
    {
      "type": "node",
      "id": 3805644662,
      "lat": 12.9567662,
      "lon": 77.6982162,
      "tags": {
        "brand": "Puma",
        "brand:wikidata": "Q157064",
        "level": "-1",
        "name": "Puma",
        "name:kn": "ಪೂಮ",
        "shop": "clothes"
      }
    },
    {
      "type": "node",
      "id": 3805644663,
      "lat": 12.9567636,
      "lon": 77.6981931,
      "tags": {
        "brand": "Pepe Jeans",
        "brand:wikidata": "Q426992",
        "name": "Pepe Jeans",
        "shop": "clothes"
      }
    },
    {
      "type": "node",
      "id": 3805644664,
      "lat": 12.9567642,
      "lon": 77.6982431,
      "tags": {
        "level": "0",
        "name": "Proline",
        "shop": "clothes"
      }
    },
    {
      "type": "node",
      "id": 3805644665,
      "lat": 12.9567691,
      "lon": 77.698303,
      "tags": {
        "level": "0",
        "name": "Gini & Jony Factory Outlet",
        "shop": "clothes"
      }
    },
    {
      "type": "node",
      "id": 3805644667,
      "lat": 12.9567852,
      "lon": 77.6983261,
      "tags": {
        "brand": "Adidas",
        "brand:wikidata": "Q3895",
        "level": "0",
        "name": "Adidas",
        "name:kn": "ಅಡಿಡಾಸ್",
        "shop": "sports"
      }
    },
    {
      "type": "node",
      "id": 3805644668,
      "lat": 12.9567899,
      "lon": 77.6982706,
      "tags": {
        "level": "0",
        "name": "Identiti Factory Outlet",
        "shop": "clothes"
      }
    },
    {
      "type": "node",
      "id": 3805653772,
      "lat": 12.9568239,
      "lon": 77.6985146,
      "tags": {
        "level": "-1",
        "name": "Feet World",
        "shop": "shoes"
      }
    },
    {
      "type": "node",
      "id": 3805655110,
      "lat": 12.9568381,
      "lon": 77.6985511,
      "tags": {
        "brand": "Manyavar",
        "brand:wikidata": "Q24906783",
        "level": "0",
        "name": "Manyavar",
        "shop": "clothes"
      }
    },
    {
      "type": "node",
      "id": 3805655111,
      "lat": 12.9568447,
      "lon": 77.6985746,
      "tags": {
        "brand": "Peter England",
        "brand:wikidata": "Q19573665",
        "clothes": "men",
        "level": "0",
        "name": "Peter England",
        "name:kn": "ಪೀಟರ್ ಇಂಗ್ಲೆಂಡ್",
        "shop": "clothes"
      }
    },
    {
      "type": "node",
      "id": 3805655918,
      "lat": 12.9568447,
      "lon": 77.6986322,
      "tags": {
        "brand": "Woodland",
        "brand:wikidata": "Q123068491",
        "level": "0,1",
        "name": "Woodland Factory Outlet",
        "shop": "shoes"
      }
    },
    {
      "type": "node",
      "id": 3805657012,
      "lat": 12.9568492,
      "lon": 77.6986001,
      "tags": {
        "level": "1",
        "name": "Park Avenue",
        "shop": "clothes"
      }
    },
    {
      "type": "node",
      "id": 3806283876,
      "lat": 12.9567914,
      "lon": 77.6987064,
      "tags": {
        "amenity": "pharmacy",
        "level": "0",
        "name": "Deepika Pharma and General Stores"
      }
    },
    {
      "type": "node",
      "id": 3806289667,
      "lat": 12.9568638,
      "lon": 77.698938,
      "tags": {
        "level": "1,2",
        "name": "Blak",
        "shop": "clothes"
      }
    },
    {
      "type": "node",
      "id": 3806289668,
      "lat": 12.9568753,
      "lon": 77.6989793,
      "tags": {
        "level": "0",
        "name": "Woodlands",
        "shop": "shoes"
      }
    },
    {
      "type": "node",
      "id": 3806289669,
      "lat": 12.9568911,
      "lon": 77.6989534,
      "tags": {
        "brand": "Lacoste",
        "brand:wikidata": "Q309031",
        "level": "-1",
        "name": "Lacoste Outlet",
        "shop": "clothes"
      }
    },
    {
      "type": "node",
      "id": 3806469944,
      "lat": 12.9577155,
      "lon": 77.7009373,
      "tags": {
        "check_date": "2023-08-05",
        "level": "3",
        "name": "Attica Gold Company",
        "shop": "money_lender",
        "source": "survey"
      }
    },
    {
      "type": "node",
      "id": 3806469946,
      "lat": 12.9577993,
      "lon": 77.7009213,
      "tags": {
        "amenity": "community_centre",
        "check_date": "2022-07-23",
        "name": "Krishna Summit Banquet Hall"
      }
    },
    {
      "type": "node",
      "id": 3806473464,
      "lat": 12.957461,
      "lon": 77.7008832,
      "tags": {
        "amenity": "fast_food",
        "name": "Eat Eroo"
      }
    },
    {
      "type": "node",
      "id": 3806502331,
      "lat": 12.9579687,
      "lon": 77.7009753,
      "tags": {
        "level": "-1",
        "name": "Anand Electric & Home Appliances",
        "shop": "electrical"
      }
    },
    {
      "type": "node",
      "id": 3806502332,
      "lat": 12.9579892,
      "lon": 77.7009753,
      "tags": {
        "amenity": "pharmacy",
        "check_date": "2023-08-05",
        "dispensing": "no",
        "drive_through": "no",
        "healthcare": "pharmacy",
        "level": "-1",
        "name": "Jeanne Medicals",
        "source": "survey",
        "wheelchair": "no"
      }
    },
    {
      "type": "node",
      "id": 3806502334,
      "lat": 12.95802,
      "lon": 77.7009796,
      "tags": {
        "amenity": "bank",
        "check_date": "2023-08-05",
        "level": "0",
        "name": "Tumkur Grain Merchant Bank",
        "source": "survey",
        "wheelchair": "no"
      }
    },
    {
      "type": "node",
      "id": 3806502336,
      "lat": 12.9580645,
      "lon": 77.700979,
      "tags": {
        "amenity": "bank",
        "atm": "yes",
        "brand": "Bank of Baroda",
        "brand:wikidata": "Q2003797",
        "check_date": "2023-08-05",
        "level": "0",
        "name": "Bank of Baroda",
        "source": "survey"
      }
    },
    {
      "type": "node",
      "id": 3806505924,
      "lat": 12.9581038,
      "lon": 77.7009715,
      "tags": {
        "level": "2",
        "name": "Samsung Mobile Service Center",
        "shop": "mobile_phone"
      }
    },
    {
      "type": "node",
      "id": 3806508060,
      "lat": 12.9577806,
      "lon": 77.7009521,
      "tags": {
        "check_date": "2023-08-05",
        "clothes": "women",
        "level": "1",
        "name": "Kala Karni",
        "shop": "clothes",
        "source": "survey"
      }
    },
    {
      "type": "node",
      "id": 3808503389,
      "lat": 12.9482242,
      "lon": 77.6994937,
      "tags": {
        "check_date": "2023-08-05",
        "name": "Blue Decor",
        "shop": "furniture"
      }
    },
    {
      "type": "node",
      "id": 3815223846,
      "lat": 12.9571131,
      "lon": 77.7008342,
      "tags": {
        "level": "1",
        "name": "UAE Xchange",
        "shop": "travel_agency"
      }
    },
    {
      "type": "node",
      "id": 3851951720,
      "lat": 12.9562076,
      "lon": 77.6946675,
      "tags": {
        "level": "0",
        "name": "Iyengar Food Ex",
        "shop": "bakery"
      }
    },
    {
      "type": "node",
      "id": 3851967670,
      "lat": 12.9562076,
      "lon": 77.6947064,
      "tags": {
        "level": "1",
        "name": "Nokia",
        "shop": "mobile_phone"
      }
    },
    {
      "type": "node",
      "id": 3854032841,
      "lat": 12.9562411,
      "lon": 77.6952927,
      "tags": {
        "amenity": "bank",
        "atm": "yes",
        "brand": "Axis Bank",
        "brand:wikidata": "Q2003549",
        "brand:wikipedia": "en:Axis Bank",
        "level": "0",
        "name": "Axis Bank",
        "name:en": "Axis Bank",
        "name:kn": "ಅಕ್ಸಿಸ್ ಬ್ಯಾಂಕ್",
        "website": "https://www.axisbank.com"
      }
    },
    {
      "type": "node",
      "id": 3854032843,
      "lat": 12.9562247,
      "lon": 77.6952687,
      "tags": {
        "name": "Rich Feel",
        "shop": "furniture"
      }
    },
    {
      "type": "node",
      "id": 4039838374,
      "lat": 12.9477767,
      "lon": 77.7090085,
      "tags": {
        "amenity": "pharmacy",
        "dispensing": "yes",
        "healthcare": "pharmacy"
      }
    },
    {
      "type": "node",
      "id": 4039859588,
      "lat": 12.9481296,
      "lon": 77.7090944,
      "tags": {
        "amenity": "fast_food",
        "cuisine": "bakery",
        "name": "Bakery"
      }
    },
    {
      "type": "node",
      "id": 4040026801,
      "lat": 12.9465632,
      "lon": 77.7087855,
      "tags": {
        "shop": "bakery"
      }
    },
    {
      "type": "node",
      "id": 4040026802,
      "lat": 12.9466573,
      "lon": 77.7087976,
      "tags": {
        "name": "Ramesh Stores",
        "shop": "houseware"
      }
    },
    {
      "type": "node",
      "id": 4040026803,
      "lat": 12.9470899,
      "lon": 77.7089263,
      "tags": {
        "name": "Haircut",
        "shop": "hairdresser"
      }
    },
    {
      "type": "node",
      "id": 4040026804,
      "lat": 12.9471435,
      "lon": 77.7089156,
      "tags": {
        "shop": "laundry"
      }
    },
    {
      "type": "node",
      "id": 4040026805,
      "lat": 12.9473644,
      "lon": 77.7089276,
      "tags": {
        "name": "guru bakery",
        "shop": "bakery"
      }
    },
    {
      "type": "node",
      "id": 4040026806,
      "lat": 12.9485002,
      "lon": 77.7079567,
      "tags": {
        "amenity": "taxi",
        "name": "Auto Stand",
        "name:kn": "ಆಟೋ ನಿಲ್ದಾಣ"
      }
    },
    {
      "type": "node",
      "id": 4040026807,
      "lat": 12.9510234,
      "lon": 77.7066549,
      "tags": {
        "amenity": "pharmacy",
        "name": "Chirayu medical shop"
      }
    },
    {
      "type": "node",
      "id": 4040026808,
      "lat": 12.9523701,
      "lon": 77.7063914,
      "tags": {
        "leisure": "sports_centre"
      }
    },
    {
      "type": "node",
      "id": 4040026809,
      "lat": 12.9524001,
      "lon": 77.7060279,
      "tags": {
        "amenity": "bicycle_repair_station",
        "name": "bike repiar"
      }
    },
    {
      "type": "node",
      "id": 4040026810,
      "lat": 12.9525488,
      "lon": 77.7058831,
      "tags": {
        "amenity": "restaurant"
      }
    },
    {
      "type": "node",
      "id": 4040031904,
      "lat": 12.9562384,
      "lon": 77.708926,
      "tags": {
        "amenity": "taxi",
        "name": "Autorickshaw Stand",
        "name:kn": "ಆಟೋ ನಿಲ್ದಾಣ"
      }
    },
    {
      "type": "node",
      "id": 4040031905,
      "lat": 12.9567322,
      "lon": 77.7086463,
      "tags": {
        "shop": "bakery"
      }
    },
    {
      "type": "node",
      "id": 4040031906,
      "lat": 12.9562405,
      "lon": 77.7086508,
      "tags": {
        "name": "Auto Parts",
        "shop": "car_repair"
      }
    },
    {
      "type": "node",
      "id": 4040031907,
      "lat": 12.9565247,
      "lon": 77.7086216,
      "tags": {
        "amenity": "taxi",
        "name": "Autorickshaw Stand",
        "name:kn": "ಆಟೋ ನಿಲ್ದಾಣ"
      }
    },
    {
      "type": "node",
      "id": 4040044245,
      "lat": 12.9482372,
      "lon": 77.7059827,
      "tags": {
        "amenity": "dentist"
      }
    },
    {
      "type": "node",
      "id": 4301868889,
      "lat": 12.9590896,
      "lon": 77.701758,
      "tags": {
        "amenity": "cafe",
        "cuisine": "coffee_shop"
      }
    },
    {
      "type": "node",
      "id": 4307428820,
      "lat": 12.9563795,
      "lon": 77.695954,
      "tags": {
        "amenity": "atm",
        "brand": "Axis Bank",
        "brand:wikidata": "Q2003549",
        "check_date": "2024-03-06",
        "level": "-1",
        "operator": "Axis Bank",
        "operator:wikidata": "Q2003549"
      }
    },
    {
      "type": "node",
      "id": 4350017198,
      "lat": 12.9608703,
      "lon": 77.7017044,
      "tags": {
        "amenity": "bank",
        "brand": "HDFC Bank",
        "brand:wikidata": "Q631047",
        "name": "HDFC Bank",
        "name:kn": "ಎಚ್ ಡಿ ಎಫ್ ಸಿ",
        "short_name": "HDFC",
        "wheelchair": "no"
      }
    },
    {
      "type": "node",
      "id": 4365624393,
      "lat": 12.959495,
      "lon": 77.7029392,
      "tags": {
        "amenity": "atm",
        "brand": "HDFC Bank",
        "brand:wikidata": "Q631047",
        "name": "HDFC Bank",
        "name:en": "HDFC",
        "operator": "HDFC Bank",
        "operator:wikidata": "Q631047",
        "short_name": "HDFC"
      }
    },
    {
      "type": "node",
      "id": 4365624394,
      "lat": 12.9582803,
      "lon": 77.7027141,
      "tags": {
        "amenity": "atm",
        "brand": "Canara Bank",
        "brand:en": "Canara Bank",
        "brand:hi": "केनरा बैंक",
        "brand:kn": "ಕೆನರಾ ಬ್ಯಾಂಕ್",
        "brand:pa": "ਕੇਨਰਾ ਬੈਂਕ",
        "brand:pnb": "کینرا بینک",
        "brand:ur": "کینرا بینک",
        "brand:wikidata": "Q2003777",
        "brand:wikipedia": "en:Canara Bank",
        "name": "Canara Bank",
        "name:en": "Canara Bank",
        "name:hi": "केनरा बैंक",
        "name:kn": "ಕೆನರಾ ಬ್ಯಾಂಕ್",
        "name:pa": "ਕੇਨਰਾ ਬੈਂਕ",
        "name:pnb": "کینرا بینک",
        "name:ur": "کینرا بینک",
        "operator": "Canara Bank",
        "operator:wikidata": "Q2003777",
        "operator:wikipedia": "en:Canara Bank",
        "wheelchair": "no"
      }
    },
    {
      "type": "node",
      "id": 4365671891,
      "lat": 12.9570758,
      "lon": 77.7023408,
      "tags": {
        "name:en": "Mahabazzar",
        "shop": "supermarket"
      }
    },
    {
      "type": "node",
      "id": 4365692089,
      "lat": 12.959287,
      "lon": 77.702705,
      "tags": {
        "amenity": "atm",
        "name:en": "State bank ATM",
        "wheelchair": "no"
      }
    },
    {
      "type": "node",
      "id": 4365692189,
      "lat": 12.9591657,
      "lon": 77.7028809,
      "tags": {
        "amenity": "atm",
        "name:en": "Axis bank ATM",
        "wheelchair": "no"
      }
    },
    {
      "type": "node",
      "id": 4365701689,
      "lat": 12.9569408,
      "lon": 77.7030025,
      "tags": {
        "amenity": "fast_food",
        "name:en": "HFB"
      }
    },
    {
      "type": "node",
      "id": 4417323286,
      "lat": 12.9488637,
      "lon": 77.7079123,
      "tags": {
        "amenity": "atm",
        "brand": "Andhra Bank",
        "brand:wikidata": "Q2003476",
        "name": "Andhra Bank",
        "name:kn": "ಆಂಧ್ರ ಬ್ಯಾಂಕ್",
        "operator": "Andhra Bank",
        "operator:wikidata": "Q2003476"
      }
    },
    {
      "type": "node",
      "id": 4417324574,
      "lat": 12.9505911,
      "lon": 77.7067288,
      "tags": {
        "amenity": "atm",
        "brand": "HDFC Bank",
        "brand:wikidata": "Q631047",
        "name": "HDFC Bank",
        "name:kn": "ಎಚ್. ಡಿ. ಎಫ್. ಸಿ. ಬ್ಯಾಂಕ್",
        "operator": "HDFC Bank",
        "operator:wikidata": "Q631047",
        "short_name": "HDFC"
      }
    },
    {
      "type": "node",
      "id": 4417324575,
      "lat": 12.948782,
      "lon": 77.7079398,
      "tags": {
        "amenity": "atm",
        "brand": "Canara Bank",
        "brand:en": "Canara Bank",
        "brand:hi": "केनरा बैंक",
        "brand:kn": "ಕೆನರಾ ಬ್ಯಾಂಕ್",
        "brand:pa": "ਕੇਨਰਾ ਬੈਂਕ",
        "brand:pnb": "کینرا بینک",
        "brand:ur": "کینرا بینک",
        "brand:wikidata": "Q2003777",
        "name": "Canara Bank",
        "name:en": "Canara Bank",
        "name:hi": "केनरा बैंक",
        "name:kn": "ಕೆನರಾ ಬ್ಯಾಂಕ್",
        "name:pa": "ਕੇਨਰਾ ਬੈਂਕ",
        "name:pnb": "کینرا بینک",
        "name:ur": "کینرا بینک",
        "operator": "Canara Bank",
        "operator:wikidata": "Q2003777"
      }
    },
    {
      "type": "node",
      "id": 4417324576,
      "lat": 12.9488191,
      "lon": 77.7079318,
      "tags": {
        "amenity": "atm",
        "brand": "Axis Bank",
        "brand:wikidata": "Q2003549",
        "name": "Axis Bank",
        "name:kn": "ಆಕ್ಸಿಸ್ ಬ್ಯಾಂಕ್",
        "operator": "Axis Bank",
        "operator:wikidata": "Q2003549"
      }
    },
    {
      "type": "node",
      "id": 4417324577,
      "lat": 12.9485406,
      "lon": 77.7079061,
      "tags": {
        "name": "Surya bakery",
        "shop": "bakery"
      }
    },
    {
      "type": "node",
      "id": 4417324578,
      "lat": 12.9512869,
      "lon": 77.7065308,
      "tags": {
        "amenity": "atm",
        "brand": "ICICI Bank",
        "brand:wikidata": "Q1653258",
        "name": "ICICI Bank",
        "operator": "ICICI Bank",
        "operator:wikidata": "Q1653258",
        "short_name": "ICICI"
      }
    },
    {
      "type": "node",
      "id": 4417324580,
      "lat": 12.9526893,
      "lon": 77.7059193,
      "tags": {
        "name": "Car repairs",
        "shop": "car_repair"
      }
    },
    {
      "type": "node",
      "id": 4417324581,
      "lat": 12.9559406,
      "lon": 77.7051134,
      "tags": {
        "amenity": "atm",
        "brand": "South Indian Bank",
        "brand:wikidata": "Q2044973",
        "name": "South Indian Bank",
        "operator": "South Indian Bank",
        "operator:wikidata": "Q2044973",
        "wheelchair": "no"
      }
    },
    {
      "type": "node",
      "id": 4417325091,
      "lat": 12.9489759,
      "lon": 77.708104,
      "tags": {
        "description": "sweets shop",
        "name": "Sangam sweets",
        "shop": "bakery"
      }
    },
    {
      "type": "node",
      "id": 4417325162,
      "lat": 12.9489452,
      "lon": 77.7082197,
      "tags": {
        "amenity": "pharmacy",
        "name": "Krishna medicals"
      }
    },
    {
      "type": "node",
      "id": 4417325164,
      "lat": 12.9516961,
      "lon": 77.7064343,
      "tags": {
        "amenity": "pharmacy",
        "name": "Navkar medicals"
      }
    },
    {
      "type": "node",
      "id": 4417325575,
      "lat": 12.9563432,
      "lon": 77.7052006,
      "tags": {
        "name": "White collar",
        "shop": "laundry"
      }
    },
    {
      "type": "node",
      "id": 4417325591,
      "lat": 12.948787,
      "lon": 77.708447,
      "tags": {
        "name": "Kmf nandini milk shop",
        "shop": "dairy"
      }
    },
    {
      "type": "node",
      "id": 4417325592,
      "lat": 12.9486948,
      "lon": 77.7080762,
      "tags": {
        "amenity": "bus_station",
        "name": "Munekolala bus stand",
        "name:kn": "ಮುನೆಕೊಲ"
      }
    },
    {
      "type": "node",
      "id": 4417325593,
      "lat": 12.9481798,
      "lon": 77.7080129,
      "tags": {
        "leisure": "fitness_centre",
        "name": "Gym"
      }
    },
    {
      "type": "node",
      "id": 4417325594,
      "lat": 12.9483032,
      "lon": 77.7090998,
      "tags": {
        "name": "Iyengar bakery",
        "shop": "bakery"
      }
    },
    {
      "type": "node",
      "id": 4443682939,
      "lat": 12.9513838,
      "lon": 77.6994322,
      "tags": {
        "addr:city": "Marathahalli, Bangalore",
        "addr:housenumber": "1",
        "addr:postcode": "560037",
        "addr:street": "Soul space Paradigm",
        "amenity": "restaurant",
        "cuisine": "regional",
        "delivery": "yes",
        "name": "Tabla Restaurant",
        "opening_hours": "11:00-23:00",
        "phone": "080 49652740",
        "smoking": "no"
      }
    },
    {
      "type": "node",
      "id": 4443741171,
      "lat": 12.9582651,
      "lon": 77.7088259,
      "tags": {
        "addr:city": "Bangalore",
        "addr:housenumber": "32/30",
        "addr:postcode": "560037",
        "addr:street": "Silver Springs Layout, Marathahalli, Bengaluru",
        "amenity": "restaurant",
        "cuisine": "regional",
        "delivery": "yes",
        "name": "Holy Flames",
        "opening_hours": "11:00-21:00",
        "phone": "+91 70226 12902",
        "smoking": "no",
        "takeaway": "yes",
        "website": "https://www.holyflames.in/"
      }
    },
    {
      "type": "node",
      "id": 4443803111,
      "lat": 12.9573463,
      "lon": 77.7075932,
      "tags": {
        "addr:city": "Bangalore",
        "addr:postcode": "560037",
        "addr:street": "Purva Riviera Shopping Complex, Marathahalli",
        "amenity": "restaurant",
        "cuisine": "indian;pizza",
        "delivery": "yes",
        "name": "Sanjha Chulha Restaurant",
        "opening_hours": "12:00-15:30, 19:00-23:00",
        "outdoor_seating": "no",
        "phone": "+91 96866 78120",
        "smoking": "no",
        "takeaway": "yes"
      }
    },
    {
      "type": "node",
      "id": 4444204034,
      "lat": 12.9566607,
      "lon": 77.7026574,
      "tags": {
        "addr:city": "Bangalore",
        "addr:postcode": "560037",
        "addr:street": "Chandra Layout, Marathahalli, Bengaluru,",
        "amenity": "restaurant",
        "check_date": "2025-09-03",
        "delivery": "yes",
        "indoor_seating": "yes",
        "name": "Thalassery Restaurant",
        "opening_hours": "07:00-23:00",
        "outdoor_seating": "no",
        "phone": "+91 80 3271 3030",
        "smoking": "no",
        "takeaway": "yes"
      }
    },
    {
      "type": "node",
      "id": 4444250037,
      "lat": 12.9478299,
      "lon": 77.6993579,
      "tags": {
        "addr:city": "Bangalore",
        "addr:housenumber": "88",
        "addr:postcode": "560037",
        "addr:street": "Outer Ring Road",
        "amenity": "restaurant",
        "check_date": "2023-08-15",
        "delivery": "yes",
        "indoor_seating": "yes",
        "level": "3",
        "name": "Kritunga Restaurant",
        "opening_hours": "12:00-16:00, 19:00-23:00",
        "outdoor_seating": "no",
        "payment:credit_cards": "yes",
        "payment:debit_cards": "yes",
        "phone": "+91 80 6566 5999",
        "smoking": "no",
        "takeaway": "yes",
        "wheelchair": "no"
      }
    },
    {
      "type": "node",
      "id": 4444302108,
      "lat": 12.9498696,
      "lon": 77.6990767,
      "tags": {
        "addr:city": "Marathahalli, Bangalore",
        "addr:housenumber": "90/4",
        "addr:postcode": "560037",
        "addr:street": "Marathahalli Outer Ring Road, Bengaluru",
        "amenity": "restaurant",
        "cuisine": "barbecue",
        "delivery": "yes",
        "diet:vegetarian": "yes",
        "indoor_seating": "yes",
        "name": "Absolute Barbecue",
        "opening_hours": "12:00-15:00, 18:30-22:00",
        "outdoor_seating": "no",
        "phone": "+91 80889 22203",
        "smoking": "no",
        "takeaway": "yes",
        "website": "www.absolute-barbecue.com"
      }
    },
    {
      "type": "node",
      "id": 4444318900,
      "lat": 12.9555378,
      "lon": 77.7004205,
      "tags": {
        "addr:city": "Bangalore",
        "addr:housenumber": "93/7",
        "addr:postcode": "560037",
        "addr:street": "Near Home Town, Outer Ring Rd, Marathahalli, Bengaluru",
        "amenity": "restaurant",
        "cuisine": "regional",
        "delivery": "yes",
        "indoor_seating": "yes",
        "name": "Shanmukha Restaurant",
        "opening_hours": "11:30-16:00, 19:00-23:00",
        "outdoor_seating": "no",
        "phone": "+91 80 4228 7405",
        "smoking": "no",
        "takeaway": "yes",
        "website": "www.shanmukharestaurant.com",
        "wheelchair": "limited"
      }
    },
    {
      "type": "node",
      "id": 4444328401,
      "lat": 12.9490913,
      "lon": 77.6996578,
      "tags": {
        "addr:postcode": "560037",
        "amenity": "restaurant",
        "check_date": "2025-07-04",
        "cuisine": "regional",
        "delivery": "yes",
        "indoor_seating": "yes",
        "level": "1",
        "name": "Nandhana Palace",
        "opening_hours": "11:00-15:30, 18:30-23:00",
        "outdoor_seating": "no",
        "payment:cash": "yes",
        "payment:credit_cards": "yes",
        "payment:debit_cards": "yes",
        "phone": "+91 80 6444 4455",
        "smoking": "no",
        "source": "survey",
        "takeaway": "yes",
        "website": "www.nandhanahotels.com"
      }
    },
    {
      "type": "node",
      "id": 4445991554,
      "lat": 12.9601016,
      "lon": 77.7002857,
      "tags": {
        "addr:city": "Bangalore",
        "addr:housenumber": "69",
        "addr:postcode": "560037",
        "addr:street": "5th Cross,Outer Ring Road, Marathahalli, Behind Venus Bakery Opposite Kalamandir",
        "amenity": "pharmacy",
        "name": "Mathru Homoeo Medical",
        "phone": "08025400618"
      }
    },
    {
      "type": "node",
      "id": 4446005798,
      "lat": 12.9587958,
      "lon": 77.7026919,
      "tags": {
        "addr:city": "Bengaluru",
        "addr:housenumber": "130",
        "addr:postcode": "560037",
        "addr:street": "2nd Main, 7th Cross, 6th Cross Road, Aswath Nagar, Marathahalli,Karnataka",
        "amenity": "pharmacy",
        "name": "Sri Tulsi Medicals General Store",
        "phone": "08861061489",
        "wheelchair": "no"
      }
    },
    {
      "type": "node",
      "id": 4446033865,
      "lat": 12.948849,
      "lon": 77.7078682,
      "tags": {
        "addr:city": "Bengaluru",
        "addr:housenumber": "106/87",
        "addr:postcode": "560037",
        "addr:street": "Raja Building, Munnekolala Last Bengaluru,, Thubarahalli, Marathahalli,Karnataka",
        "amenity": "pharmacy",
        "name": "Sri Lakshmi Pharma And General Store",
        "phone": "+9197382 56718"
      }
    },
    {
      "type": "node",
      "id": 4446060500,
      "lat": 12.9486405,
      "lon": 77.7037644,
      "tags": {
        "addr:city": "Bengaluru",
        "addr:housenumber": "37",
        "addr:postcode": "560037",
        "addr:street": "Ganapa Nilaya, SGR Dental College Road, Maruthi Layout, Kasavanahalli Village, Marathahalli, Karnataka",
        "amenity": "pharmacy",
        "brand": "MedPlus",
        "brand:wikidata": "Q65684234",
        "healthcare": "pharmacy",
        "name": "MedPlus",
        "name:kn": "ಮೆಡ್‍ಪ್ಲಸ್",
        "phone": "080 4217 0031",
        "website": "https://www.medplusmart.com"
      }
    },
    {
      "type": "node",
      "id": 4446085886,
      "lat": 12.9482486,
      "lon": 77.7047648,
      "tags": {
        "addr:city": "Bengaluru",
        "addr:postcode": "560037",
        "addr:street": "SGR Dental College Rd, Belandur, Marathahalli, Karnataka",
        "amenity": "pharmacy",
        "name": "Trust Chemists & Druggists",
        "phone": "080 2254 5129",
        "website": "https://www.trustpharmacy.co.in/"
      }
    },
    {
      "type": "node",
      "id": 4446098608,
      "lat": 12.9539548,
      "lon": 77.6979312,
      "tags": {
        "addr:city": "Bengaluru,",
        "addr:postcode": "560037",
        "addr:street": "Tulasi Theatre Road, Marathahalli Village, Marathahalli, Karnataka",
        "amenity": "pharmacy",
        "name": "Greenhouse Pharma",
        "phone": "+917353848217"
      }
    },
    {
      "type": "node",
      "id": 4446150989,
      "lat": 12.956443,
      "lon": 77.6964124,
      "tags": {
        "addr:city": "Bengaluru",
        "addr:postcode": "560037",
        "addr:street": "Varthur Main Road, Marathahalli, Marathahalli, Marathahalli Village, Karnataka",
        "amenity": "pharmacy",
        "healthcare": "pharmacy",
        "name": "Lakshmi Medicals",
        "name:kn": "ಲಕ್ಷ್ಮೀ ಮೆಡಿಕಲ್ಸ್",
        "phone": "080 2523 0759"
      }
    },
    {
      "type": "node",
      "id": 4446234513,
      "lat": 12.9525048,
      "lon": 77.7061945,
      "tags": {
        "addr:city": "Bengaluru",
        "addr:postcode": "560037",
        "addr:street": "First Floor, Trilochan Complex, Opp Govt School, Munnekolala Main Road, Marthahalli, Karnataka",
        "amenity": "clinic",
        "name": "Family Care Homeopathy Clinic & Pharmacy",
        "phone": "080 3255 2975",
        "website": "family-care.in"
      }
    },
    {
      "type": "node",
      "id": 4446238233,
      "lat": 12.9525519,
      "lon": 77.7059853,
      "tags": {
        "addr:city": "Bengaluru",
        "addr:postcode": "560037",
        "addr:street": "Triloachan Complex , Munekollalu main road , Munekollal",
        "amenity": "clinic",
        "name": "Family Dental care",
        "phone": "+919886130837"
      }
    },
    {
      "type": "node",
      "id": 4446242239,
      "lat": 12.949095,
      "lon": 77.7078158,
      "tags": {
        "addr:city": "Bengaluru",
        "addr:postcode": "560037",
        "addr:street": "Munnekollal Main Rd, Munnekollal, Karnataka",
        "amenity": "pharmacy",
        "name": "Patanjali Prakritika Bazaar Shop",
        "phone": "+91097427 66401"
      }
    },
    {
      "type": "node",
      "id": 4446277436,
      "lat": 12.9487633,
      "lon": 77.7078643,
      "tags": {
        "addr:city": "Bengaluru",
        "addr:postcode": "560037",
        "addr:street": "Thubarahalli, Munnekollal,Karnataka",
        "amenity": "pharmacy",
        "name": "Slv Medical Store",
        "phone": "+919980077242"
      }
    },
    {
      "type": "node",
      "id": 4446853180,
      "lat": 12.9566683,
      "lon": 77.7099226,
      "tags": {
        "addr:city": "Bengaluru",
        "addr:housenumber": "35/1",
        "addr:postcode": "560037",
        "addr:street": "1st Floor, CRM Sowbhagya Enclave, Near Spice Garden Bus Stop, HAL-Airport-Varthur Main Road , Marathahalli, Karnataka",
        "amenity": "clinic",
        "check_date": "2024-04-21",
        "name": "Dr Priyas Skin And Hair Clinic",
        "phone": "080 2847 6999",
        "website": "https://www.drpriyaskinandhairclinic.com/"
      }
    },
    {
      "type": "node",
      "id": 4446861327,
      "lat": 12.9523153,
      "lon": 77.7002928,
      "tags": {
        "addr:city": "Bengaluru",
        "addr:housenumber": "92/6",
        "addr:postcode": "560037",
        "addr:street": "3rd floor, Outer Ring Road Chandra Layout, Opp Innovative Multiplex, Marathahalli, Karnataka",
        "amenity": "clinic",
        "name": "Derma Solutions",
        "phone": "+9197412 23217",
        "website": "https://www.dermasolutions.co.in/"
      }
    },
    {
      "type": "node",
      "id": 4446905132,
      "lat": 12.9557846,
      "lon": 77.7050853,
      "tags": {
        "addr:city": "bangalore",
        "addr:housenumber": "103p",
        "addr:postcode": "560037",
        "addr:street": "Munnekolala Varthur Road",
        "amenity": "pharmacy",
        "name": "Lions Airport City Medicals",
        "phone": "+9190604 48812",
        "wheelchair": "no"
      }
    },
    {
      "type": "node",
      "id": 4447087023,
      "lat": 12.9617937,
      "lon": 77.7013456,
      "tags": {
        "addr:city": "Bengaluru",
        "addr:postcode": "560037",
        "addr:street": "Next to US Pizza, Ring Road,Marathahalli",
        "amenity": "restaurant",
        "cuisine": "regional",
        "delivery": "yes",
        "name": "Delhi Walle",
        "opening_hours": "11:00-23:00",
        "phone": "080 64539513",
        "smoking": "no",
        "takeaway": "yes"
      }
    },
    {
      "type": "node",
      "id": 4447101867,
      "lat": 12.9499525,
      "lon": 77.700234,
      "tags": {
        "addr:city": "Marathahalli, Bangalore",
        "addr:postcode": "560037",
        "addr:street": "SGR Dental, College Road, Munnekollal, Marathahalli",
        "amenity": "restaurant",
        "cuisine": "regional",
        "delivery": "yes",
        "name": "Punjabi Dawat",
        "opening_hours": "11:00-16:00,19:00-23:00",
        "phone": "+91 7338330821",
        "smoking": "no",
        "takeaway": "yes"
      }
    },
    {
      "type": "node",
      "id": 4487929798,
      "lat": 12.9558317,
      "lon": 77.7115223,
      "tags": {
        "addr:city": "Bangalore",
        "addr:full": "Saroj Square, Marathahalli Main Road, Whitefield, Silver Springs Layout, Munnekollal, Bengaluru, Karnataka;Saroj Square, Marathahalli Main Road, Whitefield, Silver Springs Layout, Munnekollal",
        "addr:housenumber": "2nd Floor",
        "addr:postcode": "560037;560066",
        "addr:street": "Varthur Road",
        "leisure": "sports_centre",
        "name": "Snap Fitness",
        "opening_hours": "06:00 -21:00",
        "phone": "095384 47777",
        "sport": "gymnastics"
      }
    },
    {
      "type": "node",
      "id": 4487958120,
      "lat": 12.9612173,
      "lon": 77.7042426,
      "tags": {
        "addr:city": "Bangalore",
        "addr:housenumber": "280",
        "addr:postcode": "560037",
        "addr:street": "Chinnappanahalli Road",
        "name": "WheelSports",
        "phone": "088615 64439",
        "shop": "sports",
        "website": "http://wheelsports.in/"
      }
    },
    {
      "type": "node",
      "id": 4487973598,
      "lat": 12.9571323,
      "lon": 77.7005111,
      "tags": {
        "addr:city": "Bangalore",
        "addr:housenumber": "97/2, 1st Floor",
        "addr:postcode": "560037",
        "addr:street": "Marathahalli Underpass,97/2, 1st Floor, Marathahalli Main Road, Above Woodland Showroom, Opposite- M G A HOSPITAL, Marathahalli",
        "name": "Karnataka Cycle Shoppee",
        "opening_hours": "10:30-21:00",
        "phone": "080 2540 1449",
        "shop": "sports"
      }
    },
    {
      "type": "node",
      "id": 4488075100,
      "lat": 12.9523974,
      "lon": 77.6979565,
      "tags": {
        "addr:city": "Marathahalli, Bangalore",
        "addr:housenumber": "9th main",
        "addr:postcode": "560037",
        "addr:street": "Tulsi Theatre Road",
        "name": "Ma Green Fresh",
        "opening_hours": "07:00-21:00",
        "phone": "(91)-80-25401309",
        "shop": "supermarket"
      }
    },
    {
      "type": "node",
      "id": 4488096993,
      "lat": 12.9483065,
      "lon": 77.6986195,
      "tags": {
        "addr:city": "Marathahalli, Bangalore",
        "addr:housenumber": "88",
        "addr:postcode": "560037",
        "addr:street": "Outer Ring Road",
        "brand": "More",
        "brand:wikidata": "Q6910891",
        "check_date": "2023-08-15",
        "internet_access": "no",
        "name": "More Hypermart",
        "opening_hours": "08:30-22:30",
        "payment:credit_cards": "yes",
        "payment:debit_cards": "yes",
        "phone": "+91 80 3024 9140",
        "second_hand": "no",
        "shop": "supermarket",
        "website": "https://moreretail.in/"
      }
    },
    {
      "type": "node",
      "id": 4488134543,
      "lat": 12.9487318,
      "lon": 77.7035738,
      "tags": {
        "addr:city": "Bengaluru",
        "addr:housenumber": "11,12",
        "addr:postcode": "560037",
        "addr:street": "Sgr Dental College Main Road, Munnekolala, Marathahalli",
        "name": "Athulya Home Needs",
        "opening_hours": "08:30-22:30",
        "phone": "(91)-80-40980585",
        "shop": "supermarket"
      }
    },
    {
      "type": "node",
      "id": 4488353602,
      "lat": 12.9492413,
      "lon": 77.7023924,
      "tags": {
        "addr:city": "Bangalore",
        "addr:housenumber": "24",
        "addr:postcode": "560037",
        "addr:street": "Munekollal",
        "name": "Miami Supermarket",
        "phone": "(91)-80-41316222",
        "shop": "supermarket"
      }
    },
    {
      "type": "node",
      "id": 4488558501,
      "lat": 12.9557206,
      "lon": 77.6980417,
      "tags": {
        "addr:city": "Bengaluru",
        "addr:housenumber": "Behind Tulasi Theatre",
        "addr:postcode": "560037",
        "addr:street": "Tulsi Theatre Road",
        "leisure": "sports_centre",
        "name": "Body Artz",
        "opening_hours": "5:30-22:00",
        "phone": "9686671245",
        "sport": "gymnastics"
      }
    },
    {
      "type": "node",
      "id": 4489268451,
      "lat": 12.9568069,
      "lon": 77.6983637,
      "tags": {
        "addr:city": "Bengaluru",
        "addr:housenumber": "G-2",
        "addr:postcode": "560037",
        "addr:street": "Sigma Arcade, Old Airport Road, Marathahalli village, Marathahalli, Marathahalli Village, Marathahalli,",
        "brand": "Nike",
        "brand:wikidata": "Q483915",
        "name": "Nike",
        "name:kn": "ನೈಕ್",
        "opening_hours": "10:00-22:00",
        "phone": "08041485488",
        "shop": "clothes",
        "website": "https://www.nike.com/"
      }
    },
    {
      "type": "node",
      "id": 4489295106,
      "lat": 12.9567585,
      "lon": 77.6983837,
      "tags": {
        "addr:city": "Bengaluru",
        "addr:housenumber": "G5-G9",
        "addr:postcode": "560037",
        "addr:street": "Sigma Arcade, No. 227/70, Next To Tulsi Theater,, Marathahalli Main Rd, Marathahalli Village, Marathahalli",
        "brand": "Reebok",
        "brand:wikidata": "Q466183",
        "name": "Reebok",
        "name:kn": "ರೀಬಾಕ್",
        "phone": "08042029317",
        "shop": "clothes",
        "website": "https://www.reebok.com/"
      }
    },
    {
      "type": "node",
      "id": 4489369949,
      "lat": 12.956256,
      "lon": 77.6953953,
      "tags": {
        "addr:city": "Bangalore",
        "addr:postcode": "560037",
        "addr:street": "HAL Old Airport Rd, Marathahalli Village, Marathahalli,",
        "brand": "Puma",
        "brand:wikidata": "Q157064",
        "check_date": "2024-03-06",
        "name": "Puma",
        "name:kn": "ಪೂಮ",
        "opening_hours": "10:00-13:00,14:00-21:00",
        "payment:cash": "yes",
        "payment:credit_cards": "yes",
        "payment:debit_cards": "yes",
        "phone": "+91 80 4148 7495",
        "shop": "clothes",
        "source": "survey",
        "website": "https://in.puma.com/"
      }
    },
    {
      "type": "node",
      "id": 4489402142,
      "lat": 12.9564359,
      "lon": 77.7094941,
      "tags": {
        "addr:city": "Bengaluru",
        "addr:postcode": "560037",
        "addr:street": "Sweet Chariot, Spice Garden, Lakshminarayana Pura, Munnekollal",
        "name": "Willow Sportz",
        "opening_hours": "09:00-22:00",
        "phone": "08553631883",
        "shop": "sports",
        "website": "willowsportz.com"
      }
    },
    {
      "type": "node",
      "id": 4489725394,
      "lat": 12.9547472,
      "lon": 77.6982166,
      "tags": {
        "addr:street": "Tulasi Theatre Road, Marathahalli Village, Marathahalli, Bengaluru, Karnataka",
        "leisure": "sports_centre",
        "name": "Sweat Zone",
        "sport": "gymnasium"
      }
    },
    {
      "type": "node",
      "id": 4489728472,
      "lat": 12.9576318,
      "lon": 77.7007871,
      "tags": {
        "addr:city": "Bangalore",
        "addr:housenumber": "#97/2D",
        "addr:postcode": "560037",
        "addr:street": ",M T K Reedy Building, Below Krishna Vaibhava Hotel, Marathahalli, Bridge",
        "leisure": "sports_centre",
        "name": "West Coast Sports & Fittness Shop",
        "phone": "080 4126 4084"
      }
    },
    {
      "type": "node",
      "id": 4489731989,
      "lat": 12.9580735,
      "lon": 77.7008861,
      "tags": {
        "addr:city": "Bengaluru",
        "addr:housenumber": "18",
        "addr:postcode": "560037",
        "name": "Firefox",
        "operator": "Firefox",
        "phone": "080 4204 8625",
        "shop": "bicycle",
        "website": "https://www.firefoxbikes.com/"
      }
    },
    {
      "type": "node",
      "id": 4489733589,
      "lat": 12.9592688,
      "lon": 77.7017695,
      "tags": {
        "addr:city": "Bengaluru",
        "addr:housenumber": "141",
        "addr:postcode": "560037",
        "addr:street": "7th Cross, 1st & 2nd Floor, Near Kalamandir, Marathahalli, Anand Nagar, Aswath Nagar, Marathahalli, Bengaluru,",
        "check_date": "2022-11-16",
        "leisure": "sports_centre",
        "name": "Fit Life Gym",
        "phone": "+91 81052 91333",
        "sport": "gymnasium"
      }
    },
    {
      "type": "node",
      "id": 4489823228,
      "lat": 12.9575174,
      "lon": 77.7087169,
      "tags": {
        "addr:city": "Bangalore",
        "addr:housenumber": "#S1-S2",
        "addr:postcode": "560037",
        "addr:street": "Spice Garden Complex, Marathahalli Main Rd, Spice Garden Layout, Lakshminarayana Pura, Marathahall",
        "leisure": "sports_centre",
        "name": "Body and Soul Fitness Academy",
        "opening_hours": "05:30-22:00",
        "phone": "8042086029",
        "sport": "gymnastics",
        "website": "https://bodyandsoul.org/"
      }
    },
    {
      "type": "node",
      "id": 4489900902,
      "lat": 12.9510561,
      "lon": 77.7000084,
      "tags": {
        "addr:city": "Bengaluru",
        "addr:housenumber": "545",
        "addr:postcode": "560038",
        "addr:street": "1st Floor, CMH Road, Indiranagar",
        "leisure": "sports_centre",
        "name": "Ezee Slim",
        "opening_hours": "09:00-21:30",
        "phone": "080-33294286",
        "sport": "gymnastics"
      }
    },
    {
      "type": "node",
      "id": 4489929763,
      "lat": 12.9558912,
      "lon": 77.7111725,
      "tags": {
        "addr:city": "Bangalore",
        "addr:housenumber": "25",
        "addr:postcode": "560036",
        "addr:street": "Devasandra Main Road, Krishnarajapuram",
        "name": "V L Care",
        "opening_hours": "10:00-21:00",
        "phone": "(91)-80-33294401",
        "shop": "beauty"
      }
    },
    {
      "type": "node",
      "id": 4489943956,
      "lat": 12.9524548,
      "lon": 77.7063302,
      "tags": {
        "addr:city": "Bengaluru,",
        "addr:postcode": "560037",
        "addr:street": "\" Rajasree Layout, Gandhi Nagar, Munnekollal, Karnataka",
        "leisure": "sports_centre",
        "name": "Fitness Goal",
        "opening_hours": "5:30-22:00",
        "phone": "097412 11662"
      }
    },
    {
      "type": "node",
      "id": 4490478977,
      "lat": 12.9498917,
      "lon": 77.7005393,
      "tags": {
        "addr:city": "Marathahalli, Bangalore",
        "addr:housenumber": "1",
        "addr:postcode": "560037",
        "addr:street": "S G R Dental College Road",
        "leisure": "fitness_centre",
        "name": "Shapes Gym",
        "opening_hours": "6:00-21:00",
        "phone": "8884589448"
      }
    },
    {
      "type": "node",
      "id": 4635146942,
      "lat": 12.9487521,
      "lon": 77.7092076,
      "tags": {
        "name": "Grand Mini Bazaar",
        "shop": "supermarket"
      }
    },
    {
      "type": "node",
      "id": 4635146966,
      "lat": 12.9559476,
      "lon": 77.711571,
      "tags": {
        "amenity": "fast_food",
        "brand": "Domino's",
        "brand:ks": "ڈومینوز",
        "brand:pa": "ਡੋਮੀਨੋਜ਼",
        "brand:ur": "ڈومینوز",
        "brand:wikidata": "Q839466",
        "brand:wikipedia": "en:Domino's Pizza",
        "cuisine": "pizza",
        "name": "Domino's",
        "name:kn": "ಡಾಮಿನೋಸ್",
        "name:ks": "ڈومینوز",
        "name:pa": "ਡੋਮੀਨੋਜ਼",
        "name:ur": "ڈومینوز",
        "takeaway": "yes"
      }
    },
    {
      "type": "node",
      "id": 4635146994,
      "lat": 12.9487476,
      "lon": 77.7084681,
      "tags": {
        "name": "KMF stall",
        "shop": "dairy"
      }
    },
    {
      "type": "node",
      "id": 4635147127,
      "lat": 12.9489483,
      "lon": 77.7081017,
      "tags": {
        "name": "Sangam sweets",
        "shop": "bakery"
      }
    },
    {
      "type": "node",
      "id": 4635147128,
      "lat": 12.9489389,
      "lon": 77.7083529,
      "tags": {
        "amenity": "pharmacy"
      }
    },
    {
      "type": "node",
      "id": 4697503711,
      "lat": 12.9487043,
      "lon": 77.7045923,
      "tags": {
        "addr:street": "S G R Dental College Road",
        "amenity": "place_of_worship",
        "name": "Mar Thoma Church",
        "name:kn": "ಮರ್ ತೋಮ ಚರ್ಚ್",
        "religion": "christian"
      }
    },
    {
      "type": "node",
      "id": 4697503712,
      "lat": 12.9470757,
      "lon": 77.703573,
      "tags": {
        "addr:city": "Bangalore",
        "addr:housenumber": "5th Cross",
        "addr:postcode": "560037",
        "addr:street": "S G R Dental College Road",
        "name": "RK Bakery",
        "shop": "bakery"
      }
    },
    {
      "type": "node",
      "id": 5122060721,
      "lat": 12.9519348,
      "lon": 77.7027723,
      "tags": {
        "shop": "department_store"
      }
    },
    {
      "type": "node",
      "id": 5745160620,
      "lat": 12.9546696,
      "lon": 77.7027783,
      "tags": {
        "name": "Sri Venkat Satyanarayana Tedared",
        "shop": "greengrocer"
      }
    },
    {
      "type": "node",
      "id": 5963536174,
      "lat": 12.948404,
      "lon": 77.6988272,
      "tags": {
        "addr:housenumber": "88",
        "addr:street": "Outer Ring Road",
        "air_conditioning": "yes",
        "amenity": "restaurant",
        "bar": "no",
        "check_date": "2022-10-12",
        "cuisine": "indian",
        "diet:non-vegetarian": "yes",
        "highchair": "no",
        "indoor_seating": "yes",
        "internet_access": "no",
        "level": "1",
        "name": "Nagarjuna",
        "name:kn": "ನಾಗಾರ್ಜುನ",
        "opening_hours": "Mo-Su 12:00-16:00,09:00-18:00,19:00-23:00",
        "outdoor_seating": "no",
        "payment:cash": "yes",
        "payment:credit_cards": "yes",
        "payment:debit_cards": "yes",
        "payment:upi": "yes",
        "self_service": "no",
        "smoking": "isolated",
        "source": "survey",
        "takeaway": "yes",
        "wheelchair": "no"
      }
    },
    {
      "type": "node",
      "id": 5963567139,
      "lat": 12.9484948,
      "lon": 77.6987857,
      "tags": {
        "addr:housenumber": "88",
        "addr:street": "Outer Ring Road",
        "air_conditioning": "yes",
        "amenity": "bar",
        "check_date": "2022-10-12",
        "indoor_seating": "yes",
        "internet_access": "no",
        "level": "1",
        "name": "Nakkshatra",
        "name:kn": "ನಕ್ಷತ್ರ",
        "outdoor_seating": "no",
        "payment:cash": "yes",
        "payment:credit_cards": "yes",
        "payment:debit_cards": "yes",
        "payment:upi": "yes",
        "phone": "+91 99028 22288",
        "smoking": "isolated",
        "source": "survey",
        "wheelchair": "no"
      }
    },
    {
      "type": "node",
      "id": 5963567140,
      "lat": 12.9484998,
      "lon": 77.6987018,
      "tags": {
        "name": "Nirvana",
        "shop": "party"
      }
    },
    {
      "type": "node",
      "id": 5963680624,
      "lat": 12.9515657,
      "lon": 77.6994075,
      "tags": {
        "name": "Peps India",
        "shop": "doityourself"
      }
    },
    {
      "type": "node",
      "id": 5988311580,
      "lat": 12.9497607,
      "lon": 77.6997785,
      "tags": {
        "addr:city": "Marathahalli, Bangalore",
        "addr:housenumber": "90/4 Above ICICI Bank 3rd Floor",
        "addr:postcode": "560037",
        "addr:street": "Outer Ring Road",
        "amenity": "prep_school",
        "description": "ertification Courses in Bangalore, Best Training in Bangalore, IT Courses Training in Bangalore, Training Courses Center in Bangalore, IT Training Institutes in Bangalore, Training in Bangalore, IT Course in Bangalore",
        "email": "sgraph.bnglr@gmail.com",
        "name": "Sgraph Infotech",
        "phone": "9620885025",
        "website": "http://www.sgraphinfotech.com/"
      }
    },
    {
      "type": "node",
      "id": 6095248119,
      "lat": 12.9567706,
      "lon": 77.7007709,
      "tags": {
        "air_conditioning": "yes",
        "check_date": "2025-06-14",
        "level": "0;1;2;3",
        "name": "KLM Fashion Mall",
        "operator": "Sai Silks (Kalamandir) Ltd",
        "payment:mastercard": "yes",
        "payment:visa": "yes",
        "phone": "+91 80 4374 6553",
        "shop": "mall",
        "source": "survey",
        "website": "https://www.klmfashionmall.com/"
      }
    },
    {
      "type": "node",
      "id": 6095248120,
      "lat": 12.9565198,
      "lon": 77.6976884,
      "tags": {
        "check_date": "2025-06-14",
        "name": "Brand Factory",
        "shop": "mall"
      }
    },
    {
      "type": "node",
      "id": 6140427453,
      "lat": 12.9502104,
      "lon": 77.699067,
      "tags": {
        "amenity": "parking_entrance"
      }
    },
    {
      "type": "node",
      "id": 6938889541,
      "lat": 12.9551501,
      "lon": 77.7051643,
      "tags": {
        "addr:district": "Bengaluru Urban",
        "addr:full": "#103, Munnekolal, Verthur Road, Marthahalli Post",
        "addr:postcode": "560037",
        "addr:state": "Karnataka",
        "amenity": "hospital",
        "name": "Lions Airport City Hospital",
        "source": "OpenGovernmentData"
      }
    },
    {
      "type": "node",
      "id": 6944290475,
      "lat": 12.9568547,
      "lon": 77.7002262,
      "tags": {
        "addr:district": "Bengaluru Urban",
        "addr:full": "96,Varthur Main Road, Marathahalli",
        "addr:postcode": "560037",
        "addr:state": "Karnataka",
        "amenity": "hospital",
        "check_date": "2024-12-29",
        "healthcare": "hospital",
        "name": "MGA Hospital",
        "source": "OpenGovernmentData"
      }
    },
    {
      "type": "node",
      "id": 7881423570,
      "lat": 12.9583131,
      "lon": 77.7067099,
      "tags": {
        "addr:city": "Bangalore",
        "addr:postcode": "560037",
        "addr:street": "Rohan Vasantha Apartment",
        "name": "Green Mantra, Online zero waste store",
        "shop": "supermarket",
        "zero_waste": "yes"
      }
    },
    {
      "type": "node",
      "id": 8935990995,
      "lat": 12.9611494,
      "lon": 77.704242,
      "tags": {
        "name": "Cycle Station",
        "shop": "bicycle"
      }
    },
    {
      "type": "node",
      "id": 9291056386,
      "lat": 12.9606981,
      "lon": 77.7012155,
      "tags": {
        "leisure": "fitness_centre",
        "name": "Day & Day Gym"
      }
    },
    {
      "type": "node",
      "id": 9332449847,
      "lat": 12.9585861,
      "lon": 77.7085301,
      "tags": {
        "amenity": "dentist",
        "healthcare": "dentist",
        "healthcare:speciality": "dentist",
        "level": "0",
        "name": "Smile On Complete Dental Care"
      }
    },
    {
      "type": "node",
      "id": 9381352847,
      "lat": 12.9563884,
      "lon": 77.6960146,
      "tags": {
        "name": "Vishal Opticals",
        "shop": "optician"
      }
    },
    {
      "type": "node",
      "id": 9381352852,
      "lat": 12.9564067,
      "lon": 77.6962024,
      "tags": {
        "brand": "Peter England",
        "brand:wikidata": "Q19573665",
        "clothes": "men",
        "level": "1",
        "name": "Peter England",
        "shop": "clothes"
      }
    },
    {
      "type": "node",
      "id": 9381352853,
      "lat": 12.9564304,
      "lon": 77.696283,
      "tags": {
        "name": "Lenovo Service Center",
        "shop": "computer"
      }
    },
    {
      "type": "node",
      "id": 9381352854,
      "lat": 12.9564476,
      "lon": 77.6963172,
      "tags": {
        "check_date": "2024-03-06",
        "name": "Dell",
        "shop": "computer"
      }
    },
    {
      "type": "node",
      "id": 9381352855,
      "lat": 12.9564552,
      "lon": 77.6963515,
      "tags": {
        "name": "Asus Service Center",
        "shop": "computer"
      }
    },
    {
      "type": "node",
      "id": 9381352860,
      "lat": 12.9563206,
      "lon": 77.6967944,
      "tags": {
        "clothes": "women;wedding",
        "name": "Sudarshan Silks and Sarees",
        "shop": "clothes"
      }
    },
    {
      "type": "node",
      "id": 9381352861,
      "lat": 12.9565679,
      "lon": 77.6970278,
      "tags": {
        "brand": "Skechers",
        "brand:wikidata": "Q2945643",
        "brand:wikipedia": "en:Skechers",
        "name": "Skechers",
        "shop": "shoes"
      }
    },
    {
      "type": "node",
      "id": 9381352862,
      "lat": 12.9565619,
      "lon": 77.6972364,
      "tags": {
        "amenity": "cafe",
        "name": "Unitea Hub Cafe"
      }
    },
    {
      "type": "node",
      "id": 9381352863,
      "lat": 12.9565234,
      "lon": 77.6972006,
      "tags": {
        "brand": "Bata",
        "brand:wikidata": "Q688082",
        "brand:wikipedia": "en:Bata Corporation",
        "name": "Bata",
        "shop": "shoes"
      }
    },
    {
      "type": "node",
      "id": 9381352864,
      "lat": 12.9568093,
      "lon": 77.6984543,
      "tags": {
        "level": "-1",
        "name": "Plum Health and Beauty",
        "shop": "cosmetics"
      }
    },
    {
      "type": "node",
      "id": 9381352865,
      "lat": 12.9568272,
      "lon": 77.6984718,
      "tags": {
        "brand": "Lenskart",
        "brand:wikidata": "Q17068753",
        "brand:wikipedia": "en:Lenskart",
        "name": "Lenskart",
        "shop": "optician"
      }
    },
    {
      "type": "node",
      "id": 9810748011,
      "lat": 12.9518521,
      "lon": 77.7001674,
      "tags": {
        "amenity": "restaurant",
        "name": "Sri Udupi Park"
      }
    },
    {
      "type": "node",
      "id": 9841433849,
      "lat": 12.9484798,
      "lon": 77.698872,
      "tags": {
        "air_conditioning": "no",
        "amenity": "restaurant",
        "bar": "no",
        "check_date": "2022-10-12",
        "diet:vegetarian": "yes",
        "highchair": "no",
        "indoor_seating": "yes",
        "internet_access": "no",
        "level": "0",
        "name": "Sri Udupi Park",
        "outdoor_seating": "yes",
        "payment:cash": "yes",
        "payment:credit_cards": "yes",
        "payment:debit_cards": "yes",
        "payment:upi": "yes",
        "smoking": "no",
        "source": "survey",
        "takeaway": "yes",
        "wheelchair": "no"
      }
    },
    {
      "type": "node",
      "id": 9843457267,
      "lat": 12.948784,
      "lon": 77.6988437,
      "tags": {
        "amenity": "restaurant",
        "cuisine": "curry;biryani;kebab",
        "indoor_seating": "yes",
        "name": "Hyderabad House",
        "outdoor_seating": "no"
      }
    },
    {
      "type": "node",
      "id": 9843457268,
      "lat": 12.9494344,
      "lon": 77.6991499,
      "tags": {
        "amenity": "restaurant",
        "name": "Foxtrot Dhaba"
      }
    },
    {
      "type": "node",
      "id": 9862549613,
      "lat": 12.9483579,
      "lon": 77.6995725,
      "tags": {
        "air_conditioning": "yes",
        "amenity": "cafe",
        "brand": "Chai Point",
        "brand:wikidata": "Q28173415",
        "check_date": "2023-08-05",
        "cuisine": "coffee_shop",
        "diet:vegetarian": "yes",
        "indoor_seating": "yes",
        "name": "Chai Point",
        "outdoor_seating": "no",
        "smoking": "no",
        "takeaway": "yes"
      }
    },
    {
      "type": "node",
      "id": 9889712440,
      "lat": 12.9548374,
      "lon": 77.6979822,
      "tags": {
        "name": "Carry Mart",
        "shop": "supermarket"
      }
    },
    {
      "type": "node",
      "id": 9909036523,
      "lat": 12.9583674,
      "lon": 77.7009495,
      "tags": {
        "check_date": "2022-07-23",
        "name": "Patanjali Chikitsalaya & Store",
        "shop": "general",
        "wheelchair": "limited"
      }
    },
    {
      "type": "node",
      "id": 9909036720,
      "lat": 12.9562753,
      "lon": 77.7013248,
      "tags": {
        "check_date": "2025-09-03",
        "name": "Trijal TVS",
        "opening_hours": "08:00-13:00,14:00-18:30",
        "shop": "motorcycle"
      }
    },
    {
      "type": "node",
      "id": 9909036721,
      "lat": 12.9561554,
      "lon": 77.701215,
      "tags": {
        "check_date": "2022-07-23",
        "name": "Laddu Furnitures",
        "phone": "+919739724461",
        "shop": "furniture",
        "wheelchair": "no"
      }
    },
    {
      "type": "node",
      "id": 9909036722,
      "lat": 12.9578487,
      "lon": 77.7016208,
      "tags": {
        "amenity": "bank",
        "atm": "yes",
        "brand": "City Union Bank",
        "brand:en": "City Union Bank",
        "brand:fa": "سیتی یونیون بنک",
        "brand:hi": "सिटी यूनियन बैंक",
        "brand:mr": "सिटी युनियन बँक",
        "brand:ta": "சிட்டி யூனியன் வங்கி",
        "brand:ur": "سٹی یونین بینک",
        "brand:website": "https://www.cityunionbank.com",
        "brand:wikidata": "Q2040264",
        "name": "City Union Bank",
        "name:en": "City Union Bank",
        "name:fa": "سیتی یونیون بنک",
        "name:hi": "सिटी यूनियन बैंक",
        "name:mr": "सिटी युनियन बँक",
        "name:ta": "சிட்டி யூனியன் வங்கி",
        "name:ur": "سٹی یونین بینک",
        "short_name": "CUB",
        "short_name:pa": "ਸੀ ਯੂ ਬੀ",
        "short_name:ur": "سی یو بی"
      }
    },
    {
      "type": "node",
      "id": 9909062225,
      "lat": 12.9586642,
      "lon": 77.7015964,
      "tags": {
        "amenity": "atm",
        "brand": "IDFC First Bank",
        "brand:wikidata": "Q22031467",
        "cash_in": "no",
        "check_date": "2024-08-20",
        "name": "IDFC First Bank",
        "operator": "IDFC First Bank",
        "operator:wikidata": "Q22031467"
      }
    },
    {
      "type": "node",
      "id": 9909062518,
      "lat": 12.9589036,
      "lon": 77.7016002,
      "tags": {
        "amenity": "pharmacy",
        "brand": "Apollo Pharmacy",
        "brand:wikidata": "Q62562612",
        "check_date": "2022-07-23",
        "healthcare": "pharmacy",
        "name": "Apollo Pharmacy"
      }
    },
    {
      "type": "node",
      "id": 9909082517,
      "lat": 12.9609128,
      "lon": 77.7016259,
      "tags": {
        "check_date": "2022-07-23",
        "name": "Nandini Milk Parlour",
        "shop": "dairy"
      }
    },
    {
      "type": "node",
      "id": 9909083117,
      "lat": 12.9558992,
      "lon": 77.7011725,
      "tags": {
        "brand": "Honda",
        "brand:wikidata": "Q9584",
        "brand:wikipedia": "en:Honda",
        "check_date": "2025-08-18",
        "level": "0;1",
        "name": "Tansi Honda",
        "opening_hours": "09:30-20:30",
        "payment:mastercard": "yes",
        "payment:visa": "yes",
        "phone": "+919742622227",
        "shop": "motorcycle",
        "source": "survey",
        "wheelchair": "no"
      }
    },
    {
      "type": "node",
      "id": 9920825257,
      "lat": 12.9566213,
      "lon": 77.710398,
      "tags": {
        "name": "Bounce Salon",
        "shop": "beauty"
      }
    },
    {
      "type": "node",
      "id": 9920825259,
      "lat": 12.9564598,
      "lon": 77.7102806,
      "tags": {
        "amenity": "restaurant",
        "check_date": "2022-09-14",
        "name": "Tirupathi Bheemas",
        "wheelchair": "no"
      }
    },
    {
      "type": "node",
      "id": 9921945891,
      "lat": 12.9533575,
      "lon": 77.7004454,
      "tags": {
        "air_conditioning": "yes",
        "amenity": "restaurant",
        "indoor_seating": "yes",
        "name": "Le Arabia",
        "outdoor_seating": "no"
      }
    },
    {
      "type": "node",
      "id": 9922275694,
      "lat": 12.9505181,
      "lon": 77.6998945,
      "tags": {
        "amenity": "restaurant",
        "check_date": "2023-07-20",
        "indoor_seating": "yes",
        "name": "Leon Grill",
        "outdoor_seating": "no",
        "smoking": "no",
        "source": "survey"
      }
    },
    {
      "type": "node",
      "id": 10046457182,
      "lat": 12.9569282,
      "lon": 77.707628,
      "tags": {
        "name": "Daily Basket",
        "shop": "department_store"
      }
    },
    {
      "type": "node",
      "id": 10067234338,
      "lat": 12.9616928,
      "lon": 77.7013123,
      "tags": {
        "brand": "Airtel",
        "brand:wikidata": "Q854867",
        "name": "Airtel",
        "shop": "mobile_phone"
      }
    },
    {
      "type": "node",
      "id": 10067234353,
      "lat": 12.9609687,
      "lon": 77.7017563,
      "tags": {
        "air_conditioning": "yes",
        "amenity": "restaurant",
        "cuisine": "chinese",
        "diet:vegetarian": "yes",
        "indoor_seating": "yes",
        "name": "Chinese Wok",
        "outdoor_seating": "no",
        "smoking": "no"
      }
    },
    {
      "type": "node",
      "id": 10067234358,
      "lat": 12.9611587,
      "lon": 77.7018185,
      "tags": {
        "check_date": "2025-04-05",
        "clothes": "women",
        "name": "Kalanikethan",
        "shop": "clothes"
      }
    },
    {
      "type": "node",
      "id": 10131908633,
      "lat": 12.9600457,
      "lon": 77.7016254,
      "tags": {
        "check_date": "2025-11-27",
        "clothes": "women",
        "name": "Ambara Silks",
        "payment:credit_cards": "yes",
        "payment:debit_cards": "yes",
        "shop": "clothes",
        "source": "survey",
        "wheelchair": "no"
      }
    },
    {
      "type": "node",
      "id": 10197726124,
      "lat": 12.9585663,
      "lon": 77.7028132,
      "tags": {
        "amenity": "pharmacy",
        "check_date": "2022-11-16",
        "healthcare": "pharmacy",
        "name": "Health Care Pharmacy",
        "source": "survey"
      }
    },
    {
      "type": "node",
      "id": 10197726125,
      "lat": 12.9592397,
      "lon": 77.7015645,
      "tags": {
        "amenity": "pharmacy",
        "check_date": "2022-11-16",
        "healthcare": "pharmacy",
        "name": "Sri Balaji Medicals & Surgicals",
        "source": "survey"
      }
    },
    {
      "type": "node",
      "id": 10197726126,
      "lat": 12.9593413,
      "lon": 77.7017001,
      "tags": {
        "amenity": "pharmacy",
        "check_date": "2022-11-16",
        "healthcare": "pharmacy",
        "name": "Ramdev Medicrest",
        "source": "survey"
      }
    },
    {
      "type": "node",
      "id": 10197726127,
      "lat": 12.9595911,
      "lon": 77.7016523,
      "tags": {
        "amenity": "atm",
        "brand": "ICICI Bank",
        "brand:wikidata": "Q1653258",
        "cash_in": "no",
        "check_date": "2024-12-15",
        "name": "ICICI Bank",
        "name:kn": "ಐಸಿಐಸಿಐ ಬ್ಯಾಂಕು",
        "operator": "ICICI Bank",
        "operator:wikidata": "Q1653258",
        "short_name": "ICICI",
        "source": "survey"
      }
    },
    {
      "type": "node",
      "id": 10218101734,
      "lat": 12.9482393,
      "lon": 77.6988082,
      "tags": {
        "air_conditioning": "yes",
        "amenity": "restaurant",
        "brand": "Pizza Hut",
        "brand:wikidata": "Q191615",
        "check_date": "2023-08-15",
        "cuisine": "pizza",
        "indoor_seating": "yes",
        "internet_access": "no",
        "name": "Pizza Hut",
        "outdoor_seating": "no",
        "payment:credit_cards": "yes",
        "payment:debit_cards": "yes",
        "smoking": "no"
      }
    },
    {
      "type": "node",
      "id": 10560318075,
      "lat": 12.9508641,
      "lon": 77.6999032,
      "tags": {
        "amenity": "fast_food",
        "brand": "Five Star Chicken",
        "brand:wikidata": "Q127784422",
        "cuisine": "chicken",
        "delivery": "yes",
        "name": "Five Star Chicken",
        "takeaway": "yes"
      }
    },
    {
      "type": "node",
      "id": 10564154369,
      "lat": 12.956997,
      "lon": 77.7038375,
      "tags": {
        "name": "Berlynoak",
        "shop": "furniture"
      }
    },
    {
      "type": "node",
      "id": 10564154370,
      "lat": 12.9569816,
      "lon": 77.7029045,
      "tags": {
        "leisure": "fitness_centre",
        "name": "Burnout Fitness Centre"
      }
    },
    {
      "type": "node",
      "id": 10564154371,
      "lat": 12.9569803,
      "lon": 77.7029966,
      "tags": {
        "brand": "Kanti Sweets",
        "check_date": "2025-09-03",
        "name": "Kanti Sweets",
        "shop": "confectionery"
      }
    },
    {
      "type": "node",
      "id": 10564154381,
      "lat": 12.9569894,
      "lon": 77.7035327,
      "tags": {
        "amenity": "dentist",
        "healthcare": "dentist",
        "name": "Kush Oral Surgery"
      }
    },
    {
      "type": "node",
      "id": 10695273905,
      "lat": 12.9482492,
      "lon": 77.6984721,
      "tags": {
        "addr:city": "Bangalore",
        "addr:country": "IN",
        "addr:postcode": "560037",
        "addr:street": "Outer Ring Road",
        "addr:suburb": "Marathahalli",
        "amenity": "pub",
        "delivery": "yes",
        "name": "Hashtag 88 Taproom",
        "opening_hours": "11:00-01:00",
        "takeaway": "yes"
      }
    },
    {
      "type": "node",
      "id": 10719499934,
      "lat": 12.9597192,
      "lon": 77.7029037,
      "tags": {
        "amenity": "restaurant",
        "name": "Kundana"
      }
    },
    {
      "type": "node",
      "id": 11051170146,
      "lat": 12.9568772,
      "lon": 77.7087819,
      "tags": {
        "brand": "cult.fit",
        "brand:wikidata": "Q121289250",
        "leisure": "fitness_centre",
        "name": "cult.fit"
      }
    },
    {
      "type": "node",
      "id": 11091113618,
      "lat": 12.9564551,
      "lon": 77.709996,
      "tags": {
        "amenity": "restaurant",
        "name": "Red Box"
      }
    },
    {
      "type": "node",
      "id": 11091113620,
      "lat": 12.9564788,
      "lon": 77.7100837,
      "tags": {
        "amenity": "restaurant",
        "cuisine": "indian",
        "diet:vegetarian": "yes",
        "name": "Tirupathi Bhimas"
      }
    },
    {
      "type": "node",
      "id": 11091793275,
      "lat": 12.9478749,
      "lon": 77.6993722,
      "tags": {
        "air_conditioning": "yes",
        "brand": "Tanishq",
        "brand:en": "Tanishq",
        "brand:wikidata": "Q13117711",
        "check_date": "2025-07-04",
        "internet_access": "no",
        "level": "0;1",
        "name": "Tanishq",
        "name:en": "Tanishq",
        "opening_hours": "10:30-20:00",
        "payment:credit_cards": "yes",
        "payment:debit_cards": "yes",
        "second_hand": "no",
        "shop": "jewelry",
        "stroller": "no",
        "toilets": "yes",
        "wheelchair": "no"
      }
    },
    {
      "type": "node",
      "id": 11091793276,
      "lat": 12.9482616,
      "lon": 77.6995071,
      "tags": {
        "brand": "Lenskart",
        "brand:wikidata": "Q17068753",
        "check_date": "2025-07-04",
        "name": "Lenskart",
        "payment:cash": "yes",
        "payment:credit_cards": "yes",
        "payment:debit_cards": "yes",
        "shop": "optician",
        "source": "survey",
        "wheelchair": "no"
      }
    },
    {
      "type": "node",
      "id": 11091793277,
      "lat": 12.948416,
      "lon": 77.6995832,
      "tags": {
        "amenity": "restaurant",
        "check_date": "2023-08-05",
        "indoor_seating": "yes",
        "name": "Narmada",
        "outdoor_seating": "no"
      }
    },
    {
      "type": "node",
      "id": 11091793278,
      "lat": 12.9483972,
      "lon": 77.6995419,
      "tags": {
        "check_date": "2023-08-05",
        "name": "Caratlane",
        "payment:credit_cards": "yes",
        "payment:debit_cards": "yes",
        "shop": "jewelry"
      }
    },
    {
      "type": "node",
      "id": 11091793279,
      "lat": 12.9481825,
      "lon": 77.6994806,
      "tags": {
        "check_date": "2025-07-04",
        "name": "Reliance Jewels",
        "payment:cash": "yes",
        "payment:credit_cards": "yes",
        "payment:debit_cards": "yes",
        "shop": "jewelry",
        "source": "survey",
        "wheelchair": "no"
      }
    },
    {
      "type": "node",
      "id": 11091793280,
      "lat": 12.9481479,
      "lon": 77.6994712,
      "tags": {
        "amenity": "restaurant",
        "check_date": "2023-08-05",
        "indoor_seating": "yes",
        "name": "Dindigul Thalappakatti",
        "outdoor_seating": "no",
        "payment:credit_cards": "yes",
        "payment:debit_cards": "yes",
        "smoking": "no",
        "source": "survey"
      }
    },
    {
      "type": "node",
      "id": 11091793281,
      "lat": 12.9479499,
      "lon": 77.6993993,
      "tags": {
        "brand": "Samsung",
        "brand:wikidata": "Q20718",
        "check_date": "2023-08-15",
        "name": "Samsung SmartPlaza - ABM Incorporation",
        "payment:credit_cards": "yes",
        "payment:debit_cards": "yes",
        "shop": "electronics",
        "wheelchair": "no"
      }
    },
    {
      "type": "node",
      "id": 11091793282,
      "lat": 12.9479011,
      "lon": 77.6993831,
      "tags": {
        "check_date": "2023-08-15",
        "name": "Mia by Tanishq",
        "opening_hours": "Mo-Su 10:30-20:00",
        "payment:credit_cards": "yes",
        "payment:debit_cards": "yes",
        "shop": "jewelry",
        "wheelchair": "no"
      }
    },
    {
      "type": "node",
      "id": 11091793284,
      "lat": 12.9484875,
      "lon": 77.6995739,
      "tags": {
        "check_date": "2023-08-05",
        "name": "Manyavar & Mohey",
        "payment:credit_cards": "yes",
        "payment:debit_cards": "yes",
        "shop": "clothes",
        "source": "survey"
      }
    },
    {
      "type": "node",
      "id": 11091793285,
      "lat": 12.9480099,
      "lon": 77.6994392,
      "tags": {
        "amenity": "restaurant",
        "check_date": "2023-08-15",
        "indoor_seating": "yes",
        "level": "2",
        "name": "Gismat Jail Mandi",
        "outdoor_seating": "no",
        "payment:credit_cards": "yes",
        "payment:debit_cards": "yes",
        "wheelchair": "no"
      }
    },
    {
      "type": "node",
      "id": 11116490522,
      "lat": 12.9552736,
      "lon": 77.7004273,
      "tags": {
        "check_date": "2025-09-03",
        "name": "First Cry",
        "payment:mastercard": "yes",
        "payment:visa": "yes",
        "shop": "baby_goods"
      }
    },
    {
      "type": "node",
      "id": 11116490523,
      "lat": 12.9488532,
      "lon": 77.6988789,
      "tags": {
        "air_conditioning": "yes",
        "check_date": "2023-08-15",
        "name": "Homecentre",
        "payment:credit_cards": "yes",
        "payment:debit_cards": "yes",
        "second_hand": "no",
        "shop": "furniture",
        "website": "https://www.homecentre.in"
      }
    },
    {
      "type": "node",
      "id": 11125591716,
      "lat": 12.9485747,
      "lon": 77.6986371,
      "tags": {
        "addr:city": "Bengaluru",
        "addr:country": "IN",
        "addr:housenumber": "88",
        "addr:postcode": "560037",
        "addr:street": "Outer Ring Road",
        "addr:suburb": "Marathahalli",
        "amenity": "restaurant",
        "contact:facebook": "thebigbarbeque",
        "contact:instagram": "thebigbarbeque",
        "cuisine": "barbecue",
        "delivery": "yes",
        "email": "info@thebigbarbeque.com",
        "indoor_seating": "yes",
        "name": "The Big Barbeque",
        "opening_hours": "Mo-Su 12:00-15:30,18:30-23:30",
        "outdoor_seating": "no",
        "phone": "+91 8880807878",
        "takeaway": "yes",
        "website": "https://thebigbarbeque.com/marathahalli-bengaluru/"
      }
    },
    {
      "type": "node",
      "id": 11250238062,
      "lat": 12.9517559,
      "lon": 77.6994189,
      "tags": {
        "name": "CycleWorld",
        "service:bicycle:cleaning": "yes",
        "service:bicycle:pump": "yes",
        "service:bicycle:repair": "yes",
        "service:bicycle:retail": "yes",
        "shop": "bicycle"
      }
    },
    {
      "type": "node",
      "id": 11250238063,
      "lat": 12.9517147,
      "lon": 77.6993842,
      "tags": {
        "amenity": "restaurant",
        "name": "Sendhoor"
      }
    },
    {
      "type": "node",
      "id": 11265893585,
      "lat": 12.9487,
      "lon": 77.7090814,
      "tags": {
        "name": "R K Electrical shop",
        "shop": "yes"
      }
    },
    {
      "type": "node",
      "id": 11265893586,
      "lat": 12.9486552,
      "lon": 77.7091227,
      "tags": {
        "name": "Vegetable shop",
        "shop": "yes"
      }
    },
    {
      "type": "node",
      "id": 11265893587,
      "lat": 12.9486149,
      "lon": 77.709117,
      "tags": {
        "name": "Bakery",
        "shop": "bakery"
      }
    },
    {
      "type": "node",
      "id": 11265893588,
      "lat": 12.9485366,
      "lon": 77.7091066,
      "tags": {
        "name": "Tent Shop",
        "shop": "yes"
      }
    },
    {
      "type": "node",
      "id": 11265893589,
      "lat": 12.9484717,
      "lon": 77.7090951,
      "tags": {
        "name": "Hardware and Sanitary Store",
        "shop": "yes"
      }
    },
    {
      "type": "node",
      "id": 11265893590,
      "lat": 12.9483945,
      "lon": 77.709102,
      "tags": {
        "name": "Hot Chips and Mixture shop",
        "shop": "yes"
      }
    },
    {
      "type": "node",
      "id": 11265893591,
      "lat": 12.9483587,
      "lon": 77.7091009,
      "tags": {
        "name": "Travels and DTH recharge",
        "shop": "yes"
      }
    },
    {
      "type": "node",
      "id": 11265911717,
      "lat": 12.9473511,
      "lon": 77.7089272,
      "tags": {
        "check_date": "2025-06-13",
        "office": "estate_agent",
        "shop": "estate_agent"
      }
    },
    {
      "type": "node",
      "id": 11265911718,
      "lat": 12.9482473,
      "lon": 77.7090971,
      "tags": {
        "name": "Hi Tech Stationery and Fancy Store",
        "shop": "yes"
      }
    },
    {
      "type": "node",
      "id": 11277885754,
      "lat": 12.9502816,
      "lon": 77.6989871,
      "tags": {
        "amenity": "restaurant",
        "name": "Europa 360"
      }
    },
    {
      "type": "node",
      "id": 11290423204,
      "lat": 12.9485693,
      "lon": 77.6985592,
      "tags": {
        "amenity": "restaurant",
        "check_date": "2023-10-26",
        "diet:non-vegetarian": "yes",
        "diet:vegetarian": "yes",
        "level": "2",
        "name": "Big Baadshaah",
        "payment:cash": "yes",
        "payment:mastercard": "yes",
        "payment:visa": "yes",
        "wheelchair": "yes"
      }
    },
    {
      "type": "node",
      "id": 11331571988,
      "lat": 12.9592984,
      "lon": 77.7027271,
      "tags": {
        "name": "Sharon's",
        "shop": "tea"
      }
    },
    {
      "type": "node",
      "id": 11375015385,
      "lat": 12.9485634,
      "lon": 77.6982951,
      "tags": {
        "access": "customers",
        "amenity": "parking_entrance",
        "parking": "underground"
      }
    },
    {
      "type": "node",
      "id": 11375015386,
      "lat": 12.948475,
      "lon": 77.6985377,
      "tags": {
        "access": "customers",
        "amenity": "parking_entrance",
        "fee": "no",
        "parking": "underground"
      }
    },
    {
      "type": "node",
      "id": 11423311803,
      "lat": 12.9575031,
      "lon": 77.7093642,
      "tags": {
        "amenity": "fast_food",
        "check_date": "2023-12-16",
        "name": "Olive"
      }
    },
    {
      "type": "node",
      "id": 11423311804,
      "lat": 12.9577122,
      "lon": 77.7095997,
      "tags": {
        "amenity": "pharmacy",
        "check_date": "2023-12-16",
        "healthcare": "pharmacy",
        "name": "Brothers Pharma"
      }
    },
    {
      "type": "node",
      "id": 11423311805,
      "lat": 12.9577887,
      "lon": 77.7091478,
      "tags": {
        "amenity": "cafe",
        "check_date": "2023-12-16",
        "name": "Mom's Kitchen"
      }
    },
    {
      "type": "node",
      "id": 11425682972,
      "lat": 12.9504958,
      "lon": 77.6992949,
      "tags": {
        "check_date": "2023-12-17",
        "name": "Durian",
        "shop": "furniture"
      }
    },
    {
      "type": "node",
      "id": 11425682973,
      "lat": 12.9549447,
      "lon": 77.7003108,
      "tags": {
        "amenity": "restaurant",
        "check_date": "2023-12-17",
        "cuisine": "pizza",
        "name": "La Melano"
      }
    },
    {
      "type": "node",
      "id": 11535639646,
      "lat": 12.9555082,
      "lon": 77.7005091,
      "tags": {
        "amenity": "bank",
        "brand": "Union Bank of India",
        "brand:wikidata": "Q2004078",
        "check_date": "2024-01-21",
        "name": "Union Bank of India",
        "name:kn": "ಯೂನಿಯನ್ ಬ್ಯಾಂಕ್",
        "source": "survey"
      }
    },
    {
      "type": "node",
      "id": 11535639647,
      "lat": 12.9554389,
      "lon": 77.7004848,
      "tags": {
        "amenity": "atm",
        "brand": "Union Bank of India",
        "brand:wikidata": "Q2004078",
        "check_date": "2024-01-21",
        "opening_hours": "24/7",
        "operator": "Union Bank of India",
        "operator:wikidata": "Q2004078",
        "source": "survey"
      }
    },
    {
      "type": "node",
      "id": 11696309274,
      "lat": 12.9563372,
      "lon": 77.6958445,
      "tags": {
        "addr:housenumber": "223/95",
        "addr:street": "Varthur Road",
        "addr:unit": "Shree GaNaPa Towers",
        "air_conditioning": "no",
        "amenity": "restaurant",
        "bar": "yes",
        "check_date": "2024-03-06",
        "cuisine": "indian",
        "delivery": "yes",
        "highchair": "no",
        "internet_access": "no",
        "level": "5",
        "name": "Manasi Roof Top Restaurant",
        "opening_hours": "11:00-24:00",
        "outdoor_seating": "no",
        "payment:cash": "yes",
        "payment:credit_cards": "yes",
        "payment:debit_cards": "yes",
        "phone": "+91 70909 55777",
        "source": "survey",
        "takeaway": "yes",
        "toilets": "yes",
        "toilets:wheelchair": "no",
        "wheelchair": "no"
      }
    },
    {
      "type": "node",
      "id": 11696309275,
      "lat": 12.9563894,
      "lon": 77.6959792,
      "tags": {
        "check_date": "2024-03-06",
        "name": "Jockey",
        "shop": "clothes"
      }
    },
    {
      "type": "node",
      "id": 11696309276,
      "lat": 12.9562826,
      "lon": 77.6955097,
      "tags": {
        "air_conditioning": "yes",
        "brand": "Joyalukkas",
        "brand:wikidata": "Q6297357",
        "check_date": "2024-12-29",
        "level": "0;1",
        "name": "Joyalukkas",
        "payment:cash": "yes",
        "payment:credit_cards": "yes",
        "payment:debit_cards": "yes",
        "shop": "jewelry",
        "source": "survey",
        "wheelchair": "no"
      }
    },
    {
      "type": "node",
      "id": 11696309277,
      "lat": 12.9561602,
      "lon": 77.6950672,
      "tags": {
        "amenity": "atm",
        "brand": "Federal Bank",
        "brand:wikidata": "Q2044983",
        "cash_in": "yes",
        "check_date": "2024-03-06",
        "operator": "Federal Bank",
        "operator:wikidata": "Q2044983"
      }
    },
    {
      "type": "node",
      "id": 11696309278,
      "lat": 12.956173,
      "lon": 77.6949671,
      "tags": {
        "check_date": "2024-03-06",
        "name": "Chemmanur Jewellers",
        "shop": "jewelry"
      }
    },
    {
      "type": "node",
      "id": 11811087976,
      "lat": 12.9506397,
      "lon": 77.6999903,
      "tags": {
        "amenity": "restaurant",
        "cuisine": "burger",
        "delivery": "yes",
        "name": "Mr. Philly's American Cheeseburgers",
        "takeaway": "yes"
      }
    },
    {
      "type": "node",
      "id": 11944331744,
      "lat": 12.9557242,
      "lon": 77.6979149,
      "tags": {
        "amenity": "restaurant",
        "name": "Sri Udupi Park Cafe",
        "survey:date": "2024-05-30"
      }
    },
    {
      "type": "node",
      "id": 11944342159,
      "lat": 12.9558437,
      "lon": 77.697913,
      "tags": {
        "amenity": "pharmacy",
        "brand": "Apollo Pharmacy",
        "brand:wikidata": "Q62562612",
        "healthcare": "pharmacy",
        "name": "Apollo Pharmacy",
        "opening_hours": "07:00-23:00",
        "survey:date": "2024-05-30"
      }
    },
    {
      "type": "node",
      "id": 11944379185,
      "lat": 12.9554995,
      "lon": 77.6979759,
      "tags": {
        "amenity": "atm",
        "brand": "South Indian Bank",
        "brand:wikidata": "Q2044973",
        "currency:INR": "yes",
        "name": "South Indian Bank",
        "operator": "South Indian Bank",
        "operator:wikidata": "Q2044973",
        "survey:date": "2024-05-30"
      }
    },
    {
      "type": "node",
      "id": 12049142299,
      "lat": 12.9518751,
      "lon": 77.7002187,
      "tags": {
        "amenity": "restaurant",
        "indoor_seating": "yes",
        "name": "The Ramanatheswaram Cafe",
        "outdoor_seating": "no"
      }
    },
    {
      "type": "node",
      "id": 12078774435,
      "lat": 12.9471553,
      "lon": 77.6991682,
      "tags": {
        "amenity": "restaurant",
        "bar": "yes",
        "check_date": "2025-07-04",
        "indoor_seating": "yes",
        "name": "An Te Ra",
        "outdoor_seating": "no",
        "payment:cash": "yes",
        "payment:credit_cards": "yes",
        "payment:debit_cards": "yes",
        "source": "survey",
        "wheelchair": "no"
      }
    },
    {
      "type": "node",
      "id": 12079544414,
      "lat": 12.9515112,
      "lon": 77.6978745,
      "tags": {
        "addr:housenumber": "91",
        "addr:street": "Tulsi theater road, Marathahalli",
        "name": "Brothers Chemist",
        "opening_hours": "Mo-Su 08:00-23:00",
        "shop": "chemist"
      }
    },
    {
      "type": "node",
      "id": 12136228072,
      "lat": 12.9565467,
      "lon": 77.7099853,
      "tags": {
        "amenity": "clock",
        "name": "R Gold's Cuckoo Clock"
      }
    },
    {
      "type": "node",
      "id": 12136228073,
      "lat": 12.9566478,
      "lon": 77.7098961,
      "tags": {
        "amenity": "fast_food",
        "name": "Mani's Dum Biryani",
        "takeaway": "only"
      }
    },
    {
      "type": "node",
      "id": 12145301108,
      "lat": 12.9573524,
      "lon": 77.7008566,
      "tags": {
        "amenity": "restaurant",
        "name": "Malnad Spicy"
      }
    },
    {
      "type": "node",
      "id": 12145301147,
      "lat": 12.95141,
      "lon": 77.6992928,
      "tags": {
        "amenity": "pub",
        "name": "Frenzy Taproom"
      }
    },
    {
      "type": "node",
      "id": 12325165986,
      "lat": 12.9509819,
      "lon": 77.7034443,
      "tags": {
        "amenity": "fast_food",
        "check_date": "2024-11-09",
        "drive_through": "yes",
        "name": "Kumar Karam Dosa"
      }
    },
    {
      "type": "node",
      "id": 12343238235,
      "lat": 12.9485879,
      "lon": 77.70172,
      "tags": {
        "name": "Raj Provisions Store",
        "shop": "convenience"
      }
    },
    {
      "type": "node",
      "id": 12366484704,
      "lat": 12.9490035,
      "lon": 77.7014557,
      "tags": {
        "check_date": "2024-11-15",
        "name": "New Keerthi Bakery",
        "shop": "bakery"
      }
    },
    {
      "type": "node",
      "id": 12366484705,
      "lat": 12.9494209,
      "lon": 77.7016398,
      "tags": {
        "brand": "7-Eleven",
        "brand:wikidata": "Q259340",
        "check_date": "2024-11-15",
        "name": "7-Eleven",
        "shop": "convenience"
      }
    },
    {
      "type": "node",
      "id": 12366484706,
      "lat": 12.9496859,
      "lon": 77.7015241,
      "tags": {
        "amenity": "pharmacy",
        "check_date": "2024-11-15",
        "healthcare": "pharmacy",
        "name": "Ram Medicals"
      }
    },
    {
      "type": "node",
      "id": 12366484707,
      "lat": 12.9498195,
      "lon": 77.7008092,
      "tags": {
        "amenity": "pharmacy",
        "brand": "MedPlus",
        "brand:wikidata": "Q65684234",
        "check_date": "2024-11-15",
        "healthcare": "pharmacy",
        "name": "MedPlus"
      }
    },
    {
      "type": "node",
      "id": 12366484708,
      "lat": 12.9500379,
      "lon": 77.700756,
      "tags": {
        "check_date": "2024-11-15",
        "clothes": "underwear",
        "name": "Ramdev Fashion Zone",
        "shop": "clothes"
      }
    },
    {
      "type": "node",
      "id": 12460866493,
      "lat": 12.9567767,
      "lon": 77.7005293,
      "tags": {
        "addr:floor": "G;1",
        "air_conditioning": "yes",
        "brand": "Tanishq",
        "brand:en": "Tanishq",
        "brand:wikidata": "Q13117711",
        "check_date": "2025-06-14",
        "level": "0;1",
        "name": "Tanishq",
        "name:en": "Tanishq",
        "opening_hours": "11:00-20:30",
        "payment:cash": "yes",
        "payment:credit_cards": "yes",
        "payment:debit_cards": "yes",
        "shop": "jewelry",
        "toilets": "yes"
      }
    },
    {
      "type": "node",
      "id": 12460866494,
      "lat": 12.9566765,
      "lon": 77.699907,
      "tags": {
        "check_date": "2024-12-29",
        "name": "PMJ Jewels",
        "shop": "jewelry"
      }
    },
    {
      "type": "node",
      "id": 12460866495,
      "lat": 12.9567807,
      "lon": 77.6993445,
      "tags": {
        "air_conditioning": "yes",
        "brand": "Kalyan Jewellers",
        "brand:wikidata": "Q6354854",
        "check_date": "2024-12-29",
        "name": "Kalyan Jewellers",
        "payment:cash": "yes",
        "payment:credit_cards": "yes",
        "payment:debit_cards": "yes",
        "shop": "jewelry",
        "source": "survey"
      }
    },
    {
      "type": "node",
      "id": 12460866496,
      "lat": 12.9566917,
      "lon": 77.699838,
      "tags": {
        "check_date": "2024-12-29",
        "name": "Bluestone",
        "shop": "jewelry"
      }
    },
    {
      "type": "node",
      "id": 12460866497,
      "lat": 12.9567549,
      "lon": 77.6996047,
      "tags": {
        "addr:floor": "G;1",
        "air_conditioning": "yes",
        "brand": "Max",
        "brand:wikidata": "Q24939079",
        "check_date": "2025-08-26",
        "clothes": "women;men;babies;children",
        "level": "0;1;2;3",
        "name": "Max",
        "payment:cash": "yes",
        "payment:credit_cards": "yes",
        "payment:debit_cards": "yes",
        "shop": "clothes",
        "wheelchair": "no"
      }
    },
    {
      "type": "node",
      "id": 12460866498,
      "lat": 12.9567017,
      "lon": 77.6997705,
      "tags": {
        "brand": "U.S. Polo Assn.",
        "brand:wikidata": "Q7863282",
        "check_date": "2024-12-29",
        "name": "U.S. Polo Assn.",
        "payment:cash": "yes",
        "payment:credit_cards": "yes",
        "payment:debit_cards": "yes",
        "shop": "clothes"
      }
    },
    {
      "type": "node",
      "id": 12460866499,
      "lat": 12.9566705,
      "lon": 77.6999969,
      "tags": {
        "addr:floor": "G;1",
        "air_conditioning": "yes",
        "brand": "Bhima Jewellers",
        "brand:wikidata": "Q17004889",
        "check_date": "2024-12-29",
        "level": "0;1",
        "name": "Bhima Jewellers",
        "payment:cash": "yes",
        "payment:credit_cards": "yes",
        "payment:debit_cards": "yes",
        "shop": "jewelry",
        "wheelchair": "no"
      }
    },
    {
      "type": "node",
      "id": 12460866500,
      "lat": 12.9567726,
      "lon": 77.7003897,
      "tags": {
        "brand": "Forever 21",
        "brand:wikidata": "Q1060537",
        "check_date": "2025-06-14",
        "name": "Forever 21",
        "shop": "clothes"
      }
    },
    {
      "type": "node",
      "id": 12460949601,
      "lat": 12.9567487,
      "lon": 77.700455,
      "tags": {
        "brand": "Reebok",
        "brand:wikidata": "Q466183",
        "check_date": "2025-06-14",
        "name": "Reebok",
        "shop": "clothes"
      }
    },
    {
      "type": "node",
      "id": 12539122837,
      "lat": 12.950865,
      "lon": 77.7000867,
      "tags": {
        "amenity": "restaurant",
        "name": "Helen's Place"
      }
    },
    {
      "type": "node",
      "id": 12580972673,
      "lat": 12.9608165,
      "lon": 77.7012261,
      "tags": {
        "amenity": "atm",
        "brand": "IndusInd Bank",
        "brand:wikidata": "Q2040323",
        "check_date": "2025-02-12",
        "opening_hours": "24/7",
        "operator": "IndusInd Bank",
        "operator:wikidata": "Q2040323",
        "source": "survey"
      }
    },
    {
      "type": "node",
      "id": 12795811355,
      "lat": 12.9469174,
      "lon": 77.6992165,
      "tags": {
        "amenity": "restaurant",
        "bar": "yes",
        "name": "Shift Rooftop Bar & Kitchen",
        "outdoor_seating": "roof"
      }
    },
    {
      "type": "node",
      "id": 12951424131,
      "lat": 12.9544765,
      "lon": 77.7001952,
      "tags": {
        "check_date": "2025-06-25",
        "level": "0",
        "name": "Foot Fashion",
        "shop": "shoes"
      }
    },
    {
      "type": "node",
      "id": 12951424132,
      "lat": 12.9545064,
      "lon": 77.700129,
      "tags": {
        "check_date": "2025-06-25",
        "level": "1",
        "name": "Asus Laptop & Mobile Repair",
        "shop": "repair"
      }
    },
    {
      "type": "node",
      "id": 12951424133,
      "lat": 12.9545059,
      "lon": 77.7001971,
      "tags": {
        "check_date": "2025-06-25",
        "shop": "clothes"
      }
    },
    {
      "type": "node",
      "id": 12951424134,
      "lat": 12.9546922,
      "lon": 77.700256,
      "tags": {
        "amenity": "restaurant",
        "check_date": "2025-06-25",
        "cuisine": "andhra",
        "diet:vegetarian": "yes",
        "level": "0",
        "name": "Sri Guntu Ruchulu"
      }
    },
    {
      "type": "node",
      "id": 12951424135,
      "lat": 12.9547135,
      "lon": 77.7002599,
      "tags": {
        "check_date": "2025-06-25",
        "name": "Bag & Footware",
        "shop": "bag;shoes"
      }
    },
    {
      "type": "node",
      "id": 12951424136,
      "lat": 12.9547599,
      "lon": 77.700275,
      "tags": {
        "check_date": "2025-06-25",
        "name": "Sanndhi Bakery",
        "shop": "bakery"
      }
    },
    {
      "type": "node",
      "id": 12951424137,
      "lat": 12.9547359,
      "lon": 77.7002677,
      "tags": {
        "check_date": "2025-06-25",
        "clothes": "men",
        "name": "Fabio",
        "shop": "clothes"
      }
    },
    {
      "type": "node",
      "id": 12951424138,
      "lat": 12.9548113,
      "lon": 77.7003014,
      "tags": {
        "check_date": "2025-06-25",
        "clothes": "men",
        "name": "Flash Gents Wear",
        "shop": "clothes"
      }
    },
    {
      "type": "node",
      "id": 12951424139,
      "lat": 12.9548261,
      "lon": 77.7003098,
      "tags": {
        "check_date": "2025-06-25",
        "clothes": "women",
        "name": "Flash Women's Wear",
        "shop": "clothes"
      }
    },
    {
      "type": "node",
      "id": 12951424140,
      "lat": 12.9547867,
      "lon": 77.7002958,
      "tags": {
        "check_date": "2025-06-25",
        "shop": "shoes"
      }
    },
    {
      "type": "node",
      "id": 12956507867,
      "lat": 12.9548832,
      "lon": 77.7002763,
      "tags": {
        "brand:website": "firstcry.com",
        "check_date": "2025-06-27",
        "name": "Firstcry",
        "shop": "baby_goods"
      }
    },
    {
      "type": "node",
      "id": 13013958063,
      "lat": 12.9512351,
      "lon": 77.6993442,
      "tags": {
        "amenity": "restaurant",
        "cuisine": "barbecue",
        "name": "ASF - Ancient Stone Flames"
      }
    },
    {
      "type": "node",
      "id": 13033289901,
      "lat": 12.9572779,
      "lon": 77.7094779,
      "tags": {
        "amenity": "bar",
        "name": "Divine Drops"
      }
    },
    {
      "type": "node",
      "id": 13288585565,
      "lat": 12.9509627,
      "lon": 77.7001091,
      "tags": {
        "amenity": "bar",
        "name": "One Floor Down"
      }
    },
    {
      "type": "way",
      "id": 152941097,
      "center": {
        "lat": 12.9588037,
        "lon": 77.7073577
      },
      "tags": {
        "amenity": "parking",
        "name": "Visitors'Car Park",
        "parking": "lane"
      }
    },
    {
      "type": "way",
      "id": 152941098,
      "center": {
        "lat": 12.9580467,
        "lon": 77.7073377
      },
      "tags": {
        "leisure": "pitch",
        "sport": "tennis"
      }
    },
    {
      "type": "way",
      "id": 152941109,
      "center": {
        "lat": 12.9577225,
        "lon": 77.7073913
      },
      "tags": {
        "leisure": "pitch",
        "sport": "tennis",
        "surface": "acrylic"
      }
    },
    {
      "type": "way",
      "id": 152941116,
      "center": {
        "lat": 12.9587665,
        "lon": 77.7072472
      },
      "tags": {
        "access": "private",
        "leisure": "playground",
        "name": "Children's Play Area"
      }
    },
    {
      "type": "way",
      "id": 152941117,
      "center": {
        "lat": 12.9568453,
        "lon": 77.7082826
      },
      "tags": {
        "leisure": "garden"
      }
    },
    {
      "type": "way",
      "id": 152980571,
      "center": {
        "lat": 12.9589965,
        "lon": 77.7055513
      },
      "tags": {
        "access": "private",
        "leisure": "swimming_pool",
        "outdoor": "yes"
      }
    },
    {
      "type": "way",
      "id": 152980573,
      "center": {
        "lat": 12.9602084,
        "lon": 77.7049042
      },
      "tags": {
        "leisure": "pitch",
        "sport": "tennis"
      }
    },
    {
      "type": "way",
      "id": 152980576,
      "center": {
        "lat": 12.9569249,
        "lon": 77.7055692
      },
      "tags": {
        "amenity": "parking"
      }
    },
    {
      "type": "way",
      "id": 152980577,
      "center": {
        "lat": 12.9593032,
        "lon": 77.7055356
      },
      "tags": {
        "leisure": "garden"
      }
    },
    {
      "type": "way",
      "id": 152980580,
      "center": {
        "lat": 12.96026,
        "lon": 77.7047178
      },
      "tags": {
        "leisure": "pitch",
        "sport": "volleyball"
      }
    },
    {
      "type": "way",
      "id": 152980581,
      "center": {
        "lat": 12.9577549,
        "lon": 77.7057382
      },
      "tags": {
        "leisure": "garden"
      }
    },
    {
      "type": "way",
      "id": 152980586,
      "center": {
        "lat": 12.960221,
        "lon": 77.7051064
      },
      "tags": {
        "leisure": "playground"
      }
    },
    {
      "type": "way",
      "id": 157204432,
      "center": {
        "lat": 12.9566419,
        "lon": 77.7114601
      },
      "tags": {
        "addr:street": "Varthur Road",
        "amenity": "school",
        "check_date": "2025-04-14",
        "name": "Navaprajna Public School"
      }
    },
    {
      "type": "way",
      "id": 174046849,
      "center": {
        "lat": 12.9518935,
        "lon": 77.7067568
      },
      "tags": {
        "amenity": "school"
      }
    },
    {
      "type": "way",
      "id": 223045575,
      "center": {
        "lat": 12.9502559,
        "lon": 77.699931
      },
      "tags": {
        "building": "yes",
        "check_date": "2025-09-03",
        "name": "Adishwar",
        "name:kn": "ಅದಿಶ್ವರ್",
        "shop": "electronics",
        "wheelchair": "no"
      }
    },
    {
      "type": "way",
      "id": 223045577,
      "center": {
        "lat": 12.9523885,
        "lon": 77.7003179
      },
      "tags": {
        "amenity": "restaurant",
        "building": "commercial",
        "indoor_seating": "yes",
        "name": "Biryani Zone",
        "name:kn": "ಬಿರಿಯಾನಿ ಜೋನ್",
        "outdoor_seating": "no"
      }
    },
    {
      "type": "way",
      "id": 223045578,
      "center": {
        "lat": 12.9503673,
        "lon": 77.699956
      },
      "tags": {
        "building": "yes",
        "check_date": "2024-03-06",
        "name": "Featherlite Furniture",
        "shop": "furniture"
      }
    },
    {
      "type": "way",
      "id": 223045582,
      "center": {
        "lat": 12.9488822,
        "lon": 77.6996955
      },
      "tags": {
        "building": "yes",
        "building:levels": "4",
        "check_date": "2023-08-05",
        "disused:shop": "furniture",
        "name": "Bluestone Jewellery",
        "shop": "jewelry"
      }
    },
    {
      "type": "way",
      "id": 223045583,
      "center": {
        "lat": 12.9531178,
        "lon": 77.7004459
      },
      "tags": {
        "building": "yes",
        "building:levels": "4",
        "name": "Sofa & More",
        "shop": "furniture",
        "wheelchair": "no"
      }
    },
    {
      "type": "way",
      "id": 223045584,
      "center": {
        "lat": 12.9599574,
        "lon": 77.7016382
      },
      "tags": {
        "addr:housename": "S. V  M. Orchid",
        "addr:street": "Outer Ring Road",
        "air_conditioning": "yes",
        "building": "retail",
        "building:levels": "4",
        "check_date": "2024-12-15",
        "clothes": "women;men",
        "email": "nalliblr@nalli.com",
        "internet_access": "no",
        "name": "Nalli Silk Saree",
        "name:kn": "ನಳ್ಳಿ ಸಿಲ್ಕ್ಸ್",
        "payment:cash": "yes",
        "payment:credit_cards": "yes",
        "payment:debit_cards": "yes",
        "payment:upi": "yes",
        "phone": "08025239191",
        "second_hand": "no",
        "shop": "clothes",
        "source": "survey",
        "website": "https://www.nalli.com",
        "wheelchair": "no"
      }
    },
    {
      "type": "way",
      "id": 223045593,
      "center": {
        "lat": 12.9566395,
        "lon": 77.7018021
      },
      "tags": {
        "building": "yes",
        "name": "Jos Alukas",
        "shop": "jewelry"
      }
    },
    {
      "type": "way",
      "id": 223045596,
      "center": {
        "lat": 12.9598114,
        "lon": 77.7016128
      },
      "tags": {
        "building": "commercial",
        "check_date": "2024-12-15",
        "name": "Kalamandir",
        "name:kn": "ಕಲಾಮಂದಿರ",
        "payment:credit_cards": "yes",
        "payment:debit_cards": "yes",
        "shop": "clothes",
        "wheelchair": "no"
      }
    },
    {
      "type": "way",
      "id": 223045598,
      "center": {
        "lat": 12.948681,
        "lon": 77.6996665
      },
      "tags": {
        "addr:city": "Marathahalli, Bangalore",
        "building": "retail",
        "building:levels": "3",
        "check_date": "2025-07-04",
        "level": "0;1;2",
        "name": "Pai Electronics",
        "payment:cash": "yes",
        "payment:credit_cards": "yes",
        "payment:debit_cards": "yes",
        "shop": "electronics"
      }
    },
    {
      "type": "way",
      "id": 223045609,
      "center": {
        "lat": 12.9499459,
        "lon": 77.6998972
      },
      "tags": {
        "addr:city": "Marathahalli, Bangalore",
        "building": "retail",
        "check_date": "2025-07-04",
        "name": "Livspace",
        "shop": "interior_decoration"
      }
    },
    {
      "type": "way",
      "id": 262198741,
      "center": {
        "lat": 12.9555043,
        "lon": 77.7053083
      },
      "tags": {
        "amenity": "hospital",
        "building": "yes",
        "healthcare": "hospital",
        "name": "Lions Seva Hospital"
      }
    },
    {
      "type": "way",
      "id": 343430402,
      "center": {
        "lat": 12.9567322,
        "lon": 77.699529
      },
      "tags": {
        "addr:city": "Marathahalli, Bengaluru",
        "addr:district": "Bengaluru Urban",
        "addr:postcode": "560037",
        "addr:street": "Munnekolalu, Varthur Main Road",
        "building": "yes",
        "check_date": "2025-08-26",
        "name": "Soch Factory outlet",
        "payment:cash": "yes",
        "payment:credit_cards": "yes",
        "payment:debit_cards": "yes",
        "shop": "clothes",
        "wheelchair": "no"
      }
    },
    {
      "type": "way",
      "id": 343434792,
      "center": {
        "lat": 12.9567787,
        "lon": 77.6992354
      },
      "tags": {
        "addr:city": "Marathahalli, Bengaluru",
        "addr:district": "Bengaluru Urban",
        "addr:housenumber": "96",
        "addr:postcode": "560037",
        "addr:street": "Munnekolalu, Varthur Main Road",
        "building": "retail",
        "name": "GRT",
        "shop": "jewelry"
      }
    },
    {
      "type": "way",
      "id": 343434819,
      "center": {
        "lat": 12.9566748,
        "lon": 77.6988406
      },
      "tags": {
        "building": "yes",
        "name": "Khazana Jewellery",
        "shop": "jewelry"
      }
    },
    {
      "type": "way",
      "id": 343600093,
      "center": {
        "lat": 12.9519557,
        "lon": 77.6986227
      },
      "tags": {
        "addr:city": "Marathahalli, Bangalore",
        "addr:postcode": "560037",
        "addr:street": "Outer Ring Road",
        "amenity": "cinema",
        "building": "yes",
        "name": "Innovative Multiplex"
      }
    },
    {
      "type": "way",
      "id": 343744205,
      "center": {
        "lat": 12.9509291,
        "lon": 77.7000384
      },
      "tags": {
        "building": "commercial",
        "shop": "yes"
      }
    },
    {
      "type": "way",
      "id": 343747366,
      "center": {
        "lat": 12.9514691,
        "lon": 77.7022339
      },
      "tags": {
        "building": "yes",
        "name": "Mahindra Auto Service Center",
        "shop": "car_repair"
      }
    },
    {
      "type": "way",
      "id": 346535731,
      "center": {
        "lat": 12.9602152,
        "lon": 77.7016899
      },
      "tags": {
        "building": "yes",
        "check_date": "2025-11-27",
        "clothes": "women",
        "name": "Mugdha Art Studio",
        "payment:credit_cards": "yes",
        "payment:debit_cards": "yes",
        "payment:mastercard": "yes",
        "payment:visa": "yes",
        "shop": "clothes",
        "source": "survey",
        "website": "https://mugdha.co/",
        "wheelchair": "no"
      }
    },
    {
      "type": "way",
      "id": 346546655,
      "center": {
        "lat": 12.9573999,
        "lon": 77.7048432
      },
      "tags": {
        "addr:city": "Bengaluru",
        "addr:housenumber": "1021",
        "addr:postcode": "560037",
        "addr:street": "Munnekolala, near Railway Bridge, Maruthinagar, Lakshminarayana Pura, Marathahalli",
        "building": "commercial",
        "name": "Advaith motors",
        "shop": "repair"
      }
    },
    {
      "type": "way",
      "id": 346740473,
      "center": {
        "lat": 12.9517972,
        "lon": 77.7007287
      },
      "tags": {
        "addr:city": "Bangalore",
        "addr:country": "IN",
        "addr:housenumber": "108/2",
        "addr:postcode": "560037",
        "addr:street": "1st Main Road",
        "addr:suburb": "Marathahalli",
        "amenity": "pub",
        "building": "yes",
        "contact:facebook": "Long-Boat-Brewery",
        "contact:instagram": "longboat.brewery",
        "email": "contact@longboatbrewing.com",
        "name": "Long Boat Brewing Co.",
        "opening_hours": "12:00-01:00",
        "phone": "+91 080473 60054",
        "website": "https://www.longboatbrewing.com/"
      }
    },
    {
      "type": "way",
      "id": 346777554,
      "center": {
        "lat": 12.9480088,
        "lon": 77.7086993
      },
      "tags": {
        "amenity": "place_of_worship",
        "name": "Lakshmi Narayana Temple",
        "name:kn": "ಲಕ್ಷ್ಮೀನಾರಾಯಣ ದೇವಸ್ಥಾನ",
        "religion": "hindu"
      }
    },
    {
      "type": "way",
      "id": 346797021,
      "center": {
        "lat": 12.9558154,
        "lon": 77.7081084
      },
      "tags": {
        "leisure": "swimming_pool"
      }
    },
    {
      "type": "way",
      "id": 346829024,
      "center": {
        "lat": 12.953485,
        "lon": 77.708708
      },
      "tags": {
        "amenity": "place_of_worship",
        "building": "yes",
        "name": "Muneshwara Swami Temple",
        "name:kn": "ಮುನೇಶ್ವರ ಸ್ವಾಮಿ ದೇವಾಲಯ",
        "religion": "hindu"
      }
    },
    {
      "type": "way",
      "id": 346829260,
      "center": {
        "lat": 12.9482875,
        "lon": 77.7079487
      },
      "tags": {
        "amenity": "place_of_worship",
        "building": "yes",
        "name": "Mariyamma Temple",
        "name:kn": "ಮಾರಿಯಮ್ಮ ದೇವಸ್ಥಾನ",
        "religion": "hindu"
      }
    },
    {
      "type": "way",
      "id": 347971457,
      "center": {
        "lat": 12.9488166,
        "lon": 77.6996797
      },
      "tags": {
        "building": "yes",
        "check_date": "2023-08-05",
        "name": "Milan Furniture Store",
        "shop": "furniture"
      }
    },
    {
      "type": "way",
      "id": 363099987,
      "center": {
        "lat": 12.9560069,
        "lon": 77.7003672
      },
      "tags": {
        "amenity": "school",
        "check_date": "2025-04-06",
        "name": "Sri Chaitanya School",
        "name:kn": "ಶ್ರೀ ಚೈತನ್ಯ ಶಾಲೆ",
        "wheelchair": "yes"
      }
    },
    {
      "type": "way",
      "id": 373522629,
      "center": {
        "lat": 12.9592059,
        "lon": 77.7055154
      },
      "tags": {
        "access": "private",
        "leisure": "swimming_pool",
        "outdoor": "yes"
      }
    },
    {
      "type": "way",
      "id": 374976332,
      "center": {
        "lat": 12.9566845,
        "lon": 77.7019092
      },
      "tags": {
        "amenity": "place_of_worship",
        "building": "yes",
        "name": "Ganapati temple",
        "name:kn": "ಗಣಪತಿ ದೇವಸ್ಥಾನ",
        "religion": "hindu",
        "wheelchair": "no"
      }
    },
    {
      "type": "way",
      "id": 378409368,
      "center": {
        "lat": 12.9570922,
        "lon": 77.7011629
      },
      "tags": {
        "amenity": "taxi",
        "auto_rickshaw": "yes",
        "motorcar": "no",
        "name": "Auto Stand",
        "name:kn": "ಆಟೋ ನಿಲ್ದಾಣ"
      }
    },
    {
      "type": "way",
      "id": 469369830,
      "center": {
        "lat": 12.9495413,
        "lon": 77.7027147
      },
      "tags": {
        "amenity": "place_of_worship",
        "building": "yes",
        "name": "Ganesha Temple",
        "name:kn": "ಗಣೇಶ ದೇವಸ್ಥಾನ",
        "religion": "hindu"
      }
    },
    {
      "type": "way",
      "id": 476030209,
      "center": {
        "lat": 12.9471035,
        "lon": 77.7014593
      },
      "tags": {
        "amenity": "school",
        "name": "Chaintanya School",
        "name:kn": "ಚೈತನ್ಯ ಶಾಲೆ"
      }
    },
    {
      "type": "way",
      "id": 658117679,
      "center": {
        "lat": 12.950564,
        "lon": 77.698273
      },
      "tags": {
        "access": "customers",
        "leisure": "swimming_pool"
      }
    },
    {
      "type": "way",
      "id": 1066371922,
      "center": {
        "lat": 12.9614808,
        "lon": 77.7072099
      },
      "tags": {
        "amenity": "school",
        "name": "GJR International School"
      }
    },
    {
      "type": "way",
      "id": 1066371923,
      "center": {
        "lat": 12.9611971,
        "lon": 77.706772
      },
      "tags": {
        "leisure": "sports_centre"
      }
    },
    {
      "type": "way",
      "id": 1066371924,
      "center": {
        "lat": 12.9611665,
        "lon": 77.7067723
      },
      "tags": {
        "leisure": "track",
        "sport": "running"
      }
    },
    {
      "type": "way",
      "id": 1066371927,
      "center": {
        "lat": 12.9601848,
        "lon": 77.7062249
      },
      "tags": {
        "access": "private",
        "leisure": "pitch",
        "sport": "tennis"
      }
    },
    {
      "type": "way",
      "id": 1066506649,
      "center": {
        "lat": 12.9513535,
        "lon": 77.7014649
      },
      "tags": {
        "building": "yes",
        "fee": "yes",
        "leisure": "sports_centre",
        "name": "Orchid Sports Academy",
        "phone": "+91 090193 44999",
        "sport": "badminton"
      }
    },
    {
      "type": "way",
      "id": 1066506652,
      "center": {
        "lat": 12.9556193,
        "lon": 77.7043668
      },
      "tags": {
        "addr:city": "Marathalli",
        "addr:district": "Bengaluru Urban",
        "addr:housenumber": "6",
        "addr:postcode": "560037",
        "addr:street": "Munekolala Main Road",
        "amenity": "place_of_worship",
        "building": "church",
        "name": "St. Anthony's Church",
        "name:kn": "ಸೇಂಟ್ ಆಂಟೊನಿ ಚರ್ಚ್",
        "religion": "christian"
      }
    },
    {
      "type": "way",
      "id": 1066921708,
      "center": {
        "lat": 12.9595803,
        "lon": 77.7014978
      },
      "tags": {
        "building": "retail",
        "name": "Mr. Sofa",
        "shop": "furniture",
        "source": "survey"
      }
    },
    {
      "type": "way",
      "id": 1072561555,
      "center": {
        "lat": 12.9564431,
        "lon": 77.7106316
      },
      "tags": {
        "amenity": "fuel",
        "brand": "Hindustan Petroleum",
        "brand:wikidata": "Q1619375",
        "check_date": "2025-09-15",
        "check_date:compressed_air": "2025-09-15",
        "compressed_air": "yes",
        "fuel:diesel": "yes",
        "fuel:petrol": "yes",
        "name": "HP",
        "name:kn": "ಹಿಂದುಸ್ತಾನ್ ಪೆಟ್ರೋಲಿಯಂ",
        "official_name": "Hindustan Petroleum",
        "payment:cash": "yes",
        "payment:credit_cards": "yes",
        "payment:debit_cards": "yes",
        "payment:upi": "yes",
        "self_service": "no"
      }
    },
    {
      "type": "way",
      "id": 1072948584,
      "center": {
        "lat": 12.9508855,
        "lon": 77.6986716
      },
      "tags": {
        "air_conditioning": "yes",
        "amenity": "pub",
        "building": "yes",
        "craft": "brewery",
        "indoor_seating": "yes",
        "microbrewery": "yes",
        "name": "Iron Hill Bengaluru",
        "opening_hours": "Mo-Su 12:00-01:00",
        "outdoor_seating": "yes",
        "payment:credit_cards": "yes",
        "payment:debit_cards": "yes",
        "smoking": "separated",
        "wheelchair": "limited"
      }
    },
    {
      "type": "way",
      "id": 1072948589,
      "center": {
        "lat": 12.9507351,
        "lon": 77.6992176
      },
      "tags": {
        "access": "customers",
        "amenity": "parking",
        "fee": "no",
        "parking": "surface"
      }
    },
    {
      "type": "way",
      "id": 1072948596,
      "center": {
        "lat": 12.9518875,
        "lon": 77.6993605
      },
      "tags": {
        "access": "customers",
        "amenity": "parking",
        "parking": "surface"
      }
    },
    {
      "type": "way",
      "id": 1073336189,
      "center": {
        "lat": 12.9565792,
        "lon": 77.6974368
      },
      "tags": {
        "amenity": "fuel",
        "brand": "Hindustan Petroleum",
        "brand:wikidata": "Q1619375",
        "check_date": "2025-06-14",
        "compressed_air": "yes",
        "name": "HP",
        "name:kn": "ಹಿಂದುಸ್ತಾನ್ ಪೆಟ್ರೋಲಿಯಂ",
        "official_name": "Hindustan Petroleum"
      }
    },
    {
      "type": "way",
      "id": 1075546069,
      "center": {
        "lat": 12.9580551,
        "lon": 77.7070339
      },
      "tags": {
        "access": "private",
        "leisure": "swimming_pool"
      }
    },
    {
      "type": "way",
      "id": 1085409205,
      "center": {
        "lat": 12.9534504,
        "lon": 77.7124313
      },
      "tags": {
        "leisure": "swimming_pool"
      }
    },
    {
      "type": "way",
      "id": 1085409208,
      "center": {
        "lat": 12.9528571,
        "lon": 77.7124862
      },
      "tags": {
        "access": "private",
        "leisure": "swimming_pool"
      }
    },
    {
      "type": "way",
      "id": 1085409220,
      "center": {
        "lat": 12.9556043,
        "lon": 77.7109803
      },
      "tags": {
        "access": "private",
        "leisure": "swimming_pool"
      }
    },
    {
      "type": "way",
      "id": 1097499989,
      "center": {
        "lat": 12.9565461,
        "lon": 77.7089821
      },
      "tags": {
        "amenity": "toilets",
        "building": "yes"
      }
    },
    {
      "type": "way",
      "id": 1152477163,
      "center": {
        "lat": 12.9565725,
        "lon": 77.7030558
      },
      "tags": {
        "brand": "Nandini",
        "brand:wikidata": "Q124374212",
        "building": "retail",
        "check_date": "2025-09-03",
        "name": "Nandini",
        "name:en": "Nandini",
        "shop": "dairy"
      }
    },
    {
      "type": "way",
      "id": 1157170086,
      "center": {
        "lat": 12.9581423,
        "lon": 77.7078793
      },
      "tags": {
        "access": "private",
        "leisure": "swimming_pool"
      }
    },
    {
      "type": "way",
      "id": 1193082966,
      "center": {
        "lat": 12.9554768,
        "lon": 77.7117502
      },
      "tags": {
        "amenity": "restaurant",
        "building": "commercial",
        "contact:instagram": "zodiacbarandkitchen",
        "name": "Zodiac Bar and Kitchen",
        "smoking": "separated"
      }
    },
    {
      "type": "way",
      "id": 1194928866,
      "center": {
        "lat": 12.9564025,
        "lon": 77.7104486
      },
      "tags": {
        "access": "customers",
        "amenity": "parking",
        "fee": "no",
        "parking": "surface"
      }
    },
    {
      "type": "way",
      "id": 1194928867,
      "center": {
        "lat": 12.9563765,
        "lon": 77.7103079
      },
      "tags": {
        "access": "customers",
        "amenity": "parking",
        "fee": "no",
        "parking": "surface"
      }
    },
    {
      "type": "way",
      "id": 1194928868,
      "center": {
        "lat": 12.9563957,
        "lon": 77.7101373
      },
      "tags": {
        "access": "customers",
        "amenity": "parking",
        "fee": "no",
        "parking": "surface"
      }
    },
    {
      "type": "way",
      "id": 1194928870,
      "center": {
        "lat": 12.9562737,
        "lon": 77.7063517
      },
      "tags": {
        "building": "yes",
        "name": "Mandava",
        "shop": "jewelry"
      }
    },
    {
      "type": "way",
      "id": 1215908727,
      "center": {
        "lat": 12.9470775,
        "lon": 77.7088212
      },
      "tags": {
        "building": "yes",
        "name": "Sri Sai Jaganath Fruits & Vegetables",
        "shop": "grocery"
      }
    },
    {
      "type": "way",
      "id": 1232079597,
      "center": {
        "lat": 12.956179,
        "lon": 77.7006311
      },
      "tags": {
        "access": "customers",
        "amenity": "parking",
        "parking": "surface",
        "supervised": "yes",
        "surface": "ground"
      }
    },
    {
      "type": "way",
      "id": 1253169438,
      "center": {
        "lat": 12.9599338,
        "lon": 77.7063051
      },
      "tags": {
        "leisure": "pitch",
        "name": "Basketball Court",
        "name:kn": "ಬಾಸ್ಕೆಟ್ ಬಾಲ್",
        "sport": "basketball"
      }
    },
    {
      "type": "way",
      "id": 1253169439,
      "center": {
        "lat": 12.95978,
        "lon": 77.706328
      },
      "tags": {
        "leisure": "playground",
        "name": "Childrens Playground"
      }
    },
    {
      "type": "way",
      "id": 1253169440,
      "center": {
        "lat": 12.9583459,
        "lon": 77.706913
      },
      "tags": {
        "leisure": "playground",
        "name": "Childrens Playground"
      }
    },
    {
      "type": "way",
      "id": 1257432366,
      "center": {
        "lat": 12.961161,
        "lon": 77.7067746
      },
      "tags": {
        "leisure": "pitch",
        "sport": "soccer",
        "wheelchair": "limited"
      }
    },
    {
      "type": "way",
      "id": 1283518588,
      "center": {
        "lat": 12.9511764,
        "lon": 77.7006059
      },
      "tags": {
        "amenity": "parking",
        "parking": "surface"
      }
    },
    {
      "type": "way",
      "id": 1283518591,
      "center": {
        "lat": 12.9516302,
        "lon": 77.7014886
      },
      "tags": {
        "amenity": "parking",
        "parking": "surface"
      }
    },
    {
      "type": "way",
      "id": 1283518592,
      "center": {
        "lat": 12.951704,
        "lon": 77.7011269
      },
      "tags": {
        "amenity": "parking",
        "parking": "surface"
      }
    },
    {
      "type": "way",
      "id": 1283518595,
      "center": {
        "lat": 12.9513922,
        "lon": 77.702803
      },
      "tags": {
        "amenity": "parking",
        "parking": "surface"
      }
    },
    {
      "type": "way",
      "id": 1290202940,
      "center": {
        "lat": 12.9469875,
        "lon": 77.6990939
      },
      "tags": {
        "air_conditioning": "yes",
        "amenity": "fast_food",
        "branch": "Marathahalli",
        "building": "yes",
        "check_date": "2025-07-04",
        "diet:vegetarian": "yes",
        "indoor_seating": "yes",
        "name": "Leon's Burgers & Wings",
        "outdoor_seating": "no",
        "payment:cash": "yes",
        "payment:credit_cards": "yes",
        "payment:debit_cards": "yes",
        "smoking": "no",
        "source": "survey",
        "takeaway": "yes",
        "wheelchair": "no"
      }
    },
    {
      "type": "way",
      "id": 1311156067,
      "center": {
        "lat": 12.9564757,
        "lon": 77.7099076
      },
      "tags": {
        "amenity": "parking"
      }
    },
    {
      "type": "way",
      "id": 1334165085,
      "center": {
        "lat": 12.9517505,
        "lon": 77.7024581
      },
      "tags": {
        "amenity": "charging_station",
        "brand": "Jio BP",
        "operator": "Jio BP"
      }
    },
    {
      "type": "way",
      "id": 1338993115,
      "center": {
        "lat": 12.9507664,
        "lon": 77.7087812
      },
      "tags": {
        "building": "sports_hall",
        "fee": "yes",
        "leisure": "sports_centre",
        "name": "Rams Sports Arena",
        "sport": "badminton"
      }
    },
    {
      "type": "way",
      "id": 1353077792,
      "center": {
        "lat": 12.95156,
        "lon": 77.700472
      },
      "tags": {
        "access": "customers",
        "amenity": "parking",
        "parking": "surface"
      }
    },
    {
      "type": "way",
      "id": 1418245175,
      "center": {
        "lat": 12.956741,
        "lon": 77.7094538
      },
      "tags": {
        "access": "customers",
        "amenity": "parking",
        "parking": "surface"
      }
    },
    {
      "type": "way",
      "id": 1434043752,
      "center": {
        "lat": 12.9524245,
        "lon": 77.7075672
      },
      "tags": {
        "leisure": "sports_centre",
        "sport": "tennis;basketball"
      }
    },
    {
      "type": "way",
      "id": 1434043775,
      "center": {
        "lat": 12.9536276,
        "lon": 77.706051
      },
      "tags": {
        "access": "private",
        "leisure": "playground"
      }
    },
    {
      "type": "way",
      "id": 1434043776,
      "center": {
        "lat": 12.9536197,
        "lon": 77.7058868
      },
      "tags": {
        "access": "private",
        "leisure": "swimming_pool"
      }
    }
  ]
}