{
  "area_name": "Palanahalli",
  "osm_id": 13288611810,
  "osm_type": "node",
  "place_type": "neighbourhood",
  "amenity_count": 49,
  "amenities": [
    {
      "type": "node",
      "id": 5983331355,
      "lat": 13.118638,
      "lon": 77.6078781,
      "tags": {
        "amenity": "hospital",
        "name": "CyteCare",
        "name:ar": "بتي سكان"
      }
    },
    {
      "type": "node",
      "id": 6944464779,
      "lat": 13.1215236,
      "lon": 77.6126106,
      "tags": {
        "addr:district": "Bengaluru Urban",
        "addr:full": "Near Bagalur Cross Signal,International Airport Main Road,Yelahanka",
        "addr:postcode": "560063",
        "addr:state": "Karnataka",
        "amenity": "hospital",
        "name": "Saranalaya Hospital",
        "source": "OpenGovernmentData"
      }
    },
    {
      "type": "node",
      "id": 7579683190,
      "lat": 13.1209301,
      "lon": 77.6164782,
      "tags": {
        "addr:district": "Bengaluru Urban",
        "addr:full": "Vinayaka Nagar, Yelahanka, Bengaluru",
        "addr:postcode": "560063",
        "addr:state": "Karnataka",
        "amenity": "dentist",
        "name": "iDentist Family Dental Care",
        "source": "Local Knowledge"
      }
    },
    {
      "type": "node",
      "id": 7579683192,
      "lat": 13.1214057,
      "lon": 77.6140329,
      "tags": {
        "addr:district": "Bengaluru Urban",
        "addr:full": "Vinayak Nagar, Kattigenahalli, Bengaluru",
        "addr:postcode": "560064",
        "addr:state": "Karnataka",
        "amenity": "clinic",
        "name": "Chirayu Clinic",
        "source": "Local Knowledge"
      }
    },
    {
      "type": "node",
      "id": 7579683193,
      "lat": 13.120977,
      "lon": 77.6176084,
      "tags": {
        "addr:district": "Bengaluru Urban",
        "addr:full": "Dwarka Nagar, Bengaluru",
        "addr:postcode": "560064",
        "addr:state": "Karnataka",
        "amenity": "hospital",
        "name": "Valens Hospitals",
        "source": "Local Knowledge"
      }
    },
    {
      "type": "node",
      "id": 7579683220,
      "lat": 13.1215701,
      "lon": 77.6126077,
      "tags": {
        "addr:district": "Bengaluru Urban",
        "addr:full": "Vinayak Nagar, Kattigenahalli, Bengaluru",
        "addr:postcode": "560063",
        "addr:state": "Karnataka",
        "amenity": "hospital",
        "name": "Om Shakthi Hospital",
        "source": "Local Knowledge"
      }
    },
    {
      "type": "node",
      "id": 7579683227,
      "lat": 13.1213645,
      "lon": 77.6173714,
      "tags": {
        "addr:district": "Bengaluru Urban",
        "addr:full": "Dwarka Nagar, Bengaluru",
        "addr:postcode": "560063",
        "addr:state": "Karnataka",
        "amenity": "clinic",
        "name": "Seven Hills Clinic",
        "source": "Local Knowledge"
      }
    },
    {
      "type": "node",
      "id": 7579683229,
      "lat": 13.1214663,
      "lon": 77.6153779,
      "tags": {
        "addr:district": "Bengaluru Urban",
        "addr:full": "Vinayaka Nagar, Bengaluru",
        "addr:postcode": "560064",
        "addr:state": "Karnataka",
        "amenity": "dentist",
        "name": "Dentteq Dental Clinic",
        "source": "Local Knowledge"
      }
    },
    {
      "type": "node",
      "id": 7579683233,
      "lat": 13.1213917,
      "lon": 77.6124201,
      "tags": {
        "addr:district": "Bengaluru Urban",
        "addr:full": "Near Anandnagar, Yelahanka, Bengaluru",
        "addr:postcode": "560063",
        "addr:state": "Karnataka",
        "amenity": "clinic",
        "name": "Ganga ENT Clinic",
        "source": "Local Knowledge"
      }
    },
    {
      "type": "node",
      "id": 7579683247,
      "lat": 13.1213668,
      "lon": 77.6174817,
      "tags": {
        "addr:district": "Bengaluru Urban",
        "addr:full": "Bagalur Main Road, Vinayak Nagar, Kattigenahalli, Bengaluru",
        "addr:postcode": "560064",
        "addr:state": "Karnataka",
        "amenity": "hospital",
        "name": "Sapthagiri Hospital",
        "source": "Local Knowledge"
      }
    },
    {
      "type": "node",
      "id": 9977355608,
      "lat": 13.1150962,
      "lon": 77.6057482,
      "tags": {
        "addr:city": "Bengaluru",
        "addr:country": "IN",
        "addr:postcode": "560064",
        "addr:street": "Bellary Road",
        "addr:suburb": "Yelahanka",
        "amenity": "coworking_space",
        "fee": "yes",
        "name": "WeWork",
        "office": "coworking",
        "operator": "WeWork",
        "website": "https://www.wework.com/buildings/northgate-business-park--bengaluru--Karnataka"
      }
    },
    {
      "type": "node",
      "id": 11386036953,
      "lat": 13.121367,
      "lon": 77.6175957,
      "tags": {
        "amenity": "restaurant",
        "name": "Panchami sagar"
      }
    },
    {
      "type": "node",
      "id": 11819543689,
      "lat": 13.121056,
      "lon": 77.6121104,
      "tags": {
        "amenity": "cafe"
      }
    },
    {
      "type": "node",
      "id": 12201270868,
      "lat": 13.1236389,
      "lon": 77.6190497,
      "tags": {
        "amenity": "parking_entrance"
      }
    },
    {
      "type": "node",
      "id": 12201270870,
      "lat": 13.123549,
      "lon": 77.619059,
      "tags": {
        "amenity": "parking_entrance"
      }
    },
    {
      "type": "node",
      "id": 12211559773,
      "lat": 13.1214308,
      "lon": 77.6218865,
      "tags": {
        "amenity": "place_of_worship",
        "check_date": "2024-09-30",
        "religion": "hindu"
      }
    },
    {
      "type": "node",
      "id": 12211559774,
      "lat": 13.1213753,
      "lon": 77.6204923,
      "tags": {
        "check_date": "2024-09-30",
        "name": "Airtel",
        "shop": "telecommunication"
      }
    },
    {
      "type": "node",
      "id": 12211559775,
      "lat": 13.1210351,
      "lon": 77.6174285,
      "tags": {
        "check_date": "2024-09-30",
        "name": "Tumbledry",
        "shop": "dry_cleaning"
      }
    },
    {
      "type": "node",
      "id": 12211559776,
      "lat": 13.1208905,
      "lon": 77.6164926,
      "tags": {
        "amenity": "bank",
        "brand": "Axis Bank",
        "brand:wikidata": "Q2003549",
        "check_date": "2024-09-30",
        "name": "Axis Bank"
      }
    },
    {
      "type": "node",
      "id": 12211559777,
      "lat": 13.1213851,
      "lon": 77.6141248,
      "tags": {
        "amenity": "restaurant",
        "brand": "Pizza Hut",
        "brand:wikidata": "Q191615",
        "check_date": "2024-09-30",
        "cuisine": "pizza",
        "name": "Pizza Hut",
        "name:kn": "ಪಿಟ್ಸ ಹಟ್"
      }
    },
    {
      "type": "node",
      "id": 12211559778,
      "lat": 13.1212999,
      "lon": 77.6140854,
      "tags": {
        "brand": "Lenskart",
        "brand:wikidata": "Q17068753",
        "check_date": "2024-09-30",
        "name": "Lenskart",
        "shop": "optician"
      }
    },
    {
      "type": "node",
      "id": 12212969782,
      "lat": 13.1219137,
      "lon": 77.6112879,
      "tags": {
        "amenity": "taxi",
        "taxi_vehicle": "auto_rickshaw"
      }
    },
    {
      "type": "node",
      "id": 12212969786,
      "lat": 13.1213515,
      "lon": 77.617323,
      "tags": {
        "amenity": "restaurant",
        "check_date": "2024-10-01",
        "name": "Dine Spot"
      }
    },
    {
      "type": "node",
      "id": 12212969787,
      "lat": 13.1216608,
      "lon": 77.6199518,
      "tags": {
        "check_date": "2024-10-01",
        "name": "Adishwar",
        "shop": "electronics"
      }
    },
    {
      "type": "node",
      "id": 12357225897,
      "lat": 13.1121169,
      "lon": 77.6168083,
      "tags": {
        "amenity": "shelter",
        "shelter_type": "gazebo"
      }
    },
    {
      "type": "node",
      "id": 13155774049,
      "lat": 13.1228705,
      "lon": 77.6108205,
      "tags": {
        "amenity": "bar",
        "check_date": "2025-09-19",
        "name": "Amulya Bar & Restaurant"
      }
    },
    {
      "type": "node",
      "id": 13155774050,
      "lat": 13.1198588,
      "lon": 77.6090761,
      "tags": {
        "brand": "Volkswagen",
        "brand:wikidata": "Q246",
        "check_date": "2025-09-19",
        "name": "Volkswagen",
        "shop": "car"
      }
    },
    {
      "type": "node",
      "id": 13155774051,
      "lat": 13.1175131,
      "lon": 77.6093175,
      "tags": {
        "brand": "Land Rover",
        "brand:wikidata": "Q26777551",
        "check_date": "2025-09-19",
        "name": "Land Rover",
        "shop": "car"
      }
    },
    {
      "type": "way",
      "id": 628739078,
      "center": {
        "lat": 13.1240154,
        "lon": 77.6204825
      },
      "tags": {
        "addr:city": "Bengaluru",
        "addr:postcode": "560063",
        "addr:street": "Bagalur Road",
        "amenity": "college",
        "contact:email": "brindavancollege.edu.in",
        "internet_access": "yes",
        "name": "Brindavan Group of Institutions",
        "phone": "080-28478766"
      }
    },
    {
      "type": "way",
      "id": 1084735115,
      "center": {
        "lat": 13.1091167,
        "lon": 77.6142983
      },
      "tags": {
        "amenity": "school",
        "name": "Alpha Public School"
      }
    },
    {
      "type": "way",
      "id": 1084735133,
      "center": {
        "lat": 13.1157885,
        "lon": 77.6120715
      },
      "tags": {
        "amenity": "school",
        "name": "Chinmaya Vidyalaya",
        "name:kn": "ಚಿನ್ಮಯ ವಿದ್ಯಾಲಯ"
      }
    },
    {
      "type": "way",
      "id": 1182392577,
      "center": {
        "lat": 13.1211866,
        "lon": 77.6069022
      },
      "tags": {
        "amenity": "school",
        "name": "Chrysalis High School"
      }
    },
    {
      "type": "way",
      "id": 1233840297,
      "center": {
        "lat": 13.1213584,
        "lon": 77.6070435
      },
      "tags": {
        "access": "private",
        "leisure": "swimming_pool"
      }
    },
    {
      "type": "way",
      "id": 1233840337,
      "center": {
        "lat": 13.1199846,
        "lon": 77.6091888
      },
      "tags": {
        "brand": "BYD",
        "landuse": "commercial",
        "name": "BYD",
        "operator": "BYD",
        "shop": "car"
      }
    },
    {
      "type": "way",
      "id": 1233840342,
      "center": {
        "lat": 13.1175419,
        "lon": 77.6095066
      },
      "tags": {
        "brand": "Jaguar",
        "brand:wikidata": "Q21170490",
        "check_date": "2024-09-30",
        "landuse": "commercial",
        "name": "Jaguar",
        "operator": "Marqland",
        "shop": "car"
      }
    },
    {
      "type": "way",
      "id": 1244274382,
      "center": {
        "lat": 13.1159025,
        "lon": 77.6069811
      },
      "tags": {
        "access": "private",
        "amenity": "parking",
        "parking": "surface"
      }
    },
    {
      "type": "way",
      "id": 1267624408,
      "center": {
        "lat": 13.1226344,
        "lon": 77.6217587
      },
      "tags": {
        "leisure": "garden"
      }
    },
    {
      "type": "way",
      "id": 1272767220,
      "center": {
        "lat": 13.1183866,
        "lon": 77.6082057
      },
      "tags": {
        "addr:district": "Bengaluru Urban",
        "addr:full": "BSF Campus, Yelahanka, Bengaluru",
        "addr:postcode": "560064",
        "addr:state": "Karnataka",
        "amenity": "hospital",
        "name": "Brains Hospital",
        "source": "Local Knowledge"
      }
    },
    {
      "type": "way",
      "id": 1272767221,
      "center": {
        "lat": 13.1153101,
        "lon": 77.6082843
      },
      "tags": {
        "brand": "Hyundai",
        "check_date": "2024-09-30",
        "landuse": "commercial",
        "name": "Hyundai",
        "operator": "Trident",
        "shop": "car"
      }
    },
    {
      "type": "way",
      "id": 1272767226,
      "center": {
        "lat": 13.1143915,
        "lon": 77.6088685
      },
      "tags": {
        "amenity": "college",
        "name": "MVM Institute of Nursing Sciences"
      }
    },
    {
      "type": "way",
      "id": 1272828052,
      "center": {
        "lat": 13.1204278,
        "lon": 77.61086
      },
      "tags": {
        "leisure": "fitness_station"
      }
    },
    {
      "type": "way",
      "id": 1272828055,
      "center": {
        "lat": 13.1213912,
        "lon": 77.611639
      },
      "tags": {
        "leisure": "sports_centre"
      }
    },
    {
      "type": "way",
      "id": 1272828058,
      "center": {
        "lat": 13.1214431,
        "lon": 77.6117771
      },
      "tags": {
        "leisure": "garden"
      }
    },
    {
      "type": "way",
      "id": 1272828062,
      "center": {
        "lat": 13.1200941,
        "lon": 77.6115642
      },
      "tags": {
        "access": "private",
        "amenity": "parking",
        "parking": "surface"
      }
    },
    {
      "type": "way",
      "id": 1272828066,
      "center": {
        "lat": 13.1208596,
        "lon": 77.6108524
      },
      "tags": {
        "leisure": "park"
      }
    },
    {
      "type": "way",
      "id": 1272828068,
      "center": {
        "lat": 13.1206106,
        "lon": 77.6120259
      },
      "tags": {
        "access": "private",
        "amenity": "parking",
        "parking": "surface"
      }
    },
    {
      "type": "way",
      "id": 1418331320,
      "center": {
        "lat": 13.1166638,
        "lon": 77.6076666
      },
      "tags": {
        "amenity": "place_of_worship",
        "religion": "hindu"
      }
    },
    {
      "type": "way",
      "id": 1426691106,
      "center": {
        "lat": 13.1199293,
        "lon": 77.6123727
      },
      "tags": {
        "amenity": "school",
        "landuse": "education"
      }
    },
    {
      "type": "way",
      "id": 1442524761,
      "center": {
        "lat": 13.1229782,
        "lon": 77.6191227
      },
      "tags": {
        "access": "private",
        "leisure": "swimming_pool",
        "location": "outdoor"
      }
    }
  ]
}