{
  "area_name": "Parangipalya",
  "osm_id": 10978335945,
  "osm_type": "node",
  "place_type": "neighbourhood",
  "amenity_count": 375,
  "amenities": [
    {
      "type": "node",
      "id": 266472080,
      "lat": 12.9056265,
      "lon": 77.6487875,
      "tags": {
        "amenity": "post_box"
      }
    },
    {
      "type": "node",
      "id": 1281143322,
      "lat": 12.9117883,
      "lon": 77.6513699,
      "tags": {
        "name": "Lakme Beauty Parlour",
        "shop": "hairdresser"
      }
    },
    {
      "type": "node",
      "id": 1281143331,
      "lat": 12.9118085,
      "lon": 77.6512869,
      "tags": {
        "addr:city": "BENGALURU",
        "addr:postcode": "560102",
        "addr:street": "17th Cross Road",
        "name": "MK Retail Super Market",
        "organic": "yes",
        "shop": "supermarket",
        "website": "https://www.mkretail.com/"
      }
    },
    {
      "type": "node",
      "id": 1299901719,
      "lat": 12.913356,
      "lon": 77.651692,
      "tags": {
        "amenity": "cafe",
        "brand": "Cafe Coffee Day",
        "brand:wikidata": "Q5017235",
        "cuisine": "coffee_shop",
        "name": "Cafe Coffee Day",
        "name:kn": "ಕಫೆ ಕಾಫಿ ಡೇ",
        "takeaway": "yes"
      }
    },
    {
      "type": "node",
      "id": 1299903066,
      "lat": 12.913287,
      "lon": 77.651677,
      "tags": {
        "amenity": "fast_food",
        "brand": "Papa John's",
        "brand:wikidata": "Q2759586",
        "cuisine": "pizza",
        "delivery": "yes",
        "name": "Papa John's",
        "name:kn": "ಪಪ ಜಾನ್ಸ್",
        "phone": "080-42134320",
        "takeaway": "yes"
      }
    },
    {
      "type": "node",
      "id": 1299906413,
      "lat": 12.9151274,
      "lon": 77.6516323,
      "tags": {
        "check_date": "2025-04-04",
        "name": "Swadeshi",
        "payment:cash": "yes",
        "payment:mastercard": "yes",
        "payment:visa": "yes",
        "shop": "clothes"
      }
    },
    {
      "type": "node",
      "id": 1299907760,
      "lat": 12.914646,
      "lon": 77.651656,
      "tags": {
        "name": "Next",
        "shop": "electronics"
      }
    },
    {
      "type": "node",
      "id": 1299909591,
      "lat": 12.914474,
      "lon": 77.651684,
      "tags": {
        "check_date": "2025-04-04",
        "delivery": "yes",
        "name": "Multiplex Hypermarket",
        "payment:cash": "yes",
        "payment:mastercard": "yes",
        "payment:visa": "yes",
        "shop": "department_store",
        "wheelchair": "no"
      }
    },
    {
      "type": "node",
      "id": 1307453441,
      "lat": 12.9157042,
      "lon": 77.6505276,
      "tags": {
        "addr:postcode": "560102",
        "addr:street": "13th cross",
        "amenity": "pharmacy",
        "dispensing": "yes",
        "healthcare": "pharmacy",
        "name": "Giri Medicals"
      }
    },
    {
      "type": "node",
      "id": 1467831581,
      "lat": 12.9076312,
      "lon": 77.6492635,
      "tags": {
        "addr:district": "Bengaluru",
        "addr:postcode": "560102",
        "addr:street": "24th main hsr 2nd sector",
        "amenity": "pharmacy",
        "dispensing": "yes",
        "healthcare": "pharmacy",
        "name": "Sree Shakthi medicals"
      }
    },
    {
      "type": "node",
      "id": 1468161640,
      "lat": 12.908852,
      "lon": 77.6462728,
      "tags": {
        "addr:street": "22 cross Hsr2",
        "name": "GK Vale studio",
        "shop": "electronics"
      }
    },
    {
      "type": "node",
      "id": 1468247384,
      "lat": 12.912091,
      "lon": 77.6486797,
      "tags": {
        "check_date": "2025-09-27",
        "name": "MK Supermart",
        "shop": "convenience"
      }
    },
    {
      "type": "node",
      "id": 1468908276,
      "lat": 12.9076284,
      "lon": 77.6493158,
      "tags": {
        "amenity": "clinic",
        "healthcare": "clinic",
        "name": "A K Clinic"
      }
    },
    {
      "type": "node",
      "id": 1468908281,
      "lat": 12.9081132,
      "lon": 77.6493238,
      "tags": {
        "addr:postcode": "560102",
        "addr:street": "24th main hsr 2nd sector",
        "amenity": "pharmacy",
        "brand": "Apollo Pharmacy",
        "brand:wikidata": "Q62562612",
        "dispensing": "yes",
        "healthcare": "pharmacy",
        "name": "Apollo Pharmacy",
        "name:kn": "ಅಪೋಲೋ ಫಾರ್ಮಸಿ"
      }
    },
    {
      "type": "node",
      "id": 1468908282,
      "lat": 12.9158901,
      "lon": 77.6506948,
      "tags": {
        "addr:street": "13th cross",
        "amenity": "hospital",
        "healthcare": "hospital",
        "name": "Asha Clinic"
      }
    },
    {
      "type": "node",
      "id": 1468908295,
      "lat": 12.9071172,
      "lon": 77.6491754,
      "tags": {
        "addr:postcode": "560102",
        "addr:street": "24th main hsr 2nd sector",
        "amenity": "pharmacy",
        "brand": "MedPlus",
        "brand:wikidata": "Q65684234",
        "dispensing": "yes",
        "healthcare": "pharmacy",
        "name": "MedPlus",
        "name:kn": "ಮೆಡ್‍ಪ್ಲಸ್"
      }
    },
    {
      "type": "node",
      "id": 1468908297,
      "lat": 12.9120609,
      "lon": 77.6493739,
      "tags": {
        "amenity": "bank",
        "atm": "yes",
        "brand": "State Bank of India",
        "brand:wikidata": "Q1340361",
        "brand:wikipedia": "en:State Bank of India",
        "check_date": "2023-10-08",
        "name": "State Bank of India",
        "name:kn": "ಸ್ಟೇಟ್ ಬ್ಯಾಂಕ್ ಆಫ್ ಇಂಡಿಯಾ",
        "short_name": "SBI",
        "website": "https://www.sbi.co.in",
        "wheelchair": "no"
      }
    },
    {
      "type": "node",
      "id": 1468908300,
      "lat": 12.9075992,
      "lon": 77.6488507,
      "tags": {
        "amenity": "hospital",
        "name": "health nest"
      }
    },
    {
      "type": "node",
      "id": 1468908328,
      "lat": 12.9044398,
      "lon": 77.649016,
      "tags": {
        "shop": "supermarket"
      }
    },
    {
      "type": "node",
      "id": 1470755128,
      "lat": 12.907194,
      "lon": 77.649038,
      "tags": {
        "amenity": "place_of_worship",
        "name": "Sri Mariyamma Temple",
        "name:kn": "ಮಾರಿಯಮ್ಮ ದೇವಸ್ಥಾನ",
        "religion": "hindu"
      }
    },
    {
      "type": "node",
      "id": 1660287155,
      "lat": 12.9088046,
      "lon": 77.6497344,
      "tags": {
        "addr:housename": "Floretz Montessori",
        "addr:housenumber": "408",
        "addr:postcode": "560102",
        "addr:street": "22nd Cross, HSR Layout, Sector 2",
        "amenity": "kindergarten",
        "name": "Floretz Montessori"
      }
    },
    {
      "type": "node",
      "id": 1666879095,
      "lat": 12.9048437,
      "lon": 77.6445035,
      "tags": {
        "addr:street": "19th Main",
        "amenity": "pharmacy",
        "brand": "Apollo Pharmacy",
        "brand:wikidata": "Q62562612",
        "healthcare": "pharmacy",
        "name": "Apollo Pharmacy",
        "name:kn": "ಅಪೋಲೋ ಫಾರ್ಮಸಿ"
      }
    },
    {
      "type": "node",
      "id": 1835512586,
      "lat": 12.9074968,
      "lon": 77.6492213,
      "tags": {
        "amenity": "hospital",
        "name": "Cure & Care Dental Clinic Dr. Moumita Mukherjee"
      }
    },
    {
      "type": "node",
      "id": 2249676561,
      "lat": 12.9118559,
      "lon": 77.6516888,
      "tags": {
        "amenity": "bank",
        "atm": "yes",
        "brand": "State Bank of India",
        "brand:wikidata": "Q1340361",
        "brand:wikipedia": "en:State Bank of India",
        "name": "State Bank of India",
        "name:kn": "ಭಾರತೀಯ ಸ್ಟೇಟ್ ಬ್ಯಾಂಕ್",
        "short_name": "SBI"
      }
    },
    {
      "type": "node",
      "id": 2249679251,
      "lat": 12.9097644,
      "lon": 77.6491755,
      "tags": {
        "amenity": "atm",
        "brand": "HDFC Bank",
        "brand:wikidata": "Q631047",
        "fee": "yes",
        "name": "HDFC Bank",
        "name:kn": "ಎಚ್ ಡಿ ಎಫ್ ಸಿ",
        "operator": "HDFC Bank",
        "operator:wikidata": "Q631047",
        "short_name": "HDFC"
      }
    },
    {
      "type": "node",
      "id": 2387041695,
      "lat": 12.9043833,
      "lon": 77.6455159,
      "tags": {
        "amenity": "atm",
        "brand": "ICICI Bank",
        "brand:wikidata": "Q1653258",
        "operator": "ICICI Bank",
        "operator:wikidata": "Q1653258",
        "short_name": "ICICI"
      }
    },
    {
      "type": "node",
      "id": 2387044401,
      "lat": 12.9056019,
      "lon": 77.6444964,
      "tags": {
        "amenity": "fast_food",
        "name": "Veg Sagar"
      }
    },
    {
      "type": "node",
      "id": 2387044405,
      "lat": 12.9063471,
      "lon": 77.6445546,
      "tags": {
        "name": "Grand Supermarket",
        "shop": "supermarket"
      }
    },
    {
      "type": "node",
      "id": 2387539920,
      "lat": 12.911687,
      "lon": 77.6441212,
      "tags": {
        "brand": "Reliance Digital",
        "brand:wikidata": "Q7311012",
        "name": "Reliance Digital",
        "shop": "electronics"
      }
    },
    {
      "type": "node",
      "id": 2414612953,
      "lat": 12.9121004,
      "lon": 77.6485848,
      "tags": {
        "amenity": "hospital",
        "emergency": "no",
        "healthcare": "hospital",
        "name": "Vaidyaratnam Oushadhasala",
        "website": "https://www.vaidyaratnammooss.com/"
      }
    },
    {
      "type": "node",
      "id": 2620621562,
      "lat": 12.912293,
      "lon": 77.6442094,
      "tags": {
        "check_date": "2023-10-08",
        "name": "KidZone",
        "shop": "baby_goods"
      }
    },
    {
      "type": "node",
      "id": 3198533405,
      "lat": 12.9159911,
      "lon": 77.6513702,
      "tags": {
        "addr:city": "Bangalore",
        "addr:housenumber": "666",
        "addr:postcode": "560102",
        "addr:street": "13th Cross",
        "amenity": "restaurant",
        "capacity": "50",
        "cuisine": "chinese;thai",
        "diet:vegetarian": "yes",
        "name": "Lou Han",
        "smoking": "no"
      }
    },
    {
      "type": "node",
      "id": 3198536852,
      "lat": 12.9164007,
      "lon": 77.6515357,
      "tags": {
        "addr:city": "Bangalore",
        "addr:postcode": "560102",
        "addr:street": "12th Cross Road",
        "name": "Sancys",
        "shop": "laundry"
      }
    },
    {
      "type": "node",
      "id": 3198549998,
      "lat": 12.9160016,
      "lon": 77.6519298,
      "tags": {
        "addr:city": "Bangalore",
        "addr:postcode": "560102",
        "addr:street": "27th Main",
        "amenity": "restaurant",
        "building:levels": "1",
        "cuisine": "italian",
        "name": "Napoli",
        "smoking": "no"
      }
    },
    {
      "type": "node",
      "id": 3198572489,
      "lat": 12.9138605,
      "lon": 77.6516831,
      "tags": {
        "addr:city": "BENGALURU",
        "addr:postcode": "560102",
        "addr:street": "27th Main",
        "capacity": "20",
        "indoor_seating": "yes",
        "name": "Shubh Sweets",
        "outdoor_seating": "no",
        "shop": "confectionery"
      }
    },
    {
      "type": "node",
      "id": 3198577860,
      "lat": 12.912101,
      "lon": 77.6485607,
      "tags": {
        "addr:street": "17th Cross",
        "amenity": "restaurant",
        "capacity": "15",
        "cuisine": "chinese",
        "name": "Just momo"
      }
    },
    {
      "type": "node",
      "id": 3198578925,
      "lat": 12.9124615,
      "lon": 77.6517484,
      "tags": {
        "addr:city": "BENGALURU",
        "addr:street": "27th Main",
        "amenity": "restaurant",
        "cuisine": "chinese",
        "name": "Wang's Kitchen"
      }
    },
    {
      "type": "node",
      "id": 3198591322,
      "lat": 12.9159874,
      "lon": 77.6515544,
      "tags": {
        "amenity": "atm",
        "brand": "HDFC Bank",
        "brand:wikidata": "Q631047",
        "brand:wikipedia": "en:HDFC Bank",
        "name": "HDFC Bank",
        "operator": "HDFC Bank",
        "operator:wikidata": "Q631047",
        "operator:wikipedia": "en:HDFC Bank",
        "short_name": "HDFC",
        "website": "https://www.hdfcbank.com/"
      }
    },
    {
      "type": "node",
      "id": 3304204495,
      "lat": 12.9110059,
      "lon": 77.6444953,
      "tags": {
        "amenity": "restaurant",
        "name": "Nandini Cool Joint"
      }
    },
    {
      "type": "node",
      "id": 3426764769,
      "lat": 12.9164284,
      "lon": 77.6515856,
      "tags": {
        "name": "W",
        "shop": "clothes",
        "wheelchair": "no"
      }
    },
    {
      "type": "node",
      "id": 4315983818,
      "lat": 12.9118705,
      "lon": 77.6513705,
      "tags": {
        "addr:city": "BENGALURU",
        "addr:street": "27th Main Road, HSR Layout",
        "alt_name": "Goli Vada Pav No.1",
        "amenity": "fast_food",
        "brand": "Goli Vada Pav",
        "brand:wikidata": "Q5580697",
        "cuisine": "indian",
        "drive_through": "no",
        "name": "Goli Vada Pav",
        "name:kn": "ಗೋಲಿ ವಡ ಪಾವ್",
        "takeaway": "yes"
      }
    },
    {
      "type": "node",
      "id": 4377707481,
      "lat": 12.9083472,
      "lon": 77.6446906,
      "tags": {
        "name": "Aishwarya Supermarket",
        "shop": "supermarket",
        "wheelchair": "no"
      }
    },
    {
      "type": "node",
      "id": 4377707482,
      "lat": 12.9050379,
      "lon": 77.6436802,
      "tags": {
        "name": "Kaveri's Honey Pot",
        "shop": "alcohol"
      }
    },
    {
      "type": "node",
      "id": 4406867615,
      "lat": 12.9121238,
      "lon": 77.6509657,
      "tags": {
        "amenity": "bar",
        "description": "food and drinks",
        "name": "Mishmash"
      }
    },
    {
      "type": "node",
      "id": 4445083916,
      "lat": 12.912147,
      "lon": 77.6502115,
      "tags": {
        "addr:city": "bangalore",
        "addr:housenumber": "1131",
        "addr:postcode": "560102",
        "addr:street": "17TH CROSS,7TH SECTOR,HSRLAYOUT",
        "amenity": "restaurant",
        "cuisine": "regional",
        "delivery": "yes",
        "name": "Reddy Restaurant",
        "opening_hours": "11:30- 23:30",
        "phone": "+917760510003",
        "smoking": "no",
        "takeaway": "yes"
      }
    },
    {
      "type": "node",
      "id": 4445372309,
      "lat": 12.911789,
      "lon": 77.6432674,
      "tags": {
        "addr:city": "Bangalore",
        "addr:housenumber": "17",
        "addr:postcode": "560102",
        "addr:street": "18th Cross Road, Near Reliance Digital, Sector 3, HSR layout",
        "amenity": "restaurant",
        "cuisine": "regional",
        "delivery": "yes",
        "diet:vegetarian": "yes",
        "name": "Helloo Delhi",
        "opening_hours": "09:00-11:00,12:00-15:30,19:00-22:30",
        "phone": "+91 80 6535 1717;+91 80 6535 1818",
        "smoking": "no",
        "takeaway": "yes"
      }
    },
    {
      "type": "node",
      "id": 4445404066,
      "lat": 12.9085132,
      "lon": 77.6515084,
      "tags": {
        "addr:city": "Bangalore",
        "addr:housenumber": "1677",
        "addr:postcode": "560102",
        "addr:street": "27th Main, 22nd Cross, Sector 2, Near NIFT College, HSR Layout",
        "amenity": "restaurant",
        "cuisine": "italian",
        "delivery": "yes",
        "indoor_seating": "yes",
        "name": "Fish & Fries",
        "opening_hours": "12:00-22:35",
        "outdoor_seating": "no",
        "phone": "+91 9880116229 +91 9880202283",
        "smoking": "no",
        "takeaway": "yes"
      }
    },
    {
      "type": "node",
      "id": 4445423961,
      "lat": 12.9153154,
      "lon": 77.6516588,
      "tags": {
        "addr:city": "Bangalore",
        "addr:housenumber": "2631",
        "addr:postcode": "560102",
        "addr:street": "4th floor, 27th Main, Above Gold's Gym, Near CPWD Complex, Sector 1",
        "amenity": "restaurant",
        "cuisine": "italian",
        "delivery": "yes",
        "name": "Tomatina",
        "opening_hours": "10:36 to 15:36 ,19:00 to 220:45",
        "phone": "+91 8042420606 +919008547754",
        "smoking": "no",
        "takeaway": "yes"
      }
    },
    {
      "type": "node",
      "id": 4445529399,
      "lat": 12.9122756,
      "lon": 77.6462847,
      "tags": {
        "addr:city": "Bangalore",
        "addr:housenumber": "235",
        "addr:postcode": "560102",
        "addr:street": "17th Cross, 19th Main Road, Sector 4, HSR Layout",
        "amenity": "driving_school",
        "cuisine": "regional",
        "delivery": "yes",
        "name": "Maruti Pratham Motors Limited",
        "opening_hours": "08:00-22:30",
        "phone": "080 68888911",
        "smoking": "no",
        "takeaway": "yes"
      }
    },
    {
      "type": "node",
      "id": 4487296403,
      "lat": 12.908209,
      "lon": 77.6476635,
      "tags": {
        "addr:city": "Bangalore",
        "addr:housenumber": "434",
        "addr:postcode": "560102",
        "addr:street": "23rd Main Road",
        "brand": "Adidas",
        "brand:wikidata": "Q3895",
        "name": "Adidas",
        "name:kn": "ಅಡಿಡಾಸ್",
        "phone": "080 4218 8322",
        "shop": "sports",
        "website": "https://www.adidas.co.in/"
      }
    },
    {
      "type": "node",
      "id": 4487933394,
      "lat": 12.9102262,
      "lon": 77.6493392,
      "tags": {
        "addr:city": "Bangalore",
        "addr:housenumber": "519",
        "addr:postcode": "560102",
        "addr:street": "24th Main Road",
        "name": "PVR Sports & Trophies",
        "phone": "09972148887",
        "shop": "sports"
      }
    },
    {
      "type": "node",
      "id": 4489723448,
      "lat": 12.9082273,
      "lon": 77.6477342,
      "tags": {
        "addr:housenumber": "2nd Floo",
        "addr:street": "Bhaskar Reddy Building, Somasundrapalya Junction, HSR Layout 2nd, HSR Layout, 2nd Sector,, Garden Layout, Sector 2, HSR Layout, Bengaluru",
        "leisure": "sports_centre",
        "name": "Nextgen Fitness",
        "phone": "8041647071",
        "sport": "gymnasium",
        "website": "nextgenfitness.in"
      }
    },
    {
      "type": "node",
      "id": 4489775580,
      "lat": 12.9157519,
      "lon": 77.6516433,
      "tags": {
        "addr:city": "Bengaluru",
        "addr:housenumber": "2630, 3rd Floor",
        "addr:postcode": "560102",
        "addr:street": "27th Main",
        "leisure": "sports_centre",
        "name": "HSR Fitness World",
        "opening_hours": "Mo-Su 5:30-21:00",
        "phone": "9980355803",
        "sport": "gymnasium",
        "website": "https://hsrfitnessworld.com/"
      }
    },
    {
      "type": "node",
      "id": 4489833295,
      "lat": 12.9117839,
      "lon": 77.6434056,
      "tags": {
        "addr:city": "Bangalore",
        "addr:housenumber": "Bhagyalakshmi Square, 3rd Floor, 18th Cross",
        "addr:postcode": "560102",
        "addr:street": "17th Cross",
        "name": "Kimera Wellness Spa And Salon",
        "opening_hours": "10:00-21:00",
        "phone": "9740538447",
        "shop": "beauty"
      }
    },
    {
      "type": "node",
      "id": 4489875036,
      "lat": 12.9078244,
      "lon": 77.6447689,
      "tags": {
        "addr:city": "bangalore",
        "addr:housenumber": "No.806,Pgr Tower, 19th Main, Hsr Layout Sector 2,",
        "addr:postcode": "560102",
        "addr:street": "Hsr Layout Sector 2",
        "name": "Magic Hands",
        "opening_hours": "07:30-21:00",
        "phone": "080-33640908",
        "shop": "beauty"
      }
    },
    {
      "type": "node",
      "id": 4489889293,
      "lat": 12.9138175,
      "lon": 77.6491752,
      "tags": {
        "addr:city": "bangalore",
        "addr:housenumber": "No.1195/1276/82,",
        "addr:postcode": "560103",
        "addr:street": "Suraamy Plaza, Outer Ring Road Bellandur, Bellandur,",
        "name": "Food Palace Supermarket",
        "phone": "80-33530209",
        "shop": "supermarket"
      }
    },
    {
      "type": "node",
      "id": 4490311867,
      "lat": 12.9121818,
      "lon": 77.6487761,
      "tags": {
        "addr:city": "bangalore",
        "addr:housenumber": "25333",
        "addr:postcode": "560102",
        "addr:street": "24th Main Rd, Vanganahalli, 1st Sector, HSR Layout 5th Sector, Bengaluru,",
        "leisure": "fitness_centre",
        "name": "Apple Fitness",
        "opening_hours": "5:00-21:00",
        "phone": "7259606666",
        "website": "applefitnessindia.com"
      }
    },
    {
      "type": "node",
      "id": 4490422378,
      "lat": 12.915438,
      "lon": 77.6515839,
      "tags": {
        "addr:city": "Bangalore",
        "addr:housenumber": "2631",
        "addr:postcode": "560102",
        "addr:street": "No.2631, 27th Main Road, 1st Sector, HSR Layout, Opp CPWD Complex, 1st Sector, HSR Layout",
        "brand": "Gold's Gym",
        "brand:wikidata": "Q1536234",
        "brand:wikipedia": "en:Gold's Gym",
        "leisure": "fitness_centre",
        "name": "Gold's Gym",
        "name:kn": "ಗೊಲ್ಡ್ಸ್ ಜಿಮ್",
        "opening_hours": "6:00-21:00",
        "phone": "8042420606",
        "sport": "gymnasium",
        "website": "https://goldsgym.in/"
      }
    },
    {
      "type": "node",
      "id": 5265660303,
      "lat": 12.9117442,
      "lon": 77.6440855,
      "tags": {
        "leisure": "fitness_centre",
        "name": "Snap fitness GYM"
      }
    },
    {
      "type": "node",
      "id": 5780841177,
      "lat": 12.905697,
      "lon": 77.6511262,
      "tags": {
        "addr:city": "Bengaluru",
        "addr:housenumber": "1585",
        "addr:postcode": "560102",
        "addr:street": "27th Main Road, HSR Layout, Sector 2",
        "alt_name": "Pragmattic Services",
        "level": "1",
        "name": "Track and Trail",
        "operator": "TI Cycles India",
        "payment:cash": "yes",
        "payment:credit_cards": "yes",
        "service:bicycle:pump": "yes",
        "service:bicycle:repair": "yes",
        "service:bicycle:retail": "yes",
        "shop": "bicycle"
      }
    },
    {
      "type": "node",
      "id": 5784276606,
      "lat": 12.9056908,
      "lon": 77.6510831,
      "tags": {
        "level": "-1",
        "organic": "only",
        "shop": "supermarket"
      }
    },
    {
      "type": "node",
      "id": 5961237643,
      "lat": 12.9162445,
      "lon": 77.6519142,
      "tags": {
        "air_conditioning": "yes",
        "amenity": "cafe",
        "brand": "Cafe Coffee Day",
        "brand:wikidata": "Q5017235",
        "brand:wikipedia": "en:Café Coffee Day",
        "cuisine": "coffee_shop",
        "diet:vegetarian": "yes",
        "indoor_seating": "yes",
        "name": "Cafe Coffee Day",
        "name:kn": "ಕಫೆ ಕಾಫಿ ಡೇ",
        "outdoor_seating": "yes",
        "payment:cash": "yes",
        "payment:credit_cards": "yes",
        "payment:debit_cards": "yes",
        "smoking": "no",
        "takeaway": "yes"
      }
    },
    {
      "type": "node",
      "id": 5961239398,
      "lat": 12.9161291,
      "lon": 77.6519293,
      "tags": {
        "amenity": "ice_cream",
        "name": "Polar Bear"
      }
    },
    {
      "type": "node",
      "id": 6204917485,
      "lat": 12.9118073,
      "lon": 77.6514532,
      "tags": {
        "name": "Organic World",
        "opening_hours": "Mo-Su 08:00-21:00",
        "organic": "only",
        "shop": "supermarket"
      }
    },
    {
      "type": "node",
      "id": 6204918826,
      "lat": 12.9123124,
      "lon": 77.6444415,
      "tags": {
        "amenity": "coworking_space",
        "name": "Workshala"
      }
    },
    {
      "type": "node",
      "id": 6400279714,
      "lat": 12.9097245,
      "lon": 77.650152,
      "tags": {
        "addr:place": "Parangipalya",
        "amenity": "school",
        "isced:level": "1",
        "name": "GULPS Parangipalya, BBMP Agara",
        "name:kn": "ಸರ್ಕಾರಿ ಉರ್ದು ಪ್ರಾಥಮಿಕ ಶಾಲೆ ಪರಂಗಿಪಾಳ್ಯ, ಬಿ.ಬಿ.ಎಂ.ಪಿ ಅಗರ",
        "operator": "Department of Primary and Secondary Education",
        "operator:type": "government",
        "operator:wikidata": "Q111467381"
      }
    },
    {
      "type": "node",
      "id": 6400298824,
      "lat": 12.9137798,
      "lon": 77.6484692,
      "tags": {
        "addr:place": "HSR Layout",
        "amenity": "school",
        "isced:level": "2",
        "name": "Mount Carmel EHPS HSR Layout, BBMP Agara",
        "name:kn": "ಮೌಂಟ್ ಕಾರ್ಮೆಲ್ ಆಂಗ್ಲ ಹಿರಿಯ ಪ್ರಾಥಮಿಕ ಶಾಲೆ ಎಚ್‌ ಎಸ್ ಆರ್ ಲೇಔಟ್, ಬಿ.ಬಿ.ಎಂ.ಪಿ ಅಗರ",
        "operator": "Private Un-Aided",
        "school": "Higher primary"
      }
    },
    {
      "type": "node",
      "id": 6422582704,
      "lat": 12.8996038,
      "lon": 77.6515434,
      "tags": {
        "addr:place": "BommanaHalli",
        "amenity": "school",
        "isced:level": "3",
        "name": "Chinmaya Vidya Mandira, Bommana Halli",
        "name:kn": "ಚಿನ್ಮಯ ವಿದ್ಯಾ ಮಂದಿರ, ಬೊಮ್ಮನಹಳ್ಳಿ",
        "operator": "Private Un-Aided",
        "school": "Higher Secondary"
      }
    },
    {
      "type": "node",
      "id": 6601882386,
      "lat": 12.912086,
      "lon": 77.647847,
      "tags": {
        "name": "Kapas",
        "shop": "clothes"
      }
    },
    {
      "type": "node",
      "id": 6601884724,
      "lat": 12.9116699,
      "lon": 77.643421,
      "tags": {
        "amenity": "restaurant",
        "name": "Udaan"
      }
    },
    {
      "type": "node",
      "id": 6616986483,
      "lat": 12.9099641,
      "lon": 77.6517528,
      "tags": {
        "amenity": "ice_cream",
        "brand": "Corner House",
        "delivery": "yes",
        "name": "Corner House",
        "takeaway": "yes"
      }
    },
    {
      "type": "node",
      "id": 6938819159,
      "lat": 12.9132125,
      "lon": 77.6448494,
      "tags": {
        "addr:district": "Bengaluru Urban",
        "addr:full": "#85/1, 19th Main Hsr Layout, Sector 1",
        "addr:postcode": "560102",
        "addr:state": "Karnataka",
        "amenity": "clinic",
        "email": "info@sankalpnethralaya.com",
        "healthcare": "clinic",
        "name": "Sankalp Netralaya and Polyclinic",
        "operator:type": "private",
        "source": "OpenGovernmentData",
        "website": "https://sankalpnethralaya.com/"
      }
    },
    {
      "type": "node",
      "id": 7031782791,
      "lat": 12.9095465,
      "lon": 77.6520627,
      "tags": {
        "air_conditioning": "yes",
        "description": "Our focus is on design innovation and promotion of handcrafted products made by skilled artisans using natural inputs which sustains and preserves the environment. We are dedicated towards preserving rich and vibrant traditional Indian art.",
        "name": "Jute Cottage",
        "shop": "gift",
        "source": "survey;local knowledge;gps;aerial imagery",
        "website": "https://www.jutecottage.co.in/"
      }
    },
    {
      "type": "node",
      "id": 7085464942,
      "lat": 12.913213,
      "lon": 77.6445226,
      "tags": {
        "amenity": "cafe",
        "name": "Pappu Chaiwala"
      }
    },
    {
      "type": "node",
      "id": 9312685207,
      "lat": 12.9113501,
      "lon": 77.6522374,
      "tags": {
        "amenity": "restaurant",
        "diet:vegetarian": "yes",
        "indoor_seating": "yes",
        "name": "Cafe 27",
        "outdoor_seating": "no",
        "smoking": "no"
      }
    },
    {
      "type": "node",
      "id": 9312716290,
      "lat": 12.9126498,
      "lon": 77.6520113,
      "tags": {
        "air_conditioning": "yes",
        "amenity": "cafe",
        "brand": "Chai Point",
        "brand:wikidata": "Q28173415",
        "cuisine": "coffee_shop",
        "diet:vegetarian": "yes",
        "indoor_seating": "yes",
        "name": "Chai Point",
        "outdoor_seating": "no",
        "shop": "tea",
        "smoking": "no",
        "takeaway": "yes",
        "wheelchair": "no"
      }
    },
    {
      "type": "node",
      "id": 9514389117,
      "lat": 12.9089414,
      "lon": 77.6517168,
      "tags": {
        "amenity": "restaurant",
        "indoor_seating": "yes",
        "name": "You Me And Tea",
        "outdoor_seating": "yes"
      }
    },
    {
      "type": "node",
      "id": 9649527545,
      "lat": 12.9108583,
      "lon": 77.6517306,
      "tags": {
        "name": "Ramraj",
        "shop": "clothes"
      }
    },
    {
      "type": "node",
      "id": 9649527842,
      "lat": 12.9127406,
      "lon": 77.6445048,
      "tags": {
        "amenity": "cafe",
        "check_date": "2024-07-28",
        "indoor_seating": "yes",
        "name": "The Pet People Cafe",
        "outdoor_seating": "no",
        "payment:cash": "yes",
        "payment:credit_cards": "yes",
        "payment:debit_cards": "yes",
        "wheelchair": "no"
      }
    },
    {
      "type": "node",
      "id": 9649527853,
      "lat": 12.9121236,
      "lon": 77.6508737,
      "tags": {
        "air_conditioning": "yes",
        "amenity": "cafe",
        "brand": "Starbucks",
        "brand:wikidata": "Q37158",
        "cuisine": "coffee_shop",
        "diet:vegetarian": "yes",
        "indoor_seating": "yes",
        "name": "Starbucks",
        "official_name": "Starbucks Coffee",
        "outdoor_seating": "no",
        "smoking": "no",
        "takeaway": "yes",
        "wheelchair": "no"
      }
    },
    {
      "type": "node",
      "id": 9649527854,
      "lat": 12.9122779,
      "lon": 77.6517119,
      "tags": {
        "amenity": "restaurant",
        "cuisine": "pizza",
        "indoor_seating": "yes",
        "name": "Onesta",
        "outdoor_seating": "no",
        "wheelchair": "no"
      }
    },
    {
      "type": "node",
      "id": 9649527855,
      "lat": 12.9128583,
      "lon": 77.6520009,
      "tags": {
        "air_conditioning": "yes",
        "amenity": "fast_food",
        "brand": "Domino's",
        "brand:wikidata": "Q839466",
        "cuisine": "pizza",
        "diet:vegetarian": "yes",
        "indoor_seating": "yes",
        "name": "Domino's",
        "name:kn": "ಡಾಮಿನೋಸ್",
        "outdoor_seating": "no",
        "smoking": "no",
        "takeaway": "yes"
      }
    },
    {
      "type": "node",
      "id": 9649527860,
      "lat": 12.9087132,
      "lon": 77.6507878,
      "tags": {
        "amenity": "fast_food",
        "name": "Juice Shop"
      }
    },
    {
      "type": "node",
      "id": 9649527870,
      "lat": 12.9084399,
      "lon": 77.6517078,
      "tags": {
        "name": "KLM Fashion",
        "payment:credit_cards": "yes",
        "payment:debit_cards": "yes",
        "shop": "clothes",
        "wheelchair": "no"
      }
    },
    {
      "type": "node",
      "id": 9649527871,
      "lat": 12.9080295,
      "lon": 77.6519331,
      "tags": {
        "amenity": "restaurant",
        "name": "Kapoor's Cafe",
        "wheelchair": "no"
      }
    },
    {
      "type": "node",
      "id": 9833465632,
      "lat": 12.9133573,
      "lon": 77.6491004,
      "tags": {
        "amenity": "pharmacy",
        "healthcare": "clinic",
        "name": "Apollo Pharamacy"
      }
    },
    {
      "type": "node",
      "id": 9833465658,
      "lat": 12.9130867,
      "lon": 77.6491055,
      "tags": {
        "name": "Nandini",
        "shop": "kiosk"
      }
    },
    {
      "type": "node",
      "id": 9833630902,
      "lat": 12.9117875,
      "lon": 77.6437931,
      "tags": {
        "amenity": "restaurant",
        "name": "Leon Grill"
      }
    },
    {
      "type": "node",
      "id": 9858668160,
      "lat": 12.9102086,
      "lon": 77.6520632,
      "tags": {
        "brand": "Peter England",
        "brand:wikidata": "Q19573665",
        "clothes": "men",
        "name": "Peter England",
        "shop": "clothes"
      }
    },
    {
      "type": "node",
      "id": 9858668161,
      "lat": 12.9103289,
      "lon": 77.6520605,
      "tags": {
        "name": "Nykaa On Trend",
        "shop": "cosmetics"
      }
    },
    {
      "type": "node",
      "id": 9858668162,
      "lat": 12.9112243,
      "lon": 77.65174,
      "tags": {
        "name": "Plum and Sugar",
        "shop": "beauty"
      }
    },
    {
      "type": "node",
      "id": 9892036255,
      "lat": 12.9126949,
      "lon": 77.6523221,
      "tags": {
        "amenity": "cafe",
        "check_date": "2023-02-08",
        "delivery": "yes",
        "highchair": "no",
        "name": "SLAY Coffee",
        "payment:mastercard": "yes",
        "payment:upi": "yes",
        "payment:visa": "yes",
        "smoking": "no",
        "source": "survey",
        "takeaway": "yes",
        "website": "https://slay.coffee",
        "wheelchair": "no"
      }
    },
    {
      "type": "node",
      "id": 9904108239,
      "lat": 12.91304,
      "lon": 77.6444457,
      "tags": {
        "name": "MP Jewellers",
        "shop": "jewelry"
      }
    },
    {
      "type": "node",
      "id": 9904143769,
      "lat": 12.910253,
      "lon": 77.6516756,
      "tags": {
        "amenity": "ice_cream",
        "brand": "Baskin-Robbins",
        "brand:wikidata": "Q584601",
        "cuisine": "ice_cream",
        "name": "Baskin-Robbins"
      }
    },
    {
      "type": "node",
      "id": 9904143772,
      "lat": 12.9155289,
      "lon": 77.6515804,
      "tags": {
        "air_conditioning": "yes",
        "amenity": "restaurant",
        "brand": "Bhartiya Jalpan",
        "brand:wikidata": "Q124374711",
        "cuisine": "indian",
        "delivery": "yes",
        "indoor_seating": "yes",
        "name": "Bhartiya Jalpan",
        "outdoor_seating": "no",
        "smoking": "no",
        "takeaway": "yes"
      }
    },
    {
      "type": "node",
      "id": 10049313430,
      "lat": 12.91618,
      "lon": 77.6519234,
      "tags": {
        "addr:city": "Bengaluru",
        "addr:floor": "G",
        "addr:housenumber": "646",
        "addr:postcode": "560102",
        "addr:street": "27th Main Road",
        "brand:wikidata": "Q18919758",
        "check_date": "2024-02-08",
        "name": "Wildcraft",
        "phone": "+91 080 48506806",
        "shop": "outdoor",
        "website": "https://wildcraft.com/"
      }
    },
    {
      "type": "node",
      "id": 10049313435,
      "lat": 12.9162704,
      "lon": 77.6515959,
      "tags": {
        "check_date": "2025-04-04",
        "clothes": "underwear",
        "name": "Zivame",
        "payment:cash": "yes",
        "payment:mastercard": "yes",
        "payment:visa": "yes",
        "shop": "clothes",
        "wheelchair": "no"
      }
    },
    {
      "type": "node",
      "id": 10049313436,
      "lat": 12.9160985,
      "lon": 77.6516245,
      "tags": {
        "brand": "Biba",
        "brand:wikidata": "Q4902942",
        "check_date": "2025-04-04",
        "clothes": "women",
        "name": "Biba",
        "name:kn": "ಬೀಬ",
        "payment:cash": "yes",
        "payment:mastercard": "yes",
        "payment:visa": "yes",
        "shop": "clothes",
        "wheelchair": "no"
      }
    },
    {
      "type": "node",
      "id": 10049313437,
      "lat": 12.9160517,
      "lon": 77.6516165,
      "tags": {
        "check_date": "2025-04-04",
        "name": "Sabhyata",
        "payment:cash": "yes",
        "payment:mastercard": "yes",
        "payment:visa": "yes",
        "shop": "clothes",
        "wheelchair": "no"
      }
    },
    {
      "type": "node",
      "id": 10049313439,
      "lat": 12.9152023,
      "lon": 77.6516428,
      "tags": {
        "amenity": "fast_food",
        "cuisine": "juice",
        "name": "Juice Junction"
      }
    },
    {
      "type": "node",
      "id": 10049313448,
      "lat": 12.9139649,
      "lon": 77.6517034,
      "tags": {
        "craft": "handicraft",
        "name": "Raga Arts",
        "shop": "craft",
        "wheelchair": "no"
      }
    },
    {
      "type": "node",
      "id": 10049313457,
      "lat": 12.9131111,
      "lon": 77.6516841,
      "tags": {
        "brand": "Fabindia",
        "brand:wikidata": "Q5427779",
        "name": "Fabindia",
        "shop": "clothes"
      }
    },
    {
      "type": "node",
      "id": 10049313479,
      "lat": 12.91042,
      "lon": 77.6516842,
      "tags": {
        "clothes": "women",
        "name": "VRK Silks",
        "shop": "clothes"
      }
    },
    {
      "type": "node",
      "id": 10049313480,
      "lat": 12.9101059,
      "lon": 77.6516761,
      "tags": {
        "brand": "Raymond",
        "brand:wikidata": "Q3537018",
        "clothes": "men",
        "name": "Raymond",
        "shop": "clothes"
      }
    },
    {
      "type": "node",
      "id": 10049377704,
      "lat": 12.9121728,
      "lon": 77.6515219,
      "tags": {
        "name": "Loom Craft",
        "shop": "furniture"
      }
    },
    {
      "type": "node",
      "id": 10049386125,
      "lat": 12.9122237,
      "lon": 77.6507097,
      "tags": {
        "amenity": "bar",
        "name": "Plan B"
      }
    },
    {
      "type": "node",
      "id": 10049386139,
      "lat": 12.9120672,
      "lon": 77.6492031,
      "tags": {
        "air_conditioning": "yes",
        "brand": "Zudio",
        "brand:wikidata": "Q123375926",
        "check_date": "2023-10-08",
        "clothes": "women;men;children",
        "internet_access": "no",
        "name": "Zudio",
        "payment:credit_cards": "yes",
        "payment:debit_cards": "yes",
        "second_hand": "no",
        "shop": "clothes",
        "source": "survey",
        "toilets": "yes",
        "wheelchair": "no"
      }
    },
    {
      "type": "node",
      "id": 10049386157,
      "lat": 12.9120746,
      "lon": 77.6480039,
      "tags": {
        "brand": "More",
        "brand:wikidata": "Q6910891",
        "name": "More",
        "shop": "supermarket"
      }
    },
    {
      "type": "node",
      "id": 10049386158,
      "lat": 12.912117,
      "lon": 77.6471343,
      "tags": {
        "addr:floor": "G",
        "air_conditioning": "no",
        "amenity": "restaurant",
        "check_date": "2025-09-27",
        "indoor_seating": "yes",
        "level": "0",
        "name": "Paris Panini",
        "outdoor_seating": "no",
        "smoking": "no"
      }
    },
    {
      "type": "node",
      "id": 10049437550,
      "lat": 12.907836,
      "lon": 77.6518547,
      "tags": {
        "name": "Have Nuts",
        "shop": "greengrocer"
      }
    },
    {
      "type": "node",
      "id": 10066903094,
      "lat": 12.9093522,
      "lon": 77.6423653,
      "tags": {
        "brand": "Kodak Express",
        "brand:wikidata": "Q6425126",
        "name": "Kodak Express",
        "shop": "photo"
      }
    },
    {
      "type": "node",
      "id": 10066903107,
      "lat": 12.9090622,
      "lon": 77.6432732,
      "tags": {
        "amenity": "ice_cream",
        "brand": "Polar Bear",
        "brand:wikidata": "Q124374249",
        "delivery": "yes",
        "name": "Polar Bear",
        "takeaway": "yes"
      }
    },
    {
      "type": "node",
      "id": 10066903119,
      "lat": 12.9092427,
      "lon": 77.6439852,
      "tags": {
        "amenity": "dentist",
        "healthcare": "dentist",
        "name": "Tooth Flora"
      }
    },
    {
      "type": "node",
      "id": 10177662895,
      "lat": 12.9140677,
      "lon": 77.6449119,
      "tags": {
        "amenity": "car_wash",
        "name": "Express Car Care"
      }
    },
    {
      "type": "node",
      "id": 10228963971,
      "lat": 12.9110517,
      "lon": 77.6517239,
      "tags": {
        "amenity": "ice_cream",
        "name": "Polar Bear"
      }
    },
    {
      "type": "node",
      "id": 10228963972,
      "lat": 12.9104347,
      "lon": 77.6520525,
      "tags": {
        "name": "Aveda x Nykaa",
        "shop": "beauty"
      }
    },
    {
      "type": "node",
      "id": 10228963973,
      "lat": 12.9105511,
      "lon": 77.6520297,
      "tags": {
        "name": "Allura Imitation",
        "shop": "jewelry"
      }
    },
    {
      "type": "node",
      "id": 10228963974,
      "lat": 12.9106178,
      "lon": 77.6516823,
      "tags": {
        "name": "VLCC Wellness Centre",
        "shop": "beauty"
      }
    },
    {
      "type": "node",
      "id": 10617515634,
      "lat": 12.9125805,
      "lon": 77.6522127,
      "tags": {
        "addr:floor": "-1",
        "amenity": "cafe",
        "bar": "no",
        "check_date": "2023-02-08",
        "highchair": "no",
        "indoor_seating": "yes",
        "level": "-1",
        "name": "Lama's Cafe",
        "outdoor_seating": "no",
        "payment:cash": "yes",
        "payment:mastercard": "yes",
        "payment:upi": "yes",
        "payment:visa": "yes",
        "smoking": "no",
        "source": "survey",
        "takeaway": "yes",
        "wheelchair": "no"
      }
    },
    {
      "type": "node",
      "id": 10617515635,
      "lat": 12.912647,
      "lon": 77.6535082,
      "tags": {
        "air_conditioning": "no",
        "amenity": "cafe",
        "bar": "no",
        "check_date": "2023-02-08",
        "diet:vegetarian": "yes",
        "highchair": "no",
        "indoor_seating": "yes",
        "internet_access": "no",
        "name": "Ice Treat Cafe",
        "outdoor_seating": "yes",
        "payment:credit_cards": "yes",
        "payment:debit_cards": "yes",
        "payment:mastercard": "yes",
        "payment:upi": "yes",
        "payment:visa": "yes",
        "smoking": "no",
        "source": "survey",
        "wheelchair": "limited"
      }
    },
    {
      "type": "node",
      "id": 10718179795,
      "lat": 12.9118578,
      "lon": 77.6517238,
      "tags": {
        "amenity": "atm",
        "brand": "State Bank of India",
        "brand:wikidata": "Q1340361",
        "check_date": "2024-03-02",
        "name": "SBI Sector 2‌, HSR Layout",
        "operator": "State Bank of India",
        "operator:wikidata": "Q1340361",
        "short_name": "SBI"
      }
    },
    {
      "type": "node",
      "id": 10718179796,
      "lat": 12.9126149,
      "lon": 77.6523053,
      "tags": {
        "amenity": "atm",
        "brand": "Union Bank of India",
        "brand:wikidata": "Q2004078",
        "name": "Union Bank HSR Layout",
        "operator": "Union Bank of India",
        "operator:wikidata": "Q2004078"
      }
    },
    {
      "type": "node",
      "id": 10718514443,
      "lat": 12.9127582,
      "lon": 77.6519241,
      "tags": {
        "amenity": "clinic",
        "healthcare": "clinic",
        "name": "Jiva Ayurveda"
      }
    },
    {
      "type": "node",
      "id": 10718658055,
      "lat": 12.9127558,
      "lon": 77.6519251,
      "tags": {
        "amenity": "pharmacy",
        "healthcare": "pharmacy",
        "name": "Ram Medicals HSR Layout"
      }
    },
    {
      "type": "node",
      "id": 10727955501,
      "lat": 12.9014685,
      "lon": 77.6504016,
      "tags": {
        "amenity": "cafe",
        "contact:facebook": "lefromageboulangerie",
        "contact:instagram": "le_fromage_boulangerie",
        "delivery": "yes",
        "name": "Dunk'd",
        "old_name": "Le Fromage",
        "shop": "pastry",
        "takeaway": "yes",
        "website": "https://www.lefromage.shop"
      }
    },
    {
      "type": "node",
      "id": 10746272637,
      "lat": 12.9118509,
      "lon": 77.6536904,
      "tags": {
        "amenity": "post_office",
        "name": "India Post Office",
        "operator": "India Post",
        "operator:wikidata": "Q3519720"
      }
    },
    {
      "type": "node",
      "id": 10778975981,
      "lat": 12.9078712,
      "lon": 77.651886,
      "tags": {
        "amenity": "doctors",
        "name": "Padithem Health Centre"
      }
    },
    {
      "type": "node",
      "id": 11085582492,
      "lat": 12.9151663,
      "lon": 77.6478046,
      "tags": {
        "name": "Cakes For Treat",
        "shop": "pastry"
      }
    },
    {
      "type": "node",
      "id": 11085582494,
      "lat": 12.9051719,
      "lon": 77.6491105,
      "tags": {
        "name": "RG Unisex Salon",
        "shop": "hairdresser"
      }
    },
    {
      "type": "node",
      "id": 11085582497,
      "lat": 12.9120817,
      "lon": 77.6482942,
      "tags": {
        "addr:street": "17th Cross",
        "amenity": "cafe",
        "brand": "Glen's Bakehouse",
        "check_date": "2025-09-27",
        "delivery": "yes",
        "name": "Glen's Bakehouse",
        "shop": "pastry",
        "takeaway": "yes"
      }
    },
    {
      "type": "node",
      "id": 11085582498,
      "lat": 12.9053754,
      "lon": 77.64933,
      "tags": {
        "amenity": "fast_food",
        "cuisine": "juice",
        "name": "Fresh Cane Juice"
      }
    },
    {
      "type": "node",
      "id": 11085582499,
      "lat": 12.9139796,
      "lon": 77.649146,
      "tags": {
        "addr:city": "Bengaluru",
        "addr:postcode": "560103",
        "addr:street": "24th Main Road",
        "amenity": "fast_food",
        "name": "Sai Ram Hot Chips"
      }
    },
    {
      "type": "node",
      "id": 11085582500,
      "lat": 12.9136695,
      "lon": 77.6516824,
      "tags": {
        "amenity": "restaurant",
        "name": "Kolkata Famous Kati Roll"
      }
    },
    {
      "type": "node",
      "id": 11085582503,
      "lat": 12.9122001,
      "lon": 77.6489032,
      "tags": {
        "addr:city": "bangalore",
        "addr:housenumber": "25333",
        "addr:postcode": "560102",
        "addr:street": "24th Main Rd, Vanganahalli, 1st Sector, HSR Layout 5th Sector, Bengaluru,",
        "amenity": "fast_food",
        "cuisine": "juice",
        "name": "HSR Fresh Cane Juice"
      }
    },
    {
      "type": "node",
      "id": 11085582504,
      "lat": 12.9144825,
      "lon": 77.6491563,
      "tags": {
        "addr:city": "bangalore",
        "addr:postcode": "560103",
        "addr:street": "24th Main Rd, Vanganahalli, 1st Sector, HSR Layout 5th Sector, Bengaluru,",
        "amenity": "hospital",
        "healthcare": "hospital",
        "name": "Lotus Hospital"
      }
    },
    {
      "type": "node",
      "id": 11085606207,
      "lat": 12.9140126,
      "lon": 77.6491762,
      "tags": {
        "addr:city": "bangalore",
        "addr:postcode": "560103",
        "addr:street": "24th Main Rd, Vanganahalli, 1st Sector, HSR Layout 5th Sector, Bengaluru,",
        "name": "Mashallah Tea",
        "shop": "tea"
      }
    },
    {
      "type": "node",
      "id": 11085606208,
      "lat": 12.9120593,
      "lon": 77.6488203,
      "tags": {
        "addr:city": "bangalore",
        "addr:housenumber": "25333",
        "addr:postcode": "560102",
        "addr:street": "24th Main Rd, Vanganahalli, 1st Sector, HSR Layout 5th Sector, Bengaluru,",
        "brand": "cult.fit",
        "brand:wikidata": "Q121289250",
        "leisure": "fitness_centre",
        "name": "cult.fit"
      }
    },
    {
      "type": "node",
      "id": 11085606209,
      "lat": 12.9137907,
      "lon": 77.6517283,
      "tags": {
        "craft": "brunch",
        "indoor_seating": "yes",
        "name": "Ciciana",
        "outdoor_seating": "no",
        "shop": "bakery"
      }
    },
    {
      "type": "node",
      "id": 11085606210,
      "lat": 12.9134457,
      "lon": 77.6519727,
      "tags": {
        "amenity": "restaurant",
        "name": "Sri Balaji Sweets"
      }
    },
    {
      "type": "node",
      "id": 11085606212,
      "lat": 12.9137655,
      "lon": 77.6489844,
      "tags": {
        "addr:city": "bangalore",
        "addr:postcode": "560103",
        "addr:street": "24th Main Rd, Vanganahalli, 1st Sector, HSR Layout 5th Sector, Bengaluru,",
        "amenity": "fast_food",
        "cuisine": "juice",
        "name": "Nagashree Juice"
      }
    },
    {
      "type": "node",
      "id": 11085606214,
      "lat": 12.9151622,
      "lon": 77.6467714,
      "tags": {
        "addr:city": "Bangalore",
        "addr:postcode": "560102",
        "capacity": "30",
        "cuisine": "cake",
        "name": "Ank Cakeland",
        "opening_hours": "Mo-Sa 08:00-20:00",
        "outdoor_seating": "yes",
        "shop": "pastry",
        "smoking": "no"
      }
    },
    {
      "type": "node",
      "id": 11085704835,
      "lat": 12.9038504,
      "lon": 77.6490166,
      "tags": {
        "amenity": "restaurant",
        "cuisine": "sushi",
        "name": "Suku"
      }
    },
    {
      "type": "node",
      "id": 11085704838,
      "lat": 12.915607,
      "lon": 77.6472892,
      "tags": {
        "addr:city": "Bangalore",
        "addr:postcode": "560102",
        "name": "Coconut Seller",
        "opening_hours": "Mo-Sa 08:00-20:00",
        "shop": "farm",
        "smoking": "no"
      }
    },
    {
      "type": "node",
      "id": 11085704839,
      "lat": 12.915292,
      "lon": 77.6471367,
      "tags": {
        "addr:city": "Bangalore",
        "addr:postcode": "560102",
        "name": "Sri Lakshmi Venkateshwara Papers",
        "opening_hours": "Mo-Sa 08:00-20:00",
        "shop": "convenience",
        "smoking": "no"
      }
    },
    {
      "type": "node",
      "id": 11085704840,
      "lat": 12.9155686,
      "lon": 77.6473764,
      "tags": {
        "addr:city": "Bangalore",
        "addr:postcode": "560102",
        "name": "VR Dry Cleaners",
        "opening_hours": "Mo-Sa 08:00-20:00",
        "shop": "dry_cleaning",
        "smoking": "no"
      }
    },
    {
      "type": "node",
      "id": 11232366431,
      "lat": 12.9149995,
      "lon": 77.6518714,
      "tags": {
        "amenity": "bicycle_parking",
        "bicycle_parking": "stands",
        "capacity": "2",
        "fee": "no"
      }
    },
    {
      "type": "node",
      "id": 11232366432,
      "lat": 12.91504,
      "lon": 77.6518688,
      "tags": {
        "amenity": "bicycle_parking",
        "bicycle_parking": "stands",
        "capacity": "2",
        "fee": "no"
      }
    },
    {
      "type": "node",
      "id": 11232366433,
      "lat": 12.9151236,
      "lon": 77.6518661,
      "tags": {
        "amenity": "bicycle_parking",
        "bicycle_parking": "stands",
        "capacity": "2",
        "fee": "no"
      }
    },
    {
      "type": "node",
      "id": 11232366434,
      "lat": 12.9150766,
      "lon": 77.6518661,
      "tags": {
        "amenity": "bicycle_parking",
        "bicycle_parking": "stands",
        "capacity": "2",
        "fee": "no"
      }
    },
    {
      "type": "node",
      "id": 11232366435,
      "lat": 12.912674,
      "lon": 77.6524696,
      "tags": {
        "amenity": "cafe",
        "name": "Napoli"
      }
    },
    {
      "type": "node",
      "id": 11232384244,
      "lat": 12.9131129,
      "lon": 77.6536565,
      "tags": {
        "amenity": "cafe",
        "name": "Yes Sir"
      }
    },
    {
      "type": "node",
      "id": 11232384245,
      "lat": 12.9130612,
      "lon": 77.6536558,
      "tags": {
        "amenity": "cafe",
        "name": "Toping Twist"
      }
    },
    {
      "type": "node",
      "id": 11233733246,
      "lat": 12.9036184,
      "lon": 77.6486952,
      "tags": {
        "amenity": "cafe",
        "cuisine": "snacks;tea;juice",
        "name": "Coffee Makers",
        "outdoor_seating": "yes"
      }
    },
    {
      "type": "node",
      "id": 11248222101,
      "lat": 12.9123483,
      "lon": 77.6436353,
      "tags": {
        "check_date": "2023-10-08",
        "name": "Furlenco",
        "shop": "furniture"
      }
    },
    {
      "type": "node",
      "id": 11248222102,
      "lat": 12.9124098,
      "lon": 77.6437874,
      "tags": {
        "check_date": "2023-10-08",
        "name": "Yazhi Silks",
        "shop": "clothes"
      }
    },
    {
      "type": "node",
      "id": 11248247737,
      "lat": 12.912311,
      "lon": 77.644082,
      "tags": {
        "brand": "Raymond",
        "check_date": "2023-10-08",
        "clothes": "men",
        "name": "Kapdachar",
        "shop": "clothes"
      }
    },
    {
      "type": "node",
      "id": 11248247738,
      "lat": 12.9123225,
      "lon": 77.6439107,
      "tags": {
        "amenity": "bank",
        "brand": "Axis Bank",
        "brand:wikidata": "Q2003549",
        "check_date": "2023-10-08",
        "name": "Axis Bank",
        "name:kn": "ಆಕ್ಸಿಸ್ ಬ್ಯಾಂಕ್"
      }
    },
    {
      "type": "node",
      "id": 11248247740,
      "lat": 12.9123355,
      "lon": 77.6437969,
      "tags": {
        "air_conditioning": "yes",
        "amenity": "bar",
        "check_date": "2023-10-08",
        "indoor_seating": "yes",
        "name": "The Cirkus Bar",
        "outdoor_seating": "no"
      }
    },
    {
      "type": "node",
      "id": 11248332956,
      "lat": 12.9117618,
      "lon": 77.6493964,
      "tags": {
        "air_conditioning": "yes",
        "check_date": "2025-09-27",
        "clothes": "men;women;children",
        "name": "Ownd",
        "payment:credit_cards": "yes",
        "payment:debit_cards": "yes",
        "shop": "clothes",
        "source": "survey",
        "wheelchair": "no"
      }
    },
    {
      "type": "node",
      "id": 11262514226,
      "lat": 12.9086561,
      "lon": 77.6445904,
      "tags": {
        "amenity": "restaurant",
        "name": "Anands Kitchen"
      }
    },
    {
      "type": "node",
      "id": 11262540085,
      "lat": 12.908545,
      "lon": 77.6446411,
      "tags": {
        "amenity": "studio",
        "name": "Red Jampad",
        "studio": "audio"
      }
    },
    {
      "type": "node",
      "id": 11274342369,
      "lat": 12.9134772,
      "lon": 77.6445358,
      "tags": {
        "amenity": "ice_cream",
        "name": "Amadora"
      }
    },
    {
      "type": "node",
      "id": 11277885672,
      "lat": 12.9120591,
      "lon": 77.6479631,
      "tags": {
        "amenity": "cafe",
        "check_date": "2025-02-28",
        "contact:instagram": "coffeetalesindia",
        "name": "Coffeetales"
      }
    },
    {
      "type": "node",
      "id": 11277885723,
      "lat": 12.9160112,
      "lon": 77.6511084,
      "tags": {
        "addr:floor": "G",
        "air_conditioning": "yes",
        "amenity": "restaurant",
        "bar": "no",
        "changing_table": "no",
        "check_date": "2025-04-18",
        "contact:instagram": "lightofitaly",
        "cuisine": "italian;mexican",
        "delivery": "no",
        "diet:jain": "yes",
        "diet:vegan": "yes",
        "diet:vegetarian": "yes",
        "highchair": "no",
        "internet_access": "no",
        "microbrewery": "no",
        "name": "Light of Italy",
        "organic": "no",
        "outdoor_seating": "no",
        "payment:cash": "yes",
        "payment:credit_cards": "yes",
        "payment:debit_cards": "yes",
        "reservation": "yes",
        "smoking": "no",
        "website": "https://lightofitaly.com/",
        "wheelchair": "no"
      }
    },
    {
      "type": "node",
      "id": 11279852904,
      "lat": 12.9104557,
      "lon": 77.651685,
      "tags": {
        "name": "Shubham Decor",
        "shop": "curtain"
      }
    },
    {
      "type": "node",
      "id": 11279852905,
      "lat": 12.9162635,
      "lon": 77.6515529,
      "tags": {
        "amenity": "dentist",
        "healthcare": "dentist",
        "name": "smiles.ai"
      }
    },
    {
      "type": "node",
      "id": 11279852906,
      "lat": 12.9164452,
      "lon": 77.6515415,
      "tags": {
        "amenity": "dentist",
        "healthcare": "dentist",
        "name": "Sabka Dentist"
      }
    },
    {
      "type": "node",
      "id": 11292688562,
      "lat": 12.9097143,
      "lon": 77.6443014,
      "tags": {
        "amenity": "atm",
        "brand": "Bank of India",
        "brand:wikidata": "Q2004439",
        "name": "Bank of India",
        "operator": "Bank of India",
        "operator:wikidata": "Q2004439"
      }
    },
    {
      "type": "node",
      "id": 11293640388,
      "lat": 12.9068979,
      "lon": 77.6441698,
      "tags": {
        "amenity": "fast_food",
        "name": "My Affair with food"
      }
    },
    {
      "type": "node",
      "id": 11302751559,
      "lat": 12.9155123,
      "lon": 77.6489119,
      "tags": {
        "amenity": "restaurant",
        "level": "0",
        "name": "Basil Bistro",
        "wheelchair": "no"
      }
    },
    {
      "type": "node",
      "id": 11302751563,
      "lat": 12.9154329,
      "lon": 77.6491713,
      "tags": {
        "level": "0",
        "name": "Jai Maruthi Spirits",
        "payment:credit_cards": "yes",
        "payment:debit_cards": "yes",
        "shop": "alcohol",
        "wheelchair": "no"
      }
    },
    {
      "type": "node",
      "id": 11302751566,
      "lat": 12.9153968,
      "lon": 77.6491631,
      "tags": {
        "amenity": "restaurant",
        "level": "-1",
        "name": "Miss Misal",
        "takeaway": "yes",
        "wheelchair": "no"
      }
    },
    {
      "type": "node",
      "id": 11302751567,
      "lat": 12.915469,
      "lon": 77.6491548,
      "tags": {
        "brand": "cult.fit",
        "brand:wikidata": "Q121289250",
        "leisure": "fitness_centre",
        "name": "cult.fit"
      }
    },
    {
      "type": "node",
      "id": 11309680641,
      "lat": 12.908835,
      "lon": 77.6494489,
      "tags": {
        "check_date": "2023-11-03",
        "name": "Kurl-On",
        "shop": "bed"
      }
    },
    {
      "type": "node",
      "id": 11309680642,
      "lat": 12.908863,
      "lon": 77.6494629,
      "tags": {
        "check_date": "2023-11-03",
        "name": "iTouch Restore",
        "shop": "mobile_phone"
      }
    },
    {
      "type": "node",
      "id": 11309680643,
      "lat": 12.9090608,
      "lon": 77.6494552,
      "tags": {
        "amenity": "fast_food",
        "check_date": "2023-11-16",
        "cuisine": "juice",
        "name": "HSR Juice Point"
      }
    },
    {
      "type": "node",
      "id": 11309680644,
      "lat": 12.9089273,
      "lon": 77.6494595,
      "tags": {
        "amenity": "clinic",
        "check_date": "2023-11-03",
        "healthcare": "clinic",
        "name": "sugar.fit"
      }
    },
    {
      "type": "node",
      "id": 11309680646,
      "lat": 12.9121163,
      "lon": 77.649952,
      "tags": {
        "amenity": "dentist",
        "check_date": "2023-11-03",
        "healthcare": "dentist",
        "name": "The Smile Studio"
      }
    },
    {
      "type": "node",
      "id": 11309680648,
      "lat": 12.9123205,
      "lon": 77.6517228,
      "tags": {
        "amenity": "fast_food",
        "check_date": "2023-11-03",
        "name": "The Momo Lab"
      }
    },
    {
      "type": "node",
      "id": 11309708348,
      "lat": 12.9145134,
      "lon": 77.6516605,
      "tags": {
        "brand": "Manyavar",
        "brand:wikidata": "Q24906783",
        "check_date": "2023-11-03",
        "name": "Manyavar",
        "name:kn": "ಮಾನ್ಯವಾರ್",
        "shop": "clothes"
      }
    },
    {
      "type": "node",
      "id": 11309708349,
      "lat": 12.9157362,
      "lon": 77.6515595,
      "tags": {
        "brand": "Skechers",
        "brand:wikidata": "Q2945643",
        "check_date": "2023-11-03",
        "name": "Skechers",
        "shop": "shoes"
      }
    },
    {
      "type": "node",
      "id": 11310182984,
      "lat": 12.9089857,
      "lon": 77.6491678,
      "tags": {
        "name": "LJ Iyengar's Bakery",
        "shop": "bakery"
      }
    },
    {
      "type": "node",
      "id": 11355554483,
      "lat": 12.9087228,
      "lon": 77.6506028,
      "tags": {
        "amenity": "cafe",
        "check_date": "2023-11-16",
        "name": "Garden House Cafe"
      }
    },
    {
      "type": "node",
      "id": 11355554484,
      "lat": 12.9087123,
      "lon": 77.6505691,
      "tags": {
        "amenity": "cafe",
        "check_date": "2023-11-16",
        "indoor_seating": "yes",
        "name": "The Brussles Waffle",
        "outdoor_seating": "yes"
      }
    },
    {
      "type": "node",
      "id": 11355554485,
      "lat": 12.9088181,
      "lon": 77.6494981,
      "tags": {
        "check_date": "2023-12-06",
        "name": "King's & Queens's Premium Salon",
        "shop": "hairdresser"
      }
    },
    {
      "type": "node",
      "id": 11355554486,
      "lat": 12.9089708,
      "lon": 77.649501,
      "tags": {
        "check_date": "2023-11-16",
        "name": "Ganpati Collection",
        "shop": "clothes"
      }
    },
    {
      "type": "node",
      "id": 11355554487,
      "lat": 12.9089894,
      "lon": 77.649501,
      "tags": {
        "check_date": "2023-11-16",
        "name": "New Fashion Ladies Tailor",
        "shop": "tailor"
      }
    },
    {
      "type": "node",
      "id": 11355554488,
      "lat": 12.9091432,
      "lon": 77.6494652,
      "tags": {
        "check_date": "2023-11-16",
        "name": "Swagath Jewellers and Bankers",
        "shop": "jewelry"
      }
    },
    {
      "type": "node",
      "id": 11366156465,
      "lat": 12.9086832,
      "lon": 77.649392,
      "tags": {
        "amenity": "post_box",
        "operator": "India Post",
        "operator:wikidata": "Q3519720"
      }
    },
    {
      "type": "node",
      "id": 11368536064,
      "lat": 12.9108271,
      "lon": 77.6492497,
      "tags": {
        "amenity": "pharmacy",
        "check_date": "2023-11-22",
        "healthcare": "pharmacy",
        "name": "Aster Pharmacy",
        "name:kn": "ಆಸ್ಟರ್ ಫಾರ್ಮಸಿ"
      }
    },
    {
      "type": "node",
      "id": 11368536065,
      "lat": 12.9117112,
      "lon": 77.6497366,
      "tags": {
        "amenity": "restaurant",
        "check_date": "2023-11-22",
        "name": "Imperio"
      }
    },
    {
      "type": "node",
      "id": 11383593070,
      "lat": 12.9117676,
      "lon": 77.6495645,
      "tags": {
        "amenity": "fast_food",
        "check_date": "2025-09-27",
        "name": "Gochick"
      }
    },
    {
      "type": "node",
      "id": 11383593071,
      "lat": 12.9116938,
      "lon": 77.6497945,
      "tags": {
        "check_date": "2023-11-29",
        "name": "Style Up",
        "shop": "clothes"
      }
    },
    {
      "type": "node",
      "id": 11383593072,
      "lat": 12.9121457,
      "lon": 77.651651,
      "tags": {
        "check_date": "2023-11-29",
        "name": "Unilet",
        "shop": "electronics"
      }
    },
    {
      "type": "node",
      "id": 11383593073,
      "lat": 12.9123483,
      "lon": 77.6516988,
      "tags": {
        "amenity": "cafe",
        "brand": "Chaayos",
        "brand:wikidata": "Q117235235",
        "check_date": "2023-12-06",
        "cuisine": "tea",
        "name": "Chaayos",
        "takeaway": "yes"
      }
    },
    {
      "type": "node",
      "id": 11384926620,
      "lat": 12.9156318,
      "lon": 77.651576,
      "tags": {
        "amenity": "restaurant",
        "check_date": "2023-11-30",
        "name": "Central Jail Restaurant"
      }
    },
    {
      "type": "node",
      "id": 11384926621,
      "lat": 12.9155862,
      "lon": 77.6515716,
      "tags": {
        "amenity": "restaurant",
        "check_date": "2023-11-30",
        "name": "Sadda Punjabi Cafe"
      }
    },
    {
      "type": "node",
      "id": 11384926622,
      "lat": 12.9135002,
      "lon": 77.6516039,
      "tags": {
        "check_date": "2023-11-30",
        "name": "Health and Glow",
        "shop": "beauty"
      }
    },
    {
      "type": "node",
      "id": 11394011887,
      "lat": 12.9114451,
      "lon": 77.6492616,
      "tags": {
        "check_date": "2023-12-07",
        "name": "Greenmart",
        "shop": "supermarket"
      }
    },
    {
      "type": "node",
      "id": 11394011888,
      "lat": 12.9149034,
      "lon": 77.6516399,
      "tags": {
        "check_date": "2025-04-04",
        "name": "Feet Fashion",
        "shop": "shoes",
        "wheelchair": "no"
      }
    },
    {
      "type": "node",
      "id": 11394011889,
      "lat": 12.9160487,
      "lon": 77.6515652,
      "tags": {
        "check_date": "2023-12-04",
        "name": "De Monza",
        "shop": "clothes"
      }
    },
    {
      "type": "node",
      "id": 11397742478,
      "lat": 12.9085763,
      "lon": 77.6494882,
      "tags": {
        "amenity": "community_centre",
        "check_date": "2023-12-06",
        "name": "Dr. BR Ambedkar Samudaya Bhavan"
      }
    },
    {
      "type": "node",
      "id": 11397742479,
      "lat": 12.9086091,
      "lon": 77.6496322,
      "tags": {
        "check_date": "2023-12-06",
        "shop": "stationery"
      }
    },
    {
      "type": "node",
      "id": 11397742480,
      "lat": 12.9086019,
      "lon": 77.6496924,
      "tags": {
        "check_date": "2023-12-06",
        "shop": "copyshop"
      }
    },
    {
      "type": "node",
      "id": 11399589041,
      "lat": 12.9155593,
      "lon": 77.651843,
      "tags": {
        "amenity": "bench",
        "backrest": "yes",
        "seats": "2"
      }
    },
    {
      "type": "node",
      "id": 11399600412,
      "lat": 12.9118309,
      "lon": 77.6519312,
      "tags": {
        "amenity": "bicycle_rental",
        "brand": "Yulu",
        "brand:wikidata": "Q104871276",
        "check_date": "2023-12-07",
        "name": "Yulu Zone",
        "network": "Yulu",
        "network:wikidata": "Q104871276",
        "operator": "Yulu"
      }
    },
    {
      "type": "node",
      "id": 11399737010,
      "lat": 12.9082406,
      "lon": 77.6519429,
      "tags": {
        "amenity": "bank",
        "brand": "IndusInd Bank",
        "brand:wikidata": "Q2040323",
        "check_date": "2023-12-07",
        "name": "IndusInd Bank",
        "name:kn": "ಇಂಡಸ್ಇಂಡ್"
      }
    },
    {
      "type": "node",
      "id": 11399909241,
      "lat": 12.9089526,
      "lon": 77.6495364,
      "tags": {
        "check_date": "2023-12-07",
        "name": "AS Mobile",
        "shop": "copyshop"
      }
    },
    {
      "type": "node",
      "id": 11399909242,
      "lat": 12.9089935,
      "lon": 77.6495181,
      "tags": {
        "check_date": "2023-12-07",
        "name": "OR Sports",
        "shop": "sports"
      }
    },
    {
      "type": "node",
      "id": 11399909243,
      "lat": 12.9089466,
      "lon": 77.6495173,
      "tags": {
        "check_date": "2023-12-07",
        "name": "VDesign Interiors",
        "shop": "interior_decoration"
      }
    },
    {
      "type": "node",
      "id": 11399914986,
      "lat": 12.9104179,
      "lon": 77.6490876,
      "tags": {
        "check_date": "2023-12-07",
        "name": "Optical Corner",
        "shop": "optician"
      }
    },
    {
      "type": "node",
      "id": 11399914987,
      "lat": 12.9106663,
      "lon": 77.6493339,
      "tags": {
        "check_date": "2023-12-07",
        "name": "Amma Pastries",
        "shop": "bakery"
      }
    },
    {
      "type": "node",
      "id": 11399914988,
      "lat": 12.911085,
      "lon": 77.6492924,
      "tags": {
        "amenity": "place_of_worship",
        "check_date": "2023-12-07",
        "religion": "hindu"
      }
    },
    {
      "type": "node",
      "id": 11399914989,
      "lat": 12.9121322,
      "lon": 77.6493646,
      "tags": {
        "amenity": "fast_food",
        "check_date": "2025-09-27",
        "name": "House Of Dakshina",
        "payment:cash": "yes",
        "payment:mastercard": "yes",
        "payment:visa": "yes",
        "source": "survey"
      }
    },
    {
      "type": "node",
      "id": 11399914991,
      "lat": 12.9121839,
      "lon": 77.651644,
      "tags": {
        "check_date": "2023-12-07",
        "name": "Ananda Honda",
        "shop": "motorcycle"
      }
    },
    {
      "type": "node",
      "id": 11399914992,
      "lat": 12.9141518,
      "lon": 77.6516304,
      "tags": {
        "amenity": "bank",
        "brand": "Axis Bank",
        "brand:wikidata": "Q2003549",
        "check_date": "2023-12-07",
        "name": "Axis Bank",
        "name:kn": "ಆಕ್ಸಿಸ್ ಬ್ಯಾಂಕ್"
      }
    },
    {
      "type": "node",
      "id": 11409538672,
      "lat": 12.9086523,
      "lon": 77.6492157,
      "tags": {
        "check_date": "2023-12-11",
        "name": "Green's Unisex Salon",
        "shop": "hairdresser"
      }
    },
    {
      "type": "node",
      "id": 11409538673,
      "lat": 12.9086342,
      "lon": 77.6491611,
      "tags": {
        "check_date": "2023-12-11",
        "leisure": "fitness_centre",
        "name": "Fitness Tycoon"
      }
    },
    {
      "type": "node",
      "id": 11409538674,
      "lat": 12.908584,
      "lon": 77.6500091,
      "tags": {
        "check_date": "2023-12-20",
        "name": "Daily Essentials",
        "shop": "supermarket"
      }
    },
    {
      "type": "node",
      "id": 11411649453,
      "lat": 12.9106511,
      "lon": 77.6520442,
      "tags": {
        "check_date": "2023-12-12",
        "name": "Sri Varu Silver",
        "shop": "jewelry"
      }
    },
    {
      "type": "node",
      "id": 11411649454,
      "lat": 12.9106292,
      "lon": 77.6520449,
      "tags": {
        "check_date": "2023-12-12",
        "name": "Rangriti",
        "shop": "clothes"
      }
    },
    {
      "type": "node",
      "id": 11411649455,
      "lat": 12.9106128,
      "lon": 77.6520459,
      "tags": {
        "check_date": "2023-12-12",
        "name": "Prince n Princess",
        "shop": "clothes"
      }
    },
    {
      "type": "node",
      "id": 11411649456,
      "lat": 12.9105903,
      "lon": 77.6520441,
      "tags": {
        "check_date": "2023-12-12",
        "name": "Gini & Jony",
        "shop": "clothes"
      }
    },
    {
      "type": "node",
      "id": 11411649457,
      "lat": 12.9106462,
      "lon": 77.65207,
      "tags": {
        "amenity": "doctors",
        "check_date": "2023-12-12",
        "healthcare": "doctor",
        "healthcare:speciality": "dermatology",
        "name": "Dermaville"
      }
    },
    {
      "type": "node",
      "id": 11411649458,
      "lat": 12.9106109,
      "lon": 77.6520674,
      "tags": {
        "check_date": "2023-12-12",
        "name": "Electro Cloud",
        "shop": "computer"
      }
    },
    {
      "type": "node",
      "id": 11411649460,
      "lat": 12.9105449,
      "lon": 77.6520918,
      "tags": {
        "beauty": "tanning",
        "check_date": "2023-12-12",
        "name": "Bounce Salons",
        "shop": "beauty"
      }
    },
    {
      "type": "node",
      "id": 11411649461,
      "lat": 12.9102053,
      "lon": 77.6521497,
      "tags": {
        "check_date": "2023-12-12",
        "name": "Asya Thai Spa",
        "shop": "beauty"
      }
    },
    {
      "type": "node",
      "id": 11411649462,
      "lat": 12.9105387,
      "lon": 77.652133,
      "tags": {
        "check_date": "2023-12-12",
        "name": "Ramyakatta",
        "shop": "clothes"
      }
    },
    {
      "type": "node",
      "id": 11411649463,
      "lat": 12.91054,
      "lon": 77.6520671,
      "tags": {
        "check_date": "2023-12-12",
        "name": "SOTC For Holidays",
        "shop": "travel_agency"
      }
    },
    {
      "type": "node",
      "id": 11414534035,
      "lat": 12.9085228,
      "lon": 77.6504774,
      "tags": {
        "amenity": "cafe",
        "check_date": "2023-12-13",
        "name": "The Humble Pie"
      }
    },
    {
      "type": "node",
      "id": 11414534036,
      "lat": 12.9085181,
      "lon": 77.6505464,
      "tags": {
        "amenity": "fast_food",
        "check_date": "2023-12-13",
        "name": "BBQ Mechanic"
      }
    },
    {
      "type": "node",
      "id": 11433878025,
      "lat": 12.9085772,
      "lon": 77.6499484,
      "tags": {
        "amenity": "cafe",
        "check_date": "2023-12-20",
        "cuisine": "coffee_shop",
        "name": "Coffee & More"
      }
    },
    {
      "type": "node",
      "id": 11478656271,
      "lat": 12.9100957,
      "lon": 77.6520732,
      "tags": {
        "addr:housenumber": "109",
        "name": "Mansi Creations",
        "opening_hours": "Mo-Su 10:30-22:30",
        "shop": "clothes",
        "source": "GEPTIS",
        "wheelchair": "no"
      }
    },
    {
      "type": "node",
      "id": 11478656275,
      "lat": 12.9102304,
      "lon": 77.6517226,
      "tags": {
        "addr:city": "Bengaluru",
        "addr:district": "benglBengaluru",
        "addr:street": "1st Floor, 27th Main Rd, above Baskin & Robins, Sector 2, HSR Layout",
        "name": "Hema Jewellers",
        "phone": "+91-8448448741",
        "shop": "jewelry",
        "source": "GEPTIS"
      }
    },
    {
      "type": "node",
      "id": 11502362673,
      "lat": 12.9052595,
      "lon": 77.6495099,
      "tags": {
        "addr:state": "KA",
        "addr:street": "26th Cross Road",
        "name": "24 Mantra Organic Shop",
        "opening_hours": "Mo-Su 08:30-20:30",
        "organic": "yes",
        "shop": "greengrocer",
        "wheelchair": "no"
      }
    },
    {
      "type": "node",
      "id": 11502372890,
      "lat": 12.9054885,
      "lon": 77.6499377,
      "tags": {
        "addr:city": "Bengaluru",
        "addr:district": "Bengaluru",
        "addr:postcode": "560102",
        "addr:state": "KA",
        "addr:street": "26th Cross Road",
        "addr:suburb": "HSR Layout",
        "amenity": "community_centre",
        "community_centre": "community_hall",
        "community_centre:for": "family",
        "name": "Siddhartha Convention Centre",
        "opening_hours": "Mo-Su 10:30-08:30",
        "toilets": "yes",
        "wheelchair": "no"
      }
    },
    {
      "type": "node",
      "id": 11533103110,
      "lat": 12.9158872,
      "lon": 77.6497319,
      "tags": {
        "name": "The Chaitini",
        "shop": "beverages",
        "wheelchair": "no"
      }
    },
    {
      "type": "node",
      "id": 11533127769,
      "lat": 12.9156379,
      "lon": 77.6491451,
      "tags": {
        "name": "Wax Touch",
        "shop": "beauty"
      }
    },
    {
      "type": "node",
      "id": 11533130764,
      "lat": 12.9159448,
      "lon": 77.6489792,
      "tags": {
        "amenity": "bench",
        "backrest": "yes",
        "material": "concrete",
        "seats": "2"
      }
    },
    {
      "type": "node",
      "id": 11533130765,
      "lat": 12.915965,
      "lon": 77.6489855,
      "tags": {
        "amenity": "bench",
        "backrest": "yes",
        "material": "concrete",
        "seats": "2"
      }
    },
    {
      "type": "node",
      "id": 11533130767,
      "lat": 12.9156188,
      "lon": 77.6490905,
      "tags": {
        "check_date": "2024-01-20",
        "name": "Tumble Dry",
        "shop": "laundry"
      }
    },
    {
      "type": "node",
      "id": 11533130768,
      "lat": 12.9152682,
      "lon": 77.6491349,
      "tags": {
        "amenity": "fast_food",
        "check_date": "2024-01-20",
        "name": "Koriken"
      }
    },
    {
      "type": "node",
      "id": 11533134010,
      "lat": 12.9163949,
      "lon": 77.6509828,
      "tags": {
        "amenity": "clinic",
        "name": "Care Clinic"
      }
    },
    {
      "type": "node",
      "id": 11533137080,
      "lat": 12.9158807,
      "lon": 77.649347,
      "tags": {
        "amenity": "restaurant",
        "name": "The Vijayanagar Tiffins and Coffee"
      }
    },
    {
      "type": "node",
      "id": 11533141769,
      "lat": 12.9146948,
      "lon": 77.6489015,
      "tags": {
        "amenity": "restaurant",
        "check_date": "2024-01-20",
        "name": "HSR Donne Biryani"
      }
    },
    {
      "type": "node",
      "id": 11533141770,
      "lat": 12.9144894,
      "lon": 77.6488871,
      "tags": {
        "check_date": "2024-01-20",
        "name": "Farm2fresh",
        "shop": "greengrocer"
      }
    },
    {
      "type": "node",
      "id": 11533141771,
      "lat": 12.9120183,
      "lon": 77.6483866,
      "tags": {
        "access": "yes",
        "amenity": "bicycle_parking",
        "bicycle_parking": "stands",
        "capacity": "4",
        "covered": "no",
        "fee": "no",
        "operator": "DULT",
        "operator:type": "government"
      }
    },
    {
      "type": "node",
      "id": 11533141772,
      "lat": 12.9120881,
      "lon": 77.6482409,
      "tags": {
        "check_date": "2024-01-20",
        "name": "Wakefit",
        "shop": "furniture"
      }
    },
    {
      "type": "node",
      "id": 11533575079,
      "lat": 12.9092141,
      "lon": 77.6446476,
      "tags": {
        "access": "private",
        "amenity": "parking_entrance",
        "parking": "underground"
      }
    },
    {
      "type": "node",
      "id": 11533595492,
      "lat": 12.9092366,
      "lon": 77.6446155,
      "tags": {
        "amenity": "restaurant",
        "brand": "Indian Coffee House",
        "brand:wikidata": "Q3595301",
        "check_date": "2024-01-20",
        "cuisine": "coffee_shop;indian",
        "name": "Indian Coffee House"
      }
    },
    {
      "type": "node",
      "id": 11684016159,
      "lat": 12.9086572,
      "lon": 77.6519776,
      "tags": {
        "check_date": "2024-03-02",
        "name": "Xboom Drones",
        "shop": "electronics"
      }
    },
    {
      "type": "node",
      "id": 11684016160,
      "lat": 12.9087963,
      "lon": 77.6516734,
      "tags": {
        "amenity": "bank",
        "brand": "Union Bank of India",
        "brand:wikidata": "Q2004078",
        "check_date": "2024-03-02",
        "name": "Union Bank of India"
      }
    },
    {
      "type": "node",
      "id": 11684016161,
      "lat": 12.9093103,
      "lon": 77.6520375,
      "tags": {
        "amenity": "post_office",
        "brand": "Desk to Desk Courier & Cargo",
        "brand:short": "DTDC",
        "brand:wikidata": "Q55608802",
        "check_date": "2024-03-02",
        "operator": "Desk to Desk Courier & Cargo",
        "operator:short": "DTDC",
        "operator:wikidata": "Q55608802"
      }
    },
    {
      "type": "node",
      "id": 11758131752,
      "lat": 12.9158066,
      "lon": 77.6518319,
      "tags": {
        "amenity": "post_box",
        "operator": "India Post",
        "operator:wikidata": "Q3519720"
      }
    },
    {
      "type": "node",
      "id": 11948295136,
      "lat": 12.9075461,
      "lon": 77.6490336,
      "tags": {
        "addr:city": "Bangaluru",
        "addr:district": "Bengaluru",
        "addr:postcode": "560102",
        "addr:street": "24th Main Road",
        "amenity": "pharmacy",
        "healthcare": "pharmacy",
        "name": "Ganesh Medicals"
      }
    },
    {
      "type": "node",
      "id": 11949742433,
      "lat": 12.9048145,
      "lon": 77.6488354,
      "tags": {
        "addr:city": "Bengaluru",
        "addr:district": "Bengaluru",
        "addr:postcode": "560102",
        "addr:street": "24th Main Road, Sector-2, HSR layout",
        "name": "Food Palace Supermarket",
        "name:kn": "ಫುಡ್ ಪ್ಯಾಲೇಸ್",
        "opening_hours": "Mo-Su 07:30-22:30",
        "shop": "supermarket"
      }
    },
    {
      "type": "node",
      "id": 11960786375,
      "lat": 12.9090657,
      "lon": 77.6436316,
      "tags": {
        "check_date": "2024-06-06",
        "name": "Chai House",
        "name:en": "Chai House",
        "shop": "tea"
      }
    },
    {
      "type": "node",
      "id": 11964861618,
      "lat": 12.915076,
      "lon": 77.6491414,
      "tags": {
        "air_conditioning": "yes",
        "amenity": "restaurant",
        "cuisine": "ice_cream",
        "name": "Galatta",
        "wheelchair": "no"
      }
    },
    {
      "type": "node",
      "id": 11982676010,
      "lat": 12.9052662,
      "lon": 77.6488723,
      "tags": {
        "addr:city": "Bengaluru",
        "addr:district": "Bengaluru",
        "addr:postcode": "560102",
        "addr:street": "24th Main Road, Sector-2, HSR Layout",
        "name": "Ayush Hyper Market",
        "shop": "supermarket"
      }
    },
    {
      "type": "node",
      "id": 11982683582,
      "lat": 12.9052092,
      "lon": 77.6491024,
      "tags": {
        "addr:city": "Bengaluru",
        "addr:district": "Bengaluru",
        "addr:housenumber": "1318",
        "addr:postcode": "560102",
        "addr:street": "24th Main Road,Sector-2, HSR Layout",
        "amenity": "bank",
        "brand": "ESAF Small Finance Bank",
        "brand:wikidata": "Q28173964",
        "name": "ESAF Small Finance Bank"
      }
    },
    {
      "type": "node",
      "id": 11982683583,
      "lat": 12.9052438,
      "lon": 77.6491055,
      "tags": {
        "amenity": "atm",
        "brand": "ESAF Small Finance Bank",
        "brand:wikidata": "Q28173964",
        "operator": "ESAF Small Finance Bank",
        "operator:wikidata": "Q28173964"
      }
    },
    {
      "type": "node",
      "id": 11998243869,
      "lat": 12.9077495,
      "lon": 77.6492278,
      "tags": {
        "addr:housenumber": "51/1",
        "addr:postcode": "560102",
        "addr:street": "24th Main Road",
        "name": "Manju Departmental Store",
        "opening_hours": "Mo-Su 09:00-10:00",
        "shop": "grocery"
      }
    },
    {
      "type": "node",
      "id": 11998243969,
      "lat": 12.9078609,
      "lon": 77.6491098,
      "tags": {
        "addr:housenumber": "5-3/1",
        "addr:postcode": "560102",
        "addr:street": "24th Main Road",
        "amenity": "pharmacy",
        "check_date": "2025-07-05",
        "name": "Sri Balaji Medicals",
        "opening_hours": "Mo-Su 09:00-10:00"
      }
    },
    {
      "type": "node",
      "id": 11998244069,
      "lat": 12.9077278,
      "lon": 77.6490733,
      "tags": {
        "addr:housenumber": "3/1",
        "addr:postcode": "560102",
        "addr:street": "24th Main Road",
        "name": "Mahashakti Fancy & Gift Paradise",
        "opening_hours": "Mo-Su 09:00-10:00",
        "shop": "gift"
      }
    },
    {
      "type": "node",
      "id": 12093192395,
      "lat": 12.9090973,
      "lon": 77.6425409,
      "tags": {
        "air_conditioning": "yes",
        "amenity": "cafe",
        "bar": "no",
        "check_date": "2025-10-12",
        "diet:vegetarian": "yes",
        "internet_access": "wlan",
        "internet_access:fee": "customers",
        "name": "Hustle",
        "outdoor_seating": "yes",
        "payment:cash": "yes",
        "payment:credit_cards": "yes",
        "payment:debit_cards": "yes",
        "reservation": "no",
        "smoking": "no",
        "takeaway": "no",
        "toilets": "yes",
        "wheelchair": "no"
      }
    },
    {
      "type": "node",
      "id": 12117979201,
      "lat": 12.907878,
      "lon": 77.6491188,
      "tags": {
        "addr:housenumber": "5/3",
        "addr:postcode": "560102",
        "addr:street": "24th Main Road",
        "name": "HSR Rice Traders",
        "opening_hours": "Mo-Su 09:00-21:30",
        "shop": "grocery"
      }
    },
    {
      "type": "node",
      "id": 12129014444,
      "lat": 12.9128766,
      "lon": 77.6536551,
      "tags": {
        "amenity": "restaurant",
        "cuisine": "italian",
        "name": "Tinytalian"
      }
    },
    {
      "type": "node",
      "id": 12129014445,
      "lat": 12.9127014,
      "lon": 77.6531643,
      "tags": {
        "amenity": "restaurant",
        "name": "Olive Street Food Cafe"
      }
    },
    {
      "type": "node",
      "id": 12208562950,
      "lat": 12.9152759,
      "lon": 77.6515543,
      "tags": {
        "amenity": "restaurant",
        "name": "Anmay"
      }
    },
    {
      "type": "node",
      "id": 12238310056,
      "lat": 12.9091011,
      "lon": 77.6426525,
      "tags": {
        "name": "Society",
        "shop": "hairdresser"
      }
    },
    {
      "type": "node",
      "id": 12238317806,
      "lat": 12.9092872,
      "lon": 77.6425189,
      "tags": {
        "name": "Kaveri store",
        "shop": "grocer"
      }
    },
    {
      "type": "node",
      "id": 12260569946,
      "lat": 12.9121681,
      "lon": 77.6495312,
      "tags": {
        "amenity": "restaurant",
        "name": "Somras Bar and Kitchen"
      }
    },
    {
      "type": "node",
      "id": 12285672997,
      "lat": 12.9068801,
      "lon": 77.6445656,
      "tags": {
        "name": "Lassi Pot",
        "shop": "beverages"
      }
    },
    {
      "type": "node",
      "id": 12285685369,
      "lat": 12.9066107,
      "lon": 77.6443955,
      "tags": {
        "amenity": "toilets",
        "name": "Public Toilet and Bath"
      }
    },
    {
      "type": "node",
      "id": 12406020970,
      "lat": 12.9079027,
      "lon": 77.6475236,
      "tags": {
        "addr:city": "Bengaluru",
        "addr:housenumber": "1073",
        "addr:postcode": "560102",
        "addr:street": "24th A Cross Road",
        "addr:suburb": "HSR Layout",
        "amenity": "cafe",
        "contact:instagram": "maracoffeeandroasters",
        "cuisine": "coffee_shop",
        "email": "contact@maracoffeeroasters.com",
        "name": "Mara Coffee & Roasters",
        "phone": "+91 7353075761",
        "website": "https://www.maracoffeeroasters.com/"
      }
    },
    {
      "type": "node",
      "id": 12482481196,
      "lat": 12.9133573,
      "lon": 77.6491178,
      "tags": {
        "amenity": "dentist",
        "name": "Reform Dental Care"
      }
    },
    {
      "type": "node",
      "id": 12482484107,
      "lat": 12.9086726,
      "lon": 77.646939,
      "tags": {
        "amenity": "cafe",
        "name": "Yewale"
      }
    },
    {
      "type": "node",
      "id": 12486963377,
      "lat": 12.9067318,
      "lon": 77.6493254,
      "tags": {
        "leisure": "fitness_centre",
        "name": "Next Move"
      }
    },
    {
      "type": "node",
      "id": 12486985771,
      "lat": 12.9067271,
      "lon": 77.648918,
      "tags": {
        "amenity": "bank",
        "name": "Axis Bank"
      }
    },
    {
      "type": "node",
      "id": 12486999002,
      "lat": 12.9065855,
      "lon": 77.649084,
      "tags": {
        "name": "Print Express",
        "shop": "print"
      }
    },
    {
      "type": "node",
      "id": 12487006151,
      "lat": 12.9065774,
      "lon": 77.6492549,
      "tags": {
        "name": "Bike Service Point",
        "shop": "motorcycle"
      }
    },
    {
      "type": "node",
      "id": 12487007747,
      "lat": 12.906594,
      "lon": 77.6492113,
      "tags": {
        "amenity": "restaurant",
        "name": "The Madras Mess"
      }
    },
    {
      "type": "node",
      "id": 12553411801,
      "lat": 12.9129802,
      "lon": 77.6516278,
      "tags": {
        "addr:city": "Bengaluru",
        "addr:district": "Bengaluru Urban",
        "addr:full": "No. 2610, 2nd Floor, Opp: Dominos, 27th Main Rd, above Fabindia, 1st Sector, HSR Layout",
        "addr:postcode": "560102",
        "addr:street": "27th Main Road",
        "beauty": "spa;massage",
        "name": "Dhara Spa HSR Layout",
        "opening_hours": "Mo-Su 11:00-21:00",
        "operator": "Mr. Ajith",
        "phone": "07019535097",
        "shop": "beauty",
        "website": "https://dharaspa.com/"
      }
    },
    {
      "type": "node",
      "id": 12765777977,
      "lat": 12.9160037,
      "lon": 77.6523087,
      "tags": {
        "amenity": "hospital",
        "healthcare": "hospital",
        "healthcare:speciality": "gastroenterology;oncology",
        "name": "Bangalore Gastro Centre",
        "phone": "080 46 888 888",
        "website": "https://www.bangaloregastrocentre.com/"
      }
    },
    {
      "type": "node",
      "id": 12865000227,
      "lat": 12.9156716,
      "lon": 77.6510321,
      "tags": {
        "amenity": "music_school",
        "name": "Trishan School of Music"
      }
    },
    {
      "type": "node",
      "id": 12927909821,
      "lat": 12.9117328,
      "lon": 77.6444626,
      "tags": {
        "amenity": "cafe",
        "name": "Amintiri",
        "website": "https://amintiri.in/"
      }
    },
    {
      "type": "node",
      "id": 12946192955,
      "lat": 12.9158891,
      "lon": 77.6491802,
      "tags": {
        "amenity": "fast_food",
        "name": "Alienkind"
      }
    },
    {
      "type": "node",
      "id": 12946220172,
      "lat": 12.9159429,
      "lon": 77.6491785,
      "tags": {
        "name": "Neo Studio",
        "shop": "interior_decoration"
      }
    },
    {
      "type": "node",
      "id": 12980092657,
      "lat": 12.9088782,
      "lon": 77.6461122,
      "tags": {
        "amenity": "cafe",
        "check_date": "2025-07-05",
        "name": "Piro"
      }
    },
    {
      "type": "node",
      "id": 12980092658,
      "lat": 12.9088196,
      "lon": 77.6467976,
      "tags": {
        "amenity": "fast_food",
        "check_date": "2025-07-05",
        "name": "Paratha Plaza"
      }
    },
    {
      "type": "node",
      "id": 12980092659,
      "lat": 12.9087936,
      "lon": 77.647131,
      "tags": {
        "check_date": "2025-07-05",
        "name": "SM Grens",
        "shop": "greengrocer"
      }
    },
    {
      "type": "node",
      "id": 12980126189,
      "lat": 12.9081116,
      "lon": 77.6486571,
      "tags": {
        "amenity": "cafe",
        "check_date": "2025-07-05",
        "name": "The Snug Cuppa"
      }
    },
    {
      "type": "node",
      "id": 13013588748,
      "lat": 12.9136422,
      "lon": 77.644891,
      "tags": {
        "addr:city": "Bengaluru",
        "addr:hamlet": "Sector 1",
        "addr:housenumber": "1791",
        "addr:postcode": "560102",
        "addr:street": "19th Main Road",
        "addr:suburb": "HSR Layout",
        "amenity": "restaurant",
        "brand": "Brik Oven",
        "brand:wikidata": "Q124374702",
        "cuisine": "pizza",
        "delivery": "yes",
        "name": "Brik Oven",
        "takeaway": "yes",
        "website": "https://brikoven.com"
      }
    },
    {
      "type": "node",
      "id": 13013792937,
      "lat": 12.9059798,
      "lon": 77.6440608,
      "tags": {
        "amenity": "fast_food",
        "cuisine": "mexican",
        "name": "Maiz Mexican Kitchen"
      }
    },
    {
      "type": "node",
      "id": 13013792940,
      "lat": 12.9060203,
      "lon": 77.6440568,
      "tags": {
        "amenity": "fast_food",
        "name": "Harvest Salad Co"
      }
    },
    {
      "type": "node",
      "id": 13013958066,
      "lat": 12.9091354,
      "lon": 77.6463649,
      "tags": {
        "amenity": "cafe",
        "cuisine": "coffee_shop",
        "name": "Piro"
      }
    },
    {
      "type": "node",
      "id": 13108370790,
      "lat": 12.9114081,
      "lon": 77.6443062,
      "tags": {
        "air_conditioning": "no",
        "amenity": "restaurant",
        "bar": "no",
        "changing_table": "no",
        "check_date": "2025-08-30",
        "cuisine": "indian;marathi",
        "diet:vegetarian": "yes",
        "name": "Mast Marathi",
        "opening_hours": "08:30-22:30",
        "outdoor_seating": "no",
        "phone": "+91 88849 19043",
        "smoking": "no",
        "takeaway": "yes",
        "toilets": "yes",
        "wheelchair": "no"
      }
    },
    {
      "type": "node",
      "id": 13108399900,
      "lat": 12.9113981,
      "lon": 77.6442748,
      "tags": {
        "beauty": "spa",
        "shop": "beauty"
      }
    },
    {
      "type": "node",
      "id": 13130906992,
      "lat": 12.9162344,
      "lon": 77.6492743,
      "tags": {
        "addr:city": "Bengaluru",
        "addr:district": "Bengaluru",
        "addr:postcode": "560102",
        "addr:street": "24th Main Rd, 1st Sector, HSR Layout",
        "amenity": "cafe",
        "name": "Marseli Cafe & Patisserie",
        "opening_hours": "Mo-Su 07:00-23:00"
      }
    },
    {
      "type": "node",
      "id": 13175147184,
      "lat": 12.912761,
      "lon": 77.6448505,
      "tags": {
        "amenity": "cafe",
        "check_date": "2025-09-27",
        "cuisine": "coffee_shop",
        "name": "Blue Tokai"
      }
    },
    {
      "type": "node",
      "id": 13175147185,
      "lat": 12.9121235,
      "lon": 77.6471927,
      "tags": {
        "amenity": "fast_food",
        "check_date": "2025-09-27",
        "cuisine": "pizza",
        "name": "The Pizza Bakery"
      }
    },
    {
      "type": "node",
      "id": 13175147186,
      "lat": 12.9121736,
      "lon": 77.6471643,
      "tags": {
        "amenity": "cafe",
        "check_date": "2025-09-27",
        "name": "Mannheim"
      }
    },
    {
      "type": "node",
      "id": 13175147187,
      "lat": 12.9120718,
      "lon": 77.6473977,
      "tags": {
        "check_date": "2025-09-27",
        "name": "Cosmos",
        "shop": "jewelry"
      }
    },
    {
      "type": "node",
      "id": 13175147188,
      "lat": 12.9120859,
      "lon": 77.647742,
      "tags": {
        "check_date": "2025-09-27",
        "leisure": "fitness_centre",
        "name": "Hammers"
      }
    },
    {
      "type": "node",
      "id": 13175147189,
      "lat": 12.9120499,
      "lon": 77.6478955,
      "tags": {
        "check_date": "2025-09-27",
        "name": "Optics Nest",
        "shop": "optician"
      }
    },
    {
      "type": "node",
      "id": 13175147191,
      "lat": 12.9117784,
      "lon": 77.6503543,
      "tags": {
        "addr:floor": "1",
        "air_conditioning": "yes",
        "check_date": "2025-09-27",
        "level": "1",
        "name": "BBLUNT",
        "payment:cash": "yes",
        "payment:credit_cards": "yes",
        "payment:debit_cards": "yes",
        "shop": "hairdresser",
        "wheelchair": "no"
      }
    },
    {
      "type": "node",
      "id": 13175211583,
      "lat": 12.9121363,
      "lon": 77.6496658,
      "tags": {
        "amenity": "restaurant",
        "check_date": "2025-09-27",
        "name": "Make Di Hatti"
      }
    },
    {
      "type": "node",
      "id": 13288585454,
      "lat": 12.908973,
      "lon": 77.6434796,
      "tags": {
        "amenity": "cafe",
        "cuisine": "coffee_shop",
        "name": "Tribes Coffee"
      }
    },
    {
      "type": "way",
      "id": 24490739,
      "center": {
        "lat": 12.9095538,
        "lon": 77.6432755
      },
      "tags": {
        "addr:street": "22nd Cross",
        "leisure": "sports_centre",
        "name": "HSR Club",
        "sport": "multi"
      }
    },
    {
      "type": "way",
      "id": 24491075,
      "center": {
        "lat": 12.9112631,
        "lon": 77.6460771
      },
      "tags": {
        "leisure": "sports_centre",
        "name": "HSR BBMP Ground"
      }
    },
    {
      "type": "way",
      "id": 28262977,
      "center": {
        "lat": 12.9123563,
        "lon": 77.6453097
      },
      "tags": {
        "amenity": "school",
        "name": "Gnan Shrishti School of Excellence"
      }
    },
    {
      "type": "way",
      "id": 90843344,
      "center": {
        "lat": 12.9128446,
        "lon": 77.649784
      },
      "tags": {
        "leisure": "park",
        "name": "Kaveri Park"
      }
    },
    {
      "type": "way",
      "id": 156682848,
      "center": {
        "lat": 12.9116746,
        "lon": 77.6488864
      },
      "tags": {
        "amenity": "public_building",
        "building": "yes",
        "designation": "Karnataka Power Transmission Corporation Limited",
        "name": "KPTCL",
        "name:kn": "ಕ.ವಿ.ಪ್ರ.ನಿ.ನಿ."
      }
    },
    {
      "type": "way",
      "id": 232044884,
      "center": {
        "lat": 12.9119735,
        "lon": 77.6527313
      },
      "tags": {
        "addr:city": "Bengaluru",
        "addr:country": "IN",
        "addr:postcode": "560102",
        "addr:street": "27th Main",
        "addr:suburb": "HSR Layout",
        "amenity": "college",
        "barrier": "wall",
        "name": "National Institute of Fashion Technology",
        "short_name": "NIFT, Bengaluru",
        "website": "https://www.nift.ac.in/bengaluru/"
      }
    },
    {
      "type": "way",
      "id": 233128987,
      "center": {
        "lat": 12.907384,
        "lon": 77.6472991
      },
      "tags": {
        "addr:city": "Bangalore",
        "addr:postcode": "560102",
        "addr:street": "22nd Main Road",
        "leisure": "park",
        "name": "Independence Park"
      }
    },
    {
      "type": "way",
      "id": 286439576,
      "center": {
        "lat": 12.9162888,
        "lon": 77.6481638
      },
      "tags": {
        "leisure": "park",
        "name": "Hemavati Park",
        "name:kn": "ಹೇಮವತಿ ಉದ್ಯಾನ"
      }
    },
    {
      "type": "way",
      "id": 313826758,
      "center": {
        "lat": 12.9147473,
        "lon": 77.6470215
      },
      "tags": {
        "leisure": "park"
      }
    },
    {
      "type": "way",
      "id": 323094309,
      "center": {
        "lat": 12.9145299,
        "lon": 77.6520801
      },
      "tags": {
        "access": "private",
        "barrier": "wall",
        "leisure": "park"
      }
    },
    {
      "type": "way",
      "id": 323094310,
      "center": {
        "lat": 12.9097655,
        "lon": 77.646364
      },
      "tags": {
        "addr:city": "Bangalore",
        "addr:housenumber": "Park",
        "addr:postcode": "560102",
        "addr:street": "21st cross",
        "leisure": "park",
        "name": "Sector 2 Park"
      }
    },
    {
      "type": "way",
      "id": 330318578,
      "center": {
        "lat": 12.911592,
        "lon": 77.6476738
      },
      "tags": {
        "addr:city": "Bengaluru",
        "addr:postcode": "560102",
        "addr:street": "17th Cross Rd, 2nd Sector, Vanganahalli, Sector 2, HSR Layout",
        "amenity": "place_of_worship",
        "building": "yes",
        "name": "Sri Basaveshwara Gayatri Temple",
        "religion": "hindu"
      }
    },
    {
      "type": "way",
      "id": 335080002,
      "center": {
        "lat": 12.9043962,
        "lon": 77.6500887
      },
      "tags": {
        "leisure": "park"
      }
    },
    {
      "type": "way",
      "id": 348120773,
      "center": {
        "lat": 12.91218,
        "lon": 77.6511134
      },
      "tags": {
        "addr:housenumber": "2321",
        "addr:street": "17th Cross Road",
        "building": "yes",
        "name": "Mugdhaa",
        "shop": "clothes",
        "source": "GEPTIS"
      }
    },
    {
      "type": "way",
      "id": 348151436,
      "center": {
        "lat": 12.9129585,
        "lon": 77.6516544
      },
      "tags": {
        "addr:housenumber": "2610",
        "amenity": "fast_food",
        "building": "yes",
        "cuisine": "pizza",
        "name": "Go Pizza",
        "source:addr:housenumber": "GEPTIS"
      }
    },
    {
      "type": "way",
      "id": 440070555,
      "center": {
        "lat": 12.9057569,
        "lon": 77.6421786
      },
      "tags": {
        "amenity": "grave_yard"
      }
    },
    {
      "type": "way",
      "id": 440070556,
      "center": {
        "lat": 12.9051399,
        "lon": 77.6421941
      },
      "tags": {
        "amenity": "grave_yard",
        "landuse": "cemetery"
      }
    },
    {
      "type": "way",
      "id": 472322381,
      "center": {
        "lat": 12.8999058,
        "lon": 77.6493921
      },
      "tags": {
        "building": "yes",
        "name": "Shop On",
        "opening_hours": "Mo-Su 07:30-22:30",
        "shop": "department_store",
        "toilets": "yes"
      }
    },
    {
      "type": "way",
      "id": 583395809,
      "center": {
        "lat": 12.910952,
        "lon": 77.6444561
      },
      "tags": {
        "leisure": "park"
      }
    },
    {
      "type": "way",
      "id": 610388966,
      "center": {
        "lat": 12.9135925,
        "lon": 77.6521156
      },
      "tags": {
        "access": "customers",
        "amenity": "parking",
        "parking": "surface",
        "surface": "asphalt"
      }
    },
    {
      "type": "way",
      "id": 626885461,
      "center": {
        "lat": 12.9016626,
        "lon": 77.6502392
      },
      "tags": {
        "leisure": "swimming_pool"
      }
    },
    {
      "type": "way",
      "id": 628247480,
      "center": {
        "lat": 12.9037471,
        "lon": 77.6454097
      },
      "tags": {
        "leisure": "swimming_pool"
      }
    },
    {
      "type": "way",
      "id": 662821262,
      "center": {
        "lat": 12.9117211,
        "lon": 77.650387
      },
      "tags": {
        "addr:housenumber": "491",
        "addr:street": "17th Cross Road",
        "building": "yes",
        "name": "Pepperfry",
        "shop": "furniture"
      }
    },
    {
      "type": "way",
      "id": 662821273,
      "center": {
        "lat": 12.9124819,
        "lon": 77.6450746
      },
      "tags": {
        "access": "private",
        "leisure": "swimming_pool",
        "location": "outdoor",
        "swimming_pool": "outdoor"
      }
    },
    {
      "type": "way",
      "id": 662821285,
      "center": {
        "lat": 12.9097007,
        "lon": 77.643343
      },
      "tags": {
        "leisure": "swimming_pool"
      }
    },
    {
      "type": "way",
      "id": 662821287,
      "center": {
        "lat": 12.9094842,
        "lon": 77.6427925
      },
      "tags": {
        "leisure": "pitch",
        "sport": "tennis"
      }
    },
    {
      "type": "way",
      "id": 741212145,
      "center": {
        "lat": 12.9078887,
        "lon": 77.6426499
      },
      "tags": {
        "leisure": "park",
        "name": "HSR Friends Park"
      }
    },
    {
      "type": "way",
      "id": 1050019886,
      "center": {
        "lat": 12.9136787,
        "lon": 77.6464474
      },
      "tags": {
        "leisure": "park"
      }
    },
    {
      "type": "way",
      "id": 1050019895,
      "center": {
        "lat": 12.9147432,
        "lon": 77.6505752
      },
      "tags": {
        "amenity": "college",
        "name": "Government First Grade College",
        "name:kn": "ಸರಕಾರಿ ಪ್ರಥಮ ದರ್ಜೆ ಕಾಲೇಜು"
      }
    },
    {
      "type": "way",
      "id": 1050019898,
      "center": {
        "lat": 12.91474,
        "lon": 77.6500214
      },
      "tags": {
        "amenity": "kindergarten",
        "name": "Sanfort Play School"
      }
    },
    {
      "type": "way",
      "id": 1050019906,
      "center": {
        "lat": 12.9090125,
        "lon": 77.6512157
      },
      "tags": {
        "leisure": "park"
      }
    },
    {
      "type": "way",
      "id": 1050019907,
      "center": {
        "lat": 12.9105433,
        "lon": 77.6526446
      },
      "tags": {
        "leisure": "park"
      }
    },
    {
      "type": "way",
      "id": 1050019908,
      "center": {
        "lat": 12.9055373,
        "lon": 77.6500453
      },
      "tags": {
        "amenity": "events_venue",
        "name": "Siddhartha Convention Center"
      }
    },
    {
      "type": "way",
      "id": 1071446000,
      "center": {
        "lat": 12.9112345,
        "lon": 77.6449037
      },
      "tags": {
        "leisure": "sports_centre",
        "name": "Atal Bihari Vajpayee Sports Complex",
        "name:etymology:wikidata": "Q233289"
      }
    },
    {
      "type": "way",
      "id": 1071630512,
      "center": {
        "lat": 12.9134691,
        "lon": 77.6449257
      },
      "tags": {
        "building": "yes",
        "leisure": "fitness_centre",
        "name": "CULT Fitness center"
      }
    },
    {
      "type": "way",
      "id": 1089884358,
      "center": {
        "lat": 12.9136212,
        "lon": 77.6449401
      },
      "tags": {
        "addr:housenumber": "1791",
        "amenity": "restaurant",
        "building": "yes",
        "name": "Rashtrakutas"
      }
    },
    {
      "type": "way",
      "id": 1089884374,
      "center": {
        "lat": 12.9115886,
        "lon": 77.6449817
      },
      "tags": {
        "leisure": "pitch",
        "sport": "badminton;volleyball"
      }
    },
    {
      "type": "way",
      "id": 1089884375,
      "center": {
        "lat": 12.9112223,
        "lon": 77.6449432
      },
      "tags": {
        "access": "yes",
        "leisure": "pitch",
        "sport": "basketball"
      }
    },
    {
      "type": "way",
      "id": 1089884377,
      "center": {
        "lat": 12.9113718,
        "lon": 77.6457701
      },
      "tags": {
        "leisure": "pitch",
        "sport": "cricket"
      }
    },
    {
      "type": "way",
      "id": 1097519302,
      "center": {
        "lat": 12.9121862,
        "lon": 77.6512565
      },
      "tags": {
        "addr:housenumber": "2320",
        "addr:street": "17th Cross Road",
        "building": "yes",
        "name": "Malabar Gold",
        "shop": "jewelry",
        "source": "GEPTIS"
      }
    },
    {
      "type": "way",
      "id": 1097519305,
      "center": {
        "lat": 12.9121599,
        "lon": 77.6506772
      },
      "tags": {
        "addr:housenumber": "2324",
        "amenity": "pub",
        "building": "yes",
        "name": "Hangover",
        "source": "GEPTIS"
      }
    },
    {
      "type": "way",
      "id": 1097519307,
      "center": {
        "lat": 12.9116986,
        "lon": 77.6495441
      },
      "tags": {
        "amenity": "hospital",
        "healthcare": "hospital",
        "name": "Bhoomi Diagnostics"
      }
    },
    {
      "type": "way",
      "id": 1099659590,
      "center": {
        "lat": 12.9089136,
        "lon": 77.6440611
      },
      "tags": {
        "amenity": "fuel",
        "brand": "Shell",
        "brand:wikidata": "Q110716465",
        "name": "Shell",
        "name:kn": "ಶೆಲ್"
      }
    },
    {
      "type": "way",
      "id": 1099665386,
      "center": {
        "lat": 12.9109173,
        "lon": 77.6449214
      },
      "tags": {
        "access": "yes",
        "leisure": "pitch",
        "sport": "kabadi"
      }
    },
    {
      "type": "way",
      "id": 1099665394,
      "center": {
        "lat": 12.9073176,
        "lon": 77.6448038
      },
      "tags": {
        "addr:street": "19th Main",
        "amenity": "fuel",
        "brand": "Indian Oil",
        "brand:wikidata": "Q1289348",
        "brand:wikipedia": "en:Indian Oil Corporation",
        "diesel": "yes",
        "name": "Indian Oil",
        "name:kn": "ಇಂಡಿಯನ್ ಆಯಿಲ್",
        "operator": "Indian Oil"
      }
    },
    {
      "type": "way",
      "id": 1099665401,
      "center": {
        "lat": 12.9078713,
        "lon": 77.6452802
      },
      "tags": {
        "amenity": "school",
        "name": "Cambridge School ICSE",
        "name:kn": "ಕೇಂಬ್ರಿಜ್ ಶಾಲೆ",
        "wheelchair": "limited"
      }
    },
    {
      "type": "way",
      "id": 1099665402,
      "center": {
        "lat": 12.9081669,
        "lon": 77.6453308
      },
      "tags": {
        "access": "private",
        "leisure": "swimming_pool",
        "location": "outdoor",
        "swimming_pool": "outdoor"
      }
    },
    {
      "type": "way",
      "id": 1099665412,
      "center": {
        "lat": 12.9082086,
        "lon": 77.6435134
      },
      "tags": {
        "addr:district": "Bengaluru Urban",
        "addr:full": "Ca Site No 1, Basant Health Centre Building, 18th Main, Opposite Hsr Club",
        "addr:postcode": "560102",
        "addr:state": "Karnataka",
        "amenity": "hospital",
        "healthcare": "hospital",
        "name": "Narayana Multispeciality Hospital",
        "name:kn": "ನಾರಾಯಣ ಆಸ್ಪತ್ರೆ",
        "operator:type": "private",
        "source": "OpenGovernmentData",
        "website": "https://www.narayanahealth.org/patients/locations/Bengaluru"
      }
    },
    {
      "type": "way",
      "id": 1099665569,
      "center": {
        "lat": 12.9049803,
        "lon": 77.6440307
      },
      "tags": {
        "amenity": "restaurant",
        "building": "yes",
        "name": "Udupi Food Park"
      }
    },
    {
      "type": "way",
      "id": 1118421370,
      "center": {
        "lat": 12.9101615,
        "lon": 77.6512183
      },
      "tags": {
        "leisure": "park"
      }
    },
    {
      "type": "way",
      "id": 1188968031,
      "center": {
        "lat": 12.9060053,
        "lon": 77.6474272
      },
      "tags": {
        "access": "private",
        "leisure": "pitch",
        "sport": "tennis"
      }
    },
    {
      "type": "way",
      "id": 1188968058,
      "center": {
        "lat": 12.9014213,
        "lon": 77.647459
      },
      "tags": {
        "access": "private",
        "leisure": "swimming_pool",
        "location": "outdoor",
        "swimming_pool": "outdoor"
      }
    },
    {
      "type": "way",
      "id": 1188968062,
      "center": {
        "lat": 12.9014695,
        "lon": 77.648176
      },
      "tags": {
        "access": "private",
        "leisure": "pitch",
        "sport": "basketball"
      }
    },
    {
      "type": "way",
      "id": 1188968077,
      "center": {
        "lat": 12.9013686,
        "lon": 77.6477352
      },
      "tags": {
        "amenity": "school"
      }
    },
    {
      "type": "way",
      "id": 1206400796,
      "center": {
        "lat": 12.9107834,
        "lon": 77.6451324
      },
      "tags": {
        "access": "yes",
        "amenity": "toilets",
        "building": "yes",
        "female": "yes"
      }
    },
    {
      "type": "way",
      "id": 1206400799,
      "center": {
        "lat": 12.9119099,
        "lon": 77.6452555
      },
      "tags": {
        "access": "yes",
        "amenity": "toilets",
        "building": "yes",
        "male": "yes"
      }
    },
    {
      "type": "way",
      "id": 1209529814,
      "center": {
        "lat": 12.906842,
        "lon": 77.6455167
      },
      "tags": {
        "leisure": "pitch",
        "name": "Basketball Court",
        "name:kn": "ಬಾಸ್ಕೆಟ್ ಬಾಲ್ ಅಂಕಣ",
        "sport": "basketball"
      }
    },
    {
      "type": "way",
      "id": 1209542181,
      "center": {
        "lat": 12.9061308,
        "lon": 77.6467093
      },
      "tags": {
        "leisure": "swimming_pool",
        "name": "Pool"
      }
    },
    {
      "type": "way",
      "id": 1213822197,
      "center": {
        "lat": 12.9136138,
        "lon": 77.6525846
      },
      "tags": {
        "amenity": "parking",
        "parking": "surface"
      }
    },
    {
      "type": "way",
      "id": 1222502578,
      "center": {
        "lat": 12.9117744,
        "lon": 77.6502287
      },
      "tags": {
        "amenity": "cafe",
        "building": "yes",
        "building:levels": "1",
        "name": "Third Wave Coffee"
      }
    },
    {
      "type": "way",
      "id": 1241312584,
      "center": {
        "lat": 12.9106829,
        "lon": 77.6468735
      },
      "tags": {
        "leisure": "pitch",
        "sport": "cricket_nets"
      }
    },
    {
      "type": "way",
      "id": 1241312586,
      "center": {
        "lat": 12.9113806,
        "lon": 77.6457685
      },
      "tags": {
        "leisure": "track",
        "sport": "running",
        "surface": "asphalt"
      }
    },
    {
      "type": "way",
      "id": 1254626826,
      "center": {
        "lat": 12.9096776,
        "lon": 77.644416
      },
      "tags": {
        "leisure": "park"
      }
    },
    {
      "type": "way",
      "id": 1274778716,
      "center": {
        "lat": 12.9000432,
        "lon": 77.654042
      },
      "tags": {
        "leisure": "playground"
      }
    },
    {
      "type": "way",
      "id": 1274778717,
      "center": {
        "lat": 12.9001635,
        "lon": 77.6538266
      },
      "tags": {
        "leisure": "park"
      }
    },
    {
      "type": "way",
      "id": 1274778719,
      "center": {
        "lat": 12.9001612,
        "lon": 77.6535307
      },
      "tags": {
        "leisure": "pitch",
        "sport": "tennis"
      }
    },
    {
      "type": "way",
      "id": 1312729960,
      "center": {
        "lat": 12.8985135,
        "lon": 77.6480828
      },
      "tags": {
        "leisure": "park"
      }
    }
  ]
}