{
  "area_name": "Peenya 2nd Stage",
  "osm_id": 599212727,
  "osm_type": "node",
  "place_type": "neighbourhood",
  "amenity_count": 23,
  "amenities": [
    {
      "type": "node",
      "id": 1794648902,
      "lat": 13.0234554,
      "lon": 77.5099399,
      "tags": {
        "amenity": "fuel",
        "brand": "Indian Oil",
        "fuel:1_25": "no",
        "fuel:1_50": "no",
        "fuel:GTL_diesel": "no",
        "fuel:HGV_diesel": "no",
        "fuel:biodiesel": "no",
        "fuel:biogas": "no",
        "fuel:cng": "no",
        "fuel:diesel": "yes",
        "fuel:e10": "no",
        "fuel:e85": "no",
        "fuel:electricity": "no",
        "fuel:lpg": "no",
        "fuel:octane_100": "no",
        "fuel:octane_91": "yes",
        "fuel:octane_95": "yes",
        "fuel:octane_98": "no",
        "name": "HP",
        "name:kn": "ಹಿಂದುಸ್ತಾನ್ ಪೆಟ್ರೋಲಿಯಂ"
      }
    },
    {
      "type": "node",
      "id": 1794660319,
      "lat": 13.0291469,
      "lon": 77.519671,
      "tags": {
        "amenity": "restaurant",
        "diet:vegetarian": "only"
      }
    },
    {
      "type": "node",
      "id": 1794660357,
      "lat": 13.0287027,
      "lon": 77.5199016,
      "tags": {
        "amenity": "restaurant",
        "diet:vegetarian": "only",
        "name": "ಅಮೋಘ ಸಾಗರ್",
        "name:en": "Amogha Sagar Vegetarian"
      }
    },
    {
      "type": "node",
      "id": 1794669368,
      "lat": 13.0354184,
      "lon": 77.5178471,
      "tags": {
        "amenity": "fuel"
      }
    },
    {
      "type": "node",
      "id": 1794677577,
      "lat": 13.0271609,
      "lon": 77.5148644,
      "tags": {
        "amenity": "bank",
        "atm": "no",
        "brand": "State Bank of India",
        "brand:wikidata": "Q1340361",
        "brand:wikipedia": "en:State Bank of India",
        "name": "State Bank of India",
        "name:kn": "ಭಾರತೀಯ ಸ್ಟೇಟ್ ಬ್ಯಾಂಕ್",
        "short_name": "SBI"
      }
    },
    {
      "type": "node",
      "id": 4234070460,
      "lat": 13.0265207,
      "lon": 77.5130029,
      "tags": {
        "access": "private",
        "amenity": "parking",
        "capacity": "30",
        "covered": "yes",
        "operator": "Avana Electrosystems Pvt Ltd",
        "supervised": "yes",
        "surface": "concrete"
      }
    },
    {
      "type": "node",
      "id": 4478538390,
      "lat": 13.0264471,
      "lon": 77.5114203,
      "tags": {
        "name": "Ffi Garments Factory",
        "name:en": "ffi Garments factory",
        "shop": "clothes"
      }
    },
    {
      "type": "node",
      "id": 6938465166,
      "lat": 13.0227778,
      "lon": 77.5182116,
      "tags": {
        "addr:district": "Bengaluru Urban",
        "addr:full": "No.50, Lakshmi Complex, Peenya Iii Stage , Near Rajagopal Nagar Old Police Station",
        "addr:postcode": "560058",
        "addr:state": "Karnataka",
        "amenity": "clinic",
        "name": "Srinivasa Nursing Home, Bengaluru Urban",
        "source": "OpenGovernmentData"
      }
    },
    {
      "type": "node",
      "id": 8187962184,
      "lat": 13.0283797,
      "lon": 77.5196385,
      "tags": {
        "addr:full": "GF Shop No 3, Bda Comml. Complex, Nagarbhabvi, II Stage, III Block, Ring Road, KIADB Housing Complex, Peenya, Bengaluru, Karnataka",
        "addr:state": "Karnataka",
        "amenity": "bank",
        "name": "Corporation Bank",
        "name:kn": "ಕಾರ್ಪರೇಷನ್ ಬ್ಯಾಂಕ್"
      }
    },
    {
      "type": "node",
      "id": 8188038578,
      "lat": 13.0313399,
      "lon": 77.5055985,
      "tags": {
        "addr:full": "Bengaluru, Nalagadderanahalli, Peenya, Bengaluru, Karnataka",
        "addr:state": "Karnataka",
        "amenity": "hospital",
        "name": "Ashwini Hospital",
        "name:kn": "ಅಶ್ವಿನಿ ಆಸ್ಪತ್ರೆ"
      }
    },
    {
      "type": "node",
      "id": 9249649095,
      "lat": 13.0264015,
      "lon": 77.5210156,
      "tags": {
        "amenity": "bank",
        "brand": "SBI"
      }
    },
    {
      "type": "node",
      "id": 11887029552,
      "lat": 13.0260038,
      "lon": 77.5141226,
      "tags": {
        "amenity": "shelter",
        "shelter_type": "gazebo"
      }
    },
    {
      "type": "node",
      "id": 11887029553,
      "lat": 13.0256393,
      "lon": 77.5132576,
      "tags": {
        "amenity": "shelter",
        "shelter_type": "gazebo"
      }
    },
    {
      "type": "node",
      "id": 11887029554,
      "lat": 13.0253084,
      "lon": 77.5124837,
      "tags": {
        "amenity": "shelter",
        "shelter_type": "gazebo"
      }
    },
    {
      "type": "node",
      "id": 11939010319,
      "lat": 13.0280181,
      "lon": 77.5208174,
      "tags": {
        "amenity": "fire_station"
      }
    },
    {
      "type": "way",
      "id": 168171726,
      "center": {
        "lat": 13.0250286,
        "lon": 77.508529
      },
      "tags": {
        "amenity": "college",
        "name": "NTTF Technical Training Institute"
      }
    },
    {
      "type": "way",
      "id": 1070554579,
      "center": {
        "lat": 13.0331263,
        "lon": 77.5051815
      },
      "tags": {
        "amenity": "school",
        "name": "Schoenstatt St. Mary's Public School"
      }
    },
    {
      "type": "way",
      "id": 1070554580,
      "center": {
        "lat": 13.0357273,
        "lon": 77.5056937
      },
      "tags": {
        "amenity": "college",
        "name": "Chirst University Yeshwantpur Campus"
      }
    },
    {
      "type": "way",
      "id": 1087820280,
      "center": {
        "lat": 13.0346158,
        "lon": 77.5056378
      },
      "tags": {
        "amenity": "college",
        "name": "St. Paul's College",
        "name:kn": "ಸೆಂಟ್ ಪಾಲ್ಸ್ ಕಾಲೇಜು"
      }
    },
    {
      "type": "way",
      "id": 1134831512,
      "center": {
        "lat": 13.0279503,
        "lon": 77.5205608
      },
      "tags": {
        "amenity": "fire_station",
        "name": "Peenya Fire Station",
        "name:kn": "ಪೀಣ್ಯ ಅಗ್ನಿಶಾಮಕ ಠಾಣೆ"
      }
    },
    {
      "type": "way",
      "id": 1280618999,
      "center": {
        "lat": 13.0257619,
        "lon": 77.5211449
      },
      "tags": {
        "amenity": "fuel",
        "brand": "Bharath Petroluem",
        "fuel:1_25": "no",
        "fuel:1_50": "no",
        "fuel:GTL_diesel": "no",
        "fuel:HGV_diesel": "no",
        "fuel:biodiesel": "no",
        "fuel:biogas": "no",
        "fuel:cng": "no",
        "fuel:diesel": "yes",
        "fuel:e10": "no",
        "fuel:e85": "no",
        "fuel:electricity": "no",
        "fuel:lpg": "no",
        "fuel:octane_100": "no",
        "fuel:octane_91": "yes",
        "fuel:octane_95": "no",
        "fuel:octane_98": "no"
      }
    },
    {
      "type": "way",
      "id": 1280623460,
      "center": {
        "lat": 13.0256894,
        "lon": 77.5134037
      },
      "tags": {
        "leisure": "park"
      }
    },
    {
      "type": "way",
      "id": 1280623537,
      "center": {
        "lat": 13.0293045,
        "lon": 77.5232467
      },
      "tags": {
        "leisure": "park"
      }
    }
  ]
}