{
  "area_name": "Peenya",
  "osm_id": 3305850521,
  "osm_type": "node",
  "place_type": "suburb",
  "amenity_count": 106,
  "amenities": [
    {
      "type": "node",
      "id": 520091528,
      "lat": 13.0361795,
      "lon": 77.5317658,
      "tags": {
        "name": "Fair and Fair",
        "shop": "convenience"
      }
    },
    {
      "type": "node",
      "id": 520091555,
      "lat": 13.0360931,
      "lon": 77.5317332,
      "tags": {
        "amenity": "pharmacy"
      }
    },
    {
      "type": "node",
      "id": 701733217,
      "lat": 13.0382505,
      "lon": 77.5209319,
      "tags": {
        "amenity": "fuel",
        "brand": "Indian Oil",
        "brand:wikidata": "Q1289348",
        "brand:wikipedia": "en:Indian Oil Corporation",
        "operator": "Indian Oil"
      }
    },
    {
      "type": "node",
      "id": 701733264,
      "lat": 13.0368708,
      "lon": 77.5233568,
      "tags": {
        "amenity": "bar"
      }
    },
    {
      "type": "node",
      "id": 1473053490,
      "lat": 13.0367319,
      "lon": 77.5237031,
      "tags": {
        "amenity": "bus_station",
        "name": "BMTC",
        "name:kn": "ಬಿಎಂಟಿಸಿ"
      }
    },
    {
      "type": "node",
      "id": 1473055260,
      "lat": 13.0376208,
      "lon": 77.5222091,
      "tags": {
        "amenity": "bank",
        "brand": "Canara Bank",
        "brand:pa": "ਕੇਨਰਾ ਬੈਂਕ",
        "brand:ur": "کینرا بینک",
        "brand:wikidata": "Q2003777",
        "brand:wikipedia": "en:Canara Bank",
        "brand:wikipedia:pa": "ਕੇਨਰਾ ਬੈਂਕ",
        "name": "Canara Bank",
        "name:kn": "ಕೆನರಾ ಬ್ಯಾಂಕ್",
        "name:pa": "ਕੇਨਰਾ ਬੈਂਕ",
        "name:ur": "کینرا بینک",
        "website": "https://www.canarabank.com/"
      }
    },
    {
      "type": "node",
      "id": 1473057041,
      "lat": 13.0375472,
      "lon": 77.5223422,
      "tags": {
        "name": "Ezzy Hardware Stores",
        "shop": "convenience"
      }
    },
    {
      "type": "node",
      "id": 1794656846,
      "lat": 13.0360107,
      "lon": 77.5211853,
      "tags": {
        "amenity": "police",
        "name": "Peenya Police Station",
        "name:kn": "ಪೀಣ್ಯ ಆರಕ್ಷಕ ಠಾಣೆ"
      }
    },
    {
      "type": "node",
      "id": 1794660319,
      "lat": 13.0291469,
      "lon": 77.519671,
      "tags": {
        "amenity": "restaurant",
        "diet:vegetarian": "only"
      }
    },
    {
      "type": "node",
      "id": 1794660357,
      "lat": 13.0287027,
      "lon": 77.5199016,
      "tags": {
        "amenity": "restaurant",
        "diet:vegetarian": "only",
        "name": "ಅಮೋಘ ಸಾಗರ್",
        "name:en": "Amogha Sagar Vegetarian"
      }
    },
    {
      "type": "node",
      "id": 1794669218,
      "lat": 13.03557,
      "lon": 77.5185873,
      "tags": {
        "amenity": "bank",
        "atm": "yes",
        "brand": "HDFC",
        "brand:wikidata": "Q631047",
        "brand:wikipedia": "en:HDFC Bank",
        "name": "HDFC Bank",
        "name:kn": "ಎಚ್. ಡಿ. ಎಫ್. ಸಿ. ಬ್ಯಾಂಕ್",
        "short_name": "HDFC",
        "website": "https://www.hdfcbank.com"
      }
    },
    {
      "type": "node",
      "id": 3374639807,
      "lat": 13.0372513,
      "lon": 77.5290538,
      "tags": {
        "amenity": "pharmacy"
      }
    },
    {
      "type": "node",
      "id": 3451519135,
      "lat": 13.0346447,
      "lon": 77.534307,
      "tags": {
        "amenity": "atm",
        "brand": "Indian Bank",
        "brand:wikidata": "Q2003789",
        "operator": "Indian Bank",
        "operator:wikidata": "Q2003789"
      }
    },
    {
      "type": "node",
      "id": 3457158602,
      "lat": 13.0368239,
      "lon": 77.53127,
      "tags": {
        "amenity": "parking_entrance"
      }
    },
    {
      "type": "node",
      "id": 3462836062,
      "lat": 13.0385823,
      "lon": 77.5273889,
      "tags": {
        "amenity": "pharmacy"
      }
    },
    {
      "type": "node",
      "id": 3462850453,
      "lat": 13.0388561,
      "lon": 77.5273271,
      "tags": {
        "amenity": "parking"
      }
    },
    {
      "type": "node",
      "id": 3520963631,
      "lat": 13.0348346,
      "lon": 77.533915,
      "tags": {
        "amenity": "bench"
      }
    },
    {
      "type": "node",
      "id": 3541170087,
      "lat": 13.0345353,
      "lon": 77.5342727,
      "tags": {
        "amenity": "post_box"
      }
    },
    {
      "type": "node",
      "id": 3541170088,
      "lat": 13.0334775,
      "lon": 77.5339656,
      "tags": {
        "shop": "kiosk"
      }
    },
    {
      "type": "node",
      "id": 3541170089,
      "lat": 13.0336462,
      "lon": 77.5306463,
      "tags": {
        "amenity": "fuel",
        "operator": "Hindusthan Petroleum"
      }
    },
    {
      "type": "node",
      "id": 3541170090,
      "lat": 13.0335377,
      "lon": 77.5307804,
      "tags": {
        "amenity": "atm",
        "brand": "Canara Bank",
        "brand:en": "Canara Bank",
        "brand:hi": "केनरा बैंक",
        "brand:kn": "ಕೆನರಾ ಬ್ಯಾಂಕ್",
        "brand:pa": "ਕੇਨਰਾ ਬੈਂਕ",
        "brand:pnb": "کینرا بینک",
        "brand:ur": "کینرا بینک",
        "brand:wikidata": "Q2003777",
        "name:en": "Canara Bank",
        "name:hi": "केनरा बैंक",
        "name:kn": "ಕೆನರಾ ಬ್ಯಾಂಕ್",
        "name:pa": "ਕੇਨਰਾ ਬੈਂਕ",
        "name:pnb": "کینرا بینک",
        "name:ur": "کینرا بینک",
        "operator": "Canara Bank",
        "operator:wikidata": "Q2003777"
      }
    },
    {
      "type": "node",
      "id": 3541170091,
      "lat": 13.0334985,
      "lon": 77.5309521,
      "tags": {
        "amenity": "cafe",
        "brand": "Cafe Coffee Day",
        "brand:wikidata": "Q5017235",
        "cuisine": "coffee_shop",
        "name": "Cafe Coffee Day",
        "name:kn": "ಕಫೆ ಕಾಫಿ ಡೇ",
        "takeaway": "yes"
      }
    },
    {
      "type": "node",
      "id": 3541170092,
      "lat": 13.0349775,
      "lon": 77.5297263,
      "tags": {
        "name": "Hassan Iyangar Bakery",
        "shop": "bakery"
      }
    },
    {
      "type": "node",
      "id": 3541170993,
      "lat": 13.0350481,
      "lon": 77.5295547,
      "tags": {
        "name": "VRS Enterprises",
        "shop": "copyshop"
      }
    },
    {
      "type": "node",
      "id": 3541170994,
      "lat": 13.0352186,
      "lon": 77.5288522,
      "tags": {
        "name": "Luxury",
        "shop": "hairdresser"
      }
    },
    {
      "type": "node",
      "id": 3541170995,
      "lat": 13.0351169,
      "lon": 77.5287478,
      "tags": {
        "amenity": "place_of_worship",
        "religion": "hindu"
      }
    },
    {
      "type": "node",
      "id": 3541170996,
      "lat": 13.0354035,
      "lon": 77.5283456,
      "tags": {
        "name": "Shekhar Fresh Chicken Center",
        "shop": "butcher"
      }
    },
    {
      "type": "node",
      "id": 3541202411,
      "lat": 13.0376545,
      "lon": 77.5221145,
      "tags": {
        "amenity": "atm",
        "operator": "Canara Bank"
      }
    },
    {
      "type": "node",
      "id": 3541202412,
      "lat": 13.0374407,
      "lon": 77.5225394,
      "tags": {
        "amenity": "restaurant",
        "cuisine": "regional",
        "name": "PSR Andhra Style Restaurant"
      }
    },
    {
      "type": "node",
      "id": 3541202413,
      "lat": 13.0373915,
      "lon": 77.5226172,
      "tags": {
        "name": "Task Electricals and Tools",
        "shop": "hardware"
      }
    },
    {
      "type": "node",
      "id": 3541202414,
      "lat": 13.0371446,
      "lon": 77.5230437,
      "tags": {
        "amenity": "bank",
        "name": "Vijaya Bank",
        "name:kn": "ವಿಜಯ ಬ್ಯಾಂಕ್"
      }
    },
    {
      "type": "node",
      "id": 3541202415,
      "lat": 13.0371655,
      "lon": 77.5230021,
      "tags": {
        "amenity": "atm",
        "operator": "Vijaya Bank"
      }
    },
    {
      "type": "node",
      "id": 3541202416,
      "lat": 13.0369408,
      "lon": 77.5233884,
      "tags": {
        "name": "Tan Shoes",
        "shop": "shoes"
      }
    },
    {
      "type": "node",
      "id": 3541202417,
      "lat": 13.036912,
      "lon": 77.523438,
      "tags": {
        "amenity": "atm",
        "operator": "AXIS Bank"
      }
    },
    {
      "type": "node",
      "id": 3541202418,
      "lat": 13.0366638,
      "lon": 77.5237733,
      "tags": {
        "amenity": "fuel",
        "brand": "Indian Oil",
        "brand:wikidata": "Q1289348",
        "brand:wikipedia": "en:Indian Oil Corporation",
        "operator": "Indian Oil"
      }
    },
    {
      "type": "node",
      "id": 3541202419,
      "lat": 13.0363437,
      "lon": 77.5245042,
      "tags": {
        "name": "Suraj Motors Honda Servicing",
        "shop": "motorcycle"
      }
    },
    {
      "type": "node",
      "id": 3541202420,
      "lat": 13.0361712,
      "lon": 77.5247979,
      "tags": {
        "name": "Satyanarayana Tools and Hardware",
        "shop": "hardware"
      }
    },
    {
      "type": "node",
      "id": 3541202421,
      "lat": 13.0359609,
      "lon": 77.5252069,
      "tags": {
        "amenity": "post_office",
        "name": "First Flight Couriers",
        "operator": "First Flight"
      }
    },
    {
      "type": "node",
      "id": 3541202422,
      "lat": 13.0358825,
      "lon": 77.52529,
      "tags": {
        "name": "Shabari Motors",
        "shop": "motorcycle"
      }
    },
    {
      "type": "node",
      "id": 3541202423,
      "lat": 13.0358694,
      "lon": 77.5253491,
      "tags": {
        "name": "Sri Raghavendra Condiments and Chats",
        "shop": "convenience"
      }
    },
    {
      "type": "node",
      "id": 3541202424,
      "lat": 13.0353468,
      "lon": 77.5263173,
      "tags": {
        "amenity": "school",
        "name": "Nammura Government Model Primary School"
      }
    },
    {
      "type": "node",
      "id": 3541202426,
      "lat": 13.0351874,
      "lon": 77.5269664,
      "tags": {
        "name": "Srinivas Dry Cleaners",
        "shop": "dry_cleaning"
      }
    },
    {
      "type": "node",
      "id": 3541202427,
      "lat": 13.0351247,
      "lon": 77.5271958,
      "tags": {
        "amenity": "fast_food",
        "name": "Phalahara Darshini Juice Center"
      }
    },
    {
      "type": "node",
      "id": 3541202428,
      "lat": 13.0350528,
      "lon": 77.527527,
      "tags": {
        "name": "Mangala Jyothi Home Appliances",
        "shop": "houseware"
      }
    },
    {
      "type": "node",
      "id": 3596808459,
      "lat": 13.0343487,
      "lon": 77.5273276,
      "tags": {
        "amenity": "place_of_worship",
        "name": "Hanuman Temple",
        "name:kn": "ಹನುಮಂತ ದೇವಸ್ಥಾನ",
        "religion": "hindu"
      }
    },
    {
      "type": "node",
      "id": 3929924346,
      "lat": 13.0347168,
      "lon": 77.5345183,
      "tags": {
        "name": "Chai Stall",
        "shop": "tea"
      }
    },
    {
      "type": "node",
      "id": 4027293751,
      "lat": 13.033023,
      "lon": 77.5337389,
      "tags": {
        "amenity": "bicycle_parking",
        "lit": "yes",
        "name": "Trin Trin"
      }
    },
    {
      "type": "node",
      "id": 4202197790,
      "lat": 13.0348482,
      "lon": 77.5303833,
      "tags": {
        "amenity": "place_of_worship",
        "religion": "hindu"
      }
    },
    {
      "type": "node",
      "id": 4202199448,
      "lat": 13.036062,
      "lon": 77.5317247,
      "tags": {
        "shop": "stationery"
      }
    },
    {
      "type": "node",
      "id": 4599701763,
      "lat": 13.0346821,
      "lon": 77.5351685,
      "tags": {
        "access": "private",
        "amenity": "restaurant",
        "name": "NID Canteen"
      }
    },
    {
      "type": "node",
      "id": 4599701764,
      "lat": 13.0347056,
      "lon": 77.5349405,
      "tags": {
        "amenity": "theatre",
        "name": "NID Open Air Auditorium"
      }
    },
    {
      "type": "node",
      "id": 4665414251,
      "lat": 13.0334463,
      "lon": 77.5311642,
      "tags": {
        "amenity": "fast_food",
        "brand": "McDonald's",
        "brand:pa": "ਮੈਕਡੋਨਲਡ’ਜ਼",
        "brand:ur": "مکڈونلڈز",
        "brand:wikidata": "Q38076",
        "brand:wikipedia": "en:McDonald's",
        "brand:wikipedia:pa": "ਮੈਕਡੋਨਲਡ’ਜ਼",
        "brand:wikipedia:ur": "مکڈونلڈز",
        "capacity": "75",
        "cuisine": "burger",
        "delivery": "no",
        "name": "McDonald's",
        "name:kn": "ಮ್ಯಾಕ್‌ಡೊನಾಲ್ಡ್ಸ್",
        "name:pa": "ਮੈਕਡੋਨਲਡ’ਜ਼",
        "name:ur": "مکڈونلڈز",
        "opening_hours": "10:00-23:00",
        "outdoor_seating": "no",
        "smoking": "no",
        "takeaway": "yes"
      }
    },
    {
      "type": "node",
      "id": 8187962184,
      "lat": 13.0283797,
      "lon": 77.5196385,
      "tags": {
        "addr:full": "GF Shop No 3, Bda Comml. Complex, Nagarbhabvi, II Stage, III Block, Ring Road, KIADB Housing Complex, Peenya, Bengaluru, Karnataka",
        "addr:state": "Karnataka",
        "amenity": "bank",
        "name": "Corporation Bank",
        "name:kn": "ಕಾರ್ಪರೇಷನ್ ಬ್ಯಾಂಕ್"
      }
    },
    {
      "type": "node",
      "id": 8188038584,
      "lat": 13.0280728,
      "lon": 77.5231858,
      "tags": {
        "addr:full": "KIADB Housing Complex, Peenya, Yeshwanthpur Suburb II Stage, KIADB Housing Complex, Peenya, Bengaluru, Karnataka",
        "addr:state": "Karnataka",
        "amenity": "hospital",
        "name": "Esi Hospital Peenya 1st Stage"
      }
    },
    {
      "type": "node",
      "id": 9249649095,
      "lat": 13.0264015,
      "lon": 77.5210156,
      "tags": {
        "amenity": "bank",
        "brand": "SBI"
      }
    },
    {
      "type": "node",
      "id": 11359481141,
      "lat": 13.0307419,
      "lon": 77.5348479,
      "tags": {
        "check_date": "2023-11-18",
        "name": "Magnum Honda",
        "shop": "car"
      }
    },
    {
      "type": "node",
      "id": 11939010319,
      "lat": 13.0280181,
      "lon": 77.5208174,
      "tags": {
        "amenity": "fire_station"
      }
    },
    {
      "type": "node",
      "id": 11998178513,
      "lat": 13.0318753,
      "lon": 77.5337721,
      "tags": {
        "amenity": "restaurant",
        "check_date": "2024-06-21",
        "name": "Dakshin Delicacy"
      }
    },
    {
      "type": "node",
      "id": 11998178514,
      "lat": 13.0319194,
      "lon": 77.5336016,
      "tags": {
        "check_date": "2024-06-21",
        "name": "Big Mishra Peda",
        "shop": "pastry"
      }
    },
    {
      "type": "node",
      "id": 11998178515,
      "lat": 13.0378544,
      "lon": 77.5215723,
      "tags": {
        "amenity": "college",
        "check_date": "2024-06-21",
        "name": "GPS Institute of Agricultural Management"
      }
    },
    {
      "type": "node",
      "id": 12016136806,
      "lat": 13.0349336,
      "lon": 77.5278295,
      "tags": {
        "amenity": "school",
        "check_date": "2024-06-28"
      }
    },
    {
      "type": "node",
      "id": 12016136807,
      "lat": 13.0349228,
      "lon": 77.5250366,
      "tags": {
        "amenity": "place_of_worship",
        "check_date": "2024-06-28",
        "religion": "muslim"
      }
    },
    {
      "type": "node",
      "id": 12518226615,
      "lat": 13.0328946,
      "lon": 77.5336759,
      "tags": {
        "amenity": "drinking_water",
        "fountain": "bubbler",
        "indoor": "yes",
        "layer": "1",
        "level": "1"
      }
    },
    {
      "type": "node",
      "id": 12518226616,
      "lat": 13.0327979,
      "lon": 77.533763,
      "tags": {
        "access": "customers",
        "amenity": "toilets",
        "check_date": "2025-01-20",
        "female": "yes",
        "layer": "1",
        "level": "1",
        "male": "yes",
        "wheelchair": "limited"
      }
    },
    {
      "type": "node",
      "id": 12519618771,
      "lat": 13.0366216,
      "lon": 77.5316226,
      "tags": {
        "shop": "greengrocer"
      }
    },
    {
      "type": "node",
      "id": 12519643346,
      "lat": 13.0330528,
      "lon": 77.533757,
      "tags": {
        "amenity": "charging_station",
        "charging_station:battery_swapping": "yes",
        "fee": "yes",
        "level": "0",
        "motorcar": "no",
        "motorcycle": "yes",
        "name": "Honda e:swap",
        "operator": "Honda e:swap"
      }
    },
    {
      "type": "node",
      "id": 12525796626,
      "lat": 13.0307371,
      "lon": 77.5362286,
      "tags": {
        "shop": "kiosk"
      }
    },
    {
      "type": "node",
      "id": 12743742543,
      "lat": 13.0319574,
      "lon": 77.5337238,
      "tags": {
        "check_date": "2025-04-10",
        "name": "Vijayanand Travels",
        "shop": "travel_agency"
      }
    },
    {
      "type": "way",
      "id": 35901714,
      "center": {
        "lat": 13.0342791,
        "lon": 77.5326462
      },
      "tags": {
        "alt_name": "Institute of Wood Science & Technology",
        "amenity": "college",
        "landuse": "education",
        "name": "Indian Plywood Industries Research and Training Institute",
        "note": "Merged with Institute of Wood Science & Technology in 2022",
        "short_name": "IPIRTI"
      }
    },
    {
      "type": "way",
      "id": 35901716,
      "center": {
        "lat": 13.0347813,
        "lon": 77.5350017
      },
      "tags": {
        "alt_name": "NID Bangalore",
        "amenity": "college",
        "barrier": "wall",
        "landuse": "education",
        "name": "National Institute of Design - NID R&D Campus",
        "wikidata": "Q6973633"
      }
    },
    {
      "type": "way",
      "id": 36676436,
      "center": {
        "lat": 13.0305079,
        "lon": 77.535667
      },
      "tags": {
        "amenity": "hospital",
        "name": "KLE Dental College"
      }
    },
    {
      "type": "way",
      "id": 38968930,
      "center": {
        "lat": 13.0358279,
        "lon": 77.5319608
      },
      "tags": {
        "amenity": "public_building",
        "building": "apartments",
        "building:levels": "15",
        "name": "A",
        "name:kn": "ಎ"
      }
    },
    {
      "type": "way",
      "id": 38968933,
      "center": {
        "lat": 13.0349515,
        "lon": 77.5339116
      },
      "tags": {
        "leisure": "garden",
        "name": "Kids Garden Area"
      }
    },
    {
      "type": "way",
      "id": 38968934,
      "center": {
        "lat": 13.0336431,
        "lon": 77.535953
      },
      "tags": {
        "amenity": "college",
        "barrier": "wall",
        "name": "Central Manufacturing Technology Institute",
        "short_name": "CMTI"
      }
    },
    {
      "type": "way",
      "id": 41966177,
      "center": {
        "lat": 13.0366892,
        "lon": 77.5326947
      },
      "tags": {
        "leisure": "park"
      }
    },
    {
      "type": "way",
      "id": 41966178,
      "center": {
        "lat": 13.0363154,
        "lon": 77.5329366
      },
      "tags": {
        "leisure": "park"
      }
    },
    {
      "type": "way",
      "id": 41966179,
      "center": {
        "lat": 13.0358608,
        "lon": 77.5331304
      },
      "tags": {
        "leisure": "park"
      }
    },
    {
      "type": "way",
      "id": 41966181,
      "center": {
        "lat": 13.0353166,
        "lon": 77.5331626
      },
      "tags": {
        "leisure": "park"
      }
    },
    {
      "type": "way",
      "id": 46922187,
      "center": {
        "lat": 13.0237647,
        "lon": 77.5312839
      },
      "tags": {
        "amenity": "college",
        "name": "Foremen Training Institute - FTI"
      }
    },
    {
      "type": "way",
      "id": 46949207,
      "center": {
        "lat": 13.0296238,
        "lon": 77.5355586
      },
      "tags": {
        "leisure": "park"
      }
    },
    {
      "type": "way",
      "id": 339095607,
      "center": {
        "lat": 13.0384676,
        "lon": 77.527802
      },
      "tags": {
        "addr:district": "Bengaluru Urban",
        "addr:full": "19, 2nd Main Road, 1st Phase Peenya Industrial Area",
        "addr:postcode": "560058",
        "addr:state": "Karnataka",
        "amenity": "hospital",
        "building": "hospital",
        "emergency": "yes",
        "healthcare": "hospital",
        "name": "Ravi Kirloskar Memorial Hospital",
        "name:kn": "ರವಿ ಕಿರ್ಲೊಸ್ಕರ್ ಆಸ್ಪತ್ರೆ",
        "source": "OpenGovernmentData"
      }
    },
    {
      "type": "way",
      "id": 464921469,
      "center": {
        "lat": 13.035922,
        "lon": 77.5340567
      },
      "tags": {
        "leisure": "garden"
      }
    },
    {
      "type": "way",
      "id": 464921494,
      "center": {
        "lat": 13.0343824,
        "lon": 77.5348607
      },
      "tags": {
        "amenity": "parking",
        "building": "roof"
      }
    },
    {
      "type": "way",
      "id": 464921495,
      "center": {
        "lat": 13.0355538,
        "lon": 77.5340538
      },
      "tags": {
        "amenity": "bus_shelter"
      }
    },
    {
      "type": "way",
      "id": 464921496,
      "center": {
        "lat": 13.036492,
        "lon": 77.5317838
      },
      "tags": {
        "access": "private",
        "amenity": "parking",
        "parking": "surface"
      }
    },
    {
      "type": "way",
      "id": 464921497,
      "center": {
        "lat": 13.0358952,
        "lon": 77.532147
      },
      "tags": {
        "access": "private",
        "leisure": "swimming_pool"
      }
    },
    {
      "type": "way",
      "id": 472329592,
      "center": {
        "lat": 13.0353841,
        "lon": 77.5340511
      },
      "tags": {
        "leisure": "sports_centre",
        "name": "Basketball Court",
        "name:kn": "ಬಾಸ್ಕೆಟ್ ಬಾಲ್ ಅಂಕಣ"
      }
    },
    {
      "type": "way",
      "id": 472329593,
      "center": {
        "lat": 13.0353924,
        "lon": 77.53387
      },
      "tags": {
        "leisure": "sports_centre",
        "name": "Tennis Court",
        "name:kn": "ಟೆನ್ನಿಸ್ ಅಂಗಣ"
      }
    },
    {
      "type": "way",
      "id": 674181131,
      "center": {
        "lat": 13.026435,
        "lon": 77.529902
      },
      "tags": {
        "leisure": "park"
      }
    },
    {
      "type": "way",
      "id": 773075087,
      "center": {
        "lat": 13.0369456,
        "lon": 77.5322811
      },
      "tags": {
        "leisure": "park"
      }
    },
    {
      "type": "way",
      "id": 1134831512,
      "center": {
        "lat": 13.0279503,
        "lon": 77.5205608
      },
      "tags": {
        "amenity": "fire_station",
        "name": "Peenya Fire Station",
        "name:kn": "ಪೀಣ್ಯ ಅಗ್ನಿಶಾಮಕ ಠಾಣೆ"
      }
    },
    {
      "type": "way",
      "id": 1280619026,
      "center": {
        "lat": 13.0249864,
        "lon": 77.530936
      },
      "tags": {
        "amenity": "hospital",
        "healthcare": "hospital",
        "name": "ESI Hospital Peenya",
        "operator": "Employees' State Insurance",
        "operator:short": "ESI",
        "operator:wikidata": "Q3595726"
      }
    },
    {
      "type": "way",
      "id": 1280623537,
      "center": {
        "lat": 13.0293045,
        "lon": 77.5232467
      },
      "tags": {
        "leisure": "park"
      }
    },
    {
      "type": "way",
      "id": 1294790775,
      "center": {
        "lat": 13.0328569,
        "lon": 77.5298236
      },
      "tags": {
        "amenity": "college",
        "name": "Government PU College, Peenya",
        "name:kn": "ಸರ್ಕಾರಿ ಪದವಿ ಪೂರ್ವ ಕಾಲೇಜು"
      }
    },
    {
      "type": "way",
      "id": 1294790776,
      "center": {
        "lat": 13.033209,
        "lon": 77.5311007
      },
      "tags": {
        "amenity": "college",
        "name": "GFGC Peenya"
      }
    },
    {
      "type": "way",
      "id": 1294790778,
      "center": {
        "lat": 13.0328441,
        "lon": 77.5304872
      },
      "tags": {
        "amenity": "crematorium",
        "landuse": "cemetery"
      }
    },
    {
      "type": "way",
      "id": 1300826137,
      "center": {
        "lat": 13.0333638,
        "lon": 77.5333701
      },
      "tags": {
        "access": "customers",
        "amenity": "parking",
        "capacity": "50",
        "fee": "yes",
        "maxstay": "1 hour",
        "name": "Peenya Metro Parking",
        "operator": "BMRCL",
        "park_ride": "no",
        "parking": "surface",
        "supervised": "yes",
        "surface": "asphalt"
      }
    },
    {
      "type": "way",
      "id": 1353056812,
      "center": {
        "lat": 13.0392909,
        "lon": 77.5238261
      },
      "tags": {
        "access": "private",
        "amenity": "parking",
        "parking": "surface"
      }
    },
    {
      "type": "way",
      "id": 1353056837,
      "center": {
        "lat": 13.0376971,
        "lon": 77.53116
      },
      "tags": {
        "access": "private",
        "amenity": "parking",
        "parking": "surface"
      }
    },
    {
      "type": "way",
      "id": 1353056838,
      "center": {
        "lat": 13.035973,
        "lon": 77.5322302
      },
      "tags": {
        "leisure": "garden"
      }
    },
    {
      "type": "way",
      "id": 1353056839,
      "center": {
        "lat": 13.0355816,
        "lon": 77.5318372
      },
      "tags": {
        "access": "private",
        "leisure": "swimming_pool",
        "name": "Swimming pool",
        "name:kn": "ಈಜುಕೊಳ"
      }
    },
    {
      "type": "way",
      "id": 1353056841,
      "center": {
        "lat": 13.0371095,
        "lon": 77.5314069
      },
      "tags": {
        "leisure": "garden"
      }
    },
    {
      "type": "way",
      "id": 1353056842,
      "center": {
        "lat": 13.0364645,
        "lon": 77.5313532
      },
      "tags": {
        "access": "private",
        "amenity": "parking",
        "parking": "surface"
      }
    },
    {
      "type": "way",
      "id": 1353056860,
      "center": {
        "lat": 13.0348256,
        "lon": 77.5346313
      },
      "tags": {
        "access": "permissive",
        "amenity": "parking",
        "parking": "surface"
      }
    },
    {
      "type": "way",
      "id": 1353602998,
      "center": {
        "lat": 13.0310253,
        "lon": 77.5358178
      },
      "tags": {
        "amenity": "shelter",
        "bench": "yes",
        "building": "roof",
        "lit": "no",
        "shelter_type": "public_transport",
        "wheelchair": "no"
      }
    },
    {
      "type": "way",
      "id": 1353603008,
      "center": {
        "lat": 13.0306528,
        "lon": 77.5363733
      },
      "tags": {
        "amenity": "shelter",
        "bench": "yes",
        "bin": "yes",
        "building": "yes",
        "lit": "no",
        "name": "Goraguntepalaya KSRTC towards Tumakuru",
        "shelter_type": "public_transport",
        "wheelchair": "no"
      }
    }
  ]
}