{
  "area_name": "Postal and Telecom Colony",
  "osm_id": 7304873406,
  "osm_type": "node",
  "place_type": "neighbourhood",
  "amenity_count": 94,
  "amenities": [
    {
      "type": "node",
      "id": 857105893,
      "lat": 13.0068553,
      "lon": 77.6241647,
      "tags": {
        "addr:city": "Bangalore",
        "addr:country": "IN",
        "addr:postcode": "560084",
        "addr:street": "Hutchins Main Road",
        "name": "Mini Bazaar",
        "name:kn": "ಮಿನಿ ಬಜಾರ್",
        "shop": "supermarket",
        "wheelchair": "no"
      }
    },
    {
      "type": "node",
      "id": 860057145,
      "lat": 13.0052518,
      "lon": 77.6233121,
      "tags": {
        "amenity": "pharmacy",
        "brand": "Apollo Pharmacy",
        "brand:wikidata": "Q62562612",
        "healthcare": "pharmacy",
        "name": "Apollo Pharmacy",
        "name:kn": "ಅಪೊಲೋ ಫಾರ್ಮಸಿ"
      }
    },
    {
      "type": "node",
      "id": 1866331129,
      "lat": 13.0039638,
      "lon": 77.6155248,
      "tags": {
        "name": "Mysore Mini Shopee",
        "shop": "convenience"
      }
    },
    {
      "type": "node",
      "id": 2533936671,
      "lat": 13.0049443,
      "lon": 77.6171173,
      "tags": {
        "amenity": "ice_cream",
        "brand": "Corner House",
        "cuisine": "ice_cream",
        "delivery": "yes",
        "name": "Corner House",
        "name:kn": "ಕಾರ್ನರ್ ಹೌಸ್",
        "takeaway": "yes",
        "toilets:wheelchair": "no",
        "wheelchair": "limited"
      }
    },
    {
      "type": "node",
      "id": 2950498782,
      "lat": 13.0055224,
      "lon": 77.6161553,
      "tags": {
        "amenity": "clinic",
        "healthcare": "clinic",
        "name": "Prima Care",
        "name:kn": "ಪ್ರೈಮ ಕೇರ್",
        "postal_code": "560005",
        "website": "https://primecare.in/",
        "wheelchair": "yes"
      }
    },
    {
      "type": "node",
      "id": 3522981693,
      "lat": 13.0055983,
      "lon": 77.6237105,
      "tags": {
        "name": "Seven Seas",
        "name:kn": "ಸೆವೆನ್ ಸೀಸ್",
        "shop": "seafood"
      }
    },
    {
      "type": "node",
      "id": 3526180139,
      "lat": 13.0035234,
      "lon": 77.6166155,
      "tags": {
        "amenity": "bank",
        "atm": "yes",
        "brand": "ICICI Bank",
        "brand:wikidata": "Q1653258",
        "brand:wikipedia": "en:ICICI Bank",
        "name": "ICICI Bank",
        "name:en": "ICICI Bank",
        "name:kn": "ಐಸಿಐಸಿಐ ಬ್ಯಾಂಕ್",
        "short_name": "ICICI",
        "website": "https://www.icicibank.com",
        "wheelchair": "no"
      }
    },
    {
      "type": "node",
      "id": 3526180140,
      "lat": 13.0036378,
      "lon": 77.6166655,
      "tags": {
        "amenity": "cafe",
        "cuisine": "indian",
        "name": "Indiradarshini",
        "name:en": "Indira Darshini",
        "name:hi": "इंदिरा दर्शिनी",
        "name:kn": "ಇಂದಿರಾ ದರ್ಶಿನಿ",
        "opening_hours": "Mo-Su 07:00-21:00",
        "wheelchair": "no"
      }
    },
    {
      "type": "node",
      "id": 4757433421,
      "lat": 13.0054971,
      "lon": 77.6161129,
      "tags": {
        "amenity": "pharmacy",
        "healthcare": "pharmacy",
        "name": "Primecare Pharmacy",
        "name:en": "Primecare Pharmacy",
        "name:kn": "ಪ್ರೈಮ ಕೇರ್",
        "source": "survey",
        "website": "https://primecare.in/"
      }
    },
    {
      "type": "node",
      "id": 4887964023,
      "lat": 13.0204879,
      "lon": 77.6186105,
      "tags": {
        "amenity": "place_of_worship",
        "name": "Masjid Noor ur Rahman",
        "name:en": "Masjid Noor ur Rahman",
        "religion": "muslim",
        "wheelchair": "yes"
      }
    },
    {
      "type": "node",
      "id": 5283145310,
      "lat": 13.0057693,
      "lon": 77.6236686,
      "tags": {
        "name": "Yaseen Rabani Mutton and Chicken Stall",
        "shop": "butcher"
      }
    },
    {
      "type": "node",
      "id": 5931501711,
      "lat": 13.0039814,
      "lon": 77.6194436,
      "tags": {
        "amenity": "post_box",
        "collection_times": "Mo-Su 13:10",
        "colour": "red",
        "drive_through": "no",
        "name": "Postbox",
        "operator": "India Post",
        "operator:wikidata": "Q3519720"
      }
    },
    {
      "type": "node",
      "id": 6886594852,
      "lat": 13.0112036,
      "lon": 77.6161659,
      "tags": {
        "addr:city": "Bengaluru",
        "addr:district": "BENGALURU URBAN",
        "addr:full": "Mediscope Hospital, No. 11, Pillanna Garden, 3rd stage",
        "addr:postcode": "560045",
        "addr:state": "Karnataka",
        "amenity": "blood_bank",
        "contact:mobile": "9945666554",
        "contact:phone": "8025466554",
        "name": "Mediscope Blood Bank",
        "opening_hours": "24/7",
        "operator:type": "private",
        "source": "OpenGovernmentData"
      }
    },
    {
      "type": "node",
      "id": 6938781514,
      "lat": 13.0090828,
      "lon": 77.6235594,
      "tags": {
        "addr:district": "Bengaluru Urban",
        "addr:full": "Hennur Main Road Opposite Srirama Temple",
        "addr:postcode": "560043",
        "addr:state": "Karnataka",
        "amenity": "hospital",
        "healthcare": "hospital",
        "name": "K C Raju Multi Speciality Hospital",
        "source": "OpenGovernmentData"
      }
    },
    {
      "type": "node",
      "id": 6944587830,
      "lat": 13.0114714,
      "lon": 77.6162986,
      "tags": {
        "addr:district": "Bengaluru Urban",
        "addr:full": "No.9,Pillanna Garden 3Road Stage",
        "addr:postcode": "560045",
        "addr:state": "Karnataka",
        "amenity": "clinic",
        "name": "Mediscon Nursing Home",
        "source": "OpenGovernmentData"
      }
    },
    {
      "type": "node",
      "id": 6945031202,
      "lat": 13.0080166,
      "lon": 77.6221479,
      "tags": {
        "addr:district": "Bengaluru Urban",
        "addr:full": "1 & 2, Hennur Road Cross, Lingarajpuram,Below Railway Flyover",
        "addr:postcode": "560084",
        "addr:state": "Karnataka",
        "amenity": "hospital",
        "name": "Sundar Hospital",
        "source": "OpenGovernmentData"
      }
    },
    {
      "type": "node",
      "id": 6947701109,
      "lat": 13.0087438,
      "lon": 77.6221512,
      "tags": {
        "addr:district": "Bengaluru Urban",
        "addr:full": "Lingarajpuram",
        "addr:postcode": "560084",
        "addr:state": "Karnataka",
        "amenity": "clinic",
        "name": "Vinay Nursing Home, Lingarajpuram",
        "source": "OpenGovernmentData"
      }
    },
    {
      "type": "node",
      "id": 7817577921,
      "lat": 13.0040149,
      "lon": 77.6176333,
      "tags": {
        "amenity": "bank",
        "atm": "yes",
        "brand": "Axis Bank",
        "brand:wikidata": "Q2003549",
        "brand:wikipedia": "en:Axis Bank",
        "name": "Axis Bank",
        "name:kn": "ಆಕ್ಸಿಸ್ ಬ್ಯಾಂಕ್",
        "source": "survey",
        "wheelchair": "no"
      }
    },
    {
      "type": "node",
      "id": 7817577922,
      "lat": 13.0038285,
      "lon": 77.6154682,
      "tags": {
        "amenity": "pharmacy",
        "brand": "Apollo Pharmacy",
        "brand:wikidata": "Q62562612",
        "dispensing": "yes",
        "healthcare": "pharmacy",
        "name": "Apollo Pharmacy",
        "name:kn": "ಅಪೊಲೋ ಫಾರ್ಮಸಿ"
      }
    },
    {
      "type": "node",
      "id": 7828966697,
      "lat": 13.0050061,
      "lon": 77.6174117,
      "tags": {
        "drink:juice": "yes",
        "name": "Sugarcane Juice",
        "shop": "kiosk"
      }
    },
    {
      "type": "node",
      "id": 7828966698,
      "lat": 13.00506,
      "lon": 77.6174253,
      "tags": {
        "name": "Flower Shop",
        "shop": "florist"
      }
    },
    {
      "type": "node",
      "id": 7861978808,
      "lat": 13.0049336,
      "lon": 77.617151,
      "tags": {
        "name": "Lizz Salon and Spa",
        "shop": "hairdresser",
        "unisex": "yes"
      }
    },
    {
      "type": "node",
      "id": 7881321471,
      "lat": 13.0056111,
      "lon": 77.6161889,
      "tags": {
        "amenity": "kindergarten",
        "name": "International Montessori House of Children"
      }
    },
    {
      "type": "node",
      "id": 7881335487,
      "lat": 13.0053201,
      "lon": 77.6162395,
      "tags": {
        "drink:juice": "yes",
        "name": "Sugarcane Juice",
        "shop": "kiosk"
      }
    },
    {
      "type": "node",
      "id": 7941607043,
      "lat": 13.0039944,
      "lon": 77.6155412,
      "tags": {
        "amenity": "pharmacy",
        "brand": "MedPlus",
        "brand:wikidata": "Q65684234",
        "brand:wikipedia": "en:MedPlus",
        "dispensing": "yes",
        "healthcare": "pharmacy",
        "name": "MedPlus"
      }
    },
    {
      "type": "node",
      "id": 7941607044,
      "lat": 13.003937,
      "lon": 77.6155107,
      "tags": {
        "amenity": "atm",
        "brand": "State Bank of India",
        "brand:wikidata": "Q1340361",
        "name": "State Bank of India",
        "operator": "State Bank of India",
        "operator:wikidata": "Q1340361",
        "short_name": "SBI"
      }
    },
    {
      "type": "node",
      "id": 9786123496,
      "lat": 13.003654,
      "lon": 77.6166234,
      "tags": {
        "amenity": "bank",
        "atm": "yes",
        "brand": "CSB Bank",
        "brand:wikidata": "Q5053244",
        "name": "CSB Bank",
        "official_name": "Catholic Syrian Bank",
        "operator": "Catholic Syrian Bank"
      }
    },
    {
      "type": "node",
      "id": 9851108117,
      "lat": 13.0038532,
      "lon": 77.6200183,
      "tags": {
        "amenity": "bench",
        "backrest": "yes",
        "material": "stone",
        "seats": "3",
        "survey:date": "2022-06-27"
      }
    },
    {
      "type": "node",
      "id": 10237447823,
      "lat": 13.0093899,
      "lon": 77.61687,
      "tags": {
        "amenity": "place_of_worship",
        "religion": "hindu"
      }
    },
    {
      "type": "node",
      "id": 10242924685,
      "lat": 13.0092852,
      "lon": 77.6187774,
      "tags": {
        "amenity": "recycling",
        "recycling_type": "centre"
      }
    },
    {
      "type": "node",
      "id": 11001999282,
      "lat": 13.0053041,
      "lon": 77.6232049,
      "tags": {
        "addr:city": "Bangalore",
        "addr:housenumber": "15",
        "addr:postcode": "560084",
        "addr:street": "Hutchins 2nd Cross",
        "amenity": "clinic",
        "healthcare": "clinic",
        "name": "Saalik's Healthcare Centre"
      }
    },
    {
      "type": "node",
      "id": 11046880966,
      "lat": 13.0048779,
      "lon": 77.6171409,
      "tags": {
        "amenity": "cafe",
        "delivery": "yes",
        "name": "Chez Kina",
        "shop": "bakery",
        "takeaway": "yes"
      }
    },
    {
      "type": "node",
      "id": 11148355821,
      "lat": 13.0056358,
      "lon": 77.6236258,
      "tags": {
        "addr:city": "Bangalore",
        "addr:country": "IN",
        "addr:housenumber": "43",
        "addr:postcode": "560084",
        "addr:street": "Hutchins 3rd Cross",
        "name": "Daily Fresh Fruits & Vegetables",
        "shop": "greengrocer"
      }
    },
    {
      "type": "node",
      "id": 11148355822,
      "lat": 13.0056129,
      "lon": 77.6236747,
      "tags": {
        "addr:city": "Bangalore",
        "addr:country": "IN",
        "addr:housenumber": "42",
        "addr:postcode": "560084",
        "addr:street": "Hutchins 3rd Cross",
        "amenity": "fast_food",
        "name": "Sri Manjunatha Tiffin Centre"
      }
    },
    {
      "type": "node",
      "id": 11148749779,
      "lat": 13.0110602,
      "lon": 77.6133335,
      "tags": {
        "amenity": "fast_food",
        "cuisine": "regional",
        "name": "Indira Canteen",
        "operator": "BBMP"
      }
    },
    {
      "type": "node",
      "id": 11156162841,
      "lat": 13.0053751,
      "lon": 77.6234665,
      "tags": {
        "amenity": "recycling",
        "recycling:paper": "yes",
        "recycling_type": "container"
      }
    },
    {
      "type": "node",
      "id": 11156162843,
      "lat": 13.0054525,
      "lon": 77.6235027,
      "tags": {
        "amenity": "dentist",
        "name": "Zenith Dental Care"
      }
    },
    {
      "type": "node",
      "id": 11156162875,
      "lat": 13.005856,
      "lon": 77.6230913,
      "tags": {
        "amenity": "post_box",
        "collection_times": "Mo-Su 16:00",
        "colour": "red",
        "image": "https://thejeshgn.com/wp-content/uploads/2025/11/wp-1763095687595.jpg",
        "operator": "India Post",
        "operator:wikidata": "Q3519720"
      }
    },
    {
      "type": "node",
      "id": 11158854854,
      "lat": 13.0057037,
      "lon": 77.6236392,
      "tags": {
        "name": "M Babu Store",
        "shop": "convenience"
      }
    },
    {
      "type": "node",
      "id": 11158854878,
      "lat": 13.0065933,
      "lon": 77.6239168,
      "tags": {
        "female": "yes",
        "name": "L'Orange Beauty Salon",
        "shop": "hairdresser"
      }
    },
    {
      "type": "node",
      "id": 11158854896,
      "lat": 13.0059961,
      "lon": 77.6236358,
      "tags": {
        "name": "Asha Cybernet",
        "opening_hours": "Mo-Th 10:00-14:30,15:30-21:30; Fr 10:30-13:00,16:00-21:30",
        "shop": "copyshop"
      }
    },
    {
      "type": "node",
      "id": 11158854897,
      "lat": 13.0059794,
      "lon": 77.6236264,
      "tags": {
        "amenity": "money_transfer",
        "name": "Asha Cybernet",
        "opening_hours": "Mo-Th 10:00-14:30,15:30-21:30; Fr 10:30-13:00,16:00-21:30"
      }
    },
    {
      "type": "node",
      "id": 11165098474,
      "lat": 13.0060366,
      "lon": 77.6235969,
      "tags": {
        "name": "Best Mutton Shop",
        "shop": "butcher"
      }
    },
    {
      "type": "node",
      "id": 11165132273,
      "lat": 13.0067974,
      "lon": 77.6244593,
      "tags": {
        "amenity": "dentist",
        "name": "Tooth Oral Care Centre",
        "opening_hours": "Mo-Sa 10:00-18:00",
        "phone": "+91 9894481 67924"
      }
    },
    {
      "type": "node",
      "id": 11211898843,
      "lat": 13.0065349,
      "lon": 77.6237528,
      "tags": {
        "amenity": "doctors",
        "name": "Dr David Chico"
      }
    },
    {
      "type": "node",
      "id": 11217454983,
      "lat": 13.0077438,
      "lon": 77.6222917,
      "tags": {
        "shop": "tobacco"
      }
    },
    {
      "type": "node",
      "id": 11217454984,
      "lat": 13.0077353,
      "lon": 77.6223105,
      "tags": {
        "shop": "hardware"
      }
    },
    {
      "type": "node",
      "id": 11917222396,
      "lat": 13.0087274,
      "lon": 77.625714,
      "tags": {
        "check_date": "2024-05-19",
        "name": "AS Ladies Tailors",
        "shop": "tailor"
      }
    },
    {
      "type": "node",
      "id": 11917222397,
      "lat": 13.0082013,
      "lon": 77.625755,
      "tags": {
        "amenity": "kindergarten",
        "check_date": "2024-05-19",
        "name": "Little Ville"
      }
    },
    {
      "type": "node",
      "id": 11917222398,
      "lat": 13.0084817,
      "lon": 77.6232758,
      "tags": {
        "brand": "Honda",
        "brand:wikidata": "Q9584",
        "check_date": "2024-05-19",
        "name": "Honda",
        "shop": "motorcycle"
      }
    },
    {
      "type": "node",
      "id": 11917222399,
      "lat": 13.0100294,
      "lon": 77.6237528,
      "tags": {
        "check_date": "2024-05-19",
        "name": "Sangeetha Tailors",
        "shop": "tailor"
      }
    },
    {
      "type": "node",
      "id": 12265502992,
      "lat": 13.0149829,
      "lon": 77.6173932,
      "tags": {
        "amenity": "internet_cafe",
        "name": "Tawakal Tea Corner"
      }
    },
    {
      "type": "node",
      "id": 12265566064,
      "lat": 13.018365,
      "lon": 77.6187666,
      "tags": {
        "amenity": "fuel",
        "brand": "Hindustan Petroleum"
      }
    },
    {
      "type": "node",
      "id": 12265583302,
      "lat": 13.0180558,
      "lon": 77.6185833,
      "tags": {
        "name": "Taj Chicken Center",
        "shop": "butcher"
      }
    },
    {
      "type": "node",
      "id": 12265589911,
      "lat": 13.0177211,
      "lon": 77.6184624,
      "tags": {
        "name": "A.K. Poultry Traders",
        "shop": "butcher"
      }
    },
    {
      "type": "node",
      "id": 12265591466,
      "lat": 13.0130099,
      "lon": 77.6166361,
      "tags": {
        "name": "Metro Cycle World",
        "shop": "bicycle"
      }
    },
    {
      "type": "node",
      "id": 12265592078,
      "lat": 13.016952,
      "lon": 77.618253,
      "tags": {
        "name": "J.B. Broilers",
        "shop": "butcher"
      }
    },
    {
      "type": "node",
      "id": 13088666601,
      "lat": 13.0072959,
      "lon": 77.6241589,
      "tags": {
        "addr:street": "Hutchins Main Road",
        "amenity": "school",
        "name": "The Earth School"
      }
    },
    {
      "type": "way",
      "id": 33725070,
      "center": {
        "lat": 13.0040986,
        "lon": 77.6169728
      },
      "tags": {
        "barrier": "fence",
        "leisure": "park",
        "name": "Richards Park",
        "name:kn": "ರಿಚರ್ಡ್ಸ್ ಉದ್ಯಾನವನ"
      }
    },
    {
      "type": "way",
      "id": 39158802,
      "center": {
        "lat": 13.006205,
        "lon": 77.619955
      },
      "tags": {
        "barrier": "wall",
        "landuse": "recreation_ground",
        "leisure": "pitch",
        "name": "St. Charles",
        "sport": "soccer;basketball;cricket"
      }
    },
    {
      "type": "way",
      "id": 169724902,
      "center": {
        "lat": 13.0061963,
        "lon": 77.6178491
      },
      "tags": {
        "amenity": "place_of_worship",
        "building": "church",
        "heritage": "2",
        "heritage:operator": "nmma",
        "heritage:website": "https://nmma.nic.in/nmma/exploreBuiltState.do?state=29",
        "name": "Holy Ghost Church",
        "name:kn": "ಹೋಲಿ ಘೋಸ್ಟ್ ಚರ್ಚ್",
        "ref:nmma": "KR20010671",
        "religion": "christian",
        "website": "https://www.cssr.in/index.php?q=content/holy-ghost-church-bangalore"
      }
    },
    {
      "type": "way",
      "id": 173039120,
      "center": {
        "lat": 13.0063203,
        "lon": 77.6148812
      },
      "tags": {
        "amenity": "school"
      }
    },
    {
      "type": "way",
      "id": 173039121,
      "center": {
        "lat": 13.0108569,
        "lon": 77.6214886
      },
      "tags": {
        "amenity": "college",
        "name": "Siddhartha PU College"
      }
    },
    {
      "type": "way",
      "id": 343882789,
      "center": {
        "lat": 13.0055013,
        "lon": 77.6219892
      },
      "tags": {
        "amenity": "monastery",
        "name": "Villa Borromeo"
      }
    },
    {
      "type": "way",
      "id": 343882801,
      "center": {
        "lat": 13.0059493,
        "lon": 77.6231289
      },
      "tags": {
        "amenity": "post_office",
        "building": "yes",
        "name": "St Thomastown Post Office",
        "name:kn": "ಸಂತ ಥಾಮಸ್ ಟೌನ್ ಅಂಚೆ ಕಚೇರಿ",
        "postal_code": "560084",
        "roof:colour": "#c66e4e",
        "toilets:wheelchair": "no",
        "wheelchair": "limited"
      }
    },
    {
      "type": "way",
      "id": 346015495,
      "center": {
        "lat": 13.0041,
        "lon": 77.6169496
      },
      "tags": {
        "building": "yes",
        "leisure": "bandstand",
        "source": "survey"
      }
    },
    {
      "type": "way",
      "id": 346019709,
      "center": {
        "lat": 13.0046459,
        "lon": 77.6195021
      },
      "tags": {
        "amenity": "social_facility",
        "building": "yes",
        "name": "Missionaries of Charity - Nirmala Shishubhavan",
        "opening_hours": "08:00-12:00,15:00-18:00; Th off",
        "roof:colour": "gray"
      }
    },
    {
      "type": "way",
      "id": 346019730,
      "center": {
        "lat": 13.0060537,
        "lon": 77.6160903
      },
      "tags": {
        "addr:housenumber": "8",
        "addr:street": "John Armstrong Road",
        "amenity": "place_of_worship",
        "building": "chapel",
        "building:levels": "2",
        "denomination": "catholic",
        "name": "Chapel of St.Gerard Majella",
        "religion": "christian",
        "roof:colour": "#c66e4e",
        "service_times": "Mo-Fr 18:00"
      }
    },
    {
      "type": "way",
      "id": 347174977,
      "center": {
        "lat": 13.0040407,
        "lon": 77.620684
      },
      "tags": {
        "addr:city": "Bangalore",
        "addr:housenumber": "25",
        "addr:postcode": "560005",
        "addr:street": "Davis Road",
        "amenity": "monastery",
        "building": "residential",
        "building:colour": "yellow",
        "building:levels": "1",
        "building:material": "plaster",
        "check_date": "2024-11-29",
        "denomination": "catholic",
        "name": "Vinayodaya",
        "name:kn": "ವಿನಯೋದಯ",
        "religion": "christian",
        "roof:colour": "gray",
        "roof:shape": "double_saltbox"
      }
    },
    {
      "type": "way",
      "id": 347175053,
      "center": {
        "lat": 13.003875,
        "lon": 77.6209439
      },
      "tags": {
        "addr:housenumber": "26",
        "addr:street": "Davis Road",
        "amenity": "monastery",
        "building": "residential",
        "building:colour": "slategrey",
        "building:levels": "3",
        "building:material": "stone",
        "check_date": "2024-10-17",
        "denomination": "catholic",
        "name": "Ursuline Convent",
        "name:kn": "ಉರ್‌ಸುಲೈ‌ನ್ ಕಾನ್ವೆಂಟ್",
        "religion": "christian",
        "roof:colour": "#c66e4e",
        "roof:shape": "flat"
      }
    },
    {
      "type": "way",
      "id": 363457167,
      "center": {
        "lat": 13.0068955,
        "lon": 77.6165907
      },
      "tags": {
        "leisure": "pitch"
      }
    },
    {
      "type": "way",
      "id": 363458473,
      "center": {
        "lat": 13.0049679,
        "lon": 77.6197408
      },
      "tags": {
        "amenity": "fuel",
        "brand": "Indian Oil",
        "brand:wikidata": "Q1289348",
        "compressed_air": "yes",
        "name": "Indian Oil"
      }
    },
    {
      "type": "way",
      "id": 365234334,
      "center": {
        "lat": 13.0042468,
        "lon": 77.6159177
      },
      "tags": {
        "addr:housenumber": "7",
        "addr:street": "Hall Road",
        "amenity": "community_centre",
        "building": "yes",
        "building:levels": "1",
        "name": "Bungalow 7",
        "name:kn": "ಬಂಗ್ಲಾ ೭",
        "roof:colour": "white"
      }
    },
    {
      "type": "way",
      "id": 673959400,
      "center": {
        "lat": 13.0099785,
        "lon": 77.610202
      },
      "tags": {
        "amenity": "cinema",
        "name": "Anand Theater",
        "name:kn": "ಆನಂದ"
      }
    },
    {
      "type": "way",
      "id": 673959402,
      "center": {
        "lat": 13.0096266,
        "lon": 77.6115425
      },
      "tags": {
        "leisure": "pitch",
        "name": "Periyar Nagar Football Club",
        "sport": "soccer"
      }
    },
    {
      "type": "way",
      "id": 775448741,
      "center": {
        "lat": 13.00614,
        "lon": 77.6216655
      },
      "tags": {
        "amenity": "school",
        "barrier": "wall",
        "landuse": "education",
        "name": "St. Charles Girls High School",
        "name:en": "St. Charles Girls High School"
      }
    },
    {
      "type": "way",
      "id": 796374106,
      "center": {
        "lat": 13.0063435,
        "lon": 77.611474
      },
      "tags": {
        "amenity": "place_of_worship",
        "name": "Eidgah-e-Jadeed",
        "religion": "muslim"
      }
    },
    {
      "type": "way",
      "id": 837561053,
      "center": {
        "lat": 13.0040301,
        "lon": 77.6167034
      },
      "tags": {
        "access": "yes",
        "leisure": "playground",
        "source": "survey"
      }
    },
    {
      "type": "way",
      "id": 1119315456,
      "center": {
        "lat": 13.0079264,
        "lon": 77.6140449
      },
      "tags": {
        "amenity": "school"
      }
    },
    {
      "type": "way",
      "id": 1119315457,
      "center": {
        "lat": 13.0094866,
        "lon": 77.6168928
      },
      "tags": {
        "leisure": "park"
      }
    },
    {
      "type": "way",
      "id": 1119315459,
      "center": {
        "lat": 13.0103376,
        "lon": 77.6187878
      },
      "tags": {
        "leisure": "park"
      }
    },
    {
      "type": "way",
      "id": 1119315460,
      "center": {
        "lat": 13.012258,
        "lon": 77.619056
      },
      "tags": {
        "leisure": "park"
      }
    },
    {
      "type": "way",
      "id": 1202598203,
      "center": {
        "lat": 13.0210609,
        "lon": 77.618726
      },
      "tags": {
        "amenity": "clinic",
        "name": "UPHC",
        "name:kn": "ಗ್ರಾಮಾಂತರ ಪ್ರಾಥಮಿಕ ಆರೋಗ್ಯ ಕೇಂದ್ರ",
        "operator": "BBMP"
      }
    },
    {
      "type": "way",
      "id": 1202598210,
      "center": {
        "lat": 13.0103299,
        "lon": 77.6114975
      },
      "tags": {
        "amenity": "clinic",
        "name": "UPHC, Devarajeevanahalli",
        "name:kn": "ಗ್ರಾಮಾಂತರ ಪ್ರಾಥಮಿಕ ಆರೋಗ್ಯ ಕೇಂದ್ರ",
        "operator": "BBMP"
      }
    },
    {
      "type": "way",
      "id": 1202598212,
      "center": {
        "lat": 13.0114152,
        "lon": 77.6130934
      },
      "tags": {
        "amenity": "police",
        "name": "DJ Halli Police Station",
        "name:kn": "ಆರಕ್ಷಕ ಠಾಣೆ"
      }
    },
    {
      "type": "way",
      "id": 1203511152,
      "center": {
        "lat": 13.0055055,
        "lon": 77.6235731
      },
      "tags": {
        "building": "retail",
        "building:levels": "1",
        "name": "Om Shanti General Store",
        "roof:colour": "gray",
        "shop": "convenience"
      }
    },
    {
      "type": "way",
      "id": 1210714637,
      "center": {
        "lat": 13.0076393,
        "lon": 77.6234246
      },
      "tags": {
        "addr:postcode": "560084",
        "addr:street": "Hutchins Road, 6th Cross",
        "amenity": "community_centre",
        "community_centre:for": "disabled",
        "name": "The Association of People with Disability",
        "phone": "+91 80 2547 5165",
        "website": "https://www.apd-india.org/",
        "wheelchair": "yes"
      }
    },
    {
      "type": "way",
      "id": 1210714641,
      "center": {
        "lat": 13.0076148,
        "lon": 77.6221388
      },
      "tags": {
        "amenity": "place_of_worship",
        "building": "temple",
        "religion": "hindu",
        "roof:colour": "gray"
      }
    },
    {
      "type": "way",
      "id": 1237551406,
      "center": {
        "lat": 13.0131322,
        "lon": 77.6267009
      },
      "tags": {
        "amenity": "social_facility",
        "name": "United Christian Fellowship",
        "social_facility": "assisted_living",
        "social_facility:for": "senior",
        "website": "https://www.ucfhome.org/",
        "wheelchair": "limited"
      }
    },
    {
      "type": "way",
      "id": 1354185330,
      "center": {
        "lat": 13.0060353,
        "lon": 77.6170324
      },
      "tags": {
        "amenity": "parking"
      }
    },
    {
      "type": "way",
      "id": 1375063573,
      "center": {
        "lat": 13.0055554,
        "lon": 77.6236231
      },
      "tags": {
        "access": "yes",
        "amenity": "motorcycle_parking",
        "capacity": "8",
        "fee": "no",
        "orientation": "perpendicular",
        "parking": "street_side",
        "smoothness": "intermediate",
        "supervised": "no",
        "surface": "paved"
      }
    },
    {
      "type": "way",
      "id": 1411165790,
      "center": {
        "lat": 13.0108089,
        "lon": 77.6257491
      },
      "tags": {
        "amenity": "school",
        "landuse": "education",
        "name": "Divya Shanthi School",
        "website": "https://divyashanthischool.org/"
      }
    },
    {
      "type": "way",
      "id": 1416675134,
      "center": {
        "lat": 13.0198144,
        "lon": 77.619254
      },
      "tags": {
        "amenity": "police",
        "name": "Kadugondanahalli Traffic Police Station"
      }
    },
    {
      "type": "way",
      "id": 1416675135,
      "center": {
        "lat": 13.0194119,
        "lon": 77.6192385
      },
      "tags": {
        "amenity": "police",
        "name": "Kadugondanahalli Police Station"
      }
    }
  ]
}