{
  "area_name": "Prakruthi Township",
  "osm_id": 652356552,
  "osm_type": "node",
  "place_type": "neighbourhood",
  "amenity_count": 62,
  "amenities": [
    {
      "type": "node",
      "id": 443615520,
      "lat": 13.032254,
      "lon": 77.6438151,
      "tags": {
        "amenity": "place_of_worship",
        "name": "Rays of Peace",
        "religion": "christian"
      }
    },
    {
      "type": "node",
      "id": 443615521,
      "lat": 13.0317498,
      "lon": 77.6437784,
      "tags": {
        "amenity": "school",
        "name": "Sinclairs High School",
        "name:kn": "ಸಿಂಕ್ಲೇರ್ಸ್ ಪ್ರೌಡಶಾಲೆ"
      }
    },
    {
      "type": "node",
      "id": 443616778,
      "lat": 13.0248848,
      "lon": 77.6458889,
      "tags": {
        "amenity": "place_of_worship",
        "name": "Peniel Presbyterian Church",
        "religion": "christian",
        "wheelchair": "limited"
      }
    },
    {
      "type": "node",
      "id": 595305444,
      "lat": 13.0255258,
      "lon": 77.6524721,
      "tags": {
        "amenity": "place_of_worship",
        "name": "Gethseman Sungji Church",
        "religion": "christian"
      }
    },
    {
      "type": "node",
      "id": 595305844,
      "lat": 13.0257078,
      "lon": 77.6517029,
      "tags": {
        "amenity": "pharmacy",
        "name": "Dava Sagar"
      }
    },
    {
      "type": "node",
      "id": 595305848,
      "lat": 13.0230704,
      "lon": 77.6508206,
      "tags": {
        "addr:street": "Horamavu Agara Main Road",
        "amenity": "pharmacy",
        "brand": "Apollo Pharmacy",
        "brand:wikidata": "Q62562612",
        "healthcare": "pharmacy",
        "name": "Apollo Pharmacy",
        "name:kn": "ಅಪೊಲೋ ಫಾರ್ಮಸಿ"
      }
    },
    {
      "type": "node",
      "id": 595305917,
      "lat": 13.0224257,
      "lon": 77.6508337,
      "tags": {
        "addr:street": "Horamavu Agara Main Road",
        "brand": "More",
        "brand:wikidata": "Q6910891",
        "name": "More",
        "shop": "supermarket"
      }
    },
    {
      "type": "node",
      "id": 833729924,
      "lat": 13.0223265,
      "lon": 77.6505234,
      "tags": {
        "amenity": "conference_centre",
        "name": "VVCH Conference Hall"
      }
    },
    {
      "type": "node",
      "id": 859664570,
      "lat": 13.0374987,
      "lon": 77.6524104,
      "tags": {
        "amenity": "place_of_worship",
        "name": "Temple",
        "name:kn": "ದೇವಸ್ಥಾನ",
        "religion": "hindu"
      }
    },
    {
      "type": "node",
      "id": 1279116236,
      "lat": 13.022202,
      "lon": 77.6507704,
      "tags": {
        "addr:street": "Horamavu Agara Main Road",
        "name": "City Pearl",
        "shop": "supermarket"
      }
    },
    {
      "type": "node",
      "id": 1280318946,
      "lat": 13.0228757,
      "lon": 77.6509402,
      "tags": {
        "addr:street": "Horamavu Agara Main Road",
        "name": "7 Days",
        "shop": "supermarket"
      }
    },
    {
      "type": "node",
      "id": 1670718780,
      "lat": 13.0220854,
      "lon": 77.6505416,
      "tags": {
        "amenity": "atm",
        "operator": "Axis Bank ATM"
      }
    },
    {
      "type": "node",
      "id": 1722802205,
      "lat": 13.0307899,
      "lon": 77.653594,
      "tags": {
        "amenity": "hospital",
        "emergency": "no",
        "name": "Karunya Homoeopathy Centre"
      }
    },
    {
      "type": "node",
      "id": 4489699996,
      "lat": 13.0245541,
      "lon": 77.6559134,
      "tags": {
        "addr:city": "Bangalore",
        "addr:housenumber": "173",
        "addr:postcode": "560076",
        "addr:street": "Hormavu Main Road",
        "name": "Seven Days Supermarket",
        "phone": "(91)-9743257556",
        "shop": "supermarket"
      }
    },
    {
      "type": "node",
      "id": 4844863333,
      "lat": 13.0257145,
      "lon": 77.6518053,
      "tags": {
        "name": "Meatz trading solutions",
        "name:en": "Meatz trading solutions",
        "shop": "butcher"
      }
    },
    {
      "type": "node",
      "id": 4844863334,
      "lat": 13.0259167,
      "lon": 77.652283,
      "tags": {
        "name": "Supreme travel solutions",
        "name:en": "Supreme travel solutions",
        "shop": "travel_agency"
      }
    },
    {
      "type": "node",
      "id": 4844863335,
      "lat": 13.0311093,
      "lon": 77.6534247,
      "tags": {
        "name": "Fashion footwear",
        "name:en": "Fashion footwear",
        "shop": "shoes"
      }
    },
    {
      "type": "node",
      "id": 4844863336,
      "lat": 13.0341188,
      "lon": 77.6543637,
      "tags": {
        "name": "SPN",
        "name:en": "SPN",
        "shop": "car"
      }
    },
    {
      "type": "node",
      "id": 4844863338,
      "lat": 13.037038,
      "lon": 77.655382,
      "tags": {
        "name": "Mahadev",
        "name:en": "Mahadev",
        "shop": "jewelry"
      }
    },
    {
      "type": "node",
      "id": 4844863339,
      "lat": 13.0373816,
      "lon": 77.6558824,
      "tags": {
        "name": "Padmaja",
        "name:en": "Padmaja",
        "shop": "beauty"
      }
    },
    {
      "type": "node",
      "id": 4844863340,
      "lat": 13.0319862,
      "lon": 77.660617,
      "tags": {
        "name": "Shop ink",
        "name:en": "Shop ink",
        "shop": "supermarket"
      }
    },
    {
      "type": "node",
      "id": 4844865029,
      "lat": 13.0232219,
      "lon": 77.6508758,
      "tags": {
        "name": "Lenspick",
        "name:en": "Lenspick",
        "shop": "optician"
      }
    },
    {
      "type": "node",
      "id": 4844865030,
      "lat": 13.0246294,
      "lon": 77.6512209,
      "tags": {
        "name": "Karnataka home appliances",
        "name:en": "Karnataka home appliances",
        "shop": "electronics"
      }
    },
    {
      "type": "node",
      "id": 4844865031,
      "lat": 13.0324608,
      "lon": 77.6538206,
      "tags": {
        "name": "Bhavani automobiles",
        "name:en": "Bhavani automobiles",
        "shop": "car"
      }
    },
    {
      "type": "node",
      "id": 4844867421,
      "lat": 13.0286188,
      "lon": 77.6526542,
      "tags": {
        "amenity": "pharmacy",
        "name": "Maruthi Medical's",
        "name:en": "Maruthi Medical's"
      }
    },
    {
      "type": "node",
      "id": 4844867422,
      "lat": 13.0354235,
      "lon": 77.6546479,
      "tags": {
        "amenity": "pharmacy"
      }
    },
    {
      "type": "node",
      "id": 4844867423,
      "lat": 13.0368048,
      "lon": 77.6548747,
      "tags": {
        "name": "Sanndhi",
        "name:en": "Sanndhi",
        "shop": "confectionery"
      }
    },
    {
      "type": "node",
      "id": 4844867521,
      "lat": 13.0301725,
      "lon": 77.6530855,
      "tags": {
        "amenity": "fast_food",
        "name": "Ifun",
        "name:en": "Ifun"
      }
    },
    {
      "type": "node",
      "id": 7572131835,
      "lat": 13.0283977,
      "lon": 77.6599575,
      "tags": {
        "addr:district": "Bengaluru Urban",
        "addr:full": "Banaswadi, Bengaluru",
        "addr:postcode": "560043",
        "addr:state": "Karnataka",
        "amenity": "hospital",
        "name": "Geriatric Hospitals",
        "source": "Local Knowledge"
      }
    },
    {
      "type": "node",
      "id": 11107573795,
      "lat": 13.0255127,
      "lon": 77.6515929,
      "tags": {
        "amenity": "taxi",
        "name": "Auto Stand",
        "name:kn": "ಆಟೋ ನಿಲ್ದಾಣ"
      }
    },
    {
      "type": "node",
      "id": 11345404436,
      "lat": 13.0303405,
      "lon": 77.6491473,
      "tags": {
        "amenity": "atm",
        "brand": "Axis Bank",
        "brand:wikidata": "Q2003549",
        "name": "Axis Bank",
        "name:kn": "ಆಕ್ಸಿಸ್ ಬ್ಯಾಂಕ್",
        "operator": "Axis Bank",
        "operator:wikidata": "Q2003549",
        "wheelchair": "limited"
      }
    },
    {
      "type": "node",
      "id": 11348726232,
      "lat": 13.0319607,
      "lon": 77.6435697,
      "tags": {
        "amenity": "atm",
        "name": "HDFC bank ATM"
      }
    },
    {
      "type": "node",
      "id": 11817881015,
      "lat": 13.0344614,
      "lon": 77.6498444,
      "tags": {
        "amenity": "kindergarten",
        "contact:email": "littlelilies82@gmail.com",
        "name": "Little lilies",
        "phone": "+919036060432"
      }
    },
    {
      "type": "node",
      "id": 11933111681,
      "lat": 13.023413,
      "lon": 77.6471477,
      "tags": {
        "name": "Pazhampori cafe",
        "phone": "+919845978209",
        "shop": "tea",
        "website": "http://pazhamporicafe.com"
      }
    },
    {
      "type": "node",
      "id": 11949965342,
      "lat": 13.0244107,
      "lon": 77.6495625,
      "tags": {
        "check_date": "2024-06-01",
        "description": "Tea shop along with shakes, sandwiches and some snacks.",
        "name": "Eggetarian",
        "name:en": "Eggetarian",
        "opening_hours": "Mo-Su,PH 08:00-22:00",
        "shop": "tea"
      }
    },
    {
      "type": "node",
      "id": 12459196455,
      "lat": 13.0282394,
      "lon": 77.6558532,
      "tags": {
        "amenity": "place_of_worship",
        "religion": "hindu"
      }
    },
    {
      "type": "way",
      "id": 51130921,
      "center": {
        "lat": 13.0273088,
        "lon": 77.6527331
      },
      "tags": {
        "amenity": "school"
      }
    },
    {
      "type": "way",
      "id": 51132139,
      "center": {
        "lat": 13.0329949,
        "lon": 77.65147
      },
      "tags": {
        "amenity": "school",
        "name": "St Vincent Palloti School"
      }
    },
    {
      "type": "way",
      "id": 207854064,
      "center": {
        "lat": 13.0288063,
        "lon": 77.6530754
      },
      "tags": {
        "addr:housename": "MARUTHI SCHOOL",
        "amenity": "school",
        "name": "Maruthi School",
        "name:kn": "ಮಾರುತಿ ಶಾಲೆ"
      }
    },
    {
      "type": "way",
      "id": 346729228,
      "center": {
        "lat": 13.0378807,
        "lon": 77.6502896
      },
      "tags": {
        "addr:city": "Bengaluru",
        "addr:district": "Bengaluru",
        "addr:postcode": "560043",
        "addr:street": "Horamavu Agara Road",
        "amenity": "veterinary",
        "building": "yes",
        "building:levels": "2",
        "loc_name": "ಹೋಪ್ ಪಶುವೈದ್ಯಕೀಯ ಚಿಕಿತ್ಸಾಲಯ",
        "mobile": "+91 8884884054",
        "name": "Hope Veterinary Clinic",
        "name:kn": "ಹೋಪ್ ಪಶುವೈದ್ಯಕೀಯ ಚಿಕಿತ್ಸಾಲಯ",
        "operator": "Dr. Akshay Prakash 8884884054"
      }
    },
    {
      "type": "way",
      "id": 525518302,
      "center": {
        "lat": 13.0263279,
        "lon": 77.6559927
      },
      "tags": {
        "amenity": "school",
        "name": "Devamata Central School",
        "name:kn": "ದೇವಮಾತ ಕೇಂದ್ರ ಶಾಲೆ"
      }
    },
    {
      "type": "way",
      "id": 675387096,
      "center": {
        "lat": 13.0287492,
        "lon": 77.6553999
      },
      "tags": {
        "access": "private",
        "leisure": "swimming_pool"
      }
    },
    {
      "type": "way",
      "id": 687173302,
      "center": {
        "lat": 13.0297588,
        "lon": 77.6509558
      },
      "tags": {
        "amenity": "place_of_worship",
        "building": "church",
        "name": "St Joseph's Church",
        "name:kn": "ಸೆಂಟ್ ಜೋಸೆಫ್ ಚರ್ಚ್",
        "religion": "christian"
      }
    },
    {
      "type": "way",
      "id": 687173305,
      "center": {
        "lat": 13.0300544,
        "lon": 77.650963
      },
      "tags": {
        "amenity": "place_of_worship",
        "religion": "christian"
      }
    },
    {
      "type": "way",
      "id": 687173308,
      "center": {
        "lat": 13.025235,
        "lon": 77.6510715
      },
      "tags": {
        "access": "private",
        "leisure": "swimming_pool"
      }
    },
    {
      "type": "way",
      "id": 695548659,
      "center": {
        "lat": 13.0297939,
        "lon": 77.6513457
      },
      "tags": {
        "amenity": "parking"
      }
    },
    {
      "type": "way",
      "id": 695548666,
      "center": {
        "lat": 13.0345661,
        "lon": 77.6529765
      },
      "tags": {
        "amenity": "parking"
      }
    },
    {
      "type": "way",
      "id": 771923571,
      "center": {
        "lat": 13.0308225,
        "lon": 77.642713
      },
      "tags": {
        "amenity": "parking"
      }
    },
    {
      "type": "way",
      "id": 1272659320,
      "center": {
        "lat": 13.0335696,
        "lon": 77.651482
      },
      "tags": {
        "leisure": "pitch",
        "sport": "basketball"
      }
    },
    {
      "type": "way",
      "id": 1305076032,
      "center": {
        "lat": 13.0293446,
        "lon": 77.6493084
      },
      "tags": {
        "access": "private",
        "leisure": "swimming_pool"
      }
    },
    {
      "type": "way",
      "id": 1322091226,
      "center": {
        "lat": 13.0323557,
        "lon": 77.6600139
      },
      "tags": {
        "amenity": "fuel",
        "brand": "Hindustan Petroleum",
        "brand:wikidata": "Q1619375",
        "name": "HP Petrol Pump",
        "official_name": "Hindustan Petroleum",
        "operator": "HPCL"
      }
    },
    {
      "type": "way",
      "id": 1346107775,
      "center": {
        "lat": 13.0355679,
        "lon": 77.6587929
      },
      "tags": {
        "leisure": "park",
        "name": "Horamavu Agara Lake Park"
      }
    },
    {
      "type": "way",
      "id": 1346910005,
      "center": {
        "lat": 13.0261629,
        "lon": 77.6564647
      },
      "tags": {
        "amenity": "school",
        "name": "Sri Chaitanya School"
      }
    },
    {
      "type": "way",
      "id": 1346910006,
      "center": {
        "lat": 13.0269962,
        "lon": 77.6569341
      },
      "tags": {
        "amenity": "college",
        "name": "Sri Chaitanya PU College, Horamavu"
      }
    },
    {
      "type": "way",
      "id": 1347574138,
      "center": {
        "lat": 13.0240196,
        "lon": 77.6527883
      },
      "tags": {
        "leisure": "pitch",
        "sport": "soccer"
      }
    },
    {
      "type": "way",
      "id": 1347735193,
      "center": {
        "lat": 13.0301259,
        "lon": 77.6495652
      },
      "tags": {
        "access": "private",
        "leisure": "swimming_pool"
      }
    },
    {
      "type": "way",
      "id": 1347735212,
      "center": {
        "lat": 13.0341902,
        "lon": 77.6484144
      },
      "tags": {
        "access": "private",
        "leisure": "swimming_pool"
      }
    },
    {
      "type": "way",
      "id": 1347735287,
      "center": {
        "lat": 13.0331851,
        "lon": 77.6514386
      },
      "tags": {
        "leisure": "pitch"
      }
    },
    {
      "type": "way",
      "id": 1388143634,
      "center": {
        "lat": 13.0342908,
        "lon": 77.6435324
      },
      "tags": {
        "amenity": "school",
        "name": "Sri Chaitanya Techno School, Kalyan Nagar"
      }
    },
    {
      "type": "way",
      "id": 1423222856,
      "center": {
        "lat": 13.0371412,
        "lon": 77.6521082
      },
      "tags": {
        "amenity": "place_of_worship",
        "denomination": "pentecostal",
        "religion": "christian"
      }
    },
    {
      "type": "way",
      "id": 1423481473,
      "center": {
        "lat": 13.0360874,
        "lon": 77.6530977
      },
      "tags": {
        "amenity": "school",
        "name": "New Millenium School"
      }
    },
    {
      "type": "way",
      "id": 1423481477,
      "center": {
        "lat": 13.0356622,
        "lon": 77.6540017
      },
      "tags": {
        "access": "private",
        "leisure": "swimming_pool"
      }
    }
  ]
}