{
  "area_name": "Prashanth Nagar",
  "osm_id": 1778943773,
  "osm_type": "node",
  "place_type": "neighbourhood",
  "amenity_count": 355,
  "amenities": [
    {
      "type": "node",
      "id": 1107989988,
      "lat": 12.9724264,
      "lon": 77.5388651,
      "tags": {
        "amenity": "fast_food",
        "name": "Durga Chats"
      }
    },
    {
      "type": "node",
      "id": 1474835633,
      "lat": 12.9719282,
      "lon": 77.5380966,
      "tags": {
        "name": "Sai Kamala Abharans",
        "shop": "jewelry"
      }
    },
    {
      "type": "node",
      "id": 1474835634,
      "lat": 12.9706632,
      "lon": 77.5368842,
      "tags": {
        "amenity": "bank",
        "brand": "ICICI Bank",
        "brand:wikidata": "Q1653258",
        "name": "ICICI Bank",
        "name:kn": "ಐಸಿಐಸಿಐ",
        "short_name": "ICICI"
      }
    },
    {
      "type": "node",
      "id": 1474835641,
      "lat": 12.9716571,
      "lon": 77.537278,
      "tags": {
        "amenity": "restaurant",
        "check_date": "2024-12-21",
        "diet:vegetarian": "yes",
        "internet_access": "no",
        "name": "Indraprastha",
        "name:kn": "ಇಂದ್ರಪ್ರಸ್ಥ",
        "outdoor_seating": "yes",
        "smoking": "outside",
        "wheelchair": "limited"
      }
    },
    {
      "type": "node",
      "id": 1474835642,
      "lat": 12.9734314,
      "lon": 77.5385798,
      "tags": {
        "amenity": "library",
        "name": "Vijaynagar Central Library"
      }
    },
    {
      "type": "node",
      "id": 1474835643,
      "lat": 12.9722157,
      "lon": 77.5383702,
      "tags": {
        "addr:postcode": "560040",
        "name": "GoldMine Jewellery",
        "shop": "jewelry"
      }
    },
    {
      "type": "node",
      "id": 1474835645,
      "lat": 12.9723673,
      "lon": 77.5375011,
      "tags": {
        "amenity": "place_of_worship",
        "name": "Hanuman Temple",
        "name:kn": "ಹನುಮಂತ ದೇವಸ್ಥಾನ",
        "religion": "hindu"
      }
    },
    {
      "type": "node",
      "id": 1778895940,
      "lat": 12.9760846,
      "lon": 77.5312127,
      "tags": {
        "amenity": "atm",
        "designation": "Karnataka Bank ATM",
        "fee": "no",
        "operator": "Karnataka Bank ATM",
        "source": "Survey"
      }
    },
    {
      "type": "node",
      "id": 1778896354,
      "lat": 12.9732095,
      "lon": 77.5295873,
      "tags": {
        "amenity": "place_of_worship",
        "name": "Prasanna Ganapathi Temple",
        "name:kn": "ಪ್ರಸನ್ನ ಗಣಪತಿ ದೇವಸ್ಥಾನ",
        "religion": "hindu",
        "source": "Survey"
      }
    },
    {
      "type": "node",
      "id": 1778896668,
      "lat": 12.9760637,
      "lon": 77.5315131,
      "tags": {
        "addr:street": "Nagarbhavi Main Road",
        "amenity": "fast_food",
        "name": "Ayodhya Food Line",
        "source": "Survey"
      }
    },
    {
      "type": "node",
      "id": 1778897704,
      "lat": 12.9755854,
      "lon": 77.5313495,
      "tags": {
        "addr:district": "Bengaluru Urban",
        "addr:full": "29 And 30, Nagarbhavi Road, Opp To Prashanthnagar Bus Stop, Vijaynagar",
        "addr:postcode": "560040",
        "addr:state": "Karnataka",
        "amenity": "hospital",
        "emergency": "no",
        "name": "Shobha Hospital, Bengaluru Urban",
        "name:kn": "ಶೋಭಾ ಆಸ್ಪತ್ರೆ",
        "source": "OpenGovernmentData"
      }
    },
    {
      "type": "node",
      "id": 1778898342,
      "lat": 12.9748588,
      "lon": 77.5312369,
      "tags": {
        "amenity": "atm",
        "brand": "ICICI Bank",
        "brand:wikidata": "Q1653258",
        "designation": "ICICI Bank ATM",
        "fee": "no",
        "name": "ICICI Bank",
        "name:kn": "ಐಸಿಐಸಿಐ ಬ್ಯಾಂಕು",
        "operator": "ICICI Bank",
        "operator:wikidata": "Q1653258",
        "short_name": "ICICI",
        "source": "Survey"
      }
    },
    {
      "type": "node",
      "id": 1778898354,
      "lat": 12.9762022,
      "lon": 77.5292815,
      "tags": {
        "amenity": "atm",
        "designation": "HDFC Bank ATM",
        "fee": "no",
        "operator": "HDFC ATM",
        "source": "Survey"
      }
    },
    {
      "type": "node",
      "id": 1778898405,
      "lat": 12.9752194,
      "lon": 77.529075,
      "tags": {
        "amenity": "place_of_worship",
        "name": "Raghavendra Swami Mutt",
        "name:kn": "ರಾಘವೇಂದ್ರ ಸ್ವಾಮಿ ಮಠ",
        "religion": "hindu"
      }
    },
    {
      "type": "node",
      "id": 1778898628,
      "lat": 12.9748535,
      "lon": 77.5289865,
      "tags": {
        "leisure": "playground",
        "name": "Amarjyothi Nagar Park",
        "name:kn": "ಅಮರಜ್ಯೋತಿ ನಗರ ಉದ್ಯಾನವನ"
      }
    },
    {
      "type": "node",
      "id": 1778899718,
      "lat": 12.9727782,
      "lon": 77.5296785,
      "tags": {
        "addr:street": "Nagarbhavi Main Road",
        "amenity": "bank",
        "atm": "no",
        "brand": "Allahabad Bank",
        "brand:wikidata": "Q2018840",
        "brand:wikipedia": "en:Allahabad Bank",
        "name": "Allahabad Bank",
        "name:en": "Allahabad Bank",
        "name:kn": "ಅಲ್ಲಹಾಬಾದ್ ಬ್ಯಾಂಕ್",
        "source": "Survey",
        "website": "https://www.allahabadbank.in"
      }
    },
    {
      "type": "node",
      "id": 1778909061,
      "lat": 12.9809408,
      "lon": 77.5354587,
      "tags": {
        "addr:housename": "Housing Board Bus Stop",
        "addr:street": "Magadi Road",
        "amenity": "restaurant",
        "diet:vegetarian": "only",
        "name": "Vasudev Adigas",
        "name:kn": "ವಾಸುದೇವ್ ಅಡಿಗಾಸ್",
        "source": "Survey"
      }
    },
    {
      "type": "node",
      "id": 1809619291,
      "lat": 12.9711631,
      "lon": 77.5364993,
      "tags": {
        "addr:city": "Bangaloreroad_leaved",
        "addr:housename": "Opp Vijayanagar Post Office",
        "addr:postcode": "560040",
        "addr:street": "Chord Road",
        "amenity": "bank",
        "brand": "Bank of Baroda",
        "brand:wikidata": "Q2003797",
        "brand:wikipedia": "en:Bank of Baroda",
        "name": "Bank of Baroda",
        "name:en": "Bank of Baroda",
        "name:kn": "ಬ್ಯಾಂಕ್ ಆಫ್ ಬರೊಡಾ",
        "short_name": "BoB",
        "website": "http://www.bankofbaroda.com",
        "wheelchair": "no"
      }
    },
    {
      "type": "node",
      "id": 1809619293,
      "lat": 12.9739442,
      "lon": 77.5373335,
      "tags": {
        "amenity": "atm",
        "fee": "no",
        "operator": "Corporation Bank ATM",
        "wheelchair": "no"
      }
    },
    {
      "type": "node",
      "id": 1809619296,
      "lat": 12.9713043,
      "lon": 77.5365288,
      "tags": {
        "addr:city": "Bangalore",
        "addr:housename": "Opp Vijayanagar Post office, Vijayanagar",
        "addr:postcode": "560040",
        "addr:street": "Chord Road",
        "check_date": "2024-12-21",
        "name": "Baker's Pride",
        "shop": "bakery"
      }
    },
    {
      "type": "node",
      "id": 1809707904,
      "lat": 12.973074,
      "lon": 77.5385163,
      "tags": {
        "amenity": "toilets",
        "wheelchair": "no"
      }
    },
    {
      "type": "node",
      "id": 1809734261,
      "lat": 12.9761294,
      "lon": 77.5326369,
      "tags": {
        "addr:district": "Bengaluru Urban",
        "addr:full": "No.4, Nagarabhavi Main Road,Prashanth Nagar,Near Shopper City Shop",
        "addr:postcode": "560079",
        "addr:state": "Karnataka",
        "amenity": "hospital",
        "name": "Bharathy Hospital",
        "name:kn": "ಭಾರತಿ ಆಸ್ಪತ್ರೆ",
        "source": "OpenGovernmentData"
      }
    },
    {
      "type": "node",
      "id": 1811327699,
      "lat": 12.9729823,
      "lon": 77.5294961,
      "tags": {
        "addr:street": "Nagarbhavi Main Road",
        "name": "Amarland Departmental",
        "shop": "convenience",
        "source": "Survey"
      }
    },
    {
      "type": "node",
      "id": 1811327746,
      "lat": 12.9728027,
      "lon": 77.5296137,
      "tags": {
        "addr:street": "Nagarbhavi Main Road",
        "name": "Go Green Vegetables",
        "shop": "greengrocer",
        "source": "Survey"
      }
    },
    {
      "type": "node",
      "id": 1813492400,
      "lat": 12.9784006,
      "lon": 77.5311242,
      "tags": {
        "amenity": "place_of_worship",
        "name": "Ganapathi Temple",
        "name:kn": "ಗಣಪತಿ ದೇವಸ್ಥಾನ",
        "religion": "hindu"
      }
    },
    {
      "type": "node",
      "id": 1815059161,
      "lat": 12.9721198,
      "lon": 77.5282623,
      "tags": {
        "amenity": "place_of_worship",
        "name": "Shaneshwara Temple",
        "name:kn": "ಶನೇಶ್ವರ ದೇವಸ್ಥಾನ",
        "religion": "hindu"
      }
    },
    {
      "type": "node",
      "id": 1843646937,
      "lat": 12.9706452,
      "lon": 77.5369759,
      "tags": {
        "amenity": "atm",
        "brand": "ICICI Bank",
        "brand:wikidata": "Q1653258",
        "fee": "no",
        "name": "ICICI Bank",
        "operator": "ICICI Bank",
        "operator:wikidata": "Q1653258",
        "short_name": "ICICI"
      }
    },
    {
      "type": "node",
      "id": 1843664896,
      "lat": 12.9761262,
      "lon": 77.5307639,
      "tags": {
        "addr:street": "Pattegarara Palya Main Road",
        "name": "Karanth Vihar",
        "shop": "bakery"
      }
    },
    {
      "type": "node",
      "id": 1843672251,
      "lat": 12.9729139,
      "lon": 77.5285404,
      "tags": {
        "addr:street": "Nagarbhavi Main Road",
        "name": "Hopcoms Mangalore Store",
        "shop": "convenience",
        "source": "Survey"
      }
    },
    {
      "type": "node",
      "id": 1843673711,
      "lat": 12.9760451,
      "lon": 77.5311984,
      "tags": {
        "addr:street": "Nagarbhavi Main Road",
        "amenity": "bank",
        "brand": "Karnataka Bank",
        "brand:wikidata": "Q2042632",
        "name": "Karnataka Bank",
        "name:kn": "ಕರ್ನಾಟಕ ಬ್ಯಾಂಕ್"
      }
    },
    {
      "type": "node",
      "id": 1843673712,
      "lat": 12.975031,
      "lon": 77.5309088,
      "tags": {
        "amenity": "atm",
        "brand": "ICICI Bank",
        "brand:wikidata": "Q1653258",
        "fee": "no",
        "name": "ICICI Bank",
        "name:kn": "ಐಸಿಐಸಿಐ ಬ್ಯಾಂಕು",
        "operator": "ICICI Bank",
        "operator:wikidata": "Q1653258",
        "short_name": "ICICI"
      }
    },
    {
      "type": "node",
      "id": 1843678521,
      "lat": 12.9745579,
      "lon": 77.5327836,
      "tags": {
        "amenity": "atm",
        "brand": "ICICI Bank",
        "brand:wikidata": "Q1653258",
        "fee": "no",
        "name": "ICICI Bank",
        "name:kn": "ಐಸಿಐಸಿಐ ಬ್ಯಾಂಕು",
        "operator": "ICICI Bank",
        "operator:wikidata": "Q1653258",
        "short_name": "ICICI",
        "source": "Survey"
      }
    },
    {
      "type": "node",
      "id": 1843678526,
      "lat": 12.9762412,
      "lon": 77.5287549,
      "tags": {
        "amenity": "atm",
        "brand": "Canara Bank",
        "brand:en": "Canara Bank",
        "brand:hi": "केनरा बैंक",
        "brand:kn": "ಕೆನರಾ ಬ್ಯಾಂಕ್",
        "brand:pa": "ਕੇਨਰਾ ਬੈਂਕ",
        "brand:pnb": "کینرا بینک",
        "brand:ur": "کینرا بینک",
        "brand:wikidata": "Q2003777",
        "fee": "no",
        "name": "Canara Bank",
        "name:en": "Canara Bank",
        "name:hi": "केनरा बैंक",
        "name:kn": "ಕೆನರಾ ಬ್ಯಾಂಕ್",
        "name:pa": "ਕੇਨਰਾ ਬੈਂਕ",
        "name:pnb": "کینرا بینک",
        "name:ur": "کینرا بینک",
        "operator": "Canara Bank",
        "operator:wikidata": "Q2003777"
      }
    },
    {
      "type": "node",
      "id": 1843680399,
      "lat": 12.9762502,
      "lon": 77.5320438,
      "tags": {
        "addr:street": "Nagarbhavi Main Road",
        "name": "Shopper City",
        "shop": "supermarket",
        "source": "Survey"
      }
    },
    {
      "type": "node",
      "id": 1843689211,
      "lat": 12.9747631,
      "lon": 77.5310486,
      "tags": {
        "amenity": "atm",
        "fee": "no",
        "operator": "State Bank of Mysore",
        "source": "Survey"
      }
    },
    {
      "type": "node",
      "id": 1843689212,
      "lat": 12.9746886,
      "lon": 77.5310295,
      "tags": {
        "addr:street": "Nagarbhavi Main Road",
        "amenity": "bank",
        "brand": "State Bank of India",
        "brand:wikidata": "Q1340361",
        "brand:wikipedia": "en:State Bank of India",
        "name": "State Bank of India",
        "name:kn": "ಭಾರತೀಯ ಸ್ಟೇಟ್ ಬ್ಯಾಂಕ್",
        "short_name": "SBI",
        "source": "Survey",
        "website": "https://www.sbi.co.in"
      }
    },
    {
      "type": "node",
      "id": 1843689215,
      "lat": 12.9745396,
      "lon": 77.5307371,
      "tags": {
        "amenity": "atm",
        "brand": "State Bank of India",
        "brand:wikidata": "Q1340361",
        "fee": "no",
        "name": "State Bank of India",
        "operator": "State Bank of India",
        "operator:wikidata": "Q1340361",
        "short_name": "SBI",
        "source": "Survey"
      }
    },
    {
      "type": "node",
      "id": 1843729743,
      "lat": 12.9808177,
      "lon": 77.535785,
      "tags": {
        "addr:housename": "Near Housing  Board Bus Stop",
        "addr:street": "Magadi Road",
        "amenity": "restaurant",
        "name": "Amaravati Andhra Style"
      }
    },
    {
      "type": "node",
      "id": 1897599780,
      "lat": 12.9754858,
      "lon": 77.531294,
      "tags": {
        "amenity": "pharmacy",
        "name": "Shobha Hospital Medical Store"
      }
    },
    {
      "type": "node",
      "id": 1897599781,
      "lat": 12.9729792,
      "lon": 77.5290087,
      "tags": {
        "amenity": "pharmacy",
        "brand": "MedPlus",
        "brand:wikidata": "Q65684234",
        "healthcare": "pharmacy",
        "name": "MedPlus",
        "name:kn": "ಮೆಡ್‍ಪ್ಲಸ್"
      }
    },
    {
      "type": "node",
      "id": 1902534886,
      "lat": 12.9749261,
      "lon": 77.5308639,
      "tags": {
        "addr:city": "Bangalore",
        "addr:housename": "Near Shobha Hospital",
        "addr:postcode": "560040",
        "addr:street": "Nagarabhavi Road",
        "amenity": "fast_food",
        "name": "Canara Juice Center"
      }
    },
    {
      "type": "node",
      "id": 1902542473,
      "lat": 12.9747524,
      "lon": 77.5302655,
      "tags": {
        "addr:housename": "DIVA Boutique",
        "addr:housenumber": "No.6, 5th Cross",
        "addr:postcode": "560040",
        "addr:street": "Amarjyothi Nagar",
        "designation": "DIVA Boutique",
        "name": "DIVA Boutique",
        "shop": "clothes"
      }
    },
    {
      "type": "node",
      "id": 2480869556,
      "lat": 12.9736839,
      "lon": 77.5304612,
      "tags": {
        "addr:city": "Bangalore",
        "addr:housename": "Amarjyothi nagar",
        "addr:postcode": "560040",
        "addr:street": "Nagarabhavi Road",
        "amenity": "bar",
        "name": "New Priya Bar & Restaurant"
      }
    },
    {
      "type": "node",
      "id": 2480869566,
      "lat": 12.9751503,
      "lon": 77.5309191,
      "tags": {
        "addr:city": "Bangalore",
        "addr:housename": "Opp Shobha Hospital, Vijayanagar",
        "addr:postcode": "560040",
        "addr:street": "Nagarabhavi Road",
        "name": "Liberty Footwear",
        "shop": "shoes",
        "website": "https://www.libertyshoes.com/index.aspx"
      }
    },
    {
      "type": "node",
      "id": 2480869567,
      "lat": 12.9726369,
      "lon": 77.5278728,
      "tags": {
        "addr:city": "Bangalore",
        "addr:housename": "Cauvery layout, Vijayanagar",
        "addr:housenumber": "65",
        "addr:postcode": "560079",
        "addr:street": "2nd Cross",
        "name": "Techno Products",
        "note": "Dealers in Silica Gel based products",
        "phone": "+91 80 2338 1707",
        "shop": "hardware"
      }
    },
    {
      "type": "node",
      "id": 2480870842,
      "lat": 12.9746645,
      "lon": 77.5324339,
      "tags": {
        "addr:city": "Bangalore",
        "addr:housename": "Near Priyadarshini School, Vijayanagar",
        "addr:postcode": "560040",
        "addr:street": "Vijayanagar Water Tank Road",
        "name": "Mylara Home Appliances",
        "shop": "electronics"
      }
    },
    {
      "type": "node",
      "id": 2480870848,
      "lat": 12.9744193,
      "lon": 77.5336479,
      "tags": {
        "addr:city": "Bangalore",
        "addr:postcode": "560040",
        "addr:street": "Vijayanagar Water Tank Road",
        "amenity": "hospital",
        "emergency": "no",
        "name": "Happy Tooth"
      }
    },
    {
      "type": "node",
      "id": 2480884727,
      "lat": 12.9719476,
      "lon": 77.5320111,
      "tags": {
        "addr:city": "Bangalore",
        "addr:housename": "Vijayanagar",
        "addr:postcode": "560040",
        "addr:street": "2nd cross",
        "name": "Divashree General Stores",
        "shop": "department_store"
      }
    },
    {
      "type": "node",
      "id": 2480884728,
      "lat": 12.972547,
      "lon": 77.529541,
      "tags": {
        "addr:city": "Bangalore",
        "addr:housename": "Opp Sarasvati nagar Bus Stop",
        "addr:postcode": "560040",
        "addr:street": "3rd Main Saraswathi nagar",
        "brand": "HOPCOMS",
        "brand:wikidata": "Q22908959",
        "name": "HOPCOMS Vegetables Store",
        "name:kn": "ಹಾಪ್‌ಕಾಮ್ಸ್",
        "shop": "greengrocer"
      }
    },
    {
      "type": "node",
      "id": 2480884731,
      "lat": 12.9720271,
      "lon": 77.5283808,
      "tags": {
        "amenity": "atm",
        "brand": "HDFC Bank",
        "brand:wikidata": "Q631047",
        "name": "HDFC Bank",
        "name:kn": "ಎಚ್. ಡಿ. ಎಫ್. ಸಿ..",
        "operator": "HDFC Bank",
        "operator:wikidata": "Q631047",
        "short_name": "HDFC"
      }
    },
    {
      "type": "node",
      "id": 2480884735,
      "lat": 12.9751013,
      "lon": 77.5311252,
      "tags": {
        "addr:city": "Bangalore",
        "addr:housename": "Next to Shobha Hospital, Vijayanagar",
        "addr:postcode": "560040",
        "addr:street": "Nagarabhavi Road",
        "amenity": "school",
        "name": "Pinewood High School"
      }
    },
    {
      "type": "node",
      "id": 2480884740,
      "lat": 12.9753608,
      "lon": 77.5313481,
      "tags": {
        "addr:city": "Bangalore",
        "addr:housename": "Next to Shobhs Hospital, Vijayanagar",
        "addr:postcode": "560040",
        "addr:street": "Nagarabhavi Road",
        "amenity": "college",
        "name": "ASC Study Center"
      }
    },
    {
      "type": "node",
      "id": 2480884757,
      "lat": 12.9761551,
      "lon": 77.5305492,
      "tags": {
        "addr:city": "Bangalore",
        "addr:housename": "Near Shobha Hospital, Vijayangar",
        "addr:postcode": "560079",
        "addr:street": "60 Feet Road, Pattegarara Palya Main Road",
        "amenity": "college",
        "name": "ASC Degree College"
      }
    },
    {
      "type": "node",
      "id": 2480884762,
      "lat": 12.9754931,
      "lon": 77.5324927,
      "tags": {
        "addr:city": "Bangalore",
        "addr:housename": "Vijayanagar",
        "addr:postcode": "560040",
        "addr:street": "11th Cross",
        "amenity": "school",
        "name": "Cordial High School"
      }
    },
    {
      "type": "node",
      "id": 2480884768,
      "lat": 12.9744756,
      "lon": 77.5334818,
      "tags": {
        "addr:city": "Bangalore",
        "addr:housename": "Vijayanagar",
        "addr:postcode": "560040",
        "addr:street": "Vijayanagar Water Tank Road",
        "name": "Piggy Wiggy",
        "shop": "toys"
      }
    },
    {
      "type": "node",
      "id": 2480884777,
      "lat": 12.9745812,
      "lon": 77.532699,
      "tags": {
        "addr:city": "Bangalore",
        "addr:housename": "Vijayanagar",
        "addr:postcode": "560040",
        "addr:street": "Vijayanagar Water Tank Road",
        "amenity": "hospital",
        "name": "Rishi Women and Child Clinic"
      }
    },
    {
      "type": "node",
      "id": 2480884783,
      "lat": 12.974626,
      "lon": 77.5326702,
      "tags": {
        "addr:city": "Bangalore",
        "addr:housename": "Vijayanagar",
        "addr:postcode": "560040",
        "addr:street": "Vijayanagar Water Tank Road",
        "amenity": "pharmacy",
        "name": "Rishi Medicals"
      }
    },
    {
      "type": "node",
      "id": 2480884792,
      "lat": 12.9744507,
      "lon": 77.5335676,
      "tags": {
        "addr:city": "Bangalore",
        "addr:housename": "Vijayanagar",
        "addr:postcode": "560040",
        "addr:street": "Vijayanagar Water Tank Road",
        "name": "Kiran Traders",
        "shop": "department_store"
      }
    },
    {
      "type": "node",
      "id": 2483744038,
      "lat": 12.970877,
      "lon": 77.5364976,
      "tags": {
        "addr:city": "Bangalore",
        "addr:housename": "Near Bank of Baroda, Vijayanagar",
        "addr:postcode": "560040",
        "addr:street": "Chord Road",
        "name": "New L M Silks",
        "shop": "clothes"
      }
    },
    {
      "type": "node",
      "id": 2483744043,
      "lat": 12.9709607,
      "lon": 77.5370233,
      "tags": {
        "addr:city": "Bangalore",
        "addr:housename": "Service road, Near Metro Station",
        "addr:postcode": "560040",
        "addr:street": "Chord Road",
        "amenity": "pharmacy",
        "healthcare": "pharmacy",
        "name": "Frank Ross Pharmacy"
      }
    },
    {
      "type": "node",
      "id": 2483744054,
      "lat": 12.9708823,
      "lon": 77.5367282,
      "tags": {
        "addr:city": "Bangalore",
        "addr:housename": "Near Bank of Baroda, Vijayanagar",
        "addr:postcode": "560040",
        "addr:street": "Chord Road",
        "amenity": "dentist",
        "name": "Prashanth Dental Clinic"
      }
    },
    {
      "type": "node",
      "id": 2483744059,
      "lat": 12.97106,
      "lon": 77.5366692,
      "tags": {
        "addr:city": "Bangalore",
        "addr:housename": "Near Bank of Baroda",
        "addr:postcode": "560040",
        "addr:street": "Chord Road",
        "name": "Sheema's Shop Right",
        "shop": "grocery"
      }
    },
    {
      "type": "node",
      "id": 2483744065,
      "lat": 12.9710025,
      "lon": 77.5369321,
      "tags": {
        "addr:city": "Bangalore",
        "addr:housename": "Service road, near Metro Station, Vijaynagar",
        "addr:postcode": "560040",
        "addr:street": "Chord Road",
        "name": "Nanjudeshwara Stationary",
        "shop": "stationery"
      }
    },
    {
      "type": "node",
      "id": 2483744070,
      "lat": 12.9710286,
      "lon": 77.536798,
      "tags": {
        "addr:city": "Bangalore",
        "addr:housename": "Near, Bank of Baroda",
        "addr:postcode": "560040",
        "addr:street": "Chord Road",
        "amenity": "fast_food",
        "name": "Saviruchi Fast Food"
      }
    },
    {
      "type": "node",
      "id": 2483744075,
      "lat": 12.9709921,
      "lon": 77.5368677,
      "tags": {
        "addr:city": "Bangalore",
        "addr:housename": "Near Metro Station, Vijaynagar",
        "addr:postcode": "560040",
        "addr:street": "Chord Road",
        "amenity": "cafe",
        "name": "Royal's Coffe House"
      }
    },
    {
      "type": "node",
      "id": 2483744080,
      "lat": 12.9709711,
      "lon": 77.5369589,
      "tags": {
        "addr:city": "Bangalore",
        "addr:housename": "Near Metro Station, Vijanagar",
        "addr:postcode": "560040",
        "addr:street": "Chord Road",
        "name": "Travel Hut Bag Shop",
        "shop": "bag"
      }
    },
    {
      "type": "node",
      "id": 2483779674,
      "lat": 12.9730072,
      "lon": 77.5293951,
      "tags": {
        "addr:city": "Bangalore",
        "addr:housename": "Near Prasanna Ganapathi Temple, Amarjyothi Nagar",
        "addr:postcode": "560040",
        "addr:street": "Nagarabhavi Road",
        "amenity": "dentist",
        "name": "Sanjeevani Dental Clinic"
      }
    },
    {
      "type": "node",
      "id": 2483779679,
      "lat": 12.9736894,
      "lon": 77.5369482,
      "tags": {
        "addr:city": "Bangalore",
        "addr:housename": "Near Ganapathi Temple",
        "addr:postcode": "560040",
        "addr:street": "Vijayanagar Water Tank Road",
        "amenity": "hospital",
        "name": "Penta Care Ayurvedic Hospital"
      }
    },
    {
      "type": "node",
      "id": 2483783781,
      "lat": 12.9751453,
      "lon": 77.5309427,
      "tags": {
        "addr:city": "Bangalore",
        "addr:housename": "Near Canara Juice center, Vijayanagar",
        "addr:postcode": "560040",
        "addr:street": "Nagarabhavi Road",
        "name": "Miracle Touch Beauty Parlour",
        "shop": "beauty"
      }
    },
    {
      "type": "node",
      "id": 2487658328,
      "lat": 12.9737726,
      "lon": 77.5360981,
      "tags": {
        "addr:city": "Bangalore",
        "addr:housename": "Vijaynagar",
        "addr:postcode": "560040",
        "addr:street": "Vijayanagar Water Tank Road",
        "amenity": "pharmacy",
        "name": "Patanjali Arogya Kendra",
        "name:kn": "ಪತಂಜಲಿ ಆರೋಗ್ಯ ಕೇಂದ್ರ"
      }
    },
    {
      "type": "node",
      "id": 2487658329,
      "lat": 12.9738549,
      "lon": 77.5359264,
      "tags": {
        "addr:city": "Bangalore",
        "addr:housename": "Vijayanagar",
        "addr:postcode": "560040",
        "addr:street": "Vijayanagar Water Tank Road",
        "amenity": "pharmacy",
        "name": "Kottkkal Arya Vaidya Shala",
        "name:en": "Kottakkal Arya Vaidya Sala",
        "opening_hours": "Mo-Sa 09:00-13:00, 16:00-20:30"
      }
    },
    {
      "type": "node",
      "id": 2487658330,
      "lat": 12.9726552,
      "lon": 77.5378281,
      "tags": {
        "addr:city": "Bangalore",
        "addr:housename": "Service Road, Near Indraprastha Hotel, Vijayanagar",
        "addr:postcode": "560040",
        "addr:street": "Chord Road",
        "name": "Benaka Sweets",
        "shop": "bakery"
      }
    },
    {
      "type": "node",
      "id": 2487658331,
      "lat": 12.9728225,
      "lon": 77.537934,
      "tags": {
        "addr:city": "Bangalore",
        "addr:housename": "Service Road, Near Vijayanagar Bus Stop, Vijayanagar",
        "addr:postcode": "560040",
        "addr:street": "Chord Road",
        "amenity": "restaurant",
        "cuisine": "Andhra",
        "name": "Panchavati",
        "name:kn": "ಪಂಚವತಿ"
      }
    },
    {
      "type": "node",
      "id": 2487658332,
      "lat": 12.9727546,
      "lon": 77.5378992,
      "tags": {
        "addr:city": "Bangalore",
        "addr:housename": "Service Road, near Vijayanagar Bus Stop",
        "addr:postcode": "560040",
        "addr:street": "Chord Road",
        "amenity": "bank",
        "brand": "Canara Bank",
        "brand:en": "Canara Bank",
        "brand:hi": "केनरा बैंक",
        "brand:kn": "ಕೆನರಾ ಬ್ಯಾಂಕ್",
        "brand:pa": "ਕੇਨਰਾ ਬੈਂਕ",
        "brand:pnb": "کینرا بینک",
        "brand:ur": "کینرا بینک",
        "brand:wikidata": "Q2003777",
        "brand:wikipedia": "en:Canara Bank",
        "brand:wikipedia:pa": "ਕੇਨਰਾ ਬੈਂਕ",
        "name": "Canara Bank",
        "name:en": "Canara Bank",
        "name:hi": "केनरा बैंक",
        "name:kn": "ಕೆನರಾ ಬ್ಯಾಂಕ್",
        "name:pa": "ਕੇਨਰਾ ਬੈਂਕ",
        "name:pnb": "کینرا بینک",
        "name:ur": "کینرا بینک",
        "website": "https://www.canarabank.com/"
      }
    },
    {
      "type": "node",
      "id": 2487658336,
      "lat": 12.9727493,
      "lon": 77.5389814,
      "tags": {
        "addr:city": "Bangalore",
        "addr:housename": "Above Food World, Vijayanagar",
        "addr:postcode": "560040",
        "addr:street": "Service Road",
        "amenity": "restaurant",
        "cuisine": "regional",
        "name": "Gokul Veg"
      }
    },
    {
      "type": "node",
      "id": 2505743003,
      "lat": 12.9849948,
      "lon": 77.5345955,
      "tags": {
        "addr:city": "Bangalore",
        "addr:housename": "Basaweshwara Nagar",
        "addr:postcode": "560079",
        "addr:street": "1st Main Road",
        "amenity": "dentist",
        "name": "Future Dentistry"
      }
    },
    {
      "type": "node",
      "id": 2509173743,
      "lat": 12.970694,
      "lon": 77.5254335,
      "tags": {
        "addr:city": "Bangalore",
        "addr:housename": "Kaveri Layout, Vijayanagar",
        "addr:street": "Nagarabhavi Road",
        "name": "Dear N Near Furniture Store",
        "shop": "furniture"
      }
    },
    {
      "type": "node",
      "id": 2509173753,
      "lat": 12.9705894,
      "lon": 77.5259136,
      "tags": {
        "addr:city": "Bangalore",
        "addr:housename": "Kaveri Layout",
        "addr:street": "Nagarabhavi Road",
        "name": "Kurlon Matress Express",
        "shop": "furniture"
      }
    },
    {
      "type": "node",
      "id": 2509175424,
      "lat": 12.9708639,
      "lon": 77.5265708,
      "tags": {
        "addr:city": "Bangalore",
        "addr:housename": "Kaveri Layout",
        "addr:street": "Nagarabhavi Road",
        "amenity": "place_of_worship",
        "name": "Shaneshwara Temple",
        "name:kn": "ಶನೇಶ್ವರ ದೇವಸ್ಥಾನ",
        "religion": "hindu"
      }
    },
    {
      "type": "node",
      "id": 2509175425,
      "lat": 12.9708325,
      "lon": 77.5267854,
      "tags": {
        "amenity": "atm",
        "brand": "HDFC Bank",
        "brand:wikidata": "Q631047",
        "name": "HDFC Bank",
        "name:kn": "ಎಚ್ ಡಿ ಎಫ್ ಸಿ",
        "operator": "HDFC Bank",
        "operator:wikidata": "Q631047",
        "short_name": "HDFC"
      }
    },
    {
      "type": "node",
      "id": 2513711725,
      "lat": 12.9729829,
      "lon": 77.5372409,
      "tags": {
        "addr:city": "Bangalore",
        "addr:housename": "Vijayanagar",
        "addr:postcode": "560040",
        "addr:street": "9th Main",
        "amenity": "ice_cream",
        "brand": "Polar Bear",
        "brand:wikidata": "Q124374249",
        "cuisine": "ice_cream",
        "delivery": "yes",
        "name": "Polar Bear",
        "takeaway": "yes"
      }
    },
    {
      "type": "node",
      "id": 2513711728,
      "lat": 12.9727738,
      "lon": 77.5371175,
      "tags": {
        "addr:city": "Bangalore",
        "addr:housename": "Vijayanagar",
        "addr:postcode": "560040",
        "addr:street": "10th Main Road",
        "amenity": "pharmacy",
        "healthcare": "pharmacy",
        "name": "Tejas Ayurvedic Center"
      }
    },
    {
      "type": "node",
      "id": 2975331590,
      "lat": 12.9700741,
      "lon": 77.5361839,
      "tags": {
        "amenity": "school",
        "name": "Udaya School",
        "name:kn": "ಉದಯ ಶಾಲೆ"
      }
    },
    {
      "type": "node",
      "id": 3823691057,
      "lat": 12.9775705,
      "lon": 77.5312574,
      "tags": {
        "addr:city": "Bangalore",
        "addr:postcode": "560079",
        "amenity": "studio",
        "level": "1",
        "name": "Sathvick Infotech Private Limited",
        "studio": "video"
      }
    },
    {
      "type": "node",
      "id": 3861909159,
      "lat": 12.9746432,
      "lon": 77.5325331,
      "tags": {
        "addr:street": "Vijayanagar Water Tank Road",
        "name": "Aspen Chinese Beauty Parlour",
        "shop": "beauty"
      }
    },
    {
      "type": "node",
      "id": 3861909160,
      "lat": 12.9744657,
      "lon": 77.533511,
      "tags": {
        "addr:street": "Vijayanagar Water Tank Road",
        "name": "Viseage",
        "shop": "medical_supply"
      }
    },
    {
      "type": "node",
      "id": 3861909161,
      "lat": 12.9735567,
      "lon": 77.5372187,
      "tags": {
        "addr:city": "Bangalore",
        "addr:postcode": "560040",
        "addr:street": "Vijayanagar Water Tank Road",
        "name": "Maruthi Gift Center",
        "shop": "gift"
      }
    },
    {
      "type": "node",
      "id": 3861909162,
      "lat": 12.9739096,
      "lon": 77.5358485,
      "tags": {
        "addr:city": "Bangalore",
        "addr:postcode": "560040",
        "addr:street": "Vijayanagar Water Tank Road",
        "name": "Sweet Chariot",
        "shop": "bakery"
      }
    },
    {
      "type": "node",
      "id": 3861909163,
      "lat": 12.9742654,
      "lon": 77.534553,
      "tags": {
        "addr:city": "Bangalore",
        "addr:postcode": "560040",
        "addr:street": "Vijayanagar Water Tank Road",
        "amenity": "pharmacy",
        "name": "Sri Raghavendra Medicals"
      }
    },
    {
      "type": "node",
      "id": 3861909164,
      "lat": 12.9739047,
      "lon": 77.5305291,
      "tags": {
        "addr:city": "Bangalore",
        "addr:postcode": "560040",
        "addr:street": "Nagarabhavi Road",
        "amenity": "pharmacy",
        "name": "Megha Medicals and General Stores"
      }
    },
    {
      "type": "node",
      "id": 3861909165,
      "lat": 12.9740084,
      "lon": 77.5303688,
      "tags": {
        "addr:city": "Bangalore",
        "addr:postcode": "560040",
        "addr:street": "Nagarabhavi Road",
        "name": "Nandini Milk Parlour",
        "name:kn": "ನಂದಿನಿ ಹಾಲಿನ ಅಂಗಡಿ",
        "shop": "dairy"
      }
    },
    {
      "type": "node",
      "id": 3861909167,
      "lat": 12.9745339,
      "lon": 77.5309153,
      "tags": {
        "addr:postcode": "560040",
        "addr:street": "Nagarabhavi Road",
        "amenity": "fast_food",
        "cuisine": "regional",
        "name": "Chaitanya Uphara"
      }
    },
    {
      "type": "node",
      "id": 3861909168,
      "lat": 12.9727202,
      "lon": 77.5294725,
      "tags": {
        "addr:city": "Bangalore",
        "addr:postcode": "560040",
        "addr:street": "3rd Main Saraswathi nagar",
        "name": "Iyengar Bakery",
        "name:kn": "ಐಯ್ಯಂಗಾರ್ ಬೇಕರಿ",
        "shop": "bakery"
      }
    },
    {
      "type": "node",
      "id": 3861909169,
      "lat": 12.9724688,
      "lon": 77.5295366,
      "tags": {
        "addr:city": "Bangalore",
        "addr:postcode": "560040",
        "addr:street": "3rd Main Saraswathi nagar",
        "amenity": "pharmacy",
        "name": "Saraswati Medicals"
      }
    },
    {
      "type": "node",
      "id": 3861909170,
      "lat": 12.9728708,
      "lon": 77.529675,
      "tags": {
        "addr:city": "Bangalore",
        "addr:postcode": "560040",
        "addr:street": "Nagarabhavi Road",
        "leisure": "sports_centre",
        "name": "Oxyfit Gym",
        "sport": "gym"
      }
    },
    {
      "type": "node",
      "id": 3861909814,
      "lat": 12.9760478,
      "lon": 77.5319661,
      "tags": {
        "addr:city": "Bangalore",
        "addr:postcode": "560040",
        "addr:street": "Nagarabhavi Road",
        "name": "Star Bazar",
        "shop": "supermarket"
      }
    },
    {
      "type": "node",
      "id": 3861909815,
      "lat": 12.9760251,
      "lon": 77.5330067,
      "tags": {
        "addr:city": "Bangalore",
        "addr:postcode": "560040",
        "addr:street": "Nagarabhavi Road",
        "amenity": "fast_food",
        "cuisine": "regional",
        "name": "Five Star Chicken"
      }
    },
    {
      "type": "node",
      "id": 3861909816,
      "lat": 12.9759953,
      "lon": 77.5332486,
      "tags": {
        "addr:city": "Bangalore",
        "addr:postcode": "560040",
        "addr:street": "Nagarabhavi Road",
        "amenity": "pharmacy",
        "brand": "MedPlus",
        "brand:wikidata": "Q65684234",
        "healthcare": "pharmacy",
        "name": "MedPlus",
        "name:kn": "ಮೆಡ್‍ಪ್ಲಸ್"
      }
    },
    {
      "type": "node",
      "id": 3861909817,
      "lat": 12.9757481,
      "lon": 77.5373265,
      "tags": {
        "addr:city": "Bangalore",
        "addr:postcode": "560079",
        "addr:street": "Nagarabhavi Road",
        "amenity": "fast_food",
        "cuisine": "regional",
        "name": "By Two Coffe"
      }
    },
    {
      "type": "node",
      "id": 4446363950,
      "lat": 12.9728679,
      "lon": 77.5391454,
      "tags": {
        "addr:city": "Bangalore",
        "addr:housenumber": "906",
        "addr:postcode": "560040",
        "addr:street": "6th Main, Near Reliance Web World, Vijay Nagar",
        "amenity": "restaurant",
        "cuisine": "regional",
        "name": "Park View",
        "opening_hours": "10:00-23:00",
        "phone": "080 23209082"
      }
    },
    {
      "type": "node",
      "id": 4446411046,
      "lat": 12.9698886,
      "lon": 77.5327543,
      "tags": {
        "addr:city": "bangalore",
        "addr:housenumber": "210",
        "addr:postcode": "560040",
        "addr:street": "20th Main Road, Vijay Naga",
        "amenity": "restaurant",
        "cuisine": "regional",
        "name": "Classic inn veg and non veg",
        "opening_hours": "10:00-22:00",
        "phone": "+91 8023505748"
      }
    },
    {
      "type": "node",
      "id": 4446483162,
      "lat": 12.969586,
      "lon": 77.5346634,
      "tags": {
        "addr:city": "Bangalore",
        "addr:housenumber": "1590",
        "addr:postcode": "560040",
        "addr:street": "I Main, 'A' Cross, III Main Road, Chandra Layout, Near Adishwara TV Showroom, Vijay Nagar",
        "amenity": "restaurant",
        "cuisine": "regional",
        "name": "Rotti Mane",
        "opening_hours": "12:00-16:00,18:00-22:00",
        "phone": "+91 9916556311"
      }
    },
    {
      "type": "node",
      "id": 4446517434,
      "lat": 12.9757428,
      "lon": 77.5335935,
      "tags": {
        "addr:city": "Bangalore",
        "addr:housenumber": "4",
        "addr:postcode": "560040",
        "addr:street": "Prashanth Nagar Main Road,Vijay Nagar,",
        "amenity": "restaurant",
        "cuisine": "regional",
        "name": "Spoorthy dosa point",
        "opening_hours": "07:30-12:00,16:00-23:00",
        "phone": "+91 9632143413"
      }
    },
    {
      "type": "node",
      "id": 4447076167,
      "lat": 12.9787049,
      "lon": 77.5403581,
      "tags": {
        "addr:housenumber": "30/2",
        "addr:street": "S V Complex Magadi Main Vijaynagar, Magadi Road",
        "amenity": "hospital",
        "name": "V Care Medical Systems P Ltd",
        "phone": "+918023110651"
      }
    },
    {
      "type": "node",
      "id": 4447081794,
      "lat": 12.9744268,
      "lon": 77.5377158,
      "tags": {
        "addr:city": "Bangalore",
        "addr:housenumber": "15",
        "addr:postcode": "560040",
        "addr:street": ", Balu Arcade, 8th Main Road,19th Cross, CHBS Layout, Vijayanagar, CHBS Layout, MC Layout, Vijayanagar, Bengaluru, Karnataka 560040\"",
        "amenity": "pharmacy",
        "name": "Anand Diagnostic Laboratory",
        "phone": "080 2311 9138"
      }
    },
    {
      "type": "node",
      "id": 4447097087,
      "lat": 12.9717905,
      "lon": 77.5372864,
      "tags": {
        "addr:city": "Bangalore",
        "addr:housenumber": "46",
        "addr:postcode": "560040",
        "addr:street": "17th Cross, Near Main Bus Stand, M.C. Road, Vijayanagar",
        "amenity": "hospital",
        "name": "Vijayanagar Global Hospital",
        "phone": "080 4240 8200"
      }
    },
    {
      "type": "node",
      "id": 4447104812,
      "lat": 12.9699062,
      "lon": 77.5331512,
      "tags": {
        "addr:city": "Bangalore",
        "addr:housenumber": "315/H",
        "addr:postcode": "560040",
        "addr:street": "9k, Vijaya Nagar, Vijaya Nagar, MRCR Layout, MC Layout",
        "amenity": "pharmacy",
        "name": "Khema Medical Corporation",
        "phone": "080 2311 6416"
      }
    },
    {
      "type": "node",
      "id": 4447111786,
      "lat": 12.973491,
      "lon": 77.5374834,
      "tags": {
        "addr:city": "Bangalore",
        "addr:housenumber": "141",
        "addr:postcode": "560040",
        "addr:street": "Chbs Layout, 8th Main, Vijaya Nagar, CHBS Layout, MC Layout,",
        "amenity": "pharmacy",
        "name": "Sri Ganesh Gandhi Medicals",
        "phone": "080 2338 2668"
      }
    },
    {
      "type": "node",
      "id": 4447213952,
      "lat": 12.9698405,
      "lon": 77.5327211,
      "tags": {
        "addr:city": "Bangalore",
        "addr:housenumber": "17",
        "addr:postcode": "560040",
        "addr:street": "1st Main Rd, Kaveri Layout, Govindaraja Nagar Ward, Anubhav Nagar, Vijayanagar,",
        "amenity": "hospital",
        "name": "Modern Family Doctor Pvt Ltd",
        "phone": "080 2335 2200"
      }
    },
    {
      "type": "node",
      "id": 4447436362,
      "lat": 12.9724461,
      "lon": 77.5386676,
      "tags": {
        "addr:city": "Bangalore",
        "addr:postcode": "560040",
        "addr:street": "BMTC Building, Vijayanagar Service Road, 8th Main Road, Hoshalli Extension, RPC Layout, Vijayanagar,",
        "amenity": "police",
        "name": "Traffic Police Station",
        "name:kn": "ವಿಜಯನಗರ ಸಂಚಾರ ಪೊಲೀಸ್ ಠಾಣೆ",
        "phone": "080 2294 2809",
        "website": "NA"
      }
    },
    {
      "type": "node",
      "id": 4447521452,
      "lat": 12.9816064,
      "lon": 77.5346671,
      "tags": {
        "addr:city": "Bangalore",
        "addr:postcode": "560079",
        "addr:street": "4th Main Rd, KHB Colony, Basaveshwar Nagar,",
        "amenity": "school",
        "name": "Traffic Police Station",
        "name:kn": "ಸಂಚಾರ ಪೊಲೀಸ್ ಠಾಣೆ",
        "phone": "NA",
        "website": "NA"
      }
    },
    {
      "type": "node",
      "id": 4490309089,
      "lat": 12.9774951,
      "lon": 77.5309619,
      "tags": {
        "addr:city": "Bangalore",
        "addr:housenumber": "No.1",
        "addr:postcode": "560040",
        "addr:street": "Amarjyothi Nagar,6th Cross, Vijayanagar",
        "name": "Miracle Touch",
        "opening_hours": "10:00-19:00",
        "phone": "91)-80-33722582",
        "shop": "beauty"
      }
    },
    {
      "type": "node",
      "id": 4490340281,
      "lat": 12.9841382,
      "lon": 77.5289161,
      "tags": {
        "addr:city": "Bangalore",
        "addr:postcode": "560064",
        "addr:street": "Allasandra main road , Yelahanka,Near janapriya havernce",
        "name": "R R Provision Store",
        "phone": "(91)-8453897174",
        "shop": "supermarket"
      }
    },
    {
      "type": "node",
      "id": 4518518892,
      "lat": 12.982076,
      "lon": 77.5313241,
      "tags": {
        "addr:street": "Magadi Road",
        "amenity": "bank",
        "brand": "State Bank of India",
        "brand:wikidata": "Q1340361",
        "brand:wikipedia": "en:State Bank of India",
        "name": "State Bank of India",
        "name:en": "State bank of India",
        "name:kn": "ಭಾರತೀಯ ಸ್ಟೇಟ್ ಬ್ಯಾಂಕ್",
        "short_name": "SBI"
      }
    },
    {
      "type": "node",
      "id": 4519860791,
      "lat": 12.9811444,
      "lon": 77.5350546,
      "tags": {
        "addr:street": "Magadi Road",
        "amenity": "bank",
        "brand": "IDBI Bank",
        "brand:wikidata": "Q3633485",
        "brand:wikipedia": "en:IDBI Bank",
        "name": "IDBI Bank",
        "name:en": "IDBI Bank",
        "name:kn": "ಐಡಿಬಿಐ ಬ್ಯಾಂಕ್",
        "old_name": "Industrial Development Bank of India",
        "short_name": "IDBI",
        "website": "https://www.idbi.com"
      }
    },
    {
      "type": "node",
      "id": 4558046689,
      "lat": 12.9842792,
      "lon": 77.5282764,
      "tags": {
        "amenity": "atm",
        "operator": "Axis Bank"
      }
    },
    {
      "type": "node",
      "id": 4719715794,
      "lat": 12.9714983,
      "lon": 77.5372344,
      "tags": {
        "addr:city": "Bangalore",
        "addr:housenumber": "45",
        "addr:postcode": "560040",
        "addr:street": "Chord Road",
        "amenity": "fast_food",
        "brand": "Papa John's",
        "brand:wikidata": "Q2759586",
        "cuisine": "pizza",
        "delivery": "yes",
        "name": "Papa John's",
        "name:kn": "ಪಪ ಜಾನ್ಸ್",
        "opening_hours": "11:00 - 23:00",
        "phone": "080 41642697",
        "takeaway": "yes",
        "website": "https://www.papajohnspizza.in/"
      }
    },
    {
      "type": "node",
      "id": 6886594802,
      "lat": 12.9718121,
      "lon": 77.5372486,
      "tags": {
        "addr:city": "Bengaluru",
        "addr:district": "BENGALURU URBAN",
        "addr:full": "No. 27, 17th Cross, M. C. Layout, Vijayanagar",
        "addr:postcode": "560040",
        "addr:state": "Karnataka",
        "amenity": "blood_bank",
        "contact:mobile": "9901155344",
        "contact:phone": "8023358800",
        "email": "vijayanagarabloodbank@gmail.com",
        "name": "Vijayanagar Hospital Blood Bank",
        "opening_hours": "24/7",
        "operator:type": "private",
        "source": "OpenGovernmentData"
      }
    },
    {
      "type": "node",
      "id": 6938540502,
      "lat": 12.9829857,
      "lon": 77.5309655,
      "tags": {
        "addr:district": "Bengaluru Urban",
        "addr:full": "No. 2/3, 5Th Main Shiva Complex, Kamakshipalya, Nagadimain Road , Opp Vishal Theatre",
        "addr:postcode": "560043",
        "addr:state": "Karnataka",
        "amenity": "hospital",
        "name": "Shreyas Hospital, Bengaluru Urban",
        "source": "OpenGovernmentData"
      }
    },
    {
      "type": "node",
      "id": 6938777957,
      "lat": 12.9817311,
      "lon": 77.5333714,
      "tags": {
        "addr:district": "Bengaluru Urban",
        "addr:full": "67/1, H V R Complex Magadi Main Road Kanakapura",
        "addr:postcode": "560079",
        "addr:state": "Karnataka",
        "amenity": "hospital",
        "name": "Padmavathi Hospital, Bengaluru Urban",
        "source": "OpenGovernmentData"
      }
    },
    {
      "type": "node",
      "id": 6944983789,
      "lat": 12.9716291,
      "lon": 77.5371969,
      "tags": {
        "addr:district": "Bengaluru Urban",
        "addr:full": "17th Cross, Near Main Bus Stand, MC Road, Vijayanagar",
        "addr:postcode": "560040",
        "addr:state": "Karnataka",
        "amenity": "hospital",
        "check_date": "2024-12-21",
        "healthcare": "hospital",
        "name": "Vijayanagar Hospital",
        "operator:type": "private",
        "source": "OpenGovernmentData",
        "website": "http://dpal.kar.nic.in/Kanunu%20padakosha%20PDF%20Files/Recognised%20Hospitals.pdf"
      }
    },
    {
      "type": "node",
      "id": 6947499749,
      "lat": 12.9742612,
      "lon": 77.5392227,
      "tags": {
        "addr:district": "Bengaluru Urban",
        "addr:full": "#3420, 1st Floor, Service Road, Rpc Layout,Opp Maruthi Medicals Vijaya Nagar Ii Stage",
        "addr:postcode": "560040",
        "addr:state": "Karnataka",
        "amenity": "doctors",
        "name": "Dr. Satyaprakash Centre For Digestive and Liver Dise",
        "source": "OpenGovernmentData"
      }
    },
    {
      "type": "node",
      "id": 6947716888,
      "lat": 12.9761802,
      "lon": 77.5261763,
      "tags": {
        "addr:district": "Bengaluru Urban",
        "addr:full": "No. 8, 60Ft. Road, Pattegara Palya, Vijayanagar",
        "addr:postcode": "560079",
        "addr:state": "Karnataka",
        "amenity": "hospital",
        "name": "Sandhyashree Hospital",
        "name:kn": "ಸಂಧ್ಯಾಶ್ರೀ ಆಸ್ಪತ್ರೆ",
        "source": "OpenGovernmentData"
      }
    },
    {
      "type": "node",
      "id": 7112491585,
      "lat": 12.9728026,
      "lon": 77.5284941,
      "tags": {
        "amenity": "restaurant",
        "name": "Mangalore Kabab Korner"
      }
    },
    {
      "type": "node",
      "id": 7112539085,
      "lat": 12.9761897,
      "lon": 77.5331156,
      "tags": {
        "amenity": "restaurant",
        "name": "Samudra"
      }
    },
    {
      "type": "node",
      "id": 7112539185,
      "lat": 12.9758225,
      "lon": 77.5331488,
      "tags": {
        "amenity": "ice_cream",
        "name": "Pooja Ice creams"
      }
    },
    {
      "type": "node",
      "id": 7118675986,
      "lat": 12.9719175,
      "lon": 77.5370015,
      "tags": {
        "amenity": "atm",
        "operator": "Axis ATM"
      }
    },
    {
      "type": "node",
      "id": 7132495685,
      "lat": 12.9705642,
      "lon": 77.5369071,
      "tags": {
        "brand": "Levi's",
        "brand:wikidata": "Q127962",
        "clothes": "denim;men;women",
        "name": "Levi's",
        "shop": "clothes"
      }
    },
    {
      "type": "node",
      "id": 7139631434,
      "lat": 12.9715873,
      "lon": 77.5380184,
      "tags": {
        "name": "Anusuya Silks",
        "shop": "clothes"
      }
    },
    {
      "type": "node",
      "id": 7139631444,
      "lat": 12.9730367,
      "lon": 77.5382383,
      "tags": {
        "amenity": "bank",
        "atm": "yes",
        "brand": "Union Bank of India",
        "brand:wikidata": "Q2004078",
        "name": "Union Bank of India"
      }
    },
    {
      "type": "node",
      "id": 7139631445,
      "lat": 12.9729779,
      "lon": 77.5381672,
      "tags": {
        "name": "Daffodils",
        "shop": "clothes"
      }
    },
    {
      "type": "node",
      "id": 7146671685,
      "lat": 12.9726701,
      "lon": 77.5284772,
      "tags": {
        "amenity": "veterinary",
        "name": "Sunil Pet Clinic"
      }
    },
    {
      "type": "node",
      "id": 7156536805,
      "lat": 12.9707744,
      "lon": 77.536975,
      "tags": {
        "addr:city": "Bengaluru",
        "name": "YLG",
        "shop": "beauty",
        "website": "https://www.ylgindia.com/"
      }
    },
    {
      "type": "node",
      "id": 7164440785,
      "lat": 12.97254,
      "lon": 77.5377287,
      "tags": {
        "name": "Hi-Tech Fashion",
        "shop": "clothes"
      }
    },
    {
      "type": "node",
      "id": 7164440786,
      "lat": 12.9709973,
      "lon": 77.5373525,
      "tags": {
        "name": "Konica Store",
        "shop": "photo"
      }
    },
    {
      "type": "node",
      "id": 7211891285,
      "lat": 12.9759377,
      "lon": 77.5314973,
      "tags": {
        "amenity": "pharmacy",
        "name": "Khushal Medicals"
      }
    },
    {
      "type": "node",
      "id": 7233191485,
      "lat": 12.9707915,
      "lon": 77.5369731,
      "tags": {
        "brand": "Lenskart",
        "brand:wikidata": "Q17068753",
        "name": "Lenskart.com",
        "shop": "optician"
      }
    },
    {
      "type": "node",
      "id": 7258115785,
      "lat": 12.9706278,
      "lon": 77.5258392,
      "tags": {
        "amenity": "bank",
        "name": "Janatha Seva Cooperative Bank Limited"
      }
    },
    {
      "type": "node",
      "id": 7572491984,
      "lat": 12.972363,
      "lon": 77.525125,
      "tags": {
        "addr:district": "Bengaluru Urban",
        "addr:full": "Govindaraja Nagar Ward, Mudalapalya, Vijayanagar, Bengaluru",
        "addr:postcode": "560040",
        "addr:state": "Karnataka",
        "amenity": "clinic",
        "name": "Shifa Health Care Clinic",
        "source": "Local Knowledge"
      }
    },
    {
      "type": "node",
      "id": 7572526686,
      "lat": 12.975501,
      "lon": 77.534972,
      "tags": {
        "addr:district": "Bengaluru Urban",
        "addr:full": "Govindarajanagar, Bengaluru",
        "addr:postcode": "560040",
        "addr:state": "Karnataka",
        "amenity": "hospital",
        "name": "Kamadhenu Hospital",
        "source": "Local Knowledge"
      }
    },
    {
      "type": "node",
      "id": 7572526691,
      "lat": 12.9764141,
      "lon": 77.5302028,
      "tags": {
        "addr:district": "Bengaluru Urban",
        "addr:full": "Govindaraja Nagar Ward, Govindarajanagar, Vijayanagar, Bengaluru",
        "addr:postcode": "560079",
        "addr:state": "Karnataka",
        "amenity": "clinic",
        "name": "Nidevs Child Care",
        "source": "Local Knowledge"
      }
    },
    {
      "type": "node",
      "id": 7572526693,
      "lat": 12.9835824,
      "lon": 77.5289448,
      "tags": {
        "addr:district": "Bengaluru Urban",
        "addr:full": "Govindaraja Nagar Ward, Priyadarshini Layout, Kamakshipalya, Bengaluru",
        "addr:postcode": "560079",
        "addr:state": "Karnataka",
        "amenity": "hospital",
        "name": "Benaka Hospital",
        "source": "Local Knowledge"
      }
    },
    {
      "type": "node",
      "id": 7572526696,
      "lat": 12.971816,
      "lon": 77.53183,
      "tags": {
        "addr:district": "Bengaluru Urban",
        "addr:full": "KGS Layout, Govindaraja Nagar Ward, Saraswathi Nagar, Vijayanagar, Bengaluru",
        "addr:postcode": "560040",
        "addr:state": "Karnataka",
        "amenity": "clinic",
        "name": "Archana Clinic",
        "source": "Local Knowledge"
      }
    },
    {
      "type": "node",
      "id": 7572526697,
      "lat": 12.9741101,
      "lon": 77.5357741,
      "tags": {
        "addr:district": "Bengaluru Urban",
        "addr:full": "CHBS Layout, Vijayanagar, Bengaluru",
        "addr:postcode": "560040",
        "addr:state": "Karnataka",
        "amenity": "clinic",
        "name": "Vanitha Child Care & Skin Clinic",
        "source": "Local Knowledge"
      }
    },
    {
      "type": "node",
      "id": 7572526698,
      "lat": 12.9744928,
      "lon": 77.5342045,
      "tags": {
        "addr:district": "Bengaluru Urban",
        "addr:full": "Stage 2, Vijayanagar, Bengaluru",
        "addr:postcode": "560040",
        "addr:state": "Karnataka",
        "amenity": "hospital",
        "name": "Goverment Hospital, Hosahalli",
        "source": "Local Knowledge"
      }
    },
    {
      "type": "node",
      "id": 7572526703,
      "lat": 12.9780731,
      "lon": 77.5251934,
      "tags": {
        "addr:district": "Bengaluru Urban",
        "addr:full": "Govindaraja Nagar Ward, Pattegarhpalya, Vijayanagar, Bengaluru",
        "addr:postcode": "560079",
        "addr:state": "Karnataka",
        "amenity": "hospital",
        "name": "Government Hospital",
        "name:kn": "ಸರ್ಕಾರಿ ಆಸ್ಪತ್ರೆ",
        "source": "Local Knowledge"
      }
    },
    {
      "type": "node",
      "id": 7572526725,
      "lat": 12.9757136,
      "lon": 77.5400982,
      "tags": {
        "addr:district": "Bengaluru Urban",
        "addr:full": "Govindaraja Nagar Ward, MC Layout, Vijayanagar, Bengaluru",
        "addr:postcode": "560040",
        "addr:state": "Karnataka",
        "amenity": "clinic",
        "name": "Sri Sai Dental Esthetic & Surgical Clinic",
        "source": "Local Knowledge"
      }
    },
    {
      "type": "node",
      "id": 7572526733,
      "lat": 12.974213,
      "lon": 77.534597,
      "tags": {
        "addr:district": "Bengaluru Urban",
        "addr:full": "Vijayanagar, Bengaluru",
        "addr:postcode": "560040",
        "addr:state": "Karnataka",
        "amenity": "clinic",
        "name": "Vijayanagar ENT Care Centre",
        "source": "Local Knowledge"
      }
    },
    {
      "type": "node",
      "id": 7572526734,
      "lat": 12.9744871,
      "lon": 77.5352515,
      "tags": {
        "addr:district": "Bengaluru Urban",
        "addr:full": "Govindaraja Nagar Ward, Vijayanagar, Bengaluru",
        "addr:postcode": "560040",
        "addr:state": "Karnataka",
        "amenity": "clinic",
        "check_date": "2024-12-21",
        "internet_access": "no",
        "name": "Chethana Homeo Clinic",
        "source": "Local Knowledge"
      }
    },
    {
      "type": "node",
      "id": 7572526735,
      "lat": 12.9742311,
      "lon": 77.5353795,
      "tags": {
        "addr:district": "Bengaluru Urban",
        "addr:full": "CHBS Layout, Vijayanagar, Bengaluru",
        "addr:postcode": "560040",
        "addr:state": "Karnataka",
        "amenity": "clinic",
        "name": "Nandini Children Clinic",
        "source": "Local Knowledge"
      }
    },
    {
      "type": "node",
      "id": 7572526749,
      "lat": 12.9741559,
      "lon": 77.5356939,
      "tags": {
        "addr:district": "Bengaluru Urban",
        "addr:full": "CHBS Layout, Vijayanagar, Bengaluru",
        "addr:postcode": "560040",
        "addr:state": "Karnataka",
        "amenity": "doctors",
        "name": "Dr. Banarji B H - Shoulder Specialist",
        "source": "Local Knowledge"
      }
    },
    {
      "type": "node",
      "id": 7572526753,
      "lat": 12.9754301,
      "lon": 77.5358001,
      "tags": {
        "addr:district": "Bengaluru Urban",
        "addr:full": "Nagarabhavi Main Road, Govindaraja Nagar Ward, Vijayanagar, Bengaluru",
        "addr:postcode": "560040",
        "addr:state": "Karnataka",
        "amenity": "hospital",
        "name": "Sneha Horizon Hospital",
        "source": "Local Knowledge"
      }
    },
    {
      "type": "node",
      "id": 7572526760,
      "lat": 12.9716979,
      "lon": 77.5349489,
      "tags": {
        "addr:district": "Bengaluru Urban",
        "addr:full": "CHBS Layout, Vijayanagar, Bengaluru",
        "addr:postcode": "560040",
        "addr:state": "Karnataka",
        "amenity": "clinic",
        "name": "Darshan Clinic",
        "source": "Local Knowledge"
      }
    },
    {
      "type": "node",
      "id": 7572526769,
      "lat": 12.9715355,
      "lon": 77.524968,
      "tags": {
        "addr:district": "Bengaluru Urban",
        "addr:full": "Huchappa Layout, Govindaraja Nagar Ward, Mudalapalya, Vijayanagar, Bengaluru",
        "addr:postcode": "560072",
        "addr:state": "Karnataka",
        "amenity": "clinic",
        "name": "Guru Shree Polyclinic",
        "source": "Local Knowledge"
      }
    },
    {
      "type": "node",
      "id": 7572526778,
      "lat": 12.9771657,
      "lon": 77.5381764,
      "tags": {
        "addr:district": "Bengaluru Urban",
        "addr:full": "Vijayanagar, Govindaraja Nagar Ward, J P Nagar",
        "addr:postcode": "560040",
        "addr:state": "Karnataka",
        "amenity": "dentist",
        "name": "Chinmaya Dental Clinic",
        "source": "Local Knowledge"
      }
    },
    {
      "type": "node",
      "id": 7572526779,
      "lat": 12.9745582,
      "lon": 77.5326276,
      "tags": {
        "addr:district": "Bengaluru Urban",
        "addr:full": "Central Excise Layout, CHBS Layout, Vijayanagar, Bengaluru",
        "addr:postcode": "560040",
        "addr:state": "Karnataka",
        "amenity": "dentist",
        "name": "Apple Dental Clinic",
        "source": "Local Knowledge"
      }
    },
    {
      "type": "node",
      "id": 7572526792,
      "lat": 12.976379,
      "lon": 77.524439,
      "tags": {
        "addr:district": "Bengaluru Urban",
        "addr:full": "Srinivasnagar, Amarajyothi Nagar, Vijayanagar, Bengaluru",
        "addr:postcode": "560072",
        "addr:state": "Karnataka",
        "amenity": "hospital",
        "name": "Sumati Hospital",
        "source": "Local Knowledge"
      }
    },
    {
      "type": "node",
      "id": 7572526795,
      "lat": 12.9766618,
      "lon": 77.5246346,
      "tags": {
        "addr:district": "Bengaluru Urban",
        "addr:full": "Patteghar Palya Main Road, Govindaraja Nagar Ward, Pattegarhpalya, Vijayanagar, Bengaluru",
        "addr:postcode": "560079",
        "addr:state": "Karnataka",
        "amenity": "clinic",
        "name": "Ranganatha Clinic",
        "source": "Local Knowledge"
      }
    },
    {
      "type": "node",
      "id": 7572526796,
      "lat": 12.9706942,
      "lon": 77.5264675,
      "tags": {
        "addr:district": "Bengaluru Urban",
        "addr:full": "Huchappa Layout, Govindaraja Nagar Ward, Vijayanagar, Bengaluru",
        "addr:postcode": "560072",
        "addr:state": "Karnataka",
        "amenity": "clinic",
        "name": "Alpha Ortho Clinic",
        "source": "Local Knowledge"
      }
    },
    {
      "type": "node",
      "id": 7572526799,
      "lat": 12.9752946,
      "lon": 77.5367112,
      "tags": {
        "addr:district": "Bengaluru Urban",
        "addr:full": "CHBS Layout, Vijayanagar, Bengaluru",
        "addr:postcode": "560040",
        "addr:state": "Karnataka",
        "amenity": "dentist",
        "name": "Blooming Smiles Dental Clinic",
        "source": "Local Knowledge"
      }
    },
    {
      "type": "node",
      "id": 7572526804,
      "lat": 12.9698787,
      "lon": 77.5332834,
      "tags": {
        "addr:district": "Bengaluru Urban",
        "addr:full": "Vijaya Nagar, Bengaluru",
        "addr:postcode": "560040",
        "addr:state": "Karnataka",
        "amenity": "hospital",
        "name": "Sastry Memorial Hospital",
        "source": "Local Knowledge"
      }
    },
    {
      "type": "node",
      "id": 7572526808,
      "lat": 12.9761399,
      "lon": 77.5298958,
      "tags": {
        "addr:district": "Bengaluru Urban",
        "addr:full": "Ramya Plaza, Govindaraja Nagar Ward, Amarajyothi Nagar, Vijayanagar, Bengaluru",
        "addr:postcode": "560040",
        "addr:state": "Karnataka",
        "amenity": "clinic",
        "name": "N N Homeo clinic",
        "source": "Local Knowledge"
      }
    },
    {
      "type": "node",
      "id": 7927589085,
      "lat": 12.970057,
      "lon": 77.5358963,
      "tags": {
        "addr:postcode": "560040",
        "addr:street": "Metro Station, Near, Ramanashree Udaya Education society, 14, 18th Main Rd, Marenahalli, MC Layout,",
        "amenity": "school",
        "email": "communications.oisvn@orchids.edu.in",
        "name": "Orchids The International School, VijayaNagar",
        "opening_hours": "Mo-Su 09:00-18:30",
        "operator": "Orchids International School",
        "phone": "+919513923233",
        "website": "https://www.orchidsinternationalschool.com/bangalore-branches/vijayanagar/"
      }
    },
    {
      "type": "node",
      "id": 8142358217,
      "lat": 12.9690976,
      "lon": 77.5300595,
      "tags": {
        "amenity": "place_of_worship",
        "name": "Siddi Vinayaka Temple",
        "religion": "hindu"
      }
    },
    {
      "type": "node",
      "id": 8145692753,
      "lat": 12.9690755,
      "lon": 77.5301997,
      "tags": {
        "amenity": "vending_machine",
        "name": "Water ATM",
        "operator": "BBMP",
        "vending": "water"
      }
    },
    {
      "type": "node",
      "id": 9161008239,
      "lat": 12.9824636,
      "lon": 77.5375074,
      "tags": {
        "name": "Daily Needs Exim Pvt. Ltd.",
        "office": "company",
        "shop": "convenience"
      }
    },
    {
      "type": "node",
      "id": 9161008291,
      "lat": 12.9820356,
      "lon": 77.5373867,
      "tags": {
        "amenity": "bank",
        "atm": "yes",
        "brand": "Union Bank of India",
        "brand:wikidata": "Q2004078",
        "name": "Union Bank of India",
        "name:kn": "ಯೂನಿಯನ್ ಬ್ಯಾಂಕ್"
      }
    },
    {
      "type": "node",
      "id": 9690178391,
      "lat": 12.9706594,
      "lon": 77.5256373,
      "tags": {
        "amenity": "fuel",
        "brand": "Nayara",
        "brand:wikidata": "Q5399377",
        "name": "Nayara",
        "operator": "Nayara"
      }
    },
    {
      "type": "node",
      "id": 10181726579,
      "lat": 12.9739793,
      "lon": 77.5360566,
      "tags": {
        "name": "Gandhi Emporium",
        "shop": "clothes"
      }
    },
    {
      "type": "node",
      "id": 10181751386,
      "lat": 12.9739932,
      "lon": 77.5360224,
      "tags": {
        "name": "Advika medicals",
        "shop": "medical_supply"
      }
    },
    {
      "type": "node",
      "id": 10181754739,
      "lat": 12.9740266,
      "lon": 77.5359501,
      "tags": {
        "name": "Shree Radhakrishna Fashion",
        "shop": "clothes"
      }
    },
    {
      "type": "node",
      "id": 10572689357,
      "lat": 12.9740758,
      "lon": 77.5345027,
      "tags": {
        "addr:city": "Bangalore",
        "addr:housenumber": "Number 38,",
        "addr:postcode": "560040",
        "addr:street": "Ground Floor, 8th Main Rd, M C Layout, Vijayanagar",
        "amenity": "restaurant",
        "cuisine": "regional;mangalorean",
        "diet:non-vegetarian": "yes",
        "name": "The Bunt Kitchen"
      }
    },
    {
      "type": "node",
      "id": 11388846369,
      "lat": 12.9819185,
      "lon": 77.5323018,
      "tags": {
        "addr:housenumber": "16/1",
        "addr:postcode": "560079",
        "addr:street": "Magadi Road",
        "name": "Anant Bajaj",
        "opening_hours": "Mo-Sa 09:00-20:00; Su 09:00-18:00",
        "shop": "motorcycle",
        "website": "https://www.bajajauto.com/"
      }
    },
    {
      "type": "node",
      "id": 11697222023,
      "lat": 12.9781138,
      "lon": 77.5355749,
      "tags": {
        "amenity": "shelter",
        "shelter_type": "gazebo"
      }
    },
    {
      "type": "node",
      "id": 11697222024,
      "lat": 12.9763629,
      "lon": 77.5350264,
      "tags": {
        "amenity": "shelter",
        "shelter_type": "gazebo"
      }
    },
    {
      "type": "node",
      "id": 11898656680,
      "lat": 12.9709297,
      "lon": 77.5366051,
      "tags": {
        "check_date": "2024-05-12",
        "name": "Fresho",
        "shop": "farm"
      }
    },
    {
      "type": "node",
      "id": 12408656595,
      "lat": 12.9725988,
      "lon": 77.5363353,
      "tags": {
        "check_date": "2024-12-21",
        "name": "Nandini",
        "shop": "dairy"
      }
    },
    {
      "type": "node",
      "id": 12429052944,
      "lat": 12.9735908,
      "lon": 77.5340554,
      "tags": {
        "amenity": "shelter",
        "shelter_type": "gazebo"
      }
    },
    {
      "type": "node",
      "id": 12429052945,
      "lat": 12.972244,
      "lon": 77.5336806,
      "tags": {
        "amenity": "shelter",
        "shelter_type": "gazebo"
      }
    },
    {
      "type": "node",
      "id": 12438081305,
      "lat": 12.972369,
      "lon": 77.5366352,
      "tags": {
        "amenity": "shelter",
        "shelter_type": "gazebo"
      }
    },
    {
      "type": "node",
      "id": 12438081306,
      "lat": 12.9723819,
      "lon": 77.5366665,
      "tags": {
        "amenity": "bench",
        "backrest": "yes",
        "material": "stone",
        "seats": "3"
      }
    },
    {
      "type": "node",
      "id": 12438081307,
      "lat": 12.9723546,
      "lon": 77.5366768,
      "tags": {
        "amenity": "bench",
        "backrest": "yes",
        "material": "stone",
        "seats": "3"
      }
    },
    {
      "type": "node",
      "id": 12438081308,
      "lat": 12.9723364,
      "lon": 77.5366516,
      "tags": {
        "amenity": "bench",
        "backrest": "yes",
        "material": "stone",
        "seats": "3"
      }
    },
    {
      "type": "node",
      "id": 12438081309,
      "lat": 12.9723457,
      "lon": 77.5366033,
      "tags": {
        "amenity": "bench",
        "backrest": "yes",
        "material": "stone",
        "seats": "3"
      }
    },
    {
      "type": "node",
      "id": 12438081310,
      "lat": 12.9723778,
      "lon": 77.5365952,
      "tags": {
        "amenity": "bench",
        "armrest": "yes",
        "backrest": "yes",
        "material": "stone",
        "seats": "3"
      }
    },
    {
      "type": "node",
      "id": 12438081311,
      "lat": 12.9723927,
      "lon": 77.5366129,
      "tags": {
        "amenity": "bench",
        "backrest": "yes",
        "material": "stone",
        "seats": "3"
      }
    },
    {
      "type": "node",
      "id": 12438081312,
      "lat": 12.9724681,
      "lon": 77.5367183,
      "tags": {
        "amenity": "bench",
        "backrest": "yes",
        "material": "stone",
        "seats": "3"
      }
    },
    {
      "type": "node",
      "id": 12438081313,
      "lat": 12.9724481,
      "lon": 77.5367649,
      "tags": {
        "amenity": "bench",
        "backrest": "yes",
        "material": "stone",
        "seats": "3"
      }
    },
    {
      "type": "node",
      "id": 12438081314,
      "lat": 12.9724073,
      "lon": 77.5368839,
      "tags": {
        "amenity": "bench",
        "backrest": "yes",
        "material": "stone",
        "seats": "3"
      }
    },
    {
      "type": "node",
      "id": 12438081315,
      "lat": 12.97243,
      "lon": 77.536821,
      "tags": {
        "amenity": "bench",
        "material": "stone",
        "seats": "3"
      }
    },
    {
      "type": "node",
      "id": 12438081316,
      "lat": 12.9721621,
      "lon": 77.536859,
      "tags": {
        "leisure": "fitness_station",
        "sport": "fitness"
      }
    },
    {
      "type": "node",
      "id": 12438081317,
      "lat": 12.972215,
      "lon": 77.5366557,
      "tags": {
        "leisure": "fitness_station",
        "sport": "fitness"
      }
    },
    {
      "type": "node",
      "id": 12438103915,
      "lat": 12.9723946,
      "lon": 77.5362667,
      "tags": {
        "amenity": "bench",
        "backrest": "yes",
        "material": "stone",
        "seats": "3"
      }
    },
    {
      "type": "node",
      "id": 12438103916,
      "lat": 12.9724337,
      "lon": 77.5362774,
      "tags": {
        "amenity": "bench",
        "backrest": "yes",
        "material": "stone",
        "seats": "3"
      }
    },
    {
      "type": "node",
      "id": 12438103917,
      "lat": 12.9724712,
      "lon": 77.5362858,
      "tags": {
        "amenity": "bench",
        "backrest": "yes",
        "material": "stone",
        "seats": "3"
      }
    },
    {
      "type": "node",
      "id": 12438103918,
      "lat": 12.9723248,
      "lon": 77.5369209,
      "tags": {
        "amenity": "bench",
        "material": "stone",
        "seats": "3"
      }
    },
    {
      "type": "node",
      "id": 12438103919,
      "lat": 12.9722522,
      "lon": 77.5368995,
      "tags": {
        "amenity": "bench",
        "backrest": "yes",
        "material": "stone",
        "seats": "3"
      }
    },
    {
      "type": "node",
      "id": 12438103920,
      "lat": 12.9721761,
      "lon": 77.5368763,
      "tags": {
        "amenity": "bench",
        "material": "stone",
        "seats": "3"
      }
    },
    {
      "type": "node",
      "id": 12438103921,
      "lat": 12.9721698,
      "lon": 77.5368164,
      "tags": {
        "amenity": "bench",
        "backrest": "yes",
        "material": "stone",
        "seats": "3"
      }
    },
    {
      "type": "node",
      "id": 12438103922,
      "lat": 12.9721792,
      "lon": 77.536765,
      "tags": {
        "amenity": "bench",
        "backrest": "yes",
        "material": "stone",
        "seats": "3"
      }
    },
    {
      "type": "node",
      "id": 12438103923,
      "lat": 12.9721982,
      "lon": 77.5367047,
      "tags": {
        "amenity": "bench",
        "backrest": "yes",
        "material": "stone",
        "seats": "3"
      }
    },
    {
      "type": "node",
      "id": 12438103928,
      "lat": 12.9725584,
      "lon": 77.5364302,
      "tags": {
        "amenity": "bench",
        "backrest": "yes",
        "material": "stone",
        "seats": "3"
      }
    },
    {
      "type": "node",
      "id": 12438103929,
      "lat": 12.9725329,
      "lon": 77.5364843,
      "tags": {
        "amenity": "bench",
        "backrest": "yes",
        "material": "stone",
        "seats": "3"
      }
    },
    {
      "type": "node",
      "id": 12438103930,
      "lat": 12.9725165,
      "lon": 77.5365529,
      "tags": {
        "amenity": "bench",
        "backrest": "yes",
        "material": "stone",
        "seats": "3"
      }
    },
    {
      "type": "node",
      "id": 12438103931,
      "lat": 12.9724948,
      "lon": 77.5366181,
      "tags": {
        "amenity": "bench",
        "backrest": "yes",
        "material": "stone",
        "seats": "3"
      }
    },
    {
      "type": "node",
      "id": 12438105895,
      "lat": 12.9749741,
      "lon": 77.5366194,
      "tags": {
        "leisure": "park",
        "name": "Purandara Dasa Park",
        "opening_hours": "05:00-10:00,13:30-20:00"
      }
    },
    {
      "type": "node",
      "id": 12438113678,
      "lat": 12.9755516,
      "lon": 77.5381299,
      "tags": {
        "amenity": "atm",
        "brand": "State Bank of India",
        "brand:wikidata": "Q1340361",
        "check_date": "2024-12-21",
        "operator": "State Bank of India",
        "operator:wikidata": "Q1340361",
        "short_name": "SBI"
      }
    },
    {
      "type": "node",
      "id": 12438113679,
      "lat": 12.9755516,
      "lon": 77.5381299,
      "tags": {
        "addr:floor": "1",
        "check_date": "2024-12-21",
        "leisure": "fitness_centre",
        "level": "1",
        "name": "Apple Fitness"
      }
    },
    {
      "type": "node",
      "id": 12438113680,
      "lat": 12.9755516,
      "lon": 77.5381299,
      "tags": {
        "addr:floor": "2",
        "amenity": "fixme",
        "check_date": "2024-12-21",
        "fixme": "type",
        "fixme:type": "MSIL chit funds",
        "name": "MAIL Chit Funds"
      }
    },
    {
      "type": "node",
      "id": 12438122537,
      "lat": 12.9753963,
      "lon": 77.5367421,
      "tags": {
        "amenity": "atm",
        "brand": "Indian Overseas Bank",
        "brand:wikidata": "Q2003611",
        "check_date": "2024-12-21",
        "currency:INR": "yes",
        "level": "0",
        "operator": "Indian Overseas Bank",
        "operator:wikidata": "Q2003611"
      }
    },
    {
      "type": "node",
      "id": 12438122540,
      "lat": 12.9756471,
      "lon": 77.5360648,
      "tags": {
        "check_date": "2024-12-21",
        "name": "Odeon - Men's Beauty Salon",
        "shop": "beauty"
      }
    },
    {
      "type": "node",
      "id": 12438122541,
      "lat": 12.9756434,
      "lon": 77.5361674,
      "tags": {
        "amenity": "clinic",
        "check_date": "2024-12-21",
        "healthcare": "clinic",
        "name": "Ashirvad Clinic"
      }
    },
    {
      "type": "node",
      "id": 12438124844,
      "lat": 12.9738165,
      "lon": 77.5365346,
      "tags": {
        "check_date": "2024-12-21",
        "name": "Devi Medical",
        "shop": "medical_supply"
      }
    },
    {
      "type": "node",
      "id": 12438135209,
      "lat": 12.9717272,
      "lon": 77.5366398,
      "tags": {
        "amenity": "clinic",
        "check_date": "2024-12-21",
        "healthcare": "clinic",
        "name": "Dr. Gayatri Taggarai"
      }
    },
    {
      "type": "node",
      "id": 12438135210,
      "lat": 12.9715396,
      "lon": 77.5367817,
      "tags": {
        "amenity": "bank",
        "brand": "Canara Bank",
        "brand:en": "Canara Bank",
        "brand:hi": "केनरा बैंक",
        "brand:kn": "ಕೆನರಾ ಬ್ಯಾಂಕ್",
        "brand:pa": "ਕੇਨਰਾ ਬੈਂਕ",
        "brand:pnb": "کینرا بینک",
        "brand:ur": "کینرا بینک",
        "brand:wikidata": "Q2003777",
        "check_date": "2024-12-21",
        "name": "Canara Bank",
        "name:en": "Canara Bank",
        "name:hi": "केनरा बैंक",
        "name:kn": "ಕೆನರಾ ಬ್ಯಾಂಕ್",
        "name:pa": "ਕੇਨਰਾ ਬੈਂਕ",
        "name:pnb": "کینرا بینک",
        "name:ur": "کینرا بینک"
      }
    },
    {
      "type": "node",
      "id": 12438135211,
      "lat": 12.9717404,
      "lon": 77.5369098,
      "tags": {
        "check_date": "2024-12-21",
        "name": "Prakash Jewellers",
        "shop": "jewelry"
      }
    },
    {
      "type": "node",
      "id": 12438135212,
      "lat": 12.9715465,
      "lon": 77.536606,
      "tags": {
        "check_date": "2024-12-21",
        "name": "New Standard Dry Cleaners",
        "shop": "dry_cleaning"
      }
    },
    {
      "type": "node",
      "id": 12438135213,
      "lat": 12.9709488,
      "lon": 77.5363895,
      "tags": {
        "check_date": "2024-12-21",
        "name": "Parimala Sweets",
        "shop": "pastry"
      }
    },
    {
      "type": "node",
      "id": 12438135215,
      "lat": 12.9712027,
      "lon": 77.5365182,
      "tags": {
        "amenity": "pharmacy",
        "check_date": "2024-12-21",
        "healthcare": "pharmacy",
        "name": "Suraksha Medicals"
      }
    },
    {
      "type": "node",
      "id": 12438141967,
      "lat": 12.9709482,
      "lon": 77.5370202,
      "tags": {
        "check_date": "2024-12-21",
        "name": "Mobile House",
        "shop": "mobile_phone"
      }
    },
    {
      "type": "node",
      "id": 12438145602,
      "lat": 12.9750248,
      "lon": 77.5365934,
      "tags": {
        "amenity": "bench",
        "armrest": "yes",
        "backrest": "yes",
        "material": "stone"
      }
    },
    {
      "type": "node",
      "id": 12438145603,
      "lat": 12.9752737,
      "lon": 77.536691,
      "tags": {
        "check_date": "2024-12-21",
        "name": "Chai King",
        "shop": "tea"
      }
    },
    {
      "type": "node",
      "id": 12438149243,
      "lat": 12.9755095,
      "lon": 77.5363412,
      "tags": {
        "amenity": "kindergarten",
        "check_date": "2024-12-21",
        "name": "Akshara Little Bees Pre School",
        "phone": "+91 99452 38634; +91 95356 43289; +91 98450 03934"
      }
    },
    {
      "type": "node",
      "id": 12438159320,
      "lat": 12.9727751,
      "lon": 77.5358031,
      "tags": {
        "amenity": "bench",
        "armrest": "yes",
        "backrest": "yes",
        "material": "stone",
        "seats": "3"
      }
    },
    {
      "type": "node",
      "id": 12438159321,
      "lat": 12.9727599,
      "lon": 77.5358556,
      "tags": {
        "amenity": "bench",
        "armrest": "yes",
        "backrest": "yes",
        "material": "stone",
        "seats": "3"
      }
    },
    {
      "type": "node",
      "id": 12438159322,
      "lat": 12.9727176,
      "lon": 77.5358639,
      "tags": {
        "leisure": "fitness_station",
        "sport": "fitness"
      }
    },
    {
      "type": "node",
      "id": 12438159323,
      "lat": 12.9727433,
      "lon": 77.5359075,
      "tags": {
        "amenity": "bench",
        "armrest": "yes",
        "backrest": "yes",
        "material": "stone",
        "seats": "3"
      }
    },
    {
      "type": "node",
      "id": 12438159325,
      "lat": 12.972711,
      "lon": 77.5360097,
      "tags": {
        "amenity": "bench",
        "armrest": "yes",
        "backrest": "yes",
        "material": "stone",
        "seats": "3"
      }
    },
    {
      "type": "node",
      "id": 12438159326,
      "lat": 12.9726938,
      "lon": 77.5360676,
      "tags": {
        "amenity": "bench",
        "armrest": "yes",
        "backrest": "yes",
        "material": "stone",
        "seats": "3"
      }
    },
    {
      "type": "node",
      "id": 12438159327,
      "lat": 12.972675,
      "lon": 77.5361258,
      "tags": {
        "amenity": "bench",
        "armrest": "yes",
        "backrest": "yes",
        "material": "stone",
        "seats": "3"
      }
    },
    {
      "type": "node",
      "id": 12438161002,
      "lat": 12.97542,
      "lon": 77.5367267,
      "tags": {
        "amenity": "bank",
        "brand": "Indian Overseas Bank",
        "brand:wikidata": "Q2003611",
        "check_date": "2024-12-21",
        "name": "Indian Overseas Bank"
      }
    },
    {
      "type": "node",
      "id": 12438161401,
      "lat": 12.9749674,
      "lon": 77.5365847,
      "tags": {
        "amenity": "bench",
        "armrest": "yes",
        "backrest": "yes",
        "material": "stone"
      }
    },
    {
      "type": "node",
      "id": 12438161402,
      "lat": 12.9752429,
      "lon": 77.536694,
      "tags": {
        "amenity": "fast_food",
        "check_date": "2024-12-21",
        "name": "Dear Foods"
      }
    },
    {
      "type": "node",
      "id": 12438161405,
      "lat": 12.9756844,
      "lon": 77.5364878,
      "tags": {
        "amenity": "fast_food",
        "check_date": "2024-12-21",
        "cuisine": "juice",
        "name": "Sri Ganesha Fruit Juice Centre"
      }
    },
    {
      "type": "node",
      "id": 12438165401,
      "lat": 12.9757309,
      "lon": 77.5362061,
      "tags": {
        "check_date": "2024-12-21",
        "name": "Suma Provision Store",
        "shop": "convenience"
      }
    },
    {
      "type": "node",
      "id": 12438165402,
      "lat": 12.9755004,
      "lon": 77.5356136,
      "tags": {
        "check_date": "2024-12-21",
        "name": "Dog's Kingdom",
        "shop": "pet"
      }
    },
    {
      "type": "node",
      "id": 12438165801,
      "lat": 12.9756888,
      "lon": 77.5358028,
      "tags": {
        "amenity": "place_of_worship",
        "check_date": "2024-12-21",
        "name": "Poojamma Temple",
        "religion": "hindu"
      }
    },
    {
      "type": "node",
      "id": 12438168002,
      "lat": 12.9756929,
      "lon": 77.5358082,
      "tags": {
        "amenity": "clinic",
        "check_date": "2024-12-21",
        "healthcare": "clinic",
        "name": "Chaitanya Clinic"
      }
    },
    {
      "type": "node",
      "id": 12438168003,
      "lat": 12.9754644,
      "lon": 77.5359901,
      "tags": {
        "check_date": "2024-12-21",
        "name": "Mahalaxmi Steels (Utensils)",
        "shop": "appliance"
      }
    },
    {
      "type": "node",
      "id": 12438168004,
      "lat": 12.9754789,
      "lon": 77.5358748,
      "tags": {
        "check_date": "2024-12-21",
        "name": "Swathi Ceramics",
        "shop": "bathroom_furnishing"
      }
    },
    {
      "type": "node",
      "id": 12438171701,
      "lat": 12.9754761,
      "lon": 77.5359255,
      "tags": {
        "check_date": "2024-12-21",
        "name": "Tejas Computers",
        "shop": "computer"
      }
    },
    {
      "type": "node",
      "id": 12438172873,
      "lat": 12.9726482,
      "lon": 77.5361714,
      "tags": {
        "amenity": "bench",
        "material": "stone",
        "seats": "3"
      }
    },
    {
      "type": "node",
      "id": 12438173201,
      "lat": 12.9754354,
      "lon": 77.5358965,
      "tags": {
        "amenity": "hospital",
        "check_date": "2024-12-21",
        "healthcare": "hospital",
        "name": "Hiremath Hospital"
      }
    },
    {
      "type": "node",
      "id": 12438174501,
      "lat": 12.9754681,
      "lon": 77.5356921,
      "tags": {
        "check_date": "2024-12-21",
        "name": "Horizon Medicals",
        "shop": "chemist"
      }
    },
    {
      "type": "node",
      "id": 12438174502,
      "lat": 12.975503,
      "lon": 77.5355627,
      "tags": {
        "check_date": "2024-12-21",
        "name": "Hari Om Electricals",
        "shop": "electronics"
      }
    },
    {
      "type": "node",
      "id": 12438174653,
      "lat": 12.9725837,
      "lon": 77.536187,
      "tags": {
        "amenity": "bench",
        "material": "stone",
        "seats": "3"
      }
    },
    {
      "type": "node",
      "id": 12438174654,
      "lat": 12.9724604,
      "lon": 77.5361526,
      "tags": {
        "amenity": "bench",
        "material": "stone",
        "seats": "3"
      }
    },
    {
      "type": "node",
      "id": 12438174655,
      "lat": 12.9724134,
      "lon": 77.5360937,
      "tags": {
        "amenity": "bench",
        "material": "stone",
        "seats": "3"
      }
    },
    {
      "type": "node",
      "id": 12438174656,
      "lat": 12.9724301,
      "lon": 77.5360272,
      "tags": {
        "amenity": "bench",
        "armrest": "yes",
        "backrest": "yes",
        "material": "stone",
        "seats": "3"
      }
    },
    {
      "type": "node",
      "id": 12438174657,
      "lat": 12.9724496,
      "lon": 77.5359549,
      "tags": {
        "amenity": "bench",
        "material": "stone",
        "seats": "3"
      }
    },
    {
      "type": "node",
      "id": 12438174658,
      "lat": 12.9724682,
      "lon": 77.535889,
      "tags": {
        "amenity": "bench",
        "armrest": "yes",
        "backrest": "yes",
        "material": "stone",
        "seats": "3"
      }
    },
    {
      "type": "node",
      "id": 12438174659,
      "lat": 12.9724857,
      "lon": 77.5358093,
      "tags": {
        "amenity": "bench",
        "armrest": "yes",
        "backrest": "yes",
        "material": "stone",
        "seats": "3"
      }
    },
    {
      "type": "node",
      "id": 12438174660,
      "lat": 12.9725138,
      "lon": 77.5357419,
      "tags": {
        "amenity": "bench",
        "armrest": "yes",
        "backrest": "yes",
        "material": "stone",
        "seats": "3"
      }
    },
    {
      "type": "node",
      "id": 12438175329,
      "lat": 12.9756469,
      "lon": 77.5358203,
      "tags": {
        "amenity": "pharmacy",
        "check_date": "2024-12-21",
        "healthcare": "pharmacy",
        "name": "Sri Ranga Medicals",
        "phone": "+91 99160 50298"
      }
    },
    {
      "type": "node",
      "id": 12438175331,
      "lat": 12.9756571,
      "lon": 77.5357438,
      "tags": {
        "check_date": "2024-12-21",
        "name": "Vijaylakshmi Boutique",
        "phone": "+91 99867 65749",
        "shop": "fashion_accessories"
      }
    },
    {
      "type": "node",
      "id": 12438175332,
      "lat": 12.9756693,
      "lon": 77.5355314,
      "tags": {
        "check_date": "2024-12-21",
        "name": "Surya Iyengar's Bakery",
        "shop": "bakery"
      }
    },
    {
      "type": "node",
      "id": 12438918924,
      "lat": 12.9728334,
      "lon": 77.5353952,
      "tags": {
        "amenity": "bench",
        "armrest": "yes",
        "backrest": "yes",
        "material": "stone",
        "seats": "3"
      }
    },
    {
      "type": "node",
      "id": 12438918925,
      "lat": 12.9728043,
      "lon": 77.5353861,
      "tags": {
        "amenity": "bench",
        "armrest": "yes",
        "backrest": "yes",
        "material": "stone",
        "seats": "3"
      }
    },
    {
      "type": "node",
      "id": 12438918926,
      "lat": 12.9727776,
      "lon": 77.5353774,
      "tags": {
        "amenity": "bench",
        "armrest": "yes",
        "backrest": "yes",
        "material": "stone",
        "seats": "3"
      }
    },
    {
      "type": "node",
      "id": 12438918927,
      "lat": 12.9727452,
      "lon": 77.5353663,
      "tags": {
        "amenity": "bench",
        "armrest": "yes",
        "backrest": "yes",
        "material": "stone",
        "seats": "3"
      }
    },
    {
      "type": "node",
      "id": 12438918928,
      "lat": 12.9727178,
      "lon": 77.535358,
      "tags": {
        "amenity": "bench",
        "armrest": "yes",
        "backrest": "yes",
        "material": "stone",
        "seats": "3"
      }
    },
    {
      "type": "node",
      "id": 12438918929,
      "lat": 12.972691,
      "lon": 77.5353502,
      "tags": {
        "amenity": "bench",
        "armrest": "yes",
        "backrest": "yes",
        "material": "stone",
        "seats": "3"
      }
    },
    {
      "type": "node",
      "id": 12438918930,
      "lat": 12.9726612,
      "lon": 77.5353834,
      "tags": {
        "amenity": "bench",
        "armrest": "yes",
        "backrest": "yes",
        "material": "stone",
        "seats": "3"
      }
    },
    {
      "type": "node",
      "id": 12438918931,
      "lat": 12.9726508,
      "lon": 77.5354153,
      "tags": {
        "amenity": "bench",
        "armrest": "yes",
        "backrest": "yes",
        "material": "stone",
        "seats": "3"
      }
    },
    {
      "type": "node",
      "id": 12438918932,
      "lat": 12.9726426,
      "lon": 77.5354418,
      "tags": {
        "amenity": "bench",
        "armrest": "yes",
        "backrest": "yes",
        "material": "stone",
        "seats": "3"
      }
    },
    {
      "type": "node",
      "id": 12438918933,
      "lat": 12.9726338,
      "lon": 77.5354673,
      "tags": {
        "amenity": "bench",
        "armrest": "yes",
        "backrest": "yes",
        "material": "stone",
        "seats": "3"
      }
    },
    {
      "type": "node",
      "id": 12438918934,
      "lat": 12.9726135,
      "lon": 77.5355377,
      "tags": {
        "amenity": "bench",
        "armrest": "yes",
        "backrest": "yes",
        "material": "stone",
        "seats": "3"
      }
    },
    {
      "type": "node",
      "id": 12438918935,
      "lat": 12.9726008,
      "lon": 77.5355702,
      "tags": {
        "amenity": "bench",
        "armrest": "yes",
        "backrest": "yes",
        "material": "stone",
        "seats": "3"
      }
    },
    {
      "type": "node",
      "id": 12438918936,
      "lat": 12.9725926,
      "lon": 77.5355994,
      "tags": {
        "amenity": "bench",
        "armrest": "yes",
        "backrest": "yes",
        "material": "stone",
        "seats": "3"
      }
    },
    {
      "type": "node",
      "id": 12438918937,
      "lat": 12.9725848,
      "lon": 77.5356265,
      "tags": {
        "amenity": "bench",
        "armrest": "yes",
        "backrest": "yes",
        "material": "stone",
        "seats": "3"
      }
    },
    {
      "type": "node",
      "id": 12438918938,
      "lat": 12.9725959,
      "lon": 77.5356547,
      "tags": {
        "amenity": "bench",
        "armrest": "yes",
        "backrest": "yes",
        "material": "stone",
        "seats": "3"
      }
    },
    {
      "type": "node",
      "id": 12438918939,
      "lat": 12.9726312,
      "lon": 77.5356637,
      "tags": {
        "amenity": "bench",
        "armrest": "yes",
        "backrest": "yes",
        "material": "stone",
        "seats": "3"
      }
    },
    {
      "type": "node",
      "id": 12438918940,
      "lat": 12.9726629,
      "lon": 77.5356748,
      "tags": {
        "amenity": "bench",
        "armrest": "yes",
        "backrest": "yes",
        "material": "stone",
        "seats": "3"
      }
    },
    {
      "type": "node",
      "id": 12438918941,
      "lat": 12.972691,
      "lon": 77.5356835,
      "tags": {
        "amenity": "bench",
        "armrest": "yes",
        "backrest": "yes",
        "material": "stone",
        "seats": "3"
      }
    },
    {
      "type": "node",
      "id": 12438918942,
      "lat": 12.972722,
      "lon": 77.5356919,
      "tags": {
        "amenity": "bench",
        "armrest": "yes",
        "backrest": "yes",
        "material": "stone",
        "seats": "3"
      }
    },
    {
      "type": "node",
      "id": 12438918943,
      "lat": 12.972756,
      "lon": 77.535702,
      "tags": {
        "amenity": "bench",
        "armrest": "yes",
        "backrest": "yes",
        "material": "stone",
        "seats": "3"
      }
    },
    {
      "type": "node",
      "id": 12438918944,
      "lat": 12.9727926,
      "lon": 77.5356724,
      "tags": {
        "amenity": "bench",
        "armrest": "yes",
        "backrest": "yes",
        "material": "stone",
        "seats": "3"
      }
    },
    {
      "type": "node",
      "id": 12438918945,
      "lat": 12.9728027,
      "lon": 77.5356379,
      "tags": {
        "amenity": "bench",
        "armrest": "yes",
        "backrest": "yes",
        "material": "stone",
        "seats": "3"
      }
    },
    {
      "type": "node",
      "id": 12438918946,
      "lat": 12.9728102,
      "lon": 77.5356118,
      "tags": {
        "amenity": "bench",
        "armrest": "yes",
        "backrest": "yes",
        "material": "stone",
        "seats": "3"
      }
    },
    {
      "type": "node",
      "id": 12438918947,
      "lat": 12.9728204,
      "lon": 77.5355779,
      "tags": {
        "amenity": "bench",
        "armrest": "yes",
        "backrest": "yes",
        "material": "stone",
        "seats": "3"
      }
    },
    {
      "type": "node",
      "id": 12438918948,
      "lat": 12.9728406,
      "lon": 77.5355206,
      "tags": {
        "amenity": "bench",
        "armrest": "yes",
        "backrest": "yes",
        "material": "stone",
        "seats": "3"
      }
    },
    {
      "type": "node",
      "id": 12438918949,
      "lat": 12.9728491,
      "lon": 77.535487,
      "tags": {
        "amenity": "bench",
        "armrest": "yes",
        "backrest": "yes",
        "material": "stone",
        "seats": "3"
      }
    },
    {
      "type": "node",
      "id": 12438918950,
      "lat": 12.9728592,
      "lon": 77.5354552,
      "tags": {
        "amenity": "bench",
        "armrest": "yes",
        "backrest": "yes",
        "material": "stone",
        "seats": "3"
      }
    },
    {
      "type": "node",
      "id": 12438918951,
      "lat": 12.9728645,
      "lon": 77.5354307,
      "tags": {
        "amenity": "bench",
        "armrest": "yes",
        "backrest": "yes",
        "material": "stone",
        "seats": "3"
      }
    },
    {
      "type": "node",
      "id": 12438918952,
      "lat": 12.9727524,
      "lon": 77.5357264,
      "tags": {
        "amenity": "bench",
        "armrest": "yes",
        "backrest": "yes",
        "material": "stone",
        "seats": "3"
      }
    },
    {
      "type": "node",
      "id": 12438918953,
      "lat": 12.9727357,
      "lon": 77.5357217,
      "tags": {
        "amenity": "bench",
        "armrest": "yes",
        "backrest": "yes",
        "material": "stone",
        "seats": "3"
      }
    },
    {
      "type": "node",
      "id": 12438918954,
      "lat": 12.9727184,
      "lon": 77.5357154,
      "tags": {
        "amenity": "bench",
        "armrest": "yes",
        "backrest": "yes",
        "material": "stone",
        "seats": "3"
      }
    },
    {
      "type": "node",
      "id": 12438918955,
      "lat": 12.9726988,
      "lon": 77.5357097,
      "tags": {
        "amenity": "bench",
        "armrest": "yes",
        "backrest": "yes",
        "material": "stone",
        "seats": "3"
      }
    },
    {
      "type": "node",
      "id": 12438918956,
      "lat": 12.9726805,
      "lon": 77.535704,
      "tags": {
        "amenity": "bench",
        "armrest": "yes",
        "backrest": "yes",
        "material": "stone",
        "seats": "3"
      }
    },
    {
      "type": "node",
      "id": 12438918957,
      "lat": 12.9726501,
      "lon": 77.5356932,
      "tags": {
        "amenity": "bench",
        "armrest": "yes",
        "backrest": "yes",
        "material": "stone",
        "seats": "3"
      }
    },
    {
      "type": "node",
      "id": 12438918958,
      "lat": 12.9726246,
      "lon": 77.5356852,
      "tags": {
        "amenity": "bench",
        "armrest": "yes",
        "backrest": "yes",
        "material": "stone",
        "seats": "3"
      }
    },
    {
      "type": "node",
      "id": 12438918959,
      "lat": 12.9726132,
      "lon": 77.5357405,
      "tags": {
        "amenity": "bench",
        "armrest": "yes",
        "backrest": "yes",
        "material": "stone",
        "seats": "3"
      }
    },
    {
      "type": "node",
      "id": 12438918960,
      "lat": 12.972638,
      "lon": 77.5357479,
      "tags": {
        "amenity": "bench",
        "armrest": "yes",
        "backrest": "yes",
        "material": "stone",
        "seats": "3"
      }
    },
    {
      "type": "node",
      "id": 12438918961,
      "lat": 12.9726665,
      "lon": 77.5357556,
      "tags": {
        "amenity": "bench",
        "armrest": "yes",
        "backrest": "yes",
        "material": "stone",
        "seats": "3"
      }
    },
    {
      "type": "node",
      "id": 12438918962,
      "lat": 12.9726857,
      "lon": 77.5357633,
      "tags": {
        "amenity": "bench",
        "armrest": "yes",
        "backrest": "yes",
        "material": "stone",
        "seats": "3"
      }
    },
    {
      "type": "node",
      "id": 12438918963,
      "lat": 12.9727053,
      "lon": 77.5357703,
      "tags": {
        "amenity": "bench",
        "armrest": "yes",
        "backrest": "yes",
        "material": "stone",
        "seats": "3"
      }
    },
    {
      "type": "node",
      "id": 12438918964,
      "lat": 12.9727204,
      "lon": 77.5357764,
      "tags": {
        "amenity": "bench",
        "armrest": "yes",
        "backrest": "yes",
        "material": "stone",
        "seats": "3"
      }
    },
    {
      "type": "node",
      "id": 12438918965,
      "lat": 12.9727341,
      "lon": 77.5357801,
      "tags": {
        "amenity": "bench",
        "armrest": "yes",
        "backrest": "yes",
        "material": "stone",
        "seats": "3"
      }
    },
    {
      "type": "node",
      "id": 12441719330,
      "lat": 12.9727913,
      "lon": 77.5382432,
      "tags": {
        "amenity": "bench"
      }
    },
    {
      "type": "node",
      "id": 12443448754,
      "lat": 12.9727618,
      "lon": 77.5358718,
      "tags": {
        "blind": "limited",
        "fitness_station": "fitness_station",
        "leisure": "fitness_station",
        "sport": "fitness",
        "wheelchair": "no"
      }
    },
    {
      "type": "node",
      "id": 12443448756,
      "lat": 12.9726769,
      "lon": 77.5361057,
      "tags": {
        "blind": "no",
        "fitness_station": "yes",
        "fixme": "Not usable?",
        "leisure": "fitness_station",
        "sport": "fitness",
        "wheelchair": "no"
      }
    },
    {
      "type": "node",
      "id": 12443448761,
      "lat": 12.9724883,
      "lon": 77.5358653,
      "tags": {
        "blind": "no",
        "fitness_station": "yes",
        "leisure": "fitness_station",
        "sport": "fitness",
        "wheelchair": "no"
      }
    },
    {
      "type": "node",
      "id": 12444388320,
      "lat": 12.9714184,
      "lon": 77.5367259,
      "tags": {
        "amenity": "post_box",
        "operator": "India Post",
        "operator:wikidata": "Q3519720"
      }
    },
    {
      "type": "node",
      "id": 12444395062,
      "lat": 12.9742648,
      "lon": 77.5353873,
      "tags": {
        "check_date": "2024-12-21",
        "name": "Seema Shoppe",
        "shop": "supermarket"
      }
    },
    {
      "type": "node",
      "id": 12444395070,
      "lat": 12.9717451,
      "lon": 77.5375453,
      "tags": {
        "amenity": "clock",
        "display": "analog",
        "support": "pole"
      }
    },
    {
      "type": "way",
      "id": 138449004,
      "center": {
        "lat": 12.9782911,
        "lon": 77.5278275
      },
      "tags": {
        "leisure": "park",
        "name": "Balalayanna Kere Park",
        "name:kn": "ಬಾಳಯ್ಯನ ಕೆರೆ ಉದ್ಯಾನ"
      }
    },
    {
      "type": "way",
      "id": 169718925,
      "center": {
        "lat": 12.9802501,
        "lon": 77.5310515
      },
      "tags": {
        "amenity": "place_of_worship",
        "name": "Sai Baba Mandir",
        "name:kn": "ಸಾಯಿಬಾಬಾ ಮಂದಿರ"
      }
    },
    {
      "type": "way",
      "id": 169718941,
      "center": {
        "lat": 12.9771539,
        "lon": 77.5301802
      },
      "tags": {
        "leisure": "park"
      }
    },
    {
      "type": "way",
      "id": 169718945,
      "center": {
        "lat": 12.9782267,
        "lon": 77.5356299
      },
      "tags": {
        "leisure": "park"
      }
    },
    {
      "type": "way",
      "id": 169718954,
      "center": {
        "lat": 12.9781827,
        "lon": 77.5307531
      },
      "tags": {
        "leisure": "park"
      }
    },
    {
      "type": "way",
      "id": 169718956,
      "center": {
        "lat": 12.9784056,
        "lon": 77.5310575
      },
      "tags": {
        "addr:city": "Bengaluru",
        "addr:postcode": "560079",
        "addr:street": "8th Cross,Near 2nd Main, 3rd Main Rd, Prashant Nagar, Vijayanagar",
        "amenity": "place_of_worship",
        "building": "yes",
        "name": "Shri Prashantha Ganapathi Temple",
        "religion": "hindu"
      }
    },
    {
      "type": "way",
      "id": 169718958,
      "center": {
        "lat": 12.9725584,
        "lon": 77.5298576
      },
      "tags": {
        "leisure": "park"
      }
    },
    {
      "type": "way",
      "id": 169719304,
      "center": {
        "lat": 12.983033,
        "lon": 77.5376807
      },
      "tags": {
        "amenity": "college",
        "name": "Government Homeopathy College & Hospital"
      }
    },
    {
      "type": "way",
      "id": 169798850,
      "center": {
        "lat": 12.9738654,
        "lon": 77.5341928
      },
      "tags": {
        "leisure": "park"
      }
    },
    {
      "type": "way",
      "id": 169798851,
      "center": {
        "lat": 12.9728991,
        "lon": 77.5339091
      },
      "tags": {
        "leisure": "park"
      }
    },
    {
      "type": "way",
      "id": 169800534,
      "center": {
        "lat": 12.971915,
        "lon": 77.5336323
      },
      "tags": {
        "leisure": "playground"
      }
    },
    {
      "type": "way",
      "id": 169800537,
      "center": {
        "lat": 12.9712816,
        "lon": 77.5334239
      },
      "tags": {
        "leisure": "park"
      }
    },
    {
      "type": "way",
      "id": 169800538,
      "center": {
        "lat": 12.970928,
        "lon": 77.5333063
      },
      "tags": {
        "leisure": "park"
      }
    },
    {
      "type": "way",
      "id": 169800539,
      "center": {
        "lat": 12.972681,
        "lon": 77.5356957
      },
      "tags": {
        "leisure": "park",
        "name": "MC Layout Park"
      }
    },
    {
      "type": "way",
      "id": 169800644,
      "center": {
        "lat": 12.9735457,
        "lon": 77.5364135
      },
      "tags": {
        "amenity": "place_of_worship",
        "check_date": "2023-10-18",
        "landuse": "religious",
        "name": "Ganesha Temple",
        "name:kn": "ಗಣಪತಿ ದೇವಸ್ಥಾನ",
        "religion": "hindu",
        "wheelchair": "no"
      }
    },
    {
      "type": "way",
      "id": 169800649,
      "center": {
        "lat": 12.9737868,
        "lon": 77.5366941
      },
      "tags": {
        "amenity": "place_of_worship",
        "name": "St Anthony Church",
        "name:kn": "ಸೇಂಟ್ ಆಂತೋನಿ ಚರ್ಚ್",
        "religion": "christian"
      }
    },
    {
      "type": "way",
      "id": 169800997,
      "center": {
        "lat": 12.9726416,
        "lon": 77.538907
      },
      "tags": {
        "addr:housename": "Old Ashoka Hotel",
        "addr:street": "7th Main",
        "name": "Food World",
        "name:kn": "ಫುಡ್ ವರ್ಲ್ಡ್",
        "shop": "supermarket"
      }
    },
    {
      "type": "way",
      "id": 169800998,
      "center": {
        "lat": 12.9739796,
        "lon": 77.5372636
      },
      "tags": {
        "addr:city": "Bangalore",
        "addr:housenumber": "54/54",
        "addr:postcode": "560040",
        "addr:street": "1st Floor, 8th Main Road, M.C.Layout, Vijayanagar",
        "amenity": "bank",
        "brand": "Union Bank of India",
        "brand:wikidata": "Q2004078",
        "building": "yes",
        "name": "Union Bank of India",
        "name:kn": "ಕಾರ್ಪರೇಷನ್ ಬ್ಯಾಂಕ್"
      }
    },
    {
      "type": "way",
      "id": 169801514,
      "center": {
        "lat": 12.9803798,
        "lon": 77.5390159
      },
      "tags": {
        "addr:district": "Bengaluru Urban",
        "addr:full": "#11/2, Magadi Main Road ,Agrahara , Dasarahalli,Next To Raheja Park",
        "addr:postcode": "560079",
        "addr:state": "Karnataka",
        "amenity": "hospital",
        "emergency": "yes",
        "name": "Sarvodaya Hospital",
        "name:kn": "ಸರ್ವೋದಯ ಆಸ್ಪತ್ರೆ",
        "source": "OpenGovernmentData"
      }
    },
    {
      "type": "way",
      "id": 169801559,
      "center": {
        "lat": 12.9819702,
        "lon": 77.5379822
      },
      "tags": {
        "leisure": "park"
      }
    },
    {
      "type": "way",
      "id": 169809630,
      "center": {
        "lat": 12.9732753,
        "lon": 77.5408321
      },
      "tags": {
        "leisure": "park"
      }
    },
    {
      "type": "way",
      "id": 169810235,
      "center": {
        "lat": 12.973452,
        "lon": 77.540004
      },
      "tags": {
        "leisure": "park"
      }
    },
    {
      "type": "way",
      "id": 173576166,
      "center": {
        "lat": 12.9747605,
        "lon": 77.5290558
      },
      "tags": {
        "leisure": "park"
      }
    },
    {
      "type": "way",
      "id": 173577473,
      "center": {
        "lat": 12.976047,
        "lon": 77.529633
      },
      "tags": {
        "leisure": "park"
      }
    },
    {
      "type": "way",
      "id": 173579771,
      "center": {
        "lat": 12.9740798,
        "lon": 77.5310831
      },
      "tags": {
        "amenity": "school",
        "landuse": "education",
        "name": "Sarvodaya School",
        "name:kn": "ಸರ್ವೋದಯ ಶಾಲೆ"
      }
    },
    {
      "type": "way",
      "id": 219381382,
      "center": {
        "lat": 12.9761789,
        "lon": 77.5393365
      },
      "tags": {
        "amenity": "school",
        "name": "Sri Sarvagna School",
        "name:kn": "ಶ್ರೀ ಸರ್ವಜ್ಞ ಶಾಲೆ"
      }
    },
    {
      "type": "way",
      "id": 222974585,
      "center": {
        "lat": 12.9713813,
        "lon": 77.5368513
      },
      "tags": {
        "amenity": "post_office",
        "building": "yes",
        "name": "Vijayanagar Post office",
        "name:kn": "ವಿಜಯನಗರ ಅಂಚೆ ಕಛೇರಿ"
      }
    },
    {
      "type": "way",
      "id": 349836590,
      "center": {
        "lat": 12.9799802,
        "lon": 77.5369515
      },
      "tags": {
        "amenity": "bank",
        "name": "Bharath Co-operative Bank"
      }
    },
    {
      "type": "way",
      "id": 363070951,
      "center": {
        "lat": 12.9775542,
        "lon": 77.5297934
      },
      "tags": {
        "leisure": "park"
      }
    },
    {
      "type": "way",
      "id": 471446263,
      "center": {
        "lat": 12.9703936,
        "lon": 77.535139
      },
      "tags": {
        "leisure": "park",
        "name": "M C Layout Park",
        "name:kn": "ಎಂ ಸಿ ಲೇಔಟ್ ಉದ್ಯಾನವನ"
      }
    },
    {
      "type": "way",
      "id": 498155233,
      "center": {
        "lat": 12.974991,
        "lon": 77.5363178
      },
      "tags": {
        "leisure": "park"
      }
    },
    {
      "type": "way",
      "id": 498155234,
      "center": {
        "lat": 12.9762522,
        "lon": 77.5383161
      },
      "tags": {
        "leisure": "park"
      }
    },
    {
      "type": "way",
      "id": 991531036,
      "center": {
        "lat": 12.9830337,
        "lon": 77.5365274
      },
      "tags": {
        "addr:full": "Stage 1, KHB Colony, Basaveshwar Nagar, Bengaluru, Karnataka",
        "addr:state": "Karnataka",
        "amenity": "hospital",
        "healthcare": "hospital",
        "name": "Government Homeopathic Hospital"
      }
    },
    {
      "type": "way",
      "id": 1054822216,
      "center": {
        "lat": 12.9786839,
        "lon": 77.5278579
      },
      "tags": {
        "amenity": "shelter",
        "shelter_type": "gazebo"
      }
    },
    {
      "type": "way",
      "id": 1206777030,
      "center": {
        "lat": 12.9852997,
        "lon": 77.5356728
      },
      "tags": {
        "amenity": "place_of_worship",
        "religion": "hindu"
      }
    },
    {
      "type": "way",
      "id": 1258216423,
      "center": {
        "lat": 12.9722747,
        "lon": 77.5337258
      },
      "tags": {
        "leisure": "park"
      }
    },
    {
      "type": "way",
      "id": 1258216424,
      "center": {
        "lat": 12.9764005,
        "lon": 77.5350478
      },
      "tags": {
        "leisure": "park"
      }
    },
    {
      "type": "way",
      "id": 1258216441,
      "center": {
        "lat": 12.9698249,
        "lon": 77.5279044
      },
      "tags": {
        "landuse": "recreation_ground",
        "leisure": "sports_centre",
        "name": "Krantiveera Sangolli Rayanna Ground",
        "name:etymology:wikidata": "Q10983724",
        "name:kn": "ಕ್ರಾಂತಿವೀರ ಸಂಗೊಳ್ಳಿ ರಾಯಣ್ಣ ಮೈದಾನ"
      }
    },
    {
      "type": "way",
      "id": 1311159734,
      "center": {
        "lat": 12.9717698,
        "lon": 77.537714
      },
      "tags": {
        "air_conditioned": "yes",
        "alt_name": "Vijayanagar Market",
        "amenity": "marketplace",
        "building": "retail",
        "building:levels": "0",
        "building:levels:underground": "1",
        "layer": "-1",
        "local_ref": "Vijayanagar Fruit & Vegetable Market",
        "name": "Sri Krishnadevaraya Palike Bazaar",
        "start_date": "2024-08-25"
      }
    },
    {
      "type": "way",
      "id": 1341450596,
      "center": {
        "lat": 12.9723686,
        "lon": 77.536601
      },
      "tags": {
        "leisure": "park",
        "name": "MC Layout Park",
        "opening_hours": "Mo-Su 05:00-22:00"
      }
    },
    {
      "type": "way",
      "id": 1341451305,
      "center": {
        "lat": 12.9727263,
        "lon": 77.5355278
      },
      "tags": {
        "leisure": "playground"
      }
    },
    {
      "type": "way",
      "id": 1342034576,
      "center": {
        "lat": 12.9701289,
        "lon": 77.535939
      },
      "tags": {
        "amenity": "school",
        "landuse": "education"
      }
    },
    {
      "type": "way",
      "id": 1343404261,
      "center": {
        "lat": 12.9758575,
        "lon": 77.5348799
      },
      "tags": {
        "amenity": "place_of_worship",
        "landuse": "religious",
        "religion": "hindu"
      }
    },
    {
      "type": "way",
      "id": 1343404263,
      "center": {
        "lat": 12.976137,
        "lon": 77.5349584
      },
      "tags": {
        "leisure": "playground"
      }
    },
    {
      "type": "way",
      "id": 1343672607,
      "center": {
        "lat": 12.9738423,
        "lon": 77.5381484
      },
      "tags": {
        "amenity": "place_of_worship",
        "landuse": "religious",
        "name": "Ganesha Temple",
        "name:kn": "ಗಣೇಶ ದೇವಸ್ಥಾನ",
        "religion": "hindu",
        "wheelchair": "no"
      }
    },
    {
      "type": "way",
      "id": 1343672646,
      "center": {
        "lat": 12.9761209,
        "lon": 77.5398028
      },
      "tags": {
        "amenity": "school"
      }
    },
    {
      "type": "way",
      "id": 1343694333,
      "center": {
        "lat": 12.9741462,
        "lon": 77.5307125
      },
      "tags": {
        "addr:city": "Bangalore",
        "addr:housename": "Amarjyothi Nagar",
        "addr:postcode": "560040",
        "addr:street": "Nagarabhavi Road",
        "amenity": "place_of_worship",
        "name": "Shiva Temple",
        "name:kn": "ಶಿವ ದೇವಸ್ಥಾನ",
        "religion": "hindu"
      }
    },
    {
      "type": "way",
      "id": 1343694357,
      "center": {
        "lat": 12.972617,
        "lon": 77.5335921
      },
      "tags": {
        "leisure": "sports_centre"
      }
    },
    {
      "type": "way",
      "id": 1343694376,
      "center": {
        "lat": 12.9749836,
        "lon": 77.5327686
      },
      "tags": {
        "amenity": "college",
        "landuse": "education",
        "name": "KTSV PU College"
      }
    },
    {
      "type": "way",
      "id": 1343740699,
      "center": {
        "lat": 12.9721617,
        "lon": 77.5291013
      },
      "tags": {
        "amenity": "place_of_worship",
        "name": "Anjaneya Swami Temple",
        "name:kn": "ಆಂಜನೇಯ ಸ್ವಾಮಿ ದೇವಸ್ಥಾನ",
        "religion": "hindu",
        "source": "Survey"
      }
    }
  ]
}