{
  "area_name": "Prithvi Layout",
  "osm_id": 1684218036,
  "osm_type": "node",
  "place_type": "neighbourhood",
  "amenity_count": 202,
  "amenities": [
    {
      "type": "node",
      "id": 1080536956,
      "lat": 12.9794141,
      "lon": 77.7513286,
      "tags": {
        "addr:city": "Bangalore",
        "addr:postcode": "560066",
        "addr:street": "Whitefield Main Road",
        "amenity": "cafe",
        "brand": "Cafe Coffee Day",
        "brand:wikidata": "Q5017235",
        "check_date": "2025-07-24",
        "cuisine": "coffee_shop",
        "level": "0",
        "name": "Cafe Coffee Day",
        "name:kn": "ಕಫೆ ಕಾಫಿ ಡೇ",
        "phone": "+91-80-41641300",
        "takeaway": "yes",
        "wheelchair": "limited"
      }
    },
    {
      "type": "node",
      "id": 1081506759,
      "lat": 12.9792064,
      "lon": 77.7513027,
      "tags": {
        "addr:city": "Bangalore",
        "addr:housenumber": "3/3",
        "addr:postcode": "560066",
        "addr:street": "Whitefield Main Road",
        "amenity": "restaurant",
        "check_date": "2025-07-24",
        "cuisine": "chinese",
        "name": "Chung WAH",
        "name:kn": "ಚಂಗ್ ವಾ",
        "phone": "+91-80-41641300"
      }
    },
    {
      "type": "node",
      "id": 1126186796,
      "lat": 12.979677,
      "lon": 77.748098,
      "tags": {
        "addr:housename": "Holy Cross School & College",
        "amenity": "school",
        "designation": "Educational Organization"
      }
    },
    {
      "type": "node",
      "id": 1262057184,
      "lat": 12.9838028,
      "lon": 77.7489996,
      "tags": {
        "amenity": "kindergarten",
        "name": "Apple Kids"
      }
    },
    {
      "type": "node",
      "id": 1264989727,
      "lat": 12.9750892,
      "lon": 77.7509276,
      "tags": {
        "amenity": "bank",
        "atm": "yes",
        "brand:wikidata": "Q1340361",
        "brand:wikipedia": "en:State Bank of India",
        "check_date": "2025-08-19",
        "name": "IDFC First Bank Whitefield",
        "name:kn": "ಭಾರತೀಯ ಸ್ಟೇಟ್ ಬ್ಯಾಂಕ್",
        "short_name": "SBI",
        "website": "https://www.sbi.co.in"
      }
    },
    {
      "type": "node",
      "id": 1434028757,
      "lat": 12.9711752,
      "lon": 77.7480319,
      "tags": {
        "amenity": "fountain",
        "name": "Inner Circle Fountain"
      }
    },
    {
      "type": "node",
      "id": 1434221653,
      "lat": 12.9719429,
      "lon": 77.7487073,
      "tags": {
        "addr:postcode": "560066",
        "addr:street": "Inner Circle",
        "brand": "HOPCOMS",
        "brand:wikidata": "Q22908959",
        "name": "HOPCOMS",
        "name:kn": "ಹಾಪ್ ಕಾಮ್ಸ್",
        "shop": "greengrocer",
        "website": "http://hopcoms.com/"
      }
    },
    {
      "type": "node",
      "id": 1434224680,
      "lat": 12.9791395,
      "lon": 77.7512477,
      "tags": {
        "addr:city": "Bangalore",
        "addr:postcode": "560066",
        "addr:street": "Whitefield Main Road",
        "amenity": "restaurant",
        "check_date": "2025-05-24",
        "cuisine": "kebab",
        "name": "Khan Saheb",
        "name:kn": "ಖಾನ್ ಸಾಹೇಬ್",
        "phone": "+91-80-41641300",
        "wheelchair": "limited"
      }
    },
    {
      "type": "node",
      "id": 1435078367,
      "lat": 12.9792031,
      "lon": 77.7513013,
      "tags": {
        "addr:city": "Bangalore",
        "addr:postcode": "560066",
        "addr:street": "Whitefield Main Road",
        "check_date": "2025-07-24",
        "cuisine": "coffee_shop",
        "level": "0",
        "name": "Karthik Sweets and Chats",
        "phone": "+91-80-41641300",
        "shop": "confectionery"
      }
    },
    {
      "type": "node",
      "id": 1454707814,
      "lat": 12.9687203,
      "lon": 77.7446763,
      "tags": {
        "amenity": "kindergarten",
        "name": "Viha"
      }
    },
    {
      "type": "node",
      "id": 1492407655,
      "lat": 12.9785891,
      "lon": 77.7454478,
      "tags": {
        "amenity": "place_of_worship",
        "name": "Sri Sri Sri Muneshwara Swamy Temple",
        "name:kn": "ಶ್ರೀ ಮುನೇಶ್ವರ ಸ್ವಾಮಿ ದೇವಸ್ಥಾನ",
        "religion": "hindu"
      }
    },
    {
      "type": "node",
      "id": 1511238390,
      "lat": 12.9724603,
      "lon": 77.7506679,
      "tags": {
        "addr:street": "Whitefield Main Road",
        "amenity": "kindergarten",
        "brand": "Maple Bear",
        "brand:wikidata": "Q10324823",
        "check_date": "2025-08-19",
        "name": "Maple Bear Canadian Pre-School",
        "operator:type": "private"
      }
    },
    {
      "type": "node",
      "id": 1711355017,
      "lat": 12.9742243,
      "lon": 77.7466743,
      "tags": {
        "amenity": "kindergarten",
        "name": "Daffodil Pre School"
      }
    },
    {
      "type": "node",
      "id": 1718788975,
      "lat": 12.9753903,
      "lon": 77.7436059,
      "tags": {
        "amenity": "parking"
      }
    },
    {
      "type": "node",
      "id": 1990864085,
      "lat": 12.9746587,
      "lon": 77.74526,
      "tags": {
        "amenity": "school",
        "name": "Indus Early Learning Centre"
      }
    },
    {
      "type": "node",
      "id": 2876321417,
      "lat": 12.9718615,
      "lon": 77.7485791,
      "tags": {
        "amenity": "fast_food"
      }
    },
    {
      "type": "node",
      "id": 3179100221,
      "lat": 12.9825833,
      "lon": 77.7485219,
      "tags": {
        "amenity": "fast_food",
        "name": "Dosa Time"
      }
    },
    {
      "type": "node",
      "id": 3179100222,
      "lat": 12.9825936,
      "lon": 77.7484763,
      "tags": {
        "amenity": "fast_food",
        "name": "Abhiruchi"
      }
    },
    {
      "type": "node",
      "id": 3881381852,
      "lat": 12.9792637,
      "lon": 77.751316,
      "tags": {
        "amenity": "ice_cream",
        "brand": "Baskin-Robbins",
        "brand:wikidata": "Q584601",
        "check_date": "2025-07-24",
        "cuisine": "ice_cream",
        "name": "Baskin-Robbins",
        "wheelchair": "limited"
      }
    },
    {
      "type": "node",
      "id": 4489795667,
      "lat": 12.9721912,
      "lon": 77.7506113,
      "tags": {
        "addr:city": "Bangalore",
        "addr:floor": "1",
        "addr:housename": "Regent Prime",
        "addr:housenumber": "48",
        "addr:postcode": "560066",
        "addr:street": "Whitefield Main Road",
        "brand": "Gold's Gym",
        "brand:wikidata": "Q1536234",
        "check_date": "2025-07-05",
        "leisure": "fitness_centre",
        "level": "1",
        "name": "Gold's Gym",
        "opening_hours": "05:30-21:00",
        "phone": "9900238050",
        "sport": "gymnasium",
        "website": "goldsgymindia.com"
      }
    },
    {
      "type": "node",
      "id": 5165419321,
      "lat": 12.9795928,
      "lon": 77.7506994,
      "tags": {
        "addr:housenumber": "1A/1",
        "addr:postcode": "560066",
        "addr:street": "Whitefield Main Road",
        "amenity": "school",
        "name": "Footprints Preschool and Daycare",
        "opening_hours": "Mo-Fr 09:00-18:30",
        "operator": "Footprints",
        "phone": "9654999677",
        "website": "https://www.footprintseducation.in/"
      }
    },
    {
      "type": "node",
      "id": 5281840006,
      "lat": 12.9691604,
      "lon": 77.7406794,
      "tags": {
        "amenity": "atm",
        "brand": "ICICI Bank",
        "brand:wikidata": "Q1653258",
        "check_date": "2022-04-11",
        "operator": "ICICI Bank",
        "operator:wikidata": "Q1653258",
        "short_name": "ICICI"
      }
    },
    {
      "type": "node",
      "id": 5903298106,
      "lat": 12.9691079,
      "lon": 77.7401494,
      "tags": {
        "leisure": "sports_centre",
        "name": "Muscle Factory Gym"
      }
    },
    {
      "type": "node",
      "id": 5903298108,
      "lat": 12.9690681,
      "lon": 77.7401642,
      "tags": {
        "name": "Roots",
        "shop": "hairdresser"
      }
    },
    {
      "type": "node",
      "id": 6374356467,
      "lat": 12.9788227,
      "lon": 77.7512306,
      "tags": {
        "amenity": "bank",
        "brand": "Ujjivan Small Finance Bank",
        "brand:wikidata": "Q42529272",
        "check_date": "2025-09-08",
        "name": "Ujjivan Small Finance Bank"
      }
    },
    {
      "type": "node",
      "id": 6374356468,
      "lat": 12.9790422,
      "lon": 77.7516788,
      "tags": {
        "amenity": "bank",
        "brand": "Axis Bank",
        "brand:wikidata": "Q2003549",
        "brand:wikipedia": "en:Axis Bank",
        "check_date": "2025-07-03",
        "name": "Axis Bank",
        "name:en": "Axis Bank",
        "name:kn": "ಅಕ್ಸಿಸ್ ಬ್ಯಾಂಕ್",
        "website": "https://www.axisbank.com"
      }
    },
    {
      "type": "node",
      "id": 7132397448,
      "lat": 12.9751437,
      "lon": 77.7509404,
      "tags": {
        "amenity": "bank",
        "atm": "yes",
        "brand": "Bandhan Bank",
        "brand:wikidata": "Q19882235",
        "check_date": "2025-07-11",
        "name": "Bandhan Bank",
        "wheelchair": "limited"
      }
    },
    {
      "type": "node",
      "id": 9002707352,
      "lat": 12.970631,
      "lon": 77.7497565,
      "tags": {
        "addr:city": "Bangalore",
        "addr:postcode": "560066",
        "addr:street": "Whitefield Main Road",
        "amenity": "bank",
        "atm": "yes",
        "branch": "Whitefield Branch",
        "brand": "HDFC Bank",
        "brand:wikidata": "Q631047",
        "brand:wikipedia": "en:HDFC Bank",
        "check_date": "2025-06-14",
        "name": "HDFC Bank",
        "operator": "HDFC",
        "short_name": "HDFC"
      }
    },
    {
      "type": "node",
      "id": 9928560844,
      "lat": 12.9824546,
      "lon": 77.7491971,
      "tags": {
        "name": "Barbershop",
        "shop": "hairdresser"
      }
    },
    {
      "type": "node",
      "id": 9965864177,
      "lat": 12.9728708,
      "lon": 77.7505792,
      "tags": {
        "addr:housenumber": "07",
        "addr:street": "Whitefield Main Road",
        "check_date": "2025-08-26",
        "diet:vegetarian": "only",
        "level": "0",
        "name": "Simpli Namdhari's",
        "organic": "only",
        "payment:cash": "yes",
        "payment:credit_cards": "yes",
        "payment:debit_cards": "yes",
        "shop": "supermarket",
        "website": "https://www.simplinamdharis.com/",
        "wheelchair": "limited"
      }
    },
    {
      "type": "node",
      "id": 10221065256,
      "lat": 12.9828178,
      "lon": 77.7487144,
      "tags": {
        "amenity": "fast_food",
        "cuisine": "juice",
        "name": "Chai Venue"
      }
    },
    {
      "type": "node",
      "id": 10239370048,
      "lat": 12.9707922,
      "lon": 77.7497881,
      "tags": {
        "branch": "Whitefield",
        "brand": "Tanishq",
        "brand:en": "Tanishq",
        "brand:wikidata": "Q13117711",
        "check_date": "2025-08-19",
        "name": "Tanishq",
        "name:en": "Tanishq",
        "operator": "Tata",
        "shop": "jewelry"
      }
    },
    {
      "type": "node",
      "id": 10239407649,
      "lat": 12.9719493,
      "lon": 77.7487625,
      "tags": {
        "amenity": "library",
        "name": "Whitefield Granthalaya"
      }
    },
    {
      "type": "node",
      "id": 10588172014,
      "lat": 12.9826494,
      "lon": 77.7483836,
      "tags": {
        "amenity": "restaurant",
        "name": "Leon's"
      }
    },
    {
      "type": "node",
      "id": 10588172015,
      "lat": 12.9825142,
      "lon": 77.7482292,
      "tags": {
        "name": "City Tasty Bakery",
        "shop": "bakery"
      }
    },
    {
      "type": "node",
      "id": 10695073022,
      "lat": 12.9843198,
      "lon": 77.7492539,
      "tags": {
        "amenity": "kindergarten",
        "name": "Ani Bee"
      }
    },
    {
      "type": "node",
      "id": 10695073023,
      "lat": 12.9841434,
      "lon": 77.7490802,
      "tags": {
        "amenity": "restaurant",
        "name": "Sri Balaji Restaurant"
      }
    },
    {
      "type": "node",
      "id": 10695073024,
      "lat": 12.9842256,
      "lon": 77.7491072,
      "tags": {
        "male": "yes",
        "name": "New Mirage Salon",
        "shop": "hairdresser"
      }
    },
    {
      "type": "node",
      "id": 11228221337,
      "lat": 12.9769538,
      "lon": 77.7512005,
      "tags": {
        "addr:postcode": "560066",
        "addr:street": "Whitefield Main Road",
        "amenity": "prep_school",
        "check_date": "2025-08-26",
        "name": "Allen Career Institute, Whitefield",
        "opening_hours": "Mo-Su 08:30-20:30",
        "phone": "0 92586 88166",
        "website": "https://www.allen.ac.in/bengaluru/",
        "wheelchair": "no"
      }
    },
    {
      "type": "node",
      "id": 11330522955,
      "lat": 12.9704236,
      "lon": 77.7394331,
      "tags": {
        "leisure": "fitness_centre",
        "sport": "fitness"
      }
    },
    {
      "type": "node",
      "id": 11330522956,
      "lat": 12.9704343,
      "lon": 77.7394757,
      "tags": {
        "access": "permit",
        "amenity": "toilets",
        "wheelchair": "no"
      }
    },
    {
      "type": "node",
      "id": 11375174501,
      "lat": 12.9803164,
      "lon": 77.7513407,
      "tags": {
        "brand": "Fabindia",
        "brand:wikidata": "Q5427779",
        "check_date": "2025-07-03",
        "name": "Fabindia",
        "shop": "clothes",
        "wheelchair": "limited"
      }
    },
    {
      "type": "node",
      "id": 11375174502,
      "lat": 12.9803856,
      "lon": 77.7507511,
      "tags": {
        "amenity": "ice_cream",
        "brand": "Corner House",
        "check_date": "2025-07-03",
        "delivery": "yes",
        "name": "Corner House",
        "takeaway": "yes"
      }
    },
    {
      "type": "node",
      "id": 11375280751,
      "lat": 12.9764933,
      "lon": 77.7518991,
      "tags": {
        "access": "private",
        "amenity": "parking_entrance",
        "parking": "underground"
      }
    },
    {
      "type": "node",
      "id": 11375280762,
      "lat": 12.9796424,
      "lon": 77.7514039,
      "tags": {
        "access": "private",
        "amenity": "parking_entrance"
      }
    },
    {
      "type": "node",
      "id": 11534769006,
      "lat": 12.9803766,
      "lon": 77.7510212,
      "tags": {
        "amenity": "restaurant",
        "check_date": "2024-01-21",
        "contact:instagram": "https://www.instagram.com/pocoapoco.bangalore",
        "name": "Poco A Poco"
      }
    },
    {
      "type": "node",
      "id": 11898639322,
      "lat": 12.9727771,
      "lon": 77.7506394,
      "tags": {
        "addr:door": "201-207",
        "addr:housenumber": "07",
        "addr:street": "Whitefield Main Road",
        "alt_name": "Tata Medical Center",
        "amenity": "clinic",
        "branch": "Whitefield",
        "check_date": "2025-08-26",
        "contact:phone": "08069156999",
        "healthcare": "clinic",
        "level": "2",
        "name": "Tata MD",
        "operator": "TATA",
        "operator:type": "private",
        "wheelchair": "yes"
      }
    },
    {
      "type": "node",
      "id": 11898639323,
      "lat": 12.9730818,
      "lon": 77.7506918,
      "tags": {
        "check_date": "2025-07-03",
        "name": "Helios - The Watch store",
        "shop": "watches",
        "wheelchair": "limited"
      }
    },
    {
      "type": "node",
      "id": 11898639325,
      "lat": 12.9727997,
      "lon": 77.7489198,
      "tags": {
        "check_date": "2025-07-13",
        "name": "Garner's Bakery",
        "shop": "bakery"
      }
    },
    {
      "type": "node",
      "id": 11898639328,
      "lat": 12.9687077,
      "lon": 77.7452489,
      "tags": {
        "amenity": "music_school",
        "name": "Muzigal Whitefield"
      }
    },
    {
      "type": "node",
      "id": 11946684145,
      "lat": 12.9827902,
      "lon": 77.7368277,
      "tags": {
        "access": "private",
        "amenity": "parking_entrance",
        "parking": "underground"
      }
    },
    {
      "type": "node",
      "id": 12067619709,
      "lat": 12.9720763,
      "lon": 77.7493598,
      "tags": {
        "name": "Habba Kadal Kashmiri Heritage Hub",
        "shop": "clothes"
      }
    },
    {
      "type": "node",
      "id": 12198326996,
      "lat": 12.9754811,
      "lon": 77.7428661,
      "tags": {
        "access": "private",
        "amenity": "parking_entrance",
        "parking": "underground"
      }
    },
    {
      "type": "node",
      "id": 12198327000,
      "lat": 12.9747408,
      "lon": 77.7426535,
      "tags": {
        "access": "private",
        "amenity": "parking_entrance",
        "parking": "underground"
      }
    },
    {
      "type": "node",
      "id": 12500298577,
      "lat": 12.9694137,
      "lon": 77.7480221,
      "tags": {
        "amenity": "fast_food",
        "name": "Aroma Cafe"
      }
    },
    {
      "type": "node",
      "id": 12500298578,
      "lat": 12.9694276,
      "lon": 77.7477172,
      "tags": {
        "amenity": "fast_food",
        "name": "Sardarji's Kitchen"
      }
    },
    {
      "type": "node",
      "id": 12632035862,
      "lat": 12.9721009,
      "lon": 77.7494234,
      "tags": {
        "amenity": "restaurant",
        "name": "Tarangini Multi-Cuisine Outdoor"
      }
    },
    {
      "type": "node",
      "id": 12632035863,
      "lat": 12.9721976,
      "lon": 77.7494321,
      "tags": {
        "amenity": "restaurant",
        "name": "Habba Kadal Kashmiri Restaurant"
      }
    },
    {
      "type": "node",
      "id": 12852812564,
      "lat": 12.9794216,
      "lon": 77.75129,
      "tags": {
        "brand": "cult.fit",
        "brand:wikidata": "Q121289250",
        "check_date": "2025-07-24",
        "leisure": "fitness_centre",
        "level": "1",
        "name": "Elite Gym"
      }
    },
    {
      "type": "node",
      "id": 12860399903,
      "lat": 12.9792296,
      "lon": 77.75125,
      "tags": {
        "beauty": "hair;spa",
        "brand": "Naturals",
        "brand:wikidata": "Q125728261",
        "check_date": "2025-07-24",
        "level": "1",
        "name": "Naturals",
        "shop": "beauty"
      }
    },
    {
      "type": "node",
      "id": 12860399907,
      "lat": 12.9793737,
      "lon": 77.7513277,
      "tags": {
        "check_date": "2025-05-24",
        "name": "Preferred Store",
        "shop": "clothes"
      }
    },
    {
      "type": "node",
      "id": 12860399908,
      "lat": 12.9793775,
      "lon": 77.7512839,
      "tags": {
        "amenity": "doctors",
        "check_date": "2025-05-24",
        "healthcare": "doctor",
        "healthcare:speciality": "otolaryngology"
      }
    },
    {
      "type": "node",
      "id": 12860399910,
      "lat": 12.9792318,
      "lon": 77.7513063,
      "tags": {
        "brand": "Airtel",
        "brand:wikidata": "Q854867",
        "check_date": "2025-07-01",
        "name": "Airtel",
        "shop": "telecommunication"
      }
    },
    {
      "type": "node",
      "id": 12860399925,
      "lat": 12.972478,
      "lon": 77.750091,
      "tags": {
        "amenity": "place_of_worship",
        "check_date": "2025-07-07",
        "name": "Sri Prasanna Maruthi Temple",
        "religion": "hindu"
      }
    },
    {
      "type": "node",
      "id": 12872632885,
      "lat": 12.9749902,
      "lon": 77.7509286,
      "tags": {
        "amenity": "pharmacy",
        "check_date": "2025-08-19",
        "healthcare": "pharmacy",
        "name": "Ramdev Medicals"
      }
    },
    {
      "type": "node",
      "id": 12923032281,
      "lat": 12.9720094,
      "lon": 77.7487133,
      "tags": {
        "access": "yes",
        "amenity": "toilets",
        "female": "yes",
        "male": "yes"
      }
    },
    {
      "type": "node",
      "id": 12946368098,
      "lat": 12.9727815,
      "lon": 77.7505842,
      "tags": {
        "check_date": "2025-08-26",
        "leisure": "fitness_centre",
        "level": "1",
        "name": "Fitness First"
      }
    },
    {
      "type": "node",
      "id": 12946368099,
      "lat": 12.9712265,
      "lon": 77.7503977,
      "tags": {
        "amenity": "veterinary",
        "check_date": "2025-06-24",
        "name": "V Care Pet Polyclinic"
      }
    },
    {
      "type": "node",
      "id": 12951553765,
      "lat": 12.9728463,
      "lon": 77.7504688,
      "tags": {
        "access": "customers",
        "amenity": "parking_space"
      }
    },
    {
      "type": "node",
      "id": 12951553766,
      "lat": 12.9731349,
      "lon": 77.7505326,
      "tags": {
        "amenity": "cafe",
        "check_date": "2025-08-26",
        "cuisine": "coffee_shop;tea",
        "name": "Street Chai",
        "outdoor_seating": "yes"
      }
    },
    {
      "type": "node",
      "id": 12951553767,
      "lat": 12.9727073,
      "lon": 77.7506077,
      "tags": {
        "addr:door": "307",
        "check_date": "2025-06-25",
        "contact:website": "https://www.samastudio.in",
        "leisure": "fitness_centre",
        "level": "3",
        "name": "Sama",
        "sport": "yoga"
      }
    },
    {
      "type": "node",
      "id": 12951565827,
      "lat": 12.972818,
      "lon": 77.7506469,
      "tags": {
        "addr:door": "304-306",
        "addr:housenumber": "07",
        "addr:street": "Whitefield Main Road",
        "check_date": "2025-06-25",
        "leisure": "escape_game",
        "level": "3",
        "name": "Breakout"
      }
    },
    {
      "type": "node",
      "id": 12951565828,
      "lat": 12.9728577,
      "lon": 77.7506455,
      "tags": {
        "amenity": "dentist",
        "check_date": "2025-08-26",
        "healthcare": "dentist",
        "name": "Kids Dentist"
      }
    },
    {
      "type": "node",
      "id": 12955917169,
      "lat": 12.9749935,
      "lon": 77.7509653,
      "tags": {
        "check_date": "2025-06-27",
        "hairdresser": "barber",
        "name": "Mustache",
        "shop": "hairdresser"
      }
    },
    {
      "type": "node",
      "id": 12972911341,
      "lat": 12.9860032,
      "lon": 77.7452869,
      "tags": {
        "amenity": "atm",
        "brand": "Kotak Mahindra Bank",
        "brand:wikidata": "Q2040404",
        "check_date": "2025-08-13",
        "operator": "Kotak Mahindra Bank",
        "operator:wikidata": "Q2040404"
      }
    },
    {
      "type": "node",
      "id": 12972935724,
      "lat": 12.9790784,
      "lon": 77.7516966,
      "tags": {
        "check_date": "2025-07-03",
        "name": "Tony And Guy",
        "shop": "hairdresser"
      }
    },
    {
      "type": "node",
      "id": 12985062914,
      "lat": 12.9727306,
      "lon": 77.7500936,
      "tags": {
        "amenity": "place_of_worship",
        "check_date": "2025-07-07",
        "name": "Sri Mahaganapathi Temple",
        "religion": "hindu"
      }
    },
    {
      "type": "node",
      "id": 12985062915,
      "lat": 12.9725978,
      "lon": 77.7500645,
      "tags": {
        "amenity": "community_centre",
        "check_date": "2025-07-07",
        "name": "Sri Mahaganapathi Community Center"
      }
    },
    {
      "type": "node",
      "id": 12987428702,
      "lat": 12.9712096,
      "lon": 77.7503378,
      "tags": {
        "check_date": "2025-07-08",
        "level": "0",
        "name": "New Priyanka Stationery",
        "shop": "stationery"
      }
    },
    {
      "type": "node",
      "id": 12987428703,
      "lat": 12.9711899,
      "lon": 77.7503329,
      "tags": {
        "amenity": "fast_food",
        "check_date": "2025-07-08",
        "indoor_seating": "yes",
        "level": "0",
        "name": "Lassi Corner",
        "outdoor_seating": "no"
      }
    },
    {
      "type": "node",
      "id": 12987428704,
      "lat": 12.9711627,
      "lon": 77.7503271,
      "tags": {
        "check_date": "2025-07-08",
        "level": "1",
        "name": "Alpha Enterprises",
        "shop": "power_tools"
      }
    },
    {
      "type": "node",
      "id": 12987428705,
      "lat": 12.9710885,
      "lon": 77.7503176,
      "tags": {
        "amenity": "fast_food",
        "check_date": "2025-07-08",
        "cuisine": "chaat",
        "name": "Bhangarpet Snacks Point"
      }
    },
    {
      "type": "node",
      "id": 12987428706,
      "lat": 12.9710791,
      "lon": 77.7503465,
      "tags": {
        "check_date": "2025-07-08",
        "name": "Mahavir Trades",
        "shop": "trade"
      }
    },
    {
      "type": "node",
      "id": 12987428707,
      "lat": 12.9710748,
      "lon": 77.7503726,
      "tags": {
        "amenity": "fast_food",
        "check_date": "2025-07-08",
        "cuisine": "juice"
      }
    },
    {
      "type": "node",
      "id": 12987428708,
      "lat": 12.9710649,
      "lon": 77.7504113,
      "tags": {
        "amenity": "pharmacy",
        "brand": "MedPlus",
        "brand:wikidata": "Q65684234",
        "check_date": "2025-07-08",
        "healthcare": "pharmacy",
        "name": "MedPlus"
      }
    },
    {
      "type": "node",
      "id": 12996866980,
      "lat": 12.9725089,
      "lon": 77.7488045,
      "tags": {
        "check_date": "2025-07-13",
        "name": "Canoy",
        "shop": "chocolate"
      }
    },
    {
      "type": "node",
      "id": 12996866981,
      "lat": 12.9755193,
      "lon": 77.7437688,
      "tags": {
        "brand": "Nandini",
        "brand:wikidata": "Q124374212",
        "check_date": "2025-07-13",
        "name": "Nandini",
        "shop": "dairy"
      }
    },
    {
      "type": "node",
      "id": 12996866982,
      "lat": 12.9755174,
      "lon": 77.7437119,
      "tags": {
        "check_date": "2025-07-13",
        "name": "St Chaitanya Enterprises",
        "shop": "stationery"
      }
    },
    {
      "type": "node",
      "id": 12997770208,
      "lat": 12.9753446,
      "lon": 77.7459687,
      "tags": {
        "amenity": "fast_food",
        "name": "Happins"
      }
    },
    {
      "type": "node",
      "id": 12997770234,
      "lat": 12.9728615,
      "lon": 77.7491498,
      "tags": {
        "name": "Bangalore Puppy Farm",
        "shop": "pet",
        "website": "https://bangalorepuppyfarm.com/"
      }
    },
    {
      "type": "node",
      "id": 12997791809,
      "lat": 12.9830582,
      "lon": 77.7471656,
      "tags": {
        "amenity": "restaurant",
        "name": "Telugu Aromas"
      }
    },
    {
      "type": "node",
      "id": 12997791810,
      "lat": 12.9830726,
      "lon": 77.7471375,
      "tags": {
        "amenity": "fast_food",
        "cuisine": "pizza",
        "name": "La Pino's"
      }
    },
    {
      "type": "node",
      "id": 13020318616,
      "lat": 12.9815362,
      "lon": 77.7516283,
      "tags": {
        "check_date": "2025-07-24",
        "name": "Cocoon Day Spa",
        "shop": "massage"
      }
    },
    {
      "type": "node",
      "id": 13020318617,
      "lat": 12.9802776,
      "lon": 77.7514389,
      "tags": {
        "check_date": "2025-07-24",
        "name": "The Good Place",
        "shop": "furniture"
      }
    },
    {
      "type": "node",
      "id": 13020318619,
      "lat": 12.9793925,
      "lon": 77.7512601,
      "tags": {
        "check_date": "2025-07-24",
        "name": "Truww",
        "shop": "furniture"
      }
    },
    {
      "type": "node",
      "id": 13123221066,
      "lat": 12.9819298,
      "lon": 77.7389661,
      "tags": {
        "access": "private",
        "amenity": "parking_entrance",
        "parking": "underground"
      }
    },
    {
      "type": "node",
      "id": 13123221076,
      "lat": 12.9822865,
      "lon": 77.7387241,
      "tags": {
        "access": "private",
        "amenity": "parking_entrance",
        "parking": "underground"
      }
    },
    {
      "type": "node",
      "id": 13174823504,
      "lat": 12.974277,
      "lon": 77.7424816,
      "tags": {
        "access": "private",
        "amenity": "parking_entrance"
      }
    },
    {
      "type": "node",
      "id": 13174823510,
      "lat": 12.9733796,
      "lon": 77.7421792,
      "tags": {
        "access": "private",
        "amenity": "parking_entrance"
      }
    },
    {
      "type": "way",
      "id": 122401862,
      "center": {
        "lat": 12.9714391,
        "lon": 77.7481206
      },
      "tags": {
        "barrier": "fence",
        "leisure": "park",
        "name": "Inner Circle Park",
        "name:kn": "ಒಳ ವೃತ್ತ",
        "opening_hours": "Mo-Su 05:00-22:00",
        "wheelchair": "no"
      }
    },
    {
      "type": "way",
      "id": 122668468,
      "center": {
        "lat": 12.9765783,
        "lon": 77.742023
      },
      "tags": {
        "addr:city": "Bangalore",
        "addr:country": "IN",
        "addr:postcode": "560066",
        "addr:street": "Opp. E.C.C, Whitefield,",
        "amenity": "school",
        "name": "The Deen's Academy",
        "phone": "+91-080-28454691 /4693 / 4464",
        "website": "https://deensacademy.com/"
      }
    },
    {
      "type": "way",
      "id": 129843834,
      "center": {
        "lat": 12.9711024,
        "lon": 77.7496555
      },
      "tags": {
        "amenity": "place_of_worship",
        "landuse": "religious",
        "religion": "christian"
      }
    },
    {
      "type": "way",
      "id": 129843837,
      "center": {
        "lat": 12.9706721,
        "lon": 77.7475625
      },
      "tags": {
        "addr:postcode": "560066",
        "addr:street": "Inner Circle",
        "amenity": "school",
        "name": "St. Thomas School",
        "name:kn": "ಸೇಂಟ್ ತೋಮಸ್ ಶಾಲೆ"
      }
    },
    {
      "type": "way",
      "id": 130510276,
      "center": {
        "lat": 12.9708172,
        "lon": 77.7503318
      },
      "tags": {
        "addr:postcode": "560066",
        "addr:street": "Whitefield Main Road",
        "brand": "Reliance Fresh",
        "brand:wikidata": "Q7311014",
        "building": "retail",
        "building:levels": "1",
        "check_date": "2025-07-08",
        "name": "Reliance Fresh",
        "name:kn": "ರಿಲಾಯನ್ಸ್ ಫ್ರೆಶ್",
        "roof:levels": "0",
        "roof:shape": "flat",
        "shop": "supermarket",
        "wheelchair": "limited"
      }
    },
    {
      "type": "way",
      "id": 130631233,
      "center": {
        "lat": 12.9729288,
        "lon": 77.7473121
      },
      "tags": {
        "amenity": "social_facility",
        "email": "chinc.blr@gmail.com",
        "name": "Chesire Homes India",
        "opening_hours": "Mo-Fr 10:00-17:00; Sa 10:00-13:00",
        "phone": "+91 9047011145",
        "social_facility": "day_care",
        "social_facility:for": "disabled"
      }
    },
    {
      "type": "way",
      "id": 130644751,
      "center": {
        "lat": 12.9749759,
        "lon": 77.7389455
      },
      "tags": {
        "landuse": "religious",
        "leisure": "recreation_ground",
        "name": "Ecumenical Christian Centre",
        "religion": "christian"
      }
    },
    {
      "type": "way",
      "id": 130669722,
      "center": {
        "lat": 12.9720693,
        "lon": 77.7483726
      },
      "tags": {
        "leisure": "playground",
        "wheelchair": "no"
      }
    },
    {
      "type": "way",
      "id": 136477081,
      "center": {
        "lat": 12.9737412,
        "lon": 77.7482483
      },
      "tags": {
        "amenity": "school",
        "name": "Cottolengo Special School"
      }
    },
    {
      "type": "way",
      "id": 136507312,
      "center": {
        "lat": 12.9778778,
        "lon": 77.7481154
      },
      "tags": {
        "amenity": "school",
        "name": "Abhayadhama Human Development Center"
      }
    },
    {
      "type": "way",
      "id": 144977760,
      "center": {
        "lat": 12.9805613,
        "lon": 77.743629
      },
      "tags": {
        "leisure": "swimming_pool"
      }
    },
    {
      "type": "way",
      "id": 145128192,
      "center": {
        "lat": 12.9715992,
        "lon": 77.7496968
      },
      "tags": {
        "leisure": "social_club"
      }
    },
    {
      "type": "way",
      "id": 145130450,
      "center": {
        "lat": 12.9816106,
        "lon": 77.7440305
      },
      "tags": {
        "leisure": "swimming_pool"
      }
    },
    {
      "type": "way",
      "id": 145130455,
      "center": {
        "lat": 12.9823215,
        "lon": 77.7443008
      },
      "tags": {
        "leisure": "swimming_pool"
      }
    },
    {
      "type": "way",
      "id": 147380607,
      "center": {
        "lat": 12.9800593,
        "lon": 77.7513938
      },
      "tags": {
        "addr:housenumber": "132",
        "addr:postcode": "560066",
        "addr:street": "Whitefield Main Road",
        "building": "yes",
        "building:colour": "grey",
        "building:levels": "1",
        "check_date": "2025-07-01",
        "name": "Royal Mart Supermarket",
        "roof:levels": "0",
        "roof:orientation": "along",
        "roof:shape": "gabled",
        "shop": "supermarket",
        "wheelchair": "no"
      }
    },
    {
      "type": "way",
      "id": 156134928,
      "center": {
        "lat": 12.9722906,
        "lon": 77.7426603
      },
      "tags": {
        "leisure": "garden"
      }
    },
    {
      "type": "way",
      "id": 159031314,
      "center": {
        "lat": 12.9767075,
        "lon": 77.7504301
      },
      "tags": {
        "leisure": "park",
        "name": "St. Joseph's Convent Playground"
      }
    },
    {
      "type": "way",
      "id": 159031330,
      "center": {
        "lat": 12.9766724,
        "lon": 77.7495518
      },
      "tags": {
        "addr:street": "Whitefield Main Road",
        "amenity": "school",
        "check_date": "2025-05-24",
        "email": "sjcems2011@gmail.com",
        "name": "St. Joseph's Convent High School",
        "phone": "080-28457985",
        "religion": "christian",
        "website": "http:sjcemswhitefield"
      }
    },
    {
      "type": "way",
      "id": 159033029,
      "center": {
        "lat": 12.9766175,
        "lon": 77.7418829
      },
      "tags": {
        "access": "private",
        "leisure": "swimming_pool",
        "sport": "swimming"
      }
    },
    {
      "type": "way",
      "id": 159033031,
      "center": {
        "lat": 12.976887,
        "lon": 77.7417489
      },
      "tags": {
        "access": "private",
        "amenity": "parking",
        "parking": "surface"
      }
    },
    {
      "type": "way",
      "id": 159766768,
      "center": {
        "lat": 12.9702285,
        "lon": 77.7479843
      },
      "tags": {
        "amenity": "kindergarten",
        "name": "The Bangalore School"
      }
    },
    {
      "type": "way",
      "id": 168345821,
      "center": {
        "lat": 12.9790583,
        "lon": 77.7480207
      },
      "tags": {
        "addr:postcode": "560066",
        "amenity": "school",
        "name": "Holy Cross School & College",
        "website": "http://hcscwhitefield.com/"
      }
    },
    {
      "type": "way",
      "id": 184160588,
      "center": {
        "lat": 12.9838291,
        "lon": 77.7440519
      },
      "tags": {
        "addr:street": "E C C Road",
        "building": "yes",
        "name": "Loyal City Super Market",
        "opening_hours": "Mo-Su 07:30-22:30",
        "shop": "supermarket"
      }
    },
    {
      "type": "way",
      "id": 240027932,
      "center": {
        "lat": 12.9695604,
        "lon": 77.7485072
      },
      "tags": {
        "addr:city": "Bangalore",
        "addr:postcode": "560066",
        "addr:street": "Outer Circle",
        "amenity": "kindergarten",
        "name": "Seven Senses School Whitefield"
      }
    },
    {
      "type": "way",
      "id": 283807073,
      "center": {
        "lat": 12.9703247,
        "lon": 77.7480171
      },
      "tags": {
        "leisure": "garden"
      }
    },
    {
      "type": "way",
      "id": 346449367,
      "center": {
        "lat": 12.9829065,
        "lon": 77.7478025
      },
      "tags": {
        "amenity": "hospital",
        "building": "yes",
        "emergency": "no",
        "healthcare": "hospital",
        "name": "Amrik Hospital"
      }
    },
    {
      "type": "way",
      "id": 346736766,
      "center": {
        "lat": 12.9683562,
        "lon": 77.7446522
      },
      "tags": {
        "amenity": "school",
        "building": "school",
        "building:levels": "2",
        "name": "Eurokids"
      }
    },
    {
      "type": "way",
      "id": 346736918,
      "center": {
        "lat": 12.970843,
        "lon": 77.7441901
      },
      "tags": {
        "leisure": "swimming_pool"
      }
    },
    {
      "type": "way",
      "id": 348455090,
      "center": {
        "lat": 12.9745549,
        "lon": 77.7499753
      },
      "tags": {
        "amenity": "place_of_worship",
        "building": "church",
        "building:levels": "2",
        "check_date": "2025-05-24",
        "denomination": "roman_catholic",
        "name": "Our Lady of Lourdes Church",
        "name:kn": "ಅವರ್ ಲೇಡಿ ಅಫ್ ಲೂರ್ಡ್ಸ್ ಚರ್ಚ್",
        "religion": "christian",
        "roof:levels": "1"
      }
    },
    {
      "type": "way",
      "id": 477485293,
      "center": {
        "lat": 12.9711533,
        "lon": 77.749805
      },
      "tags": {
        "amenity": "place_of_worship",
        "building": "church",
        "building:levels": "1",
        "check_date": "2025-07-05",
        "denomination": "anglican",
        "historic": "yes",
        "name": "CSI KCD Memorial Church",
        "religion": "christian",
        "roof:levels": "0",
        "roof:shape": "gabled",
        "start_date": "1886"
      }
    },
    {
      "type": "way",
      "id": 518601921,
      "center": {
        "lat": 12.9714648,
        "lon": 77.7451309
      },
      "tags": {
        "leisure": "garden"
      }
    },
    {
      "type": "way",
      "id": 552563427,
      "center": {
        "lat": 12.9826757,
        "lon": 77.7379987
      },
      "tags": {
        "amenity": "restaurant",
        "building": "yes"
      }
    },
    {
      "type": "way",
      "id": 552563503,
      "center": {
        "lat": 12.983558,
        "lon": 77.7376936
      },
      "tags": {
        "leisure": "park"
      }
    },
    {
      "type": "way",
      "id": 628000743,
      "center": {
        "lat": 12.9728803,
        "lon": 77.7435881
      },
      "tags": {
        "access": "private",
        "leisure": "swimming_pool"
      }
    },
    {
      "type": "way",
      "id": 662550834,
      "center": {
        "lat": 12.9790701,
        "lon": 77.741741
      },
      "tags": {
        "shop": "storage_rental"
      }
    },
    {
      "type": "way",
      "id": 673658384,
      "center": {
        "lat": 12.9691814,
        "lon": 77.7416475
      },
      "tags": {
        "name": "Top in Town Hypermarket",
        "shop": "supermarket"
      }
    },
    {
      "type": "way",
      "id": 673658389,
      "center": {
        "lat": 12.9684819,
        "lon": 77.7416592
      },
      "tags": {
        "amenity": "school",
        "name": "Narayana School",
        "name:kn": "ನಾರಾಯಣ ಶಾಲೆ"
      }
    },
    {
      "type": "way",
      "id": 675403660,
      "center": {
        "lat": 12.9730236,
        "lon": 77.7355154
      },
      "tags": {
        "amenity": "grave_yard",
        "landuse": "cemetery"
      }
    },
    {
      "type": "way",
      "id": 763007407,
      "center": {
        "lat": 12.9755616,
        "lon": 77.7524201
      },
      "tags": {
        "access": "private",
        "leisure": "pitch",
        "sport": "tennis"
      }
    },
    {
      "type": "way",
      "id": 773145619,
      "center": {
        "lat": 12.9796526,
        "lon": 77.7481856
      },
      "tags": {
        "leisure": "park"
      }
    },
    {
      "type": "way",
      "id": 773145620,
      "center": {
        "lat": 12.9789375,
        "lon": 77.7480521
      },
      "tags": {
        "leisure": "pitch",
        "sport": "basketball"
      }
    },
    {
      "type": "way",
      "id": 1072344870,
      "center": {
        "lat": 12.9757501,
        "lon": 77.7521828
      },
      "tags": {
        "access": "private",
        "leisure": "swimming_pool"
      }
    },
    {
      "type": "way",
      "id": 1084458397,
      "center": {
        "lat": 12.9839812,
        "lon": 77.7441181
      },
      "tags": {
        "access": "private",
        "leisure": "swimming_pool"
      }
    },
    {
      "type": "way",
      "id": 1087693697,
      "center": {
        "lat": 12.9738994,
        "lon": 77.7510564
      },
      "tags": {
        "access": "private",
        "leisure": "swimming_pool"
      }
    },
    {
      "type": "way",
      "id": 1087693700,
      "center": {
        "lat": 12.9767588,
        "lon": 77.7523738
      },
      "tags": {
        "access": "private",
        "leisure": "swimming_pool"
      }
    },
    {
      "type": "way",
      "id": 1088209026,
      "center": {
        "lat": 12.9753821,
        "lon": 77.7511064
      },
      "tags": {
        "amenity": "police",
        "check_date": "2025-06-10",
        "name": "Whitefield Police Station -Office of the Deputy Commisionner"
      }
    },
    {
      "type": "way",
      "id": 1135846628,
      "center": {
        "lat": 12.9835296,
        "lon": 77.7489362
      },
      "tags": {
        "leisure": "park"
      }
    },
    {
      "type": "way",
      "id": 1147662042,
      "center": {
        "lat": 12.9767332,
        "lon": 77.7405962
      },
      "tags": {
        "leisure": "swimming_pool"
      }
    },
    {
      "type": "way",
      "id": 1147662046,
      "center": {
        "lat": 12.9792722,
        "lon": 77.7433084
      },
      "tags": {
        "access": "private",
        "leisure": "swimming_pool",
        "location": "outdoor"
      }
    },
    {
      "type": "way",
      "id": 1151983185,
      "center": {
        "lat": 12.96916,
        "lon": 77.7455248
      },
      "tags": {
        "addr:street": "Borewell Road",
        "amenity": "kindergarten",
        "name": "The Foundation",
        "preschool": "yes"
      }
    },
    {
      "type": "way",
      "id": 1151983199,
      "center": {
        "lat": 12.9690167,
        "lon": 77.7444709
      },
      "tags": {
        "amenity": "kindergarten",
        "name": "Kideens"
      }
    },
    {
      "type": "way",
      "id": 1151983204,
      "center": {
        "lat": 12.9688012,
        "lon": 77.7431517
      },
      "tags": {
        "access": "private",
        "leisure": "swimming_pool",
        "location": "outdoor",
        "swimming_pool": "outdoor"
      }
    },
    {
      "type": "way",
      "id": 1151983229,
      "center": {
        "lat": 12.970298,
        "lon": 77.7425324
      },
      "tags": {
        "access": "private",
        "leisure": "swimming_pool",
        "location": "outdoor",
        "swimming_pool": "personal"
      }
    },
    {
      "type": "way",
      "id": 1151983231,
      "center": {
        "lat": 12.9700747,
        "lon": 77.7445209
      },
      "tags": {
        "access": "private",
        "leisure": "swimming_pool",
        "location": "outdoor",
        "swimming_pool": "personal"
      }
    },
    {
      "type": "way",
      "id": 1153852642,
      "center": {
        "lat": 12.9784809,
        "lon": 77.7358452
      },
      "tags": {
        "access": "private",
        "leisure": "swimming_pool",
        "location": "outdoor",
        "swimming_pool": "outdoor"
      }
    },
    {
      "type": "way",
      "id": 1153852651,
      "center": {
        "lat": 12.9766547,
        "lon": 77.7397494
      },
      "tags": {
        "amenity": "kindergarten",
        "barrier": "wall",
        "name": "Mont Ivy Preschools",
        "website": "https://www.montivy.com/"
      }
    },
    {
      "type": "way",
      "id": 1153852652,
      "center": {
        "lat": 12.976608,
        "lon": 77.7399133
      },
      "tags": {
        "amenity": "kindergarten",
        "barrier": "wall"
      }
    },
    {
      "type": "way",
      "id": 1153852660,
      "center": {
        "lat": 12.9739932,
        "lon": 77.7429714
      },
      "tags": {
        "access": "private",
        "leisure": "swimming_pool",
        "location": "outdoor",
        "swimming_pool": "outdoor"
      }
    },
    {
      "type": "way",
      "id": 1155369188,
      "center": {
        "lat": 12.9705625,
        "lon": 77.7482487
      },
      "tags": {
        "amenity": "kindergarten",
        "building": "residential",
        "name": "Naavi"
      }
    },
    {
      "type": "way",
      "id": 1155369196,
      "center": {
        "lat": 12.9718092,
        "lon": 77.7494707
      },
      "tags": {
        "building": "yes",
        "leisure": "fitness_centre",
        "name": "Akshar Power Yoga Academy",
        "sport": "yoga"
      }
    },
    {
      "type": "way",
      "id": 1221681637,
      "center": {
        "lat": 12.9699468,
        "lon": 77.7398319
      },
      "tags": {
        "access": "private",
        "leisure": "playground"
      }
    },
    {
      "type": "way",
      "id": 1221681638,
      "center": {
        "lat": 12.9711731,
        "lon": 77.739867
      },
      "tags": {
        "access": "private",
        "leisure": "pitch",
        "sport": "basketball"
      }
    },
    {
      "type": "way",
      "id": 1221681639,
      "center": {
        "lat": 12.9711881,
        "lon": 77.7394955
      },
      "tags": {
        "leisure": "pitch",
        "sport": "badminton"
      }
    },
    {
      "type": "way",
      "id": 1221684626,
      "center": {
        "lat": 12.970372,
        "lon": 77.73944
      },
      "tags": {
        "access": "private",
        "amenity": "community_centre",
        "building": "yes",
        "building:levels": "2"
      }
    },
    {
      "type": "way",
      "id": 1221684627,
      "center": {
        "lat": 12.9703961,
        "lon": 77.7393528
      },
      "tags": {
        "access": "private",
        "leisure": "swimming_pool",
        "lit": "yes",
        "location": "outdoor",
        "swimming_pool": "above"
      }
    },
    {
      "type": "way",
      "id": 1221684628,
      "center": {
        "lat": 12.9704505,
        "lon": 77.7393728
      },
      "tags": {
        "access": "private",
        "leisure": "swimming_pool",
        "swimming_pool": "kids"
      }
    },
    {
      "type": "way",
      "id": 1239790342,
      "center": {
        "lat": 12.9759883,
        "lon": 77.7402814
      },
      "tags": {
        "leisure": "pitch",
        "name": "Ashpire Tennis Academy",
        "sport": "tennis"
      }
    },
    {
      "type": "way",
      "id": 1278838213,
      "center": {
        "lat": 12.9704096,
        "lon": 77.7374479
      },
      "tags": {
        "building": "yes",
        "leisure": "sports_centre",
        "lit": "yes",
        "name": "SKVM",
        "sport": "badminton;table_tennis"
      }
    },
    {
      "type": "way",
      "id": 1278852356,
      "center": {
        "lat": 12.9704457,
        "lon": 77.7374593
      },
      "tags": {
        "leisure": "pitch",
        "sport": "badminton"
      }
    },
    {
      "type": "way",
      "id": 1288213011,
      "center": {
        "lat": 12.9825864,
        "lon": 77.7366836
      },
      "tags": {
        "access": "permissive",
        "amenity": "parking",
        "parking": "surface"
      }
    },
    {
      "type": "way",
      "id": 1302227108,
      "center": {
        "lat": 12.9837506,
        "lon": 77.7430781
      },
      "tags": {
        "leisure": "pitch",
        "sport": "tennis",
        "wheelchair": "no"
      }
    },
    {
      "type": "way",
      "id": 1302227109,
      "center": {
        "lat": 12.9838507,
        "lon": 77.742846
      },
      "tags": {
        "access": "private",
        "leisure": "swimming_pool"
      }
    },
    {
      "type": "way",
      "id": 1314991483,
      "center": {
        "lat": 12.9775769,
        "lon": 77.7518152
      },
      "tags": {
        "addr:housenumber": "237",
        "amenity": "monastery",
        "check_date": "2025-07-03",
        "denomination": "catholic",
        "landuse": "religious",
        "name": "Maria Ashram",
        "religion": "christian"
      }
    },
    {
      "type": "way",
      "id": 1318030223,
      "center": {
        "lat": 12.9730704,
        "lon": 77.7438884
      },
      "tags": {
        "leisure": "playground"
      }
    },
    {
      "type": "way",
      "id": 1318030224,
      "center": {
        "lat": 12.9730667,
        "lon": 77.7436697
      },
      "tags": {
        "access": "private",
        "leisure": "pitch",
        "sport": "tennis"
      }
    },
    {
      "type": "way",
      "id": 1318030225,
      "center": {
        "lat": 12.9738148,
        "lon": 77.7422995
      },
      "tags": {
        "access": "private",
        "leisure": "swimming_pool"
      }
    },
    {
      "type": "way",
      "id": 1318030226,
      "center": {
        "lat": 12.9729883,
        "lon": 77.7431407
      },
      "tags": {
        "access": "private",
        "leisure": "swimming_pool"
      }
    },
    {
      "type": "way",
      "id": 1318030843,
      "center": {
        "lat": 12.9747596,
        "lon": 77.742563
      },
      "tags": {
        "access": "private",
        "amenity": "parking",
        "parking": "street_side"
      }
    },
    {
      "type": "way",
      "id": 1318030845,
      "center": {
        "lat": 12.9751858,
        "lon": 77.742682
      },
      "tags": {
        "access": "private",
        "leisure": "swimming_pool"
      }
    },
    {
      "type": "way",
      "id": 1318032785,
      "center": {
        "lat": 12.9715352,
        "lon": 77.746414
      },
      "tags": {
        "building": "yes",
        "leisure": "fitness_centre",
        "name": "KRS Yoga",
        "sport": "yoga"
      }
    },
    {
      "type": "way",
      "id": 1318032788,
      "center": {
        "lat": 12.976171,
        "lon": 77.7384171
      },
      "tags": {
        "access": "private",
        "leisure": "swimming_pool"
      }
    },
    {
      "type": "way",
      "id": 1318032791,
      "center": {
        "lat": 12.9773988,
        "lon": 77.7403011
      },
      "tags": {
        "access": "private",
        "leisure": "swimming_pool"
      }
    },
    {
      "type": "way",
      "id": 1318038680,
      "center": {
        "lat": 12.9760876,
        "lon": 77.7416119
      },
      "tags": {
        "leisure": "pitch",
        "sport": "basketball"
      }
    },
    {
      "type": "way",
      "id": 1330900834,
      "center": {
        "lat": 12.9686918,
        "lon": 77.7416598
      },
      "tags": {
        "leisure": "pitch"
      }
    },
    {
      "type": "way",
      "id": 1330900835,
      "center": {
        "lat": 12.9688468,
        "lon": 77.7416632
      },
      "tags": {
        "leisure": "pitch"
      }
    },
    {
      "type": "way",
      "id": 1333112395,
      "center": {
        "lat": 12.9752821,
        "lon": 77.7517234
      },
      "tags": {
        "leisure": "garden"
      }
    },
    {
      "type": "way",
      "id": 1333112396,
      "center": {
        "lat": 12.9756262,
        "lon": 77.7525018
      },
      "tags": {
        "leisure": "garden"
      }
    },
    {
      "type": "way",
      "id": 1360924189,
      "center": {
        "lat": 12.971903,
        "lon": 77.7488488
      },
      "tags": {
        "leisure": "pitch",
        "sport": "volleyball"
      }
    },
    {
      "type": "way",
      "id": 1385087391,
      "center": {
        "lat": 12.9810109,
        "lon": 77.7402381
      },
      "tags": {
        "access": "private",
        "leisure": "park"
      }
    },
    {
      "type": "way",
      "id": 1385087392,
      "center": {
        "lat": 12.9832797,
        "lon": 77.7431255
      },
      "tags": {
        "amenity": "car_rental",
        "name": "Everest Fleet"
      }
    },
    {
      "type": "way",
      "id": 1414469224,
      "center": {
        "lat": 12.968987,
        "lon": 77.7448185
      },
      "tags": {
        "amenity": "fuel",
        "brand": "Go Gas"
      }
    },
    {
      "type": "way",
      "id": 1414473381,
      "center": {
        "lat": 12.9722179,
        "lon": 77.7462852
      },
      "tags": {
        "access": "private",
        "leisure": "pitch",
        "sport": "tennis"
      }
    },
    {
      "type": "way",
      "id": 1414473383,
      "center": {
        "lat": 12.972506,
        "lon": 77.7495268
      },
      "tags": {
        "amenity": "kindergarten",
        "check_date": "2025-07-13",
        "name": "Greenwood High Pre-school"
      }
    },
    {
      "type": "way",
      "id": 1414577179,
      "center": {
        "lat": 12.9764027,
        "lon": 77.7467817
      },
      "tags": {
        "leisure": "garden"
      }
    },
    {
      "type": "way",
      "id": 1414639331,
      "center": {
        "lat": 12.9817445,
        "lon": 77.7376656
      },
      "tags": {
        "access": "permissive",
        "amenity": "parking",
        "parking": "surface"
      }
    },
    {
      "type": "way",
      "id": 1427496513,
      "center": {
        "lat": 12.977981,
        "lon": 77.7407835
      },
      "tags": {
        "access": "private",
        "leisure": "pitch",
        "sport": "tennis"
      }
    },
    {
      "type": "way",
      "id": 1427496514,
      "center": {
        "lat": 12.9780831,
        "lon": 77.7408102
      },
      "tags": {
        "access": "private",
        "leisure": "playground"
      }
    },
    {
      "type": "way",
      "id": 1427496533,
      "center": {
        "lat": 12.983525,
        "lon": 77.7439269
      },
      "tags": {
        "access": "private",
        "leisure": "playground"
      }
    },
    {
      "type": "way",
      "id": 1427496536,
      "center": {
        "lat": 12.9821702,
        "lon": 77.7395351
      },
      "tags": {
        "access": "private",
        "leisure": "swimming_pool"
      }
    },
    {
      "type": "way",
      "id": 1427501312,
      "center": {
        "lat": 12.9815357,
        "lon": 77.7423538
      },
      "tags": {
        "leisure": "pitch",
        "sport": "roller_skating"
      }
    },
    {
      "type": "way",
      "id": 1427501316,
      "center": {
        "lat": 12.9822218,
        "lon": 77.7404888
      },
      "tags": {
        "access": "private",
        "leisure": "pitch",
        "sport": "tennis"
      }
    },
    {
      "type": "way",
      "id": 1427501317,
      "center": {
        "lat": 12.9817633,
        "lon": 77.7403922
      },
      "tags": {
        "access": "private",
        "leisure": "pitch",
        "sport": "basketball"
      }
    },
    {
      "type": "way",
      "id": 1427501321,
      "center": {
        "lat": 12.9816576,
        "lon": 77.7414669
      },
      "tags": {
        "access": "private",
        "leisure": "swimming_pool"
      }
    }
  ]
}