{
  "area_name": "R.T Nagar",
  "osm_id": 19883245,
  "osm_type": "relation",
  "place_type": "administrative",
  "amenity_count": 26,
  "amenities": [
    {
      "type": "node",
      "id": 582591613,
      "lat": 13.0216684,
      "lon": 77.5928265,
      "tags": {
        "amenity": "post_office",
        "name": "Rabindranath Tagore Nagar",
        "name:kn": "ರವೀಂದ್ರನಾಥ ಠಾಗೋರ್ ನಗರ"
      }
    },
    {
      "type": "node",
      "id": 850751637,
      "lat": 13.0248113,
      "lon": 77.5934442,
      "tags": {
        "amenity": "atm",
        "name": "Vijaya Bank",
        "name:kn": "ವಿಜಯ ಬ್ಯಾಂಕು"
      }
    },
    {
      "type": "node",
      "id": 1474819328,
      "lat": 13.023831,
      "lon": 77.5929101,
      "tags": {
        "name": "UniverCell Store",
        "shop": "convenience"
      }
    },
    {
      "type": "node",
      "id": 1474819330,
      "lat": 13.0233034,
      "lon": 77.5928133,
      "tags": {
        "amenity": "restaurant",
        "diet:vegetarian": "only",
        "name": "New Shanti Sagar",
        "name:kn": "ನ್ಯೂ ಶಾಂತಿ ಸಾಗರ್"
      }
    },
    {
      "type": "node",
      "id": 3591576155,
      "lat": 13.0207677,
      "lon": 77.5929009,
      "tags": {
        "amenity": "cafe",
        "brand": "Cafe Coffee Day",
        "brand:wikidata": "Q5017235",
        "cuisine": "coffee_shop",
        "name": "Cafe Coffee Day",
        "name:kn": "ಕಫೆ ಕಾಫಿ ಡೇ",
        "takeaway": "yes"
      }
    },
    {
      "type": "node",
      "id": 3591577007,
      "lat": 13.0207547,
      "lon": 77.5929974,
      "tags": {
        "name": "Namdhari Fresh",
        "shop": "supermarket"
      }
    },
    {
      "type": "node",
      "id": 3591592755,
      "lat": 13.0207547,
      "lon": 77.5930859,
      "tags": {
        "amenity": "bank",
        "atm": "yes",
        "brand": "Andhra Bank",
        "brand:wikidata": "Q2003476",
        "brand:wikipedia": "en:Andhra Bank",
        "name": "Andhra Bank",
        "name:en": "Andhra Bank",
        "name:kn": "ಆಂಧ್ರ ಬ್ಯಾಂಕ್",
        "website": "https://www.andhrabank.in"
      }
    },
    {
      "type": "node",
      "id": 4422272112,
      "lat": 13.022359,
      "lon": 77.5927417,
      "tags": {
        "amenity": "restaurant",
        "name": "Al Bek"
      }
    },
    {
      "type": "node",
      "id": 4446306864,
      "lat": 13.02454,
      "lon": 77.5950447,
      "tags": {
        "addr:city": "Bangalore",
        "addr:housenumber": "#1",
        "addr:postcode": "560032",
        "addr:street": "Dinnur Main Road,  Dinnur Main Road, Ex Servicemen Colony,RT Nagar",
        "amenity": "pharmacy",
        "name": "Popular Medical And General",
        "phone": "08023338662",
        "source": "bangalorehospital.co.in"
      }
    },
    {
      "type": "node",
      "id": 4446312739,
      "lat": 13.0237176,
      "lon": 77.5928768,
      "tags": {
        "addr:city": "Bangalore",
        "addr:housenumber": "#3",
        "addr:postcode": "560032",
        "addr:street": "RT Nagar Main Road,  80 Feet Main Road, P&T Colony",
        "amenity": "pharmacy",
        "name": "Trust Chemists Druggists",
        "phone": "080 4128 4949",
        "source": "http://www.bangalorehospital.co.in/"
      }
    },
    {
      "type": "node",
      "id": 4446992566,
      "lat": 13.0216774,
      "lon": 77.5927881,
      "tags": {
        "addr:city": "bangalore",
        "addr:housenumber": "16",
        "addr:postcode": "560032,",
        "addr:street": "RT Nagar Main Road",
        "amenity": "pharmacy",
        "name": "Sri Srinivasa Medicals",
        "phone": "+91 80 2353 5499",
        "source": "www.justdial.com"
      }
    },
    {
      "type": "node",
      "id": 4489722790,
      "lat": 13.0241827,
      "lon": 77.5929161,
      "tags": {
        "addr:city": "Bangalore",
        "addr:housenumber": "#11/12",
        "addr:postcode": "560032",
        "addr:street": ",Unique Center, 1st Floor, Above Unilet Electronics, 80 Feet Rd,, , RT Nagar, Bhadrappa Layout, P&T Colony, RT Nagar, Bengaluru, Karnataka 560032",
        "leisure": "sports_centre",
        "name": "Group Ex Fitness Revolution",
        "opening_hours": "6:00-21:00",
        "phone": "\"090190 31031",
        "website": "https://groupex.co.in/"
      }
    },
    {
      "type": "node",
      "id": 4489850392,
      "lat": 13.0242132,
      "lon": 77.5929468,
      "tags": {
        "addr:city": "Bangalore",
        "addr:housenumber": "5, 2nd Floor",
        "addr:postcode": "560032",
        "addr:street": ", Above-Vivek Show Room, Next To-R T Nagar Police Station, R T Nagar, P&T Colony, RT Nagar, Bengaluru, Karnataka",
        "leisure": "sports_centre",
        "name": "Cuts and Curves",
        "opening_hours": "6:00-22:00",
        "phone": "080 2343 5320",
        "website": "https://agarwalpacking.in/"
      }
    },
    {
      "type": "node",
      "id": 6937890455,
      "lat": 13.0237316,
      "lon": 77.5941463,
      "tags": {
        "addr:district": "Bengaluru Urban",
        "addr:full": "No 80, P&T Colony R T Nagar",
        "addr:postcode": "560032",
        "addr:state": "Karnataka",
        "amenity": "hospital",
        "name": "Chaitanya Hospital",
        "name:kn": "ಚೈತನ್ಯ ಆಸ್ಪತ್ರೆ",
        "source": "OpenGovernmentData"
      }
    },
    {
      "type": "node",
      "id": 6947430278,
      "lat": 13.0263344,
      "lon": 77.595128,
      "tags": {
        "addr:district": "Bengaluru Urban",
        "addr:full": "#200/A, Hmt Layout, Karthik Complex, Dinnur Main Road, R.T. Nagar",
        "addr:postcode": "560032",
        "addr:state": "Karnataka",
        "amenity": "hospital",
        "name": "Poornima Hospital",
        "source": "OpenGovernmentData"
      }
    },
    {
      "type": "node",
      "id": 6948590938,
      "lat": 13.0241863,
      "lon": 77.5960574,
      "tags": {
        "addr:district": "Bengaluru Urban",
        "addr:full": "No.2, Ex-Servicemen Colony, 5Th Cross, Dinnur Main Road, R.T.Nagar",
        "addr:postcode": "560032",
        "addr:state": "Karnataka",
        "amenity": "hospital",
        "name": "Premier Hospital",
        "source": "OpenGovernmentData"
      }
    },
    {
      "type": "node",
      "id": 8288337665,
      "lat": 13.0327874,
      "lon": 77.5965496,
      "tags": {
        "amenity": "school",
        "name": "Sukrupa School"
      }
    },
    {
      "type": "node",
      "id": 8684335453,
      "lat": 13.0329988,
      "lon": 77.5991477,
      "tags": {
        "amenity": "fuel",
        "brand": "Bharat Petroleum",
        "brand:wikidata": "Q854826",
        "name": "Bharat Petroleum",
        "name:kn": "ಭಾರತ್ ಪೆಟ್ರೋಲಿಯಂ"
      }
    },
    {
      "type": "node",
      "id": 8910937692,
      "lat": 13.0166985,
      "lon": 77.5916282,
      "tags": {
        "shop": "camera"
      }
    },
    {
      "type": "node",
      "id": 10293921744,
      "lat": 13.0244058,
      "lon": 77.5941852,
      "tags": {
        "diet:vegetarian": "only",
        "name": "Simpli Namdhari's",
        "organic": "only",
        "shop": "supermarket",
        "website": "https://www.simplinamdharis.com/"
      }
    },
    {
      "type": "node",
      "id": 13062869382,
      "lat": 13.0207254,
      "lon": 77.593135,
      "tags": {
        "addr:city": "Bengaluru",
        "addr:country": "IN",
        "amenity": "cafe",
        "brand": "Starbucks",
        "brand:wikidata": "Q37158",
        "cuisine": "coffee_shop",
        "name": "Starbucks",
        "official_name": "Starbucks Coffee",
        "takeaway": "yes"
      }
    },
    {
      "type": "way",
      "id": 45740314,
      "center": {
        "lat": 13.0218574,
        "lon": 77.5935145
      },
      "tags": {
        "leisure": "park"
      }
    },
    {
      "type": "way",
      "id": 353374337,
      "center": {
        "lat": 13.0220269,
        "lon": 77.5928761
      },
      "tags": {
        "amenity": "school",
        "name": "Florence School"
      }
    },
    {
      "type": "way",
      "id": 1386042651,
      "center": {
        "lat": 13.0246853,
        "lon": 77.5931961
      },
      "tags": {
        "amenity": "police",
        "name": "RT Nagar Police Station",
        "name:kn": "ಆರ್ ಟಿ ನಗರ ಪೊಲೀಸ್ ಠಾಣೆ"
      }
    },
    {
      "type": "way",
      "id": 1386060476,
      "center": {
        "lat": 13.0333663,
        "lon": 77.5979688
      },
      "tags": {
        "amenity": "college",
        "landuse": "education",
        "name": "Rajiv Gandhi Institute of Technology"
      }
    },
    {
      "type": "way",
      "id": 1386060477,
      "center": {
        "lat": 13.0338347,
        "lon": 77.5974269
      },
      "tags": {
        "addr:city": "Bangalore",
        "addr:postcode": "560032",
        "addr:street": "Cholanagar",
        "amenity": "college",
        "description": "Dental College and Hospital",
        "landuse": "education",
        "name": "Sri Rajiv Gandhi College of Dental Sciences & Hospital",
        "opening_hours": "Mo-Sa 08:30-15:30",
        "phone": "+918023339377",
        "website": "https://srgcds.ac.in"
      }
    }
  ]
}