{
  "area_name": "Rainbow Layout",
  "osm_id": 10310634700,
  "osm_type": "node",
  "place_type": "neighbourhood",
  "amenity_count": 6,
  "amenities": [
    {
      "type": "node",
      "id": 8226727454,
      "lat": 13.0972087,
      "lon": 77.5454177,
      "tags": {
        "amenity": "place_of_worship",
        "name": "Ambabavani Temple",
        "religion": "hindu"
      }
    },
    {
      "type": "way",
      "id": 1127727174,
      "center": {
        "lat": 13.0911878,
        "lon": 77.5400421
      },
      "tags": {
        "amenity": "events_venue",
        "landuse": "commercial",
        "name": "The King's Meadows"
      }
    },
    {
      "type": "way",
      "id": 1308141572,
      "center": {
        "lat": 13.1038517,
        "lon": 77.5339321
      },
      "tags": {
        "amenity": "crematorium",
        "name": "MS Palya Crematorium"
      }
    },
    {
      "type": "way",
      "id": 1380270901,
      "center": {
        "lat": 13.0946055,
        "lon": 77.5464251
      },
      "tags": {
        "leisure": "park"
      }
    },
    {
      "type": "way",
      "id": 1382219451,
      "center": {
        "lat": 13.0947813,
        "lon": 77.5319416
      },
      "tags": {
        "amenity": "school",
        "name": "Basil Woods Nature School"
      }
    },
    {
      "type": "way",
      "id": 1382219456,
      "center": {
        "lat": 13.1074317,
        "lon": 77.5358002
      },
      "tags": {
        "amenity": "events_venue",
        "landuse": "commercial",
        "name": "The Peacock Grove"
      }
    }
  ]
}