{
  "area_name": "Raja Kempegowda Ward",
  "osm_id": 19883340,
  "osm_type": "relation",
  "place_type": "administrative",
  "amenity_count": 106,
  "amenities": [
    {
      "type": "node",
      "id": 959519402,
      "lat": 13.104987,
      "lon": 77.5834226,
      "tags": {
        "amenity": "atm"
      }
    },
    {
      "type": "node",
      "id": 4294672289,
      "lat": 13.1044636,
      "lon": 77.5950418,
      "tags": {
        "amenity": "place_of_worship",
        "check_date": "2024-10-19",
        "name": "Chowdeshwari Temple",
        "name:kn": "ಚೌಡೇಶ್ವರಿ ದೇವಸ್ಥಾನ",
        "religion": "hindu"
      }
    },
    {
      "type": "node",
      "id": 5964485859,
      "lat": 13.1214753,
      "lon": 77.5764289,
      "tags": {
        "name": "Nice Mart",
        "shop": "supermarket"
      }
    },
    {
      "type": "node",
      "id": 7230029017,
      "lat": 13.1192444,
      "lon": 77.5803637,
      "tags": {
        "amenity": "parking"
      }
    },
    {
      "type": "node",
      "id": 7230029018,
      "lat": 13.1199262,
      "lon": 77.5796905,
      "tags": {
        "amenity": "parking"
      }
    },
    {
      "type": "node",
      "id": 7230109758,
      "lat": 13.1282982,
      "lon": 77.5725666,
      "tags": {
        "amenity": "restaurant",
        "diet:vegetarian": "only",
        "name": "Hotel Annalakshmi Pure Veg",
        "name:kn": "ಹೊಟೆಲ್ ಅನ್ನಲಕ್ಷ್ಮೀ"
      }
    },
    {
      "type": "node",
      "id": 10971673165,
      "lat": 13.1296016,
      "lon": 77.5718933,
      "tags": {
        "amenity": "restaurant",
        "name": "Hindustan Petroleum"
      }
    },
    {
      "type": "node",
      "id": 10971673167,
      "lat": 13.1284262,
      "lon": 77.5725129,
      "tags": {
        "amenity": "fast_food",
        "name": "Chatkaara"
      }
    },
    {
      "type": "node",
      "id": 11921193978,
      "lat": 13.1165088,
      "lon": 77.5769527,
      "tags": {
        "access": "private",
        "amenity": "parking_entrance",
        "parking": "underground"
      }
    },
    {
      "type": "node",
      "id": 11921193984,
      "lat": 13.1164167,
      "lon": 77.5760025,
      "tags": {
        "access": "private",
        "amenity": "parking_entrance",
        "parking": "underground"
      }
    },
    {
      "type": "node",
      "id": 11936590820,
      "lat": 13.1307467,
      "lon": 77.5801217,
      "tags": {
        "amenity": "place_of_worship",
        "religion": "hindu"
      }
    },
    {
      "type": "node",
      "id": 12182158537,
      "lat": 13.1317503,
      "lon": 77.5768382,
      "tags": {
        "amenity": "parking_entrance"
      }
    },
    {
      "type": "node",
      "id": 12182158538,
      "lat": 13.1317507,
      "lon": 77.576866,
      "tags": {
        "amenity": "parking_entrance"
      }
    },
    {
      "type": "node",
      "id": 12265289946,
      "lat": 13.1044366,
      "lon": 77.5932085,
      "tags": {
        "check_date": "2024-10-19",
        "name": "Halal Chicken And Mutton Shop",
        "shop": "butcher"
      }
    },
    {
      "type": "node",
      "id": 12265289947,
      "lat": 13.1049635,
      "lon": 77.5931418,
      "tags": {
        "amenity": "cafe",
        "check_date": "2024-10-19",
        "name": "Chai Victory"
      }
    },
    {
      "type": "node",
      "id": 12265289948,
      "lat": 13.1049816,
      "lon": 77.5930021,
      "tags": {
        "check_date": "2024-10-19",
        "shop": "butcher"
      }
    },
    {
      "type": "node",
      "id": 12265289949,
      "lat": 13.1049846,
      "lon": 77.5929666,
      "tags": {
        "check_date": "2024-10-19",
        "shop": "furniture"
      }
    },
    {
      "type": "node",
      "id": 12265289950,
      "lat": 13.1050815,
      "lon": 77.5928726,
      "tags": {
        "amenity": "restaurant",
        "check_date": "2024-10-19",
        "name": "Mashallah Biryani Hotel"
      }
    },
    {
      "type": "node",
      "id": 12265289951,
      "lat": 13.1049954,
      "lon": 77.5926681,
      "tags": {
        "check_date": "2024-10-19",
        "shop": "motorcycle_repair"
      }
    },
    {
      "type": "node",
      "id": 12265468720,
      "lat": 13.1044382,
      "lon": 77.5949177,
      "tags": {
        "check_date": "2024-10-19",
        "shop": "copyshop"
      }
    },
    {
      "type": "node",
      "id": 12265468721,
      "lat": 13.1044197,
      "lon": 77.594893,
      "tags": {
        "check_date": "2024-10-19",
        "hairdresser": "barber",
        "name": "Decent Men's Saloon",
        "shop": "hairdresser"
      }
    },
    {
      "type": "node",
      "id": 12265477651,
      "lat": 13.1056592,
      "lon": 77.5923809,
      "tags": {
        "amenity": "cafe",
        "check_date": "2024-10-19",
        "name": "Ganesh Tea Stall"
      }
    },
    {
      "type": "node",
      "id": 12265477652,
      "lat": 13.1070396,
      "lon": 77.5925207,
      "tags": {
        "check_date": "2024-10-19",
        "hairdresser": "barber",
        "shop": "hairdresser"
      }
    },
    {
      "type": "node",
      "id": 12265477653,
      "lat": 13.1076341,
      "lon": 77.5924695,
      "tags": {
        "check_date": "2024-10-19",
        "shop": "medical_supply"
      }
    },
    {
      "type": "node",
      "id": 12265477654,
      "lat": 13.1076683,
      "lon": 77.5924406,
      "tags": {
        "amenity": "clinic",
        "check_date": "2024-10-19",
        "healthcare": "clinic"
      }
    },
    {
      "type": "node",
      "id": 12265477655,
      "lat": 13.1084092,
      "lon": 77.5921543,
      "tags": {
        "check_date": "2024-10-19",
        "shop": "convenience"
      }
    },
    {
      "type": "node",
      "id": 12265477656,
      "lat": 13.1086111,
      "lon": 77.5920466,
      "tags": {
        "amenity": "cafe",
        "check_date": "2024-10-19"
      }
    },
    {
      "type": "node",
      "id": 12265477657,
      "lat": 13.108711,
      "lon": 77.592022,
      "tags": {
        "check_date": "2024-10-19",
        "shop": "butcher"
      }
    },
    {
      "type": "node",
      "id": 12265477658,
      "lat": 13.1088511,
      "lon": 77.591943,
      "tags": {
        "check_date": "2024-10-19",
        "shop": "convenience"
      }
    },
    {
      "type": "node",
      "id": 12265477659,
      "lat": 13.1089445,
      "lon": 77.5919121,
      "tags": {
        "check_date": "2024-10-19",
        "hairdresser": "barber",
        "shop": "hairdresser"
      }
    },
    {
      "type": "node",
      "id": 12265477660,
      "lat": 13.1092423,
      "lon": 77.5917385,
      "tags": {
        "check_date": "2024-10-19",
        "shop": "butcher"
      }
    },
    {
      "type": "node",
      "id": 12265477661,
      "lat": 13.1095352,
      "lon": 77.5916213,
      "tags": {
        "amenity": "place_of_worship",
        "check_date": "2024-10-19",
        "religion": "hindu"
      }
    },
    {
      "type": "node",
      "id": 12265477662,
      "lat": 13.1115398,
      "lon": 77.590945,
      "tags": {
        "amenity": "kindergarten",
        "check_date": "2024-10-19",
        "name": "Mighty Champs"
      }
    },
    {
      "type": "node",
      "id": 12285080578,
      "lat": 13.1352128,
      "lon": 77.5792006,
      "tags": {
        "amenity": "bench",
        "armrest": "yes",
        "backrest": "yes",
        "direction": "245",
        "material": "stone",
        "seats": "3"
      }
    },
    {
      "type": "node",
      "id": 12285080579,
      "lat": 13.1353423,
      "lon": 77.5791338,
      "tags": {
        "amenity": "bench",
        "armrest": "yes",
        "backrest": "yes",
        "direction": "249",
        "material": "stone",
        "seats": "3"
      }
    },
    {
      "type": "node",
      "id": 12285080580,
      "lat": 13.1354991,
      "lon": 77.5790525,
      "tags": {
        "amenity": "bench",
        "armrest": "yes",
        "backrest": "yes",
        "direction": "242",
        "material": "stone",
        "seats": "3"
      }
    },
    {
      "type": "node",
      "id": 12285080581,
      "lat": 13.1356257,
      "lon": 77.5789918,
      "tags": {
        "amenity": "bench",
        "armrest": "yes",
        "backrest": "yes",
        "direction": "246",
        "material": "stone",
        "seats": "3"
      }
    },
    {
      "type": "node",
      "id": 12285080582,
      "lat": 13.1357414,
      "lon": 77.5789384,
      "tags": {
        "amenity": "bench",
        "armrest": "yes",
        "backrest": "yes",
        "direction": "246",
        "material": "stone",
        "seats": "3"
      }
    },
    {
      "type": "node",
      "id": 12285080583,
      "lat": 13.1358919,
      "lon": 77.5788737,
      "tags": {
        "amenity": "bench",
        "armrest": "yes",
        "backrest": "yes",
        "direction": "240",
        "material": "stone",
        "seats": "3"
      }
    },
    {
      "type": "node",
      "id": 12285080584,
      "lat": 13.1359651,
      "lon": 77.5788524,
      "tags": {
        "blind": "yes",
        "fitness_station": "yes",
        "leisure": "fitness_station",
        "sport": "fitness",
        "wheelchair": "yes"
      }
    },
    {
      "type": "node",
      "id": 12285080585,
      "lat": 13.1360649,
      "lon": 77.5788029,
      "tags": {
        "amenity": "bench",
        "armrest": "yes",
        "backrest": "yes",
        "direction": "244",
        "material": "stone",
        "seats": "3"
      }
    },
    {
      "type": "node",
      "id": 12285080586,
      "lat": 13.1361634,
      "lon": 77.5787555,
      "tags": {
        "amenity": "bench",
        "armrest": "yes",
        "backrest": "yes",
        "direction": "244",
        "material": "stone",
        "seats": "3"
      }
    },
    {
      "type": "node",
      "id": 12285080587,
      "lat": 13.1361946,
      "lon": 77.5787619,
      "tags": {
        "access": "permissive",
        "addr:floor": "G",
        "amenity": "toilets",
        "changing_table": "no",
        "check_date": "2024-10-24",
        "level": "0",
        "toilets:disposal": "flush",
        "wheelchair": "no"
      }
    },
    {
      "type": "node",
      "id": 12285108619,
      "lat": 13.1348324,
      "lon": 77.5795426,
      "tags": {
        "amenity": "cafe",
        "check_date": "2024-10-24",
        "cuisine": "tea;coffee_shop",
        "internet_access": "no",
        "name": "Chai Adda",
        "wheelchair": "no"
      }
    },
    {
      "type": "node",
      "id": 12285108620,
      "lat": 13.1350623,
      "lon": 77.5825561,
      "tags": {
        "amenity": "place_of_worship",
        "check_date": "2024-10-24",
        "name": "Sri Veeranjaneya Swamy Temple",
        "religion": "hindu"
      }
    },
    {
      "type": "node",
      "id": 12285362618,
      "lat": 13.1339736,
      "lon": 77.5775622,
      "tags": {
        "leisure": "playground"
      }
    },
    {
      "type": "node",
      "id": 12475125696,
      "lat": 13.1051029,
      "lon": 77.5846969,
      "tags": {
        "amenity": "fountain"
      }
    },
    {
      "type": "node",
      "id": 12475183767,
      "lat": 13.1070086,
      "lon": 77.5822775,
      "tags": {
        "amenity": "fountain"
      }
    },
    {
      "type": "way",
      "id": 133125287,
      "center": {
        "lat": 13.1184672,
        "lon": 77.575678
      },
      "tags": {
        "addr:street": "Doddaballapur Road",
        "amenity": "school",
        "name": "Kendriya Vidyalaya CRPF",
        "name:kn": "ಕೇಂದ್ರಿಯ ವಿದ್ಯಾಲಯ"
      }
    },
    {
      "type": "way",
      "id": 628258487,
      "center": {
        "lat": 13.1166813,
        "lon": 77.5760199
      },
      "tags": {
        "leisure": "swimming_pool"
      }
    },
    {
      "type": "way",
      "id": 628258488,
      "center": {
        "lat": 13.1172702,
        "lon": 77.5761464
      },
      "tags": {
        "leisure": "swimming_pool"
      }
    },
    {
      "type": "way",
      "id": 766720021,
      "center": {
        "lat": 13.1247842,
        "lon": 77.5764128
      },
      "tags": {
        "amenity": "hospital",
        "name": "CRPF Hospital",
        "name:kn": "ಕೇಂದ್ರ ಮೀಸಲು ಪಡೆ ಆಸ್ಪತ್ರೆ",
        "wheelchair": "yes"
      }
    },
    {
      "type": "way",
      "id": 766720031,
      "center": {
        "lat": 13.1189023,
        "lon": 77.5793208
      },
      "tags": {
        "leisure": "swimming_pool"
      }
    },
    {
      "type": "way",
      "id": 769087220,
      "center": {
        "lat": 13.1354402,
        "lon": 77.5726691
      },
      "tags": {
        "leisure": "garden"
      }
    },
    {
      "type": "way",
      "id": 769087221,
      "center": {
        "lat": 13.134384,
        "lon": 77.5732705
      },
      "tags": {
        "access": "private",
        "leisure": "swimming_pool"
      }
    },
    {
      "type": "way",
      "id": 769087222,
      "center": {
        "lat": 13.1339869,
        "lon": 77.5736274
      },
      "tags": {
        "leisure": "pitch",
        "sport": "tennis"
      }
    },
    {
      "type": "way",
      "id": 773577280,
      "center": {
        "lat": 13.1089877,
        "lon": 77.5813237
      },
      "tags": {
        "alt_name": "Kalyana Mantapa",
        "amenity": "community_centre",
        "name": "Utsava Convention Hall"
      }
    },
    {
      "type": "way",
      "id": 774954546,
      "center": {
        "lat": 13.1217871,
        "lon": 77.5771072
      },
      "tags": {
        "access": "permissive",
        "leisure": "swimming_pool"
      }
    },
    {
      "type": "way",
      "id": 774954554,
      "center": {
        "lat": 13.1193345,
        "lon": 77.579716
      },
      "tags": {
        "leisure": "garden"
      }
    },
    {
      "type": "way",
      "id": 774954555,
      "center": {
        "lat": 13.119537,
        "lon": 77.5796718
      },
      "tags": {
        "leisure": "garden"
      }
    },
    {
      "type": "way",
      "id": 774962881,
      "center": {
        "lat": 13.133619,
        "lon": 77.5735765
      },
      "tags": {
        "access": "permissive",
        "leisure": "swimming_pool"
      }
    },
    {
      "type": "way",
      "id": 774962886,
      "center": {
        "lat": 13.1332213,
        "lon": 77.572187
      },
      "tags": {
        "access": "permissive",
        "leisure": "swimming_pool"
      }
    },
    {
      "type": "way",
      "id": 774962901,
      "center": {
        "lat": 13.1304009,
        "lon": 77.5715772
      },
      "tags": {
        "amenity": "fuel",
        "brand": "Shell",
        "brand:wikidata": "Q110716465",
        "name": "Shell",
        "name:kn": "ಶೆಲ್",
        "operator": "Shell"
      }
    },
    {
      "type": "way",
      "id": 963357016,
      "center": {
        "lat": 13.1230152,
        "lon": 77.5656143
      },
      "tags": {
        "leisure": "playground"
      }
    },
    {
      "type": "way",
      "id": 963357017,
      "center": {
        "lat": 13.1227285,
        "lon": 77.5650757
      },
      "tags": {
        "amenity": "school",
        "name": "Nagarjuna Vidytaniketan",
        "name:kn": "ನಾಗಾರ್ಜುನ ವಿದ್ಯಾನಿಕೇತನ"
      }
    },
    {
      "type": "way",
      "id": 1178383669,
      "center": {
        "lat": 13.1260353,
        "lon": 77.5643094
      },
      "tags": {
        "amenity": "community_centre",
        "name": "Le Roma Gardenia"
      }
    },
    {
      "type": "way",
      "id": 1182880586,
      "center": {
        "lat": 13.1166792,
        "lon": 77.5800714
      },
      "tags": {
        "amenity": "hospital",
        "name": "KPTCL Hospital Yelahanka"
      }
    },
    {
      "type": "way",
      "id": 1182954956,
      "center": {
        "lat": 13.1052837,
        "lon": 77.5958233
      },
      "tags": {
        "amenity": "place_of_worship",
        "religion": "hindu"
      }
    },
    {
      "type": "way",
      "id": 1191456538,
      "center": {
        "lat": 13.1056291,
        "lon": 77.5956324
      },
      "tags": {
        "amenity": "shelter",
        "building": "yes",
        "shelter_type": "gazebo"
      }
    },
    {
      "type": "way",
      "id": 1191456542,
      "center": {
        "lat": 13.1091002,
        "lon": 77.5939958
      },
      "tags": {
        "amenity": "shelter",
        "building": "yes",
        "shelter_type": "gazebo"
      }
    },
    {
      "type": "way",
      "id": 1191456544,
      "center": {
        "lat": 13.1117097,
        "lon": 77.5911693
      },
      "tags": {
        "leisure": "fitness_station",
        "sport": "fitness"
      }
    },
    {
      "type": "way",
      "id": 1191456545,
      "center": {
        "lat": 13.1127538,
        "lon": 77.590038
      },
      "tags": {
        "amenity": "place_of_worship",
        "building": "yes",
        "religion": "hindu"
      }
    },
    {
      "type": "way",
      "id": 1191456546,
      "center": {
        "lat": 13.1128294,
        "lon": 77.5893182
      },
      "tags": {
        "amenity": "shelter",
        "building": "yes",
        "shelter_type": "gazebo"
      }
    },
    {
      "type": "way",
      "id": 1231892096,
      "center": {
        "lat": 13.1069896,
        "lon": 77.5821817
      },
      "tags": {
        "leisure": "garden"
      }
    },
    {
      "type": "way",
      "id": 1238373962,
      "center": {
        "lat": 13.1105693,
        "lon": 77.5803939
      },
      "tags": {
        "leisure": "park"
      }
    },
    {
      "type": "way",
      "id": 1253477223,
      "center": {
        "lat": 13.1187138,
        "lon": 77.5790869
      },
      "tags": {
        "leisure": "pitch",
        "sport": "tennis"
      }
    },
    {
      "type": "way",
      "id": 1285043003,
      "center": {
        "lat": 13.129887,
        "lon": 77.5769788
      },
      "tags": {
        "access": "private",
        "leisure": "swimming_pool"
      }
    },
    {
      "type": "way",
      "id": 1285043004,
      "center": {
        "lat": 13.1294677,
        "lon": 77.5772491
      },
      "tags": {
        "leisure": "playground"
      }
    },
    {
      "type": "way",
      "id": 1285043005,
      "center": {
        "lat": 13.1291766,
        "lon": 77.5774221
      },
      "tags": {
        "leisure": "pitch",
        "sport": "tennis"
      }
    },
    {
      "type": "way",
      "id": 1285043072,
      "center": {
        "lat": 13.1181849,
        "lon": 77.5766007
      },
      "tags": {
        "access": "permissive",
        "amenity": "parking",
        "parking": "surface"
      }
    },
    {
      "type": "way",
      "id": 1285043073,
      "center": {
        "lat": 13.1177446,
        "lon": 77.5769259
      },
      "tags": {
        "leisure": "pitch",
        "sport": "basketball"
      }
    },
    {
      "type": "way",
      "id": 1285043177,
      "center": {
        "lat": 13.1165088,
        "lon": 77.5767897
      },
      "tags": {
        "access": "permissive",
        "amenity": "parking",
        "parking": "surface"
      }
    },
    {
      "type": "way",
      "id": 1285043178,
      "center": {
        "lat": 13.1164032,
        "lon": 77.5753589
      },
      "tags": {
        "access": "permissive",
        "amenity": "parking",
        "parking": "surface"
      }
    },
    {
      "type": "way",
      "id": 1286741500,
      "center": {
        "lat": 13.1353718,
        "lon": 77.5828377
      },
      "tags": {
        "leisure": "park"
      }
    },
    {
      "type": "way",
      "id": 1287042045,
      "center": {
        "lat": 13.1245916,
        "lon": 77.5651355
      },
      "tags": {
        "access": "private",
        "leisure": "pitch",
        "sport": "basketball"
      }
    },
    {
      "type": "way",
      "id": 1287042046,
      "center": {
        "lat": 13.1243565,
        "lon": 77.565061
      },
      "tags": {
        "access": "private",
        "leisure": "pitch",
        "sport": "tennis"
      }
    },
    {
      "type": "way",
      "id": 1287042047,
      "center": {
        "lat": 13.1246777,
        "lon": 77.5665718
      },
      "tags": {
        "access": "private",
        "leisure": "swimming_pool",
        "lit": "yes",
        "location": "surface",
        "swimming_pool": "swimming"
      }
    },
    {
      "type": "way",
      "id": 1327860331,
      "center": {
        "lat": 13.1328409,
        "lon": 77.5773734
      },
      "tags": {
        "leisure": "swimming_pool"
      }
    },
    {
      "type": "way",
      "id": 1348650311,
      "center": {
        "lat": 13.1041965,
        "lon": 77.5848869
      },
      "tags": {
        "leisure": "garden"
      }
    },
    {
      "type": "way",
      "id": 1348650366,
      "center": {
        "lat": 13.1110495,
        "lon": 77.5802926
      },
      "tags": {
        "amenity": "place_of_worship",
        "landuse": "religious",
        "religion": "hindu"
      }
    },
    {
      "type": "way",
      "id": 1348650371,
      "center": {
        "lat": 13.1087079,
        "lon": 77.5810132
      },
      "tags": {
        "leisure": "garden"
      }
    },
    {
      "type": "way",
      "id": 1348650372,
      "center": {
        "lat": 13.109019,
        "lon": 77.5808986
      },
      "tags": {
        "leisure": "garden"
      }
    },
    {
      "type": "way",
      "id": 1348650373,
      "center": {
        "lat": 13.1093558,
        "lon": 77.5808619
      },
      "tags": {
        "access": "private",
        "amenity": "parking",
        "parking": "surface"
      }
    },
    {
      "type": "way",
      "id": 1348650383,
      "center": {
        "lat": 13.107419,
        "lon": 77.5820288
      },
      "tags": {
        "leisure": "garden"
      }
    },
    {
      "type": "way",
      "id": 1348650385,
      "center": {
        "lat": 13.1049579,
        "lon": 77.5841367
      },
      "tags": {
        "leisure": "garden"
      }
    },
    {
      "type": "way",
      "id": 1348650387,
      "center": {
        "lat": 13.1048985,
        "lon": 77.5846774
      },
      "tags": {
        "leisure": "garden"
      }
    },
    {
      "type": "way",
      "id": 1348650388,
      "center": {
        "lat": 13.1047065,
        "lon": 77.5850382
      },
      "tags": {
        "leisure": "garden"
      }
    },
    {
      "type": "way",
      "id": 1348650389,
      "center": {
        "lat": 13.1043753,
        "lon": 77.5850315
      },
      "tags": {
        "leisure": "garden"
      }
    },
    {
      "type": "way",
      "id": 1348650390,
      "center": {
        "lat": 13.1045542,
        "lon": 77.5846801
      },
      "tags": {
        "leisure": "garden"
      }
    },
    {
      "type": "way",
      "id": 1348650391,
      "center": {
        "lat": 13.1047325,
        "lon": 77.5843139
      },
      "tags": {
        "leisure": "garden"
      }
    },
    {
      "type": "way",
      "id": 1348650393,
      "center": {
        "lat": 13.1044269,
        "lon": 77.5843441
      },
      "tags": {
        "leisure": "garden"
      }
    },
    {
      "type": "way",
      "id": 1348650394,
      "center": {
        "lat": 13.1042958,
        "lon": 77.5842742
      },
      "tags": {
        "access": "private",
        "amenity": "parking",
        "parking": "surface"
      }
    },
    {
      "type": "way",
      "id": 1348650395,
      "center": {
        "lat": 13.1041324,
        "lon": 77.58466
      },
      "tags": {
        "access": "private",
        "amenity": "parking",
        "parking": "surface"
      }
    },
    {
      "type": "way",
      "id": 1348650420,
      "center": {
        "lat": 13.1066696,
        "lon": 77.5820577
      },
      "tags": {
        "leisure": "garden"
      }
    },
    {
      "type": "way",
      "id": 1365364522,
      "center": {
        "lat": 13.116599,
        "lon": 77.5642066
      },
      "tags": {
        "amenity": "events_venue",
        "landuse": "commercial",
        "name": "Le Terra Gardens"
      }
    },
    {
      "type": "way",
      "id": 1451528748,
      "center": {
        "lat": 13.1390779,
        "lon": 77.5818143
      },
      "tags": {
        "amenity": "fuel"
      }
    }
  ]
}