{
  "area_name": "Raja Mayura Varma Ward",
  "osm_id": 19883315,
  "osm_type": "relation",
  "place_type": "administrative",
  "amenity_count": 6,
  "amenities": [
    {
      "type": "node",
      "id": 1474001855,
      "lat": 13.0011459,
      "lon": 77.5359798,
      "tags": {
        "amenity": "hospital",
        "emergency": "yes",
        "healthcare": "hospital",
        "name": "Punya Hospital"
      }
    },
    {
      "type": "node",
      "id": 8187962395,
      "lat": 13.0012148,
      "lon": 77.5358056,
      "tags": {
        "addr:full": "Pipeline Rd, Rajkumar statue, JC Nagar, Kurubarahalli, Basaweshwara Nagar, Bengaluru, Karnataka",
        "addr:state": "Karnataka",
        "amenity": "bank",
        "brand": "Canara Bank",
        "brand:en": "Canara Bank",
        "brand:hi": "केनरा बैंक",
        "brand:kn": "ಕೆನರಾ ಬ್ಯಾಂಕ್",
        "brand:pa": "ਕੇਨਰਾ ਬੈਂਕ",
        "brand:pnb": "کینرا بینک",
        "brand:ur": "کینرا بینک",
        "brand:wikidata": "Q2003777",
        "brand:wikipedia": "en:Canara Bank",
        "brand:wikipedia:pa": "ਕੇਨਰਾ ਬੈਂਕ",
        "name": "Canara Bank",
        "name:en": "Canara Bank",
        "name:hi": "केनरा बैंक",
        "name:kn": "ಕೆನರಾ ಬ್ಯಾಂಕ್",
        "name:pa": "ਕੇਨਰਾ ਬੈਂਕ",
        "name:pnb": "کینرا بینک",
        "name:ur": "کینرا بینک"
      }
    },
    {
      "type": "node",
      "id": 8240881807,
      "lat": 12.9997124,
      "lon": 77.529906,
      "tags": {
        "name": "Mangalore Fish Center",
        "shop": "seafood"
      }
    },
    {
      "type": "way",
      "id": 133946174,
      "center": {
        "lat": 13.0008297,
        "lon": 77.5352069
      },
      "tags": {
        "leisure": "park"
      }
    },
    {
      "type": "way",
      "id": 133946305,
      "center": {
        "lat": 13.0006134,
        "lon": 77.534341
      },
      "tags": {
        "leisure": "park"
      }
    },
    {
      "type": "way",
      "id": 412935366,
      "center": {
        "lat": 13.0010146,
        "lon": 77.5360114
      },
      "tags": {
        "leisure": "playground"
      }
    }
  ]
}