{
  "area_name": "Rajajinagar 6th Block",
  "osm_id": 1813501240,
  "osm_type": "node",
  "place_type": "neighbourhood",
  "amenity_count": 238,
  "amenities": [
    {
      "type": "node",
      "id": 1348265190,
      "lat": 12.9827809,
      "lon": 77.5592036,
      "tags": {
        "addr:city": "Bengaluru",
        "addr:postcode": "560010",
        "addr:street": "1st Main Road",
        "name": "Total Superstore",
        "organic": "yes",
        "shop": "supermarket",
        "website": "http://www.totalsuperstore.com/"
      }
    },
    {
      "type": "node",
      "id": 1474821301,
      "lat": 12.9818644,
      "lon": 77.5488914,
      "tags": {
        "amenity": "place_of_worship",
        "name": "Hanuman Temple",
        "name:kn": "ಹನುಮಂತ ದೇವಸ್ಥಾನ",
        "religion": "hindu"
      }
    },
    {
      "type": "node",
      "id": 1474821306,
      "lat": 12.9822699,
      "lon": 77.5489012,
      "tags": {
        "amenity": "place_of_worship",
        "name": "Ganesha Temple",
        "name:kn": "ಗಣೇಶ ದೇವಸ್ಥಾನ",
        "religion": "hindu"
      }
    },
    {
      "type": "node",
      "id": 1474821308,
      "lat": 12.9831177,
      "lon": 77.5486996,
      "tags": {
        "amenity": "community_centre",
        "name": "Shivaprabha Kalyana Mantapa"
      }
    },
    {
      "type": "node",
      "id": 1474821311,
      "lat": 12.978954,
      "lon": 77.5493836,
      "tags": {
        "amenity": "bank",
        "brand": "State Bank of India",
        "brand:wikidata": "Q1340361",
        "brand:wikipedia": "en:State Bank of India",
        "name": "State Bank of India",
        "name:kn": "ಭಾರತೀಯ ಸ್ಟೇಟ್ ಬ್ಯಾಂಕ್",
        "short_name": "SBI",
        "website": "https://www.sbi.co.in"
      }
    },
    {
      "type": "node",
      "id": 1474827888,
      "lat": 12.9739042,
      "lon": 77.5475916,
      "tags": {
        "amenity": "atm",
        "operator": "HDFC Bank ATM"
      }
    },
    {
      "type": "node",
      "id": 1474827898,
      "lat": 12.973967,
      "lon": 77.5479135,
      "tags": {
        "amenity": "hospital",
        "name": "Shivakrupa Hospital",
        "name:kn": "ಶಿವಕೃಪ ಆಸ್ಪತ್ರೆ"
      }
    },
    {
      "type": "node",
      "id": 1778953948,
      "lat": 12.9771222,
      "lon": 77.5466032,
      "tags": {
        "amenity": "fuel",
        "brand": "Hindustan Petroleum",
        "brand:wikidata": "Q1619375",
        "name": "HP Petrol Bunk",
        "name:kn": "ಹಿಂದುಸ್ತಾನ್ ಪೆಟ್ರೋಲಿಯಂ",
        "official_name": "Hindustan Petroleum",
        "wheelchair": "yes"
      }
    },
    {
      "type": "node",
      "id": 1813501241,
      "lat": 12.9831416,
      "lon": 77.5593081,
      "tags": {
        "amenity": "fast_food",
        "brand": "Domino's",
        "brand:ks": "ڈومینوز",
        "brand:pa": "ਡੋਮੀਨੋਜ਼",
        "brand:ur": "ڈومینوز",
        "brand:wikidata": "Q839466",
        "brand:wikipedia": "en:Domino's Pizza",
        "cuisine": "pizza",
        "name": "Domino's",
        "name:kn": "ಡಾಮಿನೋಸ್",
        "name:ks": "ڈومینوز",
        "name:pa": "ਡੋਮੀਨੋਜ਼",
        "name:ur": "ڈومینوز",
        "takeaway": "yes"
      }
    },
    {
      "type": "node",
      "id": 1813501243,
      "lat": 12.9831807,
      "lon": 77.5597454,
      "tags": {
        "amenity": "fast_food",
        "brand": "McDonald's",
        "brand:pa": "ਮੈਕਡੋਨਲਡ’ਜ਼",
        "brand:ur": "مکڈونلڈز",
        "brand:wikidata": "Q38076",
        "brand:wikipedia": "en:McDonald's",
        "brand:wikipedia:pa": "ਮੈਕਡੋਨਲਡ’ਜ਼",
        "brand:wikipedia:ur": "مکڈونلڈز",
        "cuisine": "burger",
        "name": "McDonald's",
        "name:kn": "ಮ್ಯಾಕ್‌ಡೊನಾಲ್ಡ್ಸ್",
        "name:pa": "ਮੈਕਡੋਨਲਡ’ਜ਼",
        "name:ur": "مکڈونلڈز",
        "takeaway": "yes"
      }
    },
    {
      "type": "node",
      "id": 1820438239,
      "lat": 12.9744861,
      "lon": 77.5512501,
      "tags": {
        "amenity": "police",
        "name": "Magadi Road Police Station",
        "old_name": "Rajajinagar Traffic Police Station",
        "wheelchair": "no"
      }
    },
    {
      "type": "node",
      "id": 1820438588,
      "lat": 12.9738144,
      "lon": 77.5517301,
      "tags": {
        "amenity": "cinema",
        "name": "PVR",
        "name:en": "PVR Cinemas",
        "wheelchair": "limited"
      }
    },
    {
      "type": "node",
      "id": 1820439965,
      "lat": 12.9735187,
      "lon": 77.5502093,
      "tags": {
        "amenity": "place_of_worship",
        "name": "Banashankari Temple",
        "name:kn": "ಬನಶಂಕರಿ ದೇವಸ್ಥಾನ",
        "religion": "hindu",
        "wheelchair": "no"
      }
    },
    {
      "type": "node",
      "id": 1979075210,
      "lat": 12.9829855,
      "lon": 77.5486383,
      "tags": {
        "amenity": "restaurant",
        "name": "1947",
        "name:kn": "೧೯೪೭",
        "wheelchair": "no"
      }
    },
    {
      "type": "node",
      "id": 2016215963,
      "lat": 12.9841172,
      "lon": 77.5600221,
      "tags": {
        "amenity": "fuel"
      }
    },
    {
      "type": "node",
      "id": 2016220374,
      "lat": 12.9750242,
      "lon": 77.5520533,
      "tags": {
        "amenity": "atm",
        "brand": "Karnataka Bank",
        "brand:wikidata": "Q2042632",
        "name": "Karnataka Bank",
        "name:kn": "ಕರ್ನಾಟಕ ಬ್ಯಾಂಕ್",
        "operator": "Karnataka Bank",
        "operator:wikidata": "Q2042632",
        "wheelchair": "no"
      }
    },
    {
      "type": "node",
      "id": 2016220393,
      "lat": 12.9779674,
      "lon": 77.5530323,
      "tags": {
        "amenity": "fast_food",
        "name": "Al-Bek chiken",
        "wheelchair": "no"
      }
    },
    {
      "type": "node",
      "id": 2016220426,
      "lat": 12.9799118,
      "lon": 77.5541722,
      "tags": {
        "amenity": "atm",
        "brand": "Canara Bank",
        "brand:en": "Canara Bank",
        "brand:hi": "केनरा बैंक",
        "brand:kn": "ಕೆನರಾ ಬ್ಯಾಂಕ್",
        "brand:pa": "ਕੇਨਰਾ ਬੈਂਕ",
        "brand:pnb": "کینرا بینک",
        "brand:ur": "کینرا بینک",
        "brand:wikidata": "Q2003777",
        "name": "Canara Bank",
        "name:en": "Canara Bank",
        "name:hi": "केनरा बैंक",
        "name:kn": "ಕೆನರಾ ಬ್ಯಾಂಕ್",
        "name:pa": "ਕੇਨਰਾ ਬੈਂਕ",
        "name:pnb": "کینرا بینک",
        "name:ur": "کینرا بینک",
        "operator": "Canara Bank",
        "operator:wikidata": "Q2003777",
        "wheelchair": "no"
      }
    },
    {
      "type": "node",
      "id": 2016220471,
      "lat": 12.9784169,
      "lon": 77.5531691,
      "tags": {
        "name": "Spiritz Zone",
        "shop": "alcohol",
        "wheelchair": "no"
      }
    },
    {
      "type": "node",
      "id": 2016220474,
      "lat": 12.9754685,
      "lon": 77.5525146,
      "tags": {
        "name": "Kadamba Sports",
        "shop": "toys",
        "wheelchair": "no"
      }
    },
    {
      "type": "node",
      "id": 2249053699,
      "lat": 12.9810568,
      "lon": 77.5583911,
      "tags": {
        "amenity": "fuel",
        "brand": "Indian Oil",
        "brand:wikidata": "Q1289348",
        "brand:wikipedia": "en:Indian Oil Corporation",
        "name": "Indian Oil",
        "name:kn": "ಇಂಡಿಯನ್ ಆಯಿಲ್",
        "wheelchair": "yes"
      }
    },
    {
      "type": "node",
      "id": 2249055949,
      "lat": 12.9800113,
      "lon": 77.5566101,
      "tags": {
        "amenity": "school",
        "name": "St Ann's School",
        "name:kn": "ಸೆಂಟ್ ಆನ್ಸ್ ಶಾಲೆ",
        "wheelchair": "no"
      }
    },
    {
      "type": "node",
      "id": 2249058820,
      "lat": 12.9776695,
      "lon": 77.5553656,
      "tags": {
        "amenity": "school",
        "name": "St Mira's School"
      }
    },
    {
      "type": "node",
      "id": 2271424244,
      "lat": 12.9842531,
      "lon": 77.5492418,
      "tags": {
        "name": "Girias",
        "shop": "hifi"
      }
    },
    {
      "type": "node",
      "id": 2293249618,
      "lat": 12.9843055,
      "lon": 77.5537764,
      "tags": {
        "addr:city": "Bangalore",
        "addr:postcode": "560079",
        "addr:street": "60th Cross Road",
        "alt_name": "A2B",
        "amenity": "restaurant",
        "brand": "Adyar Ananda Bhavan",
        "brand:wikidata": "Q15178238",
        "cuisine": "regional",
        "diet:vegetarian": "only",
        "name": "Adyar Ananda Bhavan",
        "name:kn": "ಆದ್ಯಾರ್ ಆನಂದ ಭವನ",
        "operator": "Adyar Ananda Bhavan",
        "phone": "+91 80 4212 3599",
        "smoking": "no",
        "website": "https://aabsweets.com",
        "wheelchair": "no"
      }
    },
    {
      "type": "node",
      "id": 2293286379,
      "lat": 12.9836572,
      "lon": 77.5487644,
      "tags": {
        "name": "Just Bake",
        "name:kn": "ಜಸ್ಟ್ ಬೇಕ್",
        "shop": "bakery"
      }
    },
    {
      "type": "node",
      "id": 2513711691,
      "lat": 12.9829933,
      "lon": 77.5593852,
      "tags": {
        "addr:city": "Bangalore",
        "addr:street": "Dr Rajkumar Road",
        "name": "FBB",
        "name:en": "Fashion at Big Bazar",
        "shop": "clothes",
        "wheelchair": "no"
      }
    },
    {
      "type": "node",
      "id": 2513711694,
      "lat": 12.9778758,
      "lon": 77.5529801,
      "tags": {
        "name": "Sangeetha Mobiles",
        "shop": "mobile_phone"
      }
    },
    {
      "type": "node",
      "id": 2513711696,
      "lat": 12.9801967,
      "lon": 77.5543695,
      "tags": {
        "addr:city": "Bangalore",
        "addr:housename": "Rajaji Nagar 5th Block",
        "addr:street": "Dr Rajkumar Road",
        "name": "The Raymond Shop",
        "shop": "clothes",
        "wheelchair": "limited"
      }
    },
    {
      "type": "node",
      "id": 2513711700,
      "lat": 12.973835,
      "lon": 77.547621,
      "tags": {
        "addr:city": "Bangalore",
        "addr:housename": "Near Toll Gate",
        "addr:street": "Chord Road",
        "name": "Bangalore Wheels Yamaha Showroom",
        "shop": "motorcycle"
      }
    },
    {
      "type": "node",
      "id": 2513711708,
      "lat": 12.9738559,
      "lon": 77.5464945,
      "tags": {
        "addr:city": "Bangalore",
        "addr:housename": "Service Road, Manuvana, VIjayanagar",
        "addr:street": "Chord Road",
        "name": "Kavitha Enterprises ( Indane Gas Agency )",
        "shop": "Domestic_Gas_Agency"
      }
    },
    {
      "type": "node",
      "id": 2554302336,
      "lat": 12.9843805,
      "lon": 77.5558016,
      "tags": {
        "amenity": "community_centre",
        "name": "KTSVS Rajatha Mahotsava Samudaaya Bhavana"
      }
    },
    {
      "type": "node",
      "id": 2554302439,
      "lat": 12.9855811,
      "lon": 77.5556847,
      "tags": {
        "amenity": "cafe",
        "cuisine": "regional",
        "name": "Crane Crush"
      }
    },
    {
      "type": "node",
      "id": 2554302473,
      "lat": 12.9846268,
      "lon": 77.5558117,
      "tags": {
        "amenity": "bank",
        "atm": "yes",
        "brand": "State Bank of India",
        "brand:wikidata": "Q1340361",
        "brand:wikipedia": "en:State Bank of India",
        "name": "State Bank of India",
        "name:kn": "ಭಾರತೀಯ ಸ್ಟೇಟ್ ಬ್ಯಾಂಕ್",
        "short_name": "SBI"
      }
    },
    {
      "type": "node",
      "id": 2554302512,
      "lat": 12.9843701,
      "lon": 77.555666,
      "tags": {
        "amenity": "hospital",
        "name": "Pragathi Ayurvedic Center",
        "wheelchair": "no"
      }
    },
    {
      "type": "node",
      "id": 3391134551,
      "lat": 12.9845372,
      "lon": 77.5543971,
      "tags": {
        "name": "Karthik Aquarium",
        "shop": "aquarium"
      }
    },
    {
      "type": "node",
      "id": 3391135055,
      "lat": 12.9852058,
      "lon": 77.5564437,
      "tags": {
        "amenity": "bank",
        "brand": "Axis Bank",
        "brand:wikidata": "Q2003549",
        "brand:wikipedia": "en:Axis Bank",
        "name": "Axis Bank",
        "name:en": "Axis Bank",
        "name:kn": "ಆಕ್ಸಿಸ್ ಬ್ಯಾಂಕ್",
        "website": "https://www.axisbank.com"
      }
    },
    {
      "type": "node",
      "id": 4406333893,
      "lat": 12.9717049,
      "lon": 77.5493718,
      "tags": {
        "amenity": "hospital",
        "name": "Shiva Kumaraswamy Building",
        "name:en": "shiva kumaraswamy building"
      }
    },
    {
      "type": "node",
      "id": 4445860418,
      "lat": 12.9834865,
      "lon": 77.5515572,
      "tags": {
        "addr:city": "Bangalore",
        "addr:housenumber": "3",
        "addr:postcode": "560010",
        "addr:street": "Near Bhashyam Circle Beauty Spot Park, 63rd & 64th Cross, 5th Block, Rajajinagar",
        "amenity": "school",
        "name": "East West Academy",
        "phone": "+91080 2315 7577",
        "website": "eastwestacademy.in"
      }
    },
    {
      "type": "node",
      "id": 4446284111,
      "lat": 12.9845159,
      "lon": 77.5478044,
      "tags": {
        "addr:city": "bangalore",
        "addr:postcode": "560010",
        "addr:street": "GEF Block, RajajinagarIndustrial Town, Rajajinaga",
        "amenity": "restaurant",
        "cuisine": "regional",
        "name": "Kolkata Biryani And Rolls",
        "opening_hours": "12:00-15:00,18:30-22:00",
        "phone": "+91 7676471371"
      }
    },
    {
      "type": "node",
      "id": 4446330574,
      "lat": 12.9758048,
      "lon": 77.5526524,
      "tags": {
        "addr:city": "bangalore",
        "addr:postcode": "560010",
        "addr:street": "6th Block, Dr Rajkumar Road, Rajajinagar",
        "amenity": "restaurant",
        "cuisine": "regional",
        "name": "Mayura andra style restaurant",
        "opening_hours": "11:30-16:00,18:30-23:00",
        "phone": "080-23506361,"
      }
    },
    {
      "type": "node",
      "id": 4446701038,
      "lat": 12.9862636,
      "lon": 77.5575477,
      "tags": {
        "addr:city": "Bangalore",
        "addr:housenumber": "403",
        "addr:postcode": "560010",
        "addr:street": "Dr Rajkumar Road, Rajajinagar",
        "amenity": "pharmacy",
        "name": "Amrutha Medicals",
        "name:kn": "ಅಮೃತ ಮೆಡಿಕಲ್ಸ್",
        "phone": "+91 80 2311 7929"
      }
    },
    {
      "type": "node",
      "id": 4447082866,
      "lat": 12.9768117,
      "lon": 77.5449094,
      "tags": {
        "addr:city": "Bangalore",
        "addr:housenumber": "5/1",
        "addr:postcode": "560040",
        "addr:street": "4th Main, MRCR Layout, Vijayanagar, Behind Godrej Interio, Near Veeresh Theatre, Govindaraja Nagar Ward, MC Layout, Vijayanagar",
        "amenity": "hospital",
        "healthcare": "hospital",
        "name": "Cutis Academy of Cutaneous Sciences",
        "phone": "080 4115 9049"
      }
    },
    {
      "type": "node",
      "id": 4488021019,
      "lat": 12.984947,
      "lon": 77.5540532,
      "tags": {
        "addr:city": "Bangalore",
        "addr:housenumber": "179/Y",
        "addr:postcode": "560010",
        "addr:street": "Rajajinagar",
        "name": "Sweet Chariot",
        "phone": "(91)-80-23151481",
        "shop": "supermarket"
      }
    },
    {
      "type": "node",
      "id": 4489396800,
      "lat": 12.9749621,
      "lon": 77.5518927,
      "tags": {
        "addr:city": "bangalore",
        "addr:housenumber": "213\\A",
        "addr:postcode": "560010",
        "addr:street": "76th cross, opposite to prasanna theater,, 6th Block RajajiNagar,, Bhadrappa Layout, Police Quarters, Rajaji Nagar",
        "name": "Hoysala Sports",
        "opening_hours": "10:00-21:30",
        "phone": "87924 56702",
        "shop": "sports"
      }
    },
    {
      "type": "node",
      "id": 4489837289,
      "lat": 12.9842839,
      "lon": 77.5533883,
      "tags": {
        "addr:city": "Bangalore",
        "addr:housenumber": "61st cross Rajajinagar 5th Block",
        "addr:postcode": "560010",
        "addr:street": "61st Cross Road",
        "leisure": "sports_centre",
        "name": "Golden Touch Beauty Salon & Spa",
        "opening_hours": "08:00-20:00",
        "phone": "91)-80-23124499"
      }
    },
    {
      "type": "node",
      "id": 4490262861,
      "lat": 12.9794303,
      "lon": 77.5521427,
      "tags": {
        "addr:city": "bangalore",
        "addr:housenumber": "No 338,",
        "addr:postcode": "560010",
        "addr:street": "12th main Dr Rajkumar Road,Rajajinagar",
        "name": "Stunning Salon and Spa",
        "opening_hours": "08:00-20:00",
        "phone": "91)-80-33294475",
        "shop": "beauty"
      }
    },
    {
      "type": "node",
      "id": 4490300851,
      "lat": 12.983366,
      "lon": 77.5591007,
      "tags": {
        "addr:city": "Bangalore",
        "addr:postcode": "560010",
        "addr:street": "Marriott Hotel, Sujatha Circle, Rajajinagar,",
        "name": "Scent Spa",
        "opening_hours": "10:00-23:30",
        "phone": "91)-9742212700",
        "shop": "beauty",
        "website": "https://www.scentlifestyle.com/"
      }
    },
    {
      "type": "node",
      "id": 4518422189,
      "lat": 12.9740504,
      "lon": 77.5500149,
      "tags": {
        "addr:street": "Magadi Road",
        "amenity": "fuel",
        "brand": "Total",
        "brand:wikidata": "Q154037",
        "name": "Total Gas Station",
        "name:en": "Total Gas Station"
      }
    },
    {
      "type": "node",
      "id": 4518518596,
      "lat": 12.9777454,
      "lon": 77.5451705,
      "tags": {
        "addr:street": "Magadi Road",
        "amenity": "bank",
        "brand": "ICICI Bank",
        "brand:wikidata": "Q1653258",
        "name": "ICICI Bank",
        "name:en": "ICICI Bank",
        "name:kn": "ಐಸಿಐಸಿಐ ಬ್ಯಾಂಕು",
        "short_name": "ICICI",
        "website": "https://www.icicibank.com"
      }
    },
    {
      "type": "node",
      "id": 4518518891,
      "lat": 12.9758007,
      "lon": 77.5474121,
      "tags": {
        "addr:street": "Magadi Road",
        "brand": "Toyota",
        "brand:wikidata": "Q53268",
        "name": "Toyota car service center",
        "name:en": "Toyota car service center",
        "shop": "car_repair"
      }
    },
    {
      "type": "node",
      "id": 4518535690,
      "lat": 12.9739053,
      "lon": 77.5505113,
      "tags": {
        "name": "Pawan Bar and Restaurant",
        "name:en": "Pawan Bar and Restaurant",
        "shop": "beverages"
      }
    },
    {
      "type": "node",
      "id": 4518535691,
      "lat": 12.9740785,
      "lon": 77.5498168,
      "tags": {
        "addr:street": "Magadi Road",
        "amenity": "restaurant",
        "name": "Utsav Veg",
        "name:en": "Utsav Veg"
      }
    },
    {
      "type": "node",
      "id": 4519919490,
      "lat": 12.97755,
      "lon": 77.5455277,
      "tags": {
        "addr:street": "Magadi Road",
        "amenity": "restaurant",
        "name": "South Ruchi veg",
        "name:en": "South Ruchi veg"
      }
    },
    {
      "type": "node",
      "id": 4520841993,
      "lat": 12.9738853,
      "lon": 77.5478447,
      "tags": {
        "amenity": "atm",
        "brand": "ICICI Bank",
        "brand:wikidata": "Q1653258",
        "name": "ICICI Bank",
        "operator": "ICICI Bank",
        "operator:wikidata": "Q1653258",
        "short_name": "ICICI"
      }
    },
    {
      "type": "node",
      "id": 4520910091,
      "lat": 12.9746825,
      "lon": 77.5468208,
      "tags": {
        "addr:street": "Chord Road",
        "name": "Maruthi Service Center",
        "name:en": "Maruthi Service Center",
        "shop": "car_repair"
      }
    },
    {
      "type": "node",
      "id": 4541302396,
      "lat": 12.974033,
      "lon": 77.5499209,
      "tags": {
        "amenity": "atm",
        "brand": "State Bank of India",
        "brand:wikidata": "Q1340361",
        "name": "State Bank of India",
        "operator": "State Bank of India",
        "operator:wikidata": "Q1340361",
        "short_name": "SBI"
      }
    },
    {
      "type": "node",
      "id": 4635146940,
      "lat": 12.9784178,
      "lon": 77.5485962,
      "tags": {
        "amenity": "community_centre",
        "description": "wedding hall",
        "name": "Subharam Kalyana Mantapa"
      }
    },
    {
      "type": "node",
      "id": 4697889490,
      "lat": 12.9835135,
      "lon": 77.554155,
      "tags": {
        "addr:housenumber": "63",
        "addr:postcode": "560010",
        "addr:street": "63rd Cross Road",
        "amenity": "clinic",
        "internet_access": "wlan",
        "name": "Sevabhaya hospital",
        "name:en": "Sevabhaya hospital",
        "opening_hours": "Mo-Su 09:00-22:00"
      }
    },
    {
      "type": "node",
      "id": 4877306122,
      "lat": 12.9735918,
      "lon": 77.5515142,
      "tags": {
        "addr:street": "Magadi Road",
        "name": "Big Bazaar",
        "name:en": "Big Bazaar",
        "name:kn": "ಬಿಗ್ ಬಜಾರ್",
        "opening_hours": "Mo-Su 08:00-22:00",
        "shop": "convenience"
      }
    },
    {
      "type": "node",
      "id": 4877306123,
      "lat": 12.9735982,
      "lon": 77.5518495,
      "tags": {
        "amenity": "fast_food",
        "brand": "Domino's",
        "brand:ks": "ڈومینوز",
        "brand:pa": "ਡੋਮੀਨੋਜ਼",
        "brand:ur": "ڈومینوز",
        "brand:wikidata": "Q839466",
        "brand:wikipedia": "en:Domino's Pizza",
        "cuisine": "pizza",
        "name": "Domino's",
        "name:ks": "ڈومینوز",
        "name:pa": "ਡੋਮੀਨੋਜ਼",
        "name:ur": "ڈومینوز",
        "takeaway": "yes"
      }
    },
    {
      "type": "node",
      "id": 4877306221,
      "lat": 12.9736169,
      "lon": 77.5517201,
      "tags": {
        "brand": "Max",
        "brand:wikidata": "Q24939079",
        "name": "Max",
        "name:en": "Max shop",
        "opening_hours": "Mo-Su 09:00-22:00",
        "shop": "clothes"
      }
    },
    {
      "type": "node",
      "id": 4877306321,
      "lat": 12.9734683,
      "lon": 77.5516804,
      "tags": {
        "amenity": "fast_food",
        "brand": "Burger King",
        "brand:pa": "ਬਰਗਰ ਕਿੰਗ",
        "brand:ur": "برگر کنگ",
        "brand:wikidata": "Q177054",
        "brand:wikipedia": "en:Burger King",
        "brand:wikipedia:pa": "ਬਰਗਰ ਕਿੰਗ",
        "brand:wikipedia:ur": "برگر کنگ",
        "cuisine": "burger",
        "name": "Burger King",
        "name:kn": "ಬರ್ಗರ್ ಕಿಂಗ್",
        "name:pa": "ਬਰਗਰ ਕਿੰਗ",
        "name:ru": "Бургер Кинг",
        "name:ur": "برگر کنگ",
        "takeaway": "yes"
      }
    },
    {
      "type": "node",
      "id": 5036032668,
      "lat": 12.9736722,
      "lon": 77.5516618,
      "tags": {
        "name": "Flying Machine",
        "shop": "clothes"
      }
    },
    {
      "type": "node",
      "id": 5036032669,
      "lat": 12.9736502,
      "lon": 77.5516075,
      "tags": {
        "name": "Jockey",
        "shop": "clothes"
      }
    },
    {
      "type": "node",
      "id": 5036032670,
      "lat": 12.9735406,
      "lon": 77.5516037,
      "tags": {
        "brand": "Pantaloons",
        "brand:wikidata": "Q7131643",
        "name": "Pantaloons",
        "name:kn": "ಪಾಂಟಲೂನ್ಸ್",
        "shop": "clothes"
      }
    },
    {
      "type": "node",
      "id": 5157373807,
      "lat": 12.9849537,
      "lon": 77.5569222,
      "tags": {
        "addr:district": "Bengaluru Urban",
        "addr:full": "6/63, 59Th Cross, 4Th Block, Rajajinagar Entrance, Mei Polytechnic, Rajajinagar",
        "addr:postcode": "560010",
        "addr:state": "Karnataka",
        "alt_name": "Altius Cancer Center",
        "amenity": "hospital",
        "healthcare": "hospital",
        "name": "Altius Hospital",
        "source": "OpenGovernmentData"
      }
    },
    {
      "type": "node",
      "id": 5168685971,
      "lat": 12.9841839,
      "lon": 77.5496809,
      "tags": {
        "amenity": "toilets"
      }
    },
    {
      "type": "node",
      "id": 5168685972,
      "lat": 12.9843287,
      "lon": 77.5495899,
      "tags": {
        "amenity": "toilets"
      }
    },
    {
      "type": "node",
      "id": 5623433261,
      "lat": 12.9864932,
      "lon": 77.5558162,
      "tags": {
        "amenity": "pharmacy",
        "brand": "Apollo Pharmacy",
        "brand:wikidata": "Q62562612",
        "healthcare": "pharmacy",
        "name": "Apollo Pharmacy",
        "name:kn": "ಅಪೊಲೋ ಫಾರ್ಮಸಿ"
      }
    },
    {
      "type": "node",
      "id": 5623433262,
      "lat": 12.9863494,
      "lon": 77.5558101,
      "tags": {
        "name": "KAP Stationery",
        "shop": "stationery"
      }
    },
    {
      "type": "node",
      "id": 5623433263,
      "lat": 12.9863207,
      "lon": 77.5558088,
      "tags": {
        "name": "Sri Vasavi Gram Gold",
        "shop": "jewelry"
      }
    },
    {
      "type": "node",
      "id": 5623433264,
      "lat": 12.986288,
      "lon": 77.5558088,
      "tags": {
        "amenity": "atm",
        "brand": "State Bank of India",
        "brand:wikidata": "Q1340361",
        "name": "State Bank of India",
        "operator": "State Bank of India",
        "operator:wikidata": "Q1340361",
        "short_name": "SBI"
      }
    },
    {
      "type": "node",
      "id": 5623433265,
      "lat": 12.9861567,
      "lon": 77.5557927,
      "tags": {
        "amenity": "fast_food",
        "cuisine": "regional",
        "name": "Sri Venkateshwara Utsav"
      }
    },
    {
      "type": "node",
      "id": 5623433266,
      "lat": 12.9860253,
      "lon": 77.55579,
      "tags": {
        "name": "Sri Shiva Sai Agencies",
        "shop": "bed"
      }
    },
    {
      "type": "node",
      "id": 5623433267,
      "lat": 12.9860005,
      "lon": 77.5557914,
      "tags": {
        "name": "Sindhu Swadeshi Distribution Centre",
        "shop": "stationery"
      }
    },
    {
      "type": "node",
      "id": 5623433268,
      "lat": 12.9858992,
      "lon": 77.5557672,
      "tags": {
        "name": "Krishna Traders",
        "shop": "hardware"
      }
    },
    {
      "type": "node",
      "id": 5623433269,
      "lat": 12.9858665,
      "lon": 77.5557679,
      "tags": {
        "shop": "copyshop"
      }
    },
    {
      "type": "node",
      "id": 5623433270,
      "lat": 12.9858371,
      "lon": 77.5557672,
      "tags": {
        "name": "Manasa Enterprises",
        "shop": "clothes"
      }
    },
    {
      "type": "node",
      "id": 5623433272,
      "lat": 12.9855196,
      "lon": 77.5556874,
      "tags": {
        "name": "Shri Lakshmi Jewellery Works",
        "shop": "jewelry"
      }
    },
    {
      "type": "node",
      "id": 5623433275,
      "lat": 12.985206,
      "lon": 77.5557887,
      "tags": {
        "amenity": "clinic",
        "name": "Shri Kaushika Dental Clinic"
      }
    },
    {
      "type": "node",
      "id": 5623433276,
      "lat": 12.9848766,
      "lon": 77.5559878,
      "tags": {
        "amenity": "college",
        "name": "Rajajinagar PU Degree College"
      }
    },
    {
      "type": "node",
      "id": 5623550275,
      "lat": 12.9870838,
      "lon": 77.5558457,
      "tags": {
        "shop": "greengrocer"
      }
    },
    {
      "type": "node",
      "id": 5623550276,
      "lat": 12.9870453,
      "lon": 77.5558383,
      "tags": {
        "name": "Samsung - Seema Enterprises",
        "shop": "electronics"
      }
    },
    {
      "type": "node",
      "id": 5623550277,
      "lat": 12.9870178,
      "lon": 77.5558417,
      "tags": {
        "shop": "greengrocer"
      }
    },
    {
      "type": "node",
      "id": 5623550279,
      "lat": 12.9867356,
      "lon": 77.5558403,
      "tags": {
        "name": "Jagger Tailors",
        "shop": "tailor"
      }
    },
    {
      "type": "node",
      "id": 5623550280,
      "lat": 12.9867094,
      "lon": 77.5558383,
      "tags": {
        "name": "Madhok Ladies Tailors",
        "shop": "tailor"
      }
    },
    {
      "type": "node",
      "id": 5623550281,
      "lat": 12.9866689,
      "lon": 77.5558296,
      "tags": {
        "name": "Bijapur Stores",
        "shop": "greengrocer"
      }
    },
    {
      "type": "node",
      "id": 5623550282,
      "lat": 12.9866447,
      "lon": 77.5558249,
      "tags": {
        "name": "Blue Bird Dry Cleaners",
        "shop": "dry_cleaning"
      }
    },
    {
      "type": "node",
      "id": 5623550283,
      "lat": 12.9865814,
      "lon": 77.5558215,
      "tags": {
        "amenity": "ice_cream",
        "name": "Himadri Ice Creams"
      }
    },
    {
      "type": "node",
      "id": 5815730353,
      "lat": 12.9821384,
      "lon": 77.5560857,
      "tags": {
        "amenity": "place_of_worship",
        "denomination": "hindu",
        "name": "Temple",
        "name:kn": "ದೇವಸ್ಥಾನ",
        "religion": "hindu",
        "service_times": "07:00-12:00; 16:00-20:30"
      }
    },
    {
      "type": "node",
      "id": 6078097176,
      "lat": 12.9761861,
      "lon": 77.5517728,
      "tags": {
        "addr:city": "Bengaluru",
        "addr:housenumber": "54",
        "addr:postcode": "560010",
        "addr:street": "12th C Main Road",
        "name": "Rice Corner",
        "opening_hours": "Mo-Su 09:00-21:00",
        "payment:cash": "yes",
        "payment:notes": "yes",
        "shop": "supermarket"
      }
    },
    {
      "type": "node",
      "id": 6464656297,
      "lat": 12.9861643,
      "lon": 77.5491935,
      "tags": {
        "amenity": "clinic",
        "name": "New Modern Clinic"
      }
    },
    {
      "type": "node",
      "id": 6464656298,
      "lat": 12.9834415,
      "lon": 77.548714,
      "tags": {
        "leisure": "fitness_station",
        "name": "Movenza Fitness"
      }
    },
    {
      "type": "node",
      "id": 6487165550,
      "lat": 12.9826939,
      "lon": 77.5607271,
      "tags": {
        "amenity": "bank",
        "atm": "yes",
        "brand": "Syndicate Bank",
        "brand:wikidata": "Q2004088",
        "name": "Syndicate Bank",
        "name:kn": "ಸಿಂಡಿಕೇಟ್ ಬ್ಯಾಂಕ್"
      }
    },
    {
      "type": "node",
      "id": 6502980174,
      "lat": 12.9821954,
      "lon": 77.5493143,
      "tags": {
        "addr:district": "Bengaluru Urban",
        "addr:full": "1032, 5th Block Opp Ganesh Temple, Chor Road Rajajinagar",
        "addr:postcode": "560010",
        "addr:state": "Karnataka",
        "amenity": "hospital",
        "healthcare": "hospital",
        "name": "The Eye Surgical Centre"
      }
    },
    {
      "type": "node",
      "id": 6646295302,
      "lat": 12.9860978,
      "lon": 77.5543504,
      "tags": {
        "addr:city": "Bangalore",
        "addr:postcode": "560010",
        "addr:street": "12th Main Road",
        "air_conditioning": "no",
        "amenity": "restaurant",
        "bar": "no",
        "cuisine": "indian;juice;ice_cream",
        "name": "New Shanthi Sagar",
        "opening_hours": "Mo-Su 06:00-22:00"
      }
    },
    {
      "type": "node",
      "id": 6681215502,
      "lat": 12.9845735,
      "lon": 77.5572538,
      "tags": {
        "leisure": "fitness_station",
        "name": "Fitness Hub"
      }
    },
    {
      "type": "node",
      "id": 6681254112,
      "lat": 12.9869192,
      "lon": 77.5562131,
      "tags": {
        "amenity": "cafe",
        "name": "by 2 coffy"
      }
    },
    {
      "type": "node",
      "id": 6886594803,
      "lat": 12.974452,
      "lon": 77.5494339,
      "tags": {
        "addr:city": "Bengaluru",
        "addr:district": "BENGALURU URBAN",
        "addr:full": "14/1, I Floor, MESA Complex, Old Tolgate Bus Stop, Magadi Main Road",
        "addr:postcode": "560023",
        "addr:state": "Karnataka",
        "amenity": "blood_bank",
        "contact:mobile": "9341273805",
        "contact:phone": "8023103524",
        "name": "S. K. Voluntary Blood Bank",
        "opening_hours": "24/7",
        "operator:type": "private",
        "source": "OpenGovernmentData"
      }
    },
    {
      "type": "node",
      "id": 6938690600,
      "lat": 12.9822186,
      "lon": 77.5599374,
      "tags": {
        "addr:district": "Bengaluru Urban",
        "addr:full": "1033,4 Th Block Dr Rajdumar Road",
        "addr:postcode": "560010",
        "addr:state": "Karnataka",
        "amenity": "hospital",
        "name": "Sri Dhavantari Ayurveda Hoapital",
        "source": "OpenGovernmentData"
      }
    },
    {
      "type": "node",
      "id": 6938690601,
      "lat": 12.9848505,
      "lon": 77.5581537,
      "tags": {
        "addr:district": "Bengaluru Urban",
        "addr:full": "No. 546/46, 6Th Main, 4Th Block, Rajajinagar",
        "addr:postcode": "560010",
        "addr:state": "Karnataka",
        "amenity": "clinic",
        "name": "Spandana Nursing Home, Bengaluru Urban",
        "source": "OpenGovernmentData"
      }
    },
    {
      "type": "node",
      "id": 6938690602,
      "lat": 12.9845343,
      "lon": 77.5532775,
      "tags": {
        "addr:district": "Bengaluru Urban",
        "addr:full": "25 27 60Th Cross 5Th Block Near Bashyam Circle Rajajinagar",
        "addr:postcode": "560010",
        "addr:state": "Karnataka",
        "amenity": "clinic",
        "name": "Jinka Nursing Home",
        "source": "OpenGovernmentData"
      }
    },
    {
      "type": "node",
      "id": 6938690603,
      "lat": 12.9845512,
      "lon": 77.5528322,
      "tags": {
        "addr:district": "Bengaluru Urban",
        "addr:full": "No. 851/D , 5Th Block , Rajajinagar , 60Th Cross",
        "addr:postcode": "560040",
        "addr:state": "Karnataka",
        "amenity": "hospital",
        "name": "Vaidyam Hospital",
        "source": "OpenGovernmentData"
      }
    },
    {
      "type": "node",
      "id": 6938775801,
      "lat": 12.9765645,
      "lon": 77.5455876,
      "tags": {
        "addr:district": "Bengaluru Urban",
        "addr:full": "No 18/2, 1st Cross, M.C. Layout, Vijayanagar",
        "addr:postcode": "560079",
        "addr:state": "Karnataka",
        "amenity": "hospital",
        "name": "Anugraha Hospital, Vijayanagar",
        "name:kn": "ಅನುಗ್ರಹ ಆಸ್ಪತ್ರೆ",
        "source": "OpenGovernmentData"
      }
    },
    {
      "type": "node",
      "id": 6939061708,
      "lat": 12.9856882,
      "lon": 77.5565229,
      "tags": {
        "addr:district": "Bengaluru Urban",
        "addr:full": "Rajaji Nager",
        "addr:postcode": "560010",
        "addr:state": "Karnataka",
        "amenity": "clinic",
        "name": "Ramamni Nursing And Maternity",
        "source": "OpenGovernmentData"
      }
    },
    {
      "type": "node",
      "id": 6939438895,
      "lat": 12.982442,
      "lon": 77.5493681,
      "tags": {
        "addr:district": "Bengaluru Urban",
        "addr:full": "1031, 20Th Main Road, 5Th Block, Rajajinagar",
        "addr:postcode": "560010",
        "addr:state": "Karnataka",
        "amenity": "hospital",
        "name": "Sidvin Hospital Pvt Ltd",
        "source": "OpenGovernmentData"
      }
    },
    {
      "type": "node",
      "id": 6944276882,
      "lat": 12.9745134,
      "lon": 77.5493883,
      "tags": {
        "addr:district": "Bengaluru Urban",
        "addr:full": "No-170, 12th, Ist Main, Near Anjaneya Temple, Opposite Karnatakaa Bank",
        "addr:postcode": "560086",
        "addr:state": "Karnataka",
        "amenity": "hospital",
        "email": "info@bengaluruspinecare.com",
        "name": "Spine Care And Ortho Care Hospital",
        "operator:type": "private",
        "source": "OpenGovernmentData",
        "website": "https://www.bengaluruspinecare.com/"
      }
    },
    {
      "type": "node",
      "id": 6944287716,
      "lat": 12.9733764,
      "lon": 77.5474034,
      "tags": {
        "addr:district": "Bengaluru Urban",
        "addr:full": "66 B/7, Pipe Line Road, Vijayanagara",
        "addr:postcode": "560040",
        "addr:state": "Karnataka",
        "amenity": "hospital",
        "name": "Tanmay Hospital",
        "source": "OpenGovernmentData"
      }
    },
    {
      "type": "node",
      "id": 6947003707,
      "lat": 12.9741253,
      "lon": 77.561823,
      "tags": {
        "addr:district": "Bengaluru Urban",
        "addr:full": "2nd Cross, Magadi Road",
        "addr:postcode": "560023",
        "addr:state": "Karnataka",
        "amenity": "hospital",
        "name": "Magadi Road Maternity Home",
        "source": "OpenGovernmentData"
      }
    },
    {
      "type": "node",
      "id": 6947291977,
      "lat": 12.9753137,
      "lon": 77.5536856,
      "tags": {
        "addr:district": "Bengaluru Urban",
        "addr:full": "No 9/A Magadi Main Road",
        "addr:postcode": "560023",
        "addr:state": "Karnataka",
        "amenity": "clinic",
        "name": "Supriya Nursing Home",
        "source": "OpenGovernmentData"
      }
    },
    {
      "type": "node",
      "id": 6948438892,
      "lat": 12.9817233,
      "lon": 77.5549364,
      "tags": {
        "addr:district": "Bengaluru Urban",
        "addr:full": "10Th, A Main, 68Th Cross, 5Th Block, Rajajinagar Near Bhasyam Circle",
        "addr:postcode": "560010",
        "addr:state": "Karnataka",
        "amenity": "hospital",
        "name": "Rotary Eye Hospital (A Unit Of Bangalore North Rotary Trust)",
        "source": "OpenGovernmentData"
      }
    },
    {
      "type": "node",
      "id": 7139631437,
      "lat": 12.9843239,
      "lon": 77.5486091,
      "tags": {
        "amenity": "fast_food",
        "cuisine": "regional",
        "name": "Saanvi Delicacy"
      }
    },
    {
      "type": "node",
      "id": 7139631439,
      "lat": 12.9811953,
      "lon": 77.5485688,
      "tags": {
        "amenity": "place_of_worship",
        "religion": "hindu"
      }
    },
    {
      "type": "node",
      "id": 7146770604,
      "lat": 12.98691,
      "lon": 77.5558256,
      "tags": {
        "brand": "Airtel",
        "brand:wikidata": "Q854867",
        "name": "Airtel",
        "shop": "mobile_phone"
      }
    },
    {
      "type": "node",
      "id": 7146770605,
      "lat": 12.9849224,
      "lon": 77.5552703,
      "tags": {
        "brand": "Airtel",
        "brand:wikidata": "Q854867",
        "name": "Airtel",
        "shop": "mobile_phone"
      }
    },
    {
      "type": "node",
      "id": 7156536795,
      "lat": 12.9858672,
      "lon": 77.54912,
      "tags": {
        "name": "Jaguar Lighting",
        "shop": "electronics"
      }
    },
    {
      "type": "node",
      "id": 7159791860,
      "lat": 12.9864945,
      "lon": 77.5555319,
      "tags": {
        "addr:city": "Bengaluru",
        "addr:postcode": "560010",
        "addr:street": "54th Cross Road",
        "addr:suburb": "Rajajinagar",
        "name": "Coffee Day Essentials",
        "shop": "convenience"
      }
    },
    {
      "type": "node",
      "id": 7176651804,
      "lat": 12.9771415,
      "lon": 77.5574429,
      "tags": {
        "access": "private",
        "amenity": "parking"
      }
    },
    {
      "type": "node",
      "id": 7236205635,
      "lat": 12.9838096,
      "lon": 77.5581993,
      "tags": {
        "name": "FD Outlet",
        "shop": "clothes"
      }
    },
    {
      "type": "node",
      "id": 7236205644,
      "lat": 12.9853419,
      "lon": 77.5564646,
      "tags": {
        "amenity": "atm",
        "brand": "ICICI Bank",
        "brand:wikidata": "Q1653258",
        "name": "ICICI Bank",
        "operator": "ICICI Bank",
        "operator:wikidata": "Q1653258",
        "short_name": "ICICI"
      }
    },
    {
      "type": "node",
      "id": 7236205652,
      "lat": 12.9847669,
      "lon": 77.5531782,
      "tags": {
        "amenity": "school",
        "name": "New Oxford High School"
      }
    },
    {
      "type": "node",
      "id": 7236205657,
      "lat": 12.9850504,
      "lon": 77.5532533,
      "tags": {
        "amenity": "pharmacy",
        "brand": "Apollo Pharmacy",
        "brand:wikidata": "Q62562612",
        "healthcare": "pharmacy",
        "name": "Apollo Pharmacy",
        "name:kn": "ಅಪೊಲೋ ಫಾರ್ಮಸಿ"
      }
    },
    {
      "type": "node",
      "id": 7236205658,
      "lat": 12.9857287,
      "lon": 77.5524808,
      "tags": {
        "amenity": "bank",
        "atm": "yes",
        "brand": "HDFC Bank",
        "brand:wikidata": "Q631047",
        "name": "HDFC Bank",
        "operator": "HDFC Bank",
        "short_name": "HDFC"
      }
    },
    {
      "type": "node",
      "id": 7236205659,
      "lat": 12.9858058,
      "lon": 77.5513798,
      "tags": {
        "amenity": "bank",
        "atm": "yes",
        "brand": "Karur Vysya Bank",
        "brand:wikidata": "Q6373724",
        "name": "Karur Vysya Bank",
        "name:kn": "ಕರೂರು ವೈಶ್ಯ ಬ್ಯಾಂಕ್",
        "operator": "Karur Vysya Bank"
      }
    },
    {
      "type": "node",
      "id": 7236205660,
      "lat": 12.9862606,
      "lon": 77.5508527,
      "tags": {
        "name": "Ashirwad Market",
        "shop": "supermarket"
      }
    },
    {
      "type": "node",
      "id": 7236205661,
      "lat": 12.9863873,
      "lon": 77.5508474,
      "tags": {
        "amenity": "bank",
        "atm": "yes",
        "brand": "Bank of Maharashtra",
        "brand:wikidata": "Q2004304",
        "name": "Bank of Maharashtra",
        "operator": "Bank of Maharashtra"
      }
    },
    {
      "type": "node",
      "id": 7292235595,
      "lat": 12.9840076,
      "lon": 77.5581591,
      "tags": {
        "amenity": "fast_food",
        "name": "Gobi Corner"
      }
    },
    {
      "type": "node",
      "id": 7292235596,
      "lat": 12.9844846,
      "lon": 77.5573383,
      "tags": {
        "name": "Uttara Computers",
        "shop": "computer"
      }
    },
    {
      "type": "node",
      "id": 7292235604,
      "lat": 12.9855248,
      "lon": 77.5567147,
      "tags": {
        "amenity": "place_of_worship",
        "religion": "hindu"
      }
    },
    {
      "type": "node",
      "id": 7297186445,
      "lat": 12.9812241,
      "lon": 77.5561622,
      "tags": {
        "amenity": "place_of_worship",
        "denomination": "hindu",
        "name": "Temple",
        "name:kn": "ದೇವಸ್ಥಾನ",
        "religion": "hindu",
        "service_times": "07:00-12:00; 16:00-20:30"
      }
    },
    {
      "type": "node",
      "id": 7297227887,
      "lat": 12.9756295,
      "lon": 77.5500736,
      "tags": {
        "amenity": "library"
      }
    },
    {
      "type": "node",
      "id": 7572526708,
      "lat": 12.9734087,
      "lon": 77.5462808,
      "tags": {
        "addr:district": "Bengaluru Urban",
        "addr:full": "Hoshalli Extension, Vijayanagar, Bengaluru",
        "addr:postcode": "560040",
        "addr:state": "Karnataka",
        "amenity": "hospital",
        "name": "Sriprasad Ayurveda",
        "source": "Local Knowledge"
      }
    },
    {
      "type": "node",
      "id": 7572526722,
      "lat": 12.981027,
      "lon": 77.550187,
      "tags": {
        "addr:district": "Bengaluru Urban",
        "addr:full": "Jedara Halli, Rajajinagar, Bengaluru",
        "addr:postcode": "560010",
        "addr:state": "Karnataka",
        "amenity": "clinic",
        "name": "Shree Maternity",
        "source": "Local Knowledge"
      }
    },
    {
      "type": "node",
      "id": 7572526752,
      "lat": 12.9802303,
      "lon": 77.5548818,
      "tags": {
        "addr:district": "Bengaluru Urban",
        "addr:full": "Rajajinagar, Bengaluru",
        "addr:postcode": "560010",
        "addr:state": "Karnataka",
        "amenity": "hospital",
        "name": "G.R. Hospital",
        "source": "Local Knowledge"
      }
    },
    {
      "type": "node",
      "id": 7572526755,
      "lat": 12.9801974,
      "lon": 77.5546401,
      "tags": {
        "addr:district": "Bengaluru Urban",
        "addr:full": "Rajaji Nagar, Bengaluru",
        "addr:postcode": "560010",
        "addr:state": "Karnataka",
        "amenity": "clinic",
        "name": "Sri Krishna Clinic",
        "source": "Local Knowledge"
      }
    },
    {
      "type": "node",
      "id": 7572526762,
      "lat": 12.9757486,
      "lon": 77.553782,
      "tags": {
        "addr:district": "Bengaluru Urban",
        "addr:full": "Rajajinagar, Bengaluru",
        "addr:postcode": "560023",
        "addr:state": "Karnataka",
        "amenity": "hospital",
        "name": "Abhinav Hospital",
        "source": "Local Knowledge"
      }
    },
    {
      "type": "node",
      "id": 7572526791,
      "lat": 12.9735574,
      "lon": 77.5461246,
      "tags": {
        "addr:district": "Bengaluru Urban",
        "addr:full": "Hans Complex, Manuvana, Vijayanagar, Bengaluru",
        "addr:postcode": "560040",
        "addr:state": "Karnataka",
        "amenity": "hospital",
        "name": "Bengaluru Child Neurology and Rehabilitaion Centre",
        "source": "Local Knowledge"
      }
    },
    {
      "type": "node",
      "id": 8187930005,
      "lat": 12.975994,
      "lon": 77.558578,
      "tags": {
        "addr:full": "Near, 4, Magadi Main Rd, Bhuvaneshwari Nagar, Lakshminarayanapuram, Binnipete, Bengaluru, Karnataka",
        "addr:state": "Karnataka",
        "amenity": "atm",
        "brand": "Axis Bank",
        "brand:wikidata": "Q2003549",
        "name": "Axis Bank",
        "name:kn": "ಆಕ್ಸಿಸ್ ಬ್ಯಾಂಕ್ ಎಟಿಎಂ",
        "operator": "Axis Bank",
        "operator:wikidata": "Q2003549"
      }
    },
    {
      "type": "node",
      "id": 8187963420,
      "lat": 12.9807621,
      "lon": 77.5585094,
      "tags": {
        "addr:full": "Near-Variar Bakery, 1050 A, SSI Area, 4th M Block, Dr Rajkumar Rd, Rajaji Nagar, 6th Block, Rajajinagar, Bengaluru, Karnataka",
        "addr:state": "Karnataka",
        "amenity": "bank",
        "brand": "Andhra Bank",
        "brand:wikidata": "Q2003476",
        "name": "Andhra Bank",
        "name:kn": "ಆಂಧ್ರ ಬ್ಯಾಂಕ್"
      }
    },
    {
      "type": "node",
      "id": 8187963530,
      "lat": 12.9702025,
      "lon": 77.5576176,
      "tags": {
        "addr:full": "Bhuvaneshwari Nagar, Binnipete, Kempapura Agrahara, Bengaluru, Karnataka",
        "addr:state": "Karnataka",
        "amenity": "bank",
        "brand": "Canara Bank",
        "brand:en": "Canara Bank",
        "brand:hi": "केनरा बैंक",
        "brand:kn": "ಕೆನರಾ ಬ್ಯಾಂಕ್",
        "brand:pa": "ਕੇਨਰਾ ਬੈਂਕ",
        "brand:pnb": "کینرا بینک",
        "brand:ur": "کینرا بینک",
        "brand:wikidata": "Q2003777",
        "brand:wikipedia": "en:Canara Bank",
        "brand:wikipedia:pa": "ਕੇਨਰਾ ਬੈਂਕ",
        "name": "Canara Bank",
        "name:en": "Canara Bank",
        "name:hi": "केनरा बैंक",
        "name:kn": "ಕೆನರಾ ಬ್ಯಾಂಕ್",
        "name:pa": "ਕੇਨਰਾ ਬੈਂਕ",
        "name:pnb": "کینرا بینک",
        "name:ur": "کینرا بینک"
      }
    },
    {
      "type": "node",
      "id": 8187986393,
      "lat": 12.9717729,
      "lon": 77.5519645,
      "tags": {
        "addr:full": "1st Cross Rd, Cholourpalya, Bengaluru, Karnataka",
        "addr:state": "Karnataka",
        "amenity": "clinic",
        "name": "Dr Ramesh Clinic"
      }
    },
    {
      "type": "node",
      "id": 8188038786,
      "lat": 12.9844963,
      "lon": 77.5551801,
      "tags": {
        "addr:full": "20th Main Rd, 5 Block, 3rd Block, Rajajinagar, Bengaluru, Karnataka",
        "addr:state": "Karnataka",
        "amenity": "hospital",
        "name": "Government Hospital",
        "name:kn": "ಸರ್ಕಾರಿ ಆಸ್ಪತ್ರೆ"
      }
    },
    {
      "type": "node",
      "id": 8188058456,
      "lat": 12.974256,
      "lon": 77.5598391,
      "tags": {
        "addr:full": "50, Magadi Road, Mariyappanapalya, Binnipete, Mariyappanapalya, Binnipete, Bengaluru, Karnataka",
        "addr:state": "Karnataka",
        "amenity": "restaurant",
        "name": "Atithi Family Restaurant"
      }
    },
    {
      "type": "node",
      "id": 8989622939,
      "lat": 12.9862109,
      "lon": 77.5563151,
      "tags": {
        "amenity": "toilets"
      }
    },
    {
      "type": "node",
      "id": 9632587574,
      "lat": 12.9851321,
      "lon": 77.556643,
      "tags": {
        "name": "Naseeb Fruits Stall",
        "shop": "greengrocer"
      }
    },
    {
      "type": "node",
      "id": 9687256219,
      "lat": 12.9844193,
      "lon": 77.5580075,
      "tags": {
        "amenity": "fast_food",
        "name": "HOPCOMS"
      }
    },
    {
      "type": "node",
      "id": 9687256224,
      "lat": 12.9850753,
      "lon": 77.5567442,
      "tags": {
        "amenity": "fast_food",
        "brand": "Domino's",
        "brand:wikidata": "Q839466",
        "cuisine": "pizza",
        "delivery": "yes",
        "name": "Domino's",
        "operator": "Domino's",
        "outdoor_seating": "no",
        "takeaway": "yes"
      }
    },
    {
      "type": "node",
      "id": 9870839648,
      "lat": 12.982478,
      "lon": 77.5611357,
      "tags": {
        "name": "Ather",
        "shop": "motorcycle"
      }
    },
    {
      "type": "node",
      "id": 9872645087,
      "lat": 12.9841291,
      "lon": 77.5576642,
      "tags": {
        "shop": "copyshop"
      }
    },
    {
      "type": "node",
      "id": 9872645098,
      "lat": 12.9852752,
      "lon": 77.5564539,
      "tags": {
        "amenity": "atm",
        "brand": "State Bank of India",
        "brand:wikidata": "Q1340361",
        "name": "State Bank of India",
        "name:kn": "ಎಸ್ ಬಿ ಐ",
        "operator": "State Bank of India",
        "operator:wikidata": "Q1340361",
        "short_name": "SBI"
      }
    },
    {
      "type": "node",
      "id": 9872645099,
      "lat": 12.9867722,
      "lon": 77.5562862,
      "tags": {
        "name": "Kempegowda Vegetable Market",
        "shop": "greengrocer"
      }
    },
    {
      "type": "node",
      "id": 9909999112,
      "lat": 12.9844173,
      "lon": 77.5574496,
      "tags": {
        "name": "Royal Cakes and Cookies",
        "shop": "bakery"
      }
    },
    {
      "type": "node",
      "id": 9909999114,
      "lat": 12.9851805,
      "lon": 77.5565518,
      "tags": {
        "name": "Window Styles",
        "shop": "curtain"
      }
    },
    {
      "type": "node",
      "id": 9936631185,
      "lat": 12.986139,
      "lon": 77.5508943,
      "tags": {
        "amenity": "school",
        "name": "Bala Vidya Mandir School"
      }
    },
    {
      "type": "node",
      "id": 9936631186,
      "lat": 12.9860841,
      "lon": 77.5507428,
      "tags": {
        "amenity": "kindergarten",
        "name": "Jack and the Beanstalk"
      }
    },
    {
      "type": "node",
      "id": 9936668906,
      "lat": 12.9832366,
      "lon": 77.5492541,
      "tags": {
        "access": "yes",
        "amenity": "toilets",
        "fee": "yes",
        "operator": "BBMP"
      }
    },
    {
      "type": "node",
      "id": 10045910456,
      "lat": 12.9759163,
      "lon": 77.5540171,
      "tags": {
        "name": "Sudarshan Tejas Silks",
        "shop": "wholesale"
      }
    },
    {
      "type": "node",
      "id": 10279677059,
      "lat": 12.9840494,
      "lon": 77.5578305,
      "tags": {
        "leisure": "fitness_centre",
        "name": "Tusker Fitness"
      }
    },
    {
      "type": "node",
      "id": 10285926886,
      "lat": 12.9869518,
      "lon": 77.5558249,
      "tags": {
        "contact:facebook": "tumbledry.in",
        "contact:instagram": "tumbledryind",
        "laundry_service": "yes",
        "name": "Tumbledry",
        "phone": "+917677250250",
        "shop": "laundry",
        "website": "https://www.tumbledry.in/"
      }
    },
    {
      "type": "node",
      "id": 11102274265,
      "lat": 12.9846349,
      "lon": 77.5536744,
      "tags": {
        "name": "Kim Lee Beauty Parlour",
        "shop": "beauty"
      }
    },
    {
      "type": "node",
      "id": 11102274266,
      "lat": 12.9847002,
      "lon": 77.5536101,
      "tags": {
        "amenity": "restaurant",
        "name": "Kim Lee Restaurant"
      }
    },
    {
      "type": "node",
      "id": 11102274267,
      "lat": 12.9857652,
      "lon": 77.55176,
      "tags": {
        "amenity": "restaurant",
        "name": "Sicilia Point"
      }
    },
    {
      "type": "node",
      "id": 12438065188,
      "lat": 12.9828948,
      "lon": 77.5493318,
      "tags": {
        "amenity": "restaurant",
        "check_date": "2024-12-21"
      }
    },
    {
      "type": "node",
      "id": 12438065189,
      "lat": 12.9785148,
      "lon": 77.5491667,
      "tags": {
        "amenity": "fast_food",
        "check_date": "2024-12-21",
        "name": "Indira Canteen"
      }
    },
    {
      "type": "node",
      "id": 12529149438,
      "lat": 12.9847832,
      "lon": 77.5540436,
      "tags": {
        "addr:city": "Bengaluru",
        "addr:district": "Bengaluru Urban",
        "addr:postcode": "560010",
        "addr:street": "12th Main Rd, 3rd Block, Rajajinagar",
        "brand": "Peter England",
        "brand:wikidata": "Q19573665",
        "clothes": "men",
        "name": "Peter England",
        "shop": "clothes"
      }
    },
    {
      "type": "node",
      "id": 12860169701,
      "lat": 12.9810676,
      "lon": 77.5478955,
      "tags": {
        "addr:housenumber": "43/52",
        "addr:postcode": "560010",
        "addr:street": "2nd Main Road",
        "name": "Bharathi Jewelleries",
        "shop": "jewelry"
      }
    },
    {
      "type": "node",
      "id": 12860300101,
      "lat": 12.9872272,
      "lon": 77.5542226,
      "tags": {
        "addr:postcode": "560010",
        "addr:street": "12th Main Road",
        "name": "Namma MTR",
        "shop": "grocery"
      }
    },
    {
      "type": "node",
      "id": 12901334775,
      "lat": 12.9859554,
      "lon": 77.5509443,
      "tags": {
        "amenity": "cafe",
        "brand": "Third Wave Coffee Roasters",
        "brand:wikidata": "Q7785004",
        "cuisine": "coffee_shop",
        "delivery": "yes",
        "name": "Third Wave Coffee Roasters",
        "takeaway": "yes"
      }
    },
    {
      "type": "node",
      "id": 12985437613,
      "lat": 12.9831667,
      "lon": 77.5604758,
      "tags": {
        "amenity": "clock",
        "display": "analog",
        "faces": "1",
        "support": "pole",
        "visibility": "street"
      }
    },
    {
      "type": "node",
      "id": 12990956824,
      "lat": 12.984977,
      "lon": 77.5535912,
      "tags": {
        "amenity": "post_box",
        "operator": "India Post"
      }
    },
    {
      "type": "node",
      "id": 13106025728,
      "lat": 12.9737081,
      "lon": 77.5515282,
      "tags": {
        "name": "Dmart",
        "not:brand:wikidata": "Q5203271",
        "opening_hours": "Mo-Su 10:00-22:00",
        "shop": "supermarket"
      }
    },
    {
      "type": "node",
      "id": 13245247096,
      "lat": 12.9754949,
      "lon": 77.5570151,
      "tags": {
        "amenity": "college",
        "name": "Seshadripuram Commerce College"
      }
    },
    {
      "type": "way",
      "id": 54148039,
      "center": {
        "lat": 12.9735608,
        "lon": 77.5482975
      },
      "tags": {
        "amenity": "school",
        "name": "Prameelabhai BBMP High School"
      }
    },
    {
      "type": "way",
      "id": 166612453,
      "center": {
        "lat": 12.9837431,
        "lon": 77.5566697
      },
      "tags": {
        "alt_name": "Rajajinagar PU and Degree College",
        "amenity": "college",
        "name": "MEI Polytechnic College"
      }
    },
    {
      "type": "way",
      "id": 166612470,
      "center": {
        "lat": 12.9829196,
        "lon": 77.5594515
      },
      "tags": {
        "landuse": "retail",
        "name": "Golden Heights Mall",
        "shop": "mall",
        "wheelchair": "no"
      }
    },
    {
      "type": "way",
      "id": 166612472,
      "center": {
        "lat": 12.976003,
        "lon": 77.5550008
      },
      "tags": {
        "access": "yes",
        "amenity": "parking",
        "fee": "yes",
        "operator": "BMRCL",
        "parking": "surface"
      }
    },
    {
      "type": "way",
      "id": 166612475,
      "center": {
        "lat": 12.9746944,
        "lon": 77.5621754
      },
      "tags": {
        "amenity": "school"
      }
    },
    {
      "type": "way",
      "id": 166612476,
      "center": {
        "lat": 12.9846189,
        "lon": 77.5559879
      },
      "tags": {
        "amenity": "school"
      }
    },
    {
      "type": "way",
      "id": 169801367,
      "center": {
        "lat": 12.9769687,
        "lon": 77.5457969
      },
      "tags": {
        "amenity": "cinema",
        "name": "Veeresh Talkies",
        "name:kn": "ವೀರೇಶ್",
        "wheelchair": "no"
      }
    },
    {
      "type": "way",
      "id": 182821650,
      "center": {
        "lat": 12.9760796,
        "lon": 77.5628215
      },
      "tags": {
        "name": "Shri Venkateshwara Silks",
        "shop": "clothes"
      }
    },
    {
      "type": "way",
      "id": 191035682,
      "center": {
        "lat": 12.9830124,
        "lon": 77.5618384
      },
      "tags": {
        "addr:city": "Bangalore",
        "addr:street": "Link Road",
        "amenity": "cinema",
        "name": "Sujatha Theater",
        "name:kn": "ಸುಜತಾ",
        "wheelchair": "no"
      }
    },
    {
      "type": "way",
      "id": 191035698,
      "center": {
        "lat": 12.9813859,
        "lon": 77.5593257
      },
      "tags": {
        "amenity": "school",
        "name": "SJR School",
        "wheelchair": "limited"
      }
    },
    {
      "type": "way",
      "id": 191035701,
      "center": {
        "lat": 12.9805003,
        "lon": 77.55978
      },
      "tags": {
        "amenity": "school",
        "name": "Venkat International School",
        "wheelchair": "limited"
      }
    },
    {
      "type": "way",
      "id": 220195322,
      "center": {
        "lat": 12.9845793,
        "lon": 77.5469655
      },
      "tags": {
        "name": "Mandovi Motors",
        "name:kn": "ಮಂಡೋವಿ ಮೋಟರ್ಸ್",
        "shop": "car_repair",
        "wheelchair": "limited"
      }
    },
    {
      "type": "way",
      "id": 248981465,
      "center": {
        "lat": 12.9856441,
        "lon": 77.5561073
      },
      "tags": {
        "leisure": "park",
        "name": "Ram Mandir Ground"
      }
    },
    {
      "type": "way",
      "id": 248982011,
      "center": {
        "lat": 12.9864756,
        "lon": 77.5560959
      },
      "tags": {
        "amenity": "place_of_worship",
        "building": "temple",
        "name": "Sri Rama Mandira",
        "name:kn": "ಶ್ರೀ ರಾಮ ಮಂದಿರ",
        "religion": "hindu"
      }
    },
    {
      "type": "way",
      "id": 259570534,
      "center": {
        "lat": 12.9815956,
        "lon": 77.5529529
      },
      "tags": {
        "amenity": "college",
        "building": "yes",
        "int_name": "Rajajinagar Parents' Association Education Trust",
        "name": "RPA First Grade College",
        "wheelchair": "no"
      }
    },
    {
      "type": "way",
      "id": 323810984,
      "center": {
        "lat": 12.9741801,
        "lon": 77.5520631
      },
      "tags": {
        "amenity": "cinema",
        "name": "Prasanna",
        "name:kn": "ಪ್ರಸಣ್ಣ",
        "wheelchair": "no"
      }
    },
    {
      "type": "way",
      "id": 323810985,
      "center": {
        "lat": 12.973548,
        "lon": 77.5516898
      },
      "tags": {
        "addr:street": "Magadi Road",
        "building": "yes",
        "building:levels": "4",
        "name": "GT World Mall",
        "shop": "mall"
      }
    },
    {
      "type": "way",
      "id": 332419689,
      "center": {
        "lat": 12.9860061,
        "lon": 77.5561076
      },
      "tags": {
        "addr:city": "Bengaluru",
        "addr:district": "Bengaluru Urban",
        "addr:housenumber": "228/B",
        "addr:postcode": "560010",
        "addr:street": "55th Cross Rd, 1st Block, 3rd Block, Rajajinagar",
        "amenity": "library",
        "building": "yes",
        "name": "Public Library Rama Mandira Ground"
      }
    },
    {
      "type": "way",
      "id": 332420722,
      "center": {
        "lat": 12.9846871,
        "lon": 77.5539948
      },
      "tags": {
        "addr:city": "Bengaluru",
        "addr:postcode": "560010",
        "addr:street": "12th Main Road, Bashyam Circle, 3rd Block, Rajajinagar",
        "building": "yes",
        "name": "Flying Machine",
        "shop": "clothes"
      }
    },
    {
      "type": "way",
      "id": 346272579,
      "center": {
        "lat": 12.9768424,
        "lon": 77.544906
      },
      "tags": {
        "air_conditioning": "yes",
        "amenity": "clinic",
        "building": "yes",
        "healthcare": "Skin Care",
        "name": "Cutis",
        "opening_hours": "Mo-Th 09:00-20:00; Fr 11:00-20:00; Sa 09:00-17:00; Su off",
        "payment:cash": "yes",
        "payment:debit_cards": "yes"
      }
    },
    {
      "type": "way",
      "id": 346452600,
      "center": {
        "lat": 12.9746704,
        "lon": 77.5472859
      },
      "tags": {
        "brand": "DMart",
        "brand:wikidata": "Q5203271",
        "building": "retail",
        "designation": "D-Mart",
        "name": "DMart",
        "opening_hours": "Mo-Su 10:00-22:00",
        "shop": "supermarket",
        "wheelchair": "yes"
      }
    },
    {
      "type": "way",
      "id": 346453137,
      "center": {
        "lat": 12.9747088,
        "lon": 77.5477246
      },
      "tags": {
        "amenity": "community_centre",
        "building": "yes",
        "name": "Sri Suryodaya Kalyana Mantapa"
      }
    },
    {
      "type": "way",
      "id": 347524506,
      "center": {
        "lat": 12.9867944,
        "lon": 77.5503643
      },
      "tags": {
        "amenity": "place_of_worship",
        "religion": "hindu"
      }
    },
    {
      "type": "way",
      "id": 347575616,
      "center": {
        "lat": 12.9844374,
        "lon": 77.5583151
      },
      "tags": {
        "addr:city": "Bangalore",
        "addr:housenumber": "222A/3",
        "addr:postcode": "560010",
        "addr:street": "58th Cross Rd, 4th Block, Rajaji Nagar,",
        "amenity": "place_of_worship",
        "building": "yes",
        "denomination": "original",
        "description": "Original Mandir To Worship Lord Swaminarayan",
        "name": "Shri Swaminarayan Mandir Vadtal Sansthan",
        "religion": "hindu",
        "website": "http://swaminarayanbangalore.com/"
      }
    },
    {
      "type": "way",
      "id": 347577234,
      "center": {
        "lat": 12.9853867,
        "lon": 77.5565285
      },
      "tags": {
        "amenity": "place_of_worship",
        "building": "yes",
        "fixme": "name of the temple/community hall/prayer hall",
        "religion": "jain"
      }
    },
    {
      "type": "way",
      "id": 348143055,
      "center": {
        "lat": 12.9830781,
        "lon": 77.561042
      },
      "tags": {
        "amenity": "post_office",
        "building": "yes",
        "name": "India Post",
        "name:kn": "ಅಂಚೆ ಕಛೇರಿ",
        "operator": "India Post",
        "operator:wikidata": "Q3519720"
      }
    },
    {
      "type": "way",
      "id": 348154917,
      "center": {
        "lat": 12.9727437,
        "lon": 77.5477092
      },
      "tags": {
        "addr:street": "Pipeline Road",
        "amenity": "place_of_worship",
        "building": "mosque",
        "name": "Masjid E Jamia",
        "name:kn": "ಮಸ್ಜಿದ್ ಎ ಜಾಮಿಯ",
        "religion": "muslim"
      }
    },
    {
      "type": "way",
      "id": 363071335,
      "center": {
        "lat": 12.9863238,
        "lon": 77.5572633
      },
      "tags": {
        "addr:city": "Bangalore",
        "addr:housenumber": "209",
        "addr:postcode": "560010",
        "addr:street": "54th Cross Road",
        "dog": "yes",
        "leisure": "park",
        "name": "ABC Park",
        "opening_hours": "Mo-Su 05:00-20:00"
      }
    },
    {
      "type": "way",
      "id": 370462807,
      "center": {
        "lat": 12.9835772,
        "lon": 77.5465703
      },
      "tags": {
        "leisure": "park"
      }
    },
    {
      "type": "way",
      "id": 440598467,
      "center": {
        "lat": 12.9863051,
        "lon": 77.5502659
      },
      "tags": {
        "leisure": "playground",
        "name": "Dhobi Ghat Ground"
      }
    },
    {
      "type": "way",
      "id": 442786620,
      "center": {
        "lat": 12.9841446,
        "lon": 77.5496683
      },
      "tags": {
        "amenity": "school",
        "name": "National Public School, Rajajinagar",
        "name:kn": "ರಾಷ್ಟ್ರೀಯ ಸಾರ್ವಜನಿಕ ಶಾಲೆ ರಾಜಾಜಿನಗರ",
        "official_name": "National Public School",
        "wikidata": "Q6975125",
        "wikipedia": "en:National Public School, Rajajinagar"
      }
    },
    {
      "type": "way",
      "id": 532677470,
      "center": {
        "lat": 12.9838124,
        "lon": 77.5499157
      },
      "tags": {
        "leisure": "playground"
      }
    },
    {
      "type": "way",
      "id": 532677475,
      "center": {
        "lat": 12.9841084,
        "lon": 77.5499302
      },
      "tags": {
        "leisure": "pitch",
        "sport": "basketball",
        "surface": "paved"
      }
    },
    {
      "type": "way",
      "id": 532677476,
      "center": {
        "lat": 12.9843635,
        "lon": 77.5499367
      },
      "tags": {
        "leisure": "pitch",
        "sport": "volleyball",
        "surface": "unpaved"
      }
    },
    {
      "type": "way",
      "id": 762500480,
      "center": {
        "lat": 12.9845643,
        "lon": 77.5495696
      },
      "tags": {
        "leisure": "garden"
      }
    },
    {
      "type": "way",
      "id": 766604290,
      "center": {
        "lat": 12.9781752,
        "lon": 77.5627983
      },
      "tags": {
        "leisure": "pitch",
        "name": "Tennis Court",
        "name:kn": "ಟೆನ್ನಿಸ್ ಅಂಗಣ",
        "sport": "tennis"
      }
    },
    {
      "type": "way",
      "id": 768703826,
      "center": {
        "lat": 12.9751266,
        "lon": 77.5474765
      },
      "tags": {
        "access": "private",
        "leisure": "swimming_pool"
      }
    },
    {
      "type": "way",
      "id": 768703827,
      "center": {
        "lat": 12.9767771,
        "lon": 77.5570604
      },
      "tags": {
        "leisure": "garden"
      }
    },
    {
      "type": "way",
      "id": 768703830,
      "center": {
        "lat": 12.976935,
        "lon": 77.5569343
      },
      "tags": {
        "access": "private",
        "leisure": "swimming_pool"
      }
    },
    {
      "type": "way",
      "id": 781543778,
      "center": {
        "lat": 12.9751343,
        "lon": 77.5499288
      },
      "tags": {
        "leisure": "park"
      }
    },
    {
      "type": "way",
      "id": 781588915,
      "center": {
        "lat": 12.9810437,
        "lon": 77.5557619
      },
      "tags": {
        "addr:city": "Bengaluru",
        "addr:country": "IN",
        "addr:district": "Bangalore Urban",
        "addr:housenumber": "176",
        "addr:postcode": "560010",
        "addr:street": "6th Cross Road",
        "addr:suburb": "Rajajinagar",
        "leisure": "sports_centre",
        "name": "Tennis Temple",
        "sport": "tennis",
        "website": "https://tennis360.in"
      }
    },
    {
      "type": "way",
      "id": 781588917,
      "center": {
        "lat": 12.9822633,
        "lon": 77.5530491
      },
      "tags": {
        "amenity": "school",
        "name": "Venkat International School",
        "wheelchair": "limited"
      }
    },
    {
      "type": "way",
      "id": 781588936,
      "center": {
        "lat": 12.9737097,
        "lon": 77.5510375
      },
      "tags": {
        "leisure": "park"
      }
    },
    {
      "type": "way",
      "id": 781588941,
      "center": {
        "lat": 12.9735555,
        "lon": 77.5500963
      },
      "tags": {
        "leisure": "park"
      }
    },
    {
      "type": "way",
      "id": 781588942,
      "center": {
        "lat": 12.9728237,
        "lon": 77.5493534
      },
      "tags": {
        "leisure": "park"
      }
    },
    {
      "type": "way",
      "id": 781588944,
      "center": {
        "lat": 12.9732222,
        "lon": 77.5477514
      },
      "tags": {
        "leisure": "park"
      }
    },
    {
      "type": "way",
      "id": 851788944,
      "center": {
        "lat": 12.9821724,
        "lon": 77.5612902
      },
      "tags": {
        "addr:city": "Bangalore",
        "addr:street": "Link Road",
        "amenity": "college",
        "name": "SJR College for Women"
      }
    },
    {
      "type": "way",
      "id": 991965856,
      "center": {
        "lat": 12.9780504,
        "lon": 77.5631151
      },
      "tags": {
        "leisure": "park"
      }
    },
    {
      "type": "way",
      "id": 1076618915,
      "center": {
        "lat": 12.9849552,
        "lon": 77.556924
      },
      "tags": {
        "amenity": "hospital"
      }
    },
    {
      "type": "way",
      "id": 1084363602,
      "center": {
        "lat": 12.9854992,
        "lon": 77.5500979
      },
      "tags": {
        "name": "Dhobi Ghat",
        "name:kn": "ಧೋಬಿ ಘಾಟ್",
        "shop": "laundry"
      }
    },
    {
      "type": "way",
      "id": 1084363608,
      "center": {
        "lat": 12.9840297,
        "lon": 77.551708
      },
      "tags": {
        "leisure": "park"
      }
    },
    {
      "type": "way",
      "id": 1084363611,
      "center": {
        "lat": 12.9851688,
        "lon": 77.5487069
      },
      "tags": {
        "shop": "car_repair"
      }
    },
    {
      "type": "way",
      "id": 1084363614,
      "center": {
        "lat": 12.9831886,
        "lon": 77.549527
      },
      "tags": {
        "leisure": "park"
      }
    },
    {
      "type": "way",
      "id": 1136503963,
      "center": {
        "lat": 12.9806566,
        "lon": 77.5485024
      },
      "tags": {
        "amenity": "fire_station",
        "name": "Rajajinagar Fire Station",
        "name:kn": "ಅಗ್ನಿಶಾಮಕ ಠಾಣೆ, ರಾಜಾಜಿನಗರ"
      }
    },
    {
      "type": "way",
      "id": 1187741521,
      "center": {
        "lat": 12.9818579,
        "lon": 77.562324
      },
      "tags": {
        "access": "customers",
        "amenity": "motorcycle_parking",
        "parking": "surface"
      }
    },
    {
      "type": "way",
      "id": 1222725575,
      "center": {
        "lat": 12.9794752,
        "lon": 77.5628191
      },
      "tags": {
        "leisure": "playground"
      }
    },
    {
      "type": "way",
      "id": 1222725576,
      "center": {
        "lat": 12.9793284,
        "lon": 77.5628305
      },
      "tags": {
        "access": "permissive",
        "leisure": "swimming_pool"
      }
    },
    {
      "type": "way",
      "id": 1339066332,
      "center": {
        "lat": 12.9736457,
        "lon": 77.5453395
      },
      "tags": {
        "amenity": "place_of_worship",
        "landuse": "religious",
        "name": "Sri Adichunchanagiri Mutt",
        "religion": "hindu"
      }
    },
    {
      "type": "way",
      "id": 1343404342,
      "center": {
        "lat": 12.9768301,
        "lon": 77.5447022
      },
      "tags": {
        "amenity": "place_of_worship",
        "landuse": "religious",
        "religion": "hindu"
      }
    },
    {
      "type": "way",
      "id": 1343404377,
      "center": {
        "lat": 12.9748682,
        "lon": 77.5456734
      },
      "tags": {
        "amenity": "community_centre",
        "landuse": "commercial",
        "name": "Basaveshwara Sugnana Mantapa"
      }
    },
    {
      "type": "way",
      "id": 1343404415,
      "center": {
        "lat": 12.9747947,
        "lon": 77.548976
      },
      "tags": {
        "amenity": "place_of_worship",
        "landuse": "religious",
        "name": "Sai Baba Temple",
        "religion": "hindu"
      }
    },
    {
      "type": "way",
      "id": 1343404417,
      "center": {
        "lat": 12.9755501,
        "lon": 77.548309
      },
      "tags": {
        "amenity": "fuel",
        "brand": "Indian Oil",
        "name": "Indian Oil",
        "operator": "Indian Oil"
      }
    },
    {
      "type": "way",
      "id": 1343404422,
      "center": {
        "lat": 12.9746569,
        "lon": 77.5477682
      },
      "tags": {
        "amenity": "place_of_worship",
        "landuse": "religious",
        "name": "Shani Mahatma Temple",
        "name:kn": "ಶನಿ ಮಹಾತ್ಮ ದೇವಸ್ಥಾನ",
        "religion": "hindu"
      }
    },
    {
      "type": "way",
      "id": 1352475178,
      "center": {
        "lat": 12.9759236,
        "lon": 77.5573789
      },
      "tags": {
        "amenity": "fuel"
      }
    },
    {
      "type": "way",
      "id": 1352475182,
      "center": {
        "lat": 12.9761165,
        "lon": 77.5565538
      },
      "tags": {
        "access": "yes",
        "amenity": "parking",
        "fee": "yes",
        "operator": "BMRCL",
        "parking": "surface"
      }
    }
  ]
}