{
  "area_name": "Rajotsava Nagar",
  "osm_id": 3417085495,
  "osm_type": "node",
  "place_type": "neighbourhood",
  "amenity_count": 234,
  "amenities": [
    {
      "type": "node",
      "id": 1318917183,
      "lat": 12.9040043,
      "lon": 77.5734008,
      "tags": {
        "amenity": "restaurant",
        "brand": "Pizza Hut",
        "brand:wikidata": "Q191615",
        "cuisine": "pizza",
        "name": "Pizza Hut",
        "name:kn": "ಪಿಟ್ಸ ಹಟ್"
      }
    },
    {
      "type": "node",
      "id": 1331929309,
      "lat": 12.9089347,
      "lon": 77.5626077,
      "tags": {
        "amenity": "cafe",
        "cuisine": "ice_cream",
        "internet_access": "no",
        "name": "Polar Bear"
      }
    },
    {
      "type": "node",
      "id": 1331929318,
      "lat": 12.9083281,
      "lon": 77.5639541,
      "tags": {
        "amenity": "atm",
        "brand": "ICICI Bank",
        "brand:wikidata": "Q1653258",
        "operator": "ICICI Bank",
        "operator:wikidata": "Q1653258",
        "short_name": "ICICI"
      }
    },
    {
      "type": "node",
      "id": 1331929352,
      "lat": 12.9075699,
      "lon": 77.5640131,
      "tags": {
        "amenity": "restaurant",
        "cuisine": "regional",
        "delivery": "yes",
        "name": "Udupi Swada",
        "outdoor_seating": "yes",
        "reservation": "no",
        "takeaway": "yes"
      }
    },
    {
      "type": "node",
      "id": 1331929354,
      "lat": 12.9089138,
      "lon": 77.5625218,
      "tags": {
        "amenity": "cafe",
        "cuisine": "coffee_shop",
        "name": "NJAC"
      }
    },
    {
      "type": "node",
      "id": 1334443041,
      "lat": 12.9083213,
      "lon": 77.5641425,
      "tags": {
        "amenity": "atm",
        "brand": "Canara Bank",
        "brand:en": "Canara Bank",
        "brand:hi": "केनरा बैंक",
        "brand:kn": "ಕೆನರಾ ಬ್ಯಾಂಕ್",
        "brand:pa": "ਕੇਨਰਾ ਬੈਂਕ",
        "brand:pnb": "کینرا بینک",
        "brand:ur": "کینرا بینک",
        "brand:wikidata": "Q2003777",
        "name:en": "Canara Bank",
        "name:hi": "केनरा बैंक",
        "name:kn": "ಕೆನರಾ ಬ್ಯಾಂಕ್",
        "name:pa": "ਕੇਨਰਾ ਬੈਂਕ",
        "name:pnb": "کینرا بینک",
        "name:ur": "کینرا بینک",
        "operator": "Canara Bank",
        "operator:wikidata": "Q2003777"
      }
    },
    {
      "type": "node",
      "id": 1334443049,
      "lat": 12.9084259,
      "lon": 77.5639762,
      "tags": {
        "amenity": "atm",
        "brand": "HDFC Bank",
        "brand:wikidata": "Q631047",
        "operator": "HDFC Bank",
        "operator:wikidata": "Q631047",
        "short_name": "HDFC"
      }
    },
    {
      "type": "node",
      "id": 1334443051,
      "lat": 12.9019316,
      "lon": 77.5611814,
      "tags": {
        "amenity": "bank",
        "brand": "State Bank of India",
        "brand:wikidata": "Q1340361",
        "brand:wikipedia": "en:State Bank of India",
        "name": "State Bank of India",
        "name:kn": "ಮೈಸೂರು ಬ್ಯಾಂಕ್‌",
        "short_name": "SBI",
        "website": "https://www.sbi.co.in"
      }
    },
    {
      "type": "node",
      "id": 1339731713,
      "lat": 12.9085182,
      "lon": 77.5650897,
      "tags": {
        "amenity": "parking",
        "name": "Sagar Hospital Parking",
        "parking": "multi-storey"
      }
    },
    {
      "type": "node",
      "id": 1339731852,
      "lat": 12.909578,
      "lon": 77.5641601,
      "tags": {
        "amenity": "pharmacy",
        "brand": "Apollo Pharmacy",
        "brand:wikidata": "Q62562612",
        "dispensing": "yes",
        "healthcare": "pharmacy",
        "name": "Apollo Pharmacy",
        "name:kn": "ಅಪೋಲೋ ಫಾರ್ಮಸಿ"
      }
    },
    {
      "type": "node",
      "id": 1339732021,
      "lat": 12.9089389,
      "lon": 77.5664343,
      "tags": {
        "amenity": "college",
        "name": "Dayanand Sagar College of Engineering"
      }
    },
    {
      "type": "node",
      "id": 2985825946,
      "lat": 12.9093893,
      "lon": 77.5655125,
      "tags": {
        "name": "Avirag electronics",
        "shop": "electronics"
      }
    },
    {
      "type": "node",
      "id": 2985825947,
      "lat": 12.9094831,
      "lon": 77.5642571,
      "tags": {
        "amenity": "clinic",
        "name": "Medplus Path Labs"
      }
    },
    {
      "type": "node",
      "id": 2985825981,
      "lat": 12.9092276,
      "lon": 77.5630344,
      "tags": {
        "amenity": "bar",
        "name": "Liquor Paradise"
      }
    },
    {
      "type": "node",
      "id": 2985828831,
      "lat": 12.9094955,
      "lon": 77.5642924,
      "tags": {
        "amenity": "bank",
        "atm": "yes",
        "brand": "Axis Bank",
        "brand:wikidata": "Q2003549",
        "brand:wikipedia": "en:Axis Bank",
        "name": "Axis Bank",
        "name:en": "Axis Bank",
        "name:kn": "ಆಕ್ಸಿಸ್ ಬ್ಯಾಂಕ್",
        "website": "https://www.axisbank.com"
      }
    },
    {
      "type": "node",
      "id": 2986412019,
      "lat": 12.9117516,
      "lon": 77.5671499,
      "tags": {
        "amenity": "atm",
        "brand": "UCO Bank",
        "brand:wikidata": "Q2005310",
        "name": "UCO Bank",
        "operator": "UCO Bank",
        "operator:wikidata": "Q2005310"
      }
    },
    {
      "type": "node",
      "id": 2986412021,
      "lat": 12.9117262,
      "lon": 77.5671334,
      "tags": {
        "amenity": "atm",
        "brand": "State Bank of India",
        "brand:wikidata": "Q1340361",
        "name": "SBI ATM",
        "name:kn": "ಭಾರತೀಯ ಸ್ಟೇಟ್ ಬ್ಯಾಂಕ್",
        "operator": "State Bank of India",
        "operator:wikidata": "Q1340361",
        "short_name": "SBI"
      }
    },
    {
      "type": "node",
      "id": 2986412022,
      "lat": 12.9114857,
      "lon": 77.5670878,
      "tags": {
        "name": "New Students Corner",
        "shop": "bakery"
      }
    },
    {
      "type": "node",
      "id": 2986412023,
      "lat": 12.9112765,
      "lon": 77.5670395,
      "tags": {
        "amenity": "cafe",
        "name": "Ganesh Juice Center"
      }
    },
    {
      "type": "node",
      "id": 2986412024,
      "lat": 12.9111406,
      "lon": 77.567002,
      "tags": {
        "amenity": "fast_food",
        "brand": "Five Star Chicken",
        "cuisine": "chicken",
        "delivery": "yes",
        "name": "Five Star Chicken",
        "takeaway": "yes"
      }
    },
    {
      "type": "node",
      "id": 2986412025,
      "lat": 12.9093837,
      "lon": 77.5664401,
      "tags": {
        "amenity": "bank",
        "atm": "yes",
        "brand": "Bank of Baroda",
        "brand:wikidata": "Q2003797",
        "name": "Bank of Baroda",
        "name:kn": "ವಿಜಯ ಬ್ಯಾಂಕು"
      }
    },
    {
      "type": "node",
      "id": 2986412026,
      "lat": 12.9094255,
      "lon": 77.5655013,
      "tags": {
        "amenity": "atm",
        "brand": "State Bank of India",
        "brand:wikidata": "Q1340361",
        "name": "State Bank of India",
        "name:kn": "ಭಾರತೀಯ ಸ್ಟೇಟ್ ಬ್ಯಾಂಕ್",
        "operator": "State Bank of India",
        "operator:wikidata": "Q1340361",
        "short_name": "SBI"
      }
    },
    {
      "type": "node",
      "id": 2986412027,
      "lat": 12.9089445,
      "lon": 77.5652653,
      "tags": {
        "amenity": "atm",
        "brand": "Oriental Bank of Commerce",
        "brand:wikidata": "Q367008",
        "name": "Oriental Bank of Commerce",
        "operator": "Oriental Bank of Commerce",
        "operator:wikidata": "Q367008"
      }
    },
    {
      "type": "node",
      "id": 2986421839,
      "lat": 12.9060149,
      "lon": 77.5645008,
      "tags": {
        "amenity": "place_of_worship",
        "name": "Shri Vasavi Kaniyaka Parameshwari Temple",
        "religion": "hindu"
      }
    },
    {
      "type": "node",
      "id": 2986421840,
      "lat": 12.9058829,
      "lon": 77.5649045,
      "tags": {
        "amenity": "place_of_worship",
        "name": "Udhbhava Kumarswamy Temple",
        "name:kn": "ಉದ್ಭವ ಕುಮಾರಸ್ವಾಮಿ ದೇವಸ್ಥಾನ",
        "religion": "hindu"
      }
    },
    {
      "type": "node",
      "id": 2986480247,
      "lat": 12.9051908,
      "lon": 77.5647732,
      "tags": {
        "amenity": "place_of_worship",
        "name": "Shri Shri Shri Gangaparameshwari Temple",
        "name:kn": "ಗಂಗಾ ಪರಮೇಶ್ವರಿ ದೇವಸ್ಥಾನ",
        "religion": "hindu"
      }
    },
    {
      "type": "node",
      "id": 2986480248,
      "lat": 12.904979,
      "lon": 77.5646338,
      "tags": {
        "amenity": "place_of_worship",
        "name": "Shri Shri Chamundeshwari Temple",
        "name:kn": "ಚಾಮುಂಡೇಶ್ವರಿ ದೇವಸ್ಥಾನ",
        "religion": "hindu"
      }
    },
    {
      "type": "node",
      "id": 2986480255,
      "lat": 12.9046865,
      "lon": 77.565528,
      "tags": {
        "amenity": "atm",
        "brand": "Axis Bank",
        "brand:wikidata": "Q2003549",
        "name": "Axis Bank",
        "name:kn": "ಆಕ್ಸಿಸ್ ಬ್ಯಾಂಕ್",
        "operator": "Axis Bank",
        "operator:wikidata": "Q2003549"
      }
    },
    {
      "type": "node",
      "id": 2986480256,
      "lat": 12.9048653,
      "lon": 77.5657348,
      "tags": {
        "amenity": "restaurant",
        "cuisine": "regional",
        "name": "Shri Banashankari Darshini"
      }
    },
    {
      "type": "node",
      "id": 2986480267,
      "lat": 12.9049515,
      "lon": 77.5676264,
      "tags": {
        "amenity": "pharmacy",
        "name": "Karnataka Medicals and general stores"
      }
    },
    {
      "type": "node",
      "id": 2986480280,
      "lat": 12.908434,
      "lon": 77.568877,
      "tags": {
        "amenity": "place_of_worship",
        "religion": "muslim"
      }
    },
    {
      "type": "node",
      "id": 3296521511,
      "lat": 12.9072675,
      "lon": 77.5600601,
      "tags": {
        "amenity": "pharmacy",
        "name": "Samrudh Pharma"
      }
    },
    {
      "type": "node",
      "id": 3296524404,
      "lat": 12.9080649,
      "lon": 77.5625213,
      "tags": {
        "amenity": "place_of_worship",
        "name": "Ganesha Temple",
        "name:kn": "ಗಣೇಶ ದೇವಸ್ಥಾನ",
        "religion": "hindu"
      }
    },
    {
      "type": "node",
      "id": 3296533209,
      "lat": 12.9078395,
      "lon": 77.5625176,
      "tags": {
        "amenity": "place_of_worship",
        "name": "Kalabairaveshwara Temple",
        "name:kn": "ಕಾಲಬೈರವೇಶ್ವರ ದೇವಸ್ಥಾನ",
        "religion": "hindu"
      }
    },
    {
      "type": "node",
      "id": 3298945667,
      "lat": 12.9072506,
      "lon": 77.5600169,
      "tags": {
        "name": "Shop & Save",
        "shop": "supermarket"
      }
    },
    {
      "type": "node",
      "id": 4643990935,
      "lat": 12.9088536,
      "lon": 77.5644582,
      "tags": {
        "shop": "laundry"
      }
    },
    {
      "type": "node",
      "id": 5485805427,
      "lat": 12.912753,
      "lon": 77.5658534,
      "tags": {
        "amenity": "place_of_worship",
        "name": "Mosque",
        "name:kn": "ಮಸೀದಿ"
      }
    },
    {
      "type": "node",
      "id": 6531963628,
      "lat": 12.9040441,
      "lon": 77.574382,
      "tags": {
        "addr:place": "Jaraganahalli",
        "amenity": "school",
        "isced:level": "3",
        "name": "Shreyas School Jaraganahalli, Jaragana Halli 1",
        "name:kn": "ಶ್ರೇಯಸ್ ಶಾಲೆ ಜರಗನ ಹಳ್ಳಿ",
        "operator": "Private Un-Aided",
        "school": "Higher Secondary"
      }
    },
    {
      "type": "node",
      "id": 6882713325,
      "lat": 12.9079236,
      "lon": 77.5651087,
      "tags": {
        "addr:city": "Bengaluru",
        "addr:district": "BENGALURU URBAN",
        "addr:full": "Sy. No. 53, Shavige Malleshwara Hills, Kumar Swamy Layout, Banashankari",
        "addr:postcode": "560078",
        "addr:state": "Karnataka",
        "amenity": "blood_bank",
        "contact:mobile": "9591991888",
        "contact:phone": "8042999177",
        "name": "Sagar Hospital Blood Bank, Banashankari",
        "name:kn": "ಸಾಗರ ಆಸ್ಪತ್ರೆ ರಕ್ತ ಸಂಗ್ರಹ",
        "operator:type": "private",
        "source": "OpenGovernmentData"
      }
    },
    {
      "type": "node",
      "id": 6947556032,
      "lat": 12.9074269,
      "lon": 77.5716318,
      "tags": {
        "addr:district": "Bengaluru Urban",
        "addr:full": "11/2 8Th Cross, Gangadhar Nagar 100 Ring Road, J.P Nagar Post",
        "addr:postcode": "560078",
        "addr:state": "Karnataka",
        "amenity": "hospital",
        "name": "R.R. Hospital and Trauma Centre",
        "source": "OpenGovernmentData"
      }
    },
    {
      "type": "node",
      "id": 7520954480,
      "lat": 12.9001694,
      "lon": 77.5603874,
      "tags": {
        "amenity": "restaurant",
        "cuisine": "south_indian",
        "name": "Veg Corner",
        "opening_hours:covid19": "off"
      }
    },
    {
      "type": "node",
      "id": 7520954481,
      "lat": 12.9001862,
      "lon": 77.5603615,
      "tags": {
        "amenity": "restaurant",
        "name": "Veg Corner"
      }
    },
    {
      "type": "node",
      "id": 8999979617,
      "lat": 12.8967362,
      "lon": 77.5633917,
      "tags": {
        "email": "hello@themilletstore.in",
        "name": "The Millet Store",
        "opening_hours": "Mo-Su 09:00-19:00",
        "phone": "+916362033034",
        "shop": "convenience",
        "website": "https://themilletstore.in"
      }
    },
    {
      "type": "node",
      "id": 9611168900,
      "lat": 12.9109256,
      "lon": 77.5656056,
      "tags": {
        "amenity": "theatre",
        "name": "KV Subbanna Aptha Rangamandira"
      }
    },
    {
      "type": "node",
      "id": 9611168901,
      "lat": 12.910857,
      "lon": 77.565731,
      "tags": {
        "shop": "convenience"
      }
    },
    {
      "type": "node",
      "id": 10607507428,
      "lat": 12.9072909,
      "lon": 77.5733779,
      "tags": {
        "amenity": "bicycle_rental",
        "brand": "Yulu",
        "brand:wikidata": "Q104871276",
        "name": "Yulu",
        "network": "Yulu",
        "network:wikidata": "Q104871276",
        "operator": "Yulu"
      }
    },
    {
      "type": "node",
      "id": 10647620828,
      "lat": 12.9059616,
      "lon": 77.5734858,
      "tags": {
        "amenity": "atm",
        "check_date": "2023-02-11",
        "operator": "RBL"
      }
    },
    {
      "type": "node",
      "id": 11153618185,
      "lat": 12.9035771,
      "lon": 77.557286,
      "tags": {
        "amenity": "shelter",
        "shelter_type": "gazebo"
      }
    },
    {
      "type": "node",
      "id": 11195729745,
      "lat": 12.9005351,
      "lon": 77.5583911,
      "tags": {
        "amenity": "shelter",
        "shelter_type": "gazebo"
      }
    },
    {
      "type": "node",
      "id": 11292276523,
      "lat": 12.9069289,
      "lon": 77.5731279,
      "tags": {
        "access": "yes",
        "amenity": "drinking_water",
        "bottle": "yes",
        "indoor": "yes",
        "level": "1"
      }
    },
    {
      "type": "node",
      "id": 11292276524,
      "lat": 12.9073783,
      "lon": 77.5729982,
      "tags": {
        "access": "customers",
        "amenity": "drinking_water",
        "bottle": "yes",
        "indoor": "yes",
        "level": "1"
      }
    },
    {
      "type": "node",
      "id": 11292276525,
      "lat": 12.9068376,
      "lon": 77.5731978,
      "tags": {
        "access": "yes",
        "amenity": "toilets",
        "female": "yes",
        "level": "1",
        "male": "yes",
        "operator": "BMRCL",
        "toilets:handwashing": "yes",
        "toilets:position": "urinal"
      }
    },
    {
      "type": "node",
      "id": 11762795434,
      "lat": 12.9041368,
      "lon": 77.568103,
      "tags": {
        "addr:city": "Bengaluru",
        "addr:district": "Bengaluru",
        "addr:full": "Fayazabad, Kanka Nagar,Kumaraswamy layou, Bengaluru-560078",
        "addr:postcode": "560078",
        "name": "AS Sign Shop",
        "opening_hours": "Mo-Sa 11:00-20:00",
        "payment:cards": "yes",
        "payment:cash": "yes",
        "phone": "9900699969",
        "shop": "3d_printing",
        "website": "https://assignshop.com/"
      }
    },
    {
      "type": "node",
      "id": 11789326460,
      "lat": 12.898871,
      "lon": 77.566199,
      "tags": {
        "amenity": "shelter",
        "shelter_type": "gazebo"
      }
    },
    {
      "type": "node",
      "id": 11794684866,
      "lat": 12.9048915,
      "lon": 77.5624233,
      "tags": {
        "name": "Sri Maruthi Glass and Plywood",
        "shop": "hardware"
      }
    },
    {
      "type": "node",
      "id": 11794800066,
      "lat": 12.9070711,
      "lon": 77.5638206,
      "tags": {
        "amenity": "pharmacy",
        "name": "Sumukha Medicals"
      }
    },
    {
      "type": "node",
      "id": 11794855750,
      "lat": 12.9072066,
      "lon": 77.5639201,
      "tags": {
        "amenity": "bank",
        "branch": "Kumaraswamy Layout",
        "brand": "Axis Bank",
        "brand:wikidata": "Q2003549",
        "name": "Axis Bank"
      }
    },
    {
      "type": "node",
      "id": 11794856453,
      "lat": 12.9073172,
      "lon": 77.5639625,
      "tags": {
        "amenity": "restaurant",
        "name": "Thalassery Restaurant"
      }
    },
    {
      "type": "node",
      "id": 11794874459,
      "lat": 12.9068996,
      "lon": 77.5637704,
      "tags": {
        "amenity": "bank",
        "branch": "Kumaraswamy Layout",
        "brand": "State Bank of India",
        "brand:wikidata": "Q1340361",
        "name": "State Bank of India",
        "short_name": "SBI"
      }
    },
    {
      "type": "node",
      "id": 11794875010,
      "lat": 12.9080228,
      "lon": 77.5639733,
      "tags": {
        "amenity": "cafe",
        "name": "Namm Kannada"
      }
    },
    {
      "type": "node",
      "id": 11794886156,
      "lat": 12.908264,
      "lon": 77.5641568,
      "tags": {
        "name": "Kaggis Bakery",
        "shop": "bakery"
      }
    },
    {
      "type": "node",
      "id": 11794889411,
      "lat": 12.9067062,
      "lon": 77.5634005,
      "tags": {
        "amenity": "pharmacy",
        "name": "Heathline Pharma and General Store"
      }
    },
    {
      "type": "node",
      "id": 11794892554,
      "lat": 12.9059948,
      "lon": 77.5631587,
      "tags": {
        "name": "tumbledry",
        "shop": "laundry"
      }
    },
    {
      "type": "node",
      "id": 11794895170,
      "lat": 12.9078461,
      "lon": 77.5639082,
      "tags": {
        "amenity": "milk",
        "brand": "Nandini",
        "name": "Nandini",
        "shop": "dairy"
      }
    },
    {
      "type": "node",
      "id": 11794899194,
      "lat": 12.9064193,
      "lon": 77.5633803,
      "tags": {
        "name": "Sahyadri Coffee and spices",
        "shop": "spices"
      }
    },
    {
      "type": "node",
      "id": 11794900171,
      "lat": 12.9055332,
      "lon": 77.5627886,
      "tags": {
        "amenity": "pharmacy",
        "name": "Dharani Pharma"
      }
    },
    {
      "type": "node",
      "id": 11799150110,
      "lat": 12.9032287,
      "lon": 77.5628972,
      "tags": {
        "amenity": "shelter",
        "shelter_type": "gazebo"
      }
    },
    {
      "type": "node",
      "id": 11799150118,
      "lat": 12.9034744,
      "lon": 77.5626424,
      "tags": {
        "amenity": "fast_food",
        "brand": "Indira Canteen",
        "brand:wikidata": "Q36164828",
        "cuisine": "south_indian",
        "name": "Indira Canteen",
        "operator": "BBMP",
        "takeaway": "yes"
      }
    },
    {
      "type": "node",
      "id": 11799150293,
      "lat": 12.9037784,
      "lon": 77.5620382,
      "tags": {
        "amenity": "bench",
        "backrest": "yes",
        "material": "stone",
        "seats": "2"
      }
    },
    {
      "type": "node",
      "id": 11799150294,
      "lat": 12.9037013,
      "lon": 77.5620047,
      "tags": {
        "amenity": "bench",
        "backrest": "yes",
        "material": "stone",
        "seats": "2"
      }
    },
    {
      "type": "node",
      "id": 11801601924,
      "lat": 12.9074435,
      "lon": 77.5640097,
      "tags": {
        "shop": "alcohol"
      }
    },
    {
      "type": "node",
      "id": 11801880285,
      "lat": 12.9058079,
      "lon": 77.5582074,
      "tags": {
        "amenity": "fast_food",
        "brand": "Indira Canteen",
        "brand:wikidata": "Q36164828",
        "cuisine": "south_indian",
        "name": "Indira Canteen",
        "operator": "BBMP",
        "takeaway": "yes"
      }
    },
    {
      "type": "node",
      "id": 11801880290,
      "lat": 12.9059954,
      "lon": 77.5584233,
      "tags": {
        "amenity": "fast_food",
        "cuisine": "regional",
        "name": "Sri Krishna Aramane"
      }
    },
    {
      "type": "node",
      "id": 11801895903,
      "lat": 12.904198,
      "lon": 77.5621046,
      "tags": {
        "name": "Chowdeshwari Scooter Works",
        "rental": "no",
        "repair": "yes",
        "sale": "no",
        "shop": "motorcycle"
      }
    },
    {
      "type": "node",
      "id": 11801895904,
      "lat": 12.9045059,
      "lon": 77.5613181,
      "tags": {
        "amenity": "dentist",
        "name": "United Dental"
      }
    },
    {
      "type": "node",
      "id": 11801895908,
      "lat": 12.9050274,
      "lon": 77.5601506,
      "tags": {
        "name": "Ladies Tailor",
        "shop": "tailor"
      }
    },
    {
      "type": "node",
      "id": 11801895910,
      "lat": 12.9051059,
      "lon": 77.5600192,
      "tags": {
        "amenity": "clinic",
        "name": "Maruthi Clinic"
      }
    },
    {
      "type": "node",
      "id": 11801895911,
      "lat": 12.9054582,
      "lon": 77.5597765,
      "tags": {
        "amenity": "school",
        "name": "Samskruthi Public School"
      }
    },
    {
      "type": "node",
      "id": 11801896079,
      "lat": 12.9060922,
      "lon": 77.5605758,
      "tags": {
        "name": "Sri Nagamalai Service Center",
        "shop": "car_repair"
      }
    },
    {
      "type": "node",
      "id": 11801896085,
      "lat": 12.9071177,
      "lon": 77.5597872,
      "tags": {
        "amenity": "bank",
        "atm": "yes",
        "brand": "Canara Bank",
        "brand:en": "Canara Bank",
        "brand:hi": "केनरा बैंक",
        "brand:kn": "ಕೆನರಾ ಬ್ಯಾಂಕ್",
        "brand:pa": "ਕੇਨਰਾ ਬੈਂਕ",
        "brand:pnb": "کینرا بینک",
        "brand:ur": "کینرا بینک",
        "brand:wikidata": "Q2003777",
        "name": "Canara Bank",
        "name:en": "Canara Bank",
        "name:hi": "केनरा बैंक",
        "name:kn": "ಕೆನರಾ ಬ್ಯಾಂಕ್",
        "name:pa": "ਕੇਨਰਾ ਬੈਂਕ",
        "name:pnb": "کینرا بینک",
        "name:ur": "کینرا بینک"
      }
    },
    {
      "type": "node",
      "id": 11801896086,
      "lat": 12.9071693,
      "lon": 77.559871,
      "tags": {
        "amenity": "bank",
        "atm": "yes",
        "brand": "ICICI Bank",
        "brand:wikidata": "Q1653258",
        "name": "ICICI Bank",
        "short_name": "ICICI"
      }
    },
    {
      "type": "node",
      "id": 11801896105,
      "lat": 12.9069968,
      "lon": 77.5627933,
      "tags": {
        "amenity": "astrologer"
      }
    },
    {
      "type": "node",
      "id": 11801896106,
      "lat": 12.9061994,
      "lon": 77.5630843,
      "tags": {
        "amenity": "clinic",
        "name": "Balaji ENT Clinic"
      }
    },
    {
      "type": "node",
      "id": 11801896490,
      "lat": 12.906636,
      "lon": 77.5596672,
      "tags": {
        "shop": "greengrocer"
      }
    },
    {
      "type": "node",
      "id": 11801896491,
      "lat": 12.9066765,
      "lon": 77.5595874,
      "tags": {
        "shop": "greengrocer"
      }
    },
    {
      "type": "node",
      "id": 11801896492,
      "lat": 12.9067981,
      "lon": 77.5594506,
      "tags": {
        "shop": "greengrocer"
      }
    },
    {
      "type": "node",
      "id": 11801896493,
      "lat": 12.906785,
      "lon": 77.5597188,
      "tags": {
        "amenity": "fast_food",
        "name": "Sabji Corner"
      }
    },
    {
      "type": "node",
      "id": 11801896494,
      "lat": 12.9071804,
      "lon": 77.5601902,
      "tags": {
        "name": "Bliss Bakery",
        "shop": "bakery"
      }
    },
    {
      "type": "node",
      "id": 11801896495,
      "lat": 12.9039411,
      "lon": 77.5619792,
      "tags": {
        "name": "Exide",
        "shop": "hardware"
      }
    },
    {
      "type": "node",
      "id": 11801896496,
      "lat": 12.9039856,
      "lon": 77.5619993,
      "tags": {
        "name": "Amaron",
        "shop": "hardware"
      }
    },
    {
      "type": "node",
      "id": 11801896497,
      "lat": 12.9040228,
      "lon": 77.5620161,
      "tags": {
        "name": "Luminous",
        "shop": "hardware"
      }
    },
    {
      "type": "node",
      "id": 11801896498,
      "lat": 12.9044006,
      "lon": 77.5619464,
      "tags": {
        "name": "Kumar Fancy Store",
        "shop": "stationery"
      }
    },
    {
      "type": "node",
      "id": 11801896499,
      "lat": 12.9045091,
      "lon": 77.5617103,
      "tags": {
        "amenity": "fast_food",
        "name": "Davangere Mirchi"
      }
    },
    {
      "type": "node",
      "id": 11801896500,
      "lat": 12.9046215,
      "lon": 77.5610746,
      "tags": {
        "brand": "Nandini",
        "name": "Nandini",
        "shop": "dairy"
      }
    },
    {
      "type": "node",
      "id": 11801896501,
      "lat": 12.9048346,
      "lon": 77.5605503,
      "tags": {
        "amenity": "ice_cream",
        "name": "Modern Ice Cream"
      }
    },
    {
      "type": "node",
      "id": 11801896502,
      "lat": 12.9052621,
      "lon": 77.559983,
      "tags": {
        "name": "My Fresh",
        "shop": "greengrocer"
      }
    },
    {
      "type": "node",
      "id": 11801896503,
      "lat": 12.9052987,
      "lon": 77.5599052,
      "tags": {
        "shop": "dairy"
      }
    },
    {
      "type": "node",
      "id": 11801896504,
      "lat": 12.9054739,
      "lon": 77.5595592,
      "tags": {
        "name": "Sri Chakravarthi Jewllers",
        "shop": "jewelry"
      }
    },
    {
      "type": "node",
      "id": 11801896505,
      "lat": 12.9056347,
      "lon": 77.5600688,
      "tags": {
        "brand": "Nandini",
        "brand:wikidata": "Q124374212",
        "name": "Nandini",
        "name:kn": "ನಂದಿನಿ",
        "shop": "dairy"
      }
    },
    {
      "type": "node",
      "id": 11801896506,
      "lat": 12.9063732,
      "lon": 77.5600795,
      "tags": {
        "name": "Prakash Ladies Tailor",
        "shop": "tailor"
      }
    },
    {
      "type": "node",
      "id": 11801896507,
      "lat": 12.90657,
      "lon": 77.5596122,
      "tags": {
        "name": "Pooja Jewellery",
        "shop": "jewelry"
      }
    },
    {
      "type": "node",
      "id": 11801896508,
      "lat": 12.9065915,
      "lon": 77.5594915,
      "tags": {
        "name": "Jockey",
        "shop": "clothes"
      }
    },
    {
      "type": "node",
      "id": 11801896510,
      "lat": 12.9069811,
      "lon": 77.5599857,
      "tags": {
        "amenity": "pharmacy",
        "name": "Lakshmi General Store"
      }
    },
    {
      "type": "node",
      "id": 11801896511,
      "lat": 12.9071935,
      "lon": 77.5602324,
      "tags": {
        "name": "Veer Soningra Fancy Store",
        "shop": "clothes"
      }
    },
    {
      "type": "node",
      "id": 11801896512,
      "lat": 12.9071831,
      "lon": 77.5602975,
      "tags": {
        "name": "Naveen Tailors",
        "shop": "tailor"
      }
    },
    {
      "type": "node",
      "id": 11801896513,
      "lat": 12.9072778,
      "lon": 77.560553,
      "tags": {
        "name": "Apsara Designers",
        "shop": "boutique"
      }
    },
    {
      "type": "node",
      "id": 11801896514,
      "lat": 12.9073157,
      "lon": 77.5610733,
      "tags": {
        "name": "Vcer Electronics & Home Appliances",
        "shop": "kitchen"
      }
    },
    {
      "type": "node",
      "id": 11801896516,
      "lat": 12.9070713,
      "lon": 77.561304,
      "tags": {
        "name": "Nandini Photo Frames",
        "shop": "frame"
      }
    },
    {
      "type": "node",
      "id": 11801896517,
      "lat": 12.9070046,
      "lon": 77.5618404,
      "tags": {
        "name": "AM Bike Point",
        "parts": "yes",
        "rental": "no",
        "repair": "yes",
        "sale": "no",
        "shop": "motorcycle"
      }
    },
    {
      "type": "node",
      "id": 11801896518,
      "lat": 12.9069615,
      "lon": 77.5620697,
      "tags": {
        "amenity": "fast_food",
        "cuisine": "regional",
        "name": "Idly 24"
      }
    },
    {
      "type": "node",
      "id": 11801896519,
      "lat": 12.9069288,
      "lon": 77.5623339,
      "tags": {
        "name": "Vivo",
        "shop": "mobile_phone"
      }
    },
    {
      "type": "node",
      "id": 11801896520,
      "lat": 12.9069,
      "lon": 77.562633,
      "tags": {
        "brand": "Nandini",
        "name": "Nandini",
        "shop": "dairy"
      }
    },
    {
      "type": "node",
      "id": 11801896521,
      "lat": 12.9069955,
      "lon": 77.5627497,
      "tags": {
        "amenity": "fast_food",
        "name": "Stop N Joy"
      }
    },
    {
      "type": "node",
      "id": 11801896522,
      "lat": 12.9069589,
      "lon": 77.5631614,
      "tags": {
        "shop": "computer"
      }
    },
    {
      "type": "node",
      "id": 11801896523,
      "lat": 12.9067497,
      "lon": 77.5633478,
      "tags": {
        "amenity": "fast_food",
        "name": "Eat N Drink"
      }
    },
    {
      "type": "node",
      "id": 11801896524,
      "lat": 12.9067255,
      "lon": 77.5634068,
      "tags": {
        "amenity": "fast_food",
        "name": "Donne Biryani Corner"
      }
    },
    {
      "type": "node",
      "id": 11801896525,
      "lat": 12.9064621,
      "lon": 77.5634377,
      "tags": {
        "name": "Bharath Furnitures",
        "shop": "furniture"
      }
    },
    {
      "type": "node",
      "id": 11801896526,
      "lat": 12.9063719,
      "lon": 77.563376,
      "tags": {
        "name": "Chowdeshwari Rice Traders",
        "shop": "convenience"
      }
    },
    {
      "type": "node",
      "id": 11801896527,
      "lat": 12.9062713,
      "lon": 77.5631178,
      "tags": {
        "name": "Sri Vinayaka Dry Cleaners",
        "shop": "dry_cleaning"
      }
    },
    {
      "type": "node",
      "id": 11801896544,
      "lat": 12.9061183,
      "lon": 77.5630534,
      "tags": {
        "name": "JK Furniture",
        "shop": "furniture"
      }
    },
    {
      "type": "node",
      "id": 11801896545,
      "lat": 12.9055203,
      "lon": 77.562747,
      "tags": {
        "name": "Iyengar Sweets and Bakery",
        "shop": "bakery"
      }
    },
    {
      "type": "node",
      "id": 11801896546,
      "lat": 12.9060177,
      "lon": 77.5630052,
      "tags": {
        "amenity": "fast_food",
        "cuisine": "regional",
        "name": "Jagli Thindi"
      }
    },
    {
      "type": "node",
      "id": 11801896547,
      "lat": 12.9056549,
      "lon": 77.5628214,
      "tags": {
        "name": "Century Ply",
        "shop": "furniture"
      }
    },
    {
      "type": "node",
      "id": 11801896548,
      "lat": 12.9056288,
      "lon": 77.5630286,
      "tags": {
        "brand": "Asian Paints",
        "brand:wikidata": "Q28171825",
        "name": "Asian Paints",
        "shop": "paint"
      }
    },
    {
      "type": "node",
      "id": 11801896549,
      "lat": 12.905519,
      "lon": 77.5629569,
      "tags": {
        "name": "Nandus",
        "shop": "butcher"
      }
    },
    {
      "type": "node",
      "id": 11801896550,
      "lat": 12.9050954,
      "lon": 77.5625485,
      "tags": {
        "shop": "electronics"
      }
    },
    {
      "type": "node",
      "id": 11801896551,
      "lat": 12.9048549,
      "lon": 77.5623997,
      "tags": {
        "amenity": "pharmacy",
        "name": "Mitra Medical Centre"
      }
    },
    {
      "type": "node",
      "id": 11801896552,
      "lat": 12.9047876,
      "lon": 77.5623541,
      "tags": {
        "name": "Titan",
        "shop": "watches"
      }
    },
    {
      "type": "node",
      "id": 11801896553,
      "lat": 12.9052359,
      "lon": 77.5626122,
      "tags": {
        "amenity": "fast_food",
        "cuisine": "regional",
        "name": "SLV Refreshment"
      }
    },
    {
      "type": "node",
      "id": 11801896560,
      "lat": 12.9045947,
      "lon": 77.5623125,
      "tags": {
        "shop": "optician"
      }
    },
    {
      "type": "node",
      "id": 11813198347,
      "lat": 12.9024293,
      "lon": 77.5688598,
      "tags": {
        "amenity": "place_of_worship",
        "name": "Masjid e Faiz",
        "religion": "muslim"
      }
    },
    {
      "type": "node",
      "id": 11813198348,
      "lat": 12.903466,
      "lon": 77.567628,
      "tags": {
        "amenity": "place_of_worship",
        "name": "Masjid e Abu Bakr",
        "religion": "muslim"
      }
    },
    {
      "type": "node",
      "id": 11813198349,
      "lat": 12.9036202,
      "lon": 77.5684011,
      "tags": {
        "name": "Iyengar's Amma's Pastries",
        "shop": "bakery"
      }
    },
    {
      "type": "node",
      "id": 11813225339,
      "lat": 12.9030947,
      "lon": 77.5703658,
      "tags": {
        "name": "Bismillah Provision Store",
        "shop": "convenience"
      }
    },
    {
      "type": "node",
      "id": 11813225340,
      "lat": 12.9043117,
      "lon": 77.568727,
      "tags": {
        "amenity": "school",
        "name": "New Era Primary & High School"
      }
    },
    {
      "type": "node",
      "id": 11813225341,
      "lat": 12.9045614,
      "lon": 77.5694311,
      "tags": {
        "amenity": "place_of_worship",
        "name": "Masjid e Umar",
        "religion": "muslim"
      }
    },
    {
      "type": "node",
      "id": 11813225392,
      "lat": 12.9032032,
      "lon": 77.5697228,
      "tags": {
        "amenity": "place_of_worship",
        "name": "Masjid e Usman",
        "religion": "muslim"
      }
    },
    {
      "type": "node",
      "id": 11813225397,
      "lat": 12.9048902,
      "lon": 77.5683146,
      "tags": {
        "name": "Yaseen Store",
        "shop": "convenience"
      }
    },
    {
      "type": "node",
      "id": 11813225398,
      "lat": 12.9047967,
      "lon": 77.568269,
      "tags": {
        "name": "Hello Provision Store",
        "shop": "convenience"
      }
    },
    {
      "type": "node",
      "id": 11813225524,
      "lat": 12.9036411,
      "lon": 77.5680175,
      "tags": {
        "amenity": "school",
        "name": "St. Thomas International School"
      }
    },
    {
      "type": "node",
      "id": 11813225529,
      "lat": 12.9034673,
      "lon": 77.5687028,
      "tags": {
        "amenity": "kindergarten",
        "name": "Aswad Day Care"
      }
    },
    {
      "type": "node",
      "id": 11813225530,
      "lat": 12.9034568,
      "lon": 77.56879,
      "tags": {
        "amenity": "pharmacy",
        "name": "Aswad Medical Store"
      }
    },
    {
      "type": "node",
      "id": 11813227397,
      "lat": 12.9075935,
      "lon": 77.5707809,
      "tags": {
        "amenity": "hospital",
        "name": "Bengaluru City Hospital"
      }
    },
    {
      "type": "node",
      "id": 11813227431,
      "lat": 12.9071295,
      "lon": 77.5701486,
      "tags": {
        "name": "Iyengar Bakery",
        "shop": "bakery"
      }
    },
    {
      "type": "node",
      "id": 11813227436,
      "lat": 12.9045719,
      "lon": 77.5682455,
      "tags": {
        "name": "Mutton Stall",
        "shop": "butcher"
      }
    },
    {
      "type": "node",
      "id": 11813266184,
      "lat": 12.9056987,
      "lon": 77.5693486,
      "tags": {
        "shop": "butcher"
      }
    },
    {
      "type": "node",
      "id": 11813266185,
      "lat": 12.9057262,
      "lon": 77.5693989,
      "tags": {
        "shop": "hairdresser"
      }
    },
    {
      "type": "node",
      "id": 12171236647,
      "lat": 12.9032735,
      "lon": 77.5737196,
      "tags": {
        "description": "Water filter and other consumables",
        "name": "Aqua World",
        "shop": "appliance"
      }
    },
    {
      "type": "node",
      "id": 12508642648,
      "lat": 12.898493,
      "lon": 77.5620708,
      "tags": {
        "addr:city": "Bengaluru",
        "addr:housenumber": "153",
        "addr:postcode": "560078",
        "addr:street": "40 Fort Rd, Vikram Nagar, Yalachenahalli",
        "name": "JBR",
        "shop": "yes"
      }
    },
    {
      "type": "node",
      "id": 12512478240,
      "lat": 12.9070922,
      "lon": 77.5730158,
      "tags": {
        "access": "yes",
        "amenity": "motorcycle_parking",
        "covered": "yes",
        "fee": "yes",
        "operator": "BMRCL",
        "parking": "surface"
      }
    },
    {
      "type": "node",
      "id": 12964476366,
      "lat": 12.9011693,
      "lon": 77.5579422,
      "tags": {
        "description": "Vegetable shop with home delivery within 2 KMs for bill above ₹400",
        "name": "Hasiru Thota",
        "opening_hours": "06:00-21:00",
        "phone": "7795502240",
        "shop": "greengrocer"
      }
    },
    {
      "type": "node",
      "id": 13130809622,
      "lat": 12.9007691,
      "lon": 77.5737005,
      "tags": {
        "addr:city": "Bengaluru",
        "addr:district": "Bengaluru Urban",
        "addr:housenumber": "146",
        "addr:postcode": "560078",
        "addr:street": "Kanakapura Road",
        "name": "Sri Lakshmi Auto Electrical and Battery Works",
        "shop": "car_repair"
      }
    },
    {
      "type": "way",
      "id": 119172185,
      "center": {
        "lat": 12.9021504,
        "lon": 77.5588106
      },
      "tags": {
        "leisure": "park",
        "name": "Kumaraswamy Layout Park",
        "name:kn": "ಕುಮಾರಸ್ವಾಮಿ ಬಡಾವಣೆ ಉದ್ಯಾನವನ"
      }
    },
    {
      "type": "way",
      "id": 188433204,
      "center": {
        "lat": 12.9116078,
        "lon": 77.563912
      },
      "tags": {
        "leisure": "park"
      }
    },
    {
      "type": "way",
      "id": 239449581,
      "center": {
        "lat": 12.8982316,
        "lon": 77.5605454
      },
      "tags": {
        "leisure": "park",
        "name": "Rastrakavi Kuvempu Playground",
        "name:etymology:wikidata": "Q3351108",
        "operator": "ಬೃಹತ್ ಬೆಂಗಳೂರು ಮಹಾನಗರ ಪಾಲಿಕೆ",
        "operator:en": "Bruhat Bengaluru Mahanagara Palike",
        "operator:ka": "ಬೃಹತ್ ಬೆಂಗಳೂರು ಮಹಾನಗರ ಪಾಲಿಕೆ",
        "operator:short": "BBMP",
        "operator:type": "government",
        "operator:wikidata": "Q4978693"
      }
    },
    {
      "type": "way",
      "id": 239555420,
      "center": {
        "lat": 12.90134,
        "lon": 77.5579681
      },
      "tags": {
        "amenity": "bank",
        "brand": "Canara Bank",
        "brand:en": "Canara Bank",
        "brand:hi": "केनरा बैंक",
        "brand:kn": "ಕೆನರಾ ಬ್ಯಾಂಕ್",
        "brand:pa": "ਕੇਨਰਾ ਬੈਂਕ",
        "brand:pnb": "کینرا بینک",
        "brand:ur": "کینرا بینک",
        "brand:wikidata": "Q2003777",
        "brand:wikipedia": "en:Canara Bank",
        "brand:wikipedia:pa": "ਕੇਨਰਾ ਬੈਂਕ",
        "building": "yes",
        "name": "Canara Bank",
        "name:en": "Canara Bank",
        "name:hi": "केनरा बैंक",
        "name:kn": "ಕೆನರಾ ಬ್ಯಾಂಕ್",
        "name:pa": "ਕੇਨਰਾ ਬੈਂਕ",
        "name:pnb": "کینرا بینک",
        "name:ur": "کینرا بینک",
        "website": "https://www.canarabank.com/"
      }
    },
    {
      "type": "way",
      "id": 239555460,
      "center": {
        "lat": 12.900548,
        "lon": 77.5584899
      },
      "tags": {
        "leisure": "park",
        "name": "Triangle Park ISRO Layout"
      }
    },
    {
      "type": "way",
      "id": 259878361,
      "center": {
        "lat": 12.8995957,
        "lon": 77.5575497
      },
      "tags": {
        "leisure": "park",
        "name": "Children's Park",
        "operator": "ಬೃಹತ್ ಬೆಂಗಳೂರು ಮಹಾನಗರ ಪಾಲಿಕೆ",
        "operator:en": "Bruhat Bengaluru Mahanagara Palike",
        "operator:ka": "ಬೃಹತ್ ಬೆಂಗಳೂರು ಮಹಾನಗರ ಪಾಲಿಕೆ",
        "operator:short": "BBMP",
        "operator:type": "government",
        "operator:wikidata": "Q4978693"
      }
    },
    {
      "type": "way",
      "id": 259879354,
      "center": {
        "lat": 12.8994801,
        "lon": 77.558449
      },
      "tags": {
        "amenity": "bus_station",
        "bus": "yes",
        "internet_access": "yes",
        "internet_access:fee": "customers",
        "name": "ISRO Layout Bus Stand",
        "name:kn": "ಬಸ್ ನಿಲ್ದಾಣ",
        "public_transport": "station"
      }
    },
    {
      "type": "way",
      "id": 294995608,
      "center": {
        "lat": 12.9069084,
        "lon": 77.5650004
      },
      "tags": {
        "leisure": "playground"
      }
    },
    {
      "type": "way",
      "id": 294999800,
      "center": {
        "lat": 12.9052391,
        "lon": 77.5651936
      },
      "tags": {
        "leisure": "playground"
      }
    },
    {
      "type": "way",
      "id": 322859361,
      "center": {
        "lat": 12.9088622,
        "lon": 77.5610719
      },
      "tags": {
        "leisure": "park",
        "name": "Raj Katte Park",
        "note": "No children play area"
      }
    },
    {
      "type": "way",
      "id": 334647969,
      "center": {
        "lat": 12.900453,
        "lon": 77.5725322
      },
      "tags": {
        "landuse": "recreation_ground",
        "leisure": "pitch"
      }
    },
    {
      "type": "way",
      "id": 347223443,
      "center": {
        "lat": 12.9057557,
        "lon": 77.5644229
      },
      "tags": {
        "amenity": "place_of_worship",
        "building": "yes",
        "religion": "hindu"
      }
    },
    {
      "type": "way",
      "id": 347223859,
      "center": {
        "lat": 12.9053018,
        "lon": 77.5644609
      },
      "tags": {
        "amenity": "place_of_worship",
        "building": "yes"
      }
    },
    {
      "type": "way",
      "id": 347224329,
      "center": {
        "lat": 12.9056095,
        "lon": 77.5649245
      },
      "tags": {
        "amenity": "place_of_worship",
        "building": "yes"
      }
    },
    {
      "type": "way",
      "id": 347226659,
      "center": {
        "lat": 12.9056308,
        "lon": 77.5644535
      },
      "tags": {
        "amenity": "place_of_worship",
        "building": "yes",
        "religion": "hindu"
      }
    },
    {
      "type": "way",
      "id": 347231662,
      "center": {
        "lat": 12.896796,
        "lon": 77.5703127
      },
      "tags": {
        "addr:city": "Bengaluru",
        "addr:housenumber": "Ground Floor, 67",
        "addr:postcode": "560078",
        "addr:street": "Kanakapura Rd, next to Vaishnavi Residency, Yelachenahalli, Naidu Layout",
        "amenity": "restaurant",
        "building": "restaurant",
        "name": "Paakashala",
        "name:kn": "ಪಾಕಶಾಲೆ",
        "website": "https://paakashala.com/"
      }
    },
    {
      "type": "way",
      "id": 347591637,
      "center": {
        "lat": 12.9055094,
        "lon": 77.5651399
      },
      "tags": {
        "amenity": "place_of_worship",
        "building": "yes"
      }
    },
    {
      "type": "way",
      "id": 347591659,
      "center": {
        "lat": 12.9060743,
        "lon": 77.5644977
      },
      "tags": {
        "amenity": "place_of_worship",
        "building": "yes",
        "religion": "hindu"
      }
    },
    {
      "type": "way",
      "id": 349716799,
      "center": {
        "lat": 12.9065758,
        "lon": 77.5572543
      },
      "tags": {
        "amenity": "place_of_worship",
        "building": "yes",
        "name": "Raja Rajeshwari Temple",
        "name:kn": "ರಾಜ ರಾಜೇಶ್ವರಿ ದೇವಸ್ಥಾನ",
        "religion": "hindu"
      }
    },
    {
      "type": "way",
      "id": 362891218,
      "center": {
        "lat": 12.9002135,
        "lon": 77.5621488
      },
      "tags": {
        "leisure": "park",
        "name": "BBMP",
        "name:kn": "ಬೃ. ಬೆಂ. ಮ. ಪಾ.",
        "operator": "ಬೃಹತ್ ಬೆಂಗಳೂರು ಮಹಾನಗರ ಪಾಲಿಕೆ",
        "operator:en": "Bruhat Bengaluru Mahanagara Palike",
        "operator:ka": "ಬೃಹತ್ ಬೆಂಗಳೂರು ಮಹಾನಗರ ಪಾಲಿಕೆ",
        "operator:short": "BBMP",
        "operator:type": "government",
        "operator:wikidata": "Q4978693"
      }
    },
    {
      "type": "way",
      "id": 442048027,
      "center": {
        "lat": 12.9077922,
        "lon": 77.5667401
      },
      "tags": {
        "amenity": "college",
        "name": "Dayanand Sagar Institutions",
        "name:kn": "ದಯಾನಂದ ಸಾಗರ್ ಕಾಲೇಜು"
      }
    },
    {
      "type": "way",
      "id": 442048031,
      "center": {
        "lat": 12.9078674,
        "lon": 77.5651623
      },
      "tags": {
        "amenity": "hospital",
        "building": "hospital",
        "name": "Sagar Hospital",
        "name:kn": "ಸಾಗರ ಆಸ್ಪತ್ರೆ",
        "opening_hours": "Mo-Su 00:00-23:00"
      }
    },
    {
      "type": "way",
      "id": 469349055,
      "center": {
        "lat": 12.9042459,
        "lon": 77.5625
      },
      "tags": {
        "alt_name": "Kumaraswamy Park",
        "alt_name:kn": "ಕುಮಾರಸ್ವಾಮಿ ಉದ್ಯಾನವನ",
        "leisure": "park",
        "name": "Atal Bihari Vajpayee Park",
        "name:etymology:wikidata": "Q233289",
        "name:kn": "ಅಟಲ್ ಬಿಹಾರಿ ವಾಜಪೇಯಿ ಉದ್ಯಾನವನ"
      }
    },
    {
      "type": "way",
      "id": 469349058,
      "center": {
        "lat": 12.9048447,
        "lon": 77.5621046
      },
      "tags": {
        "leisure": "park",
        "name": "Ambabhavi park",
        "name:kn": "ಅಂಬಾಬಾವಿ ಉದ್ಯಾನವನ"
      }
    },
    {
      "type": "way",
      "id": 469353409,
      "center": {
        "lat": 12.9061459,
        "lon": 77.5577684
      },
      "tags": {
        "amenity": "school"
      }
    },
    {
      "type": "way",
      "id": 469354011,
      "center": {
        "lat": 12.9064926,
        "lon": 77.5572909
      },
      "tags": {
        "amenity": "place_of_worship",
        "building": "yes",
        "name": "Sri Rajarajeshwari Temple",
        "name:kn": "ಶ್ರೀ ರಾಜರಾಜೇಶ್ವರಿ ದೇವಸ್ಥಾನ",
        "religion": "hindu"
      }
    },
    {
      "type": "way",
      "id": 790005417,
      "center": {
        "lat": 12.9109524,
        "lon": 77.5716388
      },
      "tags": {
        "amenity": "place_of_worship",
        "building": "yes",
        "name": "Masjid At-Tawheed Ahle Hadees",
        "religion": "muslim"
      }
    },
    {
      "type": "way",
      "id": 1137982234,
      "center": {
        "lat": 12.900122,
        "lon": 77.5733646
      },
      "tags": {
        "addr:place": "Jaraganahalli",
        "amenity": "school",
        "isced:level": "2",
        "name": "GMPS Jaraganahalli",
        "name:kn": "ಸರ್ಕಾರಿ ಮರಾಠ ಹಿರಿಯ ಪ್ರಾಥಮಿಕ ಶಾಲೆ ಜರಗನಹಳ್ಳಿ",
        "operator": "Department of Education",
        "school": "primary"
      }
    },
    {
      "type": "way",
      "id": 1148268346,
      "center": {
        "lat": 12.9050939,
        "lon": 77.5629547
      },
      "tags": {
        "amenity": "police",
        "name": "Kumaraswamy Layout Police Station",
        "name:kn": "ಕುಮಾರಸ್ವಾಮಿ ಲೇಔಟ್ ಪೋಲಿಸ್ ಸ್ಟೇಶನ್"
      }
    },
    {
      "type": "way",
      "id": 1148268347,
      "center": {
        "lat": 12.9069498,
        "lon": 77.5645767
      },
      "tags": {
        "landuse": "recreation_ground",
        "leisure": "pitch",
        "name": "Kumaraswamy Layout Grounds"
      }
    },
    {
      "type": "way",
      "id": 1176579538,
      "center": {
        "lat": 12.8964747,
        "lon": 77.5698873
      },
      "tags": {
        "access": "customers",
        "amenity": "parking",
        "parking": "surface"
      }
    },
    {
      "type": "way",
      "id": 1203175539,
      "center": {
        "lat": 12.9035215,
        "lon": 77.5574108
      },
      "tags": {
        "leisure": "park"
      }
    },
    {
      "type": "way",
      "id": 1208265152,
      "center": {
        "lat": 12.9032862,
        "lon": 77.5655639
      },
      "tags": {
        "leisure": "park"
      }
    },
    {
      "type": "way",
      "id": 1208265155,
      "center": {
        "lat": 12.9057145,
        "lon": 77.566493
      },
      "tags": {
        "leisure": "park"
      }
    },
    {
      "type": "way",
      "id": 1208265156,
      "center": {
        "lat": 12.9032764,
        "lon": 77.5628899
      },
      "tags": {
        "leisure": "park"
      }
    },
    {
      "type": "way",
      "id": 1208265157,
      "center": {
        "lat": 12.9037019,
        "lon": 77.5641337
      },
      "tags": {
        "leisure": "park"
      }
    },
    {
      "type": "way",
      "id": 1208265158,
      "center": {
        "lat": 12.9026489,
        "lon": 77.5628262
      },
      "tags": {
        "leisure": "park"
      }
    },
    {
      "type": "way",
      "id": 1208265159,
      "center": {
        "lat": 12.9011571,
        "lon": 77.5617683
      },
      "tags": {
        "leisure": "park"
      }
    },
    {
      "type": "way",
      "id": 1263805847,
      "center": {
        "lat": 12.9037719,
        "lon": 77.5617198
      },
      "tags": {
        "amenity": "fuel",
        "brand": "Indian Oil",
        "brand:wikidata": "Q1289348",
        "brand:wikipedia": "en:Indian Oil Corporation",
        "name": "Chinnaswamy Petrol",
        "operator": "Indian Oil"
      }
    },
    {
      "type": "way",
      "id": 1263805868,
      "center": {
        "lat": 12.9062937,
        "lon": 77.5727718
      },
      "tags": {
        "amenity": "grave_yard",
        "landuse": "cemetery"
      }
    },
    {
      "type": "way",
      "id": 1263805882,
      "center": {
        "lat": 12.9080004,
        "lon": 77.5712087
      },
      "tags": {
        "amenity": "fuel",
        "brand": "Bharat Petroleum",
        "brand:wikidata": "Q854826",
        "name": "Bharath Petroleum",
        "name:en": "Bharath Petroleum",
        "name:kn": "ಭಾರತ್ ಪೆಟ್ರೋಲಿಯಂ",
        "opening_hours": "24/7",
        "source": "gps"
      }
    },
    {
      "type": "way",
      "id": 1269267287,
      "center": {
        "lat": 12.8996612,
        "lon": 77.5656458
      },
      "tags": {
        "leisure": "park"
      }
    },
    {
      "type": "way",
      "id": 1270407977,
      "center": {
        "lat": 12.9076814,
        "lon": 77.5640964
      },
      "tags": {
        "access": "customers",
        "amenity": "parking",
        "parking": "surface"
      }
    },
    {
      "type": "way",
      "id": 1270560978,
      "center": {
        "lat": 12.9081086,
        "lon": 77.5661575
      },
      "tags": {
        "amenity": "theatre",
        "name": "Amphitheatre",
        "theatre:type": "amphi"
      }
    },
    {
      "type": "way",
      "id": 1270560979,
      "center": {
        "lat": 12.9089752,
        "lon": 77.5678526
      },
      "tags": {
        "access": "permissive",
        "amenity": "parking",
        "parking": "surface"
      }
    },
    {
      "type": "way",
      "id": 1270560980,
      "center": {
        "lat": 12.9091881,
        "lon": 77.5659819
      },
      "tags": {
        "access": "permissive",
        "amenity": "parking",
        "parking": "surface"
      }
    },
    {
      "type": "way",
      "id": 1270560984,
      "center": {
        "lat": 12.9069,
        "lon": 77.5670812
      },
      "tags": {
        "leisure": "pitch",
        "sport": "tennis"
      }
    },
    {
      "type": "way",
      "id": 1270568400,
      "center": {
        "lat": 12.9027309,
        "lon": 77.5645404
      },
      "tags": {
        "amenity": "place_of_worship",
        "landuse": "religious",
        "name": "108 Ganesha Temple",
        "name:kn": "೧೦೮ ಗಣೇಶ",
        "religion": "hindu"
      }
    },
    {
      "type": "way",
      "id": 1270568405,
      "center": {
        "lat": 12.901644,
        "lon": 77.5616377
      },
      "tags": {
        "leisure": "park"
      }
    },
    {
      "type": "way",
      "id": 1270568416,
      "center": {
        "lat": 12.9034088,
        "lon": 77.5629804
      },
      "tags": {
        "leisure": "playground"
      }
    },
    {
      "type": "way",
      "id": 1270568418,
      "center": {
        "lat": 12.9058582,
        "lon": 77.5696094
      },
      "tags": {
        "amenity": "place_of_worship",
        "landuse": "religious",
        "name": "Noorani Masjid",
        "name:kn": "ನೂರಾನಿ ಮಸೀದಿ",
        "religion": "muslim"
      }
    },
    {
      "type": "way",
      "id": 1270568419,
      "center": {
        "lat": 12.9050042,
        "lon": 77.5721612
      },
      "tags": {
        "leisure": "playground"
      }
    },
    {
      "type": "way",
      "id": 1270568420,
      "center": {
        "lat": 12.9052301,
        "lon": 77.5718879
      },
      "tags": {
        "access": "private",
        "leisure": "swimming_pool"
      }
    },
    {
      "type": "way",
      "id": 1270568427,
      "center": {
        "lat": 12.90408,
        "lon": 77.5665779
      },
      "tags": {
        "amenity": "school",
        "landuse": "education",
        "name": "Government Urdu Higher Primary School"
      }
    },
    {
      "type": "way",
      "id": 1270568433,
      "center": {
        "lat": 12.9078618,
        "lon": 77.5637562
      },
      "tags": {
        "leisure": "park"
      }
    },
    {
      "type": "way",
      "id": 1270568436,
      "center": {
        "lat": 12.9063696,
        "lon": 77.5604393
      },
      "tags": {
        "leisure": "park"
      }
    },
    {
      "type": "way",
      "id": 1270568440,
      "center": {
        "lat": 12.9051954,
        "lon": 77.5604128
      },
      "tags": {
        "addr:city": "Bengaluru",
        "addr:postcode": "560078",
        "addr:street": "1st Stage, Kumaraswamy Layout",
        "amenity": "place_of_worship",
        "landuse": "religious",
        "name": "Amba Bhavani Temple",
        "name:kn": "ಶ್ರೀ ಹನುಮಂತ",
        "religion": "hindu"
      }
    },
    {
      "type": "way",
      "id": 1270568444,
      "center": {
        "lat": 12.9042667,
        "lon": 77.5615543
      },
      "tags": {
        "amenity": "school",
        "name": "Blossom School"
      }
    },
    {
      "type": "way",
      "id": 1270568446,
      "center": {
        "lat": 12.9045091,
        "lon": 77.56268
      },
      "tags": {
        "leisure": "fitness_station"
      }
    },
    {
      "type": "way",
      "id": 1270568447,
      "center": {
        "lat": 12.904727,
        "lon": 77.5627743
      },
      "tags": {
        "leisure": "playground"
      }
    },
    {
      "type": "way",
      "id": 1270568459,
      "center": {
        "lat": 12.9033589,
        "lon": 77.5619554
      },
      "tags": {
        "alt_name": "Temple of Books",
        "amenity": "library",
        "landuse": "commercial",
        "name": "City Central Library",
        "name:kn": "ಕೇಂದ್ರಿಯ ಗ್ರಂಥಾಲಯ"
      }
    },
    {
      "type": "way",
      "id": 1270568466,
      "center": {
        "lat": 12.9029352,
        "lon": 77.5617157
      },
      "tags": {
        "amenity": "bus_station",
        "name": "Kumaraswamy Layout",
        "name:kn": "ಕುಮಾರಸ್ವಾಮಿ ಬಡಾವಣೆ"
      }
    },
    {
      "type": "way",
      "id": 1270788435,
      "center": {
        "lat": 12.9002593,
        "lon": 77.5717324
      },
      "tags": {
        "amenity": "school",
        "name": "Narayana e-Techno School"
      }
    },
    {
      "type": "way",
      "id": 1270797118,
      "center": {
        "lat": 12.9073394,
        "lon": 77.5647302
      },
      "tags": {
        "leisure": "sports_centre",
        "name": "Atmadarshan Yogashram",
        "name:kn": "ಆತ್ಮದರ್ಶನ ಯೋಗಾಶ್ರಮ",
        "sport": "yoga"
      }
    },
    {
      "type": "way",
      "id": 1270817507,
      "center": {
        "lat": 12.9031532,
        "lon": 77.5603082
      },
      "tags": {
        "amenity": "hospital",
        "healthcare": "hospital",
        "name": "Vasavi Hospital",
        "name:kn": "ವಾಸವಿ ಆಸ್ಪತ್ರೆ"
      }
    },
    {
      "type": "way",
      "id": 1270817515,
      "center": {
        "lat": 12.9041408,
        "lon": 77.5618783
      },
      "tags": {
        "amenity": "place_of_worship",
        "landuse": "religious",
        "name": "Sri Muneshwara Swamy Temple",
        "religion": "hindu"
      }
    },
    {
      "type": "way",
      "id": 1271076833,
      "center": {
        "lat": 12.9091226,
        "lon": 77.5706097
      },
      "tags": {
        "leisure": "park"
      }
    },
    {
      "type": "way",
      "id": 1271076834,
      "center": {
        "lat": 12.9089357,
        "lon": 77.5703496
      },
      "tags": {
        "leisure": "playground"
      }
    },
    {
      "type": "way",
      "id": 1271076836,
      "center": {
        "lat": 12.9090654,
        "lon": 77.5712328
      },
      "tags": {
        "amenity": "place_of_worship",
        "name": "Jamia Masjid",
        "name:kn": "ಜಮ ಮಸೀದಿ",
        "religion": "muslim"
      }
    },
    {
      "type": "way",
      "id": 1271076839,
      "center": {
        "lat": 12.9097171,
        "lon": 77.5711919
      },
      "tags": {
        "leisure": "park"
      }
    },
    {
      "type": "way",
      "id": 1271076950,
      "center": {
        "lat": 12.9040332,
        "lon": 77.5712282
      },
      "tags": {
        "access": "private",
        "leisure": "swimming_pool"
      }
    },
    {
      "type": "way",
      "id": 1271077557,
      "center": {
        "lat": 12.9080667,
        "lon": 77.5658416
      },
      "tags": {
        "leisure": "garden"
      }
    },
    {
      "type": "way",
      "id": 1271081094,
      "center": {
        "lat": 12.9006894,
        "lon": 77.5650342
      },
      "tags": {
        "amenity": "place_of_worship",
        "landuse": "religious",
        "religion": "hindu"
      }
    },
    {
      "type": "way",
      "id": 1271213565,
      "center": {
        "lat": 12.9056735,
        "lon": 77.5633871
      },
      "tags": {
        "amenity": "clinic",
        "name": "Kumaraswamy Layout UPHC",
        "operator": "BBMP"
      }
    },
    {
      "type": "way",
      "id": 1272148166,
      "center": {
        "lat": 12.8995204,
        "lon": 77.5580505
      },
      "tags": {
        "addr:city": "Bengaluru",
        "addr:district": "Bengaluru Urban",
        "addr:housenumber": "259",
        "addr:postcode": "560078",
        "addr:street": "3rd Main Road",
        "alt_name": "Mojro",
        "amenity": "bank",
        "atm": "yes",
        "brand": "State Bank of India",
        "brand:wikidata": "Q1340361",
        "building": "yes",
        "building:levels": "4",
        "name": "State Bank of India",
        "operator": "SBI",
        "short_name": "SBI"
      }
    },
    {
      "type": "way",
      "id": 1272152590,
      "center": {
        "lat": 12.9068134,
        "lon": 77.5715681
      },
      "tags": {
        "amenity": "fuel",
        "wheelchair": "limited"
      }
    },
    {
      "type": "way",
      "id": 1272154848,
      "center": {
        "lat": 12.9029904,
        "lon": 77.5671103
      },
      "tags": {
        "amenity": "school"
      }
    },
    {
      "type": "way",
      "id": 1352350871,
      "center": {
        "lat": 12.8971346,
        "lon": 77.5705733
      },
      "tags": {
        "amenity": "fuel"
      }
    },
    {
      "type": "way",
      "id": 1352350874,
      "center": {
        "lat": 12.9082544,
        "lon": 77.5728142
      },
      "tags": {
        "amenity": "place_of_worship",
        "building": "yes",
        "religion": "hindu"
      }
    },
    {
      "type": "way",
      "id": 1352350876,
      "center": {
        "lat": 12.9071391,
        "lon": 77.5728088
      },
      "tags": {
        "amenity": "place_of_worship",
        "building": "yes",
        "religion": "christian"
      }
    },
    {
      "type": "way",
      "id": 1428268204,
      "center": {
        "lat": 12.9013783,
        "lon": 77.5741397
      },
      "tags": {
        "leisure": "garden"
      }
    },
    {
      "type": "way",
      "id": 1428268205,
      "center": {
        "lat": 12.9013756,
        "lon": 77.5740871
      },
      "tags": {
        "access": "private",
        "leisure": "swimming_pool"
      }
    }
  ]
}