{
  "area_name": "Ramaswamypalya",
  "osm_id": 10796263247,
  "osm_type": "node",
  "place_type": "neighbourhood",
  "amenity_count": 133,
  "amenities": [
    {
      "type": "node",
      "id": 454142398,
      "lat": 13.0185503,
      "lon": 77.6364728,
      "tags": {
        "amenity": "hospital",
        "name": "Sathya Hospital",
        "name:kn": "ಸತ್ಯ ಆಸ್ಪತ್ರೆ"
      }
    },
    {
      "type": "node",
      "id": 454142399,
      "lat": 13.0183245,
      "lon": 77.6364269,
      "tags": {
        "amenity": "pharmacy",
        "dispensing": "yes",
        "name": "Sathya Medicals"
      }
    },
    {
      "type": "node",
      "id": 454160729,
      "lat": 13.017623,
      "lon": 77.6341168,
      "tags": {
        "amenity": "kindergarten",
        "name": "Orchid Academy"
      }
    },
    {
      "type": "node",
      "id": 1474863994,
      "lat": 13.0032065,
      "lon": 77.6358178,
      "tags": {
        "amenity": "cinema",
        "check_date": "2024-10-13",
        "name": "Mukunda Theatre",
        "name:kn": "ಮುಕುಂದ ಥೇಟರ್",
        "toilets:wheelchair": "no",
        "wheelchair": "no"
      }
    },
    {
      "type": "node",
      "id": 1742635196,
      "lat": 13.0149612,
      "lon": 77.6438861,
      "tags": {
        "amenity": "fast_food",
        "cuisine": "coffee_shop",
        "name": "Cuppa"
      }
    },
    {
      "type": "node",
      "id": 1742635612,
      "lat": 13.0150344,
      "lon": 77.6437466,
      "tags": {
        "name": "Pacer Yamaha showroom",
        "shop": "motorcycle"
      }
    },
    {
      "type": "node",
      "id": 1742637590,
      "lat": 13.0155149,
      "lon": 77.6430312,
      "tags": {
        "amenity": "place_of_worship",
        "check_date": "2024-07-10",
        "name": "Om Shakthi Temple",
        "name:kn": "ಓಂ ಶಕ್ತಿ ದೇವಸ್ಥಾನ",
        "religion": "hindu"
      }
    },
    {
      "type": "node",
      "id": 1742639143,
      "lat": 13.0159282,
      "lon": 77.6430921,
      "tags": {
        "name": "City Honda",
        "shop": "motorcycle"
      }
    },
    {
      "type": "node",
      "id": 1742654255,
      "lat": 13.0163724,
      "lon": 77.6428346,
      "tags": {
        "amenity": "bank",
        "atm": "yes",
        "brand": "State Bank of India",
        "brand:wikidata": "Q1340361",
        "brand:wikipedia": "en:State Bank of India",
        "name": "State Bank of India",
        "name:kn": "ಮೈಸೂರು ಬ್ಯಾಂಕ್‌",
        "short_name": "SBI",
        "website": "https://www.sbi.co.in"
      }
    },
    {
      "type": "node",
      "id": 1742670069,
      "lat": 13.0143184,
      "lon": 77.6423518,
      "tags": {
        "amenity": "school",
        "check_date": "2024-07-06",
        "name": "Patel Public School"
      }
    },
    {
      "type": "node",
      "id": 1742670267,
      "lat": 13.0140832,
      "lon": 77.6423465,
      "tags": {
        "name": "Bake Fields",
        "shop": "bakery"
      }
    },
    {
      "type": "node",
      "id": 1743937707,
      "lat": 13.0095498,
      "lon": 77.6434526,
      "tags": {
        "amenity": "restaurant",
        "cuisine": "indian",
        "name": "Uttam Sagar",
        "name:kn": "ಉತ್ತಮ್ ಸಾಗರ್"
      }
    },
    {
      "type": "node",
      "id": 1743937742,
      "lat": 13.0144106,
      "lon": 77.6427176,
      "tags": {
        "amenity": "restaurant",
        "cuisine": "indian",
        "name": "Adigas Annapoorna",
        "name:kn": "ಅಡಿಗಾಸ್ ಅನ್ನಪೂರ್ಣ"
      }
    },
    {
      "type": "node",
      "id": 2211056425,
      "lat": 13.0145004,
      "lon": 77.635717,
      "tags": {
        "amenity": "restaurant",
        "cuisine": "indian",
        "name": "Empire Restaurant"
      }
    },
    {
      "type": "node",
      "id": 2211056431,
      "lat": 13.0144977,
      "lon": 77.6357519,
      "tags": {
        "name": "Bakey and Joy",
        "shop": "bakery"
      }
    },
    {
      "type": "node",
      "id": 2466510949,
      "lat": 13.0030286,
      "lon": 77.6349993,
      "tags": {
        "amenity": "fuel",
        "brand": "Hindustan Petroleum",
        "brand:wikidata": "Q1619375",
        "name": "Srinivasa Petrol / Gas Station",
        "official_name": "Hindustan Petroleum",
        "operator": "HP"
      }
    },
    {
      "type": "node",
      "id": 2470763135,
      "lat": 13.0178488,
      "lon": 77.6364588,
      "tags": {
        "amenity": "fast_food",
        "local_ref": "KAMAANAHALLI",
        "name": "Kammanahalli",
        "name:en": "Kammanahalli",
        "name:kn": "ಕಮ್ಮನಹಳ್ಳಿ",
        "network": "BMTC",
        "operator": "BMTC"
      }
    },
    {
      "type": "node",
      "id": 2475354324,
      "lat": 13.0155815,
      "lon": 77.6426558,
      "tags": {
        "addr:city": "Kalyan Nagar, Bangalore",
        "addr:street": "7 Main Road",
        "amenity": "college",
        "check_date": "2024-07-06",
        "name": "East Point College"
      }
    },
    {
      "type": "node",
      "id": 3899674931,
      "lat": 13.0020857,
      "lon": 77.6325573,
      "tags": {
        "check_date": "2025-07-18",
        "name": "Waves Communication",
        "shop": "mobile_phone"
      }
    },
    {
      "type": "node",
      "id": 3899682778,
      "lat": 13.0020713,
      "lon": 77.6324856,
      "tags": {
        "name": "Bharath Bedding",
        "shop": "bedding"
      }
    },
    {
      "type": "node",
      "id": 4024967046,
      "lat": 13.00281,
      "lon": 77.6336462,
      "tags": {
        "amenity": "pharmacy",
        "healthcare": "pharmacy",
        "name": "Medreich"
      }
    },
    {
      "type": "node",
      "id": 4263311302,
      "lat": 13.0148535,
      "lon": 77.6336331,
      "tags": {
        "name": "Maha Bazar",
        "shop": "supermarket"
      }
    },
    {
      "type": "node",
      "id": 4263313808,
      "lat": 13.0147612,
      "lon": 77.6335463,
      "tags": {
        "amenity": "hospital",
        "name": "Dianova Diabetes Center and Hospital"
      }
    },
    {
      "type": "node",
      "id": 4349391290,
      "lat": 13.0047906,
      "lon": 77.636936,
      "tags": {
        "amenity": "fuel",
        "brand": "Indian Oil",
        "brand:wikidata": "Q1289348",
        "brand:wikipedia": "en:Indian Oil Corporation",
        "name": "Indianoil"
      }
    },
    {
      "type": "node",
      "id": 4349394091,
      "lat": 13.0086727,
      "lon": 77.6429248,
      "tags": {
        "amenity": "bank",
        "brand": "Indian Overseas Bank",
        "brand:wikidata": "Q2003611",
        "brand:wikipedia": "en:Indian Overseas Bank",
        "name": "Indian Overseas Bank",
        "name:en": "Indian Overseas Bank",
        "name:kn": "ಐ ಓ ಬಿ",
        "short_name": "IOB",
        "website": "https://www.iob.in"
      }
    },
    {
      "type": "node",
      "id": 4349394092,
      "lat": 13.0099795,
      "lon": 77.6434028,
      "tags": {
        "amenity": "bank",
        "brand:wikidata": "Q1340361",
        "brand:wikipedia": "en:State Bank of India",
        "name": "State Bank of India",
        "name:kn": "ಎಸ್ ಬಿ ಐ",
        "short_name": "SBI",
        "website": "https://www.sbi.co.in"
      }
    },
    {
      "type": "node",
      "id": 4349396789,
      "lat": 13.0042413,
      "lon": 77.6358455,
      "tags": {
        "amenity": "place_of_worship",
        "name": "Temple",
        "name:kn": "ದೇವಸ್ಥಾನ",
        "religion": "hindu"
      }
    },
    {
      "type": "node",
      "id": 4426126391,
      "lat": 13.0155316,
      "lon": 77.6394955,
      "tags": {
        "amenity": "cafe",
        "name": "Al Amanah Cafe",
        "name:en": "Al amanah cafe"
      }
    },
    {
      "type": "node",
      "id": 4446897124,
      "lat": 13.013929,
      "lon": 77.6389286,
      "tags": {
        "addr:city": "bangalore",
        "addr:housenumber": "8",
        "addr:postcode": "560033",
        "addr:street": "Nehru Road, Kullappa Road, Near-Kullapa Circle, Kammanahalli, PNS Layout, Subbayianiah Palyam, Banswadi",
        "amenity": "pharmacy",
        "name": "Royal Medicals",
        "phone": "08033792698"
      }
    },
    {
      "type": "node",
      "id": 4446912425,
      "lat": 13.0120076,
      "lon": 77.629801,
      "tags": {
        "addr:city": "bengaluru",
        "addr:postcode": "560066",
        "addr:street": "Immadihalli Main Rd, Vinayaka Layout, Whitefield",
        "amenity": "pharmacy",
        "drive_through": "no",
        "name": "Sri Durga Medicals",
        "phone": "+9198456 19107",
        "source": "http://www.bangalorean.co.in/"
      }
    },
    {
      "type": "node",
      "id": 4446981238,
      "lat": 13.0155944,
      "lon": 77.6397049,
      "tags": {
        "addr:city": "bangalore",
        "addr:housenumber": "20, 5th Avenue",
        "addr:postcode": "560043",
        "addr:street": "PNS Layout, Kalyan Nagar,",
        "amenity": "restaurant",
        "cuisine": "regional",
        "delivery": "yes",
        "name": "Al Amanah Cafe",
        "opening_hours": "16:00-23:30",
        "smoking": "no",
        "takeaway": "yes"
      }
    },
    {
      "type": "node",
      "id": 4489336845,
      "lat": 13.0142127,
      "lon": 77.6361981,
      "tags": {
        "addr:city": "bengalore",
        "addr:housenumber": "48, 49",
        "addr:postcode": "560084",
        "addr:street": "3rd Main Nehru Rd, MEG Layout, A Narayanapura, Kammanahalli,",
        "name": "Falcon Sports",
        "opening_hours": "10:30-22:30",
        "phone": "+919901541131",
        "shop": "sports"
      }
    },
    {
      "type": "node",
      "id": 4489749852,
      "lat": 13.0151194,
      "lon": 77.6368067,
      "tags": {
        "addr:city": "bangalore",
        "addr:housenumber": "218",
        "addr:postcode": "560043",
        "addr:street": "Sunshine Complex, 3rd Floor, Kammanahalli Main Road, Kalyan Nagar Post, HRBR Layout",
        "name": "Hair Do Salon And Spa",
        "opening_hours": "09:00-21:30",
        "phone": "080-25448677",
        "shop": "beauty"
      }
    },
    {
      "type": "node",
      "id": 4489754229,
      "lat": 13.0133693,
      "lon": 77.6355793,
      "tags": {
        "addr:city": "bangalore",
        "addr:housenumber": "36",
        "addr:postcode": "560084",
        "addr:street": "1st Floor, Kammanahalli Main Road, Kammanahalli",
        "leisure": "sports_centre",
        "name": "Leon Maestro De Fitness",
        "opening_hours": "05:00-23:00",
        "phone": "(91)-80-33537002",
        "sport": "gymnastics",
        "website": "https://www.fitternity.com/"
      }
    },
    {
      "type": "node",
      "id": 4489877531,
      "lat": 13.0155509,
      "lon": 77.6323859,
      "tags": {
        "addr:city": "bangalore",
        "addr:housenumber": "317",
        "addr:postcode": "560084",
        "addr:street": "3rd Block,3rd D Main, Kammanahalli",
        "name": "Parker Spa And Salon",
        "opening_hours": "09:00-21:00",
        "phone": "9611354523",
        "shop": "beauty"
      }
    },
    {
      "type": "node",
      "id": 4489887189,
      "lat": 13.0106898,
      "lon": 77.6367534,
      "tags": {
        "addr:city": "bangalore",
        "addr:housenumber": "44",
        "addr:postcode": "560084",
        "addr:street": "Kammanahalli Main Road",
        "name": "Sensia Salon And Spa",
        "opening_hours": "09:00-21:00",
        "phone": "9611995786",
        "shop": "beauty"
      }
    },
    {
      "type": "node",
      "id": 4489894388,
      "lat": 13.0153602,
      "lon": 77.6307515,
      "tags": {
        "addr:city": "bangalore",
        "addr:housenumber": "1987",
        "addr:postcode": "560084",
        "addr:street": "kammahalli road",
        "name": "Ebony Blonde",
        "opening_hours": "09:00-21:30",
        "phone": "9980836102",
        "shop": "beauty"
      }
    },
    {
      "type": "node",
      "id": 4490414160,
      "lat": 13.0157441,
      "lon": 77.6304813,
      "tags": {
        "addr:city": "bangalore",
        "addr:housenumber": "No.1987/1, Nehru Road",
        "addr:postcode": "560084",
        "addr:street": "2nd Cross Road",
        "name": "Ebony Blonde",
        "opening_hours": "10:00 - 20:00",
        "phone": "(91)-80-41125267",
        "shop": "beauty"
      }
    },
    {
      "type": "node",
      "id": 4506337587,
      "lat": 13.0024488,
      "lon": 77.6340261,
      "tags": {
        "name": "Maries Fish stall and chicken centre",
        "shop": "butcher"
      }
    },
    {
      "type": "node",
      "id": 4506375513,
      "lat": 13.0030193,
      "lon": 77.6353183,
      "tags": {
        "amenity": "atm",
        "brand": "Canara Bank",
        "brand:en": "Canara Bank",
        "brand:hi": "केनरा बैंक",
        "brand:kn": "ಕೆನರಾ ಬ್ಯಾಂಕ್",
        "brand:pa": "ਕੇਨਰਾ ਬੈਂਕ",
        "brand:pnb": "کینرا بینک",
        "brand:ur": "کینرا بینک",
        "brand:wikidata": "Q2003777",
        "name": "Canara Bank",
        "name:en": "Canara Bank",
        "name:hi": "केनरा बैंक",
        "name:kn": "ಕೆನರಾ ಬ್ಯಾಂಕ್",
        "name:pa": "ਕੇਨਰਾ ਬੈਂਕ",
        "name:pnb": "کینرا بینک",
        "name:ur": "کینرا بینک",
        "operator": "Canara Bank",
        "operator:wikidata": "Q2003777"
      }
    },
    {
      "type": "node",
      "id": 4506380485,
      "lat": 13.0030191,
      "lon": 77.6353049,
      "tags": {
        "amenity": "fast_food",
        "name": "Hot dum biryani"
      }
    },
    {
      "type": "node",
      "id": 4506393240,
      "lat": 13.0027302,
      "lon": 77.6348876,
      "tags": {
        "amenity": "pharmacy",
        "brand": "Apollo Pharmacy",
        "brand:wikidata": "Q62562612",
        "healthcare": "pharmacy",
        "name": "Apollo Pharmacy",
        "name:kn": "ಅಪೊಲೋ ಫಾರ್ಮಸಿ"
      }
    },
    {
      "type": "node",
      "id": 4784848418,
      "lat": 13.0097185,
      "lon": 77.6444698,
      "tags": {
        "addr:city": "Bangalore",
        "addr:full": "586, 3rd Cross Road, Near Maruthi School Bus Stop, Erappa Layout, Subbaiahna Palya, Banaswadi, Bangalore - 560043",
        "addr:housenumber": "586",
        "addr:postcode": "560043",
        "addr:street": "3rd Cross Road",
        "amenity": "bank",
        "atm": "yes",
        "brand": "Syndicate Bank",
        "brand:wikidata": "Q2004088",
        "name": "Syndicate Bank",
        "name:en": "Syndicate Bank",
        "name:kn": "ಸಿಂಡಿಕೇಟ್ ಬ್ಯಾಂಕ್",
        "website": "https://www.syndicatebank.in"
      }
    },
    {
      "type": "node",
      "id": 4844863325,
      "lat": 13.0028658,
      "lon": 77.6347877,
      "tags": {
        "amenity": "pharmacy",
        "healthcare": "pharmacy",
        "name": "Maruti Medicals",
        "name:en": "Maruti Medicals"
      }
    },
    {
      "type": "node",
      "id": 4844863326,
      "lat": 13.00594,
      "lon": 77.6386489,
      "tags": {
        "amenity": "atm",
        "brand": "Axis Bank",
        "brand:wikidata": "Q2003549",
        "name": "Axis Bank",
        "name:kn": "ಆಕ್ಸಿಸ್ ಬ್ಯಾಂಕ್",
        "operator": "Axis Bank",
        "operator:wikidata": "Q2003549"
      }
    },
    {
      "type": "node",
      "id": 4844863327,
      "lat": 13.0085671,
      "lon": 77.6420845,
      "tags": {
        "name": "Multiplex",
        "name:en": "Multiplex",
        "shop": "supermarket"
      }
    },
    {
      "type": "node",
      "id": 4844863328,
      "lat": 13.0106572,
      "lon": 77.6454963,
      "tags": {
        "name": "Digital world",
        "name:en": "Digital world",
        "shop": "electronics"
      }
    },
    {
      "type": "node",
      "id": 4844863373,
      "lat": 13.0024181,
      "lon": 77.6339615,
      "tags": {
        "name": "World's best chicken",
        "name:en": "World's best chicken",
        "shop": "butcher"
      }
    },
    {
      "type": "node",
      "id": 4844863374,
      "lat": 13.0025699,
      "lon": 77.6343328,
      "tags": {
        "name": "Gaurav",
        "name:en": "Gaurav",
        "shop": "jewelry"
      }
    },
    {
      "type": "node",
      "id": 4844863375,
      "lat": 13.0027812,
      "lon": 77.6345924,
      "tags": {
        "amenity": "pharmacy",
        "healthcare": "pharmacy",
        "name": "Primecare",
        "name:en": "Primecare",
        "name:kn": "ಪ್ರೈಮ ಕೇರ್"
      }
    },
    {
      "type": "node",
      "id": 4844863377,
      "lat": 13.0050546,
      "lon": 77.6372707,
      "tags": {
        "name": "Hi speed printing",
        "name:en": "Hi speed printing",
        "shop": "computer"
      }
    },
    {
      "type": "node",
      "id": 4844863378,
      "lat": 13.0089466,
      "lon": 77.6427801,
      "tags": {
        "name": "Happy shoppy",
        "name:en": "Happy shoppy",
        "shop": "supermarket"
      }
    },
    {
      "type": "node",
      "id": 4844863379,
      "lat": 13.0093391,
      "lon": 77.6432232,
      "tags": {
        "amenity": "bank",
        "brand": "Punjab National Bank",
        "brand:wikidata": "Q2743499",
        "name": "Punjab National Bank",
        "name:en": "Punjab National Bank",
        "name:kn": "ಪಂಜಾಬ ರಾಷ್ಟ್ರೀಯ ಬ್ಯಾಂಕ್",
        "short_name": "PNB",
        "website": "https://www.pnbindia.in"
      }
    },
    {
      "type": "node",
      "id": 4844863380,
      "lat": 13.0140839,
      "lon": 77.6406622,
      "tags": {
        "name": "Kamakshi",
        "name:en": "Kamakshi",
        "name:kn": "ಕಾಮಾಕ್ಷಿ",
        "shop": "clothes"
      }
    },
    {
      "type": "node",
      "id": 4844863382,
      "lat": 13.0143953,
      "lon": 77.6363195,
      "tags": {
        "name": "Vivo",
        "name:en": "Vivo",
        "shop": "mobile_phone"
      }
    },
    {
      "type": "node",
      "id": 4844863383,
      "lat": 13.0143717,
      "lon": 77.6363708,
      "tags": {
        "shop": "optician"
      }
    },
    {
      "type": "node",
      "id": 4844863384,
      "lat": 13.015025,
      "lon": 77.6358463,
      "tags": {
        "amenity": "restaurant",
        "name": "Nandana Palace",
        "name:en": "Nandana Palace"
      }
    },
    {
      "type": "node",
      "id": 4844865022,
      "lat": 13.0020607,
      "lon": 77.6324471,
      "tags": {
        "name": "Raghavendra Poona Store",
        "name:en": "Raghavendra Poona Store",
        "shop": "convenience"
      }
    },
    {
      "type": "node",
      "id": 4844865024,
      "lat": 13.0021714,
      "lon": 77.6329882,
      "tags": {
        "addr:floor": "G",
        "amenity": "restaurant",
        "check_date": "2025-07-18",
        "level": "0",
        "name": "Shiv Sagar",
        "name:en": "Shiv Sagar"
      }
    },
    {
      "type": "node",
      "id": 4844865026,
      "lat": 13.0076445,
      "lon": 77.6407572,
      "tags": {
        "name": "China bazaar",
        "name:en": "China bazaar",
        "shop": "supermarket"
      }
    },
    {
      "type": "node",
      "id": 4844865049,
      "lat": 13.0057651,
      "lon": 77.6383622,
      "tags": {
        "name": "My fashion shoes",
        "name:en": "My fashion shoes",
        "shop": "shoes"
      }
    },
    {
      "type": "node",
      "id": 4844865050,
      "lat": 13.0072315,
      "lon": 77.6403015,
      "tags": {
        "amenity": "pharmacy",
        "name": "Manjunatha",
        "name:en": "Manjunatha"
      }
    },
    {
      "type": "node",
      "id": 4844865051,
      "lat": 13.0079259,
      "lon": 77.6412745,
      "tags": {
        "amenity": "atm",
        "brand": "Axis Bank",
        "brand:wikidata": "Q2003549",
        "name": "Axis Bank",
        "name:kn": "ಆಕ್ಸಿಸ್ ಬ್ಯಾಂಕ್",
        "operator": "Axis Bank",
        "operator:wikidata": "Q2003549"
      }
    },
    {
      "type": "node",
      "id": 4844865053,
      "lat": 13.0100548,
      "lon": 77.6431061,
      "tags": {
        "amenity": "bank",
        "brand": "IDBI",
        "brand:wikidata": "Q3633485",
        "brand:wikipedia": "en:IDBI Bank",
        "check_date": "2024-07-10",
        "name": "IDBI Bank",
        "name:en": "IDBI Bank",
        "name:kn": "ಐಡಿಬಿಐ ಬ್ಯಾಂಕ್",
        "old_name": "Industrial Development Bank of India",
        "short_name": "IDBI",
        "website": "https://www.idbi.com"
      }
    },
    {
      "type": "node",
      "id": 4844865054,
      "lat": 13.0140126,
      "lon": 77.6395774,
      "tags": {
        "name": "Ty engar",
        "name:en": "Ty engar",
        "shop": "bakery"
      }
    },
    {
      "type": "node",
      "id": 4844865056,
      "lat": 13.0142154,
      "lon": 77.6363852,
      "tags": {
        "amenity": "restaurant",
        "name": "Kairali",
        "name:en": "Kairali",
        "name:kn": "ಕೈರಲಿ"
      }
    },
    {
      "type": "node",
      "id": 4844865057,
      "lat": 13.014746,
      "lon": 77.6357881,
      "tags": {
        "amenity": "hospital",
        "name": "Doctor's diagnostics Centre",
        "name:en": "Doctor's diagnostics Centre"
      }
    },
    {
      "type": "node",
      "id": 4844867424,
      "lat": 13.0069226,
      "lon": 77.6399189,
      "tags": {
        "amenity": "bank",
        "brand": "Canara Bank",
        "brand:pa": "ਕੇਨਰਾ ਬੈਂਕ",
        "brand:ur": "کینرا بینک",
        "brand:wikidata": "Q2003777",
        "brand:wikipedia": "en:Canara Bank",
        "brand:wikipedia:pa": "ਕੇਨਰਾ ਬੈਂਕ",
        "name": "Canara Bank",
        "name:kn": "ಕೆನರಾ ಬ್ಯಾಂಕ್",
        "name:pa": "ਕੇਨਰਾ ਬੈਂਕ",
        "name:ur": "کینرا بینک",
        "website": "https://www.canarabank.com/"
      }
    },
    {
      "type": "node",
      "id": 4844867425,
      "lat": 13.0139843,
      "lon": 77.642086,
      "tags": {
        "name": "Regal furniture",
        "name:en": "Regal furniture",
        "shop": "furniture"
      }
    },
    {
      "type": "node",
      "id": 4844867426,
      "lat": 13.0141702,
      "lon": 77.6362532,
      "tags": {
        "name": "IPhone Final desicion",
        "name:en": "IPhone Final desicion",
        "shop": "mobile_phone"
      }
    },
    {
      "type": "node",
      "id": 4844867523,
      "lat": 13.0021544,
      "lon": 77.6327813,
      "tags": {
        "name": "Sn digital",
        "name:en": "Sn digital",
        "shop": "computer"
      }
    },
    {
      "type": "node",
      "id": 4908564021,
      "lat": 13.0033147,
      "lon": 77.6324578,
      "tags": {
        "amenity": "fast_food",
        "indoor_seating": "no",
        "name": "Idli Shop",
        "name:en": "Idli Shop",
        "outdoor_seating": "no",
        "takeaway": "only"
      }
    },
    {
      "type": "node",
      "id": 5080786067,
      "lat": 13.006508,
      "lon": 77.6452745,
      "tags": {
        "amenity": "school"
      }
    },
    {
      "type": "node",
      "id": 5234714280,
      "lat": 13.0032264,
      "lon": 77.6313934,
      "tags": {
        "amenity": "place_of_worship",
        "name": "Sri Mariamman Temple",
        "name:kn": "ಮಾರಿಯಮ್ಮನ್‌ ದೇವಸ್ಥಾನ",
        "religion": "hindu"
      }
    },
    {
      "type": "node",
      "id": 5234717536,
      "lat": 13.0022482,
      "lon": 77.6324892,
      "tags": {
        "amenity": "place_of_worship",
        "denomination": "theravada",
        "name": "7th Day Adventist Malyalam Church",
        "religion": "christian"
      }
    },
    {
      "type": "node",
      "id": 5234720624,
      "lat": 13.0032488,
      "lon": 77.6314787,
      "tags": {
        "shop": "convenience"
      }
    },
    {
      "type": "node",
      "id": 5234720625,
      "lat": 13.0034433,
      "lon": 77.6323983,
      "tags": {
        "shop": "convenience"
      }
    },
    {
      "type": "node",
      "id": 5234720626,
      "lat": 13.0022519,
      "lon": 77.634193,
      "tags": {
        "amenity": "fast_food",
        "indoor_seating": "no",
        "name": "Taj Kabab Corner",
        "outdoor_seating": "no",
        "takeaway": "only"
      }
    },
    {
      "type": "node",
      "id": 6915514224,
      "lat": 13.0148336,
      "lon": 77.6327095,
      "tags": {
        "name": "Expert Optics",
        "shop": "optician"
      }
    },
    {
      "type": "node",
      "id": 6938900156,
      "lat": 13.0086882,
      "lon": 77.6431717,
      "tags": {
        "addr:district": "Bengaluru Urban",
        "addr:full": "J. Ramgopal Layout, Subbannapalya, Banaswadi Main Road",
        "addr:postcode": "560033",
        "addr:state": "Karnataka",
        "amenity": "clinic",
        "name": "Dewans Maternity and Nursing Home",
        "source": "OpenGovernmentData"
      }
    },
    {
      "type": "node",
      "id": 6939069014,
      "lat": 13.0144467,
      "lon": 77.6427305,
      "tags": {
        "addr:district": "Bengaluru Urban",
        "addr:full": "# 924, 80 Feet Road, Kalyan Nagar, Next To Adigas Hotel",
        "addr:postcode": "560033",
        "addr:state": "Karnataka",
        "amenity": "clinic",
        "name": "Pratham Ent and Child Care Centre",
        "source": "OpenGovernmentData"
      }
    },
    {
      "type": "node",
      "id": 6944525274,
      "lat": 13.0138123,
      "lon": 77.6354731,
      "tags": {
        "addr:district": "Bengaluru Urban",
        "addr:full": "No. 31, Kammanahalli Main Road Near Venkateswara Ent",
        "addr:postcode": "560084",
        "addr:state": "Karnataka",
        "amenity": "hospital",
        "name": "R K Hospital, Bengaluru Urban",
        "source": "OpenGovernmentData"
      }
    },
    {
      "type": "node",
      "id": 6944926403,
      "lat": 13.0028473,
      "lon": 77.635349,
      "tags": {
        "addr:district": "Bengaluru Urban",
        "addr:full": "# 1, Venkatram Layout Banaswadi Main Road Maruthi Sevanagar",
        "addr:postcode": "560033",
        "addr:state": "Karnataka",
        "amenity": "clinic",
        "healthcare": "clinic",
        "name": "Kamath Nursing Home",
        "source": "OpenGovernmentData"
      }
    },
    {
      "type": "node",
      "id": 6947106775,
      "lat": 13.0021978,
      "lon": 77.6329015,
      "tags": {
        "addr:district": "Bengaluru Urban",
        "addr:full": "7Th B Cross, 1st Floor Banaswadi Road Jai Bharath Nagar",
        "addr:postcode": "560033",
        "addr:state": "Karnataka",
        "amenity": "hospital",
        "healthcare": "hospital",
        "name": "Dr Zamindar's Micro Surgical Eye Centre",
        "source": "OpenGovernmentData"
      }
    },
    {
      "type": "node",
      "id": 6947526185,
      "lat": 13.0139391,
      "lon": 77.6388192,
      "tags": {
        "addr:housenumber": "2nd floor",
        "addr:street": "Nehru Road",
        "amenity": "bureau_de_change",
        "name": "Currency Exchange",
        "opening_hours": "Mo-Su 09:00-18:00"
      }
    },
    {
      "type": "node",
      "id": 6947678585,
      "lat": 13.0149675,
      "lon": 77.6354957,
      "tags": {
        "addr:district": "Bengaluru Urban",
        "addr:full": "No.1, 1 Cross Rananurthy Road",
        "addr:postcode": "560084",
        "addr:state": "Karnataka",
        "amenity": "hospital",
        "email": "info@zionhospitals.com",
        "name": "Zion Hospital And Research Centre Pvt.Ltd.",
        "operator:type": "private",
        "source": "OpenGovernmentData",
        "website": "http://zionhospitals.com/"
      }
    },
    {
      "type": "node",
      "id": 6951469585,
      "lat": 13.0169825,
      "lon": 77.6361692,
      "tags": {
        "addr:street": "Kammanahalli Main Road",
        "amenity": "bureau_de_change",
        "name": "Currency Exchange"
      }
    },
    {
      "type": "node",
      "id": 7051254484,
      "lat": 13.0028312,
      "lon": 77.6320101,
      "tags": {
        "amenity": "place_of_worship",
        "description": "Beautiful templed loacted on a peaceful road.",
        "name": "Sri Raja Ganapathi Temple",
        "religion": "hindu",
        "source": "survey;local knowledge;gps;aerial imagery"
      }
    },
    {
      "type": "node",
      "id": 7484790943,
      "lat": 13.0080895,
      "lon": 77.6416085,
      "tags": {
        "name": "Books and fancy",
        "name:en": "Books and fancy",
        "shop": "bookmaker"
      }
    },
    {
      "type": "node",
      "id": 7577248222,
      "lat": 13.0161535,
      "lon": 77.6428067,
      "tags": {
        "addr:district": "Bengaluru Urban",
        "addr:full": "Kalyan Nagar, Bengaluru",
        "addr:postcode": "560043",
        "addr:state": "Karnataka",
        "amenity": "clinic",
        "name": "Dr. Dinakar's Child Care",
        "source": "Local Knowledge"
      }
    },
    {
      "type": "node",
      "id": 11219451413,
      "lat": 13.014037,
      "lon": 77.6423838,
      "tags": {
        "amenity": "restaurant",
        "check_date": "2023-09-26",
        "name": "Bandipura Donne Biriyaani"
      }
    },
    {
      "type": "node",
      "id": 11219451414,
      "lat": 13.0139282,
      "lon": 77.6423538,
      "tags": {
        "amenity": "clinic",
        "check_date": "2023-09-26",
        "healthcare": "clinic",
        "name": "Smile 365 Dental Clinic",
        "name:kn": "ಸ್ಮೈಲ್ ೩೬೫ ದಂತ ಚಿಕಿತ್ಸಾಲಯ"
      }
    },
    {
      "type": "node",
      "id": 11219451415,
      "lat": 13.0139139,
      "lon": 77.6423634,
      "tags": {
        "check_date": "2023-09-26",
        "name": "Apollo Pharmacy",
        "name:kn": "ಅಪೊಲೊ ಫಾರ್ಮ್‌ಸಿ",
        "payment:mastercard": "yes",
        "payment:visa": "yes",
        "shop": "chemist"
      }
    },
    {
      "type": "node",
      "id": 11500714575,
      "lat": 13.0149527,
      "lon": 77.6321133,
      "tags": {
        "addr:city": "Bangalore",
        "addr:district": "Bangalore",
        "addr:housenumber": "Doner Club",
        "addr:postcode": "560084",
        "addr:street": "Yadava Street, Nehru Road",
        "air_conditioning": "yes",
        "amenity": "restaurant",
        "cuisine": "turkish;mediterranean;arab",
        "delivery": "yes",
        "diet:healthy": "yes",
        "diet:non-vegetarian": "yes",
        "name": "Doner Club",
        "opening_hours": "Mo-Su 13:30-23:30",
        "website": "https://www.donerclub.in/"
      }
    },
    {
      "type": "node",
      "id": 12294001133,
      "lat": 13.0182255,
      "lon": 77.6363763,
      "tags": {
        "amenity": "fast_food",
        "contact:instagram": "goodflippin",
        "cuisine": "burger",
        "delivery": "yes",
        "name": "Good Flippin' Burgers",
        "takeaway": "yes",
        "website": "https://goodflippin.com/"
      }
    },
    {
      "type": "node",
      "id": 12712362611,
      "lat": 13.0062323,
      "lon": 77.6422061,
      "tags": {
        "amenity": "post_box",
        "operator": "India Post"
      }
    },
    {
      "type": "node",
      "id": 12862846435,
      "lat": 13.0182719,
      "lon": 77.6355845,
      "tags": {
        "amenity": "restaurant",
        "cuisine": "burger",
        "delivery": "yes",
        "name": "Simon Burgers",
        "takeaway": "yes"
      }
    },
    {
      "type": "node",
      "id": 13168786889,
      "lat": 13.0155835,
      "lon": 77.6403473,
      "tags": {
        "contact:instagram": "luxemisu",
        "name": "Luxemisu",
        "shop": "pastry"
      }
    },
    {
      "type": "node",
      "id": 13267106089,
      "lat": 13.0061753,
      "lon": 77.6408332,
      "tags": {
        "check_date": "2025-10-29",
        "name": "Vedic Weaves Silks And Sarees",
        "name:en": "Vedic Weaves Silks And Sarees",
        "shop": "clothes"
      }
    },
    {
      "type": "way",
      "id": 38420953,
      "center": {
        "lat": 13.0176721,
        "lon": 77.631817
      },
      "tags": {
        "leisure": "park",
        "wheelchair": "limited"
      }
    },
    {
      "type": "way",
      "id": 38421704,
      "center": {
        "lat": 13.0179378,
        "lon": 77.6369821
      },
      "tags": {
        "amenity": "school",
        "name": "Saint Charles High School"
      }
    },
    {
      "type": "way",
      "id": 168712748,
      "center": {
        "lat": 13.0163415,
        "lon": 77.6407229
      },
      "tags": {
        "leisure": "park",
        "name": "Dr. Rajkumar Park",
        "name:etymology:wikidata": "Q984634",
        "name:kn": "ರಾಜ್ಕುಮಾರ್ ಉದ್ಯಾನ"
      }
    },
    {
      "type": "way",
      "id": 175063893,
      "center": {
        "lat": 13.0097626,
        "lon": 77.6402272
      },
      "tags": {
        "amenity": "school"
      }
    },
    {
      "type": "way",
      "id": 175068138,
      "center": {
        "lat": 13.0158334,
        "lon": 77.6310206
      },
      "tags": {
        "addr:postcode": "540045",
        "addr:street": "Hennur Main Rd, Saint Thomas Town, Kacharakana Halli",
        "amenity": "school",
        "name": "Jyothi High School",
        "name:kn": "ಜ್ಯೋತಿ ಪ್ರೌಡಶಾಲೆ"
      }
    },
    {
      "type": "way",
      "id": 197731598,
      "center": {
        "lat": 13.0121889,
        "lon": 77.6290254
      },
      "tags": {
        "leisure": "park",
        "wheelchair": "limited"
      }
    },
    {
      "type": "way",
      "id": 213349498,
      "center": {
        "lat": 13.0074665,
        "lon": 77.6409907
      },
      "tags": {
        "amenity": "place_of_worship",
        "check_date": "2025-08-17",
        "name": "Ayyappa Temple",
        "name:kn": "ಅಯ್ಯಪ್ಪ ದೇವಸ್ಥಾನ",
        "religion": "hindu",
        "toilets:wheelchair": "no",
        "wheelchair": "no"
      }
    },
    {
      "type": "way",
      "id": 213350081,
      "center": {
        "lat": 13.0075596,
        "lon": 77.6412505
      },
      "tags": {
        "amenity": "fuel",
        "brand": "Indian Oil",
        "brand:wikidata": "Q1289348",
        "brand:wikipedia": "en:Indian Oil Corporation",
        "name": "Indian Oil Fuel",
        "operator": "IOC",
        "toilets:wheelchair": "no",
        "wheelchair": "limited"
      }
    },
    {
      "type": "way",
      "id": 335526663,
      "center": {
        "lat": 13.0170276,
        "lon": 77.6331507
      },
      "tags": {
        "leisure": "park"
      }
    },
    {
      "type": "way",
      "id": 347192813,
      "center": {
        "lat": 13.0104363,
        "lon": 77.6432265
      },
      "tags": {
        "addr:city": "Bangalore",
        "addr:housenumber": "11",
        "addr:postcode": "560043",
        "addr:street": "7th Main Road",
        "beauty": "nails",
        "building": "yes",
        "building:levels": "2",
        "name": "Shaakya Salon & Spa",
        "payment:cash": "yes",
        "payment:credit_cards": "yes",
        "payment:debit_cards": "yes",
        "payment:visa": "yes",
        "phone": "+91 9741117707",
        "shop": "beauty",
        "website": "https://shaakyaspa.com/"
      }
    },
    {
      "type": "way",
      "id": 348631787,
      "center": {
        "lat": 13.01372,
        "lon": 77.635789
      },
      "tags": {
        "addr:city": "bangalore",
        "addr:district": "Bengaluru Urban",
        "addr:housenumber": "36",
        "addr:postcode": "560084",
        "addr:street": "Kammanahalli Main Road",
        "alt_name": "Mohan Stores",
        "amenity": "bank",
        "brand": "HDFC Bank",
        "brand:wikidata": "Q631047",
        "building": "yes",
        "name": "HDFC Bank",
        "short_name": "HDFC"
      }
    },
    {
      "type": "way",
      "id": 351811154,
      "center": {
        "lat": 13.0024235,
        "lon": 77.6339368
      },
      "tags": {
        "amenity": "bar",
        "building": "yes",
        "indoor_seating": "yes",
        "name": "Cauvery Bar & Restaurant",
        "outdoor_seating": "no"
      }
    },
    {
      "type": "way",
      "id": 385070464,
      "center": {
        "lat": 13.0012762,
        "lon": 77.6326046
      },
      "tags": {
        "name": "Orion East Mall",
        "operator": "Orion Malls",
        "shop": "mall"
      }
    },
    {
      "type": "way",
      "id": 675933723,
      "center": {
        "lat": 13.0082525,
        "lon": 77.6381999
      },
      "tags": {
        "leisure": "park"
      }
    },
    {
      "type": "way",
      "id": 675933724,
      "center": {
        "lat": 13.0084618,
        "lon": 77.6373261
      },
      "tags": {
        "leisure": "playground"
      }
    },
    {
      "type": "way",
      "id": 675933725,
      "center": {
        "lat": 13.0082593,
        "lon": 77.6377878
      },
      "tags": {
        "leisure": "park"
      }
    },
    {
      "type": "way",
      "id": 743353828,
      "center": {
        "lat": 13.0165401,
        "lon": 77.6364124
      },
      "tags": {
        "access": "customers",
        "amenity": "parking",
        "parking": "surface"
      }
    },
    {
      "type": "way",
      "id": 754824542,
      "center": {
        "lat": 13.0028296,
        "lon": 77.6319981
      },
      "tags": {
        "description": "A peaceful courtyard and green park within which a temple is loacted.",
        "leisure": "park",
        "name": "Sri Raja Ganapathi Temple park",
        "operator": "Raja Ganapathi Priests",
        "source": "survey;local knowledge;aerial imagery;gps"
      }
    },
    {
      "type": "way",
      "id": 917882290,
      "center": {
        "lat": 13.0008873,
        "lon": 77.6391603
      },
      "tags": {
        "amenity": "school",
        "name": "St. Jude's English High School"
      }
    },
    {
      "type": "way",
      "id": 1065306086,
      "center": {
        "lat": 13.0019707,
        "lon": 77.6392044
      },
      "tags": {
        "leisure": "garden"
      }
    },
    {
      "type": "way",
      "id": 1065306093,
      "center": {
        "lat": 13.0010579,
        "lon": 77.6398329
      },
      "tags": {
        "access": "customers",
        "amenity": "parking",
        "fee": "yes",
        "parking": "surface"
      }
    },
    {
      "type": "way",
      "id": 1278822701,
      "center": {
        "lat": 13.0018031,
        "lon": 77.6388626
      },
      "tags": {
        "leisure": "park"
      }
    },
    {
      "type": "way",
      "id": 1363505233,
      "center": {
        "lat": 13.0156318,
        "lon": 77.6334279
      },
      "tags": {
        "leisure": "park"
      }
    },
    {
      "type": "way",
      "id": 1363623616,
      "center": {
        "lat": 13.0170434,
        "lon": 77.6349303
      },
      "tags": {
        "amenity": "college",
        "name": "St. Paul PU College"
      }
    },
    {
      "type": "way",
      "id": 1364481599,
      "center": {
        "lat": 13.0116118,
        "lon": 77.6459969
      },
      "tags": {
        "amenity": "fire_station",
        "landuse": "commercial",
        "name": "Banaswadi Fire Station",
        "name:kn": "ಬಾಣಸವಾಡಿ ಅಗ್ನಿಶಾಮಕ ಠಾಣೆ"
      }
    },
    {
      "type": "way",
      "id": 1364481614,
      "center": {
        "lat": 13.0128418,
        "lon": 77.6428309
      },
      "tags": {
        "amenity": "fuel",
        "brand": "Bharat Petroleum",
        "brand:wikidata": "Q854826",
        "compressed_air": "yes",
        "name": "Matrushree Petrol / Gas Station",
        "operator": "Bharat Petroleum"
      }
    },
    {
      "type": "way",
      "id": 1364670944,
      "center": {
        "lat": 13.0132839,
        "lon": 77.6356805
      },
      "tags": {
        "amenity": "fuel"
      }
    },
    {
      "type": "way",
      "id": 1364697717,
      "center": {
        "lat": 13.009651,
        "lon": 77.6436983
      },
      "tags": {
        "amenity": "events_venue",
        "landuse": "commercial"
      }
    },
    {
      "type": "way",
      "id": 1364921398,
      "center": {
        "lat": 13.0084402,
        "lon": 77.6419715
      },
      "tags": {
        "amenity": "place_of_worship",
        "building": "yes",
        "name": "Sree Panchamukhi Ganapthy Temple",
        "name:kn": "ಶ್ರೀ ಪಂಚಮುಖಿ ಗಣಪತಿ ದೇವಸ್ಥಾನ",
        "religion": "hindu"
      }
    },
    {
      "type": "way",
      "id": 1364921400,
      "center": {
        "lat": 13.0085366,
        "lon": 77.6427566
      },
      "tags": {
        "amenity": "fuel"
      }
    },
    {
      "type": "way",
      "id": 1365966052,
      "center": {
        "lat": 13.0087166,
        "lon": 77.6372472
      },
      "tags": {
        "leisure": "pitch"
      }
    },
    {
      "type": "way",
      "id": 1366023291,
      "center": {
        "lat": 13.0087502,
        "lon": 77.6444553
      },
      "tags": {
        "amenity": "school",
        "education": "school",
        "name": "Maruthi Vidyalaya",
        "name:kn": "ಮಾರುತಿ ವಿದ್ಯಾಲಯ"
      }
    },
    {
      "type": "way",
      "id": 1410597948,
      "center": {
        "lat": 13.0103596,
        "lon": 77.644748
      },
      "tags": {
        "amenity": "marketplace",
        "landuse": "retail",
        "shop": "greengrocer"
      }
    },
    {
      "type": "way",
      "id": 1410597951,
      "center": {
        "lat": 13.0098523,
        "lon": 77.6439029
      },
      "tags": {
        "amenity": "fuel"
      }
    }
  ]
}