{
  "area_name": "Ramaswamy Layout",
  "osm_id": 5519077334,
  "osm_type": "node",
  "place_type": "neighbourhood",
  "amenity_count": 129,
  "amenities": [
    {
      "type": "node",
      "id": 1436125689,
      "lat": 12.9926382,
      "lon": 77.6506116,
      "tags": {
        "amenity": "place_of_worship",
        "name": "Ganesha Temple",
        "name:kn": "ಗಣೇಶ ದೇವಸ್ಥಾನ",
        "religion": "hindu"
      }
    },
    {
      "type": "node",
      "id": 1436177631,
      "lat": 12.995242,
      "lon": 77.6523255,
      "tags": {
        "amenity": "hospital",
        "name": "ESI Hospital",
        "name:kn": "ಇಎಸ್ಐ ಆಸ್ಪತ್ರೆ"
      }
    },
    {
      "type": "node",
      "id": 1966567921,
      "lat": 12.9839078,
      "lon": 77.6393924,
      "tags": {
        "name": "Vimal Motors - Hero Bike Showroom",
        "shop": "motorcycle"
      }
    },
    {
      "type": "node",
      "id": 3207060697,
      "lat": 12.9889394,
      "lon": 77.6478522,
      "tags": {
        "amenity": "place_of_worship"
      }
    },
    {
      "type": "node",
      "id": 3389118795,
      "lat": 12.9827721,
      "lon": 77.6404905,
      "tags": {
        "name": "Travel Solutions",
        "shop": "travel_agency"
      }
    },
    {
      "type": "node",
      "id": 3389118797,
      "lat": 12.9828426,
      "lon": 77.6404905,
      "tags": {
        "name": "FR Bakery",
        "shop": "bakery"
      }
    },
    {
      "type": "node",
      "id": 3389141887,
      "lat": 12.9828232,
      "lon": 77.6405058,
      "tags": {
        "name": "Muthoot Finance",
        "name:kn": "ಮುತೂಟ್ ಫೈನಾನ್ಸ್",
        "shop": "money_lender"
      }
    },
    {
      "type": "node",
      "id": 3725656677,
      "lat": 12.9827789,
      "lon": 77.6405257,
      "tags": {
        "amenity": "pharmacy",
        "name": "Padam Pharma"
      }
    },
    {
      "type": "node",
      "id": 3725701348,
      "lat": 12.982438,
      "lon": 77.6414586,
      "tags": {
        "amenity": "toilets",
        "fee": "yes"
      }
    },
    {
      "type": "node",
      "id": 3725861636,
      "lat": 12.9816481,
      "lon": 77.642258,
      "tags": {
        "name": "SS Store",
        "shop": "convenience"
      }
    },
    {
      "type": "node",
      "id": 3726126335,
      "lat": 12.9841436,
      "lon": 77.6412653,
      "tags": {
        "name": "Ashwini Car Bazar",
        "second_hand": "only",
        "shop": "car"
      }
    },
    {
      "type": "node",
      "id": 3726126336,
      "lat": 12.983827,
      "lon": 77.6408412,
      "tags": {
        "name": "Radha Wines",
        "shop": "alcohol"
      }
    },
    {
      "type": "node",
      "id": 3726126337,
      "lat": 12.9841012,
      "lon": 77.6410913,
      "tags": {
        "name": "Superior Motors",
        "shop": "car_parts"
      }
    },
    {
      "type": "node",
      "id": 3726130209,
      "lat": 12.9830655,
      "lon": 77.6408025,
      "tags": {
        "amenity": "place_of_worship",
        "religion": "hindu"
      }
    },
    {
      "type": "node",
      "id": 3987463423,
      "lat": 12.9812365,
      "lon": 77.6467545,
      "tags": {
        "addr:housenumber": "3",
        "addr:street": "4th Cross Road",
        "craft": "glaziery",
        "name": "Glasscrafters India",
        "shop": "craft",
        "website": "https://www.glasscrafters.in/"
      }
    },
    {
      "type": "node",
      "id": 3987463424,
      "lat": 12.9812609,
      "lon": 77.6468052,
      "tags": {
        "addr:housenumber": "3",
        "addr:landmark": "Above Glasscrafters",
        "addr:street": "3rd Cross Road",
        "amenity": "arts_centre",
        "name": "Maraa",
        "website": "https://maraa.in/"
      }
    },
    {
      "type": "node",
      "id": 4445171554,
      "lat": 12.995301,
      "lon": 77.6524627,
      "tags": {
        "addr:city": "Bangalore",
        "addr:postcode": "560037",
        "addr:street": "ITPL Main Road, Kundalahalli, Brookefield,",
        "amenity": "pharmacy",
        "name": "Pavan Medicals",
        "phone": "080 2847 5700"
      }
    },
    {
      "type": "node",
      "id": 4472415493,
      "lat": 12.980691,
      "lon": 77.6472706,
      "tags": {
        "amenity": "place_of_worship",
        "name": "Sri Varasiddhi Vinayagar Koil",
        "name:en": "Sri Varasiddhi Vinayagar Koil",
        "religion": "hindu"
      }
    },
    {
      "type": "node",
      "id": 4472435397,
      "lat": 12.9808002,
      "lon": 77.6463862,
      "tags": {
        "amenity": "place_of_worship",
        "name": "St Michael The Archangel",
        "name:en": "St Michael The Archangel",
        "religion": "christian"
      }
    },
    {
      "type": "node",
      "id": 4472583689,
      "lat": 12.9807472,
      "lon": 77.6468064,
      "tags": {
        "amenity": "place_of_worship",
        "name": "Martha Memorial Prayer Hall",
        "name:en": "Martha Memorial Prayer Hall",
        "religion": "christian"
      }
    },
    {
      "type": "node",
      "id": 4472599289,
      "lat": 12.9803998,
      "lon": 77.6466782,
      "tags": {
        "amenity": "clinic",
        "healthcare": "alternative",
        "name": "Center for Holistic Development",
        "name:en": "Center for Holistic Development"
      }
    },
    {
      "type": "node",
      "id": 4488075217,
      "lat": 12.9817439,
      "lon": 77.6449707,
      "tags": {
        "addr:city": "Bangalore",
        "addr:housenumber": "68/3, 1st Floor",
        "addr:postcode": "560038",
        "addr:street": "4th Cross B, Michael Palya, 80 Feet Road",
        "level": "1",
        "name": "Cycling Boutique",
        "opening_hours": "11:00-20:00",
        "phone": "082772 76424",
        "service:bicycle:repair": "yes",
        "service:bicycle:retail": "yes",
        "shop": "bicycle",
        "website": "https://www.cyclingboutique.in/"
      }
    },
    {
      "type": "node",
      "id": 5100015673,
      "lat": 12.9815851,
      "lon": 77.6423856,
      "tags": {
        "shop": "bakery"
      }
    },
    {
      "type": "node",
      "id": 5164855027,
      "lat": 12.9810088,
      "lon": 77.6477499,
      "tags": {
        "amenity": "bench"
      }
    },
    {
      "type": "node",
      "id": 5164855028,
      "lat": 12.981032,
      "lon": 77.6476959,
      "tags": {
        "amenity": "bench",
        "backrest": "yes"
      }
    },
    {
      "type": "node",
      "id": 5164855029,
      "lat": 12.9811352,
      "lon": 77.6476672,
      "tags": {
        "amenity": "bench",
        "backrest": "yes"
      }
    },
    {
      "type": "node",
      "id": 5164855030,
      "lat": 12.9811163,
      "lon": 77.647541,
      "tags": {
        "amenity": "bench",
        "highway": "street_lamp",
        "material": "concrete",
        "power": "pole"
      }
    },
    {
      "type": "node",
      "id": 5164913256,
      "lat": 12.9807333,
      "lon": 77.6460337,
      "tags": {
        "amenity": "pharmacy",
        "name": "NS Medicals"
      }
    },
    {
      "type": "node",
      "id": 5164915543,
      "lat": 12.981241,
      "lon": 77.6462009,
      "tags": {
        "amenity": "restaurant",
        "name": "Madhuram Andhra Restaurant"
      }
    },
    {
      "type": "node",
      "id": 5164983603,
      "lat": 12.9810738,
      "lon": 77.6459692,
      "tags": {
        "amenity": "pharmacy",
        "name": "AK Medicals"
      }
    },
    {
      "type": "node",
      "id": 5165031721,
      "lat": 12.982199,
      "lon": 77.6457258,
      "tags": {
        "description": "Airconditioning System",
        "name": "Blue Star",
        "shop": "appliance"
      }
    },
    {
      "type": "node",
      "id": 5179373223,
      "lat": 12.9928759,
      "lon": 77.6406044,
      "tags": {
        "addr:postcode": "560033",
        "addr:street": "Sanjay Gandhi Nagar",
        "amenity": "place_of_worship",
        "name": "True Jesus Church",
        "religion": "christian"
      }
    },
    {
      "type": "node",
      "id": 5469180622,
      "lat": 12.9807871,
      "lon": 77.6446138,
      "tags": {
        "amenity": "place_of_worship",
        "name": "Yellamma Temple",
        "religion": "hindu"
      }
    },
    {
      "type": "node",
      "id": 5469201421,
      "lat": 12.9812055,
      "lon": 77.6458221,
      "tags": {
        "name": "Naaris",
        "shop": "clothes"
      }
    },
    {
      "type": "node",
      "id": 5484213721,
      "lat": 12.9833919,
      "lon": 77.6404162,
      "tags": {
        "name": "LBB - Life Behind Bars",
        "shop": "bicycle"
      }
    },
    {
      "type": "node",
      "id": 5484224921,
      "lat": 12.9872906,
      "lon": 77.6435028,
      "tags": {
        "amenity": "place_of_worship",
        "name": "Rishi Temple",
        "name:en": "Munishwar Temple",
        "religion": "hindu"
      }
    },
    {
      "type": "node",
      "id": 5484234721,
      "lat": 12.98714,
      "lon": 77.6440967,
      "tags": {
        "amenity": "place_of_worship",
        "name": "Temple",
        "name:kn": "ದೇವಸ್ಥಾನ",
        "religion": "hindu"
      }
    },
    {
      "type": "node",
      "id": 5484243422,
      "lat": 12.9867569,
      "lon": 77.6470711,
      "tags": {
        "amenity": "theatre",
        "name": "Santhe Open Air theatre"
      }
    },
    {
      "type": "node",
      "id": 5485715121,
      "lat": 12.9875113,
      "lon": 77.6448603,
      "tags": {
        "amenity": "place_of_worship",
        "name": "Temple",
        "name:kn": "ದೇವಸ್ಥಾನ",
        "religion": "hindu"
      }
    },
    {
      "type": "node",
      "id": 6422580186,
      "lat": 12.9861391,
      "lon": 77.6463483,
      "tags": {
        "amenity": "atm",
        "brand": "South Indian Bank",
        "brand:wikidata": "Q2044973",
        "cash_in": "no",
        "name": "South Indian Bank",
        "operator": "South Indian Bank",
        "operator:wikidata": "Q2044973"
      }
    },
    {
      "type": "node",
      "id": 6484718432,
      "lat": 12.9808658,
      "lon": 77.6460187,
      "tags": {
        "amenity": "fast_food",
        "name": "Shri Vinayaka Hot Chips"
      }
    },
    {
      "type": "node",
      "id": 6484718433,
      "lat": 12.9893034,
      "lon": 77.6528791,
      "tags": {
        "amenity": "bicycle_rental",
        "name": "DULT Bike Share Point"
      }
    },
    {
      "type": "node",
      "id": 6860280754,
      "lat": 12.9805839,
      "lon": 77.6445392,
      "tags": {
        "amenity": "bench",
        "backrest": "yes"
      }
    },
    {
      "type": "node",
      "id": 6860280755,
      "lat": 12.9803935,
      "lon": 77.6449945,
      "tags": {
        "amenity": "bench",
        "backrest": "yes"
      }
    },
    {
      "type": "node",
      "id": 6860294879,
      "lat": 12.9804608,
      "lon": 77.6449938,
      "tags": {
        "amenity": "bench",
        "backrest": "yes"
      }
    },
    {
      "type": "node",
      "id": 6860299757,
      "lat": 12.9801979,
      "lon": 77.6447181,
      "tags": {
        "amenity": "bench",
        "backrest": "yes"
      }
    },
    {
      "type": "node",
      "id": 6860304977,
      "lat": 12.9805785,
      "lon": 77.6449896,
      "tags": {
        "amenity": "bench",
        "backrest": "yes"
      }
    },
    {
      "type": "node",
      "id": 6860304978,
      "lat": 12.9802052,
      "lon": 77.644821,
      "tags": {
        "amenity": "bench",
        "backrest": "yes"
      }
    },
    {
      "type": "node",
      "id": 6860307502,
      "lat": 12.9804951,
      "lon": 77.6445551,
      "tags": {
        "amenity": "bench",
        "backrest": "yes"
      }
    },
    {
      "type": "node",
      "id": 6860307675,
      "lat": 12.9804237,
      "lon": 77.6445705,
      "tags": {
        "amenity": "bench",
        "backrest": "yes"
      }
    },
    {
      "type": "node",
      "id": 6860307803,
      "lat": 12.9807839,
      "lon": 77.6448797,
      "tags": {
        "amenity": "bench",
        "backrest": "yes"
      }
    },
    {
      "type": "node",
      "id": 6860308596,
      "lat": 12.9806804,
      "lon": 77.6445253,
      "tags": {
        "amenity": "bench",
        "backrest": "yes"
      }
    },
    {
      "type": "node",
      "id": 6860310797,
      "lat": 12.9803378,
      "lon": 77.6449974,
      "tags": {
        "amenity": "bench",
        "backrest": "yes"
      }
    },
    {
      "type": "node",
      "id": 6860312638,
      "lat": 12.9802172,
      "lon": 77.6448878,
      "tags": {
        "amenity": "bench",
        "backrest": "yes"
      }
    },
    {
      "type": "node",
      "id": 6860314740,
      "lat": 12.9806826,
      "lon": 77.6449803,
      "tags": {
        "amenity": "bench",
        "backrest": "yes"
      }
    },
    {
      "type": "node",
      "id": 6860314794,
      "lat": 12.9806618,
      "lon": 77.6448404,
      "tags": {
        "access": "yes",
        "leisure": "playground"
      }
    },
    {
      "type": "node",
      "id": 6860316590,
      "lat": 12.9807596,
      "lon": 77.6446317,
      "tags": {
        "amenity": "bench",
        "backrest": "yes"
      }
    },
    {
      "type": "node",
      "id": 6860317725,
      "lat": 12.9805278,
      "lon": 77.644988,
      "tags": {
        "amenity": "bench",
        "backrest": "yes"
      }
    },
    {
      "type": "node",
      "id": 6860318795,
      "lat": 12.9802135,
      "lon": 77.644665,
      "tags": {
        "amenity": "bench",
        "backrest": "yes"
      }
    },
    {
      "type": "node",
      "id": 6982401116,
      "lat": 12.9811255,
      "lon": 77.6477928,
      "tags": {
        "amenity": "bench"
      }
    },
    {
      "type": "node",
      "id": 7114507519,
      "lat": 12.9812279,
      "lon": 77.6476582,
      "tags": {
        "blind": "no",
        "fitness_station": "fitness_station",
        "leisure": "fitness_station",
        "wheelchair": "limited"
      }
    },
    {
      "type": "node",
      "id": 7114507520,
      "lat": 12.9812222,
      "lon": 77.646495,
      "tags": {
        "addr:street": "5th Cross Road",
        "name": "N C Condiments",
        "shop": "convenience"
      }
    },
    {
      "type": "node",
      "id": 7114507522,
      "lat": 12.9808721,
      "lon": 77.6462154,
      "tags": {
        "shop": "hairdresser"
      }
    },
    {
      "type": "node",
      "id": 7138678425,
      "lat": 12.9805497,
      "lon": 77.6448333,
      "tags": {
        "leisure": "fitness_station"
      }
    },
    {
      "type": "node",
      "id": 7213545443,
      "lat": 12.9946362,
      "lon": 77.6418177,
      "tags": {
        "addr:street": "G. Baiyapanahalli",
        "amenity": "community_centre",
        "description": "Community Center managed by DRRT and AVAS.",
        "name": "Drishya Kalika Kendra",
        "website": "http://www.dwarakaonline.com/Html/DRRT.htm"
      }
    },
    {
      "type": "node",
      "id": 7304811860,
      "lat": 12.9814907,
      "lon": 77.6457319,
      "tags": {
        "addr:city": "Bengaluru",
        "addr:country": "IN",
        "addr:housename": "George Thangiah Complex",
        "addr:housenumber": "21",
        "addr:postcode": "560038",
        "addr:street": "80 Feet Road",
        "addr:suburb": "Indiranagar",
        "amenity": "coworking_space",
        "check_date": "2023-11-08",
        "fee": "yes",
        "internet_access": "yes",
        "internet_access:fee": "customers",
        "name": "91 Springboard",
        "name:en": "91 Springboard",
        "office": "coworking",
        "operator": "91springboard",
        "website": "https://www.91springboard.com"
      }
    },
    {
      "type": "node",
      "id": 9783706519,
      "lat": 12.9965632,
      "lon": 77.6425776,
      "tags": {
        "amenity": "police",
        "name": "Police Station",
        "name:kn": "ಬೈಯಪ್ಪನಹಳ್ಳಿ ಆರಕ್ಷಕ ಠಾಣೆ"
      }
    },
    {
      "type": "node",
      "id": 10051816954,
      "lat": 12.9812467,
      "lon": 77.6462366,
      "tags": {
        "amenity": "restaurant",
        "delivery": "only",
        "diet:vegan": "yes",
        "name": "Bergamot"
      }
    },
    {
      "type": "node",
      "id": 10195307517,
      "lat": 12.9809864,
      "lon": 77.6462097,
      "tags": {
        "amenity": "restaurant",
        "cuisine": "indian",
        "name": "Dal Rotti Sabji",
        "name:en": "Dal Rotti Sabji",
        "opening_hours": "11:00-16:00,18:30-22:30; Sa off",
        "survey:date": "2022-11-17"
      }
    },
    {
      "type": "node",
      "id": 10224421217,
      "lat": 12.9809983,
      "lon": 77.6462098,
      "tags": {
        "addr:street": "80 Feet Road",
        "amenity": "fast_food",
        "check_date": "2023-11-29",
        "cuisine": "sandwich;juice",
        "diet:vegetarian": "yes",
        "name": "Ganesh Juice Center",
        "name:en": "Ganesh Juice Center",
        "payment:cards": "no",
        "payment:cash": "yes",
        "payment:credit_cards": "no",
        "payment:debit_cards": "no",
        "survey:date": "2022-11-29",
        "takeaway": "yes",
        "wheelchair": "no"
      }
    },
    {
      "type": "node",
      "id": 10302909510,
      "lat": 12.9807162,
      "lon": 77.6462726,
      "tags": {
        "addr:street": "80 Feet Road",
        "amenity": "restaurant",
        "cuisine": "chinese",
        "name": "Red Box"
      }
    },
    {
      "type": "node",
      "id": 10302909511,
      "lat": 12.9811088,
      "lon": 77.6459915,
      "tags": {
        "addr:street": "80 Feet Road",
        "check_date": "2023-11-29",
        "internet_access": "no",
        "name": "Chitra Bakery",
        "payment:cards": "no",
        "payment:cash": "yes",
        "payment:credit_cards": "no",
        "payment:debit_cards": "no",
        "shop": "bakery",
        "wheelchair": "no"
      }
    },
    {
      "type": "node",
      "id": 10305069309,
      "lat": 12.9804662,
      "lon": 77.6460886,
      "tags": {
        "addr:street": "80 Feet Road",
        "shop": "bakery"
      }
    },
    {
      "type": "node",
      "id": 11275493814,
      "lat": 12.9801839,
      "lon": 77.6464793,
      "tags": {
        "amenity": "fast_food",
        "check_date": "2023-10-19",
        "name": "WoW China"
      }
    },
    {
      "type": "node",
      "id": 11282630507,
      "lat": 12.9857293,
      "lon": 77.644488,
      "tags": {
        "amenity": "fast_food",
        "check_date": "2023-11-11",
        "drive_through": "no",
        "name": "Shraddha Cafe"
      }
    },
    {
      "type": "node",
      "id": 11497411805,
      "lat": 12.9823643,
      "lon": 77.6460998,
      "tags": {
        "access": "private",
        "amenity": "parking_entrance",
        "parking": "underground"
      }
    },
    {
      "type": "node",
      "id": 11578469506,
      "lat": 12.980087,
      "lon": 77.6461181,
      "tags": {
        "addr:floor": "G",
        "amenity": "restaurant",
        "check_date": "2024-02-02",
        "contact:instagram": "https://www.instagram.com/pijja_global",
        "level": "0",
        "name": "Pijja"
      }
    },
    {
      "type": "node",
      "id": 12204998929,
      "lat": 12.982675,
      "lon": 77.6460741,
      "tags": {
        "access": "private",
        "amenity": "parking_entrance",
        "parking": "underground"
      }
    },
    {
      "type": "node",
      "id": 12377673992,
      "lat": 12.9851146,
      "lon": 77.6441816,
      "tags": {
        "amenity": "bicycle_parking",
        "covered": "yes",
        "name": "Trin Trin Hub"
      }
    },
    {
      "type": "node",
      "id": 12377673993,
      "lat": 12.9851534,
      "lon": 77.644174,
      "tags": {
        "amenity": "bicycle_repair_station",
        "service:bicycle:pump": "yes",
        "service:bicycle:screwdriver": "yes",
        "service:bicycle:tools": "yes"
      }
    },
    {
      "type": "node",
      "id": 12520049852,
      "lat": 12.980066,
      "lon": 77.6460933,
      "tags": {
        "addr:city": "Bengaluru",
        "addr:postcode": "560038",
        "addr:street": "80 Feet Rd, Kalyan Nagar, Indira Nagar 1st Stage, H Colony, Indiranagar",
        "amenity": "dentist",
        "healthcare": "dentist",
        "name": "Dentalign"
      }
    },
    {
      "type": "node",
      "id": 12521903069,
      "lat": 12.9799611,
      "lon": 77.6465523,
      "tags": {
        "amenity": "restaurant",
        "brand": "Brik Oven",
        "brand:wikidata": "Q124374702",
        "cuisine": "pizza",
        "delivery": "yes",
        "level": "5",
        "name": "Brik Oven",
        "takeaway": "yes"
      }
    },
    {
      "type": "node",
      "id": 12528689221,
      "lat": 12.980573,
      "lon": 77.6459843,
      "tags": {
        "addr:city": "Bengaluru",
        "addr:housenumber": "5",
        "addr:postcode": "560038",
        "addr:street": "80feet Road, Michael Palya, Indiranagar",
        "name": "New Frosty's",
        "shop": "greengrocer"
      }
    },
    {
      "type": "node",
      "id": 12925049080,
      "lat": 12.9907716,
      "lon": 77.6525114,
      "tags": {
        "check_date": "2025-07-05",
        "name": "Amul",
        "shop": "dairy"
      }
    },
    {
      "type": "node",
      "id": 12943349329,
      "lat": 12.9922574,
      "lon": 77.6519519,
      "tags": {
        "amenity": "bicycle_parking",
        "bicycle_parking": "rack",
        "brand": "Trin Trin"
      }
    },
    {
      "type": "way",
      "id": 35311978,
      "center": {
        "lat": 12.9822274,
        "lon": 77.6533084
      },
      "tags": {
        "amenity": "research_institute",
        "check_date": "2024-11-10",
        "landuse": "industrial",
        "name": "Gas Turbine Research Establishment",
        "name:kn": "ಆವಿ ನೀರುಗಾಲಿ ಸಂಶೋಧನ ನೆಲೆ",
        "operator:type": "military",
        "short_name": "GTRE",
        "start_date": "1961",
        "wikidata": "Q5526315",
        "wikimedia_commons": "Category:GTRE aircraft engines",
        "wikipedia": "en:Gas Turbine Research Establishment"
      }
    },
    {
      "type": "way",
      "id": 41499025,
      "center": {
        "lat": 12.9808636,
        "lon": 77.642648
      },
      "tags": {
        "addr:city": "Indira Nagar, Bangalore",
        "addr:street": "100 Feet Road",
        "amenity": "school",
        "name": "Spastics Society of Karnataka"
      }
    },
    {
      "type": "way",
      "id": 41722454,
      "center": {
        "lat": 12.9781152,
        "lon": 77.6505224
      },
      "tags": {
        "amenity": "research_institute",
        "landuse": "industrial",
        "name": "Aeronautical Development Establishment",
        "short_name": "ADE",
        "wikidata": "Q4688350",
        "wikipedia": "en:Aeronautical Development Establishment"
      }
    },
    {
      "type": "way",
      "id": 135266042,
      "center": {
        "lat": 12.9829238,
        "lon": 77.6446972
      },
      "tags": {
        "amenity": "hospital",
        "healthcare": "hospital",
        "name": "Indiranagar Government Hospital",
        "name:kn": "ಇಂದಿರಾನಗರ ಸರ್ಕಾರಿ ಆಸ್ಪತ್ರೆ"
      }
    },
    {
      "type": "way",
      "id": 135266048,
      "center": {
        "lat": 12.985557,
        "lon": 77.6466045
      },
      "tags": {
        "addr:postcode": "560038",
        "amenity": "college",
        "name": "Montfort College",
        "name:kn": "ಮೊಂಟ್ ಫೊರ್ಟ್ ಕಾಲೇಜು"
      }
    },
    {
      "type": "way",
      "id": 135266052,
      "center": {
        "lat": 12.9852683,
        "lon": 77.6456101
      },
      "tags": {
        "amenity": "place_of_worship",
        "name": "Resurrection Church",
        "religion": "christian",
        "source": "self"
      }
    },
    {
      "type": "way",
      "id": 135266053,
      "center": {
        "lat": 12.9831382,
        "lon": 77.6463314
      },
      "tags": {
        "addr:street": "80 Feet Road",
        "amenity": "monastery",
        "community:gender": "female",
        "denomination": "catholic",
        "landuse": "religious",
        "monastery:type": "convent",
        "name": "Dominican Sisters of the Presentation",
        "religion": "christian"
      }
    },
    {
      "type": "way",
      "id": 135266054,
      "center": {
        "lat": 12.9858359,
        "lon": 77.6475563
      },
      "tags": {
        "amenity": "school",
        "name": "Fusco's School",
        "name:kn": "ಫೊಸ್ಕೊಸ್ ಶಾಲೆ"
      }
    },
    {
      "type": "way",
      "id": 135266057,
      "center": {
        "lat": 12.9839262,
        "lon": 77.6436191
      },
      "tags": {
        "amenity": "hospital",
        "healthcare": "hospital",
        "name": "Isolation Hospital",
        "name:kn": "ಐಸೊಲೇಶನ್ ಆಸ್ಪತ್ರೆ"
      }
    },
    {
      "type": "way",
      "id": 135266058,
      "center": {
        "lat": 12.9844576,
        "lon": 77.6464785
      },
      "tags": {
        "amenity": "social_facility",
        "name": "St. Michael's Home",
        "social_facility": "shelter"
      }
    },
    {
      "type": "way",
      "id": 135270813,
      "center": {
        "lat": 12.9864155,
        "lon": 77.6437586
      },
      "tags": {
        "addr:district": "Bengaluru Urban",
        "addr:full": "Old Madras Road",
        "addr:postcode": "560002",
        "addr:state": "Karnataka",
        "amenity": "hospital",
        "name": "Epidemic Disesase Hospital",
        "source": "OpenGovernmentData"
      }
    },
    {
      "type": "way",
      "id": 148042611,
      "center": {
        "lat": 12.9899813,
        "lon": 77.653186
      },
      "tags": {
        "access": "yes",
        "amenity": "parking",
        "fee": "yes",
        "parking": "surface"
      }
    },
    {
      "type": "way",
      "id": 164048206,
      "center": {
        "lat": 12.9858246,
        "lon": 77.6429529
      },
      "tags": {
        "amenity": "hospital",
        "emergency": "no",
        "name": "Isolation Hospital",
        "name:kn": "ಐಸೊಲೇಶನ್ ಆಸ್ಪತ್ರೆ"
      }
    },
    {
      "type": "way",
      "id": 182149856,
      "center": {
        "lat": 12.9853837,
        "lon": 77.6477907
      },
      "tags": {
        "leisure": "playground"
      }
    },
    {
      "type": "way",
      "id": 309936964,
      "center": {
        "lat": 12.9811042,
        "lon": 77.647751
      },
      "tags": {
        "description": "New Thrippasandra , word number 58",
        "leisure": "park",
        "name": "BM Kaval Childrens Park"
      }
    },
    {
      "type": "way",
      "id": 328758429,
      "center": {
        "lat": 12.9953687,
        "lon": 77.6529931
      },
      "tags": {
        "leisure": "park"
      }
    },
    {
      "type": "way",
      "id": 328758432,
      "center": {
        "lat": 12.9952564,
        "lon": 77.6527138
      },
      "tags": {
        "amenity": "hospital",
        "name": "ESI Hospital",
        "name:kn": "ಇಎಸ್ಐ ಆಸ್ಪತ್ರೆ"
      }
    },
    {
      "type": "way",
      "id": 331368921,
      "center": {
        "lat": 12.9815569,
        "lon": 77.6416871
      },
      "tags": {
        "amenity": "place_of_worship",
        "building": "mosque",
        "name": "Masjid-e Ummul Hasnin",
        "name:kn": "ಮಸ್ಜೀದ್ ಎ ಉಮ್ಮೂಲ್ ಹಾಸ್ನಿನ್",
        "religion": "muslim"
      }
    },
    {
      "type": "way",
      "id": 331683237,
      "center": {
        "lat": 12.9841014,
        "lon": 77.6445
      },
      "tags": {
        "leisure": "garden"
      }
    },
    {
      "type": "way",
      "id": 331683238,
      "center": {
        "lat": 12.9819678,
        "lon": 77.6445368
      },
      "tags": {
        "amenity": "school",
        "name": "Resurrection School"
      }
    },
    {
      "type": "way",
      "id": 331683279,
      "center": {
        "lat": 12.9823041,
        "lon": 77.6409618
      },
      "tags": {
        "addr:housenumber": "850/1",
        "brand": "Mahindra and Mahindra",
        "building": "commercial",
        "building:levels": "5",
        "name": "Mahindra and Mahindra",
        "name:kn": "ಮಹೀಂದ್ರಾ & ಮಹೀಂದ್ರಾ",
        "not:brand:wikidata": "Q9584",
        "shop": "car"
      }
    },
    {
      "type": "way",
      "id": 347117994,
      "center": {
        "lat": 12.9816506,
        "lon": 77.6431558
      },
      "tags": {
        "addr:housenumber": "24",
        "amenity": "school",
        "name": "Sarkari Hiriya Prarthmik Shale",
        "name:kn": "ಸರ್ಕಾರಿ ಹಿರಿಯ ಪ್ರಾಥಮಿಕ ಶಾಲೆ"
      }
    },
    {
      "type": "way",
      "id": 347118960,
      "center": {
        "lat": 12.9822266,
        "lon": 77.6415193
      },
      "tags": {
        "addr:street": "Hutting colony",
        "amenity": "clinic",
        "building": "yes",
        "healthcare": "clinic",
        "name": "Kairali Ayurvedic and Treatment Center"
      }
    },
    {
      "type": "way",
      "id": 347120731,
      "center": {
        "lat": 12.9807106,
        "lon": 77.646011
      },
      "tags": {
        "amenity": "hospital",
        "building": "yes",
        "healthcare": "hospital",
        "name": "MS Diabetes Speciality Center"
      }
    },
    {
      "type": "way",
      "id": 352542275,
      "center": {
        "lat": 12.981533,
        "lon": 77.6433227
      },
      "tags": {
        "addr:housenumber": "49",
        "amenity": "place_of_worship",
        "building": "yes",
        "name": "Sree Balamuri Vinayaka Temple",
        "name:kn": "ಬಲಮುರಿ ವಿನಾಯಕ ದೇವಸ್ಥಾನ",
        "religion": "hindu"
      }
    },
    {
      "type": "way",
      "id": 362931600,
      "center": {
        "lat": 12.9804964,
        "lon": 77.6447792
      },
      "tags": {
        "leisure": "park",
        "name": "BM Kaval Park"
      }
    },
    {
      "type": "way",
      "id": 368723168,
      "center": {
        "lat": 12.9834613,
        "lon": 77.6408291
      },
      "tags": {
        "amenity": "fuel",
        "brand": "Total",
        "brand:wikidata": "Q154037",
        "name": "Total"
      }
    },
    {
      "type": "way",
      "id": 368769034,
      "center": {
        "lat": 12.9843194,
        "lon": 77.64195
      },
      "tags": {
        "amenity": "place_of_worship",
        "name": "Sri Balamuri Ganapathy Temple",
        "name:kn": "ಶ್ರೀ ಬಲಮುರಿ ಗಣಪತಿ ದೇವಸ್ತಾನ",
        "religion": "hindu",
        "wheelchair": "no"
      }
    },
    {
      "type": "way",
      "id": 368769036,
      "center": {
        "lat": 12.9834025,
        "lon": 77.6413926
      },
      "tags": {
        "amenity": "place_of_worship",
        "name": "ZFG Church",
        "religion": "christian"
      }
    },
    {
      "type": "way",
      "id": 368769670,
      "center": {
        "lat": 12.9815743,
        "lon": 77.6417388
      },
      "tags": {
        "amenity": "place_of_worship",
        "name": "Masjid-e Ummul Hasnin",
        "name:kn": "ಮಸ್ಜೀದ್ ಎ ಉಮ್ಮೂಲ್ ಹಾಸ್ನಿನ್",
        "religion": "muslim"
      }
    },
    {
      "type": "way",
      "id": 368769672,
      "center": {
        "lat": 12.9816078,
        "lon": 77.641494
      },
      "tags": {
        "amenity": "school",
        "name": "Silicon City Public School"
      }
    },
    {
      "type": "way",
      "id": 368772813,
      "center": {
        "lat": 12.980089,
        "lon": 77.6426774
      },
      "tags": {
        "amenity": "school",
        "name": "Hamsadhwani School for Hearing Impaired",
        "name:kn": "ಹಂಸಧ್ವನಿ ಶಾಲೆ"
      }
    },
    {
      "type": "way",
      "id": 422656532,
      "center": {
        "lat": 12.9804902,
        "lon": 77.6464008
      },
      "tags": {
        "amenity": "restaurant",
        "building": "yes",
        "name": "Krishna Sagar Veg Restaurant"
      }
    },
    {
      "type": "way",
      "id": 469398746,
      "center": {
        "lat": 12.9850316,
        "lon": 77.6446654
      },
      "tags": {
        "access": "yes",
        "amenity": "parking",
        "fee": "yes",
        "name": "S V Road Metro Station Parking",
        "parking": "surface"
      }
    },
    {
      "type": "way",
      "id": 469658778,
      "center": {
        "lat": 12.99152,
        "lon": 77.6515824
      },
      "tags": {
        "amenity": "parking",
        "name": "Byappanahalli Station Parking",
        "parking": "surface"
      }
    },
    {
      "type": "way",
      "id": 575099721,
      "center": {
        "lat": 12.9852477,
        "lon": 77.645469
      },
      "tags": {
        "amenity": "place_of_worship",
        "building": "church",
        "religion": "christian"
      }
    },
    {
      "type": "way",
      "id": 575100604,
      "center": {
        "lat": 12.9830279,
        "lon": 77.645402
      },
      "tags": {
        "leisure": "garden"
      }
    },
    {
      "type": "way",
      "id": 585303953,
      "center": {
        "lat": 12.9949686,
        "lon": 77.6522838
      },
      "tags": {
        "amenity": "place_of_worship",
        "denomination": "hindu",
        "landuse": "religious",
        "name": "Small Temple",
        "religion": "hindu"
      }
    },
    {
      "type": "way",
      "id": 761473411,
      "center": {
        "lat": 12.9811092,
        "lon": 77.647736
      },
      "tags": {
        "access": "yes",
        "leisure": "playground"
      }
    },
    {
      "type": "way",
      "id": 1060190458,
      "center": {
        "lat": 12.9924123,
        "lon": 77.6525093
      },
      "tags": {
        "access": "customers",
        "amenity": "parking",
        "fee": "yes",
        "name": "Byappanahalli Station Parking",
        "operator": "BMRCL",
        "parking": "surface"
      }
    },
    {
      "type": "way",
      "id": 1310467013,
      "center": {
        "lat": 12.9827472,
        "lon": 77.6467916
      },
      "tags": {
        "access": "private",
        "leisure": "swimming_pool"
      }
    },
    {
      "type": "way",
      "id": 1354098115,
      "center": {
        "lat": 12.9869826,
        "lon": 77.6557936
      },
      "tags": {
        "access": "private",
        "amenity": "parking",
        "parking": "surface"
      }
    },
    {
      "type": "way",
      "id": 1427358318,
      "center": {
        "lat": 12.9824663,
        "lon": 77.6467777
      },
      "tags": {
        "access": "private",
        "leisure": "pitch",
        "sport": "basketball"
      }
    },
    {
      "type": "way",
      "id": 1427358319,
      "center": {
        "lat": 12.9823632,
        "lon": 77.646304
      },
      "tags": {
        "leisure": "playground"
      }
    }
  ]
}