{
  "area_name": "RT Nagar",
  "osm_id": 430043651,
  "osm_type": "node",
  "place_type": "suburb",
  "amenity_count": 190,
  "amenities": [
    {
      "type": "node",
      "id": 582591613,
      "lat": 13.0216684,
      "lon": 77.5928265,
      "tags": {
        "amenity": "post_office",
        "name": "Rabindranath Tagore Nagar",
        "name:kn": "ರವೀಂದ್ರನಾಥ ಠಾಗೋರ್ ನಗರ"
      }
    },
    {
      "type": "node",
      "id": 850751623,
      "lat": 13.0249229,
      "lon": 77.5928698,
      "tags": {
        "amenity": "atm",
        "brand": "UCO Bank",
        "brand:wikidata": "Q2005310",
        "name": "UCO Bank",
        "operator": "UCO Bank",
        "operator:wikidata": "Q2005310"
      }
    },
    {
      "type": "node",
      "id": 850751634,
      "lat": 13.0256109,
      "lon": 77.5931302,
      "tags": {
        "brand": "Levi's",
        "brand:wikidata": "Q127962",
        "clothes": "denim;men;women",
        "name": "Levi's",
        "name:kn": "ಲೆವಿಸ್",
        "shop": "clothes"
      }
    },
    {
      "type": "node",
      "id": 850751635,
      "lat": 13.0259675,
      "lon": 77.5932154,
      "tags": {
        "amenity": "library",
        "name": "RT Nagar Public Library"
      }
    },
    {
      "type": "node",
      "id": 850751637,
      "lat": 13.0248113,
      "lon": 77.5934442,
      "tags": {
        "amenity": "atm",
        "name": "Vijaya Bank",
        "name:kn": "ವಿಜಯ ಬ್ಯಾಂಕು"
      }
    },
    {
      "type": "node",
      "id": 850751641,
      "lat": 13.0254978,
      "lon": 77.5931058,
      "tags": {
        "amenity": "bank",
        "brand": "Andhra Bank",
        "brand:wikidata": "Q2003476",
        "brand:wikipedia": "en:Andhra Bank",
        "name": "Andhra Bank",
        "name:en": "Andhra Bank",
        "name:kn": "ಆಂಧ್ರ ಬ್ಯಾಂಕ್",
        "website": "https://www.andhrabank.in"
      }
    },
    {
      "type": "node",
      "id": 850751651,
      "lat": 13.0265973,
      "lon": 77.5933811,
      "tags": {
        "brand": "Adidas",
        "brand:wikidata": "Q3895",
        "name": "Adidas",
        "name:kn": "ಅಡಿಡಾಸ್",
        "shop": "sports"
      }
    },
    {
      "type": "node",
      "id": 850751657,
      "lat": 13.0260757,
      "lon": 77.5932346,
      "tags": {
        "brand": "Reebok",
        "brand:wikidata": "Q466183",
        "name": "Reebok",
        "name:kn": "ರೀಬಾಕ್",
        "shop": "clothes"
      }
    },
    {
      "type": "node",
      "id": 850751675,
      "lat": 13.0273116,
      "lon": 77.5934753,
      "tags": {
        "amenity": "restaurant",
        "name": "Kabab Manor",
        "name:kn": "ಕಬಾಬ್ ಮೆನರ್"
      }
    },
    {
      "type": "node",
      "id": 850751693,
      "lat": 13.0249491,
      "lon": 77.5926439,
      "tags": {
        "amenity": "atm",
        "brand": "Citibank",
        "brand:wikidata": "Q857063",
        "name": "Citibank",
        "name:kn": "ಸಿಟಿಬ್ಯಾಂಕ್",
        "operator": "Citibank",
        "operator:wikidata": "Q857063",
        "short_name": "Citi"
      }
    },
    {
      "type": "node",
      "id": 1415907177,
      "lat": 13.0236679,
      "lon": 77.592064,
      "tags": {
        "brand": "Nilgiri's",
        "brand:wikidata": "Q17079567",
        "name": "Nilgiri's",
        "name:kn": "ನೀಲ್ಗಿರೀಸ್",
        "shop": "supermarket"
      }
    },
    {
      "type": "node",
      "id": 1422401765,
      "lat": 13.0231839,
      "lon": 77.6004176,
      "tags": {
        "addr:street": "Dinnur Main Road",
        "name": "Super Market",
        "shop": "supermarket"
      }
    },
    {
      "type": "node",
      "id": 1474819109,
      "lat": 13.0256971,
      "lon": 77.5931352,
      "tags": {
        "amenity": "restaurant",
        "name": "Punjabi Rasoi",
        "name:kn": "ಪಂಜಾಬಿ ರಸೋಯಿ"
      }
    },
    {
      "type": "node",
      "id": 1474819110,
      "lat": 13.0263622,
      "lon": 77.5930491,
      "tags": {
        "amenity": "bank",
        "brand": "Andhra Bank",
        "brand:wikidata": "Q2003476",
        "brand:wikipedia": "en:Andhra Bank",
        "name": "Andhra Bank",
        "name:en": "Andhra Bank",
        "name:kn": "ಆಂಧ್ರ ಬ್ಯಾಂಕ್",
        "website": "https://www.andhrabank.in"
      }
    },
    {
      "type": "node",
      "id": 1474819111,
      "lat": 13.0264438,
      "lon": 77.5933686,
      "tags": {
        "amenity": "hospital",
        "name": "TSR heart care"
      }
    },
    {
      "type": "node",
      "id": 1474819115,
      "lat": 13.0249236,
      "lon": 77.5927811,
      "tags": {
        "amenity": "restaurant",
        "name": "Tiffin Centre",
        "name:kn": "ಟಿಫಿನ್ ಸೆಂಟೆರ್"
      }
    },
    {
      "type": "node",
      "id": 1474819152,
      "lat": 13.0254514,
      "lon": 77.593103,
      "tags": {
        "name": "Emporium",
        "shop": "clothes"
      }
    },
    {
      "type": "node",
      "id": 1474819153,
      "lat": 13.0261152,
      "lon": 77.5887524,
      "tags": {
        "name": "Amma Pastries",
        "shop": "bakery"
      }
    },
    {
      "type": "node",
      "id": 1474819154,
      "lat": 13.0253678,
      "lon": 77.593103,
      "tags": {
        "name": "Nokia Care",
        "shop": "kiosk"
      }
    },
    {
      "type": "node",
      "id": 1474819328,
      "lat": 13.023831,
      "lon": 77.5929101,
      "tags": {
        "name": "UniverCell Store",
        "shop": "convenience"
      }
    },
    {
      "type": "node",
      "id": 1474819329,
      "lat": 13.0238887,
      "lon": 77.5926095,
      "tags": {
        "name": "Titan Show room",
        "shop": "convenience"
      }
    },
    {
      "type": "node",
      "id": 1474819330,
      "lat": 13.0233034,
      "lon": 77.5928133,
      "tags": {
        "amenity": "restaurant",
        "diet:vegetarian": "only",
        "name": "New Shanti Sagar",
        "name:kn": "ನ್ಯೂ ಶಾಂತಿ ಸಾಗರ್"
      }
    },
    {
      "type": "node",
      "id": 1709531085,
      "lat": 13.0220957,
      "lon": 77.6032439,
      "tags": {
        "amenity": "theatre",
        "name": "Pushpanjili Theatre",
        "name:kn": "ಪುಷ್ಪಾಂಜಲಿ ಚಿತ್ರಮಂದಿರ"
      }
    },
    {
      "type": "node",
      "id": 1722621793,
      "lat": 13.0227783,
      "lon": 77.6014591,
      "tags": {
        "addr:housenumber": "080-22744402",
        "addr:postcode": "560032",
        "addr:street": "Dinnur Main Road",
        "name": "LifeLine Tender Chicken",
        "shop": "butcher",
        "website": "https://www.lifelinefeeds.com/"
      }
    },
    {
      "type": "node",
      "id": 2151427893,
      "lat": 13.0252085,
      "lon": 77.6036776,
      "tags": {
        "name": "Honey Land Bakery",
        "shop": "bakery"
      }
    },
    {
      "type": "node",
      "id": 2210804511,
      "lat": 13.0255016,
      "lon": 77.6033615,
      "tags": {
        "amenity": "atm",
        "operator": "SBI"
      }
    },
    {
      "type": "node",
      "id": 2210804544,
      "lat": 13.0269431,
      "lon": 77.60086,
      "tags": {
        "amenity": "place_of_worship",
        "name": "Rama temple",
        "name:kn": "ರಾಮ ದೇವಸ್ಥಾನ",
        "religion": "hindu"
      }
    },
    {
      "type": "node",
      "id": 2210804565,
      "lat": 13.0247801,
      "lon": 77.6016445,
      "tags": {
        "amenity": "milk-booth"
      }
    },
    {
      "type": "node",
      "id": 2210804567,
      "lat": 13.023275,
      "lon": 77.6002829,
      "tags": {
        "name": "Blue Rose, Home Needs",
        "shop": "convenience"
      }
    },
    {
      "type": "node",
      "id": 2210806496,
      "lat": 13.0232222,
      "lon": 77.6003506,
      "tags": {
        "shop": "greengrocer"
      }
    },
    {
      "type": "node",
      "id": 2210807119,
      "lat": 13.0235333,
      "lon": 77.6000246,
      "tags": {
        "amenity": "pharmacy"
      }
    },
    {
      "type": "node",
      "id": 2214747036,
      "lat": 13.0232887,
      "lon": 77.6005444,
      "tags": {
        "amenity": "atm"
      }
    },
    {
      "type": "node",
      "id": 2214747037,
      "lat": 13.0232564,
      "lon": 77.6006133,
      "tags": {
        "amenity": "atm",
        "name": "Axis Bank ATM",
        "name:kn": "ಆಕ್ಸಿಸ್ ಬ್ಯಾಂಕ್",
        "operator": "Axis Bank"
      }
    },
    {
      "type": "node",
      "id": 2214747042,
      "lat": 13.0222291,
      "lon": 77.6004298,
      "tags": {
        "amenity": "atm",
        "operator": "ICICI"
      }
    },
    {
      "type": "node",
      "id": 2465713488,
      "lat": 13.0213985,
      "lon": 77.6005015,
      "tags": {
        "amenity": "fuel",
        "brand": "Indane Oil",
        "name": "Lakshmamma Petrol / Gas Station"
      }
    },
    {
      "type": "node",
      "id": 2911691002,
      "lat": 13.0169921,
      "lon": 77.5914678,
      "tags": {
        "amenity": "restaurant",
        "name": "Empire Hotel",
        "name:kn": "ಎಂಪೈರ್"
      }
    },
    {
      "type": "node",
      "id": 2911691005,
      "lat": 13.0174262,
      "lon": 77.5916716,
      "tags": {
        "amenity": "restaurant",
        "cuisine": "indian",
        "name": "Kudla"
      }
    },
    {
      "type": "node",
      "id": 2911691006,
      "lat": 13.0168458,
      "lon": 77.591398,
      "tags": {
        "amenity": "restaurant",
        "diet:vegetarian": "yes",
        "name": "Adiga's",
        "name:kn": "ಅಡಿಗಾಸ್"
      }
    },
    {
      "type": "node",
      "id": 3363186002,
      "lat": 13.0199268,
      "lon": 77.5951979,
      "tags": {
        "amenity": "atm"
      }
    },
    {
      "type": "node",
      "id": 3591576155,
      "lat": 13.0207677,
      "lon": 77.5929009,
      "tags": {
        "amenity": "cafe",
        "brand": "Cafe Coffee Day",
        "brand:wikidata": "Q5017235",
        "cuisine": "coffee_shop",
        "name": "Cafe Coffee Day",
        "name:kn": "ಕಫೆ ಕಾಫಿ ಡೇ",
        "takeaway": "yes"
      }
    },
    {
      "type": "node",
      "id": 3591577007,
      "lat": 13.0207547,
      "lon": 77.5929974,
      "tags": {
        "name": "Namdhari Fresh",
        "shop": "supermarket"
      }
    },
    {
      "type": "node",
      "id": 3591592755,
      "lat": 13.0207547,
      "lon": 77.5930859,
      "tags": {
        "amenity": "bank",
        "atm": "yes",
        "brand": "Andhra Bank",
        "brand:wikidata": "Q2003476",
        "brand:wikipedia": "en:Andhra Bank",
        "name": "Andhra Bank",
        "name:en": "Andhra Bank",
        "name:kn": "ಆಂಧ್ರ ಬ್ಯಾಂಕ್",
        "website": "https://www.andhrabank.in"
      }
    },
    {
      "type": "node",
      "id": 3591611473,
      "lat": 13.022371,
      "lon": 77.5942251,
      "tags": {
        "shop": "greengrocer"
      }
    },
    {
      "type": "node",
      "id": 3591611743,
      "lat": 13.0218513,
      "lon": 77.5962159,
      "tags": {
        "name": "Everyday Needs",
        "shop": "yes"
      }
    },
    {
      "type": "node",
      "id": 4386500090,
      "lat": 13.0240798,
      "lon": 77.6032686,
      "tags": {
        "amenity": "pharmacy",
        "name": "Maruti Medicals and Genral Stores"
      }
    },
    {
      "type": "node",
      "id": 4386500091,
      "lat": 13.0244383,
      "lon": 77.6032696,
      "tags": {
        "amenity": "clinic",
        "name": "Dental Care Center"
      }
    },
    {
      "type": "node",
      "id": 4386500092,
      "lat": 13.0244906,
      "lon": 77.6032509,
      "tags": {
        "name": "Modern Enterprises",
        "shop": "copyshop"
      }
    },
    {
      "type": "node",
      "id": 4386500093,
      "lat": 13.0244193,
      "lon": 77.6033279,
      "tags": {
        "name": "Bright Laundry",
        "shop": "laundry"
      }
    },
    {
      "type": "node",
      "id": 4386500094,
      "lat": 13.0244599,
      "lon": 77.6033228,
      "tags": {
        "name": "Nikisha Elctricals and Electronics",
        "shop": "electronics"
      }
    },
    {
      "type": "node",
      "id": 4386500096,
      "lat": 13.024502,
      "lon": 77.6033331,
      "tags": {
        "name": "RR Enterprises",
        "shop": "books"
      }
    },
    {
      "type": "node",
      "id": 4386500097,
      "lat": 13.0253206,
      "lon": 77.6035555,
      "tags": {
        "name": "Corone Fresh Spices and Dry Fruits",
        "shop": "department_store"
      }
    },
    {
      "type": "node",
      "id": 4386500098,
      "lat": 13.0253734,
      "lon": 77.60357,
      "tags": {
        "amenity": "clinic",
        "name": "AB EyeCare"
      }
    },
    {
      "type": "node",
      "id": 4386500099,
      "lat": 13.025295,
      "lon": 77.6036548,
      "tags": {
        "amenity": "cafe",
        "name": "Juba Cafe"
      }
    },
    {
      "type": "node",
      "id": 4386500100,
      "lat": 13.0253614,
      "lon": 77.6036609,
      "tags": {
        "name": "KGN Provision Store",
        "shop": "department_store"
      }
    },
    {
      "type": "node",
      "id": 4386500101,
      "lat": 13.025445,
      "lon": 77.6036945,
      "tags": {
        "amenity": "pharmacy",
        "name": "Mankind Medical and Cosmetics"
      }
    },
    {
      "type": "node",
      "id": 4386500102,
      "lat": 13.0257661,
      "lon": 77.6037904,
      "tags": {
        "name": "Dream Wear",
        "shop": "clothes"
      }
    },
    {
      "type": "node",
      "id": 4386500103,
      "lat": 13.0258196,
      "lon": 77.6038066,
      "tags": {
        "name": "Patel Novelty Stores",
        "shop": "gift"
      }
    },
    {
      "type": "node",
      "id": 4386500104,
      "lat": 13.0258377,
      "lon": 77.6038083,
      "tags": {
        "name": "Galmor And Shine Beauty Parlour",
        "shop": "cosmetics"
      }
    },
    {
      "type": "node",
      "id": 4386500105,
      "lat": 13.025883,
      "lon": 77.6038199,
      "tags": {
        "name": "Manoj Textiles",
        "shop": "clothes"
      }
    },
    {
      "type": "node",
      "id": 4386500106,
      "lat": 13.026204,
      "lon": 77.6039342,
      "tags": {
        "name": "Dreams Mobile World",
        "shop": "mobile_phone"
      }
    },
    {
      "type": "node",
      "id": 4386500107,
      "lat": 13.0262474,
      "lon": 77.6039456,
      "tags": {
        "name": "Shivam Condiments",
        "shop": "bakery"
      }
    },
    {
      "type": "node",
      "id": 4386500108,
      "lat": 13.0262805,
      "lon": 77.6039576,
      "tags": {
        "name": "Mango Bake and Shake",
        "shop": "bakery"
      }
    },
    {
      "type": "node",
      "id": 4386500110,
      "lat": 13.0265617,
      "lon": 77.6040589,
      "tags": {
        "name": "Smita Info Solutions",
        "shop": "copyshop"
      }
    },
    {
      "type": "node",
      "id": 4386500190,
      "lat": 13.0238759,
      "lon": 77.6030622,
      "tags": {
        "name": "Limra Associates",
        "shop": "copyshop"
      }
    },
    {
      "type": "node",
      "id": 4386500191,
      "lat": 13.0239803,
      "lon": 77.6031307,
      "tags": {
        "name": "Swadeshi Foods",
        "shop": "confectionery"
      }
    },
    {
      "type": "node",
      "id": 4386500193,
      "lat": 13.0244213,
      "lon": 77.6032614,
      "tags": {
        "amenity": "bank",
        "name": "Star Health"
      }
    },
    {
      "type": "node",
      "id": 4386500194,
      "lat": 13.0252198,
      "lon": 77.6034014,
      "tags": {
        "name": "Citrus Dress Materials",
        "shop": "clothes"
      }
    },
    {
      "type": "node",
      "id": 4386500195,
      "lat": 13.0252496,
      "lon": 77.6036506,
      "tags": {
        "amenity": "cafe",
        "name": "Joy IceCream"
      }
    },
    {
      "type": "node",
      "id": 4386500196,
      "lat": 13.0263546,
      "lon": 77.6039914,
      "tags": {
        "name": "Nizam Collections",
        "shop": "clothes"
      }
    },
    {
      "type": "node",
      "id": 4386506491,
      "lat": 13.024064,
      "lon": 77.6031704,
      "tags": {
        "name": "Cafe Coffee Day",
        "name:kn": "ಕಫೆ ಕಾಫಿ ಡೇ",
        "shop": "convenience"
      }
    },
    {
      "type": "node",
      "id": 4386506492,
      "lat": 13.0240911,
      "lon": 77.6031919,
      "tags": {
        "name": "Manjunatha Condiments",
        "shop": "department_store"
      }
    },
    {
      "type": "node",
      "id": 4386506493,
      "lat": 13.0240899,
      "lon": 77.603228,
      "tags": {
        "amenity": "clinic",
        "name": "Maruti Clinic",
        "name:kn": "ಮಾರುತಿ ಚಿಕಿತ್ಸಾಲಯ"
      }
    },
    {
      "type": "node",
      "id": 4386506495,
      "lat": 13.0244952,
      "lon": 77.6032201,
      "tags": {
        "name": "Mallige Printers",
        "shop": "copyshop"
      }
    },
    {
      "type": "node",
      "id": 4386506496,
      "lat": 13.0248867,
      "lon": 77.6034992,
      "tags": {
        "name": "Jai Ganesh Mobile Sales and Services",
        "shop": "mobile_phone"
      }
    },
    {
      "type": "node",
      "id": 4386506497,
      "lat": 13.0249104,
      "lon": 77.6034717,
      "tags": {
        "amenity": "pharmacy",
        "name": "Mohite Medicals"
      }
    },
    {
      "type": "node",
      "id": 4386506499,
      "lat": 13.0257924,
      "lon": 77.6037965,
      "tags": {
        "name": "Anjana Stationery",
        "shop": "books"
      }
    },
    {
      "type": "node",
      "id": 4386506500,
      "lat": 13.0261242,
      "lon": 77.6039117,
      "tags": {
        "amenity": "recycling",
        "name": "Omshakti Paper Mart"
      }
    },
    {
      "type": "node",
      "id": 4386506501,
      "lat": 13.0265159,
      "lon": 77.6040547,
      "tags": {
        "name": "SR Consultant Real Estate",
        "shop": "department_store"
      }
    },
    {
      "type": "node",
      "id": 4386506589,
      "lat": 13.0231271,
      "lon": 77.6028605,
      "tags": {
        "name": "Sahi International Motors",
        "shop": "car_repair"
      }
    },
    {
      "type": "node",
      "id": 4386506590,
      "lat": 13.023763,
      "lon": 77.6029395,
      "tags": {
        "amenity": "pharmacy",
        "name": "A.K Medicals"
      }
    },
    {
      "type": "node",
      "id": 4386506591,
      "lat": 13.0246416,
      "lon": 77.603385,
      "tags": {
        "name": "Mangalore Jewellery Works",
        "shop": "jewelry"
      }
    },
    {
      "type": "node",
      "id": 4386506593,
      "lat": 13.0251982,
      "lon": 77.6034408,
      "tags": {
        "name": "Take 5",
        "shop": "electronics"
      }
    },
    {
      "type": "node",
      "id": 4386506594,
      "lat": 13.0252235,
      "lon": 77.603522,
      "tags": {
        "name": "Mithai Ghar",
        "shop": "confectionery"
      }
    },
    {
      "type": "node",
      "id": 4386506595,
      "lat": 13.025264,
      "lon": 77.6035286,
      "tags": {
        "name": "Fashion House",
        "shop": "clothes"
      }
    },
    {
      "type": "node",
      "id": 4386506596,
      "lat": 13.0252803,
      "lon": 77.6035419,
      "tags": {
        "name": "Vigbhan Men's Beauty Salon",
        "shop": "hairdresser"
      }
    },
    {
      "type": "node",
      "id": 4386506597,
      "lat": 13.0252958,
      "lon": 77.6035419,
      "tags": {
        "name": "Dharmesh Jewellers",
        "shop": "jewelry"
      }
    },
    {
      "type": "node",
      "id": 4386506598,
      "lat": 13.0265752,
      "lon": 77.6040303,
      "tags": {
        "name": "Zooland Aquatic",
        "shop": "pet"
      }
    },
    {
      "type": "node",
      "id": 4386506689,
      "lat": 13.0234261,
      "lon": 77.6028721,
      "tags": {
        "name": "Darshan Traders",
        "shop": "department_store"
      }
    },
    {
      "type": "node",
      "id": 4386506690,
      "lat": 13.0248424,
      "lon": 77.6034721,
      "tags": {
        "name": "Shakti Traders",
        "shop": "department_store"
      }
    },
    {
      "type": "node",
      "id": 4386506691,
      "lat": 13.0249944,
      "lon": 77.6035016,
      "tags": {
        "name": "Excellent Dry Cleaners",
        "shop": "laundry"
      }
    },
    {
      "type": "node",
      "id": 4386506692,
      "lat": 13.0250462,
      "lon": 77.6035174,
      "tags": {
        "name": "Sriram Hoke Appliances",
        "shop": "electronics"
      }
    },
    {
      "type": "node",
      "id": 4386506693,
      "lat": 13.0252676,
      "lon": 77.6036464,
      "tags": {
        "name": "Jingle Bells",
        "shop": "gift"
      }
    },
    {
      "type": "node",
      "id": 4386506694,
      "lat": 13.0264161,
      "lon": 77.6040116,
      "tags": {
        "amenity": "fast_food",
        "name": "HMS Fast Food"
      }
    },
    {
      "type": "node",
      "id": 4386506695,
      "lat": 13.0266014,
      "lon": 77.6040359,
      "tags": {
        "name": "Om Ganesh Juice Center",
        "shop": "convenience"
      }
    },
    {
      "type": "node",
      "id": 4386506789,
      "lat": 13.023718,
      "lon": 77.6029059,
      "tags": {
        "name": "Daya Enterprises",
        "shop": "computer"
      }
    },
    {
      "type": "node",
      "id": 4386506889,
      "lat": 13.0237732,
      "lon": 77.6029993,
      "tags": {
        "name": "Abhirami Tenthouse",
        "shop": "outdoor"
      }
    },
    {
      "type": "node",
      "id": 4386506890,
      "lat": 13.0238453,
      "lon": 77.6030488,
      "tags": {
        "name": "Ravi's Cyber Cafe",
        "shop": "copyshop"
      }
    },
    {
      "type": "node",
      "id": 4386506891,
      "lat": 13.0239189,
      "lon": 77.603075,
      "tags": {
        "name": "Vigbhan Salon",
        "shop": "hairdresser"
      }
    },
    {
      "type": "node",
      "id": 4386506892,
      "lat": 13.0240447,
      "lon": 77.6031596,
      "tags": {
        "name": "Vinay Bangle Store",
        "shop": "convenience"
      }
    },
    {
      "type": "node",
      "id": 4386506893,
      "lat": 13.0249337,
      "lon": 77.6034778,
      "tags": {
        "name": "Sri Manjunath Pooja Stall",
        "shop": "department_store"
      }
    },
    {
      "type": "node",
      "id": 4386506894,
      "lat": 13.02502,
      "lon": 77.6035096,
      "tags": {
        "name": "Guru",
        "shop": "department_store"
      }
    },
    {
      "type": "node",
      "id": 4386506896,
      "lat": 13.0253895,
      "lon": 77.6036609,
      "tags": {
        "name": "Sunray Enterprises",
        "shop": "mobile_phone"
      }
    },
    {
      "type": "node",
      "id": 4386506897,
      "lat": 13.0253304,
      "lon": 77.6037215,
      "tags": {
        "leisure": "fitness_centre",
        "name": "Life Care"
      }
    },
    {
      "type": "node",
      "id": 4386506989,
      "lat": 13.0240899,
      "lon": 77.6032598,
      "tags": {
        "amenity": "recycling",
        "name": "Murugan Old Paper Mart"
      }
    },
    {
      "type": "node",
      "id": 4386506990,
      "lat": 13.0246642,
      "lon": 77.6033983,
      "tags": {
        "name": "Zain Communication",
        "shop": "mobile_phone"
      }
    },
    {
      "type": "node",
      "id": 4386506991,
      "lat": 13.0247965,
      "lon": 77.6034489,
      "tags": {
        "name": "Karnataka Provision Stores",
        "shop": "department_store"
      }
    },
    {
      "type": "node",
      "id": 4386507089,
      "lat": 13.0244352,
      "lon": 77.6033228,
      "tags": {
        "name": "Ebenezer Men's and Women's Salon",
        "shop": "hairdresser"
      }
    },
    {
      "type": "node",
      "id": 4386507090,
      "lat": 13.0246144,
      "lon": 77.6033711,
      "tags": {
        "name": "Roxy Dry Cleaners",
        "shop": "laundry"
      }
    },
    {
      "type": "node",
      "id": 4386507091,
      "lat": 13.0248622,
      "lon": 77.6034844,
      "tags": {
        "name": "Padma Digital Studio",
        "shop": "photo"
      }
    },
    {
      "type": "node",
      "id": 4386507092,
      "lat": 13.0252114,
      "lon": 77.6034226,
      "tags": {
        "name": "Looks Beauty Parlour",
        "shop": "cosmetics"
      }
    },
    {
      "type": "node",
      "id": 4386507093,
      "lat": 13.0254198,
      "lon": 77.6036818,
      "tags": {
        "name": "Infa Collections",
        "shop": "gift"
      }
    },
    {
      "type": "node",
      "id": 4386507094,
      "lat": 13.025341,
      "lon": 77.6036943,
      "tags": {
        "amenity": "pharmacy",
        "name": "Rudra Medicals and General Store"
      }
    },
    {
      "type": "node",
      "id": 4386507389,
      "lat": 13.0248156,
      "lon": 77.6034597,
      "tags": {
        "name": "Sri Manjunatha Vegetable Stores",
        "shop": "greengrocer"
      }
    },
    {
      "type": "node",
      "id": 4422272111,
      "lat": 13.0222579,
      "lon": 77.5922587,
      "tags": {
        "amenity": "bar",
        "name": "Ujwal Bar and Restaurant"
      }
    },
    {
      "type": "node",
      "id": 4422272112,
      "lat": 13.022359,
      "lon": 77.5927417,
      "tags": {
        "amenity": "restaurant",
        "name": "Al Bek"
      }
    },
    {
      "type": "node",
      "id": 4422272113,
      "lat": 13.0214967,
      "lon": 77.5924037,
      "tags": {
        "name": "Food World",
        "shop": "supermarket"
      }
    },
    {
      "type": "node",
      "id": 4443560972,
      "lat": 13.0272204,
      "lon": 77.593535,
      "tags": {
        "addr:city": "bangalore",
        "addr:housenumber": "16",
        "addr:postcode": "560032",
        "addr:street": "Hmt Layout, Near-R T Nagar Bus Depot, R T Nagar, HMT Layout, Dinnur, RT Nagar",
        "amenity": "pharmacy",
        "name": "Sri Srinivasa Medicals",
        "phone": "080 2353 5499"
      }
    },
    {
      "type": "node",
      "id": 4446306864,
      "lat": 13.02454,
      "lon": 77.5950447,
      "tags": {
        "addr:city": "Bangalore",
        "addr:housenumber": "#1",
        "addr:postcode": "560032",
        "addr:street": "Dinnur Main Road,  Dinnur Main Road, Ex Servicemen Colony,RT Nagar",
        "amenity": "pharmacy",
        "name": "Popular Medical And General",
        "phone": "08023338662",
        "source": "bangalorehospital.co.in"
      }
    },
    {
      "type": "node",
      "id": 4446312739,
      "lat": 13.0237176,
      "lon": 77.5928768,
      "tags": {
        "addr:city": "Bangalore",
        "addr:housenumber": "#3",
        "addr:postcode": "560032",
        "addr:street": "RT Nagar Main Road,  80 Feet Main Road, P&T Colony",
        "amenity": "pharmacy",
        "name": "Trust Chemists Druggists",
        "phone": "080 4128 4949",
        "source": "http://www.bangalorehospital.co.in/"
      }
    },
    {
      "type": "node",
      "id": 4446970715,
      "lat": 13.0192775,
      "lon": 77.5968129,
      "tags": {
        "addr:city": "bangalore",
        "addr:housenumber": "76",
        "addr:postcode": "560032",
        "addr:street": "14th Cross Rd, Thimaiah Garden, Devara Jeevanahalli",
        "amenity": "pharmacy",
        "name": "Rajkumar Diagnostics",
        "phone": "+919538244420",
        "source": "www.justdial.com"
      }
    },
    {
      "type": "node",
      "id": 4446992566,
      "lat": 13.0216774,
      "lon": 77.5927881,
      "tags": {
        "addr:city": "bangalore",
        "addr:housenumber": "16",
        "addr:postcode": "560032,",
        "addr:street": "RT Nagar Main Road",
        "amenity": "pharmacy",
        "name": "Sri Srinivasa Medicals",
        "phone": "+91 80 2353 5499",
        "source": "www.justdial.com"
      }
    },
    {
      "type": "node",
      "id": 4489095061,
      "lat": 13.0168374,
      "lon": 77.5952157,
      "tags": {
        "addr:city": "bangalore",
        "addr:housenumber": "1/5",
        "addr:postcode": "560032",
        "addr:street": "B/H Nilgiris Next Copn Scholl, Opposite Anjeya Temple, 1st Main, 1st Cross, R T Nagar, R T Nagar, Bhadrappa Layout, RT Nagar",
        "name": "Vinayaka Sports World",
        "opening_hours": "10:00-21:00",
        "phone": "098453 58652",
        "shop": "sports"
      }
    },
    {
      "type": "node",
      "id": 4489693189,
      "lat": 13.0240504,
      "lon": 77.6030297,
      "tags": {
        "addr:city": "bangalore",
        "addr:housenumber": "551",
        "addr:postcode": "560032",
        "addr:street": "2nd Block,2nd Main Road, Kanaka Nagar Rt Nagar",
        "leisure": "sports_centre",
        "name": "Roots Fitness",
        "opening_hours": "9:30-22:00",
        "phone": "(91)-80-33055480",
        "sport": "gymnastics"
      }
    },
    {
      "type": "node",
      "id": 4489722790,
      "lat": 13.0241827,
      "lon": 77.5929161,
      "tags": {
        "addr:city": "Bangalore",
        "addr:housenumber": "#11/12",
        "addr:postcode": "560032",
        "addr:street": ",Unique Center, 1st Floor, Above Unilet Electronics, 80 Feet Rd,, , RT Nagar, Bhadrappa Layout, P&T Colony, RT Nagar, Bengaluru, Karnataka 560032",
        "leisure": "sports_centre",
        "name": "Group Ex Fitness Revolution",
        "opening_hours": "6:00-21:00",
        "phone": "\"090190 31031",
        "website": "https://groupex.co.in/"
      }
    },
    {
      "type": "node",
      "id": 4489730800,
      "lat": 13.0241022,
      "lon": 77.5972276,
      "tags": {
        "addr:city": "bangalore",
        "addr:postcode": "560032",
        "addr:street": "3rd Floor, Dinnur Main Road, R T Nagar",
        "leisure": "sports_centre",
        "name": "Power Cuts And Curves Gym And Fitness Centre",
        "opening_hours": "06:00-12:30",
        "phone": "(91)-9731420000",
        "sport": "gymnastics",
        "website": "www.powercutsncurves.com"
      }
    },
    {
      "type": "node",
      "id": 4489826333,
      "lat": 13.0218675,
      "lon": 77.597868,
      "tags": {
        "addr:city": "Bengaluru",
        "addr:housenumber": "551",
        "addr:postcode": "560032",
        "addr:street": ", 2nd Floor, 2nd Cross, 2nd Block, R.T Nagar, Bhadrappa Layout, RT Nagar, , Karnataka",
        "leisure": "sports_centre",
        "name": "Reach Roots Fitness",
        "opening_hours": "5:30-22:00",
        "phone": "080 4128 9578",
        "website": "rootsfitness.co.in"
      }
    },
    {
      "type": "node",
      "id": 4489850392,
      "lat": 13.0242132,
      "lon": 77.5929468,
      "tags": {
        "addr:city": "Bangalore",
        "addr:housenumber": "5, 2nd Floor",
        "addr:postcode": "560032",
        "addr:street": ", Above-Vivek Show Room, Next To-R T Nagar Police Station, R T Nagar, P&T Colony, RT Nagar, Bengaluru, Karnataka",
        "leisure": "sports_centre",
        "name": "Cuts and Curves",
        "opening_hours": "6:00-22:00",
        "phone": "080 2343 5320",
        "website": "https://agarwalpacking.in/"
      }
    },
    {
      "type": "node",
      "id": 4697843992,
      "lat": 13.0169007,
      "lon": 77.5907711,
      "tags": {
        "addr:housenumber": "6",
        "addr:postcode": "560032",
        "addr:street": "6th Main Krishnappa Block",
        "name": "Agiledge process solutions Pvt Ltd",
        "name:en": "Agiledge process solutions Pvt Ltd",
        "opening_hours": "Mo-Fr 09:00-18:00",
        "phone": "080-23432343",
        "shop": "computer",
        "website": "https://www.agiledgesolutions.com/"
      }
    },
    {
      "type": "node",
      "id": 4697854891,
      "lat": 13.0264736,
      "lon": 77.599251,
      "tags": {
        "amenity": "school",
        "name": "Kingston school",
        "name:en": "Kingston school"
      }
    },
    {
      "type": "node",
      "id": 4697889489,
      "lat": 13.0263631,
      "lon": 77.5996649,
      "tags": {
        "name": "Ashok bakery",
        "name:en": "Ashok bakery",
        "shop": "bakery"
      }
    },
    {
      "type": "node",
      "id": 5329386293,
      "lat": 13.0264895,
      "lon": 77.6040339,
      "tags": {
        "highway": "bus_stop",
        "name": "Shaji Stores",
        "shop": "department_store"
      }
    },
    {
      "type": "node",
      "id": 5441831152,
      "lat": 13.0221222,
      "lon": 77.6034687,
      "tags": {
        "addr:city": "Bangalore",
        "addr:postcode": "560032",
        "addr:street": "KHB Main Road",
        "amenity": "place_of_worship",
        "name": "Ganesha Temple",
        "name:kn": "ಗಣೇಶ ದೇವಸ್ಥಾನ",
        "religion": "hindu"
      }
    },
    {
      "type": "node",
      "id": 6937890455,
      "lat": 13.0237316,
      "lon": 77.5941463,
      "tags": {
        "addr:district": "Bengaluru Urban",
        "addr:full": "No 80, P&T Colony R T Nagar",
        "addr:postcode": "560032",
        "addr:state": "Karnataka",
        "amenity": "hospital",
        "name": "Chaitanya Hospital",
        "name:kn": "ಚೈತನ್ಯ ಆಸ್ಪತ್ರೆ",
        "source": "OpenGovernmentData"
      }
    },
    {
      "type": "node",
      "id": 6937963276,
      "lat": 13.0261691,
      "lon": 77.5984029,
      "tags": {
        "addr:district": "Bengaluru Urban",
        "addr:full": "#7, 2nd Main, 7Th Cross Dinnur, Rt Nagar Post",
        "addr:postcode": "560032",
        "addr:state": "Karnataka",
        "amenity": "clinic",
        "name": "Kids Care Health Centre",
        "source": "OpenGovernmentData",
        "wheelchair": "limited"
      }
    },
    {
      "type": "node",
      "id": 6938653696,
      "lat": 13.0263529,
      "lon": 77.5933929,
      "tags": {
        "addr:district": "Bengaluru Urban",
        "addr:full": "# 9 80 Fet Road H M T Layout R T Nagar",
        "addr:postcode": "560032",
        "addr:state": "Karnataka",
        "amenity": "hospital",
        "name": "Asha Kiran Children & Women Health Care Centre",
        "source": "OpenGovernmentData"
      }
    },
    {
      "type": "node",
      "id": 6938868535,
      "lat": 13.0241654,
      "lon": 77.6033556,
      "tags": {
        "addr:district": "Bengaluru Urban",
        "addr:full": "No. 9/8, 1st Main, Sultan Pallya, Rt Nagar Post",
        "addr:postcode": "560032",
        "addr:state": "Karnataka",
        "amenity": "clinic",
        "name": "Shanmuga Nursing Home, Bengaluru Urban",
        "source": "OpenGovernmentData"
      }
    },
    {
      "type": "node",
      "id": 6938948962,
      "lat": 13.024837,
      "lon": 77.592089,
      "tags": {
        "addr:district": "Bengaluru Urban",
        "addr:full": "402, 2nd Cross Judges Colony Ganganagar",
        "addr:postcode": "560032",
        "addr:state": "Karnataka",
        "amenity": "hospital",
        "name": "Lakshmi Hospital, Ganganagar",
        "source": "OpenGovernmentData"
      }
    },
    {
      "type": "node",
      "id": 6944105329,
      "lat": 13.0251833,
      "lon": 77.5920609,
      "tags": {
        "addr:district": "Bengaluru Urban",
        "addr:full": "No.533, 108 Bus Stop, Ganganagar",
        "addr:postcode": "560032",
        "addr:state": "Karnataka",
        "addr:subdistrict": "R.T.Nagar",
        "amenity": "hospital",
        "name": "Vasan Eye Care Hospital, R.T.Nagar",
        "operator:type": "private",
        "source": "OpenGovernmentData",
        "website": "http://www.vasaneye.in/"
      }
    },
    {
      "type": "node",
      "id": 6945075435,
      "lat": 13.015884,
      "lon": 77.5973475,
      "tags": {
        "addr:district": "Bengaluru Urban",
        "addr:full": "No 29, 9Th Cross Adi Kabir Ashram Road,H.D Devegowda Road",
        "addr:postcode": "560037",
        "addr:state": "Karnataka",
        "amenity": "hospital",
        "name": "V Care Hospital",
        "source": "OpenGovernmentData"
      }
    },
    {
      "type": "node",
      "id": 6947287709,
      "lat": 13.0244555,
      "lon": 77.6003999,
      "tags": {
        "addr:district": "Bengaluru Urban",
        "addr:full": "No.4, 6th Cross, Ganesha Block, Dinnur Main Road",
        "addr:postcode": "560032",
        "addr:state": "Karnataka",
        "addr:subdistrict": "Ganesha Block",
        "amenity": "clinic",
        "name": "Pradnya Nethralaya",
        "operator:type": "private",
        "source": "OpenGovernmentData",
        "website": "https://www.pradnyanethralaya.com/"
      }
    },
    {
      "type": "node",
      "id": 6947430278,
      "lat": 13.0263344,
      "lon": 77.595128,
      "tags": {
        "addr:district": "Bengaluru Urban",
        "addr:full": "#200/A, Hmt Layout, Karthik Complex, Dinnur Main Road, R.T. Nagar",
        "addr:postcode": "560032",
        "addr:state": "Karnataka",
        "amenity": "hospital",
        "name": "Poornima Hospital",
        "source": "OpenGovernmentData"
      }
    },
    {
      "type": "node",
      "id": 6948590938,
      "lat": 13.0241863,
      "lon": 77.5960574,
      "tags": {
        "addr:district": "Bengaluru Urban",
        "addr:full": "No.2, Ex-Servicemen Colony, 5Th Cross, Dinnur Main Road, R.T.Nagar",
        "addr:postcode": "560032",
        "addr:state": "Karnataka",
        "amenity": "hospital",
        "name": "Premier Hospital",
        "source": "OpenGovernmentData"
      }
    },
    {
      "type": "node",
      "id": 8187962208,
      "lat": 13.024748,
      "lon": 77.5917987,
      "tags": {
        "addr:full": "No. 20, 108B Bus Stand, 1st Main Road, Papanna Block, AK Colony, RT Nagar, Bengaluru, Karnataka",
        "addr:state": "Karnataka",
        "amenity": "bank",
        "brand": "Federal Bank",
        "brand:wikidata": "Q2044983",
        "name": "Federal Bank",
        "name:kn": "ಫೆಡೆರಲ್ ಬ್ಯಾಂಕ್"
      }
    },
    {
      "type": "node",
      "id": 8187962263,
      "lat": 13.0176903,
      "lon": 77.5899085,
      "tags": {
        "addr:full": "No. 13, 5TH MAIN, GANGANAGAR, RT NAGAR, MLA Layout, Krishnappa Block, RT Nagar, Bengaluru, Karnataka",
        "addr:state": "Karnataka",
        "amenity": "bank",
        "name": "Dena Bank",
        "name:kn": "ದೇನ ಬ್ಯಾಂಕ್"
      }
    },
    {
      "type": "node",
      "id": 8188057276,
      "lat": 13.0203034,
      "lon": 77.5923603,
      "tags": {
        "addr:full": "335, Ravindra Tagore Nagar Main Rd, Rahmath Nagar, RT Nagar, Bengaluru, Karnataka",
        "addr:state": "Karnataka",
        "amenity": "restaurant",
        "diet:vegetarian": "only",
        "name": "Vishnu Garden Vegetarian Restaurant"
      }
    },
    {
      "type": "node",
      "id": 8534906273,
      "lat": 13.0265666,
      "lon": 77.593378,
      "tags": {
        "name": "Heads up for Tails",
        "shop": "pet"
      }
    },
    {
      "type": "node",
      "id": 8534917998,
      "lat": 13.026494,
      "lon": 77.5933758,
      "tags": {
        "amenity": "veterinary",
        "name": "CUPA Small Animals Hospital"
      }
    },
    {
      "type": "node",
      "id": 8540221706,
      "lat": 13.0264238,
      "lon": 77.5926546,
      "tags": {
        "amenity": "toilets",
        "name": "Public Toilet",
        "name:kn": "ಸಾರ್ವಜನಿಕ ಶೌಚಾಲಯ"
      }
    },
    {
      "type": "node",
      "id": 8910937692,
      "lat": 13.0166985,
      "lon": 77.5916282,
      "tags": {
        "shop": "camera"
      }
    },
    {
      "type": "node",
      "id": 10242924686,
      "lat": 13.0242809,
      "lon": 77.5866545,
      "tags": {
        "amenity": "recycling",
        "name": "BBMP Dry Waste Collection Center",
        "name:kn": "ಒಣ ತ್ಯಾಜ್ಯ ನಿರ್ವಹಣೆಗೆ ಸ್ಥಳ",
        "recycling_type": "centre"
      }
    },
    {
      "type": "node",
      "id": 10293921742,
      "lat": 13.0264468,
      "lon": 77.5918691,
      "tags": {
        "amenity": "college",
        "club": "music",
        "name": "The Bangalore School of Music"
      }
    },
    {
      "type": "node",
      "id": 10293921743,
      "lat": 13.0264454,
      "lon": 77.5915888,
      "tags": {
        "amenity": "place_of_worship",
        "building": "church",
        "denomination": "catholic",
        "name": "Shrine of St. Jude Thaddeaus",
        "religion": "christian"
      }
    },
    {
      "type": "node",
      "id": 10293921744,
      "lat": 13.0244058,
      "lon": 77.5941852,
      "tags": {
        "diet:vegetarian": "only",
        "name": "Simpli Namdhari's",
        "organic": "only",
        "shop": "supermarket",
        "website": "https://www.simplinamdharis.com/"
      }
    },
    {
      "type": "node",
      "id": 10302703777,
      "lat": 13.0239133,
      "lon": 77.5926268,
      "tags": {
        "amenity": "fast_food",
        "brand": "Popeyes",
        "brand:wikidata": "Q1330910",
        "brand:wikipedia": "en:Popeyes",
        "cuisine": "chicken",
        "delivery": "yes",
        "name": "Popeyes",
        "official_name": "Popeyes Louisiana Kitchen",
        "takeaway": "yes",
        "website": "https://www.popeyes.in/"
      }
    },
    {
      "type": "node",
      "id": 11119061503,
      "lat": 13.0217968,
      "lon": 77.6029889,
      "tags": {
        "amenity": "bank",
        "brand": "Federal Bank",
        "brand:wikidata": "Q2044983",
        "name": "Federal Bank"
      }
    },
    {
      "type": "node",
      "id": 11119061504,
      "lat": 13.0218079,
      "lon": 77.6029578,
      "tags": {
        "brand": "Vodafone Idea",
        "brand:wikidata": "Q1656673",
        "name": "Vodafone Idea",
        "shop": "mobile_phone"
      }
    },
    {
      "type": "node",
      "id": 11119061505,
      "lat": 13.0219401,
      "lon": 77.6026255,
      "tags": {
        "amenity": "restaurant",
        "name": "Sri Udupi Grand"
      }
    },
    {
      "type": "node",
      "id": 11119061507,
      "lat": 13.026009,
      "lon": 77.6016293,
      "tags": {
        "amenity": "fast_food",
        "name": "Chintu Chit Chat Centre Bangarapet Pani Puri"
      }
    },
    {
      "type": "node",
      "id": 11359595250,
      "lat": 13.0295006,
      "lon": 77.5949717,
      "tags": {
        "name": "Sai Medicals And General Stores",
        "shop": "medical_supply"
      }
    },
    {
      "type": "node",
      "id": 11359611697,
      "lat": 13.0274249,
      "lon": 77.5935355,
      "tags": {
        "addr:city": "Bengaluru",
        "addr:housenumber": "18",
        "addr:street": "80 Feet Road, RT Nagar",
        "amenity": "fast_food",
        "brand": "Pizza Hut",
        "brand:wikidata": "Q191615",
        "cuisine": "pizza",
        "name": "Pizza Hut",
        "opening_hours": "Mo-Su 11:00-23:00"
      }
    },
    {
      "type": "node",
      "id": 12260570014,
      "lat": 13.0177761,
      "lon": 77.5917014,
      "tags": {
        "amenity": "restaurant",
        "name": "Neravi"
      }
    },
    {
      "type": "node",
      "id": 12846322963,
      "lat": 13.0292958,
      "lon": 77.6013165,
      "tags": {
        "amenity": "place_of_worship",
        "religion": "hindu"
      }
    },
    {
      "type": "node",
      "id": 12862846469,
      "lat": 13.0169602,
      "lon": 77.5914291,
      "tags": {
        "amenity": "fast_food",
        "cuisine": "burger",
        "delivery": "yes",
        "name": "Easy Bites by Empire",
        "takeaway": "yes"
      }
    },
    {
      "type": "node",
      "id": 13013978946,
      "lat": 13.0174696,
      "lon": 77.591572,
      "tags": {
        "amenity": "bar",
        "name": "Jalssa"
      }
    },
    {
      "type": "node",
      "id": 13062869382,
      "lat": 13.0207254,
      "lon": 77.593135,
      "tags": {
        "addr:city": "Bengaluru",
        "addr:country": "IN",
        "amenity": "cafe",
        "brand": "Starbucks",
        "brand:wikidata": "Q37158",
        "cuisine": "coffee_shop",
        "name": "Starbucks",
        "official_name": "Starbucks Coffee",
        "takeaway": "yes"
      }
    },
    {
      "type": "way",
      "id": 45739922,
      "center": {
        "lat": 13.0184494,
        "lon": 77.595658
      },
      "tags": {
        "amenity": "school"
      }
    },
    {
      "type": "way",
      "id": 45740308,
      "center": {
        "lat": 13.0194919,
        "lon": 77.5962353
      },
      "tags": {
        "leisure": "park"
      }
    },
    {
      "type": "way",
      "id": 45740314,
      "center": {
        "lat": 13.0218574,
        "lon": 77.5935145
      },
      "tags": {
        "leisure": "park"
      }
    },
    {
      "type": "way",
      "id": 45740327,
      "center": {
        "lat": 13.0213685,
        "lon": 77.5970546
      },
      "tags": {
        "leisure": "park"
      }
    },
    {
      "type": "way",
      "id": 45740328,
      "center": {
        "lat": 13.0209333,
        "lon": 77.5984875
      },
      "tags": {
        "landuse": "commercial",
        "leisure": "resort",
        "name": "Patel's Inn Resort"
      }
    },
    {
      "type": "way",
      "id": 71516174,
      "center": {
        "lat": 13.0285944,
        "lon": 77.5954864
      },
      "tags": {
        "leisure": "park",
        "name": "VV Park"
      }
    },
    {
      "type": "way",
      "id": 175278312,
      "center": {
        "lat": 13.0202739,
        "lon": 77.595591
      },
      "tags": {
        "amenity": "public_building",
        "building": "yes"
      }
    },
    {
      "type": "way",
      "id": 175278313,
      "center": {
        "lat": 13.0205158,
        "lon": 77.5947013
      },
      "tags": {
        "amenity": "public_building",
        "building": "yes"
      }
    },
    {
      "type": "way",
      "id": 211067633,
      "center": {
        "lat": 13.0269684,
        "lon": 77.6004156
      },
      "tags": {
        "amenity": "school",
        "name": "Vivekananda centre",
        "name:kn": "ವಿವೇಕನಂದ ಕೇಂದ್ರ"
      }
    },
    {
      "type": "way",
      "id": 278457027,
      "center": {
        "lat": 13.0223671,
        "lon": 77.5954429
      },
      "tags": {
        "leisure": "park",
        "name": "Park at RT Nagar"
      }
    },
    {
      "type": "way",
      "id": 347120887,
      "center": {
        "lat": 13.0267744,
        "lon": 77.5987021
      },
      "tags": {
        "amenity": "school",
        "building": "yes",
        "name": "Vatican High School"
      }
    },
    {
      "type": "way",
      "id": 353374337,
      "center": {
        "lat": 13.0220269,
        "lon": 77.5928761
      },
      "tags": {
        "amenity": "school",
        "name": "Florence School"
      }
    },
    {
      "type": "way",
      "id": 353378505,
      "center": {
        "lat": 13.0232026,
        "lon": 77.5959511
      },
      "tags": {
        "leisure": "park"
      }
    },
    {
      "type": "way",
      "id": 839044763,
      "center": {
        "lat": 13.0194822,
        "lon": 77.5946407
      },
      "tags": {
        "leisure": "park"
      }
    },
    {
      "type": "way",
      "id": 1023657480,
      "center": {
        "lat": 13.0141331,
        "lon": 77.5938747
      },
      "tags": {
        "amenity": "place_of_worship",
        "religion": "hindu"
      }
    },
    {
      "type": "way",
      "id": 1117353463,
      "center": {
        "lat": 13.0225862,
        "lon": 77.6028469
      },
      "tags": {
        "leisure": "park"
      }
    },
    {
      "type": "way",
      "id": 1119921717,
      "center": {
        "lat": 13.0241141,
        "lon": 77.5866881
      },
      "tags": {
        "leisure": "playground"
      }
    },
    {
      "type": "way",
      "id": 1125698046,
      "center": {
        "lat": 13.0258289,
        "lon": 77.5947264
      },
      "tags": {
        "amenity": "school"
      }
    },
    {
      "type": "way",
      "id": 1386042651,
      "center": {
        "lat": 13.0246853,
        "lon": 77.5931961
      },
      "tags": {
        "amenity": "police",
        "name": "RT Nagar Police Station",
        "name:kn": "ಆರ್ ಟಿ ನಗರ ಪೊಲೀಸ್ ಠಾಣೆ"
      }
    },
    {
      "type": "way",
      "id": 1386060657,
      "center": {
        "lat": 13.0291099,
        "lon": 77.592251
      },
      "tags": {
        "amenity": "place_of_worship",
        "landuse": "religious",
        "name": "Sri Shirdi Saibaba Temple",
        "religion": "hindu"
      }
    },
    {
      "type": "way",
      "id": 1386060663,
      "center": {
        "lat": 13.0293226,
        "lon": 77.5905011
      },
      "tags": {
        "leisure": "park",
        "name": "RBI Colony Park"
      }
    },
    {
      "type": "way",
      "id": 1386060674,
      "center": {
        "lat": 13.0294084,
        "lon": 77.5892348
      },
      "tags": {
        "amenity": "college",
        "name": "Vidya Vahini School and PU College"
      }
    },
    {
      "type": "way",
      "id": 1386469070,
      "center": {
        "lat": 13.0185914,
        "lon": 77.5919576
      },
      "tags": {
        "amenity": "fuel",
        "operator": "BP"
      }
    },
    {
      "type": "way",
      "id": 1386912276,
      "center": {
        "lat": 13.0220826,
        "lon": 77.6021684
      },
      "tags": {
        "amenity": "college",
        "name": "Lal Bahabur Shastri Degree College"
      }
    },
    {
      "type": "way",
      "id": 1388693672,
      "center": {
        "lat": 13.0302783,
        "lon": 77.5935492
      },
      "tags": {
        "amenity": "place_of_worship",
        "building": "mosque",
        "name:kn": "ಮಸೀದಿ",
        "religion": "muslim"
      }
    }
  ]
}