{
  "area_name": "RV Layout",
  "osm_id": 10296444933,
  "osm_type": "node",
  "place_type": "neighbourhood",
  "amenity_count": 282,
  "amenities": [
    {
      "type": "node",
      "id": 664332016,
      "lat": 13.0059079,
      "lon": 77.578507,
      "tags": {
        "amenity": "pharmacy",
        "healthcare": "pharmacy",
        "name": "Keshava Medical & General Stores"
      }
    },
    {
      "type": "node",
      "id": 683352697,
      "lat": 13.0039957,
      "lon": 77.5834595,
      "tags": {
        "amenity": "ice_cream",
        "brand": "Baskin-Robbins",
        "brand:wikidata": "Q584601",
        "cuisine": "ice_cream",
        "name": "Baskin-Robbins"
      }
    },
    {
      "type": "node",
      "id": 1101617173,
      "lat": 12.9910826,
      "lon": 77.5789046,
      "tags": {
        "amenity": "school",
        "name": "Gandhi Nagar High School",
        "name:kn": "ಗಾಂಧಿನಗರ ಪೌಡಶಾಲೆ"
      }
    },
    {
      "type": "node",
      "id": 1101622501,
      "lat": 12.9988604,
      "lon": 77.5817424,
      "tags": {
        "amenity": "hospital",
        "name": "Government Maternity Hospital",
        "name:kn": "ಸರಕಾರಿ ಹೆರಿಗೆ ಆಸ್ಪತ್ರೆ"
      }
    },
    {
      "type": "node",
      "id": 1101831257,
      "lat": 13.0065656,
      "lon": 77.5837018,
      "tags": {
        "addr:street": "Ramana Maharshi Road",
        "brand": "Škoda",
        "brand:wikidata": "Q29637",
        "name": "Škoda",
        "shop": "car"
      }
    },
    {
      "type": "node",
      "id": 1462530129,
      "lat": 13.0055106,
      "lon": 77.5787567,
      "tags": {
        "addr:street": "1st Main Road",
        "amenity": "restaurant",
        "check_date": "2024-01-13",
        "name": "Sri Udupi Swaadista",
        "name:kn": "ಸ್ವಾದಿಷ್ಟ ರೆಸ್ಟೊರೆಂಟ್"
      }
    },
    {
      "type": "node",
      "id": 1462540475,
      "lat": 13.0049266,
      "lon": 77.5787343,
      "tags": {
        "name": "Maha Bazaar",
        "shop": "supermarket"
      }
    },
    {
      "type": "node",
      "id": 1462686365,
      "lat": 13.0015732,
      "lon": 77.578628,
      "tags": {
        "amenity": "police",
        "name": "Vyali Kaval Police Station",
        "name:kn": "ಆರಕ್ಷಕ ಠಾಣೆ"
      }
    },
    {
      "type": "node",
      "id": 1462688051,
      "lat": 13.0019182,
      "lon": 77.5790414,
      "tags": {
        "amenity": "post_office",
        "name": "Vyali Kaval Post Office"
      }
    },
    {
      "type": "node",
      "id": 1462691613,
      "lat": 13.002535,
      "lon": 77.578333,
      "tags": {
        "amenity": "bank",
        "atm": "yes",
        "brand": "State Bank of India",
        "brand:wikidata": "Q1340361",
        "brand:wikipedia": "en:State Bank of India",
        "name": "State Bank of India",
        "name:kn": "ಎಸ್ ಬಿ ಐ",
        "short_name": "SBI",
        "website": "https://www.sbi.co.in"
      }
    },
    {
      "type": "node",
      "id": 1462692195,
      "lat": 13.0022031,
      "lon": 77.5783102,
      "tags": {
        "amenity": "bank",
        "atm": "yes",
        "brand": "Canara Bank",
        "brand:en": "Canara Bank",
        "brand:hi": "केनरा बैंक",
        "brand:kn": "ಕೆನರಾ ಬ್ಯಾಂಕ್",
        "brand:pa": "ਕੇਨਰਾ ਬੈਂਕ",
        "brand:pnb": "کینرا بینک",
        "brand:ur": "کینرا بینک",
        "brand:wikidata": "Q2003777",
        "brand:wikipedia": "en:Canara Bank",
        "brand:wikipedia:pa": "ਕੇਨਰਾ ਬੈਂਕ",
        "name": "Canara Bank",
        "name:en": "Canara Bank",
        "name:hi": "केनरा बैंक",
        "name:kn": "ಕೆನರಾ ಬ್ಯಾಂಕ್",
        "name:pa": "ਕੇਨਰਾ ਬੈਂਕ",
        "name:pnb": "کینرا بینک",
        "name:ur": "کینرا بینک",
        "website": "https://www.canarabank.com/"
      }
    },
    {
      "type": "node",
      "id": 1462708215,
      "lat": 13.0046183,
      "lon": 77.5784554,
      "tags": {
        "amenity": "restaurant",
        "name": "Rajesh Hotel",
        "name:kn": "ರಾಜೇಶ್ ಹೋಟೆಲ್"
      }
    },
    {
      "type": "node",
      "id": 1614509453,
      "lat": 12.9975797,
      "lon": 77.5851079,
      "tags": {
        "amenity": "bar",
        "name": "Opus",
        "name:kn": "ಓಪಸ್",
        "website": "http://www.myopus.in/"
      }
    },
    {
      "type": "node",
      "id": 2019364212,
      "lat": 13.000713,
      "lon": 77.5757942,
      "tags": {
        "leisure": "park",
        "name": "BBMP Park, Swimming Pool Extension",
        "name:kn": "ಬೃ. ಬೆ. ಮ. ಪಾ. ಉದ್ಯಾನವನ"
      }
    },
    {
      "type": "node",
      "id": 2019367760,
      "lat": 13.0050766,
      "lon": 77.5806041,
      "tags": {
        "amenity": "bank",
        "atm": "no",
        "brand": "Indian Bank",
        "brand:wikidata": "Q2003789",
        "brand:wikipedia": "en:Indian Bank",
        "name": "Indian Bank",
        "name:en": "Indian Bank",
        "name:kn": "ಇಂಡಿಯನ್ ಬ್ಯಾಂಕ್",
        "website": "https://www.indianbank.in/"
      }
    },
    {
      "type": "node",
      "id": 2026091417,
      "lat": 13.0031595,
      "lon": 77.5837029,
      "tags": {
        "brand": "Hyundai",
        "brand:wikidata": "Q55931",
        "check_date": "2025-09-19",
        "name": "Hyundai",
        "name:kn": "ಹ್ಯುಂಡೈ",
        "opening_hours": "Mo-Sa 08:00-20:00",
        "operator": "Trident Hyundai",
        "shop": "car"
      }
    },
    {
      "type": "node",
      "id": 2247460568,
      "lat": 12.9971687,
      "lon": 77.5805055,
      "tags": {
        "amenity": "fast_food",
        "check_date": "2024-06-15",
        "name": "Prashanth Grand"
      }
    },
    {
      "type": "node",
      "id": 2247460569,
      "lat": 12.9985485,
      "lon": 77.5840303,
      "tags": {
        "amenity": "restaurant",
        "name": "Nandini palace"
      }
    },
    {
      "type": "node",
      "id": 2247460570,
      "lat": 12.9979301,
      "lon": 77.5841054,
      "tags": {
        "amenity": "fast_food",
        "name": "Nandhini Deluxe"
      }
    },
    {
      "type": "node",
      "id": 2298050805,
      "lat": 13.0045164,
      "lon": 77.5785881,
      "tags": {
        "addr:housename": "Janhavi Medicals",
        "amenity": "pharmacy",
        "designation": "Pharmacy",
        "healthcare": "pharmacy",
        "name": "Janhavi Medicals"
      }
    },
    {
      "type": "node",
      "id": 2303827881,
      "lat": 13.0057592,
      "lon": 77.5804279,
      "tags": {
        "amenity": "restaurant",
        "cuisine": "indian",
        "name": "Sattvam",
        "name:kn": "ಸತ್ವಂ",
        "phone": "080 2360 8000",
        "website": "www.sattvamrestaurant.com/"
      }
    },
    {
      "type": "node",
      "id": 2303827882,
      "lat": 13.0058027,
      "lon": 77.5806656,
      "tags": {
        "leisure": "fitness_centre",
        "name": "Snapfitness Gym"
      }
    },
    {
      "type": "node",
      "id": 2314538270,
      "lat": 13.0012808,
      "lon": 77.5783329,
      "tags": {
        "amenity": "bank",
        "atm": "yes",
        "brand": "ICICI Bank",
        "brand:wikidata": "Q1653258",
        "name": "ICICI Bank",
        "name:kn": "ಐಸಿಐಸಿಐ",
        "short_name": "ICICI"
      }
    },
    {
      "type": "node",
      "id": 2314538271,
      "lat": 13.001239,
      "lon": 77.5783221,
      "tags": {
        "amenity": "bank",
        "atm": "yes",
        "brand": "HDFC Bank",
        "brand:wikidata": "Q631047",
        "name": "HDFC Bank",
        "short_name": "HDFC"
      }
    },
    {
      "type": "node",
      "id": 2314538273,
      "lat": 13.0002354,
      "lon": 77.5781558,
      "tags": {
        "amenity": "bank",
        "atm": "yes",
        "brand": "Karnataka Bank",
        "brand:wikidata": "Q2042632",
        "name": "Karnataka Bank",
        "name:kn": "ಕರ್ನಾಟಕ ಬ್ಯಾಂಕ್"
      }
    },
    {
      "type": "node",
      "id": 2502691757,
      "lat": 12.9984083,
      "lon": 77.5823672,
      "tags": {
        "amenity": "place_of_worship",
        "name": "Shri Anjaneya Swamy Temple",
        "name:kn": "ಅಂಜನೇಯ ಸ್ವಾಮಿ ದೇವಸ್ಥಾನ",
        "religion": "hindu"
      }
    },
    {
      "type": "node",
      "id": 2630925143,
      "lat": 13.0039535,
      "lon": 77.5836175,
      "tags": {
        "amenity": "atm",
        "brand": "Citibank",
        "brand:wikidata": "Q857063",
        "name": "Citibank",
        "name:kn": "ಸಿಟಿಬ್ಯಾಂಕ್",
        "operator": "Citibank",
        "operator:wikidata": "Q857063",
        "short_name": "Citi",
        "wheelchair": "no"
      }
    },
    {
      "type": "node",
      "id": 3193511367,
      "lat": 13.0053577,
      "lon": 77.5810409,
      "tags": {
        "amenity": "cafe",
        "brand": "Cafe Coffee Day",
        "brand:wikidata": "Q5017235",
        "brand:wikipedia": "en:Café Coffee Day",
        "cuisine": "coffee_shop",
        "name": "Cafe Coffee Day",
        "name:kn": "ಕಫೆ ಕಾಫಿ ಡೇ",
        "takeaway": "yes"
      }
    },
    {
      "type": "node",
      "id": 3399331050,
      "lat": 13.0019334,
      "lon": 77.5784395,
      "tags": {
        "amenity": "restaurant",
        "name": "Aditya Hotel"
      }
    },
    {
      "type": "node",
      "id": 3399331051,
      "lat": 13.0019072,
      "lon": 77.5775638,
      "tags": {
        "amenity": "library",
        "name": "Government Central Library",
        "name:kn": "ಸರ್ಕಾರಿ ಗ್ರಂಥಾಲಯ"
      }
    },
    {
      "type": "node",
      "id": 3399331052,
      "lat": 13.0019405,
      "lon": 77.5777151,
      "tags": {
        "amenity": "place_of_worship",
        "religion": "hindu"
      }
    },
    {
      "type": "node",
      "id": 3742215657,
      "lat": 13.0017604,
      "lon": 77.5783235,
      "tags": {
        "amenity": "restaurant",
        "cuisine": "chats",
        "name": "Atithis"
      }
    },
    {
      "type": "node",
      "id": 4044365775,
      "lat": 13.0056797,
      "lon": 77.5806627,
      "tags": {
        "addr:city": "bangalore",
        "addr:postcode": "560080",
        "addr:street": "16th Cross Street",
        "amenity": "ice_cream",
        "brand": "Nature's Basket",
        "brand:wikidata": "Q28174237",
        "name": "Nature's Basket",
        "organic": "yes",
        "shop": "supermarket",
        "website": "https://www.naturesbasket.co.in/"
      }
    },
    {
      "type": "node",
      "id": 4173824529,
      "lat": 13.0051746,
      "lon": 77.5787373,
      "tags": {
        "amenity": "public_bookcase",
        "name": "Sapna Book House",
        "name:kn": "ಸಪ್ನ ಬುಕ್ ಹೌಸ್"
      }
    },
    {
      "type": "node",
      "id": 4173839908,
      "lat": 13.0033921,
      "lon": 77.5783685,
      "tags": {
        "addr:postcode": "560003",
        "amenity": "restaurant",
        "cuisine": "indian",
        "name": "Pakvan"
      }
    },
    {
      "type": "node",
      "id": 4173847693,
      "lat": 13.0041697,
      "lon": 77.5822694,
      "tags": {
        "amenity": "bank",
        "atm": "yes",
        "brand": "HDFC Bank",
        "brand:wikidata": "Q631047",
        "brand:wikipedia": "en:HDFC Bank",
        "name": "HDFC Bank",
        "name:kn": "ಎಚ್ ಡಿ ಎಫ್ ಸಿ",
        "operator": "HDFC Bank",
        "short_name": "HDFC",
        "website": "https://www.hdfcbank.com"
      }
    },
    {
      "type": "node",
      "id": 4430492477,
      "lat": 12.9939183,
      "lon": 77.5854854,
      "tags": {
        "amenity": "restaurant",
        "cuisine": "indian",
        "name": "Royal Afghan"
      }
    },
    {
      "type": "node",
      "id": 4444162516,
      "lat": 13.0018939,
      "lon": 77.5784746,
      "tags": {
        "addr:city": "Bangalore",
        "addr:housenumber": "Opposite Vyatikal Police Station",
        "addr:postcode": "560003",
        "addr:street": "Vyalikaval Main Road",
        "amenity": "restaurant",
        "cuisine": "indian,chinese",
        "name": "Hotel Ayodhya Upahar",
        "opening_hours": "07:00-22:30",
        "phone": "+91 96200 56546",
        "takeaway": "yes"
      }
    },
    {
      "type": "node",
      "id": 4444983153,
      "lat": 13.0044531,
      "lon": 77.5783579,
      "tags": {
        "addr:city": "Bangalore",
        "addr:housenumber": "48",
        "addr:postcode": "560003",
        "addr:street": "Vyalikaval Main Road",
        "amenity": "restaurant",
        "cuisine": "chinese",
        "name": "Chung Wah",
        "name:kn": "ಚುಂಗ್ ವಾ",
        "opening_hours": "12:00-23:00",
        "phone": "080 23567888",
        "takeaway": "yes",
        "website": "www.chungwah.in/"
      }
    },
    {
      "type": "node",
      "id": 4445192526,
      "lat": 12.999009,
      "lon": 77.5797442,
      "tags": {
        "addr:city": "Bangalore",
        "addr:postcode": "560003",
        "addr:street": "Palace Guttahalli Main Road, No 21 And 22, 2nd Main Road",
        "amenity": "clinic",
        "name": "Bilva Hospital",
        "name:kn": "ಬಿಲ್ವಾ ಆಸ್ಪತ್ರೆ",
        "phone": "+9198444 56346"
      }
    },
    {
      "type": "node",
      "id": 4488516241,
      "lat": 12.9993517,
      "lon": 77.5766782,
      "tags": {
        "addr:city": "Bangalore",
        "addr:housenumber": "No23",
        "addr:postcode": "560003",
        "addr:street": "Palace Guttahalli Main Road, Malleswaram",
        "name": "Roots Beauty Clinic",
        "opening_hours": "10:00-21:00",
        "phone": "+91-80-23441974",
        "shop": "beauty",
        "website": "www.rootspa.in"
      }
    },
    {
      "type": "node",
      "id": 4489750489,
      "lat": 13.0043391,
      "lon": 77.583804,
      "tags": {
        "addr:city": "Bengaluru",
        "addr:housenumber": "212/4,",
        "addr:postcode": "560080",
        "addr:street": "2nd Floor, Near-Palace Ground, Bellary Rd, Bhadrappa Layout, Sadashiva Nagar, Armane Nagar, Karnataka",
        "branch": "Better Value Fitness Pvt Ltd",
        "brand": "Talkwalkars",
        "brand:wikidata": "Q7680402",
        "leisure": "fitness_centre",
        "name": "Talwalkars",
        "opening_hours": "5:00-22:00"
      }
    },
    {
      "type": "node",
      "id": 4554240208,
      "lat": 13.0056782,
      "lon": 77.5806895,
      "tags": {
        "amenity": "bank",
        "atm": "yes",
        "brand": "Axis Bank",
        "brand:wikidata": "Q2003549",
        "brand:wikipedia": "en:Axis Bank",
        "name": "Axis Bank",
        "name:en": "Axis Bank",
        "name:kn": "ಆಕ್ಸಿಸ್ ಬ್ಯಾಂಕ್",
        "website": "https://www.axisbank.com"
      }
    },
    {
      "type": "node",
      "id": 4578768492,
      "lat": 13.006013,
      "lon": 77.5785274,
      "tags": {
        "addr:housenumber": "1",
        "addr:postcode": "560003",
        "addr:street": "Vyalikaval Main Road",
        "amenity": "doctors",
        "healthcare": "doctor",
        "name": "Medall Clumax Diagnostics",
        "name:en": "MEDALL CLUMAX DIAGNOSTICS",
        "opening_hours": "Mo-Su 08:00-21:00",
        "phone": "08049337777",
        "website": "https://www.medall.in/"
      }
    },
    {
      "type": "node",
      "id": 4849108631,
      "lat": 13.0052564,
      "lon": 77.5838805,
      "tags": {
        "name": "Nexa",
        "name:en": "Nexa",
        "shop": "car"
      }
    },
    {
      "type": "node",
      "id": 5174980933,
      "lat": 12.997125,
      "lon": 77.5868347,
      "tags": {
        "amenity": "bank",
        "brand": "HDFC Bank",
        "brand:wikidata": "Q631047",
        "check_date": "2024-06-15",
        "name": "HDFC Bank",
        "name:kn": "ಎಚ್ ಡಿ ಎಫ್ ಸಿ",
        "short_name": "HDFC"
      }
    },
    {
      "type": "node",
      "id": 5174980934,
      "lat": 12.9973719,
      "lon": 77.5859279,
      "tags": {
        "brand": "Kia",
        "brand:wikidata": "Q35349",
        "name": "Kia",
        "shop": "car"
      }
    },
    {
      "type": "node",
      "id": 5174980935,
      "lat": 12.9977029,
      "lon": 77.5828216,
      "tags": {
        "name": "Prasanna Cloth Center",
        "shop": "clothes"
      }
    },
    {
      "type": "node",
      "id": 5174980936,
      "lat": 12.9975545,
      "lon": 77.5821584,
      "tags": {
        "amenity": "atm",
        "brand": "Indian Overseas Bank",
        "brand:wikidata": "Q2003611",
        "name": "Indian Overseas Bank",
        "operator": "Indian Overseas Bank",
        "operator:wikidata": "Q2003611"
      }
    },
    {
      "type": "node",
      "id": 5174980937,
      "lat": 12.9972226,
      "lon": 77.5818843,
      "tags": {
        "name": "Contessa Wines",
        "shop": "alcohol"
      }
    },
    {
      "type": "node",
      "id": 5983383925,
      "lat": 13.0041918,
      "lon": 77.583798,
      "tags": {
        "brand": "Renault",
        "brand:wikidata": "Q6686",
        "name": "Renault",
        "shop": "car"
      }
    },
    {
      "type": "node",
      "id": 6938690611,
      "lat": 13.0020083,
      "lon": 77.5763887,
      "tags": {
        "addr:district": "Bengaluru Urban",
        "addr:full": "148, Vyalikval Malleswaram Xi Cross Malleshwaram",
        "addr:postcode": "560003",
        "addr:state": "Karnataka",
        "amenity": "clinic",
        "name": "Sukruthi Eye Care Microsurgical Centre",
        "source": "OpenGovernmentData"
      }
    },
    {
      "type": "node",
      "id": 6938690626,
      "lat": 12.9932806,
      "lon": 77.580691,
      "tags": {
        "addr:district": "Bengaluru Urban",
        "addr:full": "# 111 Railway Parallel Road, 7 Th Cross, Kumara Park (W)",
        "addr:postcode": "560020",
        "addr:state": "Karnataka",
        "addr:subdistrict": "Kumara Park (W)",
        "amenity": "hospital",
        "email": "info@squinteyehospital.com",
        "name": "Samprathi Eye Hospital And Squint Centre",
        "operator:type": "private",
        "source": "OpenGovernmentData",
        "website": "https://squinteyehospital.com/"
      }
    },
    {
      "type": "node",
      "id": 6938717993,
      "lat": 12.9989833,
      "lon": 77.5802015,
      "tags": {
        "addr:district": "Bengaluru Urban",
        "addr:full": "No.21,22,2nd Main Road, Palace Guttahalli",
        "addr:postcode": "560003",
        "addr:state": "Karnataka",
        "amenity": "hospital",
        "name": "Bilva Hospital",
        "name:kn": "ಬಿಲ್ವಾ ಆಸ್ಪತ್ರೆ",
        "source": "OpenGovernmentData"
      }
    },
    {
      "type": "node",
      "id": 6938775802,
      "lat": 12.9989898,
      "lon": 77.5776748,
      "tags": {
        "addr:district": "Bengaluru Urban",
        "addr:full": "No. 2 Muneswara Block, Vinayaka Circle, Palace Guttahalli Main Road",
        "addr:postcode": "560003",
        "addr:state": "Karnataka",
        "amenity": "clinic",
        "name": "Anugraha Nursing Home",
        "source": "OpenGovernmentData"
      }
    },
    {
      "type": "node",
      "id": 6939699617,
      "lat": 12.9988238,
      "lon": 77.5819892,
      "tags": {
        "addr:district": "Bengaluru Urban",
        "addr:full": "Near Nti Qtrs, Jataka Stand, P.G.Halli, East",
        "addr:postcode": "560003",
        "addr:state": "Karnataka",
        "amenity": "hospital",
        "name": "Place Guttahalli Maternity Home",
        "source": "OpenGovernmentData"
      }
    },
    {
      "type": "node",
      "id": 7087593340,
      "lat": 12.9991179,
      "lon": 77.5810423,
      "tags": {
        "amenity": "place_of_worship",
        "religion": "hindu"
      }
    },
    {
      "type": "node",
      "id": 7087593341,
      "lat": 12.9975602,
      "lon": 77.5837594,
      "tags": {
        "amenity": "bank",
        "atm": "yes",
        "brand": "Corporation Bank",
        "brand:wikidata": "Q2003387",
        "name": "Corporation Bank",
        "name:kn": "ಕಾರ್ಪರೇಷನ್ ಬ್ಯಾಂಕ್",
        "operator": "Corporation Bank"
      }
    },
    {
      "type": "node",
      "id": 7087593342,
      "lat": 12.997376,
      "lon": 77.5855122,
      "tags": {
        "name": "Mahindra",
        "name:kn": "ಮಹಿಂದ್ರ",
        "shop": "motorcycle"
      }
    },
    {
      "type": "node",
      "id": 7087593343,
      "lat": 12.9973786,
      "lon": 77.5857107,
      "tags": {
        "brand": "Volkswagen",
        "brand:wikidata": "Q246",
        "name": "Volkswagen",
        "shop": "car"
      }
    },
    {
      "type": "node",
      "id": 7192992580,
      "lat": 13.0063463,
      "lon": 77.5823289,
      "tags": {
        "amenity": "cafe",
        "cuisine": "coffee_shop;indian;burger",
        "name": "Nature's Cafe",
        "outdoor_seating": "yes"
      }
    },
    {
      "type": "node",
      "id": 7192995422,
      "lat": 13.0063618,
      "lon": 77.5823659,
      "tags": {
        "name": "HOPCOMS",
        "name:kn": "ಹಾಪ್ ಕಾಮ್ಸ್",
        "operator": "HOPCOMS",
        "shop": "greengrocer"
      }
    },
    {
      "type": "node",
      "id": 7220195485,
      "lat": 12.990736,
      "lon": 77.5870219,
      "tags": {
        "name": "Shopwel Mart",
        "shop": "supermarket"
      }
    },
    {
      "type": "node",
      "id": 8187929936,
      "lat": 12.9928964,
      "lon": 77.5897796,
      "tags": {
        "addr:full": "8th Main Rd, Vasanth Nagar, Bengaluru, Karnataka",
        "addr:state": "Karnataka",
        "amenity": "atm",
        "brand": "Corporation Bank",
        "brand:wikidata": "Q2003387",
        "name": "Corporation Bank",
        "name:kn": "ಕಾರ್ಪರೇಷನ್ ಬ್ಯಾಂಕ್ ಎಟಿಎಂ",
        "operator": "Corporation Bank",
        "operator:wikidata": "Q2003387"
      }
    },
    {
      "type": "node",
      "id": 8187962443,
      "lat": 12.9961075,
      "lon": 77.5794798,
      "tags": {
        "addr:full": "No 161 2nd Cross, Main Road, DN Ramaiah Layout, Seshadripuram, Bengaluru, Karnataka",
        "addr:state": "Karnataka",
        "amenity": "bank",
        "brand": "Axis Bank",
        "brand:wikidata": "Q2003549",
        "name": "Axis Bank",
        "name:kn": "ಆಕ್ಸಿಸ್ ಬ್ಯಾಂಕ್"
      }
    },
    {
      "type": "node",
      "id": 8187962462,
      "lat": 12.9940393,
      "lon": 77.5776887,
      "tags": {
        "addr:full": "No 159, 1st Main Rd, near Bhimas Hotel, Sripuram, Kumara Park West, Seshadripuram, Bengaluru, Karnataka",
        "addr:state": "Karnataka",
        "amenity": "bank",
        "brand": "State Bank of India",
        "brand:wikidata": "Q1340361",
        "brand:wikipedia": "en:State Bank of India",
        "name": "State Bank of India",
        "short_name": "SBI"
      }
    },
    {
      "type": "node",
      "id": 8187962473,
      "lat": 12.9931411,
      "lon": 77.5767129,
      "tags": {
        "addr:full": "162, 1st Main Rd, Near-Priya Jewelers, 4th Block, Kumara Park West, Seshadripuram, Bengaluru, Karnataka",
        "addr:state": "Karnataka",
        "amenity": "bank",
        "brand": "Indian Bank",
        "brand:wikidata": "Q2003789",
        "brand:wikipedia": "en:Indian Bank",
        "name": "Indian Bank",
        "name:kn": "ಇಂಡಿಯನ್ ಬ್ಯಾಂಕ್"
      }
    },
    {
      "type": "node",
      "id": 8187962474,
      "lat": 12.9927951,
      "lon": 77.5898065,
      "tags": {
        "addr:full": "NANDI, GR. FL,I FLR,NO.11, 8th Main Rd, Vasanth Nagar, Bengaluru, Karnataka",
        "addr:state": "Karnataka",
        "amenity": "bank",
        "brand": "Corporation Bank",
        "brand:wikidata": "Q2003387",
        "name": "Corporation Bank",
        "name:kn": "ಕಾರ್ಪರೇಷನ್ ಬ್ಯಾಂಕ್"
      }
    },
    {
      "type": "node",
      "id": 8187986340,
      "lat": 13.0056853,
      "lon": 77.5805903,
      "tags": {
        "addr:full": "above Natures basket, 35, JM plaza, Sankey Road, 2nd Main Rd, Sadashiva Nagar, Armane Nagar, Bengaluru, Karnataka",
        "addr:state": "Karnataka",
        "amenity": "clinic",
        "healthcare": "clinic",
        "level": "2",
        "name": "Alleviate Pain Management Clinic"
      }
    },
    {
      "type": "node",
      "id": 8188038683,
      "lat": 13.0044307,
      "lon": 77.5785238,
      "tags": {
        "addr:full": "5/19, 1st Main, Vyalikaval, Lower Palace Orchards, Guttahalli, Bengaluru, Karnataka",
        "addr:state": "Karnataka",
        "amenity": "hospital",
        "healthcare": "hospital",
        "healthcare:speciality": "orthopaedics",
        "name": "Ramani Orthopaedic Hospital"
      }
    },
    {
      "type": "node",
      "id": 8188058188,
      "lat": 13.004777,
      "lon": 77.581093,
      "tags": {
        "addr:full": "15, Sankey Main Rd, Lower Palace Orchards, Sadashivanagar, Lower Palace Orchards, Guttahalli, Bengaluru, Karnataka",
        "addr:state": "Karnataka",
        "amenity": "restaurant",
        "diet:vegetarian": "only",
        "name": "The Orchard Vegetarian Indian Restaurant"
      }
    },
    {
      "type": "node",
      "id": 8252549787,
      "lat": 13.0044097,
      "lon": 77.581653,
      "tags": {
        "addr:city": "Bangalore",
        "addr:country": "IN",
        "addr:housenumber": "12",
        "addr:postcode": "560003",
        "addr:street": "Sankey Road",
        "addr:suburb": "Sadashivanagara",
        "amenity": "restaurant",
        "cuisine": "regional",
        "delivery": "yes",
        "level": "1;2",
        "name": "Go Native Sadashivnagar",
        "organic": "yes",
        "takeaway": "yes",
        "website": "https://gonative.in/"
      }
    },
    {
      "type": "node",
      "id": 8254993098,
      "lat": 13.0055947,
      "lon": 77.5783104,
      "tags": {
        "brand": "Dell",
        "shop": "computer"
      }
    },
    {
      "type": "node",
      "id": 8254999683,
      "lat": 13.0060868,
      "lon": 77.5785404,
      "tags": {
        "brand": "Wildcraft",
        "shop": "sports"
      }
    },
    {
      "type": "node",
      "id": 8378264282,
      "lat": 13.0045656,
      "lon": 77.5780202,
      "tags": {
        "name": "Nandini",
        "shop": "diary"
      }
    },
    {
      "type": "node",
      "id": 9199641839,
      "lat": 12.9942201,
      "lon": 77.5843234,
      "tags": {
        "amenity": "cafe",
        "name": "Water Monkey Cafe",
        "opening_hours": "Mo-Su 11:00-18:30",
        "outdoor_seating": "yes",
        "takeaway": "yes"
      }
    },
    {
      "type": "node",
      "id": 9573433543,
      "lat": 12.9935995,
      "lon": 77.5844286,
      "tags": {
        "access": "yes",
        "amenity": "toilets"
      }
    },
    {
      "type": "node",
      "id": 9575201277,
      "lat": 12.9942403,
      "lon": 77.5814707,
      "tags": {
        "amenity": "restaurant",
        "name": "STEGI"
      }
    },
    {
      "type": "node",
      "id": 9575294002,
      "lat": 12.9936332,
      "lon": 77.5809283,
      "tags": {
        "amenity": "restaurant",
        "name": "Restaurent1179"
      }
    },
    {
      "type": "node",
      "id": 9759746753,
      "lat": 13.0063525,
      "lon": 77.5794444,
      "tags": {
        "name": "SS Jewels",
        "shop": "jewelry"
      }
    },
    {
      "type": "node",
      "id": 9759746758,
      "lat": 13.0056345,
      "lon": 77.5797777,
      "tags": {
        "name": "Amma's Pastries",
        "shop": "pastry"
      }
    },
    {
      "type": "node",
      "id": 9759746759,
      "lat": 13.0059239,
      "lon": 77.5801988,
      "tags": {
        "name": "Armadio",
        "shop": "boutique"
      }
    },
    {
      "type": "node",
      "id": 9759746760,
      "lat": 13.0044375,
      "lon": 77.5816016,
      "tags": {
        "addr:city": "Bangalore",
        "addr:country": "IN",
        "addr:housenumber": "12",
        "addr:postcode": "560003",
        "addr:street": "Sankey Road",
        "addr:suburb": "Sadashivanagara",
        "brand": "beruru",
        "name": "Beruru",
        "shop": "garden_centre",
        "shop_1": "furniture",
        "website": "https://beruru.com/"
      }
    },
    {
      "type": "node",
      "id": 9759746780,
      "lat": 13.0068,
      "lon": 77.5825497,
      "tags": {
        "addr:city": "Bangalore",
        "addr:country": "IN",
        "addr:housenumber": "269",
        "addr:postcode": "560080",
        "addr:street": "17th Cross Road",
        "addr:suburb": "Sadashivanagara",
        "amenity": "arts_centre",
        "contact:facebook": "peepletree",
        "contact:instagram": "peepletree",
        "fee": "no",
        "name": "Peepletree",
        "tourism": "gallery",
        "website": "http://www.peepletree.in/"
      }
    },
    {
      "type": "node",
      "id": 9759746798,
      "lat": 13.0055887,
      "lon": 77.5817545,
      "tags": {
        "addr:city": "Bangalore",
        "addr:country": "IN",
        "addr:housenumber": "344/8",
        "addr:postcode": "560080",
        "addr:street": "4th Main Road",
        "addr:suburb": "Sadashivanagara",
        "amenity": "arts_centre",
        "check_date": "2024-08-26",
        "name": "ArtCollective",
        "website": "https://www.artcollective.com"
      }
    },
    {
      "type": "node",
      "id": 9759746800,
      "lat": 13.0055404,
      "lon": 77.5817277,
      "tags": {
        "amenity": "bank",
        "atm": "yes",
        "brand": "Bank of Baroda",
        "brand:wikidata": "Q2003797",
        "name": "Bank of Baroda",
        "name:kn": "ಬ್ಯಾಂಕ್ ಆಫ್ ಬರೋಡ",
        "operator": "Bank of Baroda"
      }
    },
    {
      "type": "node",
      "id": 9775599294,
      "lat": 12.9961836,
      "lon": 77.5846063,
      "tags": {
        "amenity": "bench",
        "backrest": "no",
        "material": "stone",
        "seats": "3"
      }
    },
    {
      "type": "node",
      "id": 9779286691,
      "lat": 12.9927618,
      "lon": 77.5892942,
      "tags": {
        "amenity": "cafe",
        "name": "Desserted"
      }
    },
    {
      "type": "node",
      "id": 9779661191,
      "lat": 12.9928781,
      "lon": 77.5877257,
      "tags": {
        "access": "permissive",
        "amenity": "motorcycle_parking",
        "parking": "underground"
      }
    },
    {
      "type": "node",
      "id": 9779677431,
      "lat": 12.9934802,
      "lon": 77.5878812,
      "tags": {
        "access": "permissive",
        "amenity": "parking_entrance",
        "parking": "underground"
      }
    },
    {
      "type": "node",
      "id": 9779677433,
      "lat": 12.9933949,
      "lon": 77.587827,
      "tags": {
        "amenity": "fast_food",
        "name": "Carmel Culinary Court"
      }
    },
    {
      "type": "node",
      "id": 9779677437,
      "lat": 12.9928258,
      "lon": 77.5878243,
      "tags": {
        "amenity": "theatre",
        "name": "Amphitheatre"
      }
    },
    {
      "type": "node",
      "id": 9779677464,
      "lat": 12.9932192,
      "lon": 77.5882796,
      "tags": {
        "amenity": "theatre",
        "name": "Diamond Jubilee Auditorium"
      }
    },
    {
      "type": "node",
      "id": 9779677515,
      "lat": 12.9937399,
      "lon": 77.5884878,
      "tags": {
        "shop": "copyshop"
      }
    },
    {
      "type": "node",
      "id": 9779677525,
      "lat": 12.9939353,
      "lon": 77.588114,
      "tags": {
        "amenity": "fast_food",
        "name": "Green Canteen"
      }
    },
    {
      "type": "node",
      "id": 9779677629,
      "lat": 12.9947733,
      "lon": 77.5892958,
      "tags": {
        "amenity": "arts_centre",
        "check_date": "2024-06-30",
        "level": "0",
        "name": "Art Houz",
        "website": "https://www.arthouz.com/"
      }
    },
    {
      "type": "node",
      "id": 9938657067,
      "lat": 13.0044855,
      "lon": 77.5839037,
      "tags": {
        "name": "Labonel",
        "shop": "bakery"
      }
    },
    {
      "type": "node",
      "id": 9938657068,
      "lat": 13.0038422,
      "lon": 77.5838648,
      "tags": {
        "amenity": "bank",
        "brand": "Punjab National Bank",
        "brand:wikidata": "Q2743499",
        "name": "Punjab National Bank",
        "name:kn": "ಪಂಜಾಬ ರಾಷ್ಟ್ರೀಯ ಬ್ಯಾಂಕ್"
      }
    },
    {
      "type": "node",
      "id": 9938657069,
      "lat": 13.0069739,
      "lon": 77.583774,
      "tags": {
        "amenity": "community_centre",
        "name": "All India Veerashiva Mahasabha"
      }
    },
    {
      "type": "node",
      "id": 10197599049,
      "lat": 12.9932649,
      "lon": 77.5856557,
      "tags": {
        "access": "permissive",
        "amenity": "parking",
        "parking": "surface"
      }
    },
    {
      "type": "node",
      "id": 10934276525,
      "lat": 13.003153,
      "lon": 77.5782663,
      "tags": {
        "name": "Namdhari's Fresh",
        "shop": "supermarket"
      }
    },
    {
      "type": "node",
      "id": 10934276526,
      "lat": 13.0014948,
      "lon": 77.578336,
      "tags": {
        "name": "Fresho Choice",
        "shop": "butcher"
      }
    },
    {
      "type": "node",
      "id": 10934276528,
      "lat": 13.0004102,
      "lon": 77.5781985,
      "tags": {
        "amenity": "place_of_worship",
        "religion": "hindu"
      }
    },
    {
      "type": "node",
      "id": 10934276534,
      "lat": 12.9989826,
      "lon": 77.5744743,
      "tags": {
        "name": "HOPCOMS",
        "shop": "greengrocer"
      }
    },
    {
      "type": "node",
      "id": 10941504378,
      "lat": 13.0057338,
      "lon": 77.5788406,
      "tags": {
        "amenity": "restaurant",
        "check_date": "2024-12-13",
        "diet:vegetarian": "yes",
        "name": "My La Pure"
      }
    },
    {
      "type": "node",
      "id": 10941531361,
      "lat": 13.0074059,
      "lon": 77.5819464,
      "tags": {
        "amenity": "college",
        "name": "IIHS, Bengaluru City Campus Annexe - I",
        "opening_hours": "Mo-Fr 09:00-18:00",
        "operator": "Indian Institute for Human Settlements",
        "short_name": "IIHS Annex",
        "website": "https://www.iihs.co.in/"
      }
    },
    {
      "type": "node",
      "id": 11096782357,
      "lat": 12.9981862,
      "lon": 77.5814836,
      "tags": {
        "amenity": "bar",
        "name": "North Wind"
      }
    },
    {
      "type": "node",
      "id": 11096782379,
      "lat": 12.9969689,
      "lon": 77.5745594,
      "tags": {
        "amenity": "post_office",
        "name": "India Post",
        "operator": "India Post",
        "operator:wikidata": "Q3519720"
      }
    },
    {
      "type": "node",
      "id": 11281283560,
      "lat": 12.9980764,
      "lon": 77.5817987,
      "tags": {
        "amenity": "fast_food",
        "name": "Shakes n Bites"
      }
    },
    {
      "type": "node",
      "id": 11281283561,
      "lat": 12.9980973,
      "lon": 77.5817525,
      "tags": {
        "shop": "tailor"
      }
    },
    {
      "type": "node",
      "id": 11281283562,
      "lat": 12.9981189,
      "lon": 77.5817719,
      "tags": {
        "shop": "hairdresser"
      }
    },
    {
      "type": "node",
      "id": 11281283563,
      "lat": 12.9966141,
      "lon": 77.5804456,
      "tags": {
        "amenity": "bank",
        "atm": "yes",
        "brand": "Bandhan Bank",
        "brand:wikidata": "Q19882235",
        "name": "Bandhan Bank",
        "operator": "Bandhan Bank"
      }
    },
    {
      "type": "node",
      "id": 11361272140,
      "lat": 13.0056806,
      "lon": 77.581023,
      "tags": {
        "access": "permissive",
        "amenity": "parking_entrance",
        "bicycle": "yes",
        "maxheight:signed": "no",
        "motorcar": "no",
        "motorcycle": "yes",
        "parking": "underground"
      }
    },
    {
      "type": "node",
      "id": 11458986884,
      "lat": 13.0063511,
      "lon": 77.5794141,
      "tags": {
        "check_date": "2023-12-27",
        "name": "VLCC",
        "shop": "beauty"
      }
    },
    {
      "type": "node",
      "id": 11470047334,
      "lat": 13.0055742,
      "lon": 77.5809194,
      "tags": {
        "access": "yes",
        "air_conditioning": "yes",
        "amenity": "library",
        "internet_access": "yes",
        "internet_access:fee": "no",
        "name": "IIHS Library",
        "opening_hours": "Mo-Sa 08:00-18:00",
        "operator": "IIHS",
        "operator:type": "open_to_public"
      }
    },
    {
      "type": "node",
      "id": 11473057369,
      "lat": 12.9930468,
      "lon": 77.5900341,
      "tags": {
        "amenity": "cafe",
        "name": "hunkal coffee"
      }
    },
    {
      "type": "node",
      "id": 11513735749,
      "lat": 13.0051852,
      "lon": 77.5793774,
      "tags": {
        "leisure": "fitness_station",
        "sport": "fitness"
      }
    },
    {
      "type": "node",
      "id": 11565045295,
      "lat": 12.9905027,
      "lon": 77.5868698,
      "tags": {
        "access": "private",
        "amenity": "parking_entrance",
        "parking": "underground"
      }
    },
    {
      "type": "node",
      "id": 11658802851,
      "lat": 12.9928201,
      "lon": 77.5902016,
      "tags": {
        "amenity": "restaurant",
        "name": "The food corner"
      }
    },
    {
      "type": "node",
      "id": 11659057399,
      "lat": 12.9935922,
      "lon": 77.5904534,
      "tags": {
        "check_date": "2024-02-24",
        "leisure": "fitness_centre",
        "name": "Public Gym"
      }
    },
    {
      "type": "node",
      "id": 11659057407,
      "lat": 12.9943469,
      "lon": 77.5907644,
      "tags": {
        "brand": "Nandini",
        "check_date": "2024-02-24",
        "name": "Nandini",
        "shop": "dairy"
      }
    },
    {
      "type": "node",
      "id": 11676429897,
      "lat": 12.9950251,
      "lon": 77.5870076,
      "tags": {
        "access": "private",
        "amenity": "parking_entrance",
        "parking": "underground"
      }
    },
    {
      "type": "node",
      "id": 11686664869,
      "lat": 12.9929771,
      "lon": 77.5905392,
      "tags": {
        "amenity": "fast_food",
        "check_date": "2024-02-24",
        "cuisine": "juice",
        "name": "Ganesh Juice"
      }
    },
    {
      "type": "node",
      "id": 11686664969,
      "lat": 12.9929279,
      "lon": 77.5905184,
      "tags": {
        "amenity": "waste_basket"
      }
    },
    {
      "type": "node",
      "id": 11949210770,
      "lat": 12.998839,
      "lon": 77.5763743,
      "tags": {
        "amenity": "pharmacy",
        "check_date": "2024-06-01",
        "healthcare": "pharmacy"
      }
    },
    {
      "type": "node",
      "id": 11949210772,
      "lat": 12.9993431,
      "lon": 77.5780212,
      "tags": {
        "check_date": "2024-06-01",
        "shop": "tailor"
      }
    },
    {
      "type": "node",
      "id": 11949210773,
      "lat": 12.9998483,
      "lon": 77.5781152,
      "tags": {
        "amenity": "drinking_water"
      }
    },
    {
      "type": "node",
      "id": 11982395421,
      "lat": 12.9954465,
      "lon": 77.5790081,
      "tags": {
        "amenity": "place_of_worship",
        "check_date": "2024-06-15",
        "religion": "hindu"
      }
    },
    {
      "type": "node",
      "id": 11982395422,
      "lat": 12.9973524,
      "lon": 77.5807376,
      "tags": {
        "check_date": "2024-06-15",
        "name": "Pooja Bar",
        "shop": "alcohol"
      }
    },
    {
      "type": "node",
      "id": 11982395423,
      "lat": 12.9982738,
      "lon": 77.5816375,
      "tags": {
        "amenity": "bar",
        "check_date": "2024-06-15"
      }
    },
    {
      "type": "node",
      "id": 11982693078,
      "lat": 12.9963036,
      "lon": 77.5878575,
      "tags": {
        "amenity": "bank",
        "brand": "ICICI Bank",
        "brand:wikidata": "Q1653258",
        "check_date": "2024-06-15",
        "name": "ICICI Bank",
        "short_name": "ICICI"
      }
    },
    {
      "type": "node",
      "id": 11982693081,
      "lat": 12.999271,
      "lon": 77.5784967,
      "tags": {
        "amenity": "place_of_worship",
        "check_date": "2024-06-15",
        "religion": "hindu"
      }
    },
    {
      "type": "node",
      "id": 11982693082,
      "lat": 12.9991289,
      "lon": 77.5783048,
      "tags": {
        "amenity": "fast_food",
        "check_date": "2024-06-15",
        "name": "Ayodhya Sagar"
      }
    },
    {
      "type": "node",
      "id": 11986964436,
      "lat": 12.9937269,
      "lon": 77.5769795,
      "tags": {
        "name": "Save More",
        "shop": "supermarket"
      }
    },
    {
      "type": "node",
      "id": 11986964511,
      "lat": 12.9988056,
      "lon": 77.5821957,
      "tags": {
        "brand": "Nandini",
        "name": "Nandini",
        "name:kn": "ನಂದಿನಿ",
        "shop": "dairy"
      }
    },
    {
      "type": "node",
      "id": 12022786180,
      "lat": 12.9950408,
      "lon": 77.5886538,
      "tags": {
        "access": "private",
        "amenity": "parking_entrance",
        "parking": "underground"
      }
    },
    {
      "type": "node",
      "id": 12022786186,
      "lat": 12.9950441,
      "lon": 77.5885519,
      "tags": {
        "access": "private",
        "amenity": "parking_entrance",
        "parking": "underground"
      }
    },
    {
      "type": "node",
      "id": 12022786207,
      "lat": 12.994979,
      "lon": 77.587259,
      "tags": {
        "access": "private",
        "amenity": "parking_entrance",
        "parking": "underground"
      }
    },
    {
      "type": "node",
      "id": 12022786208,
      "lat": 12.9949405,
      "lon": 77.5876816,
      "tags": {
        "access": "private",
        "amenity": "parking_entrance",
        "parking": "underground"
      }
    },
    {
      "type": "node",
      "id": 12039702363,
      "lat": 12.9924495,
      "lon": 77.5881636,
      "tags": {
        "access": "permissive",
        "amenity": "parking_entrance",
        "parking": "underground"
      }
    },
    {
      "type": "node",
      "id": 12039702364,
      "lat": 12.9915191,
      "lon": 77.5881355,
      "tags": {
        "access": "permissive",
        "amenity": "parking_entrance",
        "parking": "underground"
      }
    },
    {
      "type": "node",
      "id": 12103825757,
      "lat": 12.9991829,
      "lon": 77.5825259,
      "tags": {
        "amenity": "toilets",
        "check_date": "2024-08-11"
      }
    },
    {
      "type": "node",
      "id": 12103825759,
      "lat": 12.995914,
      "lon": 77.5759975,
      "tags": {
        "check_date": "2024-08-11",
        "name": "Sri Priya Jewellers",
        "shop": "jewelry"
      }
    },
    {
      "type": "node",
      "id": 12103968905,
      "lat": 12.9988873,
      "lon": 77.5753256,
      "tags": {
        "check_date": "2024-08-11",
        "shop": "greengrocer"
      }
    },
    {
      "type": "node",
      "id": 12103968906,
      "lat": 12.9986686,
      "lon": 77.5758144,
      "tags": {
        "amenity": "place_of_worship",
        "check_date": "2024-08-11",
        "religion": "hindu"
      }
    },
    {
      "type": "node",
      "id": 12103968909,
      "lat": 12.9991112,
      "lon": 77.5781651,
      "tags": {
        "amenity": "bar",
        "check_date": "2024-08-11",
        "name": "Srinivasa Bar & Restaurant"
      }
    },
    {
      "type": "node",
      "id": 12103968917,
      "lat": 12.9989667,
      "lon": 77.5800117,
      "tags": {
        "amenity": "pharmacy",
        "check_date": "2024-08-11",
        "healthcare": "pharmacy",
        "name": "The Drug Hut"
      }
    },
    {
      "type": "node",
      "id": 12103968933,
      "lat": 12.9989823,
      "lon": 77.5802854,
      "tags": {
        "amenity": "pharmacy",
        "check_date": "2024-08-11",
        "healthcare": "pharmacy",
        "name": "Bilva Pharmacy"
      }
    },
    {
      "type": "node",
      "id": 12103968934,
      "lat": 12.9982443,
      "lon": 77.5821694,
      "tags": {
        "amenity": "place_of_worship",
        "check_date": "2024-08-11",
        "religion": "hindu"
      }
    },
    {
      "type": "node",
      "id": 12103968935,
      "lat": 12.9988703,
      "lon": 77.5813139,
      "tags": {
        "amenity": "fast_food",
        "check_date": "2024-08-11",
        "name": "Palace Cafe"
      }
    },
    {
      "type": "node",
      "id": 12103968936,
      "lat": 12.9989,
      "lon": 77.5811516,
      "tags": {
        "amenity": "bank",
        "brand": "Central Bank of India",
        "brand:wikidata": "Q2007090",
        "check_date": "2024-08-11",
        "name": "Central Bank of India",
        "name:kn": "ಸೆಂಟ್ರಲ್ ಬ್ಯಾಂಕ್"
      }
    },
    {
      "type": "node",
      "id": 12103968937,
      "lat": 12.9988904,
      "lon": 77.5812055,
      "tags": {
        "check_date": "2024-08-11",
        "name": "NS Enterprises",
        "shop": "hardware"
      }
    },
    {
      "type": "node",
      "id": 12103968938,
      "lat": 12.9989603,
      "lon": 77.5808423,
      "tags": {
        "amenity": "atm",
        "brand": "IDFC First Bank",
        "brand:wikidata": "Q22031467",
        "check_date": "2024-08-11",
        "operator": "IDFC First Bank",
        "operator:wikidata": "Q22031467"
      }
    },
    {
      "type": "node",
      "id": 12103968939,
      "lat": 12.9978791,
      "lon": 77.5825963,
      "tags": {
        "amenity": "dentist",
        "check_date": "2024-08-11",
        "healthcare": "dentist",
        "name": "Goutam Dental Clinic"
      }
    },
    {
      "type": "node",
      "id": 12147533852,
      "lat": 12.9910219,
      "lon": 77.5864182,
      "tags": {
        "amenity": "post_box",
        "operator": "India Post"
      }
    },
    {
      "type": "node",
      "id": 12307194971,
      "lat": 12.9968925,
      "lon": 77.5849624,
      "tags": {
        "brand": "Porsche",
        "brand:wikidata": "Q40993",
        "name": "Porsche",
        "shop": "car"
      }
    },
    {
      "type": "node",
      "id": 12307194976,
      "lat": 12.9943149,
      "lon": 77.58432,
      "tags": {
        "name": "Anokhi",
        "shop": "boutique"
      }
    },
    {
      "type": "node",
      "id": 12420181108,
      "lat": 13.0045713,
      "lon": 77.5787232,
      "tags": {
        "air_conditioning": "yes",
        "amenity": "cafe",
        "capacity": "25",
        "check_date": "2024-12-13",
        "name": "aubree",
        "outdoor_seating": "no"
      }
    },
    {
      "type": "node",
      "id": 12420181109,
      "lat": 13.0051836,
      "lon": 77.5788632,
      "tags": {
        "amenity": "restaurant",
        "brand": "California Burrito",
        "brand:wikidata": "Q124374596",
        "check_date": "2024-12-13",
        "cuisine": "mexican",
        "name": "California Burrito"
      }
    },
    {
      "type": "node",
      "id": 12422127903,
      "lat": 13.0054907,
      "lon": 77.5783078,
      "tags": {
        "name": "BBlunt",
        "shop": "beauty"
      }
    },
    {
      "type": "node",
      "id": 12422943857,
      "lat": 12.9919751,
      "lon": 77.5818658,
      "tags": {
        "amenity": "nightclub",
        "name": "Kitty Ko"
      }
    },
    {
      "type": "node",
      "id": 12422943858,
      "lat": 12.9923293,
      "lon": 77.5818202,
      "tags": {
        "amenity": "bar",
        "name": "Sutra"
      }
    },
    {
      "type": "node",
      "id": 12422943859,
      "lat": 12.9920548,
      "lon": 77.5816472,
      "tags": {
        "name": "The Pastry Shop",
        "shop": "bakery"
      }
    },
    {
      "type": "node",
      "id": 12422943862,
      "lat": 12.9923685,
      "lon": 77.5820643,
      "tags": {
        "amenity": "restaurant",
        "name": "24/7"
      }
    },
    {
      "type": "node",
      "id": 12422953303,
      "lat": 12.9922169,
      "lon": 77.5819811,
      "tags": {
        "amenity": "restaurant",
        "cuisine": "asian",
        "name": "OKO"
      }
    },
    {
      "type": "node",
      "id": 12422953304,
      "lat": 12.9925122,
      "lon": 77.5821367,
      "tags": {
        "amenity": "restaurant",
        "cuisine": "indian",
        "name": "Baluchi"
      }
    },
    {
      "type": "node",
      "id": 12425915304,
      "lat": 12.9937367,
      "lon": 77.5851059,
      "tags": {
        "amenity": "fountain"
      }
    },
    {
      "type": "node",
      "id": 12425915428,
      "lat": 12.9921372,
      "lon": 77.5819932,
      "tags": {
        "access": "customers",
        "amenity": "toilets",
        "female": "no",
        "male": "no"
      }
    },
    {
      "type": "node",
      "id": 12441467484,
      "lat": 12.9992069,
      "lon": 77.5838573,
      "tags": {
        "check_date": "2024-12-22",
        "name": "Gajraj",
        "shop": "jewelry"
      }
    },
    {
      "type": "node",
      "id": 12441467485,
      "lat": 12.9990256,
      "lon": 77.5839077,
      "tags": {
        "amenity": "bank",
        "brand": "Kotak Mahindra Bank",
        "brand:wikidata": "Q2040404",
        "check_date": "2025-08-08",
        "name": "Kotak Mahindra Bank"
      }
    },
    {
      "type": "node",
      "id": 12441467486,
      "lat": 12.9970464,
      "lon": 77.5842942,
      "tags": {
        "check_date": "2024-12-22",
        "name": "HMG Stone",
        "shop": "flooring"
      }
    },
    {
      "type": "node",
      "id": 12441539349,
      "lat": 13.0038834,
      "lon": 77.5839787,
      "tags": {
        "brand": "Royal Enfield",
        "brand:wikidata": "Q2668720",
        "check_date": "2024-12-22",
        "name": "Royal Enfield",
        "shop": "motorcycle"
      }
    },
    {
      "type": "node",
      "id": 12441539350,
      "lat": 13.0040413,
      "lon": 77.5839602,
      "tags": {
        "check_date": "2024-12-22",
        "name": "Ovion",
        "shop": "furniture"
      }
    },
    {
      "type": "node",
      "id": 12512224857,
      "lat": 12.9975563,
      "lon": 77.584202,
      "tags": {
        "amenity": "restaurant",
        "contact:instagram": "be.luru",
        "name": "Be Luru"
      }
    },
    {
      "type": "node",
      "id": 12625817234,
      "lat": 12.9988132,
      "lon": 77.5839495,
      "tags": {
        "amenity": "restaurant",
        "check_date": "2025-08-08",
        "name": "Veneta Cucine"
      }
    },
    {
      "type": "node",
      "id": 12628597302,
      "lat": 13.0045175,
      "lon": 77.5837857,
      "tags": {
        "check_date": "2025-03-01",
        "name": "Modulo",
        "shop": "interior_decoration"
      }
    },
    {
      "type": "node",
      "id": 12648710693,
      "lat": 13.0056661,
      "lon": 77.5806713,
      "tags": {
        "amenity": "restaurant",
        "check_date": "2025-04-12",
        "name": "Pulimunchi Restaurant",
        "payment:cash": "yes",
        "payment:credit_cards": "yes",
        "payment:debit_cards": "yes",
        "wheelchair": "limited"
      }
    },
    {
      "type": "node",
      "id": 12648717953,
      "lat": 13.0046704,
      "lon": 77.5784545,
      "tags": {
        "name": "Namdhari",
        "shop": "supermarket"
      }
    },
    {
      "type": "node",
      "id": 13057916461,
      "lat": 13.0037684,
      "lon": 77.5837594,
      "tags": {
        "check_date": "2025-08-08",
        "name": "OLA",
        "shop": "motorcycle"
      }
    },
    {
      "type": "node",
      "id": 13057916463,
      "lat": 13.0037882,
      "lon": 77.5838385,
      "tags": {
        "check_date": "2025-08-08",
        "name": "Girias",
        "shop": "appliance"
      }
    },
    {
      "type": "node",
      "id": 13057916467,
      "lat": 13.0039101,
      "lon": 77.5836059,
      "tags": {
        "amenity": "atm",
        "brand": "Axis Bank",
        "brand:wikidata": "Q2003549",
        "check_date": "2025-08-08",
        "operator": "Axis Bank",
        "operator:wikidata": "Q2003549"
      }
    },
    {
      "type": "node",
      "id": 13227760612,
      "lat": 13.0050569,
      "lon": 77.5783253,
      "tags": {
        "amenity": "restaurant",
        "name": "The Filter Coffee"
      }
    },
    {
      "type": "node",
      "id": 13227760613,
      "lat": 13.0050491,
      "lon": 77.5787196,
      "tags": {
        "amenity": "restaurant",
        "brand": "California Burrito",
        "brand:wikidata": "Q124374596",
        "cuisine": "mexican",
        "name": "California Burrito"
      }
    },
    {
      "type": "node",
      "id": 13227760614,
      "lat": 13.0055731,
      "lon": 77.5787571,
      "tags": {
        "amenity": "bar",
        "name": "Shetty Lunch Home"
      }
    },
    {
      "type": "node",
      "id": 13228016712,
      "lat": 13.0044381,
      "lon": 77.5786929,
      "tags": {
        "amenity": "restaurant",
        "name": "The Indies Cafe"
      }
    },
    {
      "type": "way",
      "id": 36982901,
      "center": {
        "lat": 12.9898083,
        "lon": 77.5851677
      },
      "tags": {
        "barrier": "fence",
        "golf:course": "18_hole",
        "leisure": "golf_course",
        "name": "Bangalore Golf Course",
        "name:kn": "ಬೆಂಗಳೂರು ಗೋಲ್ಫ್ ಮೈದಾನ",
        "short_name": "BGC",
        "start_date": "1876",
        "website": "http://bgc1876.com/"
      }
    },
    {
      "type": "way",
      "id": 38858223,
      "center": {
        "lat": 13.0066816,
        "lon": 77.580846
      },
      "tags": {
        "addr:street": "15th Cross Road",
        "amenity": "school",
        "check_date": "2024-07-17",
        "name": "Poorna Pragna School",
        "name:kn": "ಪೂರ್ಣ ಪ್ರಜ್ಞ ಶಾಲೆ"
      }
    },
    {
      "type": "way",
      "id": 38858245,
      "center": {
        "lat": 13.0059394,
        "lon": 77.5821459
      },
      "tags": {
        "leisure": "park"
      }
    },
    {
      "type": "way",
      "id": 38870504,
      "center": {
        "lat": 13.0009049,
        "lon": 77.5829668
      },
      "tags": {
        "addr:housenumber": "8",
        "addr:street": "Bellary Road",
        "amenity": "college",
        "emergency": "no",
        "heritage": "2",
        "heritage:operator": "nmma",
        "heritage:website": "https://nmma.nic.in/nmma/exploreBuiltState.do?state=29",
        "historic:name": "Avalon",
        "name": "National Tuberculosis Institute",
        "ref:nmma": "KR20010698"
      }
    },
    {
      "type": "way",
      "id": 38870537,
      "center": {
        "lat": 12.9921116,
        "lon": 77.5781507
      },
      "tags": {
        "leisure": "park",
        "name": "Kumara Park West Park"
      }
    },
    {
      "type": "way",
      "id": 46950393,
      "center": {
        "lat": 13.0066409,
        "lon": 77.5777065
      },
      "tags": {
        "addr:street": "Sankey Tank Road",
        "amenity": "school",
        "landuse": "education",
        "name": "Stella Maris Convent",
        "name:kn": "ಸ್ಟೆಲ್ಲಾ ಮಾರಿಸ್ ಕಾನ್ವೆಂಟ್"
      }
    },
    {
      "type": "way",
      "id": 143384384,
      "center": {
        "lat": 12.9981618,
        "lon": 77.5924696
      },
      "tags": {
        "leisure": "garden",
        "name": "Palace Greens"
      }
    },
    {
      "type": "way",
      "id": 188340338,
      "center": {
        "lat": 12.9935054,
        "lon": 77.5851109
      },
      "tags": {
        "leisure": "garden"
      }
    },
    {
      "type": "way",
      "id": 188340340,
      "center": {
        "lat": 12.9931588,
        "lon": 77.5852067
      },
      "tags": {
        "leisure": "garden"
      }
    },
    {
      "type": "way",
      "id": 192032071,
      "center": {
        "lat": 12.991783,
        "lon": 77.5817632
      },
      "tags": {
        "access": "customers",
        "leisure": "swimming_pool",
        "sport": "swimming"
      }
    },
    {
      "type": "way",
      "id": 192032072,
      "center": {
        "lat": 12.9940804,
        "lon": 77.5854758
      },
      "tags": {
        "access": "customers",
        "leisure": "swimming_pool",
        "sport": "swimming"
      }
    },
    {
      "type": "way",
      "id": 221316384,
      "center": {
        "lat": 12.999056,
        "lon": 77.5746478
      },
      "tags": {
        "amenity": "place_of_worship",
        "building": "yes",
        "name": "Sanskrit Center",
        "religion": "hindu"
      }
    },
    {
      "type": "way",
      "id": 221316386,
      "center": {
        "lat": 12.9992939,
        "lon": 77.5746472
      },
      "tags": {
        "amenity": "place_of_worship",
        "building": "yes",
        "name": "Raghavendra Swamy Mutt",
        "name:kn": "ರಾಘವೇಂದ್ರ ಸ್ವಾಮಿ ಮಠ",
        "religion": "hindu"
      }
    },
    {
      "type": "way",
      "id": 221353983,
      "center": {
        "lat": 13.0069761,
        "lon": 77.5819162
      },
      "tags": {
        "access": "yes",
        "leisure": "playground",
        "name": "Janatha Bazaar Park"
      }
    },
    {
      "type": "way",
      "id": 221353984,
      "center": {
        "lat": 13.0066717,
        "lon": 77.5821335
      },
      "tags": {
        "amenity": "marketplace",
        "name": "Janatha Bazaar",
        "name:kn": "ಜನತಾ ಬಜಾರ್",
        "opening_hours": "Mo-Sa 10:00-19:00",
        "shop": "supermarket"
      }
    },
    {
      "type": "way",
      "id": 222965540,
      "center": {
        "lat": 13.0059246,
        "lon": 77.5789837
      },
      "tags": {
        "amenity": "fast_food",
        "name": "Sangam",
        "name:kn": "ಸಂಗಮ್"
      }
    },
    {
      "type": "way",
      "id": 335169243,
      "center": {
        "lat": 12.9965326,
        "lon": 77.5822913
      },
      "tags": {
        "leisure": "playground"
      }
    },
    {
      "type": "way",
      "id": 335169248,
      "center": {
        "lat": 12.9984002,
        "lon": 77.5823983
      },
      "tags": {
        "amenity": "place_of_worship",
        "name": "Shri Anjaneya Swamy Temple",
        "name:kn": "ಅಂಜನೇಯ ಸ್ವಾಮಿ ದೇವಸ್ಥಾನ",
        "religion": "hindu"
      }
    },
    {
      "type": "way",
      "id": 335172719,
      "center": {
        "lat": 12.9908973,
        "lon": 77.5788013
      },
      "tags": {
        "amenity": "school",
        "name": "Gandhi Nagar High School",
        "name:kn": "ಗಾಂಧಿನಗರ ಪೌಡಶಾಲೆ"
      }
    },
    {
      "type": "way",
      "id": 346266426,
      "center": {
        "lat": 12.9990241,
        "lon": 77.5821232
      },
      "tags": {
        "addr:city": "Bangalore",
        "addr:postcode": "560003",
        "addr:street": "Palace Guttahalli Main Road",
        "amenity": "post_office",
        "building": "yes",
        "name": "Palace Guttahalli Post office",
        "name:kn": "ಅಂಚೆ ಕಛೇರಿ"
      }
    },
    {
      "type": "way",
      "id": 346433811,
      "center": {
        "lat": 13.0070898,
        "lon": 77.5815822
      },
      "tags": {
        "amenity": "place_of_worship",
        "building": "temple",
        "check_date": "2024-08-29",
        "name": "Eshwara Temple",
        "name:kn": "ಈಶ್ವರ ದೇವಸ್ಥಾನ",
        "religion": "hindu"
      }
    },
    {
      "type": "way",
      "id": 346526279,
      "center": {
        "lat": 12.9943024,
        "lon": 77.5843483
      },
      "tags": {
        "building": "yes",
        "name": "RainTree",
        "shop": "mall"
      }
    },
    {
      "type": "way",
      "id": 346526405,
      "center": {
        "lat": 12.9933774,
        "lon": 77.5873684
      },
      "tags": {
        "amenity": "place_of_worship",
        "building": "chapel",
        "denomination": "catholic",
        "name": "Mount Carmel Chapel",
        "religion": "christian"
      }
    },
    {
      "type": "way",
      "id": 346806171,
      "center": {
        "lat": 12.9929755,
        "lon": 77.5813803
      },
      "tags": {
        "amenity": "events_venue",
        "building": "yes",
        "name": "Kalinga"
      }
    },
    {
      "type": "way",
      "id": 347104511,
      "center": {
        "lat": 13.0059731,
        "lon": 77.5885394
      },
      "tags": {
        "access": "private",
        "leisure": "pitch",
        "sport": "tennis"
      }
    },
    {
      "type": "way",
      "id": 396678893,
      "center": {
        "lat": 12.9951289,
        "lon": 77.5866983
      },
      "tags": {
        "access": "private",
        "leisure": "pitch"
      }
    },
    {
      "type": "way",
      "id": 400439506,
      "center": {
        "lat": 12.9995021,
        "lon": 77.5925097
      },
      "tags": {
        "leisure": "garden"
      }
    },
    {
      "type": "way",
      "id": 400439507,
      "center": {
        "lat": 12.9975146,
        "lon": 77.5919268
      },
      "tags": {
        "access": "customers",
        "amenity": "parking",
        "fee": "no",
        "parking": "surface"
      }
    },
    {
      "type": "way",
      "id": 400448361,
      "center": {
        "lat": 13.0026608,
        "lon": 77.5837858
      },
      "tags": {
        "addr:floor": "G",
        "addr:street": "Sankey Road",
        "amenity": "fuel",
        "brand": "Hindustan Petroleum",
        "brand:wikidata": "Q1619375",
        "check_date": "2025-08-08",
        "compressed_air": "yes",
        "fuel:diesel": "yes",
        "fuel:petrol": "yes",
        "level": "0",
        "name": "HP",
        "name:kn": "ಹಿಂದುಸ್ತಾನ್ ಪೆಟ್ರೋಲಿಯಂ",
        "official_name": "Hindustan Petroleum",
        "opening_hours": "24/7",
        "self_service": "no"
      }
    },
    {
      "type": "way",
      "id": 402011848,
      "center": {
        "lat": 13.0050551,
        "lon": 77.5796771
      },
      "tags": {
        "leisure": "park"
      }
    },
    {
      "type": "way",
      "id": 402011853,
      "center": {
        "lat": 13.005556,
        "lon": 77.5809082
      },
      "tags": {
        "addr:city": "Bengaluru",
        "addr:country": "IN",
        "addr:hamlet": "Lower Palace Orchards",
        "addr:housenumber": "197/36",
        "addr:postcode": "560080",
        "addr:street": "16th Cross Road",
        "addr:suburb": "Sadashivanagar",
        "alt_name": "Indian Institute for Human Settlements Bangalore City Campus",
        "amenity": "college",
        "full_name": "Indian Institute for Human Settlements Bengaluru City Campus, Sadashivanagar",
        "landuse": "education",
        "name": "IIHS, Bengaluru City Campus",
        "official_name": "IIHS Bengaluru City Campus, Sadashivanagara",
        "opening_hours": "Mo-Fr 09:00-18:00",
        "operator": "Indian Institute for Human Settlements",
        "phone": "+91 80 6760 6666",
        "short_name": "IIHS",
        "website": "https://iihs.co.in"
      }
    },
    {
      "type": "way",
      "id": 437536496,
      "center": {
        "lat": 12.9950317,
        "lon": 77.5881318
      },
      "tags": {
        "access": "private",
        "leisure": "swimming_pool"
      }
    },
    {
      "type": "way",
      "id": 437536497,
      "center": {
        "lat": 12.9918836,
        "lon": 77.5867661
      },
      "tags": {
        "landuse": "recreation_ground",
        "leisure": "common"
      }
    },
    {
      "type": "way",
      "id": 437538186,
      "center": {
        "lat": 12.9919586,
        "lon": 77.5811238
      },
      "tags": {
        "access": "customers",
        "leisure": "pitch",
        "sport": "tennis"
      }
    },
    {
      "type": "way",
      "id": 437538187,
      "center": {
        "lat": 12.9905743,
        "lon": 77.5833603
      },
      "tags": {
        "access": "private",
        "amenity": "parking",
        "parking": "surface"
      }
    },
    {
      "type": "way",
      "id": 782014105,
      "center": {
        "lat": 12.9902123,
        "lon": 77.5800977
      },
      "tags": {
        "leisure": "garden"
      }
    },
    {
      "type": "way",
      "id": 782014109,
      "center": {
        "lat": 12.9903468,
        "lon": 77.5818819
      },
      "tags": {
        "leisure": "garden"
      }
    },
    {
      "type": "way",
      "id": 785341394,
      "center": {
        "lat": 13.0022168,
        "lon": 77.5921105
      },
      "tags": {
        "addr:city": "Bengaluru",
        "addr:country": "IN",
        "addr:postcode": "560006",
        "addr:street": "Jayamahal Road",
        "amenity": "college",
        "email": "iiamr@yahoo.com",
        "name": "Indian Institute of Ayurvedic Medicine & Research",
        "phone": "080 - 2343 7895",
        "website": "http://iiamr.co.in"
      }
    },
    {
      "type": "way",
      "id": 986979031,
      "center": {
        "lat": 12.9940269,
        "lon": 77.584796
      },
      "tags": {
        "amenity": "parking"
      }
    },
    {
      "type": "way",
      "id": 1062359635,
      "center": {
        "lat": 13.0053007,
        "lon": 77.5813072
      },
      "tags": {
        "amenity": "place_of_worship",
        "check_date": "2024-07-16",
        "denomination": "anglican",
        "name": "CSI Ascension Church",
        "religion": "christian"
      }
    },
    {
      "type": "way",
      "id": 1062359636,
      "center": {
        "lat": 13.004881,
        "lon": 77.5808184
      },
      "tags": {
        "amenity": "fuel",
        "brand": "Shell",
        "brand:wikidata": "Q110716465",
        "compressed_air": "yes",
        "name": "Shell",
        "name:kn": "ಶೆಲ್",
        "operator": "Shell"
      }
    },
    {
      "type": "way",
      "id": 1064890952,
      "center": {
        "lat": 12.9931109,
        "lon": 77.5886356
      },
      "tags": {
        "leisure": "garden"
      }
    },
    {
      "type": "way",
      "id": 1064890955,
      "center": {
        "lat": 12.9926063,
        "lon": 77.5884482
      },
      "tags": {
        "leisure": "garden",
        "name": "Vatika"
      }
    },
    {
      "type": "way",
      "id": 1064890960,
      "center": {
        "lat": 12.9940556,
        "lon": 77.5871824
      },
      "tags": {
        "access": "private",
        "leisure": "playground"
      }
    },
    {
      "type": "way",
      "id": 1064890964,
      "center": {
        "lat": 12.993608,
        "lon": 77.5884909
      },
      "tags": {
        "leisure": "garden"
      }
    },
    {
      "type": "way",
      "id": 1064890966,
      "center": {
        "lat": 12.9929644,
        "lon": 77.5885118
      },
      "tags": {
        "leisure": "pitch",
        "lit": "no",
        "sport": "basketball",
        "surface": "tartan"
      }
    },
    {
      "type": "way",
      "id": 1064890967,
      "center": {
        "lat": 12.993654,
        "lon": 77.5882429
      },
      "tags": {
        "access": "permissive",
        "amenity": "parking",
        "fee": "no",
        "parking": "surface"
      }
    },
    {
      "type": "way",
      "id": 1064890976,
      "center": {
        "lat": 12.99345,
        "lon": 77.5871464
      },
      "tags": {
        "amenity": "monastery",
        "community:gender": "female",
        "denomination": "catholic",
        "landuse": "religious",
        "monastery:type": "convent",
        "name": "Mount Carmel Convent",
        "religion": "christian"
      }
    },
    {
      "type": "way",
      "id": 1064890977,
      "center": {
        "lat": 12.9940686,
        "lon": 77.5871753
      },
      "tags": {
        "amenity": "school",
        "name": "Mount Carmel Central School"
      }
    },
    {
      "type": "way",
      "id": 1064892106,
      "center": {
        "lat": 12.9937289,
        "lon": 77.5888268
      },
      "tags": {
        "leisure": "garden"
      }
    },
    {
      "type": "way",
      "id": 1125999710,
      "center": {
        "lat": 12.9962155,
        "lon": 77.5833869
      },
      "tags": {
        "addr:city": "Bangalore",
        "addr:housenumber": "51",
        "addr:street": "Railway Parallel Road",
        "amenity": "school",
        "name": "Bethesda High School"
      }
    },
    {
      "type": "way",
      "id": 1148302623,
      "center": {
        "lat": 13.0060297,
        "lon": 77.5789027
      },
      "tags": {
        "addr:street": "Vyalikaval Main Road",
        "amenity": "fuel",
        "brand": "Bharat Petroleum",
        "brand:wikidata": "Q854826",
        "check_date": "2024-12-13",
        "compressed_air": "yes",
        "landuse": "commercial",
        "name": "Bharath Petroleum",
        "name:kn": "ಭಾರತ್ ಪೆಟ್ರೋಲಿಯಂ",
        "operator": "Bharat Petroleum"
      }
    },
    {
      "type": "way",
      "id": 1164638921,
      "center": {
        "lat": 12.9991751,
        "lon": 77.574304
      },
      "tags": {
        "leisure": "park",
        "name": "Swimming Pool Extension Park"
      }
    },
    {
      "type": "way",
      "id": 1176949708,
      "center": {
        "lat": 13.0025183,
        "lon": 77.5767216
      },
      "tags": {
        "leisure": "park"
      }
    },
    {
      "type": "way",
      "id": 1176949709,
      "center": {
        "lat": 13.0008545,
        "lon": 77.5762586
      },
      "tags": {
        "leisure": "fitness_station"
      }
    },
    {
      "type": "way",
      "id": 1191381541,
      "center": {
        "lat": 12.9951113,
        "lon": 77.5920148
      },
      "tags": {
        "leisure": "park"
      }
    },
    {
      "type": "way",
      "id": 1195571013,
      "center": {
        "lat": 12.9990806,
        "lon": 77.5823861
      },
      "tags": {
        "amenity": "place_of_worship",
        "religion": "hindu"
      }
    },
    {
      "type": "way",
      "id": 1195571016,
      "center": {
        "lat": 12.9963142,
        "lon": 77.5802792
      },
      "tags": {
        "amenity": "fuel",
        "brand": "Indian Oil",
        "brand:wikidata": "Q1289348",
        "name": "Indian Oil",
        "name:kn": "ಇಂಡಿಯನ್ ಆಯಿಲ್",
        "operator": "Indian Oil"
      }
    },
    {
      "type": "way",
      "id": 1195571017,
      "center": {
        "lat": 12.9950657,
        "lon": 77.5791434
      },
      "tags": {
        "amenity": "fuel",
        "brand": "Trigaz",
        "name": "Trigaz",
        "operator": "Trigaz"
      }
    },
    {
      "type": "way",
      "id": 1195581198,
      "center": {
        "lat": 12.9951025,
        "lon": 77.5917378
      },
      "tags": {
        "amenity": "place_of_worship",
        "religion": "hindu"
      }
    },
    {
      "type": "way",
      "id": 1254353738,
      "center": {
        "lat": 12.9939445,
        "lon": 77.5906114
      },
      "tags": {
        "leisure": "park",
        "name": "Vasanthanagara Park",
        "name:kn": "ವಸಂತನಗರ ಉದ್ಯಾನವನ"
      }
    },
    {
      "type": "way",
      "id": 1255226922,
      "center": {
        "lat": 12.9947413,
        "lon": 77.5899726
      },
      "tags": {
        "amenity": "monastery",
        "landuse": "religious",
        "name": "Maria Sadan",
        "religion": "christian"
      }
    },
    {
      "type": "way",
      "id": 1267895430,
      "center": {
        "lat": 13.0030694,
        "lon": 77.5829689
      },
      "tags": {
        "amenity": "place_of_worship",
        "landuse": "religious",
        "name": "Mahalakshmi Temple",
        "name:kn": "ಮಹಾಲಕ್ಷ್ಮಿ ದೇವಸ್ಥಾನ",
        "religion": "hindu"
      }
    },
    {
      "type": "way",
      "id": 1292999612,
      "center": {
        "lat": 12.993966,
        "lon": 77.5771632
      },
      "tags": {
        "amenity": "school",
        "name": "Sri Chaitanya Techno School"
      }
    },
    {
      "type": "way",
      "id": 1297146106,
      "center": {
        "lat": 12.9905792,
        "lon": 77.586795
      },
      "tags": {
        "access": "permissive",
        "amenity": "parking",
        "parking": "surface"
      }
    },
    {
      "type": "way",
      "id": 1297146109,
      "center": {
        "lat": 12.9902984,
        "lon": 77.5868815
      },
      "tags": {
        "access": "permissive",
        "amenity": "parking",
        "parking": "surface"
      }
    },
    {
      "type": "way",
      "id": 1297146110,
      "center": {
        "lat": 12.990488,
        "lon": 77.586411
      },
      "tags": {
        "access": "permissive",
        "amenity": "parking",
        "parking": "surface"
      }
    },
    {
      "type": "way",
      "id": 1297674402,
      "center": {
        "lat": 12.9944698,
        "lon": 77.5883037
      },
      "tags": {
        "leisure": "park"
      }
    },
    {
      "type": "way",
      "id": 1297674403,
      "center": {
        "lat": 12.9950071,
        "lon": 77.5873706
      },
      "tags": {
        "leisure": "park"
      }
    },
    {
      "type": "way",
      "id": 1297674404,
      "center": {
        "lat": 12.9950196,
        "lon": 77.5875986
      },
      "tags": {
        "leisure": "park"
      }
    },
    {
      "type": "way",
      "id": 1297674405,
      "center": {
        "lat": 12.9950627,
        "lon": 77.5884265
      },
      "tags": {
        "leisure": "park"
      }
    },
    {
      "type": "way",
      "id": 1299765928,
      "center": {
        "lat": 12.9927882,
        "lon": 77.5858214
      },
      "tags": {
        "access": "private",
        "leisure": "swimming_pool"
      }
    },
    {
      "type": "way",
      "id": 1299765941,
      "center": {
        "lat": 12.9949954,
        "lon": 77.5892754
      },
      "tags": {
        "access": "private",
        "amenity": "parking",
        "parking": "surface"
      }
    },
    {
      "type": "way",
      "id": 1299765942,
      "center": {
        "lat": 12.9949466,
        "lon": 77.589084
      },
      "tags": {
        "access": "private",
        "amenity": "parking",
        "parking": "surface"
      }
    },
    {
      "type": "way",
      "id": 1338260810,
      "center": {
        "lat": 13.0045562,
        "lon": 77.5881003
      },
      "tags": {
        "addr:place": "Palace Grounds",
        "amenity": "events_venue",
        "name": "Princess Golf"
      }
    },
    {
      "type": "way",
      "id": 1338260811,
      "center": {
        "lat": 13.0046284,
        "lon": 77.5895866
      },
      "tags": {
        "addr:place": "Palace Grounds",
        "amenity": "events_venue",
        "name": "Anantya"
      }
    },
    {
      "type": "way",
      "id": 1338260824,
      "center": {
        "lat": 13.0046242,
        "lon": 77.5873025
      },
      "tags": {
        "addr:place": "Palace Grounds",
        "amenity": "events_venue",
        "name": "Princess Shrine"
      }
    },
    {
      "type": "way",
      "id": 1338260825,
      "center": {
        "lat": 13.0060195,
        "lon": 77.5877498
      },
      "tags": {
        "leisure": "pitch",
        "name": "BPCA Cricket Ground",
        "sport": "cricket"
      }
    },
    {
      "type": "way",
      "id": 1338260826,
      "center": {
        "lat": 13.0059948,
        "lon": 77.5858702
      },
      "tags": {
        "addr:place": "Palace Grounds",
        "amenity": "events_venue",
        "name": "Shringar Palace Garden"
      }
    },
    {
      "type": "way",
      "id": 1338260828,
      "center": {
        "lat": 13.0062941,
        "lon": 77.5851183
      },
      "tags": {
        "addr:place": "Palace Grounds",
        "amenity": "events_venue",
        "name": "Palace Sheesh Mahal"
      }
    },
    {
      "type": "way",
      "id": 1338260831,
      "center": {
        "lat": 13.007397,
        "lon": 77.5865362
      },
      "tags": {
        "addr:place": "Palace Grounds",
        "alt_name": "The Grand Castle",
        "amenity": "events_venue",
        "name": "The Royal Senate"
      }
    },
    {
      "type": "way",
      "id": 1338260832,
      "center": {
        "lat": 13.0075322,
        "lon": 77.5853999
      },
      "tags": {
        "addr:place": "Palace Grounds",
        "alt_name": "Nalapad Pavilion",
        "amenity": "events_venue",
        "name": "Kings Court"
      }
    },
    {
      "type": "way",
      "id": 1338260835,
      "center": {
        "lat": 13.0040743,
        "lon": 77.5852936
      },
      "tags": {
        "access": "private",
        "amenity": "parking",
        "parking": "surface"
      }
    },
    {
      "type": "way",
      "id": 1338260836,
      "center": {
        "lat": 13.0062527,
        "lon": 77.5844561
      },
      "tags": {
        "access": "private",
        "amenity": "parking",
        "parking": "surface"
      }
    },
    {
      "type": "way",
      "id": 1340207896,
      "center": {
        "lat": 12.9987506,
        "lon": 77.574245
      },
      "tags": {
        "amenity": "place_of_worship",
        "landuse": "religious",
        "name": "Dattatreya Temple",
        "name:kn": "ದತ್ತಾತ್ರೇಯ ದೇವಸ್ಥಾನ",
        "religion": "hindu"
      }
    },
    {
      "type": "way",
      "id": 1342699279,
      "center": {
        "lat": 12.9919346,
        "lon": 77.582268
      },
      "tags": {
        "access": "customers",
        "amenity": "parking",
        "parking": "street_side"
      }
    },
    {
      "type": "way",
      "id": 1342699280,
      "center": {
        "lat": 12.9922548,
        "lon": 77.5825197
      },
      "tags": {
        "access": "customers",
        "amenity": "parking",
        "parking": "street_side"
      }
    },
    {
      "type": "way",
      "id": 1342699282,
      "center": {
        "lat": 12.9924904,
        "lon": 77.5828096
      },
      "tags": {
        "access": "customers",
        "amenity": "parking",
        "parking": "street_side"
      }
    },
    {
      "type": "way",
      "id": 1342699292,
      "center": {
        "lat": 12.9923618,
        "lon": 77.5825112
      },
      "tags": {
        "leisure": "garden"
      }
    },
    {
      "type": "way",
      "id": 1342699293,
      "center": {
        "lat": 12.992018,
        "lon": 77.5824186
      },
      "tags": {
        "leisure": "garden"
      }
    },
    {
      "type": "way",
      "id": 1342998608,
      "center": {
        "lat": 12.9920403,
        "lon": 77.5814166
      },
      "tags": {
        "amenity": "shelter",
        "building": "roof",
        "shelter_type": "gazebo"
      }
    },
    {
      "type": "way",
      "id": 1342998611,
      "center": {
        "lat": 12.9929941,
        "lon": 77.5820388
      },
      "tags": {
        "access": "customers",
        "amenity": "parking",
        "parking": "street_side"
      }
    },
    {
      "type": "way",
      "id": 1415838696,
      "center": {
        "lat": 12.9991673,
        "lon": 77.5893736
      },
      "tags": {
        "amenity": "parking"
      }
    },
    {
      "type": "way",
      "id": 1415838697,
      "center": {
        "lat": 13.0010594,
        "lon": 77.5894062
      },
      "tags": {
        "amenity": "parking",
        "surface": "earth"
      }
    },
    {
      "type": "way",
      "id": 1415838699,
      "center": {
        "lat": 12.9996329,
        "lon": 77.5906701
      },
      "tags": {
        "amenity": "parking"
      }
    },
    {
      "type": "way",
      "id": 1415838700,
      "center": {
        "lat": 12.9995562,
        "lon": 77.5902137
      },
      "tags": {
        "amenity": "parking"
      }
    },
    {
      "type": "way",
      "id": 1441634659,
      "center": {
        "lat": 13.0047913,
        "lon": 77.5800992
      },
      "tags": {
        "leisure": "playground"
      }
    }
  ]
}