{
  "area_name": "S.G Palya",
  "osm_id": 19883464,
  "osm_type": "relation",
  "place_type": "administrative",
  "amenity_count": 121,
  "amenities": [
    {
      "type": "node",
      "id": 1346450614,
      "lat": 12.9354349,
      "lon": 77.6058672,
      "tags": {
        "amenity": "library",
        "name": "Christ University Library"
      }
    },
    {
      "type": "node",
      "id": 1466688325,
      "lat": 12.9301626,
      "lon": 77.6011209,
      "tags": {
        "addr:city": "Bangalore",
        "addr:housename": "Spar Hyper Market",
        "addr:housenumber": "39/3",
        "addr:postcode": "560029",
        "addr:street": "Bannerghatta Road",
        "branch": "Hypermarket",
        "brand": "Spar",
        "brand:wikidata": "Q610492",
        "name": "Spar",
        "phone": "(91)-80-41811600",
        "shop": "supermarket"
      }
    },
    {
      "type": "node",
      "id": 1466921785,
      "lat": 12.9335033,
      "lon": 77.606469,
      "tags": {
        "addr:city": "Bangalore",
        "addr:postcode": "560029",
        "amenity": "library",
        "name": "Christ University Library"
      }
    },
    {
      "type": "node",
      "id": 1469643991,
      "lat": 12.9352294,
      "lon": 77.6076048,
      "tags": {
        "amenity": "restaurant",
        "designation": "Kerala Style",
        "name": "Kairali Restaurant",
        "name:kn": "ಕೈರಾಲಿ ರೆಸ್ಟೊರೆಂಟ್"
      }
    },
    {
      "type": "node",
      "id": 1469644017,
      "lat": 12.9343755,
      "lon": 77.6090481,
      "tags": {
        "amenity": "restaurant",
        "cuisine": "italian",
        "name": "Little Italy",
        "name:kn": "ಲಿಟಲ್ ಇಟಲಿ"
      }
    },
    {
      "type": "node",
      "id": 1469644046,
      "lat": 12.935785,
      "lon": 77.6076261,
      "tags": {
        "addr:floor": "1",
        "amenity": "restaurant",
        "check_date": "2023-11-23",
        "indoor_seating": "yes",
        "level": "1",
        "name": "Karavali Fine Dine",
        "outdoor_seating": "no"
      }
    },
    {
      "type": "node",
      "id": 1473311719,
      "lat": 12.9279589,
      "lon": 77.6008251,
      "tags": {
        "name": "Popular Bajaj",
        "shop": "motorcycle"
      }
    },
    {
      "type": "node",
      "id": 1473314929,
      "lat": 12.9277289,
      "lon": 77.6007983,
      "tags": {
        "name": "Popular Motor Corporation, Bajaj RE Commercial vehicle sales",
        "shop": "car"
      }
    },
    {
      "type": "node",
      "id": 1473315750,
      "lat": 12.9271381,
      "lon": 77.6006588,
      "tags": {
        "name": "Mahindra 2 Wheelers",
        "shop": "motorcycle"
      }
    },
    {
      "type": "node",
      "id": 1474432222,
      "lat": 12.9345952,
      "lon": 77.6094985,
      "tags": {
        "amenity": "bar",
        "name": "Manchester United"
      }
    },
    {
      "type": "node",
      "id": 1474432226,
      "lat": 12.930861,
      "lon": 77.6069707,
      "tags": {
        "addr:street": "Christ School Road",
        "amenity": "dentist",
        "name": "Tooth N Care"
      }
    },
    {
      "type": "node",
      "id": 1474432228,
      "lat": 12.9316137,
      "lon": 77.6072662,
      "tags": {
        "addr:street": "8th Cross",
        "name": "Bakery",
        "shop": "bakery"
      }
    },
    {
      "type": "node",
      "id": 1474458358,
      "lat": 12.9351929,
      "lon": 77.6086817,
      "tags": {
        "amenity": "hospital",
        "healthcare": "hospital",
        "name": "Prasad Eye Hospital"
      }
    },
    {
      "type": "node",
      "id": 2322770073,
      "lat": 12.934646,
      "lon": 77.6067313,
      "tags": {
        "amenity": "food_court",
        "name": "Christ University Food Court"
      }
    },
    {
      "type": "node",
      "id": 2941500439,
      "lat": 12.9338837,
      "lon": 77.6072471,
      "tags": {
        "addr:street": "Christ School Road",
        "amenity": "fast_food",
        "cuisine": "chinese",
        "name": "Hot n Cool"
      }
    },
    {
      "type": "node",
      "id": 3221387165,
      "lat": 12.9298056,
      "lon": 77.6008877,
      "tags": {
        "brand": "Hyundai",
        "brand:wikidata": "Q55931",
        "name": "Advaith Hyundai",
        "name:kn": "ಅದ್ವೈತ ಹ್ಯುಂಡೈ",
        "shop": "car"
      }
    },
    {
      "type": "node",
      "id": 3391135052,
      "lat": 12.9280697,
      "lon": 77.6007661,
      "tags": {
        "name": "all car service",
        "shop": "mechanic"
      }
    },
    {
      "type": "node",
      "id": 3400223630,
      "lat": 12.9296663,
      "lon": 77.6009087,
      "tags": {
        "amenity": "kindergarten",
        "name": "Your kids r our kids"
      }
    },
    {
      "type": "node",
      "id": 3417176625,
      "lat": 12.9311572,
      "lon": 77.6070088,
      "tags": {
        "addr:street": "Christ School Road",
        "amenity": "fast_food",
        "cuisine": "indian",
        "name": "Ande Ka Funda"
      }
    },
    {
      "type": "node",
      "id": 3520665041,
      "lat": 12.935925,
      "lon": 77.6061828,
      "tags": {
        "amenity": "bank",
        "atm": "yes",
        "brand": "South Indian Bank",
        "brand:wikidata": "Q2044973",
        "name": "South Indian Bank"
      }
    },
    {
      "type": "node",
      "id": 3702210813,
      "lat": 12.9311314,
      "lon": 77.6007942,
      "tags": {
        "amenity": "restaurant",
        "cuisine": "Multi-cuisne",
        "name": "Seashell Savoury",
        "note": "Halal Restaurant"
      }
    },
    {
      "type": "node",
      "id": 4117092201,
      "lat": 12.9310409,
      "lon": 77.6081159,
      "tags": {
        "amenity": "restaurant",
        "cuisine": "indian",
        "name": "Jose Mess",
        "source": "gps"
      }
    },
    {
      "type": "node",
      "id": 4448107135,
      "lat": 12.927672,
      "lon": 77.6012024,
      "tags": {
        "addr:city": "Bangalore",
        "addr:housenumber": "26/10",
        "addr:postcode": "560029",
        "addr:street": "Mosque Road, Bismillanagar, BTM Layout 1st Stage",
        "amenity": "clinic",
        "healthcare": "clinic",
        "name": "Kubra Maternity And Nursing Home",
        "phone": "080 2678 2728",
        "source": "http://www.justdial.com/Bangalore/"
      }
    },
    {
      "type": "node",
      "id": 4488383692,
      "lat": 12.9349788,
      "lon": 77.6081457,
      "tags": {
        "addr:city": "Bangalore",
        "addr:housenumber": "No.39",
        "addr:postcode": "560029",
        "addr:street": "Ground Floor Krishna Nagar Industrial Layout, Dharmaram College Post Hosur Road, Koramangala, Venkateshwara Layout, Suddagunte Palya",
        "leisure": "sports_centre",
        "name": "360° workout",
        "opening_hours": "6:00-22:00",
        "phone": "8040992414",
        "sport": "gymnastics",
        "website": "360workout.in"
      }
    },
    {
      "type": "node",
      "id": 4490259040,
      "lat": 12.9350103,
      "lon": 77.6089671,
      "tags": {
        "addr:city": "Bangalore",
        "addr:housenumber": "9",
        "addr:street": "No. 5, 2nd floor, Krishna Nagar, Hosur Road, Above Royal Enfield Showroom, Bangalore, India, Venkateshwara Layout, Suddagunte Palya",
        "leisure": "sports_centre",
        "name": "Fuerza - The Fitness Squad",
        "opening_hours": "5:30-22:30",
        "phone": "9916983338",
        "sport": "gymnasium",
        "website": "fuerza.co.in"
      }
    },
    {
      "type": "node",
      "id": 4733642622,
      "lat": 12.9356426,
      "lon": 77.6087092,
      "tags": {
        "addr:housenumber": "8",
        "addr:postcode": "560029",
        "addr:street": "Hosur Road",
        "amenity": "cafe",
        "cuisine": "italian_pizza",
        "email": "destreetcafe@mail.com",
        "name": "De Street Cafe",
        "name:en": "De Street Cafe",
        "opening_hours": "24/7"
      }
    },
    {
      "type": "node",
      "id": 4849094826,
      "lat": 12.935018,
      "lon": 77.6088654,
      "tags": {
        "amenity": "restaurant",
        "name": "Punjabi by Nature",
        "name:en": "Punjabi by Nature"
      }
    },
    {
      "type": "node",
      "id": 4849108025,
      "lat": 12.9361427,
      "lon": 77.6070292,
      "tags": {
        "name": "Kanpur shoe mela",
        "name:en": "Kanpur shoe mela",
        "shop": "shoes"
      }
    },
    {
      "type": "node",
      "id": 4849108622,
      "lat": 12.9345853,
      "lon": 77.6095622,
      "tags": {
        "check_date": "2023-11-23",
        "name": "Nexa",
        "name:en": "NEXA",
        "shop": "car"
      }
    },
    {
      "type": "node",
      "id": 4851635493,
      "lat": 12.9348245,
      "lon": 77.6092786,
      "tags": {
        "brand": "Kohler",
        "brand:wikidata": "Q6426036",
        "name": "Kohler",
        "shop": "bathroom_furnishing"
      }
    },
    {
      "type": "node",
      "id": 4851635494,
      "lat": 12.9349422,
      "lon": 77.6091848,
      "tags": {
        "name": "Kajoria",
        "shop": "yes"
      }
    },
    {
      "type": "node",
      "id": 4851635497,
      "lat": 12.9347845,
      "lon": 77.60897,
      "tags": {
        "name": "@home",
        "shop": "furniture"
      }
    },
    {
      "type": "node",
      "id": 5597795472,
      "lat": 12.9353554,
      "lon": 77.6075043,
      "tags": {
        "amenity": "fast_food",
        "name": "Just Shawarma",
        "smoking": "separated",
        "takeaway": "yes"
      }
    },
    {
      "type": "node",
      "id": 5915195078,
      "lat": 12.9350324,
      "lon": 77.6089973,
      "tags": {
        "amenity": "pub",
        "contact:instagram": "theweekly.blr",
        "name": "The Weekly - Brewhouse & Kitchen"
      }
    },
    {
      "type": "node",
      "id": 5915195079,
      "lat": 12.9358056,
      "lon": 77.6084211,
      "tags": {
        "amenity": "pub",
        "name": "Avon Bar And Kitchen"
      }
    },
    {
      "type": "node",
      "id": 5983478262,
      "lat": 12.9374106,
      "lon": 77.6027513,
      "tags": {
        "alt_name": "BAMUL",
        "name": "Bangalore Dairy",
        "name:kn": "ಬೆಂಗಳೂರು ಡೈರಿ",
        "shop": "dairy"
      }
    },
    {
      "type": "node",
      "id": 6140714666,
      "lat": 12.9353589,
      "lon": 77.6083993,
      "tags": {
        "amenity": "fast_food",
        "brand": "Domino's",
        "brand:ks": "ڈومینوز",
        "brand:pa": "ਡੋਮੀਨੋਜ਼",
        "brand:ur": "ڈومینوز",
        "brand:wikidata": "Q839466",
        "brand:wikipedia": "en:Domino's Pizza",
        "check_date": "2023-11-23",
        "cuisine": "pizza",
        "name": "Domino's",
        "name:kn": "ಡಾಮಿನೋಸ್",
        "name:ks": "ڈومینوز",
        "name:pa": "ਡੋਮੀਨੋਜ਼",
        "name:ur": "ڈومینوز",
        "takeaway": "yes"
      }
    },
    {
      "type": "node",
      "id": 6348906937,
      "lat": 12.9386863,
      "lon": 77.6072286,
      "tags": {
        "addr:place": "Dairy Colony",
        "amenity": "school",
        "isced:level": "2",
        "name": "GHPS Dairy Colony",
        "name:kn": "ಸರ್ಕಾರಿ ಹಿರಿಯ ಪ್ರಾಥಮಿಕ ಶಾಲೆ ಡೈರಿ ಕಾಲೋನಿ",
        "operator": "Department of Education",
        "school": "primary"
      }
    },
    {
      "type": "node",
      "id": 6536715418,
      "lat": 12.9392239,
      "lon": 77.6018416,
      "tags": {
        "addr:place": "Lakkasandra",
        "amenity": "school",
        "isced:level": "1",
        "name": "LPS Girls S R Nagar, Lakkasandra",
        "name:kn": "ಬಾಲಕಿಯರ ಕಿರಿಯ ಪ್ರಾಥಮಿಕ ಶಾಲೆ ಎಸ್.ಆರ್. ನಗರ, ಲಕ್ಕಸಂದ್ರ",
        "operator": "Department of Education",
        "school": "primary"
      }
    },
    {
      "type": "node",
      "id": 6536731028,
      "lat": 12.9299028,
      "lon": 77.6071901,
      "tags": {
        "addr:place": "Lakkasandra",
        "amenity": "school",
        "isced:level": "3",
        "name": "Genises Public School, Lakkasandra",
        "name:kn": "ಜೆನೆಸಿಸ್ ಪಬ್ಲಿಕ್ ಶಾಲೆ, ಲಕ್ಕಸಂದ್ರ",
        "operator": "Pvt. Unaided",
        "school": "Higher Secondary"
      }
    },
    {
      "type": "node",
      "id": 6944525392,
      "lat": 12.9356703,
      "lon": 77.6079905,
      "tags": {
        "addr:district": "Bengaluru Urban",
        "addr:full": "#11, Krishna Nagar Industrial Layout, D.R.C.Post,Near Christ College,Hosur",
        "addr:postcode": "560029",
        "addr:state": "Karnataka",
        "amenity": "hospital",
        "name": "Prasad Eye Hospital, Bengaluru Urban",
        "source": "OpenGovernmentData"
      }
    },
    {
      "type": "node",
      "id": 7528043660,
      "lat": 12.9378179,
      "lon": 77.6028948,
      "tags": {
        "amenity": "bank",
        "brand": "Canara Bank",
        "brand:en": "Canara Bank",
        "brand:hi": "केनरा बैंक",
        "brand:kn": "ಕೆನರಾ ಬ್ಯಾಂಕ್",
        "brand:pa": "ਕੇਨਰਾ ਬੈਂਕ",
        "brand:pnb": "کینرا بینک",
        "brand:ur": "کینرا بینک",
        "brand:wikidata": "Q2003777",
        "brand:wikipedia": "en:Canara Bank",
        "brand:wikipedia:pa": "ਕੇਨਰਾ ਬੈਂਕ",
        "name": "Canara Bank",
        "name:en": "Canara Bank",
        "name:hi": "केनरा बैंक",
        "name:kn": "ಕೆನರಾ ಬ್ಯಾಂಕ್",
        "name:pa": "ਕੇਨਰਾ ਬੈਂਕ",
        "name:pnb": "کینرا بینک",
        "name:ur": "کینرا بینک"
      }
    },
    {
      "type": "node",
      "id": 7528043661,
      "lat": 12.9377512,
      "lon": 77.6029632,
      "tags": {
        "name": "Bangalore Dairy",
        "name:kn": "ಬೆಂಗಳೂರು ಡೈರಿ",
        "shop": "dairy"
      }
    },
    {
      "type": "node",
      "id": 7528043666,
      "lat": 12.9388497,
      "lon": 77.6020928,
      "tags": {
        "amenity": "atm",
        "operator": "HDFC BANK ATM"
      }
    },
    {
      "type": "node",
      "id": 7528043668,
      "lat": 12.9393882,
      "lon": 77.6020445,
      "tags": {
        "name": "JS Sai Flora",
        "shop": "florist"
      }
    },
    {
      "type": "node",
      "id": 7528043670,
      "lat": 12.9338933,
      "lon": 77.6059367,
      "tags": {
        "leisure": "pitch",
        "name": "Gourmet Basketball Court",
        "sport": "basketball"
      }
    },
    {
      "type": "node",
      "id": 7528043683,
      "lat": 12.9288228,
      "lon": 77.6074009,
      "tags": {
        "name": "Arbiya Fashion Jewellery",
        "shop": "jewelry"
      }
    },
    {
      "type": "node",
      "id": 7528068987,
      "lat": 12.928049,
      "lon": 77.60724,
      "tags": {
        "amenity": "fast_food",
        "cuisine": "juice",
        "name": "DREAM JUICE"
      }
    },
    {
      "type": "node",
      "id": 7528068989,
      "lat": 12.9282084,
      "lon": 77.6066821,
      "tags": {
        "amenity": "ice_cream",
        "name": "BOMBAY KULFS"
      }
    },
    {
      "type": "node",
      "id": 7528068991,
      "lat": 12.9277065,
      "lon": 77.6063548,
      "tags": {
        "name": "New Badar Bakery",
        "shop": "bakery"
      }
    },
    {
      "type": "node",
      "id": 7528068992,
      "lat": 12.9281771,
      "lon": 77.6063602,
      "tags": {
        "name": "Anna Tea Shop",
        "shop": "tea"
      }
    },
    {
      "type": "node",
      "id": 7528068995,
      "lat": 12.9281352,
      "lon": 77.6052337,
      "tags": {
        "amenity": "place_of_worship",
        "name": "Vicariate House Precious Blood"
      }
    },
    {
      "type": "node",
      "id": 7528068996,
      "lat": 12.9282921,
      "lon": 77.605239,
      "tags": {
        "amenity": "atm",
        "operator": "AXIS BANK ATM"
      }
    },
    {
      "type": "node",
      "id": 7528068999,
      "lat": 12.92805,
      "lon": 77.6046838,
      "tags": {
        "amenity": "place_of_worship",
        "name": "Shiva Temple",
        "religion": "hindu"
      }
    },
    {
      "type": "node",
      "id": 7528069001,
      "lat": 12.934076,
      "lon": 77.6056306,
      "tags": {
        "amenity": "restaurant",
        "name": "Just Bake",
        "name:kn": "ಜಸ್ಟ್ ಬೇಕ್"
      }
    },
    {
      "type": "node",
      "id": 7528069002,
      "lat": 12.9337727,
      "lon": 77.6047348,
      "tags": {
        "amenity": "restaurant",
        "name": "Raja Rajeswari Hotel"
      }
    },
    {
      "type": "node",
      "id": 8558793017,
      "lat": 12.9391738,
      "lon": 77.6019857,
      "tags": {
        "addr:postcode": "560030",
        "addr:street": "6th cross , SR Nagar , Dairy Circle, Bannerghatta Road, Bangalore",
        "amenity": "place_of_worship",
        "name": "Majid e khudadad"
      }
    },
    {
      "type": "node",
      "id": 8559623217,
      "lat": 12.9375595,
      "lon": 77.6022357,
      "tags": {
        "addr:postcode": "560030",
        "addr:street": "Dairy Circle Flyover",
        "name": "Dairy Milk Parlor",
        "shop": "beverages"
      }
    },
    {
      "type": "node",
      "id": 10009959427,
      "lat": 12.925489,
      "lon": 77.6050963,
      "tags": {
        "changing_table": "no",
        "name": "TestApp",
        "shop": "electronics",
        "toilets:access": "yes",
        "toilets:wheelchair": "no",
        "wheelchair": "no"
      }
    },
    {
      "type": "node",
      "id": 10895986054,
      "lat": 12.9340175,
      "lon": 77.6073173,
      "tags": {
        "access": "yes",
        "amenity": "toilets",
        "fee": "yes",
        "operator": "ಬೃಹತ್ ಬೆಂಗಳೂರು ಮಹಾನಗರ ಪಾಲಿಕೆ",
        "operator:en": "Bruhat Bengaluru Mahanagara Palike",
        "operator:ka": "ಬೃಹತ್ ಬೆಂಗಳೂರು ಮಹಾನಗರ ಪಾಲಿಕೆ",
        "operator:short": "BBMP",
        "operator:wikidata": "Q4978693"
      }
    },
    {
      "type": "node",
      "id": 10895986055,
      "lat": 12.9357474,
      "lon": 77.6078135,
      "tags": {
        "name": "Tea Fusion",
        "shop": "tea"
      }
    },
    {
      "type": "node",
      "id": 11371245252,
      "lat": 12.9349058,
      "lon": 77.609149,
      "tags": {
        "amenity": "bank",
        "brand": "Axis Bank",
        "brand:wikidata": "Q2003549",
        "check_date": "2023-11-23",
        "name": "Axis Bank"
      }
    },
    {
      "type": "node",
      "id": 11371245253,
      "lat": 12.9352891,
      "lon": 77.6085432,
      "tags": {
        "amenity": "fast_food",
        "brand": "Subway",
        "brand:wikidata": "Q244457",
        "check_date": "2023-11-23",
        "cuisine": "sandwich",
        "name": "Subway",
        "takeaway": "yes"
      }
    },
    {
      "type": "node",
      "id": 11371245254,
      "lat": 12.9357653,
      "lon": 77.6076728,
      "tags": {
        "check_date": "2023-11-23",
        "name": "Mahindra",
        "shop": "car"
      }
    },
    {
      "type": "node",
      "id": 11503032066,
      "lat": 12.9351187,
      "lon": 77.6088557,
      "tags": {
        "amenity": "pub",
        "check_date": "2024-01-09",
        "name": "The Weekly Brewhouse and Kitchen"
      }
    },
    {
      "type": "node",
      "id": 11542817233,
      "lat": 12.9365027,
      "lon": 77.6070849,
      "tags": {
        "amenity": "fast_food",
        "brand": "Indira Canteen",
        "brand:wikidata": "Q36164828",
        "cuisine": "south_indian",
        "name": "Indira Canteen",
        "operator": "BBMP",
        "takeaway": "yes"
      }
    },
    {
      "type": "node",
      "id": 11542817290,
      "lat": 12.9362684,
      "lon": 77.6076884,
      "tags": {
        "amenity": "charging_station",
        "fee": "yes",
        "motorcar": "yes",
        "motorcycle": "yes"
      }
    },
    {
      "type": "node",
      "id": 12285338810,
      "lat": 12.9355353,
      "lon": 77.6082518,
      "tags": {
        "amenity": "fast_food",
        "brand": "Domino's",
        "brand:wikidata": "Q839466",
        "check_date": "2024-10-23",
        "cuisine": "pizza",
        "name": "Domino's",
        "takeaway": "yes"
      }
    },
    {
      "type": "node",
      "id": 12717562301,
      "lat": 12.9266801,
      "lon": 77.6088941,
      "tags": {
        "addr:street": "Tavarekere Main Road",
        "name": "The Green Fruits",
        "shop": "grocery"
      }
    },
    {
      "type": "node",
      "id": 13103315636,
      "lat": 12.9308506,
      "lon": 77.6065375,
      "tags": {
        "amenity": "cafe",
        "cuisine": "coffee_shop;tea;indian",
        "name": "Malabar Cafe"
      }
    },
    {
      "type": "way",
      "id": 38774082,
      "center": {
        "lat": 12.9337333,
        "lon": 77.6051298
      },
      "tags": {
        "amenity": "university",
        "name": "Christ University",
        "name:kn": "ಕ್ರಿಸ್ತ ವಿಶ್ವವಿದ್ಯಾಲಯ",
        "name:ta": "கிறிஸ்ட் பல்கலைக்கழகம்",
        "old_name": "Christ College",
        "start_date": "1969",
        "website": "https://christuniversity.in/",
        "wikidata": "Q5108941",
        "wikipedia": "en:Christ University"
      }
    },
    {
      "type": "way",
      "id": 131608822,
      "center": {
        "lat": 12.9313367,
        "lon": 77.6028731
      },
      "tags": {
        "addr:city": "Bangalore",
        "addr:housenumber": "St. Thomas Parish Hall",
        "addr:postcode": "560029",
        "addr:street": "Christ School Road, SaddaguntePalya, Dairy Circle",
        "amenity": "community_centre",
        "building": "yes",
        "name": "St. Thomas Parish Hall",
        "name:kn": "ಸೇಂಟ್ ತೋಮಸ್ ಭವನ"
      }
    },
    {
      "type": "way",
      "id": 131608823,
      "center": {
        "lat": 12.9313556,
        "lon": 77.6020313
      },
      "tags": {
        "amenity": "community_centre",
        "building": "yes",
        "name": "Chandrodaya",
        "name:kn": "ಚಂದ್ರೋದಯ"
      }
    },
    {
      "type": "way",
      "id": 131608824,
      "center": {
        "lat": 12.9314529,
        "lon": 77.6017526
      },
      "tags": {
        "addr:city": "Bengaluru",
        "addr:housenumber": "39",
        "addr:postcode": "560029",
        "addr:street": "Bannerghatta Rd, Bhavani Nagar, Hombegowda Nagar",
        "alt_name": "Chandrodaya Convention Center",
        "amenity": "community_centre",
        "building": "yes",
        "name": "Chandrodaya",
        "name:kn": "ಅರುಣೋದಯ"
      }
    },
    {
      "type": "way",
      "id": 131610643,
      "center": {
        "lat": 12.9318533,
        "lon": 77.6017138
      },
      "tags": {
        "amenity": "office",
        "building": "office",
        "name": "Adobe India",
        "name:kn": "ಅಡೋಬಿ ಇಂಡ್ಯ"
      }
    },
    {
      "type": "way",
      "id": 131610644,
      "center": {
        "lat": 12.9286346,
        "lon": 77.6025375
      },
      "tags": {
        "leisure": "park",
        "name": "BBMP Thavarkere Park",
        "name:kn": "ತಾವರೆಕೆರೆ ಉದ್ಯಾನವನ",
        "operator": "ಬೃಹತ್ ಬೆಂಗಳೂರು ಮಹಾನಗರ ಪಾಲಿಕೆ",
        "operator:en": "Bruhat Bengaluru Mahanagara Palike",
        "operator:ka": "ಬೃಹತ್ ಬೆಂಗಳೂರು ಮಹಾನಗರ ಪಾಲಿಕೆ",
        "operator:short": "BBMP",
        "operator:type": "government",
        "operator:wikidata": "Q4978693"
      }
    },
    {
      "type": "way",
      "id": 133256306,
      "center": {
        "lat": 12.9301392,
        "lon": 77.6012683
      },
      "tags": {
        "addr:city": "Bangalore",
        "addr:housename": "39/3 &44 SR Krishnappa Garden",
        "addr:housenumber": "Hombegowda Nagar",
        "addr:postcode": "560029",
        "addr:street": "Bannerghatta Road",
        "brand": "Spar",
        "brand:wikidata": "Q610492",
        "building": "yes",
        "landuse": "commercial",
        "layer": "-1",
        "name": "Spar",
        "name:kn": "ಸ್ಪಾರ್",
        "organic": "yes",
        "shop": "supermarket",
        "website": "https://www.sparindia.com/"
      }
    },
    {
      "type": "way",
      "id": 133524186,
      "center": {
        "lat": 12.935516,
        "lon": 77.6070148
      },
      "tags": {
        "amenity": "college",
        "name": "Ghousia Polytechnic",
        "name:kn": "ಘೌಸಿಯ ಪಾಲಿಟೆಕ್ನಿಕ್"
      }
    },
    {
      "type": "way",
      "id": 133524191,
      "center": {
        "lat": 12.9313292,
        "lon": 77.6021955
      },
      "tags": {
        "amenity": "community_centre",
        "building": "yes",
        "name": "Suryodhaya",
        "name:kn": "ಸುರ್ಯೋದಯ"
      }
    },
    {
      "type": "way",
      "id": 134042991,
      "center": {
        "lat": 12.9252285,
        "lon": 77.6076159
      },
      "tags": {
        "amenity": "cinema",
        "name": "Lakshmi Theatre",
        "name:kn": "ಲಕ್ಷ್ಮೀ"
      }
    },
    {
      "type": "way",
      "id": 157837663,
      "center": {
        "lat": 12.9326684,
        "lon": 77.6049886
      },
      "tags": {
        "addr:city": "Bangalore",
        "addr:postcode": "560029",
        "addr:street": "Dharmaram Vidya Kshetram, Dairy Circle,Dharmarm College PO, Bangalore 560029, Hosur Rd, DVK Rd, Bhavani Nagar, S.G. Palya",
        "amenity": "library",
        "building": "yes",
        "name": "DVK Central Library"
      }
    },
    {
      "type": "way",
      "id": 157837709,
      "center": {
        "lat": 12.9357357,
        "lon": 77.6051611
      },
      "tags": {
        "leisure": "pitch",
        "sport": "soccer"
      }
    },
    {
      "type": "way",
      "id": 197122158,
      "center": {
        "lat": 12.9315321,
        "lon": 77.6053257
      },
      "tags": {
        "amenity": "cafe",
        "building": "yes",
        "name": "Cafeteria"
      }
    },
    {
      "type": "way",
      "id": 197122161,
      "center": {
        "lat": 12.9338255,
        "lon": 77.6042365
      },
      "tags": {
        "amenity": "parking"
      }
    },
    {
      "type": "way",
      "id": 313394090,
      "center": {
        "lat": 12.9366745,
        "lon": 77.6070683
      },
      "tags": {
        "building": "yes",
        "name": "Nandini Dream World",
        "shop": "dairy"
      }
    },
    {
      "type": "way",
      "id": 345363762,
      "center": {
        "lat": 12.9331522,
        "lon": 77.6057992
      },
      "tags": {
        "leisure": "pitch",
        "sport": "soccer"
      }
    },
    {
      "type": "way",
      "id": 345363764,
      "center": {
        "lat": 12.9346675,
        "lon": 77.6063589
      },
      "tags": {
        "leisure": "pitch",
        "sport": "basketball"
      }
    },
    {
      "type": "way",
      "id": 347482780,
      "center": {
        "lat": 12.9307596,
        "lon": 77.6030109
      },
      "tags": {
        "amenity": "restaurant",
        "building": "yes",
        "building:levels": "1",
        "name": "Hotel delight"
      }
    },
    {
      "type": "way",
      "id": 347482919,
      "center": {
        "lat": 12.9295624,
        "lon": 77.6031531
      },
      "tags": {
        "addr:city": "Bengaluru",
        "addr:street": "Christ School Road",
        "amenity": "cafe",
        "building": "yes",
        "cuisine": "regional;teax-mex",
        "internet_access": "wlan",
        "name": "juice magic"
      }
    },
    {
      "type": "way",
      "id": 347484379,
      "center": {
        "lat": 12.9310555,
        "lon": 77.600919
      },
      "tags": {
        "addr:city": "Bangalore",
        "addr:housenumber": "#10, Bhavani Layout",
        "addr:postcode": "560029",
        "addr:street": "Bannerghatta Road",
        "amenity": "cafe",
        "building": "commercial",
        "cuisine": "international",
        "internet_access": "yes",
        "name": "Savoury - Sea Shell Restaurant",
        "opening_hours": "24/7",
        "smoking": "isolated"
      }
    },
    {
      "type": "way",
      "id": 514073933,
      "center": {
        "lat": 12.9312257,
        "lon": 77.6040464
      },
      "tags": {
        "addr:place": "Suddagunte Palya",
        "alt_name": "Christha Vidyalaya Suddagunte Palya",
        "amenity": "school",
        "isced:level": "2",
        "name": "Christ School CBSE",
        "name:kn": "ಕ್ರಿಸ್ತ ವಿದ್ಯಾಲಯ ಸುದ್ದಗುಂಟೆ ಪಾಳ್ಯ",
        "operator": "Department of Education",
        "school": "primary",
        "wheelchair": "no"
      }
    },
    {
      "type": "way",
      "id": 514073938,
      "center": {
        "lat": 12.9313293,
        "lon": 77.6033131
      },
      "tags": {
        "amenity": "place_of_worship",
        "building": "church",
        "name": "St. Thomas Forane Church",
        "name:kn": "ಸೇಂಟ್ ಥೋಮಸ್ ಚರ್ಚ್",
        "religion": "christian"
      }
    },
    {
      "type": "way",
      "id": 585820761,
      "center": {
        "lat": 12.9325791,
        "lon": 77.6018233
      },
      "tags": {
        "leisure": "park",
        "name": "IBC Evacuation area park"
      }
    },
    {
      "type": "way",
      "id": 673933811,
      "center": {
        "lat": 12.9363133,
        "lon": 77.6029198
      },
      "tags": {
        "amenity": "place_of_worship",
        "building": "church",
        "denomination": "catholic",
        "name": "Dharmaram Church",
        "religion": "christian"
      }
    },
    {
      "type": "way",
      "id": 1148279217,
      "center": {
        "lat": 12.9328248,
        "lon": 77.6063946
      },
      "tags": {
        "leisure": "garden"
      }
    },
    {
      "type": "way",
      "id": 1148279219,
      "center": {
        "lat": 12.9321536,
        "lon": 77.6063926
      },
      "tags": {
        "leisure": "garden"
      }
    },
    {
      "type": "way",
      "id": 1172708184,
      "center": {
        "lat": 12.9360393,
        "lon": 77.6068497
      },
      "tags": {
        "addr:city": "Bengaluru",
        "addr:postcode": "560029",
        "addr:street": "Hosur Main Road, Bhavani Nagar, S.G. Palya",
        "amenity": "place_of_worship",
        "landuse": "religious",
        "name": "Shri Gundlu Muneshwara Swamy Devasthana",
        "name:kn": "ಶ್ರೀ ಗುಂಡ್ಲು ಮುನೇಶ್ವರ ಸ್ವಾಮಿ ದೇವಾಲಯ",
        "religion": "hindu",
        "wheelchair": "no"
      }
    },
    {
      "type": "way",
      "id": 1242193135,
      "center": {
        "lat": 12.9276043,
        "lon": 77.6060605
      },
      "tags": {
        "amenity": "monastery",
        "name": "Assisi Bhavan",
        "religion": "christian"
      }
    },
    {
      "type": "way",
      "id": 1242193137,
      "center": {
        "lat": 12.9277218,
        "lon": 77.6052339
      },
      "tags": {
        "alt_name": "St. Camillus Study House",
        "amenity": "monastery",
        "name": "Upasana",
        "religion": "christian"
      }
    },
    {
      "type": "way",
      "id": 1242193138,
      "center": {
        "lat": 12.9309587,
        "lon": 77.6040416
      },
      "tags": {
        "leisure": "pitch",
        "sport": "basketball"
      }
    },
    {
      "type": "way",
      "id": 1242193141,
      "center": {
        "lat": 12.9284937,
        "lon": 77.6070364
      },
      "tags": {
        "addr:place": "Lakkasandra",
        "amenity": "school",
        "isced:level": "3",
        "name": "Christ School S G Palya, Lakkasandra",
        "name:kn": "ಕ್ರೈಸ್ಟ್ ಶಾಲೆ,ಎಸ್ ಜಿ ಪಲ್ಯ, ಲಕ್ಕಸಂದ್ರ",
        "operator": "Private Un-Aided",
        "school": "Higher Secondary"
      }
    },
    {
      "type": "way",
      "id": 1242193142,
      "center": {
        "lat": 12.9300972,
        "lon": 77.6061825
      },
      "tags": {
        "amenity": "monastery",
        "denomination": "catholic",
        "landuse": "religious",
        "name": "Alphonsa Bhavan",
        "religion": "christian"
      }
    },
    {
      "type": "way",
      "id": 1242193146,
      "center": {
        "lat": 12.9286636,
        "lon": 77.6048038
      },
      "tags": {
        "amenity": "school",
        "name": "Christ Special School"
      }
    },
    {
      "type": "way",
      "id": 1242193149,
      "center": {
        "lat": 12.9289837,
        "lon": 77.6055212
      },
      "tags": {
        "addr:suburb": "Lakkasandra",
        "alt_name": "Christha Vidyalaya HS, Lakkasandra",
        "amenity": "school",
        "isced:level": "3",
        "name": "Christ School ICSE",
        "name:kn": "ಕ್ರಿಸ್ತ ವಿದ್ಯಾಲಯ ಪ್ರೌಢಶಾಲೆ, ಲಕ್ಕಸಂದ್ರ",
        "operator": "Pvt. Unaided",
        "school": "Higher Secondary"
      }
    },
    {
      "type": "way",
      "id": 1242193155,
      "center": {
        "lat": 12.935714,
        "lon": 77.6026979
      },
      "tags": {
        "alt_name": "Dharmaram College",
        "amenity": "university",
        "name": "Dharmaram Vidya Kshetra",
        "name:kn": "ಧರ್ಮಾರಂ ವಿದ್ಯಾಕ್ಷೇತ್ರ",
        "wikidata": "Q5269317",
        "wikipedia": "en:Dharmaram College"
      }
    },
    {
      "type": "way",
      "id": 1242193156,
      "center": {
        "lat": 12.9359302,
        "lon": 77.6046626
      },
      "tags": {
        "leisure": "pitch",
        "sport": "basketball"
      }
    },
    {
      "type": "way",
      "id": 1242193157,
      "center": {
        "lat": 12.9356057,
        "lon": 77.6045994
      },
      "tags": {
        "leisure": "pitch",
        "sport": "basketball"
      }
    },
    {
      "type": "way",
      "id": 1242193158,
      "center": {
        "lat": 12.9354541,
        "lon": 77.6043675
      },
      "tags": {
        "leisure": "pitch",
        "sport": "basketball"
      }
    },
    {
      "type": "way",
      "id": 1242193159,
      "center": {
        "lat": 12.9357197,
        "lon": 77.6044212
      },
      "tags": {
        "leisure": "pitch",
        "sport": "basketball"
      }
    },
    {
      "type": "way",
      "id": 1242193160,
      "center": {
        "lat": 12.9359798,
        "lon": 77.6044711
      },
      "tags": {
        "leisure": "pitch",
        "sport": "basketball"
      }
    },
    {
      "type": "way",
      "id": 1242203390,
      "center": {
        "lat": 12.9286828,
        "lon": 77.6018722
      },
      "tags": {
        "leisure": "playground"
      }
    },
    {
      "type": "way",
      "id": 1274548654,
      "center": {
        "lat": 12.9268126,
        "lon": 77.600711
      },
      "tags": {
        "amenity": "fuel",
        "name": "Go Gas",
        "name:en": "Go Gas"
      }
    },
    {
      "type": "way",
      "id": 1274548724,
      "center": {
        "lat": 12.9255943,
        "lon": 77.6077662
      },
      "tags": {
        "amenity": "cinema",
        "name": "Balaji Theatre",
        "name:kn": "ಬಾಲಾಜಿ"
      }
    },
    {
      "type": "way",
      "id": 1297328833,
      "center": {
        "lat": 12.9375847,
        "lon": 77.6026608
      },
      "tags": {
        "access": "permissive",
        "amenity": "parking",
        "parking": "surface"
      }
    },
    {
      "type": "way",
      "id": 1297328834,
      "center": {
        "lat": 12.9377858,
        "lon": 77.6054398
      },
      "tags": {
        "access": "permissive",
        "amenity": "parking",
        "parking": "surface"
      }
    },
    {
      "type": "way",
      "id": 1297328835,
      "center": {
        "lat": 12.937746,
        "lon": 77.6059707
      },
      "tags": {
        "access": "permissive",
        "amenity": "parking",
        "parking": "surface"
      }
    },
    {
      "type": "way",
      "id": 1297328836,
      "center": {
        "lat": 12.9368065,
        "lon": 77.6054216
      },
      "tags": {
        "access": "permissive",
        "amenity": "parking",
        "parking": "surface"
      }
    },
    {
      "type": "way",
      "id": 1354228613,
      "center": {
        "lat": 12.9284892,
        "lon": 77.6008072
      },
      "tags": {
        "addr:street": "Bannerghatta Road",
        "amenity": "fuel",
        "brand": "Indian Oil",
        "brand:wikidata": "Q1289348",
        "brand:wikipedia": "en:Indian Oil Corporation",
        "name": "Indian Oil Petrol Bunk",
        "name:kn": "ಇಂಡಿಯನ್ ಆಯಿಲ್",
        "operator": "Indian Oil"
      }
    },
    {
      "type": "way",
      "id": 1428302284,
      "center": {
        "lat": 12.934843,
        "lon": 77.6071452
      },
      "tags": {
        "access": "yes",
        "amenity": "toilets",
        "building": "yes",
        "name": "Community Toilet",
        "wheelchair": "limited"
      }
    },
    {
      "type": "way",
      "id": 1442146195,
      "center": {
        "lat": 12.9333727,
        "lon": 77.6095817
      },
      "tags": {
        "addr:place": "Lakkasandra",
        "amenity": "school",
        "isced:level": "3",
        "name": "Franciska N HS, Lakkasandra",
        "name:kn": "ಫ್ರಾನ್ಸಿಸ್ಕಾ ಎನ್ ಪ್ರೌಢಶಾಲೆ, ಲಕ್ಕಸಂದ್ರ",
        "operator": "Pvt. Unaided",
        "school": "Higher Secondary"
      }
    },
    {
      "type": "way",
      "id": 1442599076,
      "center": {
        "lat": 12.9282374,
        "lon": 77.607007
      },
      "tags": {
        "leisure": "pitch",
        "sport": "basketball"
      }
    }
  ]
}