{
  "area_name": "Saraipalya",
  "osm_id": 11211419484,
  "osm_type": "node",
  "place_type": "neighbourhood",
  "amenity_count": 187,
  "amenities": [
    {
      "type": "node",
      "id": 391929291,
      "lat": 13.0483112,
      "lon": 77.6342169,
      "tags": {
        "amenity": "school",
        "name": "Swamy Vivekananda Primary and High School",
        "name:kn": "ಸ್ವಾಮಿ ವಿವೇಕಾನಂದ ಶಾಲೆ"
      }
    },
    {
      "type": "node",
      "id": 412681648,
      "lat": 13.0557708,
      "lon": 77.6327504,
      "tags": {
        "amenity": "school",
        "name": "Manasa Public School",
        "name:kn": "ಮಾನಸ ಪಬ್ಲಿಕ್ ಸ್ಕೂಲ್"
      }
    },
    {
      "type": "node",
      "id": 3426287293,
      "lat": 13.0572273,
      "lon": 77.6276673,
      "tags": {
        "addr:city": "Bangalore",
        "addr:housenumber": "Thanisandra",
        "addr:postcode": "560077",
        "addr:street": "Rachenahalli Main Road",
        "name": "Daily Fresh Bakery",
        "operator": "Daily Fresh Bakery",
        "shop": "bakery"
      }
    },
    {
      "type": "node",
      "id": 3451594563,
      "lat": 13.0452129,
      "lon": 77.626801,
      "tags": {
        "amenity": "cinema",
        "name": "PVR"
      }
    },
    {
      "type": "node",
      "id": 4327749190,
      "lat": 13.0517564,
      "lon": 77.6349601,
      "tags": {
        "addr:postcode": "560077",
        "amenity": "place_of_worship",
        "name": "Maha Ganapati Temple",
        "name:kn": "ಮಹಾ ಗಣಪತಿ ದೇವಸ್ಥಾನ",
        "religion": "hindu"
      }
    },
    {
      "type": "node",
      "id": 4443466902,
      "lat": 13.0454631,
      "lon": 77.626723,
      "tags": {
        "addr:city": "Bangalore",
        "addr:housenumber": "Survey No. 132P, 133P, & 134P, Nagawara Junction",
        "addr:postcode": "560077",
        "addr:street": "Thanisandra Main Road",
        "level": "0",
        "name": "Jammals",
        "opening_hours": "10:30-23:00",
        "phone": "9343758146",
        "shop": "kitchen"
      }
    },
    {
      "type": "node",
      "id": 4443476633,
      "lat": 13.0454286,
      "lon": 77.6269247,
      "tags": {
        "addr:city": "Bangalore",
        "addr:housenumber": "Survey No. 132P, 133P, & 134P, Nagawara Junction, Manayata Tech Park",
        "addr:postcode": "560077",
        "addr:street": "Thanisandra Main Road",
        "level": "0",
        "name": "Reliance Digital",
        "name:kn": "ರಿಲಾಯನ್ಸ್ ಡಿಜಿಟಲ್",
        "opening_hours": "10:00-22:00",
        "phone": "80672 94052",
        "shop": "electronics",
        "website": "https://www.reliancedigital.in/"
      }
    },
    {
      "type": "node",
      "id": 4443479591,
      "lat": 13.045532,
      "lon": 77.6268185,
      "tags": {
        "addr:city": "Bangalore",
        "addr:housenumber": "Survey No. 132P, 133P, & 134P, Nagawara Junction, Manayata Tech Park",
        "addr:postcode": "560077",
        "addr:street": "Thanisandra Main Road",
        "level": "0",
        "name": "I centre",
        "opening_hours": "10:00-22:00",
        "phone": "8067294099",
        "shop": "electronics",
        "website": "www.icentre.co.in"
      }
    },
    {
      "type": "node",
      "id": 4443483171,
      "lat": 13.0456769,
      "lon": 77.6267017,
      "tags": {
        "addr:city": "Bangalore",
        "addr:housenumber": "Survey No. 132P, 133P, & 134P, Nagawara Junction, Manayata Tech Park",
        "addr:postcode": "560077",
        "addr:street": "Thanisandra Main Road",
        "level": "1",
        "name": "Sapna Book House",
        "opening_hours": "10:00-22:30",
        "phone": "80672 941 51",
        "shop": "books",
        "website": "https://www.sapnaonline.com"
      }
    },
    {
      "type": "node",
      "id": 4443491273,
      "lat": 13.0456386,
      "lon": 77.6267858,
      "tags": {
        "addr:city": "Bangalore",
        "addr:housenumber": "Survey No. 132P, 133P, & 134P, Nagawara Junction, Manayata Tech Park",
        "addr:postcode": "560077",
        "addr:street": "Thanisandra Main Road",
        "amenity": "cinema",
        "level": "1",
        "name": "PVR entertainment",
        "opening_hours": "10:00-22:30",
        "phone": "092380 23889",
        "website": "https://www.pvrcinemas.com/"
      }
    },
    {
      "type": "node",
      "id": 4443640798,
      "lat": 13.0456619,
      "lon": 77.6267384,
      "tags": {
        "addr:city": "Bangalore",
        "addr:housenumber": "Survey No. 132P, 133P, & 134P, Nagawara Junction, Manayata Tech Park",
        "addr:postcode": "560077",
        "addr:street": "Thanisandra Main Road",
        "level": "1",
        "name": "Payless Shoe Store",
        "opening_hours": "10:00-22:30",
        "phone": "080672 94444",
        "shop": "shoes"
      }
    },
    {
      "type": "node",
      "id": 4443641881,
      "lat": 13.0456514,
      "lon": 77.626682,
      "tags": {
        "addr:city": "Bangalore",
        "addr:housenumber": "Survey No. 132P, 133P, & 134P, Nagawara Junction, Manayata Tech Park",
        "addr:postcode": "560077",
        "addr:street": "Thanisandra Main Road",
        "level": "1",
        "name": "Reliance trendz",
        "opening_hours": "10:00-22:00",
        "phone": "8067294066",
        "shop": "clothes",
        "website": "https://www.ril.com/"
      }
    },
    {
      "type": "node",
      "id": 4443649876,
      "lat": 13.0456488,
      "lon": 77.626725,
      "tags": {
        "addr:city": "Bangalore",
        "addr:housenumber": "Survey No. 132P, 133P, & 134P, Nagawara Junction, Manayata Tech Park",
        "addr:postcode": "560077",
        "addr:street": "Thanisandra Main Road",
        "level": "1",
        "name": "Wood Land",
        "opening_hours": "10:00-22:30",
        "phone": "8022682216",
        "shop": "shoes",
        "website": "woodlandworldwide.com/"
      }
    },
    {
      "type": "node",
      "id": 4443656651,
      "lat": 13.0455861,
      "lon": 77.6267196,
      "tags": {
        "addr:city": "Bangalore",
        "addr:housenumber": "Survey No. 132P, 133P, & 134P, Nagawara Junction, Manayata Tech Park",
        "addr:postcode": "560077",
        "addr:street": "Thanisandra Main Road",
        "name": "Reliance Foot Prints",
        "opening_hours": "10:00-22:30",
        "phone": "9035055654",
        "shop": "shoes",
        "website": "www.reliancefootprint.com"
      }
    },
    {
      "type": "node",
      "id": 4443690733,
      "lat": 13.0454706,
      "lon": 77.6268156,
      "tags": {
        "addr:city": "Bangalore",
        "addr:housenumber": "Survey No. 132P, 133P, & 134P, Nagawara Junction, Manayata Tech Park",
        "addr:postcode": "560077",
        "addr:street": "Thanisandra Main Road",
        "level": "0",
        "name": "Health And Glow",
        "opening_hours": "10:00-22:30",
        "phone": "8032562821",
        "shop": "cosmetics",
        "website": "www.healthandglow.in/"
      }
    },
    {
      "type": "node",
      "id": 4443700234,
      "lat": 13.0454341,
      "lon": 77.6267753,
      "tags": {
        "addr:city": "Bangalore",
        "addr:housenumber": "Survey No. 132P, 133P, & 134P, Nagawara Junction, Manayata Tech Park",
        "addr:postcode": "560077",
        "addr:street": "Thanisandra Main Road",
        "brand": "Spar",
        "brand:wikidata": "Q610492",
        "brand:wikipedia": "en:Spar (retailer)",
        "level": "0",
        "name": "Spar",
        "opening_hours": "10:00-22:30",
        "organic": "yes",
        "payment:credit_cards": "yes",
        "payment:debit_cards": "yes",
        "phone": "8067294041",
        "shop": "supermarket",
        "website": "http://sparindia.org.in/locations/"
      }
    },
    {
      "type": "node",
      "id": 4443710312,
      "lat": 13.0453766,
      "lon": 77.6267807,
      "tags": {
        "addr:city": "Bangalore",
        "addr:housenumber": "Survey No. 132P, 133P, & 134P, Nagawara Junction, Manayata Tech Park",
        "addr:postcode": "560077",
        "addr:street": "Thanisandra Main Road",
        "level": "2",
        "name": "Bombay Dyeing",
        "name:kn": "ಬೊಂಬೆ ಡೈಯಿಂಗ್",
        "opening_hours": "10:00-22:30",
        "phone": "9611293174",
        "shop": "furniture",
        "website": "https://bombaydyeing.com/"
      }
    },
    {
      "type": "node",
      "id": 4443729759,
      "lat": 13.0454262,
      "lon": 77.626711,
      "tags": {
        "addr:city": "Bangalore",
        "addr:housenumber": "Survey No. 132P, 133P, & 134P, Nagawara Junction, Manayata Tech Park, Thanisandra 100 Feet Main Road, Kasba Hobli, MS Ramaiah North City, Manayata Tech Park",
        "addr:postcode": "560077",
        "addr:street": "Thanisandra Main Road",
        "name": "Jockey",
        "opening_hours": "10:00-22:30",
        "phone": "8067294026",
        "shop": "clothes",
        "website": "https://www.jockeyindia.com/stores/karnataka/bangalore"
      }
    },
    {
      "type": "node",
      "id": 4443741405,
      "lat": 13.0453792,
      "lon": 77.6267297,
      "tags": {
        "addr:city": "Bangalore",
        "addr:housenumber": "Survey No. 132P, 133P, & 134P, Nagawara Junction, Manayata Tech Park",
        "addr:postcode": "560077",
        "addr:street": "Thanisandra Main Road",
        "level": "1",
        "name": "Max",
        "opening_hours": "10:00-22:30",
        "phone": "080672 94015",
        "shop": "clothes",
        "website": "www.maxfashionindia.com/"
      }
    },
    {
      "type": "node",
      "id": 4443755486,
      "lat": 13.0453896,
      "lon": 77.6268558,
      "tags": {
        "addr:city": "Bangalore",
        "addr:housenumber": "Survey No. 132P, 133P, & 134P, Nagawara Junction, Manayata Tech Park",
        "addr:postcode": "560077",
        "addr:street": "Thanisandra Main Road",
        "name": "Mom And Me",
        "opening_hours": "10:00-22:30",
        "shop": "clothes",
        "website": "https://www.babyoye.com/b/Mom-&-Me"
      }
    },
    {
      "type": "node",
      "id": 4443775380,
      "lat": 13.0453266,
      "lon": 77.6267172,
      "tags": {
        "addr:city": "Bangalore",
        "addr:housenumber": "Survey No. 132P, 133P, & 134P, Nagawara Junction, Manayata Tech Park",
        "addr:postcode": "560077",
        "addr:street": "Thanisandra Main Road",
        "level": "0",
        "name": "levis",
        "opening_hours": "10:00-22:30",
        "shop": "clothes",
        "website": "https://www.levi.in/"
      }
    },
    {
      "type": "node",
      "id": 4445701544,
      "lat": 13.0453348,
      "lon": 77.626837,
      "tags": {
        "addr:city": "Bangalore",
        "addr:housenumber": "Survey No. 132P, 133P, & 134P, Nagawara Junction, Manayata Tech Park",
        "addr:postcode": "560077",
        "addr:street": "Thanisandra Main Road",
        "name": "Gravity",
        "opening_hours": "10:00-21:30",
        "phone": "+918067294041",
        "shop": "clothes",
        "website": "www.gravityclothing.com"
      }
    },
    {
      "type": "node",
      "id": 4445743378,
      "lat": 13.0452903,
      "lon": 77.6266198,
      "tags": {
        "addr:city": "Bangalore",
        "addr:housenumber": "Survey No. 132P, 133P, & 134P, Nagawara Junction, Manayata Tech Park",
        "addr:postcode": "560077",
        "addr:street": "Thanisandra Main Road",
        "level": "0",
        "name": "Puma",
        "name:kn": "ಪೂಮ",
        "opening_hours": "10:00-21:30",
        "phone": "+918060603331",
        "shop": "sports",
        "website": "www.pumastore.com"
      }
    },
    {
      "type": "node",
      "id": 4445767359,
      "lat": 13.0452407,
      "lon": 77.6265876,
      "tags": {
        "addr:city": "Bangalore",
        "addr:housenumber": "Survey No. 132P, 133P, & 134P, Nagawara Junction, Manayata Tech Park",
        "addr:postcode": "560077",
        "addr:street": "Thanisandra Main Road",
        "level": "1",
        "name": "people",
        "opening_hours": "10:00-21:30",
        "phone": "08067294034",
        "shop": "clothes",
        "website": "https://www.peopleonline.co.in/"
      }
    },
    {
      "type": "node",
      "id": 4445774901,
      "lat": 13.0452041,
      "lon": 77.6265447,
      "tags": {
        "addr:city": "Bangalore",
        "addr:housenumber": "Survey No. 132P, 133P, & 134P, Nagawara Junction, Manayata Tech Park",
        "addr:postcode": "560077",
        "addr:street": "Thanisandra Main Road",
        "level": "1",
        "name": "Planet Fashion",
        "opening_hours": "10:00-21:30",
        "phone": "+918067294028",
        "shop": "clothes",
        "website": "https://www.planetfashion.in/"
      }
    },
    {
      "type": "node",
      "id": 4445786915,
      "lat": 13.0451728,
      "lon": 77.6265313,
      "tags": {
        "addr:city": "Bangalore",
        "addr:housenumber": "Survey No. 132P, 133P, & 134P, Nagawara Junction, Manayata Tech Park",
        "addr:postcode": "560077",
        "addr:street": "Thanisandra Main Road",
        "level": "1",
        "name": "Arrow",
        "opening_hours": "10:00-9:30",
        "phone": "+918067294029",
        "shop": "clothes",
        "website": "www.arrowlife.com"
      }
    },
    {
      "type": "node",
      "id": 4447462331,
      "lat": 13.0455777,
      "lon": 77.6266626,
      "tags": {
        "addr:city": "Bangalore",
        "addr:housenumber": "Survey No. 132P, 133P, & 134P, Nagawara Junction, Manayata Tech Park",
        "addr:postcode": "560077",
        "addr:street": "Thanisandra Main Road",
        "level": "1",
        "name": "Arrow",
        "name:kn": "ಅರ್ರೊ",
        "opening_hours": "10:00-21:30",
        "phone": "8067294029",
        "shop": "clothes",
        "website": "http://www.arrowlife.com/"
      }
    },
    {
      "type": "node",
      "id": 4447466739,
      "lat": 13.0452694,
      "lon": 77.6267082,
      "tags": {
        "addr:city": "Bangalore",
        "addr:housenumber": "Survey No. 132P, 133P, & 134P, Nagawara Junction, Manayata Tech Park",
        "addr:postcode": "560077",
        "addr:street": "Thanisandra Main Road",
        "level": "0",
        "name": "Louis Phillppe",
        "opening_hours": "10:00-21:30",
        "phone": "8067294004",
        "shop": "clothes",
        "website": "https://www.louisphilippe.com"
      }
    },
    {
      "type": "node",
      "id": 4447480121,
      "lat": 13.0454837,
      "lon": 77.6266492,
      "tags": {
        "addr:city": "Bangalore",
        "addr:housenumber": "Survey No. 132P, 133P, & 134P, Nagawara Junction, Manayata Tech Park",
        "addr:postcode": "560077",
        "addr:street": "Thanisandra Main Road",
        "level": "1",
        "name": "Peter England",
        "name:kn": "ಪೀಟರ್ ಇಂಗ್ಲೆಂಡ್",
        "opening_hours": "10:00-21:30",
        "phone": "8067294003",
        "shop": "clothes",
        "website": "https://www.peterengland.com/"
      }
    },
    {
      "type": "node",
      "id": 4447480316,
      "lat": 13.0453218,
      "lon": 77.6269445,
      "tags": {
        "addr:city": "Bangalore",
        "addr:housenumber": "Survey No. 132P, 133P, & 134P, Nagawara Junction, Manayata Tech Park",
        "addr:postcode": "560077",
        "addr:street": "Thanisandra Main Road",
        "name": "Adidas",
        "name:kn": "ಅಡಿಡಾಸ್",
        "opening_hours": "10:00-21:30",
        "phone": "80672 94444",
        "shop": "clothes",
        "website": "www.adidas.com"
      }
    },
    {
      "type": "node",
      "id": 4447484455,
      "lat": 13.0452459,
      "lon": 77.6266974,
      "tags": {
        "addr:city": "Bangalore",
        "addr:housenumber": "Survey No. 132P, 133P, & 134P, Nagawara Junction, Manayata Tech Park",
        "addr:postcode": "560077",
        "addr:street": "Thanisandra Main Road",
        "level": "1",
        "name": "Aurelia",
        "name:kn": "ಅರೆಲಿಯ",
        "opening_hours": "10:00-21:30",
        "phone": "8067294081",
        "shop": "clothes",
        "website": "https://www.aurelia.com/"
      }
    },
    {
      "type": "node",
      "id": 4447486769,
      "lat": 13.045144,
      "lon": 77.6267189,
      "tags": {
        "shop": "clothes"
      }
    },
    {
      "type": "node",
      "id": 4447486770,
      "lat": 13.0451657,
      "lon": 77.6267882,
      "tags": {
        "addr:city": "Bangalore",
        "addr:housenumber": "Survey No. 132P, 133P, & 134P, Nagawara Junction, Manayata Tech Park",
        "addr:postcode": "560077",
        "addr:street": "Thanisandra Main Road",
        "level": "2",
        "name": "Soch",
        "opening_hours": "10:00-21:30",
        "phone": "8067294005",
        "shop": "clothes",
        "website": "www.sochstudio.com"
      }
    },
    {
      "type": "node",
      "id": 4447488298,
      "lat": 13.0452896,
      "lon": 77.6269201,
      "tags": {
        "addr:city": "Bangalore",
        "addr:housenumber": "Survey No. 132P, 133P, & 134P, Nagawara Junction, Manayata Tech Park",
        "addr:postcode": "560077",
        "addr:street": "Thanisandra Main Road",
        "level": "2",
        "name": "Melange",
        "opening_hours": "10:00-21:30",
        "phone": "080 4039 9000",
        "shop": "clothes",
        "website": "www.melange.com"
      }
    },
    {
      "type": "node",
      "id": 4447492201,
      "lat": 13.045145,
      "lon": 77.6265266,
      "tags": {
        "addr:city": "Bangalore",
        "addr:housenumber": "Survey No. 132P, 133P, & 134P, Nagawara Junction, Manayata Tech Park",
        "addr:postcode": "560077",
        "addr:street": "Thanisandra Main Road",
        "level": "2",
        "name": "mustard",
        "opening_hours": "10:00-21:30",
        "phone": "8067294060",
        "shop": "clothes",
        "website": "https://www.mustardfashion.com/"
      }
    },
    {
      "type": "node",
      "id": 4447495451,
      "lat": 13.0450945,
      "lon": 77.6265054,
      "tags": {
        "addr:city": "Bangalore",
        "addr:housenumber": "Survey No. 132P, 133P, & 134P, Nagawara Junction, Manayata Tech Park",
        "addr:postcode": "560077",
        "addr:street": "Thanisandra Main Road",
        "amenity": "cafe",
        "cuisine": "cafe",
        "internet_access": "wlan",
        "level": "3",
        "name": "Cafe Coffee Day",
        "name:kn": "ಕಫೆ ಕಾಫಿ ಡೇ",
        "opening_hours": "10:00-21:30",
        "phone": "74832 95691",
        "smoking": "no",
        "website": "https://www.cafecoffeeday.com/"
      }
    },
    {
      "type": "node",
      "id": 4586355538,
      "lat": 13.0450568,
      "lon": 77.6265787,
      "tags": {
        "addr:city": "Bangalore",
        "addr:postcode": "560077",
        "addr:street": "Thanisandra Main Road",
        "amenity": "cafe",
        "cuisine": "dessert",
        "name": "Ibaco",
        "name:kn": "ಐಬಾಕೊ",
        "opening_hours": "11:00 - 23:00"
      }
    },
    {
      "type": "node",
      "id": 4834590320,
      "lat": 13.0506655,
      "lon": 77.6214043,
      "tags": {
        "amenity": "food_court"
      }
    },
    {
      "type": "node",
      "id": 4834590511,
      "lat": 13.0506842,
      "lon": 77.6206618,
      "tags": {
        "amenity": "parking_entrance"
      }
    },
    {
      "type": "node",
      "id": 4834590513,
      "lat": 13.0513621,
      "lon": 77.6208589,
      "tags": {
        "amenity": "parking_entrance"
      }
    },
    {
      "type": "node",
      "id": 4973098292,
      "lat": 13.0456035,
      "lon": 77.6267868,
      "tags": {
        "amenity": "fast_food",
        "brand": "McDonald's",
        "brand:pa": "ਮੈਕਡੋਨਲਡ’ਜ਼",
        "brand:ur": "مکڈونلڈز",
        "brand:wikidata": "Q38076",
        "brand:wikipedia": "en:McDonald's",
        "brand:wikipedia:pa": "ਮੈਕਡੋਨਲਡ’ਜ਼",
        "brand:wikipedia:ur": "مکڈونلڈز",
        "cuisine": "burger",
        "name": "McDonald's",
        "name:kn": "ಮ್ಯಾಕ್‌ಡೊನಾಲ್ಡ್ಸ್",
        "name:pa": "ਮੈਕਡੋਨਲਡ’ਜ਼",
        "name:ur": "مکڈونلڈز"
      }
    },
    {
      "type": "node",
      "id": 4973098293,
      "lat": 13.0454872,
      "lon": 77.6269262,
      "tags": {
        "amenity": "fast_food",
        "brand": "Burger King",
        "brand:pa": "ਬਰਗਰ ਕਿੰਗ",
        "brand:ur": "برگر کنگ",
        "brand:wikidata": "Q177054",
        "brand:wikipedia": "en:Burger King",
        "brand:wikipedia:pa": "ਬਰਗਰ ਕਿੰਗ",
        "brand:wikipedia:ur": "برگر کنگ",
        "cuisine": "burger",
        "name": "Burger King",
        "name:kn": "ಬರ್ಗರ್ ಕಿಂಗ್",
        "name:pa": "ਬਰਗਰ ਕਿੰਗ",
        "name:ru": "Бургер Кинг",
        "name:ur": "برگر کنگ",
        "takeaway": "yes"
      }
    },
    {
      "type": "node",
      "id": 4973098294,
      "lat": 13.0453918,
      "lon": 77.6270134,
      "tags": {
        "amenity": "restaurant",
        "name": "Felicita"
      }
    },
    {
      "type": "node",
      "id": 4973098295,
      "lat": 13.0490526,
      "lon": 77.6294582,
      "tags": {
        "amenity": "bank",
        "brand": "ICICI Bank",
        "brand:wikidata": "Q1653258",
        "name": "ICICI Bank",
        "name:kn": "ಐಸಿಐಸಿಐ ಬ್ಯಾಂಕು",
        "short_name": "ICICI"
      }
    },
    {
      "type": "node",
      "id": 4973098297,
      "lat": 13.0532862,
      "lon": 77.6313419,
      "tags": {
        "name": "Bata",
        "name:kn": "ಬಾಟಾ",
        "shop": "shoes"
      }
    },
    {
      "type": "node",
      "id": 4973098298,
      "lat": 13.054535,
      "lon": 77.6321499,
      "tags": {
        "amenity": "bank",
        "name": "Kotak Mahindra Bank"
      }
    },
    {
      "type": "node",
      "id": 4973098299,
      "lat": 13.0562529,
      "lon": 77.6330993,
      "tags": {
        "amenity": "pharmacy",
        "name": "United Pharma"
      }
    },
    {
      "type": "node",
      "id": 5295004543,
      "lat": 13.0454415,
      "lon": 77.6269767,
      "tags": {
        "amenity": "fast_food",
        "brand": "Domino's",
        "brand:ks": "ڈومینوز",
        "brand:pa": "ਡੋਮੀਨੋਜ਼",
        "brand:ur": "ڈومینوز",
        "brand:wikidata": "Q839466",
        "brand:wikipedia": "en:Domino's Pizza",
        "cuisine": "pizza",
        "name": "Domino's",
        "name:kn": "ಡಾಮಿನೋಸ್",
        "name:ks": "ڈومینوز",
        "name:pa": "ਡੋਮੀਨੋਜ਼",
        "name:ur": "ڈومینوز"
      }
    },
    {
      "type": "node",
      "id": 5295004544,
      "lat": 13.0466774,
      "lon": 77.6279032,
      "tags": {
        "amenity": "restaurant",
        "cuisine": "indian",
        "diet:vegetarian": "yes",
        "name": "Sri Devi Grand Veg"
      }
    },
    {
      "type": "node",
      "id": 5295004545,
      "lat": 13.0523486,
      "lon": 77.631283,
      "tags": {
        "amenity": "place_of_worship",
        "denomination": "hindu",
        "religion": "hindu"
      }
    },
    {
      "type": "node",
      "id": 5295004546,
      "lat": 13.0553751,
      "lon": 77.6322956,
      "tags": {
        "amenity": "atm",
        "operator": "Kotak Mahindra Bank"
      }
    },
    {
      "type": "node",
      "id": 5295004547,
      "lat": 13.0557204,
      "lon": 77.632106,
      "tags": {
        "amenity": "fast_food",
        "name": "Five Star Chicken"
      }
    },
    {
      "type": "node",
      "id": 5295004548,
      "lat": 13.055866,
      "lon": 77.6326224,
      "tags": {
        "amenity": "atm",
        "operator": "HDFC Bank"
      }
    },
    {
      "type": "node",
      "id": 5295004549,
      "lat": 13.0559578,
      "lon": 77.6328463,
      "tags": {
        "amenity": "place_of_worship",
        "religion": "hindu"
      }
    },
    {
      "type": "node",
      "id": 5295004550,
      "lat": 13.0569598,
      "lon": 77.6328691,
      "tags": {
        "name": "Prestige Smart Kitchen",
        "shop": "appliance"
      }
    },
    {
      "type": "node",
      "id": 5295004551,
      "lat": 13.0575188,
      "lon": 77.6327683,
      "tags": {
        "amenity": "bank",
        "name": "State Bank of India",
        "name:kn": "ಭಾರತೀಯ ಸ್ಟೇಟ್ ಬ್ಯಾಂಕ್"
      }
    },
    {
      "type": "node",
      "id": 5295004552,
      "lat": 13.0572403,
      "lon": 77.6331293,
      "tags": {
        "amenity": "place_of_worship",
        "denomination": "shia",
        "name": "Sri Shaneeswhara Swamy Devalaya",
        "religion": "hindu"
      }
    },
    {
      "type": "node",
      "id": 5295004553,
      "lat": 13.0574022,
      "lon": 77.6331335,
      "tags": {
        "name": "Karnataka Vegetables and Fruits",
        "shop": "greengrocer"
      }
    },
    {
      "type": "node",
      "id": 5295004554,
      "lat": 13.0575735,
      "lon": 77.633121,
      "tags": {
        "amenity": "bank",
        "name": "Syndicate Bank",
        "name:kn": "ಸಿಂಡಿಕೇಟ್ ಬ್ಯಾಂಕ್"
      }
    },
    {
      "type": "node",
      "id": 5383246721,
      "lat": 13.0537198,
      "lon": 77.6250674,
      "tags": {
        "amenity": "kindergarten",
        "name": "TLC Montessori Preschool"
      }
    },
    {
      "type": "node",
      "id": 5383249022,
      "lat": 13.0575739,
      "lon": 77.626662,
      "tags": {
        "amenity": "fast_food",
        "name": "Karthik Chicken Center"
      }
    },
    {
      "type": "node",
      "id": 5383249023,
      "lat": 13.0575345,
      "lon": 77.6268446,
      "tags": {
        "amenity": "place_of_worship"
      }
    },
    {
      "type": "node",
      "id": 5383249122,
      "lat": 13.0575219,
      "lon": 77.6269384,
      "tags": {
        "name": "Khushi Iyengars Cake Palace",
        "shop": "bakery"
      }
    },
    {
      "type": "node",
      "id": 5383249123,
      "lat": 13.0573793,
      "lon": 77.6270261,
      "tags": {
        "amenity": "restaurant",
        "name": "Mama’s"
      }
    },
    {
      "type": "node",
      "id": 5383249124,
      "lat": 13.0516461,
      "lon": 77.6304983,
      "tags": {
        "brand": "Shell Select",
        "brand:wikidata": "Q110716465",
        "name": "Shell Select",
        "shop": "convenience"
      }
    },
    {
      "type": "node",
      "id": 5383249225,
      "lat": 13.0575904,
      "lon": 77.6265783,
      "tags": {
        "name": "Rajveer Chemical",
        "shop": "chemist"
      }
    },
    {
      "type": "node",
      "id": 5383258723,
      "lat": 13.0576195,
      "lon": 77.626464,
      "tags": {
        "amenity": "fast_food"
      }
    },
    {
      "type": "node",
      "id": 5383258724,
      "lat": 13.0576351,
      "lon": 77.626399,
      "tags": {
        "amenity": "cafe",
        "name": "Chai Point, Juice Corner"
      }
    },
    {
      "type": "node",
      "id": 5416734324,
      "lat": 13.0509256,
      "lon": 77.6212057,
      "tags": {
        "amenity": "fast_food",
        "brand": "Subway",
        "brand:pa": "ਸਬਵੇਅ",
        "brand:ur": "سب وے",
        "brand:wikidata": "Q244457",
        "brand:wikipedia": "en:Subway (restaurant)",
        "name": "Subway",
        "name:pa": "ਸਬਵੇਅ",
        "name:ur": "سب وے"
      }
    },
    {
      "type": "node",
      "id": 5416744421,
      "lat": 13.0511064,
      "lon": 77.621253,
      "tags": {
        "amenity": "fast_food",
        "brand": "Domino's",
        "brand:ks": "ڈومینوز",
        "brand:pa": "ਡੋਮੀਨੋਜ਼",
        "brand:ur": "ڈومینوز",
        "brand:wikidata": "Q839466",
        "brand:wikipedia": "en:Domino's Pizza",
        "cuisine": "pizza",
        "name": "Domino's",
        "name:kn": "ಡಾಮಿನೋಸ್",
        "name:ks": "ڈومینوز",
        "name:pa": "ਡੋਮੀਨੋਜ਼",
        "name:ur": "ڈومینوز"
      }
    },
    {
      "type": "node",
      "id": 5416744721,
      "lat": 13.0510068,
      "lon": 77.6212211,
      "tags": {
        "amenity": "fast_food",
        "name": "California Burrito"
      }
    },
    {
      "type": "node",
      "id": 5418244422,
      "lat": 13.0508399,
      "lon": 77.6211776,
      "tags": {
        "amenity": "fast_food",
        "name": "WOW momo"
      }
    },
    {
      "type": "node",
      "id": 5418246323,
      "lat": 13.0506091,
      "lon": 77.6212545,
      "tags": {
        "amenity": "bank",
        "atm": "yes",
        "brand": "State Bank of India",
        "brand:wikidata": "Q1340361",
        "name": "State Bank of India",
        "name:kn": "ಭಾರತೀಯ ಸ್ಟೇಟ್ ಬ್ಯಾಂಕ್",
        "short_name": "SBI"
      }
    },
    {
      "type": "node",
      "id": 5418246324,
      "lat": 13.0511515,
      "lon": 77.6214595,
      "tags": {
        "amenity": "fast_food",
        "brand": "KFC",
        "brand:pa": "ਕੇਐਫਸੀ",
        "brand:ur": "کینٹکی فرائیڈ چکن",
        "brand:wikidata": "Q524757",
        "brand:wikipedia": "en:KFC",
        "brand:wikipedia:pa": "ਕੇਐਫਸੀ",
        "brand:wikipedia:ur": "کینٹکی فرائیڈ چکن",
        "cuisine": "chicken",
        "name": "KFC",
        "name:kn": "ಕೆಎಫ್‌ಸಿ",
        "name:pa": "ਕੇਐਫਸੀ",
        "name:ur": "کینٹکی فرائیڈ چکن",
        "takeaway": "yes"
      }
    },
    {
      "type": "node",
      "id": 5418248823,
      "lat": 13.0507698,
      "lon": 77.6211686,
      "tags": {
        "amenity": "fast_food",
        "name": "Kinara"
      }
    },
    {
      "type": "node",
      "id": 5418248824,
      "lat": 13.0511739,
      "lon": 77.6213725,
      "tags": {
        "amenity": "fast_food",
        "name": "Chung Wah",
        "name:kn": "ಚುಂಗ್ ವಾ"
      }
    },
    {
      "type": "node",
      "id": 5418248825,
      "lat": 13.051133,
      "lon": 77.6215445,
      "tags": {
        "amenity": "fast_food",
        "name": "Sizzling Tandoor"
      }
    },
    {
      "type": "node",
      "id": 5418255621,
      "lat": 13.050685,
      "lon": 77.6211396,
      "tags": {
        "amenity": "fast_food",
        "name": "Aaha Andhra"
      }
    },
    {
      "type": "node",
      "id": 5418255721,
      "lat": 13.0511145,
      "lon": 77.6216144,
      "tags": {
        "name": "Squeez Juice Bar",
        "shop": "beverages"
      }
    },
    {
      "type": "node",
      "id": 5418327424,
      "lat": 13.0510863,
      "lon": 77.6216974,
      "tags": {
        "amenity": "fast_food",
        "name": "Pathankot"
      }
    },
    {
      "type": "node",
      "id": 5418327425,
      "lat": 13.0509773,
      "lon": 77.6217542,
      "tags": {
        "amenity": "vending_machine",
        "name": "Smartbox",
        "vending": "parcel_pickup"
      }
    },
    {
      "type": "node",
      "id": 5418327426,
      "lat": 13.0506675,
      "lon": 77.6217744,
      "tags": {
        "amenity": "bureau_de_change"
      }
    },
    {
      "type": "node",
      "id": 5418365121,
      "lat": 13.0507717,
      "lon": 77.6213655,
      "tags": {
        "amenity": "vending_machine",
        "name": "Quikpod",
        "vending": "parcel_pickup"
      }
    },
    {
      "type": "node",
      "id": 5418365221,
      "lat": 13.0452657,
      "lon": 77.6209798,
      "tags": {
        "amenity": "bank",
        "brand": "Axis Bank",
        "brand:wikidata": "Q2003549",
        "name": "Axis Bank",
        "name:kn": "ಆಕ್ಸಿಸ್ ಬ್ಯಾಂಕ್"
      }
    },
    {
      "type": "node",
      "id": 5418989025,
      "lat": 13.0451508,
      "lon": 77.6209471,
      "tags": {
        "amenity": "fast_food",
        "brand": "Domino's",
        "brand:ks": "ڈومینوز",
        "brand:pa": "ਡੋਮੀਨੋਜ਼",
        "brand:ur": "ڈومینوز",
        "brand:wikidata": "Q839466",
        "brand:wikipedia": "en:Domino's Pizza",
        "cuisine": "pizza",
        "name": "Domino's",
        "name:kn": "ಡಾಮಿನೋಸ್",
        "name:ks": "ڈومینوز",
        "name:pa": "ਡੋਮੀਨੋਜ਼",
        "name:ur": "ڈومینوز",
        "takeaway": "yes"
      }
    },
    {
      "type": "node",
      "id": 5418989026,
      "lat": 13.0447975,
      "lon": 77.6208872,
      "tags": {
        "alt_name": "Dunkin' Donuts",
        "amenity": "fast_food",
        "brand": "Dunkin'",
        "brand:wikidata": "Q847743",
        "brand:wikipedia": "en:Dunkin' Donuts",
        "cuisine": "donut;coffee_shop",
        "name": "Dunkin'",
        "takeaway": "yes"
      }
    },
    {
      "type": "node",
      "id": 5418989524,
      "lat": 13.0448386,
      "lon": 77.620895,
      "tags": {
        "amenity": "cafe",
        "brand": "Cafe Coffee Day",
        "brand:wikidata": "Q5017235",
        "cuisine": "coffee_shop",
        "name": "Cafe Coffee Day",
        "name:kn": "ಕಫೆ ಕಾಫಿ ಡೇ",
        "takeaway": "yes"
      }
    },
    {
      "type": "node",
      "id": 5420443541,
      "lat": 13.0446064,
      "lon": 77.6209898,
      "tags": {
        "amenity": "restaurant"
      }
    },
    {
      "type": "node",
      "id": 5420443542,
      "lat": 13.0447475,
      "lon": 77.6210234,
      "tags": {
        "level": "1",
        "shop": "hairdresser"
      }
    },
    {
      "type": "node",
      "id": 5420443543,
      "lat": 13.0446352,
      "lon": 77.6208812,
      "tags": {
        "amenity": "pub",
        "internet_access": "no",
        "level": "1",
        "name": "Slug"
      }
    },
    {
      "type": "node",
      "id": 5966255485,
      "lat": 13.0482293,
      "lon": 77.6289439,
      "tags": {
        "amenity": "pharmacy",
        "name": "Pooja Medicals"
      }
    },
    {
      "type": "node",
      "id": 5966255486,
      "lat": 13.0503589,
      "lon": 77.6302287,
      "tags": {
        "name": "Star Look",
        "shop": "clothes"
      }
    },
    {
      "type": "node",
      "id": 5966255488,
      "lat": 13.0517267,
      "lon": 77.6312426,
      "tags": {
        "amenity": "bar",
        "name": "Budweiser"
      }
    },
    {
      "type": "node",
      "id": 5966255489,
      "lat": 13.0532004,
      "lon": 77.6313378,
      "tags": {
        "amenity": "pharmacy",
        "name": "Sri Varsha Medicals and General Store"
      }
    },
    {
      "type": "node",
      "id": 5966255490,
      "lat": 13.0533271,
      "lon": 77.6313861,
      "tags": {
        "amenity": "pharmacy",
        "name": "Ram Medicals"
      }
    },
    {
      "type": "node",
      "id": 5966255491,
      "lat": 13.055795,
      "lon": 77.6321559,
      "tags": {
        "name": "Bicycle Gallery",
        "service:bicycle:retail": "yes",
        "shop": "bicycle"
      }
    },
    {
      "type": "node",
      "id": 5966255492,
      "lat": 13.0562039,
      "lon": 77.6327875,
      "tags": {
        "name": "Nandini Parlour",
        "shop": "dairy"
      }
    },
    {
      "type": "node",
      "id": 5966255493,
      "lat": 13.0559374,
      "lon": 77.6327607,
      "tags": {
        "amenity": "fast_food",
        "cuisine": "regional",
        "name": "Hotel Sri Durga Darshini"
      }
    },
    {
      "type": "node",
      "id": 6146861985,
      "lat": 13.0536141,
      "lon": 77.6210208,
      "tags": {
        "name": "Nandini Parlour",
        "shop": "dairy"
      }
    },
    {
      "type": "node",
      "id": 9527967832,
      "lat": 13.0483469,
      "lon": 77.6293932,
      "tags": {
        "amenity": "fast_food",
        "name": "Fuzion Plate"
      }
    },
    {
      "type": "node",
      "id": 9527967833,
      "lat": 13.04959,
      "lon": 77.6298009,
      "tags": {
        "amenity": "fuel",
        "name": "Star Auto LPG"
      }
    },
    {
      "type": "node",
      "id": 9527967834,
      "lat": 13.0510029,
      "lon": 77.6309757,
      "tags": {
        "shop": "copyshop"
      }
    },
    {
      "type": "node",
      "id": 9527967835,
      "lat": 13.0544507,
      "lon": 77.6316369,
      "tags": {
        "amenity": "hospital",
        "name": "Shree Manyata Hospitals"
      }
    },
    {
      "type": "node",
      "id": 10091753933,
      "lat": 13.0461991,
      "lon": 77.6210333,
      "tags": {
        "amenity": "parking_entrance",
        "parking": "underground"
      }
    },
    {
      "type": "node",
      "id": 10095905211,
      "lat": 13.0505896,
      "lon": 77.6217434,
      "tags": {
        "amenity": "bank",
        "brand": "ICICI Bank",
        "brand:wikidata": "Q1653258",
        "name": "ICICI Bank",
        "name:kn": "ಐಸಿಐಸಿಐ ಬ್ಯಾಂಕು",
        "short_name": "ICICI"
      }
    },
    {
      "type": "node",
      "id": 10291118230,
      "lat": 13.0456346,
      "lon": 77.621195,
      "tags": {
        "addr:city": "Bengaluru",
        "addr:country": "IN",
        "addr:housename": "Manyata Tech Park",
        "addr:postcode": "560045",
        "addr:street": "Outer Ring Road",
        "addr:suburb": "Nagavara",
        "addr:unit": "Mfar Greenheart",
        "amenity": "coworking_space",
        "brand": "The Executive Centre",
        "email": "bangalore@executivecentre.com",
        "fee": "yes",
        "level": "7",
        "name": "The Executive Centre",
        "office": "coworking",
        "operator": "The Executive Centre",
        "phone": "+91 80 6781 9999",
        "website": "https://www.executivecentre.com/en-in/office-space/bangalore-mfar-greenheart/"
      }
    },
    {
      "type": "node",
      "id": 10731125349,
      "lat": 13.048083,
      "lon": 77.628791,
      "tags": {
        "amenity": "hospital",
        "name": "Suraksha Hospital"
      }
    },
    {
      "type": "node",
      "id": 10731125350,
      "lat": 13.049021,
      "lon": 77.6294468,
      "tags": {
        "name": "Okaya",
        "shop": "motorcycle"
      }
    },
    {
      "type": "node",
      "id": 10731125356,
      "lat": 13.0568676,
      "lon": 77.6328814,
      "tags": {
        "amenity": "fast_food",
        "cuisine": "regional",
        "name": "Domino's"
      }
    },
    {
      "type": "node",
      "id": 11061935302,
      "lat": 13.0425245,
      "lon": 77.631578,
      "tags": {
        "amenity": "shelter",
        "shelter_type": "gazebo"
      }
    },
    {
      "type": "node",
      "id": 11407321598,
      "lat": 13.0468459,
      "lon": 77.6280498,
      "tags": {
        "leisure": "fitness_centre",
        "name": "Captain FItness",
        "sport": "fitness"
      }
    },
    {
      "type": "node",
      "id": 11407321599,
      "lat": 13.0468846,
      "lon": 77.6280872,
      "tags": {
        "name": "Poorvika",
        "operator": "Poorvika",
        "payment:card": "yes",
        "payment:cash": "yes",
        "payment:upi": "yes",
        "shop": "mobile_phone"
      }
    },
    {
      "type": "node",
      "id": 11407321608,
      "lat": 13.0467502,
      "lon": 77.6283725,
      "tags": {
        "brand": "Lenskart",
        "brand:wikidata": "Q17068753",
        "name": "Lenskart",
        "payment:card": "yes",
        "payment:cash": "yes",
        "payment:upi": "yes",
        "shop": "optician"
      }
    },
    {
      "type": "node",
      "id": 11407321609,
      "lat": 13.0467687,
      "lon": 77.6280226,
      "tags": {
        "name": "Dry Fruit House",
        "payment:cash": "yes",
        "payment:credit_cards": "yes",
        "payment:debit_cards": "yes",
        "payment:upi": "yes",
        "shop": "health_food"
      }
    },
    {
      "type": "node",
      "id": 11578192469,
      "lat": 13.0481669,
      "lon": 77.6288875,
      "tags": {
        "addr:city": "Bengaluru",
        "addr:district": "Thanisandra",
        "addr:postcode": "560077",
        "addr:street": "Thanisandra Main Road",
        "female": "yes",
        "male": "yes",
        "name": "Heaven's Saloon",
        "opening_hours": "Mo-Su 09:00-21:00",
        "payment:cash": "yes",
        "payment:debit_cards": "yes",
        "payment:upi": "yes",
        "phone": "09019830117",
        "shop": "hairdresser"
      }
    },
    {
      "type": "node",
      "id": 11578192474,
      "lat": 13.048441,
      "lon": 77.6289312,
      "tags": {
        "addr:city": "Bengaluru",
        "addr:district": "Thanisandra",
        "addr:postcode": "560077",
        "addr:street": "Thanisandra Main Road",
        "brand": "Zudio",
        "brand:wikidata": "Q123375926",
        "clothes": "women;men;children;underwear;fashion",
        "name": "Zudio",
        "opening_hours": "Mo-Su 11:00-21:00",
        "payment:cash": "yes",
        "payment:credit_cards": "yes",
        "payment:debit_cards": "yes",
        "payment:upi": "yes",
        "shop": "clothes"
      }
    },
    {
      "type": "node",
      "id": 11696226837,
      "lat": 13.0464198,
      "lon": 77.6203327,
      "tags": {
        "amenity": "parking_entrance",
        "parking": "underground"
      }
    },
    {
      "type": "node",
      "id": 11696226838,
      "lat": 13.0464773,
      "lon": 77.6203434,
      "tags": {
        "amenity": "parking_entrance",
        "parking": "underground"
      }
    },
    {
      "type": "node",
      "id": 11696226853,
      "lat": 13.0440956,
      "lon": 77.6218213,
      "tags": {
        "amenity": "parking_entrance",
        "parking": "underground"
      }
    },
    {
      "type": "node",
      "id": 11878470075,
      "lat": 13.0441258,
      "lon": 77.6259832,
      "tags": {
        "brand": "Chroma",
        "check_date": "2024-05-04",
        "shop": "electronics"
      }
    },
    {
      "type": "node",
      "id": 11878470076,
      "lat": 13.0441052,
      "lon": 77.6259727,
      "tags": {
        "brand": "cult.fit",
        "brand:wikidata": "Q121289250",
        "check_date": "2024-05-04",
        "leisure": "fitness_centre",
        "name": "cult.fit"
      }
    },
    {
      "type": "node",
      "id": 11878470077,
      "lat": 13.0419502,
      "lon": 77.6247788,
      "tags": {
        "amenity": "pharmacy",
        "check_date": "2024-05-04",
        "healthcare": "pharmacy",
        "name": "Medishop"
      }
    },
    {
      "type": "node",
      "id": 11917452858,
      "lat": 13.0564588,
      "lon": 77.6331135,
      "tags": {
        "amenity": "place_of_worship",
        "check_date": "2024-05-19",
        "religion": "hindu"
      }
    },
    {
      "type": "node",
      "id": 11917452859,
      "lat": 13.0503993,
      "lon": 77.6307433,
      "tags": {
        "amenity": "place_of_worship",
        "check_date": "2024-05-19",
        "religion": "muslim"
      }
    },
    {
      "type": "node",
      "id": 12141951379,
      "lat": 13.0480765,
      "lon": 77.6253685,
      "tags": {
        "access": "private",
        "amenity": "parking_entrance",
        "parking": "underground"
      }
    },
    {
      "type": "node",
      "id": 12141951401,
      "lat": 13.0468418,
      "lon": 77.6266547,
      "tags": {
        "access": "private",
        "amenity": "parking_entrance",
        "parking": "underground"
      }
    },
    {
      "type": "node",
      "id": 12201417648,
      "lat": 13.0571244,
      "lon": 77.6290066,
      "tags": {
        "amenity": "parking_entrance"
      }
    },
    {
      "type": "node",
      "id": 12201417651,
      "lat": 13.0580854,
      "lon": 77.6295686,
      "tags": {
        "amenity": "parking_entrance"
      }
    },
    {
      "type": "node",
      "id": 12201417652,
      "lat": 13.0581057,
      "lon": 77.6295362,
      "tags": {
        "amenity": "parking_entrance"
      }
    },
    {
      "type": "node",
      "id": 12265540826,
      "lat": 13.0458834,
      "lon": 77.6275138,
      "tags": {
        "check_date": "2024-10-19",
        "name": "Sree Keerthi Glass And Plywood",
        "shop": "hardware"
      }
    },
    {
      "type": "node",
      "id": 12265540827,
      "lat": 13.0467952,
      "lon": 77.6283887,
      "tags": {
        "check_date": "2024-10-19",
        "name": "Phono Range",
        "shop": "mobile_phone"
      }
    },
    {
      "type": "node",
      "id": 12265540836,
      "lat": 13.0488156,
      "lon": 77.6293638,
      "tags": {
        "check_date": "2024-10-19",
        "name": "Al Zam Zam",
        "shop": "bakery"
      }
    },
    {
      "type": "node",
      "id": 12265540837,
      "lat": 13.0493495,
      "lon": 77.6300471,
      "tags": {
        "amenity": "pharmacy",
        "check_date": "2024-10-19",
        "healthcare": "pharmacy",
        "name": "Payal Medical"
      }
    },
    {
      "type": "node",
      "id": 12265540838,
      "lat": 13.0518455,
      "lon": 77.6312217,
      "tags": {
        "amenity": "restaurant",
        "check_date": "2024-10-19",
        "name": "Sri Rameshwara Cafe"
      }
    },
    {
      "type": "node",
      "id": 12265540839,
      "lat": 13.0519137,
      "lon": 77.6312054,
      "tags": {
        "amenity": "restaurant",
        "brand": "Pizza Hut",
        "brand:wikidata": "Q191615",
        "check_date": "2024-10-19",
        "cuisine": "pizza",
        "name": "Pizza Hut"
      }
    },
    {
      "type": "node",
      "id": 12892359309,
      "lat": 13.0503458,
      "lon": 77.623322,
      "tags": {
        "addr:city": "Bengaluru",
        "addr:country": "IN",
        "addr:postcode": "560045",
        "addr:street": "Outer Ring Road",
        "addr:suburb": "Nagavara",
        "amenity": "coworking_space",
        "branch": "Manyata",
        "brand": "WeWork",
        "brand:wikidata": "Q19995004",
        "fee": "yes",
        "name": "WeWork Manyata Mahogany",
        "office": "coworking",
        "opening_hours": "24/7",
        "operator": "WeWork",
        "website": "https://wework.co.in/bangalore/hebbal/manyata-mahogany/"
      }
    },
    {
      "type": "node",
      "id": 13066450484,
      "lat": 13.0518834,
      "lon": 77.6311612,
      "tags": {
        "addr:city": "Bengaluru",
        "addr:district": "Bengaluru",
        "addr:housenumber": "First Floor, S Ramaiah Arcade, above PizzaHut",
        "addr:postcode": "560077",
        "addr:street": "Thanisandra Main Rd, Ashwath Nagar",
        "amenity": "dentist",
        "contact:facebook": "https://www.facebook.com/lotusadvanceddentalcare/",
        "description": "LOTUS ADVANCED DENTAL CARE provides the best advanced dental treatments at most affordable prices and with completely sterilized, UV preserved equipment, near Manyata Techpark",
        "healthcare": "dentist",
        "healthcare:speciality": "dentistry;dental_oral_maxillo_facial_surgery;orthodontics;dentist;dental",
        "image": "https://lh3.googleusercontent.com/p/AF1QipNrsqRKGyu48cnB3U6cej_m2S2g0NnHtbrkazcf=s1360-w1360-h1020-rw",
        "loc_name": "Lotus Advanced Dental Care",
        "name": "Lotus Advanced Dental Care",
        "official_name": "Lotus Advanced Dental Care",
        "operator": "Lotus Advanced Dental Care",
        "website": "https://lotusadvanceddentalcare.com/"
      }
    },
    {
      "type": "node",
      "id": 13072080424,
      "lat": 13.0513474,
      "lon": 77.6348919,
      "tags": {
        "name": "Krishna Priya Bakery",
        "shop": "bakery"
      }
    },
    {
      "type": "way",
      "id": 33833510,
      "center": {
        "lat": 13.0523771,
        "lon": 77.6202284
      },
      "tags": {
        "leisure": "park"
      }
    },
    {
      "type": "way",
      "id": 33833511,
      "center": {
        "lat": 13.0530568,
        "lon": 77.6207923
      },
      "tags": {
        "leisure": "park"
      }
    },
    {
      "type": "way",
      "id": 33834079,
      "center": {
        "lat": 13.0553372,
        "lon": 77.6238674
      },
      "tags": {
        "leisure": "park"
      }
    },
    {
      "type": "way",
      "id": 33834080,
      "center": {
        "lat": 13.0546295,
        "lon": 77.6227583
      },
      "tags": {
        "leisure": "park"
      }
    },
    {
      "type": "way",
      "id": 33834081,
      "center": {
        "lat": 13.0552468,
        "lon": 77.6212394
      },
      "tags": {
        "leisure": "park",
        "name": "Manyata Park",
        "name:kn": "ಮಾನ್ಯತ ಉದ್ಯಾನವನ",
        "wheelchair": "no"
      }
    },
    {
      "type": "way",
      "id": 33834082,
      "center": {
        "lat": 13.0558174,
        "lon": 77.6202737
      },
      "tags": {
        "leisure": "park"
      }
    },
    {
      "type": "way",
      "id": 33834084,
      "center": {
        "lat": 13.053379,
        "lon": 77.620823
      },
      "tags": {
        "leisure": "park"
      }
    },
    {
      "type": "way",
      "id": 33834085,
      "center": {
        "lat": 13.0527242,
        "lon": 77.6201762
      },
      "tags": {
        "leisure": "park"
      }
    },
    {
      "type": "way",
      "id": 33836741,
      "center": {
        "lat": 13.0544806,
        "lon": 77.6240691
      },
      "tags": {
        "leisure": "park"
      }
    },
    {
      "type": "way",
      "id": 184946121,
      "center": {
        "lat": 13.0467201,
        "lon": 77.6247899
      },
      "tags": {
        "leisure": "park"
      }
    },
    {
      "type": "way",
      "id": 184946123,
      "center": {
        "lat": 13.0463015,
        "lon": 77.6260506
      },
      "tags": {
        "leisure": "park"
      }
    },
    {
      "type": "way",
      "id": 208960802,
      "center": {
        "lat": 13.0500348,
        "lon": 77.6199009
      },
      "tags": {
        "amenity": "parking",
        "building": "yes",
        "name": "MLCP",
        "parking": "multi-storey"
      }
    },
    {
      "type": "way",
      "id": 387287366,
      "center": {
        "lat": 13.0510008,
        "lon": 77.6208587
      },
      "tags": {
        "amenity": "parking",
        "building": "yes",
        "name": "MLCP",
        "parking": "multi-storey"
      }
    },
    {
      "type": "way",
      "id": 397910843,
      "center": {
        "lat": 13.056717,
        "lon": 77.62962
      },
      "tags": {
        "building": "commercial",
        "name": "Families",
        "shop": "supermarket"
      }
    },
    {
      "type": "way",
      "id": 462152431,
      "center": {
        "lat": 13.0560399,
        "lon": 77.6289674
      },
      "tags": {
        "amenity": "school"
      }
    },
    {
      "type": "way",
      "id": 491335684,
      "center": {
        "lat": 13.0478086,
        "lon": 77.6233707
      },
      "tags": {
        "amenity": "parking",
        "building": "yes",
        "name": "MLCP",
        "parking": "multi-storey"
      }
    },
    {
      "type": "way",
      "id": 491335685,
      "center": {
        "lat": 13.0459998,
        "lon": 77.6200361
      },
      "tags": {
        "amenity": "parking",
        "building": "yes",
        "parking": "multi-storey"
      }
    },
    {
      "type": "way",
      "id": 546260806,
      "center": {
        "lat": 13.0477493,
        "lon": 77.6205917
      },
      "tags": {
        "description": "Manyata Resting Area surrounded by small water flow and few trees. you can also have coconut water nearby which is good for health",
        "leisure": "park",
        "name": "MEBP Park1",
        "wheelchair": "no"
      }
    },
    {
      "type": "way",
      "id": 546261158,
      "center": {
        "lat": 13.0505893,
        "lon": 77.6221073
      },
      "tags": {
        "alt_name": "MEBP Park2",
        "description": "This is a well manicured green area where you can come to take a break along with your colleagues",
        "leisure": "park",
        "name": "The Arena",
        "tourism": "viewpoint",
        "wheelchair": "no"
      }
    },
    {
      "type": "way",
      "id": 558277512,
      "center": {
        "lat": 13.056848,
        "lon": 77.629695
      },
      "tags": {
        "access": "customers",
        "amenity": "parking"
      }
    },
    {
      "type": "way",
      "id": 558306948,
      "center": {
        "lat": 13.049383,
        "lon": 77.6235443
      },
      "tags": {
        "amenity": "parking",
        "building": "yes",
        "parking": "multi-storey"
      }
    },
    {
      "type": "way",
      "id": 562232873,
      "center": {
        "lat": 13.0534381,
        "lon": 77.621307
      },
      "tags": {
        "leisure": "park"
      }
    },
    {
      "type": "way",
      "id": 726880525,
      "center": {
        "lat": 13.0443624,
        "lon": 77.6219702
      },
      "tags": {
        "amenity": "theatre",
        "operator": "Embassy Group",
        "theatre:type": "amphi"
      }
    },
    {
      "type": "way",
      "id": 1065072656,
      "center": {
        "lat": 13.0529299,
        "lon": 77.6316858
      },
      "tags": {
        "amenity": "fuel",
        "check_date": "2024-10-19",
        "name": "Indian Auto Gas"
      }
    },
    {
      "type": "way",
      "id": 1097428090,
      "center": {
        "lat": 13.0426074,
        "lon": 77.6316556
      },
      "tags": {
        "leisure": "park"
      }
    },
    {
      "type": "way",
      "id": 1172705742,
      "center": {
        "lat": 13.0439074,
        "lon": 77.6254342
      },
      "tags": {
        "brand": "Volkswagen",
        "brand:wikidata": "Q246",
        "check_date": "2024-05-04",
        "name": "Volkswagen Bangalore North",
        "shop": "car"
      }
    },
    {
      "type": "way",
      "id": 1202598176,
      "center": {
        "lat": 13.042322,
        "lon": 77.6303916
      },
      "tags": {
        "leisure": "playground"
      }
    },
    {
      "type": "way",
      "id": 1230089504,
      "center": {
        "lat": 13.0470208,
        "lon": 77.6281721
      },
      "tags": {
        "brand": "Honda",
        "building": "yes",
        "name": "Dhruvdesh Honda",
        "not:brand:wikidata": "Q9584",
        "operator": "Honda",
        "shop": "motorcycle"
      }
    },
    {
      "type": "way",
      "id": 1243757191,
      "center": {
        "lat": 13.0471211,
        "lon": 77.6264037
      },
      "tags": {
        "access": "private",
        "leisure": "pitch",
        "sport": "tennis"
      }
    },
    {
      "type": "way",
      "id": 1243757193,
      "center": {
        "lat": 13.0472639,
        "lon": 77.6259807
      },
      "tags": {
        "access": "private",
        "leisure": "miniature_golf"
      }
    },
    {
      "type": "way",
      "id": 1245441025,
      "center": {
        "lat": 13.0484299,
        "lon": 77.6289465
      },
      "tags": {
        "addr:city": "Bengaluru",
        "addr:district": "Thanisandra",
        "addr:postcode": "560077",
        "addr:street": "Thanisandra Main Road",
        "brand": "Zudio",
        "brand:wikidata": "Q123375926",
        "building": "yes",
        "clothes": "women;men;underwear;children",
        "description": "Zudio clothing store",
        "name": "Zudio",
        "note": "Building does not show up on older satellite layers",
        "opening_hours": "Mo-Su 11:00-21:00",
        "shop": "clothes"
      }
    },
    {
      "type": "way",
      "id": 1252760378,
      "center": {
        "lat": 13.0473771,
        "lon": 77.623904
      },
      "tags": {
        "access": "customers",
        "leisure": "pitch",
        "name": "North City Football Turf",
        "sport": "soccer",
        "surface": "artificial_turf"
      }
    },
    {
      "type": "way",
      "id": 1258088682,
      "center": {
        "lat": 13.0470489,
        "lon": 77.6215195
      },
      "tags": {
        "leisure": "garden"
      }
    },
    {
      "type": "way",
      "id": 1267736394,
      "center": {
        "lat": 13.0467305,
        "lon": 77.626012
      },
      "tags": {
        "leisure": "park"
      }
    },
    {
      "type": "way",
      "id": 1267736396,
      "center": {
        "lat": 13.0488484,
        "lon": 77.625461
      },
      "tags": {
        "access": "private",
        "leisure": "pitch",
        "sport": "tennis"
      }
    },
    {
      "type": "way",
      "id": 1302247710,
      "center": {
        "lat": 13.0585973,
        "lon": 77.6256341
      },
      "tags": {
        "amenity": "school"
      }
    },
    {
      "type": "way",
      "id": 1311754630,
      "center": {
        "lat": 13.0490083,
        "lon": 77.6258624
      },
      "tags": {
        "access": "private",
        "leisure": "pitch",
        "sport": "basketball"
      }
    },
    {
      "type": "way",
      "id": 1311754631,
      "center": {
        "lat": 13.0489806,
        "lon": 77.6260158
      },
      "tags": {
        "access": "private",
        "leisure": "pitch",
        "sport": "tennis"
      }
    },
    {
      "type": "way",
      "id": 1311754644,
      "center": {
        "lat": 13.0472503,
        "lon": 77.6251305
      },
      "tags": {
        "access": "private",
        "leisure": "swimming_pool"
      }
    },
    {
      "type": "way",
      "id": 1311756238,
      "center": {
        "lat": 13.0516451,
        "lon": 77.6305706
      },
      "tags": {
        "amenity": "fuel",
        "name": "Shell Petrol Pump",
        "website": "https://www.shell.in/"
      }
    },
    {
      "type": "way",
      "id": 1311756276,
      "center": {
        "lat": 13.0443092,
        "lon": 77.6266882
      },
      "tags": {
        "amenity": "fuel",
        "brand:wikidata": "Q1289348",
        "check_date": "2024-05-04",
        "self_service": "no"
      }
    },
    {
      "type": "way",
      "id": 1344809123,
      "center": {
        "lat": 13.0570914,
        "lon": 77.6288511
      },
      "tags": {
        "access": "private",
        "leisure": "swimming_pool"
      }
    },
    {
      "type": "way",
      "id": 1344809151,
      "center": {
        "lat": 13.054082,
        "lon": 77.622332
      },
      "tags": {
        "access": "private",
        "leisure": "swimming_pool"
      }
    },
    {
      "type": "way",
      "id": 1344809154,
      "center": {
        "lat": 13.0536126,
        "lon": 77.6212376
      },
      "tags": {
        "amenity": "fountain"
      }
    },
    {
      "type": "way",
      "id": 1349707571,
      "center": {
        "lat": 13.0561317,
        "lon": 77.6324405
      },
      "tags": {
        "addr:street": "Thanisandra Main Road",
        "amenity": "fuel",
        "brand": "Bharat Petroleum",
        "brand:wikidata": "Q854826",
        "name": "Bharat Petroleum",
        "name:kn": "ಭಾರತ್ ಪೆಟ್ರೋಲಿಯಂ",
        "operator": "Bharat Petroleum"
      }
    },
    {
      "type": "way",
      "id": 1364056334,
      "center": {
        "lat": 13.0414705,
        "lon": 77.6263227
      },
      "tags": {
        "amenity": "events_venue",
        "landuse": "commercial",
        "name": "Sri Lakshmi Srinivasa Kalyana Mantapa"
      }
    },
    {
      "type": "way",
      "id": 1364056392,
      "center": {
        "lat": 13.0424074,
        "lon": 77.6306024
      },
      "tags": {
        "leisure": "playground"
      }
    },
    {
      "type": "way",
      "id": 1374773993,
      "center": {
        "lat": 13.0549311,
        "lon": 77.6314675
      },
      "tags": {
        "addr:city": "Bengaluru",
        "addr:district": "Karnataka",
        "addr:housenumber": "72/1",
        "addr:postcode": "560077",
        "addr:street": "Thanisandra Main Road",
        "amenity": "conference_centre",
        "building": "yes",
        "name": "CMA Royal Convention & Wedding Hall",
        "phone": "+91 97314 44222"
      }
    },
    {
      "type": "way",
      "id": 1377247093,
      "center": {
        "lat": 13.0575507,
        "lon": 77.6258009
      },
      "tags": {
        "leisure": "park"
      }
    }
  ]
}