{
  "area_name": "Seven Hills Layout",
  "osm_id": 3414616703,
  "osm_type": "node",
  "place_type": "neighbourhood",
  "amenity_count": 133,
  "amenities": [
    {
      "type": "node",
      "id": 1085786963,
      "lat": 12.9095131,
      "lon": 77.5502862,
      "tags": {
        "addr:street": "Uttarahalli Main Road",
        "amenity": "school",
        "name": "Bangalore International Public School"
      }
    },
    {
      "type": "node",
      "id": 1331946753,
      "lat": 12.9134732,
      "lon": 77.5590565,
      "tags": {
        "amenity": "fuel",
        "name": "Kadirenahalli Petrol Pump"
      }
    },
    {
      "type": "node",
      "id": 1331946766,
      "lat": 12.9119447,
      "lon": 77.5581363,
      "tags": {
        "amenity": "school",
        "name": "Prarthana School",
        "name:kn": "ಪ್ರಾರ್ಥನಾ ಶಾಲೆ"
      }
    },
    {
      "type": "node",
      "id": 1463594510,
      "lat": 12.9099779,
      "lon": 77.5508753,
      "tags": {
        "amenity": "restaurant",
        "name": "Masala",
        "name:kn": "ಮಸಾಲ"
      }
    },
    {
      "type": "node",
      "id": 1463594776,
      "lat": 12.9100302,
      "lon": 77.5509021,
      "tags": {
        "amenity": "bar",
        "name": "Masala",
        "name:kn": "ಮಸಾಲ"
      }
    },
    {
      "type": "node",
      "id": 1463595320,
      "lat": 12.9109528,
      "lon": 77.5516022,
      "tags": {
        "amenity": "fast_food",
        "brand": "Domino's",
        "brand:ks": "ڈومینوز",
        "brand:pa": "ਡੋਮੀਨੋਜ਼",
        "brand:ur": "ڈومینوز",
        "brand:wikidata": "Q839466",
        "brand:wikipedia": "en:Domino's Pizza",
        "cuisine": "pizza",
        "name": "Domino's",
        "name:ks": "ڈومینوز",
        "name:pa": "ਡੋਮੀਨੋਜ਼",
        "name:ur": "ڈومینوز",
        "takeaway": "yes"
      }
    },
    {
      "type": "node",
      "id": 1471920981,
      "lat": 12.9090588,
      "lon": 77.5492656,
      "tags": {
        "amenity": "fast_food",
        "name": "Kaggis' Bakery"
      }
    },
    {
      "type": "node",
      "id": 1471922225,
      "lat": 12.9094097,
      "lon": 77.5499084,
      "tags": {
        "addr:postcode": "560061",
        "addr:street": "Dr. Vishnuvardhan Road",
        "amenity": "fast_food",
        "level": "-1",
        "name": "North Karanataka mess",
        "takeaway": "yes"
      }
    },
    {
      "type": "node",
      "id": 1471928745,
      "lat": 12.9118067,
      "lon": 77.5518439,
      "tags": {
        "amenity": "place_of_worship",
        "name": "Shanimahatma Temple",
        "name:kn": "ಶನಿ ಮಹಾತ್ಮ ದೇವಸ್ಥಾನ",
        "religion": "hindu"
      }
    },
    {
      "type": "node",
      "id": 1471928748,
      "lat": 12.9140237,
      "lon": 77.5587479,
      "tags": {
        "amenity": "cafe",
        "name": "Kaappi"
      }
    },
    {
      "type": "node",
      "id": 1809622951,
      "lat": 12.9185562,
      "lon": 77.5553293,
      "tags": {
        "name": "Royal Mart",
        "shop": "supermarket"
      }
    },
    {
      "type": "node",
      "id": 1812653243,
      "lat": 12.9181694,
      "lon": 77.5547822,
      "tags": {
        "amenity": "atm",
        "operator": "SBI ATM",
        "source": "Survey"
      }
    },
    {
      "type": "node",
      "id": 1812668247,
      "lat": 12.9180303,
      "lon": 77.5571707,
      "tags": {
        "amenity": "fast_food",
        "cuisine": "indian",
        "name": "Ice Cafe"
      }
    },
    {
      "type": "node",
      "id": 1812668672,
      "lat": 12.917953,
      "lon": 77.5571384,
      "tags": {
        "amenity": "atm",
        "operator": "Corporation Bank"
      }
    },
    {
      "type": "node",
      "id": 1812681877,
      "lat": 12.9183471,
      "lon": 77.5595726,
      "tags": {
        "amenity": "toilets",
        "designation": "Nirmal Toilet"
      }
    },
    {
      "type": "node",
      "id": 1812685208,
      "lat": 12.918619,
      "lon": 77.5518425,
      "tags": {
        "amenity": "place_of_worship",
        "name": "Temple",
        "name:kn": "ದೇವಸ್ಥಾನ",
        "religion": "hindu"
      }
    },
    {
      "type": "node",
      "id": 1814593842,
      "lat": 12.9184077,
      "lon": 77.5591112,
      "tags": {
        "amenity": "school",
        "name": "Sahakari Vidya Kendra",
        "name:kn": "ಸಹಕಾರಿ ವಿದ್ಯಾ ಕೇಂದ್ರ"
      }
    },
    {
      "type": "node",
      "id": 1816295160,
      "lat": 12.9164891,
      "lon": 77.559186,
      "tags": {
        "amenity": "place_of_worship",
        "name": "Venkateshwara Temple",
        "name:kn": "ವೆಂಕಟೇಶ್ವರ ದೇವಸ್ಥಾನ",
        "religion": "hindu"
      }
    },
    {
      "type": "node",
      "id": 2123541909,
      "lat": 12.9180956,
      "lon": 77.557202,
      "tags": {
        "amenity": "fast_food",
        "cuisine": "indian",
        "name": "SLV"
      }
    },
    {
      "type": "node",
      "id": 2123563497,
      "lat": 12.9165327,
      "lon": 77.55716,
      "tags": {
        "amenity": "place_of_worship",
        "name": "Anjaneya Temple",
        "name:kn": "ಆಂಜನೇಯ ದೇವಸ್ಥಾನ",
        "religion": "hindu"
      }
    },
    {
      "type": "node",
      "id": 2123564200,
      "lat": 12.915903,
      "lon": 77.5550223,
      "tags": {
        "addr:district": "Bengaluru Urban",
        "addr:full": "15Th Main, 17Th Cross Padmanabhanagar",
        "addr:postcode": "560070",
        "addr:state": "Karnataka",
        "amenity": "hospital",
        "emergency": "yes",
        "name": "Maharaja Agrasen Hospital, Bengaluru Urban",
        "source": "OpenGovernmentData"
      }
    },
    {
      "type": "node",
      "id": 2123565317,
      "lat": 12.9146638,
      "lon": 77.559228,
      "tags": {
        "amenity": "school",
        "name": "Prarthana School",
        "name:kn": "ಪ್ರಾರ್ಥನಾ ಶಾಲೆ"
      }
    },
    {
      "type": "node",
      "id": 2123565615,
      "lat": 12.9187365,
      "lon": 77.5575811,
      "tags": {
        "amenity": "post_office",
        "name": "Padmanabha Nagara Post Office"
      }
    },
    {
      "type": "node",
      "id": 2123575611,
      "lat": 12.9115707,
      "lon": 77.5493949,
      "tags": {
        "amenity": "place_of_worship",
        "name": "Chikkalasandra Raghavendra Swami Mutt",
        "religion": "hindu"
      }
    },
    {
      "type": "node",
      "id": 2123582023,
      "lat": 12.9106952,
      "lon": 77.5504089,
      "tags": {
        "leisure": "playground"
      }
    },
    {
      "type": "node",
      "id": 2123582390,
      "lat": 12.9117827,
      "lon": 77.5468577,
      "tags": {
        "leisure": "park",
        "name": "Ramanjenaya Nagara Park"
      }
    },
    {
      "type": "node",
      "id": 2123584079,
      "lat": 12.9111893,
      "lon": 77.5451491,
      "tags": {
        "leisure": "pitch"
      }
    },
    {
      "type": "node",
      "id": 2123584652,
      "lat": 12.9114769,
      "lon": 77.5450633,
      "tags": {
        "leisure": "pitch"
      }
    },
    {
      "type": "node",
      "id": 2123585527,
      "lat": 12.9118324,
      "lon": 77.544956,
      "tags": {
        "leisure": "playground"
      }
    },
    {
      "type": "node",
      "id": 2123625107,
      "lat": 12.9130191,
      "lon": 77.5463267,
      "tags": {
        "name": "A.R Minimart",
        "shop": "supermarket"
      }
    },
    {
      "type": "node",
      "id": 2123626147,
      "lat": 12.9103056,
      "lon": 77.5454924,
      "tags": {
        "shop": "convenience"
      }
    },
    {
      "type": "node",
      "id": 2123629154,
      "lat": 12.9151671,
      "lon": 77.552159,
      "tags": {
        "amenity": "bus_station",
        "name": "Chikkalasandra Bus Stop",
        "name:kn": "ಚಿಕ್ಕಲಸಂದ್ರ"
      }
    },
    {
      "type": "node",
      "id": 2124813862,
      "lat": 12.9179548,
      "lon": 77.555816,
      "tags": {
        "amenity": "hospital",
        "name": "Bangalore Kidney Foundation - NU Hospital"
      }
    },
    {
      "type": "node",
      "id": 2124814946,
      "lat": 12.9183496,
      "lon": 77.5572332,
      "tags": {
        "name": "Choice Bakery",
        "shop": "bakery"
      }
    },
    {
      "type": "node",
      "id": 2124814947,
      "lat": 12.9178136,
      "lon": 77.5561808,
      "tags": {
        "shop": "convenience"
      }
    },
    {
      "type": "node",
      "id": 2124814949,
      "lat": 12.9184882,
      "lon": 77.557254,
      "tags": {
        "shop": "greengrocer"
      }
    },
    {
      "type": "node",
      "id": 2124814950,
      "lat": 12.9178868,
      "lon": 77.5561969,
      "tags": {
        "amenity": "pharmacy"
      }
    },
    {
      "type": "node",
      "id": 2127402487,
      "lat": 12.9072121,
      "lon": 77.5462363,
      "tags": {
        "amenity": "fuel",
        "name": "IOCL",
        "operator": "Yogi Enterprise"
      }
    },
    {
      "type": "node",
      "id": 2466664086,
      "lat": 12.9152651,
      "lon": 77.5592492,
      "tags": {
        "amenity": "fuel",
        "brand": "Total",
        "brand:wikidata": "Q154037",
        "name": "Total Auto Gas"
      }
    },
    {
      "type": "node",
      "id": 2932847484,
      "lat": 12.916348,
      "lon": 77.5591356,
      "tags": {
        "addr:city": "Bangalore",
        "addr:postcode": "560070",
        "amenity": "place_of_worship",
        "name": "Prasanna Ganapati Temple",
        "name:kn": "ರಸನ್ನ ಗಣಪತಿ ದೇವಸ್ಥಾನ",
        "religion": "hindu"
      }
    },
    {
      "type": "node",
      "id": 2932851733,
      "lat": 12.9169288,
      "lon": 77.5592568,
      "tags": {
        "addr:city": "Bangalore",
        "addr:district": "Bengaluru Urban",
        "addr:full": "No. 30, Pavana Dhama, 80 Feet Main Road,Opposite Nilgiris,Padmanabha Nagar",
        "addr:postcode": "560070",
        "addr:state": "Karnataka",
        "amenity": "hospital",
        "healthcare": "hospital",
        "name": "Dr.Agarwal's Eye Hospital Ltd, Padmanabha Nagar",
        "operator": "Dr. Agarwal's Eye Hospital",
        "operator:wikidata": "Q17052044",
        "source": "OpenGovernmentData"
      }
    },
    {
      "type": "node",
      "id": 2984282932,
      "lat": 12.9088477,
      "lon": 77.5486338,
      "tags": {
        "amenity": "restaurant",
        "name": "Shanthi Sagar",
        "name:kn": "ಶಾಂತಿ ಸಾಗರ"
      }
    },
    {
      "type": "node",
      "id": 2984286485,
      "lat": 12.9075154,
      "lon": 77.5468074,
      "tags": {
        "name": "Royal Mart Supermarket",
        "shop": "supermarket"
      }
    },
    {
      "type": "node",
      "id": 2984290232,
      "lat": 12.9093408,
      "lon": 77.5493517,
      "tags": {
        "name": "Farm Fresh",
        "shop": "supermarket"
      }
    },
    {
      "type": "node",
      "id": 2984295033,
      "lat": 12.9184617,
      "lon": 77.5555842,
      "tags": {
        "addr:district": "Bengaluru Urban",
        "addr:full": "Thimmaiah Road, Padmanabhanagar, Bengaluru",
        "addr:postcode": "560070",
        "addr:state": "Karnataka",
        "amenity": "hospital",
        "name": "Shraddha Eye Care",
        "source": "Local Knowledge"
      }
    },
    {
      "type": "node",
      "id": 3603794071,
      "lat": 12.9113891,
      "lon": 77.5531687,
      "tags": {
        "amenity": "atm",
        "brand": "ICICI Bank",
        "brand:wikidata": "Q1653258",
        "name": "ICICI Bank",
        "name:kn": "ಐಸಿಐಸಿಐ ಬ್ಯಾಂಕು",
        "opening_hours": "24 Hour ATM",
        "operator": "ICICI Bank",
        "operator:wikidata": "Q1653258",
        "short_name": "ICICI"
      }
    },
    {
      "type": "node",
      "id": 3603919193,
      "lat": 12.9123254,
      "lon": 77.555545,
      "tags": {
        "access": "permissive",
        "addr:city": "Bangalore",
        "addr:postcode": "560061",
        "addr:street": "Dr. Vishnuvardhan Road",
        "leisure": "swimming_pool",
        "name": "Netkallappa Aquatic Center",
        "phone": "080 4097 6591"
      }
    },
    {
      "type": "node",
      "id": 4446973326,
      "lat": 12.9170843,
      "lon": 77.5596138,
      "tags": {
        "addr:city": "Banashankari,Banglore",
        "addr:housenumber": "31/A",
        "addr:postcode": "560070",
        "addr:street": "Puttalingaiah Road",
        "amenity": "restaurant",
        "cuisine": "indian",
        "name": "Udupi Ruchis",
        "opening_hours": "07:00-22:30",
        "phone": "+91 78293 51388",
        "takeaway": "yes"
      }
    },
    {
      "type": "node",
      "id": 4446992350,
      "lat": 12.9152705,
      "lon": 77.5609497,
      "tags": {
        "addr:city": "Banashankari,Bangalore",
        "addr:housenumber": "19/1",
        "addr:postcode": "560070",
        "addr:street": "Subramaniapura Road",
        "amenity": "restaurant",
        "cuisine": "regional",
        "name": "Sri Banashankari Nati Style",
        "opening_hours": "12:00-16:00,19:00-22:30",
        "phone": "097421 74293",
        "takeaway": "yes"
      }
    },
    {
      "type": "node",
      "id": 4463206796,
      "lat": 12.9053331,
      "lon": 77.5533196,
      "tags": {
        "addr:postcode": "560061",
        "addr:street": "12th main road , BHCS layout",
        "amenity": "school",
        "name": "Bright Way School",
        "name:en": "Bright Way School",
        "opening_hours": "Mo-Sa 08:00-16:00"
      }
    },
    {
      "type": "node",
      "id": 4463224992,
      "lat": 12.9070086,
      "lon": 77.5488113,
      "tags": {
        "amenity": "cafe",
        "name": "Kona Kafe",
        "name:en": "Kona Kafe"
      }
    },
    {
      "type": "node",
      "id": 4545257890,
      "lat": 12.9072768,
      "lon": 77.5469171,
      "tags": {
        "addr:postcode": "560061",
        "addr:street": "Dr. Vishnuvardhan Road",
        "amenity": "pharmacy",
        "brand": "MedPlus",
        "brand:wikidata": "Q65684234",
        "healthcare": "pharmacy",
        "level": "0",
        "name": "MedPlus",
        "name:en": "Medplus",
        "name:kn": "ಮೆಡ್‍ಪ್ಲಸ್"
      }
    },
    {
      "type": "node",
      "id": 4545288190,
      "lat": 12.9081396,
      "lon": 77.5479979,
      "tags": {
        "addr:postcode": "560061",
        "addr:street": "Dr. Vishnuvardhan Road",
        "name": "Wildcraft Showroom Uttarahalli",
        "name:en": "Wildcraft Showroom Uttarahalli",
        "shop": "sports"
      }
    },
    {
      "type": "node",
      "id": 4545311889,
      "lat": 12.9074367,
      "lon": 77.5471724,
      "tags": {
        "addr:postcode": "560061",
        "addr:street": "Dr. Vishnuvardhan Road",
        "amenity": "fast_food",
        "cuisine": "indian",
        "diet:vegetarian": "yes",
        "name": "Bramhi's Chat Shop",
        "name:en": "Bramhi's Chat Shop"
      }
    },
    {
      "type": "node",
      "id": 4545311890,
      "lat": 12.9111565,
      "lon": 77.5517155,
      "tags": {
        "addr:city": "Bengaluru",
        "addr:postcode": "560061",
        "addr:street": "Dr. Vishnuvardhan Road",
        "level": "0",
        "name": "Kanti Sweets",
        "name:en": "Kanti Sweets",
        "operator": "Kanti Sweets",
        "payment:cards": "yes",
        "payment:cash": "yes",
        "payment:paytm": "yes",
        "payment:upi": "yes",
        "shop": "bakery",
        "wheelchair": "no"
      }
    },
    {
      "type": "node",
      "id": 4545334089,
      "lat": 12.9081551,
      "lon": 77.5477526,
      "tags": {
        "addr:postcode": "560061",
        "addr:street": "Dr. Vishnuvardhan Road",
        "name": "Vishal Mega Mart",
        "name:en": "Vishal Mega Mart",
        "shop": "clothes"
      }
    },
    {
      "type": "node",
      "id": 4545334090,
      "lat": 12.9091231,
      "lon": 77.549212,
      "tags": {
        "addr:postcode": "560061",
        "addr:street": "Dr. Vishnuvardhan Road",
        "name": "Annapurna Bakery",
        "name:en": "Annapurna Bakery",
        "shop": "bakery"
      }
    },
    {
      "type": "node",
      "id": 4545337989,
      "lat": 12.907239,
      "lon": 77.5467928,
      "tags": {
        "addr:postcode": "560061",
        "addr:street": "Dr. Vishnuvardhan Road",
        "name": "Xerox shop",
        "name:en": "Xerox shop",
        "shop": "copyshop"
      }
    },
    {
      "type": "node",
      "id": 4545856994,
      "lat": 12.9111811,
      "lon": 77.5517214,
      "tags": {
        "addr:city": "Bengaluru",
        "addr:postcode": "560061",
        "addr:street": "Dr. Vishnuvardhan Road",
        "level": "1",
        "name": "Naturals Salon",
        "name:en": "Naturals Salon",
        "shop": "cosmetics"
      }
    },
    {
      "type": "node",
      "id": 4545856996,
      "lat": 12.9094886,
      "lon": 77.5499478,
      "tags": {
        "amenity": "atm",
        "brand": "Axis Bank",
        "brand:wikidata": "Q2003549",
        "operator": "Axis Bank",
        "operator:wikidata": "Q2003549"
      }
    },
    {
      "type": "node",
      "id": 4545898295,
      "lat": 12.9118512,
      "lon": 77.5525391,
      "tags": {
        "addr:postcode": "560061",
        "addr:street": "Dr. Vishnuvardhan Road",
        "name": "Wine World",
        "name:en": "Wine World",
        "shop": "wine"
      }
    },
    {
      "type": "node",
      "id": 4545906789,
      "lat": 12.9135341,
      "lon": 77.5588078,
      "tags": {
        "addr:street": "Dr. Vishnuvardhan Road",
        "amenity": "restaurant",
        "cuisine": "regional;local;chinese;noodles;fish_and_chips;chicken;indian",
        "diet:vegetarian": "yes",
        "name": "Vanani Bar and Restaurant",
        "name:en": "Vanani Bar and Restaurant"
      }
    },
    {
      "type": "node",
      "id": 4545906791,
      "lat": 12.908455,
      "lon": 77.5481904,
      "tags": {
        "addr:postcode": "560061",
        "addr:street": "Dr. Vishnuvardhan Road",
        "amenity": "bank",
        "brand": "Karnataka Bank",
        "brand:wikidata": "Q2042632",
        "name": "Karnataka Bank",
        "name:en": "Karnataka Bank",
        "name:kn": "ಕರ್ನಾಟಕ ಬ್ಯಾಂಕ್"
      }
    },
    {
      "type": "node",
      "id": 4545906792,
      "lat": 12.9107538,
      "lon": 77.5513427,
      "tags": {
        "addr:postcode": "560061",
        "addr:street": "Dr. Vishnuvardhan Road",
        "amenity": "fast_food",
        "name": "Uttarahalli Biriyani House",
        "name:en": "Uttarahalli Biriyani House"
      }
    },
    {
      "type": "node",
      "id": 4545906989,
      "lat": 12.9084296,
      "lon": 77.5481682,
      "tags": {
        "amenity": "atm",
        "brand": "Karnataka Bank",
        "brand:wikidata": "Q2042632",
        "operator": "Karnataka Bank",
        "operator:wikidata": "Q2042632"
      }
    },
    {
      "type": "node",
      "id": 4545906990,
      "lat": 12.9095004,
      "lon": 77.5499914,
      "tags": {
        "amenity": "atm",
        "operator": "SBI State Bank of India"
      }
    },
    {
      "type": "node",
      "id": 4545994361,
      "lat": 12.9081105,
      "lon": 77.547977,
      "tags": {
        "amenity": "atm",
        "operator": "HDFC Bank ATM"
      }
    },
    {
      "type": "node",
      "id": 4546027012,
      "lat": 12.90929,
      "lon": 77.5492265,
      "tags": {
        "addr:city": "Bengaluru",
        "addr:housenumber": "23",
        "addr:postcode": "560061",
        "addr:street": "7th Main",
        "amenity": "restaurant",
        "diet:vegetarian": "yes",
        "name": "South Grand",
        "opening_hours": "06:30-22:00",
        "smoking": "no",
        "takeaway": "yes",
        "toilets:wheelchair": "no",
        "wheelchair": "no"
      }
    },
    {
      "type": "node",
      "id": 4547815816,
      "lat": 12.9075342,
      "lon": 77.546873,
      "tags": {
        "addr:postcode": "560061",
        "addr:street": "Dr. Vishnuvardhan Road",
        "leisure": "fitness_centre",
        "level": "2",
        "name": "Ambience Gym",
        "sport": "gymnasium"
      }
    },
    {
      "type": "node",
      "id": 4547815817,
      "lat": 12.9074709,
      "lon": 77.5472253,
      "tags": {
        "amenity": "atm",
        "brand": "Canara Bank",
        "brand:en": "Canara Bank",
        "brand:hi": "केनरा बैंक",
        "brand:kn": "ಕೆನರಾ ಬ್ಯಾಂಕ್",
        "brand:pa": "ਕੇਨਰਾ ਬੈਂਕ",
        "brand:pnb": "کینرا بینک",
        "brand:ur": "کینرا بینک",
        "brand:wikidata": "Q2003777",
        "currency:INR": "yes",
        "level": "0",
        "name": "Canara Bank",
        "name:en": "Canara Bank",
        "name:hi": "केनरा बैंक",
        "name:kn": "ಕೆನರಾ ಬ್ಯಾಂಕ್",
        "name:pa": "ਕੇਨਰਾ ਬੈਂਕ",
        "name:pnb": "کینرا بینک",
        "name:ur": "کینرا بینک",
        "operator": "Canara Bank",
        "operator:wikidata": "Q2003777"
      }
    },
    {
      "type": "node",
      "id": 4547815818,
      "lat": 12.9085041,
      "lon": 77.5482249,
      "tags": {
        "addr:postcode": "560061",
        "addr:street": "Dr. Vishnuvardhan Road",
        "amenity": "fast_food",
        "cuisine": "vada_pav",
        "drive_through": "no",
        "level": "0",
        "name": "Goli",
        "opening_hours": "11:00-21:00",
        "operator": "Goli",
        "smoking": "no",
        "takeaway": "yes"
      }
    },
    {
      "type": "node",
      "id": 4547821436,
      "lat": 12.9087185,
      "lon": 77.5484931,
      "tags": {
        "addr:postcode": "560061",
        "addr:street": "Dr. Vishnuvardhan Road",
        "amenity": "pharmacy",
        "healthcare": "pharmacy",
        "level": "0",
        "name": "Himalaya Medicals"
      }
    },
    {
      "type": "node",
      "id": 4550151789,
      "lat": 12.9072748,
      "lon": 77.5469062,
      "tags": {
        "addr:postcode": "560061",
        "addr:street": "Dr. Vishnuvardhan Road",
        "name": "Vinayaka Rice Traders",
        "name:en": "Vinayaka Rice Traders",
        "shop": "department_store"
      }
    },
    {
      "type": "node",
      "id": 4550151790,
      "lat": 12.9072677,
      "lon": 77.546892,
      "tags": {
        "amenity": "fuel",
        "name": "Jana Bharat Gas Agency",
        "name:en": "Jana Bharat Gas Agency"
      }
    },
    {
      "type": "node",
      "id": 4988213023,
      "lat": 12.9191661,
      "lon": 77.5511655,
      "tags": {
        "name": "RoyalMart",
        "shop": "supermarket"
      }
    },
    {
      "type": "node",
      "id": 5594629224,
      "lat": 12.9074344,
      "lon": 77.5468204,
      "tags": {
        "addr:city": "Bengaluru",
        "addr:postcode": "560061",
        "addr:street": "Dr. Vishnuvardhan Road",
        "name": "Reliance Trends",
        "shop": "clothes"
      }
    },
    {
      "type": "node",
      "id": 5596655985,
      "lat": 12.9099594,
      "lon": 77.5499367,
      "tags": {
        "addr:city": "Bengaluru",
        "addr:postcode": "560061",
        "name": "Patanjali Store",
        "operator": "Patanjali",
        "shop": "supermarket"
      }
    },
    {
      "type": "node",
      "id": 5596655986,
      "lat": 12.9098827,
      "lon": 77.5505327,
      "tags": {
        "addr:city": "Bengaluru",
        "addr:postcode": "560061",
        "addr:street": "Dr. Vishnuvardhan Road",
        "level": "0.5",
        "name": "Poorvika Mobiles",
        "name:kn": "ಪೂರ್ವಿಕ",
        "operator": "Poorvika",
        "shop": "mobile_phone"
      }
    },
    {
      "type": "node",
      "id": 5596655987,
      "lat": 12.9099841,
      "lon": 77.5500912,
      "tags": {
        "addr:city": "Bengaluru",
        "addr:postcode": "560061",
        "level": "-0.5",
        "name": "Happy Pockets Supermarket",
        "shop": "supermarket"
      }
    },
    {
      "type": "node",
      "id": 5615139106,
      "lat": 12.90901,
      "lon": 77.5530854,
      "tags": {
        "addr:city": "Bengaluru",
        "addr:postcode": "560061",
        "addr:street": "Garden School Road",
        "name": "Srinidhi Bakery",
        "payment:cash": "yes",
        "shop": "bakery"
      }
    },
    {
      "type": "node",
      "id": 5615139107,
      "lat": 12.9090169,
      "lon": 77.5530601,
      "tags": {
        "addr:city": "Bengaluru",
        "addr:postcode": "560061",
        "addr:street": "Garden School Road",
        "amenity": "fast_food",
        "cuisine": "south_indian",
        "delivery": "no",
        "drive_through": "no",
        "level": "0",
        "name": "Srinidhi Fast Food",
        "outdoor_seating": "no",
        "smoking": "no",
        "takeaway": "yes"
      }
    },
    {
      "type": "node",
      "id": 5615139108,
      "lat": 12.9090269,
      "lon": 77.5530309,
      "tags": {
        "addr:city": "Bengaluru",
        "addr:postcode": "560061",
        "addr:street": "Garden School Road",
        "level": "0",
        "name": "Swathy Farm Fresh",
        "shop": "greengrocer"
      }
    },
    {
      "type": "node",
      "id": 5615139109,
      "lat": 12.9090385,
      "lon": 77.5529858,
      "tags": {
        "addr:city": "Bengaluru",
        "addr:housenumber": "15/1",
        "addr:postcode": "560061",
        "addr:street": "Garden School Road",
        "amenity": "clinic",
        "healthcare": "clinic",
        "healthcare:speciality": "general",
        "name": "Vinayaka Clinic"
      }
    },
    {
      "type": "node",
      "id": 5615139110,
      "lat": 12.9092402,
      "lon": 77.5527258,
      "tags": {
        "addr:city": "Bengaluru",
        "addr:postcode": "560061",
        "addr:street": "Garden School Road",
        "name": "Saraswati Supermarket",
        "shop": "supermarket"
      }
    },
    {
      "type": "node",
      "id": 5615139111,
      "lat": 12.908144,
      "lon": 77.5495541,
      "tags": {
        "addr:city": "Bengaluru",
        "addr:postcode": "560061",
        "addr:street": "Dr. Vishnuvardhan Road",
        "level": "0",
        "name": "Guru Raghavendra Bakery",
        "payment:cards": "yes",
        "payment:cash": "yes",
        "payment:paytm": "yes",
        "shop": "bakery"
      }
    },
    {
      "type": "node",
      "id": 5626258365,
      "lat": 12.9092991,
      "lon": 77.5516337,
      "tags": {
        "addr:city": "Bengaluru",
        "addr:postcode": "560061",
        "addr:street": "Garden School Road",
        "amenity": "clinic",
        "healthcare": "clinic",
        "healthcare:speciality": "gynaecology;cardiology;general",
        "name": "Guru Raghavendra Clinic"
      }
    },
    {
      "type": "node",
      "id": 5626258366,
      "lat": 12.9093132,
      "lon": 77.5515743,
      "tags": {
        "addr:city": "Bengaluru",
        "addr:postcode": "560061",
        "addr:street": "Garden School Road",
        "amenity": "pharmacy",
        "dispensing": "yes",
        "healthcare": "pharmacy",
        "name": "Guru Raghavendra Medical Store",
        "payment:cards": "yes",
        "payment:cash": "yes"
      }
    },
    {
      "type": "node",
      "id": 5626258367,
      "lat": 12.9094755,
      "lon": 77.5517032,
      "tags": {
        "addr:city": "Bengaluru",
        "addr:postcode": "560061",
        "addr:street": "Garden School Road",
        "description": "Repairs electrical appliances",
        "name": "Hima Appliances",
        "payment:cash": "yes",
        "shop": "appliance"
      }
    },
    {
      "type": "node",
      "id": 5626258370,
      "lat": 12.9094418,
      "lon": 77.5511498,
      "tags": {
        "addr:city": "Bengaluru",
        "addr:postcode": "560061",
        "addr:street": "Garden School Road",
        "name": "Manjunatha Bakery",
        "shop": "bakery"
      }
    },
    {
      "type": "node",
      "id": 5626258371,
      "lat": 12.9079042,
      "lon": 77.549393,
      "tags": {
        "addr:city": "Bengaluru",
        "addr:postcode": "560061",
        "name": "Tender Coconut Store",
        "payment:cash": "yes",
        "payment:paytm": "yes",
        "shop": "health_food"
      }
    },
    {
      "type": "node",
      "id": 6852266953,
      "lat": 12.9158516,
      "lon": 77.5593919,
      "tags": {
        "addr:district": "Bengaluru Urban",
        "addr:full": "Padmanabhanagar, Bengaluru",
        "addr:postcode": "560070",
        "addr:state": "Karnataka",
        "amenity": "hospital",
        "healthcare": "hospital",
        "name": "Yogananda Multi Speciality Hospital",
        "name:kn": "ಯೋಗನಂದ ಆಸ್ಪತ್ರೆ",
        "source": "Local Knowledge"
      }
    },
    {
      "type": "node",
      "id": 6936794825,
      "lat": 12.9179183,
      "lon": 77.5567127,
      "tags": {
        "addr:city": "Bengaluru",
        "addr:postcode": "560070",
        "addr:street": "C J Venkatesa Das Road",
        "name": "Iyengar Bakery",
        "name:kn": "ಐಯ್ಯಂಗಾರ್ ಬೇಕರಿ",
        "payment:cash": "yes",
        "shop": "bakery"
      }
    },
    {
      "type": "node",
      "id": 6938772336,
      "lat": 12.9118831,
      "lon": 77.5528805,
      "tags": {
        "addr:district": "Bengaluru Urban",
        "addr:full": "Dr.Gurappa Naidu Complex, Opposite Komarla Brigade Residency. Uttarahalli Main Road, Chikkalasandra",
        "addr:postcode": "560063",
        "addr:state": "Karnataka",
        "amenity": "hospital",
        "healthcare": "hospital",
        "name": "C.S. Hospital",
        "source": "OpenGovernmentData"
      }
    },
    {
      "type": "node",
      "id": 6938777945,
      "lat": 12.9176216,
      "lon": 77.5550705,
      "tags": {
        "addr:district": "Bengaluru Urban",
        "addr:full": "Bkf Chand , Nephro- Urology Centre, Ca - 6,15Th, Main Street, 11Th Cross, Padmanabhanagar",
        "addr:postcode": "560070",
        "addr:state": "Karnataka",
        "amenity": "hospital",
        "name": "Nu Trust",
        "source": "OpenGovernmentData"
      }
    },
    {
      "type": "node",
      "id": 6947750361,
      "lat": 12.9162753,
      "lon": 77.5589544,
      "tags": {
        "addr:district": "Bengaluru Urban",
        "addr:full": "No. 113, 4Th Cross, R. K. Layout, Padmanabhanagar",
        "addr:postcode": "560070",
        "addr:state": "Karnataka",
        "amenity": "hospital",
        "healthcare": "hospital",
        "name": "Hillside Hospital",
        "source": "OpenGovernmentData"
      }
    },
    {
      "type": "node",
      "id": 7234723849,
      "lat": 12.9134949,
      "lon": 77.5565779,
      "tags": {
        "amenity": "place_of_worship",
        "name": "Muneshwara Temple",
        "name:kn": "ಮುನೇಶ್ವರ"
      }
    },
    {
      "type": "node",
      "id": 7579924701,
      "lat": 12.9175335,
      "lon": 77.559993,
      "tags": {
        "addr:district": "Bengaluru Urban",
        "addr:full": "Bengaluru",
        "addr:postcode": "560070",
        "addr:state": "Karnataka",
        "amenity": "clinic",
        "healthcare": "clinic",
        "name": "Vismaya ENT Clinic",
        "source": "Local Knowledge"
      }
    },
    {
      "type": "node",
      "id": 7579924709,
      "lat": 12.9222659,
      "lon": 77.550702,
      "tags": {
        "addr:district": "Bengaluru Urban",
        "addr:full": "Bhuvaneshwari Nagar, Abbigere, Bengaluru",
        "addr:postcode": "560090",
        "addr:state": "Karnataka",
        "amenity": "clinic",
        "name": "Prashant Clinic",
        "source": "Local Knowledge"
      }
    },
    {
      "type": "node",
      "id": 7579924714,
      "lat": 12.913901,
      "lon": 77.546925,
      "tags": {
        "addr:district": "Bengaluru Urban",
        "addr:full": "Ramanjaneyanagar, Chikkalasandra, Bengaluru",
        "addr:postcode": "560061",
        "addr:state": "Karnataka",
        "amenity": "dentist",
        "name": "Gowri Dental Clinic",
        "source": "Local Knowledge"
      }
    },
    {
      "type": "node",
      "id": 7579924723,
      "lat": 12.9169158,
      "lon": 77.5607423,
      "tags": {
        "addr:district": "Bengaluru Urban",
        "addr:full": "Padmanabha Nagar, Bengaluru",
        "addr:postcode": "560070",
        "addr:state": "Karnataka",
        "amenity": "dentist",
        "healthcare": "dentist",
        "name": "Ganesh Dental Care",
        "source": "Local Knowledge"
      }
    },
    {
      "type": "node",
      "id": 7579924733,
      "lat": 12.914444,
      "lon": 77.546796,
      "tags": {
        "addr:district": "Bengaluru Urban",
        "addr:full": "Ramanjeneya Nagar Main Road, Sneha Colony, Chikkalasandra, Bengaluru",
        "addr:postcode": "560061",
        "addr:state": "Karnataka",
        "amenity": "clinic",
        "name": "GBY ENT Clinic",
        "source": "Local Knowledge"
      }
    },
    {
      "type": "node",
      "id": 7579924736,
      "lat": 12.913579,
      "lon": 77.548358,
      "tags": {
        "addr:district": "Bengaluru Urban",
        "addr:full": "Sarvabhouma Nagar, Chikkalasandra, Bengaluru",
        "addr:postcode": "560061",
        "addr:state": "Karnataka",
        "amenity": "dentist",
        "name": "Root & Crown Dental Care",
        "source": "Local Knowledge"
      }
    },
    {
      "type": "node",
      "id": 7579924773,
      "lat": 12.914273,
      "lon": 77.548708,
      "tags": {
        "addr:district": "Bengaluru Urban",
        "addr:full": "Sarvabhuma Nagar, Chikkalasandra, Bengaluru",
        "addr:postcode": "560061",
        "addr:state": "Karnataka",
        "amenity": "dentist",
        "name": "Akshay Dental care",
        "source": "Local Knowledge"
      }
    },
    {
      "type": "node",
      "id": 7579924774,
      "lat": 12.909983,
      "lon": 77.544557,
      "tags": {
        "addr:district": "Bengaluru Urban",
        "addr:full": "Simhadri Layout, Uttarahalli Hobli, Bengaluru",
        "addr:postcode": "560061",
        "addr:state": "Karnataka",
        "amenity": "clinic",
        "name": "Ullas Clinic",
        "source": "Local Knowledge"
      }
    },
    {
      "type": "node",
      "id": 7579924777,
      "lat": 12.9075819,
      "lon": 77.5470543,
      "tags": {
        "addr:district": "Bengaluru Urban",
        "addr:full": "Chikkalasandra, Bengaluru",
        "addr:postcode": "560061",
        "addr:state": "Karnataka",
        "amenity": "clinic",
        "healthcare": "clinic",
        "name": "Diya Speciality Eye Care",
        "source": "Local Knowledge"
      }
    },
    {
      "type": "node",
      "id": 11279634288,
      "lat": 12.9198739,
      "lon": 77.5578868,
      "tags": {
        "amenity": "shelter",
        "shelter_type": "gazebo"
      }
    },
    {
      "type": "node",
      "id": 12462536465,
      "lat": 12.9186803,
      "lon": 77.5482356,
      "tags": {
        "addr:city": "Bengaluru",
        "addr:district": "Bengaluru South",
        "addr:housenumber": "39",
        "addr:postcode": "560061",
        "addr:street": "5th A Main, 3rd Cross, Hanumagiri Layout, Chikkalsandra",
        "amenity": "restaurant",
        "contact:facebook": "https://www.facebook.com/profile.php?id=61567838247673",
        "cuisine": "indian;punjabi;north_indian",
        "delivery": "yes",
        "description": "Dive into a culinary journey to Punjab from the heart of Chikkalsandra, Bengaluru, at Ambala Cantt - Cloud Kitchen. Experience the warmth of homemade Punjabi meals prepared with traditional recipes.",
        "diet:vegetarian": "yes",
        "email": "soniaventures28@gmail.com",
        "level": "1",
        "mobile": "+917892630802",
        "name": "Ambala Cantt- Cloud Kitchen",
        "opening_hours": "Sa-Su 12:00-23:30",
        "payment:cash": "yes",
        "payment:google_pay": "yes",
        "start_date": "2024-11-02",
        "takeaway": "only"
      }
    },
    {
      "type": "way",
      "id": 133142991,
      "center": {
        "lat": 12.9125019,
        "lon": 77.5574602
      },
      "tags": {
        "amenity": "college",
        "name": "Sri Kumarans College",
        "name:kn": "ಕುಮಾರನ್ ಕಾಲೇಜು"
      }
    },
    {
      "type": "way",
      "id": 244031567,
      "center": {
        "lat": 12.9209039,
        "lon": 77.5591701
      },
      "tags": {
        "amenity": "college",
        "name": "Regional Institute of Co-operative Management"
      }
    },
    {
      "type": "way",
      "id": 334651226,
      "center": {
        "lat": 12.9179562,
        "lon": 77.5553876
      },
      "tags": {
        "landuse": "commercial",
        "name": "Padmanabhanagara BSNL Office",
        "name:kn": "ಪದ್ಮನಾಭನಗರ ಬಿಎಸ್ಎನ್ಎಲ್ ಕಛೇರಿ",
        "shop": "telecommunication"
      }
    },
    {
      "type": "way",
      "id": 347504024,
      "center": {
        "lat": 12.9076006,
        "lon": 77.5471656
      },
      "tags": {
        "addr:city": "Bengaluru",
        "addr:postcode": "560061",
        "addr:street": "Dr. Vishnuvardhan Road",
        "amenity": "fast_food",
        "building": "yes",
        "cuisine": "south_indian;chats;north_indian",
        "drive_through": "no",
        "name": "Mandarthi Bhavan",
        "name:kn": "ಮಂದಾರ್ತಿ ಭವನ",
        "outdoor_seating": "no",
        "smoking": "no",
        "takeaway": "yes"
      }
    },
    {
      "type": "way",
      "id": 347539271,
      "center": {
        "lat": 12.9098917,
        "lon": 77.5501266
      },
      "tags": {
        "addr:city": "Bengaluru",
        "addr:postcode": "560061",
        "addr:street": "Dr. Vishnuvardhan Road",
        "brand": "Bata",
        "brand:wikidata": "Q688082",
        "building": "yes",
        "level": "0.5",
        "name": "Bata",
        "name:kn": "ಬಾಟಾ",
        "operator": "Bata",
        "payment:cash": "yes",
        "payment:credit_cards": "yes",
        "payment:debit_cards": "yes",
        "payment:maestro": "yes",
        "payment:mastercard": "yes",
        "payment:visa": "yes",
        "shop": "shoes",
        "wheelchair": "no"
      }
    },
    {
      "type": "way",
      "id": 348101723,
      "center": {
        "lat": 12.9152778,
        "lon": 77.5588134
      },
      "tags": {
        "addr:city": "Bangalore",
        "addr:postcode": "560070",
        "addr:street": "Puttalingaiah Road",
        "amenity": "fuel",
        "fuel:diesel": "yes",
        "fuel:petrol": "yes",
        "name": "Bharath Petrol Bunk",
        "name:kn": "ಭಾರತ್ ಪೆಟ್ರೋಲಿಯಂ",
        "opening_hours": "07:00-21:00"
      }
    },
    {
      "type": "way",
      "id": 348244961,
      "center": {
        "lat": 12.9100473,
        "lon": 77.5500181
      },
      "tags": {
        "addr:city": "Bengaluru",
        "addr:postcode": "560061",
        "addr:street": "6th Main Rd, KSRTC Layout, Chikkalasandra",
        "amenity": "fast_food",
        "building": "yes",
        "delivery": "no",
        "drive_through": "no",
        "name": "Hari Super Sandwich",
        "outdoor_seating": "no",
        "smoking": "no",
        "takeaway": "only"
      }
    },
    {
      "type": "way",
      "id": 349716799,
      "center": {
        "lat": 12.9065758,
        "lon": 77.5572543
      },
      "tags": {
        "amenity": "place_of_worship",
        "building": "yes",
        "name": "Raja Rajeshwari Temple",
        "name:kn": "ರಾಜ ರಾಜೇಶ್ವರಿ ದೇವಸ್ಥಾನ",
        "religion": "hindu"
      }
    },
    {
      "type": "way",
      "id": 469354011,
      "center": {
        "lat": 12.9064926,
        "lon": 77.5572909
      },
      "tags": {
        "amenity": "place_of_worship",
        "building": "yes",
        "name": "Sri Rajarajeshwari Temple",
        "name:kn": "ಶ್ರೀ ರಾಜರಾಜೇಶ್ವರಿ ದೇವಸ್ಥಾನ",
        "religion": "hindu"
      }
    },
    {
      "type": "way",
      "id": 479981469,
      "center": {
        "lat": 12.9192913,
        "lon": 77.5592937
      },
      "tags": {
        "amenity": "school",
        "name": "Carmel School",
        "name:kn": "ಕಾರ್ಮೆಲ್ ಶಾಲೆ"
      }
    },
    {
      "type": "way",
      "id": 556950053,
      "center": {
        "lat": 12.9180877,
        "lon": 77.5576506
      },
      "tags": {
        "description": "A public park with Gazebo to rest and have the natural freshness. Also called as Senior Citizen Park.",
        "leisure": "park",
        "name": "Padmanabhanagar Park",
        "name:kn": "ಪದ್ಮನಭನಗರ ಉದ್ಯಾನವನ"
      }
    },
    {
      "type": "way",
      "id": 579494263,
      "center": {
        "lat": 12.9149354,
        "lon": 77.5570101
      },
      "tags": {
        "leisure": "park",
        "name": "RK Layout park"
      }
    },
    {
      "type": "way",
      "id": 579495211,
      "center": {
        "lat": 12.9186872,
        "lon": 77.5592203
      },
      "tags": {
        "leisure": "park",
        "name": "Carmel School",
        "name:kn": "ಕಾರ್ಮೆಲ್ ಶಾಲೆ"
      }
    },
    {
      "type": "way",
      "id": 585450310,
      "center": {
        "lat": 12.9068214,
        "lon": 77.5504097
      },
      "tags": {
        "leisure": "park",
        "name": "BHCS Park",
        "opening_hours": "Mo-Su 05:00-09:00,16:00-20:00"
      }
    },
    {
      "type": "way",
      "id": 585450311,
      "center": {
        "lat": 12.9061278,
        "lon": 77.551345
      },
      "tags": {
        "leisure": "park",
        "opening_hours": "Mo-Su 05:00-09:00,16:00-20:00"
      }
    },
    {
      "type": "way",
      "id": 585450314,
      "center": {
        "lat": 12.9048542,
        "lon": 77.5502474
      },
      "tags": {
        "access": "yes",
        "leisure": "pitch",
        "service_times": "24/7",
        "surface": "dirt"
      }
    },
    {
      "type": "way",
      "id": 585450316,
      "center": {
        "lat": 12.9052898,
        "lon": 77.5505199
      },
      "tags": {
        "access": "yes",
        "leisure": "playground",
        "max_age": "14",
        "name": "Kids Playground",
        "operator": "BBMP",
        "surface": "paved"
      }
    },
    {
      "type": "way",
      "id": 588708615,
      "center": {
        "lat": 12.9066599,
        "lon": 77.5547625
      },
      "tags": {
        "leisure": "park",
        "opening_hours": "Mo-Su 05:00-09:00, 16:00-20:00"
      }
    },
    {
      "type": "way",
      "id": 731648896,
      "center": {
        "lat": 12.9183704,
        "lon": 77.559938
      },
      "tags": {
        "addr:city": "Bengaluru",
        "addr:postcode": "560070",
        "addr:street": "Puttalingaiah Road",
        "amenity": "place_of_worship",
        "building": "yes",
        "name": "Sai Baba Temple",
        "name:kn": "ಸಾಯಿಬಾಬಾ ದೇವಸ್ಥಾನ",
        "religion": "hindu"
      }
    },
    {
      "type": "way",
      "id": 731648897,
      "center": {
        "lat": 12.9181044,
        "lon": 77.557742
      },
      "tags": {
        "addr:city": "Bengaluru",
        "addr:postcode": "560070",
        "addr:street": "Padmanabhanagar park",
        "amenity": "place_of_worship",
        "building": "yes",
        "name": "Sri Lakshmi Kanth Swamy Devstan Sankiran",
        "name:kn": "ಶ್ರೀ ಲಕ್ಷ್ಮಿ ಕಾಂತ್ ಸ್ವಾಮಿ ದೇವ್ಸ್ತಾನ್ ಸಂಕಿರಣ್",
        "religion": "hindu"
      }
    },
    {
      "type": "way",
      "id": 1033608653,
      "center": {
        "lat": 12.9107008,
        "lon": 77.5504568
      },
      "tags": {
        "leisure": "playground",
        "playground:theme": "playground",
        "surface": "dirt"
      }
    },
    {
      "type": "way",
      "id": 1033609968,
      "center": {
        "lat": 12.9125755,
        "lon": 77.5549599
      },
      "tags": {
        "access": "private",
        "leisure": "playground",
        "playground:theme": "playground",
        "surface": "dirt"
      }
    },
    {
      "type": "way",
      "id": 1033609969,
      "center": {
        "lat": 12.9125456,
        "lon": 77.5556204
      },
      "tags": {
        "access": "private",
        "leisure": "swimming_pool",
        "location": "outdoor",
        "swimming_pool": "outdoor"
      }
    },
    {
      "type": "way",
      "id": 1033609970,
      "center": {
        "lat": 12.9123905,
        "lon": 77.5558965
      },
      "tags": {
        "access": "private",
        "leisure": "swimming_pool",
        "location": "outdoor",
        "swimming_pool": "outdoor"
      }
    },
    {
      "type": "way",
      "id": 1337111980,
      "center": {
        "lat": 12.9134204,
        "lon": 77.553895
      },
      "tags": {
        "amenity": "school",
        "name": "Deccan International School"
      }
    },
    {
      "type": "way",
      "id": 1352846823,
      "center": {
        "lat": 12.9208102,
        "lon": 77.5581159
      },
      "tags": {
        "addr:city": "Bengaluru",
        "addr:district": "Bengaluru Urban",
        "addr:postcode": "560070",
        "addr:street": "13th Main Road",
        "leisure": "park",
        "name": "Gururaghavendra Layout Park",
        "opening_hours": "Mo-Sa 05:00-20:00",
        "operator": "ಬೃಹತ್ ಬೆಂಗಳೂರು ಮಹಾನಗರ ಪಾಲಿಕೆ",
        "operator:en": "Bruhat Bengaluru Mahanagara Palike",
        "operator:ka": "ಬೃಹತ್ ಬೆಂಗಳೂರು ಮಹಾನಗರ ಪಾಲಿಕೆ",
        "operator:short": "BBMP",
        "operator:type": "government",
        "operator:wikidata": "Q4978693"
      }
    }
  ]
}