{
  "area_name": "Shakambarinagara",
  "osm_id": 19883329,
  "osm_type": "relation",
  "place_type": "administrative",
  "amenity_count": 304,
  "amenities": [
    {
      "type": "node",
      "id": 665727324,
      "lat": 12.9081047,
      "lon": 77.5925498,
      "tags": {
        "amenity": "school",
        "name": "Vasavi Education Trust School"
      }
    },
    {
      "type": "node",
      "id": 665727326,
      "lat": 12.9100629,
      "lon": 77.5924585,
      "tags": {
        "addr:district": "Bengaluru Urban",
        "addr:full": "220, 2nd phase, JP Nagar,Next to Nilgiris",
        "addr:postcode": "560078",
        "addr:state": "Karnataka",
        "amenity": "hospital",
        "check_date": "2025-06-21",
        "healthcare:speciality": "General Gynecology; Obstetrics; Prenatal Care; nulife clinic; Laboratory Testing and In-Office Surgery; Medical Spa for Women; Ophthalmology",
        "name": "Divakars speciality Hospital",
        "operator:type": "private",
        "source": "OpenGovernmentData",
        "website": "http://www.healthforher.in/"
      }
    },
    {
      "type": "node",
      "id": 928188132,
      "lat": 12.9104601,
      "lon": 77.5823629,
      "tags": {
        "addr:street": "Sarakki Main Road (9th Cross)",
        "amenity": "place_of_worship",
        "name": "Sri Kalyana Venkateshwara Temple",
        "name:kn": "ಕಲ್ಯಾಣ ವೆಂಕಟೇಶ್ವರ ಸ್ವಾಮಿ",
        "religion": "hindu"
      }
    },
    {
      "type": "node",
      "id": 1272424543,
      "lat": 12.9073391,
      "lon": 77.5830655,
      "tags": {
        "addr:street": "29 Main",
        "address": "593 14th cross 29th main",
        "amenity": "hospital",
        "designation": "Clinic",
        "emergency": "no",
        "name": "Srinivas Clinic",
        "name:kn": "ಶ್ರೀನಿವಾಸ್ ಕ್ಲಿನಿಕ್"
      }
    },
    {
      "type": "node",
      "id": 1331946754,
      "lat": 12.9109843,
      "lon": 77.5791221,
      "tags": {
        "amenity": "restaurant",
        "cuisine": "indian",
        "name": "Prasiddhi",
        "name:kn": "ಪ್ರಸಿದ್ಧಿ"
      }
    },
    {
      "type": "node",
      "id": 1331946776,
      "lat": 12.9056456,
      "lon": 77.5855728,
      "tags": {
        "amenity": "restaurant",
        "cuisine": "indian",
        "name": "Nandhini Deluxe",
        "name:kn": "ನಂದಿನಿ ಡಿಲಕ್ಸ್"
      }
    },
    {
      "type": "node",
      "id": 1336815278,
      "lat": 12.9088775,
      "lon": 77.5924507,
      "tags": {
        "leisure": "pitch",
        "name": "VET Cricket Ground"
      }
    },
    {
      "type": "node",
      "id": 1464921285,
      "lat": 12.9139266,
      "lon": 77.5854371,
      "tags": {
        "amenity": "bank",
        "atm": "yes",
        "brand": "State Bank of India",
        "brand:wikidata": "Q1340361",
        "brand:wikipedia": "en:State Bank of India",
        "name": "State Bank of India",
        "name:kn": "ಭಾರತೀಯ ಸ್ಟೇಟ್ ಬ್ಯಾಂಕ್",
        "short_name": "SBI"
      }
    },
    {
      "type": "node",
      "id": 1466691751,
      "lat": 12.9100191,
      "lon": 77.5925018,
      "tags": {
        "amenity": "bank",
        "atm": "yes",
        "brand": "Karnataka Bank",
        "brand:wikidata": "Q2042632",
        "name": "Karnataka Bank",
        "name:kn": "ಕರ್ನಾಟಕ ಬ್ಯಾಂಕ್"
      }
    },
    {
      "type": "node",
      "id": 1473881036,
      "lat": 12.9168936,
      "lon": 77.5816496,
      "tags": {
        "name": "Krishnaiya Chetty and Sons",
        "shop": "jewelry"
      }
    },
    {
      "type": "node",
      "id": 1474277938,
      "lat": 12.9135707,
      "lon": 77.5788941,
      "tags": {
        "addr:street": "Ayodhyarama Road",
        "amenity": "hospital",
        "name": "Parimala Clinic",
        "name:kn": "ಪರಿಮಳ ಚಿಕಿತ್ಸಾಲಯ"
      }
    },
    {
      "type": "node",
      "id": 1474277950,
      "lat": 12.9135528,
      "lon": 77.5787869,
      "tags": {
        "amenity": "pharmacy",
        "dispensing": "no",
        "name": "Vidya Medicals"
      }
    },
    {
      "type": "node",
      "id": 1474280054,
      "lat": 12.91702,
      "lon": 77.5782971,
      "tags": {
        "brand": "More",
        "brand:wikidata": "Q6910891",
        "name": "More",
        "shop": "supermarket"
      }
    },
    {
      "type": "node",
      "id": 1474800466,
      "lat": 12.9169431,
      "lon": 77.5822354,
      "tags": {
        "name": "Angadi Silks",
        "shop": "clothes"
      }
    },
    {
      "type": "node",
      "id": 1474800467,
      "lat": 12.9169333,
      "lon": 77.5802356,
      "tags": {
        "amenity": "bank",
        "atm": "yes",
        "brand": "Canara Bank",
        "brand:en": "Canara Bank",
        "brand:hi": "केनरा बैंक",
        "brand:kn": "ಕೆನರಾ ಬ್ಯಾಂಕ್",
        "brand:pa": "ਕੇਨਰਾ ਬੈਂਕ",
        "brand:pnb": "کینرا بینک",
        "brand:ur": "کینرا بینک",
        "brand:wikidata": "Q2003777",
        "brand:wikipedia": "en:Canara Bank",
        "brand:wikipedia:pa": "ਕੇਨਰਾ ਬੈਂਕ",
        "name": "Canara Bank",
        "name:en": "Canara Bank",
        "name:hi": "केनरा बैंक",
        "name:kn": "ಕೆನರಾ ಬ್ಯಾಂಕ್",
        "name:pa": "ਕੇਨਰਾ ਬੈਂਕ",
        "name:pnb": "کینرا بینک",
        "name:ur": "کینرا بینک",
        "website": "https://www.canarabank.com/"
      }
    },
    {
      "type": "node",
      "id": 1614268617,
      "lat": 12.9168408,
      "lon": 77.5851479,
      "tags": {
        "amenity": "restaurant",
        "diet:vegetarian": "only",
        "name": "Cable Car Restaurant",
        "name:kn": "ಕೇಬಲ್ ಕಾರ್ ರೆಸ್ಟೋರೆಂಟ್"
      }
    },
    {
      "type": "node",
      "id": 1732933830,
      "lat": 12.91411,
      "lon": 77.5856235,
      "tags": {
        "amenity": "atm",
        "brand": "Corporation Bank",
        "brand:wikidata": "Q2003387",
        "name": "Corporation Bank",
        "operator": "Corporation Bank",
        "operator:wikidata": "Q2003387"
      }
    },
    {
      "type": "node",
      "id": 1866181822,
      "lat": 12.9064987,
      "lon": 77.5930188,
      "tags": {
        "addr:housename": "Emlion Hotel",
        "addr:postcode": "560078",
        "addr:street": "15th Cross",
        "amenity": "restaurant",
        "level": "0",
        "name": "The Onyx"
      }
    },
    {
      "type": "node",
      "id": 1866221218,
      "lat": 12.9065766,
      "lon": 77.5907568,
      "tags": {
        "amenity": "fuel",
        "brand": "Hindustan Petroleum",
        "brand:wikidata": "Q1619375",
        "fuel:diesel": "yes",
        "name": "Hindustan Petroleum",
        "name:kn": "ಹಿಂದುಸ್ತಾನ್ ಪೆಟ್ರೋಲಿಯಂ",
        "official_name": "Hindustan Petroleum"
      }
    },
    {
      "type": "node",
      "id": 2643403147,
      "lat": 12.9061299,
      "lon": 77.5920538,
      "tags": {
        "name": "Vijay Wheel Alignment",
        "note": "Monday, Tuesday, Wednesday, Thursday, Friday, Saturday: 10:00 am to 08:00 pm Sunday Holiday",
        "phone": "+91 8049157378",
        "shop": "car_repair",
        "wheelchair": "limited"
      }
    },
    {
      "type": "node",
      "id": 2893520202,
      "lat": 12.9103464,
      "lon": 77.5862157,
      "tags": {
        "brand": "Reliance Digital",
        "brand:wikidata": "Q7311012",
        "name": "Reliance Digital",
        "name:kn": "ರಿಲಾಯನ್ಸ್ ಡಿಜಿಟಲ್",
        "shop": "electronics"
      }
    },
    {
      "type": "node",
      "id": 2934051706,
      "lat": 12.9136778,
      "lon": 77.5856582,
      "tags": {
        "brand": "Liberty",
        "brand:wikidata": "Q6541947",
        "name": "Liberty Exclusive Showroom",
        "name:kn": "ಲಿಬರ್ಟಿ",
        "shop": "shoes"
      }
    },
    {
      "type": "node",
      "id": 2934051708,
      "lat": 12.9123213,
      "lon": 77.5855908,
      "tags": {
        "amenity": "restaurant",
        "cuisine": "indian",
        "name": "Siddhas Veg"
      }
    },
    {
      "type": "node",
      "id": 2934051709,
      "lat": 12.9124015,
      "lon": 77.5856011,
      "tags": {
        "name": "Yash Technologies",
        "note": "Laptop Repairs",
        "shop": "computer"
      }
    },
    {
      "type": "node",
      "id": 2934090870,
      "lat": 12.9145899,
      "lon": 77.5857184,
      "tags": {
        "amenity": "bank",
        "atm": "yes",
        "brand": "ICICI Bank",
        "brand:wikidata": "Q1653258",
        "name": "ICICI Bank",
        "name:en": "ICICI Bank",
        "name:kn": "ಐಸಿಐಸಿಐ ಬ್ಯಾಂಕು",
        "short_name": "ICICI",
        "website": "https://www.icicibank.com"
      }
    },
    {
      "type": "node",
      "id": 2934090873,
      "lat": 12.9155443,
      "lon": 77.5857799,
      "tags": {
        "name": "Mockaholic",
        "shop": "beverages"
      }
    },
    {
      "type": "node",
      "id": 2934090874,
      "lat": 12.9151486,
      "lon": 77.5857021,
      "tags": {
        "amenity": "bank",
        "atm": "yes",
        "brand": "State Bank of India",
        "brand:wikidata": "Q1340361",
        "brand:wikipedia": "en:State Bank of India",
        "name": "State Bank of India",
        "name:kn": "ಭಾರತೀಯ ಸ್ಟೇಟ್ ಬ್ಯಾಂಕ್",
        "short_name": "SBI"
      }
    },
    {
      "type": "node",
      "id": 2934090876,
      "lat": 12.9153853,
      "lon": 77.585774,
      "tags": {
        "name": "3m Car Care",
        "shop": "yes"
      }
    },
    {
      "type": "node",
      "id": 3010263827,
      "lat": 12.9055717,
      "lon": 77.5855866,
      "tags": {
        "amenity": "atm",
        "brand": "Yes Bank",
        "brand:wikidata": "Q2040394",
        "name": "Yes Bank",
        "name:kn": "ಯಸ್ ಬ್ಯಾಂಕ್",
        "operator": "Yes Bank",
        "operator:wikidata": "Q2040394",
        "source": "voice, GPS"
      }
    },
    {
      "type": "node",
      "id": 3016052460,
      "lat": 12.9049455,
      "lon": 77.5856013,
      "tags": {
        "amenity": "bank",
        "atm": "no",
        "brand": "Bank of Maharashtra",
        "brand:wikidata": "Q2004304",
        "brand:wikipedia": "en:Bank of Maharashtra",
        "name": "Bank of Maharashtra",
        "name:en": "Bank of Maharashtra",
        "name:kn": "ಬ್ಯಾಂಕ್ ಆಫ್ ಮಹರಾಷ್ಟ್ರ",
        "website": "https://www.bankofmaharashtra.in/",
        "wheelchair": "no"
      }
    },
    {
      "type": "node",
      "id": 3016052465,
      "lat": 12.9059571,
      "lon": 77.58558,
      "tags": {
        "name": "Linen Club - The Ramp",
        "shop": "clothes"
      }
    },
    {
      "type": "node",
      "id": 3016052467,
      "lat": 12.9060964,
      "lon": 77.5855631,
      "tags": {
        "amenity": "fast_food",
        "brand": "McDonald's",
        "brand:pa": "ਮੈਕਡੋਨਲਡ’ਜ਼",
        "brand:ur": "مکڈونلڈز",
        "brand:wikidata": "Q38076",
        "brand:wikipedia": "en:McDonald's",
        "brand:wikipedia:pa": "ਮੈਕਡੋਨਲਡ’ਜ਼",
        "brand:wikipedia:ur": "مکڈونلڈز",
        "check_date": "2023-10-27",
        "cuisine": "burger",
        "name": "McDonald's",
        "name:kn": "ಮ್ಯಾಕ್‌ಡೊನಾಲ್ಡ್ಸ್",
        "name:pa": "ਮੈਕਡੋਨਲਡ’ਜ਼",
        "name:ur": "مکڈونلڈز",
        "takeaway": "yes"
      }
    },
    {
      "type": "node",
      "id": 3016090364,
      "lat": 12.9055088,
      "lon": 77.5858347,
      "tags": {
        "addr:city": "bangalore",
        "addr:housenumber": "250",
        "addr:postcode": "560078",
        "addr:street": "24th Main, 5th Phase, Opp Nandini Hotel, Puttenhalli, JP Nagar",
        "amenity": "hospital",
        "name": "Cloud Nine Fertility",
        "name:kn": "ಕ್ಲೌಡ್ ನೈನ್ ಫರ್ಟಿಲಿಟಿ",
        "phone": "080 4350 0123",
        "source": "justdial",
        "website": "https://www.cloudninefertility.com/",
        "wheelchair": "limited"
      }
    },
    {
      "type": "node",
      "id": 3016090369,
      "lat": 12.9061288,
      "lon": 77.593146,
      "tags": {
        "amenity": "restaurant",
        "brand": "Pizza Hut",
        "brand:wikidata": "Q191615",
        "cuisine": "pizza",
        "name": "Pizza Hut",
        "name:kn": "ಪಿಟ್ಸ ಹಟ್"
      }
    },
    {
      "type": "node",
      "id": 3022109715,
      "lat": 12.90602,
      "lon": 77.5937277,
      "tags": {
        "amenity": "cafe",
        "brand": "Starbucks",
        "brand:pa": "ਸਟਾਰਬਕਸ",
        "brand:ur": "اسٹاربکس",
        "brand:wikidata": "Q37158",
        "brand:wikipedia": "en:Starbucks",
        "cuisine": "coffee_shop",
        "internet_access": "wlan",
        "level": "0",
        "name": "Starbucks",
        "name:kn": "ಸ್ಟಾರ್ಬಕ್ಸ್",
        "name:pa": "ਸਟਾਰਬਕਸ",
        "name:ur": "اسٹاربکس",
        "official_name": "Starbucks Coffee",
        "official_name:pa": "ਸਟਾਰਬਕਸ ਕੌਫੀ",
        "official_name:ur": "اسٹاربکس کافی",
        "outdoor_seating": "yes",
        "takeaway": "yes",
        "wheelchair": "no"
      }
    },
    {
      "type": "node",
      "id": 3022109716,
      "lat": 12.9065663,
      "lon": 77.5949745,
      "tags": {
        "amenity": "post_box",
        "operator": "India Post",
        "operator:wikidata": "Q3519720"
      }
    },
    {
      "type": "node",
      "id": 3024944754,
      "lat": 12.9061196,
      "lon": 77.5926081,
      "tags": {
        "amenity": "restaurant",
        "name": "Wangs Kitchen",
        "source": "survey"
      }
    },
    {
      "type": "node",
      "id": 3024967815,
      "lat": 12.904523,
      "lon": 77.5803913,
      "tags": {
        "amenity": "atm",
        "brand": "Axis Bank",
        "brand:wikidata": "Q2003549",
        "name": "Axis Bank",
        "name:kn": "ಆಕ್ಸಿಸ್ ಬ್ಯಾಂಕ್",
        "operator": "Axis Bank",
        "operator:wikidata": "Q2003549"
      }
    },
    {
      "type": "node",
      "id": 3217683306,
      "lat": 12.90648,
      "lon": 77.5901751,
      "tags": {
        "amenity": "bank",
        "atm": "yes",
        "branch": "JP Nagar Phase 2",
        "brand": "Canara Bank",
        "brand:en": "Canara Bank",
        "brand:hi": "केनरा बैंक",
        "brand:kn": "ಕೆನರಾ ಬ್ಯಾಂಕ್",
        "brand:pa": "ਕੇਨਰਾ ਬੈਂਕ",
        "brand:pnb": "کینرا بینک",
        "brand:ur": "کینرا بینک",
        "brand:wikidata": "Q2003777",
        "brand:wikipedia": "en:Canara Bank",
        "brand:wikipedia:pa": "ਕੇਨਰਾ ਬੈਂਕ",
        "level": "0",
        "name": "Canara Bank",
        "name:en": "Canara Bank",
        "name:hi": "केनरा बैंक",
        "name:kn": "ಕೆನರಾ ಬ್ಯಾಂಕ್",
        "name:pa": "ਕੇਨਰਾ ਬੈਂਕ",
        "name:pnb": "کینرا بینک",
        "name:ur": "کینرا بینک",
        "note": "Business hours Mo-Sa 10:00-16:00, Office hours Mo-Sa 10:00-14:00, 14:30-17:00, 2nd and 4th Saturdays off",
        "source": "survey",
        "website": "https://www.canarabank.com/",
        "wheelchair": "no"
      }
    },
    {
      "type": "node",
      "id": 3217683307,
      "lat": 12.9058455,
      "lon": 77.5858943,
      "tags": {
        "amenity": "bank",
        "atm": "no",
        "brand": "Citi Union Bank",
        "name": "Citi Union Bank",
        "name:kn": "ಸಿಟಿ ಯುನಿಯನ್ ಬ್ಯಾಂಕ್",
        "operator": "Citi Union Bank",
        "source": "survey",
        "wheelchair": "no"
      }
    },
    {
      "type": "node",
      "id": 3217683309,
      "lat": 12.9051478,
      "lon": 77.5858377,
      "tags": {
        "name": "Eye World Opticians",
        "shop": "optician",
        "source": "survey"
      }
    },
    {
      "type": "node",
      "id": 3221380823,
      "lat": 12.9065354,
      "lon": 77.5898784,
      "tags": {
        "amenity": "post_office",
        "brand": "FedEx",
        "brand:wikidata": "Q459477",
        "check_date": "2023-11-01",
        "name": "FedEx",
        "operator": "FedEx",
        "shop": "copyshop"
      }
    },
    {
      "type": "node",
      "id": 3226809436,
      "lat": 12.9100858,
      "lon": 77.5920685,
      "tags": {
        "amenity": "bank",
        "atm": "yes",
        "brand": "ING",
        "brand:wikidata": "Q645708",
        "name": "ING",
        "operator": "ING"
      }
    },
    {
      "type": "node",
      "id": 3381393095,
      "lat": 12.9092617,
      "lon": 77.5817945,
      "tags": {
        "amenity": "atm",
        "brand": "HDFC Bank",
        "brand:wikidata": "Q631047",
        "cash_in": "no",
        "check_date": "2023-11-01",
        "name": "HDFC Bank",
        "name:kn": "ಎಚ್ ಡಿ ಎಫ್ ಸಿ",
        "operator": "HDFC Bank",
        "operator:wikidata": "Q631047",
        "short_name": "HDFC"
      }
    },
    {
      "type": "node",
      "id": 3393466557,
      "lat": 12.9106895,
      "lon": 77.581347,
      "tags": {
        "name": "Nandini",
        "name:kn": "ನಂದಿನಿ",
        "shop": "dairy"
      }
    },
    {
      "type": "node",
      "id": 3393478952,
      "lat": 12.910501,
      "lon": 77.5818478,
      "tags": {
        "name": "Hot N Cool",
        "shop": "convenience"
      }
    },
    {
      "type": "node",
      "id": 3393485024,
      "lat": 12.9105063,
      "lon": 77.5819403,
      "tags": {
        "amenity": "pharmacy",
        "brand": "Apollo Pharmacy",
        "brand:wikidata": "Q62562612",
        "healthcare": "pharmacy",
        "name": "Apollo Pharmacy",
        "name:kn": "ಅಪೋಲೋ ಫಾರ್ಮಸಿ"
      }
    },
    {
      "type": "node",
      "id": 3393485027,
      "lat": 12.910505,
      "lon": 77.5820811,
      "tags": {
        "amenity": "cafe",
        "name": "H.S.M Iyengar"
      }
    },
    {
      "type": "node",
      "id": 3393501416,
      "lat": 12.9107057,
      "lon": 77.5835123,
      "tags": {
        "amenity": "bank",
        "atm": "yes",
        "brand": "Indian Bank",
        "brand:wikidata": "Q2003789",
        "brand:wikipedia": "en:Indian Bank",
        "name": "Indian Bank",
        "name:en": "Indian Bank",
        "name:kn": "ಇಂಡಿಯನ್ ಬ್ಯಾಂಕ್",
        "website": "https://www.indianbank.in/"
      }
    },
    {
      "type": "node",
      "id": 3393504221,
      "lat": 12.9106315,
      "lon": 77.584622,
      "tags": {
        "addr:city": "Bangalore",
        "addr:district": "Bengaluru",
        "addr:street": "1st Phase, JP Nagar",
        "amenity": "restaurant",
        "check_date": "2023-11-01",
        "cuisine": "regional",
        "diet:vegan": "on_demand",
        "diet:vegetarian": "only",
        "dog": "no",
        "image:menu": "https://panoramax.mapcomplete.org/api/pictures/0d6781a7-eb83-4304-81d0-82fc4daf457f/hd.jpg",
        "image:menu:0": "https://panoramax.mapcomplete.org/api/pictures/4e9e5fb1-89c2-473b-a47b-439ae2136cdb/hd.jpg",
        "indoor_seating": "yes",
        "internet_access": "no",
        "name": "Paakashala",
        "outdoor_seating": "no",
        "reservation": "yes",
        "service:electricity": "limited",
        "smoking": "no",
        "takeaway": "yes",
        "website": "https://paakashala.com/",
        "wheelchair": "limited"
      }
    },
    {
      "type": "node",
      "id": 3393514749,
      "lat": 12.9109507,
      "lon": 77.5794442,
      "tags": {
        "leisure": "sports_centre",
        "name": "O2 The fitness..."
      }
    },
    {
      "type": "node",
      "id": 3393519681,
      "lat": 12.9109471,
      "lon": 77.5793168,
      "tags": {
        "amenity": "bank",
        "atm": "yes",
        "brand": "Canara Bank",
        "brand:en": "Canara Bank",
        "brand:hi": "केनरा बैंक",
        "brand:kn": "ಕೆನರಾ ಬ್ಯಾಂಕ್",
        "brand:pa": "ਕੇਨਰਾ ਬੈਂਕ",
        "brand:pnb": "کینرا بینک",
        "brand:ur": "کینرا بینک",
        "brand:wikidata": "Q2003777",
        "brand:wikipedia": "en:Canara Bank",
        "brand:wikipedia:pa": "ਕੇਨਰਾ ਬੈਂਕ",
        "name": "Canara Bank",
        "name:en": "Canara Bank",
        "name:hi": "केनरा बैंक",
        "name:kn": "ಕೆನರಾ ಬ್ಯಾಂಕ್",
        "name:pa": "ਕੇਨਰਾ ਬੈਂਕ",
        "name:pnb": "کینرا بینک",
        "name:ur": "کینرا بینک",
        "website": "https://www.canarabank.com/"
      }
    },
    {
      "type": "node",
      "id": 3393519682,
      "lat": 12.9109649,
      "lon": 77.5792295,
      "tags": {
        "name": "Zuari Furniture",
        "shop": "furniture"
      }
    },
    {
      "type": "node",
      "id": 3394938755,
      "lat": 12.9104137,
      "lon": 77.5818078,
      "tags": {
        "amenity": "pharmacy",
        "healthcare": "pharmacy",
        "name": "Shree Sai Ram Drug House"
      }
    },
    {
      "type": "node",
      "id": 3394944799,
      "lat": 12.9105047,
      "lon": 77.581862,
      "tags": {
        "addr:floor": "0",
        "addr:housenumber": "1st floor",
        "addr:street": "Sarakki Main Road (9th Cross)",
        "check_date": "2023-11-01",
        "name": "Sri Krishna Cake Palace",
        "shop": "bakery"
      }
    },
    {
      "type": "node",
      "id": 3394944800,
      "lat": 12.9104994,
      "lon": 77.5818295,
      "tags": {
        "addr:floor": "1",
        "check_date": "2023-11-01",
        "name": "Omika Bridal Hair & Skin Care",
        "shop": "beauty"
      }
    },
    {
      "type": "node",
      "id": 3394950260,
      "lat": 12.9108005,
      "lon": 77.5809977,
      "tags": {
        "name": "Archies Paper Rose Shoppe",
        "shop": "gift"
      }
    },
    {
      "type": "node",
      "id": 3394967010,
      "lat": 12.9085186,
      "lon": 77.5811693,
      "tags": {
        "name": "Nandini Milk Booth",
        "name:kn": "ನಂದಿನಿ ಹಾಲಿನ ಅಂಗಡಿ",
        "shop": "dairy"
      }
    },
    {
      "type": "node",
      "id": 3397786440,
      "lat": 12.9066169,
      "lon": 77.5858809,
      "tags": {
        "name": "Mithai Mane",
        "shop": "bakery"
      }
    },
    {
      "type": "node",
      "id": 3407447891,
      "lat": 12.9099986,
      "lon": 77.5928725,
      "tags": {
        "amenity": "bank",
        "brand": "Punjab National Bank",
        "brand:wikidata": "Q2743499",
        "building": "bank",
        "description": "J.P.Nagar branch",
        "name": "Punjab National Bank",
        "name:kn": "ಪಂಜಾಬ ರಾಷ್ಟ್ರೀಯ ಬ್ಯಾಂಕ್"
      }
    },
    {
      "type": "node",
      "id": 3407448747,
      "lat": 12.9101446,
      "lon": 77.5904634,
      "tags": {
        "amenity": "bank",
        "brand": "Karur Vysya Bank",
        "brand:wikidata": "Q6373724",
        "name": "Karur Vysya Bank",
        "name:kn": "ಕರೂರು ವೈಶ್ಯ ಬ್ಯಾಂಕ್"
      }
    },
    {
      "type": "node",
      "id": 3407449080,
      "lat": 12.9100568,
      "lon": 77.5918225,
      "tags": {
        "name": "Just Bake",
        "shop": "bakery"
      }
    },
    {
      "type": "node",
      "id": 3719549886,
      "lat": 12.9159249,
      "lon": 77.5856011,
      "tags": {
        "addr:district": "Bengaluru Urban",
        "addr:full": "Jayanagar, J P Nagar, Bengaluru",
        "addr:postcode": "560041",
        "addr:state": "Karnataka",
        "amenity": "hospital",
        "healthcare": "clinic",
        "healthcare:speciality": "fertility",
        "name": "Milann Fertility Center",
        "source": "Local Knowledge"
      }
    },
    {
      "type": "node",
      "id": 4320467192,
      "lat": 12.9085614,
      "lon": 77.5859107,
      "tags": {
        "amenity": "restaurant",
        "check_date": "2023-11-01",
        "cuisine": "indian;chinese",
        "diet:vegetarian": "yes",
        "name": "24th Main Pan Indian Bistro",
        "name:kn": "೨೪ನೇ ಮುಖ್ಯ ರಸ್ತೆ",
        "opening_hours": "12:00-22:30",
        "payment:mastercard": "yes",
        "payment:visa": "yes",
        "phone": "+91 99000 92564",
        "website": "https://www.24thmain.com"
      }
    },
    {
      "type": "node",
      "id": 4321223315,
      "lat": 12.9065707,
      "lon": 77.5875216,
      "tags": {
        "addr:street": "Outer Ring Road",
        "check_date": "2023-09-11",
        "name": "Damro",
        "opening_hours": "10:30-21:00",
        "shop": "furniture"
      }
    },
    {
      "type": "node",
      "id": 4321245702,
      "lat": 12.9060223,
      "lon": 77.5853926,
      "tags": {
        "addr:street": "Aurobindo Marg (24th Main)",
        "leisure": "fitness_centre",
        "name": "Body Vignyan"
      }
    },
    {
      "type": "node",
      "id": 4321280190,
      "lat": 12.9061462,
      "lon": 77.5906223,
      "tags": {
        "addr:street": "Outer Ring Road",
        "amenity": "restaurant",
        "name": "Egg Factory"
      }
    },
    {
      "type": "node",
      "id": 4321280396,
      "lat": 12.9100655,
      "lon": 77.5921205,
      "tags": {
        "amenity": "bank",
        "brand": "Kotak Mahindra Bank",
        "brand:wikidata": "Q2040404",
        "name": "Kotak Mahindra Bank"
      }
    },
    {
      "type": "node",
      "id": 4321288191,
      "lat": 12.9061407,
      "lon": 77.5918526,
      "tags": {
        "addr:street": "Outer Ring Road",
        "amenity": "cafe",
        "brand": "Cafe Coffee Day",
        "brand:wikidata": "Q5017235",
        "cuisine": "coffee_shop",
        "name": "Cafe Coffee Day",
        "name:kn": "ಕಫೆ ಕಾಫಿ ಡೇ",
        "takeaway": "yes"
      }
    },
    {
      "type": "node",
      "id": 4321288192,
      "lat": 12.9061034,
      "lon": 77.5920152,
      "tags": {
        "addr:street": "Outer Ring Road",
        "amenity": "cafe",
        "name": "Pipe Yard"
      }
    },
    {
      "type": "node",
      "id": 4360018702,
      "lat": 12.9162662,
      "lon": 77.5856417,
      "tags": {
        "brand": "Peter England",
        "brand:wikidata": "Q19573665",
        "clothes": "men",
        "name": "Peter England",
        "name:kn": "ಪೀಟರ್ ಇಂಗ್ಲೆಂಡ್",
        "shop": "clothes"
      }
    },
    {
      "type": "node",
      "id": 4360019301,
      "lat": 12.9166705,
      "lon": 77.5834214,
      "tags": {
        "addr:city": "Bangalore",
        "addr:district": "Bengaluru Urban",
        "addr:housenumber": "499/32-4",
        "addr:postcode": "560078",
        "addr:street": "9th Main, 46th Cross Rd, 5th Block, Jayanagar",
        "air_conditioning": "yes",
        "amenity": "restaurant",
        "bar": "yes",
        "capacity": "80",
        "contact:facebook": "https://www.facebook.com/gardenbysu/",
        "cuisine": "indian;italian;italian_pizza;italian_pasta;burger;japanese;sushi;mexican;thai;ice_cream;greek;international;mediterranean;bistro",
        "delivery": "yes",
        "description": "Garden By Su, a global vegetarian fine dine restaurant which also serves wine.",
        "diet:gluten_free": "yes",
        "diet:halal": "yes",
        "diet:vegan": "yes",
        "diet:vegetarian": "yes",
        "email": "hello@gardenbysu.com",
        "highchair": "yes",
        "internet_access": "wlan",
        "internet_access:fee": "no",
        "internet_access:ssid": "GardenBySu",
        "level": "0",
        "microbrewery": "no",
        "mobile": "+918971228404",
        "name": "Garden By Su",
        "official_name": "Asai Hospitality & Management LLP",
        "opening_hours": "Mo-Su 12:00-23:00",
        "organic": "yes",
        "outdoor_seating": "yes",
        "payment:app": "yes",
        "payment:cash": "yes",
        "payment:contactless": "yes",
        "payment:credit_cards": "yes",
        "payment:debit_cards": "yes",
        "payment:diners_club": "yes",
        "payment:google_pay": "yes",
        "payment:maestro": "yes",
        "payment:mastercard": "yes",
        "payment:mastercard_contactless": "yes",
        "payment:visa": "yes",
        "payment:visa_debit": "yes",
        "phone": "+918971228404",
        "ref:vatin": "29ABTFA0725G1ZB",
        "reservation": "recommended",
        "smoking": "outside",
        "source": "streetlevel imagery;gps",
        "start_date": "2024-06-29",
        "takeaway": "yes",
        "toilets": "yes",
        "toilets:wheelchair": "limited",
        "website": "https://www.gardenbysu.com/",
        "website:menu": "https://www.gardenbysu.com/",
        "wheelchair": "limited"
      }
    },
    {
      "type": "node",
      "id": 4447156427,
      "lat": 12.9062193,
      "lon": 77.580682,
      "tags": {
        "addr:city": "Bengaluru",
        "addr:district": "Bengaluru Urban",
        "addr:full": "#726, 17Th Cross, 6Th Phase, J.P. Nagar",
        "addr:housenumber": "5",
        "addr:postcode": "560078",
        "addr:state": "Karnataka",
        "addr:street": "Outer Ring Rd, Rose Garden, JP Nagar Phase 6, JP Nagar,",
        "amenity": "hospital",
        "name": "Green City Hospital, Bengaluru Urban",
        "name:kn": "ಗ್ರೀನ್ ಸಿಟಿ ಆಸ್ಪತ್ರೆ",
        "phone": "080 2653 6222",
        "source": "OpenGovernmentData"
      }
    },
    {
      "type": "node",
      "id": 4447316956,
      "lat": 12.9059465,
      "lon": 77.5904192,
      "tags": {
        "addr:city": "Bangalore",
        "addr:housenumber": "11/2",
        "addr:postcode": "560078",
        "addr:street": "8th cross, Gangadhar Nagar, 100 Feet Ring Road, J P Nagar,",
        "amenity": "hospital",
        "name": "R R Hospital & Trauma Centre",
        "phone": "080 2671 8785"
      }
    },
    {
      "type": "node",
      "id": 4488500225,
      "lat": 12.9065816,
      "lon": 77.590597,
      "tags": {
        "addr:city": "Bangalore",
        "addr:housenumber": "no:52",
        "addr:postcode": "560078",
        "addr:street": "17th Main Road",
        "name": "Aveda Oasis",
        "opening_hours": "11:00-22:00",
        "phone": "+91-80-26592930",
        "shop": "beauty",
        "website": "www.avedaoasis.com"
      }
    },
    {
      "type": "node",
      "id": 4489841840,
      "lat": 12.9060712,
      "lon": 77.5922254,
      "tags": {
        "addr:city": "Bengaluru,",
        "addr:housenumber": "309",
        "addr:postcode": "560078",
        "addr:street": "\" #309, 100 Feet Ring Road, Above Pizza Hut Near Delmia Cricle 2 Floor JP, Nagar, 5th Ph, JP Nagar Phase 6, JP Nagar, Bengaluru, Karnataka 560078\"",
        "leisure": "sports_centre",
        "name": "Play on Fitness",
        "opening_hours": "6:00-21:00",
        "sport": "gymnasium"
      }
    },
    {
      "type": "node",
      "id": 4489898193,
      "lat": 12.9061,
      "lon": 77.5924802,
      "tags": {
        "addr:city": ", Bengaluru",
        "addr:housenumber": "#309,",
        "addr:postcode": "560078",
        "addr:street": "100 Feet Ring Road, Above Pizza Hut Near Delmia Cricle 2 Floor JP, Nagar, 5th Ph, JP Nagar Phase 6, JP Nagar, Karnataka",
        "leisure": "sports_centre",
        "name": "Play on Fitness JP Nagar",
        "opening_hours": "5:00-22:00",
        "phone": "080 4123 4777",
        "website": "playonfitness.in"
      }
    },
    {
      "type": "node",
      "id": 4609603646,
      "lat": 12.9168014,
      "lon": 77.5851878,
      "tags": {
        "addr:district": "Bengaluru Urban",
        "addr:full": "No.25, 46th Cross, 5th Block, Jayanagar",
        "addr:postcode": "560011",
        "addr:state": "Karnataka",
        "amenity": "hospital",
        "email": "contactus@apollocradle.com",
        "healthcare": "hospital",
        "name": "Apollo Bengaluru Cradle Limited, Jayanagar",
        "operator:type": "private",
        "source": "OpenGovernmentData",
        "website": "https://www.apollocradle.com/"
      }
    },
    {
      "type": "node",
      "id": 5268233218,
      "lat": 12.9065569,
      "lon": 77.5858871,
      "tags": {
        "amenity": "fast_food",
        "name": "Iyengar Bakery",
        "name:kn": "ಐಯ್ಯಂಗಾರ್ ಬೇಕರಿ"
      }
    },
    {
      "type": "node",
      "id": 6115117985,
      "lat": 12.9123323,
      "lon": 77.5855405,
      "tags": {
        "leisure": "sports_centre",
        "name": "Golden Ace Shooting Academy"
      }
    },
    {
      "type": "node",
      "id": 6339952604,
      "lat": 12.9169098,
      "lon": 77.5826789,
      "tags": {
        "addr:street": "510/37, Jayanagar 5th Block, Jayanagar",
        "name": "Wicked Ride Bike Rental",
        "shop": "motorcycle"
      }
    },
    {
      "type": "node",
      "id": 6717675008,
      "lat": 12.9083274,
      "lon": 77.5855201,
      "tags": {
        "addr:city": "Bengaluru",
        "addr:postcode": "560078",
        "addr:street": "Aurobindo Marg (24th Main)",
        "brand": "Kia",
        "brand:wikidata": "Q35349",
        "brand:wikipedia": "en:Kia Motors",
        "name": "Kia",
        "name:kn": "ಕೀಯ",
        "second_hand": "no",
        "shop": "car"
      }
    },
    {
      "type": "node",
      "id": 6938995621,
      "lat": 12.9163994,
      "lon": 77.5847384,
      "tags": {
        "addr:district": "Bengaluru Urban",
        "addr:full": "909, 47Th Cross, 9Thmain, 5Th Block, Opposite Adarshapalace Apts And Near Raghavendra Matha, Jayanagar",
        "addr:postcode": "560041",
        "addr:state": "Karnataka",
        "amenity": "hospital",
        "healthcare": "hospital",
        "name": "Dr Kamini Rao Hospital(A Unit Of Bacc Health Care Pvt Ltd)",
        "source": "OpenGovernmentData"
      }
    },
    {
      "type": "node",
      "id": 6944507661,
      "lat": 12.9171772,
      "lon": 77.5747874,
      "tags": {
        "addr:district": "Bengaluru Urban",
        "addr:full": "7/32, 47th Cross, Ist Main Road , , 8Th Block , Jayanagar",
        "addr:postcode": "560070",
        "addr:state": "Karnataka",
        "amenity": "clinic",
        "healthcare": "clinic",
        "name": "Prema Nursing Home",
        "source": "OpenGovernmentData"
      }
    },
    {
      "type": "node",
      "id": 6945010490,
      "lat": 12.9067079,
      "lon": 77.5849275,
      "tags": {
        "addr:district": "Bengaluru Urban",
        "addr:full": "No. 4, Sarakki Industrial Estate, 3Road Phase, J.P.Nagar, Bannerghatta Road",
        "addr:postcode": "560076",
        "addr:state": "Karnataka",
        "amenity": "hospital",
        "name": "North Star Maternity and Nursing Home",
        "source": "OpenGovernmentData"
      }
    },
    {
      "type": "node",
      "id": 7105078866,
      "lat": 12.9083264,
      "lon": 77.5871218,
      "tags": {
        "addr:city": "Bengaluru",
        "addr:postcode": "560078",
        "addr:street": "12th Cross Road",
        "amenity": "fast_food",
        "cuisine": "indian;south",
        "name": "SN Refreshment"
      }
    },
    {
      "type": "node",
      "id": 7126122233,
      "lat": 12.9066049,
      "lon": 77.5896205,
      "tags": {
        "addr:city": "Bangalore",
        "amenity": "restaurant",
        "cuisine": "indian",
        "diet:vegetarian": "yes",
        "name": "Kesariya",
        "name:kn": "ಕೇಸರಿಯ"
      }
    },
    {
      "type": "node",
      "id": 7579924755,
      "lat": 12.915263,
      "lon": 77.584736,
      "tags": {
        "addr:district": "Bengaluru Urban",
        "addr:full": "TMC Layout, Jayanagar, Bengaluru",
        "addr:postcode": "560041",
        "addr:state": "Karnataka",
        "amenity": "clinic",
        "healthcare": "clinic",
        "name": "Banashankari Poly Clinic",
        "source": "Local Knowledge"
      }
    },
    {
      "type": "node",
      "id": 7579924780,
      "lat": 12.916885,
      "lon": 77.585258,
      "tags": {
        "addr:district": "Bengaluru Urban",
        "addr:full": "TMC Layout, Jayanagar, Bengaluru",
        "addr:postcode": "560011",
        "addr:state": "Karnataka",
        "amenity": "hospital",
        "healthcare": "hospital",
        "name": "Apollo Cradle Maternity & Children's Hospital",
        "source": "Local Knowledge"
      }
    },
    {
      "type": "node",
      "id": 8035783019,
      "lat": 12.9077038,
      "lon": 77.5847444,
      "tags": {
        "address": "547, 26th Main, JP Nagar 1st phase, Bangalore",
        "amenity": "taxi",
        "name": "HornOK"
      }
    },
    {
      "type": "node",
      "id": 8408691942,
      "lat": 12.9060198,
      "lon": 77.5938556,
      "tags": {
        "check_date": "2023-10-27",
        "level": "0",
        "name": "Wildcraft",
        "opening_hours": "Mo-Su 09:00-21:00",
        "shop": "outdoor",
        "website": "https://wildcraft.com",
        "wheelchair": "no"
      }
    },
    {
      "type": "node",
      "id": 9274940516,
      "lat": 12.9070866,
      "lon": 77.5855025,
      "tags": {
        "addr:city": "bangalore",
        "addr:housenumber": "12/A",
        "addr:postcode": "560078",
        "addr:street": "24th Main Road",
        "clothes": "women;wedding;fashion;babies;fur;denim",
        "name": "Nathaya Designer Studio",
        "opening_hours": "11:30-19:30",
        "payment:cash": "yes",
        "payment:contactless": "yes",
        "payment:credit_cards": "yes",
        "payment:debit_cards": "yes",
        "payment:mastercard": "yes",
        "shop": "fashion_accessories",
        "website": "https://www.instagram.com/nathaya_designer_studio/"
      }
    },
    {
      "type": "node",
      "id": 9856264725,
      "lat": 12.9061738,
      "lon": 77.5825444,
      "tags": {
        "amenity": "restaurant",
        "name": "Neemsi"
      }
    },
    {
      "type": "node",
      "id": 10123822787,
      "lat": 12.9169681,
      "lon": 77.5792509,
      "tags": {
        "amenity": "restaurant",
        "name": "Bramble"
      }
    },
    {
      "type": "node",
      "id": 10280790808,
      "lat": 12.9061131,
      "lon": 77.5897944,
      "tags": {
        "amenity": "pub",
        "microbrewery": "yes",
        "name": "Jamming Goat 3.0"
      }
    },
    {
      "type": "node",
      "id": 10686139974,
      "lat": 12.9065092,
      "lon": 77.5905856,
      "tags": {
        "amenity": "fast_food",
        "cuisine": "regional",
        "level": "0",
        "name": "The Rameshwaram Cafe",
        "wheelchair": "no"
      }
    },
    {
      "type": "node",
      "id": 10727997905,
      "lat": 12.9058477,
      "lon": 77.5829239,
      "tags": {
        "alt_name": "Sante Spa Cuisine",
        "cuisine": "indian;international;italian;pasta;pizza;thai",
        "diet:vegan": "yes",
        "diet:vegetarian": "yes",
        "name": "Santé Spa Cuisine",
        "opening_hours": "Mo-Su 11:00-23:00",
        "shop": "pastry",
        "takeaway": "yes",
        "toilets": "yes",
        "wheelchair": "limited"
      }
    },
    {
      "type": "node",
      "id": 10792812743,
      "lat": 12.9168805,
      "lon": 77.5800258,
      "tags": {
        "amenity": "community_centre",
        "name": "Rajalakshmi Kalyana Mantapa"
      }
    },
    {
      "type": "node",
      "id": 10853169817,
      "lat": 12.9161105,
      "lon": 77.5740163,
      "tags": {
        "amenity": "atm",
        "brand": "State Bank of India",
        "brand:wikidata": "Q1340361",
        "check_date": "2023-11-20",
        "operator": "State Bank of India",
        "operator:wikidata": "Q1340361",
        "short_name": "SBI"
      }
    },
    {
      "type": "node",
      "id": 10854298571,
      "lat": 12.9168615,
      "lon": 77.5856531,
      "tags": {
        "amenity": "restaurant",
        "cuisine": "regional",
        "name": "Dindigul Thalappakatti"
      }
    },
    {
      "type": "node",
      "id": 10854298583,
      "lat": 12.9168805,
      "lon": 77.5825015,
      "tags": {
        "name": "Mugdha",
        "shop": "boutique"
      }
    },
    {
      "type": "node",
      "id": 11126820403,
      "lat": 12.9166861,
      "lon": 77.5856654,
      "tags": {
        "name": "Merwans",
        "shop": "bakery",
        "website": "https://merwans.co.in/"
      }
    },
    {
      "type": "node",
      "id": 11183618458,
      "lat": 12.9060628,
      "lon": 77.5895222,
      "tags": {
        "amenity": "pub",
        "check_date": "2023-09-11",
        "level": "0;1",
        "microbrewery": "yes",
        "name": "Indian Biere House",
        "opening_hours": "12:00-01:00",
        "payment:mastercard": "yes",
        "payment:visa": "yes"
      }
    },
    {
      "type": "node",
      "id": 11183640991,
      "lat": 12.9065319,
      "lon": 77.5866397,
      "tags": {
        "amenity": "restaurant",
        "check_date": "2023-09-11",
        "cuisine": "asian",
        "name": "Khmer Kitchen",
        "opening_hours": "11:30-22:30",
        "payment:mastercard": "yes",
        "payment:visa": "yes"
      }
    },
    {
      "type": "node",
      "id": 11245712606,
      "lat": 12.9046774,
      "lon": 77.5856497,
      "tags": {
        "addr:street": "24th Main Road, JP Nagar, 6th Phase, Bengaluru",
        "amenity": "clinic",
        "name": "Saphire Heart Care"
      }
    },
    {
      "type": "node",
      "id": 11277885753,
      "lat": 12.9067066,
      "lon": 77.5896865,
      "tags": {
        "amenity": "restaurant",
        "contact:instagram": "rangoon.blr",
        "cuisine": "burmese",
        "name": "Societe Rangoon"
      }
    },
    {
      "type": "node",
      "id": 11279791929,
      "lat": 12.9174452,
      "lon": 77.5765523,
      "tags": {
        "name": "Benki Coffee",
        "shop": "coffee"
      }
    },
    {
      "type": "node",
      "id": 11279791930,
      "lat": 12.917472,
      "lon": 77.5757825,
      "tags": {
        "amenity": "clinic",
        "healthcare": "clinic",
        "name": "Gaur Physiotherapy"
      }
    },
    {
      "type": "node",
      "id": 11293127658,
      "lat": 12.9061255,
      "lon": 77.5934155,
      "tags": {
        "level": "0",
        "name": "babyhug",
        "shop": "baby_goods",
        "wheelchair": "limited"
      }
    },
    {
      "type": "node",
      "id": 11293127668,
      "lat": 12.9061194,
      "lon": 77.593415,
      "tags": {
        "level": "1",
        "name": "Escape",
        "shop": "clothes",
        "wheelchair": "limited"
      }
    },
    {
      "type": "node",
      "id": 11293201576,
      "lat": 12.9061308,
      "lon": 77.5933823,
      "tags": {
        "level": "0",
        "shop": "tobacco"
      }
    },
    {
      "type": "node",
      "id": 11293201589,
      "lat": 12.9061135,
      "lon": 77.5934146,
      "tags": {
        "addr:city": "Bangalore",
        "addr:full": "#312, 15th Cross Road, 3rd floor, JP Nagar 5th Phase, Bangalore - 560078",
        "addr:housenumber": "312",
        "addr:postcode": "560078",
        "addr:street": "15th Cross Road",
        "addr:suburb": "JP Nagar 5th Phase",
        "amenity": "restaurant",
        "contact:mobile": "+91-70224-50852",
        "cuisine": "korean",
        "level": "3",
        "name": "Kimchi",
        "wheelchair": "limited"
      }
    },
    {
      "type": "node",
      "id": 11293333405,
      "lat": 12.906084,
      "lon": 77.586789,
      "tags": {
        "amenity": "restaurant",
        "cuisine": "sattvic",
        "level": "2",
        "name": "Sattvam"
      }
    },
    {
      "type": "node",
      "id": 11293333408,
      "lat": 12.9065473,
      "lon": 77.5896937,
      "tags": {
        "amenity": "fast_food",
        "contact:facebook": "FrozenBottle",
        "contact:instagram": "Frozen_Bottle",
        "contact:website": "https://frozenbottle.in",
        "cuisine": "shakes",
        "name": "Frozen Bottle"
      }
    },
    {
      "type": "node",
      "id": 11293333411,
      "lat": 12.9065122,
      "lon": 77.5904379,
      "tags": {
        "amenity": "cafe",
        "cuisine": "tea",
        "indoor_seating": "no",
        "level": "0",
        "name": "Sahukar Chai",
        "outdoor_seating": "no"
      }
    },
    {
      "type": "node",
      "id": 11293333412,
      "lat": 12.9064635,
      "lon": 77.5901354,
      "tags": {
        "amenity": "fast_food",
        "check_date": "2023-11-01",
        "cuisine": "regional",
        "level": "0",
        "name": "SLV Refreshments"
      }
    },
    {
      "type": "node",
      "id": 11293333414,
      "lat": 12.9065647,
      "lon": 77.5904576,
      "tags": {
        "amenity": "restaurant",
        "level": "0",
        "name": "Jayanagara Donne Biryani"
      }
    },
    {
      "type": "node",
      "id": 11293333416,
      "lat": 12.9061075,
      "lon": 77.5862616,
      "tags": {
        "level": "0;1",
        "name": "Fabindia",
        "shop": "clothes"
      }
    },
    {
      "type": "node",
      "id": 11293333417,
      "lat": 12.9065151,
      "lon": 77.5873603,
      "tags": {
        "level": "0",
        "name": "Style Struck Jaipur",
        "note": "A shop selling a variety of handicrafts - wooden item (including furniture) and clothes",
        "shop": "furniture",
        "wheelchair": "no"
      }
    },
    {
      "type": "node",
      "id": 11293333423,
      "lat": 12.9061295,
      "lon": 77.5884337,
      "tags": {
        "amenity": "restaurant",
        "name": "Peek-a-Boo"
      }
    },
    {
      "type": "node",
      "id": 11293333428,
      "lat": 12.9064752,
      "lon": 77.5903211,
      "tags": {
        "level": "0",
        "name": "The Liqor Baron",
        "shop": "alcohol",
        "wheelchair": "no"
      }
    },
    {
      "type": "node",
      "id": 11293333429,
      "lat": 12.9064858,
      "lon": 77.5903235,
      "tags": {
        "level": "1;2",
        "shop": "lighting"
      }
    },
    {
      "type": "node",
      "id": 11293333432,
      "lat": 12.9060555,
      "lon": 77.5898068,
      "tags": {
        "amenity": "restaurant",
        "cuisine": "asian",
        "name": "Yuki"
      }
    },
    {
      "type": "node",
      "id": 11293484188,
      "lat": 12.9051695,
      "lon": 77.5938563,
      "tags": {
        "amenity": "bench",
        "backrest": "yes",
        "material": "stone"
      }
    },
    {
      "type": "node",
      "id": 11293484199,
      "lat": 12.9053753,
      "lon": 77.5938595,
      "tags": {
        "amenity": "bench",
        "backrest": "yes",
        "material": "stone"
      }
    },
    {
      "type": "node",
      "id": 11293484201,
      "lat": 12.9061505,
      "lon": 77.5907609,
      "tags": {
        "name": "Dry Fruit Naturals",
        "organic": "yes",
        "shop": "nuts"
      }
    },
    {
      "type": "node",
      "id": 11293484203,
      "lat": 12.906521,
      "lon": 77.592566,
      "tags": {
        "level": "0;1",
        "name": "Sling Spirits",
        "shop": "alcohol",
        "wheelchair": "limited"
      }
    },
    {
      "type": "node",
      "id": 11293484205,
      "lat": 12.9053454,
      "lon": 77.5938378,
      "tags": {
        "amenity": "bench",
        "backrest": "yes",
        "material": "stone"
      }
    },
    {
      "type": "node",
      "id": 11293484206,
      "lat": 12.9051677,
      "lon": 77.5938338,
      "tags": {
        "amenity": "bench",
        "backrest": "yes",
        "material": "stone"
      }
    },
    {
      "type": "node",
      "id": 11293484207,
      "lat": 12.9052675,
      "lon": 77.5938355,
      "tags": {
        "amenity": "bench",
        "backrest": "yes",
        "material": "stone"
      }
    },
    {
      "type": "node",
      "id": 11293484209,
      "lat": 12.9065628,
      "lon": 77.5925599,
      "tags": {
        "amenity": "restaurant",
        "level": "2",
        "name": "154 Breakfast Club"
      }
    },
    {
      "type": "node",
      "id": 11293484210,
      "lat": 12.9053735,
      "lon": 77.593837,
      "tags": {
        "amenity": "bench",
        "backrest": "yes",
        "material": "stone"
      }
    },
    {
      "type": "node",
      "id": 11293484212,
      "lat": 12.9052693,
      "lon": 77.593858,
      "tags": {
        "amenity": "bench",
        "backrest": "yes",
        "material": "stone"
      }
    },
    {
      "type": "node",
      "id": 11293484217,
      "lat": 12.906496,
      "lon": 77.5918426,
      "tags": {
        "access": "permissive",
        "amenity": "toilets",
        "level": "0",
        "unisex": "yes"
      }
    },
    {
      "type": "node",
      "id": 11293484224,
      "lat": 12.9061506,
      "lon": 77.5908126,
      "tags": {
        "amenity": "ice_cream",
        "diet:lacto_vegetarian": "yes",
        "name": "Gelatone",
        "operator": "Frozen Creamery"
      }
    },
    {
      "type": "node",
      "id": 11293484225,
      "lat": 12.9064935,
      "lon": 77.5917984,
      "tags": {
        "amenity": "restaurant",
        "cuisine": "sandwich",
        "level": "0",
        "name": "Paris Panini"
      }
    },
    {
      "type": "node",
      "id": 11293484229,
      "lat": 12.9065116,
      "lon": 77.5917977,
      "tags": {
        "amenity": "restaurant",
        "cuisine": "pizza",
        "diet:lacto_vegetarian": "yes",
        "diet:vegan": "yes",
        "level": "1",
        "name": "The Pizza Bakery",
        "wheelchair": "no"
      }
    },
    {
      "type": "node",
      "id": 11293484230,
      "lat": 12.9060944,
      "lon": 77.5927056,
      "tags": {
        "amenity": "ice_cream",
        "brand": "Polar Bear",
        "brand:wikidata": "Q124374249",
        "delivery": "yes",
        "name": "Polar Bear",
        "takeaway": "yes"
      }
    },
    {
      "type": "node",
      "id": 11293484237,
      "lat": 12.9053472,
      "lon": 77.5938603,
      "tags": {
        "amenity": "bench",
        "backrest": "yes",
        "material": "stone"
      }
    },
    {
      "type": "node",
      "id": 11293484241,
      "lat": 12.9055622,
      "lon": 77.5937946,
      "tags": {
        "amenity": "bench",
        "backrest": "yes",
        "material": "stone"
      }
    },
    {
      "type": "node",
      "id": 11293484243,
      "lat": 12.906592,
      "lon": 77.5925708,
      "tags": {
        "brand": "cult.fit",
        "brand:wikidata": "Q121289250",
        "leisure": "fitness_centre",
        "level": "3",
        "name": "cult.fit"
      }
    },
    {
      "type": "node",
      "id": 11293484246,
      "lat": 12.9055067,
      "lon": 77.5938367,
      "tags": {
        "amenity": "bench",
        "backrest": "yes",
        "material": "stone"
      }
    },
    {
      "type": "node",
      "id": 11293484247,
      "lat": 12.9065058,
      "lon": 77.5918414,
      "tags": {
        "access": "permissive",
        "amenity": "toilets",
        "level": "0",
        "unisex": "yes"
      }
    },
    {
      "type": "node",
      "id": 11303632425,
      "lat": 12.9108057,
      "lon": 77.5821293,
      "tags": {
        "amenity": "restaurant",
        "check_date": "2023-11-01",
        "name": "Arogya Ahaara"
      }
    },
    {
      "type": "node",
      "id": 11303695822,
      "lat": 12.9104903,
      "lon": 77.5819683,
      "tags": {
        "check_date": "2023-11-01",
        "level": "0",
        "name": "Sarayu Branding & Printing",
        "phone": "+91 99800 71161",
        "shop": "copyshop",
        "website": "https://sarayus.com"
      }
    },
    {
      "type": "node",
      "id": 11303696484,
      "lat": 12.9097266,
      "lon": 77.5824286,
      "tags": {
        "amenity": "social_facility",
        "check_date": "2023-11-01",
        "name": "Belaku Vatsalya Dhama",
        "social_facility": "group_home",
        "social_facility:for": "senior"
      }
    },
    {
      "type": "node",
      "id": 11303698240,
      "lat": 12.9103304,
      "lon": 77.5862796,
      "tags": {
        "check_date": "2023-11-01",
        "name": "Reliance Trends",
        "shop": "clothes"
      }
    },
    {
      "type": "node",
      "id": 11303698297,
      "lat": 12.9067877,
      "lon": 77.5858782,
      "tags": {
        "amenity": "restaurant",
        "check_date": "2023-11-01",
        "diet:non-vegetarian": "yes",
        "name": "Bendakaluru Donne Briyani"
      }
    },
    {
      "type": "node",
      "id": 11303698303,
      "lat": 12.9064621,
      "lon": 77.5900836,
      "tags": {
        "check_date": "2023-11-01",
        "name": "Top Store",
        "shop": "convenience"
      }
    },
    {
      "type": "node",
      "id": 11303698304,
      "lat": 12.9064664,
      "lon": 77.590046,
      "tags": {
        "check_date": "2023-11-01",
        "name": "Iyengar's Bakery",
        "name:kn": "ಐಯ್ಯಂಗಾರ್ ಬೇಕರಿ",
        "shop": "bakery"
      }
    },
    {
      "type": "node",
      "id": 11303699892,
      "lat": 12.910476,
      "lon": 77.5822027,
      "tags": {
        "amenity": "fixme",
        "check_date": "2023-11-01",
        "fixme": "type",
        "fixme:type": "vehicle rental",
        "name": "Swytchd"
      }
    },
    {
      "type": "node",
      "id": 11303702484,
      "lat": 12.9103011,
      "lon": 77.5858865,
      "tags": {
        "amenity": "restaurant",
        "check_date": "2023-11-01",
        "name": "Paradise Biryani"
      }
    },
    {
      "type": "node",
      "id": 11303710183,
      "lat": 12.9107901,
      "lon": 77.5822781,
      "tags": {
        "amenity": "clinic",
        "check_date": "2023-11-01",
        "healthcare": "clinic",
        "name": "Pristyn Care"
      }
    },
    {
      "type": "node",
      "id": 11303710184,
      "lat": 12.9107901,
      "lon": 77.5822781,
      "tags": {
        "check_date": "2023-11-01",
        "leisure": "fitness_centre",
        "name": "Goldkraft Fitness",
        "phone": "+91 88841 08822; +91 88841 08855; +91 80 2664 7664"
      }
    },
    {
      "type": "node",
      "id": 11303710927,
      "lat": 12.9122347,
      "lon": 77.5855628,
      "tags": {
        "amenity": "cafe",
        "brand": "Cafe Coffee Day",
        "brand:wikidata": "Q5017235",
        "check_date": "2023-11-01",
        "cuisine": "coffee_shop",
        "name": "Cafe Coffee Day",
        "name:kn": "ಕಫೆ ಕಾಫಿ ಡೇ",
        "takeaway": "yes"
      }
    },
    {
      "type": "node",
      "id": 11303711371,
      "lat": 12.906071,
      "lon": 77.5869281,
      "tags": {
        "amenity": "hospital",
        "check_date": "2023-11-01",
        "healthcare": "hospital",
        "level": "0;1;2",
        "name": "Cadabam's Hospitals",
        "wheelchair": "yes"
      }
    },
    {
      "type": "node",
      "id": 11303711372,
      "lat": 12.9065764,
      "lon": 77.5869587,
      "tags": {
        "check_date": "2023-11-01",
        "level": "1",
        "name": "Wakefit.co",
        "shop": "bed"
      }
    },
    {
      "type": "node",
      "id": 11303711373,
      "lat": 12.9066349,
      "lon": 77.586965,
      "tags": {
        "check_date": "2023-11-01",
        "level": "2",
        "name": "Ruan Thai Spa",
        "shop": "massage",
        "wheelchair": "no"
      }
    },
    {
      "type": "node",
      "id": 11303711374,
      "lat": 12.9060987,
      "lon": 77.5874595,
      "tags": {
        "check_date": "2023-11-01",
        "level": "0",
        "name": "Friends Automotives",
        "second_hand": "only",
        "shop": "car",
        "wheelchair": "limited"
      }
    },
    {
      "type": "node",
      "id": 11303711375,
      "lat": 12.9065923,
      "lon": 77.5873203,
      "tags": {
        "check_date": "2023-11-01",
        "level": "0",
        "name": "Rajasthan Wood Works",
        "shop": "furniture",
        "wheelchair": "no"
      }
    },
    {
      "type": "node",
      "id": 11303711405,
      "lat": 12.9061552,
      "lon": 77.5903307,
      "tags": {
        "amenity": "restaurant",
        "bar": "yes",
        "check_date": "2023-11-01",
        "level": "0",
        "name": "Eagle Bar & Restaurant",
        "wheelchair": "no"
      }
    },
    {
      "type": "node",
      "id": 11303711406,
      "lat": 12.9061515,
      "lon": 77.5908928,
      "tags": {
        "brand": "Snack Shop",
        "check_date": "2023-11-01",
        "level": "0",
        "name": "Sri Venkateshwara",
        "shop": "convenience",
        "wheelchair": "no"
      }
    },
    {
      "type": "node",
      "id": 11303711407,
      "lat": 12.9061373,
      "lon": 77.5908522,
      "tags": {
        "check_date": "2023-11-01",
        "level": "1",
        "name": "One Homes",
        "shop": "furniture",
        "wheelchair": "no"
      }
    },
    {
      "type": "node",
      "id": 11303711408,
      "lat": 12.9061467,
      "lon": 77.5909889,
      "tags": {
        "check_date": "2023-11-01",
        "level": "0",
        "name": "Ather",
        "shop": "motorcycle",
        "wheelchair": "no"
      }
    },
    {
      "type": "node",
      "id": 11303711410,
      "lat": 12.9061171,
      "lon": 77.5909724,
      "tags": {
        "check_date": "2023-11-01",
        "level": "1",
        "name": "Guhina",
        "shop": "furniture",
        "wheelchair": "no"
      }
    },
    {
      "type": "node",
      "id": 11303711412,
      "lat": 12.9061135,
      "lon": 77.590881,
      "tags": {
        "check_date": "2023-11-01",
        "level": "2",
        "name": "Truww",
        "shop": "interior_decoration",
        "wheelchair": "no"
      }
    },
    {
      "type": "node",
      "id": 11303726652,
      "lat": 12.9074264,
      "lon": 77.5824555,
      "tags": {
        "check_date": "2023-11-01",
        "name": "Kashyapi Naturals",
        "organic": "only",
        "shop": "supermarket"
      }
    },
    {
      "type": "node",
      "id": 11303726653,
      "lat": 12.9070993,
      "lon": 77.5825707,
      "tags": {
        "amenity": "clinic",
        "check_date": "2023-11-01",
        "healthcare": "clinic",
        "name": "Medall Clumax Diagnostics"
      }
    },
    {
      "type": "node",
      "id": 11303726654,
      "lat": 12.9072137,
      "lon": 77.5829997,
      "tags": {
        "amenity": "pharmacy",
        "check_date": "2023-11-01",
        "healthcare": "pharmacy",
        "name": "Harsitha Medicals"
      }
    },
    {
      "type": "node",
      "id": 11303726655,
      "lat": 12.907408,
      "lon": 77.5829527,
      "tags": {
        "amenity": "post_depot",
        "brand": "FedEx",
        "brand:wikidata": "Q459477",
        "check_date": "2023-11-01",
        "name": "Sri Ganesh Courier Services",
        "operator": "FedEx",
        "operator:type": "private",
        "operator:wikidata": "Q459477"
      }
    },
    {
      "type": "node",
      "id": 11303727833,
      "lat": 12.9106694,
      "lon": 77.5835369,
      "tags": {
        "amenity": "pharmacy",
        "check_date": "2023-11-01",
        "healthcare": "pharmacy",
        "level": "0",
        "name": "Pharma One",
        "phone": "+91 98117 89001"
      }
    },
    {
      "type": "node",
      "id": 11303730516,
      "lat": 12.9107357,
      "lon": 77.5829631,
      "tags": {
        "amenity": "bank",
        "check_date": "2023-11-01",
        "name": "People's India Souharda Credit Cooperative Limited"
      }
    },
    {
      "type": "node",
      "id": 11303735210,
      "lat": 12.9106407,
      "lon": 77.5845458,
      "tags": {
        "amenity": "conference_centre",
        "check_date": "2023-11-01",
        "name": "India Sweet House"
      }
    },
    {
      "type": "node",
      "id": 11303736032,
      "lat": 12.9095975,
      "lon": 77.5818484,
      "tags": {
        "amenity": "kindergarten",
        "check_date": "2023-11-01",
        "name": "Little Sparkle Pre-school",
        "operator:type": "private",
        "preschool": "yes"
      }
    },
    {
      "type": "node",
      "id": 11303736994,
      "lat": 12.9082574,
      "lon": 77.5858666,
      "tags": {
        "access": "yes",
        "amenity": "toilets",
        "check_date": "2023-11-01"
      }
    },
    {
      "type": "node",
      "id": 11303737786,
      "lat": 12.9104716,
      "lon": 77.5822556,
      "tags": {
        "check_date": "2023-11-01",
        "name": "Howzzat Sports",
        "shop": "sports"
      }
    },
    {
      "type": "node",
      "id": 11303742136,
      "lat": 12.9107076,
      "lon": 77.5843671,
      "tags": {
        "amenity": "toilets",
        "check_date": "2023-11-01",
        "toilets:disposal": "flush"
      }
    },
    {
      "type": "node",
      "id": 11303742269,
      "lat": 12.910476,
      "lon": 77.5822027,
      "tags": {
        "amenity": "restaurant",
        "check_date": "2023-11-01",
        "name": "Aata Oota Maathu"
      }
    },
    {
      "type": "node",
      "id": 11303742270,
      "lat": 12.910476,
      "lon": 77.5822027,
      "tags": {
        "check_date": "2023-11-01",
        "name": "Cream And Fudge",
        "shop": "bakery"
      }
    },
    {
      "type": "node",
      "id": 11303742272,
      "lat": 12.910476,
      "lon": 77.5822027,
      "tags": {
        "check_date": "2023-11-01",
        "leisure": "fitness_centre",
        "name": "O2 The Fitness",
        "phone": "08042007236"
      }
    },
    {
      "type": "node",
      "id": 11303743268,
      "lat": 12.9072606,
      "lon": 77.5858955,
      "tags": {
        "brand": "Zudio",
        "brand:wikidata": "Q123375926",
        "check_date": "2023-11-01",
        "name": "Zudio",
        "shop": "clothes"
      }
    },
    {
      "type": "node",
      "id": 11303744483,
      "lat": 12.9061058,
      "lon": 77.5876799,
      "tags": {
        "amenity": "cafe",
        "check_date": "2023-11-01",
        "level": "0",
        "name": "Third Wave Coffee",
        "wheelchair": "no"
      }
    },
    {
      "type": "node",
      "id": 11303744484,
      "lat": 12.9061073,
      "lon": 77.5876277,
      "tags": {
        "check_date": "2023-11-01",
        "level": "0",
        "name": "Heads Up For Tails",
        "shop": "pet",
        "wheelchair": "no"
      }
    },
    {
      "type": "node",
      "id": 11303744485,
      "lat": 12.9060441,
      "lon": 77.5876157,
      "tags": {
        "check_date": "2023-11-01",
        "level": "1",
        "name": "HomeLane.com",
        "shop": "interior_decoration",
        "wheelchair": "no"
      }
    },
    {
      "type": "node",
      "id": 11303744487,
      "lat": 12.90608,
      "lon": 77.587813,
      "tags": {
        "check_date": "2023-11-01",
        "level": "0",
        "name": "Maruit Suzuki Nexa",
        "shop": "car",
        "wheelchair": "yes"
      }
    },
    {
      "type": "node",
      "id": 11303744488,
      "lat": 12.9060772,
      "lon": 77.5880885,
      "tags": {
        "amenity": "bank",
        "brand": "ICICI Bank",
        "brand:wikidata": "Q1653258",
        "check_date": "2023-11-01",
        "level": "0",
        "name": "ICICI Bank",
        "short_name": "ICICI",
        "wheelchair": "no"
      }
    },
    {
      "type": "node",
      "id": 11303744489,
      "lat": 12.9065841,
      "lon": 77.5886336,
      "tags": {
        "check_date": "2023-11-01",
        "level": "0",
        "name": "The organic world",
        "organic": "only",
        "shop": "supermarket",
        "wheelchair": "limited"
      }
    },
    {
      "type": "node",
      "id": 11303746612,
      "lat": 12.9069387,
      "lon": 77.5856442,
      "tags": {
        "amenity": "bicycle_rental",
        "check_date": "2023-11-01",
        "name": "Yulu Bike Stand"
      }
    },
    {
      "type": "node",
      "id": 11303746666,
      "lat": 12.9086287,
      "lon": 77.5834793,
      "tags": {
        "check_date": "2023-11-01",
        "name": "Hair Sessions Men's Saloon",
        "shop": "hairdresser"
      }
    },
    {
      "type": "node",
      "id": 11303748075,
      "lat": 12.9107338,
      "lon": 77.5828423,
      "tags": {
        "check_date": "2023-11-01",
        "name": "Shana Trading Company",
        "shop": "department_store"
      }
    },
    {
      "type": "node",
      "id": 11303751506,
      "lat": 12.9061033,
      "lon": 77.5866031,
      "tags": {
        "amenity": "restaurant",
        "check_date": "2023-11-01",
        "name": "1947"
      }
    },
    {
      "type": "node",
      "id": 11303751507,
      "lat": 12.9060244,
      "lon": 77.5868402,
      "tags": {
        "check_date": "2023-11-01",
        "name": "Royal King",
        "shop": "massage"
      }
    },
    {
      "type": "node",
      "id": 11303758350,
      "lat": 12.9107148,
      "lon": 77.583503,
      "tags": {
        "amenity": "doctors",
        "check_date": "2023-11-01",
        "healthcare": "doctor",
        "healthcare:speciality": "orthopaedics",
        "name": "Prime Orthopedics"
      }
    },
    {
      "type": "node",
      "id": 11303758351,
      "lat": 12.9106464,
      "lon": 77.5841885,
      "tags": {
        "amenity": "clinic",
        "check_date": "2023-11-01",
        "healthcare": "clinic",
        "name": "Aster Labs"
      }
    },
    {
      "type": "node",
      "id": 11303758352,
      "lat": 12.9106464,
      "lon": 77.5841885,
      "tags": {
        "amenity": "clinic",
        "check_date": "2023-11-01",
        "healthcare": "clinic",
        "healthcare:speciality": "fertility",
        "name": "Baby Science IVF clinic"
      }
    },
    {
      "type": "node",
      "id": 11303761207,
      "lat": 12.9068406,
      "lon": 77.585623,
      "tags": {
        "check_date": "2023-11-01",
        "name": "Urban Sarees",
        "shop": "fashion_accessories"
      }
    },
    {
      "type": "node",
      "id": 11303762242,
      "lat": 12.9060616,
      "lon": 77.5855244,
      "tags": {
        "amenity": "restaurant",
        "check_date": "2023-11-01",
        "level": "2",
        "name": "Casa Piccosa",
        "opening_hours": "00:00-01:00,11:00-24:00"
      }
    },
    {
      "type": "node",
      "id": 11303762243,
      "lat": 12.9060789,
      "lon": 77.5854544,
      "tags": {
        "check_date": "2023-11-01",
        "level": "1",
        "name": "Wooden Street",
        "shop": "furniture"
      }
    },
    {
      "type": "node",
      "id": 11303762244,
      "lat": 12.906127,
      "lon": 77.5860544,
      "tags": {
        "check_date": "2023-11-01",
        "level": "0",
        "name": "Global Hardware & Power Tools",
        "shop": "hardware"
      }
    },
    {
      "type": "node",
      "id": 11303762245,
      "lat": 12.9065673,
      "lon": 77.5864076,
      "tags": {
        "amenity": "restaurant",
        "check_date": "2023-11-01",
        "cuisine": "asian",
        "level": "1",
        "name": "NI YU",
        "wheelchair": "limited"
      }
    },
    {
      "type": "node",
      "id": 11303762985,
      "lat": 12.9075107,
      "lon": 77.5859176,
      "tags": {
        "check_date": "2023-11-01",
        "leisure": "fitness_centre",
        "name": "Karma Center",
        "sport": "yoga"
      }
    },
    {
      "type": "node",
      "id": 11303763219,
      "lat": 12.9060608,
      "lon": 77.58713,
      "tags": {
        "check_date": "2023-11-01",
        "name": "Pepperfry Studio",
        "shop": "furniture"
      }
    },
    {
      "type": "node",
      "id": 11303763223,
      "lat": 12.9102031,
      "lon": 77.5878491,
      "tags": {
        "check_date": "2023-11-01",
        "name": "Kinderdreams Baby Store",
        "shop": "baby_goods"
      }
    },
    {
      "type": "node",
      "id": 11303763740,
      "lat": 12.9103298,
      "lon": 77.587092,
      "tags": {
        "amenity": "doctors",
        "check_date": "2023-11-01",
        "healthcare": "doctor",
        "healthcare:speciality": "gynaecology",
        "name": "Bloom Women's Health",
        "phone": "+91 95917 87988"
      }
    },
    {
      "type": "node",
      "id": 11303765165,
      "lat": 12.9065042,
      "lon": 77.5898768,
      "tags": {
        "amenity": "post_office",
        "brand": "Delhivery",
        "brand:wikidata": "Q55609321",
        "check_date": "2023-11-01",
        "level": "0",
        "name": "Delhivery",
        "operator": "Delhivery",
        "operator:wikidata": "Q55609321",
        "wheelchair": "no"
      }
    },
    {
      "type": "node",
      "id": 11303765166,
      "lat": 12.906458,
      "lon": 77.5899535,
      "tags": {
        "check_date": "2023-11-01",
        "level": "0",
        "name": "Chetan Hardware",
        "shop": "hardware",
        "wheelchair": "no"
      }
    },
    {
      "type": "node",
      "id": 11303765856,
      "lat": 12.9093099,
      "lon": 77.5817838,
      "tags": {
        "check_date": "2023-11-01",
        "name": "Sri Durga Condiments",
        "shop": "confectionery"
      }
    },
    {
      "type": "node",
      "id": 11303767325,
      "lat": 12.9103136,
      "lon": 77.5875758,
      "tags": {
        "amenity": "cafe",
        "check_date": "2023-11-01",
        "cuisine": "coffee_shop",
        "name": "Benki Coffee",
        "opening_hours": "Mo-Tu 11:00-20:00; We-Su 07:00-21:00",
        "payment:cash": "yes",
        "payment:mastercard": "yes",
        "payment:visa": "yes"
      }
    },
    {
      "type": "node",
      "id": 11303767729,
      "lat": 12.9083628,
      "lon": 77.5847684,
      "tags": {
        "check_date": "2023-11-01",
        "name": "Hopcoms",
        "shop": "greengrocer"
      }
    },
    {
      "type": "node",
      "id": 11303767730,
      "lat": 12.9083725,
      "lon": 77.5848558,
      "tags": {
        "check_date": "2023-11-01",
        "name": "Nandini Shoppe",
        "shop": "dairy"
      }
    },
    {
      "type": "node",
      "id": 11303767732,
      "lat": 12.9107078,
      "lon": 77.5843154,
      "tags": {
        "access": "yes",
        "amenity": "toilets",
        "check_date": "2023-11-01"
      }
    },
    {
      "type": "node",
      "id": 11303767734,
      "lat": 12.9104661,
      "lon": 77.5853389,
      "tags": {
        "amenity": "post_box",
        "operator": "India Post",
        "operator:wikidata": "Q3519720"
      }
    },
    {
      "type": "node",
      "id": 11303767735,
      "lat": 12.9086288,
      "lon": 77.5858739,
      "tags": {
        "amenity": "ice_cream",
        "check_date": "2023-11-01",
        "name": "Freez"
      }
    },
    {
      "type": "node",
      "id": 11303773815,
      "lat": 12.9064812,
      "lon": 77.5909953,
      "tags": {
        "check_date": "2023-11-01",
        "name": "Motors",
        "second_hand": "only",
        "shop": "car"
      }
    },
    {
      "type": "node",
      "id": 11303773816,
      "lat": 12.906477,
      "lon": 77.591074,
      "tags": {
        "check_date": "2023-11-01",
        "fixme": "only detailing",
        "name": "Rhino",
        "shop": "car_repair"
      }
    },
    {
      "type": "node",
      "id": 11303774164,
      "lat": 12.9061152,
      "lon": 77.5887159,
      "tags": {
        "check_date": "2023-11-01",
        "level": "0",
        "name": "Abaran",
        "shop": "jewelry",
        "wheelchair": "limited"
      }
    },
    {
      "type": "node",
      "id": 11303776046,
      "lat": 12.9101758,
      "lon": 77.5818113,
      "tags": {
        "check_date": "2023-11-01",
        "name": "Mari Swamy Xerox",
        "shop": "copyshop"
      }
    },
    {
      "type": "node",
      "id": 11303778271,
      "lat": 12.9061345,
      "lon": 77.5911575,
      "tags": {
        "check_date": "2023-11-01",
        "level": "0",
        "name": "Tafe Access Ltd",
        "shop": "car",
        "wheelchair": "no"
      }
    },
    {
      "type": "node",
      "id": 11303778272,
      "lat": 12.9061141,
      "lon": 77.5911619,
      "tags": {
        "check_date": "2023-11-01",
        "level": "1",
        "name": "Liv Space",
        "shop": "furniture",
        "wheelchair": "no"
      }
    },
    {
      "type": "node",
      "id": 11303778273,
      "lat": 12.9060879,
      "lon": 77.5912044,
      "tags": {
        "check_date": "2023-11-01",
        "level": "2",
        "name": "Schell",
        "shop": "bathroom_furnishing",
        "wheelchair": "no"
      }
    },
    {
      "type": "node",
      "id": 11303778274,
      "lat": 12.9061242,
      "lon": 77.5912854,
      "tags": {
        "check_date": "2023-11-01",
        "level": "0",
        "name": "enrich",
        "shop": "beauty",
        "wheelchair": "limited"
      }
    },
    {
      "type": "node",
      "id": 11303782101,
      "lat": 12.9103521,
      "lon": 77.5818133,
      "tags": {
        "check_date": "2023-11-01",
        "name": "Ramdev Stationery",
        "shop": "stationery"
      }
    },
    {
      "type": "node",
      "id": 11303784532,
      "lat": 12.9099304,
      "lon": 77.581821,
      "tags": {
        "amenity": "dentist",
        "check_date": "2023-11-01",
        "healthcare": "dentist",
        "name": "Spectrum Dental Clinic"
      }
    },
    {
      "type": "node",
      "id": 11303787988,
      "lat": 12.9104295,
      "lon": 77.5818288,
      "tags": {
        "check_date": "2023-11-01",
        "name": "New Classic Men's Parlour",
        "phone": "+91 99006 15439",
        "shop": "hairdresser"
      }
    },
    {
      "type": "node",
      "id": 11303787989,
      "lat": 12.9104295,
      "lon": 77.5818288,
      "tags": {
        "check_date": "2023-11-01",
        "name": "Ramdev Stationers",
        "shop": "mobile_phone"
      }
    },
    {
      "type": "node",
      "id": 11303789827,
      "lat": 12.9086016,
      "lon": 77.5834712,
      "tags": {
        "check_date": "2023-11-01",
        "name": "MedPlus",
        "shop": "chemist",
        "wheelchair": "limited"
      }
    },
    {
      "type": "node",
      "id": 11304329506,
      "lat": 12.9061209,
      "lon": 77.591745,
      "tags": {
        "brand": "Lenskart",
        "brand:wikidata": "Q17068753",
        "name": "Lenskart",
        "shop": "optician"
      }
    },
    {
      "type": "node",
      "id": 11304329508,
      "lat": 12.9061026,
      "lon": 77.5914037,
      "tags": {
        "amenity": "clinic",
        "healthcare": "clinic",
        "name": "Skanda Health Care"
      }
    },
    {
      "type": "node",
      "id": 11304329512,
      "lat": 12.9061546,
      "lon": 77.5914043,
      "tags": {
        "amenity": "parking_entrance",
        "parking": "underground"
      }
    },
    {
      "type": "node",
      "id": 11304329617,
      "lat": 12.9061542,
      "lon": 77.5911952,
      "tags": {
        "amenity": "parking_entrance",
        "parking": "underground"
      }
    },
    {
      "type": "node",
      "id": 11309805436,
      "lat": 12.9174621,
      "lon": 77.5758584,
      "tags": {
        "check_date": "2023-11-03",
        "name": "Sri Roshni Creations",
        "shop": "clothes"
      }
    },
    {
      "type": "node",
      "id": 11309805437,
      "lat": 12.9172901,
      "lon": 77.5776156,
      "tags": {
        "check_date": "2023-11-03",
        "name": "Pet Dreams",
        "shop": "pet"
      }
    },
    {
      "type": "node",
      "id": 11309805438,
      "lat": 12.917069,
      "lon": 77.5781777,
      "tags": {
        "amenity": "motorcycle_parking"
      }
    },
    {
      "type": "node",
      "id": 11309805447,
      "lat": 12.9168722,
      "lon": 77.5834061,
      "tags": {
        "check_date": "2023-11-03",
        "name": "VRK Heritage",
        "shop": "clothes"
      }
    },
    {
      "type": "node",
      "id": 11309805459,
      "lat": 12.9174902,
      "lon": 77.5751993,
      "tags": {
        "brand": "Raymond",
        "brand:wikidata": "Q3537018",
        "check_date": "2023-11-03",
        "name": "Raymond",
        "shop": "clothes"
      }
    },
    {
      "type": "node",
      "id": 11309805464,
      "lat": 12.9167467,
      "lon": 77.5856694,
      "tags": {
        "amenity": "fast_food",
        "check_date": "2023-11-03",
        "cuisine": "pizza",
        "name": "Mojo Pizza"
      }
    },
    {
      "type": "node",
      "id": 11309805466,
      "lat": 12.9168357,
      "lon": 77.5854597,
      "tags": {
        "amenity": "fast_food",
        "check_date": "2023-11-03",
        "name": "Vishranti Bhavan"
      }
    },
    {
      "type": "node",
      "id": 11364084195,
      "lat": 12.9170727,
      "lon": 77.5741546,
      "tags": {
        "access": "yes",
        "amenity": "toilets",
        "check_date": "2023-11-20",
        "fee": "yes",
        "operator": "BBMP"
      }
    },
    {
      "type": "node",
      "id": 11364084196,
      "lat": 12.9160185,
      "lon": 77.5738355,
      "tags": {
        "access": "yes",
        "addr:floor": "1",
        "amenity": "toilets",
        "check_date": "2023-11-20",
        "female": "yes",
        "male": "yes",
        "operator": "BMRCL",
        "toilets:handwashing": "yes",
        "toilets:position": "urinal"
      }
    },
    {
      "type": "node",
      "id": 11364084197,
      "lat": 12.9160186,
      "lon": 77.5738814,
      "tags": {
        "access": "yes",
        "addr:floor": "1",
        "amenity": "drinking_water",
        "fee": "no",
        "operator": "BMRCL"
      }
    },
    {
      "type": "node",
      "id": 11364084199,
      "lat": 12.915971,
      "lon": 77.5738794,
      "tags": {
        "addr:floor": "1",
        "check_date": "2023-11-20",
        "shop": "chocolate"
      }
    },
    {
      "type": "node",
      "id": 11754772661,
      "lat": 12.9061758,
      "lon": 77.5805046,
      "tags": {
        "addr:city": "Bangalore",
        "addr:country": "IN",
        "addr:postcode": "560078",
        "addr:street": "Outer Ring Road",
        "addr:suburb": "JP Nagar",
        "amenity": "restaurant",
        "cuisine": "american",
        "name": "JP Nagara Social",
        "smoking": "separated"
      }
    },
    {
      "type": "node",
      "id": 12102862215,
      "lat": 12.906053,
      "lon": 77.5890997,
      "tags": {
        "addr:city": "Bengaluru",
        "addr:housenumber": "7",
        "addr:postcode": "560078",
        "addr:street": "Outer Ring Road",
        "addr:suburb": "JP Nagar",
        "amenity": "cafe",
        "contact:instagram": "suay.india",
        "delivery": "yes",
        "email": "cafesuay@gmail.com",
        "name": "Suay",
        "phone": "+91 8884552022",
        "takeaway": "yes",
        "toilets": "yes",
        "website": "https://www.suay.co.in/"
      }
    },
    {
      "type": "node",
      "id": 12102862216,
      "lat": 12.906036,
      "lon": 77.5889428,
      "tags": {
        "amenity": "cafe",
        "name": "Take A Break"
      }
    },
    {
      "type": "node",
      "id": 12106532161,
      "lat": 12.9060614,
      "lon": 77.5930541,
      "tags": {
        "addr:city": "Bengaluru",
        "addr:housenumber": "309",
        "addr:postcode": "560078",
        "addr:street": "Outer Ring Road",
        "amenity": "bar",
        "level": "3,4",
        "name": "Bottle Breacher Bar"
      }
    },
    {
      "type": "node",
      "id": 12141938852,
      "lat": 12.9171682,
      "lon": 77.574335,
      "tags": {
        "amenity": "fuel",
        "brand": "Indian Oil",
        "brand:wikidata": "Q1289348",
        "name": "Indian Oil"
      }
    },
    {
      "type": "node",
      "id": 12219067643,
      "lat": 12.9174114,
      "lon": 77.5772699,
      "tags": {
        "shop": "florist"
      }
    },
    {
      "type": "node",
      "id": 12292078854,
      "lat": 12.9060713,
      "lon": 77.5943602,
      "tags": {
        "amenity": "cafe",
        "check_date": "2025-10-27",
        "name": "Nenapu"
      }
    },
    {
      "type": "node",
      "id": 12320273044,
      "lat": 12.9060286,
      "lon": 77.5852067,
      "tags": {
        "addr:housenumber": "745",
        "addr:street": "Aurobindo Marg (24th Main)",
        "amenity": "pub",
        "check_date": "2024-11-07",
        "name": "Taproom by Sherlock's"
      }
    },
    {
      "type": "node",
      "id": 12320273045,
      "lat": 12.9059207,
      "lon": 77.5858993,
      "tags": {
        "amenity": "pharmacy",
        "check_date": "2024-11-07",
        "healthcare": "pharmacy",
        "wheelchair": "no"
      }
    },
    {
      "type": "node",
      "id": 12320273046,
      "lat": 12.9066822,
      "lon": 77.5851367,
      "tags": {
        "air_conditioning": "yes",
        "amenity": "cafe",
        "check_date": "2025-02-22",
        "cuisine": "coffee_shop",
        "highchair": "yes",
        "level": "0",
        "name": "Cafe Petriqor",
        "outdoor_seating": "yes",
        "toilets": "yes"
      }
    },
    {
      "type": "node",
      "id": 12320273047,
      "lat": 12.906049,
      "lon": 77.586435,
      "tags": {
        "amenity": "restaurant",
        "check_date": "2024-11-07",
        "contact:instagram": "https://www.instagram.com/gaia.blr",
        "cuisine": "regional",
        "diet:vegan": "yes",
        "diet:vegetarian": "yes",
        "name": "Gaia"
      }
    },
    {
      "type": "node",
      "id": 12405993166,
      "lat": 12.906136,
      "lon": 77.5905005,
      "tags": {
        "addr:city": "Bangalore",
        "addr:district": "Bangalore",
        "addr:housenumber": "No 289",
        "addr:postcode": "560078",
        "addr:street": "15th Cross, 5th Phose, JP Nagar",
        "air_conditioning": "yes",
        "amenity": "cafe",
        "capacity": "50",
        "cuisine": "coffee_shop;cafe;breakfast;tea",
        "delivery": "yes",
        "highchair": "yes",
        "internet_access": "yes",
        "internet_access:fee": "no",
        "internet_access:ssid": "Drip and Drop_5G",
        "name": "Drip and Drop Coffee",
        "opening_hours": "Mo-Th 09:00-22:00, Fr-Su 08:00-23:00",
        "phone": "+919538238355",
        "toilets": "yes",
        "website:menu": "https://www.zomato.com/bangalore/drip-and-drop-coffee-jp-nagar-bangalore/menu",
        "wheelchair": "limited"
      }
    },
    {
      "type": "node",
      "id": 12553367899,
      "lat": 12.9052342,
      "lon": 77.585597,
      "tags": {
        "addr:city": "Bengaluru",
        "addr:district": "Bengaluru Urban",
        "addr:full": "3rd floor, 722, 24th Main Rd, near Nandhini hotel, KR Layout, 6th phase, J. P. Nagar",
        "addr:postcode": "560078",
        "addr:street": "24th Main Road",
        "beauty": "spa;massage",
        "name": "Siyara Spa in JP Nagar",
        "opening_hours": "Mo-Su 10:00-21:00",
        "operator": "Mr. Ajith",
        "phone": "09148112300",
        "shop": "beauty",
        "website": "https://siyaraspa.in/"
      }
    },
    {
      "type": "node",
      "id": 12580990403,
      "lat": 12.9154291,
      "lon": 77.574685,
      "tags": {
        "access": "private",
        "amenity": "parking_entrance",
        "parking": "underground"
      }
    },
    {
      "type": "node",
      "id": 12580990408,
      "lat": 12.9154064,
      "lon": 77.5742645,
      "tags": {
        "access": "private",
        "amenity": "parking_entrance",
        "parking": "underground"
      }
    },
    {
      "type": "node",
      "id": 12609542987,
      "lat": 12.9057047,
      "lon": 77.5831816,
      "tags": {
        "amenity": "cafe",
        "check_date": "2025-02-22",
        "name": "Iris Cafe and Kitchen"
      }
    },
    {
      "type": "node",
      "id": 12941883837,
      "lat": 12.9100981,
      "lon": 77.5921837,
      "tags": {
        "check_date": "2025-06-21",
        "name": "Sri Deep a Retail",
        "shop": "supermarket"
      }
    },
    {
      "type": "node",
      "id": 12941883844,
      "lat": 12.9101317,
      "lon": 77.5908631,
      "tags": {
        "amenity": "clinic",
        "check_date": "2025-06-21",
        "healthcare": "clinic",
        "healthcare:speciality": "fertility",
        "name": "Genea"
      }
    },
    {
      "type": "node",
      "id": 13013588714,
      "lat": 12.906053,
      "lon": 77.5897421,
      "tags": {
        "amenity": "restaurant",
        "name": "Kalpaney"
      }
    },
    {
      "type": "node",
      "id": 13013978949,
      "lat": 12.906051,
      "lon": 77.5825477,
      "tags": {
        "amenity": "restaurant",
        "name": "Tuk Tuk Thai"
      }
    },
    {
      "type": "node",
      "id": 13158114701,
      "lat": 12.9128491,
      "lon": 77.585578,
      "tags": {
        "addr:floor": "4",
        "air_conditioning": "yes",
        "amenity": "restaurant",
        "bar": "yes",
        "check_date": "2025-09-20",
        "cuisine": "indian;andhra;chinese;chicken;regional",
        "diet:lactose_free": "limited",
        "diet:non-vegetarian": "yes",
        "diet:vegan": "on_demand",
        "diet:vegetarian": "yes",
        "handwashing:soap": "yes",
        "image:menu": "9903160b-e5bd-4a94-a931-9f09cf78cc0a",
        "image:menu:0": "0785e08f-c2c7-47fe-8d91-435d2fb7b7b5",
        "image:menu:1": "92a57144-ecf3-4598-9bf0-3b3163be94f8",
        "image:menu:2": "f626bb09-f056-45cb-b418-c4a40a04df7d",
        "image:menu:3": "ade2fa8a-33c5-4a7b-bb9d-f513db95be04",
        "image:menu:4": "d4d1febe-0f79-4b37-853a-4241c2f9ebbe",
        "image:menu:5": "6308f86a-901e-4333-b58f-77c49ac2640d",
        "indoor_seating": "yes",
        "level": "4",
        "name": "Mayuri",
        "outdoor_seating": "no",
        "payment:cards": "no",
        "payment:cash": "yes",
        "payment:debit_cards": "yes",
        "payment:qr_code": "no",
        "payment:upi": "yes",
        "reservation": "yes",
        "takeaway": "yes",
        "toilets": "yes",
        "toilets:access": "customers",
        "toilets:disposal": "flush",
        "toilets:fee": "no",
        "toilets:handwashing": "yes",
        "toilets:level": "4",
        "wheelchair": "yes",
        "wikimedia_commons": "Category:Mayuri,_JP_Nagar,_Bangalore"
      }
    },
    {
      "type": "node",
      "id": 13260788309,
      "lat": 12.9060589,
      "lon": 77.5945085,
      "tags": {
        "amenity": "cafe",
        "check_date": "2025-10-27",
        "name": "Cherry Bean Coffee"
      }
    },
    {
      "type": "way",
      "id": 32260421,
      "center": {
        "lat": 12.9085681,
        "lon": 77.5925789
      },
      "tags": {
        "amenity": "college",
        "name": "Vasavi Education Trust",
        "name:kn": "ವಾಸವಿ ಶಿಕ್ಷಣ ಸಂಸ್ಥೆ"
      }
    },
    {
      "type": "way",
      "id": 97948550,
      "center": {
        "lat": 12.9089335,
        "lon": 77.5811366
      },
      "tags": {
        "leisure": "pitch",
        "name": "Sarakki Pitch",
        "name:kn": "ಸಾರಕ್ಕಿ ಆಟದ ಮೈದಾನ",
        "sport": "cricket"
      }
    },
    {
      "type": "way",
      "id": 118411722,
      "center": {
        "lat": 12.9110143,
        "lon": 77.5797725
      },
      "tags": {
        "addr:city": "bangalore",
        "addr:district": "Bengaluru Urban",
        "addr:full": "No 21, 9Th Cross, B-78 Jp Nagar",
        "addr:housenumber": "21",
        "addr:postcode": "560078",
        "addr:state": "Karnataka",
        "addr:street": "9th Cross Road, Phase 1, Sarakki Layout, JP Nagar",
        "amenity": "hospital",
        "emergency": "yes",
        "healthcare": "hospital",
        "name": "Rajshekhar Hospital",
        "name:kn": "ರಾಜಶೇಖರ ಆಸ್ಪತ್ರೆ",
        "phone": "080 4252 7555",
        "source": "OpenGovernmentData",
        "website": "https://www.rajshekarhospital.com/"
      }
    },
    {
      "type": "way",
      "id": 118411725,
      "center": {
        "lat": 12.9111132,
        "lon": 77.5816348
      },
      "tags": {
        "amenity": "place_of_worship",
        "name": "Sri Aurobindo Ashram",
        "name:kn": "ಶ್ರೀ ಅರವಿಂದ ಆಶ್ರಾಮ",
        "religion": "hindu"
      }
    },
    {
      "type": "way",
      "id": 133951786,
      "center": {
        "lat": 12.9164637,
        "lon": 77.5796155
      },
      "tags": {
        "addr:district": "Bengaluru Urban",
        "addr:full": "VR Layout, J. P. Nagar, Bengaluru",
        "addr:postcode": "560078",
        "addr:state": "Karnataka",
        "amenity": "hospital",
        "healthcare": "hospital",
        "name": "Rajalakshmi Multispeciality Hospital",
        "name:kn": "ರಾಜಾಜಿನಗರ ಆಸ್ಪತ್ರೆ"
      }
    },
    {
      "type": "way",
      "id": 233078450,
      "center": {
        "lat": 12.9060986,
        "lon": 77.5903941
      },
      "tags": {
        "addr:city": "Bengaluru",
        "addr:postcode": "560078",
        "addr:street": "Outer Ring Road",
        "amenity": "restaurant",
        "brand": "California Burrito",
        "brand:wikidata": "Q124374596",
        "check_date": "2023-10-27",
        "cuisine": "mexican",
        "level": "0",
        "name": "California Burrito",
        "operator": "Burrito Restaurants Private Limited",
        "toilets": "yes",
        "toilets:wheelchair": "no",
        "wheelchair": "no"
      }
    },
    {
      "type": "way",
      "id": 262072817,
      "center": {
        "lat": 12.9052976,
        "lon": 77.5810468
      },
      "tags": {
        "leisure": "park"
      }
    },
    {
      "type": "way",
      "id": 262072818,
      "center": {
        "lat": 12.9050716,
        "lon": 77.5810481
      },
      "tags": {
        "amenity": "place_of_worship",
        "building": "yes",
        "denomination": "Shiva,Ayyappan",
        "religion": "hindu"
      }
    },
    {
      "type": "way",
      "id": 299706900,
      "center": {
        "lat": 12.9155925,
        "lon": 77.5855349
      },
      "tags": {
        "addr:city": "Bangalore",
        "addr:district": "Bengaluru Urban",
        "addr:housenumber": "1107",
        "addr:postcode": "560075",
        "addr:street": "24th Main Rd, TMC Layout, 1st Phase, J. P. Nagar",
        "amenity": "bar",
        "building": "industrial",
        "name": "Mockaholic Restro Beer Cafe"
      }
    },
    {
      "type": "way",
      "id": 332234669,
      "center": {
        "lat": 12.9094412,
        "lon": 77.5805872
      },
      "tags": {
        "amenity": "place_of_worship",
        "building": "yes",
        "name": "Sri Dharmarayaswami Devasthana",
        "name:kn": "ಧರ್ಮರಾಯಸ್ವಾಮಿ ದೇವಸ್ಥಾನ",
        "religion": "hindu"
      }
    },
    {
      "type": "way",
      "id": 348097519,
      "center": {
        "lat": 12.91015,
        "lon": 77.5885555
      },
      "tags": {
        "amenity": "place_of_worship",
        "building": "yes",
        "name": "Venkataramanaswamy Temple",
        "name:kn": "ವೆಂಕಟರಮಣಸ್ವಾಮಿ ದೇವಸ್ಥನ",
        "opening_hours": "07:30-21:00",
        "religion": "hindu"
      }
    },
    {
      "type": "way",
      "id": 348137003,
      "center": {
        "lat": 12.9123225,
        "lon": 77.5815246
      },
      "tags": {
        "addr:city": "Bengaluru",
        "addr:postcode": "560078",
        "addr:street": "29th Main Rd, Jeewan Sathi Colony, 1st Phase, J. P. Nagar",
        "amenity": "place_of_worship",
        "building": "yes",
        "name": "Vijaya Vinayaka Temple",
        "religion": "hindu"
      }
    },
    {
      "type": "way",
      "id": 348322680,
      "center": {
        "lat": 12.9059934,
        "lon": 77.5941328
      },
      "tags": {
        "addr:city": "Bengaluru",
        "addr:housenumber": "#14",
        "addr:postcode": "560078",
        "addr:street": "Outer Ring Road, JP Nagar 4th Phase",
        "amenity": "pub",
        "building": "yes",
        "check_date": "2023-10-27",
        "cuisine": "pub",
        "name": "Levels Pub",
        "phone": "+91 9845881144",
        "website": "https://thelevelspub.com/"
      }
    },
    {
      "type": "way",
      "id": 362882074,
      "center": {
        "lat": 12.908586,
        "lon": 77.586709
      },
      "tags": {
        "leisure": "park"
      }
    },
    {
      "type": "way",
      "id": 494321761,
      "center": {
        "lat": 12.9057589,
        "lon": 77.5908606
      },
      "tags": {
        "leisure": "park"
      }
    },
    {
      "type": "way",
      "id": 691997514,
      "center": {
        "lat": 12.9171094,
        "lon": 77.5742972
      },
      "tags": {
        "amenity": "fuel",
        "brand": "Indian Oil",
        "brand:wikidata": "Q1289348",
        "brand:wikipedia": "en:Indian Oil Corporation",
        "name": "Indian Oil",
        "name:kn": "ಇಂಡಿಯನ್ ಆಯಿಲ್"
      }
    },
    {
      "type": "way",
      "id": 1160442879,
      "center": {
        "lat": 12.9167658,
        "lon": 77.5838493
      },
      "tags": {
        "amenity": "fuel",
        "brand": "Shell",
        "brand:wikidata": "Q110716465",
        "name": "Shell",
        "name:kn": "ಶೆಲ್",
        "operator": "Shell"
      }
    },
    {
      "type": "way",
      "id": 1160442881,
      "center": {
        "lat": 12.917109,
        "lon": 77.5779692
      },
      "tags": {
        "amenity": "place_of_worship",
        "religion": "hindu"
      }
    },
    {
      "type": "way",
      "id": 1167161248,
      "center": {
        "lat": 12.9167622,
        "lon": 77.5738191
      },
      "tags": {
        "amenity": "marketplace",
        "name": "Banshankari Market"
      }
    },
    {
      "type": "way",
      "id": 1167161249,
      "center": {
        "lat": 12.9166021,
        "lon": 77.5741167
      },
      "tags": {
        "access": "permissive",
        "amenity": "parking",
        "parking": "surface"
      }
    },
    {
      "type": "way",
      "id": 1213812869,
      "center": {
        "lat": 12.9111994,
        "lon": 77.5850613
      },
      "tags": {
        "amenity": "parking"
      }
    },
    {
      "type": "way",
      "id": 1218777643,
      "center": {
        "lat": 12.9053337,
        "lon": 77.5936977
      },
      "tags": {
        "leisure": "park"
      }
    },
    {
      "type": "way",
      "id": 1218814305,
      "center": {
        "lat": 12.9064453,
        "lon": 77.592557
      },
      "tags": {
        "access": "customers",
        "amenity": "parking"
      }
    },
    {
      "type": "way",
      "id": 1219843715,
      "center": {
        "lat": 12.9087795,
        "lon": 77.5859899
      },
      "tags": {
        "amenity": "fuel",
        "brand": "Essar",
        "brand:wikidata": "Q5399372",
        "name": "Essar Fuel"
      }
    },
    {
      "type": "way",
      "id": 1219843728,
      "center": {
        "lat": 12.9147902,
        "lon": 77.5855586
      },
      "tags": {
        "amenity": "fuel",
        "brand": "Indian Oil",
        "brand:wikidata": "Q1289348",
        "name": "Indian Oil",
        "name:kn": "ಇಂಡಿಯನ್ ಆಯಿಲ್"
      }
    },
    {
      "type": "way",
      "id": 1219998589,
      "center": {
        "lat": 12.9093191,
        "lon": 77.5881207
      },
      "tags": {
        "leisure": "park"
      }
    },
    {
      "type": "way",
      "id": 1219998647,
      "center": {
        "lat": 12.9061559,
        "lon": 77.5869576
      },
      "tags": {
        "amenity": "parking",
        "parking": "surface"
      }
    },
    {
      "type": "way",
      "id": 1220009715,
      "center": {
        "lat": 12.9079994,
        "lon": 77.5839556
      },
      "tags": {
        "leisure": "playground"
      }
    },
    {
      "type": "way",
      "id": 1220009721,
      "center": {
        "lat": 12.9079522,
        "lon": 77.5834672
      },
      "tags": {
        "leisure": "park"
      }
    },
    {
      "type": "way",
      "id": 1220009722,
      "center": {
        "lat": 12.9077811,
        "lon": 77.5825095
      },
      "tags": {
        "leisure": "playground"
      }
    },
    {
      "type": "way",
      "id": 1220010689,
      "center": {
        "lat": 12.9088281,
        "lon": 77.5808124
      },
      "tags": {
        "hoops": "2",
        "leisure": "pitch",
        "sport": "basketball"
      }
    },
    {
      "type": "way",
      "id": 1265806929,
      "center": {
        "lat": 12.9065829,
        "lon": 77.5943933
      },
      "tags": {
        "amenity": "fuel",
        "brand": "Indian Oil",
        "brand:wikidata": "Q1289348",
        "brand:wikipedia": "en:Indian Oil Corporation",
        "fuel:diesel": "no",
        "name": "Indian Oil Corporation",
        "name:kn": "ಇಂಡಿಯನ್ ಆಯಿಲ್"
      }
    },
    {
      "type": "way",
      "id": 1286310816,
      "center": {
        "lat": 12.9145907,
        "lon": 77.578656
      },
      "tags": {
        "access": "private",
        "leisure": "swimming_pool"
      }
    },
    {
      "type": "way",
      "id": 1286310817,
      "center": {
        "lat": 12.914026,
        "lon": 77.577211
      },
      "tags": {
        "access": "private",
        "leisure": "park"
      }
    },
    {
      "type": "way",
      "id": 1306880051,
      "center": {
        "lat": 12.9055709,
        "lon": 77.5887259
      },
      "tags": {
        "amenity": "school"
      }
    },
    {
      "type": "way",
      "id": 1329877106,
      "center": {
        "lat": 12.9158945,
        "lon": 77.5760985
      },
      "tags": {
        "access": "private",
        "leisure": "park"
      }
    },
    {
      "type": "way",
      "id": 1329877150,
      "center": {
        "lat": 12.915775,
        "lon": 77.576133
      },
      "tags": {
        "access": "private",
        "leisure": "swimming_pool"
      }
    },
    {
      "type": "way",
      "id": 1361893659,
      "center": {
        "lat": 12.9037586,
        "lon": 77.5807186
      },
      "tags": {
        "amenity": "theatre",
        "landuse": "commercial",
        "name": "Siddhalingeswara Theatre",
        "name:kn": "ಸಿದ್ದಲಿಂಗೇಶ್ವರ ತಿಯಟರ್"
      }
    },
    {
      "type": "way",
      "id": 1361893660,
      "center": {
        "lat": 12.9038236,
        "lon": 77.5804227
      },
      "tags": {
        "addr:street": "33 Main Road",
        "amenity": "theatre",
        "landuse": "commercial",
        "name": "Siddheswara Theatre",
        "name:kn": "ಸಿದ್ದೇಶ್ವರ"
      }
    },
    {
      "type": "way",
      "id": 1426267777,
      "center": {
        "lat": 12.9141506,
        "lon": 77.5796072
      },
      "tags": {
        "amenity": "place_of_worship",
        "landuse": "religious",
        "religion": "hindu"
      }
    },
    {
      "type": "way",
      "id": 1426267779,
      "center": {
        "lat": 12.9148556,
        "lon": 77.5784924
      },
      "tags": {
        "leisure": "playground"
      }
    }
  ]
}