{
  "area_name": "Shankar Nagar",
  "osm_id": 10795162722,
  "osm_type": "node",
  "place_type": "neighbourhood",
  "amenity_count": 149,
  "amenities": [
    {
      "type": "node",
      "id": 1026441558,
      "lat": 13.0120006,
      "lon": 77.5444168,
      "tags": {
        "leisure": "swimming_pool",
        "name": "MahaLakshmi Layout CorporationSwimming Pool",
        "name:kn": "ಮಹಾಲಕ್ಷ್ಮೀ ಲೇಔಟ್ ಕಾರ್ಪೋರೇಷನ್ ಈಜುಕೋಳ",
        "sport": "swimming"
      }
    },
    {
      "type": "node",
      "id": 1467501637,
      "lat": 13.0121864,
      "lon": 77.5448893,
      "tags": {
        "brand": "HOPCOMS",
        "brand:wikidata": "Q22908959",
        "name": "HOPCOMS",
        "name:kn": "ಹಾಪ್ ಕಾಮ್ಸ್",
        "shop": "greengrocer"
      }
    },
    {
      "type": "node",
      "id": 1471737562,
      "lat": 13.0078494,
      "lon": 77.5473216,
      "tags": {
        "amenity": "pharmacy",
        "name": "Balaji Medical Store",
        "wheelchair": "no"
      }
    },
    {
      "type": "node",
      "id": 1471737564,
      "lat": 13.0079383,
      "lon": 77.5469059,
      "tags": {
        "amenity": "hospital",
        "name": "Suprabha Hospital",
        "wheelchair": "yes"
      }
    },
    {
      "type": "node",
      "id": 1471738633,
      "lat": 13.0080794,
      "lon": 77.5469863,
      "tags": {
        "amenity": "cafe",
        "name": "Mahalakshmi Refreshments"
      }
    },
    {
      "type": "node",
      "id": 1471738634,
      "lat": 13.0082414,
      "lon": 77.5468871,
      "tags": {
        "amenity": "pharmacy",
        "name": "Sri Dhanvantri Ayurved Bhandara"
      }
    },
    {
      "type": "node",
      "id": 1471738635,
      "lat": 13.0083564,
      "lon": 77.5469273,
      "tags": {
        "amenity": "hospital",
        "name": "Sangolli Nursing Home"
      }
    },
    {
      "type": "node",
      "id": 1471739089,
      "lat": 13.0085603,
      "lon": 77.5433815,
      "tags": {
        "brand": "Reliance Fresh",
        "brand:wikidata": "Q7311014",
        "name": "Reliance Fresh",
        "name:kn": "ರಿಲಾಯನ್ಸ್ ಫ್ರೆಶ್",
        "shop": "supermarket",
        "wheelchair": "no"
      }
    },
    {
      "type": "node",
      "id": 1471739653,
      "lat": 13.0087092,
      "lon": 77.5433895,
      "tags": {
        "amenity": "bank",
        "brand": "Corporation Bank",
        "brand:wikidata": "Q2003387",
        "brand:wikipedia": "en:Corporation Bank",
        "name": "Corporation Bank",
        "name:en": "Corporation Bank",
        "name:kn": "ಕಾರ್ಪರೇಷನ್ ಬ್ಯಾಂಕ್",
        "website": "https://corpbank.com/",
        "wheelchair": "no"
      }
    },
    {
      "type": "node",
      "id": 1471776615,
      "lat": 13.0086735,
      "lon": 77.5428733,
      "tags": {
        "amenity": "place_of_worship",
        "name": "Panchamukhi Ganesha Temple",
        "name:kn": "ಪಂಚಮುಖಿ ಗಣೇಶ ದೇವಸ್ಥಾನ",
        "religion": "hindu"
      }
    },
    {
      "type": "node",
      "id": 1471776616,
      "lat": 13.0085716,
      "lon": 77.5426802,
      "tags": {
        "amenity": "place_of_worship",
        "name": "Sri Dharmasastha Ayappa Temple",
        "name:kn": "ಅಯ್ಯಪ್ಪ ದೇವಸ್ಥಾನ",
        "religion": "hindu"
      }
    },
    {
      "type": "node",
      "id": 1472178430,
      "lat": 13.0096385,
      "lon": 77.5486843,
      "tags": {
        "name": "Abaran Jewellers",
        "shop": "jewelry"
      }
    },
    {
      "type": "node",
      "id": 1472808787,
      "lat": 13.0092391,
      "lon": 77.5478152,
      "tags": {
        "amenity": "school",
        "name": "Little Lilly's English School"
      }
    },
    {
      "type": "node",
      "id": 2011784504,
      "lat": 13.0094405,
      "lon": 77.5467085,
      "tags": {
        "leisure": "common",
        "name": "GA Res"
      }
    },
    {
      "type": "node",
      "id": 2027760054,
      "lat": 13.0237386,
      "lon": 77.5481786,
      "tags": {
        "amenity": "bank",
        "atm": "yes",
        "brand": "State Bank of India",
        "brand:wikidata": "Q1340361",
        "brand:wikipedia": "en:State Bank of India",
        "name": "State Bank of India",
        "name:kn": "ಭಾರತೀಯ ಸ್ಟೇಟ್ ಬ್ಯಾಂಕ್",
        "short_name": "SBI",
        "website": "https://www.sbi.co.in"
      }
    },
    {
      "type": "node",
      "id": 2083025578,
      "lat": 13.007947,
      "lon": 77.5428561,
      "tags": {
        "name": "Nilgiris",
        "name:kn": "ನೀಲ್ಗಿರೀಸ್",
        "shop": "supermarket"
      }
    },
    {
      "type": "node",
      "id": 2090807102,
      "lat": 13.0106887,
      "lon": 77.546525,
      "tags": {
        "amenity": "post_office",
        "name": "Mahalakshmi Layout Post Office",
        "operator": "India Post",
        "operator:wikidata": "Q3519720"
      }
    },
    {
      "type": "node",
      "id": 2090827123,
      "lat": 13.0124684,
      "lon": 77.5368288,
      "tags": {
        "amenity": "police",
        "name": "Nandini Layout Police Station",
        "name:kn": "ನಂದಿನಿ ಲೇಔಟ್ ಪೋಲಿಸ್ ಠಾಣೆ"
      }
    },
    {
      "type": "node",
      "id": 2090827478,
      "lat": 13.0124501,
      "lon": 77.5367215,
      "tags": {
        "amenity": "bank",
        "atm": "yes",
        "brand": "State Bank of India",
        "brand:wikidata": "Q1340361",
        "brand:wikipedia": "en:State Bank of India",
        "name": "State Bank of India",
        "name:kn": "ಮೈಸೂರು ಬ್ಯಾಂಕ್‌",
        "short_name": "SBI",
        "website": "https://www.sbi.co.in"
      }
    },
    {
      "type": "node",
      "id": 2090829415,
      "lat": 13.0103477,
      "lon": 77.5367403,
      "tags": {
        "amenity": "fuel",
        "brand": "Hindustan Petroleum",
        "brand:wikidata": "Q1619375",
        "name": "HP Petrol",
        "name:kn": "ಹಿಂದುಸ್ತಾನ್ ಪೆಟ್ರೋಲಿಯಂ",
        "official_name": "Hindustan Petroleum",
        "wheelchair": "yes"
      }
    },
    {
      "type": "node",
      "id": 3391133323,
      "lat": 13.0161215,
      "lon": 77.5438434,
      "tags": {
        "amenity": "pharmacy",
        "name": "SLN medical and general stores",
        "name:kn": "ಎಸ್‌ಎಲ್‌ಎನ್ ಮೆಡಿಕಲ್ ಮತ್ತು ಜೆನರಲ್ ಸ್ಟೋರ್ಸ್"
      }
    },
    {
      "type": "node",
      "id": 3391134555,
      "lat": 13.0086858,
      "lon": 77.5434159,
      "tags": {
        "amenity": "atm",
        "brand": "HDFC Bank",
        "brand:wikidata": "Q631047",
        "name": "HDFC Bank",
        "name:kn": "ಎಚ್ ಡಿ ಎಫ್ ಸಿ",
        "operator": "HDFC Bank",
        "operator:wikidata": "Q631047",
        "short_name": "HDFC"
      }
    },
    {
      "type": "node",
      "id": 3391835399,
      "lat": 13.0087585,
      "lon": 77.5432729,
      "tags": {
        "amenity": "pharmacy",
        "brand": "Apollo Pharmacy",
        "brand:wikidata": "Q62562612",
        "healthcare": "pharmacy",
        "name": "Apollo Pharmacy",
        "name:kn": "ಅಪೊಲೋ ಫಾರ್ಮಸಿ"
      }
    },
    {
      "type": "node",
      "id": 4446726399,
      "lat": 13.014751,
      "lon": 77.5490654,
      "tags": {
        "addr:city": "bangalore",
        "addr:housenumber": "7",
        "addr:postcode": "560086,",
        "addr:street": "2nd stage a.g,b layout, Yeshwanthpur Industrial Suburb, Mahalakshmi Layout,",
        "amenity": "pharmacy",
        "name": "Sri Ranga Medicals",
        "phone": "+91 99020 91732"
      }
    },
    {
      "type": "node",
      "id": 4446903358,
      "lat": 13.0082692,
      "lon": 77.5441674,
      "tags": {
        "addr:city": "bangalore",
        "addr:housenumber": "27/A",
        "addr:postcode": "560086",
        "addr:street": "6th A Main, Mahalakshmi Layout, 2nd Stage",
        "amenity": "pharmacy",
        "name": "Bharath Medicals",
        "name:kn": "ಭಾರತ್ ಮೆಡಿಕಲ್ಸ್",
        "phone": "080 2359 8348"
      }
    },
    {
      "type": "node",
      "id": 4585188109,
      "lat": 13.0144425,
      "lon": 77.5429328,
      "tags": {
        "amenity": "atm",
        "brand": "HDFC Bank",
        "brand:wikidata": "Q631047",
        "name": "HDFC Bank",
        "name:kn": "ಎಚ್. ಡಿ. ಎಫ್. ಸಿ..",
        "operator": "HDFC Bank",
        "operator:wikidata": "Q631047",
        "short_name": "HDFC"
      }
    },
    {
      "type": "node",
      "id": 4585188110,
      "lat": 13.0153525,
      "lon": 77.5440212,
      "tags": {
        "amenity": "atm",
        "brand": "ICICI Bank",
        "brand:wikidata": "Q1653258",
        "name": "ICICI Bank",
        "name:kn": "ಐಸಿಐಸಿಐ ಬ್ಯಾಂಕು",
        "operator": "ICICI Bank",
        "operator:wikidata": "Q1653258",
        "short_name": "ICICI"
      }
    },
    {
      "type": "node",
      "id": 4585188111,
      "lat": 13.0170171,
      "lon": 77.5434268,
      "tags": {
        "amenity": "atm",
        "brand": "Axis Bank",
        "brand:wikidata": "Q2003549",
        "name": "Axis Bank",
        "name:kn": "ಆಕ್ಸಿಸ್ ಬ್ಯಾಂಕ್ ಎಟಿಎಂ",
        "operator": "Axis Bank",
        "operator:wikidata": "Q2003549"
      }
    },
    {
      "type": "node",
      "id": 5174994726,
      "lat": 13.0107514,
      "lon": 77.5504102,
      "tags": {
        "name": "Cotton Zone",
        "shop": "clothes"
      }
    },
    {
      "type": "node",
      "id": 5269220026,
      "lat": 13.0087675,
      "lon": 77.5491545,
      "tags": {
        "amenity": "atm",
        "brand": "State Bank of India",
        "brand:wikidata": "Q1340361",
        "cash_in": "no",
        "name": "State Bank of India",
        "operator": "State Bank of India",
        "operator:wikidata": "Q1340361",
        "short_name": "SBI"
      }
    },
    {
      "type": "node",
      "id": 5295212532,
      "lat": 13.0101501,
      "lon": 77.549804,
      "tags": {
        "name": "Head and Heels",
        "shop": "hairdresser"
      }
    },
    {
      "type": "node",
      "id": 6575118684,
      "lat": 13.0109906,
      "lon": 77.5505349,
      "tags": {
        "access": "yes",
        "amenity": "toilets",
        "fee": "yes",
        "name": "eToilet",
        "toilets:disposal": "pitlatrine",
        "unisex": "yes"
      }
    },
    {
      "type": "node",
      "id": 6794780737,
      "lat": 13.010724,
      "lon": 77.5502667,
      "tags": {
        "amenity": "restaurant",
        "cuisine": "regional",
        "name": "Hotel Vande Matharam"
      }
    },
    {
      "type": "node",
      "id": 6807542967,
      "lat": 13.0182102,
      "lon": 77.540004,
      "tags": {
        "amenity": "hospital",
        "healthcare": "hospital",
        "name": "Lourdes High School"
      }
    },
    {
      "type": "node",
      "id": 6807544243,
      "lat": 13.01636,
      "lon": 77.5425306,
      "tags": {
        "access": "yes",
        "leisure": "playground",
        "name": "Public Playground near Ganesha temple"
      }
    },
    {
      "type": "node",
      "id": 6807551928,
      "lat": 13.016705,
      "lon": 77.539386,
      "tags": {
        "amenity": "hospital",
        "healthcare": "hospital",
        "name": "Boregowda Lingamma Hospital",
        "name:kn": "ಬೋರೆಗೌಡ ಲಿಂಗಮ್ಮ ಆಸ್ಪತ್ರೆ"
      }
    },
    {
      "type": "node",
      "id": 6807551937,
      "lat": 13.0175606,
      "lon": 77.5394308,
      "tags": {
        "amenity": "hospital",
        "healthcare": "hospital",
        "name": "Kanva Hospital"
      }
    },
    {
      "type": "node",
      "id": 6855409790,
      "lat": 13.0103991,
      "lon": 77.5500308,
      "tags": {
        "name": "Nandini Milk Booth",
        "name:kn": "ನಂದಿನಿ ಹಾಲಿನ ಅಂಗಡಿ",
        "shop": "dairy"
      }
    },
    {
      "type": "node",
      "id": 6938690629,
      "lat": 13.0089953,
      "lon": 77.5406188,
      "tags": {
        "addr:district": "Bengaluru Urban",
        "addr:full": "41-42/5 7Th Cross, Saraswathipuram, Nandini Layout, Main Road",
        "addr:postcode": "560096",
        "addr:state": "Karnataka",
        "amenity": "hospital",
        "name": "Shankara Nethralaya Eye Hospital",
        "source": "OpenGovernmentData"
      }
    },
    {
      "type": "node",
      "id": 6944437383,
      "lat": 13.0195733,
      "lon": 77.5419559,
      "tags": {
        "addr:district": "Bengaluru Urban",
        "addr:full": "# 141/142, 1st Main, Krishnandanagar, Khb Colony",
        "addr:postcode": "560096",
        "addr:state": "Karnataka",
        "addr:subdistrict": "Nandini Layout",
        "amenity": "hospital",
        "email": "info@rakshahospital.in",
        "name": "Raksha Multispeciality Hospital",
        "operator:type": "private",
        "source": "OpenGovernmentData",
        "website": "http://www.rakshahospital.in/"
      }
    },
    {
      "type": "node",
      "id": 6944449930,
      "lat": 13.0195955,
      "lon": 77.5419813,
      "tags": {
        "addr:district": "Bengaluru Urban",
        "addr:full": "18/17,Cambridge Road,Ulsoor",
        "addr:postcode": "560038",
        "addr:state": "Karnataka",
        "amenity": "hospital",
        "name": "Cambridge Hospital",
        "source": "OpenGovernmentData"
      }
    },
    {
      "type": "node",
      "id": 6944543261,
      "lat": 13.0098352,
      "lon": 77.5384723,
      "tags": {
        "addr:district": "Bengaluru Urban",
        "addr:full": "#4,Sfhs,Next To Nandini Layout",
        "addr:postcode": "560096",
        "addr:state": "Karnataka",
        "amenity": "hospital",
        "healthcare": "hospital",
        "healthcare:speciality": "blood_check;general",
        "name": "J.P.Nursing Home",
        "opening_hours": "24/7",
        "operator": "Jyothi Prakash",
        "operator:type": "public",
        "source": "OpenGovernmentData"
      }
    },
    {
      "type": "node",
      "id": 6947707788,
      "lat": 13.0105038,
      "lon": 77.5502452,
      "tags": {
        "addr:district": "Bengaluru Urban",
        "addr:full": "Bengaluru Urban",
        "addr:postcode": "560002",
        "addr:state": "Karnataka",
        "amenity": "hospital",
        "name": "Aaroyha Mandir Hospital",
        "source": "OpenGovernmentData"
      }
    },
    {
      "type": "node",
      "id": 7215549993,
      "lat": 13.0193398,
      "lon": 77.5505787,
      "tags": {
        "access": "private",
        "amenity": "parking",
        "parking": "underground"
      }
    },
    {
      "type": "node",
      "id": 7215550060,
      "lat": 13.0099126,
      "lon": 77.5495425,
      "tags": {
        "amenity": "place_of_worship",
        "religion": "hindu"
      }
    },
    {
      "type": "node",
      "id": 7291611554,
      "lat": 13.0089548,
      "lon": 77.5491321,
      "tags": {
        "name": "Breads and Co.",
        "shop": "bakery"
      }
    },
    {
      "type": "node",
      "id": 7927991185,
      "lat": 13.0116909,
      "lon": 77.5468543,
      "tags": {
        "addr:housenumber": "9/6",
        "addr:postcode": "560086",
        "addr:street": "4th Cross Rd, Mahalakshmipuram Layout, Mahalakshmi Layout",
        "amenity": "school",
        "email": "communications.oisml@orchids.edu.in",
        "name": "Orchids The International School - Mahalakshmi Layout",
        "opening_hours": "Mo-Su 09:00-18:30",
        "operator": "Orchids International School",
        "phone": "9513731352",
        "website": "https://www.orchidsinternationalschool.com/bangalore-branches/mahalakshmi-layout/"
      }
    },
    {
      "type": "node",
      "id": 8187929872,
      "lat": 13.0092756,
      "lon": 77.5375966,
      "tags": {
        "addr:full": "Saraswathipura, Nandini Layout, Bengaluru, Karnataka",
        "addr:state": "Karnataka",
        "amenity": "atm",
        "brand": "Axis Bank",
        "brand:wikidata": "Q2003549",
        "name": "Axis Bank",
        "name:kn": "ಆಕ್ಸಿಸ್ ಬ್ಯಾಂಕ್ ಎಟಿಎಂ",
        "operator": "Axis Bank",
        "operator:wikidata": "Q2003549"
      }
    },
    {
      "type": "node",
      "id": 8510230820,
      "lat": 13.0083246,
      "lon": 77.5426038,
      "tags": {
        "addr:city": "Bengaluru",
        "addr:housenumber": "#36",
        "addr:postcode": "560096",
        "addr:street": "1st cross road",
        "brand": "TVS Motors",
        "name": "Global TVS",
        "opening_hours": "Mo-Su 09:00-19:00",
        "shop": "motorcycle"
      }
    },
    {
      "type": "node",
      "id": 8540417945,
      "lat": 13.0087341,
      "lon": 77.5417641,
      "tags": {
        "name": "TVS Motors Sevice Centre",
        "opening_hours": "Mo-Sa 09:00-17:00",
        "operator": "TVS Motors",
        "service:vehicle:body_repair": "yes",
        "service:vehicle:diagnostics": "yes",
        "service:vehicle:inspection": "yes",
        "service:vehicle:oil_change": "yes",
        "shop": "motorcycle_repair"
      }
    },
    {
      "type": "node",
      "id": 8887097194,
      "lat": 13.013775,
      "lon": 77.5481048,
      "tags": {
        "amenity": "restaurant",
        "cuisine": "regional",
        "delivery": "yes",
        "diet:vegan": "yes",
        "diet:vegetarian": "yes",
        "name": "The Circus Canteen",
        "takeaway": "yes"
      }
    },
    {
      "type": "node",
      "id": 9195695305,
      "lat": 13.0152595,
      "lon": 77.5487754,
      "tags": {
        "amenity": "place_of_worship",
        "religion": "hindu"
      }
    },
    {
      "type": "node",
      "id": 9197307506,
      "lat": 13.011525,
      "lon": 77.5505497,
      "tags": {
        "access": "yes",
        "amenity": "toilets",
        "operator": "BBMP"
      }
    },
    {
      "type": "node",
      "id": 9200349512,
      "lat": 13.0137953,
      "lon": 77.5485642,
      "tags": {
        "access": "permissive",
        "amenity": "toilets",
        "female": "yes",
        "male": "yes"
      }
    },
    {
      "type": "node",
      "id": 10162630528,
      "lat": 13.0088908,
      "lon": 77.5491321,
      "tags": {
        "amenity": "fast_food",
        "cuisine": "regional",
        "name": "Samosa Party"
      }
    },
    {
      "type": "node",
      "id": 10574648841,
      "lat": 13.0097806,
      "lon": 77.5488183,
      "tags": {
        "name": "DeBeers Forevermark",
        "shop": "jewelry",
        "website": "https://www.forevermark.com/en-in/"
      }
    },
    {
      "type": "node",
      "id": 10795162724,
      "lat": 13.0081682,
      "lon": 77.5467584,
      "tags": {
        "name": "Nandini Milk Booth",
        "name:kn": "ನಂದಿನಿ ಹಾಲಿನ ಅಂಗಡಿ",
        "shop": "dairy"
      }
    },
    {
      "type": "node",
      "id": 10795162737,
      "lat": 13.0084373,
      "lon": 77.5431944,
      "tags": {
        "name": "Specsavers Opticians",
        "shop": "optician"
      }
    },
    {
      "type": "node",
      "id": 11662113631,
      "lat": 13.0092527,
      "lon": 77.5486022,
      "tags": {
        "check_date": "2024-02-25",
        "name": "Turnkey Holidays",
        "shop": "travel_agency"
      }
    },
    {
      "type": "node",
      "id": 12979079073,
      "lat": 13.0243275,
      "lon": 77.5441888,
      "tags": {
        "access": "private",
        "amenity": "parking_entrance",
        "parking": "underground"
      }
    },
    {
      "type": "node",
      "id": 12979079074,
      "lat": 13.0240047,
      "lon": 77.5449572,
      "tags": {
        "access": "private",
        "amenity": "parking_entrance",
        "parking": "underground"
      }
    },
    {
      "type": "node",
      "id": 12985592701,
      "lat": 13.0110387,
      "lon": 77.5394468,
      "tags": {
        "addr:housenumber": "0",
        "addr:postcode": "560096",
        "addr:street": "11th Main Road",
        "amenity": "school",
        "name": "SG International Public School",
        "opening_hours": "Mo-Sa 09:00-05:00"
      }
    },
    {
      "type": "node",
      "id": 12985592707,
      "lat": 13.0114927,
      "lon": 77.5395216,
      "tags": {
        "addr:postcode": "560096",
        "amenity": "kindergarten",
        "name": "Happy Hoots Play School",
        "opening_hours": "Mo-Fr 10:00-01:00"
      }
    },
    {
      "type": "node",
      "id": 12985593409,
      "lat": 13.0100309,
      "lon": 77.5386261,
      "tags": {
        "addr:postcode": "560096",
        "addr:street": "4th Cross Road",
        "name": "Vijaya Krishna Bakery",
        "opening_hours": "Mo-Su 08:00-09:30",
        "shop": "bakery"
      }
    },
    {
      "type": "node",
      "id": 12985593906,
      "lat": 13.0117456,
      "lon": 77.5391611,
      "tags": {
        "leisure": "park",
        "name": "BBMP Park"
      }
    },
    {
      "type": "node",
      "id": 12985593907,
      "lat": 13.0092475,
      "lon": 77.5383111,
      "tags": {
        "addr:postcode": "560096",
        "addr:street": "Saraswathipuram Main Road",
        "amenity": "place_of_worship",
        "name": "Ganesha Temple"
      }
    },
    {
      "type": "node",
      "id": 12985594010,
      "lat": 13.0109802,
      "lon": 77.5398828,
      "tags": {
        "addr:postcode": "560096",
        "name": "Shahana Home Needs",
        "shop": "grocery"
      }
    },
    {
      "type": "node",
      "id": 12985604701,
      "lat": 13.009385,
      "lon": 77.538382,
      "tags": {
        "addr:postcode": "560096",
        "amenity": "restaurant",
        "name": "Sannidhi Grand"
      }
    },
    {
      "type": "node",
      "id": 12985610202,
      "lat": 13.0099404,
      "lon": 77.5390596,
      "tags": {
        "addr:postcode": "560096",
        "addr:street": "4th Cross Road",
        "amenity": "pharmacy",
        "healthcare": "pharmacy",
        "name": "Sri Ram Medical Store"
      }
    },
    {
      "type": "node",
      "id": 12985610401,
      "lat": 13.00911,
      "lon": 77.5382451,
      "tags": {
        "addr:postcode": "560096",
        "addr:street": "Saraswathipuram Main Road",
        "amenity": "pharmacy",
        "brand": "MedPlus",
        "brand:wikidata": "Q65684234",
        "healthcare": "pharmacy",
        "name": "MedPlus"
      }
    },
    {
      "type": "node",
      "id": 13183293848,
      "lat": 13.0108187,
      "lon": 77.5505626,
      "tags": {
        "check_date": "2025-09-30",
        "name": "Blum",
        "shop": "appliance"
      }
    },
    {
      "type": "way",
      "id": 29459362,
      "center": {
        "lat": 13.01008,
        "lon": 77.5511324
      },
      "tags": {
        "addr:street": "Chord Road",
        "alt_name": "ISKCON Bengaluru",
        "amenity": "place_of_worship",
        "full_name": "Sri Radha Krishna-chandra Temple",
        "landuse": "religious",
        "name": "ISKCON Sri Radha Krishna-Chandra Temple",
        "name:en": "ISKCON Sri Radha Krishna-Chandra Temple",
        "name:kn": "ಶ್ರೀ ರಾಧಾ ಕೃಷ್ಣಚಂದ್ರ ದೇವಾಲಯ",
        "name:ml": "ഇസ്‌കോൺ ശ്രീ രാധാ കൃഷ്ണ-ചന്ദ്ര ക്ഷേത്രം",
        "religion": "hindu",
        "start_date": "1997-05-01",
        "wikidata": "Q4500903",
        "wikimedia_commons": "Category:ISKCON Temple, Bangalore",
        "wikipedia": "en:ISKCON Temple, Bangalore"
      }
    },
    {
      "type": "way",
      "id": 37838218,
      "center": {
        "lat": 13.0217758,
        "lon": 77.5478499
      },
      "tags": {
        "alt_name": "Yeshwanthpur APMC Yard",
        "amenity": "marketplace",
        "fixme": "Should landuse be industrial or marketplace?",
        "name": "Yeshwantpur RMC Yard"
      }
    },
    {
      "type": "way",
      "id": 94441458,
      "center": {
        "lat": 13.0114373,
        "lon": 77.5366935
      },
      "tags": {
        "leisure": "park",
        "name": "Circular Park, Nandini Layout"
      }
    },
    {
      "type": "way",
      "id": 96682580,
      "center": {
        "lat": 13.0132485,
        "lon": 77.550709
      },
      "tags": {
        "addr:postcode": "560022",
        "leisure": "park",
        "name": "Renaissance Temple Bells Apartments"
      }
    },
    {
      "type": "way",
      "id": 133117380,
      "center": {
        "lat": 13.0115204,
        "lon": 77.5521069
      },
      "tags": {
        "addr:district": "Bengaluru Urban",
        "addr:full": "#121/C, Chord Road , 1st R Block, Rajajinagar, , B.N",
        "addr:postcode": "560010",
        "addr:state": "Karnataka",
        "amenity": "clinic",
        "name": "Narayana Nethralaya",
        "name:kn": "ನಾರಾಯಣ ನೇತ್ರಾಲಯ",
        "source": "OpenGovernmentData",
        "wheelchair": "yes"
      }
    },
    {
      "type": "way",
      "id": 133596125,
      "center": {
        "lat": 13.0078265,
        "lon": 77.5471834
      },
      "tags": {
        "addr:housename": "Dreamland",
        "addr:housenumber": "172/7,Mahalaksmilayout, Bovipalya, Nagapura,Bangalore",
        "addr:postcode": "560086",
        "name": "DreamLand",
        "shop": "gift"
      }
    },
    {
      "type": "way",
      "id": 133596134,
      "center": {
        "lat": 13.0079159,
        "lon": 77.5452028
      },
      "tags": {
        "addr:housename": "East West Public School",
        "addr:postcode": "560086",
        "addr:street": "13th Cross, Mahalakshmi Layout",
        "amenity": "school",
        "name": "East West Public School"
      }
    },
    {
      "type": "way",
      "id": 133720139,
      "center": {
        "lat": 13.0079076,
        "lon": 77.5481009
      },
      "tags": {
        "amenity": "community_centre",
        "building": "yes",
        "name": "Sapthagiri Kalyana Mantapa",
        "name:kn": "ಸಪ್ತಗಿರಿ ಕಲ್ಯಾಣ ಮಂಟಪ"
      }
    },
    {
      "type": "way",
      "id": 133959052,
      "center": {
        "lat": 13.0075879,
        "lon": 77.5447396
      },
      "tags": {
        "leisure": "park"
      }
    },
    {
      "type": "way",
      "id": 133959053,
      "center": {
        "lat": 13.0079372,
        "lon": 77.5445461
      },
      "tags": {
        "leisure": "park"
      }
    },
    {
      "type": "way",
      "id": 142344347,
      "center": {
        "lat": 13.0102309,
        "lon": 77.5435066
      },
      "tags": {
        "leisure": "park"
      }
    },
    {
      "type": "way",
      "id": 142344598,
      "center": {
        "lat": 13.0138889,
        "lon": 77.5416642
      },
      "tags": {
        "leisure": "park"
      }
    },
    {
      "type": "way",
      "id": 142344599,
      "center": {
        "lat": 13.0127912,
        "lon": 77.5420927
      },
      "tags": {
        "leisure": "park"
      }
    },
    {
      "type": "way",
      "id": 168384742,
      "center": {
        "lat": 13.0093859,
        "lon": 77.5493192
      },
      "tags": {
        "amenity": "community_centre",
        "landuse": "commercial",
        "name": "Sharana Seva Samaja",
        "name:kn": "ಶರಣ ಸೇವ ಸಮಾಜ"
      }
    },
    {
      "type": "way",
      "id": 199023678,
      "center": {
        "lat": 13.0131335,
        "lon": 77.5352168
      },
      "tags": {
        "leisure": "park"
      }
    },
    {
      "type": "way",
      "id": 199023743,
      "center": {
        "lat": 13.0135226,
        "lon": 77.5356976
      },
      "tags": {
        "leisure": "park"
      }
    },
    {
      "type": "way",
      "id": 199023745,
      "center": {
        "lat": 13.0125724,
        "lon": 77.535532
      },
      "tags": {
        "leisure": "park"
      }
    },
    {
      "type": "way",
      "id": 199023795,
      "center": {
        "lat": 13.0113749,
        "lon": 77.5374511
      },
      "tags": {
        "amenity": "library",
        "name": "Nandini Layout Public Library",
        "name:kn": "ನಂದಿನಿ ಬಡಾವಣೆ ಗ್ರಂಥಾಲಯ"
      }
    },
    {
      "type": "way",
      "id": 199024267,
      "center": {
        "lat": 13.0176526,
        "lon": 77.5351791
      },
      "tags": {
        "leisure": "park",
        "name": "Ramakrishna Paramahamsa Park",
        "name:kn": "ರಾಮಕೃಷ್ಣ ಪರಮಹಂಸ ಉದ್ಯಾನವನ"
      }
    },
    {
      "type": "way",
      "id": 199024568,
      "center": {
        "lat": 13.0152372,
        "lon": 77.5353631
      },
      "tags": {
        "amenity": "public_building",
        "landuse": "industrial",
        "man_made": "water_tower",
        "name": "BWSSB Service Station",
        "operator": "BWSSB"
      }
    },
    {
      "type": "way",
      "id": 308836205,
      "center": {
        "lat": 13.0158948,
        "lon": 77.5451364
      },
      "tags": {
        "alt_name": "Yeshwanthpur Yard Market",
        "amenity": "marketplace",
        "landuse": "retail",
        "name": "Yeshwanthpur APMC Market",
        "opening_hours": "Mo-Su 05:30-13:00"
      }
    },
    {
      "type": "way",
      "id": 332071364,
      "center": {
        "lat": 13.0161475,
        "lon": 77.5438849
      },
      "tags": {
        "amenity": "pharmacy",
        "building": "yes",
        "name": "Sln Medical And General Stores"
      }
    },
    {
      "type": "way",
      "id": 332071569,
      "center": {
        "lat": 13.0116917,
        "lon": 77.5438731
      },
      "tags": {
        "addr:district": "Bengaluru Urban",
        "addr:full": "#761, 7th Main, Last Bus Stop, Near Swimming pool, Mahalakshmi Layout",
        "addr:postcode": "560086",
        "addr:state": "Karnataka",
        "amenity": "hospital",
        "building": "yes",
        "healthcare": "hospital",
        "name": "Sanjeevani Hospital",
        "name:kn": "ಸಂಜೀವನಿ ಆಸ್ಪತ್ರೆ",
        "operator:type": "private",
        "source": "OpenGovernmentData",
        "website": "https://www.sanjeevinihospital.com/"
      }
    },
    {
      "type": "way",
      "id": 335167581,
      "center": {
        "lat": 13.0086638,
        "lon": 77.5441278
      },
      "tags": {
        "leisure": "park",
        "name": "Anna Basavanna Park"
      }
    },
    {
      "type": "way",
      "id": 335167682,
      "center": {
        "lat": 13.0087591,
        "lon": 77.5460294
      },
      "tags": {
        "leisure": "park",
        "name": "Anjaneya Swami Gudi Udyana",
        "name:kn": "ಆಂಜನೇಯ ಸ್ವಾಮಿ ಗುಡಿ ಉದ್ಯಾನ"
      }
    },
    {
      "type": "way",
      "id": 346433329,
      "center": {
        "lat": 13.0090863,
        "lon": 77.5437204
      },
      "tags": {
        "amenity": "place_of_worship",
        "building": "yes",
        "name": "Vasavi Temple",
        "name:kn": "ವಾಸವಿ ದೇವಸ್ಥಾನ",
        "religion": "hindu"
      }
    },
    {
      "type": "way",
      "id": 346433364,
      "center": {
        "lat": 13.008493,
        "lon": 77.5452688
      },
      "tags": {
        "amenity": "place_of_worship",
        "building": "yes",
        "name": "Sri Venkateshwara Temple",
        "name:kn": "ವೆಂಕಟೇಶ್ವರ ದೇವಸ್ಥಾನ",
        "religion": "hindu",
        "wheelchair": "no"
      }
    },
    {
      "type": "way",
      "id": 346807086,
      "center": {
        "lat": 13.0161578,
        "lon": 77.5425544
      },
      "tags": {
        "amenity": "place_of_worship",
        "building": "yes",
        "denomination": "hindu",
        "name": "Vinayaka Temple",
        "name:kn": "ವಿನಾಯಕ ದೇವಸ್ಥಾನ",
        "religion": "hindu"
      }
    },
    {
      "type": "way",
      "id": 346807180,
      "center": {
        "lat": 13.0161865,
        "lon": 77.5426606
      },
      "tags": {
        "amenity": "place_of_worship",
        "building": "yes",
        "denomination": "hindu",
        "name": "Vidyashankara Temple",
        "name:kn": "ವಿದ್ಯಾಶಂಕರ ದೇವಾಲಯ",
        "religion": "hindu"
      }
    },
    {
      "type": "way",
      "id": 346866570,
      "center": {
        "lat": 13.0194971,
        "lon": 77.539281
      },
      "tags": {
        "amenity": "restaurant",
        "building": "yes",
        "name": "Taran Sagar Restaurant"
      }
    },
    {
      "type": "way",
      "id": 347022438,
      "center": {
        "lat": 13.0170979,
        "lon": 77.5458933
      },
      "tags": {
        "building": "yes",
        "name": "Tiles Shop",
        "roof:material": "metal",
        "shop": "tiles"
      }
    },
    {
      "type": "way",
      "id": 347055001,
      "center": {
        "lat": 13.0198969,
        "lon": 77.5515246
      },
      "tags": {
        "amenity": "cinema",
        "building": "yes",
        "name": "Ullas Theater"
      }
    },
    {
      "type": "way",
      "id": 349519495,
      "center": {
        "lat": 13.0153835,
        "lon": 77.5461691
      },
      "tags": {
        "amenity": "place_of_worship",
        "building": "yes",
        "name": "Sai Baba Temple",
        "name:kn": "ಸಾಯಿಬಾಬಾ ದೇವಸ್ಥಾನ",
        "religion": "hindu"
      }
    },
    {
      "type": "way",
      "id": 363067369,
      "center": {
        "lat": 13.0184352,
        "lon": 77.5394324
      },
      "tags": {
        "leisure": "park",
        "name": "BBMP Park",
        "name:kn": "ಬೃ ಬೆಂ ಮ ಪಾ ಉದ್ಯಾನವನ"
      }
    },
    {
      "type": "way",
      "id": 363067390,
      "center": {
        "lat": 13.0166412,
        "lon": 77.5384392
      },
      "tags": {
        "leisure": "park"
      }
    },
    {
      "type": "way",
      "id": 363067571,
      "center": {
        "lat": 13.0160649,
        "lon": 77.5427512
      },
      "tags": {
        "access": "yes",
        "leisure": "park",
        "name": "Ganesha Temple Park",
        "opening_hours": "sunrise-sunset"
      }
    },
    {
      "type": "way",
      "id": 363069620,
      "center": {
        "lat": 13.0122138,
        "lon": 77.5473428
      },
      "tags": {
        "leisure": "park"
      }
    },
    {
      "type": "way",
      "id": 389877535,
      "center": {
        "lat": 13.0082708,
        "lon": 77.5444172
      },
      "tags": {
        "leisure": "playground",
        "name": "Local Playground"
      }
    },
    {
      "type": "way",
      "id": 726095464,
      "center": {
        "lat": 13.0177672,
        "lon": 77.5417058
      },
      "tags": {
        "amenity": "hospital",
        "healthcare": "hospital"
      }
    },
    {
      "type": "way",
      "id": 726163863,
      "center": {
        "lat": 13.0184847,
        "lon": 77.5398081
      },
      "tags": {
        "amenity": "fast_food",
        "building": "yes",
        "cuisine": "fish_and_chips",
        "name": "Rajkumar Fish Stall"
      }
    },
    {
      "type": "way",
      "id": 758864876,
      "center": {
        "lat": 13.0108678,
        "lon": 77.549346
      },
      "tags": {
        "access": "customers",
        "amenity": "parking",
        "fee": "yes",
        "parking": "surface"
      }
    },
    {
      "type": "way",
      "id": 766598699,
      "center": {
        "lat": 13.013451,
        "lon": 77.5505413
      },
      "tags": {
        "access": "private",
        "leisure": "swimming_pool"
      }
    },
    {
      "type": "way",
      "id": 772827140,
      "center": {
        "lat": 13.0198197,
        "lon": 77.5518866
      },
      "tags": {
        "leisure": "sports_centre"
      }
    },
    {
      "type": "way",
      "id": 772827141,
      "center": {
        "lat": 13.0207065,
        "lon": 77.5512988
      },
      "tags": {
        "access": "permissive",
        "leisure": "swimming_pool"
      }
    },
    {
      "type": "way",
      "id": 772827153,
      "center": {
        "lat": 13.0197938,
        "lon": 77.5504748
      },
      "tags": {
        "leisure": "garden"
      }
    },
    {
      "type": "way",
      "id": 780917607,
      "center": {
        "lat": 13.0114608,
        "lon": 77.5504152
      },
      "tags": {
        "amenity": "fast_food",
        "brand": "Indira Canteen",
        "brand:wikidata": "Q36164828",
        "cuisine": "south_indian",
        "name": "Indira Canteen",
        "operator": "BBMP",
        "takeaway": "yes"
      }
    },
    {
      "type": "way",
      "id": 796369059,
      "center": {
        "lat": 13.0174951,
        "lon": 77.5492427
      },
      "tags": {
        "leisure": "park"
      }
    },
    {
      "type": "way",
      "id": 995864557,
      "center": {
        "lat": 13.0169663,
        "lon": 77.5488401
      },
      "tags": {
        "amenity": "community_centre",
        "name": "RG Royal Convention Hall"
      }
    },
    {
      "type": "way",
      "id": 996044808,
      "center": {
        "lat": 13.0123796,
        "lon": 77.5516099
      },
      "tags": {
        "brand": "Toyota",
        "brand:wikidata": "Q53268",
        "landuse": "commercial",
        "name": "Ravindu Toyota",
        "name:kn": "ರವಿಂದು ಟೋಯೋಟಾ",
        "shop": "car"
      }
    },
    {
      "type": "way",
      "id": 996044809,
      "center": {
        "lat": 13.011919,
        "lon": 77.5510057
      },
      "tags": {
        "amenity": "community_centre",
        "name": "Kalyana Mantapa",
        "name:kn": "ಕಲ್ಯಾಣ ಮಂಟಪ"
      }
    },
    {
      "type": "way",
      "id": 996359567,
      "center": {
        "lat": 13.0137094,
        "lon": 77.5486075
      },
      "tags": {
        "leisure": "garden"
      }
    },
    {
      "type": "way",
      "id": 1034860583,
      "center": {
        "lat": 13.0083382,
        "lon": 77.5486182
      },
      "tags": {
        "access": "customers",
        "amenity": "motorcycle_parking",
        "capacity": "40",
        "covered": "yes",
        "parking": "surface"
      }
    },
    {
      "type": "way",
      "id": 1081463159,
      "center": {
        "lat": 13.0233372,
        "lon": 77.5486181
      },
      "tags": {
        "amenity": "community_centre",
        "community_centre": "community_hall",
        "landuse": "commercial",
        "name": "Raitha Bhavan",
        "name:kn": "ರೈತ ಭವನ"
      }
    },
    {
      "type": "way",
      "id": 1086046636,
      "center": {
        "lat": 13.0153636,
        "lon": 77.5502063
      },
      "tags": {
        "leisure": "park"
      }
    },
    {
      "type": "way",
      "id": 1106402219,
      "center": {
        "lat": 13.0099112,
        "lon": 77.5495432
      },
      "tags": {
        "amenity": "place_of_worship",
        "landuse": "religious",
        "religion": "hindu"
      }
    },
    {
      "type": "way",
      "id": 1119221389,
      "center": {
        "lat": 13.0138015,
        "lon": 77.5483561
      },
      "tags": {
        "addr:city": "Bangalore",
        "addr:housenumber": "12/2",
        "addr:place": "Yeshwantpur Industrial Estate",
        "addr:postcode": "560086",
        "amenity": "events_venue",
        "contact:facebook": "https://www.facebook.com/blrcreativecircus",
        "contact:instagram": "https://www.instagram.com/blrcreativecircus",
        "contact:linkedin": "https://www.linkedin.com/company/bangalore-creative-circus/about/",
        "email": "info@blrcreativecircus.com",
        "fixme": "Landuse boundaries",
        "landuse": "commercial",
        "name": "Bangalore Creative Circus",
        "phone": "+91 9591668282",
        "website": "https://www.blrcreativecircus.com"
      }
    },
    {
      "type": "way",
      "id": 1119221394,
      "center": {
        "lat": 13.0146369,
        "lon": 77.5481384
      },
      "tags": {
        "amenity": "place_of_worship",
        "religion": "hindu"
      }
    },
    {
      "type": "way",
      "id": 1134831513,
      "center": {
        "lat": 13.0226214,
        "lon": 77.5499132
      },
      "tags": {
        "amenity": "fire_station",
        "name": "Fire Station",
        "name:kn": "ಅಗ್ನಿಶಾಮಕ ಠಾಣೆ"
      }
    },
    {
      "type": "way",
      "id": 1160675952,
      "center": {
        "lat": 13.0069712,
        "lon": 77.5438328
      },
      "tags": {
        "leisure": "park"
      }
    },
    {
      "type": "way",
      "id": 1160675953,
      "center": {
        "lat": 13.0068837,
        "lon": 77.5450599
      },
      "tags": {
        "leisure": "park"
      }
    },
    {
      "type": "way",
      "id": 1160675954,
      "center": {
        "lat": 13.0072537,
        "lon": 77.5448886
      },
      "tags": {
        "leisure": "playground"
      }
    },
    {
      "type": "way",
      "id": 1160675960,
      "center": {
        "lat": 13.0089812,
        "lon": 77.5466473
      },
      "tags": {
        "amenity": "place_of_worship",
        "landuse": "religious",
        "name": "Prasanna Veeranjaneya Temple",
        "name:kn": "ಪ್ರಸನ್ನ ವೀರಾಂಜನೇಯ ದೇವಸ್ಥಾನ",
        "religion": "hindu",
        "wheelchair": "no",
        "wikidata": "Q107669501",
        "wikipedia": "en:Sri Prasanna Veeranjeneya Swami Temple"
      }
    },
    {
      "type": "way",
      "id": 1163334246,
      "center": {
        "lat": 13.0080453,
        "lon": 77.5460143
      },
      "tags": {
        "amenity": "fuel",
        "brand": "Nayara",
        "brand:wikidata": "Q1360409",
        "name": "Nayara",
        "operator": "Nayara"
      }
    },
    {
      "type": "way",
      "id": 1217525766,
      "center": {
        "lat": 13.0111729,
        "lon": 77.5521903
      },
      "tags": {
        "landuse": "industrial",
        "name": "Dhobi Ghat",
        "name:kn": "ಧೋಬಿ ಘಾಟ್",
        "shop": "laundry"
      }
    },
    {
      "type": "way",
      "id": 1239610848,
      "center": {
        "lat": 13.0147779,
        "lon": 77.552739
      },
      "tags": {
        "leisure": "park"
      }
    },
    {
      "type": "way",
      "id": 1271969044,
      "center": {
        "lat": 13.0186175,
        "lon": 77.5388284
      },
      "tags": {
        "leisure": "playground",
        "max_age": "40",
        "min_age": "6",
        "name": "Rajivgandhinagar Playground"
      }
    },
    {
      "type": "way",
      "id": 1271969045,
      "center": {
        "lat": 13.0167987,
        "lon": 77.5377367
      },
      "tags": {
        "leisure": "park"
      }
    },
    {
      "type": "way",
      "id": 1271969090,
      "center": {
        "lat": 13.0115825,
        "lon": 77.535844
      },
      "tags": {
        "amenity": "bus_station",
        "name": "Nandini Layout",
        "name:kn": "ನಂದಿನಿ ಲೇಔಟ್",
        "wheelchair": "limited"
      }
    },
    {
      "type": "way",
      "id": 1271975062,
      "center": {
        "lat": 13.0173868,
        "lon": 77.5380065
      },
      "tags": {
        "leisure": "park"
      }
    },
    {
      "type": "way",
      "id": 1293369513,
      "center": {
        "lat": 13.0095183,
        "lon": 77.5438022
      },
      "tags": {
        "leisure": "playground"
      }
    },
    {
      "type": "way",
      "id": 1293792969,
      "center": {
        "lat": 13.0128398,
        "lon": 77.5515126
      },
      "tags": {
        "leisure": "pitch",
        "sport": "tennis"
      }
    },
    {
      "type": "way",
      "id": 1294790835,
      "center": {
        "lat": 13.0242563,
        "lon": 77.5446736
      },
      "tags": {
        "leisure": "garden"
      }
    },
    {
      "type": "way",
      "id": 1294790838,
      "center": {
        "lat": 13.0243052,
        "lon": 77.5468919
      },
      "tags": {
        "amenity": "marketplace",
        "fixme": "Should landuse be industrial or marketplace?",
        "landuse": "commercial",
        "name": "Hotel Leroy Grand",
        "tourism": "hotel"
      }
    },
    {
      "type": "way",
      "id": 1294790841,
      "center": {
        "lat": 13.0240773,
        "lon": 77.5473789
      },
      "tags": {
        "amenity": "fuel",
        "brand": "Shell",
        "brand:wikidata": "Q110716465",
        "landuse": "commercial",
        "name": "Shell",
        "name:kn": "ಶೆಲ್"
      }
    },
    {
      "type": "way",
      "id": 1337306136,
      "center": {
        "lat": 13.0109757,
        "lon": 77.5463778
      },
      "tags": {
        "access": "private",
        "leisure": "swimming_pool"
      }
    },
    {
      "type": "way",
      "id": 1412397762,
      "center": {
        "lat": 13.0232123,
        "lon": 77.5439752
      },
      "tags": {
        "leisure": "garden"
      }
    },
    {
      "type": "way",
      "id": 1412397770,
      "center": {
        "lat": 13.0231339,
        "lon": 77.5441802
      },
      "tags": {
        "access": "private",
        "leisure": "pitch"
      }
    },
    {
      "type": "way",
      "id": 1412397771,
      "center": {
        "lat": 13.0231639,
        "lon": 77.5444808
      },
      "tags": {
        "access": "private",
        "leisure": "pitch"
      }
    }
  ]
}