{
  "area_name": "Shanthinagar",
  "osm_id": 19883394,
  "osm_type": "relation",
  "place_type": "administrative",
  "amenity_count": 170,
  "amenities": [
    {
      "type": "node",
      "id": 644420166,
      "lat": 12.9600242,
      "lon": 77.6015444,
      "tags": {
        "amenity": "restaurant",
        "name": "Sandhya Sagar",
        "name:kn": "ಸಂಧ್ಯಾ ಸಾಗರ್"
      }
    },
    {
      "type": "node",
      "id": 646739373,
      "lat": 12.9601639,
      "lon": 77.5945806,
      "tags": {
        "addr:street": "Shanti Road",
        "amenity": "restaurant",
        "name": "Utsav",
        "name:kn": "ಉತ್ಸವ್"
      }
    },
    {
      "type": "node",
      "id": 1121420612,
      "lat": 12.9578638,
      "lon": 77.5932147,
      "tags": {
        "amenity": "restaurant",
        "name": "Foody's",
        "name:kn": "ಫುಡೀಸ್"
      }
    },
    {
      "type": "node",
      "id": 1851614806,
      "lat": 12.960466,
      "lon": 77.6017789,
      "tags": {
        "name": "Reliance Smartpoint",
        "shop": "supermarket"
      }
    },
    {
      "type": "node",
      "id": 1851614956,
      "lat": 12.9596191,
      "lon": 77.6026157,
      "tags": {
        "name": "Namdharis",
        "shop": "supermarket"
      }
    },
    {
      "type": "node",
      "id": 1851615731,
      "lat": 12.958286,
      "lon": 77.605196,
      "tags": {
        "amenity": "restaurant",
        "cuisine": "international",
        "name": "Y! Cafe"
      }
    },
    {
      "type": "node",
      "id": 1851618527,
      "lat": 12.9616161,
      "lon": 77.5986353,
      "tags": {
        "amenity": "bank",
        "atm": "yes",
        "brand": "IDFC First Bank",
        "brand:wikidata": "Q22031467",
        "brand:wikipedia": "en:IDFC First Bank",
        "drive_through": "no",
        "name": "IDFC First Bank",
        "not:brand:wikidata": "Q1653258",
        "operator": "IDFC First Bank"
      }
    },
    {
      "type": "node",
      "id": 1851682041,
      "lat": 12.9624402,
      "lon": 77.5990359,
      "tags": {
        "amenity": "restaurant",
        "brand": "Pizza Hut",
        "brand:wikidata": "Q191615",
        "check_date": "2024-12-29",
        "cuisine": "pizza",
        "name": "Pizza Hut",
        "name:kn": "ಪಿಟ್ಸ ಹಟ್"
      }
    },
    {
      "type": "node",
      "id": 1851688340,
      "lat": 12.9602214,
      "lon": 77.6017286,
      "tags": {
        "shop": "alcohol"
      }
    },
    {
      "type": "node",
      "id": 1851701176,
      "lat": 12.9597386,
      "lon": 77.6018505,
      "tags": {
        "shop": "laundry"
      }
    },
    {
      "type": "node",
      "id": 1851701311,
      "lat": 12.9596942,
      "lon": 77.6018371,
      "tags": {
        "shop": "greengrocer"
      }
    },
    {
      "type": "node",
      "id": 1851701331,
      "lat": 12.9583088,
      "lon": 77.6022126,
      "tags": {
        "name": "Neelam Stores",
        "shop": "convenience"
      }
    },
    {
      "type": "node",
      "id": 1851709530,
      "lat": 12.9638299,
      "lon": 77.6009468,
      "tags": {
        "amenity": "place_of_worship",
        "religion": "hindu"
      }
    },
    {
      "type": "node",
      "id": 4395689916,
      "lat": 12.9650035,
      "lon": 77.6001039,
      "tags": {
        "amenity": "theatre",
        "name": "Montgomery Hall",
        "name:en": "Montgomery Hall"
      }
    },
    {
      "type": "node",
      "id": 4446962739,
      "lat": 12.9644242,
      "lon": 77.5968789,
      "tags": {
        "addr:city": "Bangalore",
        "addr:postcode": "560025",
        "addr:street": "Lalbagh Road",
        "amenity": "pharmacy",
        "healthcare": "pharmacy",
        "name": "Central Lab",
        "phone": "+9180 222 37370"
      }
    },
    {
      "type": "node",
      "id": 4843099627,
      "lat": 12.9594205,
      "lon": 77.5937772,
      "tags": {
        "amenity": "restaurant",
        "name": "Sea Pearl",
        "name:en": "Sea Pearl"
      }
    },
    {
      "type": "node",
      "id": 4843100425,
      "lat": 12.9588237,
      "lon": 77.5936181,
      "tags": {
        "amenity": "school",
        "name": "Cambridge School",
        "name:en": "Cambridge School",
        "name:kn": "ಕೇಂಬ್ರಿಜ್ ಶಾಲೆ"
      }
    },
    {
      "type": "node",
      "id": 4843105721,
      "lat": 12.9580965,
      "lon": 77.593251,
      "tags": {
        "amenity": "restaurant",
        "name": "Rahhams",
        "name:en": "Rahhams"
      }
    },
    {
      "type": "node",
      "id": 4843105722,
      "lat": 12.9586318,
      "lon": 77.5934793,
      "tags": {
        "name": "Prince dry cleaners",
        "name:en": "Prince dry cleaners",
        "shop": "dry_cleaning"
      }
    },
    {
      "type": "node",
      "id": 4843116021,
      "lat": 12.9578168,
      "lon": 77.593057,
      "tags": {
        "amenity": "bank",
        "brand": "Bank of Baroda",
        "brand:wikidata": "Q2003797",
        "brand:wikipedia": "en:Bank of Baroda",
        "name": "Bank of Baroda",
        "name:en": "Bank of Baroda",
        "name:kn": "ಬ್ಯಾಂಕ್ ಆಫ್ ಬರೋಡ",
        "short_name": "BoB",
        "website": "http://www.bankofbaroda.com"
      }
    },
    {
      "type": "node",
      "id": 4843123822,
      "lat": 12.9584406,
      "lon": 77.593372,
      "tags": {
        "amenity": "bank",
        "brand": "Union Bank of India",
        "brand:wikidata": "Q2004078",
        "brand:wikipedia": "en:Union Bank of India",
        "name": "Union Bank of India",
        "name:en": "Union Bank of India",
        "name:kn": "ಯೂನಿಯನ್ ಬ್ಯಾಂಕ್",
        "website": "https://www.unionbankofindia.co.in/"
      }
    },
    {
      "type": "node",
      "id": 4843123823,
      "lat": 12.9584582,
      "lon": 77.5934393,
      "tags": {
        "amenity": "cafe",
        "name": "Samsung smartcafe",
        "name:en": "Samsung smartcafe"
      }
    },
    {
      "type": "node",
      "id": 4843123824,
      "lat": 12.9589729,
      "lon": 77.593575,
      "tags": {
        "name": "Cox and Kings",
        "name:en": "Cox and Kings",
        "shop": "travel_agency"
      }
    },
    {
      "type": "node",
      "id": 4843123825,
      "lat": 12.9643183,
      "lon": 77.5969261,
      "tags": {
        "amenity": "prep_school",
        "level": "2",
        "name": "Logic Option",
        "name:en": "Logic option"
      }
    },
    {
      "type": "node",
      "id": 4843125821,
      "lat": 12.9575014,
      "lon": 77.5930278,
      "tags": {
        "name": "Butterfly",
        "name:en": "Butterfly",
        "shop": "electronics"
      }
    },
    {
      "type": "node",
      "id": 4843125822,
      "lat": 12.9593625,
      "lon": 77.5937351,
      "tags": {
        "amenity": "restaurant",
        "name": "Parijatha",
        "name:en": "Parijatha"
      }
    },
    {
      "type": "node",
      "id": 4843126221,
      "lat": 12.9597445,
      "lon": 77.5939951,
      "tags": {
        "name": "Tulasi",
        "name:en": "Tulasi",
        "name:kn": "ತುಲಸಿ",
        "shop": "beverages"
      }
    },
    {
      "type": "node",
      "id": 4843126321,
      "lat": 12.9604187,
      "lon": 77.5941492,
      "tags": {
        "amenity": "bank",
        "brand": "Axis Bank",
        "brand:wikidata": "Q2003549",
        "brand:wikipedia": "en:Axis Bank",
        "name": "Axis Bank",
        "name:en": "Axis Bank",
        "name:kn": "ಆಕ್ಸಿಸ್ ಬ್ಯಾಂಕ್",
        "website": "https://www.axisbank.com",
        "wheelchair": "no"
      }
    },
    {
      "type": "node",
      "id": 4847294840,
      "lat": 12.9622636,
      "lon": 77.5951894,
      "tags": {
        "check_date": "2024-08-10",
        "name": "Kawasaki",
        "name:en": "Kawasaki",
        "name:kn": "ಕವಸಕಿ",
        "shop": "motorcycle"
      }
    },
    {
      "type": "node",
      "id": 5168658567,
      "lat": 12.9570709,
      "lon": 77.6057127,
      "tags": {
        "name": "Hercules Sports International",
        "shop": "sports"
      }
    },
    {
      "type": "node",
      "id": 5229454408,
      "lat": 12.9646209,
      "lon": 77.5970636,
      "tags": {
        "check_date": "2023-12-09",
        "name": "Studio Young Designs",
        "shop": "furniture"
      }
    },
    {
      "type": "node",
      "id": 5229454410,
      "lat": 12.9650621,
      "lon": 77.5998831,
      "tags": {
        "name": "Style Spa",
        "shop": "interior_decoration"
      }
    },
    {
      "type": "node",
      "id": 5402224036,
      "lat": 12.9635407,
      "lon": 77.597756,
      "tags": {
        "amenity": "dentist"
      }
    },
    {
      "type": "node",
      "id": 5402302827,
      "lat": 12.9584526,
      "lon": 77.6046732,
      "tags": {
        "shop": "furniture"
      }
    },
    {
      "type": "node",
      "id": 5402307927,
      "lat": 12.9606269,
      "lon": 77.6008095,
      "tags": {
        "amenity": "place_of_worship"
      }
    },
    {
      "type": "node",
      "id": 5402307928,
      "lat": 12.9618944,
      "lon": 77.5977432,
      "tags": {
        "amenity": "place_of_worship"
      }
    },
    {
      "type": "node",
      "id": 5402307929,
      "lat": 12.962196,
      "lon": 77.5950696,
      "tags": {
        "brand": "KTM",
        "brand:wikidata": "Q215657",
        "name": "KTM",
        "shop": "motorcycle"
      }
    },
    {
      "type": "node",
      "id": 5402308121,
      "lat": 12.964262,
      "lon": 77.5967957,
      "tags": {
        "amenity": "restaurant",
        "name": "New Udupi Upahar"
      }
    },
    {
      "type": "node",
      "id": 5402308124,
      "lat": 12.9622025,
      "lon": 77.5950041,
      "tags": {
        "branch": "Tyre Center",
        "brand": "Pirelli",
        "brand:wikidata": "Q207770",
        "name": "Pirelli",
        "shop": "tyres"
      }
    },
    {
      "type": "node",
      "id": 5765878302,
      "lat": 12.9649744,
      "lon": 77.5993954,
      "tags": {
        "name": "M. P. Swarna Mahal",
        "shop": "jewelry"
      }
    },
    {
      "type": "node",
      "id": 5765878304,
      "lat": 12.9649875,
      "lon": 77.5996327,
      "tags": {
        "amenity": "bank",
        "atm": "yes",
        "brand": "Punjab National Bank",
        "brand:wikidata": "Q2743499",
        "name": "Punjab National Bank"
      }
    },
    {
      "type": "node",
      "id": 6349031908,
      "lat": 12.9539725,
      "lon": 77.6004211,
      "tags": {
        "addr:place": "Shanthinagar",
        "amenity": "school",
        "isced:level": "2",
        "name": "GHPS Ksrtc Shanthinagar",
        "name:kn": "ಸರ್ಕಾರಿ ಹಿರಿಯ ಪ್ರಾಥಮಿಕ ಶಾಲೆ ಕೆ.ಎಸ್‌.ಆರ್‌.ಟಿ.ಸಿ ಶಾಂತಿನಗರ",
        "operator": "Department of Education",
        "school": "primary"
      }
    },
    {
      "type": "node",
      "id": 6349074612,
      "lat": 12.9555605,
      "lon": 77.5978653,
      "tags": {
        "addr:place": "Shanthinagar",
        "amenity": "school",
        "isced:level": "2",
        "name": "St Michael LPS Shanthinagar",
        "name:kn": "ಸೆಂಟ್‌ ಮೈಕಲ್ ಕಿರಿಯ ಪ್ರಾಥಮಿಕ ಶಾಲೆ ಶಾಂತಿನಗರ",
        "operator": "Department of Education",
        "school": "primary"
      }
    },
    {
      "type": "node",
      "id": 6745868123,
      "lat": 12.9592835,
      "lon": 77.5945482,
      "tags": {
        "addr:place": "Shanthinagar",
        "amenity": "school",
        "isced:level": "1",
        "name": "Morning Glory LPS",
        "name:kn": "ಮಾರ್ನಿಂಗ್ ಗ್ಲೋರಿ ಕಿರಿಯ ಪ್ರಾಥಮಿಕ ಶಾಲೆ ಶಾಂತಿನಗರ",
        "operator": "Private Un-Aided",
        "school": "primary"
      }
    },
    {
      "type": "node",
      "id": 6947504038,
      "lat": 12.964162,
      "lon": 77.5982255,
      "tags": {
        "addr:district": "Bengaluru Urban",
        "addr:full": "No. 5, Langford Gardens, Near Richmond Circle",
        "addr:postcode": "560025",
        "addr:state": "Karnataka",
        "amenity": "hospital",
        "name": "Republic Hospital",
        "source": "OpenGovernmentData"
      }
    },
    {
      "type": "node",
      "id": 7043992185,
      "lat": 12.9620164,
      "lon": 77.5978486,
      "tags": {
        "amenity": "restaurant",
        "name": "Peace Restaurant"
      }
    },
    {
      "type": "node",
      "id": 7043992186,
      "lat": 12.9583199,
      "lon": 77.6049603,
      "tags": {
        "name": "Hafele Appliances",
        "opening_hours": "Mo-Sa 10:00-17:00",
        "shop": "electronics"
      }
    },
    {
      "type": "node",
      "id": 7293708139,
      "lat": 12.9581548,
      "lon": 77.60537,
      "tags": {
        "amenity": "bank",
        "atm": "yes",
        "brand": "State Bank of India",
        "brand:wikidata": "Q1340361",
        "name": "State Bank of India",
        "name:kn": "ಭಾರತೀಯ ಸ್ಟೇಟ್ ಬ್ಯಾಂಕ್",
        "operator": "State Bank of India",
        "short_name": "SBI"
      }
    },
    {
      "type": "node",
      "id": 7293708177,
      "lat": 12.9596604,
      "lon": 77.6017229,
      "tags": {
        "amenity": "fast_food",
        "name": "Sudha Chats"
      }
    },
    {
      "type": "node",
      "id": 7293708178,
      "lat": 12.9597434,
      "lon": 77.6019703,
      "tags": {
        "name": "Family Mart",
        "shop": "supermarket"
      }
    },
    {
      "type": "node",
      "id": 7293708179,
      "lat": 12.9599937,
      "lon": 77.6019797,
      "tags": {
        "name": "Fazal Time Center",
        "shop": "watches"
      }
    },
    {
      "type": "node",
      "id": 7293708181,
      "lat": 12.9600786,
      "lon": 77.601863,
      "tags": {
        "name": "Naturals",
        "shop": "beauty"
      }
    },
    {
      "type": "node",
      "id": 7293719385,
      "lat": 12.9601322,
      "lon": 77.6017597,
      "tags": {
        "amenity": "restaurant",
        "name": "Malabar Cafe"
      }
    },
    {
      "type": "node",
      "id": 7293719386,
      "lat": 12.9624298,
      "lon": 77.6020977,
      "tags": {
        "access": "permissive",
        "amenity": "parking",
        "parking": "surface"
      }
    },
    {
      "type": "node",
      "id": 7293719387,
      "lat": 12.9627422,
      "lon": 77.6019931,
      "tags": {
        "access": "private",
        "amenity": "parking",
        "parking": "underground"
      }
    },
    {
      "type": "node",
      "id": 7293719393,
      "lat": 12.9626272,
      "lon": 77.6016913,
      "tags": {
        "leisure": "fitness_station"
      }
    },
    {
      "type": "node",
      "id": 7293719482,
      "lat": 12.9622109,
      "lon": 77.5954049,
      "tags": {
        "addr:floor": "G",
        "check_date": "2024-08-10",
        "level": "0",
        "name": "Ashoka Tyres And Service",
        "name:hi": "Ashoka Tyres And Service",
        "shop": "tyres",
        "wheelchair": "no"
      }
    },
    {
      "type": "node",
      "id": 7576958090,
      "lat": 12.963216,
      "lon": 77.5982891,
      "tags": {
        "addr:district": "Bengaluru Urban",
        "addr:full": "Langford Gardens, Bengaluru",
        "addr:postcode": "560025",
        "addr:state": "Karnataka",
        "amenity": "clinic",
        "name": "Orthodontic Maxillofacial Clinic",
        "source": "Local Knowledge"
      }
    },
    {
      "type": "node",
      "id": 7576958094,
      "lat": 12.9638998,
      "lon": 77.5983282,
      "tags": {
        "addr:district": "Bengaluru Urban",
        "addr:full": "Langford Gardens, Bengaluru",
        "addr:postcode": "560025",
        "addr:state": "Karnataka",
        "amenity": "clinic",
        "name": "Daksh Eye Care Centre",
        "source": "Local Knowledge"
      }
    },
    {
      "type": "node",
      "id": 8292562199,
      "lat": 12.9605614,
      "lon": 77.5948658,
      "tags": {
        "addr:city": "Bengaluru",
        "addr:country": "IN",
        "addr:housenumber": "1",
        "addr:postcode": "560027",
        "addr:street": "Shanthi Road",
        "addr:suburb": "Shanthinagar",
        "amenity": "arts_centre",
        "name": "1Shanthiroad Studio/Gallery",
        "website": "http://1shanthiroad.com/"
      }
    },
    {
      "type": "node",
      "id": 9140200239,
      "lat": 12.9601375,
      "lon": 77.595942,
      "tags": {
        "addr:floor": "G",
        "air_conditioning": "no",
        "alt_name": "YDH Canteen",
        "amenity": "fast_food",
        "check_date": "2024-08-11",
        "cuisine": "regional",
        "delivery": "no",
        "diet:vegetarian": "yes",
        "drive_through": "no",
        "level": "0",
        "name": "Yelamma Dasappa Canteen",
        "takeaway": "yes"
      }
    },
    {
      "type": "node",
      "id": 9179389770,
      "lat": 12.9583652,
      "lon": 77.604285,
      "tags": {
        "amenity": "cafe",
        "cuisine": "persian",
        "level": "3",
        "name": "The Cafe @ Saanchi",
        "outdoor_seating": "yes"
      }
    },
    {
      "type": "node",
      "id": 9179389771,
      "lat": 12.9583509,
      "lon": 77.6044124,
      "tags": {
        "level": "2",
        "name": "Kanakavalli",
        "shop": "fabric"
      }
    },
    {
      "type": "node",
      "id": 9296258312,
      "lat": 12.9596526,
      "lon": 77.5938318,
      "tags": {
        "amenity": "bank",
        "atm": "yes",
        "brand": "Canara Bank",
        "brand:en": "Canara Bank",
        "brand:hi": "केनरा बैंक",
        "brand:kn": "ಕೆನರಾ ಬ್ಯಾಂಕ್",
        "brand:pa": "ਕੇਨਰਾ ਬੈਂਕ",
        "brand:pnb": "کینرا بینک",
        "brand:ur": "کینرا بینک",
        "brand:wikidata": "Q2003777",
        "brand:wikipedia": "en:Canara Bank",
        "brand:wikipedia:pa": "ਕੇਨਰਾ ਬੈਂਕ",
        "name": "Canara Bank",
        "name:en": "Canara Bank",
        "name:hi": "केनरा बैंक",
        "name:kn": "ಕೆನರಾ ಬ್ಯಾಂಕ್",
        "name:pa": "ਕੇਨਰਾ ਬੈਂਕ",
        "name:pnb": "کینرا بینک",
        "name:ur": "کینرا بینک"
      }
    },
    {
      "type": "node",
      "id": 9296258313,
      "lat": 12.959039,
      "lon": 77.5936943,
      "tags": {
        "name": "Prasiddhi Stores",
        "shop": "fabric"
      }
    },
    {
      "type": "node",
      "id": 9296258314,
      "lat": 12.9590854,
      "lon": 77.5936373,
      "tags": {
        "amenity": "bank",
        "atm": "yes",
        "brand": "Karnataka Bank",
        "brand:wikidata": "Q2042632",
        "name": "Karnataka Bank",
        "name:kn": "ಕರ್ನಾಟಕ ಬ್ಯಾಂಕ್"
      }
    },
    {
      "type": "node",
      "id": 9296258316,
      "lat": 12.958609,
      "lon": 77.5934523,
      "tags": {
        "name": "Kaff",
        "shop": "kitchen"
      }
    },
    {
      "type": "node",
      "id": 9507141939,
      "lat": 12.959883,
      "lon": 77.5978925,
      "tags": {
        "amenity": "cafe",
        "cuisine": "juice",
        "internet_access": "no",
        "name": "Sreeraj Lassi Bar",
        "outdoor_seating": "no"
      }
    },
    {
      "type": "node",
      "id": 9507141940,
      "lat": 12.9599213,
      "lon": 77.5979464,
      "tags": {
        "amenity": "fast_food",
        "cuisine": "sandwich",
        "name": "Hari Super Sandwich"
      }
    },
    {
      "type": "node",
      "id": 9507166593,
      "lat": 12.9611473,
      "lon": 77.5982936,
      "tags": {
        "amenity": "cafe",
        "cuisine": "tea_shop",
        "name": "Karak Chai",
        "outdoor_seating": "no"
      }
    },
    {
      "type": "node",
      "id": 9611232066,
      "lat": 12.9582924,
      "lon": 77.6043893,
      "tags": {
        "level": "0;1",
        "name": "Saanchi Antiques",
        "shop": "antiques"
      }
    },
    {
      "type": "node",
      "id": 10032117247,
      "lat": 12.9567642,
      "lon": 77.5926107,
      "tags": {
        "access": "yes",
        "amenity": "bicycle_rental",
        "brand": "Yulu",
        "brand:wikidata": "Q104871276",
        "capacity": "10",
        "fee": "no",
        "network": "Yulu",
        "network:wikidata": "Q104871276",
        "operator": "Yulu"
      }
    },
    {
      "type": "node",
      "id": 10032117278,
      "lat": 12.9548574,
      "lon": 77.6052768,
      "tags": {
        "access": "yes",
        "amenity": "toilets",
        "fee": "yes",
        "operator": "BBMP"
      }
    },
    {
      "type": "node",
      "id": 10032117279,
      "lat": 12.9548528,
      "lon": 77.6052969,
      "tags": {
        "access": "yes",
        "amenity": "toilets",
        "fee": "yes",
        "operator": "BBMP"
      }
    },
    {
      "type": "node",
      "id": 10032117280,
      "lat": 12.9558724,
      "lon": 77.6035687,
      "tags": {
        "amenity": "shelter",
        "shelter_type": "gazebo"
      }
    },
    {
      "type": "node",
      "id": 10570995688,
      "lat": 12.9652265,
      "lon": 77.6011778,
      "tags": {
        "addr:city": "Bengaluru",
        "addr:housenumber": "89",
        "addr:postcode": "560025",
        "addr:street": "Richmond Road",
        "name": "Benelli | Keeway Showroom",
        "opening_hours": "Mo-Su 09:30-21:00",
        "phone": "08886635067",
        "shop": "motorcycle"
      }
    },
    {
      "type": "node",
      "id": 10753340308,
      "lat": 12.9630258,
      "lon": 77.602156,
      "tags": {
        "shop": "greengrocer"
      }
    },
    {
      "type": "node",
      "id": 10753340309,
      "lat": 12.9630715,
      "lon": 77.6021218,
      "tags": {
        "name": "Nandini Milk Parlour",
        "shop": "dairy"
      }
    },
    {
      "type": "node",
      "id": 11167710685,
      "lat": 12.9582865,
      "lon": 77.6011607,
      "tags": {
        "brand": "Ration Shop",
        "brand:wikidata": "Q60901",
        "name": "Ration Shop",
        "operator": "Public Distribution System",
        "operator:type": "public",
        "operator:wikidata": "Q60901",
        "shop": "convenience"
      }
    },
    {
      "type": "node",
      "id": 11171324534,
      "lat": 12.9597011,
      "lon": 77.6015633,
      "tags": {
        "amenity": "pharmacy",
        "healthcare": "pharmacy",
        "name": "Hafiz Pharma"
      }
    },
    {
      "type": "node",
      "id": 11171324535,
      "lat": 12.9600253,
      "lon": 77.6016276,
      "tags": {
        "amenity": "pharmacy",
        "healthcare": "pharmacy",
        "name": "HKGN Medicals"
      }
    },
    {
      "type": "node",
      "id": 11171324536,
      "lat": 12.9600684,
      "lon": 77.601953,
      "tags": {
        "shop": "hairdresser"
      }
    },
    {
      "type": "node",
      "id": 11171328737,
      "lat": 12.958252,
      "lon": 77.6011466,
      "tags": {
        "shop": "stationery"
      }
    },
    {
      "type": "node",
      "id": 11171328738,
      "lat": 12.9580872,
      "lon": 77.6010965,
      "tags": {
        "shop": "bakery"
      }
    },
    {
      "type": "node",
      "id": 11171328739,
      "lat": 12.9576687,
      "lon": 77.6009775,
      "tags": {
        "name": "Nandini Diary Parlor",
        "shop": "dairy"
      }
    },
    {
      "type": "node",
      "id": 11400959258,
      "lat": 12.9575721,
      "lon": 77.6001983,
      "tags": {
        "addr:city": "Bengaluru",
        "addr:housenumber": "Pride Apartment 182",
        "addr:postcode": "560076",
        "addr:street": "Bannerghatta Main Road Phase 4 Bilekahalli",
        "becknified": "true",
        "image": "https:\\/\\/cdn.shopify.com\\/s\\/files\\/1\\/0647\\/3662\\/4854\\/files\\/logo_2_1_fc405c5b-4db5-419a-8ec3-380144685e90.svg?v=1669615619",
        "logo": "https:\\/\\/cdn.shopify.com\\/s\\/files\\/1\\/0647\\/3662\\/4854\\/files\\/logo_2_1_fc405c5b-4db5-419a-8ec3-380144685e90.svg?v=1669615619",
        "name": "Wiggles shopify store",
        "name:en": "Wiggles shopify store",
        "operator": "BOC Shopify",
        "payment:cash": "yes",
        "payment:credit_cards": "yes",
        "payment:debit_cards": "yes",
        "providerId": "bocshopify.humbhionline.in",
        "shop": "supermarket"
      }
    },
    {
      "type": "node",
      "id": 11524109257,
      "lat": 12.9576565,
      "lon": 77.6011948,
      "tags": {
        "addr:city": "Bengaluru",
        "addr:district": "Bannerghatta Main Road Phase 4 Bilekahalli",
        "addr:postcode": "560076",
        "addr:street": "P Street",
        "becknified": "true",
        "images": "https://ws1.humbhionline.in/resources/web_manifest/512x512.png?v=1.0",
        "logo": "https://ws1.humbhionline.in/resources/web_manifest/512x512.png?v=1.0",
        "name": "Vegetables Bhi Online",
        "operator": "HumBhi Online",
        "payment:cash": "yes",
        "payment:credit_cards": "yes",
        "payment:debit_cards": "yes",
        "providerId": "ws1.humbhionline.in",
        "shop": "supermarket"
      }
    },
    {
      "type": "node",
      "id": 11602938154,
      "lat": 12.9569478,
      "lon": 77.6015303,
      "tags": {
        "amenity": "school",
        "name": "BBMP High School"
      }
    },
    {
      "type": "node",
      "id": 11665637081,
      "lat": 12.9643591,
      "lon": 77.5968522,
      "tags": {
        "amenity": "bank",
        "atm": "yes",
        "brand": "Indian Bank",
        "brand:wikidata": "Q2003789",
        "name": "Indian Bank",
        "name:kn": "ಇಂಡಿಯನ್ ಬ್ಯಾಂಕ್"
      }
    },
    {
      "type": "node",
      "id": 11665637082,
      "lat": 12.9646924,
      "lon": 77.5972974,
      "tags": {
        "level": "1",
        "name": "Leather Lounge",
        "shop": "furniture"
      }
    },
    {
      "type": "node",
      "id": 11665637083,
      "lat": 12.9646453,
      "lon": 77.5972867,
      "tags": {
        "addr:city": "Bangalore",
        "addr:district": "Bengaluru Urban",
        "addr:housenumber": "105, Globe House",
        "addr:postcode": "560025",
        "addr:street": "Richmond Road",
        "amenity": "bank",
        "level": "2",
        "name": "IDBI Capital"
      }
    },
    {
      "type": "node",
      "id": 11665637084,
      "lat": 12.9646715,
      "lon": 77.5971083,
      "tags": {
        "level": "-1",
        "name": "Globe Express Travels Pvt Ltd",
        "shop": "travel_agency"
      }
    },
    {
      "type": "node",
      "id": 11665637085,
      "lat": 12.9647629,
      "lon": 77.5978057,
      "tags": {
        "check_date": "2024-08-10",
        "name": "Maison D'luxe",
        "shop": "perfumery"
      }
    },
    {
      "type": "node",
      "id": 11665637086,
      "lat": 12.9647224,
      "lon": 77.5977413,
      "tags": {
        "name": "Mehak Luxury Watches Service Center",
        "shop": "watches"
      }
    },
    {
      "type": "node",
      "id": 11665637087,
      "lat": 12.9647956,
      "lon": 77.59774,
      "tags": {
        "level": "1",
        "name": "Star Tours",
        "shop": "travel_agency"
      }
    },
    {
      "type": "node",
      "id": 11665637089,
      "lat": 12.9647773,
      "lon": 77.5986103,
      "tags": {
        "amenity": "restaurant",
        "cuisine": "indian;pizza",
        "diet:vegetarian": "yes",
        "level": "4",
        "name": "LifeTree Cafe"
      }
    },
    {
      "type": "node",
      "id": 11687235832,
      "lat": 12.9605359,
      "lon": 77.6011912,
      "tags": {
        "access": "yes",
        "amenity": "toilets",
        "check_date": "2025-08-24",
        "fee": "yes",
        "operator": "BBMP"
      }
    },
    {
      "type": "node",
      "id": 12101135616,
      "lat": 12.9611555,
      "lon": 77.5996538,
      "tags": {
        "amenity": "fast_food",
        "check_date": "2024-08-09",
        "cuisine": "indian",
        "diet:vegetarian": "yes",
        "name": "Sri Udupi Grand Veg"
      }
    },
    {
      "type": "node",
      "id": 12101659684,
      "lat": 12.9618739,
      "lon": 77.5946931,
      "tags": {
        "check_date": "2024-08-10",
        "name": "Designer Light Gallery",
        "shop": "lighting"
      }
    },
    {
      "type": "node",
      "id": 12101659685,
      "lat": 12.9615765,
      "lon": 77.5946056,
      "tags": {
        "addr:floor": "G",
        "amenity": "cafe",
        "check_date": "2024-08-10",
        "level": "0",
        "name": "The Bangalore Cafe"
      }
    },
    {
      "type": "node",
      "id": 12101659686,
      "lat": 12.9614801,
      "lon": 77.5945241,
      "tags": {
        "addr:floor": "G",
        "check_date": "2024-08-10",
        "level": "0",
        "name": "Crava",
        "shop": "flooring"
      }
    },
    {
      "type": "node",
      "id": 12101659687,
      "lat": 12.9613636,
      "lon": 77.5944811,
      "tags": {
        "amenity": "bank",
        "atm": "yes",
        "brand": "Indian Overseas Bank",
        "brand:wikidata": "Q2003611",
        "check_date": "2024-08-10",
        "name": "Indian Overseas Bank",
        "wheelchair": "limited"
      }
    },
    {
      "type": "node",
      "id": 12101704807,
      "lat": 12.9634592,
      "lon": 77.6016559,
      "tags": {
        "amenity": "bench",
        "backrest": "yes",
        "material": "granite",
        "seats": "4"
      }
    },
    {
      "type": "node",
      "id": 12101709437,
      "lat": 12.9653896,
      "lon": 77.6023226,
      "tags": {
        "amenity": "bank",
        "brand": "ICICI Bank",
        "brand:wikidata": "Q1653258",
        "check_date": "2024-08-10",
        "name": "ICICI Bank",
        "short_name": "ICICI"
      }
    },
    {
      "type": "node",
      "id": 12101714004,
      "lat": 12.963641,
      "lon": 77.6012528,
      "tags": {
        "amenity": "drinking_water"
      }
    },
    {
      "type": "node",
      "id": 12101731495,
      "lat": 12.9640052,
      "lon": 77.5966865,
      "tags": {
        "addr:floor": "G",
        "check_date": "2024-08-10",
        "level": "0",
        "name": "Boss's Cabin",
        "shop": "furniture"
      }
    },
    {
      "type": "node",
      "id": 12101731496,
      "lat": 12.9638344,
      "lon": 77.5966323,
      "tags": {
        "addr:floor": "G",
        "check_date": "2024-08-10",
        "level": "0",
        "name": "Cerraglobe",
        "shop": "houseware"
      }
    },
    {
      "type": "node",
      "id": 12101733055,
      "lat": 12.9622172,
      "lon": 77.5955424,
      "tags": {
        "amenity": "music_school",
        "check_date": "2024-08-10",
        "name": "The Music School Bangalore"
      }
    },
    {
      "type": "node",
      "id": 12101746574,
      "lat": 12.9618291,
      "lon": 77.5976174,
      "tags": {
        "amenity": "place_of_worship",
        "check_date": "2024-08-10",
        "religion": "hindu"
      }
    },
    {
      "type": "node",
      "id": 12101783870,
      "lat": 12.9595341,
      "lon": 77.5946237,
      "tags": {
        "amenity": "post_box",
        "operator": "India Post"
      }
    },
    {
      "type": "node",
      "id": 12102882512,
      "lat": 12.9609212,
      "lon": 77.6001914,
      "tags": {
        "brand": "Simpli Namdhari's",
        "brand:wikidata": "Q124374340",
        "diet:vegetarian": "yes",
        "name": "Simpli Namdhari's",
        "shop": "supermarket"
      }
    },
    {
      "type": "node",
      "id": 12102932389,
      "lat": 12.9607836,
      "lon": 77.6003789,
      "tags": {
        "amenity": "fast_food",
        "brand": "Subway",
        "brand:wikidata": "Q244457",
        "cuisine": "sandwich",
        "name": "Subway",
        "takeaway": "yes"
      }
    },
    {
      "type": "node",
      "id": 12102932392,
      "lat": 12.9607413,
      "lon": 77.6004627,
      "tags": {
        "amenity": "fast_food",
        "brand": "Domino's",
        "brand:wikidata": "Q839466",
        "cuisine": "pizza",
        "name": "Domino's",
        "name:kn": "ಡಾಮಿನೋಸ್",
        "takeaway": "yes"
      }
    },
    {
      "type": "node",
      "id": 12102932393,
      "lat": 12.960727,
      "lon": 77.6004939,
      "tags": {
        "name": "Dreamers",
        "shop": "hairdresser"
      }
    },
    {
      "type": "node",
      "id": 12103003494,
      "lat": 12.9606846,
      "lon": 77.6017488,
      "tags": {
        "name": "Niells Designs",
        "shop": "lighting"
      }
    },
    {
      "type": "node",
      "id": 12103003495,
      "lat": 12.960503,
      "lon": 77.6017334,
      "tags": {
        "amenity": "events_venue",
        "name": "Jashn Banquet Hall"
      }
    },
    {
      "type": "node",
      "id": 12103003496,
      "lat": 12.9605563,
      "lon": 77.6017426,
      "tags": {
        "leisure": "sports_hall",
        "name": "Burn"
      }
    },
    {
      "type": "node",
      "id": 12103114965,
      "lat": 12.9634458,
      "lon": 77.6018166,
      "tags": {
        "amenity": "bench",
        "backrest": "yes",
        "material": "granite",
        "seats": "4"
      }
    },
    {
      "type": "node",
      "id": 12103114966,
      "lat": 12.9635963,
      "lon": 77.6018205,
      "tags": {
        "amenity": "bench",
        "backrest": "yes",
        "material": "granite",
        "seats": "4"
      }
    },
    {
      "type": "node",
      "id": 12103114967,
      "lat": 12.963598,
      "lon": 77.6016544,
      "tags": {
        "amenity": "bench",
        "backrest": "yes",
        "material": "granite",
        "seats": "4"
      }
    },
    {
      "type": "node",
      "id": 12103707817,
      "lat": 12.9568092,
      "lon": 77.5926544,
      "tags": {
        "amenity": "post_box",
        "operator": "India Post",
        "operator:wikidata": "Q3519720"
      }
    },
    {
      "type": "node",
      "id": 12109772459,
      "lat": 12.9617175,
      "lon": 77.5960641,
      "tags": {
        "amenity": "food_court",
        "name": "St. Joseph's University Food Court"
      }
    },
    {
      "type": "node",
      "id": 12109773379,
      "lat": 12.9594748,
      "lon": 77.5947203,
      "tags": {
        "amenity": "school",
        "name": "EuroKids Shantinagar"
      }
    },
    {
      "type": "node",
      "id": 12326784734,
      "lat": 12.9584889,
      "lon": 77.6011744,
      "tags": {
        "amenity": "bicycle_repair_station",
        "operator": "Skyline Rider Enterprise"
      }
    },
    {
      "type": "node",
      "id": 12326784735,
      "lat": 12.9586023,
      "lon": 77.601142,
      "tags": {
        "name": "Karnataka Mutton Stall",
        "shop": "butcher"
      }
    },
    {
      "type": "node",
      "id": 12326784736,
      "lat": 12.9586303,
      "lon": 77.6011561,
      "tags": {
        "name": "Reception Beauty Saloon",
        "shop": "beauty"
      }
    },
    {
      "type": "node",
      "id": 12326784738,
      "lat": 12.9597759,
      "lon": 77.6016028,
      "tags": {
        "name": "India Saloon",
        "shop": "hairdresser"
      }
    },
    {
      "type": "node",
      "id": 12327093397,
      "lat": 12.9600628,
      "lon": 77.6018387,
      "tags": {
        "amenity": "dentist",
        "healthcare": "dentist",
        "name": "Dental Centre"
      }
    },
    {
      "type": "node",
      "id": 12462400262,
      "lat": 12.9631778,
      "lon": 77.5999497,
      "tags": {
        "amenity": "bank",
        "brand": "Canara Bank",
        "brand:en": "Canara Bank",
        "brand:hi": "केनरा बैंक",
        "brand:kn": "ಕೆನರಾ ಬ್ಯಾಂಕ್",
        "brand:pa": "ਕੇਨਰਾ ਬੈਂਕ",
        "brand:pnb": "کینرا بینک",
        "brand:ur": "کینرا بینک",
        "brand:wikidata": "Q2003777",
        "name": "Canara Bank",
        "name:en": "Canara Bank",
        "name:hi": "केनरा बैंक",
        "name:kn": "ಕೆನರಾ ಬ್ಯಾಂಕ್",
        "name:pa": "ਕੇਨਰਾ ਬੈਂਕ",
        "name:pnb": "کینرا بینک",
        "name:ur": "کینرا بینک",
        "operator": "Canara Bank"
      }
    },
    {
      "type": "node",
      "id": 13023090264,
      "lat": 12.9572298,
      "lon": 77.5943978,
      "tags": {
        "amenity": "cafe",
        "check_date": "2025-07-25",
        "name": "The Green Door Coffee House"
      }
    },
    {
      "type": "way",
      "id": 23030047,
      "center": {
        "lat": 12.9642555,
        "lon": 77.6003306
      },
      "tags": {
        "amenity": "school",
        "name": "Baldwin Girls' High School"
      }
    },
    {
      "type": "way",
      "id": 28451371,
      "center": {
        "lat": 12.9609837,
        "lon": 77.6011826
      },
      "tags": {
        "leisure": "pitch",
        "sport": "tennis"
      }
    },
    {
      "type": "way",
      "id": 138991404,
      "center": {
        "lat": 12.9560946,
        "lon": 77.5929001
      },
      "tags": {
        "amenity": "place_of_worship",
        "landuse": "religious",
        "name": "Ishwara Temple",
        "name:kn": "ಈಶ್ವರ ದೇವಸ್ಥಾನ",
        "religion": "hindu"
      }
    },
    {
      "type": "way",
      "id": 148016864,
      "center": {
        "lat": 12.9635085,
        "lon": 77.5964537
      },
      "tags": {
        "leisure": "pitch",
        "sport": "basketball"
      }
    },
    {
      "type": "way",
      "id": 148016875,
      "center": {
        "lat": 12.9631739,
        "lon": 77.5962695
      },
      "tags": {
        "leisure": "pitch",
        "sport": "basketball"
      }
    },
    {
      "type": "way",
      "id": 152462761,
      "center": {
        "lat": 12.9568141,
        "lon": 77.5932416
      },
      "tags": {
        "leisure": "garden"
      }
    },
    {
      "type": "way",
      "id": 326032584,
      "center": {
        "lat": 12.9635291,
        "lon": 77.6017119
      },
      "tags": {
        "leisure": "park",
        "name": "Richmond Town Park"
      }
    },
    {
      "type": "way",
      "id": 326032586,
      "center": {
        "lat": 12.9615346,
        "lon": 77.6005247
      },
      "tags": {
        "check_date": "2024-08-09",
        "leisure": "stadium",
        "name": "Hockey Stadium",
        "name:kn": "ಹಾಕಿ ಕ್ರೀಡಾಂಗಣ",
        "official_name": "Field Marshal Carriappa Hockey Arena",
        "official_name:etymology:wikidata": "Q3630913",
        "sport": "field_hockey",
        "wheelchair": "limited"
      }
    },
    {
      "type": "way",
      "id": 326199006,
      "center": {
        "lat": 12.9559827,
        "lon": 77.6020973
      },
      "tags": {
        "leisure": "park"
      }
    },
    {
      "type": "way",
      "id": 326199007,
      "center": {
        "lat": 12.956985,
        "lon": 77.6011901
      },
      "tags": {
        "leisure": "park"
      }
    },
    {
      "type": "way",
      "id": 329802987,
      "center": {
        "lat": 12.9620064,
        "lon": 77.6012302
      },
      "tags": {
        "leisure": "swimming_pool"
      }
    },
    {
      "type": "way",
      "id": 329803374,
      "center": {
        "lat": 12.9617543,
        "lon": 77.6006326
      },
      "tags": {
        "leisure": "pitch",
        "sport": "field_hockey"
      }
    },
    {
      "type": "way",
      "id": 346154410,
      "center": {
        "lat": 12.9639882,
        "lon": 77.6006372
      },
      "tags": {
        "access": "permissive",
        "leisure": "swimming_pool"
      }
    },
    {
      "type": "way",
      "id": 393699932,
      "center": {
        "lat": 12.9533742,
        "lon": 77.5975797
      },
      "tags": {
        "amenity": "college",
        "name": "Indira Gandhi National Open University",
        "name:etymology:wikidata": "Q1149"
      }
    },
    {
      "type": "way",
      "id": 442014336,
      "center": {
        "lat": 12.9533316,
        "lon": 77.6011904
      },
      "tags": {
        "leisure": "park"
      }
    },
    {
      "type": "way",
      "id": 442014338,
      "center": {
        "lat": 12.9566712,
        "lon": 77.6006813
      },
      "tags": {
        "amenity": "place_of_worship",
        "building": "mosque",
        "name": "Masjid-e-Khizar",
        "religion": "muslim"
      }
    },
    {
      "type": "way",
      "id": 532166910,
      "center": {
        "lat": 12.963687,
        "lon": 77.6002106
      },
      "tags": {
        "leisure": "pitch"
      }
    },
    {
      "type": "way",
      "id": 532166930,
      "center": {
        "lat": 12.9611751,
        "lon": 77.6002092
      },
      "tags": {
        "access": "permissive",
        "amenity": "parking",
        "fee": "yes",
        "parking": "surface"
      }
    },
    {
      "type": "way",
      "id": 781182572,
      "center": {
        "lat": 12.9591357,
        "lon": 77.6010894
      },
      "tags": {
        "amenity": "school",
        "isced:level": "2",
        "landuse": "education",
        "name": "GTHPS Puduparacheri",
        "name:kn": "ಸರ್ಕಾರಿ ತೆಲುಗು ಹಿರಿಯ ಪ್ರಾಥಮಿಕ ಶಾಲೆ ಪುದುಪರಾಚೇರಿ",
        "operator": "Department of Education",
        "school": "primary"
      }
    },
    {
      "type": "way",
      "id": 781182573,
      "center": {
        "lat": 12.9595349,
        "lon": 77.6011922
      },
      "tags": {
        "amenity": "school",
        "isced:level": "2",
        "landuse": "education",
        "name": "GMPS AkkithimmanaHalli",
        "name:kn": "ಸರ್ಕಾರಿ ಮಾದರಿ ಪ್ರಾಥಮಿಕ ಶಾಲೆ ಅಕ್ಕಿತಿಮ್ಮನಹಳ್ಳಿ",
        "operator": "Department of Education",
        "school": "primary"
      }
    },
    {
      "type": "way",
      "id": 781182575,
      "center": {
        "lat": 12.9563799,
        "lon": 77.6027769
      },
      "tags": {
        "leisure": "park"
      }
    },
    {
      "type": "way",
      "id": 781182587,
      "center": {
        "lat": 12.9627181,
        "lon": 77.6016773
      },
      "tags": {
        "leisure": "garden"
      }
    },
    {
      "type": "way",
      "id": 781182588,
      "center": {
        "lat": 12.9627778,
        "lon": 77.6016695
      },
      "tags": {
        "access": "private",
        "leisure": "swimming_pool"
      }
    },
    {
      "type": "way",
      "id": 781182595,
      "center": {
        "lat": 12.9618084,
        "lon": 77.5987266
      },
      "tags": {
        "area:highway": "traffic_island",
        "leisure": "garden"
      }
    },
    {
      "type": "way",
      "id": 1049075231,
      "center": {
        "lat": 12.9573344,
        "lon": 77.6045898
      },
      "tags": {
        "addr:housenumber": "2",
        "addr:street": "Berlie Street",
        "amenity": "arts_centre",
        "contact:instagram": "kaashfoundation",
        "name": "Kaash",
        "operator": "Kaash Foundation"
      }
    },
    {
      "type": "way",
      "id": 1095458699,
      "center": {
        "lat": 12.9592448,
        "lon": 77.601562
      },
      "tags": {
        "amenity": "place_of_worship",
        "denomination": "sunni",
        "landuse": "religious",
        "religion": "muslim"
      }
    },
    {
      "type": "way",
      "id": 1100674381,
      "center": {
        "lat": 12.955594,
        "lon": 77.5980861
      },
      "tags": {
        "amenity": "school",
        "name": "St. Michael's School",
        "name:kn": "ಸೈಂಟ್ ಮೈಕಲ್ ಶಾಲೆ"
      }
    },
    {
      "type": "way",
      "id": 1100674383,
      "center": {
        "lat": 12.9559596,
        "lon": 77.5970977
      },
      "tags": {
        "amenity": "place_of_worship",
        "denomination": "catholic",
        "name": "St. Michael's Church",
        "name:kn": "ಸೇಂಟ್ ಮೈಕೇಲ್ಸ್ ಚರ್ಚ್",
        "religion": "christian"
      }
    },
    {
      "type": "way",
      "id": 1124838108,
      "center": {
        "lat": 12.9646791,
        "lon": 77.601165
      },
      "tags": {
        "amenity": "school",
        "name": "Baldwin Opportunity School"
      }
    },
    {
      "type": "way",
      "id": 1149213001,
      "center": {
        "lat": 12.9569001,
        "lon": 77.6047605
      },
      "tags": {
        "addr:district": "Bengaluru Urban",
        "addr:full": "15, Eagle Street Langford Town Shanti Nagar",
        "addr:postcode": "560025",
        "addr:state": "Karnataka",
        "amenity": "hospital",
        "emergency": "no",
        "name": "Dr Agarwal's Eye Hospital",
        "source": "OpenGovernmentData"
      }
    },
    {
      "type": "way",
      "id": 1177319348,
      "center": {
        "lat": 12.9540105,
        "lon": 77.6003994
      },
      "tags": {
        "addr:place": "Shanthinagar",
        "amenity": "school",
        "isced:level": "2",
        "name": "GHPS Ksrtc Shanthinagar",
        "name:kn": "ಸರ್ಕಾರಿ ಹಿರಿಯ ಪ್ರಾಥಮಿಕ ಶಾಲೆ ಕೆ.ಎಸ್‌.ಆರ್‌.ಟಿ.ಸಿ ಶಾಂತಿನಗರ",
        "operator": "Department of Education",
        "school": "primary"
      }
    },
    {
      "type": "way",
      "id": 1241682281,
      "center": {
        "lat": 12.9649692,
        "lon": 77.6004187
      },
      "tags": {
        "amenity": "college",
        "name": "Baldwin Women's Methodist College"
      }
    },
    {
      "type": "way",
      "id": 1305868782,
      "center": {
        "lat": 12.962,
        "lon": 77.5982143
      },
      "tags": {
        "building": "yes",
        "leisure": "sports_centre",
        "name": "Fusion the Turf Sports",
        "sport": "futsal"
      }
    },
    {
      "type": "way",
      "id": 1306881208,
      "center": {
        "lat": 12.9634553,
        "lon": 77.6009891
      },
      "tags": {
        "access": "yes",
        "amenity": "toilets",
        "building": "yes",
        "changing_table": "no",
        "female": "yes",
        "male": "yes",
        "wheelchair": "no"
      }
    },
    {
      "type": "way",
      "id": 1306881214,
      "center": {
        "lat": 12.9623198,
        "lon": 77.6011386
      },
      "tags": {
        "leisure": "pitch",
        "sport": "tennis"
      }
    },
    {
      "type": "way",
      "id": 1306888705,
      "center": {
        "lat": 12.9608584,
        "lon": 77.600729
      },
      "tags": {
        "amenity": "place_of_worship",
        "building": "yes",
        "name": "Shree Kere Katte Ganapati Shaneshwara Swamy Prathyanigira Devi Temple",
        "religion": "hindu"
      }
    },
    {
      "type": "way",
      "id": 1306894664,
      "center": {
        "lat": 12.9575231,
        "lon": 77.5933605
      },
      "tags": {
        "amenity": "parking",
        "parking": "surface"
      }
    },
    {
      "type": "way",
      "id": 1306908284,
      "center": {
        "lat": 12.9633291,
        "lon": 77.6019686
      },
      "tags": {
        "leisure": "playground"
      }
    },
    {
      "type": "way",
      "id": 1306976437,
      "center": {
        "lat": 12.9523925,
        "lon": 77.5980116
      },
      "tags": {
        "leisure": "sports_centre",
        "name": "KSRTC Sports Complex"
      }
    },
    {
      "type": "way",
      "id": 1379017132,
      "center": {
        "lat": 12.9629876,
        "lon": 77.5989292
      },
      "tags": {
        "amenity": "monastery",
        "community:gender": "female",
        "denomination": "catholic",
        "landuse": "religious",
        "name": "Good Shepherd Provincialate",
        "religion": "christian"
      }
    }
  ]
}