{
  "area_name": "Sharada Colony",
  "osm_id": 11218370404,
  "osm_type": "node",
  "place_type": "neighbourhood",
  "amenity_count": 222,
  "amenities": [
    {
      "type": "node",
      "id": 519549716,
      "lat": 12.9967798,
      "lon": 77.5404068,
      "tags": {
        "addr:street": "WOC Road",
        "amenity": "fuel",
        "brand": "Indian Oil",
        "brand:wikidata": "Q1289348",
        "brand:wikipedia": "en:Indian Oil Corporation",
        "name": "Indian Oil",
        "operator": "Indian Oil",
        "wheelchair": "yes"
      }
    },
    {
      "type": "node",
      "id": 519549718,
      "lat": 12.9966627,
      "lon": 77.5400464,
      "tags": {
        "addr:street": "WOC Road",
        "amenity": "fuel",
        "brand": "Bharat Petroleum",
        "brand:wikidata": "Q854826",
        "name": "Bharat Petroleum",
        "operator": "Bharat Petroleum",
        "wheelchair": "yes"
      }
    },
    {
      "type": "node",
      "id": 519549739,
      "lat": 12.9929911,
      "lon": 77.5390937,
      "tags": {
        "addr:city": "Basaveshwara Nagar, Bangalore",
        "addr:street": "WOC Road",
        "amenity": "atm",
        "brand": "ICICI Bank",
        "brand:wikidata": "Q1653258",
        "name": "ICICI Bank",
        "name:kn": "ಐಸಿಐಸಿಐ ಬ್ಯಾಂಕು",
        "operator": "ICICI Bank",
        "operator:wikidata": "Q1653258",
        "short_name": "ICICI"
      }
    },
    {
      "type": "node",
      "id": 519549757,
      "lat": 12.9965228,
      "lon": 77.5423272,
      "tags": {
        "addr:city": "Basaveshwara Nagar, Bangalore",
        "amenity": "school",
        "name": "St Charles High School"
      }
    },
    {
      "type": "node",
      "id": 519549759,
      "lat": 12.9918012,
      "lon": 77.5379737,
      "tags": {
        "addr:city": "Basaveshwara Nagar, Bangalore",
        "amenity": "atm",
        "brand": "State Bank of India",
        "brand:wikidata": "Q1340361",
        "name": "State Bank of India",
        "name:kn": "ಭಾರತೀಯ ಸ್ಟೇಟ್ ಬ್ಯಾಂಕ್",
        "operator": "State Bank of India",
        "operator:wikidata": "Q1340361",
        "short_name": "SBI"
      }
    },
    {
      "type": "node",
      "id": 519549868,
      "lat": 12.9938216,
      "lon": 77.5387868,
      "tags": {
        "addr:city": "Basaveshwara Nagar, Bangalore",
        "addr:postcode": "560079",
        "amenity": "place_of_worship",
        "name": "Shiva Temple",
        "name:kn": "ಶಿವ ದೇವಸ್ಥಾನ",
        "religion": "hindu",
        "wheelchair": "no"
      }
    },
    {
      "type": "node",
      "id": 519549869,
      "lat": 12.9951833,
      "lon": 77.5396211,
      "tags": {
        "addr:city": "Basaveshwara Nagar, Bangalore",
        "addr:street": "WOC Road",
        "amenity": "restaurant",
        "name": "Guru Sagar Hotel",
        "name:kn": "ಗುರು ಸಾಗರ"
      }
    },
    {
      "type": "node",
      "id": 519550433,
      "lat": 12.9974545,
      "lon": 77.5403023,
      "tags": {
        "addr:city": "Basaveshwara Nagar, Bangalore",
        "name": "Fresh@Heritage",
        "shop": "convenience"
      }
    },
    {
      "type": "node",
      "id": 529780984,
      "lat": 12.9885908,
      "lon": 77.5442935,
      "tags": {
        "amenity": "school",
        "name": "Carmel High School",
        "name:kn": "ಕಾರ್ಮೆಲ್ ಪ್ರೌಡಶಾಲೆ",
        "wheelchair": "limited"
      }
    },
    {
      "type": "node",
      "id": 529897859,
      "lat": 12.9854915,
      "lon": 77.5425698,
      "tags": {
        "amenity": "police",
        "name": "Basaveshwaranagar Police Station",
        "name:kn": "ಬಸವೇಶ್ವರ ನಗರ ಆರಕ್ಷಕ ಠಾಣೆ",
        "wheelchair": "yes"
      }
    },
    {
      "type": "node",
      "id": 530343291,
      "lat": 12.993098,
      "lon": 77.5421028,
      "tags": {
        "addr:city": "Basaveshwara Nagar, Bangalore",
        "amenity": "place_of_worship",
        "name": "Temple",
        "name:kn": "ದೇವಸ್ಥಾನ",
        "religion": "hindu"
      }
    },
    {
      "type": "node",
      "id": 994628616,
      "lat": 12.9931738,
      "lon": 77.5391448,
      "tags": {
        "addr:city": "Basaveshwara Nagar, Bangalore",
        "addr:street": "WOC Road",
        "name": "Bhutan Board Furniture",
        "shop": "furniture"
      }
    },
    {
      "type": "node",
      "id": 997416979,
      "lat": 12.9939121,
      "lon": 77.5394136,
      "tags": {
        "addr:street": "WOC Road",
        "amenity": "toilets",
        "fee": "yes",
        "name": "Public Toilet",
        "name:kn": "ಸಾರ್ವಜನಿಕ ಶೌಚಾಲಯ",
        "wheelchair": "no"
      }
    },
    {
      "type": "node",
      "id": 997417046,
      "lat": 12.9972009,
      "lon": 77.540616,
      "tags": {
        "addr:city": "Basaveshwara Nagar, Bangalore",
        "amenity": "restaurant",
        "brand": "Pizza Hut",
        "brand:wikidata": "Q191615",
        "cuisine": "pizza",
        "name": "Pizza Hut",
        "name:kn": "ಪಿಜ್ಜಾ ಹಟ್",
        "operator": "Pizza Hut",
        "wheelchair": "no"
      }
    },
    {
      "type": "node",
      "id": 1024942731,
      "lat": 12.9899522,
      "lon": 77.5378467,
      "tags": {
        "amenity": "bank",
        "atm": "yes",
        "brand": "Bank of India",
        "brand:wikidata": "Q2004439",
        "brand:wikipedia": "en:Bank of India",
        "name": "Bank of India",
        "name:en": "Bank of India",
        "short_name": "BoI",
        "website": "http://www.bankofindia.co.in"
      }
    },
    {
      "type": "node",
      "id": 1024942747,
      "lat": 12.9958306,
      "lon": 77.5401339,
      "tags": {
        "addr:street": "WOC Road",
        "amenity": "bank",
        "atm": "yes",
        "brand": "Axis Bank",
        "brand:wikidata": "Q2003549",
        "brand:wikipedia": "en:Axis Bank",
        "name": "Axis Bank",
        "name:en": "Axis Bank",
        "name:kn": "ಆಕ್ಸಿಸ್ ಬ್ಯಾಂಕ್",
        "website": "https://www.axisbank.com",
        "wheelchair": "no"
      }
    },
    {
      "type": "node",
      "id": 1440193832,
      "lat": 12.9865791,
      "lon": 77.5403594,
      "tags": {
        "amenity": "fuel",
        "brand": "Total",
        "brand:wikidata": "Q154037",
        "fuel:lpg": "yes",
        "name": "Total gas",
        "operator": "Total"
      }
    },
    {
      "type": "node",
      "id": 1440194638,
      "lat": 12.98568,
      "lon": 77.5421189,
      "tags": {
        "addr:housename": "Canara bank",
        "addr:postcode": "560079",
        "addr:street": "Basaveshwaranagar",
        "amenity": "bank",
        "atm": "yes",
        "brand": "Canara Bank",
        "brand:en": "Canara Bank",
        "brand:hi": "केनरा बैंक",
        "brand:kn": "ಕೆನರಾ ಬ್ಯಾಂಕ್",
        "brand:pa": "ਕੇਨਰਾ ਬੈਂਕ",
        "brand:pnb": "کینرا بینک",
        "brand:ur": "کینرا بینک",
        "brand:wikidata": "Q2003777",
        "brand:wikipedia": "en:Canara Bank",
        "brand:wikipedia:pa": "ਕੇਨਰਾ ਬੈਂਕ",
        "name": "Canara Bank",
        "name:en": "Canara Bank",
        "name:hi": "केनरा बैंक",
        "name:kn": "ಕೆನರಾ ಬ್ಯಾಂಕ್",
        "name:pa": "ਕੇਨਰਾ ਬੈਂਕ",
        "name:pnb": "کینرا بینک",
        "name:ur": "کینرا بینک",
        "website": "https://www.canarabank.com/"
      }
    },
    {
      "type": "node",
      "id": 1440197001,
      "lat": 12.9860568,
      "lon": 77.5418754,
      "tags": {
        "addr:housename": "Karnataka State Co-op Apex Bank",
        "addr:housenumber": "No 1",
        "addr:postcode": "560079",
        "addr:street": "15th Main, 3rd Stage, Basaveshwaranagar",
        "amenity": "bank",
        "atm": "no",
        "name": "Karnataka State Co-op Apex Bank"
      }
    },
    {
      "type": "node",
      "id": 1440198432,
      "lat": 12.9862868,
      "lon": 77.539676,
      "tags": {
        "amenity": "place_of_worship",
        "name": "Muneshwara Temple",
        "name:kn": "ಮುನೇಶ್ವರ ದೇವಸ್ಥಾನ",
        "religion": "hindu"
      }
    },
    {
      "type": "node",
      "id": 1467501580,
      "lat": 12.9973265,
      "lon": 77.5403657,
      "tags": {
        "amenity": "cafe",
        "brand": "Cafe Coffee Day",
        "brand:wikidata": "Q5017235",
        "cuisine": "coffee_shop",
        "name": "Cafe Coffee Day",
        "name:kn": "ಕಫೆ ಕಾಫಿ ಡೇ",
        "operator": "Cafe Coffee Day",
        "takeaway": "yes"
      }
    },
    {
      "type": "node",
      "id": 1467501674,
      "lat": 12.9856724,
      "lon": 77.5420617,
      "tags": {
        "amenity": "atm",
        "brand": "Canara Bank",
        "brand:en": "Canara Bank",
        "brand:hi": "केनरा बैंक",
        "brand:kn": "ಕೆನರಾ ಬ್ಯಾಂಕ್",
        "brand:pa": "ਕੇਨਰਾ ਬੈਂਕ",
        "brand:pnb": "کینرا بینک",
        "brand:ur": "کینرا بینک",
        "brand:wikidata": "Q2003777",
        "name": "Canara Bank",
        "name:en": "Canara Bank",
        "name:hi": "केनरा बैंक",
        "name:kn": "ಕೆನರಾ ಬ್ಯಾಂಕ್",
        "name:pa": "ਕੇਨਰਾ ਬੈਂਕ",
        "name:pnb": "کینرا بینک",
        "name:ur": "کینرا بینک",
        "operator": "Canara Bank",
        "operator:wikidata": "Q2003777"
      }
    },
    {
      "type": "node",
      "id": 1467501725,
      "lat": 12.988545,
      "lon": 77.5377868,
      "tags": {
        "amenity": "restaurant",
        "name": "New Shanti Sagar",
        "name:kn": "ನ್ಯೂ ಶಾರದ"
      }
    },
    {
      "type": "node",
      "id": 1467501727,
      "lat": 12.9972063,
      "lon": 77.5402705,
      "tags": {
        "amenity": "atm",
        "brand": "HDFC Bank",
        "brand:wikidata": "Q631047",
        "name": "HDFC Bank",
        "operator": "HDFC Bank",
        "operator:wikidata": "Q631047",
        "short_name": "HDFC"
      }
    },
    {
      "type": "node",
      "id": 1809624008,
      "lat": 12.9886227,
      "lon": 77.5378109,
      "tags": {
        "amenity": "restaurant",
        "name": "Nisarga Andhra Style",
        "name:kn": "ನಿಸರ್ಗ ಅಂಧ್ರ ಸ್ಟೈಲ್"
      }
    },
    {
      "type": "node",
      "id": 2027517361,
      "lat": 12.991257,
      "lon": 77.5384096,
      "tags": {
        "addr:city": "Bangalore",
        "addr:housename": "Basaveshwara Nagar",
        "addr:postcode": "560079",
        "addr:street": "Siddhaiah Puranik Road",
        "amenity": "atm",
        "name": "Karnataka Bank Money Plant",
        "operator": "Karnatakaa Bank"
      }
    },
    {
      "type": "node",
      "id": 2245111330,
      "lat": 12.9888754,
      "lon": 77.5378467,
      "tags": {
        "brand": "Bata",
        "brand:wikidata": "Q688082",
        "name": "Bata",
        "name:kn": "ಬಾಟಾ",
        "shop": "shoes"
      }
    },
    {
      "type": "node",
      "id": 2245131003,
      "lat": 12.9915322,
      "lon": 77.5382491,
      "tags": {
        "name": "Airtel Relationship Centre",
        "name:kn": "ಏರ್ಟೆಲ್",
        "shop": "customer_service"
      }
    },
    {
      "type": "node",
      "id": 2245145511,
      "lat": 12.9914936,
      "lon": 77.538699,
      "tags": {
        "addr:city": "Bangalore",
        "addr:housenumber": "491/A",
        "addr:street": "8th Main Road",
        "amenity": "ice_cream",
        "brand": "Polar Bear",
        "name": "Polar Bear",
        "opening_hours": "Mo-Su 11:00-23:00",
        "phone": "+91 80 2322 5704",
        "website": "https://polarbear.co.in/"
      }
    },
    {
      "type": "node",
      "id": 2247443467,
      "lat": 12.991114,
      "lon": 77.5407958,
      "tags": {
        "amenity": "restaurant",
        "cuisine": "indian",
        "name": "Davanagere Benne Dose",
        "name:kn": "ದಾವಣಗೆರೆ ಬೆಣ್ಣೆ ದೋಸೆ",
        "wheelchair": "no"
      }
    },
    {
      "type": "node",
      "id": 2249037241,
      "lat": 12.9944698,
      "lon": 77.5330067,
      "tags": {
        "landuse": "recreation_ground",
        "leisure": "sports_centre",
        "name": "Karnataka Engineers Association"
      }
    },
    {
      "type": "node",
      "id": 2249037328,
      "lat": 12.9948879,
      "lon": 77.5331783,
      "tags": {
        "amenity": "place_of_worship",
        "name": "Ganapathi Temple",
        "name:kn": "ಗಣಪತಿ ದೇವಸ್ಥಾನ",
        "religion": "hindu"
      }
    },
    {
      "type": "node",
      "id": 2249045755,
      "lat": 12.9851341,
      "lon": 77.5433278,
      "tags": {
        "amenity": "fuel",
        "brand": "BP",
        "brand:wikidata": "Q152057",
        "name": "BP petrol pump",
        "wheelchair": "yes"
      }
    },
    {
      "type": "node",
      "id": 2249069522,
      "lat": 12.9856882,
      "lon": 77.5435424,
      "tags": {
        "addr:district": "Bengaluru Urban",
        "addr:full": "#6, Thimmaiah Layout, 1st Main 3rd D Cross, 3rd Stage, 2nd Block",
        "addr:postcode": "560079",
        "addr:state": "Karnataka",
        "addr:subdistrict": "Basaveshwaranagar",
        "amenity": "hospital",
        "name": "Shanbhag Hospital",
        "operator:type": "private",
        "source": "OpenGovernmentData",
        "website": "http://snsvo7.seekandsource.com/shanbhag/",
        "wheelchair": "yes"
      }
    },
    {
      "type": "node",
      "id": 2268405950,
      "lat": 12.9951284,
      "lon": 77.5386071,
      "tags": {
        "amenity": "place_of_worship",
        "name": "Ganapati Temple",
        "name:kn": "ಗಣಪತಿ ದೇವಸ್ಥಾನ",
        "religion": "hindu"
      }
    },
    {
      "type": "node",
      "id": 2268407035,
      "lat": 12.9946566,
      "lon": 77.5397544,
      "tags": {
        "addr:district": "Bengaluru Urban",
        "addr:full": "No. 463, 1st Block, 3Road Stage, Dr.Siddaiah Puranika Road, Basaveshwaranagear",
        "addr:postcode": "560079",
        "addr:state": "Karnataka",
        "amenity": "hospital",
        "healthcare": "hospital",
        "name": "Trupti Nursing Home",
        "source": "OpenGovernmentData"
      }
    },
    {
      "type": "node",
      "id": 2312659536,
      "lat": 12.9937373,
      "lon": 77.5387345,
      "tags": {
        "name": "KMF - Nandini Milk Parlour",
        "shop": "dairy"
      }
    },
    {
      "type": "node",
      "id": 2400390754,
      "lat": 12.991344,
      "lon": 77.5382423,
      "tags": {
        "name": "Bombay Dyeing",
        "name:kn": "ಬೊಂಬೆ ಡೈಯಿಂಗ್",
        "shop": "clothes"
      }
    },
    {
      "type": "node",
      "id": 2480862321,
      "lat": 12.9931607,
      "lon": 77.5394749,
      "tags": {
        "addr:city": "Bangalore",
        "addr:housename": "3rd Phase, Basaveshwara Nagar",
        "addr:street": "10th Main",
        "amenity": "fast_food",
        "cuisine": "indian_chats",
        "name": "Shree Vinayaka Juice & Chat Center"
      }
    },
    {
      "type": "node",
      "id": 2497073980,
      "lat": 12.9894445,
      "lon": 77.5379861,
      "tags": {
        "addr:city": "Bangalore",
        "addr:housename": "Near Havanur Circle, Basaveshwaranagar",
        "addr:street": "1st main Basaveshwaranagar",
        "amenity": "ice_cream",
        "name": "Arun Ice Cream"
      }
    },
    {
      "type": "node",
      "id": 2497073985,
      "lat": 12.9900378,
      "lon": 77.537746,
      "tags": {
        "addr:city": "Bangalore",
        "addr:housename": "Near Havanur Circle, Basaveshwara Nagar",
        "addr:housenumber": "313, 313/A",
        "addr:street": "1st main Basaveshwaranagar",
        "amenity": "college",
        "name": "Zee Institute of Creative Arts",
        "name:en": "ZICA",
        "operator": "Zee",
        "phone": "+91 80 66490571"
      }
    },
    {
      "type": "node",
      "id": 2497073991,
      "lat": 12.989651,
      "lon": 77.5377152,
      "tags": {
        "addr:city": "Bangalore",
        "addr:housename": "Opp Bank of India, Basaveshwara Nagar",
        "addr:street": "1st main Basaveshwaranagar",
        "amenity": "cafe",
        "cuisine": "coffee_shop",
        "internet_access": "no",
        "name": "Fresh and ground"
      }
    },
    {
      "type": "node",
      "id": 2503514154,
      "lat": 12.9930606,
      "lon": 77.5391103,
      "tags": {
        "addr:city": "Bangalore",
        "addr:housename": "Opp Panacea Hospital, Basaveshwara Nagar",
        "addr:postcode": "560079",
        "addr:street": "1st Cross Road",
        "amenity": "dentist",
        "healthcare": "dentist",
        "name": "Narayana Dental Hospital"
      }
    },
    {
      "type": "node",
      "id": 2503514687,
      "lat": 12.9917578,
      "lon": 77.5386852,
      "tags": {
        "addr:city": "Bangalore",
        "addr:housename": "Near 8th Main Intersection",
        "addr:postcode": "560079",
        "addr:street": "Siddhaiah Puranik Road",
        "name": "Prestige Smart Kitchen",
        "name:en": "PSK",
        "shop": "kitchen"
      }
    },
    {
      "type": "node",
      "id": 2503514688,
      "lat": 12.991912,
      "lon": 77.5386905,
      "tags": {
        "addr:city": "Bangalore",
        "addr:housename": "Near 8th Main Intersection",
        "addr:postcode": "560079",
        "addr:street": "Siddhaiah Puranik Road",
        "amenity": "clinic",
        "healthcare": "clinic",
        "name": "Positive Homeopathy"
      }
    },
    {
      "type": "node",
      "id": 2504573699,
      "lat": 12.9933829,
      "lon": 77.5389467,
      "tags": {
        "addr:city": "Bangalore",
        "addr:housename": "Basaveshwara Nagar",
        "addr:street": "Siddhaiah Puranik Road",
        "name": "The Planet Fashion",
        "shop": "clothes"
      }
    },
    {
      "type": "node",
      "id": 2504573700,
      "lat": 12.9932739,
      "lon": 77.5388099,
      "tags": {
        "addr:city": "Bangalore",
        "addr:housename": "Basaveshwara Nagar",
        "addr:street": "Siddhaiah Puranik Road",
        "name": "The Raymond Shop",
        "shop": "clothes"
      }
    },
    {
      "type": "node",
      "id": 2504573701,
      "lat": 12.9922983,
      "lon": 77.5384739,
      "tags": {
        "addr:city": "Bangalore",
        "addr:housename": "Near 8th Main, Basaveshwara Nagar",
        "addr:street": "Siddhaiah Puranik Road",
        "name": "World of Titan",
        "shop": "watches"
      }
    },
    {
      "type": "node",
      "id": 2504573702,
      "lat": 12.9917539,
      "lon": 77.5383401,
      "tags": {
        "addr:city": "Bangalore",
        "addr:housename": "Near 8th Main, Basaveshwara Nagar",
        "addr:street": "Siddhaiah Puranik Road",
        "name": "Titan Eye+",
        "shop": "eye_care"
      }
    },
    {
      "type": "node",
      "id": 2504573703,
      "lat": 12.9923206,
      "lon": 77.5384859,
      "tags": {
        "addr:city": "Bangalore",
        "addr:housename": "Above World of Titan, Basaveshwara Nagar",
        "addr:postcode": "560079",
        "addr:street": "Siddhaiah Puranik Road",
        "brand": "Gold's Gym",
        "brand:wikidata": "Q1536234",
        "leisure": "fitness_centre",
        "name": "Gold's Gym",
        "name:kn": "ಗೊಲ್ಡ್ಸ್ ಜಿಮ್"
      }
    },
    {
      "type": "node",
      "id": 2504573704,
      "lat": 12.9919077,
      "lon": 77.5384055,
      "tags": {
        "addr:city": "Bangalore",
        "addr:housename": "Near 8th Main, Basaveshwara Nagar",
        "addr:postcode": "560079",
        "addr:street": "Siddhaiah Puranik Road",
        "name": "Wrangler Jeans",
        "shop": "clothes"
      }
    },
    {
      "type": "node",
      "id": 2504573705,
      "lat": 12.9919338,
      "lon": 77.5384148,
      "tags": {
        "addr:city": "Bangalore",
        "addr:housename": "Near 8th Main, Basaveshwara Nagar",
        "addr:postcode": "560079",
        "addr:street": "Siddhaiah Puranik Road",
        "name": "Lee Jeans",
        "shop": "clothes"
      }
    },
    {
      "type": "node",
      "id": 2505742898,
      "lat": 12.991155,
      "lon": 77.5383908,
      "tags": {
        "amenity": "atm",
        "brand": "IndusInd Bank",
        "brand:wikidata": "Q2040323",
        "name": "IndusInd Bank",
        "operator": "IndusInd Bank",
        "operator:wikidata": "Q2040323"
      }
    },
    {
      "type": "node",
      "id": 2505742902,
      "lat": 12.9932236,
      "lon": 77.5391579,
      "tags": {
        "addr:city": "Bangalore",
        "addr:housename": "Basaveshwara Nagar",
        "addr:postcode": "560079",
        "addr:street": "Siddhaiah Puranik Road",
        "name": "Kalasangam",
        "shop": "clothes"
      }
    },
    {
      "type": "node",
      "id": 2505742907,
      "lat": 12.9931034,
      "lon": 77.5391257,
      "tags": {
        "addr:city": "Bangalore",
        "addr:housename": "Opp Panacea Hospital, Basaweshwara Nagar",
        "addr:postcode": "560079",
        "addr:street": "Siddhaiah Puranik Road",
        "name": "Master Kitchen",
        "shop": "kitchen"
      }
    },
    {
      "type": "node",
      "id": 2505742912,
      "lat": 12.9927023,
      "lon": 77.5386456,
      "tags": {
        "addr:city": "Bangalore",
        "addr:housename": "Near Panacea Hospital, Basaweshwara Nagar",
        "addr:postcode": "560079",
        "addr:street": "Siddhaiah Puranik Road",
        "clothes": "women;children;underwear;lingerie;babies",
        "name": "Datta Garments",
        "shop": "clothes"
      }
    },
    {
      "type": "node",
      "id": 2505742917,
      "lat": 12.9918738,
      "lon": 77.5386617,
      "tags": {
        "addr:city": "Bangalore",
        "addr:housename": "Near 8th Main Junction, Basaweshwara Nagar",
        "addr:postcode": "560079",
        "addr:street": "Siddhaiah Puranik Road",
        "name": "On Track Mobiles",
        "shop": "mobile_phone"
      }
    },
    {
      "type": "node",
      "id": 2505742918,
      "lat": 12.9920018,
      "lon": 77.5387341,
      "tags": {
        "addr:city": "Bangalore",
        "addr:housename": "opp Titan Eye+, Basaweshwara Nagar",
        "addr:postcode": "560079",
        "addr:street": "Siddhaiah Puranik Road",
        "name": "Punjab Handlooms",
        "shop": "clothes"
      }
    },
    {
      "type": "node",
      "id": 2505742936,
      "lat": 12.9893282,
      "lon": 77.5379751,
      "tags": {
        "addr:city": "Bangalore",
        "addr:housename": "Basaweshwara Nagar",
        "addr:postcode": "560079",
        "addr:street": "Siddhaiah Puranik Road",
        "amenity": "ice_cream",
        "name": "Amul Ice Cream"
      }
    },
    {
      "type": "node",
      "id": 2505742941,
      "lat": 12.9884317,
      "lon": 77.5377873,
      "tags": {
        "addr:city": "Bangalore",
        "addr:housename": "Neat Pavithra Paradise, Havanur Circle, Basaweshwara Nagar",
        "addr:postcode": "560079",
        "addr:street": "Siddhaiah Puranik Road",
        "name": "KSIC Silks",
        "shop": "clothes"
      }
    },
    {
      "type": "node",
      "id": 2505742971,
      "lat": 12.9877574,
      "lon": 77.5378544,
      "tags": {
        "addr:city": "Bangalore",
        "addr:housename": "Havanur Circle, Basaweshwara Nagar",
        "addr:postcode": "560079",
        "addr:street": "1st main Basaveshwaranagar",
        "name": "Srinivasa Wines",
        "shop": "alcohol"
      }
    },
    {
      "type": "node",
      "id": 2505742993,
      "lat": 12.9850131,
      "lon": 77.5369987,
      "tags": {
        "addr:city": "Bangalore",
        "addr:housename": "Basaweshwara Nagar",
        "addr:postcode": "560079",
        "addr:street": "Siddhaiah Puranik Road",
        "name": "Mega Mart",
        "shop": "clothes"
      }
    },
    {
      "type": "node",
      "id": 2505743003,
      "lat": 12.9849948,
      "lon": 77.5345955,
      "tags": {
        "addr:city": "Bangalore",
        "addr:housename": "Basaweshwara Nagar",
        "addr:postcode": "560079",
        "addr:street": "1st Main Road",
        "amenity": "dentist",
        "name": "Future Dentistry"
      }
    },
    {
      "type": "node",
      "id": 2587490997,
      "lat": 12.9915093,
      "lon": 77.538526,
      "tags": {
        "name": "Ice Fort Ice Creams",
        "shop": "yes"
      }
    },
    {
      "type": "node",
      "id": 3740403250,
      "lat": 12.9878989,
      "lon": 77.5366101,
      "tags": {
        "name": "Sri Ganesh Gold and Diamonds",
        "shop": "jewelry"
      }
    },
    {
      "type": "node",
      "id": 3740406895,
      "lat": 12.9886459,
      "lon": 77.5375264,
      "tags": {
        "amenity": "fast_food",
        "brand": "McDonald's",
        "brand:pa": "ਮੈਕਡੋਨਲਡ’ਜ਼",
        "brand:ur": "مکڈونلڈز",
        "brand:wikidata": "Q38076",
        "brand:wikipedia": "en:McDonald's",
        "brand:wikipedia:pa": "ਮੈਕਡੋਨਲਡ’ਜ਼",
        "brand:wikipedia:ur": "مکڈونلڈز",
        "cuisine": "burger",
        "name": "McDonald's",
        "name:kn": "ಮ್ಯಾಕ್‌ಡೊನಾಲ್ಡ್ಸ್",
        "name:pa": "ਮੈਕਡੋਨਲਡ’ਜ਼",
        "name:ur": "مکڈونلڈز",
        "takeaway": "yes"
      }
    },
    {
      "type": "node",
      "id": 4004502433,
      "lat": 12.993765,
      "lon": 77.5393225,
      "tags": {
        "amenity": "college",
        "name": "S Cadambi Pre University College"
      }
    },
    {
      "type": "node",
      "id": 4007480961,
      "lat": 12.991837,
      "lon": 77.5376289,
      "tags": {
        "air_conditioning": "yes",
        "amenity": "fast_food",
        "brand": "Domino's",
        "brand:ks": "ڈومینوز",
        "brand:pa": "ਡੋਮੀਨੋਜ਼",
        "brand:ur": "ڈومینوز",
        "brand:wikidata": "Q839466",
        "brand:wikipedia": "en:Domino's Pizza",
        "cuisine": "pizza",
        "delivery": "yes",
        "internet_access": "no",
        "name": "Domino's",
        "name:kn": "ಡಾಮಿನೋಸ್",
        "name:ks": "ڈومینوز",
        "name:pa": "ਡੋਮੀਨੋਜ਼",
        "name:ur": "ڈومینوز",
        "opening_hours": "Mo-Su 10:00-01:00",
        "outdoor_seating": "no",
        "smoking": "no",
        "takeaway": "yes",
        "wheelchair": "no"
      }
    },
    {
      "type": "node",
      "id": 4007498897,
      "lat": 12.9918631,
      "lon": 77.5375645,
      "tags": {
        "leisure": "sports_centre",
        "name": "Talwarkars",
        "sport": "fitness"
      }
    },
    {
      "type": "node",
      "id": 4035007844,
      "lat": 12.9852789,
      "lon": 77.5434809,
      "tags": {
        "amenity": "restaurant",
        "cuisine": "indian",
        "name": "Sri Krishna Sagar"
      }
    },
    {
      "type": "node",
      "id": 4036600738,
      "lat": 12.9879988,
      "lon": 77.5381661,
      "tags": {
        "cuisine": "indian",
        "name": "Tango Sandwich Centre",
        "shop": "fast_food"
      }
    },
    {
      "type": "node",
      "id": 4036604298,
      "lat": 12.9886368,
      "lon": 77.534281,
      "tags": {
        "amenity": "car_wash",
        "name": "Ventateshwara Car Wash"
      }
    },
    {
      "type": "node",
      "id": 4058429380,
      "lat": 12.9867587,
      "lon": 77.5349053,
      "tags": {
        "amenity": "place_of_worship"
      }
    },
    {
      "type": "node",
      "id": 4073025961,
      "lat": 12.9902696,
      "lon": 77.5358713,
      "tags": {
        "amenity": "library",
        "designation": "Library",
        "name": "Nagara Kendra Granthalaya (City Central Library)",
        "name:kn": "ನಗರ ಕೇಂದ್ರ ಗ್ರಂಥಾಲಯ"
      }
    },
    {
      "type": "node",
      "id": 4073175527,
      "lat": 12.9919453,
      "lon": 77.5372687,
      "tags": {
        "amenity": "bank",
        "atm": "yes",
        "brand": "Canara Bank",
        "brand:en": "Canara Bank",
        "brand:hi": "केनरा बैंक",
        "brand:kn": "ಕೆನರಾ ಬ್ಯಾಂಕ್",
        "brand:pa": "ਕੇਨਰਾ ਬੈਂਕ",
        "brand:pnb": "کینرا بینک",
        "brand:ur": "کینرا بینک",
        "brand:wikidata": "Q2003777",
        "brand:wikipedia": "en:Canara Bank",
        "brand:wikipedia:pa": "ਕੇਨਰਾ ਬੈਂਕ",
        "name": "Canara Bank",
        "name:en": "Canara Bank",
        "name:hi": "केनरा बैंक",
        "name:kn": "ಕೆನರಾ ಬ್ಯಾಂಕ್",
        "name:pa": "ਕੇਨਰਾ ਬੈਂਕ",
        "name:pnb": "کینرا بینک",
        "name:ur": "کینرا بینک",
        "website": "https://www.canarabank.com/"
      }
    },
    {
      "type": "node",
      "id": 4073175528,
      "lat": 12.9916895,
      "lon": 77.5375425,
      "tags": {
        "amenity": "bank",
        "atm": "yes",
        "brand": "Central Bank of India",
        "brand:wikidata": "Q2007090",
        "brand:wikipedia": "en:Central Bank of India",
        "name": "Central Bank of India",
        "name:en": "Central Bank of India",
        "website": "https://www.centralbankofindia.co.in"
      }
    },
    {
      "type": "node",
      "id": 4073175529,
      "lat": 12.9904129,
      "lon": 77.535888,
      "tags": {
        "name": "KMF - Nandini Milk Parlour",
        "shop": "dairy"
      }
    },
    {
      "type": "node",
      "id": 4073175530,
      "lat": 12.9936274,
      "lon": 77.5390358,
      "tags": {
        "name": "Levi Jeans",
        "shop": "clothes"
      }
    },
    {
      "type": "node",
      "id": 4073175531,
      "lat": 12.9934693,
      "lon": 77.538962,
      "tags": {
        "addr:city": "Bangalore",
        "addr:housename": "3rd Stage, 4th Block, Basaveshwaranagar",
        "addr:housenumber": "338",
        "addr:postcode": "79",
        "addr:street": "1st Cross Road",
        "brand": "Manyavar",
        "brand:wikidata": "Q24906783",
        "name": "Manyavar",
        "name:kn": "ಮಾನ್ಯವಾರ್",
        "phone": "+91 80 41211180",
        "shop": "clothes",
        "website": "https://www.manyavar.com/"
      }
    },
    {
      "type": "node",
      "id": 4073175532,
      "lat": 12.9928087,
      "lon": 77.5390197,
      "tags": {
        "addr:city": "Bangalore",
        "addr:housename": "Near Panacea Hospital, Basaweshwara Nagar",
        "addr:postcode": "560079",
        "addr:street": "Siddhaiah Puranik Road",
        "clothes": "women;men",
        "name": "People",
        "shop": "clothes"
      }
    },
    {
      "type": "node",
      "id": 4073230950,
      "lat": 12.9917285,
      "lon": 77.5386255,
      "tags": {
        "name": "Tata Docomo Customer Servie",
        "shop": "customer_service"
      }
    },
    {
      "type": "node",
      "id": 4087635780,
      "lat": 12.9879478,
      "lon": 77.5361198,
      "tags": {
        "name": "Annapoorneshwari Hot Chips",
        "shop": "confectionery"
      }
    },
    {
      "type": "node",
      "id": 4087635781,
      "lat": 12.9866737,
      "lon": 77.5408083,
      "tags": {
        "amenity": "fast_food",
        "name": "Bansuri"
      }
    },
    {
      "type": "node",
      "id": 4087635782,
      "lat": 12.9878328,
      "lon": 77.5376138,
      "tags": {
        "name": "Gundappa Bakery",
        "shop": "bakery"
      }
    },
    {
      "type": "node",
      "id": 4087635783,
      "lat": 12.9884235,
      "lon": 77.5352159,
      "tags": {
        "amenity": "fast_food",
        "name": "Mahadeshwara Chats"
      }
    },
    {
      "type": "node",
      "id": 4087675581,
      "lat": 12.9902817,
      "lon": 77.5378602,
      "tags": {
        "amenity": "restaurant",
        "cuisine": "regional",
        "name": "Priyadarshini Grand",
        "smoking": "no",
        "takeaway": "yes"
      }
    },
    {
      "type": "node",
      "id": 4134992091,
      "lat": 12.9869198,
      "lon": 77.532286,
      "tags": {
        "amenity": "clinic"
      }
    },
    {
      "type": "node",
      "id": 4209389014,
      "lat": 12.9929929,
      "lon": 77.5292643,
      "tags": {
        "addr:postcode": "560079",
        "addr:street": "BEML Layout, Kamala Nagar, Bengaluru, Karnataka",
        "amenity": "theatre",
        "name": "Veerabhadreshwara Theatre",
        "name:kn": "ವೀರಭದ್ರೇಶ್ವರ ಚಿತ್ರಮಂದಿರ",
        "opening_hours": "Mo-Su 10:00-23:00",
        "phone": "080-23230923"
      }
    },
    {
      "type": "node",
      "id": 4221615261,
      "lat": 12.9928196,
      "lon": 77.5306777,
      "tags": {
        "amenity": "atm",
        "opening_hours": "24/7",
        "operator": "Canara bank ATM"
      }
    },
    {
      "type": "node",
      "id": 4226905471,
      "lat": 12.9887296,
      "lon": 77.5319585,
      "tags": {
        "name": "Skanda",
        "shop": "clothes"
      }
    },
    {
      "type": "node",
      "id": 4226932018,
      "lat": 12.9868514,
      "lon": 77.5327927,
      "tags": {
        "name": "Mamta Provision store",
        "shop": "convenience"
      }
    },
    {
      "type": "node",
      "id": 4402345272,
      "lat": 12.9898833,
      "lon": 77.5374156,
      "tags": {
        "amenity": "pharmacy",
        "name": "Sudarshan Medicals"
      }
    },
    {
      "type": "node",
      "id": 4444302998,
      "lat": 12.9862573,
      "lon": 77.5403259,
      "tags": {
        "addr:city": "Bengaluru",
        "addr:housenumber": "12",
        "addr:postcode": "560079",
        "addr:street": "4th Stage, 3rd Block,Basaveshwara Nagar,",
        "amenity": "restaurant",
        "cuisine": "chinese",
        "name": "Cave n Dine",
        "opening_hours": "11:00 to 16:00 , 180:30  to 23:30",
        "phone": "080 23102051",
        "website": "https://cavendine.com/"
      }
    },
    {
      "type": "node",
      "id": 4445878633,
      "lat": 12.9881757,
      "lon": 77.5413711,
      "tags": {
        "addr:city": "Banglore",
        "addr:housenumber": "1",
        "addr:postcode": "560079",
        "addr:street": "Shamavana, 4th B Main, III Block, Basaveshwaranagar",
        "amenity": "school",
        "name": "Sri Vani Education Centre",
        "phone": "+9180 2323 8608",
        "website": "https://srivani.org/"
      }
    },
    {
      "type": "node",
      "id": 4446337629,
      "lat": 12.9864094,
      "lon": 77.5405663,
      "tags": {
        "addr:city": "Bangalore",
        "addr:housenumber": "14",
        "addr:postcode": "560079",
        "addr:street": "4th Stage, 3rd Block,Basaveshwara Naga",
        "amenity": "restaurant",
        "cuisine": "regional",
        "name": "Cave N Dine",
        "opening_hours": "11:00-16:00,18:30-23:30",
        "phone": "080 23102051",
        "website": "https://cavendine.com/"
      }
    },
    {
      "type": "node",
      "id": 4446983284,
      "lat": 12.9853927,
      "lon": 77.5383552,
      "tags": {
        "addr:city": "Bangalore",
        "addr:housenumber": "723/B",
        "addr:postcode": "560010",
        "addr:street": "11th Main Rd, 3rd Block, Rajaji Nagar",
        "amenity": "pharmacy",
        "name": "Dr. Suresh's Dia Care",
        "phone": "+91 80 2338 2867",
        "source": "www.justdial.com",
        "website": "drsureshdiacare.com"
      }
    },
    {
      "type": "node",
      "id": 4446985998,
      "lat": 12.9857599,
      "lon": 77.5386584,
      "tags": {
        "amenity": "pharmacy"
      }
    },
    {
      "type": "node",
      "id": 4446985999,
      "lat": 12.9851133,
      "lon": 77.5390188,
      "tags": {
        "addr:city": "Bangalore",
        "addr:housenumber": "403",
        "addr:postcode": "560010",
        "addr:street": "Dr. Rajkumar Road, 6th Block, 80 Feet Rd, 4th Block, Ramchandrapuram",
        "amenity": "pharmacy",
        "name": "Amrutha Medicals",
        "name:kn": "ಅಮೃತ ಮೆಡಿಕಲ್ಸ್",
        "phone": "+91 80 2311 7929",
        "source": "www.justdial.com"
      }
    },
    {
      "type": "node",
      "id": 4447521452,
      "lat": 12.9816064,
      "lon": 77.5346671,
      "tags": {
        "addr:city": "Bangalore",
        "addr:postcode": "560079",
        "addr:street": "4th Main Rd, KHB Colony, Basaveshwar Nagar,",
        "amenity": "school",
        "name": "Traffic Police Station",
        "name:kn": "ಸಂಚಾರ ಪೊಲೀಸ್ ಠಾಣೆ",
        "phone": "NA",
        "website": "NA"
      }
    },
    {
      "type": "node",
      "id": 4447535055,
      "lat": 12.9879713,
      "lon": 77.5402233,
      "tags": {
        "addr:city": "Banglore",
        "addr:postcode": "560079",
        "addr:street": "4th Main Rd, KHB Colony, Basaveshwar Nagar,",
        "amenity": "school",
        "name": "Traffic Police Station Kamakshipalya",
        "name:kn": "ಕಾಮಾಕ್ಷಿಪಾಳ್ಯ ಸಂಚಾರ ಪೊಲೀಸ್ ಠಾಣೆ",
        "phone": "NA",
        "website": "NA"
      }
    },
    {
      "type": "node",
      "id": 4488432291,
      "lat": 12.9925827,
      "lon": 77.5372971,
      "tags": {
        "addr:city": "Bangalore",
        "addr:housenumber": "354/355",
        "addr:postcode": "560079",
        "addr:street": "Kamla Nehru Nagar Main Road, West of Court Road, 4th Stage, 8th Main, 4th Block, Near Dominos,, Bhadrappa Layout, Basaveshwar Nagar",
        "branch": "Better Value Fitness Ltd",
        "brand": "Talkwalkars",
        "brand:wikidata": "Q7680402",
        "leisure": "fitness_centre",
        "name": "Talwalkars",
        "opening_hours": "5:30-22:00",
        "phone": "080 4206 0686",
        "sport": "gymnastics"
      }
    },
    {
      "type": "node",
      "id": 4488494322,
      "lat": 12.9888729,
      "lon": 77.536874,
      "tags": {
        "addr:city": "Bangalore",
        "addr:housenumber": "18",
        "addr:postcode": "560079",
        "addr:street": "1st Main Basaveshwaranagar",
        "name": "Touch Spa & Salons",
        "opening_hours": "10:00-19:030",
        "phone": "080 2335 9620",
        "shop": "beauty",
        "website": "miracletouch.in"
      }
    },
    {
      "type": "node",
      "id": 4489394989,
      "lat": 12.9865408,
      "lon": 77.5371426,
      "tags": {
        "addr:city": "Bangalore",
        "addr:postcode": "560079",
        "addr:street": "Shree Complex, 80 Feet Road, Basaveshwara Nagar, Basaveshwara Nagar, Bhadrappa Layout, 3rd Stage, Basaveshwar Nagar",
        "name": "Champion Sports",
        "opening_hours": "10:00-21:30",
        "phone": "98443 12148",
        "shop": "sports"
      }
    },
    {
      "type": "node",
      "id": 4489804408,
      "lat": 12.9883892,
      "lon": 77.5367931,
      "tags": {
        "addr:city": "Bangalore",
        "addr:housenumber": "No.173/A",
        "addr:postcode": "560050",
        "addr:street": "50 Feet Road,2nd Block Hanumanth Nagar, Banashankari 1st Stage",
        "name": "Yemkay Supermarket",
        "phone": "80-33518340",
        "shop": "supermarket"
      }
    },
    {
      "type": "node",
      "id": 4489873401,
      "lat": 12.9874641,
      "lon": 77.5385407,
      "tags": {
        "addr:city": "Bengaluru",
        "addr:housenumber": "20/3",
        "addr:postcode": "560079",
        "addr:street": ", Kaushik Plaza, 80 Feet Road, 2nd Stage, Khb Colony, Near-Sony Show Room, Basaveshwara Nagar, 2nd Stage, KHB Colony, Basaveshwar Nagar, Bengaluru, Karnataka",
        "leisure": "sports_centre",
        "name": "Celebrities Fitness Slimming Studio",
        "opening_hours": "5:00-22:00",
        "phone": "\"096321 55362 \""
      }
    },
    {
      "type": "node",
      "id": 4490315583,
      "lat": 12.9920853,
      "lon": 77.5375849,
      "tags": {
        "addr:city": "Bangalore",
        "addr:housenumber": "No,461/A,",
        "addr:postcode": "560079",
        "addr:street": "Basaveshvanagar Main Road, Basaveshwara Nagar,",
        "name": "Shobas Herbal Beauty Parlour",
        "opening_hours": "10:00-20:00",
        "phone": "91)-80-33761193",
        "shop": "beauty"
      }
    },
    {
      "type": "node",
      "id": 4509817152,
      "lat": 12.995573,
      "lon": 77.5354215,
      "tags": {
        "amenity": "hospital",
        "healthcare": "hospital",
        "name": "ChanRe Rheumatology and Immunology Center and Research",
        "name_1": "Chan re hospital",
        "name_2": "Chanre hospital"
      }
    },
    {
      "type": "node",
      "id": 4509818407,
      "lat": 12.9957925,
      "lon": 77.5356897,
      "tags": {
        "amenity": "car_wash",
        "name": "Quicky Clean Car Wash"
      }
    },
    {
      "type": "node",
      "id": 4519860791,
      "lat": 12.9811444,
      "lon": 77.5350546,
      "tags": {
        "addr:street": "Magadi Road",
        "amenity": "bank",
        "brand": "IDBI Bank",
        "brand:wikidata": "Q3633485",
        "brand:wikipedia": "en:IDBI Bank",
        "name": "IDBI Bank",
        "name:en": "IDBI Bank",
        "name:kn": "ಐಡಿಬಿಐ ಬ್ಯಾಂಕ್",
        "old_name": "Industrial Development Bank of India",
        "short_name": "IDBI",
        "website": "https://www.idbi.com"
      }
    },
    {
      "type": "node",
      "id": 4577564293,
      "lat": 12.9921093,
      "lon": 77.5380224,
      "tags": {
        "amenity": "doctors",
        "name": "Shastra",
        "name:en": "Shastra"
      }
    },
    {
      "type": "node",
      "id": 5086281341,
      "lat": 12.9868452,
      "lon": 77.5403901,
      "tags": {
        "name": "Soumya Medicals",
        "shop": "medical_supply"
      }
    },
    {
      "type": "node",
      "id": 5825285991,
      "lat": 12.9929612,
      "lon": 77.5390735,
      "tags": {
        "amenity": "fast_food",
        "cuisine": "indian;regional",
        "name": "Kanti sweets",
        "takeaway": "yes"
      }
    },
    {
      "type": "node",
      "id": 5825290749,
      "lat": 12.9935806,
      "lon": 77.5390065,
      "tags": {
        "name": "Kushal's Fashion Jewellery",
        "shop": "jewelry"
      }
    },
    {
      "type": "node",
      "id": 5825292845,
      "lat": 12.9939752,
      "lon": 77.5391801,
      "tags": {
        "addr:district": "Bengaluru Urban",
        "addr:full": "565 Iii Stage 4Th Block",
        "addr:postcode": "560079",
        "addr:state": "Karnataka",
        "amenity": "hospital",
        "healthcare": "hospital",
        "healthcare:speciality": "gynaecology",
        "name": "Vathsalya Speciality Hospital",
        "source": "OpenGovernmentData"
      }
    },
    {
      "type": "node",
      "id": 5825297254,
      "lat": 12.9952836,
      "lon": 77.5389682,
      "tags": {
        "level": "-1",
        "name": "Karnataka Medical Store",
        "shop": "medical_supply"
      }
    },
    {
      "type": "node",
      "id": 5825297255,
      "lat": 12.9952954,
      "lon": 77.5391057,
      "tags": {
        "description": "Good quality medicines with discount are available",
        "name": "Medplus",
        "name:kn": "ಮೆಡ್‍ಪ್ಲಸ್",
        "payment:cash": "yes",
        "payment:coins": "yes",
        "payment:credit_cards": "yes",
        "payment:debit_cards": "yes",
        "shop": "medical_supply"
      }
    },
    {
      "type": "node",
      "id": 5825299920,
      "lat": 12.9952764,
      "lon": 77.5390017,
      "tags": {
        "level": "-1",
        "name": "Keerthi Jewellers",
        "shop": "jewelry"
      }
    },
    {
      "type": "node",
      "id": 5825311129,
      "lat": 12.9951449,
      "lon": 77.5396001,
      "tags": {
        "brand": "Peter England",
        "brand:wikidata": "Q19573665",
        "clothes": "men",
        "name": "Peter England",
        "name:kn": "ಪೀಟರ್ ಇಂಗ್ಲೆಂಡ್",
        "shop": "clothes"
      }
    },
    {
      "type": "node",
      "id": 5825318249,
      "lat": 12.9925175,
      "lon": 77.5386168,
      "tags": {
        "brand": "Puma",
        "brand:wikidata": "Q157064",
        "clothes": "women;men;children;sports",
        "level": "0",
        "name": "Puma",
        "name:kn": "ಪೂಮ",
        "payment:cash": "yes",
        "payment:debit_cards": "yes",
        "shop": "clothes"
      }
    },
    {
      "type": "node",
      "id": 5846720763,
      "lat": 12.9918166,
      "lon": 77.5375888,
      "tags": {
        "amenity": "bank",
        "atm": "yes",
        "brand": "Allahabad Bank",
        "brand:wikidata": "Q2018840",
        "name": "Allahabad Bank",
        "name:kn": "ಅಲ್ಲಹಾಬಾದ್ ಬ್ಯಾಂಕ್"
      }
    },
    {
      "type": "node",
      "id": 5846722872,
      "lat": 12.9952391,
      "lon": 77.5388279,
      "tags": {
        "amenity": "atm",
        "operator": "Axis Bank ATM"
      }
    },
    {
      "type": "node",
      "id": 5846733389,
      "lat": 12.9880976,
      "lon": 77.5376599,
      "tags": {
        "name": "Pavithra Paradise",
        "payment:coins": "yes",
        "payment:debit_cards": "yes",
        "payment:notes": "yes",
        "shop": "bakery"
      }
    },
    {
      "type": "node",
      "id": 5846740873,
      "lat": 12.995652,
      "lon": 77.5397922,
      "tags": {
        "name": "Mahalakshmi Sweet Center",
        "payment:cash": "yes",
        "payment:coins": "yes",
        "payment:debit_cards": "yes",
        "shop": "bakery"
      }
    },
    {
      "type": "node",
      "id": 6093573541,
      "lat": 12.9883671,
      "lon": 77.5356916,
      "tags": {
        "amenity": "pharmacy",
        "name": "Moulya Medicals"
      }
    },
    {
      "type": "node",
      "id": 6780250610,
      "lat": 12.9970563,
      "lon": 77.5402485,
      "tags": {
        "addr:city": "Bengaluru",
        "addr:country": "IN",
        "addr:housenumber": "103",
        "addr:postcode": "560079",
        "addr:street": "Siddhaiah Puranik Road",
        "email": "orders@chefbakers.in",
        "name": "Chef Baker's",
        "shop": "bakery",
        "website": "https://www.chefbakers.com"
      }
    },
    {
      "type": "node",
      "id": 6937748988,
      "lat": 12.9948905,
      "lon": 77.5347984,
      "tags": {
        "addr:district": "Bengaluru Urban",
        "addr:full": "No.65,N.H.C.S. Layout,3Road Stage,4Th Block,Basaveshwar Nagar,Kamalanagar Main Road",
        "addr:postcode": "560079",
        "addr:state": "Karnataka",
        "amenity": "hospital",
        "healthcare": "hospital",
        "name": "Ashok Hospital",
        "source": "OpenGovernmentData"
      }
    },
    {
      "type": "node",
      "id": 6938540502,
      "lat": 12.9829857,
      "lon": 77.5309655,
      "tags": {
        "addr:district": "Bengaluru Urban",
        "addr:full": "No. 2/3, 5Th Main Shiva Complex, Kamakshipalya, Nagadimain Road , Opp Vishal Theatre",
        "addr:postcode": "560043",
        "addr:state": "Karnataka",
        "amenity": "hospital",
        "name": "Shreyas Hospital, Bengaluru Urban",
        "source": "OpenGovernmentData"
      }
    },
    {
      "type": "node",
      "id": 6938777957,
      "lat": 12.9817311,
      "lon": 77.5333714,
      "tags": {
        "addr:district": "Bengaluru Urban",
        "addr:full": "67/1, H V R Complex Magadi Main Road Kanakapura",
        "addr:postcode": "560079",
        "addr:state": "Karnataka",
        "amenity": "hospital",
        "name": "Padmavathi Hospital, Bengaluru Urban",
        "source": "OpenGovernmentData"
      }
    },
    {
      "type": "node",
      "id": 6939656823,
      "lat": 12.9879829,
      "lon": 77.5366303,
      "tags": {
        "addr:district": "Bengaluru Urban",
        "addr:full": "No.9 Shree Complex. 1st Floor Mig. Khb Colony Near Pavithraparadise Basaveshwaranagar",
        "addr:postcode": "560079",
        "addr:state": "Karnataka",
        "amenity": "dentist",
        "name": "Shreesha Dental Clinic",
        "source": "OpenGovernmentData"
      }
    },
    {
      "type": "node",
      "id": 6947707895,
      "lat": 12.9862161,
      "lon": 77.5374853,
      "tags": {
        "addr:district": "Bengaluru Urban",
        "addr:full": "# 52 /10 80 Ft Road, Khb Colony Basaveshwaranagar",
        "addr:postcode": "560079",
        "addr:state": "Karnataka",
        "amenity": "hospital",
        "email": "support@punyahospitals.com",
        "healthcare": "hospital",
        "name": "Punya Hospital, Bengaluru Urban",
        "operator:type": "private",
        "source": "OpenGovernmentData",
        "website": "https://punyahospitals.com/"
      }
    },
    {
      "type": "node",
      "id": 6947707901,
      "lat": 12.9895981,
      "lon": 77.5388995,
      "tags": {
        "addr:district": "Bengaluru Urban",
        "addr:full": "425/A, 6Th Main Road 3Road Stage, 3Road Block Basaveshwara Nagar",
        "addr:postcode": "560079",
        "addr:state": "Karnataka",
        "amenity": "clinic",
        "name": "Matru Nursing Home And Trauma Care Centre",
        "source": "OpenGovernmentData"
      }
    },
    {
      "type": "node",
      "id": 7108955185,
      "lat": 12.994289,
      "lon": 77.5392712,
      "tags": {
        "brand": "Naturals",
        "brand:wikidata": "Q125728261",
        "name": "Naturals",
        "shop": "beauty"
      }
    },
    {
      "type": "node",
      "id": 8442182847,
      "lat": 12.9975877,
      "lon": 77.5404263,
      "tags": {
        "shop": "tattoo"
      }
    },
    {
      "type": "node",
      "id": 8442182848,
      "lat": 12.9976504,
      "lon": 77.5404578,
      "tags": {
        "amenity": "fast_food",
        "cuisine": "sandwich",
        "name": "Sandwich Station"
      }
    },
    {
      "type": "node",
      "id": 8442182849,
      "lat": 12.9976327,
      "lon": 77.5404827,
      "tags": {
        "alt_name": "Goli Vada Pav No.1",
        "amenity": "fast_food",
        "brand": "Goli Vada Pav",
        "brand:wikidata": "Q5580697",
        "cuisine": "indian",
        "name": "Goli Vada Pav",
        "takeaway": "yes"
      }
    },
    {
      "type": "node",
      "id": 8442182850,
      "lat": 12.9975844,
      "lon": 77.5404666,
      "tags": {
        "amenity": "pharmacy",
        "name": "People Pharmacy"
      }
    },
    {
      "type": "node",
      "id": 9063447833,
      "lat": 12.9870447,
      "lon": 77.5422372,
      "tags": {
        "amenity": "cafe",
        "name": "Rasayana coffee bar"
      }
    },
    {
      "type": "node",
      "id": 9161008239,
      "lat": 12.9824636,
      "lon": 77.5375074,
      "tags": {
        "name": "Daily Needs Exim Pvt. Ltd.",
        "office": "company",
        "shop": "convenience"
      }
    },
    {
      "type": "node",
      "id": 9161008291,
      "lat": 12.9820356,
      "lon": 77.5373867,
      "tags": {
        "amenity": "bank",
        "atm": "yes",
        "brand": "Union Bank of India",
        "brand:wikidata": "Q2004078",
        "name": "Union Bank of India",
        "name:kn": "ಯೂನಿಯನ್ ಬ್ಯಾಂಕ್"
      }
    },
    {
      "type": "node",
      "id": 9161008304,
      "lat": 12.987796,
      "lon": 77.537777,
      "tags": {
        "brand": "cult.fit",
        "brand:wikidata": "Q121289250",
        "leisure": "fitness_centre",
        "name": "cult.fit",
        "operator": "cult.fit"
      }
    },
    {
      "type": "node",
      "id": 9161008305,
      "lat": 12.9940202,
      "lon": 77.5394936,
      "tags": {
        "name": "bake ur wish",
        "shop": "pastry"
      }
    },
    {
      "type": "node",
      "id": 9161008310,
      "lat": 12.9960692,
      "lon": 77.540254,
      "tags": {
        "name": "The Cake Factory",
        "shop": "pastry"
      }
    },
    {
      "type": "node",
      "id": 9161008311,
      "lat": 12.9955335,
      "lon": 77.5400716,
      "tags": {
        "brand": "pepperfry",
        "name": "pepperfry",
        "operator": "pepperfry",
        "shop": "furniture",
        "website": "https://www.pepperfry.com"
      }
    },
    {
      "type": "node",
      "id": 9163088408,
      "lat": 12.9873836,
      "lon": 77.5386851,
      "tags": {
        "amenity": "language_school",
        "email": "enquiry@sayuri.co.in",
        "name": "Sayuri",
        "phone": "+91 99 006 31710",
        "website": "https://sayuri.co.in/"
      }
    },
    {
      "type": "node",
      "id": 9911735811,
      "lat": 12.9918233,
      "lon": 77.5377992,
      "tags": {
        "addr:city": "Bangalore",
        "addr:country": "IN",
        "addr:housenumber": "353",
        "addr:postcode": "560079",
        "addr:street": "8th Main Road",
        "addr:suburb": "Basaveshwarnagar",
        "board_games": "yes",
        "contact:instagram": "boardgamesbazaar",
        "email": "hello@boardgamesbazaar.com",
        "name": "Board Games Bazaar",
        "shop": "games",
        "website": "https://boardgamesbazaar.com"
      }
    },
    {
      "type": "node",
      "id": 10302703779,
      "lat": 12.993112,
      "lon": 77.5387922,
      "tags": {
        "amenity": "fast_food",
        "brand": "Popeyes",
        "brand:wikidata": "Q1330910",
        "brand:wikipedia": "en:Popeyes",
        "cuisine": "chicken",
        "delivery": "yes",
        "name": "Popeyes",
        "official_name": "Popeyes Louisiana Kitchen",
        "takeaway": "yes",
        "website": "https://www.popeyes.in/"
      }
    },
    {
      "type": "node",
      "id": 10676078872,
      "lat": 12.995097,
      "lon": 77.5349191,
      "tags": {
        "amenity": "place_of_worship",
        "religion": "hindu"
      }
    },
    {
      "type": "node",
      "id": 10749106801,
      "lat": 12.9882809,
      "lon": 77.5345825,
      "tags": {
        "name": "Uttara Karnataka Jolada Rotti Mane",
        "shop": "bakery"
      }
    },
    {
      "type": "node",
      "id": 10749106802,
      "lat": 12.9884873,
      "lon": 77.5348037,
      "tags": {
        "name": "Skanda Fashions",
        "shop": "clothes"
      }
    },
    {
      "type": "node",
      "id": 10749106803,
      "lat": 12.9878235,
      "lon": 77.5368583,
      "tags": {
        "name": "Iyengar Bakery",
        "name:kn": "ಐಯ್ಯಂಗಾರ್ ಬೇಕರಿ",
        "shop": "bakery"
      }
    },
    {
      "type": "node",
      "id": 10749106804,
      "lat": 12.9878575,
      "lon": 77.5372781,
      "tags": {
        "name": "SM Silks",
        "shop": "clothes"
      }
    },
    {
      "type": "node",
      "id": 10749130205,
      "lat": 12.988439,
      "lon": 77.534555,
      "tags": {
        "amenity": "fast_food",
        "name": "Kaati Rolls"
      }
    },
    {
      "type": "node",
      "id": 10749130206,
      "lat": 12.9884468,
      "lon": 77.5346227,
      "tags": {
        "amenity": "restaurant",
        "cuisine": "multicuisine",
        "name": "Sirimane"
      }
    },
    {
      "type": "node",
      "id": 11031908387,
      "lat": 12.9918503,
      "lon": 77.5437825,
      "tags": {
        "addr:city": "Basaveshwara Nagar, Bangalore",
        "addr:housenumber": "629",
        "addr:postcode": "560079",
        "addr:street": "8th B Main Road, 3rd Stage, 2nd Block, Basaveshwaranagara",
        "amenity": "hospital",
        "healthcare": "hospital",
        "healthcare:speciality": "gynaecology;orthodontics;dentist;vaccination;plastic_surgery",
        "name": "Janani Clinics",
        "operator": "Dr. V. Jeevan Prakash",
        "operator:type": "private",
        "phone": "9036817877"
      }
    },
    {
      "type": "node",
      "id": 11117270549,
      "lat": 12.9899954,
      "lon": 77.5372124,
      "tags": {
        "amenity": "cafe",
        "name": "Glen's Bakehouse",
        "shop": "bakery"
      }
    },
    {
      "type": "node",
      "id": 11388846369,
      "lat": 12.9819185,
      "lon": 77.5323018,
      "tags": {
        "addr:housenumber": "16/1",
        "addr:postcode": "560079",
        "addr:street": "Magadi Road",
        "name": "Anant Bajaj",
        "opening_hours": "Mo-Sa 09:00-20:00; Su 09:00-18:00",
        "shop": "motorcycle",
        "website": "https://www.bajajauto.com/"
      }
    },
    {
      "type": "node",
      "id": 11906537349,
      "lat": 12.9883959,
      "lon": 77.5358123,
      "tags": {
        "amenity": "atm",
        "brand": "Karnataka Bank",
        "brand:wikidata": "Q2042632",
        "fee": "Karnataka Bank ATM",
        "operator": "Karnataka Bank",
        "operator:wikidata": "Q2042632"
      }
    },
    {
      "type": "node",
      "id": 11913334196,
      "lat": 12.9867896,
      "lon": 77.5423336,
      "tags": {
        "check_date": "2024-05-17",
        "name": "GK Vale",
        "shop": "photo"
      }
    },
    {
      "type": "node",
      "id": 11913334295,
      "lat": 12.9867617,
      "lon": 77.542063,
      "tags": {
        "check_date": "2024-05-17",
        "name": "Ganesh Green Tea",
        "shop": "tea"
      }
    },
    {
      "type": "node",
      "id": 11913334987,
      "lat": 12.9865586,
      "lon": 77.5422486,
      "tags": {
        "check_date": "2024-05-17",
        "name": "Usha Shringar",
        "shop": "beauty"
      }
    },
    {
      "type": "node",
      "id": 11917795792,
      "lat": 12.9864809,
      "lon": 77.5422287,
      "tags": {
        "check_date": "2024-05-17",
        "name": "Cheveux",
        "shop": "hairdresser"
      }
    },
    {
      "type": "node",
      "id": 11917795793,
      "lat": 12.9865869,
      "lon": 77.5422792,
      "tags": {
        "check_date": "2024-05-17",
        "name": "Nithya Garments",
        "shop": "clothes"
      }
    },
    {
      "type": "node",
      "id": 12408853763,
      "lat": 12.9926112,
      "lon": 77.5391934,
      "tags": {
        "amenity": "cafe",
        "check_date": "2024-12-10",
        "name": "Socialize"
      }
    },
    {
      "type": "node",
      "id": 12441867970,
      "lat": 12.9916231,
      "lon": 77.5385334,
      "tags": {
        "access": "yes",
        "amenity": "toilets",
        "fee": "yes"
      }
    },
    {
      "type": "node",
      "id": 12519602641,
      "lat": 12.9880795,
      "lon": 77.5355606,
      "tags": {
        "addr:city": "Bengaluru",
        "addr:postcode": "560079",
        "addr:street": "Stage 1, KHB Colony, Basaveshwar Nagar",
        "brand": "More",
        "brand:wikidata": "Q6910891",
        "name": "More",
        "shop": "supermarket"
      }
    },
    {
      "type": "node",
      "id": 12520580167,
      "lat": 12.9881733,
      "lon": 77.5370466,
      "tags": {
        "alt_name": "KPN Super Market",
        "name": "Carry Fresh home",
        "shop": "supermarket"
      }
    },
    {
      "type": "way",
      "id": 42434168,
      "center": {
        "lat": 12.9913616,
        "lon": 77.5442738
      },
      "tags": {
        "leisure": "park",
        "name": "Netaji Subash Chandra Bose Park",
        "name:etymology:wikidata": "Q2153"
      }
    },
    {
      "type": "way",
      "id": 42445763,
      "center": {
        "lat": 12.9959343,
        "lon": 77.5413651
      },
      "tags": {
        "leisure": "park"
      }
    },
    {
      "type": "way",
      "id": 133442471,
      "center": {
        "lat": 12.9840941,
        "lon": 77.5439081
      },
      "tags": {
        "leisure": "sports_centre",
        "name": "Ambedkar Ground",
        "name:kn": "ಅಂಬೇಡ್ಕರ್ ಮೈದಾನ",
        "wheelchair": "limited"
      }
    },
    {
      "type": "way",
      "id": 133756163,
      "center": {
        "lat": 12.9897894,
        "lon": 77.535985
      },
      "tags": {
        "leisure": "park",
        "name": "Sir M Vishweshwaraya Park (Monkey Park)",
        "name:etymology:wikidata": "Q741700",
        "name:kn": "ವಿಶ್ವೇಶ್ವರಯ್ಯ ಉದ್ಯಾನವನ"
      }
    },
    {
      "type": "way",
      "id": 133756195,
      "center": {
        "lat": 12.9911963,
        "lon": 77.5341081
      },
      "tags": {
        "leisure": "park",
        "name": "SBI officers colony park"
      }
    },
    {
      "type": "way",
      "id": 141375009,
      "center": {
        "lat": 12.9884535,
        "lon": 77.5336645
      },
      "tags": {
        "addr:postcode": "560079",
        "alt_name": "Sharadha Colony",
        "amenity": "bus_station",
        "designation": "Sharadha Colony",
        "name": "Sharada Colony Bus Depot",
        "name:kn": "ಬಸ್ ನಿಲ್ದಾಣ ಬಸವೇಶ್ವರನಗರ"
      }
    },
    {
      "type": "way",
      "id": 141508010,
      "center": {
        "lat": 12.9931166,
        "lon": 77.5319509
      },
      "tags": {
        "leisure": "park"
      }
    },
    {
      "type": "way",
      "id": 141508066,
      "center": {
        "lat": 12.9921312,
        "lon": 77.5294014
      },
      "tags": {
        "leisure": "park"
      }
    },
    {
      "type": "way",
      "id": 141744176,
      "center": {
        "lat": 12.993726,
        "lon": 77.536518
      },
      "tags": {
        "leisure": "park"
      }
    },
    {
      "type": "way",
      "id": 169719304,
      "center": {
        "lat": 12.983033,
        "lon": 77.5376807
      },
      "tags": {
        "amenity": "college",
        "name": "Government Homeopathy College & Hospital"
      }
    },
    {
      "type": "way",
      "id": 169801559,
      "center": {
        "lat": 12.9819702,
        "lon": 77.5379822
      },
      "tags": {
        "leisure": "park"
      }
    },
    {
      "type": "way",
      "id": 219384062,
      "center": {
        "lat": 12.9929068,
        "lon": 77.5330173
      },
      "tags": {
        "amenity": "place_of_worship",
        "name": "Huttada Venkataramana Temple",
        "name:kn": "ಹುತ್ತದ ವೆಂಕಟರಮಣ ಸ್ವಾಮಿ ದೇವಸ್ಥಾನ",
        "religion": "hindu"
      }
    },
    {
      "type": "way",
      "id": 220192627,
      "center": {
        "lat": 12.9916419,
        "lon": 77.5427457
      },
      "tags": {
        "amenity": "place_of_worship",
        "name": "Ganesh Temple",
        "name:kn": "ಗಣೇಶ ದೇವಸ್ಥಾನ",
        "religion": "hindu"
      }
    },
    {
      "type": "way",
      "id": 222278954,
      "center": {
        "lat": 12.9940136,
        "lon": 77.5319539
      },
      "tags": {
        "amenity": "school",
        "name": "Max Muller School",
        "name:kn": "ಮಾಕ್ಸ್ ಮುಲ್ಲರ್ ಶಾಲೆ"
      }
    },
    {
      "type": "way",
      "id": 252711787,
      "center": {
        "lat": 12.9934335,
        "lon": 77.5292704
      },
      "tags": {
        "amenity": "place_of_worship",
        "building": "yes",
        "name": "Om Shakti Temple",
        "name:kn": "ಓಂ ಶಕ್ತಿ ದೇವಸ್ಥಾನ",
        "religion": "hindu"
      }
    },
    {
      "type": "way",
      "id": 255543238,
      "center": {
        "lat": 12.9863176,
        "lon": 77.5384952
      },
      "tags": {
        "leisure": "park"
      }
    },
    {
      "type": "way",
      "id": 347497660,
      "center": {
        "lat": 12.992849,
        "lon": 77.5386619
      },
      "tags": {
        "addr:district": "Bengaluru Urban",
        "addr:full": "334, 3rd Stage, 4th Block, Basaveshwaranagar",
        "addr:postcode": "560079",
        "addr:state": "Karnataka",
        "amenity": "hospital",
        "building": "hospital",
        "healthcare": "hospital",
        "name": "Supra Hospital",
        "operator:type": "private",
        "website": "http://www.panaceahospital.com/"
      }
    },
    {
      "type": "way",
      "id": 347497848,
      "center": {
        "lat": 12.9929909,
        "lon": 77.5387177
      },
      "tags": {
        "addr:city": "Basaveshwara Nagar, Bangalore",
        "addr:housenumber": "334",
        "addr:postcode": "560079",
        "addr:street": "8th Main, 3rd Stage",
        "amenity": "hospital",
        "building": "yes",
        "emergency": "yes",
        "healthcare": "hospital",
        "name": "GM Hospital",
        "wheelchair": "yes"
      }
    },
    {
      "type": "way",
      "id": 349044761,
      "center": {
        "lat": 12.9937772,
        "lon": 77.5390039
      },
      "tags": {
        "addr:postcode": "560079",
        "amenity": "post_office",
        "building": "yes",
        "name": "Basaveshwara Nagar Post Office",
        "name:kn": "ಬಸವೇಶ್ವರನಗರ ಅಂಚೆ ಕಛೇರಿ"
      }
    },
    {
      "type": "way",
      "id": 354497944,
      "center": {
        "lat": 12.9955667,
        "lon": 77.5354224
      },
      "tags": {
        "amenity": "hospital",
        "healthcare": "hospital",
        "name": "ChanRe Rheumatology And Immunology Center And Research"
      }
    },
    {
      "type": "way",
      "id": 354557129,
      "center": {
        "lat": 12.9914025,
        "lon": 77.5357164
      },
      "tags": {
        "addr:city": "Bangalore",
        "addr:postcode": "560079",
        "addr:street": "6 main Basaveshwarnagar",
        "amenity": "school",
        "building": "school",
        "name": "VLS International School"
      }
    },
    {
      "type": "way",
      "id": 354557501,
      "center": {
        "lat": 12.9898665,
        "lon": 77.5377091
      },
      "tags": {
        "amenity": "bank",
        "brand": "Bank of India",
        "brand:wikidata": "Q2004439",
        "brand:wikipedia": "en:Bank of India",
        "building": "yes",
        "name": "Bank of India",
        "name:en": "Bank of India",
        "name:kn": "ಬ್ಯಾಂಕ್ ಅಫ್ ಇಂಡಿಯ",
        "short_name": "BoI",
        "website": "http://www.bankofindia.co.in"
      }
    },
    {
      "type": "way",
      "id": 354557584,
      "center": {
        "lat": 12.9916248,
        "lon": 77.5374776
      },
      "tags": {
        "amenity": "bank",
        "atm": "yes",
        "brand": "Central Bank of India",
        "brand:wikidata": "Q2007090",
        "brand:wikipedia": "en:Central Bank of India",
        "building": "yes",
        "name": "Central Bank of India",
        "name:en": "Central Bank of India",
        "name:kn": "ಸೆಂಟ್ರಲ್ ಬ್ಯಾಂಕ್",
        "website": "https://www.centralbankofindia.co.in"
      }
    },
    {
      "type": "way",
      "id": 354557914,
      "center": {
        "lat": 12.9883622,
        "lon": 77.5343261
      },
      "tags": {
        "amenity": "hospital",
        "building": "yes",
        "name": "Gopala Eye Care Centre"
      }
    },
    {
      "type": "way",
      "id": 354557995,
      "center": {
        "lat": 12.9885435,
        "lon": 77.5344927
      },
      "tags": {
        "amenity": "bank",
        "brand": "State Bank of India",
        "brand:wikidata": "Q1340361",
        "brand:wikipedia": "en:State Bank of India",
        "name": "State Bank of India",
        "name:kn": "ಭಾರತೀಯ ಸ್ಟೇಟ್ ಬ್ಯಾಂಕ್",
        "short_name": "SBI",
        "website": "https://www.sbi.co.in"
      }
    },
    {
      "type": "way",
      "id": 363069942,
      "center": {
        "lat": 12.9988269,
        "lon": 77.5387661
      },
      "tags": {
        "leisure": "park"
      }
    },
    {
      "type": "way",
      "id": 363069963,
      "center": {
        "lat": 12.9976289,
        "lon": 77.5375677
      },
      "tags": {
        "leisure": "park"
      }
    },
    {
      "type": "way",
      "id": 363145084,
      "center": {
        "lat": 12.9845464,
        "lon": 77.541172
      },
      "tags": {
        "leisure": "park",
        "name": "Basava Park",
        "name:kn": "ಬಸವ ಉದ್ಯಾನವನ"
      }
    },
    {
      "type": "way",
      "id": 401214561,
      "center": {
        "lat": 12.988019,
        "lon": 77.5355789
      },
      "tags": {
        "addr:city": "Bengaluru",
        "addr:postcode": "560079",
        "addr:street": "Stage 1, KHB Colony, Basaveshwar Nagar",
        "amenity": "bank",
        "atm": "yes",
        "brand": "Union Bank of India",
        "brand:wikidata": "Q2004078",
        "building": "yes",
        "name": "Union Bank of India",
        "name:kn": "ಕಾರ್ಪರೇಷನ್ ಬ್ಯಾಂಕ್"
      }
    },
    {
      "type": "way",
      "id": 404739433,
      "center": {
        "lat": 12.9902514,
        "lon": 77.5358942
      },
      "tags": {
        "addr:city": "Basaveshwaranagar, Bangalore",
        "addr:housename": "Bangalore One",
        "addr:postcode": "560079",
        "addr:street": "1st F Cross, 3rd stage, 4th block",
        "amenity": "public_building",
        "building": "yes",
        "name": "Bangalore One, Basaveshwaranagar",
        "name:kn": "ಬೆಂಗಳೂರು ಓನ್"
      }
    },
    {
      "type": "way",
      "id": 405079331,
      "center": {
        "lat": 12.9920019,
        "lon": 77.5342419
      },
      "tags": {
        "amenity": "public_building",
        "building": "yes",
        "name": "Municipal Corporation Office",
        "name:kn": "ಬೃ ಬೆಂ ಮ ಪಾ ಕಛೇರಿ"
      }
    },
    {
      "type": "way",
      "id": 405079334,
      "center": {
        "lat": 12.9910814,
        "lon": 77.5355729
      },
      "tags": {
        "amenity": "school",
        "leisure": "pitch",
        "name": "VLS International School grounds"
      }
    },
    {
      "type": "way",
      "id": 405081112,
      "center": {
        "lat": 12.9901503,
        "lon": 77.5362593
      },
      "tags": {
        "leisure": "pitch"
      }
    },
    {
      "type": "way",
      "id": 405095229,
      "center": {
        "lat": 12.9879381,
        "lon": 77.5419973
      },
      "tags": {
        "leisure": "pitch"
      }
    },
    {
      "type": "way",
      "id": 412935372,
      "center": {
        "lat": 12.9976804,
        "lon": 77.5357264
      },
      "tags": {
        "leisure": "pitch",
        "name": "Kurubarahalli Playground"
      }
    },
    {
      "type": "way",
      "id": 412935378,
      "center": {
        "lat": 12.9976869,
        "lon": 77.5363178
      },
      "tags": {
        "leisure": "park",
        "name": "Kempegowda Park",
        "name:etymology:wikidata": "Q6387049",
        "name:kn": "ಕೆಂಪೆಗೌಡ ಉದ್ಯಾನವನ"
      }
    },
    {
      "type": "way",
      "id": 422974248,
      "center": {
        "lat": 12.9915349,
        "lon": 77.5347453
      },
      "tags": {
        "leisure": "park"
      }
    },
    {
      "type": "way",
      "id": 454420332,
      "center": {
        "lat": 12.9967265,
        "lon": 77.5354857
      },
      "tags": {
        "amenity": "place_of_worship",
        "building": "yes",
        "name": "Shani Mahatma Temple",
        "name:kn": "ಶನಿ ಮಹಾತ್ಮ ದೇವಸ್ಥಾನ",
        "religion": "hindu"
      }
    },
    {
      "type": "way",
      "id": 454420712,
      "center": {
        "lat": 12.9963126,
        "lon": 77.5345779
      },
      "tags": {
        "leisure": "park"
      }
    },
    {
      "type": "way",
      "id": 618592983,
      "center": {
        "lat": 12.9897882,
        "lon": 77.5381094
      },
      "tags": {
        "building": "yes",
        "name": "Mangala Sweets",
        "shop": "bakery"
      }
    },
    {
      "type": "way",
      "id": 649260703,
      "center": {
        "lat": 12.9879879,
        "lon": 77.5357463
      },
      "tags": {
        "alt_name": "R S Arcade",
        "amenity": "bank",
        "brand": "Karnataka Bank",
        "brand:wikidata": "Q2042632",
        "building": "commercial",
        "name": "Karnataka Bank"
      }
    },
    {
      "type": "way",
      "id": 851795158,
      "center": {
        "lat": 12.987142,
        "lon": 77.5426794
      },
      "tags": {
        "amenity": "college",
        "name": "VVS Girls College"
      }
    },
    {
      "type": "way",
      "id": 851795159,
      "center": {
        "lat": 12.9880639,
        "lon": 77.5414201
      },
      "tags": {
        "addr:city": "Banglore",
        "addr:housenumber": "1",
        "addr:postcode": "560079",
        "addr:street": "Shamavana, 4th B Main, III Block, Basaveshwaranagar",
        "amenity": "school",
        "email": "bsnr@srivani.org",
        "name": "Sri Vani Education Centre",
        "phone": "+91 80 2323 8608",
        "school:gender": "mixed",
        "website": "https://srivani.edu.in/shamavana/"
      }
    },
    {
      "type": "way",
      "id": 851795162,
      "center": {
        "lat": 12.9878783,
        "lon": 77.5419686
      },
      "tags": {
        "addr:city": "Bengaluru",
        "addr:postcode": "560079",
        "addr:street": "3rd Cross",
        "amenity": "school",
        "email": "naflblr@gmail.com",
        "name": "National Academy for Learning",
        "phone": "+91-80-23239281",
        "phone_1": "+91-80-23231567",
        "wikidata": "Q6970108"
      }
    },
    {
      "type": "way",
      "id": 909240053,
      "center": {
        "lat": 12.9974668,
        "lon": 77.5409806
      },
      "tags": {
        "leisure": "park"
      }
    },
    {
      "type": "way",
      "id": 909240054,
      "center": {
        "lat": 12.9976349,
        "lon": 77.5408214
      },
      "tags": {
        "leisure": "park"
      }
    },
    {
      "type": "way",
      "id": 991531036,
      "center": {
        "lat": 12.9830337,
        "lon": 77.5365274
      },
      "tags": {
        "addr:full": "Stage 1, KHB Colony, Basaveshwar Nagar, Bengaluru, Karnataka",
        "addr:state": "Karnataka",
        "amenity": "hospital",
        "healthcare": "hospital",
        "name": "Government Homeopathic Hospital"
      }
    },
    {
      "type": "way",
      "id": 991531037,
      "center": {
        "lat": 12.9936034,
        "lon": 77.539461
      },
      "tags": {
        "addr:city": "Basaveshwara Nagar, Bangalore",
        "addr:postcode": "560079",
        "addr:street": "10th Main, 3rd Stage, West Of Chord Road",
        "amenity": "school",
        "name": "S Cadambi Vidya Kendra English Secondary School",
        "phone": "+91 80 23232831"
      }
    },
    {
      "type": "way",
      "id": 1069253451,
      "center": {
        "lat": 12.9886281,
        "lon": 77.5443632
      },
      "tags": {
        "amenity": "school",
        "name": "Carmel High School",
        "name:kn": "ಕಾರ್ಮೆಲ್ ಪ್ರೌಡಶಾಲೆ",
        "wheelchair": "limited"
      }
    },
    {
      "type": "way",
      "id": 1069253452,
      "center": {
        "lat": 12.988239,
        "lon": 77.5450381
      },
      "tags": {
        "amenity": "college",
        "name": "Carmel PUC"
      }
    },
    {
      "type": "way",
      "id": 1092672116,
      "center": {
        "lat": 12.9905596,
        "lon": 77.5438262
      },
      "tags": {
        "leisure": "park",
        "name": "Netaji Subash Chandra Bose Ground",
        "name:etymology:wikidata": "Q2153"
      }
    },
    {
      "type": "way",
      "id": 1147338815,
      "center": {
        "lat": 12.9950965,
        "lon": 77.5352933
      },
      "tags": {
        "leisure": "park"
      }
    },
    {
      "type": "way",
      "id": 1147338817,
      "center": {
        "lat": 12.9951618,
        "lon": 77.5381263
      },
      "tags": {
        "amenity": "fast_food",
        "brand": "Indira Canteen",
        "brand:wikidata": "Q36164828",
        "cuisine": "south_indian",
        "name": "Indira Canteen",
        "operator": "BBMP",
        "takeaway": "yes"
      }
    },
    {
      "type": "way",
      "id": 1206776944,
      "center": {
        "lat": 12.9934577,
        "lon": 77.5383785
      },
      "tags": {
        "amenity": "community_centre"
      }
    },
    {
      "type": "way",
      "id": 1206776988,
      "center": {
        "lat": 12.9841866,
        "lon": 77.5398134
      },
      "tags": {
        "leisure": "park"
      }
    },
    {
      "type": "way",
      "id": 1206777030,
      "center": {
        "lat": 12.9852997,
        "lon": 77.5356728
      },
      "tags": {
        "amenity": "place_of_worship",
        "religion": "hindu"
      }
    }
  ]
}