{
  "area_name": "Shettihalli",
  "osm_id": 19883279,
  "osm_type": "relation",
  "place_type": "administrative",
  "amenity_count": 26,
  "amenities": [
    {
      "type": "node",
      "id": 6939528388,
      "lat": 13.0614636,
      "lon": 77.517997,
      "tags": {
        "addr:district": "Bengaluru Urban",
        "addr:full": "Jalahalli West",
        "addr:postcode": "560015",
        "addr:state": "Karnataka",
        "amenity": "clinic",
        "name": "Eskay Health Care",
        "source": "OpenGovernmentData"
      }
    },
    {
      "type": "node",
      "id": 7167153766,
      "lat": 13.0598293,
      "lon": 77.5190337,
      "tags": {
        "leisure": "pitch",
        "sport": "basketball"
      }
    },
    {
      "type": "node",
      "id": 7167153778,
      "lat": 13.0608117,
      "lon": 77.5190954,
      "tags": {
        "amenity": "parking"
      }
    },
    {
      "type": "node",
      "id": 8187932019,
      "lat": 13.0623983,
      "lon": 77.5182099,
      "tags": {
        "addr:full": "Nandananagar Layout, Shettihalli Main Rd, Cauvery Layout, Brindavan Layout, Shetty Halli, Jalahalli West, Bengaluru, Karnataka",
        "addr:state": "Karnataka",
        "amenity": "atm",
        "name": "Axis Bank ATM",
        "name:kn": "ಆಕ್ಸಿಸ್ ಬ್ಯಾಂಕ್ ಎಟಿಎಂ"
      }
    },
    {
      "type": "node",
      "id": 8187932023,
      "lat": 13.0604743,
      "lon": 77.5313611,
      "tags": {
        "addr:full": "115, Kammagondana Halli Main Rd, Kammagondahalli, Jalahalli, Bengaluru, Karnataka",
        "addr:state": "Karnataka",
        "amenity": "atm",
        "name": "Canara Bank ATM",
        "name:kn": "ಕೆನರಾ ಬ್ಯಾಂಕ್ ಎಟಿಎಂ"
      }
    },
    {
      "type": "node",
      "id": 8188038499,
      "lat": 13.0621628,
      "lon": 77.5177637,
      "tags": {
        "addr:full": "342, 6th Cross, Brindavan Layout, Shetty Halli, Jalahalli West, Bengaluru, Karnataka",
        "addr:state": "Karnataka",
        "amenity": "hospital",
        "name": "Dr Saju George Kottakkal"
      }
    },
    {
      "type": "node",
      "id": 8188038523,
      "lat": 13.0559513,
      "lon": 77.5329456,
      "tags": {
        "addr:full": "144, Kammagondana Halli Main Rd, Kammagondahalli, Jalahalli, Bengaluru, Karnataka",
        "addr:state": "Karnataka",
        "amenity": "hospital",
        "name": "Fathima Hospital"
      }
    },
    {
      "type": "node",
      "id": 12155141142,
      "lat": 13.0621629,
      "lon": 77.5085926,
      "tags": {
        "amenity": "parking_entrance"
      }
    },
    {
      "type": "node",
      "id": 12155141143,
      "lat": 13.0615179,
      "lon": 77.5075102,
      "tags": {
        "amenity": "parking_entrance"
      }
    },
    {
      "type": "node",
      "id": 12260570036,
      "lat": 13.05513,
      "lon": 77.534738,
      "tags": {
        "amenity": "restaurant",
        "name": "Darshan Bar & Restaurant"
      }
    },
    {
      "type": "node",
      "id": 12520110470,
      "lat": 13.0635614,
      "lon": 77.5057653,
      "tags": {
        "addr:city": "Bengaluru",
        "addr:housenumber": "No:14/3",
        "addr:postcode": "560073",
        "addr:street": "Arunachalam Building, Near Bonemill Bus Stop, Hosaraghatta Main road, Nagasandra Post",
        "name": "Dhanu Telecom",
        "shop": "mobile_phone"
      }
    },
    {
      "type": "node",
      "id": 12525379125,
      "lat": 13.0633964,
      "lon": 77.5057075,
      "tags": {
        "addr:city": "Bengaluru",
        "addr:postcode": "560073",
        "addr:street": "Hosaraghatta Main road, Nagasandra Post",
        "amenity": "clinic",
        "healthcare": "clinic",
        "name": "Sangeevini Clinic"
      }
    },
    {
      "type": "way",
      "id": 767631173,
      "center": {
        "lat": 13.0597397,
        "lon": 77.5193173
      },
      "tags": {
        "leisure": "garden"
      }
    },
    {
      "type": "way",
      "id": 767631174,
      "center": {
        "lat": 13.0601349,
        "lon": 77.5191155
      },
      "tags": {
        "leisure": "playground"
      }
    },
    {
      "type": "way",
      "id": 767631175,
      "center": {
        "lat": 13.0608956,
        "lon": 77.5177891
      },
      "tags": {
        "leisure": "pitch",
        "sport": "cricket"
      }
    },
    {
      "type": "way",
      "id": 767631176,
      "center": {
        "lat": 13.0607879,
        "lon": 77.5175568
      },
      "tags": {
        "leisure": "pitch",
        "sport": "tennis"
      }
    },
    {
      "type": "way",
      "id": 767631186,
      "center": {
        "lat": 13.0602598,
        "lon": 77.5182961
      },
      "tags": {
        "access": "private",
        "leisure": "swimming_pool"
      }
    },
    {
      "type": "way",
      "id": 889197991,
      "center": {
        "lat": 13.0615932,
        "lon": 77.5077456
      },
      "tags": {
        "leisure": "swimming_pool"
      }
    },
    {
      "type": "way",
      "id": 993824685,
      "center": {
        "lat": 13.0471723,
        "lon": 77.5211748
      },
      "tags": {
        "leisure": "park",
        "name": "Pipeline Road Park"
      }
    },
    {
      "type": "way",
      "id": 1150947120,
      "center": {
        "lat": 13.0471828,
        "lon": 77.5204439
      },
      "tags": {
        "leisure": "park",
        "name": "Pipeline Road Park",
        "operator": "ಬೃಹತ್ ಬೆಂಗಳೂರು ಮಹಾನಗರ ಪಾಲಿಕೆ",
        "operator:en": "Bruhat Bengaluru Mahanagara Palike",
        "operator:ka": "ಬೃಹತ್ ಬೆಂಗಳೂರು ಮಹಾನಗರ ಪಾಲಿಕೆ",
        "operator:short": "BBMP",
        "operator:type": "government",
        "operator:wikidata": "Q4978693"
      }
    },
    {
      "type": "way",
      "id": 1263454559,
      "center": {
        "lat": 13.0602407,
        "lon": 77.5074115
      },
      "tags": {
        "leisure": "park"
      }
    },
    {
      "type": "way",
      "id": 1308078690,
      "center": {
        "lat": 13.0580989,
        "lon": 77.5296647
      },
      "tags": {
        "leisure": "track",
        "sport": "athletics"
      }
    },
    {
      "type": "way",
      "id": 1308078711,
      "center": {
        "lat": 13.0575939,
        "lon": 77.5282149
      },
      "tags": {
        "leisure": "pitch",
        "sport": "tennis"
      }
    },
    {
      "type": "way",
      "id": 1308078712,
      "center": {
        "lat": 13.0574637,
        "lon": 77.5280251
      },
      "tags": {
        "leisure": "pitch",
        "sport": "basketball"
      }
    },
    {
      "type": "way",
      "id": 1323345392,
      "center": {
        "lat": 13.0604824,
        "lon": 77.5081292
      },
      "tags": {
        "access": "private",
        "leisure": "swimming_pool"
      }
    },
    {
      "type": "way",
      "id": 1323345393,
      "center": {
        "lat": 13.0601804,
        "lon": 77.5077543
      },
      "tags": {
        "leisure": "park"
      }
    }
  ]
}