{
  "area_name": "Shivanasamudra Ward",
  "osm_id": 19884519,
  "osm_type": "relation",
  "place_type": "administrative",
  "amenity_count": 429,
  "amenities": [
    {
      "type": "node",
      "id": 267212843,
      "lat": 12.9185253,
      "lon": 77.6704998,
      "tags": {
        "amenity": "bank",
        "atm": "yes",
        "brand": "HDFC Bank",
        "brand:wikidata": "Q631047",
        "brand:wikipedia": "en:HDFC Bank",
        "drive_through": "no",
        "level": "0",
        "name": "HDFC Bank",
        "name:kn": "ಎಚ್ ಡಿ ಎಫ್ ಸಿ",
        "short_name": "HDFC",
        "website": "https://www.hdfcbank.com"
      }
    },
    {
      "type": "node",
      "id": 650398934,
      "lat": 12.9186665,
      "lon": 77.6708407,
      "tags": {
        "name": "Families Hypermarket",
        "shop": "supermarket"
      }
    },
    {
      "type": "node",
      "id": 1067307517,
      "lat": 12.9192711,
      "lon": 77.6684296,
      "tags": {
        "addr:street": "Sarjapur Road",
        "amenity": "pharmacy",
        "healthcare": "pharmacy"
      }
    },
    {
      "type": "node",
      "id": 1156832807,
      "lat": 12.9261691,
      "lon": 77.6803833,
      "tags": {
        "addr:housename": "The Bay Food Court",
        "addr:housenumber": "102",
        "addr:street": "Outer ring road, Bellandur",
        "amenity": "cafe",
        "brand": "Cafe Coffee Day",
        "brand:wikidata": "Q5017235",
        "brand:wikipedia": "en:Café Coffee Day",
        "cuisine": "coffee_shop",
        "name": "Cafe Coffee Day",
        "name:kn": "ಕಫೆ ಕಾಫಿ ಡೇ",
        "takeaway": "yes"
      }
    },
    {
      "type": "node",
      "id": 1156832811,
      "lat": 12.9263049,
      "lon": 77.6803137,
      "tags": {
        "addr:housename": "The Bay Food Court",
        "addr:housenumber": "102",
        "addr:street": "Outer ring road, Bellandur",
        "amenity": "fast_food",
        "brand": "Domino's",
        "brand:ks": "ڈومینوز",
        "brand:pa": "ਡੋਮੀਨੋਜ਼",
        "brand:ur": "ڈومینوز",
        "brand:wikidata": "Q839466",
        "brand:wikipedia": "en:Domino's Pizza",
        "cuisine": "pizza",
        "name": "Domino's",
        "name:kn": "ಡಾಮಿನೋಸ್",
        "name:ks": "ڈومینوز",
        "name:pa": "ਡੋਮੀਨੋਜ਼",
        "name:ur": "ڈومینوز",
        "takeaway": "yes",
        "wheelchair": "no"
      }
    },
    {
      "type": "node",
      "id": 1156941131,
      "lat": 12.9264201,
      "lon": 77.6805202,
      "tags": {
        "addr:housename": "Food Court",
        "addr:street": "Outer ring road, Bellandur village",
        "amenity": "fast_food",
        "brand": "McDonald's",
        "brand:pa": "ਮੈਕਡੋਨਲਡ’ਜ਼",
        "brand:ur": "مکڈونلڈز",
        "brand:wikidata": "Q38076",
        "brand:wikipedia": "en:McDonald's",
        "brand:wikipedia:pa": "ਮੈਕਡੋਨਲਡ’ਜ਼",
        "brand:wikipedia:ur": "مکڈونلڈز",
        "cuisine": "burger",
        "name": "McDonald's",
        "name:kn": "ಮ್ಯಾಕ್‌ಡೊನಾಲ್ಡ್ಸ್",
        "name:pa": "ਮੈਕਡੋਨਲਡ’ਜ਼",
        "name:ur": "مکڈونلڈز",
        "takeaway": "yes",
        "website": "https://www.mcdonaldsindia.com/"
      }
    },
    {
      "type": "node",
      "id": 1169430891,
      "lat": 12.9118577,
      "lon": 77.682346,
      "tags": {
        "name": "car accesories",
        "shop": "car_parts"
      }
    },
    {
      "type": "node",
      "id": 1367646343,
      "lat": 12.9251154,
      "lon": 77.6817088,
      "tags": {
        "amenity": "atm",
        "brand": "HDFC Bank",
        "brand:wikidata": "Q631047",
        "brand:wikipedia": "en:HDFC Bank",
        "name": "HDFC Bank",
        "operator": "HDFC Bank",
        "operator:wikidata": "Q631047",
        "operator:wikipedia": "en:HDFC Bank",
        "short_name": "HDFC"
      }
    },
    {
      "type": "node",
      "id": 1367646347,
      "lat": 12.9249638,
      "lon": 77.681639,
      "tags": {
        "amenity": "atm",
        "brand": "ICICI Bank",
        "brand:wikidata": "Q1653258",
        "brand:wikipedia": "en:ICICI Bank",
        "name": "ICICI Bank",
        "name:kn": "ಐಸಿಐಸಿಐ ಬ್ಯಾಂಕು",
        "operator": "ICICI Bank",
        "operator:wikidata": "Q1653258",
        "operator:wikipedia": "en:ICICI Bank",
        "short_name": "ICICI",
        "wheelchair": "no"
      }
    },
    {
      "type": "node",
      "id": 1669907390,
      "lat": 12.9215251,
      "lon": 77.6759665,
      "tags": {
        "amenity": "place_of_worship",
        "name": "Ganesha Temple",
        "name:kn": "ಗಣೇಶ ದೇವಸ್ಥಾನ",
        "religion": "hindu",
        "wheelchair": "no"
      }
    },
    {
      "type": "node",
      "id": 1669908084,
      "lat": 12.9218121,
      "lon": 77.6761569,
      "tags": {
        "name": "Sinan Provision Store",
        "shop": "convenience"
      }
    },
    {
      "type": "node",
      "id": 1669909077,
      "lat": 12.9223745,
      "lon": 77.6756791,
      "tags": {
        "name": "Raj Motors",
        "shop": "car_repair"
      }
    },
    {
      "type": "node",
      "id": 1691969733,
      "lat": 12.9224463,
      "lon": 77.6682635,
      "tags": {
        "designation": "Liquor boutique",
        "level": "1",
        "name": "Madhuloka",
        "name:kn": "ಮಧುಲೋಕ",
        "payment:credit_cards": "yes",
        "payment:debit_cards": "yes",
        "shop": "alcohol",
        "source": "survey",
        "wheelchair": "no"
      }
    },
    {
      "type": "node",
      "id": 1693117431,
      "lat": 12.922285,
      "lon": 77.6774154,
      "tags": {
        "name": "Exide Battery Inverter shop",
        "shop": "convenience"
      }
    },
    {
      "type": "node",
      "id": 1891043819,
      "lat": 12.9122176,
      "lon": 77.6817453,
      "tags": {
        "amenity": "cafe",
        "name": "Cuppa Coffee"
      }
    },
    {
      "type": "node",
      "id": 2343560266,
      "lat": 12.9124334,
      "lon": 77.6812577,
      "tags": {
        "name": "Foodworld",
        "shop": "department_store"
      }
    },
    {
      "type": "node",
      "id": 2387363851,
      "lat": 12.9146193,
      "lon": 77.6850829,
      "tags": {
        "amenity": "fountain"
      }
    },
    {
      "type": "node",
      "id": 2387535686,
      "lat": 12.9135264,
      "lon": 77.6862251,
      "tags": {
        "leisure": "swimming_pool",
        "sport": "swimming"
      }
    },
    {
      "type": "node",
      "id": 2412375538,
      "lat": 12.9261989,
      "lon": 77.6835446,
      "tags": {
        "amenity": "bicycle_parking",
        "bicycle_parking": "informal",
        "covered": "yes"
      }
    },
    {
      "type": "node",
      "id": 2412916687,
      "lat": 12.928883,
      "lon": 77.6870083,
      "tags": {
        "leisure": "sports_centre",
        "sport": "tennis"
      }
    },
    {
      "type": "node",
      "id": 2413651826,
      "lat": 12.9230055,
      "lon": 77.681696,
      "tags": {
        "amenity": "parking_entrance",
        "parking": "underground"
      }
    },
    {
      "type": "node",
      "id": 2413651828,
      "lat": 12.922034,
      "lon": 77.6815582,
      "tags": {
        "amenity": "bicycle_parking"
      }
    },
    {
      "type": "node",
      "id": 2416036195,
      "lat": 12.9135286,
      "lon": 77.6851033,
      "tags": {
        "amenity": "atm",
        "brand": "Citibank",
        "brand:wikidata": "Q857063",
        "operator": "Citibank",
        "operator:wikidata": "Q857063",
        "short_name": "Citi"
      }
    },
    {
      "type": "node",
      "id": 2416036200,
      "lat": 12.9147495,
      "lon": 77.6843442,
      "tags": {
        "amenity": "atm",
        "brand": "Axis Bank",
        "brand:wikidata": "Q2003549",
        "operator": "Axis Bank",
        "operator:wikidata": "Q2003549"
      }
    },
    {
      "type": "node",
      "id": 2416036211,
      "lat": 12.9147548,
      "lon": 77.6844059,
      "tags": {
        "amenity": "atm",
        "brand": "HDFC Bank",
        "brand:wikidata": "Q631047",
        "brand:wikipedia": "en:HDFC Bank",
        "name": "HDFC Bank",
        "operator": "HDFC Bank",
        "operator:wikidata": "Q631047",
        "operator:wikipedia": "en:HDFC Bank",
        "short_name": "HDFC"
      }
    },
    {
      "type": "node",
      "id": 2417260828,
      "lat": 12.9141005,
      "lon": 77.6865724,
      "tags": {
        "amenity": "theatre"
      }
    },
    {
      "type": "node",
      "id": 2509413024,
      "lat": 12.9141805,
      "lon": 77.6777437,
      "tags": {
        "amenity": "post_office",
        "brand": "Desk to Desk Courier & Cargo",
        "brand:short": "DTDC",
        "brand:wikidata": "Q55608802",
        "name": "DTDC Courier",
        "operator": "Desk to Desk Courier & Cargo",
        "operator:short": "DTDC",
        "operator:wikidata": "Q55608802",
        "post_office": "post_annex",
        "post_office:brand": "DTDC"
      }
    },
    {
      "type": "node",
      "id": 2623077569,
      "lat": 12.9228223,
      "lon": 77.6730622,
      "tags": {
        "name": "G-Mart now VILLAGE",
        "opening_hours": "Mo-Th,Sa 08:00-21:30",
        "shop": "supermarket"
      }
    },
    {
      "type": "node",
      "id": 3080231329,
      "lat": 12.9129239,
      "lon": 77.6804146,
      "tags": {
        "addr:housename": "Shivganga Complex",
        "addr:housenumber": "65/1C",
        "addr:postcode": "560035",
        "addr:street": "Sarjapur Road",
        "designation": "Salon for Ladies",
        "name": "Lakme Salon",
        "shop": "hairdresser",
        "source": "Survey",
        "website": "https://lakmeindia.com/lakme-salon"
      }
    },
    {
      "type": "node",
      "id": 3170077781,
      "lat": 12.9224971,
      "lon": 77.668466,
      "tags": {
        "air_conditioning": "yes",
        "amenity": "cafe",
        "brand": "Chai Point",
        "brand:wikidata": "Q28173415",
        "check_date": "2025-05-31",
        "cuisine": "coffee_shop",
        "diet:vegetarian": "yes",
        "indoor_seating": "yes",
        "level": "0",
        "name": "Chai Point",
        "outdoor_seating": "no",
        "payment:cash": "yes",
        "payment:mastercard": "yes",
        "payment:visa": "yes",
        "smoking": "no",
        "takeaway": "yes"
      }
    },
    {
      "type": "node",
      "id": 3170077787,
      "lat": 12.9224521,
      "lon": 77.6683425,
      "tags": {
        "amenity": "bank",
        "atm": "yes",
        "branch": "Bellandur",
        "brand": "Axis Bank",
        "brand:wikidata": "Q2003549",
        "brand:wikipedia": "en:Axis Bank",
        "check_date": "2025-01-31",
        "level": "0",
        "name": "Axis Bank",
        "operator": "Axis Bank",
        "operator:wikidata": "Q2003549",
        "operator:wikipedia": "en:Axis Bank"
      }
    },
    {
      "type": "node",
      "id": 3192677605,
      "lat": 12.9225149,
      "lon": 77.6683106,
      "tags": {
        "check_date": "2025-04-06",
        "name": "Lakme Salon",
        "operator": "Lakme",
        "shop": "beauty"
      }
    },
    {
      "type": "node",
      "id": 3192677613,
      "lat": 12.9224984,
      "lon": 77.6684069,
      "tags": {
        "leisure": "sports_centre",
        "level": "1",
        "name": "Fitness Republic"
      }
    },
    {
      "type": "node",
      "id": 3192692777,
      "lat": 12.9225541,
      "lon": 77.6685693,
      "tags": {
        "name": "Tilia",
        "phone": "+91809590160160",
        "shop": "florist",
        "website": "https://www.tilia.in/"
      }
    },
    {
      "type": "node",
      "id": 3220541198,
      "lat": 12.9131399,
      "lon": 77.6799856,
      "tags": {
        "amenity": "bank",
        "atm": "yes",
        "brand": "South Indian Bank",
        "brand:wikidata": "Q2044973",
        "name": "South Indian Bank",
        "operator": "South Indian Bank",
        "source": "survey"
      }
    },
    {
      "type": "node",
      "id": 3255140842,
      "lat": 12.9146755,
      "lon": 77.6761436,
      "tags": {
        "amenity": "bank",
        "brand": "ICICI Bank",
        "brand:wikidata": "Q1653258",
        "brand:wikipedia": "en:ICICI Bank",
        "name": "ICICI Bank",
        "name:en": "ICICI Bank",
        "name:kn": "ಐಸಿಐಸಿಐ ಬ್ಯಾಂಕು",
        "short_name": "ICICI",
        "website": "https://www.icicibank.com"
      }
    },
    {
      "type": "node",
      "id": 3255140843,
      "lat": 12.9146892,
      "lon": 77.67611,
      "tags": {
        "amenity": "atm",
        "brand": "ICICI Bank",
        "brand:wikidata": "Q1653258",
        "brand:wikipedia": "en:ICICI Bank",
        "name": "ICICI Bank",
        "name:kn": "ಐಸಿಐಸಿಐ ಬ್ಯಾಂಕು",
        "operator": "ICICI Bank",
        "operator:wikidata": "Q1653258",
        "operator:wikipedia": "en:ICICI Bank",
        "short_name": "ICICI"
      }
    },
    {
      "type": "node",
      "id": 3255146520,
      "lat": 12.9147042,
      "lon": 77.6760561,
      "tags": {
        "amenity": "cafe",
        "name": "Dosa Time",
        "opening_hours": "16:00-22:00"
      }
    },
    {
      "type": "node",
      "id": 3255146521,
      "lat": 12.9147382,
      "lon": 77.6760668,
      "tags": {
        "amenity": "cafe",
        "cuisine": "juice",
        "name": "Juice"
      }
    },
    {
      "type": "node",
      "id": 3255146522,
      "lat": 12.9147905,
      "lon": 77.6760749,
      "tags": {
        "amenity": "cafe",
        "name": "Chat & More"
      }
    },
    {
      "type": "node",
      "id": 3255176718,
      "lat": 12.9146917,
      "lon": 77.6760958,
      "tags": {
        "amenity": "restaurant",
        "delivery": "yes",
        "level": "5",
        "name": "Blue Rock's Fusion Restaurant and Bar",
        "phone": "+9108951795558"
      }
    },
    {
      "type": "node",
      "id": 3369494573,
      "lat": 12.9225179,
      "lon": 77.6697123,
      "tags": {
        "name": "Super Battery Center",
        "note": "Sales and service for car batteries",
        "shop": "car_parts"
      }
    },
    {
      "type": "node",
      "id": 3369498734,
      "lat": 12.9224937,
      "lon": 77.6696672,
      "tags": {
        "name": "Super Tyre Center",
        "note": "Repairs punctures and sells new tyres",
        "shop": "tyres",
        "wheelchair": "yes"
      }
    },
    {
      "type": "node",
      "id": 3540944743,
      "lat": 12.9255448,
      "lon": 77.6762576,
      "tags": {
        "amenity": "restaurant",
        "cuisine": "regional",
        "name": "Mast Kalandar",
        "name:kn": "ಮಸ್ತ್ ಕಲಂದರ್"
      }
    },
    {
      "type": "node",
      "id": 3760054035,
      "lat": 12.9184735,
      "lon": 77.670746,
      "tags": {
        "name": "Little Sparrows",
        "shop": "baby_goods"
      }
    },
    {
      "type": "node",
      "id": 3760054036,
      "lat": 12.9184623,
      "lon": 77.6708087,
      "tags": {
        "level": "1",
        "name": "Band Box",
        "shop": "dry_cleaning"
      }
    },
    {
      "type": "node",
      "id": 3760064976,
      "lat": 12.9184997,
      "lon": 77.670797,
      "tags": {
        "shop": "hardware"
      }
    },
    {
      "type": "node",
      "id": 3760065158,
      "lat": 12.9185551,
      "lon": 77.6704667,
      "tags": {
        "addr:city": "Bengaluru",
        "amenity": "restaurant",
        "cuisine": "chinese",
        "delivery": "yes",
        "level": "1",
        "name": "Beijing Bites",
        "name:kn": "ಬೀಜಿಂಗ್ ಬೈಟ್ಸ್",
        "opening_hours": "Mo-Su 12:00-15:45,19:00-23:00",
        "outdoor_seating": "yes",
        "phone": "080 40932488",
        "smoking": "no",
        "takeaway": "no",
        "website": "https://beijingbites.com"
      }
    },
    {
      "type": "node",
      "id": 3760065159,
      "lat": 12.9185368,
      "lon": 77.6705297,
      "tags": {
        "level": "1",
        "name": "Naturals",
        "shop": "beauty"
      }
    },
    {
      "type": "node",
      "id": 3760066224,
      "lat": 12.9187904,
      "lon": 77.6698156,
      "tags": {
        "amenity": "dentist",
        "healthcare": "dentist",
        "level": "2",
        "name": "Ittina Welness"
      }
    },
    {
      "type": "node",
      "id": 3760067974,
      "lat": 12.9185394,
      "lon": 77.6705565,
      "tags": {
        "amenity": "clinic",
        "healthcare": "clinic",
        "level": "2,3",
        "name": "Nurture IVF",
        "note": "Specialty Women's Clinic and Fertility Center"
      }
    },
    {
      "type": "node",
      "id": 3760075526,
      "lat": 12.9187446,
      "lon": 77.6700335,
      "tags": {
        "level": "3",
        "name": "Uber Unisex salon & Med spa",
        "shop": "beauty"
      }
    },
    {
      "type": "node",
      "id": 3760079228,
      "lat": 12.9187877,
      "lon": 77.6697673,
      "tags": {
        "level": "3",
        "name": "Cloud 9 unisex salon",
        "shop": "beauty"
      }
    },
    {
      "type": "node",
      "id": 4343784990,
      "lat": 12.9137354,
      "lon": 77.6791295,
      "tags": {
        "check_date": "2025-02-26",
        "name": "Kodak Express",
        "shop": "photo"
      }
    },
    {
      "type": "node",
      "id": 4350026190,
      "lat": 12.9264609,
      "lon": 77.678263,
      "tags": {
        "amenity": "bank",
        "brand": "State Bank of India",
        "brand:wikidata": "Q1340361",
        "brand:wikipedia": "en:State Bank of India",
        "name": "State Bank of India",
        "name:kn": "ಭಾರತೀಯ ಸ್ಟೇಟ್ ಬ್ಯಾಂಕ್",
        "short_name": "SBI",
        "website": "https://www.sbi.co.in"
      }
    },
    {
      "type": "node",
      "id": 4440931106,
      "lat": 12.9124371,
      "lon": 77.6813917,
      "tags": {
        "addr:city": "Bangalore",
        "addr:housenumber": "No.7/1",
        "addr:postcode": "560035",
        "addr:street": "Sarjapur Road",
        "amenity": "hospital",
        "emergency": "yes",
        "name": "Dr Mohan Nursing Home",
        "phone": "+91-80-42119084"
      }
    },
    {
      "type": "node",
      "id": 4441670838,
      "lat": 12.9121008,
      "lon": 77.6820003,
      "tags": {
        "addr:city": "Bangalore",
        "addr:housenumber": "No. 65/1, 1st Floor",
        "addr:postcode": "560035",
        "addr:street": "Doddakannelli, Sarjapur Road",
        "amenity": "hospital",
        "healthcare:speciality": "general;dermatology;clinic",
        "name": "Naadi Ayurveda Center",
        "operator": "Kotakkal Arya Vaidyashala",
        "phone": "+91-9980016089"
      }
    },
    {
      "type": "node",
      "id": 4441692008,
      "lat": 12.9185476,
      "lon": 77.6708429,
      "tags": {
        "addr:city": "Bangalore",
        "addr:housenumber": "2nd Floor",
        "addr:postcode": "560035",
        "addr:street": "Chandra Mension, Bellandur, Sarjapur Main Road",
        "amenity": "clinic",
        "healthcare": "clinic",
        "name": "Sri Sai Dental & Medical Care",
        "phone": "+91-8041467774"
      }
    },
    {
      "type": "node",
      "id": 4441696317,
      "lat": 12.9188314,
      "lon": 77.6697997,
      "tags": {
        "addr:city": "Bangalore",
        "addr:housenumber": "No. 18/2A",
        "addr:postcode": "560102",
        "addr:street": "Ambalipura, Sarjapur Main Road",
        "amenity": "clinic",
        "healthcare": "clinic",
        "name": "Ittina Wellness Centre",
        "phone": "+91-80 4110 1898",
        "website": "https://www.ittinawellness.com/"
      }
    },
    {
      "type": "node",
      "id": 4441779908,
      "lat": 12.9142471,
      "lon": 77.6791715,
      "tags": {
        "addr:city": "Bangalore",
        "addr:housenumber": "#52",
        "addr:postcode": "560035",
        "addr:street": "Kaikondrahalli,Sarjapur main road,",
        "amenity": "clinic",
        "healthcare": "clinic",
        "name": "Vaatsalya Homeopathy Clinic",
        "phone": "+91-80 6741 7786"
      }
    },
    {
      "type": "node",
      "id": 4441796157,
      "lat": 12.919686,
      "lon": 77.6670282,
      "tags": {
        "addr:city": "Bengaluru",
        "addr:housenumber": "No. 5, 1st Floor,",
        "addr:postcode": "560103",
        "addr:street": "Bellandur Gate, Sarjapura Road",
        "amenity": "dentist",
        "healthcare": "dentist",
        "name": "32Smiles Multispecialty Dental clinic",
        "phone": "+91-93434 33222",
        "website": "https://www.32smilesdentalclinics.com/"
      }
    },
    {
      "type": "node",
      "id": 4441825260,
      "lat": 12.9192616,
      "lon": 77.668534,
      "tags": {
        "addr:city": "Bangalore",
        "addr:housenumber": "955",
        "addr:postcode": "560102",
        "addr:street": "Ambalipura, Sarjapura Road",
        "amenity": "dentist",
        "healthcare": "dentist",
        "name": "Aditi Dental Care",
        "phone": "+91-96119 80263",
        "website": "http://www.aditidentalcare.com/"
      }
    },
    {
      "type": "node",
      "id": 4441938603,
      "lat": 12.9122002,
      "lon": 77.6818637,
      "tags": {
        "addr:city": "bangaluru",
        "addr:housenumber": "65",
        "addr:postcode": "560035",
        "addr:street": "Sarjapur Main Rd, Kaikondrahalli",
        "amenity": "hospital",
        "name": "The Family Doctor & The Family Pharma",
        "phone": "+91-80 2574 6204",
        "website": "https://www.thefamilydoctor.co.in/"
      }
    },
    {
      "type": "node",
      "id": 4442597478,
      "lat": 12.9220379,
      "lon": 77.6720713,
      "tags": {
        "addr:city": "Bangalore",
        "addr:housenumber": "17/1",
        "addr:postcode": "560102",
        "addr:street": "ARB Complex, Ambalipura, Bellandur Gate, Bellandur Main Road Off Sarjapur Main Road",
        "amenity": "clinic",
        "name": "SK Eye and Skin Clinic",
        "phone": "+91-80 4121 4683",
        "website": "www.skeyeskin.com"
      }
    },
    {
      "type": "node",
      "id": 4443401779,
      "lat": 12.9209516,
      "lon": 77.6820594,
      "tags": {
        "addr:city": "BANGALORE",
        "addr:postcode": "560103",
        "addr:street": "\"Pritech Park, Bellandur,",
        "amenity": "cafe",
        "brand": "Cafe Coffee Day",
        "brand:wikidata": "Q5017235",
        "brand:wikipedia": "en:Café Coffee Day",
        "cuisine": "coffee_shop",
        "internet_access": "no",
        "name": "Cafe Coffee Day",
        "name:kn": "ಕಫೆ ಕಾಫಿ ಡೇ",
        "opening_hours": "09:00-23:00",
        "phone": "093423 93106",
        "smoking": "outside",
        "takeaway": "yes",
        "website": "https://www.cafecoffeeday.com/"
      }
    },
    {
      "type": "node",
      "id": 4443782275,
      "lat": 12.9236532,
      "lon": 77.6914948,
      "tags": {
        "addr:city": "Bengaluru",
        "addr:postcode": "560103",
        "addr:street": "Panathur, Chandana, Devarabisanahalli, Bellandur,",
        "amenity": "school",
        "name": "Government Higher Primary School Devarabisanahalli",
        "operator": "Panathur"
      }
    },
    {
      "type": "node",
      "id": 4445161707,
      "lat": 12.9264596,
      "lon": 77.6899124,
      "tags": {
        "addr:city": "Bengaluru",
        "addr:postcode": "560103",
        "addr:street": "Devarabisanahalli, Bellandur,",
        "amenity": "place_of_worship",
        "denomination": "hindu",
        "name": "Devarbeesanahalli Shanimandir",
        "religion": "hindu"
      }
    },
    {
      "type": "node",
      "id": 4487192697,
      "lat": 12.9184459,
      "lon": 77.67082,
      "tags": {
        "addr:city": "Bangalore",
        "addr:housenumber": "Shop No.#64, #351",
        "addr:postcode": "560035",
        "addr:street": "Sarjapur Road",
        "name": "Sports Planet",
        "phone": "099004 54672",
        "shop": "sports"
      }
    },
    {
      "type": "node",
      "id": 4488020513,
      "lat": 12.9188287,
      "lon": 77.6703171,
      "tags": {
        "addr:city": "Bangalore",
        "addr:housenumber": "No.629,18/2 A",
        "addr:postcode": "560034",
        "addr:street": "Sarjapur Road",
        "name": "Uber Med Spa And Style Lounge",
        "opening_hours": "10:00-20:30",
        "phone": "+919900941003",
        "shop": "massage",
        "website": "www.uber.co.in"
      }
    },
    {
      "type": "node",
      "id": 4488023193,
      "lat": 12.9189071,
      "lon": 77.6699805,
      "tags": {
        "addr:city": "Bangalore",
        "addr:housenumber": "No.629",
        "addr:postcode": "560034",
        "addr:street": "Sarjapur Road",
        "name": "Cloud Nine Beauty Salon",
        "opening_hours": "08:00-21:00",
        "phone": "+919901111264",
        "shop": "beauty"
      }
    },
    {
      "type": "node",
      "id": 4489728550,
      "lat": 12.9225142,
      "lon": 77.6683721,
      "tags": {
        "addr:city": "Bangalore",
        "addr:postcode": "560034",
        "addr:street": "Outer Ring Road",
        "name": "Jawed Habib Hair And Beauty Parlour",
        "opening_hours": "10:00-20:00",
        "phone": "080-33724205",
        "shop": "beauty"
      }
    },
    {
      "type": "node",
      "id": 4489731479,
      "lat": 12.9119761,
      "lon": 77.6826261,
      "tags": {
        "addr:city": "Bangalore",
        "addr:housenumber": "No.17/1,1st Floor",
        "addr:postcode": "560035",
        "addr:street": "Sarjapur - Marathahalli Rd, near WIPRO Corporate Office, Doddakannelli",
        "beauty": "hair;spa",
        "branch": "Unisex Salon And Spa",
        "brand": "Naturals",
        "brand:wikidata": "Q125728261",
        "name": "Naturals",
        "opening_hours": "10:00-21:00",
        "phone": "080-39628871",
        "shop": "beauty",
        "website": "https://naturals.in/"
      }
    },
    {
      "type": "node",
      "id": 4489906630,
      "lat": 12.9125801,
      "lon": 77.6811827,
      "tags": {
        "addr:city": "Bangalore",
        "addr:housenumber": "No 65/1a,Benaka Complex,1st Floor",
        "addr:postcode": "560035",
        "addr:street": "Sarjapur Main Road,Above Axis Bank, Kaikondrahalli",
        "name": "Chispa The Spa and Salon Unisex",
        "opening_hours": "11:00-21:00",
        "phone": "9845387687",
        "shop": "beauty"
      }
    },
    {
      "type": "node",
      "id": 4489910335,
      "lat": 12.9228336,
      "lon": 77.6731286,
      "tags": {
        "addr:city": "Bangalore",
        "addr:housenumber": "Kothandaraman Complex",
        "addr:postcode": "560103",
        "addr:street": "Bellandur Main Road, Bellandur,",
        "name": "Style in 7 Wella",
        "opening_hours": "09:00-21:00",
        "phone": "9148100961",
        "shop": "beauty"
      }
    },
    {
      "type": "node",
      "id": 4604104455,
      "lat": 12.9119481,
      "lon": 77.6825558,
      "tags": {
        "addr:city": "Bangalore",
        "addr:postcode": "560035",
        "addr:street": "Sarjapur - Marathahalli Rd, near WIPRO Corporate Office, Doddakannelli",
        "leisure": "fitness_centre",
        "name": "Snap Fitness",
        "sport": "gymnasium"
      }
    },
    {
      "type": "node",
      "id": 4739613826,
      "lat": 12.9129312,
      "lon": 77.6802845,
      "tags": {
        "amenity": "cafe",
        "brand": "Chai Point",
        "brand:wikidata": "Q28173415",
        "cuisine": "coffee_shop",
        "name": "Chai Point",
        "name:en": "Chai Point",
        "takeaway": "yes"
      }
    },
    {
      "type": "node",
      "id": 5004789373,
      "lat": 12.9140663,
      "lon": 77.6778241,
      "tags": {
        "addr:city": "Bangalore",
        "addr:housenumber": "Site No. 16 , Sy No. 69 , Katha No. 697 , Kaikondanahalli",
        "addr:postcode": "560035",
        "addr:street": "Sarjapur Road",
        "level": "1-2",
        "name": "Adishwar Electroworld",
        "opening_hours": "Mo-Su",
        "shop": "electronics",
        "source": "http://www.adishwarestore.com/content.aspx?pgid=44675"
      }
    },
    {
      "type": "node",
      "id": 5004794573,
      "lat": 12.9143618,
      "lon": 77.6773104,
      "tags": {
        "addr:housenumber": "Ground Floor, Bren (SJR) Celestia, Kaikondra Halli,",
        "addr:postcode": "560035",
        "addr:street": "Sarjapur Road",
        "name": "TATA Motors",
        "name:kn": "ರಿಲಾಯನ್ಸ್ ಡಿಜಿಟಲ್",
        "operator": "Reliance",
        "phone": "+91 80 2574 1142",
        "shop": "car"
      }
    },
    {
      "type": "node",
      "id": 5004808060,
      "lat": 12.9146653,
      "lon": 77.6761779,
      "tags": {
        "addr:city": "Bengaluru",
        "addr:postcode": "560035",
        "addr:street": "Sarjapur Road",
        "amenity": "ice_cream",
        "brand": "Cold Stone Creamery",
        "brand:wikidata": "Q1094923",
        "cuisine": "ice_cream",
        "name": "Cold Stone Creamery",
        "outdoor_seating": "no",
        "takeaway": "yes",
        "wheelchair": "no"
      }
    },
    {
      "type": "node",
      "id": 5019222883,
      "lat": 12.9143222,
      "lon": 77.6774803,
      "tags": {
        "addr:city": "Bangalore",
        "addr:postcode": "560035",
        "addr:street": "Sarjapur Road",
        "amenity": "bank",
        "brand": "Kotak Mahindra Bank",
        "brand:wikidata": "Q2040404",
        "brand:wikipedia": "en:Kotak Mahindra Bank",
        "name": "Kotak Mahindra Bank",
        "name:kn": "ಕೋಟಕ್ ಮಹಿಂದ್ರ ಬ್ಯಾಂಕ್",
        "operator": "Kotak Mahindra Bank"
      }
    },
    {
      "type": "node",
      "id": 5239910787,
      "lat": 12.9124446,
      "lon": 77.6811861,
      "tags": {
        "amenity": "atm",
        "brand": "State Bank of India",
        "brand:wikidata": "Q1340361",
        "check_date": "2022-06-30",
        "currency:INR": "yes",
        "drive_through": "no",
        "operator": "State Bank of India",
        "operator:wikidata": "Q1340361",
        "short_name": "SBI"
      }
    },
    {
      "type": "node",
      "id": 5239912971,
      "lat": 12.9131753,
      "lon": 77.6798732,
      "tags": {
        "name": "i-Gate Optics",
        "shop": "optician"
      }
    },
    {
      "type": "node",
      "id": 5536129478,
      "lat": 12.9311048,
      "lon": 77.6937955,
      "tags": {
        "amenity": "smoking_area",
        "bench": "yes",
        "bin": "yes",
        "shelter": "yes"
      }
    },
    {
      "type": "node",
      "id": 5774305372,
      "lat": 12.9120759,
      "lon": 77.6826513,
      "tags": {
        "addr:city": "Bangalore",
        "addr:housenumber": "No - 254",
        "addr:postcode": "560035",
        "addr:street": "Sarjapur - Marathahalli Rd, near WIPRO Corporate Office, Doddakannelli",
        "amenity": "restaurant",
        "cuisine": "Andhra;indian",
        "delivery": "yes",
        "name": "Vandana",
        "outdoor_seating": "no",
        "smoking": "no",
        "takeaway": "yes"
      }
    },
    {
      "type": "node",
      "id": 5778535535,
      "lat": 12.9200913,
      "lon": 77.6670747,
      "tags": {
        "name": "Louise Philip",
        "opening_hours": "Mo-Su 10:30-21:00",
        "phone": "080 88933969",
        "shop": "clothes",
        "website": "https://fabindia.com"
      }
    },
    {
      "type": "node",
      "id": 5778554420,
      "lat": 12.9192299,
      "lon": 77.6686508,
      "tags": {
        "amenity": "post_office",
        "brand": "Desk to Desk Courier & Cargo",
        "brand:short": "DTDC",
        "brand:wikidata": "Q55608802",
        "level": "-1",
        "name": "DTDC",
        "opening_hours": "Mo-Fr 09:00-20:00",
        "operator": "Desk to Desk Courier & Cargo",
        "operator:short": "DTDC",
        "operator:wikidata": "Q55608802",
        "website": "https://dtdc.com"
      }
    },
    {
      "type": "node",
      "id": 5797562422,
      "lat": 12.9132073,
      "lon": 77.6797975,
      "tags": {
        "amenity": "cafe",
        "name": "Chai World"
      }
    },
    {
      "type": "node",
      "id": 5797562423,
      "lat": 12.9131563,
      "lon": 77.6799249,
      "tags": {
        "amenity": "cafe",
        "brand": "Chai Point",
        "brand:wikidata": "Q28173415",
        "cuisine": "coffee_shop",
        "name": "Chai Point",
        "takeaway": "yes"
      }
    },
    {
      "type": "node",
      "id": 5803999911,
      "lat": 12.918758,
      "lon": 77.6699518,
      "tags": {
        "amenity": "bank",
        "atm": "yes",
        "brand": "State Bank of India",
        "brand:wikidata": "Q1340361",
        "brand:wikipedia": "en:State Bank of India",
        "drive_through": "no",
        "name": "State Bank of India",
        "name:kn": "ಭಾರತೀಯ ಸ್ಟೇಟ್ ಬ್ಯಾಂಕ್",
        "opening_hours": "Mo-Sa 10:00-16:00",
        "short_name": "SBI"
      }
    },
    {
      "type": "node",
      "id": 5804561676,
      "lat": 12.9119288,
      "lon": 77.6823373,
      "tags": {
        "amenity": "restaurant",
        "brand": "California Burrito",
        "brand:wikidata": "Q124374596",
        "cuisine": "mexican",
        "name": "California Burrito"
      }
    },
    {
      "type": "node",
      "id": 5807148430,
      "lat": 12.9187238,
      "lon": 77.6701231,
      "tags": {
        "brand": "Simpli Namdhari's",
        "diet:vegetarian": "only",
        "name": "Simpli Namdhari's",
        "organic": "only",
        "shop": "supermarket",
        "website": "https://www.simplinamdharis.com/"
      }
    },
    {
      "type": "node",
      "id": 5807148431,
      "lat": 12.9187002,
      "lon": 77.6701646,
      "tags": {
        "amenity": "cafe",
        "brand": "Cafe Coffee Day",
        "brand:wikidata": "Q5017235",
        "brand:wikipedia": "en:Café Coffee Day",
        "cuisine": "coffee_shop",
        "name": "Cafe Coffee Day",
        "name:kn": "ಕಫೆ ಕಾಫಿ ಡೇ",
        "takeaway": "yes"
      }
    },
    {
      "type": "node",
      "id": 5960343238,
      "lat": 12.9140759,
      "lon": 77.677767,
      "tags": {
        "brand": "Kanti Sweets",
        "name": "Kanti Sweets",
        "shop": "confectionery"
      }
    },
    {
      "type": "node",
      "id": 5961174122,
      "lat": 12.9125709,
      "lon": 77.6814162,
      "tags": {
        "amenity": "restaurant",
        "name": "South Inn",
        "name:kn": "ಸೌತ್ ಇನ್"
      }
    },
    {
      "type": "node",
      "id": 5961186753,
      "lat": 12.9130752,
      "lon": 77.6801477,
      "tags": {
        "name": "Lu Lu Fashion",
        "shop": "clothes"
      }
    },
    {
      "type": "node",
      "id": 5961355534,
      "lat": 12.9180423,
      "lon": 77.6715538,
      "tags": {
        "name": "Aiswarya Bakery and Sweets",
        "shop": "bakery"
      }
    },
    {
      "type": "node",
      "id": 5961386421,
      "lat": 12.913011,
      "lon": 77.6802694,
      "tags": {
        "amenity": "ice_cream",
        "brand": "Naturals",
        "brand:wikidata": "Q24439154",
        "cuisine": "ice_cream",
        "name": "Naturals",
        "wheelchair": "limited"
      }
    },
    {
      "type": "node",
      "id": 5961387631,
      "lat": 12.9119248,
      "lon": 77.6826231,
      "tags": {
        "addr:city": "Bangalore",
        "addr:housenumber": "No - 254",
        "addr:postcode": "560035",
        "addr:street": "Sarjapur - Marathahalli Rd, near WIPRO Corporate Office, Doddakannelli",
        "name": "Natutals",
        "shop": "hairdresser"
      }
    },
    {
      "type": "node",
      "id": 5963686436,
      "lat": 12.92371,
      "lon": 77.6760295,
      "tags": {
        "name": "Sri Venkateshwara Bakery",
        "shop": "bakery"
      }
    },
    {
      "type": "node",
      "id": 6076100927,
      "lat": 12.921855,
      "lon": 77.6719953,
      "tags": {
        "amenity": "cafe",
        "name:en": "Udupi Saviruchi"
      }
    },
    {
      "type": "node",
      "id": 6076101984,
      "lat": 12.921609,
      "lon": 77.6719359,
      "tags": {
        "amenity": "bank"
      }
    },
    {
      "type": "node",
      "id": 6204931244,
      "lat": 12.9186447,
      "lon": 77.6707111,
      "tags": {
        "amenity": "restaurant",
        "name": "Moritz"
      }
    },
    {
      "type": "node",
      "id": 6205511628,
      "lat": 12.9106355,
      "lon": 77.6855229,
      "tags": {
        "amenity": "fast_food",
        "brand": "Burger King",
        "brand:pa": "ਬਰਗਰ ਕਿੰਗ",
        "brand:ur": "برگر کنگ",
        "brand:wikidata": "Q177054",
        "brand:wikipedia": "en:Burger King",
        "brand:wikipedia:pa": "ਬਰਗਰ ਕਿੰਗ",
        "brand:wikipedia:ur": "برگر کنگ",
        "check_date": "2024-07-10",
        "cuisine": "burger",
        "drive_through": "no",
        "level": "0",
        "name": "Burger King",
        "name:pa": "ਬਰਗਰ ਕਿੰਗ",
        "name:ru": "Бургер Кинг",
        "name:ur": "برگر کنگ",
        "payment:cash": "yes",
        "payment:credit_cards": "yes",
        "payment:debit_cards": "yes",
        "takeaway": "yes",
        "wheelchair": "yes"
      }
    },
    {
      "type": "node",
      "id": 6569023743,
      "lat": 12.9310262,
      "lon": 77.691147,
      "tags": {
        "addr:city": "Bengaluru",
        "addr:country": "IN",
        "addr:hamlet": "Embassy Tech Village",
        "addr:housename": "Block L",
        "addr:postcode": "560103",
        "addr:street": "Outer Ring Road",
        "addr:suburb": "Bellandur",
        "amenity": "coworking_space",
        "brand": "WeWork",
        "brand:wikidata": "Q19995004",
        "fee": "yes",
        "name": "WeWork",
        "office": "coworking",
        "operator": "WeWork",
        "website": "https://www.wework.com/buildings/embassy-techvillage--bengaluru--Karnataka"
      }
    },
    {
      "type": "node",
      "id": 6761308488,
      "lat": 12.9255829,
      "lon": 77.6762661,
      "tags": {
        "addr:postcode": "560103",
        "addr:street": "Bellandur Main Road",
        "amenity": "restaurant",
        "cuisine": "indian",
        "indoor_seating": "yes",
        "name": "Udupi Athithiya",
        "outdoor_seating": "yes"
      }
    },
    {
      "type": "node",
      "id": 7074451473,
      "lat": 12.9201051,
      "lon": 77.6668315,
      "tags": {
        "addr:city": "Bengaluru",
        "addr:housenumber": "Shop No. 4/3/1",
        "addr:postcode": "560102",
        "addr:street": "Opp Trinity Acres and Woods, Sarjapur Main Rd, Bellandur",
        "name": "Cycle World",
        "opening_hours": "Mo-Su 10:00-21:00",
        "operator": "Cycle World",
        "payment:cash": "yes",
        "payment:mastercard": "yes",
        "payment:visa_debit": "yes",
        "shop": "bicycle"
      }
    },
    {
      "type": "node",
      "id": 7085477838,
      "lat": 12.9107458,
      "lon": 77.6856277,
      "tags": {
        "amenity": "pub",
        "check_date": "2024-07-10",
        "diet:halal": "yes",
        "diet:vegetarian": "yes",
        "level": "3;4",
        "microbrewery": "yes",
        "name": "Aurum Brew Works",
        "payment:cash": "yes",
        "payment:credit_cards": "yes",
        "payment:debit_cards": "yes",
        "smoking": "isolated",
        "source": "survey",
        "toilets": "yes"
      }
    },
    {
      "type": "node",
      "id": 7085481627,
      "lat": 12.9106077,
      "lon": 77.6856651,
      "tags": {
        "brand": "Theobroma",
        "check_date": "2024-07-10",
        "delivery": "yes",
        "level": "0",
        "name": "Theobroma",
        "payment:cash": "yes",
        "payment:credit_cards": "yes",
        "payment:debit_cards": "yes",
        "shop": "pastry",
        "takeaway": "yes",
        "wheelchair": "yes"
      }
    },
    {
      "type": "node",
      "id": 7479631345,
      "lat": 12.9169837,
      "lon": 77.6909772,
      "tags": {
        "access": "private",
        "amenity": "parking_entrance"
      }
    },
    {
      "type": "node",
      "id": 8187964045,
      "lat": 12.9103991,
      "lon": 77.686055,
      "tags": {
        "addr:full": "Delta Signature 83, Nxt to Wipro Corp Office, 3, Sarjapur Main Rd, Doddakannelli, Bengaluru, Karnataka",
        "addr:state": "Karnataka",
        "amenity": "bank",
        "brand": "HDFC Bank",
        "brand:wikidata": "Q631047",
        "name": "HDFC Bank",
        "name:kn": "ಎಚ್ ಡಿ ಎಫ್ ಸಿ",
        "short_name": "HDFC"
      }
    },
    {
      "type": "node",
      "id": 9277677272,
      "lat": 12.9206192,
      "lon": 77.6851649,
      "tags": {
        "name": "Magnolia Bakery",
        "shop": "bakery"
      }
    },
    {
      "type": "node",
      "id": 9277677273,
      "lat": 12.9202896,
      "lon": 77.6851603,
      "tags": {
        "amenity": "cafe",
        "brand": "Starbucks",
        "brand:pa": "ਸਟਾਰਬਕਸ",
        "brand:ur": "اسٹاربکس",
        "brand:wikidata": "Q37158",
        "brand:wikipedia": "en:Starbucks",
        "cuisine": "coffee_shop",
        "name": "Starbucks",
        "name:pa": "ਸਟਾਰਬਕਸ",
        "name:ur": "اسٹاربکس",
        "official_name": "Starbucks Coffee",
        "official_name:pa": "ਸਟਾਰਬਕਸ ਕੌਫੀ",
        "official_name:ur": "اسٹاربکس کافی",
        "takeaway": "yes"
      }
    },
    {
      "type": "node",
      "id": 9277677274,
      "lat": 12.9201768,
      "lon": 77.6851536,
      "tags": {
        "amenity": "restaurant",
        "brand": "The Pizza Bakery",
        "brand:wikidata": "Q124374570",
        "cuisine": "pizza",
        "delivery": "yes",
        "name": "The Pizza Bakery",
        "takeaway": "yes"
      }
    },
    {
      "type": "node",
      "id": 9277677275,
      "lat": 12.9206651,
      "lon": 77.6843281,
      "tags": {
        "addr:city": "Bangalore",
        "addr:country": "IN",
        "addr:place": "The Bay, Ecoworld",
        "addr:suburb": "Bellandur",
        "amenity": "restaurant",
        "contact:facebook": "nasiandmee",
        "contact:instagram": "nasiandmee",
        "cuisine": "asian",
        "delivery": "yes",
        "name": "Nasi and Mee",
        "official_name": "Nasi and Mee Asian Canteen",
        "outdoor_seating": "yes",
        "takeaway": "yes",
        "website": "https://www.nasiandmee.co.in/"
      }
    },
    {
      "type": "node",
      "id": 9277677276,
      "lat": 12.9201786,
      "lon": 77.6843019,
      "tags": {
        "amenity": "restaurant",
        "cuisine": "indian",
        "diet:non-vegetarian": "yes",
        "diet:vegetarian": "yes",
        "name": "Bombay Brasserie"
      }
    },
    {
      "type": "node",
      "id": 9649419315,
      "lat": 12.9201745,
      "lon": 77.6845032,
      "tags": {
        "amenity": "restaurant",
        "brand": "Chili's",
        "brand:wikidata": "Q1072948",
        "cuisine": "tex-mex",
        "name": "Chili's",
        "official_name": "Chili's Grill & Bar"
      }
    },
    {
      "type": "node",
      "id": 9649419316,
      "lat": 12.9206464,
      "lon": 77.6848157,
      "tags": {
        "amenity": "cafe",
        "name": "Third Wave Coffee"
      }
    },
    {
      "type": "node",
      "id": 9649454217,
      "lat": 12.9203889,
      "lon": 77.6849417,
      "tags": {
        "amenity": "pub",
        "name": "The Irish House"
      }
    },
    {
      "type": "node",
      "id": 9649454218,
      "lat": 12.9201536,
      "lon": 77.684754,
      "tags": {
        "amenity": "restaurant",
        "brand": "Paris Panini",
        "brand:wikidata": "Q124374583",
        "cuisine": "panini",
        "delivery": "yes",
        "name": "Paris Panini",
        "takeaway": "yes"
      }
    },
    {
      "type": "node",
      "id": 9649454219,
      "lat": 12.9204987,
      "lon": 77.6851684,
      "tags": {
        "amenity": "cafe",
        "brand": "Chaayos",
        "brand:wikidata": "Q117235235",
        "cuisine": "tea",
        "name": "Chaayos",
        "takeaway": "yes"
      }
    },
    {
      "type": "node",
      "id": 9781262368,
      "lat": 12.9250932,
      "lon": 77.6947328,
      "tags": {
        "name": "New Classic Mens Saloon",
        "shop": "hairdresser"
      }
    },
    {
      "type": "node",
      "id": 9784518328,
      "lat": 12.913795,
      "lon": 77.679036,
      "tags": {
        "brand": "Adidas Originals",
        "brand:wikidata": "Q4682711",
        "clothes": "sports",
        "name": "Adidas Originals",
        "shop": "clothes"
      }
    },
    {
      "type": "node",
      "id": 9819692887,
      "lat": 12.9258733,
      "lon": 77.6947064,
      "tags": {
        "amenity": "restaurant",
        "cuisine": "biryani",
        "name": "Ambur Dum Biryani"
      }
    },
    {
      "type": "node",
      "id": 9819692889,
      "lat": 12.9247414,
      "lon": 77.6945894,
      "tags": {
        "amenity": "restaurant",
        "diet:vegetarian": "yes",
        "name": "Sri Udupi Veg"
      }
    },
    {
      "type": "node",
      "id": 9819692890,
      "lat": 12.9249166,
      "lon": 77.694398,
      "tags": {
        "name": "Sri Ganesh Cycle Repair",
        "service:bicycle:repair": "yes",
        "shop": "bicycle"
      }
    },
    {
      "type": "node",
      "id": 9824050828,
      "lat": 12.9191953,
      "lon": 77.6965268,
      "tags": {
        "addr:city": "Bengaluru",
        "addr:district": "Bengaluru Urban",
        "addr:postcode": "560035",
        "addr:street": "Gear School road",
        "amenity": "restaurant",
        "cuisine": "indian;tapas;tea",
        "diet:vegetarian": "yes",
        "indoor_seating": "yes",
        "name": "Taste Indies",
        "outdoor_seating": "yes"
      }
    },
    {
      "type": "node",
      "id": 9830902373,
      "lat": 12.919159,
      "lon": 77.6688467,
      "tags": {
        "air_conditioning": "yes",
        "brand": "Reliance Digital",
        "brand:wikidata": "Q7311012",
        "check_date": "2025-02-12",
        "name": "Reliance Digital",
        "payment:cash": "yes",
        "payment:mastercard": "yes",
        "payment:visa": "yes",
        "second_hand": "no",
        "shop": "electronics",
        "source": "survey"
      }
    },
    {
      "type": "node",
      "id": 9830902374,
      "lat": 12.9192999,
      "lon": 77.6689075,
      "tags": {
        "brand": "Big Bazaar",
        "brand:wikidata": "Q3631008",
        "brand:wikipedia": "en:Big Bazaar",
        "name": "Big Bazaar",
        "name:kn": "ಬಿಗ್ ಬಜಾರ್",
        "opening_hours": "Mo-Su 10:00-20:00",
        "payment:cash": "yes",
        "payment:credit_cards": "yes",
        "payment:visa": "yes",
        "phone": "07795976949",
        "shop": "supermarket",
        "website": "https://bigbazaar.in"
      }
    },
    {
      "type": "node",
      "id": 9830902380,
      "lat": 12.920196,
      "lon": 77.6670676,
      "tags": {
        "amenity": "restaurant",
        "cuisine": "italian",
        "name": "Little Italy"
      }
    },
    {
      "type": "node",
      "id": 9842001441,
      "lat": 12.9260899,
      "lon": 77.6947257,
      "tags": {
        "name": "Spin Cycles",
        "shop": "laundry",
        "website": "https://spincycles.in"
      }
    },
    {
      "type": "node",
      "id": 9842001446,
      "lat": 12.9248906,
      "lon": 77.6947593,
      "tags": {
        "amenity": "fast_food",
        "cuisine": "juice",
        "indoor_seating": "no",
        "name": "Sri Renukamba Juice and Condiments",
        "outdoor_seating": "no",
        "takeaway": "only"
      }
    },
    {
      "type": "node",
      "id": 10196255892,
      "lat": 12.9106393,
      "lon": 77.6855957,
      "tags": {
        "amenity": "restaurant",
        "name": "Kesar",
        "wheelchair": "yes"
      }
    },
    {
      "type": "node",
      "id": 10248454958,
      "lat": 12.9145272,
      "lon": 77.6773089,
      "tags": {
        "amenity": "bank",
        "check_date": "2023-10-08",
        "name": "Fincare Small Finance Bank"
      }
    },
    {
      "type": "node",
      "id": 10248454959,
      "lat": 12.914469,
      "lon": 77.6775091,
      "tags": {
        "addr:floor": "7",
        "amenity": "bar",
        "check_date": "2023-10-08",
        "level": "7",
        "microbrewery": "yes",
        "name": "Vapour",
        "outdoor_seating": "yes",
        "payment:mastercard": "yes",
        "payment:visa": "yes",
        "source": "survey"
      }
    },
    {
      "type": "node",
      "id": 10248469637,
      "lat": 12.9228551,
      "lon": 77.6757303,
      "tags": {
        "addr:housenumber": "Ground Floor",
        "addr:street": "Bellanduru Main Road",
        "male": "yes",
        "name": "Beardo",
        "opening_hours": "Mo-Su 09:00-21:00",
        "payment:cash": "yes",
        "payment:paytm": "yes",
        "shop": "hairdresser"
      }
    },
    {
      "type": "node",
      "id": 10248469638,
      "lat": 12.9229439,
      "lon": 77.6757363,
      "tags": {
        "amenity": "marketplace"
      }
    },
    {
      "type": "node",
      "id": 11034023532,
      "lat": 12.9213881,
      "lon": 77.6686263,
      "tags": {
        "amenity": "parking_entrance",
        "parking": "underground"
      }
    },
    {
      "type": "node",
      "id": 11034023534,
      "lat": 12.9217946,
      "lon": 77.6698299,
      "tags": {
        "amenity": "parking_entrance",
        "parking": "underground"
      }
    },
    {
      "type": "node",
      "id": 11232355617,
      "lat": 12.9218828,
      "lon": 77.6796525,
      "tags": {
        "access": "permissive",
        "amenity": "parking",
        "parking": "surface"
      }
    },
    {
      "type": "node",
      "id": 11232355771,
      "lat": 12.928063,
      "lon": 77.6923719,
      "tags": {
        "amenity": "food_court",
        "name": "K Block Cafeteria"
      }
    },
    {
      "type": "node",
      "id": 11232355776,
      "lat": 12.9274655,
      "lon": 77.6921904,
      "tags": {
        "amenity": "food_court",
        "name": "D Block Cafeteria"
      }
    },
    {
      "type": "node",
      "id": 11248323749,
      "lat": 12.9143124,
      "lon": 77.6774136,
      "tags": {
        "amenity": "bank",
        "brand": "IndusInd Bank",
        "brand:wikidata": "Q2040323",
        "check_date": "2023-10-08",
        "name": "IndusInd Bank",
        "name:kn": "ಇಂಡಸ್ಇಂಡ್"
      }
    },
    {
      "type": "node",
      "id": 11248323750,
      "lat": 12.9144877,
      "lon": 77.6774217,
      "tags": {
        "amenity": "bank",
        "brand": "HDFC Bank",
        "brand:wikidata": "Q631047",
        "check_date": "2023-10-08",
        "name": "HDFC Bank",
        "name:kn": "ಎಚ್ ಡಿ ಎಫ್ ಸಿ",
        "short_name": "HDFC",
        "wheelchair": "no"
      }
    },
    {
      "type": "node",
      "id": 11331558611,
      "lat": 12.9106885,
      "lon": 77.6855632,
      "tags": {
        "addr:floor": "2",
        "air_conditioning": "yes",
        "amenity": "restaurant",
        "check_date": "2024-09-08",
        "cuisine": "regional;indian",
        "diet:non-vegetarian": "yes",
        "diet:vegetarian": "yes",
        "level": "2",
        "name": "Masala Mandi",
        "payment:cash": "yes",
        "payment:credit_cards": "yes",
        "payment:debit_cards": "yes",
        "smoking": "no",
        "wheelchair": "yes"
      }
    },
    {
      "type": "node",
      "id": 11453105181,
      "lat": 12.9223751,
      "lon": 77.6682289,
      "tags": {
        "access": "customers",
        "amenity": "parking_entrance",
        "parking": "underground"
      }
    },
    {
      "type": "node",
      "id": 11473108147,
      "lat": 12.9299719,
      "lon": 77.6859289,
      "tags": {
        "amenity": "restaurant",
        "name": "Public Bar and Kitchen"
      }
    },
    {
      "type": "node",
      "id": 11524214918,
      "lat": 12.9214606,
      "lon": 77.6707259,
      "tags": {
        "access": "private",
        "amenity": "parking_entrance",
        "parking": "underground"
      }
    },
    {
      "type": "node",
      "id": 11524214924,
      "lat": 12.9214989,
      "lon": 77.6703679,
      "tags": {
        "access": "private",
        "amenity": "parking_entrance",
        "parking": "underground"
      }
    },
    {
      "type": "node",
      "id": 11535639641,
      "lat": 12.9234005,
      "lon": 77.6950845,
      "tags": {
        "amenity": "pharmacy",
        "brand": "Apollo Pharmacy",
        "brand:wikidata": "Q62562612",
        "check_date": "2024-01-21",
        "healthcare": "pharmacy",
        "name": "Apollo Pharmacy",
        "payment:cash": "yes",
        "payment:credit_cards": "yes",
        "payment:debit_cards": "yes",
        "source": "survey"
      }
    },
    {
      "type": "node",
      "id": 11535944274,
      "lat": 12.9319416,
      "lon": 77.6917676,
      "tags": {
        "access": "private",
        "amenity": "parking_entrance",
        "parking": "underground"
      }
    },
    {
      "type": "node",
      "id": 11543746959,
      "lat": 12.9190203,
      "lon": 77.6912114,
      "tags": {
        "amenity": "shelter",
        "shelter_type": "gazebo"
      }
    },
    {
      "type": "node",
      "id": 11543746960,
      "lat": 12.9180909,
      "lon": 77.6916727,
      "tags": {
        "amenity": "shelter",
        "shelter_type": "gazebo"
      }
    },
    {
      "type": "node",
      "id": 11543746961,
      "lat": 12.9190151,
      "lon": 77.6903424,
      "tags": {
        "amenity": "shelter",
        "shelter_type": "gazebo"
      }
    },
    {
      "type": "node",
      "id": 11543746962,
      "lat": 12.9182425,
      "lon": 77.6903598,
      "tags": {
        "amenity": "shelter",
        "shelter_type": "gazebo"
      }
    },
    {
      "type": "node",
      "id": 11543746963,
      "lat": 12.917687,
      "lon": 77.6898213,
      "tags": {
        "amenity": "shelter",
        "shelter_type": "gazebo"
      }
    },
    {
      "type": "node",
      "id": 11543746964,
      "lat": 12.9176946,
      "lon": 77.6895275,
      "tags": {
        "amenity": "shelter",
        "shelter_type": "gazebo"
      }
    },
    {
      "type": "node",
      "id": 11543746966,
      "lat": 12.9164962,
      "lon": 77.689881,
      "tags": {
        "amenity": "shelter",
        "shelter_type": "gazebo"
      }
    },
    {
      "type": "node",
      "id": 11543746967,
      "lat": 12.9160857,
      "lon": 77.6898985,
      "tags": {
        "amenity": "shelter",
        "shelter_type": "gazebo"
      }
    },
    {
      "type": "node",
      "id": 11543746968,
      "lat": 12.9159981,
      "lon": 77.6900674,
      "tags": {
        "amenity": "shelter",
        "shelter_type": "gazebo"
      }
    },
    {
      "type": "node",
      "id": 11543746969,
      "lat": 12.9162413,
      "lon": 77.6905958,
      "tags": {
        "amenity": "shelter",
        "shelter_type": "gazebo"
      }
    },
    {
      "type": "node",
      "id": 11543746970,
      "lat": 12.9157393,
      "lon": 77.6905368,
      "tags": {
        "amenity": "shelter",
        "shelter_type": "gazebo"
      }
    },
    {
      "type": "node",
      "id": 11543746971,
      "lat": 12.9155114,
      "lon": 77.6901058,
      "tags": {
        "amenity": "shelter",
        "shelter_type": "gazebo"
      }
    },
    {
      "type": "node",
      "id": 11548980361,
      "lat": 12.9305831,
      "lon": 77.6917143,
      "tags": {
        "amenity": "fountain"
      }
    },
    {
      "type": "node",
      "id": 11548980362,
      "lat": 12.9304054,
      "lon": 77.6921663,
      "tags": {
        "amenity": "fountain"
      }
    },
    {
      "type": "node",
      "id": 11553915189,
      "lat": 12.9202686,
      "lon": 77.6847942,
      "tags": {
        "amenity": "cafe",
        "name": "The Kind"
      }
    },
    {
      "type": "node",
      "id": 11553915190,
      "lat": 12.9205222,
      "lon": 77.6847821,
      "tags": {
        "amenity": "restaurant",
        "name": "Prequel"
      }
    },
    {
      "type": "node",
      "id": 11553915191,
      "lat": 12.9206869,
      "lon": 77.6851657,
      "tags": {
        "amenity": "ice_cream",
        "name": "Amadora"
      }
    },
    {
      "type": "node",
      "id": 11553915192,
      "lat": 12.9203967,
      "lon": 77.6851644,
      "tags": {
        "brand": "Theobroma",
        "delivery": "yes",
        "name": "Theobroma",
        "shop": "pastry",
        "takeaway": "yes"
      }
    },
    {
      "type": "node",
      "id": 11553915192,
      "lat": 12.9203967,
      "lon": 77.6851644,
      "tags": {
        "brand": "Theobroma",
        "delivery": "yes",
        "name": "Theobroma",
        "shop": "pastry",
        "takeaway": "yes"
      }
    },
    {
      "type": "node",
      "id": 11553915193,
      "lat": 12.9203248,
      "lon": 77.6843208,
      "tags": {
        "amenity": "restaurant",
        "brand": "Punjab Grill",
        "brand:wikidata": "Q124374761",
        "cuisine": "north_indian",
        "delivery": "yes",
        "name": "Punjab Grill",
        "takeaway": "yes"
      }
    },
    {
      "type": "node",
      "id": 11553915194,
      "lat": 12.9204307,
      "lon": 77.6843235,
      "tags": {
        "amenity": "restaurant",
        "name": "Lucky Chan"
      }
    },
    {
      "type": "node",
      "id": 11553915195,
      "lat": 12.9204033,
      "lon": 77.6846172,
      "tags": {
        "amenity": "pub",
        "craft": "brewery",
        "name": "Mannheim Craft Brewery"
      }
    },
    {
      "type": "node",
      "id": 11553915196,
      "lat": 12.9205196,
      "lon": 77.6843262,
      "tags": {
        "amenity": "restaurant",
        "brand": "Chinita",
        "brand:wikidata": "Q124374771",
        "cuisine": "mexican",
        "delivery": "yes",
        "name": "Chinita",
        "takeaway": "yes"
      }
    },
    {
      "type": "node",
      "id": 11553915197,
      "lat": 12.9206595,
      "lon": 77.6845273,
      "tags": {
        "amenity": "restaurant",
        "name": "Kampot"
      }
    },
    {
      "type": "node",
      "id": 11553915198,
      "lat": 12.9206386,
      "lon": 77.6849645,
      "tags": {
        "amenity": "restaurant",
        "brand": "Cafe Noir",
        "brand:wikidata": "Q124374751",
        "cuisine": "french",
        "delivery": "yes",
        "name": "Cafe Noir",
        "takeaway": "yes"
      }
    },
    {
      "type": "node",
      "id": 11553915199,
      "lat": 12.9206529,
      "lon": 77.6846507,
      "tags": {
        "amenity": "restaurant",
        "cuisine": "italian",
        "name": "Chianti"
      }
    },
    {
      "type": "node",
      "id": 11553915200,
      "lat": 12.9201458,
      "lon": 77.6849189,
      "tags": {
        "amenity": "restaurant",
        "name": "Sauce Code"
      }
    },
    {
      "type": "node",
      "id": 11553915201,
      "lat": 12.9201628,
      "lon": 77.6846279,
      "tags": {
        "amenity": "restaurant",
        "brand": "Adyar Ananda Bhavan",
        "brand:wikidata": "Q15178238",
        "name": "Adyar Ananda Bhavan",
        "name:kn": "ಆದ್ಯಾರ್ ಆನಂದ ಭವನ",
        "shop": "confectionery"
      }
    },
    {
      "type": "node",
      "id": 11553915255,
      "lat": 12.9217483,
      "lon": 77.6844093,
      "tags": {
        "access": "private",
        "amenity": "parking_entrance",
        "parking": "underground"
      }
    },
    {
      "type": "node",
      "id": 11553915260,
      "lat": 12.9224437,
      "lon": 77.6849243,
      "tags": {
        "access": "private",
        "amenity": "parking_entrance",
        "parking": "underground"
      }
    },
    {
      "type": "node",
      "id": 11553915288,
      "lat": 12.9262096,
      "lon": 77.6868139,
      "tags": {
        "access": "private",
        "amenity": "parking_entrance",
        "parking": "underground"
      }
    },
    {
      "type": "node",
      "id": 11553915354,
      "lat": 12.9249652,
      "lon": 77.6868595,
      "tags": {
        "alt_name": "Honeywell Technology Solutions - Orion Tower 1",
        "amenity": "office",
        "full_name": "Honeywell Technology Solutions - Orion Campus",
        "name": "Honeywell Technology Solutions",
        "name:kn": "ಹನಿವೆಲ್",
        "office": "company"
      }
    },
    {
      "type": "node",
      "id": 11553915383,
      "lat": 12.9194451,
      "lon": 77.6860696,
      "tags": {
        "alt_name": "Honeywell Technology Solutions - Orion Tower 2",
        "amenity": "office",
        "full_name": "Honeywell Technology Solutions - Orion Campus",
        "name": "Honeywel",
        "name:kn": "ಹನಿವೆಲ್",
        "office": "company"
      }
    },
    {
      "type": "node",
      "id": 11554517078,
      "lat": 12.9207222,
      "lon": 77.6874778,
      "tags": {
        "amenity": "restaurant",
        "name": "South Table"
      }
    },
    {
      "type": "node",
      "id": 11554517079,
      "lat": 12.9209327,
      "lon": 77.6874818,
      "tags": {
        "amenity": "restaurant",
        "brand": "Daily Sushi",
        "brand:wikidata": "Q124374644",
        "cuisine": "asian",
        "delivery": "yes",
        "name": "Daily Sushi",
        "takeaway": "yes"
      }
    },
    {
      "type": "node",
      "id": 11554517080,
      "lat": 12.9209483,
      "lon": 77.6873463,
      "tags": {
        "amenity": "fast_food",
        "brand": "Popeyes",
        "brand:wikidata": "Q1330910",
        "cuisine": "chicken",
        "name": "Popeyes",
        "official_name": "Popeyes Louisiana Kitchen",
        "takeaway": "yes"
      }
    },
    {
      "type": "node",
      "id": 11554517081,
      "lat": 12.9207261,
      "lon": 77.6873383,
      "tags": {
        "amenity": "restaurant",
        "brand": "Bhartiya Jalpan",
        "brand:wikidata": "Q124374711",
        "cuisine": "indian",
        "delivery": "yes",
        "name": "Bhartiya Jalpan",
        "takeaway": "yes",
        "wheelchair": "yes"
      }
    },
    {
      "type": "node",
      "id": 11554517082,
      "lat": 12.9205261,
      "lon": 77.6873383,
      "tags": {
        "amenity": "fast_food",
        "brand": "Taco Bell",
        "brand:wikidata": "Q752941",
        "cuisine": "tex-mex",
        "name": "Taco Bell",
        "name:kn": "ಟಾಕೊ ಬೆಲ್",
        "takeaway": "yes",
        "wheelchair": "yes"
      }
    },
    {
      "type": "node",
      "id": 11554517083,
      "lat": 12.9204281,
      "lon": 77.6866584,
      "tags": {
        "name": "Heads Up for Tails",
        "shop": "pet_grooming"
      }
    },
    {
      "type": "node",
      "id": 11554517084,
      "lat": 12.920517,
      "lon": 77.6874845,
      "tags": {
        "amenity": "restaurant",
        "name": "Cafe Glocal"
      }
    },
    {
      "type": "node",
      "id": 11554517085,
      "lat": 12.9205327,
      "lon": 77.6871881,
      "tags": {
        "amenity": "restaurant",
        "brand": "Brik Oven",
        "brand:wikidata": "Q124374702",
        "cuisine": "pizza",
        "delivery": "yes",
        "name": "Brik Oven",
        "takeaway": "yes",
        "wheelchair": "yes"
      }
    },
    {
      "type": "node",
      "id": 11554517086,
      "lat": 12.9204176,
      "lon": 77.6868528,
      "tags": {
        "amenity": "cafe",
        "name": "Lavonne Cafe",
        "wheelchair": "yes"
      }
    },
    {
      "type": "node",
      "id": 11554517087,
      "lat": 12.9204346,
      "lon": 77.6864612,
      "tags": {
        "brand": "Crossword Bookstores",
        "brand:wikidata": "Q5188909",
        "name": "Crossword Bookstores",
        "shop": "books",
        "wheelchair": "yes"
      }
    },
    {
      "type": "node",
      "id": 11554517088,
      "lat": 12.9204464,
      "lon": 77.6862735,
      "tags": {
        "name": "Nestasia",
        "shop": "interior_decoration",
        "wheelchair": "yes"
      }
    },
    {
      "type": "node",
      "id": 11554517089,
      "lat": 12.9204516,
      "lon": 77.6860441,
      "tags": {
        "amenity": "cafe",
        "brand": "Blue Tokai Coffee Roasters",
        "cuisine": "coffee_shop",
        "delivery": "yes",
        "name": "Blue Tokai Coffee Roasters",
        "takeaway": "yes",
        "wheelchair": "yes"
      }
    },
    {
      "type": "node",
      "id": 11554517096,
      "lat": 12.9207882,
      "lon": 77.68774,
      "tags": {
        "access": "private",
        "amenity": "parking_entrance",
        "parking": "underground"
      }
    },
    {
      "type": "node",
      "id": 11554517098,
      "lat": 12.920785,
      "lon": 77.6877849,
      "tags": {
        "access": "private",
        "amenity": "parking_entrance",
        "parking": "underground"
      }
    },
    {
      "type": "node",
      "id": 11640105917,
      "lat": 12.9191136,
      "lon": 77.670829,
      "tags": {
        "amenity": "fast_food",
        "brand": "Subway",
        "brand:wikidata": "Q244457",
        "check_date": "2024-02-19",
        "cuisine": "sandwich",
        "diet:vegetarian": "yes",
        "drive_through": "no",
        "name": "Subway",
        "payment:cash": "yes",
        "payment:credit_cards": "yes",
        "payment:debit_cards": "yes",
        "takeaway": "yes",
        "wheelchair": "no"
      }
    },
    {
      "type": "node",
      "id": 11640105918,
      "lat": 12.9190676,
      "lon": 77.6709484,
      "tags": {
        "check_date": "2024-02-19",
        "name": "Wash Inn",
        "shop": "laundry"
      }
    },
    {
      "type": "node",
      "id": 11640105920,
      "lat": 12.9190532,
      "lon": 77.6709872,
      "tags": {
        "amenity": "restaurant",
        "check_date": "2024-02-19",
        "name": "Gongura Grand"
      }
    },
    {
      "type": "node",
      "id": 11640105921,
      "lat": 12.9190369,
      "lon": 77.6710233,
      "tags": {
        "check_date": "2024-02-19",
        "name": "The Eye Needs",
        "shop": "optician"
      }
    },
    {
      "type": "node",
      "id": 11640138816,
      "lat": 12.9199984,
      "lon": 77.6672173,
      "tags": {
        "check_date": "2024-02-19",
        "name": "Aishwarya Hypercity",
        "shop": "department_store"
      }
    },
    {
      "type": "node",
      "id": 11640900879,
      "lat": 12.918589,
      "lon": 77.6705844,
      "tags": {
        "level": "-1",
        "shop": "stationery"
      }
    },
    {
      "type": "node",
      "id": 11640900886,
      "lat": 12.9190996,
      "lon": 77.6711806,
      "tags": {
        "access": "private",
        "amenity": "parking_entrance",
        "parking": "underground"
      }
    },
    {
      "type": "node",
      "id": 11640900889,
      "lat": 12.9194969,
      "lon": 77.6713344,
      "tags": {
        "access": "private",
        "amenity": "parking_entrance",
        "parking": "underground"
      }
    },
    {
      "type": "node",
      "id": 11640900901,
      "lat": 12.9198758,
      "lon": 77.6721007,
      "tags": {
        "access": "private",
        "amenity": "parking_entrance",
        "parking": "underground"
      }
    },
    {
      "type": "node",
      "id": 11725191091,
      "lat": 12.9229587,
      "lon": 77.681707,
      "tags": {
        "access": "private",
        "amenity": "parking_entrance",
        "parking": "underground"
      }
    },
    {
      "type": "node",
      "id": 11752296520,
      "lat": 12.9188259,
      "lon": 77.6701594,
      "tags": {
        "amenity": "restaurant",
        "check_date": "2024-03-22",
        "level": "1",
        "name": "Absolute Barbecues"
      }
    },
    {
      "type": "node",
      "id": 11811087974,
      "lat": 12.9298982,
      "lon": 77.6854473,
      "tags": {
        "amenity": "pub",
        "contact:instagram": "biergartenbangalore",
        "cuisine": "pizza;regional;sandwich;burger",
        "delivery": "no",
        "indoor_seating": "yes",
        "name": "Biergarten Brewery & Kitchen",
        "outdoor_seating": "yes",
        "smoking": "isolated",
        "takeaway": "yes"
      }
    },
    {
      "type": "node",
      "id": 11811087975,
      "lat": 12.9206281,
      "lon": 77.6860481,
      "tags": {
        "amenity": "restaurant",
        "contact:instagram": "radiobar_bangalore",
        "delivery": "yes",
        "name": "Radio Bar",
        "opening_hours": "12:00-01:00",
        "phone": "+91 76194 36750",
        "takeaway": "yes"
      }
    },
    {
      "type": "node",
      "id": 11824558715,
      "lat": 12.9169434,
      "lon": 77.690066,
      "tags": {
        "access": "private",
        "amenity": "parking_entrance",
        "parking": "underground"
      }
    },
    {
      "type": "node",
      "id": 11824558719,
      "lat": 12.9179659,
      "lon": 77.69003,
      "tags": {
        "access": "private",
        "amenity": "parking_entrance",
        "parking": "underground"
      }
    },
    {
      "type": "node",
      "id": 11868813793,
      "lat": 12.9256138,
      "lon": 77.6763208,
      "tags": {
        "leisure": "fitness_centre",
        "name": "Gold Star fitness"
      }
    },
    {
      "type": "node",
      "id": 11962404393,
      "lat": 12.9191947,
      "lon": 77.6686389,
      "tags": {
        "amenity": "restaurant",
        "email": "customercare@shariefbhai.com",
        "name": "Sharief Bhai's",
        "phone": "+91 8095752222",
        "website": "https://www.shariefbhai.com/"
      }
    },
    {
      "type": "node",
      "id": 11962404394,
      "lat": 12.9187149,
      "lon": 77.6700787,
      "tags": {
        "amenity": "fast_food",
        "cuisine": "pizza",
        "name": "Nomad Pizza",
        "website": "https://nomadpizza.in/"
      }
    },
    {
      "type": "node",
      "id": 11962404401,
      "lat": 12.9198541,
      "lon": 77.6674956,
      "tags": {
        "amenity": "post_office",
        "brand": "Blue Dart Express",
        "brand:short": "Blue Dart",
        "brand:wikidata": "Q54621493",
        "operator": "Blue Dart Express",
        "operator:short": "Blue Dart",
        "operator:wikidata": "Q54621493"
      }
    },
    {
      "type": "node",
      "id": 11962404402,
      "lat": 12.9197456,
      "lon": 77.6674573,
      "tags": {
        "name": "Aquafine",
        "shop": "pet"
      }
    },
    {
      "type": "node",
      "id": 11962404403,
      "lat": 12.9197456,
      "lon": 77.6674893,
      "tags": {
        "amenity": "pharmacy",
        "healthcare": "pharmacy",
        "name": "Sundha Medicals"
      }
    },
    {
      "type": "node",
      "id": 11962404413,
      "lat": 12.9199338,
      "lon": 77.6673764,
      "tags": {
        "amenity": "parking_entrance",
        "parking": "underground"
      }
    },
    {
      "type": "node",
      "id": 12088164538,
      "lat": 12.9207133,
      "lon": 77.6871884,
      "tags": {
        "amenity": "cafe",
        "check_date": "2024-08-02",
        "contact:instagram": "https://www.instagram.com/paperandpieblr",
        "name": "Paper & Pie"
      }
    },
    {
      "type": "node",
      "id": 12106298501,
      "lat": 12.9259496,
      "lon": 77.6778517,
      "tags": {
        "amenity": "restaurant",
        "cuisine": "indian",
        "name": "Upahar Kerala Mess"
      }
    },
    {
      "type": "node",
      "id": 12109666322,
      "lat": 12.920914,
      "lon": 77.6871755,
      "tags": {
        "amenity": "restaurant",
        "check_date": "2024-08-14",
        "cuisine": "asian",
        "name": "Nom Nom"
      }
    },
    {
      "type": "node",
      "id": 12129019646,
      "lat": 12.9263468,
      "lon": 77.6828992,
      "tags": {
        "amenity": "restaurant",
        "name": "PI - Lounge Bar"
      }
    },
    {
      "type": "node",
      "id": 12145301109,
      "lat": 12.9211418,
      "lon": 77.6871693,
      "tags": {
        "amenity": "restaurant",
        "name": "Cooking Mum"
      }
    },
    {
      "type": "node",
      "id": 12430264396,
      "lat": 12.9169557,
      "lon": 77.6906254,
      "tags": {
        "access": "private",
        "amenity": "parking_entrance"
      }
    },
    {
      "type": "node",
      "id": 12430264398,
      "lat": 12.9161042,
      "lon": 77.6910835,
      "tags": {
        "access": "private",
        "amenity": "parking_entrance"
      }
    },
    {
      "type": "node",
      "id": 12430264399,
      "lat": 12.9160946,
      "lon": 77.6907512,
      "tags": {
        "access": "private",
        "amenity": "parking_entrance"
      }
    },
    {
      "type": "node",
      "id": 12443761636,
      "lat": 12.9160575,
      "lon": 77.6973956,
      "tags": {
        "amenity": "parking_entrance"
      }
    },
    {
      "type": "node",
      "id": 12448016922,
      "lat": 12.9247306,
      "lon": 77.6947359,
      "tags": {
        "addr:street": "Devarabeesanahalli Road",
        "amenity": "place_of_worship",
        "name": "Sri Haanuman Temple",
        "religion": "hindu"
      }
    },
    {
      "type": "node",
      "id": 12506886789,
      "lat": 12.9119183,
      "lon": 77.6825843,
      "tags": {
        "addr:city": "Bangalore",
        "addr:housenumber": "No - 254",
        "addr:postcode": "560035",
        "addr:street": "Sarjapur - Marathahalli Rd, near WIPRO Corporate Office, Doddakannelli",
        "amenity": "bank",
        "brand": "Bank of Baroda",
        "brand:wikidata": "Q2003797",
        "name": "Bank of Baroda"
      }
    },
    {
      "type": "node",
      "id": 12580943044,
      "lat": 12.9215982,
      "lon": 77.6679952,
      "tags": {
        "brand": "Yamaha",
        "brand:wikidata": "Q158888",
        "check_date": "2025-02-12",
        "name": "Yamaha",
        "shop": "motorcycle",
        "source": "survey",
        "wheelchair": "yes"
      }
    },
    {
      "type": "node",
      "id": 12620513268,
      "lat": 12.9137266,
      "lon": 77.6792393,
      "tags": {
        "check_date": "2025-02-26",
        "leisure": "fitness_centre",
        "name": "Cult.fit"
      }
    },
    {
      "type": "node",
      "id": 12620513269,
      "lat": 12.9138971,
      "lon": 77.6781938,
      "tags": {
        "check_date": "2025-02-26",
        "name": "Blue Stone",
        "shop": "jewelry"
      }
    },
    {
      "type": "node",
      "id": 12620513270,
      "lat": 12.9145731,
      "lon": 77.6767411,
      "tags": {
        "amenity": "restaurant",
        "check_date": "2025-02-26",
        "name": "Pind Baluch"
      }
    },
    {
      "type": "node",
      "id": 12632035860,
      "lat": 12.9266474,
      "lon": 77.6828966,
      "tags": {
        "amenity": "pub",
        "name": "Whisper's Pub"
      }
    },
    {
      "type": "node",
      "id": 12632042170,
      "lat": 12.9201239,
      "lon": 77.6851535,
      "tags": {
        "addr:city": "Bangalore",
        "addr:country": "IN",
        "amenity": "cafe",
        "name": "Trippy Goat Cafe"
      }
    },
    {
      "type": "node",
      "id": 12696023085,
      "lat": 12.9229568,
      "lon": 77.6706952,
      "tags": {
        "amenity": "post_box",
        "operator": "India Post",
        "operator:wikidata": "Q3519720"
      }
    },
    {
      "type": "node",
      "id": 12809397079,
      "lat": 12.9204941,
      "lon": 77.6846205,
      "tags": {
        "amenity": "restaurant",
        "name": "Fifty50"
      }
    },
    {
      "type": "node",
      "id": 12862846475,
      "lat": 12.9206451,
      "lon": 77.6847474,
      "tags": {
        "amenity": "fast_food",
        "contact:instagram": "goodflippin",
        "cuisine": "burger",
        "delivery": "yes",
        "name": "Good Flippin' Burgers",
        "takeaway": "yes",
        "website": "https://goodflippin.com/"
      }
    },
    {
      "type": "node",
      "id": 12872594926,
      "lat": 12.9268509,
      "lon": 77.6789349,
      "tags": {
        "amenity": "restaurant",
        "indoor_seating": "yes",
        "name": "New Ambur Hot Biriyani",
        "outdoor_seating": "no"
      }
    },
    {
      "type": "node",
      "id": 12942152842,
      "lat": 12.9327315,
      "lon": 77.6913193,
      "tags": {
        "amenity": "bicycle_rental",
        "brand": "Yulu",
        "brand:wikidata": "Q104871276",
        "check_date": "2025-06-21",
        "network": "Yulu",
        "network:wikidata": "Q104871276",
        "operator": "Yulu",
        "operator:type": "private"
      }
    },
    {
      "type": "node",
      "id": 12990076238,
      "lat": 12.9109139,
      "lon": 77.6849917,
      "tags": {
        "amenity": "bar",
        "check_date": "2025-07-09",
        "contact:instagram": "https://www.instagram.com/gladia.blr",
        "name": "Gladia",
        "start_date": "2025-07-11"
      }
    },
    {
      "type": "node",
      "id": 13008559922,
      "lat": 12.929764,
      "lon": 77.6851805,
      "tags": {
        "amenity": "restaurant",
        "name": "Udupi Gokula"
      }
    },
    {
      "type": "node",
      "id": 13013978948,
      "lat": 12.9201458,
      "lon": 77.6848546,
      "tags": {
        "amenity": "restaurant",
        "cuisine": "burmese",
        "name": "Burma Burma"
      }
    },
    {
      "type": "node",
      "id": 13062869348,
      "lat": 12.9279907,
      "lon": 77.6918155,
      "tags": {
        "addr:city": "Bengaluru",
        "addr:country": "IN",
        "amenity": "cafe",
        "brand": "Starbucks",
        "brand:wikidata": "Q37158",
        "cuisine": "coffee_shop",
        "name": "Starbucks",
        "official_name": "Starbucks Coffee",
        "takeaway": "yes"
      }
    },
    {
      "type": "node",
      "id": 13123271288,
      "lat": 12.9181405,
      "lon": 77.6739124,
      "tags": {
        "access": "private",
        "amenity": "parking_entrance",
        "parking": "underground"
      }
    },
    {
      "type": "node",
      "id": 13123333490,
      "lat": 12.9182453,
      "lon": 77.6736986,
      "tags": {
        "access": "private",
        "amenity": "parking_entrance",
        "parking": "underground"
      }
    },
    {
      "type": "node",
      "id": 13123333500,
      "lat": 12.9184311,
      "lon": 77.6733027,
      "tags": {
        "access": "private",
        "amenity": "parking_entrance",
        "parking": "underground"
      }
    },
    {
      "type": "node",
      "id": 13123333506,
      "lat": 12.9175061,
      "lon": 77.6741949,
      "tags": {
        "access": "private",
        "amenity": "parking_entrance",
        "parking": "underground"
      }
    },
    {
      "type": "node",
      "id": 13123333553,
      "lat": 12.9172182,
      "lon": 77.6736389,
      "tags": {
        "access": "private",
        "amenity": "parking_entrance",
        "parking": "underground"
      }
    },
    {
      "type": "node",
      "id": 13123333624,
      "lat": 12.918094,
      "lon": 77.6726592,
      "tags": {
        "access": "private",
        "amenity": "parking_entrance",
        "parking": "underground"
      }
    },
    {
      "type": "node",
      "id": 13124675034,
      "lat": 12.9210987,
      "lon": 77.6747058,
      "tags": {
        "access": "private",
        "amenity": "parking_entrance",
        "parking": "underground"
      }
    },
    {
      "type": "node",
      "id": 13124675058,
      "lat": 12.9199497,
      "lon": 77.6745542,
      "tags": {
        "access": "private",
        "amenity": "parking_entrance",
        "parking": "underground"
      }
    },
    {
      "type": "node",
      "id": 13124692614,
      "lat": 12.921449,
      "lon": 77.6725499,
      "tags": {
        "access": "private",
        "amenity": "parking_entrance",
        "parking": "underground"
      }
    },
    {
      "type": "node",
      "id": 13208841735,
      "lat": 12.9195863,
      "lon": 77.6683241,
      "tags": {
        "amenity": "fast_food",
        "brand": "Papa John's",
        "brand:wikidata": "Q2759586",
        "cuisine": "pizza",
        "name": "Papa John's",
        "takeaway": "yes"
      }
    },
    {
      "type": "node",
      "id": 13324226367,
      "lat": 12.9329544,
      "lon": 77.6887538,
      "tags": {
        "amenity": "shelter"
      }
    },
    {
      "type": "node",
      "id": 13341880718,
      "lat": 12.9143672,
      "lon": 77.6774049,
      "tags": {
        "amenity": "restaurant",
        "check_date": "2025-11-30",
        "cuisine": "indian;andhra",
        "diet:vegetarian": "yes",
        "name": "Nagarjuna"
      }
    },
    {
      "type": "node",
      "id": 13341880719,
      "lat": 12.9138234,
      "lon": 77.6784048,
      "tags": {
        "amenity": "fast_food",
        "check_date": "2025-11-30",
        "name": "Burger Singh"
      }
    },
    {
      "type": "node",
      "id": 13341880720,
      "lat": 12.9137598,
      "lon": 77.6785634,
      "tags": {
        "addr:floor": "G",
        "amenity": "ice_cream",
        "brand": "Baskin-Robbins",
        "brand:wikidata": "Q584601",
        "check_date": "2025-11-30",
        "level": "0",
        "name": "Baskin-Robbins",
        "wheelchair": "yes"
      }
    },
    {
      "type": "way",
      "id": 100071021,
      "center": {
        "lat": 12.926353,
        "lon": 77.6805034
      },
      "tags": {
        "addr:street": "Outer Ring Road, Bellandur",
        "amenity": "food_court",
        "building": "yes",
        "name": "The Bay Food Court"
      }
    },
    {
      "type": "way",
      "id": 230206695,
      "center": {
        "lat": 12.9147515,
        "lon": 77.6789706
      },
      "tags": {
        "amenity": "school",
        "name": "St. Peter's School",
        "name:kn": "ಸೇಂಟ್ ಪೀಟರ್ ಶಾಲೆ"
      }
    },
    {
      "type": "way",
      "id": 232431996,
      "center": {
        "lat": 12.9168126,
        "lon": 77.6738567
      },
      "tags": {
        "amenity": "fire_station",
        "name": "Sarjapura Road Firestation",
        "name:kn": "ಸರ್ಜಾಪುರ ರಸ್ತೆ ಫೈರ್ ಸ್ಟೇಷನ್",
        "operator": "Karnataka State Government"
      }
    },
    {
      "type": "way",
      "id": 232894947,
      "center": {
        "lat": 12.9279283,
        "lon": 77.6840255
      },
      "tags": {
        "amenity": "parking",
        "parking": "surface"
      }
    },
    {
      "type": "way",
      "id": 233019218,
      "center": {
        "lat": 12.9208743,
        "lon": 77.6823175
      },
      "tags": {
        "amenity": "parking",
        "building": "parking",
        "parking": "multi-storey"
      }
    },
    {
      "type": "way",
      "id": 233247334,
      "center": {
        "lat": 12.9146521,
        "lon": 77.6842257
      },
      "tags": {
        "amenity": "restaurant",
        "building": "yes",
        "cuisine": "indian",
        "name": "SJP2 Center Court"
      }
    },
    {
      "type": "way",
      "id": 233254175,
      "center": {
        "lat": 12.915127,
        "lon": 77.6834463
      },
      "tags": {
        "amenity": "parking",
        "building": "parking",
        "parking": "multi-storey"
      }
    },
    {
      "type": "way",
      "id": 233254176,
      "center": {
        "lat": 12.915127,
        "lon": 77.6834462
      },
      "tags": {
        "amenity": "restaurant",
        "cuisine": "indian",
        "name": "SJP2 Canteen"
      }
    },
    {
      "type": "way",
      "id": 233257093,
      "center": {
        "lat": 12.9133703,
        "lon": 77.6861636
      },
      "tags": {
        "building": "yes",
        "leisure": "sports_centre",
        "name": "SJP1 Fitness Center",
        "sport": "table_tennis"
      }
    },
    {
      "type": "way",
      "id": 233329530,
      "center": {
        "lat": 12.9140384,
        "lon": 77.6861894
      },
      "tags": {
        "amenity": "restaurant",
        "building": "yes",
        "cuisine": "indian",
        "name": "SJP1 Canteen"
      }
    },
    {
      "type": "way",
      "id": 236826864,
      "center": {
        "lat": 12.9201762,
        "lon": 77.6666494
      },
      "tags": {
        "building": "yes",
        "name": "Drops Spirits",
        "shop": "alcohol"
      }
    },
    {
      "type": "way",
      "id": 319103169,
      "center": {
        "lat": 12.9147932,
        "lon": 77.6759559
      },
      "tags": {
        "amenity": "parking",
        "fee": "no",
        "parking": "surface",
        "supervised": "no",
        "surface": "ground"
      }
    },
    {
      "type": "way",
      "id": 343138202,
      "center": {
        "lat": 12.9188671,
        "lon": 77.688477
      },
      "tags": {
        "leisure": "swimming_pool",
        "swimming_pool": "outdoor"
      }
    },
    {
      "type": "way",
      "id": 343138211,
      "center": {
        "lat": 12.9174626,
        "lon": 77.6886581
      },
      "tags": {
        "leisure": "playground"
      }
    },
    {
      "type": "way",
      "id": 343611384,
      "center": {
        "lat": 12.9258833,
        "lon": 77.6768999
      },
      "tags": {
        "amenity": "restaurant",
        "building": "apartments",
        "name": "Magic Spice"
      }
    },
    {
      "type": "way",
      "id": 343615291,
      "center": {
        "lat": 12.9214722,
        "lon": 77.6944342
      },
      "tags": {
        "leisure": "park"
      }
    },
    {
      "type": "way",
      "id": 347216188,
      "center": {
        "lat": 12.9247293,
        "lon": 77.694741
      },
      "tags": {
        "addr:city": "Bangalore",
        "addr:postcode": "560103",
        "addr:street": "Bellandur",
        "amenity": "place_of_worship",
        "building": "yes",
        "name": "Sri Karya Siddhi Veera Anjaneya Swamy Temple",
        "religion": "hindu"
      }
    },
    {
      "type": "way",
      "id": 348168442,
      "center": {
        "lat": 12.9261764,
        "lon": 77.6779165
      },
      "tags": {
        "amenity": "restaurant",
        "building": "yes",
        "name": "Donne Biryani House"
      }
    },
    {
      "type": "way",
      "id": 370381634,
      "center": {
        "lat": 12.9225081,
        "lon": 77.6715509
      },
      "tags": {
        "access": "private",
        "leisure": "swimming_pool"
      }
    },
    {
      "type": "way",
      "id": 370387411,
      "center": {
        "lat": 12.9141104,
        "lon": 77.6822796
      },
      "tags": {
        "access": "private",
        "leisure": "pitch",
        "lit": "yes",
        "sport": "tennis",
        "surface": "concrete"
      }
    },
    {
      "type": "way",
      "id": 374443136,
      "center": {
        "lat": 12.9289904,
        "lon": 77.6837058
      },
      "tags": {
        "amenity": "fountain"
      }
    },
    {
      "type": "way",
      "id": 374443137,
      "center": {
        "lat": 12.9288841,
        "lon": 77.6842822
      },
      "tags": {
        "leisure": "pitch"
      }
    },
    {
      "type": "way",
      "id": 374443138,
      "center": {
        "lat": 12.9288629,
        "lon": 77.6840907
      },
      "tags": {
        "leisure": "pitch"
      }
    },
    {
      "type": "way",
      "id": 374443139,
      "center": {
        "lat": 12.9288587,
        "lon": 77.6839193
      },
      "tags": {
        "leisure": "pitch"
      }
    },
    {
      "type": "way",
      "id": 377324145,
      "center": {
        "lat": 12.9265734,
        "lon": 77.6784282
      },
      "tags": {
        "amenity": "restaurant",
        "building": "yes",
        "cuisine": "South_Indian",
        "indoor_seating": "yes",
        "name": "the Rasaganga",
        "name:kn": "ರಸಗಂಗಾ",
        "outdoor_seating": "yes"
      }
    },
    {
      "type": "way",
      "id": 380779748,
      "center": {
        "lat": 12.929297,
        "lon": 77.6841237
      },
      "tags": {
        "amenity": "parking"
      }
    },
    {
      "type": "way",
      "id": 450523326,
      "center": {
        "lat": 12.9141561,
        "lon": 77.6786244
      },
      "tags": {
        "addr:city": "Bangalore",
        "addr:housenumber": "BBMP 2034/69,Sarjapur Main Road, Block 2 Village, Varthur Hobli, Kaikondrahalli",
        "addr:postcode": "560035",
        "addr:street": "Sarjapur Road",
        "amenity": "pub",
        "building": "yes",
        "name": "The Hoot Cafe & Brewery",
        "opening_hours": "Mo-Su 12:30-01:00",
        "outdoor_seating": "yes",
        "smoking": "separated"
      }
    },
    {
      "type": "way",
      "id": 450523548,
      "center": {
        "lat": 12.9164427,
        "lon": 77.6774446
      },
      "tags": {
        "amenity": "school"
      }
    },
    {
      "type": "way",
      "id": 511710441,
      "center": {
        "lat": 12.9149376,
        "lon": 77.6755298
      },
      "tags": {
        "addr:city": "Bengaluru",
        "addr:postcode": "560035",
        "addr:street": "Sarjapura Road",
        "amenity": "fuel",
        "brand": "Bharat Petroleum",
        "brand:wikidata": "Q854826",
        "brand:wikipedia": "en:Bharat Petroleum",
        "capacity": "8",
        "compressed_air": "yes",
        "description": "Open 24/7, Free air, Good service, Pollution check and engine-oil change facilities available",
        "fuel:diesel": "yes",
        "fuel:petrol": "yes",
        "name": "JSN Petrol Pump",
        "opening_hours": "24/7",
        "operator": "Bharat Petroleum",
        "payment:cash": "yes",
        "payment:credit_cards": "yes",
        "self_service": "no"
      }
    },
    {
      "type": "way",
      "id": 539497583,
      "center": {
        "lat": 12.919951,
        "lon": 77.6945105
      },
      "tags": {
        "leisure": "pitch"
      }
    },
    {
      "type": "way",
      "id": 539497585,
      "center": {
        "lat": 12.9199563,
        "lon": 77.6943591
      },
      "tags": {
        "leisure": "pitch"
      }
    },
    {
      "type": "way",
      "id": 541936329,
      "center": {
        "lat": 12.9144146,
        "lon": 77.6786729
      },
      "tags": {
        "amenity": "parking",
        "operator": "Hoots Car Parking"
      }
    },
    {
      "type": "way",
      "id": 609243779,
      "center": {
        "lat": 12.9111113,
        "lon": 77.6850549
      },
      "tags": {
        "addr:city": "Bengaluru",
        "addr:street": "Sarjapur Road",
        "amenity": "pub",
        "building": "yes",
        "delivery": "yes",
        "diet:vegetarian": "yes",
        "indoor_seating": "yes",
        "microbrewery": "yes",
        "min_age": "21",
        "name": "Tiger Tiger Brewhouse",
        "opening_hours": "Mo-Su 12:30-23:0",
        "outdoor_seating": "no",
        "phone": "+91 72599 00099",
        "smoking": "no",
        "takeaway": "no",
        "website": "https://novushospitality.in",
        "wheelchair": "yes"
      }
    },
    {
      "type": "way",
      "id": 609388076,
      "center": {
        "lat": 12.9180328,
        "lon": 77.6717277
      },
      "tags": {
        "amenity": "parking",
        "capacity": "20",
        "fee": "no",
        "parking": "surface",
        "supervised": "no",
        "surface": "unpaved"
      }
    },
    {
      "type": "way",
      "id": 609639127,
      "center": {
        "lat": 12.9137563,
        "lon": 77.683394
      },
      "tags": {
        "access": "customers",
        "leisure": "swimming_pool",
        "operator": "Greenwood Regency"
      }
    },
    {
      "type": "way",
      "id": 609903158,
      "center": {
        "lat": 12.9110772,
        "lon": 77.6847992
      },
      "tags": {
        "leisure": "swimming_pool"
      }
    },
    {
      "type": "way",
      "id": 609903166,
      "center": {
        "lat": 12.9120081,
        "lon": 77.682081
      },
      "tags": {
        "amenity": "parking",
        "parking": "lane"
      }
    },
    {
      "type": "way",
      "id": 609903172,
      "center": {
        "lat": 12.9128984,
        "lon": 77.6831183
      },
      "tags": {
        "amenity": "pub",
        "building": "yes",
        "name": "Byg Brewsky",
        "operator": "Byg Brewsky Brewing Company",
        "website": "https://www.bygbrewski.com/"
      }
    },
    {
      "type": "way",
      "id": 609905348,
      "center": {
        "lat": 12.9131816,
        "lon": 77.6857713
      },
      "tags": {
        "access": "private",
        "leisure": "pitch",
        "sport": "tennis",
        "surface": "grass"
      }
    },
    {
      "type": "way",
      "id": 609905349,
      "center": {
        "lat": 12.9132482,
        "lon": 77.6855523
      },
      "tags": {
        "access": "private",
        "leisure": "pitch",
        "sport": "basketball"
      }
    },
    {
      "type": "way",
      "id": 609913508,
      "center": {
        "lat": 12.9154048,
        "lon": 77.6765951
      },
      "tags": {
        "access": "private",
        "leisure": "swimming_pool"
      }
    },
    {
      "type": "way",
      "id": 609913511,
      "center": {
        "lat": 12.9144167,
        "lon": 77.676978
      },
      "tags": {
        "amenity": "restaurant",
        "brand": "Bhartiya Jalpan",
        "brand:wikidata": "Q124374711",
        "building": "yes",
        "cuisine": "indian",
        "delivery": "yes",
        "diet:vegetarian": "yes",
        "name": "Bhartiya Jalpan",
        "opening_hours": "Mo-Su 07:00-23:00",
        "outdoor_seating": "yes",
        "smoking": "no",
        "takeaway": "yes"
      }
    },
    {
      "type": "way",
      "id": 609913522,
      "center": {
        "lat": 12.914189,
        "lon": 77.6773372
      },
      "tags": {
        "amenity": "parking",
        "parking": "street_side"
      }
    },
    {
      "type": "way",
      "id": 609925224,
      "center": {
        "lat": 12.917762,
        "lon": 77.6735528
      },
      "tags": {
        "amenity": "community_centre",
        "building": "yes"
      }
    },
    {
      "type": "way",
      "id": 609928676,
      "center": {
        "lat": 12.911792,
        "lon": 77.6825845
      },
      "tags": {
        "amenity": "parking",
        "parking": "street_side"
      }
    },
    {
      "type": "way",
      "id": 609993391,
      "center": {
        "lat": 12.9205841,
        "lon": 77.6739708
      },
      "tags": {
        "access": "private",
        "leisure": "swimming_pool"
      }
    },
    {
      "type": "way",
      "id": 610124886,
      "center": {
        "lat": 12.9200519,
        "lon": 77.6669466
      },
      "tags": {
        "building": "yes",
        "name": "New Mathaji",
        "opening_hours": "Mo-Su 08:30-20:30",
        "shop": "hardware",
        "website": "https://newmathajiharware.in"
      }
    },
    {
      "type": "way",
      "id": 610126419,
      "center": {
        "lat": 12.9200108,
        "lon": 77.667039
      },
      "tags": {
        "amenity": "parking",
        "parking": "surface",
        "surface": "asphalt"
      }
    },
    {
      "type": "way",
      "id": 610128869,
      "center": {
        "lat": 12.9195467,
        "lon": 77.6685465
      },
      "tags": {
        "addr:city": "Bengaluru",
        "addr:housenumber": "9/47",
        "addr:postcode": "560035",
        "addr:street": "1st Floor, Bellandur Gate, Sarjapur Road",
        "amenity": "clinic",
        "building": "yes",
        "healthcare": "clinic",
        "name": "Homeocure Clinic",
        "opening_hours": "+91-8867286512"
      }
    },
    {
      "type": "way",
      "id": 610133415,
      "center": {
        "lat": 12.9194649,
        "lon": 77.6682811
      },
      "tags": {
        "access": "customers",
        "amenity": "parking",
        "parking": "surface",
        "surface": "asphalt"
      }
    },
    {
      "type": "way",
      "id": 610348504,
      "center": {
        "lat": 12.9151199,
        "lon": 77.6753888
      },
      "tags": {
        "building": "yes",
        "shop": "yes"
      }
    },
    {
      "type": "way",
      "id": 610348506,
      "center": {
        "lat": 12.9146165,
        "lon": 77.6760933
      },
      "tags": {
        "access": "customers",
        "amenity": "parking",
        "parking": "surface"
      }
    },
    {
      "type": "way",
      "id": 610471331,
      "center": {
        "lat": 12.9182511,
        "lon": 77.6712959
      },
      "tags": {
        "amenity": "restaurant",
        "building": "yes",
        "cuisine": "kabaab",
        "name": "Kebaab Waala"
      }
    },
    {
      "type": "way",
      "id": 610471332,
      "center": {
        "lat": 12.9182373,
        "lon": 77.6715138
      },
      "tags": {
        "building": "yes",
        "name": "Aishwarya Departmental Store",
        "shop": "department_store"
      }
    },
    {
      "type": "way",
      "id": 610471333,
      "center": {
        "lat": 12.9180925,
        "lon": 77.6714353
      },
      "tags": {
        "access": "customers",
        "amenity": "parking",
        "fee": "no",
        "parking": "surface",
        "surface": "compacted"
      }
    },
    {
      "type": "way",
      "id": 610471335,
      "center": {
        "lat": 12.9179135,
        "lon": 77.6722553
      },
      "tags": {
        "amenity": "hospital",
        "healthcare": "hospital",
        "healthcare:speciality": "gynaecology",
        "name": "Motherhood"
      }
    },
    {
      "type": "way",
      "id": 610471336,
      "center": {
        "lat": 12.9177465,
        "lon": 77.6721706
      },
      "tags": {
        "amenity": "parking"
      }
    },
    {
      "type": "way",
      "id": 611510350,
      "center": {
        "lat": 12.9126859,
        "lon": 77.6807906
      },
      "tags": {
        "access": "customers",
        "amenity": "parking",
        "parking": "surface",
        "supervised": "no",
        "surface": "asphalt"
      }
    },
    {
      "type": "way",
      "id": 613470756,
      "center": {
        "lat": 12.920124,
        "lon": 77.6668419
      },
      "tags": {
        "building": "yes",
        "name": "Cycle World",
        "shop": "bicycle"
      }
    },
    {
      "type": "way",
      "id": 613474107,
      "center": {
        "lat": 12.9135595,
        "lon": 77.6795552
      },
      "tags": {
        "addr:city": "Bengaluru",
        "addr:housenumber": "66",
        "addr:postcode": "560034",
        "addr:street": "Kaikondrahalli, Sarjapur Road",
        "amenity": "hospital",
        "emergency": "yes",
        "healthcare": "hospital",
        "name": "Suvarnamukhi",
        "name:kn": "ಸುವರ್ಣಮುಖಿ ಆಸ್ಪತ್ರೆ",
        "phone": "+91 98451 26869"
      }
    },
    {
      "type": "way",
      "id": 613474108,
      "center": {
        "lat": 12.9132197,
        "lon": 77.6797959
      },
      "tags": {
        "amenity": "cafe",
        "building": "yes",
        "building:levels": "1",
        "internet_access": "no",
        "name": "Chai World",
        "outdoor_seating": "yes",
        "smoking": "no"
      }
    },
    {
      "type": "way",
      "id": 627155096,
      "center": {
        "lat": 12.9189317,
        "lon": 77.6761384
      },
      "tags": {
        "access": "private",
        "leisure": "swimming_pool"
      }
    },
    {
      "type": "way",
      "id": 631285389,
      "center": {
        "lat": 12.9118717,
        "lon": 77.6823938
      },
      "tags": {
        "amenity": "fast_food",
        "building": "yes",
        "name": "The Milkshake Theory"
      }
    },
    {
      "type": "way",
      "id": 631466626,
      "center": {
        "lat": 12.9231995,
        "lon": 77.6714025
      },
      "tags": {
        "amenity": "fuel",
        "brand": "Shell",
        "brand:wikidata": "Q110716465",
        "brand:wikipedia": "en:Royal Dutch Shell",
        "compressed_air": "yes",
        "fuel:diesel": "yes",
        "fuel:petrol": "yes",
        "name": "Shell Petrol Bunk",
        "name:kn": "ಶೆಲ್",
        "opening_hours": "24/7"
      }
    },
    {
      "type": "way",
      "id": 634573116,
      "center": {
        "lat": 12.9242772,
        "lon": 77.6820063
      },
      "tags": {
        "addr:city": "BANGALORE",
        "addr:postcode": "560103",
        "addr:street": "Pritech Internal Road",
        "building": "yes",
        "name": "Tea Bar",
        "operator": "Tea Bar",
        "payment:cash": "yes",
        "shop": "tea",
        "wheelchair": "yes"
      }
    },
    {
      "type": "way",
      "id": 639392439,
      "center": {
        "lat": 12.9152753,
        "lon": 77.6801174
      },
      "tags": {
        "leisure": "swimming_pool"
      }
    },
    {
      "type": "way",
      "id": 643696404,
      "center": {
        "lat": 12.9204249,
        "lon": 77.6844639
      },
      "tags": {
        "amenity": "food_court",
        "full_name": "The Bay Food Court, RMZ Ecoworld",
        "landuse": "retail",
        "name": "The Bay, Ecoworld"
      }
    },
    {
      "type": "way",
      "id": 677359176,
      "center": {
        "lat": 12.9104305,
        "lon": 77.686067
      },
      "tags": {
        "amenity": "clinic",
        "description": "Multi speciality clinic. \n\nOn Sunday, only sample collection.",
        "name": "Narayana Multispeciality Clinic",
        "opening_hours": "Mo-Sa 07:30-19:30; Su 08:00-11:30"
      }
    },
    {
      "type": "way",
      "id": 707875706,
      "center": {
        "lat": 12.9188024,
        "lon": 77.6911167
      },
      "tags": {
        "access": "private",
        "leisure": "swimming_pool",
        "sport": "swimming"
      }
    },
    {
      "type": "way",
      "id": 707876094,
      "center": {
        "lat": 12.9183459,
        "lon": 77.6910765
      },
      "tags": {
        "leisure": "pitch",
        "name": "Tennis Court",
        "name:kn": "ಟೆನ್ನಿಸ್ ಅಂಗಣ",
        "sport": "tennis"
      }
    },
    {
      "type": "way",
      "id": 707877555,
      "center": {
        "lat": 12.9174816,
        "lon": 77.6888753
      },
      "tags": {
        "leisure": "pitch",
        "name": "Tower 2 Tennis Court, Adarsh Palm Retreat",
        "sport": "tennis"
      }
    },
    {
      "type": "way",
      "id": 723517555,
      "center": {
        "lat": 12.9178406,
        "lon": 77.6735692
      },
      "tags": {
        "leisure": "playground"
      }
    },
    {
      "type": "way",
      "id": 723943825,
      "center": {
        "lat": 12.9213797,
        "lon": 77.6811818
      },
      "tags": {
        "amenity": "food_court",
        "building": "yes",
        "level": "-1, 0,1",
        "name": "Bay",
        "toilets:wheelchair": "yes",
        "wheelchair": "yes"
      }
    },
    {
      "type": "way",
      "id": 816937537,
      "center": {
        "lat": 12.9237427,
        "lon": 77.684641
      },
      "tags": {
        "access": "customers",
        "amenity": "parking",
        "fee": "no",
        "parking": "surface"
      }
    },
    {
      "type": "way",
      "id": 974023930,
      "center": {
        "lat": 12.9140604,
        "lon": 77.6834276
      },
      "tags": {
        "building": "yes",
        "leisure": "sports_centre",
        "name": "Greenwood Regency Clubhouse",
        "sport": "badminton;table_tennis;carroms;swimming;dance_floor;gym"
      }
    },
    {
      "type": "way",
      "id": 1050010834,
      "center": {
        "lat": 12.9186091,
        "lon": 77.6901176
      },
      "tags": {
        "leisure": "garden"
      }
    },
    {
      "type": "way",
      "id": 1050010838,
      "center": {
        "lat": 12.9256654,
        "lon": 77.6851288
      },
      "tags": {
        "leisure": "garden"
      }
    },
    {
      "type": "way",
      "id": 1050010839,
      "center": {
        "lat": 12.923775,
        "lon": 77.6849196
      },
      "tags": {
        "leisure": "garden"
      }
    },
    {
      "type": "way",
      "id": 1050010840,
      "center": {
        "lat": 12.9242672,
        "lon": 77.6850611
      },
      "tags": {
        "leisure": "garden"
      }
    },
    {
      "type": "way",
      "id": 1056795650,
      "center": {
        "lat": 12.9179884,
        "lon": 77.6976055
      },
      "tags": {
        "access": "private",
        "hoops": "2",
        "leisure": "pitch",
        "lit": "no",
        "sport": "basketball"
      }
    },
    {
      "type": "way",
      "id": 1056795651,
      "center": {
        "lat": 12.9181813,
        "lon": 77.6974507
      },
      "tags": {
        "access": "private",
        "leisure": "pitch",
        "lit": "no",
        "sport": "tennis",
        "surface": "concrete"
      }
    },
    {
      "type": "way",
      "id": 1056795652,
      "center": {
        "lat": 12.9180728,
        "lon": 77.6975289
      },
      "tags": {
        "access": "private",
        "hoops": "4",
        "leisure": "pitch",
        "lit": "no",
        "sport": "basketball",
        "surface": "paving_stones"
      }
    },
    {
      "type": "way",
      "id": 1056795653,
      "center": {
        "lat": 12.9166455,
        "lon": 77.6971296
      },
      "tags": {
        "access": "permissive",
        "leisure": "pitch",
        "lit": "yes",
        "sport": "soccer",
        "surface": "artificial_turf"
      }
    },
    {
      "type": "way",
      "id": 1066436538,
      "center": {
        "lat": 12.9296235,
        "lon": 77.6875748
      },
      "tags": {
        "leisure": "swimming_pool"
      }
    },
    {
      "type": "way",
      "id": 1070483695,
      "center": {
        "lat": 12.9171347,
        "lon": 77.6967832
      },
      "tags": {
        "leisure": "swimming_pool"
      }
    },
    {
      "type": "way",
      "id": 1070483705,
      "center": {
        "lat": 12.9210273,
        "lon": 77.6950704
      },
      "tags": {
        "leisure": "pitch",
        "sport": "tennis"
      }
    },
    {
      "type": "way",
      "id": 1070483706,
      "center": {
        "lat": 12.9216883,
        "lon": 77.6943708
      },
      "tags": {
        "leisure": "pitch",
        "sport": "basketball"
      }
    },
    {
      "type": "way",
      "id": 1070483707,
      "center": {
        "lat": 12.9216847,
        "lon": 77.6944893
      },
      "tags": {
        "leisure": "pitch",
        "sport": "tennis"
      }
    },
    {
      "type": "way",
      "id": 1071242258,
      "center": {
        "lat": 12.9231359,
        "lon": 77.6693091
      },
      "tags": {
        "access": "private",
        "leisure": "swimming_pool",
        "location": "outdoor",
        "swimming_pool": "outdoor"
      }
    },
    {
      "type": "way",
      "id": 1072738480,
      "center": {
        "lat": 12.925278,
        "lon": 77.6947147
      },
      "tags": {
        "amenity": "place_of_worship",
        "building": "yes",
        "check_date": "2024-01-21",
        "name": "Sri Shaneswara Swamy Temple",
        "name:kn": "ಶ್ರೀ ಶನೇಶ್ವರ ಸ್ವಾಮಿ ದೇವಸ್ಥಾನ",
        "religion": "hindu",
        "source": "survey"
      }
    },
    {
      "type": "way",
      "id": 1112427814,
      "center": {
        "lat": 12.9135785,
        "lon": 77.6790599
      },
      "tags": {
        "access": "customers",
        "amenity": "parking",
        "parking": "surface"
      }
    },
    {
      "type": "way",
      "id": 1114800457,
      "center": {
        "lat": 12.9105399,
        "lon": 77.6855647
      },
      "tags": {
        "access": "customers",
        "amenity": "parking",
        "fee": "no",
        "parking": "surface"
      }
    },
    {
      "type": "way",
      "id": 1187587059,
      "center": {
        "lat": 12.9209718,
        "lon": 77.6705332
      },
      "tags": {
        "access": "private",
        "leisure": "swimming_pool"
      }
    },
    {
      "type": "way",
      "id": 1188254615,
      "center": {
        "lat": 12.9212685,
        "lon": 77.6684356
      },
      "tags": {
        "leisure": "pitch",
        "sport": "basketball"
      }
    },
    {
      "type": "way",
      "id": 1188254701,
      "center": {
        "lat": 12.9204176,
        "lon": 77.6667487
      },
      "tags": {
        "amenity": "parking"
      }
    },
    {
      "type": "way",
      "id": 1188254703,
      "center": {
        "lat": 12.9205764,
        "lon": 77.6678097
      },
      "tags": {
        "amenity": "school",
        "name": "Royale Concorde International School"
      }
    },
    {
      "type": "way",
      "id": 1193177992,
      "center": {
        "lat": 12.9156928,
        "lon": 77.6752029
      },
      "tags": {
        "amenity": "hospital",
        "emergency": "yes",
        "healthcare": "hospital",
        "name": "Cloud Nine",
        "note": "Emergency ward and lab open 24x7",
        "opening_hours": "Mo-Sa 08:00-20:00, Su 10:00-12:00, 16:00-18:00",
        "operator": "Cloud Nine Care",
        "operator:type": "private",
        "phone": "+91 99728 99728",
        "website": "https://www.cloudninecare.com/centre/sarjapur-road"
      }
    },
    {
      "type": "way",
      "id": 1193177994,
      "center": {
        "lat": 12.9164111,
        "lon": 77.677711
      },
      "tags": {
        "access": "private",
        "leisure": "pitch",
        "sport": "basketball"
      }
    },
    {
      "type": "way",
      "id": 1196486570,
      "center": {
        "lat": 12.9276919,
        "lon": 77.6915721
      },
      "tags": {
        "leisure": "sports_centre",
        "name": "Sports Zone"
      }
    },
    {
      "type": "way",
      "id": 1196486571,
      "center": {
        "lat": 12.9300445,
        "lon": 77.690722
      },
      "tags": {
        "leisure": "park"
      }
    },
    {
      "type": "way",
      "id": 1196486572,
      "center": {
        "lat": 12.929697,
        "lon": 77.6922799
      },
      "tags": {
        "full_name": "Embassy Tech Village Central Park",
        "leisure": "park",
        "name": "ETV Central Park"
      }
    },
    {
      "type": "way",
      "id": 1212112580,
      "center": {
        "lat": 12.9308118,
        "lon": 77.6901546
      },
      "tags": {
        "leisure": "park"
      }
    },
    {
      "type": "way",
      "id": 1212362524,
      "center": {
        "lat": 12.9218604,
        "lon": 77.6881738
      },
      "tags": {
        "leisure": "pitch",
        "sport": "tennis"
      }
    },
    {
      "type": "way",
      "id": 1212362556,
      "center": {
        "lat": 12.9229383,
        "lon": 77.6816131
      },
      "tags": {
        "leisure": "park",
        "wheelchair": "no"
      }
    },
    {
      "type": "way",
      "id": 1212362557,
      "center": {
        "lat": 12.9229464,
        "lon": 77.680777
      },
      "tags": {
        "leisure": "park",
        "wheelchair": "limited"
      }
    },
    {
      "type": "way",
      "id": 1212362558,
      "center": {
        "lat": 12.9229553,
        "lon": 77.6801972
      },
      "tags": {
        "leisure": "park"
      }
    },
    {
      "type": "way",
      "id": 1212362559,
      "center": {
        "lat": 12.9220017,
        "lon": 77.6808591
      },
      "tags": {
        "leisure": "park"
      }
    },
    {
      "type": "way",
      "id": 1212362576,
      "center": {
        "lat": 12.9313141,
        "lon": 77.6907647
      },
      "tags": {
        "leisure": "park"
      }
    },
    {
      "type": "way",
      "id": 1212362584,
      "center": {
        "lat": 12.9283348,
        "lon": 77.6920094
      },
      "tags": {
        "amenity": "theatre",
        "area": "yes",
        "area:highway": "footway",
        "highway": "footway",
        "name": "Amphitheatre",
        "theatre:type": "amphi"
      }
    },
    {
      "type": "way",
      "id": 1212362587,
      "center": {
        "lat": 12.9275736,
        "lon": 77.6915831
      },
      "tags": {
        "leisure": "pitch",
        "sport": "basketball"
      }
    },
    {
      "type": "way",
      "id": 1212362588,
      "center": {
        "lat": 12.9276314,
        "lon": 77.6914407
      },
      "tags": {
        "leisure": "pitch",
        "sport": "soccer"
      }
    },
    {
      "type": "way",
      "id": 1213218541,
      "center": {
        "lat": 12.9279748,
        "lon": 77.6927609
      },
      "tags": {
        "leisure": "garden",
        "name": "Maze Garden"
      }
    },
    {
      "type": "way",
      "id": 1226683652,
      "center": {
        "lat": 12.9215076,
        "lon": 77.6682276
      },
      "tags": {
        "hoops": "2",
        "leisure": "pitch",
        "sport": "basketball"
      }
    },
    {
      "type": "way",
      "id": 1234091086,
      "center": {
        "lat": 12.922429,
        "lon": 77.668402
      },
      "tags": {
        "access": "customers",
        "amenity": "parking",
        "parking": "surface"
      }
    },
    {
      "type": "way",
      "id": 1239916014,
      "center": {
        "lat": 12.9263927,
        "lon": 77.6784174
      },
      "tags": {
        "access": "customers",
        "amenity": "parking",
        "parking": "surface"
      }
    },
    {
      "type": "way",
      "id": 1240374869,
      "center": {
        "lat": 12.9212451,
        "lon": 77.6709618
      },
      "tags": {
        "access": "private",
        "amenity": "parking",
        "fee": "no",
        "parking": "street_side"
      }
    },
    {
      "type": "way",
      "id": 1241445647,
      "center": {
        "lat": 12.92427,
        "lon": 77.681769
      },
      "tags": {
        "access": "permissive",
        "amenity": "parking",
        "parking": "surface"
      }
    },
    {
      "type": "way",
      "id": 1241445648,
      "center": {
        "lat": 12.9245138,
        "lon": 77.6816795
      },
      "tags": {
        "access": "permissive",
        "amenity": "parking",
        "parking": "surface"
      }
    },
    {
      "type": "way",
      "id": 1241445650,
      "center": {
        "lat": 12.9254299,
        "lon": 77.682125
      },
      "tags": {
        "access": "permissive",
        "amenity": "parking",
        "parking": "surface"
      }
    },
    {
      "type": "way",
      "id": 1241445652,
      "center": {
        "lat": 12.9263653,
        "lon": 77.6818312
      },
      "tags": {
        "access": "permissive",
        "amenity": "parking",
        "parking": "surface"
      }
    },
    {
      "type": "way",
      "id": 1241445653,
      "center": {
        "lat": 12.9266904,
        "lon": 77.6813868
      },
      "tags": {
        "access": "private",
        "amenity": "parking",
        "orientation": "perpendicular",
        "parking": "street_side"
      }
    },
    {
      "type": "way",
      "id": 1241445654,
      "center": {
        "lat": 12.9278963,
        "lon": 77.6815609
      },
      "tags": {
        "access": "private",
        "amenity": "parking",
        "parking": "street_side"
      }
    },
    {
      "type": "way",
      "id": 1241445655,
      "center": {
        "lat": 12.9277963,
        "lon": 77.6815933
      },
      "tags": {
        "access": "private",
        "amenity": "parking",
        "parking": "street_side"
      }
    },
    {
      "type": "way",
      "id": 1241445658,
      "center": {
        "lat": 12.9209922,
        "lon": 77.6852916
      },
      "tags": {
        "access": "customers",
        "amenity": "parking",
        "fee": "yes",
        "parking": "street_side"
      }
    },
    {
      "type": "way",
      "id": 1242285249,
      "center": {
        "lat": 12.9214189,
        "lon": 77.6885007
      },
      "tags": {
        "access": "private",
        "covered": "no",
        "leisure": "swimming_pool",
        "sport": "swimming"
      }
    },
    {
      "type": "way",
      "id": 1242285250,
      "center": {
        "lat": 12.9207736,
        "lon": 77.6884762
      },
      "tags": {
        "leisure": "playground"
      }
    },
    {
      "type": "way",
      "id": 1242285251,
      "center": {
        "lat": 12.9174988,
        "lon": 77.6902247
      },
      "tags": {
        "leisure": "playground"
      }
    },
    {
      "type": "way",
      "id": 1242285258,
      "center": {
        "lat": 12.9163445,
        "lon": 77.690017
      },
      "tags": {
        "leisure": "garden"
      }
    },
    {
      "type": "way",
      "id": 1242285262,
      "center": {
        "lat": 12.9184227,
        "lon": 77.6901117
      },
      "tags": {
        "leisure": "playground"
      }
    },
    {
      "type": "way",
      "id": 1242285263,
      "center": {
        "lat": 12.9177173,
        "lon": 77.6896888
      },
      "tags": {
        "leisure": "garden"
      }
    },
    {
      "type": "way",
      "id": 1242290047,
      "center": {
        "lat": 12.9207617,
        "lon": 77.6944751
      },
      "tags": {
        "access": "private",
        "leisure": "swimming_pool"
      }
    },
    {
      "type": "way",
      "id": 1242290048,
      "center": {
        "lat": 12.9206739,
        "lon": 77.6943144
      },
      "tags": {
        "access": "private",
        "leisure": "swimming_pool"
      }
    },
    {
      "type": "way",
      "id": 1242290049,
      "center": {
        "lat": 12.9206072,
        "lon": 77.6944699
      },
      "tags": {
        "access": "private",
        "leisure": "swimming_pool"
      }
    },
    {
      "type": "way",
      "id": 1242490864,
      "center": {
        "lat": 12.9209017,
        "lon": 77.6945151
      },
      "tags": {
        "leisure": "playground"
      }
    },
    {
      "type": "way",
      "id": 1242730689,
      "center": {
        "lat": 12.9303072,
        "lon": 77.6913712
      },
      "tags": {
        "leisure": "park"
      }
    },
    {
      "type": "way",
      "id": 1242730693,
      "center": {
        "lat": 12.9295939,
        "lon": 77.6917922
      },
      "tags": {
        "full_name": "Embassy Tech Village Sports Zone",
        "leisure": "sports_centre",
        "name": "ETV Sports Zone"
      }
    },
    {
      "type": "way",
      "id": 1242730694,
      "center": {
        "lat": 12.9295858,
        "lon": 77.6922795
      },
      "tags": {
        "amenity": "fountain",
        "full_name": "Embassy Tech Village Water Fountain",
        "name": "ETV Water Fountain"
      }
    },
    {
      "type": "way",
      "id": 1242730702,
      "center": {
        "lat": 12.9293833,
        "lon": 77.6929448
      },
      "tags": {
        "amenity": "theatre",
        "full_name": "Embassy Tech Village Amphitheatre",
        "name": "ETV Amphitheatre",
        "theatre:type": "amphi"
      }
    },
    {
      "type": "way",
      "id": 1243179643,
      "center": {
        "lat": 12.9197971,
        "lon": 77.6853747
      },
      "tags": {
        "access": "customers",
        "amenity": "parking",
        "fee": "yes",
        "parking": "street_side"
      }
    },
    {
      "type": "way",
      "id": 1243247617,
      "center": {
        "lat": 12.9212026,
        "lon": 77.6868008
      },
      "tags": {
        "leisure": "garden"
      }
    },
    {
      "type": "way",
      "id": 1243254563,
      "center": {
        "lat": 12.9234495,
        "lon": 77.687305
      },
      "tags": {
        "leisure": "park",
        "name": "Deverabisanahalli Lake Park"
      }
    },
    {
      "type": "way",
      "id": 1261919052,
      "center": {
        "lat": 12.9221254,
        "lon": 77.6809956
      },
      "tags": {
        "leisure": "bleachers"
      }
    },
    {
      "type": "way",
      "id": 1269259650,
      "center": {
        "lat": 12.9333076,
        "lon": 77.6896265
      },
      "tags": {
        "access": "private",
        "amenity": "parking",
        "parking": "surface"
      }
    },
    {
      "type": "way",
      "id": 1273338982,
      "center": {
        "lat": 12.9168223,
        "lon": 77.6900114
      },
      "tags": {
        "amenity": "shelter",
        "building": "yes",
        "shelter_type": "gazebo"
      }
    },
    {
      "type": "way",
      "id": 1290198687,
      "center": {
        "lat": 12.9209474,
        "lon": 77.6672845
      },
      "tags": {
        "building": "yes",
        "building:levels": "3",
        "leisure": "fitness_centre",
        "name": "Iskcon - Sarjapur Road",
        "sport": "yoga"
      }
    },
    {
      "type": "way",
      "id": 1290198690,
      "center": {
        "lat": 12.9202359,
        "lon": 77.6674739
      },
      "tags": {
        "addr:city": "Bengaluru",
        "addr:housenumber": "3/4",
        "addr:postcode": "560103",
        "addr:street": "Sarjapura Road",
        "amenity": "hospital",
        "email": "queries@rainbowhospitals.in",
        "emergency": "yes",
        "healthcare": "hospital",
        "healthcare:speciality": "gynaecology;child_psychiatry;paediatrics;otolaryngology;fertility;neonatology;vascular_surgery;physiatry",
        "name": "Rainbow Childrens Hospital",
        "phone": "+91 08062261218",
        "website": "https://www.rainbowhospitals.in/"
      }
    },
    {
      "type": "way",
      "id": 1290198692,
      "center": {
        "lat": 12.9198945,
        "lon": 77.6672042
      },
      "tags": {
        "access": "customers",
        "amenity": "parking",
        "parking": "surface"
      }
    },
    {
      "type": "way",
      "id": 1296416035,
      "center": {
        "lat": 12.9147258,
        "lon": 77.6783963
      },
      "tags": {
        "leisure": "pitch",
        "sport": "basketball"
      }
    },
    {
      "type": "way",
      "id": 1296416079,
      "center": {
        "lat": 12.918331,
        "lon": 77.6799254
      },
      "tags": {
        "leisure": "park",
        "name": "Saul Kere Park"
      }
    },
    {
      "type": "way",
      "id": 1300187568,
      "center": {
        "lat": 12.9273497,
        "lon": 77.6806567
      },
      "tags": {
        "access": "permissive",
        "amenity": "parking",
        "parking": "surface"
      }
    },
    {
      "type": "way",
      "id": 1311553668,
      "center": {
        "lat": 12.9279886,
        "lon": 77.6827516
      },
      "tags": {
        "access": "private",
        "leisure": "swimming_pool"
      }
    },
    {
      "type": "way",
      "id": 1318182718,
      "center": {
        "lat": 12.9132217,
        "lon": 77.6828834
      },
      "tags": {
        "amenity": "cafe",
        "building": "yes",
        "name": "Glenn's Bakehouse"
      }
    },
    {
      "type": "way",
      "id": 1324954111,
      "center": {
        "lat": 12.9165327,
        "lon": 77.6909285
      },
      "tags": {
        "access": "private",
        "leisure": "swimming_pool"
      }
    },
    {
      "type": "way",
      "id": 1336849090,
      "center": {
        "lat": 12.9210303,
        "lon": 77.6953755
      },
      "tags": {
        "leisure": "pitch",
        "sport": "basketball"
      }
    },
    {
      "type": "way",
      "id": 1347908632,
      "center": {
        "lat": 12.9242079,
        "lon": 77.691098
      },
      "tags": {
        "amenity": "place_of_worship",
        "building": "yes",
        "name": "Gangamma temple",
        "religion": "hindu"
      }
    },
    {
      "type": "way",
      "id": 1347911181,
      "center": {
        "lat": 12.9256971,
        "lon": 77.6924597
      },
      "tags": {
        "amenity": "place_of_worship",
        "building": "yes",
        "religion": "hindu"
      }
    },
    {
      "type": "way",
      "id": 1347939376,
      "center": {
        "lat": 12.926192,
        "lon": 77.6905038
      },
      "tags": {
        "amenity": "place_of_worship",
        "building": "yes",
        "name": "Sri Shaneshwara Temple",
        "religion": "hindu"
      }
    },
    {
      "type": "way",
      "id": 1348969197,
      "center": {
        "lat": 12.9256004,
        "lon": 77.6934825
      },
      "tags": {
        "amenity": "place_of_worship",
        "building": "yes",
        "religion": "hindu"
      }
    },
    {
      "type": "way",
      "id": 1348969198,
      "center": {
        "lat": 12.9255393,
        "lon": 77.6934821
      },
      "tags": {
        "amenity": "place_of_worship",
        "building": "yes",
        "religion": "hindu"
      }
    },
    {
      "type": "way",
      "id": 1348969199,
      "center": {
        "lat": 12.9254697,
        "lon": 77.693498
      },
      "tags": {
        "amenity": "place_of_worship",
        "building": "yes",
        "religion": "hindu"
      }
    },
    {
      "type": "way",
      "id": 1348969200,
      "center": {
        "lat": 12.9254007,
        "lon": 77.6934616
      },
      "tags": {
        "amenity": "place_of_worship",
        "building": "yes",
        "religion": "hindu"
      }
    },
    {
      "type": "way",
      "id": 1427513670,
      "center": {
        "lat": 12.9176764,
        "lon": 77.6737318
      },
      "tags": {
        "access": "private",
        "leisure": "swimming_pool"
      }
    },
    {
      "type": "way",
      "id": 1427513674,
      "center": {
        "lat": 12.9176115,
        "lon": 77.6730295
      },
      "tags": {
        "access": "private",
        "leisure": "pitch",
        "sport": "soccer"
      }
    },
    {
      "type": "way",
      "id": 1427513677,
      "center": {
        "lat": 12.9179753,
        "lon": 77.6733482
      },
      "tags": {
        "access": "private",
        "leisure": "playground"
      }
    },
    {
      "type": "way",
      "id": 1427663393,
      "center": {
        "lat": 12.9199021,
        "lon": 77.6739489
      },
      "tags": {
        "access": "private",
        "leisure": "pitch",
        "sport": "volleyball"
      }
    },
    {
      "type": "way",
      "id": 1427663397,
      "center": {
        "lat": 12.9206176,
        "lon": 77.6746285
      },
      "tags": {
        "access": "private",
        "amenity": "parking",
        "parking": "carports"
      }
    },
    {
      "type": "way",
      "id": 1427663420,
      "center": {
        "lat": 12.9225957,
        "lon": 77.673017
      },
      "tags": {
        "access": "private",
        "leisure": "swimming_pool"
      }
    },
    {
      "type": "way",
      "id": 1427663441,
      "center": {
        "lat": 12.9228047,
        "lon": 77.6722661
      },
      "tags": {
        "access": "private",
        "leisure": "pitch",
        "sport": "tennis"
      }
    },
    {
      "type": "way",
      "id": 1427663442,
      "center": {
        "lat": 12.922857,
        "lon": 77.6720914
      },
      "tags": {
        "access": "private",
        "leisure": "playground"
      }
    },
    {
      "type": "way",
      "id": 1428943774,
      "center": {
        "lat": 12.915064,
        "lon": 77.6765942
      },
      "tags": {
        "access": "private",
        "leisure": "playground"
      }
    }
  ]
}