{
  "area_name": "Shivajinagar",
  "osm_id": 429303186,
  "osm_type": "node",
  "place_type": "suburb",
  "amenity_count": 592,
  "amenities": [
    {
      "type": "node",
      "id": 596449197,
      "lat": 12.9858036,
      "lon": 77.6055705,
      "tags": {
        "amenity": "place_of_worship",
        "religion": "muslim"
      }
    },
    {
      "type": "node",
      "id": 596456779,
      "lat": 12.9838784,
      "lon": 77.602792,
      "tags": {
        "amenity": "toilets"
      }
    },
    {
      "type": "node",
      "id": 665871279,
      "lat": 12.9798386,
      "lon": 77.6027906,
      "tags": {
        "amenity": "restaurant",
        "cuisine": "indian",
        "name": "Hotel Empire",
        "name:kn": "ಹೋಟೆಲ್ ಎಂಪೈರ್"
      }
    },
    {
      "type": "node",
      "id": 665871282,
      "lat": 12.9847344,
      "lon": 77.5971261,
      "tags": {
        "addr:street": "Cunningham Road",
        "amenity": "restaurant",
        "cuisine": "regional",
        "diet:vegetarian": "yes",
        "name": "Sanman Veg"
      }
    },
    {
      "type": "node",
      "id": 677288910,
      "lat": 12.982738,
      "lon": 77.6030551,
      "tags": {
        "amenity": "restaurant",
        "cuisine": "indian",
        "name": "Hotel Vinitha",
        "name:kn": "ಹೋಟೆಲ್ ವಿನಿತ"
      }
    },
    {
      "type": "node",
      "id": 1005544881,
      "lat": 12.9815051,
      "lon": 77.6011944,
      "tags": {
        "addr:city": "Bangalore",
        "addr:housenumber": "55",
        "addr:postcode": "560001",
        "addr:street": "Infantry Road",
        "amenity": "hospital",
        "email": "bengaluru@medinovaindia.com",
        "fax": "+918022867244",
        "name": "Mallya Audikesh Diagnostics Center",
        "phone": "+918022868423",
        "website": "http://www.medinovaindia.com"
      }
    },
    {
      "type": "node",
      "id": 1306431953,
      "lat": 12.9831559,
      "lon": 77.5987115,
      "tags": {
        "addr:housenumber": "21/1",
        "addr:street": "Cunningham Road",
        "amenity": "restaurant",
        "cuisine": "indian",
        "full_name": "Eden Park Bar And Restaurant",
        "name": "Eden Park",
        "name:kn": "ಎಡಿನ್ ಪಾರ್ಕ್ ಬಾರ್ ಮತ್ತು ರೆಸ್ಟೋರೆಂಟ್"
      }
    },
    {
      "type": "node",
      "id": 1387516391,
      "lat": 12.9803877,
      "lon": 77.6046163,
      "tags": {
        "addr:city": "Bangalore",
        "addr:street": "Infantry Road",
        "name": "Gem Plaza",
        "shop": "mall"
      }
    },
    {
      "type": "node",
      "id": 1468032543,
      "lat": 12.9825987,
      "lon": 77.6070246,
      "tags": {
        "addr:city": "Bangalore",
        "addr:housename": "Shivajinagar",
        "addr:street": "Commercial Street",
        "name": "Baby Center",
        "shop": "clothes"
      }
    },
    {
      "type": "node",
      "id": 1468032545,
      "lat": 12.9821744,
      "lon": 77.6081695,
      "tags": {
        "addr:city": "Bangalore",
        "addr:housename": "Shivajinagar",
        "addr:street": "Commercial Street",
        "brand": "Bata",
        "brand:wikidata": "Q688082",
        "check_date": "2023-04-07",
        "name": "Bata",
        "name:kn": "ಬಾಟಾ",
        "payment:mastercard": "yes",
        "payment:upi": "yes",
        "payment:visa": "yes",
        "shop": "shoes",
        "wheelchair": "no"
      }
    },
    {
      "type": "node",
      "id": 1468032546,
      "lat": 12.9823894,
      "lon": 77.607536,
      "tags": {
        "addr:city": "Bangalore",
        "addr:housename": "Shivajinagar",
        "addr:postcode": "560042",
        "addr:street": "Commercial Street",
        "alt_name": "Kentucky Fried Chicken",
        "alt_name:en": "Kentucky Fried Chicken",
        "alt_name:hi": "केंटुकी फ्राइड चिकन",
        "alt_name:pa": "ਕੈਂਟੁਕੀ ਫ੍ਰਾਈਡ ਚਿਕਨ",
        "alt_name:pnb": "کینٹکی فرائیڈ چکن",
        "alt_name:ur": "کینٹکی فرائیڈ چکن",
        "amenity": "fast_food",
        "brand": "KFC",
        "brand:en": "KFC",
        "brand:hi": "केएफसी",
        "brand:pa": "ਕੇਐਫਸੀ",
        "brand:pnb": "کے ایف سی",
        "brand:ur": "کے ایف سی",
        "brand:wikidata": "Q524757",
        "brand:wikipedia": "en:KFC",
        "brand:wikipedia:pa": "ਕੇਐਫਸੀ",
        "brand:wikipedia:ur": "کینٹکی فرائیڈ چکن",
        "cuisine": "chicken",
        "name": "KFC",
        "name:en": "KFC",
        "name:hi": "केएफसी",
        "name:kn": "ಕೆಎಫ್‍ಸಿ",
        "name:pa": "ਕੇਐਫਸੀ",
        "name:pnb": "کے ایف سی",
        "name:ur": "کے ایف سی",
        "takeaway": "yes"
      }
    },
    {
      "type": "node",
      "id": 1468032547,
      "lat": 12.9826293,
      "lon": 77.6068536,
      "tags": {
        "addr:city": "Bangalore",
        "addr:housename": "Shivajinagar",
        "addr:postcode": "560084",
        "addr:street": "Commercial Street",
        "brand": "Westside",
        "name": "Westside",
        "shop": "clothes"
      }
    },
    {
      "type": "node",
      "id": 1468032550,
      "lat": 12.9805966,
      "lon": 77.6074314,
      "tags": {
        "amenity": "atm",
        "brand": "Punjab National Bank",
        "brand:wikidata": "Q2743499",
        "name": "Punjab National Bank",
        "name:kn": "ಪಂಜಾಬ ರಾಷ್ಟ್ರೀಯ ಬ್ಯಾಂಕ್",
        "operator": "Punjab National Bank",
        "operator:wikidata": "Q2743499"
      }
    },
    {
      "type": "node",
      "id": 1469183215,
      "lat": 12.9930687,
      "lon": 77.609477,
      "tags": {
        "amenity": "toilets"
      }
    },
    {
      "type": "node",
      "id": 1469196551,
      "lat": 12.9931105,
      "lon": 77.6089191,
      "tags": {
        "addr:street": "Saint John's Church Road",
        "amenity": "restaurant",
        "name": "Al-Siddique Kabab Center",
        "name:kn": "ಅಲ್-ಸಿದ್ದಿಕಿ ಕಬಾಬ್ ಸೆಂಟರ್"
      }
    },
    {
      "type": "node",
      "id": 1469196554,
      "lat": 12.993662,
      "lon": 77.6086321,
      "tags": {
        "name": "Tyre Shop",
        "shop": "car_repair"
      }
    },
    {
      "type": "node",
      "id": 1469196557,
      "lat": 12.9933614,
      "lon": 77.6080259,
      "tags": {
        "addr:street": "Saint John's Church Road",
        "amenity": "clinic",
        "name": "Santosh Diagnostic & Scan Center"
      }
    },
    {
      "type": "node",
      "id": 1469196561,
      "lat": 12.9934162,
      "lon": 77.608356,
      "tags": {
        "addr:street": "Saint John's Church Road",
        "amenity": "restaurant",
        "name": "Siddique Kabab Center",
        "name:kn": "ಸಿದ್ದಿಕಿ ಕಬಾಬ್ ಸೆಂಟರ್"
      }
    },
    {
      "type": "node",
      "id": 1469196563,
      "lat": 12.9936045,
      "lon": 77.6078087,
      "tags": {
        "amenity": "vending_machine",
        "name": "Citibank ATM",
        "name:kn": "ಸಿಟಿಬ್ಯಾಂಕ್"
      }
    },
    {
      "type": "node",
      "id": 1469196568,
      "lat": 12.9936175,
      "lon": 77.6083773,
      "tags": {
        "addr:street": "Saint John's Church Road",
        "name": "Mutton Shop",
        "shop": "butcher"
      }
    },
    {
      "type": "node",
      "id": 1469196571,
      "lat": 12.9936149,
      "lon": 77.6084336,
      "tags": {
        "name": "Chicken Shop",
        "shop": "butcher"
      }
    },
    {
      "type": "node",
      "id": 1469196573,
      "lat": 12.9935915,
      "lon": 77.6086664,
      "tags": {
        "addr:street": "Saint John's Church Road",
        "amenity": "clinic",
        "name": "Park View Clinic",
        "name:kn": "ಪಾರ್ಕ್ ವೀವ್ ಕ್ಲಿನಿಕ್"
      }
    },
    {
      "type": "node",
      "id": 1469249201,
      "lat": 12.9916626,
      "lon": 77.6024335,
      "tags": {
        "amenity": "school",
        "check_date": "2024-08-11",
        "name": "Santosh Institute of Nursing & Research"
      }
    },
    {
      "type": "node",
      "id": 1469249217,
      "lat": 12.9917256,
      "lon": 77.5991714,
      "tags": {
        "amenity": "veterinary",
        "name": "Government Veterinary Hospital",
        "name:kn": "ಸರ್ಕಾರಿ ಪಶುವೈದ್ಯ ಆಸ್ಪತ್ರೆ"
      }
    },
    {
      "type": "node",
      "id": 1469249257,
      "lat": 12.9916809,
      "lon": 77.599758,
      "tags": {
        "amenity": "place_of_worship",
        "name": "Ganesha Temple",
        "name:kn": "ಗಣೇಶ ದೇವಸ್ಥಾನ",
        "religion": "hindu"
      }
    },
    {
      "type": "node",
      "id": 1469265737,
      "lat": 12.98516,
      "lon": 77.6016342,
      "tags": {
        "amenity": "cinema",
        "name": "Elgin Cinema",
        "name:kn": "ಎಲ್ಗಿನ್ ಸಿನೆಮಾ"
      }
    },
    {
      "type": "node",
      "id": 1469265763,
      "lat": 12.9847411,
      "lon": 77.6014987,
      "tags": {
        "addr:city": "Shivaji Nagar, Bangalore",
        "addr:postcode": "560051",
        "addr:street": "Venkataswamy Naidu Road",
        "amenity": "place_of_worship",
        "name": "Dandu Maramma Temple",
        "name:kn": "ದಂಡುಮಾರಮ್ಮ ದೇವಸ್ಥಾನ",
        "religion": "hindu"
      }
    },
    {
      "type": "node",
      "id": 1469614184,
      "lat": 12.9892398,
      "lon": 77.6084577,
      "tags": {
        "alt_name": "Muthyalamma Kovil",
        "amenity": "place_of_worship",
        "name": "Mutyalamma Temple",
        "name:kn": "ಮುತ್ಯಲಮ್ಮ ದೇವಸ್ಥಾನ",
        "note": "An annual Car Festival of \"Goddess Muthyalamma\" proceeds from here and around Shivajinagar in April: https://www.timescontent.com/syndication-photos/reprint/feature/222722/muthyalamma-car-festival-hindu-fest.html",
        "religion": "hindu"
      }
    },
    {
      "type": "node",
      "id": 1474297275,
      "lat": 12.9918131,
      "lon": 77.6116694,
      "tags": {
        "addr:postcode": "560005",
        "addr:street": "ST JOHNS CHURCH ROAD",
        "alt_name": "Union Bank, St. John's Church Road Branch",
        "amenity": "bank",
        "atm": "yes",
        "brand": "Union Bank of India",
        "brand:wikidata": "Q2004078",
        "brand:wikipedia": "en:Union Bank of India",
        "name": "Union Bank of India",
        "name:en": "Union Bank of India",
        "name:kn": "ಯೂನಿಯನ್ ಬ್ಯಾಂಕ್",
        "short_name": "UBI",
        "website": "https://www.unionbankofindia.co.in/"
      }
    },
    {
      "type": "node",
      "id": 1474297569,
      "lat": 12.9814476,
      "lon": 77.6103605,
      "tags": {
        "amenity": "atm",
        "brand": "ICICI Bank",
        "brand:wikidata": "Q1653258",
        "fee": "no",
        "name": "ICICI Bank",
        "name:kn": "ಐಸಿಐಸಿಐ ಬ್ಯಾಂಕು",
        "operator": "ICICI Bank",
        "operator:wikidata": "Q1653258",
        "short_name": "ICICI"
      }
    },
    {
      "type": "node",
      "id": 1474299234,
      "lat": 12.9810398,
      "lon": 77.6104463,
      "tags": {
        "addr:housenumber": "183",
        "addr:postcode": "560042",
        "addr:street": "Dickenson Road",
        "name": "Malabar Jewellery",
        "name:kn": "ಮಲಬಾರ್ ಜಿವೆಲರಿ",
        "shop": "jewelry",
        "website": "www.malabargoldindia.com"
      }
    },
    {
      "type": "node",
      "id": 1474302939,
      "lat": 12.9827449,
      "lon": 77.6069771,
      "tags": {
        "addr:city": "Bangalore",
        "addr:housename": "Shivajinagar",
        "addr:housenumber": "119/120",
        "addr:postcode": "560084",
        "addr:street": "Commercial Street",
        "brand": "Max",
        "brand:wikidata": "Q24939079",
        "name": "Max",
        "shop": "clothes"
      }
    },
    {
      "type": "node",
      "id": 1474302940,
      "lat": 12.9814894,
      "lon": 77.6101459,
      "tags": {
        "addr:housenumber": "1",
        "addr:postcode": "560042",
        "addr:street": "Commercial Street",
        "name": "Sri Krishna Diamond and Jewellery",
        "name:kn": "ಶ್ರೀ ಕೃಷ್ಣ ವಜ್ರ ಮತ್ತು ಜಿವೆಲರಿ",
        "shop": "jewelry"
      }
    },
    {
      "type": "node",
      "id": 1474302941,
      "lat": 12.9825702,
      "lon": 77.6070982,
      "tags": {
        "addr:city": "Bangalore",
        "addr:housename": "Shivajinagar",
        "addr:street": "Commercial Street",
        "amenity": "police",
        "name": "Commercial Street Police Station",
        "name:kn": "ಕಮರ್ಷಿಯಲ್ ರಸ್ತೆ ಆರಕ್ಷಕ ಠಾಣೆ",
        "wheelchair": "no"
      }
    },
    {
      "type": "node",
      "id": 1474308850,
      "lat": 12.9817871,
      "lon": 77.6092771,
      "tags": {
        "addr:housenumber": "20",
        "addr:postcode": "560084",
        "addr:street": "Commercial Street",
        "name": "The Brown Shop",
        "name:kn": "ದ ಬ್ರೌನ್ ಶಾಪ್",
        "shop": "clothes"
      }
    },
    {
      "type": "node",
      "id": 1474308851,
      "lat": 12.9816462,
      "lon": 77.6095934,
      "tags": {
        "addr:postcode": "560042",
        "addr:street": "Commercial Street",
        "name": "Lee Showroom",
        "name:kn": "ಲೀ ಶೋರೂಂ",
        "shop": "clothes"
      }
    },
    {
      "type": "node",
      "id": 1474308852,
      "lat": 12.9822735,
      "lon": 77.6078285,
      "tags": {
        "amenity": "restaurant"
      }
    },
    {
      "type": "node",
      "id": 1474308854,
      "lat": 12.9811601,
      "lon": 77.6102478,
      "tags": {
        "addr:street": "Kamaraj Road",
        "brand": "Levi's",
        "brand:wikidata": "Q127962",
        "clothes": "denim;men;women",
        "name": "Levi's",
        "name:kn": "ಲೆವಿಸ್",
        "shop": "clothes"
      }
    },
    {
      "type": "node",
      "id": 1474308855,
      "lat": 12.9825453,
      "lon": 77.6104302,
      "tags": {
        "addr:street": "Kamaraj Road",
        "amenity": "restaurant",
        "cuisine": "sandwich",
        "name": "Cool Joint",
        "name:kn": "ಕೂಲ್ ಜಾಯಿಂಟ್"
      }
    },
    {
      "type": "node",
      "id": 1474308856,
      "lat": 12.9826498,
      "lon": 77.6104195,
      "tags": {
        "addr:postcode": "560042",
        "addr:street": "Commercial Street",
        "amenity": "bank",
        "atm": "yes",
        "name": "Corp Bank",
        "name:kn": "ಕಾರ್ಪ್ ಬ್ಯಾಂಕ್"
      }
    },
    {
      "type": "node",
      "id": 1821582118,
      "lat": 12.9828042,
      "lon": 77.6105271,
      "tags": {
        "amenity": "cafe",
        "name": "Sreeraj lassi bar",
        "name:kn": "ಶ್ರೀರಾಜ್ ಲಸ್ಸಿ ಬಾರ್",
        "smoking": "no"
      }
    },
    {
      "type": "node",
      "id": 1931940008,
      "lat": 12.9816856,
      "lon": 77.6083084,
      "tags": {
        "addr:city": "Bangalore",
        "addr:street": "Dispensary Road",
        "name": "Tamanna",
        "name:kn": "ತಮನ್ನಾ",
        "shop": "clothes"
      }
    },
    {
      "type": "node",
      "id": 1931940015,
      "lat": 12.9814514,
      "lon": 77.6077784,
      "tags": {
        "name": "Kalyan Silks",
        "shop": "clothes"
      }
    },
    {
      "type": "node",
      "id": 2268440722,
      "lat": 12.9809636,
      "lon": 77.6105003,
      "tags": {
        "amenity": "taxi"
      }
    },
    {
      "type": "node",
      "id": 2487524465,
      "lat": 12.9814915,
      "lon": 77.6083334,
      "tags": {
        "addr:city": "Bangalore",
        "addr:housename": "Opp Tamanna",
        "addr:street": "Dispensary Road",
        "name": "Nutan Silks",
        "name:kn": "ನೂತನ್ ಸಿಲ್ಕ್ಸ್",
        "shop": "clothes"
      }
    },
    {
      "type": "node",
      "id": 2487524466,
      "lat": 12.9814677,
      "lon": 77.6084953,
      "tags": {
        "addr:city": "Bangalore",
        "addr:housename": "Opp Tamanna",
        "addr:street": "Dispensary Road",
        "name": "Geetanjali",
        "name:kn": "ಗೀತಾಂಜಲಿ",
        "shop": "jewelry"
      }
    },
    {
      "type": "node",
      "id": 2487524467,
      "lat": 12.9811096,
      "lon": 77.6102253,
      "tags": {
        "addr:city": "Bangalore",
        "addr:housename": "Near Commercial Street",
        "addr:street": "Kamaraj Road",
        "name": "Lake N Bake",
        "name:kn": "ಲೇಖ್ ಎನ್ ಬೇಕ್",
        "shop": "bakery"
      }
    },
    {
      "type": "node",
      "id": 2487524468,
      "lat": 12.9811057,
      "lon": 77.6102575,
      "tags": {
        "addr:city": "Bangalore",
        "addr:housename": "Near Commercial Street",
        "addr:street": "Kamaraj Road",
        "amenity": "fast_food",
        "cuisine": "regional",
        "name": "Hotel barbies",
        "name:kn": "ಹೊಟೆಲ್ ಬಾರಬೀಸ್"
      }
    },
    {
      "type": "node",
      "id": 2496916039,
      "lat": 12.9805404,
      "lon": 77.6072557,
      "tags": {
        "addr:city": "Bangalore",
        "addr:housename": "Next to Krishnaiah Chetty and Sons",
        "addr:street": "Main Guard Cross Road",
        "name": "Inmark",
        "shop": "clothes"
      }
    },
    {
      "type": "node",
      "id": 2496920248,
      "lat": 12.9827176,
      "lon": 77.6070474,
      "tags": {
        "addr:city": "Bangalore",
        "addr:housename": "Opp Commercial Street Police Station",
        "addr:street": "Commercial Street",
        "name": "Thunderbird",
        "name:kn": "ಥಂಡರ್‍ಬರ್ಡ್",
        "shop": "leather_wear"
      }
    },
    {
      "type": "node",
      "id": 2496920252,
      "lat": 12.9820759,
      "lon": 77.6090805,
      "tags": {
        "addr:city": "Bangalore",
        "addr:housename": "Shivajinagar",
        "addr:street": "Commercial Street",
        "name": "World of Titan",
        "name:kn": "ವರ್ಲ್ಡ್ ಆಫ್ ಟೈಟನ್",
        "shop": "watches"
      }
    },
    {
      "type": "node",
      "id": 2496920257,
      "lat": 12.9818276,
      "lon": 77.6092079,
      "tags": {
        "addr:city": "Bangalore",
        "addr:housename": "Shivajinagar",
        "addr:street": "Commercial Street",
        "amenity": "cafe",
        "cuisine": "coffee_shop",
        "internet_access": "yes",
        "name": "Cafe Coffe Day",
        "name:kn": "ಕಫೆ ಕಾಫಿ ಡೇ"
      }
    },
    {
      "type": "node",
      "id": 2496920263,
      "lat": 12.9814604,
      "lon": 77.6104149,
      "tags": {
        "addr:city": "Bangalore",
        "addr:housename": "Near Commercial Street Entrance, Shivajinagar",
        "addr:street": "Kamaraj Road",
        "name": "Mysore Saree Udyog",
        "name:kn": "ಮೈಸೂರು ಸೀರೆ ಉದ್ಯೋಗ್",
        "shop": "clothes"
      }
    },
    {
      "type": "node",
      "id": 2496920267,
      "lat": 12.9819531,
      "lon": 77.6088847,
      "tags": {
        "addr:city": "Bangalore",
        "addr:housename": "Shivajinagar",
        "addr:street": "Commercial Street",
        "name": "Sterling House",
        "name:kn": "ಸ್ಟೆರ್ಲಿಂಗ್ ಹೌಸ್",
        "shop": "clothes"
      }
    },
    {
      "type": "node",
      "id": 2496920271,
      "lat": 12.9819355,
      "lon": 77.6082221,
      "tags": {
        "addr:city": "Bangalore",
        "addr:housename": "Shivajinagar",
        "addr:street": "Commercial Street",
        "amenity": "restaurant",
        "check_date": "2023-04-07",
        "cuisine": "regional",
        "name": "Shiv Sagar",
        "name:kn": "ಶಿವ್ ಸಾಗರ್",
        "payment:mastercard": "yes",
        "payment:visa": "yes",
        "source": "survey"
      }
    },
    {
      "type": "node",
      "id": 2868082723,
      "lat": 12.9820126,
      "lon": 77.6086888,
      "tags": {
        "addr:city": "Bangalore",
        "addr:housenumber": "35 & 36",
        "addr:postcode": "560001",
        "addr:street": "Commercial Street",
        "check_date": "2023-04-07",
        "name": "C. Krishnaih Chetty & Sons.",
        "name:kn": "ಸಿ. ಕೃಷ್ಣಯ್ಯ ಚೆಟ್ಟಿ & ಸನ್ಸ್",
        "phone": "+918040001869",
        "shop": "jewelry",
        "website": "http://www.ckcsons.com"
      }
    },
    {
      "type": "node",
      "id": 2868082724,
      "lat": 12.9818715,
      "lon": 77.6094935,
      "tags": {
        "addr:street": "Commercial Street",
        "amenity": "restaurant",
        "name": "Woody's",
        "name:kn": "ಉಡ್ಡಿಸ್"
      }
    },
    {
      "type": "node",
      "id": 2868082725,
      "lat": 12.9815508,
      "lon": 77.607875,
      "tags": {
        "name": "Gold Palace",
        "shop": "jewelry"
      }
    },
    {
      "type": "node",
      "id": 2868082727,
      "lat": 12.9817677,
      "lon": 77.6081245,
      "tags": {
        "name": "Alice Jewellers",
        "name:kn": "ಆಲೀಸ್ ಜಿವೆಲರ್ಸ್",
        "shop": "jewelry"
      }
    },
    {
      "type": "node",
      "id": 2902562444,
      "lat": 12.9808323,
      "lon": 77.6023684,
      "tags": {
        "addr:housename": "Noor and co",
        "addr:housenumber": "121",
        "addr:postcode": "560001",
        "addr:street": "Infantry Road",
        "designation": "Furniture store",
        "name": "Noor and co",
        "shop": "furniture",
        "source": "bing",
        "website": "https://www.facebook.com/noorandco"
      }
    },
    {
      "type": "node",
      "id": 3002625515,
      "lat": 12.9807537,
      "lon": 77.6073428,
      "tags": {
        "addr:city": "Bangalore",
        "addr:housenumber": "3A",
        "addr:postcode": "560001",
        "addr:street": "Main Guard Cross Road",
        "name": "C. Krishniah Chetty & Sons",
        "phone": "+918040001869",
        "shop": "jewelry",
        "website": "http://www.ckcsons.com"
      }
    },
    {
      "type": "node",
      "id": 3218746234,
      "lat": 12.9818224,
      "lon": 77.610245,
      "tags": {
        "addr:street": "Kamaraj Road",
        "amenity": "bank",
        "brand": "Corporation Bank",
        "brand:wikidata": "Q2003387",
        "brand:wikipedia": "en:Corporation Bank",
        "name": "Corporation Bank",
        "name:en": "Corporation Bank",
        "name:kn": "ಕಾರ್ಪರೇಷನ್ ಬ್ಯಾಂಕ್",
        "website": "https://corpbank.com/"
      }
    },
    {
      "type": "node",
      "id": 3218746549,
      "lat": 12.9818877,
      "lon": 77.610465,
      "tags": {
        "amenity": "atm",
        "brand": "Citibank",
        "brand:wikidata": "Q857063",
        "name": "Citibank",
        "name:kn": "ಸಿಟಿಬ್ಯಾಂಕ್",
        "opening_hours": "24/7",
        "operator": "Citibank",
        "operator:wikidata": "Q857063",
        "short_name": "Citi"
      }
    },
    {
      "type": "node",
      "id": 3218746897,
      "lat": 12.981859,
      "lon": 77.6102799,
      "tags": {
        "amenity": "atm",
        "brand": "Corporation Bank",
        "brand:wikidata": "Q2003387",
        "name": "Corporation Bank",
        "name:kn": "ಕಾರ್ಪರೆಷನ್ ಬ್ಯಾಂಕ್ ಎಟಿಎಂ",
        "operator": "Corporation Bank",
        "operator:wikidata": "Q2003387"
      }
    },
    {
      "type": "node",
      "id": 3226589031,
      "lat": 12.9844175,
      "lon": 77.6033409,
      "tags": {
        "amenity": "cafe",
        "name": "Sreeraj Lassi Bar",
        "name:kn": "ಶ್ರೀರಾಜ್ ಲಸ್ಸಿ ಬಾರ್"
      }
    },
    {
      "type": "node",
      "id": 3714125742,
      "lat": 12.9814249,
      "lon": 77.6015383,
      "tags": {
        "name": "National Motors",
        "second_hand": "only",
        "shop": "car"
      }
    },
    {
      "type": "node",
      "id": 3714125743,
      "lat": 12.9813859,
      "lon": 77.6014187,
      "tags": {
        "amenity": "fast_food",
        "name": "Santosh Chat"
      }
    },
    {
      "type": "node",
      "id": 3714125744,
      "lat": 12.9900105,
      "lon": 77.5988107,
      "tags": {
        "addr:district": "Bengaluru Urban",
        "addr:full": "Queens Road",
        "addr:state": "Karnataka",
        "addr:street": "Queen's Road",
        "amenity": "hospital",
        "name": "Shifa Hospital, Bengaluru Urban",
        "name:kn": "ಶಿಫಾ ಆಸ್ಪತ್ರೆ",
        "operator:type": "private",
        "source": "OpenGovernmentData",
        "website": "http://dpal.kar.nic.in/Kanunu%20padakosha%20PDF%20Files/Recognised%20Hospitals.pdf"
      }
    },
    {
      "type": "node",
      "id": 3714125745,
      "lat": 12.9810668,
      "lon": 77.6019607,
      "tags": {
        "name": "Sri Rama Battery Point",
        "shop": "battery"
      }
    },
    {
      "type": "node",
      "id": 3714125755,
      "lat": 12.9833614,
      "lon": 77.6033233,
      "tags": {
        "amenity": "atm",
        "brand": "Canara Bank",
        "brand:en": "Canara Bank",
        "brand:hi": "केनरा बैंक",
        "brand:kn": "ಕೆನರಾ ಬ್ಯಾಂಕ್",
        "brand:pa": "ਕੇਨਰਾ ਬੈਂਕ",
        "brand:pnb": "کینرا بینک",
        "brand:ur": "کینرا بینک",
        "brand:wikidata": "Q2003777",
        "name": "Canara Bank",
        "name:en": "Canara Bank",
        "name:hi": "केनरा बैंक",
        "name:kn": "ಕೆನರಾ ಬ್ಯಾಂಕ್",
        "name:pa": "ਕੇਨਰਾ ਬੈਂਕ",
        "name:pnb": "کینرا بینک",
        "name:ur": "کینرا بینک",
        "operator": "Canara Bank",
        "operator:wikidata": "Q2003777"
      }
    },
    {
      "type": "node",
      "id": 3837556457,
      "lat": 12.9860243,
      "lon": 77.6053111,
      "tags": {
        "addr:street": "Hazrat Kambal Posh Road",
        "butcher": "beef",
        "name": "Beef Market",
        "shop": "butcher"
      }
    },
    {
      "type": "node",
      "id": 3837583815,
      "lat": 12.9835609,
      "lon": 77.6064216,
      "tags": {
        "amenity": "place_of_worship",
        "name": "Masjid-e-Beoparian",
        "religion": "muslim"
      }
    },
    {
      "type": "node",
      "id": 3937649657,
      "lat": 12.9826791,
      "lon": 77.61051,
      "tags": {
        "amenity": "restaurant",
        "name": "Khan Saheb Grills and Rolls",
        "smoking": "no",
        "takeaway": "yes"
      }
    },
    {
      "type": "node",
      "id": 3939412758,
      "lat": 12.9816001,
      "lon": 77.6101732,
      "tags": {
        "addr:street": "Commercial Street",
        "name": "Wrangler",
        "name:kn": "ರಾಂಗ್ಲರ್",
        "shop": "clothes"
      }
    },
    {
      "type": "node",
      "id": 3939412759,
      "lat": 12.9819526,
      "lon": 77.6103232,
      "tags": {
        "addr:street": "Kamaraj Road",
        "level": "1",
        "name": "Moksh Studio",
        "shop": "clothes"
      }
    },
    {
      "type": "node",
      "id": 3939454857,
      "lat": 12.9817301,
      "lon": 77.6104468,
      "tags": {
        "addr:street": "Kamaraj Road",
        "level": "0",
        "name": "Moksh",
        "shop": "clothes"
      }
    },
    {
      "type": "node",
      "id": 4030235909,
      "lat": 12.9809879,
      "lon": 77.6042281,
      "tags": {
        "amenity": "marketplace",
        "name": "Infantry Road Furniture Market"
      }
    },
    {
      "type": "node",
      "id": 4294269906,
      "lat": 12.9810245,
      "lon": 77.6024328,
      "tags": {
        "name": "InMark Factory Outlet",
        "shop": "fashion"
      }
    },
    {
      "type": "node",
      "id": 4294273000,
      "lat": 12.9808894,
      "lon": 77.6021928,
      "tags": {
        "level": "-1",
        "name": "New Heritage Collection",
        "shop": "gift"
      }
    },
    {
      "type": "node",
      "id": 4294277258,
      "lat": 12.9808556,
      "lon": 77.6022008,
      "tags": {
        "level": "2",
        "name": "Redington",
        "shop": "electronics"
      }
    },
    {
      "type": "node",
      "id": 4294281306,
      "lat": 12.9812997,
      "lon": 77.6015215,
      "tags": {
        "name": "Asma",
        "shop": "perfumery"
      }
    },
    {
      "type": "node",
      "id": 4294281307,
      "lat": 12.9814081,
      "lon": 77.6012679,
      "tags": {
        "amenity": "pharmacy",
        "level": "0",
        "name": "Green Apple"
      }
    },
    {
      "type": "node",
      "id": 4294819100,
      "lat": 12.9816556,
      "lon": 77.602036,
      "tags": {
        "amenity": "post_office",
        "name": "UPS Express",
        "operator": "UPS"
      }
    },
    {
      "type": "node",
      "id": 4294824407,
      "lat": 12.9812314,
      "lon": 77.6017194,
      "tags": {
        "amenity": "bank",
        "atm": "yes",
        "branch": "(E  Vijaya Bank)",
        "brand": "Bank of Baroda",
        "brand:wikidata": "Q2003797",
        "brand:wikipedia": "en:Bank of Baroda",
        "name": "Bank of Baroda",
        "name:kn": "ವಿಜಯ ಬ್ಯಾಂಕು"
      }
    },
    {
      "type": "node",
      "id": 4294826162,
      "lat": 12.9812106,
      "lon": 77.6018221,
      "tags": {
        "clothes": "women",
        "name": "Sultania Arts Emporium",
        "shop": "clothes"
      }
    },
    {
      "type": "node",
      "id": 4294826627,
      "lat": 12.9810655,
      "lon": 77.6015639,
      "tags": {
        "name": "PC Mallappa & Co",
        "shop": "hardware"
      }
    },
    {
      "type": "node",
      "id": 4294889150,
      "lat": 12.9817773,
      "lon": 77.6013942,
      "tags": {
        "name": "Stationery shop",
        "shop": "stationery"
      }
    },
    {
      "type": "node",
      "id": 4294895474,
      "lat": 12.9813123,
      "lon": 77.6008987,
      "tags": {
        "amenity": "events_venue",
        "check_date": "2024-11-07",
        "name": "Gulistan Shadi Mahal"
      }
    },
    {
      "type": "node",
      "id": 4295493029,
      "lat": 12.9811084,
      "lon": 77.6014285,
      "tags": {
        "amenity": "atm",
        "name": "Lakshmi Vilasa Bank Ltd",
        "name:kn": "ಲಕ್ಷ್ಮಿ ವಿಲಾಸ ಬಾಂಕ್",
        "operator": "PNB"
      }
    },
    {
      "type": "node",
      "id": 4299309955,
      "lat": 12.9825997,
      "lon": 77.6028514,
      "tags": {
        "amenity": "bank",
        "name": "Amanath Co-op Bank Ltd"
      }
    },
    {
      "type": "node",
      "id": 4299314856,
      "lat": 12.9824388,
      "lon": 77.6022077,
      "tags": {
        "level": "0",
        "name": "Imaad",
        "shop": "perfumery"
      }
    },
    {
      "type": "node",
      "id": 4299314864,
      "lat": 12.9825866,
      "lon": 77.6016812,
      "tags": {
        "amenity": "post_office",
        "name": "Blue Dart - DHL",
        "operator": "DHL"
      }
    },
    {
      "type": "node",
      "id": 4299314865,
      "lat": 12.9825413,
      "lon": 77.6016674,
      "tags": {
        "level": "0",
        "name": "Prestige Interiors",
        "shop": "interior_decoration"
      }
    },
    {
      "type": "node",
      "id": 4299315072,
      "lat": 12.9825246,
      "lon": 77.6020789,
      "tags": {
        "amenity": "motorcycle_parking",
        "covered": "no",
        "name": "Parking"
      }
    },
    {
      "type": "node",
      "id": 4299316271,
      "lat": 12.9826427,
      "lon": 77.6013708,
      "tags": {
        "level": "1",
        "name": "Aman Trading Co",
        "shop": "hardware"
      }
    },
    {
      "type": "node",
      "id": 4299317006,
      "lat": 12.9826427,
      "lon": 77.6013708,
      "tags": {
        "level": "-1",
        "name": "Best Auto Traders",
        "shop": "car"
      }
    },
    {
      "type": "node",
      "id": 4301452672,
      "lat": 12.9806364,
      "lon": 77.602787,
      "tags": {
        "amenity": "restaurant",
        "level": "0",
        "name": "Hotel Metropole"
      }
    },
    {
      "type": "node",
      "id": 4301452705,
      "lat": 12.9808223,
      "lon": 77.6024278,
      "tags": {
        "level": "0",
        "name": "Elite Furnishers",
        "shop": "furniture"
      }
    },
    {
      "type": "node",
      "id": 4301453176,
      "lat": 12.9807901,
      "lon": 77.6024814,
      "tags": {
        "level": "0",
        "name": "Light & Style",
        "shop": "electronics"
      }
    },
    {
      "type": "node",
      "id": 4301453183,
      "lat": 12.9807436,
      "lon": 77.6026583,
      "tags": {
        "level": "0",
        "name": "Sree Balaji Plywoods",
        "shop": "hardware"
      }
    },
    {
      "type": "node",
      "id": 4301457596,
      "lat": 12.9818702,
      "lon": 77.6031303,
      "tags": {
        "level": "0",
        "name": "Mandovi Motors",
        "shop": "car_repair"
      }
    },
    {
      "type": "node",
      "id": 4308197700,
      "lat": 12.9802643,
      "lon": 77.6022173,
      "tags": {
        "amenity": "bank",
        "brand": "Indian Overseas Bank",
        "brand:wikidata": "Q2003611",
        "brand:wikipedia": "en:Indian Overseas Bank",
        "level": "0",
        "name": "Indian Overseas Bank",
        "name:en": "Indian Overseas Bank",
        "name:kn": "ಐ ಓ ಬಿ",
        "short_name": "IOB",
        "website": "https://www.iob.in"
      }
    },
    {
      "type": "node",
      "id": 4308225753,
      "lat": 12.9824437,
      "lon": 77.6021511,
      "tags": {
        "amenity": "bank",
        "name": "Karnataka State Co-operative Apex Bank Ltd"
      }
    },
    {
      "type": "node",
      "id": 4314374492,
      "lat": 12.9800143,
      "lon": 77.6023523,
      "tags": {
        "amenity": "bank",
        "brand": "Indian Overseas Bank",
        "brand:wikidata": "Q2003611",
        "brand:wikipedia": "en:Indian Overseas Bank",
        "name": "Indian Overseas Bank",
        "name:en": "Indian Overseas Bank",
        "name:kn": "ಐ ಓ ಬಿ",
        "short_name": "IOB",
        "website": "https://www.iob.in"
      }
    },
    {
      "type": "node",
      "id": 4446285519,
      "lat": 12.9876871,
      "lon": 77.6093097,
      "tags": {
        "addr:city": "bangalore",
        "addr:district": "Bengaluru Urban",
        "addr:full": "17-1, Sepings Road Cross,Arunachala Mudaliar Road, Shivajinagar,Cole's Park- Taj Hotel",
        "addr:postcode": "560001",
        "addr:state": "Karnataka",
        "addr:street": "AM Road, Bharati Nagar, Shivaji Nagar",
        "amenity": "hospital",
        "name": "Medic Star Hospital",
        "phone": "080 2554 1337",
        "source": "OpenGovernmentData"
      }
    },
    {
      "type": "node",
      "id": 4446289881,
      "lat": 12.9856985,
      "lon": 77.6058578,
      "tags": {
        "addr:city": "bangalore",
        "addr:postcode": "560051",
        "addr:street": "Tasker Town, Near-KSPCB Limited, Shivaji Nagar, Sulthangunta, Shivaji Nagar",
        "amenity": "hospital",
        "name": "Hsis Gosha Hospital",
        "phone": "\"080 2286 6529"
      }
    },
    {
      "type": "node",
      "id": 4446295361,
      "lat": 12.9821279,
      "lon": 77.5982064,
      "tags": {
        "addr:city": "Bangalore",
        "addr:housenumber": "141",
        "addr:postcode": "560001",
        "addr:street": "Infantry Road, Shivaji Nagar, Bengaluru,",
        "amenity": "clinic",
        "name": "Sanjeevani Netralaya",
        "name:kn": "ಸಂಜೀವನಿ ನೇತ್ರಾಲಯ",
        "phone": "099455 44744",
        "website": "https://sanjeevannetralaya.com/"
      }
    },
    {
      "type": "node",
      "id": 4446306461,
      "lat": 12.9805291,
      "lon": 77.6032027,
      "tags": {
        "addr:city": "Bangalore",
        "addr:district": "Bengaluru Urban",
        "addr:full": "CGHS Dispensary No.1, Shivajinagar (FunctionalDispensary) 18/1, Infantry Road, Shivajinagar",
        "addr:housenumber": "111",
        "addr:postcode": "560001",
        "addr:state": "Karnataka",
        "addr:street": "3rd floor, Ganesh Towers, Infantry Road, Shivajinagar",
        "amenity": "clinic",
        "health_facility:type": "dispensary",
        "healthcare": "centre",
        "name": "CGHS Dispensary No.1",
        "operator:type": "government",
        "phone": "080 2558 9225",
        "source": "OpenGovernmentData",
        "website": "http://nb.bsf.gov.in/CGHS%20DIspenseries.pdf"
      }
    },
    {
      "type": "node",
      "id": 4446312027,
      "lat": 12.9914123,
      "lon": 77.6117329,
      "tags": {
        "addr:city": "bangalore",
        "addr:postcode": "560001",
        "addr:street": "St Johns Church Rd, Bharati Nagar, Shivaji Nagar",
        "amenity": "hospital",
        "name": "Hospital",
        "phone": "+9193411 44150",
        "website": "https://www.mirlayeyecare.com/"
      }
    },
    {
      "type": "node",
      "id": 4446341278,
      "lat": 12.9891941,
      "lon": 77.6037864,
      "tags": {
        "addr:city": "bangalore",
        "addr:postcode": "560051",
        "addr:street": "Sultan Gunta,, Cock Burn Rd, Sulthangunta, Shivaji Nagar",
        "amenity": "hospital",
        "name": "H B S Hospital",
        "phone": "080 2554 1321"
      }
    },
    {
      "type": "node",
      "id": 4446352742,
      "lat": 12.982224,
      "lon": 77.6029281,
      "tags": {
        "addr:city": "Bangalore",
        "addr:postcode": "560001",
        "addr:street": "Near Bowring Hospital , hospital Road , 22/2, Central St, Shivaji Nagar",
        "amenity": "pharmacy",
        "name": "J S Homoeo House",
        "phone": "+9198802 46426"
      }
    },
    {
      "type": "node",
      "id": 4446357143,
      "lat": 12.9855813,
      "lon": 77.6071086,
      "tags": {
        "addr:city": "bangalore",
        "addr:housenumber": "33",
        "addr:postcode": "560001",
        "addr:street": "Quadrant Road, Sulthangunta, Shivaji Nagar",
        "amenity": "pharmacy",
        "name": "V L Nathan & Co",
        "phone": "080 2551 2993"
      }
    },
    {
      "type": "node",
      "id": 4446364966,
      "lat": 12.9813318,
      "lon": 77.6041058,
      "tags": {
        "addr:city": "Bangalore",
        "addr:housenumber": "23",
        "addr:postcode": "560001",
        "addr:street": "Opposite Bowring Hospital, Lady Curzon Rd, Tasker Town, Shivaji Nagar",
        "amenity": "pharmacy",
        "name": "Mahaveer Ayur & Homoeo",
        "phone": "080 2559 3299",
        "website": "ayurhomoeo.com"
      }
    },
    {
      "type": "node",
      "id": 4446388835,
      "lat": 12.9813797,
      "lon": 77.6029956,
      "tags": {
        "addr:city": "Bangalore",
        "addr:housenumber": "4/5",
        "addr:postcode": "560001",
        "addr:street": "Central Square Complex, 47, Central Street, Tasker Town, Shivaji Nagar, Tasker Town, Shivaji Nagar",
        "amenity": "pharmacy",
        "name": "Balaji Vaidyasala",
        "name:kn": "ಬಾಲಾಜಿ ವೈದ್ಯಶಾಲೆ",
        "phone": "+9198455 01642"
      }
    },
    {
      "type": "node",
      "id": 4446394588,
      "lat": 12.9843238,
      "lon": 77.5984752,
      "tags": {
        "addr:city": "Bangalore",
        "addr:housenumber": "22",
        "addr:postcode": "560051",
        "addr:street": "1st Floor, NG Chambers, Venkataswamy Naidu Rd, Shivaji Nagar",
        "amenity": "pharmacy",
        "name": "T. K. Diagnostic Centre",
        "phone": "080 2286 0567"
      }
    },
    {
      "type": "node",
      "id": 4446399880,
      "lat": 12.9818448,
      "lon": 77.6062936,
      "tags": {
        "addr:city": "Bangalore",
        "addr:housenumber": "54",
        "addr:postcode": "560001",
        "addr:street": "Bowring Tower, Bowring Hospital Road, Shivajinagar, Tasker Town, Shivaji Nagar,",
        "amenity": "clinic",
        "name": "Anand Diagnostic Laboratory",
        "phone": "080 2531 8550",
        "website": "https://www.anandlab.com/"
      }
    },
    {
      "type": "node",
      "id": 4446404579,
      "lat": 12.9833669,
      "lon": 77.5966639,
      "tags": {
        "addr:city": "Bangalore",
        "addr:housenumber": "1 1/2",
        "addr:postcode": "560001",
        "addr:street": "Indian Express Building, 3rd Floor,, Queens Rd, Vasanth Nagar",
        "amenity": "pharmacy",
        "name": "elbitdiagnostics",
        "phone": "080 4057 0000",
        "website": "https://elbitdiagnostics.net/"
      }
    },
    {
      "type": "node",
      "id": 4446406412,
      "lat": 12.9873157,
      "lon": 77.6059871,
      "tags": {
        "addr:city": "bangalore",
        "addr:housenumber": "28",
        "addr:postcode": "560051",
        "addr:street": "Charminar Masjid Road, Near-Russel Market, Shivaji Nagar, Sulthangunta, Shivaji Nagar",
        "amenity": "pharmacy",
        "name": "Al Shifa Unani & Ayurvedic Dawa Khana",
        "phone": "080 2530 2786"
      }
    },
    {
      "type": "node",
      "id": 4446409631,
      "lat": 12.9816041,
      "lon": 77.6011061,
      "tags": {
        "addr:city": "Bangalore",
        "addr:housenumber": "55",
        "addr:postcode": "560001",
        "addr:street": "Infantry Road, Shivaji Nagar",
        "amenity": "pharmacy",
        "name": "Medinova",
        "phone": "080 2286 8423"
      }
    },
    {
      "type": "node",
      "id": 4446413304,
      "lat": 12.9799788,
      "lon": 77.6056145,
      "tags": {
        "addr:city": "Bangalore",
        "addr:district": "Bengaluru Urban",
        "addr:full": "73/1-2, Ist Floor, Infantry Road",
        "addr:housenumber": "73/1",
        "addr:postcode": "560001",
        "addr:state": "Karnataka",
        "addr:street": "1st Floor, Infantry Road, Above Icici Bank, Shivaji Nagar, Tasker Town, Shivaji Nagar",
        "amenity": "clinic",
        "name": "Vagh Eye Centre",
        "phone": "080 2558 4156",
        "source": "OpenGovernmentData"
      }
    },
    {
      "type": "node",
      "id": 4447114135,
      "lat": 12.9814422,
      "lon": 77.6030131,
      "tags": {
        "addr:city": "Bangalore",
        "addr:postcode": "560001",
        "addr:street": "Lady Curzon Road,Shivajinagar",
        "amenity": "restaurant",
        "cuisine": "regional",
        "delivery": "yes",
        "name": "The Grand Taj",
        "opening_hours": "11:00- 16:30 , 19:00-23:30",
        "phone": "080 25591838",
        "smoking": "no",
        "takeaway": "yes"
      }
    },
    {
      "type": "node",
      "id": 4447120056,
      "lat": 12.983648,
      "lon": 77.6090046,
      "tags": {
        "addr:city": "Bengaluru",
        "addr:housenumber": "156",
        "addr:postcode": "560001",
        "addr:street": "Veerapillai Street,Shivajinagar",
        "alt_name:en": "KV Canteen",
        "amenity": "restaurant",
        "cuisine": "indian",
        "delivery": "yes",
        "diet:vegetarian": "yes",
        "name": "K. V.",
        "name:en": "K. V. Canteen",
        "name:es": "Cafetería K. V.",
        "opening_hours": "07:00-11:00,12:30-15:30",
        "phone": "+91 9886079972",
        "smoking": "no",
        "takeaway": "yes"
      }
    },
    {
      "type": "node",
      "id": 4447156679,
      "lat": 12.9839499,
      "lon": 77.5985328,
      "tags": {
        "addr:city": "Shivaji Nagar, Bangalore",
        "addr:housenumber": "11",
        "addr:postcode": "560001",
        "addr:street": "Park Road, Shivaji Nagar",
        "amenity": "restaurant",
        "cuisine": "regional",
        "delivery": "yes",
        "name": "Tiger Trail",
        "name:kn": "ಟೈಗರ್ ಟ್ರೆಲ್",
        "opening_hours": "12:00-15:30,19:00-23:00",
        "phone": "080 2286 5566",
        "smoking": "no",
        "takeaway": "yes",
        "website": "www.ramadabangalore.com"
      }
    },
    {
      "type": "node",
      "id": 4447161315,
      "lat": 12.9857716,
      "lon": 77.6020901,
      "tags": {
        "addr:city": "Shivaji Nagar, Bangalore",
        "addr:housenumber": "10",
        "addr:postcode": "560001",
        "addr:street": "HKP Road  Shivajinagar",
        "amenity": "restaurant",
        "cuisine": "regional",
        "delivery": "yes",
        "name": "Hilal Restaurant",
        "opening_hours": "09:00-23:30",
        "phone": "080 22867300",
        "smoking": "no",
        "takeaway": "yes"
      }
    },
    {
      "type": "node",
      "id": 4447171741,
      "lat": 12.9821477,
      "lon": 77.6032233,
      "tags": {
        "addr:city": "Shivaji Nagar, Bangalore",
        "addr:housenumber": "42/5",
        "addr:postcode": "560001",
        "addr:street": "Near Bowring Hospital,, Central Street, Shivaji Nagar",
        "amenity": "restaurant",
        "cuisine": "regional",
        "delivery": "yes",
        "name": "Impering",
        "name:en": "Imperial Restaurant",
        "opening_hours": "06:30-1:00",
        "phone": "080 2286 3639",
        "smoking": "no",
        "takeaway": "yes"
      }
    },
    {
      "type": "node",
      "id": 4489080619,
      "lat": 12.9828927,
      "lon": 77.6099848,
      "tags": {
        "addr:city": "Bangalore",
        "addr:housenumber": "22",
        "addr:postcode": "560042",
        "addr:street": "Haridwar Plaza, Opposite West side, Kamaraj Rd, Bhadrappa Layout, Tasker Town, Shivaji Nagar",
        "name": "Rakhra Sports",
        "opening_hours": "10:00-21:30",
        "phone": "080 2558 8776",
        "shop": "sports"
      }
    },
    {
      "type": "node",
      "id": 4489171290,
      "lat": 12.9825938,
      "lon": 77.6057981,
      "tags": {
        "addr:city": "Bangalore",
        "addr:housenumber": "15",
        "addr:postcode": "560001",
        "addr:street": "Dispensary Rd, Bhadrappa Layout, Tasker Town, Shivaji Nagar",
        "name": "Sporting Goods Shop",
        "opening_hours": "10:00-21:30",
        "shop": "sports",
        "website": "dickssportinggoods.com"
      }
    },
    {
      "type": "node",
      "id": 4489253520,
      "lat": 12.9872058,
      "lon": 77.598574,
      "tags": {
        "addr:city": "bangalore",
        "addr:housenumber": "14",
        "addr:postcode": "560052",
        "addr:street": "NExt To Sanjevani,, 5, Queens Rd, Bhadrappa Layout, Swamy Shivanandapuram, Vasanth Nagar",
        "name": "Sports Line and Fitness",
        "opening_hours": "10:00-21:30",
        "phone": "080 2590 3106",
        "shop": "sports",
        "website": "https://www.sportslineindia.com"
      }
    },
    {
      "type": "node",
      "id": 4489327813,
      "lat": 12.9811097,
      "lon": 77.6099,
      "tags": {
        "addr:city": "Bangalore",
        "addr:housenumber": "300",
        "addr:postcode": "560042",
        "addr:street": "Vishnu Complex, Near-Meg Centre, Kamaraj Road",
        "name": "South Indian Sports Industries",
        "opening_hours": "08025589788",
        "shop": "sports"
      }
    },
    {
      "type": "node",
      "id": 4489464209,
      "lat": 12.9826216,
      "lon": 77.6103632,
      "tags": {
        "addr:city": "Bangalore",
        "addr:housenumber": "22",
        "addr:postcode": "560042",
        "addr:street": "Haridwar Plaza, Opposite West side, Kamaraj Rd",
        "leisure": "sports_centre",
        "name": "Rakhra Sports Pvt Ltd",
        "opening_hours": "09:30-20:00",
        "phone": "08025588776"
      }
    },
    {
      "type": "node",
      "id": 4510537892,
      "lat": 12.9825626,
      "lon": 77.607495,
      "tags": {
        "addr:housenumber": "128",
        "addr:postcode": "560001",
        "addr:street": "Commercial Street",
        "brand": "Manyavar",
        "brand:wikidata": "Q24906783",
        "name": "Manyavar",
        "name:en": "Manyavar",
        "name:kn": "ಮಾನ್ಯವಾರ್",
        "shop": "clothes",
        "wheelchair": "yes"
      }
    },
    {
      "type": "node",
      "id": 4510691317,
      "lat": 12.9825215,
      "lon": 77.6076062,
      "tags": {
        "addr:housenumber": "133",
        "addr:postcode": "560001",
        "addr:street": "Commercial Street",
        "name": "Kashmir House",
        "name:en": "Kashmir House",
        "shop": "gift"
      }
    },
    {
      "type": "node",
      "id": 4535329595,
      "lat": 12.9820341,
      "lon": 77.609063,
      "tags": {
        "amenity": "cafe",
        "brand": "Chai Point",
        "brand:wikidata": "Q28173415",
        "cuisine": "coffee_shop",
        "name": "Chai Point",
        "name:en": "Chai Point",
        "takeaway": "yes"
      }
    },
    {
      "type": "node",
      "id": 4535329596,
      "lat": 12.9819606,
      "lon": 77.6088172,
      "tags": {
        "brand": "Fabindia",
        "brand:wikidata": "Q5427779",
        "name": "Fabindia",
        "name:en": "Fabindia",
        "name:kn": "ಫಾಬ್ ಇಂಡಿಯ",
        "shop": "clothes"
      }
    },
    {
      "type": "node",
      "id": 4535329604,
      "lat": 12.9823616,
      "lon": 77.6097828,
      "tags": {
        "name": "Texs Mart",
        "name:en": "Texs Mart",
        "shop": "clothes"
      }
    },
    {
      "type": "node",
      "id": 4535332594,
      "lat": 12.9825635,
      "lon": 77.6077831,
      "tags": {
        "name": "Occaision",
        "name:en": "Occaision",
        "shop": "clothes"
      }
    },
    {
      "type": "node",
      "id": 4535332696,
      "lat": 12.9834015,
      "lon": 77.6079389,
      "tags": {
        "amenity": "place_of_worship",
        "name": "Nagareswara Kanyaka Paramesgwari Temple",
        "name:en": "Nagareswara Kanyaka Paramesgwari Temple",
        "religion": "hindu"
      }
    },
    {
      "type": "node",
      "id": 4535332697,
      "lat": 12.9827674,
      "lon": 77.6088014,
      "tags": {
        "amenity": "fast_food",
        "name": "Sagar Chats",
        "name:en": "Sagar Chats"
      }
    },
    {
      "type": "node",
      "id": 4535334896,
      "lat": 12.9826539,
      "lon": 77.6098418,
      "tags": {
        "amenity": "community_centre",
        "name": "Vysya Choultry",
        "name:en": "Vysya Choultry"
      }
    },
    {
      "type": "node",
      "id": 4535338194,
      "lat": 12.9824503,
      "lon": 77.6102305,
      "tags": {
        "amenity": "restaurant",
        "name": "Woodys",
        "name:en": "Woodys"
      }
    },
    {
      "type": "node",
      "id": 4535338290,
      "lat": 12.9823269,
      "lon": 77.6077562,
      "tags": {
        "alt_name": "Reliance Fine Art",
        "name": "Reliance Stationery Mart",
        "name:en": "Reliance Stationery Mart",
        "shop": "gift"
      }
    },
    {
      "type": "node",
      "id": 4535339593,
      "lat": 12.9823184,
      "lon": 77.6099499,
      "tags": {
        "name": "Gopalan Corner",
        "name:en": "Gopalan Corner",
        "shop": "clothes"
      }
    },
    {
      "type": "node",
      "id": 4535339594,
      "lat": 12.9822919,
      "lon": 77.6099944,
      "tags": {
        "name": "Shapes and Shades",
        "name:en": "Shapes and Shades",
        "shop": "department_store"
      }
    },
    {
      "type": "node",
      "id": 4535342789,
      "lat": 12.9825858,
      "lon": 77.6076887,
      "tags": {
        "name": "Alankrita",
        "name:en": "Alankrita",
        "shop": "gift"
      }
    },
    {
      "type": "node",
      "id": 4535369390,
      "lat": 12.9846121,
      "lon": 77.6123858,
      "tags": {
        "amenity": "place_of_worship",
        "building": "mosque",
        "name": "Sabari Ayappan Bhajana Sabha",
        "religion": "muslim"
      }
    },
    {
      "type": "node",
      "id": 4564854879,
      "lat": 12.9820158,
      "lon": 77.6043514,
      "tags": {
        "amenity": "taxi",
        "name": "Rickshaw Stand"
      }
    },
    {
      "type": "node",
      "id": 4655364516,
      "lat": 12.9848107,
      "lon": 77.601649,
      "tags": {
        "addr:city": "Bangalore",
        "addr:housenumber": "180",
        "addr:postcode": "560051",
        "addr:street": "Shivaji Road",
        "amenity": "bank",
        "atm": "yes",
        "brand": "Allahabad Bank",
        "brand:wikidata": "Q2018840",
        "brand:wikipedia": "en:Allahabad Bank",
        "name": "Allahabad Bank",
        "name:en": "Allahabad Bank",
        "name:kn": "ಅಲಹಾಬಾದ್ ಬ್ಯಾಂಕ",
        "phone": "080-22865251",
        "website": "https://www.allahabadbank.in"
      }
    },
    {
      "type": "node",
      "id": 4683003989,
      "lat": 12.9831856,
      "lon": 77.6071236,
      "tags": {
        "amenity": "fast_food",
        "brand": "Burger King",
        "brand:pa": "ਬਰਗਰ ਕਿੰਗ",
        "brand:ur": "برگر کنگ",
        "brand:wikidata": "Q177054",
        "brand:wikipedia": "en:Burger King",
        "brand:wikipedia:pa": "ਬਰਗਰ ਕਿੰਗ",
        "brand:wikipedia:ur": "برگر کنگ",
        "cuisine": "burger",
        "name": "Burger King",
        "name:kn": "ಬರ್ಗರ್ ಕಿಂಗ್",
        "name:pa": "ਬਰਗਰ ਕਿੰਗ",
        "name:ru": "Бургер Кинг",
        "name:ur": "برگر کنگ",
        "takeaway": "yes"
      }
    },
    {
      "type": "node",
      "id": 4798289921,
      "lat": 12.9853101,
      "lon": 77.6069879,
      "tags": {
        "amenity": "restaurant",
        "name": "Taj Hotel",
        "name:hi": "Taj Hotel"
      }
    },
    {
      "type": "node",
      "id": 4844863355,
      "lat": 12.983464,
      "lon": 77.6135965,
      "tags": {
        "amenity": "school",
        "name": "BKS",
        "name:en": "BKS"
      }
    },
    {
      "type": "node",
      "id": 4844863356,
      "lat": 12.9817232,
      "lon": 77.6096011,
      "tags": {
        "name": "Raikars",
        "name:en": "Raikars",
        "shop": "jewelry"
      }
    },
    {
      "type": "node",
      "id": 4844863357,
      "lat": 12.9818479,
      "lon": 77.6095601,
      "tags": {
        "name": "Bhagatram",
        "name:en": "Bhagatram",
        "shop": "confectionery"
      }
    },
    {
      "type": "node",
      "id": 4844863358,
      "lat": 12.9817647,
      "lon": 77.6093429,
      "tags": {
        "name": "Rama's",
        "name:en": "Rama's",
        "shop": "clothes"
      }
    },
    {
      "type": "node",
      "id": 4844863359,
      "lat": 12.9819252,
      "lon": 77.6093637,
      "tags": {
        "name": "Ritikas",
        "name:en": "Ritikas",
        "shop": "clothes"
      }
    },
    {
      "type": "node",
      "id": 4844863360,
      "lat": 12.9819362,
      "lon": 77.6093274,
      "tags": {
        "amenity": "bank",
        "brand": "Union Bank of India",
        "brand:wikidata": "Q2004078",
        "brand:wikipedia": "en:Union Bank of India",
        "name": "Union Bank of India",
        "name:en": "Union Bank of India",
        "name:kn": "ಯೂನಿಯನ್ ಬ್ಯಾಂಕ್",
        "short_name": "UBI",
        "website": "https://www.unionbankofindia.co.in/"
      }
    },
    {
      "type": "node",
      "id": 4844863361,
      "lat": 12.9817752,
      "lon": 77.609303,
      "tags": {
        "name": "Trendz shoes",
        "name:en": "Trendz shoes",
        "shop": "shoes"
      }
    },
    {
      "type": "node",
      "id": 4844863362,
      "lat": 12.9818648,
      "lon": 77.6091062,
      "tags": {
        "name": "Rocia",
        "name:en": "Rocia",
        "shop": "shoes"
      }
    },
    {
      "type": "node",
      "id": 4844863364,
      "lat": 12.9824227,
      "lon": 77.6075594,
      "tags": {
        "name": "Arrow",
        "name:en": "Arrow",
        "shop": "clothes"
      }
    },
    {
      "type": "node",
      "id": 4844863365,
      "lat": 12.9824555,
      "lon": 77.6074612,
      "tags": {
        "brand": "Van Heusen",
        "brand:wikidata": "Q67551865",
        "clothes": "men",
        "name": "Van Heusen",
        "name:en": "Van heusen",
        "name:kn": "ವ್ಯಾನ್ ಹುಸೇನ್",
        "shop": "clothes"
      }
    },
    {
      "type": "node",
      "id": 4844863366,
      "lat": 12.9824103,
      "lon": 77.6074845,
      "tags": {
        "name": "Poshaak",
        "name:en": "Poshaak",
        "shop": "clothes"
      }
    },
    {
      "type": "node",
      "id": 4844863367,
      "lat": 12.9825287,
      "lon": 77.6075776,
      "tags": {
        "addr:city": "Bengaluru",
        "addr:housenumber": "133",
        "addr:street": "Commercial Street",
        "air_conditioning": "yes",
        "amenity": "fast_food",
        "brand": "McDonald's",
        "brand:wikidata": "Q38076",
        "cuisine": "burger",
        "diet:vegetarian": "yes",
        "indoor_seating": "yes",
        "name": "McDonald's",
        "name:en": "McDonald's",
        "outdoor_seating": "no",
        "smoking": "no",
        "takeaway": "yes"
      }
    },
    {
      "type": "node",
      "id": 4844863368,
      "lat": 12.9817537,
      "lon": 77.6094508,
      "tags": {
        "name": "Bollywood",
        "name:en": "Bollywood",
        "shop": "shoes"
      }
    },
    {
      "type": "node",
      "id": 4844863369,
      "lat": 12.9818192,
      "lon": 77.6095041,
      "tags": {
        "name": "Western Store's",
        "name:en": "Western Store's",
        "shop": "clothes"
      }
    },
    {
      "type": "node",
      "id": 4844863370,
      "lat": 12.9823415,
      "lon": 77.6078182,
      "tags": {
        "brand": "Blackberrys",
        "brand:wikidata": "Q4922570",
        "name": "Blackberrys",
        "name:en": "Blackberry's",
        "shop": "clothes"
      }
    },
    {
      "type": "node",
      "id": 4844865038,
      "lat": 12.9841388,
      "lon": 77.6142655,
      "tags": {
        "amenity": "restaurant",
        "name": "Tasty food corner",
        "name:en": "Tasty food corner"
      }
    },
    {
      "type": "node",
      "id": 4844865039,
      "lat": 12.9817701,
      "lon": 77.6097531,
      "tags": {
        "name": "Woody's",
        "name:en": "Woody's",
        "name:kn": "ಉಡ್ಡಿಸ್",
        "shop": "jewelry"
      }
    },
    {
      "type": "node",
      "id": 4844865040,
      "lat": 12.9818814,
      "lon": 77.6094657,
      "tags": {
        "name": "Children's corner",
        "name:en": "Children's corner",
        "shop": "clothes"
      }
    },
    {
      "type": "node",
      "id": 4844865041,
      "lat": 12.9817989,
      "lon": 77.6092438,
      "tags": {
        "name": "Favourite shop",
        "name:en": "Favourite shop",
        "shop": "clothes"
      }
    },
    {
      "type": "node",
      "id": 4844865042,
      "lat": 12.9822917,
      "lon": 77.6082949,
      "tags": {
        "name": "Jewel",
        "name:en": "Jewel",
        "shop": "clothes"
      }
    },
    {
      "type": "node",
      "id": 4844865044,
      "lat": 12.9817683,
      "lon": 77.6094265,
      "tags": {
        "name": "Brown shop",
        "name:en": "Brown shop",
        "shop": "clothes"
      }
    },
    {
      "type": "node",
      "id": 4844867522,
      "lat": 12.982442,
      "lon": 77.6075006,
      "tags": {
        "name": "Meena bazaar",
        "name:en": "Meena bazaar",
        "shop": "clothes"
      }
    },
    {
      "type": "node",
      "id": 4846817424,
      "lat": 12.9810527,
      "lon": 77.6076814,
      "tags": {
        "name": "Fablore",
        "name:en": "Fablore",
        "shop": "clothes"
      }
    },
    {
      "type": "node",
      "id": 4847287222,
      "lat": 12.9824199,
      "lon": 77.6078755,
      "tags": {
        "name": "Dulhan",
        "name:en": "Dulhan",
        "shop": "clothes"
      }
    },
    {
      "type": "node",
      "id": 4847287225,
      "lat": 12.9817589,
      "lon": 77.6098823,
      "tags": {
        "brand": "Vero Moda",
        "brand:wikidata": "Q640418",
        "clothes": "women",
        "name": "Vero Moda",
        "name:en": "Vero moda",
        "shop": "clothes"
      }
    },
    {
      "type": "node",
      "id": 4847294821,
      "lat": 12.9812987,
      "lon": 77.6077548,
      "tags": {
        "name": "Senco",
        "name:en": "Senco",
        "shop": "jewelry"
      }
    },
    {
      "type": "node",
      "id": 4847294822,
      "lat": 12.9818243,
      "lon": 77.6079537,
      "tags": {
        "name": "Wearhouse",
        "name:en": "Wearhouse",
        "shop": "clothes"
      }
    },
    {
      "type": "node",
      "id": 4847294823,
      "lat": 12.9812362,
      "lon": 77.6077407,
      "tags": {
        "name": "MS kidswear",
        "name:en": "MS kidswear",
        "shop": "clothes"
      }
    },
    {
      "type": "node",
      "id": 4847294824,
      "lat": 12.9824456,
      "lon": 77.6078331,
      "tags": {
        "brand": "Levi's",
        "brand:wikidata": "Q127962",
        "clothes": "denim;men;women",
        "name": "Levi's",
        "name:en": "Levi's",
        "name:kn": "ಲೆವಿಸ್",
        "shop": "clothes"
      }
    },
    {
      "type": "node",
      "id": 4847294825,
      "lat": 12.9824994,
      "lon": 77.6076744,
      "tags": {
        "check_date": "2023-04-07",
        "name": "Blossom",
        "name:en": "Blossom",
        "shop": "clothes"
      }
    },
    {
      "type": "node",
      "id": 4847294826,
      "lat": 12.9825764,
      "lon": 77.6074569,
      "tags": {
        "name": "Melange",
        "name:en": "Melange",
        "shop": "clothes"
      }
    },
    {
      "type": "node",
      "id": 4847294827,
      "lat": 12.9824232,
      "lon": 77.6075957,
      "tags": {
        "name": "Kyara",
        "name:en": "Kyara",
        "shop": "clothes"
      }
    },
    {
      "type": "node",
      "id": 4847294828,
      "lat": 12.9825806,
      "lon": 77.6074235,
      "tags": {
        "name": "Anglo American Optical Center",
        "shop": "optician",
        "wheelchair": "limited"
      }
    },
    {
      "type": "node",
      "id": 4847294829,
      "lat": 12.9821759,
      "lon": 77.6084798,
      "tags": {
        "name": "Woodlands",
        "name:en": "Woodlands",
        "shop": "shoes"
      }
    },
    {
      "type": "node",
      "id": 4847294830,
      "lat": 12.9819937,
      "lon": 77.6087142,
      "tags": {
        "check_date": "2023-04-07",
        "name": "Tasva",
        "shop": "clothes"
      }
    },
    {
      "type": "node",
      "id": 4847294921,
      "lat": 12.9816187,
      "lon": 77.6079235,
      "tags": {
        "name": "Antegra",
        "name:en": "Antegra",
        "shop": "jewelry"
      }
    },
    {
      "type": "node",
      "id": 4847294922,
      "lat": 12.9815007,
      "lon": 77.6078412,
      "tags": {
        "name": "Reliance",
        "name:en": "Reliance",
        "shop": "bicycle"
      }
    },
    {
      "type": "node",
      "id": 4847294924,
      "lat": 12.9820315,
      "lon": 77.6082291,
      "tags": {
        "name": "Style Hunt",
        "name:en": "Style Hunt",
        "shop": "clothes"
      }
    },
    {
      "type": "node",
      "id": 4847294925,
      "lat": 12.9823728,
      "lon": 77.6076265,
      "tags": {
        "name": "Reddy and Chinappa",
        "name:en": "Reddy and Chinappa",
        "shop": "jewelry"
      }
    },
    {
      "type": "node",
      "id": 4847294926,
      "lat": 12.9825193,
      "lon": 77.6076591,
      "tags": {
        "name": "Zenith",
        "name:en": "Zenith",
        "shop": "clothes"
      }
    },
    {
      "type": "node",
      "id": 4847295221,
      "lat": 12.9823449,
      "lon": 77.608156,
      "tags": {
        "air_conditioning": "no",
        "check_date": "2023-04-07",
        "clothes": "women;men;children",
        "name": "Sri Balaji exports",
        "payment:mastercard": "yes",
        "payment:visa": "yes",
        "second_hand": "no",
        "shop": "clothes",
        "source": "survey",
        "wheelchair": "no"
      }
    },
    {
      "type": "node",
      "id": 4847295222,
      "lat": 12.9813936,
      "lon": 77.6103946,
      "tags": {
        "brand": "Metro",
        "brand:wikidata": "Q16938284",
        "name": "Metro",
        "name:en": "Metro",
        "shop": "shoes"
      }
    },
    {
      "type": "node",
      "id": 4847295721,
      "lat": 12.9824714,
      "lon": 77.6077402,
      "tags": {
        "check_date": "2023-04-07",
        "name": "Blackberry",
        "payment:mastercard": "yes",
        "payment:visa": "yes",
        "shop": "clothes"
      }
    },
    {
      "type": "node",
      "id": 4847296021,
      "lat": 12.9824717,
      "lon": 77.607517,
      "tags": {
        "name": "Show off",
        "name:en": "Show off",
        "shop": "clothes",
        "wheelchair": "no"
      }
    },
    {
      "type": "node",
      "id": 4847296022,
      "lat": 12.9823817,
      "lon": 77.6076984,
      "tags": {
        "name": "Linen studio",
        "name:en": "Linen studio",
        "shop": "dry_cleaning"
      }
    },
    {
      "type": "node",
      "id": 4847296023,
      "lat": 12.9824796,
      "lon": 77.6078489,
      "tags": {
        "name": "Qualified opticians",
        "name:en": "Qualified opticians",
        "shop": "optician"
      }
    },
    {
      "type": "node",
      "id": 4847296024,
      "lat": 12.9817303,
      "lon": 77.6095603,
      "tags": {
        "name": "Mann",
        "name:en": "Mann",
        "shop": "shoes"
      }
    },
    {
      "type": "node",
      "id": 4847296025,
      "lat": 12.9817082,
      "lon": 77.6100809,
      "tags": {
        "name": "Golden touch",
        "name:en": "Golden touch",
        "shop": "clothes"
      }
    },
    {
      "type": "node",
      "id": 4847296026,
      "lat": 12.9812017,
      "lon": 77.6102018,
      "tags": {
        "name": "Ramson",
        "name:en": "Ramson",
        "shop": "optician"
      }
    },
    {
      "type": "node",
      "id": 4847297821,
      "lat": 12.9812894,
      "lon": 77.610261,
      "tags": {
        "brand": "Metro",
        "brand:wikidata": "Q16938284",
        "name": "Metro",
        "shop": "shoes",
        "wheelchair": "no"
      }
    },
    {
      "type": "node",
      "id": 4849618966,
      "lat": 12.9851311,
      "lon": 77.5967445,
      "tags": {
        "amenity": "bank",
        "brand": "Axis Bank",
        "brand:wikidata": "Q2003549",
        "brand:wikipedia": "en:Axis Bank",
        "name": "Axis Bank",
        "name:en": "Axis Bank",
        "name:kn": "ಆಕ್ಸಿಸ್ ಬ್ಯಾಂಕ್",
        "website": "https://www.axisbank.com"
      }
    },
    {
      "type": "node",
      "id": 4849618967,
      "lat": 12.985223,
      "lon": 77.5966504,
      "tags": {
        "name": "Sultan Kashmir Cottage Emporium",
        "shop": "carpet"
      }
    },
    {
      "type": "node",
      "id": 5174892808,
      "lat": 12.9941863,
      "lon": 77.6078319,
      "tags": {
        "name": "Farheen Tours and Travels",
        "shop": "travel_agency"
      }
    },
    {
      "type": "node",
      "id": 5174892809,
      "lat": 12.9941962,
      "lon": 77.6076009,
      "tags": {
        "amenity": "pharmacy",
        "healthcare": "pharmacy",
        "name": "Mustafai Unani Pharmacy"
      }
    },
    {
      "type": "node",
      "id": 5174892810,
      "lat": 12.9939627,
      "lon": 77.6077395,
      "tags": {
        "name": "Royal Sports",
        "shop": "sports"
      }
    },
    {
      "type": "node",
      "id": 5174903782,
      "lat": 12.9922062,
      "lon": 77.6044577,
      "tags": {
        "name": "Fathima Store",
        "shop": "supermarket"
      }
    },
    {
      "type": "node",
      "id": 5174903783,
      "lat": 12.9920154,
      "lon": 77.6042578,
      "tags": {
        "name": "Zar Digital Prints",
        "shop": "copyshop"
      }
    },
    {
      "type": "node",
      "id": 5174903785,
      "lat": 12.9915044,
      "lon": 77.5999408,
      "tags": {
        "name": "Gopal Helmet Wear",
        "shop": "bicycle"
      }
    },
    {
      "type": "node",
      "id": 5229454415,
      "lat": 12.9826229,
      "lon": 77.5967242,
      "tags": {
        "brand": "Ligne Roset",
        "brand:wikidata": "Q3442586",
        "name": "Ligne Roset",
        "shop": "furniture",
        "short_name": "Roset"
      }
    },
    {
      "type": "node",
      "id": 5715341021,
      "lat": 12.9804586,
      "lon": 77.6120274,
      "tags": {
        "brand": "Kalyan Jewellers",
        "brand:wikidata": "Q6354854",
        "name": "Kalyan Jewellers",
        "shop": "jewelry",
        "wheelchair": "no"
      }
    },
    {
      "type": "node",
      "id": 5715357721,
      "lat": 12.9806502,
      "lon": 77.6115927,
      "tags": {
        "brand": "Malabar Gold and Diamonds",
        "brand:wikidata": "Q60748883",
        "name": "Malabar Gold and Diamonds",
        "shop": "jewelry"
      }
    },
    {
      "type": "node",
      "id": 5715505122,
      "lat": 12.9805281,
      "lon": 77.6112189,
      "tags": {
        "amenity": "place_of_worship",
        "name": "Vadamoola Ganapathy Temple",
        "religion": "hindu"
      }
    },
    {
      "type": "node",
      "id": 5715589841,
      "lat": 12.9828259,
      "lon": 77.611741,
      "tags": {
        "amenity": "place_of_worship",
        "name": "Sri Dakshinamoorthy Temple",
        "name:kn": "ದಕ್ಷಿಣಮೂರ್ತಿ ದೇವಸ್ಥಾನ",
        "religion": "hindu"
      }
    },
    {
      "type": "node",
      "id": 5715590023,
      "lat": 12.9830072,
      "lon": 77.6105139,
      "tags": {
        "amenity": "place_of_worship",
        "name": "Temple",
        "name:kn": "ದೇವಸ್ಥಾನ"
      }
    },
    {
      "type": "node",
      "id": 5862563587,
      "lat": 12.9926078,
      "lon": 77.6093643,
      "tags": {
        "amenity": "place_of_worship",
        "name": "Masjid-ur-Rahmah",
        "religion": "muslim"
      }
    },
    {
      "type": "node",
      "id": 6621696642,
      "lat": 12.9820827,
      "lon": 77.6099351,
      "tags": {
        "name": "Mumuso",
        "shop": "department_store",
        "website": "http://www.mumuso.com/en/"
      }
    },
    {
      "type": "node",
      "id": 6857730768,
      "lat": 12.9808627,
      "lon": 77.6032564,
      "tags": {
        "addr:city": "Bengaluru",
        "addr:country": "IN",
        "addr:housename": "Prestige Central",
        "addr:housenumber": "36",
        "addr:postcode": "560001",
        "addr:street": "Infantry Road",
        "amenity": "coworking_space",
        "brand": "WeWork",
        "brand:wikidata": "Q19995004",
        "brand:wikipedia": "en:WeWork",
        "fee": "yes",
        "name": "WeWork",
        "office": "coworking",
        "operator": "WeWork",
        "website": "https://www.wework.com/buildings/prestige-central--bengaluru--Karnataka"
      }
    },
    {
      "type": "node",
      "id": 6886594859,
      "lat": 12.9823231,
      "lon": 77.6038881,
      "tags": {
        "addr:city": "Bengaluru",
        "addr:district": "BENGALURU URBAN",
        "addr:full": "Shivaji Nagar, Bengaluru",
        "addr:postcode": "560001",
        "addr:state": "Karnataka",
        "amenity": "blood_bank",
        "contact:mobile": "9449621169",
        "contact:phone": "8025591362",
        "name": "Bowring and Lady Curzon Hospitals Blood Bank",
        "opening_hours": "24/7",
        "operator:type": "government",
        "source": "OpenGovernmentData",
        "website": "http://www.bowringhospital.org"
      }
    },
    {
      "type": "node",
      "id": 6886594860,
      "lat": 12.9838508,
      "lon": 77.5993699,
      "tags": {
        "addr:city": "Bangalore",
        "addr:district": "BENGALURU URBAN",
        "addr:full": "Near KSPCB Limited, Tasker Town, Shivaji Nagar",
        "addr:postcode": "560051",
        "addr:state": "Karnataka",
        "amenity": "blood_bank",
        "contact:mobile": "9481520707",
        "contact:phone": "8022866529",
        "name": "Government Haji Sir Ismail Sait Gosha Hospital Blood Bank",
        "opening_hours": "24/7",
        "operator:type": "government",
        "source": "OpenGovernmentData"
      }
    },
    {
      "type": "node",
      "id": 6907496183,
      "lat": 12.9887644,
      "lon": 77.6027213,
      "tags": {
        "addr:city": "Bengaluru",
        "addr:district": "BENGALURU URBAN",
        "addr:full": "No. 133- 134, K. P. Broadway Road, Shivajinagar",
        "addr:postcode": "560051",
        "addr:state": "Karnataka",
        "amenity": "blood_bank",
        "contact:mobile": "9845854991",
        "contact:phone": "8025552199",
        "name": "Ocean Blood Bank",
        "opening_hours": "24/7",
        "operator:type": "private",
        "source": "OpenGovernmentData"
      }
    },
    {
      "type": "node",
      "id": 6938701191,
      "lat": 12.9844415,
      "lon": 77.603471,
      "tags": {
        "addr:district": "Bengaluru Urban",
        "addr:full": "#165, Chick Bazaar Road, Opposite Shivajinagar Bus Stand",
        "addr:postcode": "560051",
        "addr:state": "Karnataka",
        "amenity": "clinic",
        "name": "Bangalore Piles Clinic",
        "source": "OpenGovernmentData"
      }
    },
    {
      "type": "node",
      "id": 6938958216,
      "lat": 12.9911349,
      "lon": 77.6126146,
      "tags": {
        "addr:district": "Bengaluru Urban",
        "addr:full": "No. 9, St. John's Church Road,Near Bharathinagar Police Station,Opposite St. John's Community Center,Bharathi Nagar",
        "addr:postcode": "560005",
        "addr:state": "Karnataka",
        "amenity": "clinic",
        "name": "Mirlay Eye Care",
        "source": "OpenGovernmentData"
      }
    },
    {
      "type": "node",
      "id": 6944239588,
      "lat": 12.9825845,
      "lon": 77.6124926,
      "tags": {
        "addr:district": "Bengaluru Urban",
        "addr:full": "22/70, St. John`S Road, (Opposite R B A N M S Ground)",
        "addr:postcode": "560042",
        "addr:state": "Karnataka",
        "amenity": "hospital",
        "name": "Manjushree Speciality Hospital",
        "source": "OpenGovernmentData"
      }
    },
    {
      "type": "node",
      "id": 7087593360,
      "lat": 12.9904083,
      "lon": 77.5995657,
      "tags": {
        "amenity": "place_of_worship",
        "check_date": "2025-03-24",
        "name": "Sri Peddamma Devi Temple",
        "religion": "hindu"
      }
    },
    {
      "type": "node",
      "id": 7087593362,
      "lat": 12.9936948,
      "lon": 77.607556,
      "tags": {
        "name": "The French Loaf",
        "shop": "bakery"
      }
    },
    {
      "type": "node",
      "id": 7301358055,
      "lat": 12.9877965,
      "lon": 77.5981235,
      "tags": {
        "amenity": "events_venue",
        "level": "2",
        "name": "IAT Auditorium Arakere Hall",
        "website": "http://www.iatbangalore.com/"
      }
    },
    {
      "type": "node",
      "id": 7698877585,
      "lat": 12.9818754,
      "lon": 77.6094115,
      "tags": {
        "name:ru": "кожаные сумки",
        "shop": "shoes"
      }
    },
    {
      "type": "node",
      "id": 8140950503,
      "lat": 12.9831385,
      "lon": 77.6079901,
      "tags": {
        "addr:city": "Bengaluru",
        "addr:housenumber": "22",
        "addr:postcode": "560001",
        "addr:street": "Ibrahim Sahib Street",
        "name": "Netpool Service CCTV Camera Installation Bangalore",
        "opening_hours": "Mo-Su 10:00-22:00",
        "phone": "+919731183123",
        "shop": "security"
      }
    },
    {
      "type": "node",
      "id": 9214580913,
      "lat": 12.9815652,
      "lon": 77.5974494,
      "tags": {
        "amenity": "atm",
        "brand": "Canara Bank",
        "brand:en": "Canara Bank",
        "brand:hi": "केनरा बैंक",
        "brand:kn": "ಕೆನರಾ ಬ್ಯಾಂಕ್",
        "brand:pa": "ਕੇਨਰਾ ਬੈਂਕ",
        "brand:pnb": "کینرا بینک",
        "brand:ur": "کینرا بینک",
        "brand:wikidata": "Q2003777",
        "name": "Canara Bank",
        "name:en": "Canara Bank",
        "name:hi": "केनरा बैंक",
        "name:kn": "ಕೆನರಾ ಬ್ಯಾಂಕ್",
        "name:pa": "ਕੇਨਰਾ ਬੈਂਕ",
        "name:pnb": "کینرا بینک",
        "name:ur": "کینرا بینک",
        "operator": "Canara Bank",
        "operator:wikidata": "Q2003777"
      }
    },
    {
      "type": "node",
      "id": 9573432730,
      "lat": 12.989538,
      "lon": 77.5986001,
      "tags": {
        "amenity": "fast_food",
        "name": "Maratha Darshan"
      }
    },
    {
      "type": "node",
      "id": 9633893472,
      "lat": 12.9882921,
      "lon": 77.5986345,
      "tags": {
        "alt_name": "Kentucky Fried Chicken",
        "alt_name:en": "Kentucky Fried Chicken",
        "alt_name:hi": "केंटुकी फ्राइड चिकन",
        "alt_name:pa": "ਕੈਂਟੁਕੀ ਫ੍ਰਾਈਡ ਚਿਕਨ",
        "alt_name:pnb": "کینٹکی فرائیڈ چکن",
        "alt_name:ur": "کینٹکی فرائیڈ چکن",
        "amenity": "fast_food",
        "brand": "KFC",
        "brand:en": "KFC",
        "brand:hi": "केएफसी",
        "brand:pa": "ਕੇਐਫਸੀ",
        "brand:pnb": "کے ایف سی",
        "brand:ur": "کے ایف سی",
        "brand:wikidata": "Q524757",
        "cuisine": "chicken",
        "name": "KFC",
        "name:en": "KFC",
        "name:hi": "केएफसी",
        "name:pa": "ਕੇਐਫਸੀ",
        "name:pnb": "کے ایف سی",
        "name:ur": "کے ایف سی",
        "takeaway": "yes"
      }
    },
    {
      "type": "node",
      "id": 9656382524,
      "lat": 12.9848975,
      "lon": 77.611694,
      "tags": {
        "amenity": "fast_food",
        "cuisine": "regional",
        "name": "Utse Kitchen"
      }
    },
    {
      "type": "node",
      "id": 9656382525,
      "lat": 12.9848505,
      "lon": 77.6093873,
      "tags": {
        "amenity": "fast_food",
        "cuisine": "regional",
        "name": "BN Sambaiah Shetty Tiffin Room"
      }
    },
    {
      "type": "node",
      "id": 9656382554,
      "lat": 12.9898229,
      "lon": 77.6071778,
      "tags": {
        "amenity": "place_of_worship",
        "religion": "jain"
      }
    },
    {
      "type": "node",
      "id": 9687948458,
      "lat": 12.9807813,
      "lon": 77.6070425,
      "tags": {
        "description": "the ultimate automotive surface protection center",
        "name": "Opti-coat",
        "shop": "car_repair"
      }
    },
    {
      "type": "node",
      "id": 9688218519,
      "lat": 12.9836672,
      "lon": 77.5970575,
      "tags": {
        "amenity": "waste_basket"
      }
    },
    {
      "type": "node",
      "id": 9688218520,
      "lat": 12.9836903,
      "lon": 77.5970565,
      "tags": {
        "amenity": "waste_basket"
      }
    },
    {
      "type": "node",
      "id": 9688218521,
      "lat": 12.9835002,
      "lon": 77.5971509,
      "tags": {
        "amenity": "post_box",
        "operator": "India Post",
        "operator:wikidata": "Q3519720"
      }
    },
    {
      "type": "node",
      "id": 9796145350,
      "lat": 12.9812956,
      "lon": 77.6126653,
      "tags": {
        "name": "Museum of Art and Photography",
        "shop": "variety_store"
      }
    },
    {
      "type": "node",
      "id": 9796145351,
      "lat": 12.9814384,
      "lon": 77.6126649,
      "tags": {
        "addr:city": "Bangalore",
        "addr:country": "IN",
        "addr:housenumber": "24",
        "addr:postcode": "560042",
        "addr:street": "Gangadhar Chetty Road",
        "contact:facebook": "cinnamonthestore",
        "contact:instagram": "cinnamonthestore",
        "email": "cinnamon_blr@yahoo.com",
        "name": "Cinnamon",
        "phone": "(+91) 9972813015",
        "shop": "boutique",
        "website": "https://www.cinnamonthestore.in/"
      }
    },
    {
      "type": "node",
      "id": 9796145357,
      "lat": 12.98131,
      "lon": 77.612613,
      "tags": {
        "amenity": "cafe",
        "name": "Cafe Stone",
        "outdoor_seating": "yes"
      }
    },
    {
      "type": "node",
      "id": 9796560877,
      "lat": 12.9822329,
      "lon": 77.599225,
      "tags": {
        "amenity": "bank",
        "atm": "yes",
        "brand": "Kotak Mahindra Bank",
        "brand:wikidata": "Q2040404",
        "name": "Kotak Mahindra Bank",
        "operator": "Kotak Mahindra Bank"
      }
    },
    {
      "type": "node",
      "id": 9796560886,
      "lat": 12.9821258,
      "lon": 77.5994678,
      "tags": {
        "amenity": "bank",
        "atm": "yes",
        "brand": "HDFC Bank",
        "brand:wikidata": "Q631047",
        "name": "HDFC Bank",
        "operator": "HDFC Bank",
        "short_name": "HDFC"
      }
    },
    {
      "type": "node",
      "id": 9796560887,
      "lat": 12.9818749,
      "lon": 77.600086,
      "tags": {
        "brand": "Suzuki",
        "name": "Suzuki",
        "shop": "car"
      }
    },
    {
      "type": "node",
      "id": 9796560891,
      "lat": 12.9815691,
      "lon": 77.599968,
      "tags": {
        "name": "Millenium Lifestyle",
        "shop": "furniture"
      }
    },
    {
      "type": "node",
      "id": 9796560892,
      "lat": 12.981394,
      "lon": 77.6004884,
      "tags": {
        "name": "Light Art Studio",
        "shop": "lighting"
      }
    },
    {
      "type": "node",
      "id": 9796560894,
      "lat": 12.9807928,
      "lon": 77.6013547,
      "tags": {
        "amenity": "bank",
        "atm": "yes",
        "brand": "HDFC Bank",
        "brand:wikidata": "Q631047",
        "name": "HDFC Bank",
        "name:kn": "ಎಚ್ ಡಿ ಎಫ್ ಸಿ",
        "short_name": "HDFC"
      }
    },
    {
      "type": "node",
      "id": 9796561537,
      "lat": 12.9801476,
      "lon": 77.6032486,
      "tags": {
        "access": "permissive",
        "amenity": "parking",
        "parking": "underground"
      }
    },
    {
      "type": "node",
      "id": 9796561552,
      "lat": 12.9811522,
      "lon": 77.6032115,
      "tags": {
        "addr:city": "Bengaluru",
        "addr:country": "IN",
        "addr:housename": "Prestige Central",
        "addr:housenumber": "36",
        "addr:postcode": "560001",
        "addr:street": "Infantry Road",
        "amenity": "cafe",
        "delivery": "yes",
        "name": "Blue Tokai",
        "operator": "Blue Tokai",
        "takeaway": "yes",
        "website": "https://bluetokaicoffee.com/"
      }
    },
    {
      "type": "node",
      "id": 9796561558,
      "lat": 12.9811411,
      "lon": 77.6035516,
      "tags": {
        "access": "customers",
        "amenity": "parking",
        "parking": "surface"
      }
    },
    {
      "type": "node",
      "id": 9796561572,
      "lat": 12.9815599,
      "lon": 77.6033074,
      "tags": {
        "name": "Sapna furniture",
        "shop": "furniture"
      }
    },
    {
      "type": "node",
      "id": 9796561573,
      "lat": 12.981245,
      "lon": 77.6029694,
      "tags": {
        "name": "Sapna Furniture",
        "shop": "furniture"
      }
    },
    {
      "type": "node",
      "id": 9796561574,
      "lat": 12.9815782,
      "lon": 77.6030807,
      "tags": {
        "shop": "furniture"
      }
    },
    {
      "type": "node",
      "id": 9796561575,
      "lat": 12.9809183,
      "lon": 77.6028112,
      "tags": {
        "name": "Victory Furnitures",
        "shop": "furniture"
      }
    },
    {
      "type": "node",
      "id": 9796561576,
      "lat": 12.9811208,
      "lon": 77.6029158,
      "tags": {
        "name": "Sahil Wood Furniture",
        "shop": "furniture"
      }
    },
    {
      "type": "node",
      "id": 9796561602,
      "lat": 12.9796154,
      "lon": 77.6071282,
      "tags": {
        "access": "customers",
        "amenity": "parking",
        "parking": "surface"
      }
    },
    {
      "type": "node",
      "id": 9797011341,
      "lat": 12.985777,
      "lon": 77.6051098,
      "tags": {
        "name": "KGN Armoury & Engineering Works",
        "shop": "variety_store"
      }
    },
    {
      "type": "node",
      "id": 9797011342,
      "lat": 12.9861037,
      "lon": 77.6048389,
      "tags": {
        "amenity": "restaurant",
        "name": "Hamza Hotel"
      }
    },
    {
      "type": "node",
      "id": 9797011343,
      "lat": 12.98481,
      "lon": 77.6052399,
      "tags": {
        "access": "yes",
        "amenity": "toilets",
        "fee": "no"
      }
    },
    {
      "type": "node",
      "id": 9797011344,
      "lat": 12.984955,
      "lon": 77.6022466,
      "tags": {
        "name": "Bilal Bakery",
        "shop": "bakery"
      }
    },
    {
      "type": "node",
      "id": 9797011346,
      "lat": 12.9855722,
      "lon": 77.6019143,
      "tags": {
        "amenity": "fast_food",
        "cuisine": "regional",
        "delivery": "yes",
        "name": "Shivajinagar Gardi Ustad Pehlwan Kale Bhai's - Pahilwani Handi",
        "takeaway": "yes"
      }
    },
    {
      "type": "node",
      "id": 9797011350,
      "lat": 12.9856477,
      "lon": 77.6017275,
      "tags": {
        "amenity": "cafe",
        "name": "Chai Shop"
      }
    },
    {
      "type": "node",
      "id": 9797011354,
      "lat": 12.9839521,
      "lon": 77.6082614,
      "tags": {
        "name": "Vee Bake",
        "shop": "bakery"
      }
    },
    {
      "type": "node",
      "id": 9797011361,
      "lat": 12.9826002,
      "lon": 77.6018335,
      "tags": {
        "amenity": "waste_basket"
      }
    },
    {
      "type": "node",
      "id": 9797011366,
      "lat": 12.982067,
      "lon": 77.6032621,
      "tags": {
        "amenity": "waste_basket"
      }
    },
    {
      "type": "node",
      "id": 9828707238,
      "lat": 12.9816031,
      "lon": 77.6098734,
      "tags": {
        "name": "Soch",
        "payment:credit_cards": "yes",
        "payment:debit_cards": "yes",
        "shop": "clothes",
        "wheelchair": "no"
      }
    },
    {
      "type": "node",
      "id": 9828707239,
      "lat": 12.981624,
      "lon": 77.6097815,
      "tags": {
        "addr:city": "Bengaluru",
        "addr:street": "Commercial Street",
        "check_date": "2023-04-07",
        "indoor_seating": "yes",
        "name": "Anand Sweets and Savouries",
        "outdoor_seating": "no",
        "payment:cash": "yes",
        "payment:debit_cards": "yes",
        "shop": "bakery",
        "smoking": "no",
        "website": "https://anandsweets.in/",
        "wheelchair": "no"
      }
    },
    {
      "type": "node",
      "id": 9828707240,
      "lat": 12.9827426,
      "lon": 77.6066139,
      "tags": {
        "brand": "Zudio",
        "brand:wikidata": "Q123375926",
        "name": "Zudio",
        "shop": "clothes"
      }
    },
    {
      "type": "node",
      "id": 9828707241,
      "lat": 12.982904,
      "lon": 77.6065877,
      "tags": {
        "name": "Nysha",
        "shop": "clothes"
      }
    },
    {
      "type": "node",
      "id": 9828707244,
      "lat": 12.9837332,
      "lon": 77.6064388,
      "tags": {
        "shop": "clothes"
      }
    },
    {
      "type": "node",
      "id": 9828707245,
      "lat": 12.9837698,
      "lon": 77.6062994,
      "tags": {
        "shop": "clothes"
      }
    },
    {
      "type": "node",
      "id": 9828707246,
      "lat": 12.9838122,
      "lon": 77.6061686,
      "tags": {
        "shop": "clothes"
      }
    },
    {
      "type": "node",
      "id": 9828707247,
      "lat": 12.9837985,
      "lon": 77.6062383,
      "tags": {
        "shop": "clothes"
      }
    },
    {
      "type": "node",
      "id": 9828707248,
      "lat": 12.9837515,
      "lon": 77.6063859,
      "tags": {
        "shop": "clothes"
      }
    },
    {
      "type": "node",
      "id": 9828707250,
      "lat": 12.9833535,
      "lon": 77.6065884,
      "tags": {
        "shop": "clothes"
      }
    },
    {
      "type": "node",
      "id": 9828707251,
      "lat": 12.9835966,
      "lon": 77.6066789,
      "tags": {
        "shop": "clothes"
      }
    },
    {
      "type": "node",
      "id": 9828707252,
      "lat": 12.9836299,
      "lon": 77.6064657,
      "tags": {
        "shop": "clothes"
      }
    },
    {
      "type": "node",
      "id": 9828707253,
      "lat": 12.9832183,
      "lon": 77.6064932,
      "tags": {
        "name": "SR and Sons",
        "shop": "bakery"
      }
    },
    {
      "type": "node",
      "id": 9828707254,
      "lat": 12.9830458,
      "lon": 77.6062156,
      "tags": {
        "name": "Kitchen World",
        "shop": "kitchen"
      }
    },
    {
      "type": "node",
      "id": 9828707255,
      "lat": 12.9830125,
      "lon": 77.6061847,
      "tags": {
        "amenity": "place_of_worship",
        "religion": "hindu"
      }
    },
    {
      "type": "node",
      "id": 9828707257,
      "lat": 12.9828687,
      "lon": 77.6066695,
      "tags": {
        "name": "Brandmart",
        "shop": "clothes",
        "wheelchair": "no"
      }
    },
    {
      "type": "node",
      "id": 9828707258,
      "lat": 12.9827001,
      "lon": 77.6067138,
      "tags": {
        "brand": "Lenskart",
        "brand:wikidata": "Q17068753",
        "name": "Lenskart",
        "shop": "optician"
      }
    },
    {
      "type": "node",
      "id": 9828707259,
      "lat": 12.9828282,
      "lon": 77.606756,
      "tags": {
        "air_conditioning": "yes",
        "amenity": "fast_food",
        "brand": "Burger King",
        "brand:wikidata": "Q177054",
        "cuisine": "burger",
        "diet:vegetarian": "yes",
        "indoor_seating": "yes",
        "name": "Burger King",
        "outdoor_seating": "no",
        "smoking": "no",
        "takeaway": "yes",
        "wheelchair": "no"
      }
    },
    {
      "type": "node",
      "id": 9828707260,
      "lat": 12.9826093,
      "lon": 77.6069243,
      "tags": {
        "name": "Y&O",
        "shop": "clothes",
        "wheelchair": "no"
      }
    },
    {
      "type": "node",
      "id": 9828707262,
      "lat": 12.9825838,
      "lon": 77.6070336,
      "tags": {
        "name": "Health & Glow",
        "shop": "beauty"
      }
    },
    {
      "type": "node",
      "id": 9828707264,
      "lat": 12.9826341,
      "lon": 77.6073079,
      "tags": {
        "name": "Louise Phillipe",
        "payment:credit_cards": "yes",
        "payment:debit_cards": "yes",
        "shop": "clothes",
        "wheelchair": "no"
      }
    },
    {
      "type": "node",
      "id": 9828707265,
      "lat": 12.9825391,
      "lon": 77.6075577,
      "tags": {
        "addr:city": "Bengaluru",
        "addr:housenumber": "133",
        "addr:street": "Commercial Street",
        "description": "Enchanted thrift store",
        "name": "Asiatic Arts and Crafts",
        "name:en": "Asiatic Arts and Crafts",
        "shop": "gift"
      }
    },
    {
      "type": "node",
      "id": 9828707266,
      "lat": 12.9825505,
      "lon": 77.6075335,
      "tags": {
        "name": "Titan",
        "shop": "watches",
        "wheelchair": "no"
      }
    },
    {
      "type": "node",
      "id": 9828707267,
      "lat": 12.9824028,
      "lon": 77.6075603,
      "tags": {
        "brand": "Peter England",
        "brand:wikidata": "Q19573665",
        "clothes": "men",
        "name": "Peter England",
        "shop": "clothes"
      }
    },
    {
      "type": "node",
      "id": 9828707268,
      "lat": 12.9822342,
      "lon": 77.6079456,
      "tags": {
        "brand": "Van Heusen",
        "brand:wikidata": "Q67551865",
        "check_date": "2023-04-07",
        "clothes": "men;women",
        "name": "Van Heusen",
        "payment:mastercard": "yes",
        "payment:visa": "yes",
        "shop": "clothes"
      }
    },
    {
      "type": "node",
      "id": 9828707269,
      "lat": 12.9822463,
      "lon": 77.6079983,
      "tags": {
        "brand": "Allen Solly",
        "brand:wikidata": "Q110036995",
        "check_date": "2023-04-07",
        "name": "Allen Solly",
        "shop": "clothes"
      }
    },
    {
      "type": "node",
      "id": 9828707270,
      "lat": 12.9821611,
      "lon": 77.6082232,
      "tags": {
        "check_date": "2023-04-07",
        "name": "Miniso",
        "payment:credit_cards": "yes",
        "payment:debit_cards": "yes",
        "payment:mastercard": "yes",
        "payment:visa": "yes",
        "shop": "general",
        "wheelchair": "limited"
      }
    },
    {
      "type": "node",
      "id": 9828707271,
      "lat": 12.9822591,
      "lon": 77.6083731,
      "tags": {
        "name": "Sling",
        "shop": "bag"
      }
    },
    {
      "type": "node",
      "id": 9828707272,
      "lat": 12.9823055,
      "lon": 77.6082648,
      "tags": {
        "check_date": "2023-04-07",
        "name": "J Emporio",
        "shop": "clothes"
      }
    },
    {
      "type": "node",
      "id": 9833588985,
      "lat": 12.9834587,
      "lon": 77.6073655,
      "tags": {
        "amenity": "atm",
        "brand": "HDFC Bank",
        "brand:wikidata": "Q631047",
        "name": "HDFC Bank",
        "operator": "HDFC Bank",
        "operator:wikidata": "Q631047",
        "short_name": "HDFC"
      }
    },
    {
      "type": "node",
      "id": 9833614572,
      "lat": 12.9829802,
      "lon": 77.6071676,
      "tags": {
        "amenity": "place_of_worship",
        "name": "Masjid E Lababeen",
        "religion": "muslim",
        "wheelchair": "no"
      }
    },
    {
      "type": "node",
      "id": 9903904947,
      "lat": 12.9824715,
      "lon": 77.6098143,
      "tags": {
        "name": "Luknow chikan kari",
        "shop": "beauty"
      }
    },
    {
      "type": "node",
      "id": 9929991501,
      "lat": 12.9826877,
      "lon": 77.5977753,
      "tags": {
        "amenity": "bank",
        "atm": "yes",
        "brand": "Indian Overseas Bank",
        "brand:wikidata": "Q2003611",
        "name": "Indian Overseas Bank",
        "name:kn": "ಐ ಓ ಬಿ",
        "operator": "Indian Overseas Bank"
      }
    },
    {
      "type": "node",
      "id": 9930000943,
      "lat": 12.9906435,
      "lon": 77.6008786,
      "tags": {
        "access": "yes",
        "amenity": "toilets",
        "fee": "yes",
        "operator": "BBMP"
      }
    },
    {
      "type": "node",
      "id": 9930000991,
      "lat": 12.9877085,
      "lon": 77.6013594,
      "tags": {
        "amenity": "bench"
      }
    },
    {
      "type": "node",
      "id": 9930000992,
      "lat": 12.987766,
      "lon": 77.6010925,
      "tags": {
        "amenity": "bench"
      }
    },
    {
      "type": "node",
      "id": 9930000993,
      "lat": 12.9878137,
      "lon": 77.6007278,
      "tags": {
        "amenity": "bench"
      }
    },
    {
      "type": "node",
      "id": 9930000994,
      "lat": 12.9878281,
      "lon": 77.6003898,
      "tags": {
        "amenity": "bench"
      }
    },
    {
      "type": "node",
      "id": 9930000995,
      "lat": 12.9878673,
      "lon": 77.6001189,
      "tags": {
        "amenity": "bench"
      }
    },
    {
      "type": "node",
      "id": 9930000996,
      "lat": 12.9879359,
      "lon": 77.5998976,
      "tags": {
        "amenity": "bench"
      }
    },
    {
      "type": "node",
      "id": 9930000997,
      "lat": 12.9879986,
      "lon": 77.5996911,
      "tags": {
        "amenity": "bench"
      }
    },
    {
      "type": "node",
      "id": 9996780318,
      "lat": 12.9829662,
      "lon": 77.6064877,
      "tags": {
        "amenity": "bank",
        "name": "Zion Bank"
      }
    },
    {
      "type": "node",
      "id": 10009232548,
      "lat": 12.9819129,
      "lon": 77.6057536,
      "tags": {
        "addr:housenumber": "495/496",
        "addr:street": "Jumma Masjid Road",
        "air_conditioning": "yes",
        "amenity": "restaurant",
        "bar": "no",
        "check_date": "2023-04-07",
        "cuisine": "regional",
        "diet:vegetarian": "yes",
        "email": "kamatoph@gmail.com",
        "highchair": "no",
        "indoor_seating": "yes",
        "internet_access": "no",
        "microbrewery": "no",
        "name": "Kamat Vegetarian Restaurant",
        "outdoor_seating": "no",
        "phone": "+91 93533 46114",
        "smoking": "no",
        "source": "survey",
        "takeaway": "yes",
        "wheelchair": "no"
      }
    },
    {
      "type": "node",
      "id": 10009237339,
      "lat": 12.9817215,
      "lon": 77.6056207,
      "tags": {
        "amenity": "dentist",
        "name": "Sure Smile"
      }
    },
    {
      "type": "node",
      "id": 10009266643,
      "lat": 12.9815075,
      "lon": 77.6058818,
      "tags": {
        "name": "Silk Garden",
        "shop": "clothes"
      }
    },
    {
      "type": "node",
      "id": 10009266725,
      "lat": 12.9815666,
      "lon": 77.6057719,
      "tags": {
        "name": "Zaim Jewels",
        "shop": "jewelry"
      }
    },
    {
      "type": "node",
      "id": 10009275919,
      "lat": 12.979791,
      "lon": 77.6053757,
      "tags": {
        "name": "Family Shopping Mart",
        "shop": "department_store"
      }
    },
    {
      "type": "node",
      "id": 10009275920,
      "lat": 12.9796918,
      "lon": 77.6055656,
      "tags": {
        "amenity": "bank",
        "brand": "Karnataka Bank",
        "brand:wikidata": "Q2042632",
        "name": "Karnataka Bank"
      }
    },
    {
      "type": "node",
      "id": 10009275921,
      "lat": 12.9795841,
      "lon": 77.6055942,
      "tags": {
        "amenity": "bank",
        "brand": "Muthoot Finance",
        "brand:wikidata": "Q6943861",
        "name": "Muthoot Finance",
        "office": "financial"
      }
    },
    {
      "type": "node",
      "id": 10009275922,
      "lat": 12.9799217,
      "lon": 77.6056281,
      "tags": {
        "amenity": "bank",
        "brand": "Axis Bank",
        "brand:wikidata": "Q2003549",
        "name": "Axis Bank",
        "name:kn": "ಆಕ್ಸಿಸ್ ಬ್ಯಾಂಕ್"
      }
    },
    {
      "type": "node",
      "id": 10009285720,
      "lat": 12.9814704,
      "lon": 77.6059865,
      "tags": {
        "name": "Pet Planet",
        "shop": "pet"
      }
    },
    {
      "type": "node",
      "id": 10009285721,
      "lat": 12.9811714,
      "lon": 77.6059779,
      "tags": {
        "name": "Xerox & Mobile Shop",
        "shop": "copyshop"
      }
    },
    {
      "type": "node",
      "id": 10009305818,
      "lat": 12.9814463,
      "lon": 77.6061401,
      "tags": {
        "amenity": "clinic",
        "healthcare": "clinic",
        "name": "Anand Diagnostic Laboratory"
      }
    },
    {
      "type": "node",
      "id": 10009305819,
      "lat": 12.981074,
      "lon": 77.6059774,
      "tags": {
        "amenity": "atm",
        "brand": "South Indian Bank",
        "brand:wikidata": "Q2044973",
        "operator": "South Indian Bank",
        "operator:wikidata": "Q2044973"
      }
    },
    {
      "type": "node",
      "id": 10009310318,
      "lat": 12.9795087,
      "lon": 77.60607,
      "tags": {
        "amenity": "bank",
        "brand": "Canara Bank",
        "brand:en": "Canara Bank",
        "brand:hi": "केनरा बैंक",
        "brand:kn": "ಕೆನರಾ ಬ್ಯಾಂಕ್",
        "brand:pa": "ਕੇਨਰਾ ਬੈਂਕ",
        "brand:pnb": "کینرا بینک",
        "brand:ur": "کینرا بینک",
        "brand:wikidata": "Q2003777",
        "name": "Canara Bank",
        "name:en": "Canara Bank",
        "name:hi": "केनरा बैंक",
        "name:kn": "ಕೆನರಾ ಬ್ಯಾಂಕ್",
        "name:pa": "ਕੇਨਰਾ ਬੈਂਕ",
        "name:pnb": "کینرا بینک",
        "name:ur": "کینرا بینک"
      }
    },
    {
      "type": "node",
      "id": 10009310319,
      "lat": 12.9794922,
      "lon": 77.6061321,
      "tags": {
        "amenity": "atm",
        "brand": "Canara Bank",
        "brand:en": "Canara Bank",
        "brand:hi": "केनरा बैंक",
        "brand:kn": "ಕೆನರಾ ಬ್ಯಾಂಕ್",
        "brand:pa": "ਕੇਨਰਾ ਬੈਂਕ",
        "brand:pnb": "کینرا بینک",
        "brand:ur": "کینرا بینک",
        "brand:wikidata": "Q2003777",
        "name:en": "Canara Bank",
        "name:hi": "केनरा बैंक",
        "name:kn": "ಕೆನರಾ ಬ್ಯಾಂಕ್",
        "name:pa": "ਕੇਨਰਾ ਬੈਂਕ",
        "name:pnb": "کینرا بینک",
        "name:ur": "کینرا بینک",
        "operator": "Canara Bank",
        "operator:wikidata": "Q2003777"
      }
    },
    {
      "type": "node",
      "id": 10009334817,
      "lat": 12.9812363,
      "lon": 77.6059974,
      "tags": {
        "name": "Sony Heritage",
        "shop": "clothes"
      }
    },
    {
      "type": "node",
      "id": 10009334917,
      "lat": 12.9810884,
      "lon": 77.6060136,
      "tags": {
        "amenity": "bank",
        "brand": "South Indian Bank",
        "brand:wikidata": "Q2044973",
        "name": "South Indian Bank"
      }
    },
    {
      "type": "node",
      "id": 10009335117,
      "lat": 12.9809126,
      "lon": 77.6057072,
      "tags": {
        "name": "Ateeq Haj Tours and Travels",
        "shop": "travel_agency"
      }
    },
    {
      "type": "node",
      "id": 10009335217,
      "lat": 12.9809646,
      "lon": 77.6057395,
      "tags": {
        "name": "Springfit Matresses",
        "shop": "variety_store"
      }
    },
    {
      "type": "node",
      "id": 10009339618,
      "lat": 12.9807856,
      "lon": 77.6052366,
      "tags": {
        "amenity": "library",
        "name": "Eloor Lending Libraries"
      }
    },
    {
      "type": "node",
      "id": 10009343417,
      "lat": 12.9794545,
      "lon": 77.6062106,
      "tags": {
        "amenity": "bank",
        "brand": "ICICI Bank",
        "brand:wikidata": "Q1653258",
        "name": "ICICI Bank",
        "short_name": "ICICI"
      }
    },
    {
      "type": "node",
      "id": 10009343717,
      "lat": 12.9794328,
      "lon": 77.6062662,
      "tags": {
        "amenity": "atm",
        "brand": "ICICI Bank",
        "brand:wikidata": "Q1653258",
        "operator": "ICICI Bank",
        "operator:wikidata": "Q1653258",
        "short_name": "ICICI"
      }
    },
    {
      "type": "node",
      "id": 10047208717,
      "lat": 12.9800276,
      "lon": 77.6056374,
      "tags": {
        "name": "Sreeraja Rajeswari Agencies",
        "shop": "furniture"
      }
    },
    {
      "type": "node",
      "id": 10047214020,
      "lat": 12.9809949,
      "lon": 77.6039986,
      "tags": {
        "name": "Rahul Furniture",
        "shop": "furniture"
      }
    },
    {
      "type": "node",
      "id": 10047214021,
      "lat": 12.9815446,
      "lon": 77.6040916,
      "tags": {
        "amenity": "bank",
        "brand": "Indian Bank",
        "brand:wikidata": "Q2003789",
        "name": "Indian Bank",
        "name:kn": "ಇಂಡಿಯನ್ ಬ್ಯಾಂಕ್"
      }
    },
    {
      "type": "node",
      "id": 10047214121,
      "lat": 12.9815186,
      "lon": 77.604462,
      "tags": {
        "amenity": "bank",
        "brand": "State Bank of India",
        "brand:wikidata": "Q1340361",
        "name": "State Bank of India",
        "short_name": "SBI"
      }
    },
    {
      "type": "node",
      "id": 10047215818,
      "lat": 12.9815678,
      "lon": 77.6041512,
      "tags": {
        "amenity": "atm",
        "brand": "Indian Bank",
        "brand:wikidata": "Q2003789",
        "operator": "Indian Bank",
        "operator:wikidata": "Q2003789"
      }
    },
    {
      "type": "node",
      "id": 10047222618,
      "lat": 12.9803446,
      "lon": 77.6048118,
      "tags": {
        "name": "One Stop Party Shop",
        "shop": "toys"
      }
    },
    {
      "type": "node",
      "id": 10047222619,
      "lat": 12.9804106,
      "lon": 77.6044099,
      "tags": {
        "amenity": "bank",
        "name": "J & K Bank"
      }
    },
    {
      "type": "node",
      "id": 10047222620,
      "lat": 12.9802528,
      "lon": 77.60396,
      "tags": {
        "name": "Matrix",
        "shop": "furniture",
        "wheelchair": "no"
      }
    },
    {
      "type": "node",
      "id": 10047222717,
      "lat": 12.9804168,
      "lon": 77.6043594,
      "tags": {
        "amenity": "atm",
        "operator": "J & K Bank"
      }
    },
    {
      "type": "node",
      "id": 10047222817,
      "lat": 12.9804369,
      "lon": 77.6046109,
      "tags": {
        "name": "Mega Brands",
        "shop": "shoes"
      }
    },
    {
      "type": "node",
      "id": 10047222818,
      "lat": 12.9805162,
      "lon": 77.6038384,
      "tags": {
        "name": "Rahul Furniture",
        "shop": "furniture"
      }
    },
    {
      "type": "node",
      "id": 10047222917,
      "lat": 12.9802024,
      "lon": 77.604124,
      "tags": {
        "name": "Foam Products",
        "shop": "furniture"
      }
    },
    {
      "type": "node",
      "id": 10047222918,
      "lat": 12.9806148,
      "lon": 77.6038731,
      "tags": {
        "name": "MF Furniture",
        "shop": "furniture"
      }
    },
    {
      "type": "node",
      "id": 10047234517,
      "lat": 12.9815781,
      "lon": 77.6044787,
      "tags": {
        "amenity": "atm",
        "brand": "State Bank of India",
        "brand:wikidata": "Q1340361",
        "cash_in": "no",
        "operator": "State Bank of India",
        "operator:wikidata": "Q1340361",
        "short_name": "SBI"
      }
    },
    {
      "type": "node",
      "id": 10047234617,
      "lat": 12.9817193,
      "lon": 77.6042336,
      "tags": {
        "name": "Rich Look",
        "shop": "furniture"
      }
    },
    {
      "type": "node",
      "id": 10047234717,
      "lat": 12.9818781,
      "lon": 77.6040785,
      "tags": {
        "amenity": "pharmacy",
        "name": "Jain Medicals"
      }
    },
    {
      "type": "node",
      "id": 10047263719,
      "lat": 12.9819226,
      "lon": 77.6039141,
      "tags": {
        "name": "Star Furniture",
        "shop": "furniture"
      }
    },
    {
      "type": "node",
      "id": 10047263720,
      "lat": 12.9819946,
      "lon": 77.6035145,
      "tags": {
        "name": "Oak Town",
        "shop": "furniture"
      }
    },
    {
      "type": "node",
      "id": 10047263721,
      "lat": 12.9820371,
      "lon": 77.6032655,
      "tags": {
        "amenity": "fast_food",
        "name": "Hotel Swapna Sagara"
      }
    },
    {
      "type": "node",
      "id": 10047263722,
      "lat": 12.9819357,
      "lon": 77.6031938,
      "tags": {
        "name": "Swapna Furniture",
        "shop": "furniture"
      }
    },
    {
      "type": "node",
      "id": 10047269017,
      "lat": 12.9819023,
      "lon": 77.6039684,
      "tags": {
        "name": "SR Bakery & Fast Food",
        "shop": "bakery"
      }
    },
    {
      "type": "node",
      "id": 10047269018,
      "lat": 12.9810024,
      "lon": 77.6029016,
      "tags": {
        "name": "Galaxy Furniture",
        "shop": "furniture"
      }
    },
    {
      "type": "node",
      "id": 10047269019,
      "lat": 12.9813077,
      "lon": 77.603053,
      "tags": {
        "name": "Sriram Furniture",
        "shop": "furniture"
      }
    },
    {
      "type": "node",
      "id": 10047269020,
      "lat": 12.9807238,
      "lon": 77.6027252,
      "tags": {
        "name": "New Sun Shine Furniture",
        "shop": "furniture",
        "wheelchair": "limited"
      }
    },
    {
      "type": "node",
      "id": 10047269021,
      "lat": 12.9806447,
      "lon": 77.6029653,
      "tags": {
        "name": "Quality Furniture",
        "shop": "furniture"
      }
    },
    {
      "type": "node",
      "id": 10047269022,
      "lat": 12.9805903,
      "lon": 77.6031335,
      "tags": {
        "name": "Sunrise Furnishers",
        "shop": "furniture"
      }
    },
    {
      "type": "node",
      "id": 10047269023,
      "lat": 12.9806109,
      "lon": 77.6035852,
      "tags": {
        "name": "Fortune Wood Furniture",
        "shop": "furniture"
      }
    },
    {
      "type": "node",
      "id": 10047269317,
      "lat": 12.9818876,
      "lon": 77.6034159,
      "tags": {
        "name": "Ocean Furniture",
        "shop": "furniture"
      }
    },
    {
      "type": "node",
      "id": 10047269318,
      "lat": 12.9812815,
      "lon": 77.603016,
      "tags": {
        "name": "Novel Furnitures",
        "shop": "furniture"
      }
    },
    {
      "type": "node",
      "id": 10047269319,
      "lat": 12.9806058,
      "lon": 77.6030752,
      "tags": {
        "name": "Citizen Furniture",
        "shop": "furniture"
      }
    },
    {
      "type": "node",
      "id": 10047269320,
      "lat": 12.9805896,
      "lon": 77.6036478,
      "tags": {
        "name": "Green Oak Furniture",
        "shop": "furniture"
      }
    },
    {
      "type": "node",
      "id": 10047269417,
      "lat": 12.9812536,
      "lon": 77.6030107,
      "tags": {
        "name": "Royal Furniture",
        "shop": "furniture"
      }
    },
    {
      "type": "node",
      "id": 10047269418,
      "lat": 12.9806314,
      "lon": 77.6030119,
      "tags": {
        "name": "Razak’s Furnishers & Interior Decorators",
        "shop": "furniture"
      }
    },
    {
      "type": "node",
      "id": 10080463675,
      "lat": 12.9809859,
      "lon": 77.6076048,
      "tags": {
        "name": "Track and Trail",
        "shop": "bicycle"
      }
    },
    {
      "type": "node",
      "id": 10123663886,
      "lat": 12.9830417,
      "lon": 77.6083398,
      "tags": {
        "clothes": "men",
        "name": "Kurta Planet",
        "shop": "clothes"
      }
    },
    {
      "type": "node",
      "id": 10123663887,
      "lat": 12.9828955,
      "lon": 77.6083839,
      "tags": {
        "name": "Dupatta Centre",
        "shop": "clothes"
      }
    },
    {
      "type": "node",
      "id": 10183537170,
      "lat": 12.9828406,
      "lon": 77.5969646,
      "tags": {
        "amenity": "waste_basket"
      }
    },
    {
      "type": "node",
      "id": 10215066518,
      "lat": 12.9837622,
      "lon": 77.5969019,
      "tags": {
        "amenity": "bar",
        "name": "Suzy Q by 1522",
        "website": "http://suzyq.in/"
      }
    },
    {
      "type": "node",
      "id": 10601663803,
      "lat": 12.9854964,
      "lon": 77.5964219,
      "tags": {
        "name": "Specsmakers",
        "shop": "optician"
      }
    },
    {
      "type": "node",
      "id": 10601663804,
      "lat": 12.9854094,
      "lon": 77.5965187,
      "tags": {
        "name": "Calistta",
        "shop": "jewelry"
      }
    },
    {
      "type": "node",
      "id": 10601700605,
      "lat": 12.9849661,
      "lon": 77.5963422,
      "tags": {
        "amenity": "bank",
        "atm": "yes",
        "brand": "IDFC First Bank",
        "brand:wikidata": "Q22031467",
        "name": "IDFC First Bank",
        "operator": "IDFC First Bank"
      }
    },
    {
      "type": "node",
      "id": 10685071180,
      "lat": 12.98166,
      "lon": 77.6095172,
      "tags": {
        "name": "Avantra by Trends",
        "shop": "clothes"
      }
    },
    {
      "type": "node",
      "id": 10703113644,
      "lat": 12.9839354,
      "lon": 77.6060818,
      "tags": {
        "amenity": "place_of_worship",
        "check_date": "2023-03-02",
        "name": "Sri Meenakshi Amman Koil",
        "name:ta": "ஶ்ரீ மீனாட்சி அம்மன் கோயில்",
        "religion": "hindu"
      }
    },
    {
      "type": "node",
      "id": 10719419554,
      "lat": 12.9844304,
      "lon": 77.5992197,
      "tags": {
        "brand": "HOPCOMS",
        "brand:wikidata": "Q22908959",
        "name": "HOPCOMS",
        "shop": "greengrocer"
      }
    },
    {
      "type": "node",
      "id": 10719419560,
      "lat": 12.9845421,
      "lon": 77.5991446,
      "tags": {
        "name": "Nandini Milk Parlour",
        "shop": "dairy"
      }
    },
    {
      "type": "node",
      "id": 10761482790,
      "lat": 12.9885017,
      "lon": 77.6042837,
      "tags": {
        "amenity": "drinking_water"
      }
    },
    {
      "type": "node",
      "id": 10761482804,
      "lat": 12.9871727,
      "lon": 77.5996408,
      "tags": {
        "amenity": "place_of_worship",
        "religion": "hindu"
      }
    },
    {
      "type": "node",
      "id": 10761493308,
      "lat": 12.9839159,
      "lon": 77.5972417,
      "tags": {
        "amenity": "bench"
      }
    },
    {
      "type": "node",
      "id": 10761493309,
      "lat": 12.9839596,
      "lon": 77.597274,
      "tags": {
        "amenity": "bench"
      }
    },
    {
      "type": "node",
      "id": 10761493310,
      "lat": 12.983969,
      "lon": 77.59731,
      "tags": {
        "amenity": "bench"
      }
    },
    {
      "type": "node",
      "id": 10761493311,
      "lat": 12.9839828,
      "lon": 77.5973558,
      "tags": {
        "amenity": "bench"
      }
    },
    {
      "type": "node",
      "id": 10761493312,
      "lat": 12.9840026,
      "lon": 77.597392,
      "tags": {
        "amenity": "bench"
      }
    },
    {
      "type": "node",
      "id": 10761493313,
      "lat": 12.9840203,
      "lon": 77.5974359,
      "tags": {
        "amenity": "bench"
      }
    },
    {
      "type": "node",
      "id": 10761493321,
      "lat": 12.9854776,
      "lon": 77.5978553,
      "tags": {
        "brand": "Toyota",
        "brand:wikidata": "Q53268",
        "check_date": "2025-03-24",
        "name": "Toyota",
        "shop": "car"
      }
    },
    {
      "type": "node",
      "id": 10761493359,
      "lat": 12.983,
      "lon": 77.5986148,
      "tags": {
        "access": "yes",
        "amenity": "parking",
        "capacity": "30",
        "fee": "yes",
        "operator": "BBMP",
        "parking": "surface"
      }
    },
    {
      "type": "node",
      "id": 10792855166,
      "lat": 12.9819588,
      "lon": 77.6098863,
      "tags": {
        "addr:housenumber": "7",
        "addr:street": "MK Street",
        "amenity": "place_of_worship",
        "check_date": "2023-04-07",
        "name": "Arul Mighu Shree Padavedu Mariamman Thiru Koil",
        "religion": "hindu",
        "wheelchair": "limited"
      }
    },
    {
      "type": "node",
      "id": 10792855167,
      "lat": 12.9818947,
      "lon": 77.609863,
      "tags": {
        "check_date": "2023-04-07",
        "name": "Naughtee",
        "shop": "clothes"
      }
    },
    {
      "type": "node",
      "id": 10792855168,
      "lat": 12.9818739,
      "lon": 77.6096512,
      "tags": {
        "air_conditioning": "yes",
        "brand": "Zudio",
        "brand:wikidata": "Q123375926",
        "check_date": "2023-04-07",
        "clothes": "women;men",
        "name": "Zudio",
        "payment:cash": "yes",
        "payment:credit_cards": "yes",
        "payment:debit_cards": "yes",
        "payment:upi": "yes",
        "second_hand": "no",
        "shop": "clothes",
        "source": "survey"
      }
    },
    {
      "type": "node",
      "id": 10792855169,
      "lat": 12.9823345,
      "lon": 77.6082047,
      "tags": {
        "check_date": "2023-04-07",
        "name": "Planet Fashion",
        "shop": "clothes"
      }
    },
    {
      "type": "node",
      "id": 10792855170,
      "lat": 12.9823686,
      "lon": 77.6082193,
      "tags": {
        "amenity": "bank",
        "atm": "yes",
        "brand": "Punjab National Bank",
        "brand:wikidata": "Q2743499",
        "check_date": "2023-04-07",
        "name": "Punjab National Bank",
        "name:kn": "ಪಂಜಾಬ ರಾಷ್ಟ್ರೀಯ ಬ್ಯಾಂಕ್"
      }
    },
    {
      "type": "node",
      "id": 10792855171,
      "lat": 12.9823249,
      "lon": 77.6082419,
      "tags": {
        "check_date": "2023-04-07",
        "name": "Flying Machine",
        "shop": "clothes"
      }
    },
    {
      "type": "node",
      "id": 10792855172,
      "lat": 12.9822095,
      "lon": 77.6081199,
      "tags": {
        "addr:housenumber": "47",
        "addr:street": "Commercial Street",
        "air_conditioning": "yes",
        "check_date": "2023-04-07",
        "name": "Kushal's fashion jewellery",
        "payment:mastercard": "yes",
        "payment:upi": "yes",
        "payment:visa": "yes",
        "shop": "fashion_accessories",
        "source": "survey",
        "wheelchair": "no"
      }
    },
    {
      "type": "node",
      "id": 10792855173,
      "lat": 12.9822408,
      "lon": 77.6080811,
      "tags": {
        "addr:housenumber": "49",
        "addr:street": "Commercial Street",
        "check_date": "2023-04-07",
        "name": "Kashmir Government Arts Emporium",
        "shop": "art"
      }
    },
    {
      "type": "node",
      "id": 10792855175,
      "lat": 12.9851522,
      "lon": 77.6073253,
      "tags": {
        "amenity": "place_of_worship",
        "check_date": "2023-04-07",
        "name": "Dharamaraja Koil",
        "name:kn": "ಧರ್ಮರಾಜ ಕೋಯಿಲ್",
        "religion": "hindu"
      }
    },
    {
      "type": "node",
      "id": 11096864991,
      "lat": 12.9915926,
      "lon": 77.5999469,
      "tags": {
        "amenity": "waste_basket"
      }
    },
    {
      "type": "node",
      "id": 11096864992,
      "lat": 12.9916066,
      "lon": 77.5999506,
      "tags": {
        "amenity": "waste_basket"
      }
    },
    {
      "type": "node",
      "id": 11214889013,
      "lat": 12.9805484,
      "lon": 77.5978893,
      "tags": {
        "amenity": "charging_station",
        "charging_station:battery_swapping": "yes",
        "name": "Pulse"
      }
    },
    {
      "type": "node",
      "id": 11478214523,
      "lat": 12.9829091,
      "lon": 77.5970799,
      "tags": {
        "amenity": "waste_basket"
      }
    },
    {
      "type": "node",
      "id": 11478214524,
      "lat": 12.9829153,
      "lon": 77.5970799,
      "tags": {
        "amenity": "waste_basket"
      }
    },
    {
      "type": "node",
      "id": 11478214525,
      "lat": 12.9822464,
      "lon": 77.5971587,
      "tags": {
        "amenity": "waste_basket"
      }
    },
    {
      "type": "node",
      "id": 11478214526,
      "lat": 12.9822558,
      "lon": 77.5971594,
      "tags": {
        "amenity": "waste_basket"
      }
    },
    {
      "type": "node",
      "id": 11511427788,
      "lat": 12.9808271,
      "lon": 77.6020435,
      "tags": {
        "amenity": "motorcycle_parking"
      }
    },
    {
      "type": "node",
      "id": 11511427789,
      "lat": 12.9808271,
      "lon": 77.6020435,
      "tags": {
        "access": "permissive",
        "amenity": "motorcycle_parking",
        "capacity": "8",
        "operator": "Alternative Law Forum"
      }
    },
    {
      "type": "node",
      "id": 11543546144,
      "lat": 12.9837692,
      "lon": 77.6083351,
      "tags": {
        "addr:city": "Beṅgaḷūru",
        "addr:neighborhood": "Śivājinagara",
        "amenity": "restaurant",
        "cuisine": "indian",
        "diet:vegetarian": "yes",
        "name": "Vinaya Sāgar",
        "name:kn": "ವಿನಯ ಸಾಗರ್",
        "opening_hours": "07:00-22:30",
        "phone": "+919900644644"
      }
    },
    {
      "type": "node",
      "id": 11543578082,
      "lat": 12.981187,
      "lon": 77.6042415,
      "tags": {
        "addr:city": "Beṅgaḷūru",
        "addr:neighborhood": "Śivājinagara",
        "addr:postcode": "560001",
        "amenity": "restaurant",
        "cuisine": "indian",
        "diet:vegetarian": "yes",
        "name": "Bangalore Thindies",
        "opening_hours": "08:00-21:30",
        "phone": "+919591541023",
        "website": "https://www.bangalorethindies.com/"
      }
    },
    {
      "type": "node",
      "id": 11543598140,
      "lat": 12.9833049,
      "lon": 77.6099837,
      "tags": {
        "addr:city": "Beṅgaḷūru",
        "addr:neighborhood": "Śivājinagara",
        "amenity": "restaurant",
        "cuisine": "indian",
        "diet:vegetarian": "yes",
        "name": "JCL",
        "name:en": "JCL Canteen",
        "name:es": "Cafetería JCL",
        "opening_hours": "07:00-22:00",
        "phone": "+918123112030"
      }
    },
    {
      "type": "node",
      "id": 11609591870,
      "lat": 12.981703,
      "lon": 77.5971992,
      "tags": {
        "amenity": "place_of_worship",
        "check_date": "2024-02-11",
        "religion": "hindu"
      }
    },
    {
      "type": "node",
      "id": 11658509108,
      "lat": 12.9821556,
      "lon": 77.5969868,
      "tags": {
        "amenity": "waste_basket"
      }
    },
    {
      "type": "node",
      "id": 11775336487,
      "lat": 12.9840501,
      "lon": 77.596628,
      "tags": {
        "amenity": "shelter",
        "bench": "yes",
        "covered": "yes",
        "shelter": "yes",
        "shelter_type": "public_transport"
      }
    },
    {
      "type": "node",
      "id": 11775336488,
      "lat": 12.9840141,
      "lon": 77.596577,
      "tags": {
        "amenity": "shelter",
        "bench": "yes",
        "covered": "yes",
        "shelter": "yes",
        "shelter_type": "public_transport"
      }
    },
    {
      "type": "node",
      "id": 11775336489,
      "lat": 12.9839612,
      "lon": 77.5965133,
      "tags": {
        "amenity": "shelter",
        "bench": "yes",
        "covered": "yes",
        "shelter": "yes",
        "shelter_type": "public_transport"
      }
    },
    {
      "type": "node",
      "id": 11775336491,
      "lat": 12.9839073,
      "lon": 77.5964421,
      "tags": {
        "amenity": "shelter",
        "bench": "yes",
        "covered": "yes",
        "shelter": "yes",
        "shelter_type": "public_transport"
      }
    },
    {
      "type": "node",
      "id": 11915100545,
      "lat": 12.9831448,
      "lon": 77.6094078,
      "tags": {
        "access": "yes",
        "amenity": "motorcycle_parking",
        "covered": "no"
      }
    },
    {
      "type": "node",
      "id": 11915213882,
      "lat": 12.9832825,
      "lon": 77.6100382,
      "tags": {
        "amenity": "atm",
        "brand": "State Bank of India",
        "brand:wikidata": "Q1340361",
        "name": "State Bank of India",
        "operator": "State Bank of India",
        "operator:wikidata": "Q1340361",
        "short_name": "SBI"
      }
    },
    {
      "type": "node",
      "id": 11915237669,
      "lat": 12.9832822,
      "lon": 77.6100189,
      "tags": {
        "amenity": "atm",
        "brand": "Axis Bank",
        "brand:wikidata": "Q2003549",
        "name": "Axis Bank",
        "name:kn": "ಆಕ್ಸಿಸ್ ಬ್ಯಾಂಕ್",
        "operator": "Axis Bank",
        "operator:wikidata": "Q2003549"
      }
    },
    {
      "type": "node",
      "id": 12019714500,
      "lat": 12.9877097,
      "lon": 77.5980627,
      "tags": {
        "access": "permissive",
        "amenity": "toilets",
        "check_date": "2024-06-29"
      }
    },
    {
      "type": "node",
      "id": 12019932439,
      "lat": 12.9835502,
      "lon": 77.5971652,
      "tags": {
        "check_date": "2024-06-29",
        "shop": "kiosk"
      }
    },
    {
      "type": "node",
      "id": 12019980191,
      "lat": 12.9808365,
      "lon": 77.5981459,
      "tags": {
        "addr:floor": "-1",
        "amenity": "atm",
        "brand": "State Bank of India",
        "brand:wikidata": "Q1340361",
        "check_date": "2024-06-29",
        "level": "-1",
        "operator": "State Bank of India",
        "operator:wikidata": "Q1340361",
        "short_name": "SBI"
      }
    },
    {
      "type": "node",
      "id": 12019980192,
      "lat": 12.980659,
      "lon": 77.5980619,
      "tags": {
        "access": "permissive",
        "addr:floor": "-1",
        "amenity": "toilets",
        "check_date": "2024-06-29",
        "female": "yes",
        "level": "-1",
        "male": "yes",
        "operator": "BMRCL",
        "toilets:handwashing": "yes",
        "toilets:position": "urinal"
      }
    },
    {
      "type": "node",
      "id": 12019980193,
      "lat": 12.9806872,
      "lon": 77.5980723,
      "tags": {
        "access": "permissive",
        "addr:floor": "-1",
        "amenity": "drinking_water",
        "fee": "no",
        "level": "-1",
        "operator": "BMRCL"
      }
    },
    {
      "type": "node",
      "id": 12026493327,
      "lat": 12.990767,
      "lon": 77.5992592,
      "tags": {
        "amenity": "fast_food",
        "brand": "Indira Canteen",
        "brand:wikidata": "Q36164828",
        "cuisine": "south_indian",
        "name": "Indira Canteen",
        "operator": "BBMP",
        "takeaway": "yes"
      }
    },
    {
      "type": "node",
      "id": 12067529110,
      "lat": 12.9816919,
      "lon": 77.6095569,
      "tags": {
        "addr:city": "Bengaluru",
        "addr:country": "IN",
        "addr:housenumber": "14",
        "addr:postcode": "560001",
        "addr:street": "Commercial Street",
        "addr:suburb": "Shivajinagar",
        "amenity": "restaurant",
        "name": "Bhartiya Jalpan"
      }
    },
    {
      "type": "node",
      "id": 12092047871,
      "lat": 12.9817873,
      "lon": 77.6122101,
      "tags": {
        "addr:city": "Bengaluru",
        "addr:country": "IN",
        "addr:housenumber": "24",
        "addr:postcode": "560042",
        "addr:street": "Gangadhar Chetty Road",
        "addr:suburb": "Halasuru",
        "check_date": "2024-08-04",
        "contact:instagram": "generalitems.in",
        "level": "0",
        "name": "General Items",
        "name:kn": "ಜನರಲ್ ಐಟಮ್ಸ್",
        "opening_hours": "Tu-Su 11:00-19:00",
        "shop": "general",
        "website": "https://generalitems.in/"
      }
    },
    {
      "type": "node",
      "id": 12103968926,
      "lat": 12.9934495,
      "lon": 77.6070426,
      "tags": {
        "check_date": "2024-08-11",
        "name": "ARK Tyres",
        "shop": "tyres"
      }
    },
    {
      "type": "node",
      "id": 12103968928,
      "lat": 12.9927313,
      "lon": 77.6051119,
      "tags": {
        "amenity": "place_of_worship",
        "check_date": "2024-08-11",
        "name": "First Assembly of God Church",
        "religion": "christian"
      }
    },
    {
      "type": "node",
      "id": 12117129148,
      "lat": 12.9850139,
      "lon": 77.5976868,
      "tags": {
        "amenity": "kindergarten",
        "check_date": "2025-03-24",
        "name": "Neev"
      }
    },
    {
      "type": "node",
      "id": 12133474018,
      "lat": 12.9820378,
      "lon": 77.5994651,
      "tags": {
        "air_conditioning": "no",
        "amenity": "fast_food",
        "check_date": "2024-08-24",
        "cuisine": "indian",
        "diet:vegetarian": "yes",
        "drive_through": "no",
        "highchair": "no",
        "internet_access": "no",
        "name": "Bangalore Thindies",
        "name:kn": "ಬೆಂಗಳೂರು ತಿಂಡಿ",
        "outdoor_seating": "no",
        "takeaway": "yes",
        "toilets": "no",
        "wheelchair": "yes"
      }
    },
    {
      "type": "node",
      "id": 12139259375,
      "lat": 12.9819801,
      "lon": 77.599455,
      "tags": {
        "amenity": "waste_basket"
      }
    },
    {
      "type": "node",
      "id": 12139259376,
      "lat": 12.9819814,
      "lon": 77.599449,
      "tags": {
        "amenity": "waste_basket"
      }
    },
    {
      "type": "node",
      "id": 12139259377,
      "lat": 12.9820555,
      "lon": 77.598934,
      "tags": {
        "amenity": "waste_basket"
      }
    },
    {
      "type": "node",
      "id": 12139259378,
      "lat": 12.9820565,
      "lon": 77.5989313,
      "tags": {
        "amenity": "waste_basket"
      }
    },
    {
      "type": "node",
      "id": 12139259387,
      "lat": 12.9821663,
      "lon": 77.5969888,
      "tags": {
        "amenity": "waste_basket"
      }
    },
    {
      "type": "node",
      "id": 12139261505,
      "lat": 12.9834483,
      "lon": 77.5967735,
      "tags": {
        "amenity": "bank",
        "brand": "Axis Bank",
        "brand:wikidata": "Q2003549",
        "name": "Axis Bank",
        "name:kn": "ಆಕ್ಸಿಸ್ ಬ್ಯಾಂಕ್"
      }
    },
    {
      "type": "node",
      "id": 12139261508,
      "lat": 12.9850714,
      "lon": 77.5964597,
      "tags": {
        "name": "Hotel & Home Concepts",
        "shop": "interior_decoration"
      }
    },
    {
      "type": "node",
      "id": 12139261509,
      "lat": 12.9851053,
      "lon": 77.5963765,
      "tags": {
        "amenity": "fast_food",
        "name": "Rolls on Wheels"
      }
    },
    {
      "type": "node",
      "id": 12139261510,
      "lat": 12.9854621,
      "lon": 77.5964718,
      "tags": {
        "name": "The Rustic Wall",
        "shop": "antiques"
      }
    },
    {
      "type": "node",
      "id": 12139261511,
      "lat": 12.9855379,
      "lon": 77.596398,
      "tags": {
        "beauty": "spa",
        "name": "Aqua Family Salon * Spa",
        "shop": "beauty"
      }
    },
    {
      "type": "node",
      "id": 12441128605,
      "lat": 12.9835541,
      "lon": 77.6108149,
      "tags": {
        "name": "Excelsior",
        "shop": "bakery",
        "start_date": "1930"
      }
    },
    {
      "type": "node",
      "id": 12498576282,
      "lat": 12.9843323,
      "lon": 77.6054625,
      "tags": {
        "amenity": "fast_food",
        "brand": "Indira Canteen",
        "brand:wikidata": "Q36164828",
        "cuisine": "south_indian",
        "name": "Indira Canteen",
        "operator": "BBMP",
        "takeaway": "yes"
      }
    },
    {
      "type": "node",
      "id": 12507236089,
      "lat": 12.9842748,
      "lon": 77.6034911,
      "tags": {
        "amenity": "place_of_worship",
        "religion": "hindu"
      }
    },
    {
      "type": "node",
      "id": 12507236090,
      "lat": 12.9830164,
      "lon": 77.6031964,
      "tags": {
        "amenity": "post_box",
        "operator": "India Post"
      }
    },
    {
      "type": "node",
      "id": 12507236091,
      "lat": 12.9838037,
      "lon": 77.6034294,
      "tags": {
        "amenity": "atm"
      }
    },
    {
      "type": "node",
      "id": 12530833136,
      "lat": 12.9815554,
      "lon": 77.6080891,
      "tags": {
        "access": "yes",
        "amenity": "toilets"
      }
    },
    {
      "type": "node",
      "id": 12530833137,
      "lat": 12.981801,
      "lon": 77.6080743,
      "tags": {
        "name": "Kalakruti",
        "shop": "clothes"
      }
    },
    {
      "type": "node",
      "id": 12629746534,
      "lat": 12.9831784,
      "lon": 77.6012555,
      "tags": {
        "amenity": "place_of_worship",
        "name": "Sri Muneshwara Swamy Temple",
        "religion": "hindu"
      }
    },
    {
      "type": "node",
      "id": 12644777546,
      "lat": 12.9825963,
      "lon": 77.6108753,
      "tags": {
        "name": "Westside",
        "shop": "mall"
      }
    },
    {
      "type": "node",
      "id": 12644777552,
      "lat": 12.9821532,
      "lon": 77.6103656,
      "tags": {
        "name": "koskii",
        "shop": "boutique"
      }
    },
    {
      "type": "node",
      "id": 12674329834,
      "lat": 12.9847521,
      "lon": 77.5970662,
      "tags": {
        "air_conditioning": "no",
        "amenity": "restaurant",
        "cuisine": "chinese;south_indian",
        "name": "Aaha Thindi",
        "outdoor_seating": "no",
        "self_service": "yes",
        "toilets:access": "permissive",
        "wheelchair": "no"
      }
    },
    {
      "type": "node",
      "id": 12686350437,
      "lat": 12.9812089,
      "lon": 77.6020482,
      "tags": {
        "amenity": "clinic",
        "check_date": "2025-03-21",
        "healthcare": "clinic",
        "name": "Celera Diagnostics"
      }
    },
    {
      "type": "node",
      "id": 12686350459,
      "lat": 12.9802813,
      "lon": 77.6050445,
      "tags": {
        "amenity": "fast_food",
        "check_date": "2025-03-21",
        "name": "Hatti Kaapi"
      }
    },
    {
      "type": "node",
      "id": 12691304913,
      "lat": 12.9858206,
      "lon": 77.6053288,
      "tags": {
        "amenity": "clock",
        "display": "analog",
        "support": "pillar",
        "visibility": "area"
      }
    },
    {
      "type": "node",
      "id": 12695892237,
      "lat": 12.9896019,
      "lon": 77.5993579,
      "tags": {
        "amenity": "fast_food",
        "check_date": "2025-03-24",
        "name": "KGN Biriyani Point"
      }
    },
    {
      "type": "node",
      "id": 12695892238,
      "lat": 12.9892976,
      "lon": 77.5992852,
      "tags": {
        "amenity": "fast_food",
        "check_date": "2025-03-24",
        "name": "Al Madiinah Biryani Store"
      }
    },
    {
      "type": "node",
      "id": 12695892239,
      "lat": 12.9887509,
      "lon": 77.5990782,
      "tags": {
        "amenity": "fast_food",
        "check_date": "2025-03-24",
        "name": "Bangalore Thindies"
      }
    },
    {
      "type": "node",
      "id": 12695892242,
      "lat": 12.9878162,
      "lon": 77.5987746,
      "tags": {
        "amenity": "fast_food",
        "check_date": "2025-03-24",
        "name": "Shahi Kabab Roll Centre"
      }
    },
    {
      "type": "node",
      "id": 12695892243,
      "lat": 12.9877134,
      "lon": 77.5986468,
      "tags": {
        "amenity": "waste_basket"
      }
    },
    {
      "type": "node",
      "id": 12695892244,
      "lat": 12.9876972,
      "lon": 77.5986435,
      "tags": {
        "amenity": "waste_basket"
      }
    },
    {
      "type": "node",
      "id": 12695892245,
      "lat": 12.9874974,
      "lon": 77.5986568,
      "tags": {
        "amenity": "fast_food",
        "check_date": "2025-03-24",
        "name": "Santosh Pan Paradise and Fresh Juices"
      }
    },
    {
      "type": "node",
      "id": 12695892246,
      "lat": 12.9868761,
      "lon": 77.5984573,
      "tags": {
        "amenity": "clinic",
        "check_date": "2025-03-24",
        "healthcare": "clinic",
        "name": "Aster Labs"
      }
    },
    {
      "type": "node",
      "id": 12749935725,
      "lat": 12.9824009,
      "lon": 77.6108551,
      "tags": {
        "amenity": "cafe",
        "brand": "Starbucks",
        "brand:wikidata": "Q37158",
        "cuisine": "coffee_shop",
        "name": "Starbucks",
        "official_name": "Starbucks Coffee",
        "takeaway": "yes"
      }
    },
    {
      "type": "node",
      "id": 12749935726,
      "lat": 12.9827759,
      "lon": 77.6108927,
      "tags": {
        "amenity": "community_centre",
        "name": "Hajee Saleh Mohammed Ahmed Sait Cutchi Memon Jamath Khana"
      }
    },
    {
      "type": "node",
      "id": 12750126583,
      "lat": 12.9833333,
      "lon": 77.6111176,
      "tags": {
        "amenity": "toilets"
      }
    },
    {
      "type": "node",
      "id": 12952280463,
      "lat": 12.9931055,
      "lon": 77.6094188,
      "tags": {
        "brand": "Nandini",
        "brand:wikidata": "Q124374212",
        "name": "Nandini",
        "shop": "dairy"
      }
    },
    {
      "type": "node",
      "id": 13013584279,
      "lat": 12.9833134,
      "lon": 77.611239,
      "tags": {
        "addr:city": "Bengaluru",
        "addr:housenumber": "262",
        "addr:postcode": "560051",
        "addr:street": "Kamaraj Road",
        "addr:suburb": "Shivajinagar",
        "amenity": "cafe",
        "name": "The Rogue Elephant Cafe",
        "outdoor_seating": "yes"
      }
    },
    {
      "type": "node",
      "id": 13023088269,
      "lat": 12.983093,
      "lon": 77.5967084,
      "tags": {
        "addr:floor": "1",
        "amenity": "cafe",
        "check_date": "2025-07-25",
        "level": "1",
        "name": "The Green Door Coffee House"
      }
    },
    {
      "type": "node",
      "id": 13098372342,
      "lat": 12.9799077,
      "lon": 77.6070181,
      "tags": {
        "amenity": "restaurant",
        "contact:instagram": "julianas.blr",
        "name": "Juliana's"
      }
    },
    {
      "type": "node",
      "id": 13299647378,
      "lat": 12.9845566,
      "lon": 77.6121654,
      "tags": {
        "name": "Iyengar Bakery",
        "shop": "bakery"
      }
    },
    {
      "type": "way",
      "id": 28126916,
      "center": {
        "lat": 12.9788293,
        "lon": 77.5995257
      },
      "tags": {
        "alt_name": "Karnataka State Cricket Association Stadium",
        "capacity:persons": "40000",
        "leisure": "stadium",
        "name": "M Chinnaswamy Stadium",
        "name:etymology:wikidata": "Q6712480",
        "name:kn": "ಚಿನ್ನಸ್ವಾಮಿ ಕ್ರೀಡಾಂಗಣ",
        "name:ml": "ചിന്നസ്വാമി സ്റ്റേഡിയം",
        "short_name": "KSCA Stadium",
        "sport": "cricket",
        "start_date": "1974",
        "wheelchair": "yes",
        "wikipedia": "en:M. Chinnaswamy Stadium"
      }
    },
    {
      "type": "way",
      "id": 36913441,
      "center": {
        "lat": 12.9850548,
        "lon": 77.6058687
      },
      "tags": {
        "addr:street": "AM Road",
        "amenity": "marketplace",
        "building": "retail",
        "name": "Russel Market",
        "start_date": "1927",
        "wikidata": "Q7381672",
        "wikimedia_commons": "File:Russell Market.jpg",
        "wikipedia": "en:Russell Market"
      }
    },
    {
      "type": "way",
      "id": 37136671,
      "center": {
        "lat": 12.9876751,
        "lon": 77.6147713
      },
      "tags": {
        "amenity": "school",
        "name": "Kendriya Vidhyalaya, MEG Centre",
        "name:kn": "ಕೇಂದ್ರಿಯ ವಿದ್ಯಾಲಯ",
        "short_name": "KV MEG"
      }
    },
    {
      "type": "way",
      "id": 45444044,
      "center": {
        "lat": 12.9830115,
        "lon": 77.6047116
      },
      "tags": {
        "addr:city": "Shivaji Nagar, Bangalore",
        "addr:district": "Bengaluru Urban",
        "addr:full": "Lady Curzon Road, Shivaji Nagar",
        "addr:postcode": "560001",
        "addr:state": "Karnataka",
        "addr:street": "Lady Curzon Road",
        "amenity": "hospital",
        "fax": "+91-80-25591325",
        "healthcare": "hospital",
        "healthcare:speciality": "Bio-Chemistry; Cardiology; Cardiothoracic Surgery; Dermatology; ENT; General Medicine; General Surgery; Micro-Biology; Neurology; Ophthalmology; Orthopedics Pathology; Pediatric Surgery; Plastic Surgery; Psychiatry; Pulmonology; Radio-Diagnosis;",
        "name": "Bowring and Lady Curzon Hospitals",
        "name:kn": "ಬೌರಿಂಗ್ ಆಸ್ಪತ್ರೆ",
        "official_name": "Shri Atal Bihari Vajpayee Medical College and Research Institution",
        "operator:type": "government",
        "phone": "+91-80-25591325",
        "source": "OpenGovernmentData",
        "website": "https://sabvmcri.karnataka.gov.in/"
      }
    },
    {
      "type": "way",
      "id": 52063534,
      "center": {
        "lat": 12.9837175,
        "lon": 77.599792
      },
      "tags": {
        "addr:city": "Shivaji Nagar, Bangalore",
        "addr:street": "Venkataswamy Naidu Road",
        "amenity": "hospital",
        "healthcare": "hospital",
        "heritage": "2",
        "heritage:operator": "nmma",
        "heritage:website": "https://nmma.nic.in/nmma/exploreBuiltState.do?state=29",
        "name": "Sir Haji Ismail Gosha Sait Hospital",
        "name:etymology:wikidata": "Q6084847",
        "name:kn": "ಸರ್ ಹಾಜಿ ಇಸ್ಮೈಲ್ ಗೊಶ ಸೈಟ್ ಆಸ್ಪತ್ರೆ",
        "ref:nmma": "KR20010684"
      }
    },
    {
      "type": "way",
      "id": 52097460,
      "center": {
        "lat": 12.9788434,
        "lon": 77.5995702
      },
      "tags": {
        "leisure": "pitch",
        "lit": "yes",
        "sport": "cricket",
        "surface": "grass"
      }
    },
    {
      "type": "way",
      "id": 131683516,
      "center": {
        "lat": 12.9829022,
        "lon": 77.6020387
      },
      "tags": {
        "amenity": "place_of_worship",
        "denomination": "sunni",
        "name": "Sultan Shah Masjid",
        "name:kn": "ಸುಲ್ತಾನ್ ಶಾ ಮಸೀದಿ",
        "religion": "muslim"
      }
    },
    {
      "type": "way",
      "id": 131683727,
      "center": {
        "lat": 12.9813245,
        "lon": 77.6072401
      },
      "tags": {
        "amenity": "community_centre",
        "building": "yes",
        "name": "Samad House"
      }
    },
    {
      "type": "way",
      "id": 133182891,
      "center": {
        "lat": 12.9941564,
        "lon": 77.6090213
      },
      "tags": {
        "alt_name": "Freedom Fighters Park",
        "leisure": "park",
        "name": "Coles Park",
        "name:etymology:wikidata": "Q24254979",
        "name:kn": "ಸ್ವತಂತ್ರ ಹೋರಾಟಗಾರರ ಉದ್ಯಾನವನ"
      }
    },
    {
      "type": "way",
      "id": 133257538,
      "center": {
        "lat": 12.9918617,
        "lon": 77.6130161
      },
      "tags": {
        "addr:housenumber": "132",
        "addr:postcode": "560005",
        "addr:street": "St. John's Church Road",
        "alt_name": "St. , John's, SJHS",
        "amenity": "school",
        "name": "St. John's High School",
        "name:kn": "ಸಂತ ಜಾನ್ ಪ್ರೌಢಶಾಲೆ"
      }
    },
    {
      "type": "way",
      "id": 133486238,
      "center": {
        "lat": 12.9931976,
        "lon": 77.6105474
      },
      "tags": {
        "amenity": "school",
        "name": "St. Germain's High School",
        "name:kn": "ಸಂತ ಜೆರ್ಮೇನ್ಸ್ ಪ್ರೌಡ ಶಾಲೆ",
        "wikidata": "Q7588249",
        "wikipedia": "en:St. Germain High School"
      }
    },
    {
      "type": "way",
      "id": 138382191,
      "center": {
        "lat": 12.9834104,
        "lon": 77.6030882
      },
      "tags": {
        "amenity": "parking",
        "building": "transportation",
        "building:levels": "3"
      }
    },
    {
      "type": "way",
      "id": 172924463,
      "center": {
        "lat": 12.9926177,
        "lon": 77.6112538
      },
      "tags": {
        "amenity": "place_of_worship",
        "building": "cathedral",
        "denomination": "roman_catholic",
        "heritage": "2",
        "heritage:operator": "nmma",
        "heritage:website": "https://nmma.nic.in/nmma/exploreBuiltState.do?state=29",
        "name": "St. Francis Xavier's Cathedral",
        "name:fr": "Cathédrale Saint-François-Xavier",
        "name:kn": "ಸಂತ ಫ್ರಾನ್ಸಿಸ್ ಕ್ಸೇವಿಯರ್ ಕ್ಯಾಥೆಡ್ರಲ್",
        "ref:nmma": "KR20010299",
        "religion": "christian",
        "wikidata": "Q7588004",
        "wikimedia_commons": "Category:St. Francis Xavier's Cathedral, Bangalore",
        "wikipedia": "en:St. Francis Xavier's Cathedral, Bangalore"
      }
    },
    {
      "type": "way",
      "id": 173006692,
      "center": {
        "lat": 12.9869416,
        "lon": 77.6007518
      },
      "tags": {
        "amenity": "school",
        "name": "St. Xavier's Boys School"
      }
    },
    {
      "type": "way",
      "id": 191352335,
      "center": {
        "lat": 12.9776094,
        "lon": 77.6036679
      },
      "tags": {
        "access": "private",
        "barrier": "wall",
        "leisure": "park",
        "name": "Cariappa Memorial Park",
        "name:etymology:wikidata": "Q3630913",
        "name:kn": "ಕಾರಿಯಪ್ಪ ಉದ್ಯಾನ"
      }
    },
    {
      "type": "way",
      "id": 207134130,
      "center": {
        "lat": 12.9793478,
        "lon": 77.6096209
      },
      "tags": {
        "amenity": "parking",
        "fee": "yes",
        "parking": "surface"
      }
    },
    {
      "type": "way",
      "id": 207134173,
      "center": {
        "lat": 12.9791475,
        "lon": 77.6092879
      },
      "tags": {
        "amenity": "parking",
        "fee": "yes",
        "parking": "surface"
      }
    },
    {
      "type": "way",
      "id": 207134209,
      "center": {
        "lat": 12.9810212,
        "lon": 77.6097332
      },
      "tags": {
        "amenity": "parking",
        "fee": "yes",
        "note": "2-wheelers only",
        "parking": "street_side"
      }
    },
    {
      "type": "way",
      "id": 207134269,
      "center": {
        "lat": 12.9810761,
        "lon": 77.6095849
      },
      "tags": {
        "amenity": "parking",
        "fee": "yes",
        "note": "2-wheelers only",
        "parking": "street_side"
      }
    },
    {
      "type": "way",
      "id": 208748260,
      "center": {
        "lat": 12.9832489,
        "lon": 77.6030764
      },
      "tags": {
        "amenity": "bus_station",
        "bus": "yes",
        "name": "Shivajinagar Bus Station",
        "name:kn": "ಶಿವಾಜಿನಗರ ಬಸ್ ನಿಲ್ದಾನ",
        "network": "BMTC",
        "operator": "BMTC",
        "public_transport": "station"
      }
    },
    {
      "type": "way",
      "id": 224632087,
      "center": {
        "lat": 12.9909841,
        "lon": 77.6055011
      },
      "tags": {
        "amenity": "place_of_worship",
        "name": "Madina Masjid",
        "name:kn": "ಮದೀನ ಮಸೀದಿ",
        "religion": "muslim"
      }
    },
    {
      "type": "way",
      "id": 224632088,
      "center": {
        "lat": 12.9909528,
        "lon": 77.6054777
      },
      "tags": {
        "amenity": "place_of_worship",
        "building": "yes"
      }
    },
    {
      "type": "way",
      "id": 224632095,
      "center": {
        "lat": 12.9881938,
        "lon": 77.6044806
      },
      "tags": {
        "amenity": "school"
      }
    },
    {
      "type": "way",
      "id": 323636724,
      "center": {
        "lat": 12.9857828,
        "lon": 77.605547
      },
      "tags": {
        "amenity": "place_of_worship",
        "building": "yes",
        "religion": "muslim"
      }
    },
    {
      "type": "way",
      "id": 327539802,
      "center": {
        "lat": 12.9798123,
        "lon": 77.5985096
      },
      "tags": {
        "leisure": "sports_centre",
        "name": "Practice Nets",
        "sport": "cricket_nets"
      }
    },
    {
      "type": "way",
      "id": 332907584,
      "center": {
        "lat": 12.9788579,
        "lon": 77.5993638
      },
      "tags": {
        "leisure": "sports_centre"
      }
    },
    {
      "type": "way",
      "id": 332907587,
      "center": {
        "lat": 12.9779226,
        "lon": 77.6010276
      },
      "tags": {
        "amenity": "police",
        "landuse": "commercial",
        "name": "Additional Director General of Police"
      }
    },
    {
      "type": "way",
      "id": 345936007,
      "center": {
        "lat": 12.9834801,
        "lon": 77.5974083
      },
      "tags": {
        "amenity": "place_of_worship",
        "building": "temple",
        "building:levels": "1",
        "name": "Parsi Fire Temple",
        "official_name": "Bai Dhanmai and Cawasji Dadabhai Der-E-Meher",
        "religion": "zoroastrian",
        "start_date": "1926"
      }
    },
    {
      "type": "way",
      "id": 345936032,
      "center": {
        "lat": 12.9843377,
        "lon": 77.5976093
      },
      "tags": {
        "addr:city": "Bangalore",
        "addr:country": "IN",
        "addr:housenumber": "14",
        "addr:postcode": "560051",
        "addr:street": "Venkataswamy Naidu Road",
        "amenity": "theatre",
        "building": "yes",
        "building:levels": "1",
        "heritage": "2",
        "heritage:operator": "nmma",
        "heritage:website": "https://nmma.nic.in/nmma/exploreBuiltState.do?state=29",
        "name": "Lady Jehangir Kothari Memorial Hall",
        "ref:nmma": "KR20010681",
        "start_date": "1932",
        "website": "https://www.bpza.org/",
        "wikimedia_commons": "Category:Lady Jehangir Kothari Memorial Hall",
        "wikipedia": "en:Jehangir H. Kothari"
      }
    },
    {
      "type": "way",
      "id": 346150556,
      "center": {
        "lat": 12.9846303,
        "lon": 77.6128058
      },
      "tags": {
        "amenity": "kindergarten",
        "building": "yes",
        "name": "Prism Pre-school"
      }
    },
    {
      "type": "way",
      "id": 346427859,
      "center": {
        "lat": 12.9929344,
        "lon": 77.6091095
      },
      "tags": {
        "amenity": "fuel"
      }
    },
    {
      "type": "way",
      "id": 347476203,
      "center": {
        "lat": 12.9918853,
        "lon": 77.6038854
      },
      "tags": {
        "addr:street": "Netaji Road",
        "amenity": "fuel",
        "brand": "Bharat Petroleum",
        "brand:wikidata": "Q854826",
        "building": "yes",
        "name": "Bharat Petroleum",
        "name:kn": "ಭಾರತ್ ಪೆಟ್ರೋಲಿಯಂ"
      }
    },
    {
      "type": "way",
      "id": 349701678,
      "center": {
        "lat": 12.9845624,
        "lon": 77.6059082
      },
      "tags": {
        "building": "yes",
        "name": "Ocea Seafoods",
        "shop": "wholesale"
      }
    },
    {
      "type": "way",
      "id": 349774525,
      "center": {
        "lat": 12.993169,
        "lon": 77.6070167
      },
      "tags": {
        "amenity": "library",
        "building": "yes",
        "name": "City Center Library",
        "name:kn": "ನಗರ ಕೇಂದ್ರಿಯ ಗ್ರಂಥಾಲಯ"
      }
    },
    {
      "type": "way",
      "id": 362702160,
      "center": {
        "lat": 12.9874401,
        "lon": 77.5969626
      },
      "tags": {
        "amenity": "school",
        "heritage": "2",
        "heritage:operator": "nmma",
        "heritage:website": "https://nmma.nic.in/nmma/exploreBuiltState.do?state=29",
        "name": "Smt. Kamalabai Educational Institution",
        "name:kn": "ಕಮಲಾ ಭಾಯಿ ಪ್ರೌಢಶಾಲೆ",
        "ref:nmma": "KR20010763",
        "short_name": "SKEI"
      }
    },
    {
      "type": "way",
      "id": 370390346,
      "center": {
        "lat": 12.9795047,
        "lon": 77.6042904
      },
      "tags": {
        "addr:city": "Bangalore",
        "addr:country": "IN",
        "addr:housenumber": "27",
        "addr:postcode": "560001",
        "addr:street": "Cubbon Park",
        "amenity": "place_of_worship",
        "denomination": "anglican",
        "historic:alt_name": "Martyr's Church",
        "name": "St. Andrews Church",
        "name:kn": "ಸೆಂಟ್ ಆಂಡ್ರೂಸ್",
        "old_name": "St. Andrew's Kirk",
        "religion": "christian",
        "start_date": "1866-11-18",
        "website": "https://standrewschurch.org.in/",
        "wikidata": "Q19898472",
        "wikimedia_commons": "Category:St. Andrew's Church, Bangalore",
        "wikipedia": "en:St. Andrew's Church, Bangalore"
      }
    },
    {
      "type": "way",
      "id": 400478703,
      "center": {
        "lat": 12.9863377,
        "lon": 77.6057623
      },
      "tags": {
        "amenity": "place_of_worship",
        "religion": "muslim"
      }
    },
    {
      "type": "way",
      "id": 400480962,
      "center": {
        "lat": 12.991305,
        "lon": 77.6011314
      },
      "tags": {
        "addr:district": "Bengaluru Urban",
        "addr:full": "Post Bag No.4, No.2, Hazarat Kambal Posh Road",
        "addr:postcode": "560051",
        "addr:state": "Karnataka",
        "amenity": "hospital",
        "contact:email": "info@csihospitalblr.org",
        "contact:phone": "080 22861103",
        "healthcare": "hospital",
        "name": "CSI Hospital",
        "name:kn": "ಸಿ ಎಸ್ ಐ ಆಸ್ಪತ್ರೆ",
        "source": "OpenGovernmentData",
        "website": "http://csihospitalblr.org"
      }
    },
    {
      "type": "way",
      "id": 400483216,
      "center": {
        "lat": 12.9844117,
        "lon": 77.6042729
      },
      "tags": {
        "amenity": "place_of_worship",
        "basilica": "minor",
        "building": "church",
        "denomination": "catholic",
        "name": "St Mary's Basilica",
        "name:fr": "Basilique Sainte-Marie",
        "name:kn": "ಸೇಂಟ್ ಮೇರಿ ಬಸಿಲಿಕ",
        "religion": "christian",
        "start_date": "1882-09-08",
        "wikidata": "Q7590089",
        "wikimedia_commons": "Category:St. Mary's Basilica, Bangalore",
        "wikipedia": "en:St. Mary's Basilica, Bangalore"
      }
    },
    {
      "type": "way",
      "id": 400484610,
      "center": {
        "lat": 12.9884526,
        "lon": 77.5977755
      },
      "tags": {
        "leisure": "pitch"
      }
    },
    {
      "type": "way",
      "id": 438495208,
      "center": {
        "lat": 12.9935132,
        "lon": 77.6026201
      },
      "tags": {
        "leisure": "park"
      }
    },
    {
      "type": "way",
      "id": 438495777,
      "center": {
        "lat": 12.9947334,
        "lon": 77.6012563
      },
      "tags": {
        "addr:street": "Millers Road",
        "landuse": "religious",
        "leisure": "common",
        "name": "Quddus Sahib Eidgah",
        "religion": "muslim"
      }
    },
    {
      "type": "way",
      "id": 552518546,
      "center": {
        "lat": 12.9895669,
        "lon": 77.5966059
      },
      "tags": {
        "leisure": "sports_centre"
      }
    },
    {
      "type": "way",
      "id": 1039668732,
      "center": {
        "lat": 12.9900156,
        "lon": 77.5989689
      },
      "tags": {
        "addr:district": "Bengaluru Urban",
        "addr:full": "Queens Road",
        "addr:state": "Karnataka",
        "addr:street": "Queen's Road",
        "amenity": "hospital",
        "name": "Shifa Hospital, Bengaluru Urban",
        "name:kn": "ಶಿಫಾ ಆಸ್ಪತ್ರೆ",
        "operator:type": "private",
        "source": "OpenGovernmentData",
        "website": "http://dpal.kar.nic.in/Kanunu%20padakosha%20PDF%20Files/Recognised%20Hospitals.pdf"
      }
    },
    {
      "type": "way",
      "id": 1039668733,
      "center": {
        "lat": 12.9844265,
        "lon": 77.5988997
      },
      "tags": {
        "leisure": "park",
        "name": "Tasker Town Park"
      }
    },
    {
      "type": "way",
      "id": 1047676476,
      "center": {
        "lat": 12.983676,
        "lon": 77.6014367
      },
      "tags": {
        "amenity": "college",
        "name": "BBMP PU College",
        "operator": "BBMP"
      }
    },
    {
      "type": "way",
      "id": 1047676477,
      "center": {
        "lat": 12.9834044,
        "lon": 77.600947
      },
      "tags": {
        "amenity": "place_of_worship",
        "name": "Masjid-E-Ahle Hadees Choti Charminar",
        "note": "Original building of the Masjid from 19th Century. Re-built in early 2020s.",
        "religion": "muslim",
        "start_date": "2022"
      }
    },
    {
      "type": "way",
      "id": 1047676478,
      "center": {
        "lat": 12.9842417,
        "lon": 77.5977963
      },
      "tags": {
        "access": "customers",
        "amenity": "parking",
        "parking": "surface"
      }
    },
    {
      "type": "way",
      "id": 1047676491,
      "center": {
        "lat": 12.9875399,
        "lon": 77.5981592
      },
      "tags": {
        "amenity": "community_centre",
        "name": "Institution of Agricultural Technologists",
        "short_name": "IAT",
        "website": "http://www.iatbangalore.com/"
      }
    },
    {
      "type": "way",
      "id": 1047676492,
      "center": {
        "lat": 12.9872201,
        "lon": 77.598117
      },
      "tags": {
        "amenity": "place_of_worship",
        "religion": "hindu"
      }
    },
    {
      "type": "way",
      "id": 1050589708,
      "center": {
        "lat": 12.9782933,
        "lon": 77.6109283
      },
      "tags": {
        "amenity": "school",
        "name": "Army Public School"
      }
    },
    {
      "type": "way",
      "id": 1051886127,
      "center": {
        "lat": 12.9932494,
        "lon": 77.6074537
      },
      "tags": {
        "amenity": "events_venue",
        "name": "AKS Convention Centre"
      }
    },
    {
      "type": "way",
      "id": 1066854627,
      "center": {
        "lat": 12.9808072,
        "lon": 77.6124146
      },
      "tags": {
        "amenity": "school",
        "name": "RBANMS Middle School",
        "name:etymology:wikidata": "Q4787468"
      }
    },
    {
      "type": "way",
      "id": 1066854631,
      "center": {
        "lat": 12.9812941,
        "lon": 77.613018
      },
      "tags": {
        "amenity": "school",
        "name": "RBANMS High School",
        "name:etymology:wikidata": "Q4787468"
      }
    },
    {
      "type": "way",
      "id": 1066854635,
      "center": {
        "lat": 12.9818766,
        "lon": 77.6135517
      },
      "tags": {
        "leisure": "pitch",
        "sport": "cricket"
      }
    },
    {
      "type": "way",
      "id": 1066854636,
      "center": {
        "lat": 12.9821091,
        "lon": 77.6130276
      },
      "tags": {
        "leisure": "track",
        "sport": "athletics"
      }
    },
    {
      "type": "way",
      "id": 1066868600,
      "center": {
        "lat": 12.9819687,
        "lon": 77.612516
      },
      "tags": {
        "amenity": "post_office",
        "landuse": "commercial",
        "name": "Sivanchetti Garden Post Office"
      }
    },
    {
      "type": "way",
      "id": 1066902650,
      "center": {
        "lat": 12.9789135,
        "lon": 77.6066679
      },
      "tags": {
        "amenity": "school",
        "email": "tunbridgehs@gmail.com",
        "name": "Tunbridge High School",
        "phone": "+91 80 2950 1011",
        "school:gender": "mixed",
        "website": "https://www.tunbridgehs.com/"
      }
    },
    {
      "type": "way",
      "id": 1067945112,
      "center": {
        "lat": 12.9815129,
        "lon": 77.6122852
      },
      "tags": {
        "amenity": "place_of_worship",
        "name": "Brahmo Samaj",
        "name:kn": "ಬ್ರಹ್ಮ ಸಮಾಜ",
        "religion": "hindu"
      }
    },
    {
      "type": "way",
      "id": 1083566589,
      "center": {
        "lat": 12.9910455,
        "lon": 77.6034915
      },
      "tags": {
        "amenity": "place_of_worship",
        "denomination": "lutheran",
        "name": "Tamil Evangelical Lutheran Church",
        "religion": "christian"
      }
    },
    {
      "type": "way",
      "id": 1083566590,
      "center": {
        "lat": 12.9907106,
        "lon": 77.603524
      },
      "tags": {
        "amenity": "community_centre",
        "name": "Khan's Convention Hall"
      }
    },
    {
      "type": "way",
      "id": 1083566591,
      "center": {
        "lat": 12.9902574,
        "lon": 77.6033006
      },
      "tags": {
        "amenity": "community_centre",
        "name": "Milan Hall"
      }
    },
    {
      "type": "way",
      "id": 1083566592,
      "center": {
        "lat": 12.9909262,
        "lon": 77.6024803
      },
      "tags": {
        "amenity": "community_centre",
        "community_centre:for": "senior",
        "name": "The Bangalore Friend-In Need Society",
        "start_date": "1830"
      }
    },
    {
      "type": "way",
      "id": 1083566593,
      "center": {
        "lat": 12.9909278,
        "lon": 77.6023316
      },
      "tags": {
        "amenity": "school",
        "name": "The Colonel Hill High School"
      }
    },
    {
      "type": "way",
      "id": 1083566594,
      "center": {
        "lat": 12.9904302,
        "lon": 77.6015787
      },
      "tags": {
        "amenity": "school",
        "name": "Al-Ameen Kambal Posh"
      }
    },
    {
      "type": "way",
      "id": 1083566599,
      "center": {
        "lat": 12.9917072,
        "lon": 77.5997655
      },
      "tags": {
        "amenity": "place_of_worship",
        "religion": "hindu"
      }
    },
    {
      "type": "way",
      "id": 1083566603,
      "center": {
        "lat": 12.9915638,
        "lon": 77.5992593
      },
      "tags": {
        "amenity": "veterinary",
        "name": "Veterinary Superspeciality Hospital",
        "name:kn": "ಪಶುವೈದ್ಯ ಆಸ್ಪತ್ರೆ"
      }
    },
    {
      "type": "way",
      "id": 1083566604,
      "center": {
        "lat": 12.9904958,
        "lon": 77.6003388
      },
      "tags": {
        "amenity": "school",
        "full_name": "Church of England Zeenan Mission",
        "name": "CEZM High School",
        "start_date": "1900"
      }
    },
    {
      "type": "way",
      "id": 1083566607,
      "center": {
        "lat": 12.9896386,
        "lon": 77.60226
      },
      "tags": {
        "amenity": "hospital",
        "healthcare": "hospital",
        "name": "Charaka Super Speciality Hospital",
        "official_name": "Sri Atal Bihari Vajpayee Medical College and Research Institute",
        "official_name:etymology:wikidata": "Q233289"
      }
    },
    {
      "type": "way",
      "id": 1101219244,
      "center": {
        "lat": 12.9892093,
        "lon": 77.5986659
      },
      "tags": {
        "amenity": "school",
        "name": "St. Mary's Public School"
      }
    },
    {
      "type": "way",
      "id": 1113076999,
      "center": {
        "lat": 12.980758,
        "lon": 77.6031699
      },
      "tags": {
        "access": "yes",
        "amenity": "parking",
        "fee": "yes",
        "name": "BBMP Parking",
        "operator": "BBMP",
        "operator:type": "government",
        "parking": "street_side"
      }
    },
    {
      "type": "way",
      "id": 1137305674,
      "center": {
        "lat": 12.9814155,
        "lon": 77.5991837
      },
      "tags": {
        "amenity": "community_centre",
        "community_centre:for": "woman",
        "denomination": "anglican",
        "landuse": "religious",
        "name": "Vishranthi Nilayam",
        "name:kn": "ವಿಶ್ರಾಂತಿ ನಿಲಯ",
        "religion": "christian"
      }
    },
    {
      "type": "way",
      "id": 1143988912,
      "center": {
        "lat": 12.9782082,
        "lon": 77.610731
      },
      "tags": {
        "amenity": "library",
        "building": "school",
        "name": "Secondary Section Library",
        "operator": "APS K Kamraj Bangalore",
        "operator:type": "school"
      }
    },
    {
      "type": "way",
      "id": 1152469183,
      "center": {
        "lat": 12.9843835,
        "lon": 77.5993816
      },
      "tags": {
        "leisure": "park"
      }
    },
    {
      "type": "way",
      "id": 1156198072,
      "center": {
        "lat": 12.9843308,
        "lon": 77.5978947
      },
      "tags": {
        "amenity": "community_centre",
        "name": "The Bangalore Parsee Zoroastrian Anjuman",
        "website": "https://www.bpza.org/"
      }
    },
    {
      "type": "way",
      "id": 1157218000,
      "center": {
        "lat": 12.991951,
        "lon": 77.6074842
      },
      "tags": {
        "amenity": "community_centre",
        "name": "Shams Convention Centre"
      }
    },
    {
      "type": "way",
      "id": 1157218001,
      "center": {
        "lat": 12.9883746,
        "lon": 77.6043739
      },
      "tags": {
        "amenity": "fast_food",
        "brand": "Indira Canteen",
        "brand:wikidata": "Q36164828",
        "cuisine": "south_indian",
        "name": "Indira Canteen",
        "operator": "BBMP",
        "takeaway": "yes"
      }
    },
    {
      "type": "way",
      "id": 1157218002,
      "center": {
        "lat": 12.9883828,
        "lon": 77.6041336
      },
      "tags": {
        "amenity": "clinic",
        "name": "UPHC",
        "name:kn": "ಗ್ರಾಮಾಂತರ ಪ್ರಾಥಮಿಕ ಆರೋಗ್ಯ ಕೇಂದ್ರ",
        "operator": "BBMP"
      }
    },
    {
      "type": "way",
      "id": 1157218003,
      "center": {
        "lat": 12.988831,
        "lon": 77.6036192
      },
      "tags": {
        "amenity": "place_of_worship",
        "religion": "muslim"
      }
    },
    {
      "type": "way",
      "id": 1157218004,
      "center": {
        "lat": 12.9879685,
        "lon": 77.6035505
      },
      "tags": {
        "amenity": "police",
        "name": "Shivajinagar Traffic Police Station"
      }
    },
    {
      "type": "way",
      "id": 1157218005,
      "center": {
        "lat": 12.9872766,
        "lon": 77.6018227
      },
      "tags": {
        "amenity": "place_of_worship",
        "religion": "muslim"
      }
    },
    {
      "type": "way",
      "id": 1157218009,
      "center": {
        "lat": 12.9855612,
        "lon": 77.5985763
      },
      "tags": {
        "amenity": "place_of_worship",
        "name": "Abdul Gafoor Masjid",
        "name:kn": "ಅಬ್ದುಲ್ ಗಫೂರ್ ಮಸ್ಜಿದ್",
        "religion": "muslim"
      }
    },
    {
      "type": "way",
      "id": 1157218013,
      "center": {
        "lat": 12.9844083,
        "lon": 77.5990471
      },
      "tags": {
        "leisure": "playground"
      }
    },
    {
      "type": "way",
      "id": 1157218015,
      "center": {
        "lat": 12.9838498,
        "lon": 77.5988818
      },
      "tags": {
        "amenity": "college",
        "name": "Bowring and Lady Curzon Medical College",
        "name:kn": "ಬೌರಿಂಗ್ ಆಸ್ಪತ್ರೆ",
        "official_name": "Shri Atal Bihari Vajpayee Medical College"
      }
    },
    {
      "type": "way",
      "id": 1160807138,
      "center": {
        "lat": 12.9900486,
        "lon": 77.6006647
      },
      "tags": {
        "amenity": "parking",
        "parking": "surface"
      }
    },
    {
      "type": "way",
      "id": 1160807139,
      "center": {
        "lat": 12.9898484,
        "lon": 77.6011146
      },
      "tags": {
        "amenity": "place_of_worship",
        "name": "Dargah Hazrath Kampalposh",
        "religion": "muslim"
      }
    },
    {
      "type": "way",
      "id": 1160807140,
      "center": {
        "lat": 12.9909202,
        "lon": 77.6067328
      },
      "tags": {
        "amenity": "place_of_worship",
        "denomination": "anglican",
        "name": "CSI Wesley Tamil Church",
        "religion": "christian"
      }
    },
    {
      "type": "way",
      "id": 1160807141,
      "center": {
        "lat": 12.9896172,
        "lon": 77.6101403
      },
      "tags": {
        "amenity": "school"
      }
    },
    {
      "type": "way",
      "id": 1160807142,
      "center": {
        "lat": 12.9900027,
        "lon": 77.6103196
      },
      "tags": {
        "amenity": "school",
        "name": "BBMP Girls School",
        "operator": "BBMP"
      }
    },
    {
      "type": "way",
      "id": 1160807143,
      "center": {
        "lat": 12.9901591,
        "lon": 77.6097106
      },
      "tags": {
        "amenity": "clinic",
        "building": "yes",
        "name": "BBMP Maternity Home",
        "official_name": "Seth Kishanlal Phoolchand Maternity Home",
        "operator": "BBMP",
        "start_date": "1957"
      }
    },
    {
      "type": "way",
      "id": 1160844637,
      "center": {
        "lat": 12.9948922,
        "lon": 77.6054903
      },
      "tags": {
        "amenity": "community_centre",
        "name": "Family YMCA"
      }
    },
    {
      "type": "way",
      "id": 1235836662,
      "center": {
        "lat": 12.9819239,
        "lon": 77.6139481
      },
      "tags": {
        "leisure": "bleachers"
      }
    },
    {
      "type": "way",
      "id": 1254279082,
      "center": {
        "lat": 12.9785951,
        "lon": 77.6114956
      },
      "tags": {
        "access": "permissive",
        "hoops": "2",
        "leisure": "pitch",
        "name": "Basketball Court",
        "name:kn": "ಬಾಸ್ಕೆಟ್ ಬಾಲ್ ಅಂಕಣ",
        "sport": "basketball"
      }
    },
    {
      "type": "way",
      "id": 1254768891,
      "center": {
        "lat": 12.9899304,
        "lon": 77.5992924
      },
      "tags": {
        "access": "yes",
        "amenity": "parking",
        "fee": "no",
        "orientation": "perpendicular",
        "parking": "street_side"
      }
    },
    {
      "type": "way",
      "id": 1255263619,
      "center": {
        "lat": 12.988077,
        "lon": 77.597139
      },
      "tags": {
        "leisure": "pitch",
        "sport": "basketball"
      }
    },
    {
      "type": "way",
      "id": 1255263620,
      "center": {
        "lat": 12.9877277,
        "lon": 77.5969717
      },
      "tags": {
        "leisure": "park"
      }
    },
    {
      "type": "way",
      "id": 1280918908,
      "center": {
        "lat": 12.9794614,
        "lon": 77.6007699
      },
      "tags": {
        "leisure": "pitch",
        "sport": "tennis"
      }
    },
    {
      "type": "way",
      "id": 1280918909,
      "center": {
        "lat": 12.9795058,
        "lon": 77.6006308
      },
      "tags": {
        "leisure": "pitch",
        "sport": "tennis"
      }
    },
    {
      "type": "way",
      "id": 1293926345,
      "center": {
        "lat": 12.9796518,
        "lon": 77.6108798
      },
      "tags": {
        "access": "permissive",
        "leisure": "pitch",
        "lit": "no",
        "name": "Army Public School Playground",
        "sport": "soccer",
        "surface": "artificial_turf"
      }
    },
    {
      "type": "way",
      "id": 1302996843,
      "center": {
        "lat": 12.9814208,
        "lon": 77.6130582
      },
      "tags": {
        "access": "private",
        "amenity": "parking",
        "parking": "surface"
      }
    },
    {
      "type": "way",
      "id": 1302996851,
      "center": {
        "lat": 12.9812853,
        "lon": 77.6110683
      },
      "tags": {
        "amenity": "school",
        "landuse": "education",
        "name": "RBANMS Primary School"
      }
    },
    {
      "type": "way",
      "id": 1303003799,
      "center": {
        "lat": 12.9818739,
        "lon": 77.6051116
      },
      "tags": {
        "amenity": "place_of_worship",
        "name": "St. Paul's Church",
        "name:kn": "ಸೈಂಟ್ ಪಾಲ್ಸ್ ಚರ್ಚ್",
        "religion": "christian",
        "wikidata": "Q19898480",
        "wikipedia": "en:St. Paul's Church, Bangalore"
      }
    },
    {
      "type": "way",
      "id": 1303003801,
      "center": {
        "lat": 12.982399,
        "lon": 77.605817
      },
      "tags": {
        "amenity": "place_of_worship",
        "check_date": "2023-04-07",
        "landuse": "religious",
        "religion": "hindu"
      }
    },
    {
      "type": "way",
      "id": 1303005409,
      "center": {
        "lat": 12.9804102,
        "lon": 77.6036233
      },
      "tags": {
        "amenity": "parking",
        "parking": "street_side"
      }
    },
    {
      "type": "way",
      "id": 1303005410,
      "center": {
        "lat": 12.9802632,
        "lon": 77.6046069
      },
      "tags": {
        "access": "permissive",
        "amenity": "parking",
        "parking": "street_side"
      }
    },
    {
      "type": "way",
      "id": 1311425976,
      "center": {
        "lat": 12.9933819,
        "lon": 77.6091028
      },
      "tags": {
        "amenity": "parking",
        "parking": "surface"
      }
    },
    {
      "type": "way",
      "id": 1311425977,
      "center": {
        "lat": 12.9929322,
        "lon": 77.6108023
      },
      "tags": {
        "leisure": "pitch",
        "sport": "basketball"
      }
    },
    {
      "type": "way",
      "id": 1311437518,
      "center": {
        "lat": 12.9810068,
        "lon": 77.5977153
      },
      "tags": {
        "garden:type": "landscaping",
        "leisure": "garden"
      }
    },
    {
      "type": "way",
      "id": 1312459653,
      "center": {
        "lat": 12.9835073,
        "lon": 77.5964887
      },
      "tags": {
        "access": "private",
        "amenity": "parking",
        "parking": "surface",
        "surface": "asphalt"
      }
    },
    {
      "type": "way",
      "id": 1350961413,
      "center": {
        "lat": 12.9819301,
        "lon": 77.6067654
      },
      "tags": {
        "amenity": "school",
        "name": "BBMP Girls' School"
      }
    },
    {
      "type": "way",
      "id": 1350961416,
      "center": {
        "lat": 12.9826673,
        "lon": 77.6058805
      },
      "tags": {
        "amenity": "place_of_worship",
        "check_date": "2023-04-07",
        "denomination": "sunni",
        "heritage": "2",
        "heritage:operator": "nmma",
        "heritage:website": "https://nmma.nic.in/nmma/exploreBuiltState.do?state=29",
        "name": "Jumma Masjid",
        "name:kn": "ಜಾಮ ಮಸೀದಿ",
        "ref:nmma": "KR03010435",
        "religion": "muslim",
        "source": "survey",
        "start_date": "1835",
        "wheelchair": "no"
      }
    },
    {
      "type": "way",
      "id": 1350961418,
      "center": {
        "lat": 12.9838682,
        "lon": 77.6040136
      },
      "tags": {
        "access": "customers",
        "amenity": "parking",
        "parking": "street_side"
      }
    },
    {
      "type": "way",
      "id": 1350961419,
      "center": {
        "lat": 12.9831503,
        "lon": 77.6036936
      },
      "tags": {
        "leisure": "garden"
      }
    },
    {
      "type": "way",
      "id": 1350961420,
      "center": {
        "lat": 12.982923,
        "lon": 77.6035253
      },
      "tags": {
        "access": "customers",
        "amenity": "parking",
        "parking": "street_side"
      }
    },
    {
      "type": "way",
      "id": 1350961421,
      "center": {
        "lat": 12.9831827,
        "lon": 77.6036151
      },
      "tags": {
        "access": "customers",
        "amenity": "parking",
        "parking": "street_side"
      }
    },
    {
      "type": "way",
      "id": 1350961422,
      "center": {
        "lat": 12.9834702,
        "lon": 77.6037077
      },
      "tags": {
        "access": "customers",
        "amenity": "parking",
        "parking": "street_side"
      }
    },
    {
      "type": "way",
      "id": 1350961425,
      "center": {
        "lat": 12.9832758,
        "lon": 77.6035371
      },
      "tags": {
        "access": "customers",
        "amenity": "parking",
        "parking": "street_side"
      }
    },
    {
      "type": "way",
      "id": 1354136001,
      "center": {
        "lat": 12.9940378,
        "lon": 77.6088079
      },
      "tags": {
        "leisure": "garden",
        "name": "Ladies Exercise Area And Garden"
      }
    },
    {
      "type": "way",
      "id": 1354138781,
      "center": {
        "lat": 12.9938224,
        "lon": 77.609674
      },
      "tags": {
        "leisure": "pitch"
      }
    },
    {
      "type": "way",
      "id": 1354138794,
      "center": {
        "lat": 12.9934915,
        "lon": 77.6092589
      },
      "tags": {
        "leisure": "pitch"
      }
    },
    {
      "type": "way",
      "id": 1354158748,
      "center": {
        "lat": 12.9905501,
        "lon": 77.612502
      },
      "tags": {
        "amenity": "place_of_worship",
        "denomination": "anglican",
        "name": "CSI Memorial Church",
        "religion": "christian"
      }
    },
    {
      "type": "way",
      "id": 1354165113,
      "center": {
        "lat": 12.9904988,
        "lon": 77.6045526
      },
      "tags": {
        "amenity": "marketplace",
        "name": "Shivajinagar Shopping Complex"
      }
    },
    {
      "type": "way",
      "id": 1354165119,
      "center": {
        "lat": 12.9908984,
        "lon": 77.6128963
      },
      "tags": {
        "amenity": "events_venue",
        "name": "CSI Memorial Hall"
      }
    },
    {
      "type": "way",
      "id": 1363963979,
      "center": {
        "lat": 12.9829881,
        "lon": 77.6012657
      },
      "tags": {
        "amenity": "school",
        "name": "Maulana Azad Model School"
      }
    },
    {
      "type": "way",
      "id": 1376987303,
      "center": {
        "lat": 12.9834167,
        "lon": 77.6111465
      },
      "tags": {
        "addr:city": "Bengaluru",
        "addr:housenumber": "44/A",
        "addr:postcode": "560042",
        "addr:street": "Kamaraj Road",
        "addr:suburb": "Shivajinagar",
        "alt_name": "RBANMS Institute of Studies",
        "amenity": "arts_centre",
        "contact:instagram": "sabhablr",
        "landuse": "commercial",
        "name": "Sabha",
        "note": "Formerly the RBANMS Institute of Studies which closed down in 2015",
        "old_name": "Chaturveda Siddantha Sabha School"
      }
    },
    {
      "type": "way",
      "id": 1377007429,
      "center": {
        "lat": 12.9900894,
        "lon": 77.6120014
      },
      "tags": {
        "leisure": "park"
      }
    },
    {
      "type": "way",
      "id": 1377007431,
      "center": {
        "lat": 12.9911983,
        "lon": 77.6120845
      },
      "tags": {
        "addr:city": "bangalore",
        "addr:postcode": "560005",
        "addr:street": "Frazer Town Police Station, Near-Mark Circle, Frazer Town",
        "amenity": "police",
        "name": "Bharthinagar Police Station",
        "name:kn": "ಭಾರತಿನಗರ ಆರಕ್ಷಕ ಠಾಣೆ",
        "phone": "080 2294 2548",
        "website": "NA"
      }
    },
    {
      "type": "way",
      "id": 1414123242,
      "center": {
        "lat": 12.9911139,
        "lon": 77.6040751
      },
      "tags": {
        "alt_name": "Pavamsar Lutheran Church",
        "amenity": "place_of_worship",
        "name": "Tamil Evangelical Lutheran Church",
        "religion": "christian"
      }
    }
  ]
}