{
  "area_name": "Shree Vinayaka Layout",
  "osm_id": 567773467,
  "osm_type": "node",
  "place_type": "neighbourhood",
  "amenity_count": 87,
  "amenities": [
    {
      "type": "node",
      "id": 2041904659,
      "lat": 13.0082799,
      "lon": 77.6947345,
      "tags": {
        "addr:city": "K.R Puram",
        "amenity": "place_of_worship",
        "name": "Ganesha Temple",
        "name:kn": "ಗಣೇಶ ದೇವಸ್ಥಾನ",
        "religion": "hindu"
      }
    },
    {
      "type": "node",
      "id": 2466603915,
      "lat": 13.0045053,
      "lon": 77.6960311,
      "tags": {
        "amenity": "fuel",
        "brand": "Indian Oil",
        "brand:wikidata": "Q1289348",
        "brand:wikipedia": "en:Indian Oil Corporation",
        "name": "B R Muniyappa Petrol / Gas Station",
        "operator": "Indian Oil"
      }
    },
    {
      "type": "node",
      "id": 2473280954,
      "lat": 13.0053836,
      "lon": 77.7019239,
      "tags": {
        "amenity": "place_of_worship",
        "name": "Sri Krishna Rukmini Temple K.R Puram",
        "religion": "hindu"
      }
    },
    {
      "type": "node",
      "id": 2475284844,
      "lat": 13.0077936,
      "lon": 77.6923101,
      "tags": {
        "addr:city": "K.R Puram",
        "addr:street": "Old Madras Road",
        "amenity": "hospital",
        "healthcare": "hospital",
        "name": "ESi Hospital",
        "operator": "Employees' State Insurance",
        "operator:short": "ESI",
        "operator:type": "private",
        "operator:wikidata": "Q3595726"
      }
    },
    {
      "type": "node",
      "id": 4422461693,
      "lat": 13.0176379,
      "lon": 77.7059323,
      "tags": {
        "addr:street": "Old Madras Road",
        "amenity": "fast_food",
        "brand": "Domino's",
        "brand:ks": "ڈومینوز",
        "brand:pa": "ਡੋਮੀਨੋਜ਼",
        "brand:ur": "ڈومینوز",
        "brand:wikidata": "Q839466",
        "brand:wikipedia": "en:Domino's Pizza",
        "cuisine": "pizza",
        "name": "Domino's",
        "name:ks": "ڈومینوز",
        "name:pa": "ਡੋਮੀਨੋਜ਼",
        "name:ur": "ڈومینوز",
        "takeaway": "yes"
      }
    },
    {
      "type": "node",
      "id": 4441953724,
      "lat": 13.0083873,
      "lon": 77.6961576,
      "tags": {
        "addr:city": "Bangaluru",
        "addr:housenumber": "528, Bvr Complex",
        "addr:postcode": "560037",
        "addr:street": "Sarjapur Road Bellandur Gate, Bellandur",
        "amenity": "pharmacy",
        "name": "Life Line Medicals & General Stores",
        "phone": "+91-080 4116 9446"
      }
    },
    {
      "type": "node",
      "id": 4445183934,
      "lat": 13.0158543,
      "lon": 77.7033173,
      "tags": {
        "addr:city": "Bengaluru",
        "addr:housenumber": "53",
        "addr:postcode": "560049",
        "addr:street": "Near Sathya Sai Lake Side Hospital, 3rd Main, Vinayaka Layout, Old Madras Road, Battarahalli, K.R. Puram, Vidya Nagar, Krishnarajapuram",
        "amenity": "hospital",
        "name": "Thyrocare",
        "phone": "080 6568 0365"
      }
    },
    {
      "type": "node",
      "id": 4445986377,
      "lat": 13.0087504,
      "lon": 77.6939806,
      "tags": {
        "addr:city": "K.R Puram, Bangalore",
        "addr:district": "Bengaluru Urban",
        "addr:full": "No. 107 / 2, Nishvasahaa Centre, Opposite Traffic Police Station Road, Old Madras Road, Krishnaparajapuram",
        "addr:housenumber": "107/2,",
        "addr:postcode": "560036",
        "addr:state": "Karnataka",
        "addr:street": "Old Madras Road",
        "amenity": "hospital",
        "emergency": "yes",
        "name": "Sriram Hospital, Bangalore",
        "phone": "080 2561 0988",
        "source": "OpenGovernmentData"
      }
    },
    {
      "type": "node",
      "id": 4445998037,
      "lat": 13.0110115,
      "lon": 77.6935975,
      "tags": {
        "addr:city": "Bangalore",
        "addr:housenumber": "#301",
        "addr:postcode": "560036",
        "addr:street": "3rd Main Road, Old Extension, Krishnarajapuram, Near Indane Gas",
        "amenity": "hospital",
        "emergency": "yes",
        "name": "K R Puram Super Speciality Hospital",
        "phone": "080 2561 7799",
        "source": "http://www.bangalorean.co.in/",
        "website": "aaxishospitals.com"
      }
    },
    {
      "type": "node",
      "id": 4446018021,
      "lat": 13.0048396,
      "lon": 77.7036425,
      "tags": {
        "addr:city": "Bangalore",
        "addr:district": "Bengaluru Urban",
        "addr:full": "Devasandram Main Road Enterance, Krishnarajapuram",
        "addr:postcode": "560036",
        "addr:state": "Karnataka",
        "addr:street": "Devasandra Main Road, Krishnarajapuram",
        "amenity": "hospital",
        "name": "Maithri Nursing Home",
        "phone": "+918025611928",
        "source": "http://www.bangalorean.co.in/"
      }
    },
    {
      "type": "node",
      "id": 4446927760,
      "lat": 13.0090882,
      "lon": 77.6918556,
      "tags": {
        "addr:city": "Bangalore",
        "addr:housenumber": "107/2",
        "addr:postcode": "560036",
        "addr:street": "3rd Floor, Nishvasaha Centre, Opp. Traffic Police, Old Madras Road, K.R.Puram",
        "amenity": "hospital",
        "emergency": "yes",
        "name": "Nimi dental bangalore",
        "phone": "080 2561 9979",
        "source": "http://yellowpages.sulekha.com/",
        "website": "https://practo.com/"
      }
    },
    {
      "type": "node",
      "id": 4448000087,
      "lat": 13.0096231,
      "lon": 77.6924713,
      "tags": {
        "addr:city": "Bangalore",
        "addr:housenumber": "107/2",
        "addr:postcode": "560036",
        "addr:street": "Nishvasaha Centre, Old Madras Main Road, Opposite-Traffic Police, Station, K R Puram",
        "amenity": "hospital",
        "emergency": "yes",
        "name": "Sri Ram Hospital",
        "phone": "080 2561 0988",
        "source": "http://bestofhealthindia.com/"
      }
    },
    {
      "type": "node",
      "id": 4488064311,
      "lat": 13.0096783,
      "lon": 77.6968069,
      "tags": {
        "addr:city": "Bangaluru",
        "addr:postcode": "500036",
        "addr:street": "No. 1218, Pooja Complex, Old Madras Road, K.R Puram",
        "leisure": "sports_centre",
        "name": "Khadim's",
        "phone": "080 2561 5324"
      }
    },
    {
      "type": "node",
      "id": 4488600552,
      "lat": 13.0118942,
      "lon": 77.6985133,
      "tags": {
        "addr:city": "Bangalore",
        "addr:housenumber": "No 30",
        "addr:postcode": "560036",
        "addr:street": "Old Madras Road",
        "name": "Buy Right Super Store",
        "phone": "(91)-80-33059773",
        "shop": "supermarket"
      }
    },
    {
      "type": "node",
      "id": 4528688848,
      "lat": 13.0144549,
      "lon": 77.7010779,
      "tags": {
        "addr:city": "Bangalore",
        "addr:postcode": "560036",
        "amenity": "restaurant",
        "name": "K.R Hotel"
      }
    },
    {
      "type": "node",
      "id": 4528847591,
      "lat": 13.0120509,
      "lon": 77.6998816,
      "tags": {
        "addr:city": "Bangalore",
        "addr:district": "Bengaluru Urban",
        "addr:full": "#27, Old Madras Road",
        "addr:postcode": "560036",
        "addr:state": "Karnataka",
        "amenity": "hospital",
        "healthcare:speciality": "Gyanecology; Medicine; Maternity; Surgery; Immunisation Facility; Laprascopic Surgery; Endoscopy; Dermatology; Child Health Care; Eye; ENT; OPTHALMOLOGY; Urology; Ultrasound Scan; X- Ray; ECG; Health Check up",
        "name": "Deepa Hospital",
        "operator:type": "private",
        "source": "OpenGovernmentData",
        "website": "http://www.deepahospital.creativotech.com/",
        "wheelchair": "yes"
      }
    },
    {
      "type": "node",
      "id": 4689909389,
      "lat": 13.0085108,
      "lon": 77.6944731,
      "tags": {
        "name": "Yatra Genie",
        "name:en": "Yatra Genie",
        "shop": "travel_agency"
      }
    },
    {
      "type": "node",
      "id": 6464656077,
      "lat": 13.011214,
      "lon": 77.6979598,
      "tags": {
        "addr:city": "Bangalore",
        "addr:postcode": "560036",
        "addr:street": "Sri Thimappa Complex, Old Madras Road, KR Puram, Below Syndicate Bank",
        "amenity": "hospital",
        "emergency": "yes",
        "name": "Patil Hospital",
        "note": "exact location not correct",
        "phone": "080 2561 3891",
        "source": "http://www.bangalorean.co.in/"
      }
    },
    {
      "type": "node",
      "id": 6503617087,
      "lat": 13.0178258,
      "lon": 77.7044122,
      "tags": {
        "name": "LJ Iyengars Cake Houss",
        "shop": "bakery"
      }
    },
    {
      "type": "node",
      "id": 6503617088,
      "lat": 13.0174363,
      "lon": 77.7041678,
      "tags": {
        "name": "Royal Mart",
        "shop": "supermarket"
      }
    },
    {
      "type": "node",
      "id": 6504220490,
      "lat": 13.017914,
      "lon": 77.704419,
      "tags": {
        "name": "Dharani",
        "shop": "jewelry"
      }
    },
    {
      "type": "node",
      "id": 6504220491,
      "lat": 13.0182895,
      "lon": 77.7043733,
      "tags": {
        "name": "Choice Travel Centre",
        "shop": "travel_agency"
      }
    },
    {
      "type": "node",
      "id": 6504220492,
      "lat": 13.0188757,
      "lon": 77.7043818,
      "tags": {
        "amenity": "pharmacy",
        "name": "Aditya Pharma"
      }
    },
    {
      "type": "node",
      "id": 6504220586,
      "lat": 13.0182543,
      "lon": 77.7043821,
      "tags": {
        "name": "Sri Balaji New Fashion",
        "shop": "clothes"
      }
    },
    {
      "type": "node",
      "id": 6504220587,
      "lat": 13.0184585,
      "lon": 77.7043667,
      "tags": {
        "amenity": "pharmacy",
        "name": "SLV medicals"
      }
    },
    {
      "type": "node",
      "id": 6504236686,
      "lat": 13.0188169,
      "lon": 77.7043872,
      "tags": {
        "name": "Brand Store",
        "shop": "clothes"
      }
    },
    {
      "type": "node",
      "id": 6509057792,
      "lat": 13.0187503,
      "lon": 77.7043598,
      "tags": {
        "shop": "hairdresser"
      }
    },
    {
      "type": "node",
      "id": 6938868536,
      "lat": 13.0103817,
      "lon": 77.7064115,
      "tags": {
        "addr:district": "Bengaluru Urban",
        "addr:full": "01,17Th Cross, 2nd Stage, Near Gayathri Temple, Gayathri Layout, Basavanapura Main Pura Road, K.R. Pura",
        "addr:postcode": "560034",
        "addr:state": "Karnataka",
        "amenity": "clinic",
        "name": "Shankar Nursing Home and Diagnostic Labratory",
        "opening_hours": "PH,Mo-Su 07:00-22:00",
        "source": "OpenGovernmentData"
      }
    },
    {
      "type": "node",
      "id": 6945033191,
      "lat": 13.0121705,
      "lon": 77.6961802,
      "tags": {
        "addr:district": "Bengaluru Urban",
        "addr:full": "Opposite Syndicate Bank, Old Madras Road, Krihnarjapuram",
        "addr:postcode": "560001",
        "addr:state": "Karnataka",
        "amenity": "hospital",
        "name": "Sri Ramakrishna Hospital, Bengaluru Urban",
        "source": "OpenGovernmentData"
      }
    },
    {
      "type": "node",
      "id": 6947662464,
      "lat": 13.0080397,
      "lon": 77.6971089,
      "tags": {
        "addr:district": "Bengaluru Urban",
        "addr:full": "37/, 1st Cross, Devasandra Main Road, K.R.Puram",
        "addr:postcode": "560035",
        "addr:state": "Karnataka",
        "amenity": "hospital",
        "name": "Suresh Hospital, Bengaluru Urban",
        "source": "OpenGovernmentData"
      }
    },
    {
      "type": "node",
      "id": 6947662469,
      "lat": 13.0088071,
      "lon": 77.6948659,
      "tags": {
        "addr:district": "Bengaluru Urban",
        "addr:full": "2 1st Floor, Kr Purav",
        "addr:postcode": "560003",
        "addr:state": "Karnataka",
        "amenity": "hospital",
        "name": "Sri Ram Netralaya and Surgical Centre",
        "source": "OpenGovernmentData"
      }
    },
    {
      "type": "node",
      "id": 6947662474,
      "lat": 13.0090854,
      "lon": 77.6969567,
      "tags": {
        "addr:district": "Bengaluru Urban",
        "addr:full": "No. 42-B1, Below Synicate Bank, Sri Thimmappa Complex, Old Madras Road, Krishnarajapuram",
        "addr:postcode": "560036",
        "addr:state": "Karnataka",
        "amenity": "hospital",
        "name": "Patil Hospital, Bengaluru Urban",
        "source": "OpenGovernmentData"
      }
    },
    {
      "type": "node",
      "id": 7213514092,
      "lat": 13.004942,
      "lon": 77.7035721,
      "tags": {
        "addr:district": "Bengaluru Urban",
        "addr:full": "Devasandram Main Road Enterance, Krishnarajapuram",
        "addr:postcode": "560036",
        "addr:state": "Karnataka",
        "amenity": "clinic",
        "name": "Maithri Nursing Home and Diagnostic centre",
        "source": "OpenGovernmentData"
      }
    },
    {
      "type": "node",
      "id": 7572131815,
      "lat": 13.010692,
      "lon": 77.6969366,
      "tags": {
        "addr:district": "Bengaluru Urban",
        "addr:full": "Ayyappa Nagar, Krishnarajapura, Bengaluru",
        "addr:postcode": "560036",
        "addr:state": "Karnataka",
        "amenity": "clinic",
        "name": "Sri Ragavendra Homeo Clinic",
        "source": "Local Knowledge"
      }
    },
    {
      "type": "node",
      "id": 7572131816,
      "lat": 13.006205,
      "lon": 77.7004289,
      "tags": {
        "addr:district": "Bengaluru Urban",
        "addr:full": "Ayyappa Nagar, Krishnarajapura, Bengaluru",
        "addr:postcode": "560036",
        "addr:state": "Karnataka",
        "amenity": "hospital",
        "name": "NMPC Hospital",
        "source": "Local Knowledge"
      }
    },
    {
      "type": "node",
      "id": 7572131818,
      "lat": 13.0082031,
      "lon": 77.697197,
      "tags": {
        "addr:district": "Bengaluru Urban",
        "addr:full": "Devasandra Main Road, Krishnarajapura, Bengaluru",
        "addr:postcode": "560036",
        "addr:state": "Karnataka",
        "amenity": "hospital",
        "name": "R R Hospital",
        "source": "Local Knowledge"
      }
    },
    {
      "type": "node",
      "id": 7572131820,
      "lat": 13.0128275,
      "lon": 77.6990436,
      "tags": {
        "addr:district": "Bengaluru Urban",
        "addr:full": "Krishnarajapura, Bengaluru",
        "addr:postcode": "560036",
        "addr:state": "Karnataka",
        "amenity": "clinic",
        "name": "Indianova Heart Centre",
        "source": "Local Knowledge"
      }
    },
    {
      "type": "node",
      "id": 7572131837,
      "lat": 13.0071665,
      "lon": 77.6983598,
      "tags": {
        "addr:district": "Bengaluru Urban",
        "addr:full": "Devasandra Main Road, K R Puram, Bengaluru",
        "addr:postcode": "560036",
        "addr:state": "Karnataka",
        "amenity": "dentist",
        "name": "Pooja Dental Clinic",
        "source": "Local Knowledge"
      }
    },
    {
      "type": "node",
      "id": 7572131838,
      "lat": 13.0119196,
      "lon": 77.6972899,
      "tags": {
        "addr:district": "Bengaluru Urban",
        "addr:full": "Krishnarajapuram, Bengaluru",
        "addr:postcode": "560036",
        "addr:state": "Karnataka",
        "amenity": "dentist",
        "name": "Speciality Dental Clinic",
        "source": "Local Knowledge"
      }
    },
    {
      "type": "node",
      "id": 7572131839,
      "lat": 13.012492,
      "lon": 77.697752,
      "tags": {
        "addr:district": "Bengaluru Urban",
        "addr:full": "Vasavi Mahal Road, V B Layout Extension, Krishnarajapura, Bengaluru",
        "addr:postcode": "560036",
        "addr:state": "Karnataka",
        "amenity": "clinic",
        "name": "Shyam ENT clinic",
        "source": "Local Knowledge"
      }
    },
    {
      "type": "node",
      "id": 7572131840,
      "lat": 13.0100916,
      "lon": 77.6970612,
      "tags": {
        "addr:district": "Bengaluru Urban",
        "addr:full": "Krishnarajapura, Bengaluru",
        "addr:postcode": "560036",
        "addr:state": "Karnataka",
        "amenity": "clinic",
        "name": "Bhavani Skin & Cosmetology Clinic",
        "source": "Local Knowledge"
      }
    },
    {
      "type": "node",
      "id": 7572131845,
      "lat": 13.006778,
      "lon": 77.698644,
      "tags": {
        "addr:district": "Bengaluru Urban",
        "addr:full": "Kodigehalli Road, Krishnarajapura, Bengaluru",
        "addr:state": "Karnataka",
        "amenity": "dentist",
        "name": "Sagar Dental Care",
        "source": "Local Knowledge"
      }
    },
    {
      "type": "node",
      "id": 7572131853,
      "lat": 13.0134827,
      "lon": 77.7090081,
      "tags": {
        "addr:district": "Bengaluru Urban",
        "addr:full": "Gayathri Layout, Krishnarajapura, Bengaluru",
        "addr:postcode": "560036",
        "addr:state": "Karnataka",
        "amenity": "dentist",
        "name": "Indira Sai Dental Care",
        "source": "Local Knowledge"
      }
    },
    {
      "type": "node",
      "id": 7572131856,
      "lat": 13.010207,
      "lon": 77.707804,
      "tags": {
        "addr:district": "Bengaluru Urban",
        "addr:full": "Basavanapura Main Road, Krishnarajapura, Bengaluru",
        "addr:postcode": "560036",
        "addr:state": "Karnataka",
        "amenity": "clinic",
        "name": "Tirumala Newborn Kids and Ortho Clinic",
        "source": "Local Knowledge"
      }
    },
    {
      "type": "node",
      "id": 7572131868,
      "lat": 13.0076764,
      "lon": 77.698662,
      "tags": {
        "addr:district": "Bengaluru Urban",
        "addr:full": "Vinayaka Nagar, Devasandra Extension, Krishnarajapura, Bengaluru",
        "addr:postcode": "560036",
        "addr:state": "Karnataka",
        "amenity": "clinic",
        "name": "Rama Krishna Poly Clinic",
        "source": "Local Knowledge"
      }
    },
    {
      "type": "node",
      "id": 7572131878,
      "lat": 13.004699,
      "lon": 77.704279,
      "tags": {
        "addr:district": "Bengaluru Urban",
        "addr:full": "Kuvempu Layout, Hale Devasandra, Krishnarajapura, Bengaluru",
        "addr:postcode": "560036",
        "addr:state": "Karnataka",
        "amenity": "clinic",
        "name": "Shree Srinivasa Homeo Clinic",
        "source": "Local Knowledge"
      }
    },
    {
      "type": "node",
      "id": 7572131887,
      "lat": 13.005267,
      "lon": 77.70278,
      "tags": {
        "addr:district": "Bengaluru Urban",
        "addr:full": "Sallappa Layout, Vinayaka Nagar, Krishnarajapura, Bengaluru",
        "addr:postcode": "560036",
        "addr:state": "Karnataka",
        "amenity": "clinic",
        "name": "Physiotherapy Clinic",
        "source": "Local Knowledge"
      }
    },
    {
      "type": "node",
      "id": 7572131888,
      "lat": 13.00669,
      "lon": 77.700779,
      "tags": {
        "addr:district": "Bengaluru Urban",
        "addr:full": "Siddappa Layout, Devasandra Extension, Krishnarajapura, Bengaluru",
        "addr:postcode": "560036",
        "addr:state": "Karnataka",
        "amenity": "clinic",
        "name": "Bhagya Sri Clinic",
        "source": "Local Knowledge"
      }
    },
    {
      "type": "node",
      "id": 7572131896,
      "lat": 13.0112993,
      "lon": 77.7058751,
      "tags": {
        "addr:district": "Bengaluru Urban",
        "addr:full": "Chikkabasavanapura, Krishnarajapura, Bengaluru",
        "addr:postcode": "560036",
        "addr:state": "Karnataka",
        "amenity": "clinic",
        "name": "Dr. Mohan Babu's Clinic",
        "source": "Local Knowledge"
      }
    },
    {
      "type": "node",
      "id": 7572131900,
      "lat": 13.0045634,
      "lon": 77.7046938,
      "tags": {
        "addr:district": "Bengaluru Urban",
        "addr:full": "Chikkadevasandra Main Road, Bengaluru",
        "addr:postcode": "560036",
        "addr:state": "Karnataka",
        "amenity": "dentist",
        "name": "Bhargava Dental Clinic",
        "source": "Local Knowledge"
      }
    },
    {
      "type": "node",
      "id": 7572131903,
      "lat": 13.0061586,
      "lon": 77.7006486,
      "tags": {
        "addr:district": "Bengaluru Urban",
        "addr:full": "Krishnarajapura, Bengaluru",
        "addr:postcode": "560036",
        "addr:state": "Karnataka",
        "amenity": "dentist",
        "name": "D.D.C. Dental Clinic",
        "source": "Local Knowledge"
      }
    },
    {
      "type": "node",
      "id": 7572131905,
      "lat": 13.0106539,
      "lon": 77.6969464,
      "tags": {
        "addr:district": "Bengaluru Urban",
        "addr:full": "V B Layout, Krishnarajapura, Bengaluru",
        "addr:postcode": "560036",
        "addr:state": "Karnataka",
        "amenity": "hospital",
        "name": "Sad Bydya Shala Ayurvedic Hospital",
        "source": "Local Knowledge"
      }
    },
    {
      "type": "node",
      "id": 7572131907,
      "lat": 13.0065775,
      "lon": 77.6996955,
      "tags": {
        "addr:district": "Bengaluru Urban",
        "addr:full": "Vinayaka Nagar, Devasandra Extension, Krishnarajapura, Bengaluru",
        "addr:postcode": "560036",
        "addr:state": "Karnataka",
        "amenity": "clinic",
        "name": "Curewell Clinic",
        "source": "Local Knowledge"
      }
    },
    {
      "type": "node",
      "id": 7572131909,
      "lat": 13.011115,
      "lon": 77.697361,
      "tags": {
        "addr:district": "Bengaluru Urban",
        "addr:full": "Krishnarajapura, Bengaluru",
        "addr:postcode": "560036",
        "addr:state": "Karnataka",
        "amenity": "hospital",
        "name": "Sri Lakshmi Super Speciality Hospital",
        "source": "Local Knowledge"
      }
    },
    {
      "type": "node",
      "id": 7572131915,
      "lat": 13.005297,
      "lon": 77.702884,
      "tags": {
        "addr:district": "Bengaluru Urban",
        "addr:full": "Thippaiah Complex, Krishnarajapura, Bengaluru",
        "addr:postcode": "560036",
        "addr:state": "Karnataka",
        "amenity": "dentist",
        "name": "Pavithralaya Care 32 Dental Clinic",
        "source": "Local Knowledge"
      }
    },
    {
      "type": "node",
      "id": 7572131925,
      "lat": 13.0061511,
      "lon": 77.6997973,
      "tags": {
        "addr:district": "Bengaluru Urban",
        "addr:full": "JC Layout, Krishnarajapura, Bengaluru",
        "addr:postcode": "560036",
        "addr:state": "Karnataka",
        "amenity": "clinic",
        "name": "Vishwa Health Care Centre",
        "source": "Local Knowledge"
      }
    },
    {
      "type": "node",
      "id": 7572131934,
      "lat": 13.005255,
      "lon": 77.703108,
      "tags": {
        "addr:district": "Bengaluru Urban",
        "addr:full": "Krishnarajapura, Bengaluru",
        "addr:postcode": "560036",
        "addr:state": "Karnataka",
        "amenity": "clinic",
        "name": "Deepa Clinic",
        "source": "Local Knowledge"
      }
    },
    {
      "type": "node",
      "id": 7572131938,
      "lat": 13.0078685,
      "lon": 77.6964983,
      "tags": {
        "addr:district": "Bengaluru Urban",
        "addr:full": "Devasandra, Krishnarajapura, Bengaluru",
        "addr:postcode": "560036",
        "addr:state": "Karnataka",
        "amenity": "clinic",
        "name": "Maithri Nursing Maternity Home",
        "source": "Local Knowledge"
      }
    },
    {
      "type": "node",
      "id": 9136927427,
      "lat": 13.0102236,
      "lon": 77.7063424,
      "tags": {
        "amenity": "pharmacy",
        "check_date:opening_hours": "2022-07-20",
        "name": "Rashi Medical Stores",
        "opening_hours": "Mo-Su 07:00-10:00"
      }
    },
    {
      "type": "node",
      "id": 12122016301,
      "lat": 13.0144859,
      "lon": 77.6938792,
      "tags": {
        "addr:postcode": "560036",
        "addr:street": "TC Palaya Road",
        "amenity": "place_of_worship",
        "name": "Shri Raghavendra Swamy Matha",
        "religion": "hindu"
      }
    },
    {
      "type": "node",
      "id": 13062869379,
      "lat": 13.0155071,
      "lon": 77.702372,
      "tags": {
        "brand": "Cromā",
        "brand:wikidata": "Q5187683",
        "name": "Cromā",
        "shop": "electronics"
      }
    },
    {
      "type": "node",
      "id": 13062869380,
      "lat": 13.0153771,
      "lon": 77.7021292,
      "tags": {
        "amenity": "cafe",
        "brand": "Chai Point",
        "brand:wikidata": "Q28173415",
        "cuisine": "coffee_shop",
        "name": "Chai Point",
        "takeaway": "yes"
      }
    },
    {
      "type": "node",
      "id": 13062869381,
      "lat": 13.0152255,
      "lon": 77.7018342,
      "tags": {
        "addr:city": "Bengaluru",
        "addr:country": "IN",
        "amenity": "cafe",
        "brand": "Starbucks",
        "brand:wikidata": "Q37158",
        "cuisine": "coffee_shop",
        "name": "Starbucks",
        "official_name": "Starbucks Coffee",
        "takeaway": "yes"
      }
    },
    {
      "type": "way",
      "id": 135078009,
      "center": {
        "lat": 13.008689,
        "lon": 77.6921095
      },
      "tags": {
        "amenity": "parking",
        "capacity": "10"
      }
    },
    {
      "type": "way",
      "id": 160470309,
      "center": {
        "lat": 13.0206562,
        "lon": 77.7000103
      },
      "tags": {
        "amenity": "college",
        "name": "St. Anthony Composite P. U. College"
      }
    },
    {
      "type": "way",
      "id": 239758722,
      "center": {
        "lat": 13.0076873,
        "lon": 77.695047
      },
      "tags": {
        "addr:city": "Devasandra, K.R Puram",
        "amenity": "marketplace",
        "landuse": "retail",
        "name": "KR Puram Vegetable Market"
      }
    },
    {
      "type": "way",
      "id": 252086267,
      "center": {
        "lat": 13.0062625,
        "lon": 77.704755
      },
      "tags": {
        "amenity": "school",
        "name": "Chaitanya School",
        "name:kn": "ಚೈತಾಣ್ಯ ಶಾಲೆ"
      }
    },
    {
      "type": "way",
      "id": 252087018,
      "center": {
        "lat": 13.0101494,
        "lon": 77.7016436
      },
      "tags": {
        "amenity": "school",
        "name": "Amar Jyothi Public School & Pre-University College"
      }
    },
    {
      "type": "way",
      "id": 252087030,
      "center": {
        "lat": 13.0110681,
        "lon": 77.7048023
      },
      "tags": {
        "addr:city": "K R Puram, Bangalore",
        "amenity": "school",
        "name": "Cambridge School",
        "name:kn": "ಕೇಂಬ್ರಿಜ್ ಶಾಲೆ"
      }
    },
    {
      "type": "way",
      "id": 346506903,
      "center": {
        "lat": 13.0105307,
        "lon": 77.7046644
      },
      "tags": {
        "amenity": "pharmacy",
        "building": "yes",
        "healthcare": "pharmacy",
        "name": "Apollo Pharmaceuticals",
        "name:kn": "ಅಪೊಲೋ ಫಾರ್ಮಸಿ"
      }
    },
    {
      "type": "way",
      "id": 346552942,
      "center": {
        "lat": 13.00883,
        "lon": 77.7082791
      },
      "tags": {
        "addr:city": "bangalore",
        "addr:housenumber": "Vijaya Bank Colony, Gokula Layout, Krishnarajapura, Bengaluru, Karnataka 560036",
        "addr:postcode": "560036",
        "addr:street": "Basavanapura Main Road",
        "amenity": "place_of_worship",
        "building": "yes",
        "name": "Masjid-e-Mahmoodiya",
        "name:kn": "ಮಸ್ಜಿೀದ್ ಎ ಮಹ್ಮೂದಿಯ",
        "religion": "muslim"
      }
    },
    {
      "type": "way",
      "id": 456608491,
      "center": {
        "lat": 13.0111621,
        "lon": 77.7016114
      },
      "tags": {
        "addr:city": "Bangalore",
        "addr:postcode": "560036",
        "amenity": "college",
        "name": "Silicon City College",
        "smoking": "no"
      }
    },
    {
      "type": "way",
      "id": 472037832,
      "center": {
        "lat": 13.0188093,
        "lon": 77.7035811
      },
      "tags": {
        "access": "private",
        "leisure": "swimming_pool"
      }
    },
    {
      "type": "way",
      "id": 679185382,
      "center": {
        "lat": 13.0175958,
        "lon": 77.6955579
      },
      "tags": {
        "leisure": "park",
        "name": "TC Palya Park"
      }
    },
    {
      "type": "way",
      "id": 679185386,
      "center": {
        "lat": 13.0067975,
        "lon": 77.7001539
      },
      "tags": {
        "amenity": "school",
        "name": "Bharathiya Vidhyaniketan High School",
        "name:kn": "ಭಾರತೀಯ ವಿದ್ಯಾನಿಕೇತನ ಪ್ರೌಢ ಶಾಲೆ"
      }
    },
    {
      "type": "way",
      "id": 679270115,
      "center": {
        "lat": 13.0073306,
        "lon": 77.7029568
      },
      "tags": {
        "amenity": "school"
      }
    },
    {
      "type": "way",
      "id": 997867402,
      "center": {
        "lat": 13.0087574,
        "lon": 77.6932934
      },
      "tags": {
        "addr:city": "Bangalore",
        "addr:postcode": "560036",
        "addr:street": "New Police Station Road",
        "amenity": "police",
        "name": "KR Puram Police Station",
        "name:kn": "ಆರಕ್ಷಕ ಠಾಣೆ"
      }
    },
    {
      "type": "way",
      "id": 1196104382,
      "center": {
        "lat": 13.0205109,
        "lon": 77.7007605
      },
      "tags": {
        "amenity": "monastery",
        "denomination": "catholic",
        "landuse": "religious",
        "name": "St. Anne's Novititate",
        "religion": "christian"
      }
    },
    {
      "type": "way",
      "id": 1410389588,
      "center": {
        "lat": 13.0130342,
        "lon": 77.7049303
      },
      "tags": {
        "amenity": "college",
        "name": "Garden City College"
      }
    },
    {
      "type": "way",
      "id": 1410389591,
      "center": {
        "lat": 13.0125259,
        "lon": 77.7044568
      },
      "tags": {
        "addr:city": "K R Puram, Bangalore",
        "addr:postcode": "560 036",
        "amenity": "college",
        "email": "principal@cambridgeinstitutions.ac.in",
        "fax": "+91 80 25618789",
        "name": "Cambridge Institute of Technolgy",
        "phone": "+91 80 25618799;+91 80 25618789;+91 80 25618789",
        "website": "http://www.citech.in/"
      }
    },
    {
      "type": "way",
      "id": 1410389593,
      "center": {
        "lat": 13.0132622,
        "lon": 77.7005361
      },
      "tags": {
        "amenity": "community_centre",
        "landuse": "commercial"
      }
    },
    {
      "type": "way",
      "id": 1410389597,
      "center": {
        "lat": 13.0142399,
        "lon": 77.6985279
      },
      "tags": {
        "amenity": "college",
        "name": "Government First Grade College, KR Puram"
      }
    },
    {
      "type": "way",
      "id": 1421739175,
      "center": {
        "lat": 13.0207585,
        "lon": 77.7016687
      },
      "tags": {
        "addr:district": "Bengaluru Urban",
        "addr:full": "K.R.Puram, Battarahalli, Bengaluru",
        "addr:postcode": "560036",
        "addr:state": "Karnataka",
        "amenity": "hospital",
        "name": "Shanthinilaya Hospital",
        "source": "Local Knowledge"
      }
    },
    {
      "type": "way",
      "id": 1421739302,
      "center": {
        "lat": 13.0186192,
        "lon": 77.6967944
      },
      "tags": {
        "amenity": "place_of_worship",
        "building": "temple",
        "name": "Meenakshi Temple",
        "religion": "hindu"
      }
    },
    {
      "type": "way",
      "id": 1429161354,
      "center": {
        "lat": 13.0085352,
        "lon": 77.7055921
      },
      "tags": {
        "amenity": "school",
        "name": "Indus Valley College"
      }
    },
    {
      "type": "way",
      "id": 1429161430,
      "center": {
        "lat": 13.0089404,
        "lon": 77.7052689
      },
      "tags": {
        "amenity": "school",
        "name": "Guntur Oxford School"
      }
    },
    {
      "type": "way",
      "id": 1443406415,
      "center": {
        "lat": 13.0078716,
        "lon": 77.6938172
      },
      "tags": {
        "addr:city": "K.R Puram, Bangalore",
        "addr:street": "Old Madras Road",
        "amenity": "police",
        "name": "KR Puram Traffic Police Station"
      }
    }
  ]
}