{
  "area_name": "Siddapura",
  "osm_id": 1459472876,
  "osm_type": "node",
  "place_type": "neighbourhood",
  "amenity_count": 240,
  "amenities": [
    {
      "type": "node",
      "id": 1434548918,
      "lat": 12.957157,
      "lon": 77.7386411,
      "tags": {
        "addr:street": "Varthur Road",
        "amenity": "fast_food",
        "brand": "Domino's",
        "brand:ks": "ڈومینوز",
        "brand:pa": "ਡੋਮੀਨੋਜ਼",
        "brand:ur": "ڈومینوز",
        "brand:wikidata": "Q839466",
        "brand:wikipedia": "en:Domino's Pizza",
        "check_date": "2025-06-29",
        "cuisine": "pizza",
        "name": "Domino's",
        "name:kn": "ಡಾಮಿನೋಸ್",
        "name:ks": "ڈومینوز",
        "name:pa": "ਡੋਮੀਨੋਜ਼",
        "name:ur": "ڈومینوز",
        "takeaway": "yes"
      }
    },
    {
      "type": "node",
      "id": 1683088877,
      "lat": 12.9559175,
      "lon": 77.7296068,
      "tags": {
        "check_date": "2025-04-14",
        "name": "Barrels",
        "shop": "alcohol"
      }
    },
    {
      "type": "node",
      "id": 1683088883,
      "lat": 12.9558315,
      "lon": 77.729344,
      "tags": {
        "amenity": "restaurant",
        "check_date": "2025-04-14",
        "name": "Bhagini Iris"
      }
    },
    {
      "type": "node",
      "id": 1683088934,
      "lat": 12.9572347,
      "lon": 77.7331316,
      "tags": {
        "amenity": "restaurant",
        "cuisine": "italian",
        "name": "Cafe Bel Cibo @ Patio"
      }
    },
    {
      "type": "node",
      "id": 1852671175,
      "lat": 12.9550393,
      "lon": 77.7297525,
      "tags": {
        "addr:city": "Bengaluru",
        "addr:country": "IN",
        "addr:hamlet": "Siddapura",
        "addr:postcode": "560066",
        "addr:street": "Varthur Road",
        "addr:suburb": "Whitefield",
        "amenity": "restaurant",
        "cuisine": "international",
        "name": "Chez Mariannick"
      }
    },
    {
      "type": "node",
      "id": 2061052079,
      "lat": 12.9556191,
      "lon": 77.7251708,
      "tags": {
        "amenity": "restaurant",
        "cuisine": "chinese",
        "name": "Mainland China"
      }
    },
    {
      "type": "node",
      "id": 2570171971,
      "lat": 12.955716,
      "lon": 77.7249856,
      "tags": {
        "amenity": "parking"
      }
    },
    {
      "type": "node",
      "id": 3207060491,
      "lat": 12.9555858,
      "lon": 77.7221034,
      "tags": {
        "amenity": "place_of_worship",
        "religion": "hindu"
      }
    },
    {
      "type": "node",
      "id": 4142109789,
      "lat": 12.9556735,
      "lon": 77.7219462,
      "tags": {
        "addr:street": "Varthur Road",
        "amenity": "bank",
        "atm": "yes",
        "brand": "Karur Vysya Bank",
        "brand:wikidata": "Q6373724",
        "brand:wikipedia": "en:Karur Vysya Bank",
        "check_date": "2025-07-05",
        "name": "Karur Vysya Bank",
        "name:en": "Karur Vysya Bank",
        "name:kn": "ಕರೂರು ವೈಶ್ಯ ಬ್ಯಾಂಕ್",
        "short_name": "KVB",
        "website": "https://www.kvb.co.in"
      }
    },
    {
      "type": "node",
      "id": 4446112113,
      "lat": 12.957136,
      "lon": 77.7392761,
      "tags": {
        "addr:city": "Bengaluru",
        "addr:housenumber": "682",
        "addr:postcode": "560066",
        "addr:street": "Shop No 5 Varthur Main Road, Ramagondanahalli, Whitefield, Karnataka",
        "amenity": "pharmacy",
        "healthcare": "pharmacy",
        "name": "Vignesh Medicals",
        "phone": "+9199865 96899"
      }
    },
    {
      "type": "node",
      "id": 4446170725,
      "lat": 12.9556301,
      "lon": 77.7222569,
      "tags": {
        "addr:city": "Bengaluru",
        "addr:housenumber": "100, 4",
        "addr:postcode": "560066",
        "addr:street": "Varthur Main Rd, Thubarahalli, Brookefield, Karnataka",
        "amenity": "pharmacy",
        "healthcare": "pharmacy",
        "name": "Rajeshwari Pharma Shop",
        "phone": "088842 24028"
      }
    },
    {
      "type": "node",
      "id": 4446186788,
      "lat": 12.954963,
      "lon": 77.7252993,
      "tags": {
        "addr:city": "Bangalore",
        "addr:postcode": "560066",
        "addr:street": "Vurthur Road, Siddapura, Whitefield",
        "amenity": "restaurant",
        "cuisine": "regional",
        "delivery": "yes",
        "name": "Chez Mariannick Bakery & Restaurant",
        "opening_hours": "12:45-16:00, 18:45-22:00",
        "phone": "097394 06536",
        "smoking": "no",
        "takeaway": "yes"
      }
    },
    {
      "type": "node",
      "id": 4488928245,
      "lat": 12.9562047,
      "lon": 77.7256289,
      "tags": {
        "addr:city": "Bangalore",
        "addr:postcode": "560066",
        "addr:street": "Varthur Main Rd, Chaitanya La Grove, Brookefield",
        "name": "Sports Lite",
        "opening_hours": "10:00-20:00",
        "phone": "+91990254868",
        "shop": "sports"
      }
    },
    {
      "type": "node",
      "id": 5281661160,
      "lat": 12.9587084,
      "lon": 77.7322268,
      "tags": {
        "amenity": "parking_entrance"
      }
    },
    {
      "type": "node",
      "id": 5889785411,
      "lat": 12.9567594,
      "lon": 77.7322304,
      "tags": {
        "addr:city": "Whitefield,Bangalore",
        "addr:street": "Varthur Road",
        "name": "Urban Ladder - Whitefield",
        "operator": "Urban Ladder",
        "shop": "furniture",
        "website": "https://urbanladder.com"
      }
    },
    {
      "type": "node",
      "id": 7144469409,
      "lat": 12.9566903,
      "lon": 77.7320817,
      "tags": {
        "amenity": "restaurant",
        "brand": "Daily Sushi",
        "brand:wikidata": "Q124374644",
        "cuisine": "asian",
        "delivery": "yes",
        "name": "Daily Sushi",
        "takeaway": "yes"
      }
    },
    {
      "type": "node",
      "id": 7144469410,
      "lat": 12.9567489,
      "lon": 77.7320044,
      "tags": {
        "amenity": "fast_food",
        "cuisine": "ice_cream",
        "name": "Cream Stone"
      }
    },
    {
      "type": "node",
      "id": 7144469411,
      "lat": 12.9566826,
      "lon": 77.7319037,
      "tags": {
        "addr:city": "Bengaluru",
        "addr:postcode": "5600",
        "addr:street": "Varthur Road",
        "brand": "Nature's Basket",
        "brand:wikidata": "Q28174237",
        "name": "Nature's Basket",
        "organic": "yes",
        "shop": "supermarket",
        "website": "https://www.naturesbasket.co.in/"
      }
    },
    {
      "type": "node",
      "id": 7144469428,
      "lat": 12.9564838,
      "lon": 77.7317386,
      "tags": {
        "amenity": "restaurant",
        "check_date": "2025-06-29",
        "cuisine": "international",
        "diet:vegetarian": "yes",
        "name": "Toscano - Wine collection",
        "opening_hours": "PH,Mo-Su 11:00-23:00",
        "outdoor_seating": "yes"
      }
    },
    {
      "type": "node",
      "id": 7178597785,
      "lat": 12.957453,
      "lon": 77.732905,
      "tags": {
        "addr:city": "Bengaluru",
        "addr:country": "IN",
        "addr:hamlet": "Siddapura",
        "addr:housename": "Lake View Farm",
        "addr:postcode": "560066",
        "addr:street": "Varthur Road",
        "amenity": "restaurant",
        "name": "The Farmhouse Kitchen & Bakery"
      }
    },
    {
      "type": "node",
      "id": 9841485153,
      "lat": 12.9567902,
      "lon": 77.7320858,
      "tags": {
        "amenity": "pub",
        "name": "Edge"
      }
    },
    {
      "type": "node",
      "id": 9841485158,
      "lat": 12.9558503,
      "lon": 77.7301227,
      "tags": {
        "amenity": "veterinary",
        "check_date": "2025-06-29",
        "name": "Bangalore Pet Hospital"
      }
    },
    {
      "type": "node",
      "id": 9841485171,
      "lat": 12.9594969,
      "lon": 77.7319889,
      "tags": {
        "amenity": "restaurant",
        "indoor_seating": "yes",
        "name": "Madhurai Idly Shop",
        "outdoor_seating": "no"
      }
    },
    {
      "type": "node",
      "id": 9862573403,
      "lat": 12.9561392,
      "lon": 77.7320097,
      "tags": {
        "amenity": "restaurant",
        "check_date": "2025-10-04",
        "cuisine": "biryani",
        "indoor_seating": "yes",
        "name": "Ambur Dum Biryani",
        "outdoor_seating": "no"
      }
    },
    {
      "type": "node",
      "id": 9862573404,
      "lat": 12.9561848,
      "lon": 77.7292307,
      "tags": {
        "branch": "Milk Parlour",
        "brand": "Nandini",
        "brand:wikidata": "Q124374212",
        "check_date": "2025-07-06",
        "name": "Nandini",
        "shop": "dairy"
      }
    },
    {
      "type": "node",
      "id": 9876031948,
      "lat": 12.9557389,
      "lon": 77.7281052,
      "tags": {
        "cuisine": "sweets;chaat",
        "diet:vegetarian": "yes",
        "name": "Anand Sweets",
        "shop": "confectionery"
      }
    },
    {
      "type": "node",
      "id": 9876035820,
      "lat": 12.9556707,
      "lon": 77.7223553,
      "tags": {
        "addr:housenumber": "200/B",
        "name": "S. B Stores",
        "shop": "convenience"
      }
    },
    {
      "type": "node",
      "id": 9876035821,
      "lat": 12.955667,
      "lon": 77.7223827,
      "tags": {
        "addr:housenumber": "200/C",
        "name": "Star Tools & Hardware",
        "shop": "hardware"
      }
    },
    {
      "type": "node",
      "id": 9876035825,
      "lat": 12.9557182,
      "lon": 77.7243611,
      "tags": {
        "check_date": "2025-07-26",
        "name": "Nandhi",
        "shop": "hardware"
      }
    },
    {
      "type": "node",
      "id": 9876035835,
      "lat": 12.9557775,
      "lon": 77.7262792,
      "tags": {
        "name": "Laundrokart",
        "shop": "laundry"
      }
    },
    {
      "type": "node",
      "id": 9883496080,
      "lat": 12.9556015,
      "lon": 77.7222312,
      "tags": {
        "name": "Gombe Mane",
        "shop": "furniture"
      }
    },
    {
      "type": "node",
      "id": 9894683309,
      "lat": 12.9556079,
      "lon": 77.7252082,
      "tags": {
        "amenity": "restaurant",
        "name": "Oh Calcutta"
      }
    },
    {
      "type": "node",
      "id": 9907446630,
      "lat": 12.9557262,
      "lon": 77.722126,
      "tags": {
        "name": "Dharani Arts and Handicraft Emporium",
        "shop": "handicraft"
      }
    },
    {
      "type": "node",
      "id": 9907446631,
      "lat": 12.9557192,
      "lon": 77.7220254,
      "tags": {
        "name": "Shiva Battery Point",
        "shop": "car_parts"
      }
    },
    {
      "type": "node",
      "id": 10051271536,
      "lat": 12.957308,
      "lon": 77.7366851,
      "tags": {
        "amenity": "cafe",
        "check_date": "2025-10-04",
        "name": "Third Wave Coffee"
      }
    },
    {
      "type": "node",
      "id": 10051271537,
      "lat": 12.9572177,
      "lon": 77.7362429,
      "tags": {
        "check_date": "2025-10-04",
        "name": "Presto",
        "shop": "laundry"
      }
    },
    {
      "type": "node",
      "id": 10051271564,
      "lat": 12.9571288,
      "lon": 77.7355459,
      "tags": {
        "brand": "Lenskart",
        "brand:wikidata": "Q17068753",
        "check_date": "2025-07-26",
        "name": "Lenskart",
        "shop": "optician"
      }
    },
    {
      "type": "node",
      "id": 10051271572,
      "lat": 12.9563317,
      "lon": 77.7305782,
      "tags": {
        "amenity": "hospital",
        "check_date": "2025-06-29",
        "healthcare": "hospital",
        "healthcare:speciality": "ent",
        "name": "Siddanth Hospital"
      }
    },
    {
      "type": "node",
      "id": 10051271577,
      "lat": 12.9562803,
      "lon": 77.729345,
      "tags": {
        "amenity": "restaurant",
        "check_date": "2025-06-28",
        "name": "Kabab Genie"
      }
    },
    {
      "type": "node",
      "id": 10051271578,
      "lat": 12.9562585,
      "lon": 77.7296193,
      "tags": {
        "amenity": "ice_cream",
        "check_date": "2025-06-29",
        "indoor_seating": "yes",
        "name": "Apsara",
        "outdoor_seating": "no"
      }
    },
    {
      "type": "node",
      "id": 10051271587,
      "lat": 12.9557045,
      "lon": 77.7266148,
      "tags": {
        "name": "Tyres Xpress",
        "shop": "tyres"
      }
    },
    {
      "type": "node",
      "id": 10051271593,
      "lat": 12.9560473,
      "lon": 77.725739,
      "tags": {
        "check_date": "2025-03-27",
        "name": "Pawan Electricals and Lamps",
        "shop": "electrical"
      }
    },
    {
      "type": "node",
      "id": 10051271594,
      "lat": 12.9560405,
      "lon": 77.7259541,
      "tags": {
        "check_date": "2025-03-27",
        "name": "Fabric Spa",
        "shop": "laundry"
      }
    },
    {
      "type": "node",
      "id": 10051271595,
      "lat": 12.9560348,
      "lon": 77.7252677,
      "tags": {
        "check_date": "2025-03-27",
        "indoor_seating": "no",
        "name": "Mayura Bakery and Sweets",
        "outdoor_seating": "no",
        "shop": "bakery",
        "takeaway": "only"
      }
    },
    {
      "type": "node",
      "id": 10284845772,
      "lat": 12.9557519,
      "lon": 77.7281366,
      "tags": {
        "leisure": "fitness_centre",
        "name": "Rock's Gym"
      }
    },
    {
      "type": "node",
      "id": 10284845773,
      "lat": 12.9557697,
      "lon": 77.730186,
      "tags": {
        "addr:city": "Bengaluru",
        "addr:postcode": "560066",
        "amenity": "dentist",
        "email": "smayasdentocare@gmail.com",
        "healthcare": "dentist",
        "level": "1",
        "name": "Smaya's Dento Care",
        "opening_hours": "Mo-Su 10:00-20:00",
        "phone": "+91 9959759477",
        "website": "https://www.smayasdentocare.com/"
      }
    },
    {
      "type": "node",
      "id": 10284845802,
      "lat": 12.9567643,
      "lon": 77.7323599,
      "tags": {
        "brand": "Cromā",
        "brand:wikidata": "Q5187683",
        "level": "0",
        "name": "Cromā",
        "shop": "electronics"
      }
    },
    {
      "type": "node",
      "id": 10284845803,
      "lat": 12.9567838,
      "lon": 77.7326183,
      "tags": {
        "amenity": "cafe",
        "check_date": "2025-07-26",
        "cuisine": "coffee_shop",
        "level": "0",
        "name": "Slay",
        "opening_hours": "Mo-Su 07:00-23:00"
      }
    },
    {
      "type": "node",
      "id": 10284858512,
      "lat": 12.9572286,
      "lon": 77.736325,
      "tags": {
        "amenity": "atm",
        "brand": "ICICI Bank",
        "brand:wikidata": "Q1653258",
        "check_date": "2025-07-05",
        "operator": "ICICI Bank",
        "operator:wikidata": "Q1653258",
        "short_name": "ICICI"
      }
    },
    {
      "type": "node",
      "id": 10284858513,
      "lat": 12.9568108,
      "lon": 77.7365507,
      "tags": {
        "brand": "Honda",
        "brand:wikidata": "Q9584",
        "check_date": "2025-06-29",
        "name": "Tanvi Honda",
        "shop": "motorcycle"
      }
    },
    {
      "type": "node",
      "id": 10284858514,
      "lat": 12.9572927,
      "lon": 77.7366407,
      "tags": {
        "check_date": "2025-10-04",
        "name": "Urban Ladder",
        "shop": "furniture"
      }
    },
    {
      "type": "node",
      "id": 11197046336,
      "lat": 12.9561944,
      "lon": 77.7276653,
      "tags": {
        "amenity": "clock",
        "display": "analog",
        "support": "pole",
        "visibility": "street"
      }
    },
    {
      "type": "node",
      "id": 11197082951,
      "lat": 12.956793,
      "lon": 77.7292116,
      "tags": {
        "amenity": "parking_entrance",
        "parking": "underground"
      }
    },
    {
      "type": "node",
      "id": 11197082957,
      "lat": 12.9565054,
      "lon": 77.7291539,
      "tags": {
        "amenity": "parking_entrance",
        "parking": "underground"
      }
    },
    {
      "type": "node",
      "id": 11197549686,
      "lat": 12.9560233,
      "lon": 77.7308004,
      "tags": {
        "brand": "HOPCOMS",
        "brand:wikidata": "Q22908959",
        "check_date": "2025-07-05",
        "name": "HOPCOMS",
        "shop": "greengrocer"
      }
    },
    {
      "type": "node",
      "id": 11200424522,
      "lat": 12.9611501,
      "lon": 77.7306747,
      "tags": {
        "amenity": "parking_entrance",
        "parking": "underground"
      }
    },
    {
      "type": "node",
      "id": 11200424525,
      "lat": 12.9619162,
      "lon": 77.7307257,
      "tags": {
        "amenity": "parking_entrance",
        "parking": "underground"
      }
    },
    {
      "type": "node",
      "id": 11200424528,
      "lat": 12.9610595,
      "lon": 77.7301869,
      "tags": {
        "amenity": "parking_entrance",
        "parking": "underground"
      }
    },
    {
      "type": "node",
      "id": 11200424535,
      "lat": 12.9617515,
      "lon": 77.7302214,
      "tags": {
        "amenity": "parking_entrance",
        "parking": "underground"
      }
    },
    {
      "type": "node",
      "id": 11487176458,
      "lat": 12.9566785,
      "lon": 77.7319838,
      "tags": {
        "name": "Organic World",
        "organic": "only",
        "shop": "greengrocer"
      }
    },
    {
      "type": "node",
      "id": 11487176461,
      "lat": 12.9572738,
      "lon": 77.7326481,
      "tags": {
        "amenity": "parking_entrance",
        "parking": "underground"
      }
    },
    {
      "type": "node",
      "id": 11736162356,
      "lat": 12.9523271,
      "lon": 77.7221292,
      "tags": {
        "access": "private",
        "amenity": "parking_entrance",
        "parking": "underground"
      }
    },
    {
      "type": "node",
      "id": 11736162361,
      "lat": 12.9533922,
      "lon": 77.7220957,
      "tags": {
        "access": "private",
        "amenity": "parking_entrance",
        "parking": "underground"
      }
    },
    {
      "type": "node",
      "id": 11826955227,
      "lat": 12.9619022,
      "lon": 77.7327718,
      "tags": {
        "name": "India Detailing Garage",
        "shop": "car_detail"
      }
    },
    {
      "type": "node",
      "id": 11826955228,
      "lat": 12.9620431,
      "lon": 77.7328007,
      "tags": {
        "amenity": "veterinary",
        "mobile": "+91 9205002164",
        "name": "Vetic Pet Hospital",
        "opening_hours": "24/7"
      }
    },
    {
      "type": "node",
      "id": 11826955231,
      "lat": 12.9622113,
      "lon": 77.7328867,
      "tags": {
        "amenity": "parking_entrance",
        "parking": "underground"
      }
    },
    {
      "type": "node",
      "id": 11826955237,
      "lat": 12.9625802,
      "lon": 77.7328147,
      "tags": {
        "amenity": "parking_entrance",
        "parking": "underground"
      }
    },
    {
      "type": "node",
      "id": 12151901669,
      "lat": 12.9514275,
      "lon": 77.7342394,
      "tags": {
        "amenity": "place_of_worship",
        "religion": "hindu"
      }
    },
    {
      "type": "node",
      "id": 12199610193,
      "lat": 12.959992,
      "lon": 77.7239828,
      "tags": {
        "amenity": "childcare",
        "name": "Sri Sri Academy Daycare"
      }
    },
    {
      "type": "node",
      "id": 12208448672,
      "lat": 12.9600342,
      "lon": 77.7325657,
      "tags": {
        "amenity": "cafe",
        "contact:instagram": "nammaashram",
        "name": "Namma Ashram Cafe"
      }
    },
    {
      "type": "node",
      "id": 12211668056,
      "lat": 12.9571546,
      "lon": 77.7388836,
      "tags": {
        "amenity": "pharmacy",
        "brand": "MedPlus",
        "brand:wikidata": "Q65684234",
        "check_date": "2025-06-29",
        "healthcare": "pharmacy",
        "name": "MedPlus"
      }
    },
    {
      "type": "node",
      "id": 12211668057,
      "lat": 12.9571608,
      "lon": 77.7390545,
      "tags": {
        "brand": "Bajaj",
        "brand:wikidata": "Q10910065",
        "name": "SLN Motors",
        "shop": "motorcycle"
      }
    },
    {
      "type": "node",
      "id": 12241195612,
      "lat": 12.9563159,
      "lon": 77.7307396,
      "tags": {
        "amenity": "driving_school",
        "check_date": "2025-06-29",
        "name": "Namma Master Driving School"
      }
    },
    {
      "type": "node",
      "id": 12402685489,
      "lat": 12.9561993,
      "lon": 77.7325751,
      "tags": {
        "amenity": "restaurant",
        "check_date": "2025-06-29",
        "diet:jain": "yes",
        "diet:satvik": "yes",
        "diet:vegan": "yes",
        "diet:vegetarian": "yes",
        "level": "2",
        "name": "Element 3"
      }
    },
    {
      "type": "node",
      "id": 12495704267,
      "lat": 12.9545315,
      "lon": 77.7234526,
      "tags": {
        "amenity": "restaurant",
        "cuisine": "pizza;pasta;steak_house;burger",
        "diet:vegetarian": "yes",
        "name": "The Fat Chef",
        "opening_hours": "Tu-Fri 11:00-15:30,18:00-23:00; Sa-Su 11:00-23:00",
        "phone": "080 4099 2981",
        "website": "https://thefatchef.co.in"
      }
    },
    {
      "type": "node",
      "id": 12506342830,
      "lat": 12.9563494,
      "lon": 77.7284867,
      "tags": {
        "addr:city": "Bengaluru",
        "addr:housenumber": "115",
        "addr:postcode": "560066",
        "addr:street": "Varthur Main Road, Brookefield, Opposite D Mart, Whitefield",
        "amenity": "clinic",
        "healthcare": "clinic",
        "healthcare:speciality": "fertility",
        "name": "Baby Sciences IVF Clinic Pvt Ltd"
      }
    },
    {
      "type": "node",
      "id": 12570258677,
      "lat": 12.9568677,
      "lon": 77.7396015,
      "tags": {
        "brand": "Nandini",
        "brand:wikidata": "Q124374212",
        "check_date": "2025-10-18",
        "name": "Nandini",
        "shop": "dairy"
      }
    },
    {
      "type": "node",
      "id": 12651832966,
      "lat": 12.9558806,
      "lon": 77.7308147,
      "tags": {
        "amenity": "veterinary",
        "check_date": "2025-03-11",
        "name": "Sanchu Animal Hospital"
      }
    },
    {
      "type": "node",
      "id": 12651832967,
      "lat": 12.9560384,
      "lon": 77.732017,
      "tags": {
        "check_date": "2025-03-11",
        "name": "Priya Bakery And Sweets",
        "shop": "bakery"
      }
    },
    {
      "type": "node",
      "id": 12651832968,
      "lat": 12.9567481,
      "lon": 77.7367231,
      "tags": {
        "check_date": "2025-03-11",
        "name": "Anu Furniture Mall",
        "shop": "furniture"
      }
    },
    {
      "type": "node",
      "id": 12704367682,
      "lat": 12.9562713,
      "lon": 77.7284743,
      "tags": {
        "amenity": "restaurant",
        "changing_table": "no",
        "check_date": "2025-08-10",
        "cuisine": "indian",
        "diet:vegetarian": "only",
        "indoor_seating": "yes",
        "name": "Udupi Gokarna",
        "outdoor_seating": "no"
      }
    },
    {
      "type": "node",
      "id": 12704367683,
      "lat": 12.9561851,
      "lon": 77.7289605,
      "tags": {
        "check_date": "2025-10-04",
        "name": "Sai Creations",
        "shop": "curtain"
      }
    },
    {
      "type": "node",
      "id": 12704367685,
      "lat": 12.9561818,
      "lon": 77.7290745,
      "tags": {
        "check_date": "2025-07-26",
        "name": "Hindware",
        "shop": "appliance"
      }
    },
    {
      "type": "node",
      "id": 12704367686,
      "lat": 12.9561874,
      "lon": 77.729108,
      "tags": {
        "check_date": "2025-07-26",
        "name": "Sai Enterprises",
        "shop": "tailor"
      }
    },
    {
      "type": "node",
      "id": 12704367687,
      "lat": 12.9561818,
      "lon": 77.7291322,
      "tags": {
        "check_date": "2025-07-26",
        "hairdresser": "barber",
        "name": "The Best Little Hair House",
        "shop": "hairdresser"
      }
    },
    {
      "type": "node",
      "id": 12704367688,
      "lat": 12.9561751,
      "lon": 77.7291725,
      "tags": {
        "amenity": "fast_food",
        "brand": "Five Star Chicken",
        "brand:wikidata": "Q127784422",
        "check_date": "2025-06-28",
        "cuisine": "chicken",
        "delivery": "yes",
        "name": "Five Star Chicken",
        "takeaway": "yes"
      }
    },
    {
      "type": "node",
      "id": 12704376179,
      "lat": 12.9560619,
      "lon": 77.7259342,
      "tags": {
        "amenity": "restaurant",
        "check_date": "2025-03-27",
        "diet:vegetarian": "yes",
        "name": "Swad"
      }
    },
    {
      "type": "node",
      "id": 12704376180,
      "lat": 12.9560339,
      "lon": 77.7253817,
      "tags": {
        "check_date": "2025-03-27",
        "name": "Sleepwell",
        "shop": "bed"
      }
    },
    {
      "type": "node",
      "id": 12704376182,
      "lat": 12.9560365,
      "lon": 77.7258421,
      "tags": {
        "check_date": "2025-03-27",
        "name": "Omkar Interiors",
        "shop": "interior_decoration"
      }
    },
    {
      "type": "node",
      "id": 12704376183,
      "lat": 12.9560435,
      "lon": 77.7257864,
      "tags": {
        "check_date": "2025-03-27",
        "shop": "clothes"
      }
    },
    {
      "type": "node",
      "id": 12704376184,
      "lat": 12.9560496,
      "lon": 77.7256244,
      "tags": {
        "check_date": "2025-06-28",
        "name": "Luxe Living",
        "shop": "carpet"
      }
    },
    {
      "type": "node",
      "id": 12704387224,
      "lat": 12.9561059,
      "lon": 77.728155,
      "tags": {
        "check_date": "2025-03-27",
        "name": "Moto Care",
        "shop": "motorcycle_parts"
      }
    },
    {
      "type": "node",
      "id": 12704387225,
      "lat": 12.956103,
      "lon": 77.7282138,
      "tags": {
        "check_date": "2025-03-27",
        "name": "Featherwood",
        "shop": "furniture"
      }
    },
    {
      "type": "node",
      "id": 12704387227,
      "lat": 12.9561059,
      "lon": 77.7280271,
      "tags": {
        "check_date": "2025-04-22",
        "name": "Wallpaper Studio",
        "shop": "interior_decoration"
      }
    },
    {
      "type": "node",
      "id": 12704387228,
      "lat": 12.9561109,
      "lon": 77.7280017,
      "tags": {
        "check_date": "2025-03-27",
        "name": "Bhavani Hardware",
        "shop": "hardware"
      }
    },
    {
      "type": "node",
      "id": 12704387229,
      "lat": 12.956102,
      "lon": 77.727955,
      "tags": {
        "check_date": "2025-03-27",
        "name": "Bhavani Electricals",
        "shop": "electrical"
      }
    },
    {
      "type": "node",
      "id": 12704428627,
      "lat": 12.9562633,
      "lon": 77.7295136,
      "tags": {
        "brand": "Bosch Car Service",
        "brand:wikidata": "Q894368",
        "check_date": "2025-07-26",
        "name": "Bosch Car Service",
        "shop": "car_repair"
      }
    },
    {
      "type": "node",
      "id": 12704428628,
      "lat": 12.9562554,
      "lon": 77.7295399,
      "tags": {
        "amenity": "pharmacy",
        "check_date": "2025-07-26",
        "healthcare": "pharmacy",
        "name": "Orange Health Labs"
      }
    },
    {
      "type": "node",
      "id": 12704428629,
      "lat": 12.9562539,
      "lon": 77.7295699,
      "tags": {
        "check_date": "2025-07-26",
        "name": "Luxurious Carpet And Decor",
        "shop": "carpet"
      }
    },
    {
      "type": "node",
      "id": 12704428630,
      "lat": 12.9562782,
      "lon": 77.7297587,
      "tags": {
        "check_date": "2025-07-26",
        "name": "Sri Lakshmi Plywood And Hardware",
        "shop": "hardware"
      }
    },
    {
      "type": "node",
      "id": 12704428631,
      "lat": 12.9562739,
      "lon": 77.7298531,
      "tags": {
        "check_date": "2025-07-26",
        "name": "The Complete Furniture Showroom",
        "shop": "furniture"
      }
    },
    {
      "type": "node",
      "id": 12704428632,
      "lat": 12.9562696,
      "lon": 77.7299438,
      "tags": {
        "check_date": "2025-03-27",
        "name": "Kavery Electricals And Hardware",
        "shop": "electrical"
      }
    },
    {
      "type": "node",
      "id": 12704428633,
      "lat": 12.9562612,
      "lon": 77.7299842,
      "tags": {
        "check_date": "2025-03-27",
        "shop": "furniture"
      }
    },
    {
      "type": "node",
      "id": 12704428634,
      "lat": 12.956267,
      "lon": 77.7301988,
      "tags": {
        "check_date": "2025-07-26",
        "name": "Fixperts",
        "second_hand": "only",
        "shop": "motorcycle"
      }
    },
    {
      "type": "node",
      "id": 12704428635,
      "lat": 12.9563102,
      "lon": 77.7302947,
      "tags": {
        "check_date": "2025-03-27",
        "shop": "copyshop"
      }
    },
    {
      "type": "node",
      "id": 12704428637,
      "lat": 12.9563067,
      "lon": 77.7306711,
      "tags": {
        "check_date": "2025-07-06",
        "name": "SK Power Solutions",
        "shop": "energy"
      }
    },
    {
      "type": "node",
      "id": 12704428638,
      "lat": 12.9562864,
      "lon": 77.7308187,
      "tags": {
        "check_date": "2025-07-06",
        "name": "Vega",
        "parts": "helmets",
        "shop": "motorcycle_parts"
      }
    },
    {
      "type": "node",
      "id": 12704428639,
      "lat": 12.95627,
      "lon": 77.7308463,
      "tags": {
        "amenity": "restaurant",
        "check_date": "2025-08-10",
        "cuisine": "indian",
        "diet:vegetarian": "only",
        "name": "Sri Kanteshwara Hotel"
      }
    },
    {
      "type": "node",
      "id": 12704428640,
      "lat": 12.9562923,
      "lon": 77.7309139,
      "tags": {
        "check_date": "2025-07-06",
        "name": "Golden Bakes",
        "shop": "bakery"
      }
    },
    {
      "type": "node",
      "id": 12704428641,
      "lat": 12.9563368,
      "lon": 77.7309295,
      "tags": {
        "check_date": "2025-03-27",
        "name": "SKI Interior",
        "shop": "interior_decoration"
      }
    },
    {
      "type": "node",
      "id": 12704428642,
      "lat": 12.9563694,
      "lon": 77.7312035,
      "tags": {
        "check_date": "2025-07-06",
        "name": "Decofield",
        "shop": "interior_decoration"
      }
    },
    {
      "type": "node",
      "id": 12704428643,
      "lat": 12.9567745,
      "lon": 77.7324549,
      "tags": {
        "check_date": "2025-07-26",
        "name": "The Sleep Company",
        "shop": "bed"
      }
    },
    {
      "type": "node",
      "id": 12704522760,
      "lat": 12.9572056,
      "lon": 77.7371941,
      "tags": {
        "name": "White Care",
        "shop": "dry_cleaning"
      }
    },
    {
      "type": "node",
      "id": 12704522761,
      "lat": 12.9572076,
      "lon": 77.7371732,
      "tags": {
        "name": "Hiteshini Tiles Park",
        "shop": "tiles"
      }
    },
    {
      "type": "node",
      "id": 12704522762,
      "lat": 12.9572071,
      "lon": 77.7372155,
      "tags": {
        "name": "Navdurga Electricals",
        "shop": "electronics"
      }
    },
    {
      "type": "node",
      "id": 12704522763,
      "lat": 12.9572153,
      "lon": 77.7373158,
      "tags": {
        "check_date": "2025-07-05",
        "name": "Prakash Ceramics",
        "shop": "tiles"
      }
    },
    {
      "type": "node",
      "id": 12704522766,
      "lat": 12.9572097,
      "lon": 77.7374626,
      "tags": {
        "check_date": "2025-07-05",
        "name": "London Line Furnishings",
        "shop": "furniture"
      }
    },
    {
      "type": "node",
      "id": 12704522777,
      "lat": 12.957173,
      "lon": 77.7375611,
      "tags": {
        "check_date": "2025-05-13",
        "name": "Home Concept",
        "shop": "yes"
      }
    },
    {
      "type": "node",
      "id": 12704522786,
      "lat": 12.9571655,
      "lon": 77.737872,
      "tags": {
        "name": "Mahalakshmi Enterprises",
        "shop": "wholesale"
      }
    },
    {
      "type": "node",
      "id": 12704522787,
      "lat": 12.9572061,
      "lon": 77.7378459,
      "tags": {
        "female": "yes",
        "name": "Gem Herbal Beauty Parlour",
        "shop": "hairdresser"
      }
    },
    {
      "type": "node",
      "id": 12704522788,
      "lat": 12.9572163,
      "lon": 77.7378737,
      "tags": {
        "name": "Luxury Tatoo Zone",
        "shop": "tattoo"
      }
    },
    {
      "type": "node",
      "id": 12704522789,
      "lat": 12.9571937,
      "lon": 77.7380363,
      "tags": {
        "name": "Springwel",
        "shop": "bed"
      }
    },
    {
      "type": "node",
      "id": 12704522790,
      "lat": 12.9572025,
      "lon": 77.7381425,
      "tags": {
        "check_date": "2025-07-05",
        "name": "Lakshmi Enterprises",
        "shop": "bed"
      }
    },
    {
      "type": "node",
      "id": 12704522791,
      "lat": 12.9571937,
      "lon": 77.7382947,
      "tags": {
        "check_date": "2025-06-28",
        "name": "The Drift",
        "shop": "car_parts"
      }
    },
    {
      "type": "node",
      "id": 12704522792,
      "lat": 12.9571976,
      "lon": 77.7383247,
      "tags": {
        "name": "DHM Tailoring",
        "shop": "tailor"
      }
    },
    {
      "type": "node",
      "id": 12704522793,
      "lat": 12.9571991,
      "lon": 77.738507,
      "tags": {
        "amenity": "fast_food",
        "check_date": "2025-10-04",
        "name": "Sai Ram Hot Chips"
      }
    },
    {
      "type": "node",
      "id": 12704522794,
      "lat": 12.9571969,
      "lon": 77.7384633,
      "tags": {
        "name": "Bhavani Enterprises",
        "shop": "energy"
      }
    },
    {
      "type": "node",
      "id": 12704522795,
      "lat": 12.9571606,
      "lon": 77.7387642,
      "tags": {
        "amenity": "cafe",
        "name": "Sri Viniyaka Mess"
      }
    },
    {
      "type": "node",
      "id": 12714124003,
      "lat": 12.9561869,
      "lon": 77.7323973,
      "tags": {
        "brand": "Bridgestone",
        "brand:wikidata": "Q179433",
        "check_date": "2025-06-28",
        "name": "Bridgestone Tyres World",
        "shop": "tyres"
      }
    },
    {
      "type": "node",
      "id": 12714131193,
      "lat": 12.9562238,
      "lon": 77.7324651,
      "tags": {
        "check_date": "2025-03-30",
        "level": "0",
        "name": "Rajwadi Dry Fruits",
        "shop": "nuts"
      }
    },
    {
      "type": "node",
      "id": 12714131194,
      "lat": 12.9562289,
      "lon": 77.7325145,
      "tags": {
        "check_date": "2025-10-04",
        "level": "0",
        "name": "Sri Lakshmi Hardware",
        "shop": "hardware"
      }
    },
    {
      "type": "node",
      "id": 12714131196,
      "lat": 12.956233,
      "lon": 77.732614,
      "tags": {
        "amenity": "atm",
        "brand": "ESAF Small Finance Bank",
        "brand:wikidata": "Q28173964",
        "check_date": "2025-10-04",
        "level": "0",
        "operator": "ESAF Small Finance Bank",
        "operator:wikidata": "Q28173964"
      }
    },
    {
      "type": "node",
      "id": 12714131197,
      "lat": 12.9562131,
      "lon": 77.7326155,
      "tags": {
        "check_date": "2025-03-30",
        "level": "1",
        "name": "Angel Wall Decor",
        "shop": "interior_decoration"
      }
    },
    {
      "type": "node",
      "id": 12714131198,
      "lat": 12.9562218,
      "lon": 77.7327143,
      "tags": {
        "check_date": "2025-07-05",
        "name": "Bikers Accessories",
        "shop": "yes"
      }
    },
    {
      "type": "node",
      "id": 12714132883,
      "lat": 12.9561434,
      "lon": 77.7320423,
      "tags": {
        "amenity": "cafe",
        "check_date": "2025-03-30",
        "name": "The Café 23"
      }
    },
    {
      "type": "node",
      "id": 12714132884,
      "lat": 12.9561449,
      "lon": 77.7320741,
      "tags": {
        "check_date": "2025-10-04",
        "name": "Spin Cycles",
        "phone": "+91 88800 04860",
        "shop": "laundry",
        "website": "https://spincycles.in"
      }
    },
    {
      "type": "node",
      "id": 12714132885,
      "lat": 12.9561439,
      "lon": 77.7321139,
      "tags": {
        "check_date": "2025-10-04",
        "name": "Weaver Carpets",
        "shop": "carpet"
      }
    },
    {
      "type": "node",
      "id": 12714132886,
      "lat": 12.9561496,
      "lon": 77.7321483,
      "tags": {
        "amenity": "pharmacy",
        "check_date": "2025-06-29",
        "healthcare": "pharmacy",
        "name": "Sri Jagannatha Medicals & General Stores"
      }
    },
    {
      "type": "node",
      "id": 12714132887,
      "lat": 12.9561793,
      "lon": 77.7322573,
      "tags": {
        "brand": "Kanti Sweets",
        "brand:wikidata": "Q124374180",
        "check_date": "2025-06-28",
        "name": "Kanti Sweets",
        "shop": "confectionery"
      }
    },
    {
      "type": "node",
      "id": 12714132889,
      "lat": 12.956154,
      "lon": 77.7322544,
      "tags": {
        "check_date": "2025-06-29",
        "name": "Look Glamorous",
        "shop": "hairdresser"
      }
    },
    {
      "type": "node",
      "id": 12714132890,
      "lat": 12.9561516,
      "lon": 77.7322836,
      "tags": {
        "amenity": "dentist",
        "check_date": "2025-06-29",
        "healthcare": "dentist",
        "name": "Dentyscan 3D"
      }
    },
    {
      "type": "node",
      "id": 12714938773,
      "lat": 12.9564314,
      "lon": 77.7339965,
      "tags": {
        "check_date": "2025-03-30",
        "name": "Sri Ganesh Motors",
        "shop": "motorcycle"
      }
    },
    {
      "type": "node",
      "id": 12714938775,
      "lat": 12.9568072,
      "lon": 77.7363519,
      "tags": {
        "alt_name": "Kentucky Fried Chicken",
        "alt_name:en": "Kentucky Fried Chicken",
        "alt_name:hi": "केंटुकी फ्राइड चिकन",
        "alt_name:pa": "ਕੈਂਟੁਕੀ ਫ੍ਰਾਈਡ ਚਿਕਨ",
        "alt_name:pnb": "کینٹکی فرائیڈ چکن",
        "alt_name:ur": "کینٹکی فرائیڈ چکن",
        "amenity": "fast_food",
        "brand": "KFC",
        "brand:en": "KFC",
        "brand:hi": "केएफसी",
        "brand:pa": "ਕੇਐਫਸੀ",
        "brand:pnb": "کے ایف سی",
        "brand:ur": "کے ایف سی",
        "brand:wikidata": "Q524757",
        "check_date": "2025-06-29",
        "cuisine": "chicken",
        "name": "KFC",
        "name:en": "KFC",
        "name:hi": "केएफसी",
        "name:pa": "ਕੇਐਫਸੀ",
        "name:pnb": "کے ایف سی",
        "name:ur": "کے ایف سی",
        "takeaway": "yes"
      }
    },
    {
      "type": "node",
      "id": 12714938776,
      "lat": 12.9568754,
      "lon": 77.739068,
      "tags": {
        "check_date": "2025-03-31",
        "name": "Fresh Choice",
        "shop": "yes"
      }
    },
    {
      "type": "node",
      "id": 12714938777,
      "lat": 12.9568717,
      "lon": 77.7391303,
      "tags": {
        "check_date": "2025-03-31",
        "name": "Bike Service Center",
        "shop": "motorcycle_repair"
      }
    },
    {
      "type": "node",
      "id": 12715087999,
      "lat": 12.95677,
      "lon": 77.7394672,
      "tags": {
        "check_date": "2025-03-31",
        "shop": "massage"
      }
    },
    {
      "type": "node",
      "id": 12715088000,
      "lat": 12.9568671,
      "lon": 77.7392132,
      "tags": {
        "amenity": "fast_food",
        "check_date": "2025-06-29",
        "name": "Viniyaka Hot Chips"
      }
    },
    {
      "type": "node",
      "id": 12715098601,
      "lat": 12.9568705,
      "lon": 77.7391916,
      "tags": {
        "check_date": "2025-03-31",
        "name": "Sri Rama Electronics",
        "shop": "electronics"
      }
    },
    {
      "type": "node",
      "id": 12715098602,
      "lat": 12.9568659,
      "lon": 77.7392665,
      "tags": {
        "check_date": "2025-03-31",
        "shop": "toys"
      }
    },
    {
      "type": "node",
      "id": 12715098603,
      "lat": 12.956796,
      "lon": 77.7395257,
      "tags": {
        "amenity": "music_school;library",
        "check_date": "2025-03-31",
        "name": "Neptunes Music Hub"
      }
    },
    {
      "type": "node",
      "id": 12715098604,
      "lat": 12.9568318,
      "lon": 77.7395335,
      "tags": {
        "check_date": "2025-06-29",
        "name": "My Decor",
        "shop": "interior_decoration"
      }
    },
    {
      "type": "node",
      "id": 12715098607,
      "lat": 12.9568381,
      "lon": 77.7393829,
      "tags": {
        "check_date": "2025-03-31",
        "name": "True Life",
        "shop": "nutrition_supplements"
      }
    },
    {
      "type": "node",
      "id": 12715098608,
      "lat": 12.9568292,
      "lon": 77.739353,
      "tags": {
        "check_date": "2025-10-04",
        "name": "Tripty",
        "shop": "confectionery"
      }
    },
    {
      "type": "node",
      "id": 12715098609,
      "lat": 12.9568054,
      "lon": 77.739353,
      "tags": {
        "check_date": "2025-03-31",
        "name": "Adapt Tours & Travels Private Limited",
        "shop": "travel_agency"
      }
    },
    {
      "type": "node",
      "id": 12715098610,
      "lat": 12.9568072,
      "lon": 77.7393185,
      "tags": {
        "amenity": "fixme",
        "check_date": "2025-03-31",
        "fixme": "type",
        "fixme:type": "institute",
        "name": "Vishwaleela Group Of Institutions"
      }
    },
    {
      "type": "node",
      "id": 12715098612,
      "lat": 12.9568734,
      "lon": 77.7397611,
      "tags": {
        "amenity": "arts_centre",
        "check_date": "2025-03-31",
        "name": "Nandhini Arts And Craft Center"
      }
    },
    {
      "type": "node",
      "id": 12729304400,
      "lat": 12.9571584,
      "lon": 77.7387239,
      "tags": {
        "name": "Pavithra Hardware & Electricals",
        "shop": "hardware"
      }
    },
    {
      "type": "node",
      "id": 12729312301,
      "lat": 12.9571587,
      "lon": 77.7389165,
      "tags": {
        "check_date": "2025-06-29",
        "name": "Sparsh",
        "shop": "hairdresser"
      }
    },
    {
      "type": "node",
      "id": 12729312323,
      "lat": 12.9571524,
      "lon": 77.7391894,
      "tags": {
        "name": "Ansari Paan",
        "shop": "kiosk"
      }
    },
    {
      "type": "node",
      "id": 12729312324,
      "lat": 12.9571352,
      "lon": 77.7392316,
      "tags": {
        "shop": "florist"
      }
    },
    {
      "type": "node",
      "id": 12729312325,
      "lat": 12.9571315,
      "lon": 77.7393367,
      "tags": {
        "shop": "appliance"
      }
    },
    {
      "type": "node",
      "id": 12729312326,
      "lat": 12.9571301,
      "lon": 77.7393666,
      "tags": {
        "check_date": "2025-07-05",
        "hairdresser": "barber",
        "name": "New Mens Beauty Saloon",
        "shop": "hairdresser"
      }
    },
    {
      "type": "node",
      "id": 12729312327,
      "lat": 12.9571328,
      "lon": 77.739402,
      "tags": {
        "shop": "clothes"
      }
    },
    {
      "type": "node",
      "id": 12729312328,
      "lat": 12.9571371,
      "lon": 77.7395912,
      "tags": {
        "check_date": "2025-10-18",
        "name": "New RMP Electricals",
        "shop": "electrical"
      }
    },
    {
      "type": "node",
      "id": 12729312329,
      "lat": 12.9571397,
      "lon": 77.7396169,
      "tags": {
        "check_date": "2025-10-18",
        "name": "Maruthi Stores",
        "shop": "yes"
      }
    },
    {
      "type": "node",
      "id": 12729312330,
      "lat": 12.9571437,
      "lon": 77.7396562,
      "tags": {
        "check_date": "2025-10-18",
        "name": "Preeti Provision Store",
        "shop": "greengrocer"
      }
    },
    {
      "type": "node",
      "id": 12754042630,
      "lat": 12.9557176,
      "lon": 77.7274914,
      "tags": {
        "check_date": "2025-06-29",
        "name": "Maharaja Carpets",
        "shop": "carpet"
      }
    },
    {
      "type": "node",
      "id": 12845313437,
      "lat": 12.9557117,
      "lon": 77.7277054,
      "tags": {
        "check_date": "2025-05-17",
        "name": "Friends Furniture Store",
        "shop": "furniture"
      }
    },
    {
      "type": "node",
      "id": 12845313438,
      "lat": 12.9557234,
      "lon": 77.7276504,
      "tags": {
        "check_date": "2025-05-17",
        "name": "Ifran Axle And Power Steering Works",
        "shop": "car_parts"
      }
    },
    {
      "type": "node",
      "id": 12862846440,
      "lat": 12.9567925,
      "lon": 77.7319108,
      "tags": {
        "amenity": "fast_food",
        "cuisine": "burger",
        "delivery": "yes",
        "name": "Original Burger Co.",
        "takeaway": "yes"
      }
    },
    {
      "type": "node",
      "id": 13061599858,
      "lat": 12.9562542,
      "lon": 77.7296447,
      "tags": {
        "check_date": "2025-08-10",
        "name": "FB Cakes",
        "shop": "pastry"
      }
    },
    {
      "type": "node",
      "id": 13062869341,
      "lat": 12.9569784,
      "lon": 77.7319307,
      "tags": {
        "amenity": "cafe",
        "brand": "Starbucks",
        "brand:wikidata": "Q37158",
        "cuisine": "coffee_shop",
        "name": "Starbucks",
        "official_name": "Starbucks Coffee",
        "takeaway": "yes"
      }
    },
    {
      "type": "node",
      "id": 13104081666,
      "lat": 12.9624926,
      "lon": 77.732842,
      "tags": {
        "amenity": "ice_cream",
        "name": "Milano"
      }
    },
    {
      "type": "node",
      "id": 13104081667,
      "lat": 12.9623684,
      "lon": 77.7328259,
      "tags": {
        "amenity": "fast_food",
        "contact:instagram": "milanopizzacafe_india",
        "cuisine": "pizza",
        "name": "Milano Pizza"
      }
    },
    {
      "type": "node",
      "id": 13158234649,
      "lat": 12.9556657,
      "lon": 77.7224145,
      "tags": {
        "name": "PVKR Co",
        "shop": "dairy"
      }
    },
    {
      "type": "node",
      "id": 13158234651,
      "lat": 12.9557206,
      "lon": 77.7229171,
      "tags": {
        "check_date": "2025-10-28",
        "name": "3M Car Care",
        "shop": "car_parts"
      }
    },
    {
      "type": "node",
      "id": 13193073830,
      "lat": 12.9561729,
      "lon": 77.7290122,
      "tags": {
        "check_date": "2025-10-04",
        "name": "VR Enterprises",
        "shop": "yes"
      }
    },
    {
      "type": "node",
      "id": 13335974967,
      "lat": 12.9564872,
      "lon": 77.7317032,
      "tags": {
        "amenity": "restaurant",
        "check_date": "2025-11-27",
        "cuisine": "indian",
        "name": "Salt"
      }
    },
    {
      "type": "way",
      "id": 124013167,
      "center": {
        "lat": 12.9565549,
        "lon": 77.7379526
      },
      "tags": {
        "amenity": "school",
        "check_date": "2025-10-28",
        "name": "Government School",
        "name:kn": "ಸರ್ಕಾರಿ ಶಾಲೆ"
      }
    },
    {
      "type": "way",
      "id": 145128188,
      "center": {
        "lat": 12.9565729,
        "lon": 77.7314613
      },
      "tags": {
        "addr:street": "Varthur Road",
        "amenity": "fuel",
        "brand": "Shell",
        "brand:wikidata": "Q110716465",
        "check_date": "2025-10-04",
        "compressed_air": "yes",
        "landuse": "commercial",
        "name": "Shell",
        "name:kn": "ಶೆಲ್",
        "self_service": "no"
      }
    },
    {
      "type": "way",
      "id": 145136490,
      "center": {
        "lat": 12.9558514,
        "lon": 77.7350347
      },
      "tags": {
        "leisure": "swimming_pool"
      }
    },
    {
      "type": "way",
      "id": 147233199,
      "center": {
        "lat": 12.9566977,
        "lon": 77.7315225
      },
      "tags": {
        "addr:street": "Varthur Road",
        "brand": "Shell Select",
        "brand:wikidata": "Q124359752",
        "building": "retail",
        "building:levels": "1",
        "check_date": "2025-10-04",
        "name": "Shell Select",
        "roof:levels": "0",
        "roof:shape": "flat",
        "shop": "convenience"
      }
    },
    {
      "type": "way",
      "id": 155973105,
      "center": {
        "lat": 12.9558194,
        "lon": 77.7315639
      },
      "tags": {
        "amenity": "school",
        "check_date": "2024-10-28",
        "name": "Siddapura Government Primary School",
        "name:kn": "ಸಿದ್ದಾಪುರ ಸರ್ಕಾರಿ ಪ್ರಾಥಮಿಕ ಶಾಲೆ"
      }
    },
    {
      "type": "way",
      "id": 157858174,
      "center": {
        "lat": 12.9554384,
        "lon": 77.7293747
      },
      "tags": {
        "access": "customers",
        "amenity": "parking",
        "fee": "no",
        "name": "Bhagini Iris Parking",
        "park_ride": "yes",
        "parking": "surface"
      }
    },
    {
      "type": "way",
      "id": 249353657,
      "center": {
        "lat": 12.9555232,
        "lon": 77.7286983
      },
      "tags": {
        "brand": "DMart",
        "brand:wikidata": "Q5203271",
        "check_date": "2025-10-25",
        "internet_access": "no",
        "name": "DMart",
        "payment:cash": "yes",
        "payment:coins": "yes",
        "payment:credit_cards": "yes",
        "payment:debit_cards": "yes",
        "payment:notes": "yes",
        "payment:upi": "yes",
        "shop": "supermarket",
        "wheelchair": "yes"
      }
    },
    {
      "type": "way",
      "id": 345918748,
      "center": {
        "lat": 12.955763,
        "lon": 77.7310754
      },
      "tags": {
        "amenity": "place_of_worship",
        "building": "temple",
        "check_date": "2025-07-05",
        "name": "Sri Sri Kantheshwara Swami Temple",
        "religion": "hindu"
      }
    },
    {
      "type": "way",
      "id": 345919210,
      "center": {
        "lat": 12.9552824,
        "lon": 77.7310929
      },
      "tags": {
        "amenity": "place_of_worship",
        "building": "yes",
        "name": "Sri Savadatti Yellamma Temple",
        "religion": "hindu"
      }
    },
    {
      "type": "way",
      "id": 346841751,
      "center": {
        "lat": 12.9611991,
        "lon": 77.7261486
      },
      "tags": {
        "leisure": "pitch",
        "name": "Dream Medows Basketball Court",
        "sport": "basketball"
      }
    },
    {
      "type": "way",
      "id": 346860095,
      "center": {
        "lat": 12.9590124,
        "lon": 77.7347271
      },
      "tags": {
        "access": "private",
        "leisure": "swimming_pool",
        "location": "outdoor"
      }
    },
    {
      "type": "way",
      "id": 1072561537,
      "center": {
        "lat": 12.9561737,
        "lon": 77.7227553
      },
      "tags": {
        "access": "yes",
        "addr:city": "Bengaluru",
        "addr:postcode": "560066",
        "addr:street": "Varthur Road",
        "amenity": "library",
        "building": "yes",
        "building:levels": "2",
        "check_date": "2025-06-13",
        "internet_access": "terminal",
        "internet_access:fee": "customers",
        "name": "Tubarahalli Digital Library",
        "opening_hours": "Tu-Su 08:00-20:00; PH off; Sa[4] off; Tu[2] off",
        "operator": "Department of Public Libraries",
        "operator:type": "government",
        "toilets": "yes"
      }
    },
    {
      "type": "way",
      "id": 1072674716,
      "center": {
        "lat": 12.9621606,
        "lon": 77.732405
      },
      "tags": {
        "access": "private",
        "leisure": "swimming_pool"
      }
    },
    {
      "type": "way",
      "id": 1077053845,
      "center": {
        "lat": 12.9549554,
        "lon": 77.7283192
      },
      "tags": {
        "access": "customers",
        "amenity": "parking",
        "parking": "surface"
      }
    },
    {
      "type": "way",
      "id": 1080712544,
      "center": {
        "lat": 12.9576216,
        "lon": 77.7223458
      },
      "tags": {
        "leisure": "swimming_pool"
      }
    },
    {
      "type": "way",
      "id": 1086335536,
      "center": {
        "lat": 12.9555743,
        "lon": 77.7228833
      },
      "tags": {
        "amenity": "kindergarten",
        "name": "Prishti Pre School"
      }
    },
    {
      "type": "way",
      "id": 1097727351,
      "center": {
        "lat": 12.9568065,
        "lon": 77.7325257
      },
      "tags": {
        "access": "private",
        "layer": "1",
        "leisure": "swimming_pool",
        "location": "roof",
        "swimming_pool": "above"
      }
    },
    {
      "type": "way",
      "id": 1124681969,
      "center": {
        "lat": 12.9564025,
        "lon": 77.731808
      },
      "tags": {
        "access": "customers",
        "amenity": "motorcycle_parking",
        "covered": "no",
        "fee": "yes",
        "parking": "surface"
      }
    },
    {
      "type": "way",
      "id": 1124681971,
      "center": {
        "lat": 12.9570073,
        "lon": 77.7355063
      },
      "tags": {
        "access": "customers",
        "amenity": "parking",
        "fee": "no",
        "parking": "surface"
      }
    },
    {
      "type": "way",
      "id": 1149670790,
      "center": {
        "lat": 12.9587995,
        "lon": 77.7328464
      },
      "tags": {
        "access": "private",
        "leisure": "swimming_pool",
        "location": "outdoor"
      }
    },
    {
      "type": "way",
      "id": 1149670791,
      "center": {
        "lat": 12.9591135,
        "lon": 77.7328558
      },
      "tags": {
        "access": "private",
        "leisure": "swimming_pool",
        "location": "outdoor"
      }
    },
    {
      "type": "way",
      "id": 1149670793,
      "center": {
        "lat": 12.9627583,
        "lon": 77.7328142
      },
      "tags": {
        "amenity": "kindergarten",
        "barrier": "wall",
        "name": "Bright Beginnings Preschool"
      }
    },
    {
      "type": "way",
      "id": 1157152189,
      "center": {
        "lat": 12.955101,
        "lon": 77.7301509
      },
      "tags": {
        "building": "yes",
        "leisure": "sports_centre",
        "name": "Bangalore Sports Academy",
        "sport": "swimming;badminton;table_tennis"
      }
    },
    {
      "type": "way",
      "id": 1157152191,
      "center": {
        "lat": 12.9557675,
        "lon": 77.733214
      },
      "tags": {
        "leisure": "swimming_pool"
      }
    },
    {
      "type": "way",
      "id": 1157152193,
      "center": {
        "lat": 12.95511,
        "lon": 77.7335619
      },
      "tags": {
        "leisure": "swimming_pool"
      }
    },
    {
      "type": "way",
      "id": 1180957006,
      "center": {
        "lat": 12.9594728,
        "lon": 77.7307869
      },
      "tags": {
        "building": "sports_hall",
        "leisure": "sports_hall",
        "sport": "badminton;table_tennis"
      }
    },
    {
      "type": "way",
      "id": 1193373901,
      "center": {
        "lat": 12.9586638,
        "lon": 77.7285702
      },
      "tags": {
        "leisure": "pitch",
        "name": "Pure Stroke Tennis Academy",
        "sport": "tennis"
      }
    },
    {
      "type": "way",
      "id": 1193373906,
      "center": {
        "lat": 12.9556144,
        "lon": 77.723197
      },
      "tags": {
        "amenity": "fuel",
        "brand": "Bharat Petroleum",
        "brand:wikidata": "Q854826",
        "check_date": "2025-07-05",
        "compressed_air": "yes",
        "name": "Bharat Petroleum",
        "official_name": "Hindustan Petroleum"
      }
    },
    {
      "type": "way",
      "id": 1193373907,
      "center": {
        "lat": 12.9557543,
        "lon": 77.7302216
      },
      "tags": {
        "access": "customers",
        "amenity": "parking",
        "parking": "surface",
        "surface": "ground"
      }
    },
    {
      "type": "way",
      "id": 1193379654,
      "center": {
        "lat": 12.9523269,
        "lon": 77.724753
      },
      "tags": {
        "building": "yes",
        "description": "Swimming Academy with twin pools",
        "leisure": "sports_centre",
        "name": "Gurukul Swimming Academy",
        "sport": "swimming"
      }
    },
    {
      "type": "way",
      "id": 1193379668,
      "center": {
        "lat": 12.9547235,
        "lon": 77.7279621
      },
      "tags": {
        "leisure": "pitch",
        "sport": "tennis"
      }
    },
    {
      "type": "way",
      "id": 1193379675,
      "center": {
        "lat": 12.954717,
        "lon": 77.7280974
      },
      "tags": {
        "leisure": "pitch",
        "sport": "tennis"
      }
    },
    {
      "type": "way",
      "id": 1193379676,
      "center": {
        "lat": 12.9550745,
        "lon": 77.7281122
      },
      "tags": {
        "leisure": "pitch",
        "sport": "tennis"
      }
    },
    {
      "type": "way",
      "id": 1193379677,
      "center": {
        "lat": 12.9550778,
        "lon": 77.7279855
      },
      "tags": {
        "leisure": "pitch",
        "sport": "tennis"
      }
    },
    {
      "type": "way",
      "id": 1193379678,
      "center": {
        "lat": 12.9543755,
        "lon": 77.727951
      },
      "tags": {
        "leisure": "pitch",
        "sport": "tennis"
      }
    },
    {
      "type": "way",
      "id": 1193379679,
      "center": {
        "lat": 12.9543739,
        "lon": 77.728076
      },
      "tags": {
        "leisure": "pitch",
        "sport": "tennis"
      }
    },
    {
      "type": "way",
      "id": 1193379680,
      "center": {
        "lat": 12.9547266,
        "lon": 77.7285285
      },
      "tags": {
        "leisure": "pitch",
        "sport": "tennis"
      }
    },
    {
      "type": "way",
      "id": 1193379681,
      "center": {
        "lat": 12.954717,
        "lon": 77.7286568
      },
      "tags": {
        "leisure": "pitch",
        "sport": "tennis"
      }
    },
    {
      "type": "way",
      "id": 1193379682,
      "center": {
        "lat": 12.9547074,
        "lon": 77.7287917
      },
      "tags": {
        "leisure": "pitch",
        "sport": "tennis"
      }
    },
    {
      "type": "way",
      "id": 1193379683,
      "center": {
        "lat": 12.954701,
        "lon": 77.7289316
      },
      "tags": {
        "leisure": "pitch",
        "sport": "tennis"
      }
    },
    {
      "type": "way",
      "id": 1193379684,
      "center": {
        "lat": 12.9549319,
        "lon": 77.7287358
      },
      "tags": {
        "leisure": "pitch",
        "sport": "tennis"
      }
    },
    {
      "type": "way",
      "id": 1193379685,
      "center": {
        "lat": 12.9550489,
        "lon": 77.7287391
      },
      "tags": {
        "leisure": "pitch",
        "sport": "tennis"
      }
    },
    {
      "type": "way",
      "id": 1193379686,
      "center": {
        "lat": 12.9548355,
        "lon": 77.7287276
      },
      "tags": {
        "check_date": "2025-10-25",
        "leisure": "sports_centre",
        "name": "Tams Tennis Academy & Club"
      }
    },
    {
      "type": "way",
      "id": 1193379687,
      "center": {
        "lat": 12.9547212,
        "lon": 77.7280305
      },
      "tags": {
        "leisure": "sports_centre"
      }
    },
    {
      "type": "way",
      "id": 1208415943,
      "center": {
        "lat": 12.9563355,
        "lon": 77.7286752
      },
      "tags": {
        "access": "private",
        "amenity": "parking",
        "parking": "carports"
      }
    },
    {
      "type": "way",
      "id": 1208415944,
      "center": {
        "lat": 12.9563313,
        "lon": 77.7288384
      },
      "tags": {
        "access": "private",
        "amenity": "parking",
        "parking": "carports"
      }
    },
    {
      "type": "way",
      "id": 1208848216,
      "center": {
        "lat": 12.9615441,
        "lon": 77.7317487
      },
      "tags": {
        "access": "private",
        "amenity": "parking",
        "parking": "surface"
      }
    },
    {
      "type": "way",
      "id": 1208848217,
      "center": {
        "lat": 12.9615416,
        "lon": 77.7323004
      },
      "tags": {
        "access": "private",
        "amenity": "parking",
        "parking": "surface"
      }
    },
    {
      "type": "way",
      "id": 1233541853,
      "center": {
        "lat": 12.9595395,
        "lon": 77.730784
      },
      "tags": {
        "leisure": "sports_centre",
        "name": "Machaxi Play9 Sports Centre",
        "opening_hours": "Mo-Su 06:00-23:30",
        "phone": "9355082585"
      }
    },
    {
      "type": "way",
      "id": 1233541854,
      "center": {
        "lat": 12.9597107,
        "lon": 77.7307814
      },
      "tags": {
        "amenity": "parking",
        "parking": "surface"
      }
    },
    {
      "type": "way",
      "id": 1233541867,
      "center": {
        "lat": 12.9591671,
        "lon": 77.7269049
      },
      "tags": {
        "access": "customers",
        "amenity": "parking",
        "parking": "surface"
      }
    },
    {
      "type": "way",
      "id": 1236975225,
      "center": {
        "lat": 12.9566696,
        "lon": 77.7325467
      },
      "tags": {
        "amenity": "parking",
        "fee": "yes",
        "parking": "surface"
      }
    },
    {
      "type": "way",
      "id": 1241625385,
      "center": {
        "lat": 12.9572092,
        "lon": 77.7367052
      },
      "tags": {
        "access": "customers",
        "amenity": "parking",
        "parking": "surface"
      }
    },
    {
      "type": "way",
      "id": 1241625386,
      "center": {
        "lat": 12.9571328,
        "lon": 77.7362913
      },
      "tags": {
        "access": "customers",
        "amenity": "parking",
        "parking": "surface"
      }
    },
    {
      "type": "way",
      "id": 1263143678,
      "center": {
        "lat": 12.9520885,
        "lon": 77.7241556
      },
      "tags": {
        "access": "customers",
        "amenity": "parking",
        "parking": "surface"
      }
    },
    {
      "type": "way",
      "id": 1274389109,
      "center": {
        "lat": 12.9617966,
        "lon": 77.7270484
      },
      "tags": {
        "leisure": "playground",
        "name": "Dream Medows Childrens' Park"
      }
    },
    {
      "type": "way",
      "id": 1274389111,
      "center": {
        "lat": 12.9628676,
        "lon": 77.7282876
      },
      "tags": {
        "leisure": "park"
      }
    },
    {
      "type": "way",
      "id": 1274389112,
      "center": {
        "lat": 12.9625619,
        "lon": 77.7277545
      },
      "tags": {
        "leisure": "park"
      }
    },
    {
      "type": "way",
      "id": 1424708763,
      "center": {
        "lat": 12.9613717,
        "lon": 77.7320296
      },
      "tags": {
        "amenity": "restaurant",
        "contact:instagram": "thekaavu",
        "name": "Kaavu",
        "opening_hours": "Mo-Su 12:00-24:00",
        "outdoor_seating": "yes",
        "phone": "+919980308349",
        "wheelchair": "yes"
      }
    },
    {
      "type": "way",
      "id": 1425005514,
      "center": {
        "lat": 12.960135,
        "lon": 77.7302542
      },
      "tags": {
        "access": "private",
        "leisure": "pitch",
        "sport": "basketball"
      }
    },
    {
      "type": "way",
      "id": 1431535061,
      "center": {
        "lat": 12.9557111,
        "lon": 77.7219904
      },
      "tags": {
        "amenity": "place_of_worship",
        "building": "temple",
        "building:levels": "1",
        "religion": "hindu"
      }
    },
    {
      "type": "way",
      "id": 1443878787,
      "center": {
        "lat": 12.9576701,
        "lon": 77.7383915
      },
      "tags": {
        "access": "private",
        "hoops": "2",
        "leisure": "pitch",
        "sport": "basketball"
      }
    }
  ]
}