{
  "area_name": "Sidhartha Colony",
  "osm_id": 10295532281,
  "osm_type": "node",
  "place_type": "neighbourhood",
  "amenity_count": 323,
  "amenities": [
    {
      "type": "node",
      "id": 263227115,
      "lat": 12.9271867,
      "lon": 77.6266252,
      "tags": {
        "amenity": "post_office",
        "created_by": "Potlatch 0.10c",
        "name": "Koramangala 3rd Block",
        "name:kn": "ಕೋರಮಂಗಲ ೩ನೇ ಹಂತ"
      }
    },
    {
      "type": "node",
      "id": 363758557,
      "lat": 12.9298186,
      "lon": 77.6214543,
      "tags": {
        "addr:street": "Mahayogi Vemana Road",
        "amenity": "post_office",
        "name": "St Johns Post Office"
      }
    },
    {
      "type": "node",
      "id": 748866082,
      "lat": 12.9242835,
      "lon": 77.6181188,
      "tags": {
        "amenity": "place_of_worship",
        "check_date": "2024-04-03",
        "name": "Ayyappa Swamy Temple",
        "name:kn": "ಅಯ್ಯಪ್ಪಸ್ವಾಮಿ ದೇವಾಲಯ",
        "religion": "hindu",
        "source": "survey"
      }
    },
    {
      "type": "node",
      "id": 946653489,
      "lat": 12.9150732,
      "lon": 77.6197271,
      "tags": {
        "amenity": "place_of_worship",
        "name": "Vinayaka Temple",
        "name:kn": "ವಿನಾಯಕ ದೇವಸ್ಥಾನ",
        "religion": "hindu"
      }
    },
    {
      "type": "node",
      "id": 1470516028,
      "lat": 12.9258752,
      "lon": 77.6170606,
      "tags": {
        "addr:street": "Hosur Road",
        "amenity": "restaurant",
        "cuisine": "indian",
        "name": "MAS",
        "name:kn": "ಮಾಸ್"
      }
    },
    {
      "type": "node",
      "id": 1470532623,
      "lat": 12.9227705,
      "lon": 77.6142078,
      "tags": {
        "amenity": "restaurant",
        "cuisine": "indian",
        "name": "Tasty Restaurant",
        "name:kn": "ಟೆಸ್ಟಿ ರೆಸ್ಟೊರೆಂಟ್"
      }
    },
    {
      "type": "node",
      "id": 1470533215,
      "lat": 12.9232149,
      "lon": 77.612864,
      "tags": {
        "name": "Food City Super Market",
        "shop": "supermarket"
      }
    },
    {
      "type": "node",
      "id": 1470626482,
      "lat": 12.9198254,
      "lon": 77.6127816,
      "tags": {
        "amenity": "restaurant",
        "check_date": "2023-10-27",
        "name": "Sweet Revenge Cafe"
      }
    },
    {
      "type": "node",
      "id": 1471886877,
      "lat": 12.927128,
      "lon": 77.616183,
      "tags": {
        "name": "Kallada Travels",
        "shop": "travel_agency"
      }
    },
    {
      "type": "node",
      "id": 1471891610,
      "lat": 12.9254095,
      "lon": 77.6173387,
      "tags": {
        "addr:housenumber": "Hosur road",
        "addr:street": "Hosur Road",
        "amenity": "atm",
        "brand": "Federal Bank",
        "brand:wikidata": "Q2044983",
        "name": "Federal Bank",
        "operator": "Federal Bank",
        "operator:wikidata": "Q2044983"
      }
    },
    {
      "type": "node",
      "id": 1472015388,
      "lat": 12.927395,
      "lon": 77.621901,
      "tags": {
        "amenity": "bank",
        "brand": "State Bank of India",
        "brand:wikidata": "Q1340361",
        "brand:wikipedia": "en:State Bank of India",
        "name": "State Bank of India",
        "name:kn": "ಎಸ್ ಬಿ ಐ",
        "short_name": "SBI",
        "website": "https://www.sbi.co.in"
      }
    },
    {
      "type": "node",
      "id": 1472015890,
      "lat": 12.9273417,
      "lon": 77.6221301,
      "tags": {
        "amenity": "hospital",
        "healthcare": "hospital",
        "name": "Agarwal Eye Hospital"
      }
    },
    {
      "type": "node",
      "id": 1472248473,
      "lat": 12.9271081,
      "lon": 77.6226087,
      "tags": {
        "amenity": "pharmacy",
        "dispensing": "Vijayashree Diagnostics",
        "healthcare": "pharmacy",
        "name": "Vijaya Shree Diagnostics"
      }
    },
    {
      "type": "node",
      "id": 1472735174,
      "lat": 12.9257842,
      "lon": 77.6170828,
      "tags": {
        "addr:street": "Hosur road",
        "amenity": "hospital",
        "name": "Venkateshwara Hospital",
        "name:kn": "ವೆಂಕಟೆಶ್ವರ ಆಸ್ಪತ್ರೆ",
        "wheelchair": "yes"
      }
    },
    {
      "type": "node",
      "id": 1473082673,
      "lat": 12.9275755,
      "lon": 77.6160908,
      "tags": {
        "addr:housenumber": "15/95",
        "addr:street": "Hosur Road",
        "amenity": "pharmacy",
        "dispensing": "yes",
        "healthcare": "pharmacy",
        "name": "Balaji Medicals",
        "name:kn": "ಬಾಲಾಜಿ ಮೆಡಿಕಲ್"
      }
    },
    {
      "type": "node",
      "id": 1473298102,
      "lat": 12.9226146,
      "lon": 77.6225721,
      "tags": {
        "amenity": "marketplace",
        "check_date": "2025-04-09",
        "name": "Madiwala Market",
        "shop": "seafood"
      }
    },
    {
      "type": "node",
      "id": 1473298103,
      "lat": 12.9257639,
      "lon": 77.6290836,
      "tags": {
        "amenity": "place_of_worship",
        "denomination": "catholic",
        "name": "Seva Sadan",
        "religion": "christian"
      }
    },
    {
      "type": "node",
      "id": 1473821768,
      "lat": 12.925908,
      "lon": 77.61691,
      "tags": {
        "addr:street": "Hosur road",
        "name": "Atlas Travels",
        "shop": "travel_agency"
      }
    },
    {
      "type": "node",
      "id": 1474004437,
      "lat": 12.9317341,
      "lon": 77.6228586,
      "tags": {
        "addr:street": "Mahayogi Vemana Road",
        "amenity": "restaurant",
        "name": "Nandini Andra Style",
        "name:en": "Nandhana Andra style",
        "name:kn": "ನಂದಿನಿ ಆಂದ್ರ ಶೈಲಿ"
      }
    },
    {
      "type": "node",
      "id": 1474102127,
      "lat": 12.922039,
      "lon": 77.620302,
      "tags": {
        "addr:street": "Hosur road",
        "amenity": "restaurant",
        "name": "Ohris",
        "name:kn": "ಒರಿಸ್"
      }
    },
    {
      "type": "node",
      "id": 1474103046,
      "lat": 12.921876,
      "lon": 77.620493,
      "tags": {
        "addr:street": "Hosur road",
        "amenity": "restaurant",
        "name": "Silver Metro",
        "name:kn": "ಸಿಲ್ವರ್ ಮೆಟ್ರೊ"
      }
    },
    {
      "type": "node",
      "id": 1474317196,
      "lat": 12.9160081,
      "lon": 77.6193573,
      "tags": {
        "addr:district": "Bengaluru Rural",
        "addr:full": "No 72, 35Th Main 1st Cross 100 Ft Ring Road, Btm Layour, 2nd Stage Btm Layout",
        "addr:postcode": "560068",
        "addr:state": "Karnataka",
        "amenity": "hospital",
        "emergency": "yes",
        "healthcare": "hospital",
        "name": "Karanth Speciality Hospital",
        "source": "OpenGovernmentData"
      }
    },
    {
      "type": "node",
      "id": 1474321284,
      "lat": 12.9160306,
      "lon": 77.6171846,
      "tags": {
        "amenity": "place_of_worship",
        "check_date": "2023-12-05",
        "name": "Shree Karumariyamma Temple",
        "name:kn": "ಮಾರಿಯಮ್ಮ ದೇವಸ್ಥಾನ",
        "religion": "hindu"
      }
    },
    {
      "type": "node",
      "id": 1474343930,
      "lat": 12.9215958,
      "lon": 77.6202694,
      "tags": {
        "amenity": "fast_food",
        "brand": "McDonald's",
        "brand:pa": "ਮੈਕਡੋਨਲਡ’ਜ਼",
        "brand:ur": "مکڈونلڈز",
        "brand:wikidata": "Q38076",
        "brand:wikipedia": "en:McDonald's",
        "brand:wikipedia:pa": "ਮੈਕਡੋਨਲਡ’ਜ਼",
        "brand:wikipedia:ur": "مکڈونلڈز",
        "check_date": "2024-10-23",
        "cuisine": "burger",
        "name": "McDonald's",
        "name:pa": "ਮੈਕਡੋਨਲਡ’ਜ਼",
        "name:ur": "مکڈونلڈز",
        "payment:cash": "yes",
        "payment:mastercard": "yes",
        "payment:visa": "yes",
        "takeaway": "yes"
      }
    },
    {
      "type": "node",
      "id": 1474433302,
      "lat": 12.9167831,
      "lon": 77.6184931,
      "tags": {
        "name": "Preethi Bakery & Sweets",
        "shop": "bakery"
      }
    },
    {
      "type": "node",
      "id": 1474433836,
      "lat": 12.9164249,
      "lon": 77.6164112,
      "tags": {
        "amenity": "restaurant",
        "cuisine": "indian",
        "name": "Kataria Home Food",
        "name:kn": "ಕಟಾರಿಯ ಹೋಂ ಫುಡ್"
      }
    },
    {
      "type": "node",
      "id": 1474437818,
      "lat": 12.9162016,
      "lon": 77.6153313,
      "tags": {
        "name": "Priya Bakery",
        "shop": "bakery"
      }
    },
    {
      "type": "node",
      "id": 1474442618,
      "lat": 12.9256315,
      "lon": 77.6152769,
      "tags": {
        "addr:street": "Maruthi Nagar Main Road",
        "air_conditioning": "no",
        "amenity": "restaurant",
        "diet:vegetarian": "only",
        "indoor_seating": "yes",
        "name": "Shanti Sagar",
        "name:kn": "ಶಾಂತಿ ಸಾಗರ್",
        "outdoor_seating": "no",
        "smoking": "no"
      }
    },
    {
      "type": "node",
      "id": 1474444937,
      "lat": 12.9229035,
      "lon": 77.6134614,
      "tags": {
        "addr:street": "Chocolate Factory Road",
        "amenity": "restaurant",
        "cuisine": "indian",
        "name": "Aswini Hotel",
        "name:kn": "ಅಶ್ವಿನಿ ಹೋಟೆಲ್"
      }
    },
    {
      "type": "node",
      "id": 1474445664,
      "lat": 12.9231702,
      "lon": 77.6126406,
      "tags": {
        "addr:street": "Chocolate Factory Road",
        "amenity": "restaurant",
        "cuisine": "indian",
        "name": "Andra Curry Point",
        "name:kn": "ಆಂಧ್ರ ಕರ್ರಿ ಪಾಯಿಂಟ್"
      }
    },
    {
      "type": "node",
      "id": 1474446679,
      "lat": 12.9234682,
      "lon": 77.611734,
      "tags": {
        "name": "Bake O Fresh Bakery",
        "shop": "bakery"
      }
    },
    {
      "type": "node",
      "id": 1474819117,
      "lat": 12.921875,
      "lon": 77.620121,
      "tags": {
        "addr:street": "Hosur road",
        "amenity": "restaurant",
        "name": "Adigas",
        "name:kn": "ಅಡಿಗಾಸ್"
      }
    },
    {
      "type": "node",
      "id": 1615727952,
      "lat": 12.9311975,
      "lon": 77.6228542,
      "tags": {
        "amenity": "restaurant",
        "diet:vegetarian": "only",
        "name": "Utsav",
        "name:kn": "ಉತ್ಸವ್"
      }
    },
    {
      "type": "node",
      "id": 1615734800,
      "lat": 12.9256885,
      "lon": 77.6250527,
      "tags": {
        "amenity": "atm",
        "brand": "State Bank of India",
        "brand:wikidata": "Q1340361",
        "check_date": "2023-02-23",
        "name": "State Bank of India",
        "operator": "State Bank of India",
        "operator:wikidata": "Q1340361",
        "short_name": "SBI",
        "source": "I live here"
      }
    },
    {
      "type": "node",
      "id": 1615735026,
      "lat": 12.9266971,
      "lon": 77.6236359,
      "tags": {
        "brand": "Nilgiri's",
        "brand:wikidata": "Q17079567",
        "name": "Nilgiri's",
        "name:kn": "ನೀಲ್ಗಿರಿಸ್",
        "shop": "supermarket"
      }
    },
    {
      "type": "node",
      "id": 1738015015,
      "lat": 12.9206732,
      "lon": 77.6123589,
      "tags": {
        "amenity": "restaurant",
        "name": "Pongal Veg Cafe",
        "name:kn": "ಪೊಂಗಲ್ ವೆಜ್ ಕೆಫೆ"
      }
    },
    {
      "type": "node",
      "id": 1738015121,
      "lat": 12.9197873,
      "lon": 77.6122951,
      "tags": {
        "amenity": "fast_food",
        "brand": "Domino's",
        "brand:ks": "ڈومینوز",
        "brand:pa": "ਡੋਮੀਨੋਜ਼",
        "brand:ur": "ڈومینوز",
        "brand:wikidata": "Q839466",
        "brand:wikipedia": "en:Domino's Pizza",
        "cuisine": "pizza",
        "name": "Domino's",
        "name:kn": "ಡಾಮಿನೋಸ್",
        "name:ks": "ڈومینوز",
        "name:pa": "ਡੋਮੀਨੋਜ਼",
        "name:ur": "ڈومینوز",
        "takeaway": "yes"
      }
    },
    {
      "type": "node",
      "id": 1837440175,
      "lat": 12.9169487,
      "lon": 77.6194004,
      "tags": {
        "amenity": "college",
        "name": "Alliance Business School Admin Office"
      }
    },
    {
      "type": "node",
      "id": 2115432127,
      "lat": 12.9222964,
      "lon": 77.6194432,
      "tags": {
        "amenity": "place_of_worship",
        "name": "Anjaneya Temple",
        "name:kn": "ಆಂಜನೇಯ ದೇವಸ್ಥಾನ",
        "religion": "hindu"
      }
    },
    {
      "type": "node",
      "id": 2285466693,
      "lat": 12.9299126,
      "lon": 77.621549,
      "tags": {
        "amenity": "bank",
        "atm": "yes",
        "brand": "Bank of Baroda",
        "brand:wikidata": "Q2003797",
        "brand:wikipedia": "en:Bank of Baroda",
        "name": "Bank of Baroda",
        "name:en": "Bank of Baroda",
        "short_name": "BoB",
        "website": "http://www.bankofbaroda.com"
      }
    },
    {
      "type": "node",
      "id": 2531029517,
      "lat": 12.9303605,
      "lon": 77.6228604,
      "tags": {
        "amenity": "cafe",
        "brand": "Cafe Coffee Day",
        "brand:wikidata": "Q5017235",
        "cuisine": "coffee_shop",
        "name": "Cafe Coffee Day",
        "name:kn": "ಕಫೆ ಕಾಫಿ ಡೇ",
        "takeaway": "yes"
      }
    },
    {
      "type": "node",
      "id": 2542686704,
      "lat": 12.9305918,
      "lon": 77.6229717,
      "tags": {
        "amenity": "restaurant",
        "cuisine": "indian",
        "name": "Sagar Fast Food"
      }
    },
    {
      "type": "node",
      "id": 2542686705,
      "lat": 12.9308637,
      "lon": 77.623075,
      "tags": {
        "name": "Food Triangle",
        "shop": "supermarket"
      }
    },
    {
      "type": "node",
      "id": 2542702362,
      "lat": 12.9312166,
      "lon": 77.6233097,
      "tags": {
        "amenity": "pharmacy",
        "brand": "MedPlus",
        "brand:wikidata": "Q65684234",
        "healthcare": "pharmacy",
        "name": "MedPlus",
        "name:kn": "ಮೆಡ್‍ಪ್ಲಸ್"
      }
    },
    {
      "type": "node",
      "id": 2547432010,
      "lat": 12.9306861,
      "lon": 77.6230253,
      "tags": {
        "amenity": "bank",
        "atm": "yes",
        "brand": "Syndicate Bank",
        "brand:wikidata": "Q2004088",
        "name": "Syndicate Bank",
        "name:en": "Syndicate Bank",
        "name:kn": "ಸಿಂಡಿಕೇಟ್ ಬ್ಯಾಂಕ್",
        "website": "https://www.syndicatebank.in"
      }
    },
    {
      "type": "node",
      "id": 2694347072,
      "lat": 12.9250286,
      "lon": 77.6143616,
      "tags": {
        "addr:city": "Bangalore",
        "addr:postcode": "560068",
        "addr:street": "Maruthi Nagar Main Road",
        "amenity": "restaurant",
        "cuisine": "sweet_and_chat_shop",
        "name": "New Surya Sweets",
        "wheelchair": "limited"
      }
    },
    {
      "type": "node",
      "id": 2700229002,
      "lat": 12.9219827,
      "lon": 77.6200068,
      "tags": {
        "addr:city": "Bangalore",
        "addr:housenumber": "Total Mall",
        "addr:postcode": "560068",
        "addr:street": "Hosur Road",
        "air_conditioning": "yes",
        "alt_name": "Kentucky Fried Chicken",
        "alt_name:en": "Kentucky Fried Chicken",
        "alt_name:hi": "केंटुकी फ्राइड चिकन",
        "alt_name:pa": "ਕੈਂਟੁਕੀ ਫ੍ਰਾਈਡ ਚਿਕਨ",
        "alt_name:pnb": "کینٹکی فرائیڈ چکن",
        "alt_name:ur": "کینٹکی فرائیڈ چکن",
        "amenity": "fast_food",
        "brand": "KFC",
        "brand:en": "KFC",
        "brand:hi": "केएफसी",
        "brand:pa": "ਕੇਐਫਸੀ",
        "brand:pnb": "کے ایف سی",
        "brand:ur": "کے ایف سی",
        "brand:wikidata": "Q524757",
        "brand:wikipedia": "en:KFC",
        "brand:wikipedia:pa": "ਕੇਐਫਸੀ",
        "brand:wikipedia:ur": "کینٹکی فرائیڈ چکن",
        "check_date": "2024-10-23",
        "cuisine": "chicken",
        "diet:vegetarian": "yes",
        "indoor_seating": "yes",
        "name": "KFC",
        "name:en": "KFC",
        "name:hi": "केएफसी",
        "name:pa": "ਕੇਐਫਸੀ",
        "name:pnb": "کے ایف سی",
        "name:ur": "کے ایف سی",
        "opening_hours": "11:00-23:00",
        "outdoor_seating": "no",
        "payment:cash": "yes",
        "payment:mastercard": "yes",
        "payment:visa": "yes",
        "smoking": "no",
        "takeaway": "yes"
      }
    },
    {
      "type": "node",
      "id": 2700229003,
      "lat": 12.9308439,
      "lon": 77.6226408,
      "tags": {
        "addr:city": "Bangalore",
        "addr:housenumber": "BDA Complex",
        "addr:postcode": "560034",
        "addr:street": "Mahayogi Vemana Road",
        "amenity": "restaurant",
        "capacity": "16",
        "cuisine": "regional",
        "name": "Ambur Biriyani",
        "name:kn": "ಅಂಬುರ್ ಬಿರಿಯಾನಿ",
        "opening_hours": "10:00-19:00"
      }
    },
    {
      "type": "node",
      "id": 2700229004,
      "lat": 12.924596,
      "lon": 77.6184995,
      "tags": {
        "addr:city": "Bangalore",
        "addr:postcode": "560034",
        "addr:street": "Mahayogi Vemana Road",
        "amenity": "bank",
        "atm": "yes",
        "brand": "State Bank of India",
        "brand:wikidata": "Q1340361",
        "brand:wikipedia": "en:State Bank of India",
        "name": "State Bank of India",
        "name:kn": "ಭಾರತೀಯ ಸ್ಟೇಟ್ ಬ್ಯಾಂಕ್",
        "opening_hours": "24/7",
        "short_name": "SBI"
      }
    },
    {
      "type": "node",
      "id": 2746542444,
      "lat": 12.9249779,
      "lon": 77.6194667,
      "tags": {
        "addr:city": "Bangalore",
        "addr:postcode": "560068",
        "addr:street": "Mahayogi Vemana Road",
        "brand": "Fabindia",
        "brand:wikidata": "Q5427779",
        "clothes": "women;men",
        "name": "Fabindia",
        "organic": "yes",
        "payment:cash": "yes",
        "payment:debit_cards": "yes",
        "shop": "clothes",
        "website": "https://www.fabindia.com/"
      }
    },
    {
      "type": "node",
      "id": 2910639885,
      "lat": 12.9219037,
      "lon": 77.6203113,
      "tags": {
        "check_date": "2024-08-29",
        "name": "Market Square Value Mall",
        "shop": "mall",
        "source": "survey",
        "toilets": "yes"
      }
    },
    {
      "type": "node",
      "id": 3016052472,
      "lat": 12.9205278,
      "lon": 77.6131342,
      "tags": {
        "amenity": "atm",
        "brand": "IDBI Bank",
        "brand:wikidata": "Q3633485",
        "operator": "IDBI Bank",
        "operator:wikidata": "Q3633485",
        "short_name": "IDBI"
      }
    },
    {
      "type": "node",
      "id": 3024935599,
      "lat": 12.9166304,
      "lon": 77.6147547,
      "tags": {
        "amenity": "bank",
        "atm": "no",
        "brand": "State Bank of India",
        "brand:wikidata": "Q1340361",
        "brand:wikipedia": "en:State Bank of India",
        "name": "State Bank of India",
        "name:kn": "ಭಾರತೀಯ ಸ್ಟೇಟ್ ಬ್ಯಾಂಕ್",
        "operator": "State Bank of India",
        "short_name": "SBI",
        "source": "survey"
      }
    },
    {
      "type": "node",
      "id": 3024935601,
      "lat": 12.9165155,
      "lon": 77.6162625,
      "tags": {
        "amenity": "atm",
        "brand": "IDBI Bank",
        "brand:wikidata": "Q3633485",
        "operator": "IDBI Bank",
        "operator:wikidata": "Q3633485",
        "short_name": "IDBI"
      }
    },
    {
      "type": "node",
      "id": 3024935602,
      "lat": 12.9166044,
      "lon": 77.6148886,
      "tags": {
        "amenity": "atm",
        "brand": "Karur Vysya Bank",
        "brand:wikidata": "Q6373724",
        "check_date": "2023-12-04",
        "operator": "Karur Vysya Bank",
        "operator:wikidata": "Q6373724",
        "source": "survey"
      }
    },
    {
      "type": "node",
      "id": 3072178335,
      "lat": 12.9230428,
      "lon": 77.6144646,
      "tags": {
        "amenity": "atm",
        "brand": "Axis Bank",
        "brand:wikidata": "Q2003549",
        "name": "Axis Bank",
        "operator": "Axis Bank",
        "operator:wikidata": "Q2003549"
      }
    },
    {
      "type": "node",
      "id": 3304764045,
      "lat": 12.9263734,
      "lon": 77.6222522,
      "tags": {
        "name": "Map Sales Office",
        "shop": "books"
      }
    },
    {
      "type": "node",
      "id": 3490658866,
      "lat": 12.9252297,
      "lon": 77.6190939,
      "tags": {
        "addr:city": "Bangalore",
        "addr:postcode": "560068",
        "addr:street": "Mahayogi Vemana Road",
        "brand": "Fabindia",
        "brand:wikidata": "Q5427779",
        "name": "Fabindia",
        "operator": "Fabindia",
        "organic": "yes",
        "payment:cash": "yes",
        "payment:debit_cards": "yes",
        "shop": "clothes",
        "website": "https://www.fabindia.com/"
      }
    },
    {
      "type": "node",
      "id": 3490669799,
      "lat": 12.9253133,
      "lon": 77.6192763,
      "tags": {
        "name": "Cross Words",
        "shop": "books"
      }
    },
    {
      "type": "node",
      "id": 3496876622,
      "lat": 12.9166871,
      "lon": 77.6140512,
      "tags": {
        "brand": "Tata",
        "brand:wikidata": "Q188514",
        "name": "Prerana Motors",
        "shop": "car"
      }
    },
    {
      "type": "node",
      "id": 3507444982,
      "lat": 12.9254221,
      "lon": 77.6194529,
      "tags": {
        "amenity": "restaurant",
        "name": "Sanjeevanam"
      }
    },
    {
      "type": "node",
      "id": 3671375187,
      "lat": 12.919533,
      "lon": 77.6128458,
      "tags": {
        "amenity": "bar",
        "name": "Gangothri Bar"
      }
    },
    {
      "type": "node",
      "id": 3702280940,
      "lat": 12.9175685,
      "lon": 77.6143926,
      "tags": {
        "amenity": "college",
        "check_date": "2025-08-16",
        "name": "Iqra International School, Bangalore"
      }
    },
    {
      "type": "node",
      "id": 3922276284,
      "lat": 12.926326,
      "lon": 77.6171749,
      "tags": {
        "addr:street": "Hosur Road",
        "name": "Friends Travels",
        "operator": "G4 Kallada",
        "shop": "travel_agency"
      }
    },
    {
      "type": "node",
      "id": 4441888253,
      "lat": 12.9263384,
      "lon": 77.6168571,
      "tags": {
        "addr:city": "Bangalore",
        "addr:postcode": "560068",
        "addr:street": "Hosur Rd, Zuzuvadi, Madiwala, 1st Stage, BTM Layout",
        "amenity": "pharmacy",
        "name": "Trust Chemists & Druggists Ltd",
        "phone": "+91-80 2563 0022",
        "website": "https://www.trustpharmacy.co.in/"
      }
    },
    {
      "type": "node",
      "id": 4441961605,
      "lat": 12.9194712,
      "lon": 77.6130111,
      "tags": {
        "addr:city": "Bangaluru",
        "addr:district": "Bengaluru Urban",
        "addr:full": "No. 23/24, Om Complex, 20th Main, Gangothri Circle B.T.M. 1st Stage, Bangalore",
        "addr:housenumber": "2324",
        "addr:postcode": "560029",
        "addr:state": "Karnataka",
        "addr:street": "Om Complex, 20th Main, Gangotri Circle, BTM Layout, Madiwala",
        "amenity": "hospital",
        "name": "Life Care Hospital",
        "phone": "+91-80 2684 6677",
        "source": "OpenGovernmentData",
        "website": "https://lifecarehosp.com/"
      }
    },
    {
      "type": "node",
      "id": 4442516055,
      "lat": 12.9250105,
      "lon": 77.6278708,
      "tags": {
        "addr:city": "bangalore",
        "addr:housenumber": "365",
        "addr:postcode": "560034",
        "addr:street": "Sulochana Building, 1st Cross Rd, 3rd Block, Sarjapura Main Road, Koramangala",
        "amenity": "hospital",
        "name": "Gunasheela Hospitals",
        "phone": "+91-80 - 4646 2626",
        "website": "http://gunasheela.co.in/"
      }
    },
    {
      "type": "node",
      "id": 4445201629,
      "lat": 12.9238866,
      "lon": 77.6195995,
      "tags": {
        "addr:city": "Bangalore",
        "addr:housenumber": "1543",
        "addr:postcode": "560102",
        "addr:street": "Ground Floor, 19th Main, Opposite to BMTC bus depot, Sector 1, HSR Layout, 1st Sector, HSR Layout,",
        "amenity": "pharmacy",
        "healthcare": "pharmacy",
        "name": "Clumax Diagnostic Center",
        "phone": "080 6940 7777",
        "website": "https://www.medall.in/"
      }
    },
    {
      "type": "node",
      "id": 4446317428,
      "lat": 12.915785,
      "lon": 77.6194045,
      "tags": {
        "addr:city": "Bengaluru",
        "addr:postcode": "560068",
        "addr:street": "KAS Officers Colony, Stage 2, BTM 2nd Stage, Karnataka",
        "amenity": "clinic",
        "name": "Ismile Dental & Oral Health Care Centre",
        "phone": "+9198863 99310"
      }
    },
    {
      "type": "node",
      "id": 4446924573,
      "lat": 12.9242825,
      "lon": 77.6170883,
      "tags": {
        "addr:city": "Bangalore",
        "addr:housenumber": "#1478/1",
        "addr:postcode": "560029",
        "addr:street": "Hosur Road, Madiwala, Venkateshwara Layout, Sadduguntepalya",
        "amenity": "hospital",
        "emergency": "yes",
        "healthcare": "hospital",
        "name": "Surya Diagnostics and Health Services",
        "phone": "080 2552 6667",
        "source": "http://www.bangalorean.co.in/"
      }
    },
    {
      "type": "node",
      "id": 4447025891,
      "lat": 12.9301422,
      "lon": 77.6231727,
      "tags": {
        "addr:city": "Bangalore",
        "addr:housenumber": "677",
        "addr:postcode": "560034",
        "addr:street": "16th main, 3rd Block, Koramangala, Bengaluru",
        "amenity": "pharmacy",
        "healthcare": "pharmacy",
        "name": "Anand Diagnostic Laboratory",
        "phone": "080 2550 4207",
        "source": "justdial",
        "website": "https://www.anandlab.com/"
      }
    },
    {
      "type": "node",
      "id": 4457715091,
      "lat": 12.9301342,
      "lon": 77.6181807,
      "tags": {
        "amenity": "atm",
        "brand": "South Indian Bank",
        "brand:wikidata": "Q2044973",
        "name": "South Indian Bank",
        "opening_hours": "24/7",
        "operator": "South Indian Bank",
        "operator:wikidata": "Q2044973"
      }
    },
    {
      "type": "node",
      "id": 4457715192,
      "lat": 12.9301613,
      "lon": 77.618137,
      "tags": {
        "amenity": "atm",
        "brand": "Bank of Baroda",
        "brand:wikidata": "Q2003797",
        "name": "Bank of Baroda",
        "opening_hours": "24/7",
        "operator": "Bank of Baroda",
        "operator:wikidata": "Q2003797"
      }
    },
    {
      "type": "node",
      "id": 4457765089,
      "lat": 12.9304666,
      "lon": 77.6183064,
      "tags": {
        "amenity": "atm",
        "brand": "Federal Bank",
        "brand:wikidata": "Q2044983",
        "name": "Federal Bank",
        "opening_hours": "24/7",
        "operator": "Federal Bank",
        "operator:wikidata": "Q2044983"
      }
    },
    {
      "type": "node",
      "id": 4485323002,
      "lat": 12.9268723,
      "lon": 77.623687,
      "tags": {
        "name": "TVS",
        "name:en": "TVS",
        "shop": "car"
      }
    },
    {
      "type": "node",
      "id": 4487228564,
      "lat": 12.9268233,
      "lon": 77.6164922,
      "tags": {
        "addr:city": "Bangalore",
        "addr:housenumber": "2nd Floor, S V R Complex 89",
        "addr:postcode": "560068",
        "addr:street": "Hosur Road",
        "brand": "Puma",
        "brand:wikidata": "Q157064",
        "name": "Puma",
        "name:kn": "ಪೂಮ ಸ್ಟೋರ್",
        "phone": "094003 77812",
        "shop": "clothes",
        "website": "https://in.puma.com/"
      }
    },
    {
      "type": "node",
      "id": 4487928981,
      "lat": 12.9220614,
      "lon": 77.6138971,
      "tags": {
        "addr:city": "Banglore",
        "addr:postcode": "560029",
        "addr:street": "Maruthi Nagar Main Road",
        "name": "Rohit Sports",
        "phone": "096328 29008",
        "shop": "sports",
        "website": "https://badmintoncentral.com/"
      }
    },
    {
      "type": "node",
      "id": 4487955778,
      "lat": 12.9221959,
      "lon": 77.6139551,
      "tags": {
        "addr:city": "Banglore",
        "addr:postcode": "560029",
        "addr:street": "Opp KEB office, Maruthi Nagar, Btm 1st Stage",
        "name": "Rohit Sports",
        "opening_hours": "11:00-20:45",
        "phone": "+9196328 29008",
        "shop": "sports"
      }
    },
    {
      "type": "node",
      "id": 4487958594,
      "lat": 12.9243069,
      "lon": 77.6184898,
      "tags": {
        "addr:city": "Bangalore",
        "addr:housenumber": "4/1",
        "addr:postcode": "560068",
        "addr:street": "Sree Rama Arcade, Hosur Main Road, Opposite Ayyappa Temple, Madiwala",
        "leisure": "sports_centre",
        "name": "R.R Cycle Junction",
        "opening_hours": "11:00-21:00",
        "phone": "080 4123 2743",
        "wheelchair": "no"
      }
    },
    {
      "type": "node",
      "id": 4487963577,
      "lat": 12.9220015,
      "lon": 77.6193966,
      "tags": {
        "addr:city": "Bangalore",
        "addr:housenumber": "69/1",
        "addr:postcode": "560068",
        "addr:street": "HOSUR MAIN ROAD",
        "name": "R R International Bikes",
        "opening_hours": "11:00-20:00",
        "phone": "080 4128 0307",
        "shop": "sports"
      }
    },
    {
      "type": "node",
      "id": 4488094274,
      "lat": 12.9189208,
      "lon": 77.6165159,
      "tags": {
        "addr:city": "bangalore",
        "addr:housenumber": "10/2",
        "addr:postcode": "560078",
        "addr:street": "1st Floor, 24th Main Road, Sarakki Village, J.P Nagar 6th Phase, Opp. Crystal Castle Hotel",
        "name": "The Sport Mall",
        "opening_hours": "11:00-21:00",
        "phone": "080 4171 3131",
        "shop": "sports"
      }
    },
    {
      "type": "node",
      "id": 4488098708,
      "lat": 12.9187325,
      "lon": 77.6164166,
      "tags": {
        "addr:city": "bangalore",
        "addr:housenumber": "9",
        "addr:postcode": "560078",
        "addr:street": "31st Main Rd, Hosur Rd, 4th Phase,, Bommasandra Industrial Area Sub Layout,, J P Nagar",
        "name": "The Sport Mall",
        "opening_hours": "11:30-21:00",
        "phone": "080 2783 9161",
        "shop": "sports"
      }
    },
    {
      "type": "node",
      "id": 4488531162,
      "lat": 12.9217519,
      "lon": 77.6205602,
      "tags": {
        "addr:city": "Bangalore",
        "addr:housenumber": "No.24",
        "addr:postcode": "560068",
        "addr:street": "Madiwala Sarjapura Road",
        "beauty": "hair;spa",
        "brand": "Naturals",
        "brand:wikidata": "Q125728261",
        "name": "Naturals Unisex Salon And Spa",
        "opening_hours": "10:00-21:00",
        "phone": "+91-80-33100461",
        "shop": "beauty",
        "website": "https://naturals.in/"
      }
    },
    {
      "type": "node",
      "id": 4489695459,
      "lat": 12.9219965,
      "lon": 77.6139151,
      "tags": {
        "addr:city": "Banglore",
        "addr:housenumber": "05",
        "addr:postcode": "560068",
        "addr:street": "1st Main, 4th Cross, Maruthi Nagar, Near-RS High School, Madiwala, Chikka Madivala, 1st Stage, BTM Layout",
        "leisure": "sports_centre",
        "name": "The Fitness Zone",
        "opening_hours": "5:30-21:30",
        "phone": "+91-080 2553 3091",
        "sport": "gymnastics",
        "website": "https://www.thefitnesszone.in/"
      }
    },
    {
      "type": "node",
      "id": 4489714047,
      "lat": 12.9193503,
      "lon": 77.6158536,
      "tags": {
        "addr:city": "bangalore",
        "addr:housenumber": "152",
        "addr:postcode": "560078",
        "addr:street": "btm layout",
        "name": "Allday Supermarket",
        "phone": "(91)-80-42332422",
        "shop": "supermarket"
      }
    },
    {
      "type": "node",
      "id": 4489723447,
      "lat": 12.9228872,
      "lon": 77.6174916,
      "tags": {
        "addr:city": "Bangalore",
        "addr:housenumber": "15/2-1",
        "addr:postcode": "560068",
        "addr:street": "Hosur Road",
        "name": "Pick N Save The Wholesale Market",
        "phone": "(91)-9738439315",
        "shop": "supermarket"
      }
    },
    {
      "type": "node",
      "id": 4489756652,
      "lat": 12.926081,
      "lon": 77.6254085,
      "tags": {
        "addr:city": "Bengaluru",
        "addr:housenumber": "374",
        "addr:postcode": "560034",
        "addr:street": "Sarjapura Road",
        "addr:suburb": "Koramangala",
        "amenity": "cafe",
        "cuisine": "coffee_shop",
        "delivery": "yes",
        "name": "The Craftery by Subko, BLR",
        "operator": "Subko Coffee Roasters",
        "shop": "chocolate",
        "smoking": "separated",
        "takeaway": "yes",
        "toilets": "yes",
        "toilets:access": "customers",
        "website": "https://www.subko.coffee"
      }
    },
    {
      "type": "node",
      "id": 4489841339,
      "lat": 12.9216426,
      "lon": 77.6123398,
      "tags": {
        "addr:city": "Banglore",
        "addr:housenumber": "324",
        "addr:postcode": "560029",
        "addr:street": "7th Main Rd, Stage 2, BTM Layout",
        "leisure": "sports_centre",
        "name": "play on fitness bangalore",
        "opening_hours": "05:30-23:00",
        "phone": "9901089431",
        "sport": "gymnastics",
        "website": "playonfitness.in"
      }
    },
    {
      "type": "node",
      "id": 4563420692,
      "lat": 12.9308168,
      "lon": 77.6180438,
      "tags": {
        "addr:street": "Sarjapur Road",
        "name": "St.John's Utility Complex",
        "name:en": "St.John's Utility Complex",
        "name:hi": "St.John's Utility Complex",
        "opening_hours": "Mo-Su 08:00-00:00",
        "shop": "bakery"
      }
    },
    {
      "type": "node",
      "id": 4691598842,
      "lat": 12.9230869,
      "lon": 77.6192348,
      "tags": {
        "addr:city": "Bengaluru",
        "amenity": "place_of_worship",
        "name": "Shri Balamuri Mahaganapati Temple",
        "name:kn": "ಶ್ರೀ ಬಲಮುರಿ ಮಹಾಗಣಪತಿ ದೇವಾಲಯ",
        "religion": "hindu",
        "wheelchair": "no"
      }
    },
    {
      "type": "node",
      "id": 4691599027,
      "lat": 12.9244236,
      "lon": 77.6180355,
      "tags": {
        "access": "yes",
        "amenity": "toilets",
        "changing_table": "no",
        "fee": "yes"
      }
    },
    {
      "type": "node",
      "id": 4691599028,
      "lat": 12.9236536,
      "lon": 77.6184482,
      "tags": {
        "amenity": "restaurant"
      }
    },
    {
      "type": "node",
      "id": 4772955933,
      "lat": 12.9315321,
      "lon": 77.6228069,
      "tags": {
        "addr:street": "Mahayogi Vemana Road",
        "brand": "Maruti Suzuki",
        "brand:wikidata": "Q963718",
        "name": "Maruti Suzuki",
        "name:en": "Maruti Suzuki",
        "shop": "car"
      }
    },
    {
      "type": "node",
      "id": 4772964954,
      "lat": 12.9317704,
      "lon": 77.6228514,
      "tags": {
        "amenity": "bank",
        "branch": "4th Block",
        "brand": "ICICI Bank",
        "brand:wikidata": "Q1653258",
        "name": "ICICI Bank",
        "name:en": "ICICI Bank",
        "name:kn": "ಐಸಿಐಸಿಐ ಬ್ಯಾಂಕು",
        "short_name": "ICICI",
        "website": "https://www.icicibank.com"
      }
    },
    {
      "type": "node",
      "id": 4805856923,
      "lat": 12.9306558,
      "lon": 77.6179004,
      "tags": {
        "name": "St Johns opticians and hearing aid",
        "name:en": "St Johns opticians and hearing aid",
        "shop": "optician"
      }
    },
    {
      "type": "node",
      "id": 4805858621,
      "lat": 12.9307586,
      "lon": 77.6179314,
      "tags": {
        "amenity": "fast_food",
        "name": "ಬೇಕ್ಸ್ ಅಂಡ್ ಶೇಕ್ಸ್",
        "name:en": "Bakes and Shakes",
        "name:kn": "ಬೇಕ್ಸ್ ಅಂಡ್ ಶೇಕ್ಸ್"
      }
    },
    {
      "type": "node",
      "id": 4805858622,
      "lat": 12.9310212,
      "lon": 77.6180799,
      "tags": {
        "amenity": "fast_food",
        "name": "ಆಶೀರ್ವಾದ್ ರೆಸ್ಟೋರಂಟ್ - ಸಸ್ಯಾಹಾರಿ",
        "name:en": "Aashirwaad Restaurant - Pure Veg",
        "name:kn": "ಆಶೀರ್ವಾದ್ ರೆಸ್ಟೋರಂಟ್ - ಸಸ್ಯಾಹಾರಿ"
      }
    },
    {
      "type": "node",
      "id": 4805862921,
      "lat": 12.9308485,
      "lon": 77.6179719,
      "tags": {
        "amenity": "fast_food",
        "name": "ಕೋಸ್ಟಲ್ ಬೇ - ಮಾಂಸಾಹಾರಿ",
        "name:en": "Coastal Bay - Non Veg",
        "name:kn": "ಕೋಸ್ಟಲ್ ಬೇ - ಮಾಂಸಾಹಾರಿ"
      }
    },
    {
      "type": "node",
      "id": 5318002823,
      "lat": 12.9162768,
      "lon": 77.6151034,
      "tags": {
        "amenity": "atm",
        "brand": "Bank of Baroda",
        "brand:wikidata": "Q2003797",
        "name": "Vijaya Bank",
        "name:kn": "ವಿಜಯ ಬ್ಯಾಂಕು",
        "operator": "Bank of Baroda",
        "operator:wikidata": "Q2003797"
      }
    },
    {
      "type": "node",
      "id": 5349525423,
      "lat": 12.9272982,
      "lon": 77.6162285,
      "tags": {
        "name": "A1 Travels",
        "shop": "travel_agency"
      }
    },
    {
      "type": "node",
      "id": 5349525424,
      "lat": 12.9272747,
      "lon": 77.6161823,
      "tags": {
        "name": "Sleigh Travels",
        "shop": "travel_agency"
      }
    },
    {
      "type": "node",
      "id": 5349525426,
      "lat": 12.9273803,
      "lon": 77.6162014,
      "tags": {
        "amenity": "pharmacy",
        "name": "Kottakkal Aruna Vaidya Sala"
      }
    },
    {
      "type": "node",
      "id": 5349548321,
      "lat": 12.9272874,
      "lon": 77.6162004,
      "tags": {
        "name": "SRS Travels",
        "shop": "travel_agency"
      }
    },
    {
      "type": "node",
      "id": 5350089622,
      "lat": 12.9275651,
      "lon": 77.6161044,
      "tags": {
        "name": "Universal Tours and Travels",
        "shop": "travel_agency"
      }
    },
    {
      "type": "node",
      "id": 5350092822,
      "lat": 12.9272402,
      "lon": 77.6162757,
      "tags": {
        "amenity": "bar",
        "name": "Invitation Restaurant and Bar"
      }
    },
    {
      "type": "node",
      "id": 5350114421,
      "lat": 12.9273422,
      "lon": 77.6162245,
      "tags": {
        "name": "RP Wines",
        "shop": "wine"
      }
    },
    {
      "type": "node",
      "id": 5350114521,
      "lat": 12.9273813,
      "lon": 77.6161773,
      "tags": {
        "name": "KBS Travels",
        "shop": "travel_agency"
      }
    },
    {
      "type": "node",
      "id": 5350114522,
      "lat": 12.9273334,
      "lon": 77.6161904,
      "tags": {
        "name": "KPN Travels",
        "shop": "travel_agency"
      }
    },
    {
      "type": "node",
      "id": 5350114523,
      "lat": 12.9274733,
      "lon": 77.6161422,
      "tags": {
        "name": "Kalpana Travels",
        "shop": "travel_agency"
      }
    },
    {
      "type": "node",
      "id": 5350114524,
      "lat": 12.9274618,
      "lon": 77.6160372,
      "tags": {
        "name": "Sanchethi Jewellers and Bankers",
        "shop": "jewelry"
      }
    },
    {
      "type": "node",
      "id": 5395290526,
      "lat": 12.9192637,
      "lon": 77.6217728,
      "tags": {
        "amenity": "toilets",
        "check_date": "2025-05-31",
        "fee": "yes"
      }
    },
    {
      "type": "node",
      "id": 5402224025,
      "lat": 12.9196251,
      "lon": 77.6214314,
      "tags": {
        "addr:floor": "G",
        "addr:housenumber": "322/1",
        "addr:street": "Hosur Road",
        "check_date": "2025-05-31",
        "level": "0",
        "name": "Ashwini Bar & Restaurant",
        "shop": "alcohol",
        "wheelchair": "no"
      }
    },
    {
      "type": "node",
      "id": 5402302825,
      "lat": 12.9198713,
      "lon": 77.6212353,
      "tags": {
        "check_date": "2025-03-11",
        "name": "RKT Tours & Travels",
        "shop": "travel_agency",
        "source": "survey",
        "wheelchair": "limited"
      }
    },
    {
      "type": "node",
      "id": 5402307926,
      "lat": 12.9240637,
      "lon": 77.6186205,
      "tags": {
        "brand": "Metro",
        "brand:wikidata": "Q16938284",
        "name": "Metro",
        "shop": "shoes"
      }
    },
    {
      "type": "node",
      "id": 5800791044,
      "lat": 12.9242148,
      "lon": 77.6185133,
      "tags": {
        "name": "R R International Bikes",
        "service:bicycle:Bicycle_Sales_and_Service": "yes",
        "service:bicycle:repair": "yes",
        "shop": "bicycle"
      }
    },
    {
      "type": "node",
      "id": 5806406585,
      "lat": 12.9148051,
      "lon": 77.6168225,
      "tags": {
        "service:bicycle:pump": "yes",
        "service:bicycle:repair": "yes",
        "shop": "bicycle"
      }
    },
    {
      "type": "node",
      "id": 5983489045,
      "lat": 12.9296155,
      "lon": 77.615275,
      "tags": {
        "amenity": "clock",
        "check_date": "2021-12-04",
        "support": "pole"
      }
    },
    {
      "type": "node",
      "id": 6347011498,
      "lat": 12.9191035,
      "lon": 77.6147674,
      "tags": {
        "amenity": "school",
        "isced:level": "2",
        "name": "Budda HPS BTM layout",
        "name:kn": "ಬುದ್ಧ ಹಿರಿಯ ಪ್ರಾಥಮಿಕ ಶಾಲೆ ಬಿಟಿಎಂ ಲೇಔಟ್",
        "operator": "Department of Primary and Secondary Education",
        "operator:type": "government",
        "operator:wikidata": "Q111467381",
        "school": "primary"
      }
    },
    {
      "type": "node",
      "id": 6348996832,
      "lat": 12.9244734,
      "lon": 77.6185744,
      "tags": {
        "addr:place": "Madival",
        "amenity": "school",
        "isced:level": "2",
        "name": "Sri Sathyanarayana HPS Madival",
        "name:kn": "ಶ್ರೀ ಸತ್ಯನಾರಾಯಣ ಹಿರಿಯ ಪ್ರಾಥಮಿಕ ಶಾಲೆ ಮಡಿವಾಲ್",
        "operator": "Department of Primary and Secondary Education",
        "operator:type": "government",
        "operator:wikidata": "Q111467381",
        "school": "primary"
      }
    },
    {
      "type": "node",
      "id": 6349007390,
      "lat": 12.9221808,
      "lon": 77.619154,
      "tags": {
        "addr:place": "Madivala",
        "amenity": "school",
        "isced:level": "2",
        "name": "GUHPS Madivala",
        "name:kn": "ಸರ್ಕಾರಿ ಉರ್ದು ಹಿರಿಯ ಪ್ರಾಥಮಿಕ ಶಾಲೆ ಮಡಿವಾಳ",
        "operator": "Department of Primary and Secondary Education",
        "operator:type": "government",
        "operator:wikidata": "Q111467381",
        "school": "primary"
      }
    },
    {
      "type": "node",
      "id": 6408920610,
      "lat": 12.9190975,
      "lon": 77.6148608,
      "tags": {
        "addr:place": "BTM Layout",
        "amenity": "school",
        "isced:level": "3",
        "name": "Jnanadegula HPS, B T M Layout W No 65",
        "name:kn": "ಜ್ಞಾನದೇಗುಲ ಹಿರಿಯ ಪ್ರಾಥಮಿಕ ಶಾಲೆ ,ಬಿ.ಟಿ.ಎಂ ಲೇಔಟ್",
        "operator": "Private Un-Aided",
        "school": "Higher Secondary"
      }
    },
    {
      "type": "node",
      "id": 6408950782,
      "lat": 12.9219732,
      "lon": 77.6156311,
      "tags": {
        "addr:place": "BTM Layout",
        "amenity": "school",
        "isced:level": "3",
        "name": "Our Lady Fathima HPS, B T M Layout W No 65",
        "name:kn": "ಅವರ್ ಲೇಡಿ ಫಾತೀಮ ಹಿರಿಯ ಪ್ರಾಥಮಿಕ ಶಾಲೆ, ಬಿ.ಟಿ.ಎಂ ಲೇಔಟ್",
        "operator": "Private Un-Aided",
        "school": "Higher Secondary"
      }
    },
    {
      "type": "node",
      "id": 6534631815,
      "lat": 12.9245257,
      "lon": 77.6180091,
      "tags": {
        "addr:street": "Hosur Road",
        "amenity": "atm",
        "brand": "Citibank",
        "brand:wikidata": "Q857063",
        "cash_in": "no",
        "name": "Citibank",
        "name:kn": "ಸಿಟಿಬ್ಯಾಂಕ್",
        "operator": "Citibank",
        "operator:wikidata": "Q857063",
        "short_name": "Citi"
      }
    },
    {
      "type": "node",
      "id": 6536328458,
      "lat": 12.9289663,
      "lon": 77.6240375,
      "tags": {
        "addr:place": "Koramangala",
        "amenity": "school",
        "isced:level": "3",
        "name": "Dba Reddy Janasangha Koramangala",
        "name:kn": "ಡಿಬಿಎ ರೆಡ್ಡಿ ಜನಸಂಘ ಕೋರಮಂಗಲ",
        "operator": "Private Un-Aided",
        "school": "Higher Secondary"
      }
    },
    {
      "type": "node",
      "id": 6536815092,
      "lat": 12.9207827,
      "lon": 77.6197807,
      "tags": {
        "addr:place": "Madivala",
        "amenity": "school",
        "isced:level": "3",
        "name": "Kaveri Convent HPS Madivala",
        "name:kn": "ಕಾವೇರಿ ಕಾನ್ವೆಂಟ್ ಹಿರಿಯ ಪ್ರಾಥಮಿಕ ಶಾಲೆ ಮಡಿವಾಳ",
        "operator": "Private Un-Aided",
        "school": "Higher Secondary"
      }
    },
    {
      "type": "node",
      "id": 6536892723,
      "lat": 12.9196074,
      "lon": 77.6149457,
      "tags": {
        "addr:place": "Madiwala",
        "amenity": "school",
        "isced:level": "3",
        "name": "New Oxford HPS Jaibhimanagar, Madiwala",
        "name:kn": "ನ್ಯೂಆಕ್ಸ್ಫರ್ಡ್ ಹಿರಿಯ ಪ್ರಾಥಮಿಕ ಶಾಲೆ ಜೈಭಿಮನಗರ, ಮಡಿವಾಳ",
        "operator": "Private Un-Aided",
        "school": "Higher Secondary"
      }
    },
    {
      "type": "node",
      "id": 6536936978,
      "lat": 12.9233791,
      "lon": 77.618714,
      "tags": {
        "addr:place": "Madivala",
        "amenity": "school",
        "isced:level": "3",
        "name": "Khalsa Public LPS Madivala",
        "name:kn": "ಖಾಲ್ಸ ಪಬ್ಲಿಕ್ ಕಿರಿಯ ಪ್ರಾಥಮಿಕ ಶಾಲೆ ಮಡಿವಾಳ",
        "operator": "Private Un-Aided",
        "school": "Higher Secondary"
      }
    },
    {
      "type": "node",
      "id": 6536937302,
      "lat": 12.9246386,
      "lon": 77.6149532,
      "tags": {
        "addr:place": "Madivala",
        "amenity": "school",
        "isced:level": "2",
        "name": "Padmavathi HPS Madivala",
        "name:kn": "ಪದ್ಮಾವತಿ ಹಿರಿಯ ಪ್ರಾಥಮಿಕ ಶಾಲೆ ಮಡಿವಾಳ",
        "operator": "Private Un-Aided",
        "school": "primary"
      }
    },
    {
      "type": "node",
      "id": 6536947501,
      "lat": 12.9203588,
      "lon": 77.6173047,
      "tags": {
        "addr:place": "Madivala",
        "amenity": "school",
        "isced:level": "3",
        "name": "New Christ Convent HPS Madival",
        "name:kn": "ನ್ಯೂ ಕ್ರೈಸ್ಟ್ ಕಾನ್ವೆಂಟ್ ಹಿರಿಯ ಪ್ರಾಥಮಿಕ ಶಾಲೆ ಮಡಿವಾಳ,",
        "operator": "Private Un-Aided",
        "school": "Higher Secondary"
      }
    },
    {
      "type": "node",
      "id": 6536965027,
      "lat": 12.9237085,
      "lon": 77.6116936,
      "tags": {
        "addr:place": "Madivala",
        "amenity": "school",
        "isced": "3",
        "name": "A V S Convent, Madiwala",
        "name:kn": "ಎ.ವಿ.ಎಸ್ ಕಾನ್ವೆಂಟ್,ಮಡಿವಾಳ",
        "operator": "Private Un-Aided",
        "school": "Higher Secondary"
      }
    },
    {
      "type": "node",
      "id": 6702462302,
      "lat": 12.9210876,
      "lon": 77.6188414,
      "tags": {
        "addr:place": "Madiwala",
        "amenity": "school",
        "isced:level": "3",
        "name": "Krupanidhi HS",
        "name:kn": "ಕೃಪಾನಿಧಿ ಪ್ರೌಢಶಾಲೆ,ಮಡಿವಾಳ",
        "operator": "Private Un-Aided",
        "school": "Higher Secondary"
      }
    },
    {
      "type": "node",
      "id": 6702757188,
      "lat": 12.9245862,
      "lon": 77.6150716,
      "tags": {
        "addr:place": "Madiwala",
        "amenity": "school",
        "isced:level": "3",
        "name": "RS Madivala School",
        "name:kn": "ಆರ್.ಎಸ್. ಮಡಿವಾಳ",
        "operator": "Private -Aided",
        "school": "Higher Secondary"
      }
    },
    {
      "type": "node",
      "id": 6734448697,
      "lat": 12.9248675,
      "lon": 77.6292823,
      "tags": {
        "addr:place": "Eegipura",
        "amenity": "school",
        "isced:level": "3",
        "name": "St Frances Icse School Koramangala",
        "name:kn": "ಸೇಂಟ್ ಫ್ರಾನ್ಸಿಸ್ ಐ.ಸಿ.ಎಸ್.ಇ. ಕೋರಮಂಗಲ, ಈಜಿಪುರ",
        "operator": "Private Un-Aided",
        "school": "Private Un-Aided"
      }
    },
    {
      "type": "node",
      "id": 6882713314,
      "lat": 12.9292434,
      "lon": 77.6201463,
      "tags": {
        "addr:city": "Bengaluru",
        "addr:district": "BENGALURU URBAN",
        "addr:full": "Sarjapur Road, Bengaluru",
        "addr:state": "Karnataka",
        "amenity": "blood_bank",
        "contact:mobile": "9591990365",
        "contact:phone": "8022065045",
        "name": "St. John ' Medical College Blood Bank",
        "opening_hours": "24/7",
        "operator:type": "private",
        "source": "OpenGovernmentData",
        "website": "https://stjohns.in/"
      }
    },
    {
      "type": "node",
      "id": 6938758526,
      "lat": 12.926471,
      "lon": 77.6167399,
      "tags": {
        "addr:district": "Bengaluru Urban",
        "addr:full": "#86 Hosur Main Road, Madivala",
        "addr:postcode": "560068",
        "addr:state": "Karnataka",
        "amenity": "hospital",
        "name": "Sri Venkateshwara Hospitals",
        "operator:type": "private",
        "source": "OpenGovernmentData",
        "website": "http://dpal.kar.nic.in/Kanunu%20padakosha%20PDF%20Files/Recognised%20Hospitals.pdf"
      }
    },
    {
      "type": "node",
      "id": 6938790393,
      "lat": 12.924624,
      "lon": 77.6170966,
      "tags": {
        "addr:district": "Bengaluru Rural",
        "addr:full": "No. 38/2, 2nd Main Road, Madiwala New Extension",
        "addr:postcode": "560068",
        "addr:state": "Karnataka",
        "amenity": "hospital",
        "name": "Varalakshmi Hospital",
        "name:kn": "ವರಲಕ್ಷ್ಮಿ ಆಸ್ಪತ್ರೆ",
        "source": "OpenGovernmentData"
      }
    },
    {
      "type": "node",
      "id": 6939350511,
      "lat": 12.9314314,
      "lon": 77.6233582,
      "tags": {
        "addr:district": "Bengaluru Urban",
        "addr:full": "81, 7Th Cross 4Th Block, Near Bda Complex Koramangala",
        "addr:postcode": "560034",
        "addr:state": "Karnataka",
        "amenity": "clinic",
        "healthcare": "clinic",
        "name": "Kamala Nethralaya",
        "source": "OpenGovernmentData"
      }
    },
    {
      "type": "node",
      "id": 6939418124,
      "lat": 12.9251521,
      "lon": 77.6245022,
      "tags": {
        "addr:district": "Bengaluru Urban",
        "addr:full": "CGHS Dispensary No.7, Koramangala, CPWDQuarters, Koramangala",
        "addr:postcode": "560034",
        "addr:state": "Karnataka",
        "amenity": "clinic",
        "health_facility:type": "dispensary",
        "healthcare": "centre",
        "name": "CGHS Dispensary No.7",
        "operator:type": "government",
        "source": "OpenGovernmentData",
        "website": "http://nb.bsf.gov.in/CGHS%20DIspenseries.pdf"
      }
    },
    {
      "type": "node",
      "id": 6944161560,
      "lat": 12.9273667,
      "lon": 77.6160046,
      "tags": {
        "addr:district": "Bengaluru Rural",
        "addr:full": "Maruthi Nagar, 1st Main, Madiwala",
        "addr:postcode": "560068",
        "addr:state": "Karnataka",
        "amenity": "clinic",
        "name": "City Clinic",
        "source": "OpenGovernmentData"
      }
    },
    {
      "type": "node",
      "id": 6944290484,
      "lat": 12.9236768,
      "lon": 77.6193111,
      "tags": {
        "addr:district": "Bengaluru Rural",
        "addr:full": "4/1, Road Cross,Hosur Main Road, Madiwala",
        "addr:postcode": "560068",
        "addr:state": "Karnataka",
        "amenity": "clinic",
        "healthcare": "clinic",
        "name": "Kaveri Speciality Hospital",
        "source": "OpenGovernmentData"
      }
    },
    {
      "type": "node",
      "id": 6948201258,
      "lat": 12.9208307,
      "lon": 77.6201778,
      "tags": {
        "addr:district": "Bengaluru Rural",
        "addr:full": "321/2A, Hosur Road, Madiwala, Opposite Madiwala Police Station",
        "addr:postcode": "560068",
        "addr:state": "Karnataka",
        "amenity": "clinic",
        "name": "S.M.S. Nursing Home",
        "source": "OpenGovernmentData"
      }
    },
    {
      "type": "node",
      "id": 7036015201,
      "lat": 12.9232415,
      "lon": 77.6191958,
      "tags": {
        "amenity": "bank",
        "branch": "Madiwala Branch",
        "brand": "Canara Bank",
        "brand:en": "Canara Bank",
        "brand:hi": "केनरा बैंक",
        "brand:kn": "ಕೆನರಾ ಬ್ಯಾಂಕ್",
        "brand:pa": "ਕੇਨਰਾ ਬੈਂਕ",
        "brand:pnb": "کینرا بینک",
        "brand:ur": "کینرا بینک",
        "brand:wikidata": "Q2003777",
        "brand:wikipedia": "en:Canara Bank",
        "brand:wikipedia:pa": "ਕੇਨਰਾ ਬੈਂਕ",
        "name": "Canara Bank",
        "name:en": "Canara Bank",
        "name:hi": "केनरा बैंक",
        "name:kn": "ಕೆನರಾ ಬ್ಯಾಂಕ್",
        "name:pa": "ਕੇਨਰਾ ਬੈਂਕ",
        "name:pnb": "کینرا بینک",
        "name:ur": "کینرا بینک"
      }
    },
    {
      "type": "node",
      "id": 7036023470,
      "lat": 12.9228918,
      "lon": 77.6194018,
      "tags": {
        "addr:city": "Bengaluru",
        "brand": "TVS",
        "brand:wikidata": "Q3300084",
        "name": "Indian TVS",
        "shop": "motorcycle"
      }
    },
    {
      "type": "node",
      "id": 7164319496,
      "lat": 12.9209511,
      "lon": 77.620137,
      "tags": {
        "amenity": "restaurant",
        "check_date": "2024-08-29",
        "indoor_seating": "yes",
        "name": "Mayur Andra Style Restaraunt",
        "outdoor_seating": "no",
        "source": "survey"
      }
    },
    {
      "type": "node",
      "id": 7164323510,
      "lat": 12.9216966,
      "lon": 77.620318,
      "tags": {
        "check_date": "2024-08-29",
        "name": "Davanam Sarovar Portico Suites",
        "shop": "mall",
        "source": "survey"
      }
    },
    {
      "type": "node",
      "id": 7164324438,
      "lat": 12.9198384,
      "lon": 77.6212804,
      "tags": {
        "check_date": "2025-03-11",
        "name": "SRS Travels",
        "shop": "travel_agency",
        "source": "survey",
        "wheelchair": "no"
      }
    },
    {
      "type": "node",
      "id": 7164330973,
      "lat": 12.9159432,
      "lon": 77.6192416,
      "tags": {
        "amenity": "bank",
        "brand": "HDFC Bank",
        "brand:wikidata": "Q631047",
        "name": "HDFC Bank",
        "short_name": "HDFC"
      }
    },
    {
      "type": "node",
      "id": 7164351231,
      "lat": 12.9162158,
      "lon": 77.6154165,
      "tags": {
        "amenity": "pharmacy",
        "name": "Sudharsan Medicals"
      }
    },
    {
      "type": "node",
      "id": 7294283054,
      "lat": 12.9180556,
      "lon": 77.6248053,
      "tags": {
        "name": "Mahindra",
        "name:kn": "ಮಹಿಂದ್ರ",
        "shop": "motorcycle"
      }
    },
    {
      "type": "node",
      "id": 7294283058,
      "lat": 12.9180295,
      "lon": 77.624584,
      "tags": {
        "addr:city": "Bengaluru",
        "addr:country": "IN",
        "addr:postcode": "560102",
        "addr:street": "Outer Ring Road",
        "addr:suburb": "HSR Layout",
        "amenity": "coworking_space",
        "fee": "yes",
        "name": "BHIVE Workspace",
        "office": "coworking",
        "operator": "BHIVE Workspace",
        "website": "https://bhiveworkspace.com"
      }
    },
    {
      "type": "node",
      "id": 7294283059,
      "lat": 12.9179053,
      "lon": 77.6242849,
      "tags": {
        "addr:city": "Bengaluru",
        "addr:country": "IN",
        "addr:housenumber": "192",
        "addr:postcode": "560102",
        "addr:street": "Outer Ring Road",
        "addr:suburb": "HSR Layout",
        "brand": "Comfold",
        "name": "Comfold",
        "operator": "Comfold",
        "shop": "furniture",
        "website": "https://comfold.com"
      }
    },
    {
      "type": "node",
      "id": 7294299935,
      "lat": 12.9179105,
      "lon": 77.6238799,
      "tags": {
        "amenity": "restaurant",
        "indoor_seating": "yes",
        "name": "Lounge 189",
        "outdoor_seating": "no"
      }
    },
    {
      "type": "node",
      "id": 7294299936,
      "lat": 12.9178543,
      "lon": 77.6241066,
      "tags": {
        "amenity": "restaurant",
        "name": "The Aroma"
      }
    },
    {
      "type": "node",
      "id": 7294299937,
      "lat": 12.9178269,
      "lon": 77.6237981,
      "tags": {
        "amenity": "cafe",
        "name": "Cafe Awesome"
      }
    },
    {
      "type": "node",
      "id": 7294299976,
      "lat": 12.9220738,
      "lon": 77.6195025,
      "tags": {
        "amenity": "bank",
        "atm": "yes",
        "brand": "HDFC Bank",
        "brand:wikidata": "Q631047",
        "name": "HDFC Bank",
        "operator": "HDFC Bank",
        "short_name": "HDFC"
      }
    },
    {
      "type": "node",
      "id": 7514681681,
      "lat": 12.9240924,
      "lon": 77.6177848,
      "tags": {
        "addr:city": "Bengaluru",
        "addr:postcode": "560068",
        "amenity": "hospital",
        "healthcare": "hospital",
        "name": "Chamundi Hi Tech Hospital"
      }
    },
    {
      "type": "node",
      "id": 7579924716,
      "lat": 12.9172038,
      "lon": 77.6149488,
      "tags": {
        "addr:district": "Bengaluru Urban",
        "addr:full": "BTM, Bengaluru",
        "addr:postcode": "560068",
        "addr:state": "Karnataka",
        "amenity": "clinic",
        "name": "Vitiligo Clinic",
        "source": "Local Knowledge"
      }
    },
    {
      "type": "node",
      "id": 7579924738,
      "lat": 12.9239445,
      "lon": 77.6198634,
      "tags": {
        "addr:district": "Bengaluru Urban",
        "addr:full": "Sidharata Colony, Santhosapuram, Koramangala, Bengaluru",
        "addr:postcode": "560034",
        "addr:state": "Karnataka",
        "amenity": "hospital",
        "healthcare": "hospital",
        "name": "Devi Hospital",
        "source": "Local Knowledge"
      }
    },
    {
      "type": "node",
      "id": 7579924779,
      "lat": 12.923857,
      "lon": 77.611355,
      "tags": {
        "addr:district": "Bengaluru Urban",
        "addr:full": "Taverekere, Bengaluru",
        "addr:postcode": "560029",
        "addr:state": "Karnataka",
        "amenity": "hospital",
        "name": "Spurthy Hospital",
        "source": "Local Knowledge"
      }
    },
    {
      "type": "node",
      "id": 8428403226,
      "lat": 12.9305937,
      "lon": 77.6186159,
      "tags": {
        "amenity": "hospital",
        "healthcare": "hospital",
        "name": "St. Johns hospital Emergency ward"
      }
    },
    {
      "type": "node",
      "id": 8948240441,
      "lat": 12.9286787,
      "lon": 77.6242715,
      "tags": {
        "shop": "car"
      }
    },
    {
      "type": "node",
      "id": 9858668211,
      "lat": 12.9163445,
      "lon": 77.6239148,
      "tags": {
        "name": "Furlenco",
        "shop": "furniture",
        "website": "https://www.furlenco.com/"
      }
    },
    {
      "type": "node",
      "id": 10238264073,
      "lat": 12.9300329,
      "lon": 77.6210019,
      "tags": {
        "amenity": "theatre",
        "name": "Pope Paul VI Auditorium"
      }
    },
    {
      "type": "node",
      "id": 10295532229,
      "lat": 12.9255952,
      "lon": 77.6286368,
      "tags": {
        "amenity": "bicycle_parking",
        "bicycle_parking": "rack"
      }
    },
    {
      "type": "node",
      "id": 10295532236,
      "lat": 12.9240463,
      "lon": 77.6271871,
      "tags": {
        "amenity": "fast_food",
        "brand": "Indira Canteen",
        "brand:wikidata": "Q36164828",
        "cuisine": "south_indian",
        "name": "Indira Canteen",
        "operator": "BBMP",
        "takeaway": "yes"
      }
    },
    {
      "type": "node",
      "id": 10295532250,
      "lat": 12.9259481,
      "lon": 77.6239108,
      "tags": {
        "amenity": "bank",
        "atm": "yes",
        "brand": "Bank of India",
        "brand:wikidata": "Q2004439",
        "name": "Bank of India",
        "operator": "Bank of India"
      }
    },
    {
      "type": "node",
      "id": 10542358702,
      "lat": 12.9198427,
      "lon": 77.6215737,
      "tags": {
        "air_conditioning": "no",
        "check_date": "2024-07-28",
        "internet_access": "no",
        "name": "Royal Travels",
        "shop": "travel_agency",
        "toilets": "yes",
        "toilets:wheelchair": "no",
        "wheelchair": "no"
      }
    },
    {
      "type": "node",
      "id": 10542358703,
      "lat": 12.9198493,
      "lon": 77.6212496,
      "tags": {
        "check_date": "2025-03-11",
        "name": "Patel Condiments",
        "payment:credit_cards": "no",
        "payment:debit_cards": "no",
        "shop": "convenience",
        "source": "survey",
        "wheelchair": "no"
      }
    },
    {
      "type": "node",
      "id": 10542358705,
      "lat": 12.9198425,
      "lon": 77.6214533,
      "tags": {
        "check_date": "2025-03-11",
        "name": "Greenline Travels",
        "shop": "travel_agency",
        "source": "survey",
        "wheelchair": "no"
      }
    },
    {
      "type": "node",
      "id": 10688121233,
      "lat": 12.9263325,
      "lon": 77.6168052,
      "tags": {
        "amenity": "atm",
        "brand": "Citibank",
        "brand:wikidata": "Q857063",
        "check_date": "2023-06-30",
        "name": "Citibank",
        "operator": "Citibank",
        "operator:wikidata": "Q857063",
        "short_name": "Citi"
      }
    },
    {
      "type": "node",
      "id": 10688121234,
      "lat": 12.9263464,
      "lon": 77.6167941,
      "tags": {
        "amenity": "atm",
        "brand": "Federal Bank",
        "brand:wikidata": "Q2044983",
        "check_date": "2023-06-30",
        "name": "Federal Bank",
        "operator": "Federal Bank",
        "operator:wikidata": "Q2044983"
      }
    },
    {
      "type": "node",
      "id": 10763275239,
      "lat": 12.9154635,
      "lon": 77.6158909,
      "tags": {
        "amenity": "charging_station",
        "fee": "yes",
        "name": "Magenta ChargeGrid Charging Station",
        "operator": "Magenta Group"
      }
    },
    {
      "type": "node",
      "id": 10872824029,
      "lat": 12.9160204,
      "lon": 77.6198418,
      "tags": {
        "amenity": "bank",
        "atm": "yes",
        "brand": "Bank of Baroda",
        "brand:wikidata": "Q2003797",
        "name": "Bank of Baroda",
        "operator": "Bank of Baroda"
      }
    },
    {
      "type": "node",
      "id": 10895997184,
      "lat": 12.9256704,
      "lon": 77.625097,
      "tags": {
        "shop": "greengrocer"
      }
    },
    {
      "type": "node",
      "id": 11106992211,
      "lat": 12.9304908,
      "lon": 77.6229826,
      "tags": {
        "name": "Kanti Sweets",
        "shop": "confectionery"
      }
    },
    {
      "type": "node",
      "id": 11153217748,
      "lat": 12.9309855,
      "lon": 77.6163564,
      "tags": {
        "access": "permissive",
        "amenity": "parking_entrance",
        "parking": "underground"
      }
    },
    {
      "type": "node",
      "id": 11164777497,
      "lat": 12.9165851,
      "lon": 77.6195826,
      "tags": {
        "amenity": "bank",
        "brand": "Axis Bank",
        "brand:wikidata": "Q2003549",
        "check_date": "2023-12-04",
        "name": "Axis Bank",
        "name:kn": "ಆಕ್ಸಿಸ್ ಬ್ಯಾಂಕ್"
      }
    },
    {
      "type": "node",
      "id": 11309805442,
      "lat": 12.9159084,
      "lon": 77.6160669,
      "tags": {
        "amenity": "bar",
        "check_date": "2023-11-03",
        "name": "Stone Street Kitchen and Bar"
      }
    },
    {
      "type": "node",
      "id": 11309805444,
      "lat": 12.9162072,
      "lon": 77.6153538,
      "tags": {
        "check_date": "2023-11-03",
        "name": "Sri Eye Vision Care",
        "shop": "optician"
      }
    },
    {
      "type": "node",
      "id": 11380741681,
      "lat": 12.9163051,
      "lon": 77.6145829,
      "tags": {
        "check_date": "2023-11-28",
        "name": "tumbledry",
        "shop": "dry_cleaning"
      }
    },
    {
      "type": "node",
      "id": 11380741682,
      "lat": 12.9162969,
      "lon": 77.6145218,
      "tags": {
        "check_date": "2023-11-28",
        "name": "Machu Tattoo",
        "shop": "tattoo"
      }
    },
    {
      "type": "node",
      "id": 11380741683,
      "lat": 12.916284,
      "lon": 77.6146717,
      "tags": {
        "check_date": "2023-12-06",
        "name": "Laptop Zone",
        "shop": "computer"
      }
    },
    {
      "type": "node",
      "id": 11380741684,
      "lat": 12.9162502,
      "lon": 77.6148751,
      "tags": {
        "check_date": "2023-11-28",
        "name": "yf decor",
        "shop": "interior_decoration"
      }
    },
    {
      "type": "node",
      "id": 11380741685,
      "lat": 12.9159436,
      "lon": 77.6187925,
      "tags": {
        "check_date": "2023-11-28",
        "name": "Bengali Fun Foods",
        "shop": "confectionery"
      }
    },
    {
      "type": "node",
      "id": 11383003767,
      "lat": 12.9162177,
      "lon": 77.6153185,
      "tags": {
        "amenity": "fast_food",
        "check_date": "2023-11-29",
        "name": "Buddies Food Corner"
      }
    },
    {
      "type": "node",
      "id": 11383647393,
      "lat": 12.9157908,
      "lon": 77.6164119,
      "tags": {
        "amenity": "bench",
        "backrest": "no",
        "material": "stone",
        "seats": "2"
      }
    },
    {
      "type": "node",
      "id": 11383647394,
      "lat": 12.915783,
      "lon": 77.6164541,
      "tags": {
        "amenity": "bench",
        "backrest": "no",
        "material": "stone",
        "seats": "2"
      }
    },
    {
      "type": "node",
      "id": 11383647395,
      "lat": 12.9157872,
      "lon": 77.6163565,
      "tags": {
        "amenity": "bench",
        "backrest": "no",
        "material": "stone",
        "seats": "2"
      }
    },
    {
      "type": "node",
      "id": 11383647396,
      "lat": 12.9157842,
      "lon": 77.6163179,
      "tags": {
        "amenity": "bench",
        "backrest": "no",
        "material": "stone",
        "seats": "2"
      }
    },
    {
      "type": "node",
      "id": 11383647397,
      "lat": 12.9157878,
      "lon": 77.6162616,
      "tags": {
        "amenity": "bench",
        "backrest": "no",
        "material": "stone",
        "seats": "2"
      }
    },
    {
      "type": "node",
      "id": 11383647398,
      "lat": 12.9157875,
      "lon": 77.6162145,
      "tags": {
        "amenity": "bench",
        "backrest": "no",
        "material": "stone",
        "seats": "2"
      }
    },
    {
      "type": "node",
      "id": 11383647399,
      "lat": 12.9162505,
      "lon": 77.6150687,
      "tags": {
        "check_date": "2023-11-29",
        "name": "Paperkraft",
        "shop": "stationery"
      }
    },
    {
      "type": "node",
      "id": 11393299744,
      "lat": 12.9166127,
      "lon": 77.6150722,
      "tags": {
        "amenity": "bank",
        "brand": "Bank of Baroda",
        "brand:wikidata": "Q2003797",
        "check_date": "2023-12-04",
        "name": "Bank of Baroda",
        "name:kn": "ಬ್ಯಾಂಕ್ ಆಫ್ ಬರೋಡ"
      }
    },
    {
      "type": "node",
      "id": 11393299745,
      "lat": 12.9166989,
      "lon": 77.6150867,
      "tags": {
        "amenity": "fast_food",
        "check_date": "2025-08-15",
        "diet:vegetarian": "yes",
        "name": "Shri Vishnu Park Veg"
      }
    },
    {
      "type": "node",
      "id": 11393376512,
      "lat": 12.9164133,
      "lon": 77.6166166,
      "tags": {
        "amenity": "fast_food",
        "check_date": "2023-12-04",
        "name": "Muthanna Military Hotel"
      }
    },
    {
      "type": "node",
      "id": 11395345930,
      "lat": 12.9162407,
      "lon": 77.6151082,
      "tags": {
        "check_date": "2023-12-05",
        "name": "SRP Holidays",
        "shop": "travel_agency"
      }
    },
    {
      "type": "node",
      "id": 11395345931,
      "lat": 12.9164103,
      "lon": 77.6165179,
      "tags": {
        "check_date": "2023-12-05",
        "name": "ZN Hardware Solutions",
        "shop": "paint"
      }
    },
    {
      "type": "node",
      "id": 11395345932,
      "lat": 12.9164076,
      "lon": 77.6167809,
      "tags": {
        "check_date": "2023-12-05",
        "shop": "hardware"
      }
    },
    {
      "type": "node",
      "id": 11395407771,
      "lat": 12.9164764,
      "lon": 77.6175785,
      "tags": {
        "check_date": "2023-12-05",
        "name": "Sri Lakshmi Bakery",
        "shop": "kiosk"
      }
    },
    {
      "type": "node",
      "id": 11395407772,
      "lat": 12.9164639,
      "lon": 77.6175375,
      "tags": {
        "check_date": "2023-12-05",
        "name": "Balaji Helmet Shop",
        "shop": "kiosk"
      }
    },
    {
      "type": "node",
      "id": 11397272614,
      "lat": 12.9162574,
      "lon": 77.6148293,
      "tags": {
        "amenity": "post_office",
        "brand": "Desk to Desk Courier & Cargo",
        "brand:short": "DTDC",
        "brand:wikidata": "Q55608802",
        "check_date": "2023-12-06",
        "operator": "Desk to Desk Courier & Cargo",
        "operator:short": "DTDC",
        "operator:wikidata": "Q55608802"
      }
    },
    {
      "type": "node",
      "id": 11463172582,
      "lat": 12.9301946,
      "lon": 77.6148303,
      "tags": {
        "amenity": "charging_station",
        "battery_swapping": "yes",
        "brand": "Honda e:swap"
      }
    },
    {
      "type": "node",
      "id": 11463172583,
      "lat": 12.9241801,
      "lon": 77.6285542,
      "tags": {
        "check_date": "2023-12-28",
        "shop": "tea"
      }
    },
    {
      "type": "node",
      "id": 11542689650,
      "lat": 12.9251115,
      "lon": 77.6206366,
      "tags": {
        "access": "permissive",
        "amenity": "parking",
        "parking": "surface"
      }
    },
    {
      "type": "node",
      "id": 11662314077,
      "lat": 12.9230141,
      "lon": 77.6144364,
      "tags": {
        "name": "Kanti Sweets",
        "shop": "confectionery"
      }
    },
    {
      "type": "node",
      "id": 11662314078,
      "lat": 12.9229366,
      "lon": 77.6143855,
      "tags": {
        "name": "Pai Mobiles",
        "shop": "mobile_phone"
      }
    },
    {
      "type": "node",
      "id": 11758608876,
      "lat": 12.9313963,
      "lon": 77.6234718,
      "tags": {
        "addr:housenumber": "82",
        "addr:street": "7th Cross Road",
        "amenity": "cafe",
        "check_date": "2024-03-24",
        "contact:instagram": "https://www.instagram.com/dailybakehouse",
        "name": "Daily Bakehouse",
        "opening_hours": "08:00-23:00",
        "shop": "bakery",
        "website": "https://dailybakehouse.in"
      }
    },
    {
      "type": "node",
      "id": 11758608877,
      "lat": 12.9313462,
      "lon": 77.6234605,
      "tags": {
        "addr:housenumber": "82",
        "addr:street": "7th Cross Road",
        "amenity": "restaurant",
        "check_date": "2024-03-24",
        "contact:instagram": "https://www.instagram.com/just.loaf",
        "cuisine": "american",
        "name": "Just Loaf",
        "website": "https://justloaf.in"
      }
    },
    {
      "type": "node",
      "id": 11927677058,
      "lat": 12.9285835,
      "lon": 77.6241904,
      "tags": {
        "access": "yes",
        "amenity": "charging_station",
        "brand": "ChargePoint",
        "brand:wikidata": "Q5176149",
        "name": "Battery Swap",
        "operator": "ChargePoint",
        "operator:wikidata": "Q5176149"
      }
    },
    {
      "type": "node",
      "id": 11936564076,
      "lat": 12.9311453,
      "lon": 77.6238461,
      "tags": {
        "access": "yes",
        "amenity": "charging_station",
        "brand": "ChargePoint",
        "brand:wikidata": "Q5176149",
        "fee": "no",
        "name": "Ather Charging Station",
        "name:en": "EVRE Charging Point",
        "operator": "ChargePoint",
        "operator:wikidata": "Q5176149"
      }
    },
    {
      "type": "node",
      "id": 12031617546,
      "lat": 12.9293372,
      "lon": 77.6218922,
      "tags": {
        "brand": "Volkswagen",
        "brand:wikidata": "Q246",
        "name": "Volkswagen City Store",
        "shop": "car"
      }
    },
    {
      "type": "node",
      "id": 12088455650,
      "lat": 12.9207693,
      "lon": 77.6132181,
      "tags": {
        "amenity": "restaurant",
        "name": "Muthashy's Restaurant"
      }
    },
    {
      "type": "node",
      "id": 12144440751,
      "lat": 12.920774,
      "lon": 77.6201642,
      "tags": {
        "amenity": "restaurant",
        "check_date": "2024-08-29",
        "indoor_seating": "yes",
        "name": "Nahdi Mandi",
        "outdoor_seating": "no",
        "source": "survey"
      }
    },
    {
      "type": "node",
      "id": 12144440753,
      "lat": 12.9217186,
      "lon": 77.6204743,
      "tags": {
        "air_conditioning": "yes",
        "brand": "Max",
        "brand:wikidata": "Q24939079",
        "check_date": "2024-08-29",
        "name": "Max",
        "payment:cash": "yes",
        "payment:credit_cards": "yes",
        "payment:debit_cards": "yes",
        "shop": "clothes",
        "source": "survey"
      }
    },
    {
      "type": "node",
      "id": 12149863541,
      "lat": 12.9307759,
      "lon": 77.6249442,
      "tags": {
        "amenity": "waste_basket"
      }
    },
    {
      "type": "node",
      "id": 12154759018,
      "lat": 12.9314682,
      "lon": 77.6229057,
      "tags": {
        "amenity": "driving_school",
        "name": "Maruti Suzuki Driving School"
      }
    },
    {
      "type": "node",
      "id": 12154759019,
      "lat": 12.9312568,
      "lon": 77.623582,
      "tags": {
        "amenity": "bank",
        "atm": "yes",
        "brand": "HDFC Bank",
        "brand:wikidata": "Q631047",
        "name": "HDFC Bank",
        "name:kn": "ಎಚ್ ಡಿ ಎಫ್ ಸಿ",
        "short_name": "HDFC"
      }
    },
    {
      "type": "node",
      "id": 12154759020,
      "lat": 12.9310666,
      "lon": 77.6240212,
      "tags": {
        "amenity": "bank",
        "atm": "yes",
        "brand": "Axis Bank",
        "brand:wikidata": "Q2003549",
        "name": "Axis Bank",
        "name:kn": "ಆಕ್ಸಿಸ್ ಬ್ಯಾಂಕ್"
      }
    },
    {
      "type": "node",
      "id": 12164898060,
      "lat": 12.9238038,
      "lon": 77.6280066,
      "tags": {
        "amenity": "waste_basket",
        "waste": "trash"
      }
    },
    {
      "type": "node",
      "id": 12164898061,
      "lat": 12.9238009,
      "lon": 77.6279577,
      "tags": {
        "amenity": "shelter",
        "bench": "yes",
        "shelter_type": "public_transport"
      }
    },
    {
      "type": "node",
      "id": 12164898062,
      "lat": 12.9237403,
      "lon": 77.6277015,
      "tags": {
        "amenity": "shelter",
        "bench": "yes",
        "shelter_type": "public_transport"
      }
    },
    {
      "type": "node",
      "id": 12187048816,
      "lat": 12.9231056,
      "lon": 77.6156589,
      "tags": {
        "amenity": "toilets",
        "check_date": "2024-09-18",
        "fee": "yes",
        "name": "Pay & Use Toilet",
        "wheelchair": "no"
      }
    },
    {
      "type": "node",
      "id": 12187048818,
      "lat": 12.9248794,
      "lon": 77.6150117,
      "tags": {
        "amenity": "pharmacy",
        "brand": "Apollo Pharmacy",
        "brand:wikidata": "Q62562612",
        "check_date": "2024-09-18",
        "healthcare": "pharmacy",
        "name": "Apollo Pharmacy",
        "payment:cash": "yes",
        "payment:mastercard": "yes",
        "payment:visa": "yes",
        "source": "survey"
      }
    },
    {
      "type": "node",
      "id": 12187048820,
      "lat": 12.922672,
      "lon": 77.6154911,
      "tags": {
        "amenity": "place_of_worship",
        "check_date": "2024-09-18",
        "name": "Om Sakthi Adiparashakthi Temple",
        "religion": "hindu",
        "source": "survey"
      }
    },
    {
      "type": "node",
      "id": 12187048821,
      "lat": 12.923402,
      "lon": 77.6148551,
      "tags": {
        "air_conditioning": "no",
        "check_date": "2024-09-18",
        "drive_through": "no",
        "name": "Maruthi Spirit Zone",
        "shop": "alcohol",
        "source": "survey"
      }
    },
    {
      "type": "node",
      "id": 12202246108,
      "lat": 12.9196693,
      "lon": 77.6214019,
      "tags": {
        "addr:housenumber": "323",
        "addr:postcode": "560068",
        "addr:street": "Hosur Road",
        "check_date": "2025-05-31",
        "name": "Rathimeena Travels",
        "shop": "travel_agency",
        "website": "https://www.rathimeena.in/"
      }
    },
    {
      "type": "node",
      "id": 12236165326,
      "lat": 12.9288856,
      "lon": 77.6216973,
      "tags": {
        "amenity": "kindergarten",
        "name": "Child-Care Montessori",
        "website": "https://www.child-caremontessori.com/"
      }
    },
    {
      "type": "node",
      "id": 12260569934,
      "lat": 12.9258462,
      "lon": 77.6184377,
      "tags": {
        "amenity": "cafe",
        "name": "Sunshine Cafe"
      }
    },
    {
      "type": "node",
      "id": 12270762301,
      "lat": 12.9174543,
      "lon": 77.6275416,
      "tags": {
        "amenity": "bank",
        "atm": "yes",
        "brand": "HDFC Bank",
        "brand:wikidata": "Q631047",
        "check_date": "2024-10-20",
        "name": "HDFC Bank",
        "short_name": "HDFC"
      }
    },
    {
      "type": "node",
      "id": 12285338812,
      "lat": 12.9239614,
      "lon": 77.618357,
      "tags": {
        "amenity": "pharmacy",
        "check_date": "2024-10-23",
        "healthcare": "pharmacy"
      }
    },
    {
      "type": "node",
      "id": 12285338813,
      "lat": 12.9221005,
      "lon": 77.6194529,
      "tags": {
        "amenity": "atm",
        "brand": "HDFC Bank",
        "brand:wikidata": "Q631047",
        "check_date": "2024-10-23",
        "operator": "HDFC Bank",
        "operator:wikidata": "Q631047",
        "short_name": "HDFC"
      }
    },
    {
      "type": "node",
      "id": 12293550210,
      "lat": 12.9290374,
      "lon": 77.6158964,
      "tags": {
        "amenity": "fixme",
        "check_date": "2024-10-28",
        "fixme": "type",
        "fixme:type": "playground",
        "internet_access": "wlan",
        "internet_access:fee": "no",
        "name": "Play ground"
      }
    },
    {
      "type": "node",
      "id": 12369374732,
      "lat": 12.9291476,
      "lon": 77.6240789,
      "tags": {
        "amenity": "school",
        "name": "DBM & RJS School"
      }
    },
    {
      "type": "node",
      "id": 12441512698,
      "lat": 12.9277062,
      "lon": 77.6279059,
      "tags": {
        "amenity": "bench",
        "backrest": "yes",
        "seats": "2"
      }
    },
    {
      "type": "node",
      "id": 12553261624,
      "lat": 12.9218259,
      "lon": 77.6205566,
      "tags": {
        "addr:city": "Bengaluru",
        "addr:district": "Bengaluru Urban",
        "addr:full": "Hotel Davanam Sarovar Portico Suites, 7th floor, Hosur road Besides Total Mall, Madiwala, Koramangala 2nd Block, Koramangala",
        "addr:postcode": "560068",
        "addr:street": "Hosur Road",
        "name": "Aloe Spa",
        "opening_hours": "Mo-Su 09:00-20:00",
        "operator": "Mr. Bibin",
        "phone": "09986511272",
        "shop": "beauty",
        "website": "https://www.thealoespa.com/"
      }
    },
    {
      "type": "node",
      "id": 12553304870,
      "lat": 12.9258553,
      "lon": 77.6170186,
      "tags": {
        "addr:city": "Bengaluru",
        "addr:district": "Bengaluru Urban",
        "addr:full": "1st floor Hosur main road, 1stage, next to bajaj showroom, near ayyappa temple, Madiwala, BTM Layout",
        "addr:postcode": "560068",
        "addr:street": "Hosur Road",
        "beauty": "spa;massage",
        "name": "Nirmaya Spa in Madiwala",
        "opening_hours": "Mo-Su 11:00-21:00",
        "operator": "Mr. Bibin",
        "phone": "082175 90197",
        "shop": "beauty",
        "website": "https://nirmayaspa.com/"
      }
    },
    {
      "type": "node",
      "id": 12553319439,
      "lat": 12.9217289,
      "lon": 77.6202688,
      "tags": {
        "addr:city": "Bengaluru",
        "addr:district": "Bengaluru Urban",
        "addr:full": "2nd floor, Market Square Mall, Hosur Rd, opp. Madiwala Traffic Police Station, Sidharata Colony, Madiwala, Koramangala 2nd Block, Koramangala",
        "addr:postcode": "560068",
        "addr:street": "Hosur Road",
        "beauty": "spa;massage",
        "name": "Southern Spa Madiwala",
        "opening_hours": "Mo-Su 10:00-21:00",
        "operator": "Mr. Bibin",
        "phone": "09108612001",
        "shop": "beauty",
        "website": "https://southernspa.in/"
      }
    },
    {
      "type": "node",
      "id": 12850046728,
      "lat": 12.9172785,
      "lon": 77.6179532,
      "tags": {
        "amenity": "place_of_worship",
        "religion": "hindu"
      }
    },
    {
      "type": "node",
      "id": 12862846454,
      "lat": 12.9256478,
      "lon": 77.6250965,
      "tags": {
        "amenity": "fast_food",
        "cuisine": "burger;wings;chicken",
        "delivery": "yes",
        "name": "Big Guys: Wings & More",
        "takeaway": "yes"
      }
    },
    {
      "type": "node",
      "id": 13070296261,
      "lat": 12.9166047,
      "lon": 77.620558,
      "tags": {
        "access": "yes",
        "amenity": "motorcycle_parking",
        "capacity": "230",
        "fee": "yes",
        "name": "Silk Board Metro Parking",
        "operator": "BMRCL",
        "parking": "surface"
      }
    },
    {
      "type": "node",
      "id": 13073505381,
      "lat": 12.9197769,
      "lon": 77.6120301,
      "tags": {
        "amenity": "kindergarten",
        "check_date": "2025-08-16"
      }
    },
    {
      "type": "node",
      "id": 13073507657,
      "lat": 12.9196199,
      "lon": 77.6122602,
      "tags": {
        "check_date": "2025-08-16",
        "name": "Enhance Salon",
        "shop": "hairdresser"
      }
    },
    {
      "type": "node",
      "id": 13073507658,
      "lat": 12.9196021,
      "lon": 77.6130587,
      "tags": {
        "amenity": "restaurant",
        "check_date": "2025-08-16",
        "description": "Udupi",
        "diet:vegetarian": "yes",
        "name": "Udupi Sagar"
      }
    },
    {
      "type": "node",
      "id": 13073507659,
      "lat": 12.9195742,
      "lon": 77.6134319,
      "tags": {
        "amenity": "fixme",
        "check_date": "2025-08-16",
        "description": "Timings: 3am to 10pm, Friday 9am to 12:30pm, 3pm to 10pm. Both retail and wholesale.",
        "fixme": "type",
        "fixme:type": "eggs wholesale",
        "name": "Star Egg Center"
      }
    },
    {
      "type": "node",
      "id": 13073507660,
      "lat": 12.919519,
      "lon": 77.6142831,
      "tags": {
        "amenity": "restaurant",
        "check_date": "2025-08-16",
        "name": "Sanju's Kitchen",
        "phone": "+91 86605 67052"
      }
    },
    {
      "type": "node",
      "id": 13073519034,
      "lat": 12.9181002,
      "lon": 77.6142768,
      "tags": {
        "check_date": "2025-08-16",
        "name": "Smart Cart Mobiles",
        "shop": "mobile_phone"
      }
    },
    {
      "type": "node",
      "id": 13073519035,
      "lat": 12.9180198,
      "lon": 77.6143295,
      "tags": {
        "amenity": "fast_food",
        "check_date": "2025-08-16",
        "cuisine": "juice",
        "name": "JK Lasso And Juice Center"
      }
    },
    {
      "type": "node",
      "id": 13073519036,
      "lat": 12.9178765,
      "lon": 77.6143215,
      "tags": {
        "check_date": "2025-08-16",
        "name": "Renuka Medicines And General stores",
        "phone": "+91 99450 24244",
        "shop": "chemist"
      }
    },
    {
      "type": "node",
      "id": 13073520869,
      "lat": 12.9171957,
      "lon": 77.6144128,
      "tags": {
        "check_date": "2025-08-16",
        "name": "Instakart",
        "shop": "supermarket"
      }
    },
    {
      "type": "node",
      "id": 13295904715,
      "lat": 12.9267782,
      "lon": 77.6281833,
      "tags": {
        "addr:city": "Bengaluru",
        "addr:housenumber": "791",
        "addr:postcode": "560011",
        "addr:street": "9th Main Road",
        "branch": "Jaya Nagar",
        "contact:facebook": "https://www.facebook.com/VurveSalon/",
        "description": "Salon offering hair, skin, makeup, and lash transformations",
        "name": "Vurve Salon",
        "opening_hours": "Mo-Su 10:00-21:00",
        "phone": "+91-89-2581-4881",
        "shop": "hairdresser",
        "website": "https://vurvesalon.com/salon/bangalore-jayanagar/"
      }
    },
    {
      "type": "node",
      "id": 13316687535,
      "lat": 12.9239053,
      "lon": 77.6183201,
      "tags": {
        "name": "Shoba super market",
        "shop": "supermarket"
      }
    },
    {
      "type": "way",
      "id": 41184092,
      "center": {
        "lat": 12.9264869,
        "lon": 77.6213331
      },
      "tags": {
        "amenity": "research_institute",
        "boundary": "wall",
        "landuse": "education",
        "name": "Indian Institute of Astrophysics",
        "short_name": "IIA",
        "start_date": "1971",
        "website": "https://www.iiap.res.in",
        "wikidata": "Q675608",
        "wikipedia": "en:Indian Institute of Astrophysics"
      }
    },
    {
      "type": "way",
      "id": 133822899,
      "center": {
        "lat": 12.926253,
        "lon": 77.6296211
      },
      "tags": {
        "amenity": "college",
        "name": "St. Francis College"
      }
    },
    {
      "type": "way",
      "id": 133883975,
      "center": {
        "lat": 12.9238171,
        "lon": 77.6293555
      },
      "tags": {
        "addr:street": "Sarjapur road",
        "amenity": "college",
        "check_date": "2024-03-28",
        "name": "Krupanidhi College",
        "name:kn": "ಕೃಪಾನಿಧಿ ಕಾಲೇಜು"
      }
    },
    {
      "type": "way",
      "id": 134223205,
      "center": {
        "lat": 12.9296226,
        "lon": 77.6225779
      },
      "tags": {
        "amenity": "college",
        "building": "yes",
        "name": "Vemana Institute of Technology"
      }
    },
    {
      "type": "way",
      "id": 134223490,
      "center": {
        "lat": 12.9294621,
        "lon": 77.6230045
      },
      "tags": {
        "amenity": "college",
        "building": "yes",
        "name": "RJS Institute of Management Studies"
      }
    },
    {
      "type": "way",
      "id": 201072740,
      "center": {
        "lat": 12.91675,
        "lon": 77.6192237
      },
      "tags": {
        "leisure": "park",
        "name": "Daniel Park"
      }
    },
    {
      "type": "way",
      "id": 239585279,
      "center": {
        "lat": 12.9219021,
        "lon": 77.620384
      },
      "tags": {
        "addr:street": "Madiwala Sarajpura Road",
        "alt_name": "Madivala Commercial Plaza",
        "landuse": "retail",
        "name": "Market Square Mall",
        "official_name": "BBMP Commercial Plaza",
        "shop": "mall"
      }
    },
    {
      "type": "way",
      "id": 243896056,
      "center": {
        "lat": 12.9156888,
        "lon": 77.6162448
      },
      "tags": {
        "amenity": "bus_station",
        "bus": "yes",
        "name": "Kuvempunagara Bus Station",
        "name:kn": "ಕುವೆಂಪುನಗರ ಬಸ್ ನಿಲ್ದಾಣ",
        "public_transport": "station"
      }
    },
    {
      "type": "way",
      "id": 244582790,
      "center": {
        "lat": 12.9286595,
        "lon": 77.6272629
      },
      "tags": {
        "amenity": "place_of_worship",
        "building": "yes",
        "religion": "hindu"
      }
    },
    {
      "type": "way",
      "id": 250768276,
      "center": {
        "lat": 12.9283209,
        "lon": 77.6171796
      },
      "tags": {
        "leisure": "pitch"
      }
    },
    {
      "type": "way",
      "id": 323458335,
      "center": {
        "lat": 12.9246934,
        "lon": 77.6178048
      },
      "tags": {
        "leisure": "park",
        "name": "Madiwala Park"
      }
    },
    {
      "type": "way",
      "id": 323696990,
      "center": {
        "lat": 12.9209121,
        "lon": 77.6273339
      },
      "tags": {
        "landuse": "recreation_ground",
        "leisure": "common"
      }
    },
    {
      "type": "way",
      "id": 323696991,
      "center": {
        "lat": 12.921851,
        "lon": 77.6274569
      },
      "tags": {
        "landuse": "recreation_ground",
        "leisure": "common"
      }
    },
    {
      "type": "way",
      "id": 323696992,
      "center": {
        "lat": 12.9225036,
        "lon": 77.6246894
      },
      "tags": {
        "landuse": "recreation_ground",
        "leisure": "common"
      }
    },
    {
      "type": "way",
      "id": 323696995,
      "center": {
        "lat": 12.9204015,
        "lon": 77.6201286
      },
      "tags": {
        "amenity": "place_of_worship",
        "landuse": "religious",
        "name": "Jamia Masjid",
        "name:kn": "ಜಮ ಮಸೀದಿ",
        "religion": "muslim"
      }
    },
    {
      "type": "way",
      "id": 323696996,
      "center": {
        "lat": 12.920503,
        "lon": 77.6201341
      },
      "tags": {
        "addr:city": "Bengaluru",
        "addr:postcode": "560068",
        "amenity": "place_of_worship",
        "building": "yes",
        "name": "Jamia Masjid",
        "name:kn": "ಜಮ ಮಸ್ಜಿದ್",
        "name:ur": "جامعہ مسجد",
        "religion": "muslim"
      }
    },
    {
      "type": "way",
      "id": 342013038,
      "center": {
        "lat": 12.9318751,
        "lon": 77.6181485
      },
      "tags": {
        "amenity": "parking",
        "name": "Faculty Car Parking, St.John's Hospital",
        "operator:type": "private"
      }
    },
    {
      "type": "way",
      "id": 342013495,
      "center": {
        "lat": 12.9285657,
        "lon": 77.6193124
      },
      "tags": {
        "amenity": "parking",
        "parking": "surface",
        "supervised": "yes"
      }
    },
    {
      "type": "way",
      "id": 343961636,
      "center": {
        "lat": 12.9256759,
        "lon": 77.6187545
      },
      "tags": {
        "leisure": "park"
      }
    },
    {
      "type": "way",
      "id": 343961637,
      "center": {
        "lat": 12.9229515,
        "lon": 77.6237459
      },
      "tags": {
        "amenity": "marketplace",
        "name": "Madiwala Market",
        "name:kn": "ಮಡಿವಾಳ"
      }
    },
    {
      "type": "way",
      "id": 343961638,
      "center": {
        "lat": 12.9249376,
        "lon": 77.6183573
      },
      "tags": {
        "addr:city": "Bangalore",
        "addr:postcode": "560068",
        "amenity": "place_of_worship",
        "building": "yes",
        "denomination": "sunni",
        "name": "Masjid-e-Noor",
        "name:kn": "ಮಡಿವಾಲ ಮಸೀದಿ",
        "name:ur": "مسجد نور",
        "religion": "muslim"
      }
    },
    {
      "type": "way",
      "id": 347446544,
      "center": {
        "lat": 12.9316085,
        "lon": 77.6218092
      },
      "tags": {
        "amenity": "theatre",
        "building": "yes",
        "name": "St. John's Auditorium"
      }
    },
    {
      "type": "way",
      "id": 347483429,
      "center": {
        "lat": 12.9242209,
        "lon": 77.6180856
      },
      "tags": {
        "addr:city": "Bengaluru",
        "addr:postcode": "560068",
        "addr:street": "Hosur Road",
        "amenity": "place_of_worship",
        "building": "yes",
        "name": "Ayyapa Swamy Temple",
        "name:kn": "ಅಯ್ಯಪ್ಪಸ್ವಾಮಿ ದೇವಾಲಯ",
        "religion": "hindu"
      }
    },
    {
      "type": "way",
      "id": 348457949,
      "center": {
        "lat": 12.9207876,
        "lon": 77.62083
      },
      "tags": {
        "addr:street": "Hosur Road",
        "amenity": "fuel",
        "brand": "Bharat Petroleum",
        "brand:wikidata": "Q854826",
        "brand:wikipedia": "en:Bharat Petroleum",
        "compressed_air": "yes",
        "fuel:diesel": "yes",
        "fuel:engine_oil": "yes",
        "fuel:petrol": "yes",
        "name": "Bharat Petroleum",
        "name:kn": "ಭಾರತ್ ಪೆಟ್ರೋಲಿಯಂ",
        "operator": "Bharat Petroleum",
        "self_service": "no"
      }
    },
    {
      "type": "way",
      "id": 348457970,
      "center": {
        "lat": 12.9210124,
        "lon": 77.6206703
      },
      "tags": {
        "addr:city": "Bengaluru",
        "addr:district": "Bengaluru Urban",
        "addr:postcode": "560068",
        "addr:street": "Madiwala Road, Santhosapuram, 1st Block Koramangala, Koramangala",
        "amenity": "police",
        "building": "yes",
        "check_date": "2024-08-29",
        "name": "Madiwala Traffic Police Station",
        "name:kn": "ಮಡಿವಾಳ ಸಂಚಾರ ಪೊಲೀಸ್ ಠಾಣೆ",
        "phone": "+91 80 2294 2568",
        "source": "survey"
      }
    },
    {
      "type": "way",
      "id": 348535547,
      "center": {
        "lat": 12.9169782,
        "lon": 77.6137437
      },
      "tags": {
        "amenity": "parking",
        "parking": "surface"
      }
    },
    {
      "type": "way",
      "id": 349699764,
      "center": {
        "lat": 12.9209466,
        "lon": 77.6178513
      },
      "tags": {
        "amenity": "cinema",
        "building": "yes",
        "name": "Sandhya",
        "name:kn": "ಸಂಧ್ಯಾ"
      }
    },
    {
      "type": "way",
      "id": 389341670,
      "center": {
        "lat": 12.9288993,
        "lon": 77.6131406
      },
      "tags": {
        "leisure": "pitch"
      }
    },
    {
      "type": "way",
      "id": 389341672,
      "center": {
        "lat": 12.9306379,
        "lon": 77.6138852
      },
      "tags": {
        "amenity": "place_of_worship",
        "name": "St Antonys Friary Church",
        "name:kn": "ಸಂತ ಆಂಟೊನಿ ದೇವಾಲಯ",
        "religion": "christian"
      }
    },
    {
      "type": "way",
      "id": 389344277,
      "center": {
        "lat": 12.9285869,
        "lon": 77.6167673
      },
      "tags": {
        "leisure": "pitch"
      }
    },
    {
      "type": "way",
      "id": 389344278,
      "center": {
        "lat": 12.9266041,
        "lon": 77.6179719
      },
      "tags": {
        "leisure": "pitch",
        "sport": "cricket"
      }
    },
    {
      "type": "way",
      "id": 389344279,
      "center": {
        "lat": 12.9271749,
        "lon": 77.6169995
      },
      "tags": {
        "leisure": "pitch",
        "sport": "tennis"
      }
    },
    {
      "type": "way",
      "id": 389344281,
      "center": {
        "lat": 12.9273256,
        "lon": 77.6175119
      },
      "tags": {
        "leisure": "pitch",
        "sport": "tennis"
      }
    },
    {
      "type": "way",
      "id": 389344283,
      "center": {
        "lat": 12.9267201,
        "lon": 77.6172762
      },
      "tags": {
        "leisure": "pitch",
        "sport": "tennis"
      }
    },
    {
      "type": "way",
      "id": 389344285,
      "center": {
        "lat": 12.9308787,
        "lon": 77.6185833
      },
      "tags": {
        "leisure": "garden"
      }
    },
    {
      "type": "way",
      "id": 389344286,
      "center": {
        "lat": 12.9275801,
        "lon": 77.6175967
      },
      "tags": {
        "leisure": "pitch",
        "sport": "tennis"
      }
    },
    {
      "type": "way",
      "id": 389344287,
      "center": {
        "lat": 12.9270645,
        "lon": 77.6173485
      },
      "tags": {
        "leisure": "pitch",
        "sport": "tennis"
      }
    },
    {
      "type": "way",
      "id": 389344288,
      "center": {
        "lat": 12.9276308,
        "lon": 77.6170244
      },
      "tags": {
        "leisure": "pitch"
      }
    },
    {
      "type": "way",
      "id": 389344289,
      "center": {
        "lat": 12.9277533,
        "lon": 77.6170906
      },
      "tags": {
        "leisure": "sports_centre",
        "name": "St. John's Grounds",
        "sport": "cricket"
      }
    },
    {
      "type": "way",
      "id": 487988011,
      "center": {
        "lat": 12.9245761,
        "lon": 77.629208
      },
      "tags": {
        "leisure": "playground"
      }
    },
    {
      "type": "way",
      "id": 487988013,
      "center": {
        "lat": 12.9249345,
        "lon": 77.6290329
      },
      "tags": {
        "hoops": "2",
        "leisure": "pitch",
        "sport": "basketball"
      }
    },
    {
      "type": "way",
      "id": 662278780,
      "center": {
        "lat": 12.9274271,
        "lon": 77.62728
      },
      "tags": {
        "access": "yes",
        "alt_name": "Post Office Playground",
        "landuse": "recreation_ground",
        "leisure": "pitch",
        "name": "Post Office Grounds",
        "old_name": "3rd Block Grounds"
      }
    },
    {
      "type": "way",
      "id": 662280188,
      "center": {
        "lat": 12.9281426,
        "lon": 77.6274329
      },
      "tags": {
        "alt_name": "Post Office Park",
        "leisure": "park",
        "name": "Heble Park",
        "old_name": "3rd Block Park"
      }
    },
    {
      "type": "way",
      "id": 692207409,
      "center": {
        "lat": 12.9166239,
        "lon": 77.6199309
      },
      "tags": {
        "amenity": "fuel",
        "brand": "Indian Oil",
        "brand:wikidata": "Q1289348",
        "compressed_air": "yes",
        "name": "Indian Oil",
        "name:kn": "ಇಂಡಿಯನ್ ಆಯಿಲ್"
      }
    },
    {
      "type": "way",
      "id": 779344669,
      "center": {
        "lat": 12.9300193,
        "lon": 77.6151126
      },
      "tags": {
        "addr:city": "Bengaluru",
        "amenity": "fuel",
        "brand": "Hindustan Petroleum",
        "brand:wikidata": "Q1619375",
        "brand:wikipedia": "en:Hindustan Petroleum",
        "compressed_air": "yes",
        "fuel:diesel": "yes",
        "fuel:engine_oil": "yes",
        "fuel:petrol": "yes",
        "name": "HP",
        "name:kn": "ಹಿಂದುಸ್ತಾನ್ ಪೆಟ್ರೋಲಿಯಂ",
        "official_name": "Hindustan Petroleum",
        "operator": "Favourite Auto Service",
        "self_service": "yes"
      }
    },
    {
      "type": "way",
      "id": 803346374,
      "center": {
        "lat": 12.9247437,
        "lon": 77.6173648
      },
      "tags": {
        "addr:city": "Bengaluru",
        "addr:district": "Bengaluru Urban",
        "addr:postcode": "560068",
        "addr:street": "Somasundarapalaya, HSR layout Sector 2, 1st Stage, BTM Layout",
        "amenity": "fast_food",
        "brand": "Indira Canteen",
        "brand:wikidata": "Q36164828",
        "building": "yes",
        "cuisine": "south_indian",
        "name": "Indira Canteen",
        "opening_hours": "Mo-Su 07:30-09:00,01:00-02:30",
        "operator": "BBMP",
        "takeaway": "yes"
      }
    },
    {
      "type": "way",
      "id": 803346375,
      "center": {
        "lat": 12.9248093,
        "lon": 77.6174924
      },
      "tags": {
        "addr:city": "Bengaluru",
        "addr:postcode": "560068",
        "amenity": "veterinary",
        "building": "yes",
        "name": "Government Veterinary Hospital",
        "name:kn": "ಸರ್ಕಾರಿ ಪಶುವೈದ್ಯ ಆಸ್ಪತ್ರೆ"
      }
    },
    {
      "type": "way",
      "id": 967216468,
      "center": {
        "lat": 12.9293924,
        "lon": 77.6231114
      },
      "tags": {
        "amenity": "college"
      }
    },
    {
      "type": "way",
      "id": 1066116299,
      "center": {
        "lat": 12.9248645,
        "lon": 77.6293181
      },
      "tags": {
        "hoops": "2",
        "leisure": "pitch",
        "sport": "basketball"
      }
    },
    {
      "type": "way",
      "id": 1066726710,
      "center": {
        "lat": 12.9181312,
        "lon": 77.6230925
      },
      "tags": {
        "amenity": "bus_station",
        "bus": "yes",
        "network": "BMTC",
        "operator": "BMTC",
        "public_transport": "station",
        "ref": "Silk Board TTMC"
      }
    },
    {
      "type": "way",
      "id": 1069600848,
      "center": {
        "lat": 12.9189097,
        "lon": 77.622754
      },
      "tags": {
        "amenity": "community_centre",
        "community_centre": "community_hall",
        "landuse": "commercial",
        "name": "Samudaya Bhavan",
        "name:kn": "ಸಮುದಾಯ ಭವನ",
        "source": "https://www.newindianexpress.com/cities/bengaluru/2023/Jul/18/bmrcl-sets-community-hall-for-cops-at-central-silk-board-junction-in-bengaluru-2596040.html"
      }
    },
    {
      "type": "way",
      "id": 1125892161,
      "center": {
        "lat": 12.9257318,
        "lon": 77.6291079
      },
      "tags": {
        "amenity": "place_of_worship",
        "denomination": "catholic",
        "name": "Seva Sadan",
        "name:kn": "ಸೇವಾ ಸದನ",
        "religion": "christian"
      }
    },
    {
      "type": "way",
      "id": 1125892164,
      "center": {
        "lat": 12.9249611,
        "lon": 77.629232
      },
      "tags": {
        "amenity": "school",
        "name": "St. Francis School"
      }
    },
    {
      "type": "way",
      "id": 1125892176,
      "center": {
        "lat": 12.9219512,
        "lon": 77.6210144
      },
      "tags": {
        "amenity": "school",
        "check_date": "2024-08-29",
        "name": "Government Model Primary School",
        "name:kn": "ಸರ್ಕಾರಿ ಮಾದರಿ ಪ್ರಾಥಮಿಕ ಶಾಲೆ",
        "operator:type": "government",
        "source": "survey"
      }
    },
    {
      "type": "way",
      "id": 1208112293,
      "center": {
        "lat": 12.9146596,
        "lon": 77.6227666
      },
      "tags": {
        "access": "private",
        "leisure": "swimming_pool",
        "location": "outdoor",
        "swimming_pool": "outdoor"
      }
    },
    {
      "type": "way",
      "id": 1242149133,
      "center": {
        "lat": 12.927125,
        "lon": 77.6270012
      },
      "tags": {
        "leisure": "pitch",
        "sport": "tennis"
      }
    },
    {
      "type": "way",
      "id": 1242149134,
      "center": {
        "lat": 12.9270724,
        "lon": 77.6271588
      },
      "tags": {
        "leisure": "pitch",
        "sport": "basketball"
      }
    },
    {
      "type": "way",
      "id": 1242182559,
      "center": {
        "lat": 12.9311951,
        "lon": 77.6173557
      },
      "tags": {
        "access": "permissive",
        "amenity": "parking",
        "parking": "surface"
      }
    },
    {
      "type": "way",
      "id": 1262069425,
      "center": {
        "lat": 12.9180909,
        "lon": 77.6184638
      },
      "tags": {
        "amenity": "place_of_worship",
        "landuse": "religious",
        "religion": "hindu"
      }
    },
    {
      "type": "way",
      "id": 1262069462,
      "center": {
        "lat": 12.9165092,
        "lon": 77.6266198
      },
      "tags": {
        "leisure": "park"
      }
    },
    {
      "type": "way",
      "id": 1262087808,
      "center": {
        "lat": 12.9188146,
        "lon": 77.622777
      },
      "tags": {
        "amenity": "theatre",
        "theatre:type": "amphi"
      }
    },
    {
      "type": "way",
      "id": 1294934455,
      "center": {
        "lat": 12.9155407,
        "lon": 77.6166708
      },
      "tags": {
        "amenity": "toilets",
        "building": "yes"
      }
    },
    {
      "type": "way",
      "id": 1294934456,
      "center": {
        "lat": 12.9172271,
        "lon": 77.6159165
      },
      "tags": {
        "amenity": "parking"
      }
    },
    {
      "type": "way",
      "id": 1344787455,
      "center": {
        "lat": 12.9258315,
        "lon": 77.627014
      },
      "tags": {
        "access": "private",
        "leisure": "swimming_pool"
      }
    },
    {
      "type": "way",
      "id": 1344787457,
      "center": {
        "lat": 12.9288768,
        "lon": 77.6269617
      },
      "tags": {
        "access": "private",
        "leisure": "swimming_pool"
      }
    },
    {
      "type": "way",
      "id": 1354222898,
      "center": {
        "lat": 12.9272388,
        "lon": 77.6145138
      },
      "tags": {
        "alt_name": "Society of the Sisters of the Holy Cross",
        "amenity": "monastery",
        "community:gender": "female",
        "name": "Medico Social Centre",
        "religion": "christian"
      }
    },
    {
      "type": "way",
      "id": 1414001461,
      "center": {
        "lat": 12.9156969,
        "lon": 77.6225378
      },
      "tags": {
        "leisure": "sports_centre"
      }
    },
    {
      "type": "way",
      "id": 1422674076,
      "center": {
        "lat": 12.9168008,
        "lon": 77.619929
      },
      "tags": {
        "addr:place": "BTM Layout",
        "alt_name": "Mira's High School",
        "amenity": "school",
        "check_date": "2023-12-05",
        "isced:level": "3",
        "name": "St. Mira's School",
        "name:kn": "ಸೆಂಟ್‌ ಮಿರ್ಸ್ ಪ್ರೌಢಶಾಲೆ,ಬಿ.ಟಿ.ಎಂ ಲೇಔಟ್",
        "operator": "Private Un-Aided",
        "school": "Higher Secondary"
      }
    },
    {
      "type": "way",
      "id": 1442261765,
      "center": {
        "lat": 12.9242678,
        "lon": 77.614629
      },
      "tags": {
        "amenity": "fuel",
        "check_date": "2024-09-18",
        "self_service": "no"
      }
    },
    {
      "type": "way",
      "id": 1442261830,
      "center": {
        "lat": 12.9252902,
        "lon": 77.61237
      },
      "tags": {
        "addr:place": "Madiwala",
        "amenity": "school",
        "isced:level": "3",
        "name": "Venkateshwara HS, Madiwala W No 66",
        "name:kn": "ವೆಂಕಟೇಶ್ವರ ಪ್ರೌಢಶಾಲೆ,ಮಡಿವಾಳ",
        "operator": "Private Un-Aided",
        "school": "Higher Secondary"
      }
    },
    {
      "type": "way",
      "id": 1442271947,
      "center": {
        "lat": 12.9265187,
        "lon": 77.6146547
      },
      "tags": {
        "amenity": "place_of_worship",
        "name": "Srinivasa Temple",
        "name:kn": "ಶ್ರೀನಿವಾಸ ದೇವಸ್ಥಾನ",
        "religion": "hindu"
      }
    },
    {
      "type": "way",
      "id": 1442330288,
      "center": {
        "lat": 12.9239736,
        "lon": 77.6133232
      },
      "tags": {
        "addr:city": "Bangalore",
        "addr:housenumber": "2324, Om Comple",
        "addr:postcode": "560068",
        "addr:street": "Maruthi Nagar Main Road",
        "amenity": "hospital",
        "emergency": "yes",
        "name": "Life Care Hospital",
        "phone": "080 2684 6677"
      }
    }
  ]
}