{
  "area_name": "SilverJubilee Park Ward",
  "osm_id": 19883363,
  "osm_type": "relation",
  "place_type": "administrative",
  "amenity_count": 73,
  "amenities": [
    {
      "type": "node",
      "id": 677286824,
      "lat": 12.9554112,
      "lon": 77.5918509,
      "tags": {
        "addr:street": "KH Road (Double Road)",
        "name": "Mysore Resham Emporium",
        "shop": "clothes"
      }
    },
    {
      "type": "node",
      "id": 1617398481,
      "lat": 12.9596642,
      "lon": 77.5829322,
      "tags": {
        "amenity": "fuel",
        "brand": "BP"
      }
    },
    {
      "type": "node",
      "id": 2600851625,
      "lat": 12.954627,
      "lon": 77.5905488,
      "tags": {
        "addr:city": "Bangalore",
        "addr:housename": "Nyaya Degula",
        "addr:housenumber": "6/69",
        "addr:postcode": "560027",
        "addr:street": "H. Siddiah Road",
        "amenity": "courthouse",
        "name": "Family & Labour Courts",
        "operator": "Government of Karnataka",
        "phone": "00918022221526",
        "website": "http://karnatakajudiciary.kar.nic.in",
        "wheelchair": "yes"
      }
    },
    {
      "type": "node",
      "id": 2600852209,
      "lat": 12.9547787,
      "lon": 77.5906007,
      "tags": {
        "addr:city": "Bangalore",
        "addr:housename": "Nyaya Degula",
        "addr:housenumber": "6/69",
        "addr:postcode": "560027",
        "addr:street": "H. Siddiah Road",
        "amenity": "courthouse",
        "check_date": "2023-04-05",
        "name": "Karnataka State Legal Services Authority",
        "source": "survey",
        "website": "http://www.kslsa.kar.nic.in/",
        "wheelchair": "yes"
      }
    },
    {
      "type": "node",
      "id": 3010263824,
      "lat": 12.9606096,
      "lon": 77.5835432,
      "tags": {
        "amenity": "bank",
        "brand": "State Bank of India",
        "brand:wikidata": "Q1340361",
        "brand:wikipedia": "en:State Bank of India",
        "name": "State Bank of India",
        "name:kn": "ಭಾರತೀಯ ಸ್ಟೇಟ್ ಬ್ಯಾಂಕ್",
        "short_name": "SBI",
        "source": "voice, GPS",
        "website": "https://www.sbi.co.in"
      }
    },
    {
      "type": "node",
      "id": 3773028057,
      "lat": 12.9603157,
      "lon": 77.5930493,
      "tags": {
        "addr:city": "Bengaluru",
        "addr:district": "Bengaluru Urban",
        "addr:full": "44-45/2, 2nd Cross Raja Rammohan Roy Extn Off Lalbagh Double Road",
        "addr:postcode": "560027",
        "addr:state": "Karnataka",
        "amenity": "hospital",
        "building": "hospital",
        "name": "HCG Cancer Hospital",
        "source": "OpenGovernmentData",
        "website": "https://www.hcgoncology.com/"
      }
    },
    {
      "type": "node",
      "id": 3773028984,
      "lat": 12.9609168,
      "lon": 77.5879444,
      "tags": {
        "addr:city": "Bengaluru",
        "addr:street": "Lalbagh Road",
        "name": "Jayalakshmi Bakery",
        "shop": "bakery"
      }
    },
    {
      "type": "node",
      "id": 3922280181,
      "lat": 12.9584755,
      "lon": 77.5919279,
      "tags": {
        "amenity": "hospital",
        "name": "Health Care Global"
      }
    },
    {
      "type": "node",
      "id": 4130960494,
      "lat": 12.9613262,
      "lon": 77.5820185,
      "tags": {
        "amenity": "place_of_worship",
        "name:kn": "ಮಸೀದಿ",
        "religion": "muslim"
      }
    },
    {
      "type": "node",
      "id": 4314394189,
      "lat": 12.9540285,
      "lon": 77.5912583,
      "tags": {
        "amenity": "fast_food",
        "name": "Take a Break"
      }
    },
    {
      "type": "node",
      "id": 4488175690,
      "lat": 12.9551847,
      "lon": 77.5894021,
      "tags": {
        "addr:city": "Bangalore",
        "addr:housenumber": "Plot B 204",
        "addr:postcode": "560017",
        "addr:street": "6th Cross Road",
        "name": "Jmv Enterprises",
        "phone": "09035759524",
        "shop": "sports"
      }
    },
    {
      "type": "node",
      "id": 4488473860,
      "lat": 12.9604211,
      "lon": 77.5937215,
      "tags": {
        "addr:city": "Bangalore",
        "addr:housenumber": "No. 126",
        "addr:postcode": "560027",
        "addr:street": "Chabria Square, KH Road, Bhadrappa Layout, Srinivas Colony, Sudhama Nagar,",
        "leisure": "sports_centre",
        "name": "i-fitness",
        "opening_hours": "5:30-22:00",
        "phone": "080 4151 8000",
        "sport": "gymnastics",
        "website": "https://i-fitness.in/"
      }
    },
    {
      "type": "node",
      "id": 4489902735,
      "lat": 12.9554408,
      "lon": 77.5918122,
      "tags": {
        "addr:city": "Bangalore",
        "addr:housenumber": "Abhishtha, # 63, M.V.S. Building",
        "addr:postcode": "560027",
        "addr:street": "K.H. Road",
        "name": "Beauty Saloon & SPA",
        "opening_hours": "10:00-21:30",
        "phone": "080 6570 9570",
        "shop": "beauty",
        "website": "abhishtha.com"
      }
    },
    {
      "type": "node",
      "id": 4563188589,
      "lat": 12.963389,
      "lon": 77.5800026,
      "tags": {
        "addr:housenumber": "104/1",
        "addr:postcode": "560002",
        "addr:street": "Narasimharaja Road",
        "email": "power@powertools.net.in",
        "name": "Power Tools & Tackles",
        "name:en": "Power Tools & Tackles",
        "opening_hours": "Mo-Sa 10:00-19:00",
        "operator": "Husamuddin",
        "phone": "9945009793",
        "shop": "electronics"
      }
    },
    {
      "type": "node",
      "id": 4843099624,
      "lat": 12.9549893,
      "lon": 77.5915906,
      "tags": {
        "amenity": "atm",
        "brand": "State Bank of India",
        "brand:wikidata": "Q1340361",
        "name": "State Bank of India",
        "operator": "State Bank of India",
        "operator:wikidata": "Q1340361",
        "short_name": "SBI"
      }
    },
    {
      "type": "node",
      "id": 4843099625,
      "lat": 12.956397,
      "lon": 77.5921935,
      "tags": {
        "amenity": "restaurant",
        "name": "Ambur Dum Biryani",
        "name:en": "Ambur dum biryani"
      }
    },
    {
      "type": "node",
      "id": 4843099626,
      "lat": 12.957338,
      "lon": 77.5925388,
      "tags": {
        "name": "Sri Srinivas Silk House",
        "name:en": "Sri Srinivas silk house",
        "shop": "clothes"
      }
    },
    {
      "type": "node",
      "id": 4843099628,
      "lat": 12.9614843,
      "lon": 77.5940764,
      "tags": {
        "leisure": "fitness_centre",
        "name": "Pure Life Gym",
        "name:en": "Pure life gym"
      }
    },
    {
      "type": "node",
      "id": 4843100123,
      "lat": 12.9593325,
      "lon": 77.5932644,
      "tags": {
        "name": "Furniture Forum",
        "name:en": "Furniture Forum",
        "shop": "furniture"
      }
    },
    {
      "type": "node",
      "id": 4843104321,
      "lat": 12.9555357,
      "lon": 77.5918347,
      "tags": {
        "amenity": "hospital",
        "name": "Respigen healthcare",
        "name:en": "Respigen healthcare"
      }
    },
    {
      "type": "node",
      "id": 4846787922,
      "lat": 12.9615604,
      "lon": 77.5941029,
      "tags": {
        "name": "Olympic toys and sport wears",
        "name:en": "Olympic toys and sport wears",
        "shop": "sports"
      }
    },
    {
      "type": "node",
      "id": 4847294841,
      "lat": 12.9598633,
      "lon": 77.593474,
      "tags": {
        "amenity": "restaurant",
        "name": "Tiffany's",
        "name:en": "Tiffany's"
      }
    },
    {
      "type": "node",
      "id": 4847294842,
      "lat": 12.9580518,
      "lon": 77.5928392,
      "tags": {
        "amenity": "bank",
        "brand": "HDFC Bank",
        "brand:wikidata": "Q631047",
        "name": "HDFC Bank",
        "name:en": "HDFC Bank",
        "name:kn": "ಎಚ್ ಡಿ ಎಫ್ ಸಿ",
        "short_name": "HDFC"
      }
    },
    {
      "type": "node",
      "id": 4847824923,
      "lat": 12.9549365,
      "lon": 77.5915735,
      "tags": {
        "amenity": "restaurant",
        "name": "Bacardi",
        "name:en": "Bacardi"
      }
    },
    {
      "type": "node",
      "id": 4847827721,
      "lat": 12.9560009,
      "lon": 77.5920884,
      "tags": {
        "amenity": "restaurant",
        "name": "Hotel Revoli",
        "name:en": "Hotel Revoli"
      }
    },
    {
      "type": "node",
      "id": 4849108028,
      "lat": 12.9599553,
      "lon": 77.5832139,
      "tags": {
        "name": "Ceat",
        "name:en": "Ceat",
        "shop": "tyres"
      }
    },
    {
      "type": "node",
      "id": 5385728022,
      "lat": 12.9562285,
      "lon": 77.5919414,
      "tags": {
        "amenity": "place_of_worship",
        "name": "Maari Amma Temple",
        "religion": "hindu"
      }
    },
    {
      "type": "node",
      "id": 5964506929,
      "lat": 12.959495,
      "lon": 77.5933412,
      "tags": {
        "amenity": "bank",
        "brand": "Karnataka Bank",
        "brand:wikidata": "Q2042632",
        "name": "Karnataka Bank",
        "name:kn": "ಕರ್ನಾಟಕ ಬ್ಯಾಂಕ್"
      }
    },
    {
      "type": "node",
      "id": 6939048258,
      "lat": 12.9605309,
      "lon": 77.592659,
      "tags": {
        "addr:district": "Bengaluru Urban",
        "addr:full": "No 44-45/2, 2nd Cross, Raja Rammohan Roy Extension, Opposite Double Road",
        "addr:postcode": "560027",
        "addr:state": "Karnataka",
        "amenity": "hospital",
        "name": "HCG",
        "source": "OpenGovernmentData"
      }
    },
    {
      "type": "node",
      "id": 7043568487,
      "lat": 12.9635112,
      "lon": 77.5848109,
      "tags": {
        "name": "Ganapathy and Company",
        "shop": "convenience"
      }
    },
    {
      "type": "node",
      "id": 7043991985,
      "lat": 12.962044,
      "lon": 77.5933871,
      "tags": {
        "amenity": "bank",
        "brand": "IDBI Bank",
        "brand:wikidata": "Q3633485",
        "name": "IDBI Bank",
        "name:kn": "ಐಡಿಬಿಐ ಬ್ಯಾಂಕ್",
        "short_name": "IDBI"
      }
    },
    {
      "type": "node",
      "id": 7293719483,
      "lat": 12.9620404,
      "lon": 77.5937144,
      "tags": {
        "amenity": "bank",
        "atm": "yes",
        "brand": "State Bank of India",
        "brand:wikidata": "Q1340361",
        "name": "State Bank of India",
        "name:kn": "ಭಾರತೀಯ ಸ್ಟೇಟ್ ಬ್ಯಾಂಕ್",
        "operator": "State Bank of India",
        "short_name": "SBI"
      }
    },
    {
      "type": "node",
      "id": 7576958063,
      "lat": 12.961178,
      "lon": 77.593184,
      "tags": {
        "addr:district": "Bengaluru Urban",
        "addr:full": "Srinivas Colony, Sudhama Nagar, Bengaluru",
        "addr:postcode": "560027",
        "addr:state": "Karnataka",
        "amenity": "clinic",
        "name": "Ashwini Medical Specialist Centre",
        "source": "Local Knowledge"
      }
    },
    {
      "type": "node",
      "id": 7576958103,
      "lat": 12.9593021,
      "lon": 77.5927413,
      "tags": {
        "addr:district": "Bengaluru Urban",
        "addr:full": "Srinivas Colony, Sudhama Nagar, Bengaluru",
        "addr:postcode": "560027",
        "addr:state": "Karnataka",
        "amenity": "clinic",
        "name": "Yeshaswi Clinics",
        "source": "Local Knowledge"
      }
    },
    {
      "type": "node",
      "id": 9296258308,
      "lat": 12.9590684,
      "lon": 77.5930989,
      "tags": {
        "brand": "Suzuki",
        "name": "Suzuki",
        "shop": "car"
      }
    },
    {
      "type": "node",
      "id": 9296258309,
      "lat": 12.9592631,
      "lon": 77.5931659,
      "tags": {
        "amenity": "clinic",
        "name": "Magnum Onco Care"
      }
    },
    {
      "type": "node",
      "id": 9924452289,
      "lat": 12.9584471,
      "lon": 77.5927218,
      "tags": {
        "amenity": "toilets"
      }
    },
    {
      "type": "node",
      "id": 9924452290,
      "lat": 12.9585493,
      "lon": 77.5927576,
      "tags": {
        "amenity": "toilets"
      }
    },
    {
      "type": "node",
      "id": 9924452291,
      "lat": 12.9584054,
      "lon": 77.5928903,
      "tags": {
        "addr:city": "Bengaluru",
        "addr:housenumber": "105",
        "addr:postcode": "560027",
        "addr:street": "Kengal Hanumanthaiah Road",
        "addr:suburb": "Shantinagar",
        "amenity": "restaurant",
        "capacity": "20",
        "check_date": "2024-05-11",
        "contact:instagram": "eatnaru",
        "contact:twitter": "eatnaru",
        "cuisine": "ramen",
        "delivery": "no",
        "email": "info@narunoodlebar.com",
        "name": "Naru Noodle Bar",
        "opening_hours": "Tu 18:30-20:30; We-Su 12:30-14:30,18:30-20:30",
        "outdoor_seating": "yes",
        "phone": "+91 98867 91733",
        "reservation": "only",
        "takeaway": "no",
        "toilets": "yes",
        "toilets:access": "customers",
        "website": "https://www.narunoodlebar.com/"
      }
    },
    {
      "type": "node",
      "id": 9924452292,
      "lat": 12.9584446,
      "lon": 77.5929034,
      "tags": {
        "amenity": "events_venue",
        "name": "The Conservatory"
      }
    },
    {
      "type": "node",
      "id": 10853089401,
      "lat": 12.9634257,
      "lon": 77.5842141,
      "tags": {
        "amenity": "bank",
        "atm": "yes",
        "brand": "Union Bank",
        "name": "Union Bank",
        "operator": "Union Bank"
      }
    },
    {
      "type": "node",
      "id": 10895966356,
      "lat": 12.9578594,
      "lon": 77.5926986,
      "tags": {
        "amenity": "bank",
        "atm": "yes",
        "brand": "ICICI Bank",
        "brand:wikidata": "Q1653258",
        "name": "ICICI Bank",
        "name:kn": "ಐಸಿಐಸಿಐ ಬ್ಯಾಂಕು",
        "operator": "ICICI Bank",
        "short_name": "ICICI"
      }
    },
    {
      "type": "node",
      "id": 11064985066,
      "lat": 12.9543709,
      "lon": 77.5905051,
      "tags": {
        "amenity": "courthouse",
        "name": "Bangalore Mediation Centre"
      }
    },
    {
      "type": "node",
      "id": 11295714523,
      "lat": 12.9540945,
      "lon": 77.5913153,
      "tags": {
        "amenity": "cafe",
        "level": "0",
        "name": "Murugan Cafe",
        "opening_hours": "Mo-Su 05:00-23:00; PH open"
      }
    },
    {
      "type": "node",
      "id": 11295718722,
      "lat": 12.9547702,
      "lon": 77.5915257,
      "tags": {
        "level": "0",
        "name": "Black & White",
        "shop": "alcohol"
      }
    },
    {
      "type": "node",
      "id": 11295814509,
      "lat": 12.9566336,
      "lon": 77.5922681,
      "tags": {
        "alt_name": "Kentucky Fried Chicken",
        "alt_name:en": "Kentucky Fried Chicken",
        "alt_name:hi": "केंटुकी फ्राइड चिकन",
        "alt_name:pa": "ਕੈਂਟੁਕੀ ਫ੍ਰਾਈਡ ਚਿਕਨ",
        "alt_name:pnb": "کینٹکی فرائیڈ چکن",
        "alt_name:ur": "کینٹکی فرائیڈ چکن",
        "amenity": "fast_food",
        "brand": "KFC",
        "brand:en": "KFC",
        "brand:hi": "केएफसी",
        "brand:pa": "ਕੇਐਫਸੀ",
        "brand:pnb": "کے ایف سی",
        "brand:ur": "کے ایف سی",
        "brand:wikidata": "Q524757",
        "cuisine": "chicken",
        "level": "0",
        "name": "KFC",
        "name:en": "KFC",
        "name:hi": "केएफसी",
        "name:pa": "ਕੇਐਫਸੀ",
        "name:pnb": "کے ایف سی",
        "name:ur": "کے ایف سی",
        "takeaway": "yes"
      }
    },
    {
      "type": "node",
      "id": 11295814512,
      "lat": 12.9565308,
      "lon": 77.5911058,
      "tags": {
        "level": "0",
        "name": "Sri Manjunatha Bakery & Cool Joint",
        "shop": "bakery"
      }
    },
    {
      "type": "node",
      "id": 11298161566,
      "lat": 12.9541005,
      "lon": 77.5913286,
      "tags": {
        "access": "permissive",
        "amenity": "drinking_water",
        "bottle": "yes",
        "indoor": "yes",
        "level": "0"
      }
    },
    {
      "type": "node",
      "id": 11355711181,
      "lat": 12.963518,
      "lon": 77.5846258,
      "tags": {
        "check_date": "2023-11-16",
        "name": "Presidency Cycle",
        "shop": "bicycle"
      }
    },
    {
      "type": "node",
      "id": 11355730140,
      "lat": 12.9596838,
      "lon": 77.5829494,
      "tags": {
        "amenity": "bank",
        "brand": "Yes Bank",
        "brand:wikidata": "Q2040394",
        "check_date": "2023-11-16",
        "name": "Yes Bank"
      }
    },
    {
      "type": "node",
      "id": 11355730141,
      "lat": 12.9607154,
      "lon": 77.5835644,
      "tags": {
        "amenity": "bank",
        "brand": "State Bank of India",
        "brand:wikidata": "Q1340361",
        "check_date": "2023-11-16",
        "name": "State Bank of India",
        "name:kn": "ಎಸ್ ಬಿ ಐ",
        "short_name": "SBI"
      }
    },
    {
      "type": "node",
      "id": 11355730142,
      "lat": 12.9630918,
      "lon": 77.5847915,
      "tags": {
        "amenity": "post_box",
        "operator": "India Post",
        "operator:wikidata": "Q3519720"
      }
    },
    {
      "type": "node",
      "id": 11416992093,
      "lat": 12.9596245,
      "lon": 77.5832707,
      "tags": {
        "amenity": "bank",
        "brand": "HDFC Bank",
        "brand:wikidata": "Q631047",
        "check_date": "2023-12-14",
        "name": "HDFC Bank",
        "name:kn": "ಎಚ್ ಡಿ ಎಫ್ ಸಿ",
        "short_name": "HDFC"
      }
    },
    {
      "type": "node",
      "id": 11557028551,
      "lat": 12.9584724,
      "lon": 77.5929147,
      "tags": {
        "addr:floor": "G",
        "addr:housenumber": "105",
        "addr:street": "Kengal Hanumanthaiah Road",
        "amenity": "bar",
        "check_date": "2024-01-29",
        "contact:instagram": "https://www.instagram.com/wineinprogressblr",
        "level": "0",
        "name": "Wine In Progress",
        "opening_hours": "17:00-23:00",
        "start_date": "2024-01-31",
        "website": "https://wip.thecourtyard.in/"
      }
    },
    {
      "type": "node",
      "id": 12135983655,
      "lat": 12.9632647,
      "lon": 77.5846291,
      "tags": {
        "amenity": "place_of_worship",
        "religion": "hindu"
      }
    },
    {
      "type": "node",
      "id": 12135983669,
      "lat": 12.9622079,
      "lon": 77.5842821,
      "tags": {
        "amenity": "theatre",
        "name": "ADA Ranga Mandira"
      }
    },
    {
      "type": "node",
      "id": 12135983674,
      "lat": 12.9613041,
      "lon": 77.5837721,
      "tags": {
        "amenity": "bank",
        "brand": "Dhanlaxmi Bank",
        "brand:wikidata": "Q2040440",
        "name": "Dhanlaxmi Bank",
        "name:kn": "ಧನಲಕ್ಷ್ಮಿ ಬ್ಯಾಂಕ್"
      }
    },
    {
      "type": "node",
      "id": 12149279048,
      "lat": 12.9584959,
      "lon": 77.5927545,
      "tags": {
        "addr:city": "Bengaluru",
        "addr:housenumber": "105",
        "addr:postcode": "560027",
        "addr:street": "Kengal Hanumanthaiah Road",
        "addr:suburb": "Shantinagar",
        "amenity": "cafe",
        "cuisine": "coffee_shop",
        "delivery": "yes",
        "name": "Ajji House by Subko",
        "operator": "Subko Coffee Roasters",
        "shop": "chocolate",
        "smoking": "separated",
        "takeaway": "yes",
        "toilets": "yes",
        "toilets:access": "customers",
        "website": "https://www.subko.coffee"
      }
    },
    {
      "type": "node",
      "id": 13163010608,
      "lat": 12.9573961,
      "lon": 77.5925814,
      "tags": {
        "addr:floor": "G",
        "amenity": "bank",
        "atm": "yes",
        "brand": "HDFC Bank",
        "brand:wikidata": "Q631047",
        "check_date": "2025-09-22",
        "level": "0",
        "name": "HDFC Bank",
        "name:en": "HDFC Bank",
        "short_name": "HDFC"
      }
    },
    {
      "type": "node",
      "id": 13163010609,
      "lat": 12.95751,
      "lon": 77.5926367,
      "tags": {
        "addr:floor": "G",
        "amenity": "bank",
        "check_date": "2025-09-22",
        "level": "0",
        "name": "Bharat Bank",
        "name:en": "Bharat Bank"
      }
    },
    {
      "type": "node",
      "id": 13163010610,
      "lat": 12.9570781,
      "lon": 77.5924413,
      "tags": {
        "addr:floor": "G",
        "amenity": "bank",
        "atm": "yes",
        "brand": "Kotak Mahindra Bank",
        "brand:wikidata": "Q2040404",
        "check_date": "2025-11-30",
        "level": "0",
        "name": "Kotak Mahindra Bank",
        "name:en": "Kotak Mahindra Bank",
        "wheelchair": "no"
      }
    },
    {
      "type": "way",
      "id": 347425037,
      "center": {
        "lat": 12.9609483,
        "lon": 77.5831297
      },
      "tags": {
        "amenity": "police",
        "building": "yes",
        "name": "S.J. Park Police"
      }
    },
    {
      "type": "way",
      "id": 347436881,
      "center": {
        "lat": 12.961751,
        "lon": 77.5809915
      },
      "tags": {
        "amenity": "place_of_worship",
        "building": "mosque",
        "name:kn": "ಮಸೀದಿ",
        "religion": "muslim"
      }
    },
    {
      "type": "way",
      "id": 639010024,
      "center": {
        "lat": 12.9620228,
        "lon": 77.5942366
      },
      "tags": {
        "amenity": "fuel",
        "brand": "Bharath Petroleum",
        "opening_hours": "Mo-Su 06:30-22:30",
        "operator": "Bharath Petroleum"
      }
    },
    {
      "type": "way",
      "id": 1007640514,
      "center": {
        "lat": 12.9584034,
        "lon": 77.5929594
      },
      "tags": {
        "access": "customers",
        "amenity": "parking",
        "capacity": "6",
        "parking": "surface"
      }
    },
    {
      "type": "way",
      "id": 1007640516,
      "center": {
        "lat": 12.958464,
        "lon": 77.5928624
      },
      "tags": {
        "addr:housenumber": "105",
        "addr:street": "Kengal Hanumanthaiah Road",
        "amenity": "events_venue",
        "check_date": "2024-01-29",
        "contact:instagram": "https://www.instagram.com/thecourtyardcommunity",
        "email": "info@thecourtyard.in",
        "landuse": "commercial",
        "name": "The Courtyard",
        "phone": "+91 73386 77996",
        "website": "https://thecourtyard.in"
      }
    },
    {
      "type": "way",
      "id": 1186431410,
      "center": {
        "lat": 12.9603662,
        "lon": 77.5871967
      },
      "tags": {
        "amenity": "college",
        "name": "Jain Centre for Management Studies"
      }
    },
    {
      "type": "way",
      "id": 1186431418,
      "center": {
        "lat": 12.9609075,
        "lon": 77.5872111
      },
      "tags": {
        "amenity": "cinema",
        "name": "Swagath Poornima"
      }
    },
    {
      "type": "way",
      "id": 1186431423,
      "center": {
        "lat": 12.9609027,
        "lon": 77.5853359
      },
      "tags": {
        "amenity": "college",
        "name": "Jain University",
        "name:kn": "ಜೈನ ವಿಶ್ವವಿದ್ಯಾಲಯ"
      }
    },
    {
      "type": "way",
      "id": 1186431425,
      "center": {
        "lat": 12.961114,
        "lon": 77.5845032
      },
      "tags": {
        "amenity": "place_of_worship",
        "denomination": "catholic",
        "name": "St. Theresa's Church",
        "name:kn": "ಸೈಂಟ್ ತೆರೇಸ ಚರ್ಚ್",
        "religion": "christian"
      }
    },
    {
      "type": "way",
      "id": 1267610352,
      "center": {
        "lat": 12.9600528,
        "lon": 77.586529
      },
      "tags": {
        "amenity": "events_venue",
        "name": "Sri Godwad Bhavana"
      }
    },
    {
      "type": "way",
      "id": 1309994351,
      "center": {
        "lat": 12.9599111,
        "lon": 77.5835708
      },
      "tags": {
        "amenity": "fuel",
        "brand": "Shell",
        "name": "Shell",
        "name:kn": "ಶೆಲ್",
        "operator": "Shell"
      }
    },
    {
      "type": "way",
      "id": 1311064558,
      "center": {
        "lat": 12.9606538,
        "lon": 77.5840403
      },
      "tags": {
        "addr:district": "Bengaluru Urban",
        "addr:full": "Chandrika Tower, JC Road, Bengaluru",
        "addr:postcode": "560002",
        "addr:state": "Karnataka",
        "addr:street": "Jayachamaraja Wodeyar Road",
        "amenity": "hospital",
        "healthcare": "hospital",
        "name": "Trustwell Hospitals",
        "source": "Local Knowledge",
        "website": "https://trustwellhospitals.com/"
      }
    }
  ]
}