{
  "area_name": "Sindhi Colony",
  "osm_id": 9666477529,
  "osm_type": "node",
  "place_type": "neighbourhood",
  "amenity_count": 550,
  "amenities": [
    {
      "type": "node",
      "id": 343089650,
      "lat": 12.9915471,
      "lon": 77.614181,
      "tags": {
        "addr:housenumber": "# 1/2",
        "addr:postcode": "560005",
        "addr:street": "Wheeler Road",
        "name": "Thom's Bakery",
        "name:ar": "دكان كبير",
        "name:kn": "ಥಾಮ್ಸ್ ಬೇಕರಿ",
        "shop": "bakery"
      }
    },
    {
      "type": "node",
      "id": 667751121,
      "lat": 13.0009809,
      "lon": 77.6138953,
      "tags": {
        "addr:city": "Bangalore",
        "addr:postcode": "560005",
        "addr:street": "Madhavaraya Mudaliar Road",
        "name": "Namdhari Fresh, Frazer Town",
        "name:kn": "ನಾಮಧಾರಿ ಫ್ರೆಶ್",
        "operator": "Namdhari Fresh",
        "organic": "yes",
        "shop": "supermarket",
        "website": "https://www.namdharifresh.com/"
      }
    },
    {
      "type": "node",
      "id": 859809191,
      "lat": 13.0016772,
      "lon": 77.6138117,
      "tags": {
        "amenity": "school",
        "name": "Naasih Montessori Public School"
      }
    },
    {
      "type": "node",
      "id": 1085622347,
      "lat": 13.0009914,
      "lon": 77.6184047,
      "tags": {
        "addr:street": "Near Bangalore East Railway Station",
        "amenity": "atm",
        "operator": "Canara Bank ATM"
      }
    },
    {
      "type": "node",
      "id": 1442052879,
      "lat": 13.0004021,
      "lon": 77.6233737,
      "tags": {
        "amenity": "atm",
        "brand": "State Bank of India",
        "brand:wikidata": "Q1340361",
        "operator": "State Bank of India",
        "operator:wikidata": "Q1340361",
        "short_name": "SBI",
        "toilets:wheelchair": "no",
        "wheelchair": "yes"
      }
    },
    {
      "type": "node",
      "id": 1442053943,
      "lat": 12.9999497,
      "lon": 77.6229731,
      "tags": {
        "amenity": "restaurant",
        "cuisine": "chinese",
        "name": "Delicacy Chinese Restaurant",
        "name:kn": "ಡೆಲಿಕಸಿ ಚೈನೀಸ್ ರೆಸ್ಟೋರಂಟ್",
        "toilets:wheelchair": "no",
        "wheelchair": "limited"
      }
    },
    {
      "type": "node",
      "id": 1469181813,
      "lat": 12.995625,
      "lon": 77.6113272,
      "tags": {
        "addr:city": "Bengaluru",
        "addr:country": "IN",
        "addr:hamlet": "Frazer Town",
        "addr:postcode": "560005",
        "addr:street": "Saunders Road",
        "amenity": "hospital",
        "name": "Seventh Day Adventist Hospital",
        "name:kn": "ಸೆವೆಂತ್ ಡೇ ಅಡ್ವೆನ್ಟಿಸ್ಟ್ ಆಸ್ಪತ್ರೆ"
      }
    },
    {
      "type": "node",
      "id": 1469183215,
      "lat": 12.9930687,
      "lon": 77.609477,
      "tags": {
        "amenity": "toilets"
      }
    },
    {
      "type": "node",
      "id": 1469190367,
      "lat": 12.9968818,
      "lon": 77.6109656,
      "tags": {
        "amenity": "school",
        "name": "Fathima's Girls High School",
        "name:kn": "ಫಾತೀಮಾಸ್ ಹೆಣ್ಣು ಮಕ್ಕಳ ಪ್ರೌಡ ಶಾಲೆ"
      }
    },
    {
      "type": "node",
      "id": 1469190369,
      "lat": 12.9961919,
      "lon": 77.6115235,
      "tags": {
        "addr:city": "Bangalore",
        "addr:district": "Bengaluru Urban",
        "addr:housenumber": "86/1",
        "addr:postcode": "560005",
        "addr:street": "Saunders Road",
        "email": "dreamworldindia@yahoo.com",
        "mobile": "+91 41 25 22 58",
        "name": "Dream World",
        "name:kn": "ಡ್ರೀಮ್ ವರ್ಲ್ಡ್",
        "name:pa": "ਡ੍ਰੀਮ ਵਰਲਡ",
        "name:ur": "ڈریم ورلڈ",
        "payment:cash": "yes",
        "payment:credit_cards": "yes",
        "payment:debit_cards": "yes",
        "payment:mastercard": "yes",
        "payment:visa": "yes",
        "phone": "+91 80 6564 6060",
        "shop": "gift",
        "website": "https://dreamworldindia.in/"
      }
    },
    {
      "type": "node",
      "id": 1469190371,
      "lat": 12.9961239,
      "lon": 77.6132737,
      "tags": {
        "amenity": "cafe",
        "brand": "Third Wave Coffee Roasters",
        "brand:wikidata": "Q7785004",
        "cuisine": "coffee_shop",
        "delivery": "yes",
        "internet_access": "yes",
        "internet_access:fee": "no",
        "name": "Third Wave Coffee Roasters",
        "payment:credit_cards": "yes",
        "payment:debit_cards": "yes",
        "takeaway": "yes",
        "website": "https://www.thirdwavecoffeeroasters.com/"
      }
    },
    {
      "type": "node",
      "id": 1469190372,
      "lat": 12.9959044,
      "lon": 77.6130336,
      "tags": {
        "amenity": "restaurant",
        "cuisine": "indian",
        "diet:vegetarian": "yes",
        "name": "Nandini Restaurant",
        "name:kn": "ನಂದಿನಿ ಉಪಾಹಾರ ಗೃಹ"
      }
    },
    {
      "type": "node",
      "id": 1469190376,
      "lat": 12.9958364,
      "lon": 77.6131543,
      "tags": {
        "amenity": "restaurant",
        "check_date": "2024-04-27",
        "cuisine": "indian",
        "diet:vegetarian": "yes",
        "name": "Udupi Shanthi Sagar",
        "name:kn": "ಶಾಂತಿ ಸಾಗರ"
      }
    },
    {
      "type": "node",
      "id": 1469190377,
      "lat": 12.9973354,
      "lon": 77.6106956,
      "tags": {
        "amenity": "fast_food",
        "brand": "Domino's",
        "brand:ks": "ڈومینوز",
        "brand:pa": "ਡੋਮੀਨੋਜ਼",
        "brand:ur": "ڈومینوز",
        "brand:wikidata": "Q839466",
        "brand:wikipedia": "en:Domino's Pizza",
        "cuisine": "pizza",
        "name": "Domino's",
        "name:kn": "ಡಾಮಿನೋಸ್",
        "name:ks": "ڈومینوز",
        "name:pa": "ਡੋਮੀਨੋਜ਼",
        "name:ur": "ڈومینوز",
        "takeaway": "yes"
      }
    },
    {
      "type": "node",
      "id": 1469190378,
      "lat": 12.9961448,
      "lon": 77.6112526,
      "tags": {
        "amenity": "restaurant",
        "name": "Ponnuswamy Restaurant",
        "name:kn": "ಪೋನ್ನುಸ್ವಾಮಿ ರೆಸ್ಟೊರೆಂಟ್"
      }
    },
    {
      "type": "node",
      "id": 1469190382,
      "lat": 12.9961891,
      "lon": 77.613053,
      "tags": {
        "addr:city": "Bangalore",
        "addr:district": "Bengaluru Urban",
        "addr:postcode": "560005",
        "addr:street": "Coles Road",
        "name": "Lakme",
        "name:kn": "ಲಾಕ್ಮೆ",
        "shop": "hairdresser"
      }
    },
    {
      "type": "node",
      "id": 1469190383,
      "lat": 12.9970256,
      "lon": 77.611258,
      "tags": {
        "brand": "Reliance Fresh",
        "brand:wikidata": "Q7311014",
        "name": "Reliance Fresh",
        "name:kn": "ರಿಲಾಯನ್ಸ್ ಫ್ರೆಶ್",
        "shop": "supermarket"
      }
    },
    {
      "type": "node",
      "id": 1469196551,
      "lat": 12.9931105,
      "lon": 77.6089191,
      "tags": {
        "addr:street": "Saint John's Church Road",
        "amenity": "restaurant",
        "name": "Al-Siddique Kabab Center",
        "name:kn": "ಅಲ್-ಸಿದ್ದಿಕಿ ಕಬಾಬ್ ಸೆಂಟರ್"
      }
    },
    {
      "type": "node",
      "id": 1469196554,
      "lat": 12.993662,
      "lon": 77.6086321,
      "tags": {
        "name": "Tyre Shop",
        "shop": "car_repair"
      }
    },
    {
      "type": "node",
      "id": 1469196557,
      "lat": 12.9933614,
      "lon": 77.6080259,
      "tags": {
        "addr:street": "Saint John's Church Road",
        "amenity": "clinic",
        "name": "Santosh Diagnostic & Scan Center"
      }
    },
    {
      "type": "node",
      "id": 1469196561,
      "lat": 12.9934162,
      "lon": 77.608356,
      "tags": {
        "addr:street": "Saint John's Church Road",
        "amenity": "restaurant",
        "name": "Siddique Kabab Center",
        "name:kn": "ಸಿದ್ದಿಕಿ ಕಬಾಬ್ ಸೆಂಟರ್"
      }
    },
    {
      "type": "node",
      "id": 1469196563,
      "lat": 12.9936045,
      "lon": 77.6078087,
      "tags": {
        "amenity": "vending_machine",
        "name": "Citibank ATM",
        "name:kn": "ಸಿಟಿಬ್ಯಾಂಕ್"
      }
    },
    {
      "type": "node",
      "id": 1469196568,
      "lat": 12.9936175,
      "lon": 77.6083773,
      "tags": {
        "addr:street": "Saint John's Church Road",
        "name": "Mutton Shop",
        "shop": "butcher"
      }
    },
    {
      "type": "node",
      "id": 1469196571,
      "lat": 12.9936149,
      "lon": 77.6084336,
      "tags": {
        "name": "Chicken Shop",
        "shop": "butcher"
      }
    },
    {
      "type": "node",
      "id": 1469196573,
      "lat": 12.9935915,
      "lon": 77.6086664,
      "tags": {
        "addr:street": "Saint John's Church Road",
        "amenity": "clinic",
        "name": "Park View Clinic",
        "name:kn": "ಪಾರ್ಕ್ ವೀವ್ ಕ್ಲಿನಿಕ್"
      }
    },
    {
      "type": "node",
      "id": 1469266907,
      "lat": 12.9933042,
      "lon": 77.6131994,
      "tags": {
        "amenity": "school",
        "name": "St. Francis Xavier's High School",
        "name:kn": "ಸಂತ ಫ್ರಾನ್ಸೀಸ್ ಕ್ಷೇವಿಯರ್ಸ್ ಪ್ರೌಡ ಶಾಲೆ"
      }
    },
    {
      "type": "node",
      "id": 1469266908,
      "lat": 12.992426,
      "lon": 77.6135802,
      "tags": {
        "amenity": "school",
        "check_date": "2024-12-14",
        "name": "St. Joseph's Convent Girls High School"
      }
    },
    {
      "type": "node",
      "id": 1469267174,
      "lat": 12.9938162,
      "lon": 77.6144766,
      "tags": {
        "amenity": "school",
        "name": "Holy Angel's High School",
        "name:kn": "ಹೋಲಿ ಎಂಜೆಲ್ಸ್ ಪ್ರೌಢಶಾಲೆ"
      }
    },
    {
      "type": "node",
      "id": 1469267177,
      "lat": 12.9926871,
      "lon": 77.6141548,
      "tags": {
        "amenity": "school",
        "name": "RTC Girls High School"
      }
    },
    {
      "type": "node",
      "id": 1469274353,
      "lat": 12.9947968,
      "lon": 77.6152664,
      "tags": {
        "amenity": "bank",
        "atm": "yes",
        "brand": "ICICI Bank",
        "brand:wikidata": "Q1653258",
        "name": "ICICI Bank",
        "name:en": "ICICI Bank",
        "name:kn": "ಐಸಿಐಸಿಐ ಬ್ಯಾಂಕು",
        "short_name": "ICICI",
        "website": "https://www.icicibank.com"
      }
    },
    {
      "type": "node",
      "id": 1469274356,
      "lat": 12.9946747,
      "lon": 77.6150372,
      "tags": {
        "amenity": "pub",
        "name": "Sherlock's Pub",
        "name:kn": "ಶೆರ್‌ಲಾಕ್ ಹೋಮ್ಸ್ ಬಾರ್ ಹಾಗು ರೆಸ್ಟೊರೆಂಟ್"
      }
    },
    {
      "type": "node",
      "id": 1469282330,
      "lat": 12.9960742,
      "lon": 77.6170891,
      "tags": {
        "amenity": "restaurant",
        "name": "Komala Refreshment",
        "name:kn": "ಕೊಮಲ ರಿಫ್ರೆಶ್‌ಮೆಂಟ್"
      }
    },
    {
      "type": "node",
      "id": 1469314053,
      "lat": 12.9965077,
      "lon": 77.6220456,
      "tags": {
        "amenity": "hospital",
        "name": "Srinivasa Nursing Home"
      }
    },
    {
      "type": "node",
      "id": 1469314069,
      "lat": 12.9963828,
      "lon": 77.6202753,
      "tags": {
        "amenity": "bank",
        "name": "Vijaya Bank",
        "name:kn": "ವಿಜಯ ಬ್ಯಾಂಕು"
      }
    },
    {
      "type": "node",
      "id": 1469320276,
      "lat": 12.9950065,
      "lon": 77.6202748,
      "tags": {
        "amenity": "place_of_worship",
        "name": "Mouna Guru Swamy Mutt and Temple",
        "religion": "hindu"
      }
    },
    {
      "type": "node",
      "id": 1469320280,
      "lat": 12.9969092,
      "lon": 77.6198773,
      "tags": {
        "amenity": "bank",
        "brand": "Axis Bank",
        "brand:wikidata": "Q2003549",
        "brand:wikipedia": "en:Axis Bank",
        "name": "Axis Bank",
        "name:en": "Axis Bank",
        "name:kn": "ಅಕ್ಸಿಸ್ ಬ್ಯಾಂಕ್",
        "website": "https://www.axisbank.com"
      }
    },
    {
      "type": "node",
      "id": 1469320296,
      "lat": 12.9975424,
      "lon": 77.6225532,
      "tags": {
        "amenity": "place_of_worship",
        "name": "Sri Varasiddhi Vinayaka Temple",
        "name:kn": "ವರಸಿದ್ದಿ ವಿನಾಯಕ ದೇವಸ್ಥಾನ",
        "religion": "hindu",
        "toilets:wheelchair": "no",
        "wheelchair": "yes"
      }
    },
    {
      "type": "node",
      "id": 1474170030,
      "lat": 12.9954523,
      "lon": 77.6138486,
      "tags": {
        "addr:city": "Bengaluru",
        "addr:housenumber": "66/1",
        "addr:postcode": "560005",
        "addr:street": "Coles Road",
        "addr:suburb": "Fraser Town",
        "amenity": "restaurant",
        "branch": "Coles Road",
        "brand": "Pizza Hut",
        "brand:wikidata": "Q191615",
        "check_date": "2024-06-15",
        "cuisine": "pizza",
        "name": "Pizza Hut",
        "name:kn": "ಪಿಜ್ಜಾ ಹಟ್",
        "website": "https://www.pizzahut.co.in/"
      }
    },
    {
      "type": "node",
      "id": 1474195314,
      "lat": 12.9978917,
      "lon": 77.6147471,
      "tags": {
        "addr:housenumber": "16",
        "addr:postcode": "560005",
        "addr:street": "Mosque Road",
        "alt_name": "Kentucky Fried Chicken",
        "alt_name:en": "Kentucky Fried Chicken",
        "alt_name:hi": "केंटुकी फ्राइड चिकन",
        "alt_name:pa": "ਕੈਂਟੁਕੀ ਫ੍ਰਾਈਡ ਚਿਕਨ",
        "alt_name:pnb": "کینٹکی فرائیڈ چکن",
        "alt_name:ur": "کینٹکی فرائیڈ چکن",
        "amenity": "fast_food",
        "brand": "KFC",
        "brand:en": "KFC",
        "brand:hi": "केएफसी",
        "brand:pa": "ਕੇਐਫਸੀ",
        "brand:pnb": "کے ایف سی",
        "brand:ur": "کے ایف سی",
        "brand:wikidata": "Q524757",
        "brand:wikipedia": "en:KFC",
        "brand:wikipedia:pa": "ਕੇਐਫਸੀ",
        "brand:wikipedia:ur": "کینٹکی فرائیڈ چکن",
        "cuisine": "chicken",
        "name": "KFC",
        "name:en": "KFC",
        "name:hi": "केएफसी",
        "name:kn": "ಕೆಎಫ್‍ಸಿ",
        "name:pa": "ਕੇਐਫਸੀ",
        "name:pnb": "کے ایف سی",
        "name:ur": "کے ایف سی",
        "takeaway": "yes"
      }
    },
    {
      "type": "node",
      "id": 1474195320,
      "lat": 12.9973063,
      "lon": 77.6138674,
      "tags": {
        "addr:housenumber": "11",
        "addr:postcode": "560005",
        "addr:street": "Mosque Road",
        "amenity": "restaurant",
        "cuisine": "chinese",
        "name": "Beijing Bites",
        "name:kn": "ಬೀಜಿಂಗ್ ಬೈಟ್ಸ್"
      }
    },
    {
      "type": "node",
      "id": 1474195332,
      "lat": 12.9968718,
      "lon": 77.6143631,
      "tags": {
        "addr:housenumber": "93/2",
        "addr:postcode": "560005",
        "addr:street": "Mosque Road",
        "brand": "Sweet Chariot",
        "check_date": "2024-04-27",
        "delivery": "yes",
        "name": "Sweet Chariot",
        "name:kn": "ಸ್ವೀಟ್ ಚಾರಿಯಟ್",
        "shop": "pastry",
        "takeaway": "yes"
      }
    },
    {
      "type": "node",
      "id": 1474195340,
      "lat": 12.9963445,
      "lon": 77.6157181,
      "tags": {
        "addr:housename": "Aziz Gold Building",
        "addr:housenumber": "13",
        "addr:postcode": "560005",
        "addr:street": "Mosque Road",
        "amenity": "fast_food",
        "brand": "McDonald's",
        "brand:pa": "ਮੈਕਡੋਨਲਡ’ਜ਼",
        "brand:ur": "مکڈونلڈز",
        "brand:wikidata": "Q38076",
        "brand:wikipedia": "en:McDonald's",
        "brand:wikipedia:pa": "ਮੈਕਡੋਨਲਡ’ਜ਼",
        "brand:wikipedia:ur": "مکڈونلڈز",
        "cuisine": "burger",
        "name": "McDonald's",
        "name:kn": "ಮ್ಯಾಕ್‌ಡೊನಾಲ್ಡ್ಸ್",
        "name:pa": "ਮੈਕਡੋਨਲਡ’ਜ਼",
        "name:ur": "مکڈونلڈز",
        "takeaway": "yes"
      }
    },
    {
      "type": "node",
      "id": 1474195346,
      "lat": 12.9954036,
      "lon": 77.6139103,
      "tags": {
        "amenity": "fast_food",
        "name": "Ganesha Fruit Juice Center",
        "name:kn": "ಗಣೇಶ ಫ್ರೂಟ್ ಜ್ಯೂಸ್ ಸೆಂಟರ್"
      }
    },
    {
      "type": "node",
      "id": 1474195348,
      "lat": 12.9966022,
      "lon": 77.614216,
      "tags": {
        "addr:housenumber": "93",
        "addr:postcode": "560005",
        "addr:street": "Mosque Road",
        "name": "Albert Bakery",
        "name:kn": "ಆಲ್ಬರ್ಟ್ ಬೇಕರಿ",
        "name:pa": "ਐਲਬਰਟ ਬੇਕਰੀ",
        "name:ur": "البرٹ بیکری",
        "shop": "bakery"
      }
    },
    {
      "type": "node",
      "id": 1474200449,
      "lat": 12.9999459,
      "lon": 77.6158737,
      "tags": {
        "addr:postcode": "560005",
        "addr:street": "Mosque Road",
        "alt_name": "Hotel Empire",
        "amenity": "restaurant",
        "brand": "Empire",
        "check_date": "2024-04-27",
        "cuisine": "indian",
        "delivery": "yes",
        "diet:halal": "yes",
        "name": "Empire",
        "name:kn": "ಎಂಪೈರ್ ರೆಸ್ಟೋರೆಂಟ್",
        "takeaway": "yes"
      }
    },
    {
      "type": "node",
      "id": 1474297275,
      "lat": 12.9918131,
      "lon": 77.6116694,
      "tags": {
        "addr:postcode": "560005",
        "addr:street": "ST JOHNS CHURCH ROAD",
        "alt_name": "Union Bank, St. John's Church Road Branch",
        "amenity": "bank",
        "atm": "yes",
        "brand": "Union Bank of India",
        "brand:wikidata": "Q2004078",
        "brand:wikipedia": "en:Union Bank of India",
        "name": "Union Bank of India",
        "name:en": "Union Bank of India",
        "name:kn": "ಯೂನಿಯನ್ ಬ್ಯಾಂಕ್",
        "short_name": "UBI",
        "website": "https://www.unionbankofindia.co.in/"
      }
    },
    {
      "type": "node",
      "id": 1852659127,
      "lat": 12.9966824,
      "lon": 77.6193965,
      "tags": {
        "amenity": "fuel",
        "brand": "Indian Oil",
        "brand:wikidata": "Q1289348",
        "compressed_air": "yes",
        "name": "Indian Oil"
      }
    },
    {
      "type": "node",
      "id": 1852660681,
      "lat": 12.9965335,
      "lon": 77.6190505,
      "tags": {
        "name": "Mandovi Motors",
        "shop": "car"
      }
    },
    {
      "type": "node",
      "id": 1852663951,
      "lat": 12.9875167,
      "lon": 77.6203112,
      "tags": {
        "amenity": "place_of_worship",
        "name": "Raghavendra Swami Mutt",
        "name:kn": "ರಾಘವೇಂದ್ರ ಸ್ವಾಮಿ ಮಠ",
        "religion": "hindu"
      }
    },
    {
      "type": "node",
      "id": 1852664343,
      "lat": 12.9864817,
      "lon": 77.6194153,
      "tags": {
        "shop": "florist"
      }
    },
    {
      "type": "node",
      "id": 1852665371,
      "lat": 12.9865706,
      "lon": 77.6194475,
      "tags": {
        "amenity": "restaurant",
        "cuisine": "international",
        "name": "Rogue Elephant"
      }
    },
    {
      "type": "node",
      "id": 2003935536,
      "lat": 12.994291,
      "lon": 77.6196026,
      "tags": {
        "amenity": "school",
        "name": "St Aloysius Pre Unniversity College"
      }
    },
    {
      "type": "node",
      "id": 2013821580,
      "lat": 13.0005858,
      "lon": 77.6148025,
      "tags": {
        "addr:housenumber": "No.69,1st floor,",
        "addr:postcode": "560005",
        "addr:street": "M.M Road, Frazer Town, Bangalore",
        "amenity": "restaurant",
        "cuisine": "persian;arabic;bhatkali",
        "name": "Alibaba Cafe & Restaurant"
      }
    },
    {
      "type": "node",
      "id": 2247465811,
      "lat": 12.9945651,
      "lon": 77.6077839,
      "tags": {
        "amenity": "fast_food",
        "name": "Nandi Bakery",
        "name:kn": "ನಂದಿ",
        "shop": "kiosk"
      }
    },
    {
      "type": "node",
      "id": 2247465952,
      "lat": 12.9955047,
      "lon": 77.6081944,
      "tags": {
        "amenity": "restaurant",
        "name": "Best of Bengal"
      }
    },
    {
      "type": "node",
      "id": 2533566686,
      "lat": 13.0007683,
      "lon": 77.6132902,
      "tags": {
        "amenity": "hospital",
        "name": "United Medical lab",
        "name:kn": "ಯುನೈಟೆಡ್ ಮೆಡಿಕಲ್ ಲ್ಯಾಬ್"
      }
    },
    {
      "type": "node",
      "id": 2533566974,
      "lat": 12.9993281,
      "lon": 77.6192054,
      "tags": {
        "amenity": "clinic",
        "name": "Maruthi Clinic",
        "name:kn": "ಮಾರುತಿ ಚಿಕಿತ್ಸಾಲಯ"
      }
    },
    {
      "type": "node",
      "id": 2533910830,
      "lat": 13.0022734,
      "lon": 77.6177342,
      "tags": {
        "amenity": "bank",
        "atm": "yes",
        "brand": "State Bank of India",
        "brand:wikidata": "Q1340361",
        "brand:wikipedia": "en:State Bank of India",
        "name": "State Bank of India",
        "name:kn": "ಭಾರತೀಯ ಸ್ಟೇಟ್ ಬ್ಯಾಂಕ್",
        "short_name": "SBI",
        "toilets:wheelchair": "no",
        "wheelchair": "limited"
      }
    },
    {
      "type": "node",
      "id": 3193521628,
      "lat": 12.9977551,
      "lon": 77.6205782,
      "tags": {
        "amenity": "restaurant",
        "cuisine": "regional",
        "name": "Sri Devi Café"
      }
    },
    {
      "type": "node",
      "id": 3342048294,
      "lat": 12.9976504,
      "lon": 77.6095995,
      "tags": {
        "amenity": "bank",
        "brand": "Bank of Baroda",
        "brand:wikidata": "Q2003797",
        "brand:wikipedia": "en:Bank of Baroda",
        "name": "Bank of Baroda",
        "name:en": "Bank of Baroda",
        "name:kn": "ಬ್ಯಾಂಕ್ ಆಫ್ ಬರೋಡ",
        "short_name": "BoB",
        "website": "http://www.bankofbaroda.com"
      }
    },
    {
      "type": "node",
      "id": 3342048735,
      "lat": 12.9978263,
      "lon": 77.6097252,
      "tags": {
        "amenity": "atm",
        "brand": "Axis Bank",
        "brand:wikidata": "Q2003549",
        "name": "Axis Bank",
        "name:kn": "ಆಕ್ಸಿಸ್ ಬ್ಯಾಂಕ್",
        "operator": "Axis Bank",
        "operator:wikidata": "Q2003549"
      }
    },
    {
      "type": "node",
      "id": 3342051067,
      "lat": 12.997797,
      "lon": 77.6096526,
      "tags": {
        "amenity": "atm",
        "brand": "Bank of Baroda",
        "brand:wikidata": "Q2003797",
        "name": "Bank of Baroda",
        "name:kn": "ಬ್ಯಾಂಕ್ ಆಫ್ ಬರೋಡ",
        "operator": "Bank of Baroda",
        "operator:wikidata": "Q2003797"
      }
    },
    {
      "type": "node",
      "id": 3342080436,
      "lat": 12.9947176,
      "lon": 77.6153985,
      "tags": {
        "amenity": "bank",
        "atm": "yes",
        "brand": "IndusInd Bank",
        "brand:wikidata": "Q2040323",
        "brand:wikipedia": "en:Axis Bank",
        "check_date": "2024-05-19",
        "name": "IndusInd Bank",
        "name:en": "IndusInd Bank",
        "website": "https://www.axisbank.com"
      }
    },
    {
      "type": "node",
      "id": 3342184333,
      "lat": 12.9974931,
      "lon": 77.6103558,
      "tags": {
        "amenity": "bank",
        "brand": "Axis Bank",
        "brand:wikidata": "Q2003549",
        "brand:wikipedia": "en:Axis Bank",
        "name": "Axis Bank",
        "name:en": "Axis Bank",
        "name:kn": "ಆಕ್ಸಿಸ್ ಬ್ಯಾಂಕ್",
        "website": "https://www.axisbank.com"
      }
    },
    {
      "type": "node",
      "id": 3342186004,
      "lat": 12.9974461,
      "lon": 77.6100447,
      "tags": {
        "amenity": "atm",
        "name": "Kotak Bank ATM",
        "name:kn": "ಕೋಟಕ್ ಮಹಿಂದ್ರ ಬ್ಯಾಂಕ್"
      }
    },
    {
      "type": "node",
      "id": 3342192953,
      "lat": 12.9982941,
      "lon": 77.608715,
      "tags": {
        "amenity": "bank",
        "brand": "Union Bank of India",
        "brand:wikidata": "Q2004078",
        "brand:wikipedia": "en:Corporation Bank",
        "check_date": "2024-05-19",
        "name": "Union Bank of India",
        "name:en": "Union Bank of India",
        "website": "https://corpbank.com/"
      }
    },
    {
      "type": "node",
      "id": 3342200596,
      "lat": 12.9999995,
      "lon": 77.6107662,
      "tags": {
        "name": "GK Vale",
        "name:kn": "ಜಿಕೆ ವೇಲ್",
        "shop": "photo"
      }
    },
    {
      "type": "node",
      "id": 3342201618,
      "lat": 12.9999864,
      "lon": 77.6110398,
      "tags": {
        "name": "Dilpasand Tea Canter",
        "shop": "tea"
      }
    },
    {
      "type": "node",
      "id": 3342217126,
      "lat": 13.0001615,
      "lon": 77.6111363,
      "tags": {
        "name": "Savera Tea House",
        "shop": "tea"
      }
    },
    {
      "type": "node",
      "id": 3342219225,
      "lat": 12.999644,
      "lon": 77.611418,
      "tags": {
        "amenity": "atm",
        "brand": "Bank of Baroda",
        "brand:wikidata": "Q2003797",
        "name": "Bank of Baroda",
        "operator": "Bank of Baroda",
        "operator:wikidata": "Q2003797"
      }
    },
    {
      "type": "node",
      "id": 3342219791,
      "lat": 13.0002582,
      "lon": 77.6112114,
      "tags": {
        "amenity": "bank",
        "atm": "yes",
        "brand": "State Bank of India",
        "brand:wikidata": "Q1340361",
        "brand:wikipedia": "en:State Bank of India",
        "name": "State Bank of India",
        "name:kn": "ಭಾರತೀಯ ಸ್ಟೇಟ್ ಬ್ಯಾಂಕ್",
        "short_name": "SBI",
        "website": "https://www.sbi.co.in"
      }
    },
    {
      "type": "node",
      "id": 3342219979,
      "lat": 13.000752,
      "lon": 77.6131248,
      "tags": {
        "amenity": "restaurant",
        "name": "Richies Rahhams Families International"
      }
    },
    {
      "type": "node",
      "id": 3342223440,
      "lat": 13.0007619,
      "lon": 77.6131533,
      "tags": {
        "amenity": "atm",
        "brand": "Axis Bank",
        "brand:wikidata": "Q2003549",
        "name": "Axis Bank",
        "name:kn": "ಆಕ್ಸಿಸ್ ಬ್ಯಾಂಕ್",
        "operator": "Axis Bank",
        "operator:wikidata": "Q2003549"
      }
    },
    {
      "type": "node",
      "id": 3344232700,
      "lat": 12.9952969,
      "lon": 77.6144743,
      "tags": {
        "amenity": "atm",
        "brand": "HDFC Bank",
        "brand:wikidata": "Q631047",
        "name": "HDFC Bank",
        "name:kn": "ಎಚ್. ಡಿ. ಎಫ್. ಸಿ.",
        "operator": "HDFC Bank",
        "operator:wikidata": "Q631047",
        "short_name": "HDFC"
      }
    },
    {
      "type": "node",
      "id": 3344233314,
      "lat": 12.9939906,
      "lon": 77.6154041,
      "tags": {
        "amenity": "atm",
        "brand": "Citibank",
        "brand:wikidata": "Q857063",
        "name": "Citibank",
        "name:kn": "ಸಿಟಿ ಬ್ಯಾಂಕ್",
        "operator": "Citibank",
        "operator:wikidata": "Q857063",
        "short_name": "Citi"
      }
    },
    {
      "type": "node",
      "id": 3344233626,
      "lat": 12.9940387,
      "lon": 77.6156783,
      "tags": {
        "amenity": "bank",
        "atm": "yes",
        "brand": "Kotak Mahindra Bank",
        "brand:wikidata": "Q2040404",
        "brand:wikipedia": "en:Kotak Mahindra Bank",
        "name": "Kotak Mahindra Bank",
        "name:en": "Kotak Mahindra Bank",
        "name:kn": "ಕೋಟಕ್ ಮಹಿಂದ್ರ ಬ್ಯಾಂಕ್",
        "website": "http://www.kotak.com"
      }
    },
    {
      "type": "node",
      "id": 3526180139,
      "lat": 13.0035234,
      "lon": 77.6166155,
      "tags": {
        "amenity": "bank",
        "atm": "yes",
        "brand": "ICICI Bank",
        "brand:wikidata": "Q1653258",
        "brand:wikipedia": "en:ICICI Bank",
        "name": "ICICI Bank",
        "name:en": "ICICI Bank",
        "name:kn": "ಐಸಿಐಸಿಐ ಬ್ಯಾಂಕ್",
        "short_name": "ICICI",
        "website": "https://www.icicibank.com",
        "wheelchair": "no"
      }
    },
    {
      "type": "node",
      "id": 3937163557,
      "lat": 13.0030061,
      "lon": 77.6199476,
      "tags": {
        "name": "Fancy Mens Saloon",
        "name:kn": "ಫ್ಯಾನ್ಸಿ ಮೆನ್ಸ್ ಸಲೂನ್",
        "opening_hours": "We-Mo 10:00-19:00",
        "shop": "hairdresser",
        "wheelchair": "limited"
      }
    },
    {
      "type": "node",
      "id": 4036140739,
      "lat": 13.0005533,
      "lon": 77.6233992,
      "tags": {
        "amenity": "atm",
        "brand": "Canara Bank",
        "brand:en": "Canara Bank",
        "brand:hi": "केनरा बैंक",
        "brand:kn": "ಕೆನರಾ ಬ್ಯಾಂಕ್",
        "brand:pa": "ਕੇਨਰਾ ਬੈਂਕ",
        "brand:pnb": "کینرا بینک",
        "brand:ur": "کینرا بینک",
        "brand:wikidata": "Q2003777",
        "name": "Canara Bank",
        "name:en": "Canara Bank",
        "name:hi": "केनरा बैंक",
        "name:kn": "ಕೆನರಾ ಬ್ಯಾಂಕ್",
        "name:pa": "ਕੇਨਰਾ ਬੈਂਕ",
        "name:pnb": "کینرا بینک",
        "name:ur": "کینرا بینک",
        "operator": "Canara Bank",
        "operator:wikidata": "Q2003777"
      }
    },
    {
      "type": "node",
      "id": 4117249122,
      "lat": 12.987086,
      "lon": 77.6189974,
      "tags": {
        "addr:street": "Saint John's Church Road",
        "amenity": "restaurant",
        "name": "Shanti Sagar",
        "name:kn": "ಶಾಂತಿ ಸಾಗರ್"
      }
    },
    {
      "type": "node",
      "id": 4225196591,
      "lat": 12.9872979,
      "lon": 77.6178332,
      "tags": {
        "addr:housenumber": "59",
        "addr:postcode": "560042",
        "addr:street": "Osbourne Road",
        "name": "Garden care",
        "opening_hours": "Mo-Su 10:00-19:30",
        "shop": "greengrocer"
      }
    },
    {
      "type": "node",
      "id": 4227854807,
      "lat": 12.9875355,
      "lon": 77.6190745,
      "tags": {
        "amenity": "restaurant"
      }
    },
    {
      "type": "node",
      "id": 4227854808,
      "lat": 12.9875472,
      "lon": 77.6189672,
      "tags": {
        "name": "Lake View Supermarket",
        "shop": "supermarket"
      }
    },
    {
      "type": "node",
      "id": 4227854812,
      "lat": 12.9875826,
      "lon": 77.6188927,
      "tags": {
        "amenity": "restaurant",
        "name": "Moritz Nano Restaurant"
      }
    },
    {
      "type": "node",
      "id": 4252085630,
      "lat": 12.9908548,
      "lon": 77.6192753,
      "tags": {
        "addr:floor": "4",
        "addr:street": "Assayee Road",
        "amenity": "pub",
        "check_date": "2023-12-30",
        "level": "4",
        "name": "Watson's Ulsoor",
        "smoking": "separated",
        "toilets:wheelchair": "no",
        "wheelchair": "no"
      }
    },
    {
      "type": "node",
      "id": 4252092996,
      "lat": 12.9908261,
      "lon": 77.6193188,
      "tags": {
        "amenity": "cafe",
        "name": "Cafe Thulp",
        "toilets:wheelchair": "no",
        "wheelchair": "no"
      }
    },
    {
      "type": "node",
      "id": 4254493136,
      "lat": 12.9991564,
      "lon": 77.6157298,
      "tags": {
        "name": "Hides Inc",
        "shop": "shoes"
      }
    },
    {
      "type": "node",
      "id": 4349394389,
      "lat": 12.9944952,
      "lon": 77.6159529,
      "tags": {
        "amenity": "restaurant",
        "name": "South Inn",
        "name:kn": "ಸೌತ್ ಇನ್"
      }
    },
    {
      "type": "node",
      "id": 4385108289,
      "lat": 12.996332,
      "lon": 77.6170443,
      "tags": {
        "amenity": "restaurant",
        "name": "ಕೋಮಲ ರಿಫ್ರೆಷ್‌ಮೆಂಟ್ಸ್",
        "name:en": "Komala Refreshments",
        "name:kn": "ಕೋಮಲ ರಿಫ್ರೆಷ್‌ಮೆಂಟ್ಸ್"
      }
    },
    {
      "type": "node",
      "id": 4391177990,
      "lat": 12.9948565,
      "lon": 77.6152319,
      "tags": {
        "leisure": "fitness_centre",
        "name": "ಕ್ರಾಸ್‌ಫಿಟ್ ಜಿನೋಮ್",
        "name:en": "Crossfit Genome",
        "name:kn": "ಕ್ರಾಸ್‌ಫಿಟ್ ಜಿನೋಮ್"
      }
    },
    {
      "type": "node",
      "id": 4391177991,
      "lat": 12.9944824,
      "lon": 77.6153605,
      "tags": {
        "amenity": "restaurant",
        "name": "ಮ್ಯಾಂಗಲೋರ್ ಪರ್ಲ್",
        "name:en": "Mangalore Pearl",
        "name:kn": "ಮ್ಯಾಂಗಲೋರ್ ಪರ್ಲ್"
      }
    },
    {
      "type": "node",
      "id": 4446300155,
      "lat": 12.9959413,
      "lon": 77.6082575,
      "tags": {
        "addr:city": "bangalore",
        "addr:district": "Bengaluru Urban",
        "addr:full": "No. 6 / 1, Promenade Road, Behind Coles Park, Near Goodwill School",
        "addr:housenumber": "6/1",
        "addr:postcode": "560005",
        "addr:state": "Karnataka",
        "addr:street": "Promenade Road, Near Coles Park, Frazer Town",
        "amenity": "hospital",
        "check_date": "2024-12-29",
        "name": "Santosh Hospital",
        "name:kn": "ಸಂತೋಷ ಆಸ್ಪತ್ರೆ",
        "phone": "080 2536 7706",
        "source": "OpenGovernmentData",
        "website": "https://santoshhealthcare.com/"
      }
    },
    {
      "type": "node",
      "id": 4446312027,
      "lat": 12.9914123,
      "lon": 77.6117329,
      "tags": {
        "addr:city": "bangalore",
        "addr:postcode": "560001",
        "addr:street": "St Johns Church Rd, Bharati Nagar, Shivaji Nagar",
        "amenity": "hospital",
        "name": "Hospital",
        "phone": "+9193411 44150",
        "website": "https://www.mirlayeyecare.com/"
      }
    },
    {
      "type": "node",
      "id": 4447249418,
      "lat": 12.9997652,
      "lon": 77.6173181,
      "tags": {
        "addr:city": "bangalore",
        "addr:housenumber": "408",
        "addr:postcode": "5600043",
        "addr:street": "5th Main Rd HRBR Layout 1st Block HRBR Layout Kalyan Nagar HRBR Layout 1st Block HRBR Layout Kalyan Nagar",
        "amenity": "restaurant",
        "cuisine": "regional",
        "delivery": "yes",
        "name": "Shawarma king",
        "opening_hours": "12:30-23:30",
        "phone": "080 3202 8839",
        "smoking": "no",
        "takeaway": "yes"
      }
    },
    {
      "type": "node",
      "id": 4488025973,
      "lat": 12.9948336,
      "lon": 77.6107384,
      "tags": {
        "addr:city": "Bangalore",
        "addr:housenumber": "11",
        "addr:postcode": "560005",
        "addr:street": "Saunders Road",
        "name": "Madeena Supermarket",
        "phone": "(91)-80-33619929",
        "shop": "supermarket"
      }
    },
    {
      "type": "node",
      "id": 4489241337,
      "lat": 12.9961189,
      "lon": 77.6155543,
      "tags": {
        "addr:city": "bangalore",
        "addr:housenumber": "26/1",
        "addr:postcode": "560005",
        "addr:street": "Stephens Road , Frazer Town, Bhadrappa Layout, Pulikeshi Nagar",
        "name": "Coles Sports World",
        "opening_hours": "10:00-19:00",
        "phone": "080 2548 3320",
        "shop": "sports",
        "website": "colessportsworld.com"
      }
    },
    {
      "type": "node",
      "id": 4489946141,
      "lat": 12.9973067,
      "lon": 77.6139222,
      "tags": {
        "addr:city": "Bengaluru",
        "addr:housenumber": "#101, Ground Floor, Robertson Road",
        "addr:postcode": "560005",
        "addr:street": "Frazer Town, Pulikeshi Nagar",
        "name": "Celebrate Life",
        "opening_hours": "07:00-20:00",
        "phone": "098861 53453",
        "shop": "beauty",
        "website": "celebratelifewellness.com"
      }
    },
    {
      "type": "node",
      "id": 4490206308,
      "lat": 12.9995759,
      "lon": 77.6230526,
      "tags": {
        "addr:city": "Bangalore",
        "addr:housenumber": "No 100, Wheelers Road, Cooke Town, Bangalore - 560005",
        "addr:postcode": "560005",
        "addr:street": "Wheeler Road Extension",
        "name": "Village Super Market",
        "phone": "80-41534703",
        "shop": "supermarket"
      }
    },
    {
      "type": "node",
      "id": 4490335805,
      "lat": 12.9981117,
      "lon": 77.6153053,
      "tags": {
        "addr:city": "Bengaluru",
        "addr:housenumber": "83",
        "addr:postcode": "560005",
        "addr:street": "Mosque Rd, Bhadrappa Layout, Pulikeshi Nagar, Bengaluru,",
        "leisure": "sports_centre",
        "name": "Snap Fitness",
        "opening_hours": "5:00-23:00",
        "phone": "8065651050",
        "sport": "gymnasium",
        "website": "snapfitnessindia.com"
      }
    },
    {
      "type": "node",
      "id": 4490426429,
      "lat": 12.9962218,
      "lon": 77.6174002,
      "tags": {
        "addr:city": "Bangalore",
        "addr:postcode": "56005",
        "addr:street": "Wheeler Road",
        "leisure": "sports_centre",
        "name": "Steve's Gym",
        "opening_hours": "6:00-20:00",
        "phone": "8025353323",
        "website": "https://stevesgym.com/"
      }
    },
    {
      "type": "node",
      "id": 4490493255,
      "lat": 13.0021262,
      "lon": 77.6178476,
      "tags": {
        "addr:city": "Bangalore",
        "addr:housenumber": "3rd",
        "addr:postcode": "560084",
        "addr:street": "3rd Floor, No.14, Pottery Rd, Bhadrappa Layout, Richards Town, Bengaluru",
        "leisure": "sports_centre",
        "name": "Fitness Time",
        "opening_hours": "6:00-22:30",
        "phone": "9972848576",
        "sport": "gymnasium",
        "website": "https://fitnesstime.in/"
      }
    },
    {
      "type": "node",
      "id": 4570423792,
      "lat": 12.9983463,
      "lon": 77.6206293,
      "tags": {
        "amenity": "fast_food",
        "name": "Lemon Rice",
        "name:en": "Lemon Rice"
      }
    },
    {
      "type": "node",
      "id": 4577045761,
      "lat": 12.9983402,
      "lon": 77.6200927,
      "tags": {
        "amenity": "hospital",
        "name": "Government Maternity Home",
        "name:kn": "ಸರ್ಕಾರಿ ಮಾತೃತ್ವ ಮನೆ"
      }
    },
    {
      "type": "node",
      "id": 4582783591,
      "lat": 12.9980438,
      "lon": 77.6205601,
      "tags": {
        "name": "Thomsons",
        "name:en": "Thomsons",
        "shop": "bakery"
      }
    },
    {
      "type": "node",
      "id": 4582787590,
      "lat": 12.9978934,
      "lon": 77.6203017,
      "tags": {
        "amenity": "clinic",
        "name": "Saldana Diagnostic Center",
        "name:en": "Saldana Diagnostic Center"
      }
    },
    {
      "type": "node",
      "id": 4582794490,
      "lat": 12.998501,
      "lon": 77.6203996,
      "tags": {
        "shop": "butcher"
      }
    },
    {
      "type": "node",
      "id": 4582794589,
      "lat": 12.9984473,
      "lon": 77.6204212,
      "tags": {
        "shop": "greengrocer"
      }
    },
    {
      "type": "node",
      "id": 4582801689,
      "lat": 12.998375,
      "lon": 77.6204488,
      "tags": {
        "name": "Fresh vegetables",
        "name:en": "Fresh vegetables",
        "shop": "greengrocer"
      }
    },
    {
      "type": "node",
      "id": 4582813390,
      "lat": 12.9976423,
      "lon": 77.6175048,
      "tags": {
        "name": "Kiran expert dry cleaners",
        "name:en": "Kiran expert dry cleaners",
        "shop": "dry_cleaning"
      }
    },
    {
      "type": "node",
      "id": 4582817389,
      "lat": 13.0002512,
      "lon": 77.6190506,
      "tags": {
        "leisure": "fitness_centre",
        "name": "Shri Rajeev Gandhi Gym",
        "name:en": "Shri Rajeev Gandhi Gym"
      }
    },
    {
      "type": "node",
      "id": 4586355540,
      "lat": 12.9964446,
      "lon": 77.6125758,
      "tags": {
        "addr:city": "Bangalore",
        "addr:postcode": "560005",
        "addr:street": "Coles Road",
        "amenity": "ice_cream",
        "cuisine": "dessert;cake",
        "name": "Ibaco",
        "name:kn": "ಐಬಾಕೊ",
        "opening_hours": "11:00 - 23:00",
        "outdoor_seating": "no",
        "phone": "+91 9739591993"
      }
    },
    {
      "type": "node",
      "id": 4607621918,
      "lat": 12.9984122,
      "lon": 77.6204312,
      "tags": {
        "name": "Star Fresh Egg Center",
        "name:en": "Star Fresh Egg Center",
        "shop": "butcher"
      }
    },
    {
      "type": "node",
      "id": 4664862655,
      "lat": 13.0001887,
      "lon": 77.6180988,
      "tags": {
        "check_date": "2023-12-31",
        "name": "Crankmeister",
        "phone": "+91 88615 44666",
        "repair": "yes",
        "shop": "bicycle"
      }
    },
    {
      "type": "node",
      "id": 4844863349,
      "lat": 12.9968223,
      "lon": 77.6195998,
      "tags": {
        "amenity": "restaurant",
        "check_date": "2024-08-11",
        "name": "Dolphins",
        "name:en": "Dolphins"
      }
    },
    {
      "type": "node",
      "id": 4844863350,
      "lat": 12.9952589,
      "lon": 77.6163699,
      "tags": {
        "name": "Top most cleaners",
        "name:en": "Top most cleaners",
        "shop": "laundry"
      }
    },
    {
      "type": "node",
      "id": 4844863351,
      "lat": 12.9948513,
      "lon": 77.6160845,
      "tags": {
        "amenity": "restaurant",
        "name": "Perfect corner",
        "name:en": "Perfect corner"
      }
    },
    {
      "type": "node",
      "id": 4844863354,
      "lat": 12.9868859,
      "lon": 77.6162486,
      "tags": {
        "name": "Big boss",
        "name:en": "Big boss",
        "shop": "dry_cleaning"
      }
    },
    {
      "type": "node",
      "id": 4844863386,
      "lat": 12.9958599,
      "lon": 77.6202844,
      "tags": {
        "name": "International travel house Limited",
        "name:en": "International travel house Limited",
        "shop": "travel_agency"
      }
    },
    {
      "type": "node",
      "id": 4844865045,
      "lat": 12.994204,
      "lon": 77.6155483,
      "tags": {
        "name": "Chicken stops",
        "name:en": "Chicken stops",
        "shop": "butcher"
      }
    },
    {
      "type": "node",
      "id": 4844865046,
      "lat": 12.9945444,
      "lon": 77.6159681,
      "tags": {
        "amenity": "pharmacy",
        "check_date": "2024-08-11",
        "name": "Kiran medicals",
        "name:en": "Kiran medicals"
      }
    },
    {
      "type": "node",
      "id": 4844865047,
      "lat": 12.9963245,
      "lon": 77.61771,
      "tags": {
        "name": "Digital Express",
        "name:en": "Digital Express",
        "shop": "electronics"
      }
    },
    {
      "type": "node",
      "id": 4844865048,
      "lat": 12.9974737,
      "lon": 77.6202808,
      "tags": {
        "amenity": "bank",
        "brand": "HDFC Bank",
        "brand:wikidata": "Q631047",
        "brand:wikipedia": "en:HDFC Bank",
        "name": "HDFC Bank",
        "name:en": "Hdfc Bank",
        "name:kn": "ಎಚ್ ಡಿ ಎಫ್ ಸಿ",
        "short_name": "HDFC",
        "website": "https://www.hdfcbank.com"
      }
    },
    {
      "type": "node",
      "id": 4844867524,
      "lat": 12.9964814,
      "lon": 77.621145,
      "tags": {
        "amenity": "pharmacy",
        "name": "Manoj Medicals",
        "name:en": "Manoj Medicals"
      }
    },
    {
      "type": "node",
      "id": 4845223688,
      "lat": 12.9878222,
      "lon": 77.6185314,
      "tags": {
        "leisure": "fitness_centre",
        "name": "Pyro Fitness Center"
      }
    },
    {
      "type": "node",
      "id": 4845223689,
      "lat": 12.9877987,
      "lon": 77.618514,
      "tags": {
        "amenity": "restaurant",
        "name": "Adyar Anand Bhawan",
        "name:kn": "ಆದ್ಯಾರ್ ಆನಂದ ಭವನ"
      }
    },
    {
      "type": "node",
      "id": 4849618972,
      "lat": 12.9999504,
      "lon": 77.610637,
      "tags": {
        "name": "The Camera Store",
        "shop": "photo"
      }
    },
    {
      "type": "node",
      "id": 4851692302,
      "lat": 13.0007498,
      "lon": 77.6134894,
      "tags": {
        "amenity": "restaurant",
        "name": "New Taj Biryani Center"
      }
    },
    {
      "type": "node",
      "id": 4851692304,
      "lat": 13.000759,
      "lon": 77.6134424,
      "tags": {
        "amenity": "restaurant",
        "name": "Pista House"
      }
    },
    {
      "type": "node",
      "id": 5174892806,
      "lat": 12.9958589,
      "lon": 77.6082728,
      "tags": {
        "amenity": "pharmacy",
        "check_date": "2024-12-29",
        "healthcare": "pharmacy",
        "name": "Santosh Pharma",
        "wheelchair": "no"
      }
    },
    {
      "type": "node",
      "id": 5174892807,
      "lat": 12.9942834,
      "lon": 77.607881,
      "tags": {
        "name": "f1rstep shoes",
        "shop": "shoes"
      }
    },
    {
      "type": "node",
      "id": 5174892808,
      "lat": 12.9941863,
      "lon": 77.6078319,
      "tags": {
        "name": "Farheen Tours and Travels",
        "shop": "travel_agency"
      }
    },
    {
      "type": "node",
      "id": 5174892809,
      "lat": 12.9941962,
      "lon": 77.6076009,
      "tags": {
        "amenity": "pharmacy",
        "healthcare": "pharmacy",
        "name": "Mustafai Unani Pharmacy"
      }
    },
    {
      "type": "node",
      "id": 5174892810,
      "lat": 12.9939627,
      "lon": 77.6077395,
      "tags": {
        "name": "Royal Sports",
        "shop": "sports"
      }
    },
    {
      "type": "node",
      "id": 5862563587,
      "lat": 12.9926078,
      "lon": 77.6093643,
      "tags": {
        "amenity": "place_of_worship",
        "name": "Masjid-ur-Rahmah",
        "religion": "muslim"
      }
    },
    {
      "type": "node",
      "id": 5862574185,
      "lat": 12.9878631,
      "lon": 77.6177434,
      "tags": {
        "amenity": "hospital",
        "name": "Lakeside Medical Centre and Hospital"
      }
    },
    {
      "type": "node",
      "id": 6938799261,
      "lat": 12.9995426,
      "lon": 77.6107599,
      "tags": {
        "addr:district": "Bengaluru Urban",
        "addr:full": "43-B,Robertson Road,Haines Main Road, Opposite G.K.Vale, Frazer Town",
        "addr:postcode": "560005",
        "addr:state": "Karnataka",
        "amenity": "clinic",
        "name": "F.M. Eye Clinic and Surgical Centre",
        "source": "OpenGovernmentData"
      }
    },
    {
      "type": "node",
      "id": 6938958216,
      "lat": 12.9911349,
      "lon": 77.6126146,
      "tags": {
        "addr:district": "Bengaluru Urban",
        "addr:full": "No. 9, St. John's Church Road,Near Bharathinagar Police Station,Opposite St. John's Community Center,Bharathi Nagar",
        "addr:postcode": "560005",
        "addr:state": "Karnataka",
        "amenity": "clinic",
        "name": "Mirlay Eye Care",
        "source": "OpenGovernmentData"
      }
    },
    {
      "type": "node",
      "id": 6944231454,
      "lat": 12.9994472,
      "lon": 77.6162584,
      "tags": {
        "addr:district": "Bengaluru Urban",
        "addr:full": "Pillana Garden",
        "addr:postcode": "560045",
        "addr:state": "Karnataka",
        "amenity": "hospital",
        "name": "Mediscope Hospital Private Limited",
        "operator:type": "private",
        "source": "OpenGovernmentData",
        "website": "http://dpal.kar.nic.in/Kanunu%20padakosha%20PDF%20Files/Recognised%20Hospitals.pdf"
      }
    },
    {
      "type": "node",
      "id": 6944418995,
      "lat": 12.9876196,
      "lon": 77.6204668,
      "tags": {
        "addr:district": "Bengaluru Urban",
        "addr:full": "11, Ulsoor Tank Road Ulsoor Lake",
        "addr:postcode": "560042",
        "addr:state": "Karnataka",
        "amenity": "clinic",
        "name": "Sai Jyothi Netra Seva",
        "source": "OpenGovernmentData"
      }
    },
    {
      "type": "node",
      "id": 6947499710,
      "lat": 12.9967984,
      "lon": 77.6112893,
      "tags": {
        "addr:district": "Bengaluru Urban",
        "addr:full": "64 Spencer Road Near Coles Park Frazer Town",
        "addr:postcode": "560005",
        "addr:state": "Karnataka",
        "amenity": "clinic",
        "name": "Cantonment Poly Clinic And Nursing Home",
        "source": "OpenGovernmentData"
      }
    },
    {
      "type": "node",
      "id": 6947499711,
      "lat": 12.9960196,
      "lon": 77.6128413,
      "tags": {
        "addr:district": "Bengaluru Urban",
        "addr:full": "No.33, Coles Road,Frazer Town",
        "addr:postcode": "560005",
        "addr:state": "Karnataka",
        "amenity": "hospital",
        "name": "Dr.Agarwal Eye Hospital, Frazer Town, Bangalore",
        "source": "OpenGovernmentData"
      }
    },
    {
      "type": "node",
      "id": 7087593362,
      "lat": 12.9936948,
      "lon": 77.607556,
      "tags": {
        "name": "The French Loaf",
        "shop": "bakery"
      }
    },
    {
      "type": "node",
      "id": 7087593363,
      "lat": 12.9942345,
      "lon": 77.6078604,
      "tags": {
        "amenity": "bank",
        "atm": "yes",
        "brand": "ICICI Bank",
        "brand:wikidata": "Q1653258",
        "name": "ICICI Bank",
        "short_name": "ICICI",
        "wheelchair": "no"
      }
    },
    {
      "type": "node",
      "id": 7087593367,
      "lat": 12.9941666,
      "lon": 77.6103415,
      "tags": {
        "amenity": "restaurant",
        "name": "Raidan Restaurant"
      }
    },
    {
      "type": "node",
      "id": 7087593370,
      "lat": 12.9916419,
      "lon": 77.6143493,
      "tags": {
        "shop": "greengrocer"
      }
    },
    {
      "type": "node",
      "id": 7234491294,
      "lat": 12.9926089,
      "lon": 77.6151305,
      "tags": {
        "access": "permissive",
        "amenity": "parking",
        "parking": "surface"
      }
    },
    {
      "type": "node",
      "id": 7234491295,
      "lat": 12.9929278,
      "lon": 77.6157045,
      "tags": {
        "access": "private",
        "leisure": "swimming_pool"
      }
    },
    {
      "type": "node",
      "id": 7255929421,
      "lat": 12.9959111,
      "lon": 77.615154,
      "tags": {
        "access": "permissive",
        "amenity": "parking",
        "parking": "underground"
      }
    },
    {
      "type": "node",
      "id": 7255929437,
      "lat": 12.9964978,
      "lon": 77.6148905,
      "tags": {
        "amenity": "place_of_worship",
        "religion": "hindu"
      }
    },
    {
      "type": "node",
      "id": 7255929439,
      "lat": 12.9974439,
      "lon": 77.6144452,
      "tags": {
        "brand": "cult.fit",
        "brand:wikidata": "Q121289250",
        "leisure": "fitness_centre",
        "name": "cult.fit"
      }
    },
    {
      "type": "node",
      "id": 7255929444,
      "lat": 12.998522,
      "lon": 77.6157112,
      "tags": {
        "amenity": "school",
        "name": "Bethesda Academy"
      }
    },
    {
      "type": "node",
      "id": 7255929445,
      "lat": 12.9995034,
      "lon": 77.6161296,
      "tags": {
        "amenity": "cafe",
        "name": "Cafe Arabica"
      }
    },
    {
      "type": "node",
      "id": 7255929448,
      "lat": 13.000439,
      "lon": 77.6156254,
      "tags": {
        "check_date": "2024-04-27",
        "name": "Carry Fresh",
        "shop": "supermarket",
        "wheelchair": "yes"
      }
    },
    {
      "type": "node",
      "id": 7255929449,
      "lat": 13.000456,
      "lon": 77.6153719,
      "tags": {
        "amenity": "restaurant",
        "name": "Royal Pavilion"
      }
    },
    {
      "type": "node",
      "id": 7255929462,
      "lat": 13.0009355,
      "lon": 77.6142669,
      "tags": {
        "amenity": "restaurant",
        "cuisine": "chinese",
        "name": "King Kong"
      }
    },
    {
      "type": "node",
      "id": 7255929463,
      "lat": 13.0011143,
      "lon": 77.6123797,
      "tags": {
        "amenity": "atm",
        "brand": "State Bank of India",
        "brand:wikidata": "Q1340361",
        "name": "State Bank of India",
        "operator": "State Bank of India",
        "operator:wikidata": "Q1340361",
        "short_name": "SBI"
      }
    },
    {
      "type": "node",
      "id": 7255929466,
      "lat": 13.001321,
      "lon": 77.6118569,
      "tags": {
        "amenity": "place_of_worship",
        "name": "St Anthony's Church",
        "religion": "christian"
      }
    },
    {
      "type": "node",
      "id": 7255929467,
      "lat": 13.0011328,
      "lon": 77.6116423,
      "tags": {
        "amenity": "place_of_worship",
        "religion": "hindu"
      }
    },
    {
      "type": "node",
      "id": 7843600999,
      "lat": 13.0010985,
      "lon": 77.6123761,
      "tags": {
        "name": "Puncture Shop",
        "shop": "motorcycle_repair"
      }
    },
    {
      "type": "node",
      "id": 7954170225,
      "lat": 13.0029444,
      "lon": 77.6171411,
      "tags": {
        "amenity": "kindergarten",
        "name": "Little Springs"
      }
    },
    {
      "type": "node",
      "id": 8006741451,
      "lat": 13.0001934,
      "lon": 77.6229561,
      "tags": {
        "name": "SLV Stores",
        "shop": "convenience"
      }
    },
    {
      "type": "node",
      "id": 8094098557,
      "lat": 13.0005177,
      "lon": 77.6233354,
      "tags": {
        "amenity": "post_box",
        "collection_times": "Mo-Sa 15:00; PH off",
        "colour": "red",
        "image": "https://thejeshgn.com/wp-content/uploads/2025/11/wp-1763006856510.jpg",
        "operator": "India Post",
        "operator:wikidata": "Q3519720"
      }
    },
    {
      "type": "node",
      "id": 8094098558,
      "lat": 13.0003323,
      "lon": 77.6233169,
      "tags": {
        "shop": "greengrocer"
      }
    },
    {
      "type": "node",
      "id": 8120700179,
      "lat": 12.9994204,
      "lon": 77.6226779,
      "tags": {
        "female": "yes",
        "name": "Poise Beauty Parlour",
        "opening_hours": "Mo-Sa 10:00-18:30; Su 10:00-14:00",
        "shop": "hairdresser"
      }
    },
    {
      "type": "node",
      "id": 8120700203,
      "lat": 13.000053,
      "lon": 77.6230462,
      "tags": {
        "male": "yes",
        "name": "Alankar Parlour",
        "shop": "hairdresser"
      }
    },
    {
      "type": "node",
      "id": 8120700204,
      "lat": 13.0001038,
      "lon": 77.6230624,
      "tags": {
        "amenity": "pharmacy",
        "healthcare": "pharmacy",
        "name": "Sarooj Pharma",
        "opening_hours": "10:00-14:00, 17:30-21:30",
        "shop": "chemist"
      }
    },
    {
      "type": "node",
      "id": 8120700205,
      "lat": 13.0001273,
      "lon": 77.6230304,
      "tags": {
        "female": "yes",
        "name": "Facevalue Beauty Salon",
        "shop": "hairdresser"
      }
    },
    {
      "type": "node",
      "id": 8120700207,
      "lat": 13.0001025,
      "lon": 77.6230436,
      "tags": {
        "name": "Eclat Tours and Travels",
        "shop": "travel_agency"
      }
    },
    {
      "type": "node",
      "id": 8120700208,
      "lat": 13.0001196,
      "lon": 77.623048,
      "tags": {
        "name": "Ladies Tailors",
        "shop": "tailor"
      }
    },
    {
      "type": "node",
      "id": 8168113612,
      "lat": 12.9988154,
      "lon": 77.6230626,
      "tags": {
        "name": "Animation Souk",
        "shop": "collector"
      }
    },
    {
      "type": "node",
      "id": 8182549217,
      "lat": 13.0000427,
      "lon": 77.620479,
      "tags": {
        "name": "India Emporium",
        "shop": "fabric"
      }
    },
    {
      "type": "node",
      "id": 8186304635,
      "lat": 12.9997409,
      "lon": 77.6214759,
      "tags": {
        "shop": "convenience"
      }
    },
    {
      "type": "node",
      "id": 8186304650,
      "lat": 13.0004506,
      "lon": 77.6218199,
      "tags": {
        "amenity": "pharmacy",
        "dispensing": "yes",
        "healthcare": "pharmacy",
        "name": "Axis Pharma and Dental Supplies"
      }
    },
    {
      "type": "node",
      "id": 8186304651,
      "lat": 13.0008456,
      "lon": 77.6219257,
      "tags": {
        "amenity": "bank",
        "atm": "yes",
        "brand": "Bank of Baroda",
        "brand:wikidata": "Q2003797",
        "brand:wikipedia": "en:Bank of Baroda",
        "name": "Bank of Baroda",
        "name:kn": "ಬ್ಯಾಂಕ್ ಆಫ್ ಬರೋಡ"
      }
    },
    {
      "type": "node",
      "id": 8240810708,
      "lat": 12.9966808,
      "lon": 77.6114532,
      "tags": {
        "addr:city": "Bangalore",
        "addr:district": "Bengaluru Urban",
        "addr:postcode": "560005",
        "addr:street": "Coles Road",
        "amenity": "bank",
        "atm": "yes",
        "brand": "Bank of Baroda",
        "brand:wikidata": "Q2003797",
        "name": "Bank of Baroda",
        "name:kn": "ಬ್ಯಾಂಕ್ ಆಫ್ ಬರೋಡ"
      }
    },
    {
      "type": "node",
      "id": 8240858025,
      "lat": 12.9957125,
      "lon": 77.6109356,
      "tags": {
        "amenity": "bank",
        "atm": "yes",
        "brand": "Syndicate Bank",
        "brand:wikidata": "Q2004088",
        "name": "Syndicate Bank",
        "name:kn": "ಸಿಂಡಿಕೇಟ್ ಬ್ಯಾಂಕ್"
      }
    },
    {
      "type": "node",
      "id": 8522744899,
      "lat": 12.9911306,
      "lon": 77.6162233,
      "tags": {
        "addr:street": "Promenade Road",
        "name": "Pretty Dan Good Salon",
        "opening_hours": "Mo-Su 10:00-18:00; Tu off",
        "payment:cash": "yes",
        "payment:credit_cards": "yes",
        "payment:upi": "yes",
        "phone": "+91-73384-75554",
        "shop": "hairdresser",
        "website": "https://prettydangood.in/"
      }
    },
    {
      "type": "node",
      "id": 8522762905,
      "lat": 12.9913026,
      "lon": 77.6156011,
      "tags": {
        "addr:street": "Promenade Road",
        "name": "MotoAdda",
        "shop": "car_repair"
      }
    },
    {
      "type": "node",
      "id": 8594849018,
      "lat": 13.0002611,
      "lon": 77.6208809,
      "tags": {
        "amenity": "clinic",
        "healthcare": "clinic",
        "healthcare:speciality": "paediatrics",
        "name": "Mathew Children's Specialist",
        "phone": "+91 080 25473578"
      }
    },
    {
      "type": "node",
      "id": 8890701649,
      "lat": 12.9988716,
      "lon": 77.6240463,
      "tags": {
        "name": "Paradise Store",
        "shop": "convenience"
      }
    },
    {
      "type": "node",
      "id": 8890701650,
      "lat": 12.9989045,
      "lon": 77.6240611,
      "tags": {
        "name": "Reliable India Group",
        "shop": "yes"
      }
    },
    {
      "type": "node",
      "id": 8899492816,
      "lat": 13.0013412,
      "lon": 77.6149976,
      "tags": {
        "amenity": "car_rental",
        "name": "Self drive car rental @ Hi5 karZ",
        "opening_hours": "Mo-Fr 10:30-13:15,14:00-20:15; Sa 09:00-17:00; PH closed"
      }
    },
    {
      "type": "node",
      "id": 9032614448,
      "lat": 13.0023701,
      "lon": 77.6206046,
      "tags": {
        "name": "Tara Motors",
        "shop": "car_repair"
      }
    },
    {
      "type": "node",
      "id": 9032614449,
      "lat": 13.0023925,
      "lon": 77.6205595,
      "tags": {
        "name": "New Castle",
        "shop": "hairdresser"
      }
    },
    {
      "type": "node",
      "id": 9032614450,
      "lat": 13.002414,
      "lon": 77.6205145,
      "tags": {
        "name": "Numerology Zone",
        "shop": "psychic"
      }
    },
    {
      "type": "node",
      "id": 9038429824,
      "lat": 13.0028239,
      "lon": 77.6202302,
      "tags": {
        "shop": "convenience"
      }
    },
    {
      "type": "node",
      "id": 9038429825,
      "lat": 13.0028459,
      "lon": 77.620199,
      "tags": {
        "name": "Balaji Rao Ladies Tailor",
        "shop": "tailor"
      }
    },
    {
      "type": "node",
      "id": 9038429826,
      "lat": 13.0028654,
      "lon": 77.6201747,
      "tags": {
        "name": "Humsafar Dealer - Batteries",
        "shop": "trade"
      }
    },
    {
      "type": "node",
      "id": 9038429827,
      "lat": 13.0028842,
      "lon": 77.6201475,
      "tags": {
        "name": "GK Pro Sound and Light",
        "shop": "trade"
      }
    },
    {
      "type": "node",
      "id": 9230690428,
      "lat": 12.9992268,
      "lon": 77.6160355,
      "tags": {
        "amenity": "cafe",
        "name": "Taj Tea House"
      }
    },
    {
      "type": "node",
      "id": 9230690429,
      "lat": 12.9994524,
      "lon": 77.6157635,
      "tags": {
        "amenity": "restaurant",
        "check_date": "2024-04-27",
        "cuisine": "regional",
        "diet:halal": "yes",
        "name": "Savoury"
      }
    },
    {
      "type": "node",
      "id": 9230690434,
      "lat": 12.9954616,
      "lon": 77.614226,
      "tags": {
        "amenity": "fast_food",
        "name": "Kunafa World"
      }
    },
    {
      "type": "node",
      "id": 9534308004,
      "lat": 12.9982475,
      "lon": 77.6153594,
      "tags": {
        "name": "Theobroma Patisserie",
        "shop": "bakery",
        "website": "https://theobroma.in/"
      }
    },
    {
      "type": "node",
      "id": 9687954318,
      "lat": 12.9865306,
      "lon": 77.6194645,
      "tags": {
        "amenity": "cafe",
        "check_date": "2024-04-20",
        "dog": "leashed",
        "highchair": "yes",
        "name": "Kaara by Lake",
        "outdoor_seating": "yes",
        "pets": "yes",
        "takeaway": "yes",
        "toilets": "yes",
        "toilets:wheelchair": "limited",
        "wheelchair": "limited"
      }
    },
    {
      "type": "node",
      "id": 9786123495,
      "lat": 12.9997243,
      "lon": 77.6161519,
      "tags": {
        "amenity": "restaurant",
        "name": "Karama"
      }
    },
    {
      "type": "node",
      "id": 10979409744,
      "lat": 12.9958745,
      "lon": 77.6213506,
      "tags": {
        "amenity": "fast_food",
        "brand": "Indira Canteen",
        "brand:wikidata": "Q36164828",
        "cuisine": "south_indian",
        "name": "Indira Canteen",
        "operator": "BBMP",
        "takeaway": "yes"
      }
    },
    {
      "type": "node",
      "id": 10979409745,
      "lat": 12.9961581,
      "lon": 77.6213264,
      "tags": {
        "addr:city": "Bengaluru",
        "addr:country": "IN",
        "addr:housenumber": "14",
        "addr:postcode": "560005",
        "addr:street": "Sundaramurthi Road",
        "addr:suburb": "Cox Town",
        "name": "Fresh World",
        "shop": "supermarket"
      }
    },
    {
      "type": "node",
      "id": 10979409746,
      "lat": 12.9966455,
      "lon": 77.6211025,
      "tags": {
        "addr:city": "Bengaluru",
        "addr:country": "IN",
        "addr:housenumber": "2/1",
        "addr:postcode": "560005",
        "addr:street": "MM Road",
        "addr:suburb": "Cox Town",
        "amenity": "clinic",
        "name": "Kirti Eye and Dental Hospital",
        "name:kn": "ಕೀರ್ತಿ ಐ ಅಂಡ್ ಡೆಂಟಲ್ ಹಾಸ್ಪಿಟಲ್"
      }
    },
    {
      "type": "node",
      "id": 11096914869,
      "lat": 12.9965965,
      "lon": 77.6091016,
      "tags": {
        "brand": "Nandini",
        "name": "Nandini",
        "shop": "dairy"
      }
    },
    {
      "type": "node",
      "id": 11096914870,
      "lat": 12.997653,
      "lon": 77.6100907,
      "tags": {
        "name": "Fipola",
        "shop": "butcher"
      }
    },
    {
      "type": "node",
      "id": 11096914871,
      "lat": 12.9967853,
      "lon": 77.6113339,
      "tags": {
        "air_conditioning": "yes",
        "amenity": "ice_cream",
        "indoor_seating": "yes",
        "name": "Cream Chemistry",
        "outdoor_seating": "no",
        "smoking": "no",
        "wheelchair": "no"
      }
    },
    {
      "type": "node",
      "id": 11096914872,
      "lat": 12.9967644,
      "lon": 77.6113781,
      "tags": {
        "brand": "Kanti Sweets",
        "name": "Kanti Sweets",
        "name:kn": "ಕಾಂತಿ ಸ್ವೀಟ್ಸ್",
        "shop": "confectionery"
      }
    },
    {
      "type": "node",
      "id": 11096914873,
      "lat": 12.9963894,
      "lon": 77.612109,
      "tags": {
        "amenity": "bank",
        "atm": "yes",
        "brand": "Canara Bank",
        "brand:en": "Canara Bank",
        "brand:hi": "केनरा बैंक",
        "brand:kn": "ಕೆನರಾ ಬ್ಯಾಂಕ್",
        "brand:pa": "ਕੇਨਰਾ ਬੈਂਕ",
        "brand:pnb": "کینرا بینک",
        "brand:ur": "کینرا بینک",
        "brand:wikidata": "Q2003777",
        "name": "Canara Bank",
        "name:en": "Canara Bank",
        "name:hi": "केनरा बैंक",
        "name:kn": "ಕೆನರಾ ಬ್ಯಾಂಕ್",
        "name:pa": "ਕੇਨਰਾ ਬੈਂਕ",
        "name:pnb": "کینرا بینک",
        "name:ur": "کینرا بینک",
        "operator": "Canara Bank"
      }
    },
    {
      "type": "node",
      "id": 11096914874,
      "lat": 12.9963149,
      "lon": 77.6122217,
      "tags": {
        "name": "Punjab Stores",
        "shop": "supermarket"
      }
    },
    {
      "type": "node",
      "id": 11096914877,
      "lat": 12.995212,
      "lon": 77.6141958,
      "tags": {
        "amenity": "fast_food",
        "cuisine": "burger;wings;chicken",
        "delivery": "yes",
        "name": "Big Guys: Wings & More",
        "takeaway": "yes"
      }
    },
    {
      "type": "node",
      "id": 11096914882,
      "lat": 12.9944292,
      "lon": 77.6154175,
      "tags": {
        "name": "KC Das",
        "shop": "confectionery"
      }
    },
    {
      "type": "node",
      "id": 11096914883,
      "lat": 12.9943848,
      "lon": 77.6154779,
      "tags": {
        "amenity": "ice_cream",
        "indoor_seating": "yes",
        "name": "Polar Bear",
        "outdoor_seating": "no"
      }
    },
    {
      "type": "node",
      "id": 11096914884,
      "lat": 12.9943339,
      "lon": 77.6155865,
      "tags": {
        "name": "Printo",
        "shop": "copyshop"
      }
    },
    {
      "type": "node",
      "id": 11096914885,
      "lat": 12.994573,
      "lon": 77.6156616,
      "tags": {
        "amenity": "restaurant",
        "cuisine": "chinese",
        "name": "Green Onion"
      }
    },
    {
      "type": "node",
      "id": 11096914886,
      "lat": 12.9945782,
      "lon": 77.6157166,
      "tags": {
        "amenity": "bank",
        "atm": "yes",
        "brand": "Yes Bank",
        "brand:wikidata": "Q2040394",
        "name": "Yes Bank",
        "operator": "Yes Bank"
      }
    },
    {
      "type": "node",
      "id": 11096914887,
      "lat": 12.9949755,
      "lon": 77.6162276,
      "tags": {
        "amenity": "fast_food",
        "cuisine": "regional",
        "indoor_seating": "no",
        "name": "Shankar Bhel House",
        "outdoor_seating": "no",
        "takeaway": "only"
      }
    },
    {
      "type": "node",
      "id": 11096914888,
      "lat": 12.9959033,
      "lon": 77.616713,
      "tags": {
        "access": "yes",
        "amenity": "toilets",
        "fee": "yes",
        "operator": "BBMP"
      }
    },
    {
      "type": "node",
      "id": 11129099866,
      "lat": 12.9953074,
      "lon": 77.6216752,
      "tags": {
        "addr:city": "Bengaluru",
        "addr:country": "IN",
        "addr:housenumber": "51",
        "addr:postcode": "560005",
        "addr:street": "MM Road",
        "addr:suburb": "Cox Town",
        "contact:facebook": "breadtimestories.blr",
        "contact:instagram": "breadtimestories.blr",
        "email": "breadtimestories.blr@gmail.com",
        "name": "Breadtime Stories",
        "shop": "bakery",
        "website": "https://www.breadtimestories.in"
      }
    },
    {
      "type": "node",
      "id": 11282630635,
      "lat": 12.9946253,
      "lon": 77.6150139,
      "tags": {
        "amenity": "restaurant",
        "cuisine": "pizza",
        "name": "Big Bang Pizza"
      }
    },
    {
      "type": "node",
      "id": 11282630636,
      "lat": 12.9953603,
      "lon": 77.6143876,
      "tags": {
        "amenity": "fast_food",
        "name": "The Real Grill"
      }
    },
    {
      "type": "node",
      "id": 11282630637,
      "lat": 12.9955651,
      "lon": 77.6140778,
      "tags": {
        "amenity": "fast_food",
        "check_date": "2024-08-11",
        "name": "Pooja Veg"
      }
    },
    {
      "type": "node",
      "id": 11282630647,
      "lat": 12.9961725,
      "lon": 77.6131645,
      "tags": {
        "amenity": "pharmacy",
        "name": "Balaji Medicals"
      }
    },
    {
      "type": "node",
      "id": 11282630648,
      "lat": 12.9959934,
      "lon": 77.6128949,
      "tags": {
        "brand": "Bata",
        "brand:wikidata": "Q688082",
        "name": "Bata",
        "name:kn": "ಬಾಟಾ",
        "shop": "shoes"
      }
    },
    {
      "type": "node",
      "id": 11282630666,
      "lat": 12.9972832,
      "lon": 77.6108692,
      "tags": {
        "name": "FirstCry",
        "shop": "baby_goods"
      }
    },
    {
      "type": "node",
      "id": 11282630667,
      "lat": 12.997668,
      "lon": 77.6100726,
      "tags": {
        "addr:city": "Bangalore",
        "addr:district": "Bengaluru Urban",
        "addr:postcode": "560005",
        "addr:street": "Coles Road",
        "amenity": "fast_food",
        "cuisine": "pizza",
        "drive_through": "no",
        "name": "La Pino'z Pizza",
        "phone": "+91 82 3888 9300",
        "website": "https://lapinozpizza.in/order/frazer-town-bangalore"
      }
    },
    {
      "type": "node",
      "id": 11282630668,
      "lat": 12.9880012,
      "lon": 77.6175244,
      "tags": {
        "amenity": "bank",
        "atm": "yes",
        "brand": "HDFC Bank",
        "brand:wikidata": "Q631047",
        "name": "HDFC Bank",
        "operator": "HDFC Bank",
        "short_name": "HDFC"
      }
    },
    {
      "type": "node",
      "id": 11304941403,
      "lat": 12.9861069,
      "lon": 77.6164486,
      "tags": {
        "access": "permissive",
        "amenity": "parking_entrance",
        "parking": "underground"
      }
    },
    {
      "type": "node",
      "id": 11304941409,
      "lat": 12.9859003,
      "lon": 77.6159611,
      "tags": {
        "access": "permissive",
        "amenity": "parking_entrance",
        "parking": "underground"
      }
    },
    {
      "type": "node",
      "id": 11361217286,
      "lat": 13.002532,
      "lon": 77.620441,
      "tags": {
        "name": "New Castle Hair Dress",
        "shop": "hairdresser"
      }
    },
    {
      "type": "node",
      "id": 11449455841,
      "lat": 13.0007558,
      "lon": 77.620218,
      "tags": {
        "amenity": "place_of_worship",
        "religion": "hindu"
      }
    },
    {
      "type": "node",
      "id": 11449458279,
      "lat": 13.0010626,
      "lon": 77.6204192,
      "tags": {
        "amenity": "place_of_worship",
        "building": "chapel",
        "religion": "christian"
      }
    },
    {
      "type": "node",
      "id": 11449458280,
      "lat": 13.0011106,
      "lon": 77.6204373,
      "tags": {
        "amenity": "place_of_worship",
        "religion": "hindu"
      }
    },
    {
      "type": "node",
      "id": 11472852213,
      "lat": 13.00013,
      "lon": 77.6188894,
      "tags": {
        "check_date": "2023-12-31",
        "name": "East Aquarist",
        "opening_hours": "Mo-Sa 10:00-21:00; Su 16:00-21:00",
        "phone": "+91 99451 51612",
        "shop": "pet"
      }
    },
    {
      "type": "node",
      "id": 11472852214,
      "lat": 13.0003903,
      "lon": 77.6169515,
      "tags": {
        "check_date": "2023-12-31",
        "shop": "greengrocer"
      }
    },
    {
      "type": "node",
      "id": 11472852215,
      "lat": 13.0003625,
      "lon": 77.6169853,
      "tags": {
        "amenity": "pharmacy",
        "check_date": "2023-12-31",
        "healthcare": "pharmacy",
        "name": "Topmost Medicals"
      }
    },
    {
      "type": "node",
      "id": 11472852216,
      "lat": 13.0003005,
      "lon": 77.6173407,
      "tags": {
        "amenity": "dentist",
        "check_date": "2023-12-31",
        "healthcare": "dentist",
        "level": "3",
        "name": "Dr Noor Saira's Dental Studio",
        "phone": "+91 88849 26497"
      }
    },
    {
      "type": "node",
      "id": 11472852217,
      "lat": 13.0003295,
      "lon": 77.6173282,
      "tags": {
        "amenity": "restaurant",
        "check_date": "2023-12-31",
        "cuisine": "indian;biryani",
        "name": "Taj Hotel"
      }
    },
    {
      "type": "node",
      "id": 11472852219,
      "lat": 12.9997999,
      "lon": 77.619535,
      "tags": {
        "amenity": "driving_school",
        "check_date": "2023-12-31",
        "name": "Bangalore Driving School",
        "phone": "+91 85532 71717"
      }
    },
    {
      "type": "node",
      "id": 11472852220,
      "lat": 13.0003054,
      "lon": 77.6174328,
      "tags": {
        "check_date": "2023-12-31",
        "name": "Impress Salon & Spa",
        "shop": "hairdresser"
      }
    },
    {
      "type": "node",
      "id": 11472852221,
      "lat": 13.0003053,
      "lon": 77.6174621,
      "tags": {
        "check_date": "2023-12-31",
        "name": "Vantage Tourism",
        "phone": "+91 98805 19912",
        "shop": "travel_agency"
      }
    },
    {
      "type": "node",
      "id": 11472852222,
      "lat": 13.000276,
      "lon": 77.6176255,
      "tags": {
        "amenity": "bank",
        "atm": "yes",
        "brand": "UCO Bank",
        "brand:wikidata": "Q2005310",
        "check_date": "2023-12-31",
        "name": "UCO Bank",
        "name:kn": "ಯೂಕೊ ಬ್ಯಾಂಕ್",
        "opening_hours": "Mo-Fr 10:00-14:00,14:30-16:00"
      }
    },
    {
      "type": "node",
      "id": 11472852224,
      "lat": 12.9997443,
      "lon": 77.6196152,
      "tags": {
        "check_date": "2023-12-31",
        "name": "Shri Manjunatha Condiments",
        "shop": "convenience"
      }
    },
    {
      "type": "node",
      "id": 11472852225,
      "lat": 12.9997662,
      "lon": 77.6195855,
      "tags": {
        "amenity": "driving_school",
        "check_date": "2023-12-31",
        "name": "New National Motor Driving Training School",
        "phone": "+91 98454 77871"
      }
    },
    {
      "type": "node",
      "id": 11472852226,
      "lat": 13.0002715,
      "lon": 77.6177205,
      "tags": {
        "amenity": "restaurant",
        "check_date": "2023-12-31",
        "name": "Bucket Biryani"
      }
    },
    {
      "type": "node",
      "id": 11472852227,
      "lat": 12.9998454,
      "lon": 77.6194613,
      "tags": {
        "check_date": "2023-12-31",
        "shop": "convenience"
      }
    },
    {
      "type": "node",
      "id": 11472852228,
      "lat": 12.9998702,
      "lon": 77.6194112,
      "tags": {
        "check_date": "2023-12-31",
        "shop": "copyshop"
      }
    },
    {
      "type": "node",
      "id": 11472852230,
      "lat": 12.9999404,
      "lon": 77.6192949,
      "tags": {
        "check_date": "2023-12-31",
        "male": "yes",
        "name": "Headhealers Studio",
        "shop": "hairdresser"
      }
    },
    {
      "type": "node",
      "id": 11472852231,
      "lat": 13.0000074,
      "lon": 77.6191713,
      "tags": {
        "check_date": "2023-12-31",
        "male": "yes",
        "name": "Arabian Tailor",
        "shop": "tailor"
      }
    },
    {
      "type": "node",
      "id": 11472852232,
      "lat": 13.0002222,
      "lon": 77.61819,
      "tags": {
        "check_date": "2023-12-31",
        "female": "yes",
        "level": "1",
        "name": "Ashin's Ladies Salon",
        "shop": "hairdresser"
      }
    },
    {
      "type": "node",
      "id": 11472852233,
      "lat": 13.0001367,
      "lon": 77.6188756,
      "tags": {
        "amenity": "pharmacy",
        "check_date": "2023-12-31",
        "healthcare": "pharmacy",
        "name": "Sri Balaji Medicals"
      }
    },
    {
      "type": "node",
      "id": 11472852234,
      "lat": 13.000142,
      "lon": 77.618859,
      "tags": {
        "check_date": "2023-12-31",
        "name": "Leather's Mart Enterprise",
        "shop": "leather"
      }
    },
    {
      "type": "node",
      "id": 11472852235,
      "lat": 13.0001684,
      "lon": 77.6187683,
      "tags": {
        "amenity": "bar",
        "check_date": "2023-12-31",
        "name": "Shiva Shakti Bar and Restaurant"
      }
    },
    {
      "type": "node",
      "id": 11472852236,
      "lat": 13.0002257,
      "lon": 77.6185259,
      "tags": {
        "check_date": "2023-12-31",
        "name": "Puncture Shop",
        "shop": "tyres"
      }
    },
    {
      "type": "node",
      "id": 11472852237,
      "lat": 13.0002178,
      "lon": 77.6182102,
      "tags": {
        "check_date": "2023-12-31",
        "name": "Shabnam Fashions",
        "shop": "clothes"
      }
    },
    {
      "type": "node",
      "id": 11472852238,
      "lat": 13.0003724,
      "lon": 77.6167827,
      "tags": {
        "amenity": "restaurant",
        "check_date": "2023-12-31",
        "cuisine": "indian;kebab;persian",
        "name": "Sheesh Kebab"
      }
    },
    {
      "type": "node",
      "id": 11472852239,
      "lat": 13.0002142,
      "lon": 77.6181157,
      "tags": {
        "check_date": "2023-12-31",
        "name": "Primecore Infotech",
        "repair": "yes",
        "shop": "computer"
      }
    },
    {
      "type": "node",
      "id": 11472852240,
      "lat": 13.0002606,
      "lon": 77.6179319,
      "tags": {
        "check_date": "2023-12-31",
        "name": "World View Tours & Travels",
        "shop": "travel_agency"
      }
    },
    {
      "type": "node",
      "id": 11472852241,
      "lat": 13.000267,
      "lon": 77.6178923,
      "tags": {
        "amenity": "dentist",
        "check_date": "2023-12-31",
        "healthcare": "dentist",
        "name": "Smiles Dental Specialities"
      }
    },
    {
      "type": "node",
      "id": 11472852242,
      "lat": 13.0002804,
      "lon": 77.6174439,
      "tags": {
        "amenity": "restaurant",
        "check_date": "2023-12-31",
        "level": "1",
        "name": "Chichabas Dawat"
      }
    },
    {
      "type": "node",
      "id": 11473412154,
      "lat": 12.9998657,
      "lon": 77.6196688,
      "tags": {
        "access": "customers",
        "amenity": "toilets",
        "female": "yes",
        "male": "yes"
      }
    },
    {
      "type": "node",
      "id": 11530082861,
      "lat": 12.9857804,
      "lon": 77.6167848,
      "tags": {
        "addr:city": "Bengaluru",
        "addr:floor": "G",
        "addr:housenumber": "9",
        "addr:postcode": "560042",
        "addr:street": "Osbourne Road",
        "amenity": "dentist",
        "check_date": "2024-01-19",
        "email": "oralrehabilitationcenter@gmail.com",
        "healthcare": "dentist",
        "internet_access": "no",
        "mobile": "+91-7406110333",
        "name": "Oral rehabilitation center",
        "name:en": "Oral rehabilitation center",
        "name:kn": "ಒರಲ್ ರಿಹಾಬಿಲಿಟೇಶನ್ ಸೆಂಟರ್",
        "opening_hours": "Mo-Su 09:00-13:00,Mo-Su 16:00-22:00",
        "payment:cash": "yes",
        "payment:credit_cards": "yes",
        "payment:debit_cards": "yes",
        "website": "https://oralrehabilitationcenter.com/",
        "wheelchair": "limited"
      }
    },
    {
      "type": "node",
      "id": 11557043272,
      "lat": 12.9948602,
      "lon": 77.6175033,
      "tags": {
        "addr:housenumber": "28",
        "addr:street": "Assayee Road",
        "alt_name": "Backer and Charlie",
        "amenity": "cafe",
        "check_date": "2024-01-27",
        "contact:instagram": "https://www.instagram.com/backerandcharlie",
        "delivery": "yes",
        "name": "Bäcker & Charlie",
        "outdoor_seating": "yes",
        "start_date": "2024-01-31",
        "takeaway": "yes",
        "toilets": "yes",
        "wheelchair": "limited"
      }
    },
    {
      "type": "node",
      "id": 11842856985,
      "lat": 12.9995987,
      "lon": 77.6133294,
      "tags": {
        "amenity": "place_of_worship",
        "religion": "hindu"
      }
    },
    {
      "type": "node",
      "id": 11842856986,
      "lat": 12.9994916,
      "lon": 77.6132369,
      "tags": {
        "amenity": "place_of_worship",
        "religion": "hindu"
      }
    },
    {
      "type": "node",
      "id": 11853263736,
      "lat": 12.999875,
      "lon": 77.6158562,
      "tags": {
        "check_date": "2024-04-27",
        "name": "Empire Tobacco Shop",
        "shop": "tobacco"
      }
    },
    {
      "type": "node",
      "id": 11853263737,
      "lat": 12.9998135,
      "lon": 77.6158643,
      "tags": {
        "check_date": "2024-04-27",
        "name": "Lalitha Wines",
        "shop": "alcohol"
      }
    },
    {
      "type": "node",
      "id": 11853263738,
      "lat": 12.9997738,
      "lon": 77.6158458,
      "tags": {
        "amenity": "dentist",
        "check_date": "2024-04-27",
        "healthcare": "dentist",
        "name": "Lakshmi Dental Clinic",
        "phone": "+91 98451 30949"
      }
    },
    {
      "type": "node",
      "id": 11853263739,
      "lat": 12.9997489,
      "lon": 77.6158472,
      "tags": {
        "check_date": "2024-04-27",
        "shop": "tailor"
      }
    },
    {
      "type": "node",
      "id": 11853263740,
      "lat": 12.9996997,
      "lon": 77.6158458,
      "tags": {
        "amenity": "fast_food",
        "check_date": "2024-04-27",
        "cuisine": "juice",
        "name": "Om Ganesh Fruit Juice Centre"
      }
    },
    {
      "type": "node",
      "id": 11853263741,
      "lat": 12.9996636,
      "lon": 77.6158292,
      "tags": {
        "check_date": "2024-04-27",
        "name": "Lusitania Foods",
        "shop": "butcher"
      }
    },
    {
      "type": "node",
      "id": 11853269023,
      "lat": 13.0001531,
      "lon": 77.615953,
      "tags": {
        "check_date": "2024-04-27",
        "name": "Heera Jewellers",
        "shop": "jewelry"
      }
    },
    {
      "type": "node",
      "id": 11853270212,
      "lat": 12.9990282,
      "lon": 77.6158396,
      "tags": {
        "check_date": "2024-04-27",
        "name": "Ajwa Travels Foreign Exchange",
        "shop": "travel_agency"
      }
    },
    {
      "type": "node",
      "id": 11853270504,
      "lat": 12.9989912,
      "lon": 77.6158195,
      "tags": {
        "check_date": "2024-04-27",
        "name": "Hira Perfumes",
        "shop": "perfumery"
      }
    },
    {
      "type": "node",
      "id": 11853272067,
      "lat": 12.9993902,
      "lon": 77.6160619,
      "tags": {
        "check_date": "2024-04-27",
        "name": "Casio Home Needs",
        "shop": "supermarket"
      }
    },
    {
      "type": "node",
      "id": 11853275100,
      "lat": 12.9975849,
      "lon": 77.6148555,
      "tags": {
        "check_date": "2024-04-27",
        "name": "Jio Digital Life",
        "shop": "telecommunication"
      }
    },
    {
      "type": "node",
      "id": 11853276286,
      "lat": 12.9993695,
      "lon": 77.6160179,
      "tags": {
        "amenity": "restaurant",
        "check_date": "2024-04-27",
        "name": "Dharmik Veg"
      }
    },
    {
      "type": "node",
      "id": 11853276288,
      "lat": 12.9961374,
      "lon": 77.6138297,
      "tags": {
        "amenity": "bank",
        "brand": "Punjab National Bank",
        "brand:wikidata": "Q2743499",
        "check_date": "2024-04-27",
        "name": "Punjab National Bank"
      }
    },
    {
      "type": "node",
      "id": 11853277441,
      "lat": 12.9973285,
      "lon": 77.6146366,
      "tags": {
        "amenity": "motorcycle_parking",
        "covered": "no"
      }
    },
    {
      "type": "node",
      "id": 11853284861,
      "lat": 12.9999237,
      "lon": 77.6160969,
      "tags": {
        "amenity": "fast_food",
        "check_date": "2024-04-27",
        "name": "Dow Tow"
      }
    },
    {
      "type": "node",
      "id": 11853290254,
      "lat": 12.9976632,
      "lon": 77.6149012,
      "tags": {
        "check_date": "2024-04-27",
        "name": "Bakers Day",
        "shop": "bakery"
      }
    },
    {
      "type": "node",
      "id": 11853294535,
      "lat": 13.0012487,
      "lon": 77.6162988,
      "tags": {
        "amenity": "community_centre",
        "check_date": "2024-04-27",
        "name": "CMA Mahal"
      }
    },
    {
      "type": "node",
      "id": 11853294536,
      "lat": 13.0010474,
      "lon": 77.6162616,
      "tags": {
        "check_date": "2024-04-27",
        "name": "The Lassi Park",
        "shop": "beverages"
      }
    },
    {
      "type": "node",
      "id": 11853297551,
      "lat": 12.9998715,
      "lon": 77.6160916,
      "tags": {
        "check_date": "2024-04-27",
        "name": "Lassi Shop",
        "shop": "beverages"
      }
    },
    {
      "type": "node",
      "id": 11853313539,
      "lat": 13.0007216,
      "lon": 77.6165254,
      "tags": {
        "amenity": "post_office",
        "check_date": "2024-04-27",
        "name": "Fraser Town Sub Office",
        "operator": "India Post",
        "operator:wikidata": "Q3519720",
        "wheelchair": "yes"
      }
    },
    {
      "type": "node",
      "id": 11853313541,
      "lat": 13.0006904,
      "lon": 77.6167013,
      "tags": {
        "check_date": "2024-04-27",
        "name": "Namdhari's Fresh",
        "shop": "supermarket"
      }
    },
    {
      "type": "node",
      "id": 11853318458,
      "lat": 12.9976729,
      "lon": 77.6149084,
      "tags": {
        "check_date": "2024-04-27",
        "name": "Amma's Pastries",
        "shop": "pastry"
      }
    },
    {
      "type": "node",
      "id": 11853318903,
      "lat": 12.9998555,
      "lon": 77.6160901,
      "tags": {
        "check_date": "2024-04-27",
        "name": "Prince Unique Collection",
        "shop": "clothes"
      }
    },
    {
      "type": "node",
      "id": 11853321328,
      "lat": 12.9971683,
      "lon": 77.6145878,
      "tags": {
        "amenity": "hospital",
        "check_date": "2024-04-27",
        "healthcare": "hospital",
        "name": "Aspire Hospital"
      }
    },
    {
      "type": "node",
      "id": 11853323336,
      "lat": 12.997606,
      "lon": 77.6148607,
      "tags": {
        "check_date": "2024-04-27",
        "name": "Chandra Murali Shop",
        "shop": "department_store"
      }
    },
    {
      "type": "node",
      "id": 11853327826,
      "lat": 12.9979023,
      "lon": 77.6147242,
      "tags": {
        "check_date": "2024-04-27",
        "name": "The Glam House",
        "shop": "hairdresser"
      }
    },
    {
      "type": "node",
      "id": 11853327827,
      "lat": 12.9975893,
      "lon": 77.6145955,
      "tags": {
        "check_date": "2024-04-27",
        "name": "Muthoot Finance",
        "name:kn": "ಮುತೂಟ್ ಫೈನಾನ್ಸ್",
        "shop": "money_lender"
      }
    },
    {
      "type": "node",
      "id": 11853327828,
      "lat": 12.9974892,
      "lon": 77.6143806,
      "tags": {
        "amenity": "restaurant",
        "check_date": "2024-04-27",
        "cuisine": "regional",
        "diet:halal": "yes",
        "name": "Raidan Restuarant"
      }
    },
    {
      "type": "node",
      "id": 11853327829,
      "lat": 12.9973941,
      "lon": 77.6144064,
      "tags": {
        "check_date": "2024-04-27",
        "name": "Cashify",
        "note": "Repair shop also",
        "shop": "mobile_phone"
      }
    },
    {
      "type": "node",
      "id": 11853327830,
      "lat": 12.9973681,
      "lon": 77.6143843,
      "tags": {
        "check_date": "2024-04-27",
        "name": "Standard Tea",
        "shop": "tea"
      }
    },
    {
      "type": "node",
      "id": 11853327831,
      "lat": 12.9972835,
      "lon": 77.6143209,
      "tags": {
        "check_date": "2024-04-27",
        "name": "The Global Access",
        "shop": "mobile_phone"
      }
    },
    {
      "type": "node",
      "id": 11853327832,
      "lat": 12.9970665,
      "lon": 77.6141612,
      "tags": {
        "check_date": "2024-04-27",
        "name": "Ajmal",
        "shop": "perfumery"
      }
    },
    {
      "type": "node",
      "id": 11853327833,
      "lat": 12.9970164,
      "lon": 77.6141416,
      "tags": {
        "amenity": "pharmacy",
        "brand": "Apollo Pharmacy",
        "brand:wikidata": "Q62562612",
        "check_date": "2024-04-27",
        "healthcare": "pharmacy",
        "name": "Apollo Pharmacy"
      }
    },
    {
      "type": "node",
      "id": 11853327834,
      "lat": 12.9969695,
      "lon": 77.6140469,
      "tags": {
        "check_date": "2024-04-27",
        "name": "Pai International",
        "shop": "electronics"
      }
    },
    {
      "type": "node",
      "id": 11853327835,
      "lat": 12.9969083,
      "lon": 77.6139947,
      "tags": {
        "amenity": "restaurant",
        "check_date": "2024-04-27",
        "cuisine": "indian",
        "diet:halal": "yes",
        "name": "Sharief Bhai"
      }
    },
    {
      "type": "node",
      "id": 11853327836,
      "lat": 12.9968033,
      "lon": 77.6139269,
      "tags": {
        "check_date": "2024-04-27",
        "leisure": "fitness_centre",
        "name": "Viv's Gym"
      }
    },
    {
      "type": "node",
      "id": 11853327837,
      "lat": 12.9967381,
      "lon": 77.6138331,
      "tags": {
        "check_date": "2024-04-27",
        "leisure": "fitness_centre",
        "name": "Filled Fitness",
        "wheelchair": "no"
      }
    },
    {
      "type": "node",
      "id": 11853327838,
      "lat": 12.9967365,
      "lon": 77.6138478,
      "tags": {
        "check_date": "2024-04-27",
        "name": "Afjan Dates And Nuts",
        "shop": "nuts"
      }
    },
    {
      "type": "node",
      "id": 11853327839,
      "lat": 12.9965586,
      "lon": 77.6136291,
      "tags": {
        "check_date": "2024-04-27",
        "leisure": "fitness_centre",
        "name": "Realm Fitness Fight Club"
      }
    },
    {
      "type": "node",
      "id": 11853327840,
      "lat": 12.9965326,
      "lon": 77.6136496,
      "tags": {
        "amenity": "bank",
        "atm": "yes",
        "brand": "Axis Bank",
        "brand:wikidata": "Q2003549",
        "check_date": "2024-04-27",
        "name": "Axis Bank",
        "name:kn": "ಆಕ್ಸಿಸ್ ಬ್ಯಾಂಕ್"
      }
    },
    {
      "type": "node",
      "id": 11853327841,
      "lat": 12.9963845,
      "lon": 77.6135655,
      "tags": {
        "brand": "Airtel",
        "check_date": "2024-04-27",
        "name": "Airtel",
        "name:kn": "ಏರ್ಟೆಲ್",
        "opening_hours": "10:30-20:00",
        "shop": "mobile_phone"
      }
    },
    {
      "type": "node",
      "id": 11853327842,
      "lat": 12.9963825,
      "lon": 77.6134764,
      "tags": {
        "check_date": "2024-04-27",
        "name": "Samsung",
        "name:kn": "ಸ್ಯಾಮ್‌ಸಂಗ್",
        "shop": "mobile_phone"
      }
    },
    {
      "type": "node",
      "id": 11853328088,
      "lat": 12.9988722,
      "lon": 77.6157851,
      "tags": {
        "check_date": "2024-04-27",
        "name": "Soch",
        "shop": "clothes"
      }
    },
    {
      "type": "node",
      "id": 11853328089,
      "lat": 12.9971938,
      "lon": 77.6146067,
      "tags": {
        "amenity": "fast_food",
        "brand": "Subway",
        "brand:wikidata": "Q244457",
        "check_date": "2024-04-27",
        "cuisine": "sandwich",
        "name": "Subway",
        "takeaway": "yes"
      }
    },
    {
      "type": "node",
      "id": 11853329076,
      "lat": 12.9993193,
      "lon": 77.6157833,
      "tags": {
        "amenity": "fast_food",
        "check_date": "2024-04-27",
        "cuisine": "juice",
        "name": "Om Ganesh Fruit Juice Centre"
      }
    },
    {
      "type": "node",
      "id": 11853329077,
      "lat": 12.9992932,
      "lon": 77.6157895,
      "tags": {
        "amenity": "restaurant",
        "check_date": "2024-04-27",
        "name": "Iftar Restaurant"
      }
    },
    {
      "type": "node",
      "id": 11853329078,
      "lat": 12.9992638,
      "lon": 77.6157778,
      "tags": {
        "check_date": "2024-04-27",
        "name": "Sangeetha",
        "name:kn": "ಸಂಗೀತ",
        "shop": "mobile_phone"
      }
    },
    {
      "type": "node",
      "id": 11853329079,
      "lat": 12.9992524,
      "lon": 77.6157573,
      "tags": {
        "check_date": "2024-04-27",
        "name": "Go Kite Travel Agency",
        "shop": "travel_agency"
      }
    },
    {
      "type": "node",
      "id": 11853329193,
      "lat": 12.9997803,
      "lon": 77.6160852,
      "tags": {
        "check_date": "2024-04-27",
        "name": "Fancy Hair Dressers",
        "shop": "hairdresser"
      }
    },
    {
      "type": "node",
      "id": 11853329194,
      "lat": 12.9990827,
      "lon": 77.6158796,
      "tags": {
        "check_date": "2024-04-27",
        "name": "Casio Gift Palace",
        "shop": "gift"
      }
    },
    {
      "type": "node",
      "id": 11853333667,
      "lat": 12.9967359,
      "lon": 77.6142917,
      "tags": {
        "check_date": "2024-04-27",
        "name": "Apollo Pharmacy",
        "shop": "chemist"
      }
    },
    {
      "type": "node",
      "id": 11853335919,
      "lat": 12.9982239,
      "lon": 77.6153159,
      "tags": {
        "addr:floor": "1",
        "beauty": "nails",
        "check_date": "2024-04-27",
        "name": "Lueur London",
        "shop": "beauty"
      }
    },
    {
      "type": "node",
      "id": 11853338971,
      "lat": 12.9976512,
      "lon": 77.6148873,
      "tags": {
        "amenity": "restaurant",
        "check_date": "2024-04-27",
        "name": "Oh! Perch"
      }
    },
    {
      "type": "node",
      "id": 11853338972,
      "lat": 12.9970869,
      "lon": 77.6145693,
      "tags": {
        "brand": "More",
        "brand:wikidata": "Q6910891",
        "check_date": "2024-04-27",
        "name": "More",
        "shop": "supermarket"
      }
    },
    {
      "type": "node",
      "id": 11853339111,
      "lat": 12.9982239,
      "lon": 77.6153159,
      "tags": {
        "check_date": "2024-04-27",
        "name": "Sreeraj Lassi Bar",
        "shop": "beverages"
      }
    },
    {
      "type": "node",
      "id": 11853406314,
      "lat": 12.9965111,
      "lon": 77.6141117,
      "tags": {
        "check_date": "2024-04-27",
        "name": "Naturals Salon",
        "shop": "hairdresser"
      }
    },
    {
      "type": "node",
      "id": 11853467255,
      "lat": 12.9965111,
      "lon": 77.6141117,
      "tags": {
        "check_date": "2024-04-27",
        "name": "Poorvika Mobiles",
        "shop": "mobile_phone"
      }
    },
    {
      "type": "node",
      "id": 11853467357,
      "lat": 12.9963012,
      "lon": 77.6135088,
      "tags": {
        "check_date": "2024-04-27",
        "name": "sri vinyaka hot chips",
        "shop": "snack"
      }
    },
    {
      "type": "node",
      "id": 11853467358,
      "lat": 12.9962239,
      "lon": 77.6134456,
      "tags": {
        "check_date": "2024-04-27",
        "name": "Dry Fruit Specials",
        "shop": "nuts"
      }
    },
    {
      "type": "node",
      "id": 11853467359,
      "lat": 12.9961086,
      "lon": 77.6133755,
      "tags": {
        "amenity": "fast_food",
        "check_date": "2024-04-27",
        "name": "Aroma Of Asia"
      }
    },
    {
      "type": "node",
      "id": 11853467360,
      "lat": 12.9961153,
      "lon": 77.6132466,
      "tags": {
        "check_date": "2024-04-27",
        "name": "YLG salon",
        "shop": "hairdresser"
      }
    },
    {
      "type": "node",
      "id": 11853518205,
      "lat": 12.9960048,
      "lon": 77.6136796,
      "tags": {
        "addr:floor": "UG",
        "check_date": "2024-04-27",
        "name": "Sairam Mobile And Accessories",
        "shop": "mobile_phone"
      }
    },
    {
      "type": "node",
      "id": 11853518215,
      "lat": 13.0006814,
      "lon": 77.6166833,
      "tags": {
        "amenity": "clinic",
        "check_date": "2024-04-27",
        "healthcare": "clinic",
        "name": "Cardoza Clinic"
      }
    },
    {
      "type": "node",
      "id": 11853518216,
      "lat": 13.000325,
      "lon": 77.6171808,
      "tags": {
        "check_date": "2024-04-27",
        "shop": "garden_centre"
      }
    },
    {
      "type": "node",
      "id": 11853518218,
      "lat": 12.9996818,
      "lon": 77.6181637,
      "tags": {
        "check_date": "2024-04-27",
        "name": "Ocean Sea Foods",
        "shop": "seafood"
      }
    },
    {
      "type": "node",
      "id": 11853518219,
      "lat": 12.9996156,
      "lon": 77.618154,
      "tags": {
        "check_date": "2024-04-27",
        "name": "Delux Mutton and Chicken Stall",
        "shop": "butcher"
      }
    },
    {
      "type": "node",
      "id": 11853518221,
      "lat": 12.9995282,
      "lon": 77.6180974,
      "tags": {
        "check_date": "2024-04-27",
        "name": "Ronnie's Beauty Parlour",
        "shop": "beauty"
      }
    },
    {
      "type": "node",
      "id": 11853518222,
      "lat": 12.9995101,
      "lon": 77.6180956,
      "tags": {
        "check_date": "2024-04-27",
        "name": "Dilkush Chicken Kebab",
        "shop": "butcher"
      }
    },
    {
      "type": "node",
      "id": 11853518223,
      "lat": 12.9994804,
      "lon": 77.6180975,
      "tags": {
        "check_date": "2024-04-27",
        "name": "Nectar Fresh",
        "shop": "honey"
      }
    },
    {
      "type": "node",
      "id": 11853518231,
      "lat": 12.9989319,
      "lon": 77.617652,
      "tags": {
        "check_date": "2024-04-27",
        "leisure": "sports_centre",
        "name": "Free Kick"
      }
    },
    {
      "type": "node",
      "id": 11853518233,
      "lat": 12.9986922,
      "lon": 77.617763,
      "tags": {
        "amenity": "childcare",
        "check_date": "2024-04-27",
        "name": "Bright Kid Montessori House"
      }
    },
    {
      "type": "node",
      "id": 11853518234,
      "lat": 12.9985144,
      "lon": 77.6177881,
      "tags": {
        "amenity": "fast_food",
        "check_date": "2024-04-27",
        "name": "Cafe Idly"
      }
    },
    {
      "type": "node",
      "id": 11853518235,
      "lat": 12.9984494,
      "lon": 77.6175446,
      "tags": {
        "amenity": "place_of_worship",
        "check_date": "2024-04-27",
        "religion": "hindu"
      }
    },
    {
      "type": "node",
      "id": 11853518236,
      "lat": 12.9983725,
      "lon": 77.6179151,
      "tags": {
        "amenity": "place_of_worship",
        "check_date": "2024-04-27",
        "religion": "hindu"
      }
    },
    {
      "type": "node",
      "id": 11853518240,
      "lat": 12.9980789,
      "lon": 77.6176969,
      "tags": {
        "check_date": "2024-04-27",
        "name": "laundrokart.com",
        "shop": "laundry"
      }
    },
    {
      "type": "node",
      "id": 11853523988,
      "lat": 12.9960891,
      "lon": 77.6137089,
      "tags": {
        "check_date": "2024-04-27",
        "name": "Ola EV Bike Store",
        "shop": "motorcycle"
      }
    },
    {
      "type": "node",
      "id": 11853525651,
      "lat": 12.9969265,
      "lon": 77.6144435,
      "tags": {
        "amenity": "ice_cream",
        "brand": "Baskin-Robbins",
        "brand:wikidata": "Q584601",
        "check_date": "2024-04-27",
        "cuisine": "ice_cream",
        "name": "Baskin-Robbins"
      }
    },
    {
      "type": "node",
      "id": 11853574273,
      "lat": 12.9959778,
      "lon": 77.6136865,
      "tags": {
        "addr:floor": "2",
        "amenity": "prep_school",
        "check_date": "2024-04-27",
        "name": "Samruddhi Career Academy"
      }
    },
    {
      "type": "node",
      "id": 11853576126,
      "lat": 12.9959985,
      "lon": 77.6136694,
      "tags": {
        "amenity": "bank",
        "brand": "HDFC Bank",
        "brand:wikidata": "Q631047",
        "check_date": "2024-04-27",
        "name": "HDFC Bank",
        "short_name": "HDFC"
      }
    },
    {
      "type": "node",
      "id": 11853708683,
      "lat": 13.0006032,
      "lon": 77.6173736,
      "tags": {
        "amenity": "fast_food",
        "check_date": "2024-04-27",
        "cuisine": "juice",
        "name": "Cane Town"
      }
    },
    {
      "type": "node",
      "id": 11853708684,
      "lat": 13.0005882,
      "lon": 77.6173989,
      "tags": {
        "check_date": "2024-04-27",
        "name": "Fabric Spa",
        "shop": "laundry"
      }
    },
    {
      "type": "node",
      "id": 11853708685,
      "lat": 13.000671,
      "lon": 77.6173614,
      "tags": {
        "check_date": "2024-04-27",
        "name": "Al Malik Tours International",
        "shop": "travel_agency"
      }
    },
    {
      "type": "node",
      "id": 11853708686,
      "lat": 13.0005676,
      "lon": 77.6177086,
      "tags": {
        "amenity": "restaurant",
        "check_date": "2024-04-27",
        "name": "Arabian Mataan"
      }
    },
    {
      "type": "node",
      "id": 11853708687,
      "lat": 13.0005983,
      "lon": 77.6178333,
      "tags": {
        "amenity": "bank",
        "atm": "yes",
        "brand": "Indian Overseas Bank",
        "brand:wikidata": "Q2003611",
        "check_date": "2024-04-27",
        "name": "Indian Overseas Bank"
      }
    },
    {
      "type": "node",
      "id": 11853708688,
      "lat": 12.9999461,
      "lon": 77.6183385,
      "tags": {
        "check_date": "2024-04-27",
        "name": "Outlook",
        "shop": "hairdresser"
      }
    },
    {
      "type": "node",
      "id": 11853708689,
      "lat": 12.9999213,
      "lon": 77.6183352,
      "tags": {
        "check_date": "2024-04-27",
        "name": "Meat Treat",
        "shop": "butcher"
      }
    },
    {
      "type": "node",
      "id": 11853708690,
      "lat": 12.9998746,
      "lon": 77.618339,
      "tags": {
        "addr:housenumber": "5/2",
        "addr:street": "Kenchappa Road",
        "check_date": "2024-04-27",
        "name": "Mr. Electrical & Gas Appliances",
        "shop": "electrical"
      }
    },
    {
      "type": "node",
      "id": 11853708691,
      "lat": 12.9998214,
      "lon": 77.6183263,
      "tags": {
        "amenity": "fast_food",
        "check_date": "2024-04-27",
        "name": "Bismillah Biryani Point"
      }
    },
    {
      "type": "node",
      "id": 11853708692,
      "lat": 12.9995568,
      "lon": 77.618253,
      "tags": {
        "check_date": "2024-04-27",
        "name": "SB Stores",
        "shop": "convenience"
      }
    },
    {
      "type": "node",
      "id": 11853708696,
      "lat": 12.9993917,
      "lon": 77.6182696,
      "tags": {
        "amenity": "clinic",
        "check_date": "2024-04-27",
        "healthcare": "clinic",
        "name": "Sai Divine ENT"
      }
    },
    {
      "type": "node",
      "id": 11853708697,
      "lat": 12.9992893,
      "lon": 77.6181036,
      "tags": {
        "check_date": "2024-04-27",
        "name": "City Mart",
        "shop": "department_store"
      }
    },
    {
      "type": "node",
      "id": 11853708698,
      "lat": 12.9992495,
      "lon": 77.6180922,
      "tags": {
        "check_date": "2024-04-27",
        "name": "KK Vegetables & Fruits",
        "shop": "greengrocer"
      }
    },
    {
      "type": "node",
      "id": 11853708699,
      "lat": 12.9992128,
      "lon": 77.6180914,
      "tags": {
        "amenity": "fast_food",
        "check_date": "2024-04-27",
        "name": "Thakur Food Point"
      }
    },
    {
      "type": "node",
      "id": 11853708700,
      "lat": 12.9991979,
      "lon": 77.6181065,
      "tags": {
        "amenity": "fast_food",
        "check_date": "2024-04-27",
        "name": "Vishnu's"
      }
    },
    {
      "type": "node",
      "id": 11853708701,
      "lat": 12.9989684,
      "lon": 77.6180202,
      "tags": {
        "addr:housenumber": "29",
        "addr:street": "Kenchappa Road",
        "check_date": "2024-04-27",
        "name": "Sri Harsha Hairdresser",
        "shop": "hairdresser"
      }
    },
    {
      "type": "node",
      "id": 11853708702,
      "lat": 12.9989367,
      "lon": 77.6180205,
      "tags": {
        "check_date": "2024-04-27",
        "name": "Jayaraj Furniture",
        "shop": "furniture"
      }
    },
    {
      "type": "node",
      "id": 11853708703,
      "lat": 12.9989122,
      "lon": 77.6180182,
      "tags": {
        "check_date": "2024-04-27",
        "name": "New Look Men's Wear",
        "shop": "tailor"
      }
    },
    {
      "type": "node",
      "id": 11853708706,
      "lat": 12.9986449,
      "lon": 77.6179603,
      "tags": {
        "amenity": "restaurant",
        "check_date": "2024-04-27",
        "name": "Namma Dosa"
      }
    },
    {
      "type": "node",
      "id": 11853708707,
      "lat": 12.9985669,
      "lon": 77.6179429,
      "tags": {
        "amenity": "restaurant",
        "check_date": "2024-04-27",
        "name": "New Delicacy",
        "opening_hours": "11:30-23:00"
      }
    },
    {
      "type": "node",
      "id": 11868569763,
      "lat": 12.9964946,
      "lon": 77.6124188,
      "tags": {
        "addr:city": "Bangalore",
        "addr:district": "Bengaluru Urban",
        "addr:street": "Coles Road",
        "name": "Health & Glow",
        "payment:cash": "yes",
        "payment:contactless": "yes",
        "payment:credit_cards": "yes",
        "payment:debit_cards": "yes",
        "payment:google_pay": "yes",
        "payment:mastercard": "yes",
        "payment:visa": "yes",
        "shop": "cosmetics",
        "website": "https://healthandglow.com/"
      }
    },
    {
      "type": "node",
      "id": 11868569764,
      "lat": 12.9971467,
      "lon": 77.6124529,
      "tags": {
        "addr:city": "Bangalore",
        "addr:district": "Bengaluru Urban",
        "addr:postcode": "560005",
        "name": "SN Stores and Condiments",
        "shop": "general"
      }
    },
    {
      "type": "node",
      "id": 11868569767,
      "lat": 12.9963707,
      "lon": 77.6116201,
      "tags": {
        "addr:city": "Bangalore",
        "addr:district": "Bengaluru Urban",
        "addr:postcode": "560005",
        "addr:street": "Saunders Road",
        "branch": "Dream World",
        "email": "dreamworldindia@yahoo.com",
        "name": "Dream World for Home",
        "operator": "Dream World",
        "phone": "+91 80 6564 6060",
        "shop": "houseware",
        "website": "https://dreamworldindia.in/"
      }
    },
    {
      "type": "node",
      "id": 11896744971,
      "lat": 12.9907873,
      "lon": 77.61323,
      "tags": {
        "name": "Sam's Wines & Spirits",
        "shop": "alcohol"
      }
    },
    {
      "type": "node",
      "id": 11917162000,
      "lat": 12.9974102,
      "lon": 77.6105888,
      "tags": {
        "check_date": "2024-05-19",
        "name": "Lawrence & Mayo",
        "shop": "optician"
      }
    },
    {
      "type": "node",
      "id": 11917162001,
      "lat": 12.9954336,
      "lon": 77.6165464,
      "tags": {
        "check_date": "2024-05-19",
        "name": "The Redd Loyal Wags",
        "shop": "pet"
      }
    },
    {
      "type": "node",
      "id": 11917162002,
      "lat": 12.9962008,
      "lon": 77.6173604,
      "tags": {
        "amenity": "bank",
        "brand": "Canara Bank",
        "brand:en": "Canara Bank",
        "brand:hi": "केनरा बैंक",
        "brand:kn": "ಕೆನರಾ ಬ್ಯಾಂಕ್",
        "brand:pa": "ਕੇਨਰਾ ਬੈਂਕ",
        "brand:pnb": "کینرا بینک",
        "brand:ur": "کینرا بینک",
        "brand:wikidata": "Q2003777",
        "check_date": "2024-05-19",
        "name": "Canara Bank",
        "name:en": "Canara Bank",
        "name:hi": "केनरा बैंक",
        "name:kn": "ಕೆನರಾ ಬ್ಯಾಂಕ್",
        "name:pa": "ਕੇਨਰਾ ਬੈਂਕ",
        "name:pnb": "کینرا بینک",
        "name:ur": "کینرا بینک"
      }
    },
    {
      "type": "node",
      "id": 11982393481,
      "lat": 12.9947937,
      "lon": 77.6154296,
      "tags": {
        "alt_name": "Kentucky Fried Chicken",
        "alt_name:en": "Kentucky Fried Chicken",
        "alt_name:hi": "केंटुकी फ्राइड चिकन",
        "alt_name:pa": "ਕੈਂਟੁਕੀ ਫ੍ਰਾਈਡ ਚਿਕਨ",
        "alt_name:pnb": "کینٹکی فرائیڈ چکن",
        "alt_name:ur": "کینٹکی فرائیڈ چکن",
        "amenity": "fast_food",
        "brand": "KFC",
        "brand:en": "KFC",
        "brand:hi": "केएफसी",
        "brand:pa": "ਕੇਐਫਸੀ",
        "brand:pnb": "کے ایف سی",
        "brand:ur": "کے ایف سی",
        "brand:wikidata": "Q524757",
        "check_date": "2024-06-15",
        "cuisine": "chicken",
        "name": "KFC",
        "name:en": "KFC",
        "name:hi": "केएफसी",
        "name:pa": "ਕੇਐਫਸੀ",
        "name:pnb": "کے ایف سی",
        "name:ur": "کے ایف سی",
        "takeaway": "yes"
      }
    },
    {
      "type": "node",
      "id": 11982393482,
      "lat": 12.9962215,
      "lon": 77.6171763,
      "tags": {
        "amenity": "bank",
        "brand": "Jana Small Finance Bank",
        "brand:wikidata": "Q65122274",
        "check_date": "2024-06-15",
        "name": "Jana Small Finance Bank"
      }
    },
    {
      "type": "node",
      "id": 11982693070,
      "lat": 12.995114,
      "lon": 77.6160795,
      "tags": {
        "amenity": "pharmacy",
        "check_date": "2024-06-15",
        "healthcare": "pharmacy",
        "name": "Surana Chemist"
      }
    },
    {
      "type": "node",
      "id": 11982693071,
      "lat": 12.9942367,
      "lon": 77.6155649,
      "tags": {
        "check_date": "2024-06-15",
        "name": "Simplex Dryers and Cleaners",
        "shop": "dry_cleaning"
      }
    },
    {
      "type": "node",
      "id": 11982693072,
      "lat": 12.9966446,
      "lon": 77.6116049,
      "tags": {
        "amenity": "pharmacy",
        "check_date": "2024-06-15",
        "healthcare": "pharmacy",
        "name": "Health Green Pharma"
      }
    },
    {
      "type": "node",
      "id": 11982693073,
      "lat": 12.9970062,
      "lon": 77.6095198,
      "tags": {
        "amenity": "dentist",
        "check_date": "2024-06-15",
        "healthcare": "dentist",
        "name": "Dr. Elizabeth Alexander"
      }
    },
    {
      "type": "node",
      "id": 12103825746,
      "lat": 12.9966991,
      "lon": 77.6184919,
      "tags": {
        "check_date": "2024-08-11",
        "name": "New Mahesh Men's Salon",
        "shop": "hairdresser"
      }
    },
    {
      "type": "node",
      "id": 12103825748,
      "lat": 12.9963463,
      "lon": 77.6177673,
      "tags": {
        "check_date": "2024-08-11",
        "name": "Pearls Salon",
        "shop": "beauty"
      }
    },
    {
      "type": "node",
      "id": 12103825751,
      "lat": 12.996129,
      "lon": 77.6132115,
      "tags": {
        "check_date": "2024-08-11",
        "name": "Eye Looks Optics",
        "shop": "optician"
      }
    },
    {
      "type": "node",
      "id": 12103968902,
      "lat": 12.9961243,
      "lon": 77.6127006,
      "tags": {
        "check_date": "2024-08-11",
        "name": "Sugar",
        "shop": "cosmetics"
      }
    },
    {
      "type": "node",
      "id": 12103968915,
      "lat": 12.9969502,
      "lon": 77.6200616,
      "tags": {
        "check_date": "2024-08-11",
        "name": "Kundan Electronics",
        "shop": "electronics"
      }
    },
    {
      "type": "node",
      "id": 12103968916,
      "lat": 12.9951282,
      "lon": 77.6143536,
      "tags": {
        "amenity": "cafe",
        "check_date": "2024-08-11",
        "name": "Belgian Waffle Factory"
      }
    },
    {
      "type": "node",
      "id": 12103968918,
      "lat": 12.9964488,
      "lon": 77.6119706,
      "tags": {
        "check_date": "2024-08-11",
        "name": "Lenskart",
        "shop": "optician"
      }
    },
    {
      "type": "node",
      "id": 12103968919,
      "lat": 12.9964794,
      "lon": 77.6114889,
      "tags": {
        "check_date": "2024-08-11",
        "name": "Ilahi Creations",
        "shop": "clothes"
      }
    },
    {
      "type": "node",
      "id": 12103968920,
      "lat": 12.9973646,
      "lon": 77.6100249,
      "tags": {
        "amenity": "fast_food",
        "check_date": "2024-08-11",
        "name": "Udupi Grand Veg"
      }
    },
    {
      "type": "node",
      "id": 12103968921,
      "lat": 12.9952654,
      "lon": 77.6081268,
      "tags": {
        "amenity": "clinic",
        "check_date": "2024-08-11",
        "healthcare": "clinic",
        "name": "Dr. Farzana"
      }
    },
    {
      "type": "node",
      "id": 12103968922,
      "lat": 12.9946281,
      "lon": 77.6078315,
      "tags": {
        "check_date": "2024-08-11",
        "shop": "butcher"
      }
    },
    {
      "type": "node",
      "id": 12103968923,
      "lat": 12.9944409,
      "lon": 77.607752,
      "tags": {
        "amenity": "clinic",
        "check_date": "2024-08-11",
        "healthcare": "clinic",
        "name": "Dr. Markiyar Abdul Razack"
      }
    },
    {
      "type": "node",
      "id": 12103968924,
      "lat": 12.9943943,
      "lon": 77.6077375,
      "tags": {
        "amenity": "dentist",
        "check_date": "2024-08-11",
        "healthcare": "dentist",
        "name": "Confident Dental Care"
      }
    },
    {
      "type": "node",
      "id": 12432796835,
      "lat": 13.0003062,
      "lon": 77.6233036,
      "tags": {
        "shop": "pastry"
      }
    },
    {
      "type": "node",
      "id": 12460939644,
      "lat": 12.9962739,
      "lon": 77.6075693,
      "tags": {
        "amenity": "hospital",
        "check_date": "2024-12-29",
        "healthcare": "hospital",
        "name": "Gawai Hospital",
        "wheelchair": "yes"
      }
    },
    {
      "type": "node",
      "id": 12495403807,
      "lat": 12.9985311,
      "lon": 77.620385,
      "tags": {
        "brand": "Nandini",
        "brand:wikidata": "Q124374212",
        "name": "Nandini",
        "shop": "dairy"
      }
    },
    {
      "type": "node",
      "id": 12531311324,
      "lat": 12.9945955,
      "lon": 77.6086694,
      "tags": {
        "amenity": "fountain"
      }
    },
    {
      "type": "node",
      "id": 12531316734,
      "lat": 12.9946468,
      "lon": 77.6092321,
      "tags": {
        "amenity": "fountain"
      }
    },
    {
      "type": "node",
      "id": 12531340567,
      "lat": 12.9937251,
      "lon": 77.6096151,
      "tags": {
        "amenity": "fountain"
      }
    },
    {
      "type": "node",
      "id": 12531352609,
      "lat": 12.9947536,
      "lon": 77.6090732,
      "tags": {
        "amenity": "childcare",
        "name": "Pre Nursery Creche"
      }
    },
    {
      "type": "node",
      "id": 12531352630,
      "lat": 12.9949815,
      "lon": 77.6088645,
      "tags": {
        "amenity": "place_of_worship",
        "religion": "hindu"
      }
    },
    {
      "type": "node",
      "id": 12538503976,
      "lat": 13.0003766,
      "lon": 77.6233584,
      "tags": {
        "addr:city": "Bengaluru",
        "addr:postcode": "560005",
        "addr:street": "Wheeler Rd Ext, Balaji Layout, Cooke Town",
        "amenity": "bank",
        "brand": "State Bank of India",
        "brand:wikidata": "Q1340361",
        "name": "State Bank of India",
        "short_name": "SBI"
      }
    },
    {
      "type": "node",
      "id": 12630531173,
      "lat": 12.9961032,
      "lon": 77.6127286,
      "tags": {
        "amenity": "fast_food",
        "name": "Baklavachi"
      }
    },
    {
      "type": "node",
      "id": 12630531174,
      "lat": 12.9955295,
      "lon": 77.6141489,
      "tags": {
        "amenity": "fast_food",
        "name": "The Churros Corner"
      }
    },
    {
      "type": "node",
      "id": 12630531190,
      "lat": 12.9953557,
      "lon": 77.616481,
      "tags": {
        "name": "Jazz Musical",
        "shop": "musical_instrument"
      }
    },
    {
      "type": "node",
      "id": 12630531191,
      "lat": 12.9958249,
      "lon": 77.6164556,
      "tags": {
        "amenity": "fast_food",
        "cuisine": "burger",
        "name": "Peppa Zzing"
      }
    },
    {
      "type": "node",
      "id": 12788139581,
      "lat": 12.9861844,
      "lon": 77.6156891,
      "tags": {
        "amenity": "charging_station",
        "charging_station:battery_swapping": "yes",
        "fee": "yes",
        "level": "0",
        "motorcar": "no",
        "motorcycle": "yes",
        "name": "Honda e:swap",
        "operator": "Honda e:swap"
      }
    },
    {
      "type": "node",
      "id": 12788682209,
      "lat": 12.9872864,
      "lon": 77.6168337,
      "tags": {
        "amenity": "restaurant",
        "name": "Citrus Cafe"
      }
    },
    {
      "type": "node",
      "id": 12788682234,
      "lat": 12.9862396,
      "lon": 77.6159245,
      "tags": {
        "brand": "Honda",
        "brand:wikidata": "Q9584",
        "name": "Honda",
        "shop": "motorcycle"
      }
    },
    {
      "type": "node",
      "id": 12862846432,
      "lat": 12.9969004,
      "lon": 77.6110877,
      "tags": {
        "amenity": "restaurant",
        "cuisine": "burger",
        "delivery": "yes",
        "name": "Mr. Philly's American Cheeseburgers",
        "takeaway": "yes"
      }
    },
    {
      "type": "node",
      "id": 12862846468,
      "lat": 12.9996589,
      "lon": 77.6161495,
      "tags": {
        "amenity": "fast_food",
        "cuisine": "burger",
        "delivery": "yes",
        "name": "Easy Bites by Empire",
        "takeaway": "yes"
      }
    },
    {
      "type": "node",
      "id": 12942390264,
      "lat": 12.9956247,
      "lon": 77.6082206,
      "tags": {
        "amenity": "fast_food",
        "check_date": "2025-06-21",
        "cuisine": "juice",
        "name": "Lassi Cream"
      }
    },
    {
      "type": "node",
      "id": 12952280449,
      "lat": 12.9945449,
      "lon": 77.6084153,
      "tags": {
        "amenity": "bench"
      }
    },
    {
      "type": "node",
      "id": 12952280450,
      "lat": 12.9945436,
      "lon": 77.6085202,
      "tags": {
        "amenity": "bench"
      }
    },
    {
      "type": "node",
      "id": 12952280451,
      "lat": 12.9946001,
      "lon": 77.6086044,
      "tags": {
        "amenity": "bench"
      }
    },
    {
      "type": "node",
      "id": 12952280452,
      "lat": 12.9947154,
      "lon": 77.608659,
      "tags": {
        "amenity": "bench"
      }
    },
    {
      "type": "node",
      "id": 12952280453,
      "lat": 12.9947971,
      "lon": 77.6086523,
      "tags": {
        "amenity": "bench"
      }
    },
    {
      "type": "node",
      "id": 12952280454,
      "lat": 12.9948817,
      "lon": 77.6086084,
      "tags": {
        "amenity": "bench"
      }
    },
    {
      "type": "node",
      "id": 12952280455,
      "lat": 12.9949467,
      "lon": 77.6084968,
      "tags": {
        "amenity": "bench"
      }
    },
    {
      "type": "node",
      "id": 12952280456,
      "lat": 12.9949183,
      "lon": 77.6083419,
      "tags": {
        "amenity": "bench"
      }
    },
    {
      "type": "node",
      "id": 12952280457,
      "lat": 12.9948481,
      "lon": 77.6082762,
      "tags": {
        "amenity": "bench"
      }
    },
    {
      "type": "node",
      "id": 12952280458,
      "lat": 12.994771,
      "lon": 77.608246,
      "tags": {
        "amenity": "bench"
      }
    },
    {
      "type": "node",
      "id": 12952280459,
      "lat": 12.9946867,
      "lon": 77.6082493,
      "tags": {
        "amenity": "bench"
      }
    },
    {
      "type": "node",
      "id": 12952280460,
      "lat": 12.9945932,
      "lon": 77.6083083,
      "tags": {
        "amenity": "bench"
      }
    },
    {
      "type": "node",
      "id": 12952280463,
      "lat": 12.9931055,
      "lon": 77.6094188,
      "tags": {
        "brand": "Nandini",
        "brand:wikidata": "Q124374212",
        "name": "Nandini",
        "shop": "dairy"
      }
    },
    {
      "type": "node",
      "id": 13143950901,
      "lat": 12.9977025,
      "lon": 77.6217069,
      "tags": {
        "addr:housenumber": "114",
        "addr:postcode": "560005",
        "addr:street": "Wheeler Road",
        "name": "Bharat Gas Agency - Manav Enterprises",
        "opening_hours": "Mo-Sa 10:00-17:30",
        "phone": "098804 91280",
        "shop": "gas"
      }
    },
    {
      "type": "node",
      "id": 13288507188,
      "lat": 12.994693,
      "lon": 77.6149939,
      "tags": {
        "amenity": "pub",
        "name": "Sly"
      }
    },
    {
      "type": "node",
      "id": 13290544301,
      "lat": 12.9875972,
      "lon": 77.6208401,
      "tags": {
        "name": "6oz Coffee and Roasters",
        "opening_hours": "Mo-Su 09:00-22:00",
        "phone": "+91 80502 02148",
        "shop": "coffee",
        "website": "http://6oz.coffee"
      }
    },
    {
      "type": "way",
      "id": 30810609,
      "center": {
        "lat": 12.9897489,
        "lon": 77.6168853
      },
      "tags": {
        "leisure": "track",
        "name": "Kendriya Vidyala MEG and Centre",
        "name:kn": "ಕೇಂದ್ರಿಯ ವಿದ್ಯಾಲಯ",
        "sport": "athletics"
      }
    },
    {
      "type": "way",
      "id": 37136671,
      "center": {
        "lat": 12.9876751,
        "lon": 77.6147713
      },
      "tags": {
        "amenity": "school",
        "name": "Kendriya Vidhyalaya, MEG Centre",
        "name:kn": "ಕೇಂದ್ರಿಯ ವಿದ್ಯಾಲಯ",
        "short_name": "KV MEG"
      }
    },
    {
      "type": "way",
      "id": 39158782,
      "center": {
        "lat": 13.0006821,
        "lon": 77.6187807
      },
      "tags": {
        "barrier": "wall",
        "leisure": "pitch",
        "name": "Bangalore East Playground",
        "sport": "soccer",
        "surface": "ground"
      }
    },
    {
      "type": "way",
      "id": 133182891,
      "center": {
        "lat": 12.9941564,
        "lon": 77.6090213
      },
      "tags": {
        "alt_name": "Freedom Fighters Park",
        "leisure": "park",
        "name": "Coles Park",
        "name:etymology:wikidata": "Q24254979",
        "name:kn": "ಸ್ವತಂತ್ರ ಹೋರಾಟಗಾರರ ಉದ್ಯಾನವನ"
      }
    },
    {
      "type": "way",
      "id": 133257538,
      "center": {
        "lat": 12.9918617,
        "lon": 77.6130161
      },
      "tags": {
        "addr:housenumber": "132",
        "addr:postcode": "560005",
        "addr:street": "St. John's Church Road",
        "alt_name": "St. , John's, SJHS",
        "amenity": "school",
        "name": "St. John's High School",
        "name:kn": "ಸಂತ ಜಾನ್ ಪ್ರೌಢಶಾಲೆ"
      }
    },
    {
      "type": "way",
      "id": 133486236,
      "center": {
        "lat": 12.9951709,
        "lon": 77.6099445
      },
      "tags": {
        "addr:city": "Bengaluru",
        "addr:country": "IN",
        "addr:hamlet": "Frazer Town",
        "addr:housenumber": "11",
        "addr:postcode": "560005",
        "addr:street": "Promenade Road",
        "amenity": "arts_centre",
        "email": "info@rotary-bc.org",
        "name": "Rotary House of Learning",
        "phone": "(+91) 80-6560 0250",
        "website": "https://www.rotary-bc.org/"
      }
    },
    {
      "type": "way",
      "id": 133486238,
      "center": {
        "lat": 12.9931976,
        "lon": 77.6105474
      },
      "tags": {
        "amenity": "school",
        "name": "St. Germain's High School",
        "name:kn": "ಸಂತ ಜೆರ್ಮೇನ್ಸ್ ಪ್ರೌಡ ಶಾಲೆ",
        "wikidata": "Q7588249",
        "wikipedia": "en:St. Germain High School"
      }
    },
    {
      "type": "way",
      "id": 133486623,
      "center": {
        "lat": 12.9946715,
        "lon": 77.6106566
      },
      "tags": {
        "name": "Home Shoppee",
        "opening_hours": "11:00-23:00",
        "shop": "supermarket"
      }
    },
    {
      "type": "way",
      "id": 133486625,
      "center": {
        "lat": 12.9951326,
        "lon": 77.6106222
      },
      "tags": {
        "name": "New Delight Shop",
        "shop": "stationery"
      }
    },
    {
      "type": "way",
      "id": 138314536,
      "center": {
        "lat": 12.9870764,
        "lon": 77.6195355
      },
      "tags": {
        "leisure": "park"
      }
    },
    {
      "type": "way",
      "id": 172924463,
      "center": {
        "lat": 12.9926177,
        "lon": 77.6112538
      },
      "tags": {
        "amenity": "place_of_worship",
        "building": "cathedral",
        "denomination": "roman_catholic",
        "heritage": "2",
        "heritage:operator": "nmma",
        "heritage:website": "https://nmma.nic.in/nmma/exploreBuiltState.do?state=29",
        "name": "St. Francis Xavier's Cathedral",
        "name:fr": "Cathédrale Saint-François-Xavier",
        "name:kn": "ಸಂತ ಫ್ರಾನ್ಸಿಸ್ ಕ್ಸೇವಿಯರ್ ಕ್ಯಾಥೆಡ್ರಲ್",
        "ref:nmma": "KR20010299",
        "religion": "christian",
        "wikidata": "Q7588004",
        "wikimedia_commons": "Category:St. Francis Xavier's Cathedral, Bangalore",
        "wikipedia": "en:St. Francis Xavier's Cathedral, Bangalore"
      }
    },
    {
      "type": "way",
      "id": 172952766,
      "center": {
        "lat": 13.0028911,
        "lon": 77.6158013
      },
      "tags": {
        "addr:city": "Bangalore",
        "addr:postcode": "560005",
        "addr:street": "Pottery Road",
        "amenity": "school",
        "name": "Clarence High School",
        "old_name": "Fraser Town European Day School",
        "phone": "+91 80 25470868",
        "start_date": "1914",
        "website": "http://www.clarencehighschool.net/",
        "wikipedia": "en:Clarence High School (Bangalore, India)"
      }
    },
    {
      "type": "way",
      "id": 172952785,
      "center": {
        "lat": 13.0005849,
        "lon": 77.610907
      },
      "tags": {
        "leisure": "park"
      }
    },
    {
      "type": "way",
      "id": 217558961,
      "center": {
        "lat": 12.9954933,
        "lon": 77.6180858
      },
      "tags": {
        "leisure": "sports_centre",
        "name": "Indian Gymkhana"
      }
    },
    {
      "type": "way",
      "id": 217558963,
      "center": {
        "lat": 12.9938563,
        "lon": 77.6194601
      },
      "tags": {
        "amenity": "school",
        "name": "St. Aloysius High School"
      }
    },
    {
      "type": "way",
      "id": 217558972,
      "center": {
        "lat": 12.9946242,
        "lon": 77.6188542
      },
      "tags": {
        "leisure": "playground",
        "name": "Clarence High School Playground"
      }
    },
    {
      "type": "way",
      "id": 311623046,
      "center": {
        "lat": 13.0033402,
        "lon": 77.6171322
      },
      "tags": {
        "amenity": "social_facility",
        "building": "yes",
        "building:levels": "2",
        "name": "Stephen's Home for the Aged",
        "operator": "St. John's Church",
        "operator:type": "religious",
        "roof:colour": "#c66e4e",
        "social_facility": "nursing_home",
        "social_facility:for": "senior"
      }
    },
    {
      "type": "way",
      "id": 313396132,
      "center": {
        "lat": 13.0005492,
        "lon": 77.6236229
      },
      "tags": {
        "addr:city": "Bangalore",
        "addr:housenumber": "12",
        "addr:postcode": "560005",
        "addr:street": "High Street",
        "amenity": "place_of_worship",
        "building": "yes",
        "building:colour": "lightyellow",
        "building:levels": "3",
        "building:material": "stone",
        "denomination": "seventh_day_adventist",
        "name": "Seventh Day Adventist Church",
        "name:kn": "ಸೆವೆಂತ್ ಡೇ ಅಡ್ವೆಂಟಿಸ್ಟ್ ಪ್ರೌಢ ಚರ್ಚ್",
        "religion": "christian",
        "roof:colour": "dodgerblue"
      }
    },
    {
      "type": "way",
      "id": 313396177,
      "center": {
        "lat": 13.0005591,
        "lon": 77.6234676
      },
      "tags": {
        "amenity": "bank",
        "brand": "Canara Bank",
        "brand:en": "Canara Bank",
        "brand:hi": "केनरा बैंक",
        "brand:kn": "ಕೆನರಾ ಬ್ಯಾಂಕ್",
        "brand:pa": "ਕੇਨਰਾ ਬੈਂਕ",
        "brand:pnb": "کینرا بینک",
        "brand:ur": "کینرا بینک",
        "brand:wikidata": "Q2003777",
        "brand:wikipedia": "en:Canara Bank",
        "brand:wikipedia:pa": "ਕੇਨਰਾ ਬੈਂਕ",
        "building": "yes",
        "building:colour": "lightgray",
        "building:levels": "2",
        "building:material": "plaster",
        "name": "Canara Bank",
        "name:en": "Canara Bank",
        "name:hi": "केनरा बैंक",
        "name:kn": "ಕೆನರಾ ಬ್ಯಾಂಕ್",
        "name:pa": "ਕੇਨਰਾ ਬੈਂਕ",
        "name:pnb": "کینرا بینک",
        "name:ur": "کینرا بینک",
        "roof:colour": "gray"
      }
    },
    {
      "type": "way",
      "id": 328384111,
      "center": {
        "lat": 13.0009847,
        "lon": 77.6154873
      },
      "tags": {
        "amenity": "place_of_worship",
        "denomination": "sunni",
        "name": "Haji Sir Ismail Sait Masjid",
        "name:etymology:wikidata": "Q6084847",
        "religion": "muslim"
      }
    },
    {
      "type": "way",
      "id": 328384112,
      "center": {
        "lat": 13.0009577,
        "lon": 77.6156117
      },
      "tags": {
        "amenity": "place_of_worship",
        "building": "mosque",
        "denomination": "sunni",
        "religion": "muslim"
      }
    },
    {
      "type": "way",
      "id": 335581639,
      "center": {
        "lat": 13.0022819,
        "lon": 77.6211919
      },
      "tags": {
        "addr:city": "Bangalore",
        "addr:housenumber": "1/3",
        "addr:postcode": "560005",
        "addr:street": "Lazar Road",
        "amenity": "place_of_worship",
        "building": "yes",
        "building:levels": "2",
        "name": "Bethany Brethren Assembly",
        "religion": "christian",
        "roof:colour": "#c66e4e"
      }
    },
    {
      "type": "way",
      "id": 344643275,
      "center": {
        "lat": 12.9987966,
        "lon": 77.6199599
      },
      "tags": {
        "leisure": "pitch",
        "sport": "tennis"
      }
    },
    {
      "type": "way",
      "id": 345954862,
      "center": {
        "lat": 12.9999803,
        "lon": 77.6144986
      },
      "tags": {
        "addr:district": "Bengaluru Urban",
        "addr:full": "No 1 Moore Market Square, Bourdillon Road, Fraser Town",
        "addr:postcode": "560005",
        "addr:state": "Karnataka",
        "amenity": "hospital",
        "building": "yes",
        "name": "Annasawmy Mudaliar General Hospital",
        "name:kn": "ಅಣ್ಣಸ್ವಾಮಿ ಮೊದಲಿಯಾರ್",
        "source": "OpenGovernmentData"
      }
    },
    {
      "type": "way",
      "id": 346011124,
      "center": {
        "lat": 12.9995594,
        "lon": 77.6201666
      },
      "tags": {
        "amenity": "marketplace"
      }
    },
    {
      "type": "way",
      "id": 346011125,
      "center": {
        "lat": 13.001086,
        "lon": 77.6181861
      },
      "tags": {
        "amenity": "parking",
        "parking": "surface"
      }
    },
    {
      "type": "way",
      "id": 346011130,
      "center": {
        "lat": 12.9995712,
        "lon": 77.6189351
      },
      "tags": {
        "amenity": "place_of_worship",
        "building": "temple",
        "religion": "hindu"
      }
    },
    {
      "type": "way",
      "id": 346025222,
      "center": {
        "lat": 12.999408,
        "lon": 77.6203085
      },
      "tags": {
        "barrier": "fence",
        "leisure": "park",
        "name": "Sarvagna Park"
      }
    },
    {
      "type": "way",
      "id": 346208891,
      "center": {
        "lat": 12.9917055,
        "lon": 77.6148698
      },
      "tags": {
        "amenity": "bank",
        "brand": "Punjab National Bank",
        "brand:wikidata": "Q2743499",
        "building": "yes",
        "name": "Punjab National Bank",
        "name:en": "Punjab National Bank",
        "name:kn": "ಪಂಜಾಬ ರಾಷ್ಟ್ರೀಯ ಬ್ಯಾಂಕ್",
        "short_name": "PNB",
        "website": "https://www.pnbindia.in"
      }
    },
    {
      "type": "way",
      "id": 346209154,
      "center": {
        "lat": 12.9917604,
        "lon": 77.6129946
      },
      "tags": {
        "amenity": "place_of_worship",
        "building": "church",
        "building:architecture": "gothic",
        "denomination": "anglican",
        "loc_name": "Sigapoo Oosimatha Koil",
        "name": "St. John's Church",
        "name:kn": "ಸೆಂಟ್ ಜಾನ್ಸ್ ಚರ್ಚ್",
        "religion": "christian",
        "start_date": "1857",
        "wikidata": "Q19898476",
        "wikimedia_commons": "Category:St. John's Church, Bangalore",
        "wikipedia": "en:St. John's Church, Bangalore"
      }
    },
    {
      "type": "way",
      "id": 346282268,
      "center": {
        "lat": 13.0001156,
        "lon": 77.6208046
      },
      "tags": {
        "addr:city": "Bangalore",
        "addr:housenumber": "2",
        "addr:postcode": "560005",
        "addr:street": "Hutchins Main Road",
        "amenity": "place_of_worship",
        "building": "church",
        "building:colour": "aliceblue",
        "building:levels": "3",
        "building:material": "plaster",
        "denomination": "jehovahs_witness",
        "name": "Kingdom Hall of Jehovah's Witnesses",
        "religion": "christian",
        "roof:colour": "white"
      }
    },
    {
      "type": "way",
      "id": 346427859,
      "center": {
        "lat": 12.9929344,
        "lon": 77.6091095
      },
      "tags": {
        "amenity": "fuel"
      }
    },
    {
      "type": "way",
      "id": 348567425,
      "center": {
        "lat": 12.9996394,
        "lon": 77.6210894
      },
      "tags": {
        "addr:city": "Bangalore",
        "addr:housenumber": "22",
        "addr:postcode": "560005",
        "addr:street": "Pottery Road",
        "amenity": "place_of_worship",
        "building": "church",
        "building:colour": "aliceblue",
        "building:levels": "1",
        "building:material": "plaster",
        "denomination": "brethren",
        "religion": "christian",
        "roof:colour": "gray",
        "service_times": "Su 10:00, 18:00"
      }
    },
    {
      "type": "way",
      "id": 350504312,
      "center": {
        "lat": 13.0018764,
        "lon": 77.62039
      },
      "tags": {
        "amenity": "place_of_worship",
        "building": "yes",
        "name": "Christadelphians",
        "religion": "christian",
        "roof:colour": "gray",
        "service_times": "Su 09:30-11:30"
      }
    },
    {
      "type": "way",
      "id": 350872983,
      "center": {
        "lat": 12.9981103,
        "lon": 77.6202423
      },
      "tags": {
        "amenity": "place_of_worship",
        "building": "church",
        "building:levels": "2",
        "name": "St Peters Tamil Church",
        "religion": "christian"
      }
    },
    {
      "type": "way",
      "id": 351582432,
      "center": {
        "lat": 12.9969574,
        "lon": 77.6191261
      },
      "tags": {
        "amenity": "recycling",
        "building": "yes",
        "name": "Kamala Refinery",
        "recycling:scrap_metal": "yes",
        "recycling_type": "centre"
      }
    },
    {
      "type": "way",
      "id": 351810509,
      "center": {
        "lat": 13.0006058,
        "lon": 77.6224957
      },
      "tags": {
        "addr:city": "Bangalore",
        "addr:housenumber": "1",
        "addr:postcode": "560005",
        "addr:street": "Lewis Road",
        "building": "yes",
        "building:colour": "lightyellow",
        "building:levels": "2",
        "building:material": "plaster",
        "check_date": "2023-12-31",
        "name": "Lightroom Bookstore",
        "roof:colour": "gray",
        "shop": "books"
      }
    },
    {
      "type": "way",
      "id": 352198878,
      "center": {
        "lat": 12.9994109,
        "lon": 77.6244306
      },
      "tags": {
        "addr:city": "Bangalore",
        "addr:housenumber": "5",
        "addr:postcode": "560005",
        "addr:street": "Banaswadi Road",
        "amenity": "monastery",
        "building": "yes",
        "building:colour": "lightblue",
        "building:material": "plaster",
        "denomination": "catholic",
        "name": "St. Vincent House",
        "religion": "christian",
        "roof:colour": "white"
      }
    },
    {
      "type": "way",
      "id": 363458703,
      "center": {
        "lat": 12.9932061,
        "lon": 77.6139127
      },
      "tags": {
        "amenity": "school",
        "landuse": "education"
      }
    },
    {
      "type": "way",
      "id": 385200731,
      "center": {
        "lat": 13.0006187,
        "lon": 77.6214792
      },
      "tags": {
        "leisure": "park",
        "name": "Cooke Town Park",
        "name:en": "Cooke Town Park",
        "name:kn": "ಕುಕ್ ಟೌನ್ ಉದ್ಯಾನವನ"
      }
    },
    {
      "type": "way",
      "id": 411052123,
      "center": {
        "lat": 12.9991231,
        "lon": 77.614012
      },
      "tags": {
        "leisure": "pitch"
      }
    },
    {
      "type": "way",
      "id": 411052127,
      "center": {
        "lat": 12.9989467,
        "lon": 77.6143957
      },
      "tags": {
        "amenity": "school",
        "name": "Annaswamy Mudaliar High School",
        "name:kn": "ಅಣ್ಣಾಸ್ವಾಮಿ ಮುದಲಿಯಾರ್ ಪ್ರೌಢಶಾಲೆ"
      }
    },
    {
      "type": "way",
      "id": 421097861,
      "center": {
        "lat": 12.9860564,
        "lon": 77.6188133
      },
      "tags": {
        "leisure": "pitch"
      }
    },
    {
      "type": "way",
      "id": 421097862,
      "center": {
        "lat": 12.9862788,
        "lon": 77.618436
      },
      "tags": {
        "leisure": "garden"
      }
    },
    {
      "type": "way",
      "id": 462300034,
      "center": {
        "lat": 13.0002009,
        "lon": 77.6194417
      },
      "tags": {
        "leisure": "park",
        "name": "East park"
      }
    },
    {
      "type": "way",
      "id": 691153651,
      "center": {
        "lat": 12.9873184,
        "lon": 77.6223456
      },
      "tags": {
        "leisure": "park"
      }
    },
    {
      "type": "way",
      "id": 775444096,
      "center": {
        "lat": 12.9943727,
        "lon": 77.6136842
      },
      "tags": {
        "leisure": "pitch"
      }
    },
    {
      "type": "way",
      "id": 775444098,
      "center": {
        "lat": 12.9944058,
        "lon": 77.6121676
      },
      "tags": {
        "addr:housename": "Seventh Day Adventist High School",
        "addr:housenumber": "98",
        "addr:postcode": "560005",
        "addr:street": "Spencer Road, Fraser Town, Bangalore",
        "amenity": "school",
        "name": "Seventh Day Adventist School",
        "name:kn": "ಸೆವೆಂತ್ ಡೇ ಅಡ್ವೆನ್ಟಿಸ್ಟ್ ಪ್ರೌಡ ಶಾಲೆ"
      }
    },
    {
      "type": "way",
      "id": 775444121,
      "center": {
        "lat": 12.9955179,
        "lon": 77.6075387
      },
      "tags": {
        "access": "private",
        "leisure": "swimming_pool"
      }
    },
    {
      "type": "way",
      "id": 775448744,
      "center": {
        "lat": 12.9945753,
        "lon": 77.6094851
      },
      "tags": {
        "leisure": "pitch",
        "name": "Roller Skating Rink",
        "sport": "skateboard"
      }
    },
    {
      "type": "way",
      "id": 775448746,
      "center": {
        "lat": 12.9947733,
        "lon": 77.6084642
      },
      "tags": {
        "amenity": "shelter",
        "bench": "yes",
        "building": "yes",
        "shelter_type": "gazebo"
      }
    },
    {
      "type": "way",
      "id": 775448748,
      "center": {
        "lat": 12.9914454,
        "lon": 77.6136085
      },
      "tags": {
        "leisure": "pitch",
        "name": "St. John's Football Ground",
        "sport": "soccer"
      }
    },
    {
      "type": "way",
      "id": 775448749,
      "center": {
        "lat": 12.9920522,
        "lon": 77.612392
      },
      "tags": {
        "leisure": "pitch",
        "sport": "basketball"
      }
    },
    {
      "type": "way",
      "id": 776784257,
      "center": {
        "lat": 12.9953128,
        "lon": 77.6102914
      },
      "tags": {
        "access": "private",
        "leisure": "swimming_pool"
      }
    },
    {
      "type": "way",
      "id": 853107526,
      "center": {
        "lat": 13.0026129,
        "lon": 77.6166965
      },
      "tags": {
        "addr:city": "Bangalore",
        "addr:housenumber": "10",
        "addr:postcode": "560005",
        "addr:street": "Pottery Road",
        "amenity": "place_of_worship",
        "building": "church",
        "name": "Mizpah Telugu Church",
        "religion": "christian",
        "roof:colour": "#c66e4e",
        "service_times": "Su 09:30 - 12:00"
      }
    },
    {
      "type": "way",
      "id": 886246933,
      "center": {
        "lat": 12.9957846,
        "lon": 77.6091173
      },
      "tags": {
        "addr:housenumber": "10",
        "addr:street": "Promenade Road",
        "amenity": "school",
        "check_date": "2024-12-29",
        "email": "goodwillpucollege@yahoo.in",
        "name": "Goodwill Girls’ High School & Composite Pre-university College",
        "name:kn": "ಗುಡ್ ವಿಲ್ಸ್ ಕನ್ಯಾ ಪ್ರೌಡ ಶಾಲೆ",
        "phone": "+91 80 4371 8738",
        "start_date": "1821",
        "website": "https://csigghspuc.edu.in/",
        "wikidata": "Q19891605",
        "wikipedia": "en:Goodwill's Girls' School, Bengaluru"
      }
    },
    {
      "type": "way",
      "id": 925592816,
      "center": {
        "lat": 13.0009436,
        "lon": 77.6214621
      },
      "tags": {
        "addr:city": "Bangalore",
        "addr:housenumber": "12",
        "addr:postcode": "560005",
        "addr:street": "Hutchins Main Road",
        "amenity": "dentist",
        "building": "semidetached_house",
        "building:colour": "red",
        "building:material": "plaster",
        "healthcare": "dentist",
        "name": "Dental Health Clinic",
        "roof:colour": "white"
      }
    },
    {
      "type": "way",
      "id": 961091789,
      "center": {
        "lat": 12.9990478,
        "lon": 77.6242516
      },
      "tags": {
        "amenity": "cafe",
        "building": "yes",
        "building:levels": "2",
        "name": "Sanctuary",
        "roof:colour": "white"
      }
    },
    {
      "type": "way",
      "id": 961651327,
      "center": {
        "lat": 13.0005642,
        "lon": 77.622022
      },
      "tags": {
        "amenity": "college",
        "landuse": "education"
      }
    },
    {
      "type": "way",
      "id": 965384354,
      "center": {
        "lat": 13.002281,
        "lon": 77.6205202
      },
      "tags": {
        "amenity": "place_of_worship",
        "building": "yes",
        "name": "Sri Kalikka Mageshwari Temple",
        "religion": "hindu",
        "roof:colour": "gray",
        "service_times": "09:00-13:00; 17:00-20:30"
      }
    },
    {
      "type": "way",
      "id": 976724249,
      "center": {
        "lat": 13.0024912,
        "lon": 77.6199198
      },
      "tags": {
        "leisure": "garden"
      }
    },
    {
      "type": "way",
      "id": 1051886122,
      "center": {
        "lat": 12.9912597,
        "lon": 77.6172381
      },
      "tags": {
        "leisure": "pitch",
        "sport": "tennis"
      }
    },
    {
      "type": "way",
      "id": 1051886124,
      "center": {
        "lat": 12.991261,
        "lon": 77.619072
      },
      "tags": {
        "leisure": "park"
      }
    },
    {
      "type": "way",
      "id": 1051886127,
      "center": {
        "lat": 12.9932494,
        "lon": 77.6074537
      },
      "tags": {
        "amenity": "events_venue",
        "name": "AKS Convention Centre"
      }
    },
    {
      "type": "way",
      "id": 1051886128,
      "center": {
        "lat": 12.9914384,
        "lon": 77.6129533
      },
      "tags": {
        "amenity": "community_centre",
        "community_centre": "parish_hall",
        "name": "St. John's Community Center",
        "name:en": "St. John's Community Center"
      }
    },
    {
      "type": "way",
      "id": 1051886131,
      "center": {
        "lat": 12.9908979,
        "lon": 77.6138419
      },
      "tags": {
        "amenity": "fuel",
        "brand": "Bharat Petroleum",
        "brand:wikidata": "Q854826",
        "compressed_air": "yes",
        "name": "Bharat Petroleum",
        "name:kn": "ಭಾರತ್ ಪೆಟ್ರೋಲಿಯಂ",
        "operator": "Bharat Petroleum"
      }
    },
    {
      "type": "way",
      "id": 1051886136,
      "center": {
        "lat": 12.993118,
        "lon": 77.6115447
      },
      "tags": {
        "access": "permissive",
        "amenity": "parking",
        "fee": "no",
        "parking": "surface"
      }
    },
    {
      "type": "way",
      "id": 1051886138,
      "center": {
        "lat": 12.9927713,
        "lon": 77.6119031
      },
      "tags": {
        "amenity": "school",
        "name": "St. Anthony's School"
      }
    },
    {
      "type": "way",
      "id": 1051886139,
      "center": {
        "lat": 12.9947955,
        "lon": 77.6102729
      },
      "tags": {
        "amenity": "place_of_worship",
        "name": "Wesley English Church",
        "name:kn": "ವೆಸ್ಲೀ ಇಂಗ್ಲಿಶ್ ಚರ್ಚ್",
        "religion": "christian"
      }
    },
    {
      "type": "way",
      "id": 1107016495,
      "center": {
        "lat": 12.9993467,
        "lon": 77.619613
      },
      "tags": {
        "alt_name": "Frazer Town Police Station",
        "amenity": "police",
        "name": "Pulakeshi Nagar Police Station",
        "name:kn": "ಪುಲಕೇಶಿನಗರ ಆರಕ್ಷಕ ಠಾಣೆ"
      }
    },
    {
      "type": "way",
      "id": 1107016496,
      "center": {
        "lat": 13.000253,
        "lon": 77.6163044
      },
      "tags": {
        "amenity": "school",
        "name": "Haji Sir Ismail Sait Government Urdu and English Higher Primary School",
        "name:etymology:wikidata": "Q6084847"
      }
    },
    {
      "type": "way",
      "id": 1107016498,
      "center": {
        "lat": 13.0005054,
        "lon": 77.6139735
      },
      "tags": {
        "amenity": "clinic",
        "name": "Government Primary Health Center",
        "name:kn": "ಸರ್ಕಾರಿ ಪ್ರಾಥಮಿಕ ಆರೋಗ್ಯ ಕೇಂದ್ರ",
        "old_name": "Rao Bahadur BP Annaswamy Mudaliar Dispensary",
        "start_date": "1909"
      }
    },
    {
      "type": "way",
      "id": 1125007550,
      "center": {
        "lat": 12.9921005,
        "lon": 77.6252113
      },
      "tags": {
        "golf:course": "18_hole",
        "landuse": "grass",
        "leisure": "golf_course",
        "name": "MEG Golf Course"
      }
    },
    {
      "type": "way",
      "id": 1157218000,
      "center": {
        "lat": 12.991951,
        "lon": 77.6074842
      },
      "tags": {
        "amenity": "community_centre",
        "name": "Shams Convention Centre"
      }
    },
    {
      "type": "way",
      "id": 1160807141,
      "center": {
        "lat": 12.9896172,
        "lon": 77.6101403
      },
      "tags": {
        "amenity": "school"
      }
    },
    {
      "type": "way",
      "id": 1160807142,
      "center": {
        "lat": 12.9900027,
        "lon": 77.6103196
      },
      "tags": {
        "amenity": "school",
        "name": "BBMP Girls School",
        "operator": "BBMP"
      }
    },
    {
      "type": "way",
      "id": 1160807143,
      "center": {
        "lat": 12.9901591,
        "lon": 77.6097106
      },
      "tags": {
        "amenity": "clinic",
        "building": "yes",
        "name": "BBMP Maternity Home",
        "official_name": "Seth Kishanlal Phoolchand Maternity Home",
        "operator": "BBMP",
        "start_date": "1957"
      }
    },
    {
      "type": "way",
      "id": 1202577040,
      "center": {
        "lat": 13.0025954,
        "lon": 77.6153961
      },
      "tags": {
        "access": "private",
        "leisure": "pitch",
        "sport": "basketball"
      }
    },
    {
      "type": "way",
      "id": 1217671311,
      "center": {
        "lat": 12.9973095,
        "lon": 77.6212792
      },
      "tags": {
        "amenity": "school",
        "name": "Government First Grade College",
        "name:kn": "ಸರಕಾರಿ ಪ್ರಥಮ ದರ್ಜೆ ಕಾಲೇಜು"
      }
    },
    {
      "type": "way",
      "id": 1233815376,
      "center": {
        "lat": 13.0014099,
        "lon": 77.6206848
      },
      "tags": {
        "landuse": "industrial",
        "name": "Dhobi Ghat",
        "name:kn": "ಧೋಬಿ ಘಾಟ್",
        "shop": "laundry"
      }
    },
    {
      "type": "way",
      "id": 1235785958,
      "center": {
        "lat": 13.0001441,
        "lon": 77.6219175
      },
      "tags": {
        "access": "private",
        "leisure": "swimming_pool",
        "location": "roof"
      }
    },
    {
      "type": "way",
      "id": 1235866756,
      "center": {
        "lat": 12.9922229,
        "lon": 77.6176314
      },
      "tags": {
        "access": "private",
        "leisure": "swimming_pool"
      }
    },
    {
      "type": "way",
      "id": 1235866763,
      "center": {
        "lat": 12.9989358,
        "lon": 77.6247001
      },
      "tags": {
        "access": "private",
        "amenity": "place_of_worship",
        "building": "yes",
        "religion": "hindu"
      }
    },
    {
      "type": "way",
      "id": 1235866765,
      "center": {
        "lat": 12.9983555,
        "lon": 77.6241946
      },
      "tags": {
        "access": "private",
        "leisure": "pitch",
        "lit": "yes",
        "sport": "soccer"
      }
    },
    {
      "type": "way",
      "id": 1235866773,
      "center": {
        "lat": 12.9957741,
        "lon": 77.6258859
      },
      "tags": {
        "access": "private",
        "amenity": "parking",
        "parking": "surface"
      }
    },
    {
      "type": "way",
      "id": 1235995421,
      "center": {
        "lat": 12.9893901,
        "lon": 77.621104
      },
      "tags": {
        "access": "private",
        "leisure": "pitch",
        "sport": "tennis"
      }
    },
    {
      "type": "way",
      "id": 1267604513,
      "center": {
        "lat": 12.9954087,
        "lon": 77.6178134
      },
      "tags": {
        "leisure": "pitch",
        "sport": "basketball"
      }
    },
    {
      "type": "way",
      "id": 1267604514,
      "center": {
        "lat": 12.9955902,
        "lon": 77.6176384
      },
      "tags": {
        "leisure": "pitch",
        "sport": "tennis"
      }
    },
    {
      "type": "way",
      "id": 1275460866,
      "center": {
        "lat": 12.999737,
        "lon": 77.612371
      },
      "tags": {
        "amenity": "school",
        "landuse": "education",
        "name": "Government School",
        "name:kn": "ಸರ್ಕಾರಿ ಶಾಲೆ"
      }
    },
    {
      "type": "way",
      "id": 1278163550,
      "center": {
        "lat": 12.9965003,
        "lon": 77.6117967
      },
      "tags": {
        "amenity": "fuel",
        "brand": "Hindustan Petroleum",
        "brand:wikidata": "Q1619375",
        "compressed_air": "yes",
        "name": "HP Petrol Pump",
        "name:kn": "ಹಿಂದುಸ್ತಾನ್ ಪೆಟ್ರೋಲಿಯಂ",
        "official_name": "Hindustan Petroleum"
      }
    },
    {
      "type": "way",
      "id": 1278668472,
      "center": {
        "lat": 12.9934686,
        "lon": 77.6123451
      },
      "tags": {
        "amenity": "monastery",
        "community:gender": "female",
        "denomination": "catholic",
        "landuse": "religious",
        "name": "Tarbes Nivas",
        "religion": "christian"
      }
    },
    {
      "type": "way",
      "id": 1304189526,
      "center": {
        "lat": 12.9873586,
        "lon": 77.6170219
      },
      "tags": {
        "access": "private",
        "amenity": "parking",
        "parking": "surface"
      }
    },
    {
      "type": "way",
      "id": 1304189527,
      "center": {
        "lat": 12.9870992,
        "lon": 77.6168483
      },
      "tags": {
        "access": "private",
        "amenity": "parking",
        "parking": "surface"
      }
    },
    {
      "type": "way",
      "id": 1311425976,
      "center": {
        "lat": 12.9933819,
        "lon": 77.6091028
      },
      "tags": {
        "amenity": "parking",
        "parking": "surface"
      }
    },
    {
      "type": "way",
      "id": 1311425977,
      "center": {
        "lat": 12.9929322,
        "lon": 77.6108023
      },
      "tags": {
        "leisure": "pitch",
        "sport": "basketball"
      }
    },
    {
      "type": "way",
      "id": 1349194555,
      "center": {
        "lat": 12.9876888,
        "lon": 77.6210655
      },
      "tags": {
        "amenity": "events_venue",
        "building": "yes"
      }
    },
    {
      "type": "way",
      "id": 1350607160,
      "center": {
        "lat": 12.9904005,
        "lon": 77.6190992
      },
      "tags": {
        "amenity": "community_centre",
        "name": "Young Men Indians' Association"
      }
    },
    {
      "type": "way",
      "id": 1350607175,
      "center": {
        "lat": 12.9957881,
        "lon": 77.6186034
      },
      "tags": {
        "access": "customers",
        "amenity": "parking",
        "parking": "surface"
      }
    },
    {
      "type": "way",
      "id": 1350607177,
      "center": {
        "lat": 12.9949693,
        "lon": 77.6194125
      },
      "tags": {
        "amenity": "place_of_worship",
        "landuse": "religious",
        "religion": "hindu"
      }
    },
    {
      "type": "way",
      "id": 1350607179,
      "center": {
        "lat": 12.9984364,
        "lon": 77.6203075
      },
      "tags": {
        "amenity": "marketplace",
        "landuse": "retail",
        "name": "Cox Town Market"
      }
    },
    {
      "type": "way",
      "id": 1350607181,
      "center": {
        "lat": 12.9989578,
        "lon": 77.6199465
      },
      "tags": {
        "amenity": "community_centre",
        "name": "Women's Indian Association"
      }
    },
    {
      "type": "way",
      "id": 1354135987,
      "center": {
        "lat": 12.9950956,
        "lon": 77.608345
      },
      "tags": {
        "leisure": "garden"
      }
    },
    {
      "type": "way",
      "id": 1354135993,
      "center": {
        "lat": 12.9951733,
        "lon": 77.6086379
      },
      "tags": {
        "leisure": "garden"
      }
    },
    {
      "type": "way",
      "id": 1354135998,
      "center": {
        "lat": 12.9942385,
        "lon": 77.6082814
      },
      "tags": {
        "amenity": "toilets",
        "building": "yes",
        "changing_table": "yes",
        "name": "Pay And Use Toilet"
      }
    },
    {
      "type": "way",
      "id": 1354135999,
      "center": {
        "lat": 12.9945203,
        "lon": 77.6081861
      },
      "tags": {
        "access": "no",
        "leisure": "garden"
      }
    },
    {
      "type": "way",
      "id": 1354136000,
      "center": {
        "lat": 12.9945114,
        "lon": 77.6085953
      },
      "tags": {
        "leisure": "garden"
      }
    },
    {
      "type": "way",
      "id": 1354136001,
      "center": {
        "lat": 12.9940378,
        "lon": 77.6088079
      },
      "tags": {
        "leisure": "garden",
        "name": "Ladies Exercise Area And Garden"
      }
    },
    {
      "type": "way",
      "id": 1354136002,
      "center": {
        "lat": 12.9939459,
        "lon": 77.6091707
      },
      "tags": {
        "leisure": "fitness_station",
        "name": "Ladies Outdoor Gym",
        "sport": "fitness"
      }
    },
    {
      "type": "way",
      "id": 1354136005,
      "center": {
        "lat": 12.9947063,
        "lon": 77.6081639
      },
      "tags": {
        "access": "no",
        "leisure": "garden"
      }
    },
    {
      "type": "way",
      "id": 1354136006,
      "center": {
        "lat": 12.9941276,
        "lon": 77.6092491
      },
      "tags": {
        "leisure": "pitch"
      }
    },
    {
      "type": "way",
      "id": 1354136011,
      "center": {
        "lat": 12.9942216,
        "lon": 77.6098013
      },
      "tags": {
        "leisure": "fitness_station",
        "name": "Outdoor Gym",
        "sport": "fitness"
      }
    },
    {
      "type": "way",
      "id": 1354137049,
      "center": {
        "lat": 12.9944381,
        "lon": 77.609755
      },
      "tags": {
        "leisure": "playground",
        "name": "Childrens Playground"
      }
    },
    {
      "type": "way",
      "id": 1354138781,
      "center": {
        "lat": 12.9938224,
        "lon": 77.609674
      },
      "tags": {
        "leisure": "pitch"
      }
    },
    {
      "type": "way",
      "id": 1354138794,
      "center": {
        "lat": 12.9934915,
        "lon": 77.6092589
      },
      "tags": {
        "leisure": "pitch"
      }
    },
    {
      "type": "way",
      "id": 1354140723,
      "center": {
        "lat": 12.9946856,
        "lon": 77.6090554
      },
      "tags": {
        "leisure": "garden"
      }
    },
    {
      "type": "way",
      "id": 1354141151,
      "center": {
        "lat": 12.9951035,
        "lon": 77.6085667
      },
      "tags": {
        "leisure": "garden"
      }
    },
    {
      "type": "way",
      "id": 1354141152,
      "center": {
        "lat": 12.9946598,
        "lon": 77.6087745
      },
      "tags": {
        "leisure": "garden"
      }
    },
    {
      "type": "way",
      "id": 1354141153,
      "center": {
        "lat": 12.9947356,
        "lon": 77.6084553
      },
      "tags": {
        "leisure": "garden"
      }
    },
    {
      "type": "way",
      "id": 1354158748,
      "center": {
        "lat": 12.9905501,
        "lon": 77.612502
      },
      "tags": {
        "amenity": "place_of_worship",
        "denomination": "anglican",
        "name": "CSI Memorial Church",
        "religion": "christian"
      }
    },
    {
      "type": "way",
      "id": 1354165119,
      "center": {
        "lat": 12.9908984,
        "lon": 77.6128963
      },
      "tags": {
        "amenity": "events_venue",
        "name": "CSI Memorial Hall"
      }
    },
    {
      "type": "way",
      "id": 1364046472,
      "center": {
        "lat": 12.9960002,
        "lon": 77.6115462
      },
      "tags": {
        "amenity": "place_of_worship",
        "denomination": "seventh_day_adventist",
        "name": "Seventh Day Adventist Central Tamil Church",
        "religion": "christian"
      }
    },
    {
      "type": "way",
      "id": 1364046490,
      "center": {
        "lat": 12.9956793,
        "lon": 77.611742
      },
      "tags": {
        "amenity": "school",
        "name": "Seventh Day Adventist Higher Secondary School"
      }
    },
    {
      "type": "way",
      "id": 1364046498,
      "center": {
        "lat": 12.9960151,
        "lon": 77.6108308
      },
      "tags": {
        "amenity": "clinic",
        "name": "Medical Mission Secular Institute"
      }
    },
    {
      "type": "way",
      "id": 1364046523,
      "center": {
        "lat": 12.9950655,
        "lon": 77.6098557
      },
      "tags": {
        "amenity": "college",
        "name": "Goodwill College for Women"
      }
    },
    {
      "type": "way",
      "id": 1375061408,
      "center": {
        "lat": 12.997406,
        "lon": 77.6176512
      },
      "tags": {
        "addr:city": "Bangalore",
        "addr:postcode": "56005",
        "addr:street": "Buddha Vihar Road",
        "amenity": "place_of_worship",
        "denomination": "tibetan",
        "name": "Buddha Vihar",
        "name:hi": "बुद्धा विहार",
        "name:kn": "ಬುದ್ಧ ವಿಹಾರ್",
        "religion": "buddhist",
        "service_times": "Su 11:00-13:00",
        "start_date": "1907"
      }
    },
    {
      "type": "way",
      "id": 1377007429,
      "center": {
        "lat": 12.9900894,
        "lon": 77.6120014
      },
      "tags": {
        "leisure": "park"
      }
    },
    {
      "type": "way",
      "id": 1377007431,
      "center": {
        "lat": 12.9911983,
        "lon": 77.6120845
      },
      "tags": {
        "addr:city": "bangalore",
        "addr:postcode": "560005",
        "addr:street": "Frazer Town Police Station, Near-Mark Circle, Frazer Town",
        "amenity": "police",
        "name": "Bharthinagar Police Station",
        "name:kn": "ಭಾರತಿನಗರ ಆರಕ್ಷಕ ಠಾಣೆ",
        "phone": "080 2294 2548",
        "website": "NA"
      }
    },
    {
      "type": "way",
      "id": 1381418977,
      "center": {
        "lat": 12.9861309,
        "lon": 77.6161109
      },
      "tags": {
        "access": "permissive",
        "amenity": "parking",
        "capacity": "8",
        "parking": "surface"
      }
    },
    {
      "type": "way",
      "id": 1381418978,
      "center": {
        "lat": 12.9858532,
        "lon": 77.6165343
      },
      "tags": {
        "access": "permissive",
        "amenity": "parking",
        "capacity": "12",
        "parking": "surface"
      }
    },
    {
      "type": "way",
      "id": 1381418979,
      "center": {
        "lat": 12.9858045,
        "lon": 77.616076
      },
      "tags": {
        "access": "permissive",
        "amenity": "parking",
        "capacity": "9",
        "parking": "surface"
      }
    },
    {
      "type": "way",
      "id": 1409545078,
      "center": {
        "lat": 12.991834,
        "lon": 77.6147343
      },
      "tags": {
        "amenity": "fuel",
        "brand": "Hindustan Petroleum",
        "brand:wikidata": "Q1619375",
        "compressed_air": "yes",
        "name": "Hindustan Petroleum",
        "name:kn": "ಹಿಂದುಸ್ತಾನ್ ಪೆಟ್ರೋಲಿಯಂ",
        "official_name": "Hindustan Petroleum"
      }
    }
  ]
}