{
  "area_name": "Sir MV Layout",
  "osm_id": 7289170281,
  "osm_type": "node",
  "place_type": "suburb",
  "amenity_count": 21,
  "amenities": [
    {
      "type": "node",
      "id": 6280468546,
      "lat": 12.9461955,
      "lon": 77.4861173,
      "tags": {
        "addr:city": "Bangalore,Karnataka",
        "addr:housenumber": "136, Mata Amritanandamayi Road, 2 nd stage",
        "addr:postcode": "560056",
        "addr:street": "Jnana Bharathi",
        "amenity": "place_of_worship",
        "name": "Mata Amritanandamayi Math"
      }
    },
    {
      "type": "node",
      "id": 6947707903,
      "lat": 12.9418827,
      "lon": 77.48376,
      "tags": {
        "addr:district": "Bengaluru Urban",
        "addr:full": "4,Kirloskar Colony, Basaveshwaranagar",
        "addr:postcode": "560079",
        "addr:state": "Karnataka",
        "amenity": "hospital",
        "name": "Vijaya Hospital, Bengaluru Urban",
        "source": "OpenGovernmentData"
      }
    },
    {
      "type": "node",
      "id": 11934559378,
      "lat": 12.9483368,
      "lon": 77.4765944,
      "tags": {
        "amenity": "shelter",
        "shelter_type": "gazebo"
      }
    },
    {
      "type": "node",
      "id": 12089402755,
      "lat": 12.9525606,
      "lon": 77.477533,
      "tags": {
        "amenity": "fuel",
        "fuel:diesel": "yes",
        "fuel:petrol": "yes",
        "name": "Dream Fuel Junction",
        "opening_hours": "06:00-23:00",
        "survey:date": "2024-08-03"
      }
    },
    {
      "type": "node",
      "id": 12956759781,
      "lat": 12.9413336,
      "lon": 77.4829497,
      "tags": {
        "amenity": "shelter",
        "shelter_type": "gazebo"
      }
    },
    {
      "type": "way",
      "id": 150288038,
      "center": {
        "lat": 12.9433793,
        "lon": 77.4856774
      },
      "tags": {
        "leisure": "park"
      }
    },
    {
      "type": "way",
      "id": 362916385,
      "center": {
        "lat": 12.947956,
        "lon": 77.4769187
      },
      "tags": {
        "leisure": "park"
      }
    },
    {
      "type": "way",
      "id": 362916463,
      "center": {
        "lat": 12.9524677,
        "lon": 77.4798968
      },
      "tags": {
        "leisure": "park",
        "name": "Vishveshwaraiah Layout 5th Block Park"
      }
    },
    {
      "type": "way",
      "id": 720154506,
      "center": {
        "lat": 12.945187,
        "lon": 77.4871548
      },
      "tags": {
        "leisure": "park",
        "name": "KPSC Layout Mini Park"
      }
    },
    {
      "type": "way",
      "id": 720154507,
      "center": {
        "lat": 12.9451498,
        "lon": 77.4863361
      },
      "tags": {
        "leisure": "park",
        "name": "KPSC Layout Park",
        "operator": "KPSC Layout Association"
      }
    },
    {
      "type": "way",
      "id": 722099086,
      "center": {
        "lat": 12.9454979,
        "lon": 77.4865667
      },
      "tags": {
        "addr:postcode": "560056",
        "addr:street": "KPSC Layout",
        "amenity": "place_of_worship",
        "building": "yes",
        "name": "Shree Durga Parameshwari Temple",
        "name:kn": "ದುರ್ಗಾ ಪರಮೇಶ್ವರಿ ದೇವಸ್ತಾನ",
        "religion": "hindu"
      }
    },
    {
      "type": "way",
      "id": 780585926,
      "center": {
        "lat": 12.9357382,
        "lon": 77.4836151
      },
      "tags": {
        "leisure": "park",
        "name": "Sonnenahalli Park"
      }
    },
    {
      "type": "way",
      "id": 1286755376,
      "center": {
        "lat": 12.9494654,
        "lon": 77.4776694
      },
      "tags": {
        "amenity": "fuel"
      }
    },
    {
      "type": "way",
      "id": 1286756022,
      "center": {
        "lat": 12.9407888,
        "lon": 77.4802785
      },
      "tags": {
        "amenity": "school",
        "name": "National Public School, SMV"
      }
    },
    {
      "type": "way",
      "id": 1286756030,
      "center": {
        "lat": 12.9400679,
        "lon": 77.479276
      },
      "tags": {
        "amenity": "fuel"
      }
    },
    {
      "type": "way",
      "id": 1360543546,
      "center": {
        "lat": 12.9509338,
        "lon": 77.4718689
      },
      "tags": {
        "leisure": "park"
      }
    },
    {
      "type": "way",
      "id": 1360644152,
      "center": {
        "lat": 12.9507195,
        "lon": 77.4836097
      },
      "tags": {
        "amenity": "school",
        "name": "Janani Vidya Mandira",
        "survey:date": "2024-08-03",
        "website": "jananividyamandira.com"
      }
    },
    {
      "type": "way",
      "id": 1360644157,
      "center": {
        "lat": 12.9510658,
        "lon": 77.4810597
      },
      "tags": {
        "amenity": "hospital",
        "name": "Government Multi-Speciality Hospital"
      }
    },
    {
      "type": "way",
      "id": 1410092195,
      "center": {
        "lat": 12.9387915,
        "lon": 77.4708076
      },
      "tags": {
        "leisure": "park",
        "name": "Vishveshwaraiah Layout 4th Block Park"
      }
    },
    {
      "type": "way",
      "id": 1410092205,
      "center": {
        "lat": 12.9478165,
        "lon": 77.4771934
      },
      "tags": {
        "amenity": "place_of_worship",
        "building": "yes",
        "religion": "hindu"
      }
    },
    {
      "type": "way",
      "id": 1410092219,
      "center": {
        "lat": 12.941145,
        "lon": 77.4830817
      },
      "tags": {
        "leisure": "park",
        "name": "Vishveshwaraiah Layout 3rd Block Park"
      }
    }
  ]
}