{
  "area_name": "Sivanchetti Gardens",
  "osm_id": 4564854862,
  "osm_type": "node",
  "place_type": "neighbourhood",
  "amenity_count": 395,
  "amenities": [
    {
      "type": "node",
      "id": 343089650,
      "lat": 12.9915471,
      "lon": 77.614181,
      "tags": {
        "addr:housenumber": "# 1/2",
        "addr:postcode": "560005",
        "addr:street": "Wheeler Road",
        "name": "Thom's Bakery",
        "name:ar": "دكان كبير",
        "name:kn": "ಥಾಮ್ಸ್ ಬೇಕರಿ",
        "shop": "bakery"
      }
    },
    {
      "type": "node",
      "id": 596449197,
      "lat": 12.9858036,
      "lon": 77.6055705,
      "tags": {
        "amenity": "place_of_worship",
        "religion": "muslim"
      }
    },
    {
      "type": "node",
      "id": 1468032543,
      "lat": 12.9825987,
      "lon": 77.6070246,
      "tags": {
        "addr:city": "Bangalore",
        "addr:housename": "Shivajinagar",
        "addr:street": "Commercial Street",
        "name": "Baby Center",
        "shop": "clothes"
      }
    },
    {
      "type": "node",
      "id": 1468032545,
      "lat": 12.9821744,
      "lon": 77.6081695,
      "tags": {
        "addr:city": "Bangalore",
        "addr:housename": "Shivajinagar",
        "addr:street": "Commercial Street",
        "brand": "Bata",
        "brand:wikidata": "Q688082",
        "check_date": "2023-04-07",
        "name": "Bata",
        "name:kn": "ಬಾಟಾ",
        "payment:mastercard": "yes",
        "payment:upi": "yes",
        "payment:visa": "yes",
        "shop": "shoes",
        "wheelchair": "no"
      }
    },
    {
      "type": "node",
      "id": 1468032546,
      "lat": 12.9823894,
      "lon": 77.607536,
      "tags": {
        "addr:city": "Bangalore",
        "addr:housename": "Shivajinagar",
        "addr:postcode": "560042",
        "addr:street": "Commercial Street",
        "alt_name": "Kentucky Fried Chicken",
        "alt_name:en": "Kentucky Fried Chicken",
        "alt_name:hi": "केंटुकी फ्राइड चिकन",
        "alt_name:pa": "ਕੈਂਟੁਕੀ ਫ੍ਰਾਈਡ ਚਿਕਨ",
        "alt_name:pnb": "کینٹکی فرائیڈ چکن",
        "alt_name:ur": "کینٹکی فرائیڈ چکن",
        "amenity": "fast_food",
        "brand": "KFC",
        "brand:en": "KFC",
        "brand:hi": "केएफसी",
        "brand:pa": "ਕੇਐਫਸੀ",
        "brand:pnb": "کے ایف سی",
        "brand:ur": "کے ایف سی",
        "brand:wikidata": "Q524757",
        "brand:wikipedia": "en:KFC",
        "brand:wikipedia:pa": "ਕੇਐਫਸੀ",
        "brand:wikipedia:ur": "کینٹکی فرائیڈ چکن",
        "cuisine": "chicken",
        "name": "KFC",
        "name:en": "KFC",
        "name:hi": "केएफसी",
        "name:kn": "ಕೆಎಫ್‍ಸಿ",
        "name:pa": "ਕੇਐਫਸੀ",
        "name:pnb": "کے ایف سی",
        "name:ur": "کے ایف سی",
        "takeaway": "yes"
      }
    },
    {
      "type": "node",
      "id": 1468032547,
      "lat": 12.9826293,
      "lon": 77.6068536,
      "tags": {
        "addr:city": "Bangalore",
        "addr:housename": "Shivajinagar",
        "addr:postcode": "560084",
        "addr:street": "Commercial Street",
        "brand": "Westside",
        "name": "Westside",
        "shop": "clothes"
      }
    },
    {
      "type": "node",
      "id": 1468032550,
      "lat": 12.9805966,
      "lon": 77.6074314,
      "tags": {
        "amenity": "atm",
        "brand": "Punjab National Bank",
        "brand:wikidata": "Q2743499",
        "name": "Punjab National Bank",
        "name:kn": "ಪಂಜಾಬ ರಾಷ್ಟ್ರೀಯ ಬ್ಯಾಂಕ್",
        "operator": "Punjab National Bank",
        "operator:wikidata": "Q2743499"
      }
    },
    {
      "type": "node",
      "id": 1469266907,
      "lat": 12.9933042,
      "lon": 77.6131994,
      "tags": {
        "amenity": "school",
        "name": "St. Francis Xavier's High School",
        "name:kn": "ಸಂತ ಫ್ರಾನ್ಸೀಸ್ ಕ್ಷೇವಿಯರ್ಸ್ ಪ್ರೌಡ ಶಾಲೆ"
      }
    },
    {
      "type": "node",
      "id": 1469266908,
      "lat": 12.992426,
      "lon": 77.6135802,
      "tags": {
        "amenity": "school",
        "check_date": "2024-12-14",
        "name": "St. Joseph's Convent Girls High School"
      }
    },
    {
      "type": "node",
      "id": 1469267177,
      "lat": 12.9926871,
      "lon": 77.6141548,
      "tags": {
        "amenity": "school",
        "name": "RTC Girls High School"
      }
    },
    {
      "type": "node",
      "id": 1469614184,
      "lat": 12.9892398,
      "lon": 77.6084577,
      "tags": {
        "alt_name": "Muthyalamma Kovil",
        "amenity": "place_of_worship",
        "name": "Mutyalamma Temple",
        "name:kn": "ಮುತ್ಯಲಮ್ಮ ದೇವಸ್ಥಾನ",
        "note": "An annual Car Festival of \"Goddess Muthyalamma\" proceeds from here and around Shivajinagar in April: https://www.timescontent.com/syndication-photos/reprint/feature/222722/muthyalamma-car-festival-hindu-fest.html",
        "religion": "hindu"
      }
    },
    {
      "type": "node",
      "id": 1474297275,
      "lat": 12.9918131,
      "lon": 77.6116694,
      "tags": {
        "addr:postcode": "560005",
        "addr:street": "ST JOHNS CHURCH ROAD",
        "alt_name": "Union Bank, St. John's Church Road Branch",
        "amenity": "bank",
        "atm": "yes",
        "brand": "Union Bank of India",
        "brand:wikidata": "Q2004078",
        "brand:wikipedia": "en:Union Bank of India",
        "name": "Union Bank of India",
        "name:en": "Union Bank of India",
        "name:kn": "ಯೂನಿಯನ್ ಬ್ಯಾಂಕ್",
        "short_name": "UBI",
        "website": "https://www.unionbankofindia.co.in/"
      }
    },
    {
      "type": "node",
      "id": 1474297569,
      "lat": 12.9814476,
      "lon": 77.6103605,
      "tags": {
        "amenity": "atm",
        "brand": "ICICI Bank",
        "brand:wikidata": "Q1653258",
        "fee": "no",
        "name": "ICICI Bank",
        "name:kn": "ಐಸಿಐಸಿಐ ಬ್ಯಾಂಕು",
        "operator": "ICICI Bank",
        "operator:wikidata": "Q1653258",
        "short_name": "ICICI"
      }
    },
    {
      "type": "node",
      "id": 1474299234,
      "lat": 12.9810398,
      "lon": 77.6104463,
      "tags": {
        "addr:housenumber": "183",
        "addr:postcode": "560042",
        "addr:street": "Dickenson Road",
        "name": "Malabar Jewellery",
        "name:kn": "ಮಲಬಾರ್ ಜಿವೆಲರಿ",
        "shop": "jewelry",
        "website": "www.malabargoldindia.com"
      }
    },
    {
      "type": "node",
      "id": 1474302939,
      "lat": 12.9827449,
      "lon": 77.6069771,
      "tags": {
        "addr:city": "Bangalore",
        "addr:housename": "Shivajinagar",
        "addr:housenumber": "119/120",
        "addr:postcode": "560084",
        "addr:street": "Commercial Street",
        "brand": "Max",
        "brand:wikidata": "Q24939079",
        "name": "Max",
        "shop": "clothes"
      }
    },
    {
      "type": "node",
      "id": 1474302940,
      "lat": 12.9814894,
      "lon": 77.6101459,
      "tags": {
        "addr:housenumber": "1",
        "addr:postcode": "560042",
        "addr:street": "Commercial Street",
        "name": "Sri Krishna Diamond and Jewellery",
        "name:kn": "ಶ್ರೀ ಕೃಷ್ಣ ವಜ್ರ ಮತ್ತು ಜಿವೆಲರಿ",
        "shop": "jewelry"
      }
    },
    {
      "type": "node",
      "id": 1474302941,
      "lat": 12.9825702,
      "lon": 77.6070982,
      "tags": {
        "addr:city": "Bangalore",
        "addr:housename": "Shivajinagar",
        "addr:street": "Commercial Street",
        "amenity": "police",
        "name": "Commercial Street Police Station",
        "name:kn": "ಕಮರ್ಷಿಯಲ್ ರಸ್ತೆ ಆರಕ್ಷಕ ಠಾಣೆ",
        "wheelchair": "no"
      }
    },
    {
      "type": "node",
      "id": 1474308850,
      "lat": 12.9817871,
      "lon": 77.6092771,
      "tags": {
        "addr:housenumber": "20",
        "addr:postcode": "560084",
        "addr:street": "Commercial Street",
        "name": "The Brown Shop",
        "name:kn": "ದ ಬ್ರೌನ್ ಶಾಪ್",
        "shop": "clothes"
      }
    },
    {
      "type": "node",
      "id": 1474308851,
      "lat": 12.9816462,
      "lon": 77.6095934,
      "tags": {
        "addr:postcode": "560042",
        "addr:street": "Commercial Street",
        "name": "Lee Showroom",
        "name:kn": "ಲೀ ಶೋರೂಂ",
        "shop": "clothes"
      }
    },
    {
      "type": "node",
      "id": 1474308852,
      "lat": 12.9822735,
      "lon": 77.6078285,
      "tags": {
        "amenity": "restaurant"
      }
    },
    {
      "type": "node",
      "id": 1474308854,
      "lat": 12.9811601,
      "lon": 77.6102478,
      "tags": {
        "addr:street": "Kamaraj Road",
        "brand": "Levi's",
        "brand:wikidata": "Q127962",
        "clothes": "denim;men;women",
        "name": "Levi's",
        "name:kn": "ಲೆವಿಸ್",
        "shop": "clothes"
      }
    },
    {
      "type": "node",
      "id": 1474308855,
      "lat": 12.9825453,
      "lon": 77.6104302,
      "tags": {
        "addr:street": "Kamaraj Road",
        "amenity": "restaurant",
        "cuisine": "sandwich",
        "name": "Cool Joint",
        "name:kn": "ಕೂಲ್ ಜಾಯಿಂಟ್"
      }
    },
    {
      "type": "node",
      "id": 1474308856,
      "lat": 12.9826498,
      "lon": 77.6104195,
      "tags": {
        "addr:postcode": "560042",
        "addr:street": "Commercial Street",
        "amenity": "bank",
        "atm": "yes",
        "name": "Corp Bank",
        "name:kn": "ಕಾರ್ಪ್ ಬ್ಯಾಂಕ್"
      }
    },
    {
      "type": "node",
      "id": 1725164116,
      "lat": 12.9758374,
      "lon": 77.6147563,
      "tags": {
        "name": "Bhima",
        "name:en": "Bhima",
        "name:kn": "ಭೀಮ",
        "shop": "jewelry"
      }
    },
    {
      "type": "node",
      "id": 1725164124,
      "lat": 12.9759517,
      "lon": 77.6147731,
      "tags": {
        "name": "Panasonic",
        "shop": "electronics"
      }
    },
    {
      "type": "node",
      "id": 1821582118,
      "lat": 12.9828042,
      "lon": 77.6105271,
      "tags": {
        "amenity": "cafe",
        "name": "Sreeraj lassi bar",
        "name:kn": "ಶ್ರೀರಾಜ್ ಲಸ್ಸಿ ಬಾರ್",
        "smoking": "no"
      }
    },
    {
      "type": "node",
      "id": 1852663951,
      "lat": 12.9875167,
      "lon": 77.6203112,
      "tags": {
        "amenity": "place_of_worship",
        "name": "Raghavendra Swami Mutt",
        "name:kn": "ರಾಘವೇಂದ್ರ ಸ್ವಾಮಿ ಮಠ",
        "religion": "hindu"
      }
    },
    {
      "type": "node",
      "id": 1852664343,
      "lat": 12.9864817,
      "lon": 77.6194153,
      "tags": {
        "shop": "florist"
      }
    },
    {
      "type": "node",
      "id": 1852665371,
      "lat": 12.9865706,
      "lon": 77.6194475,
      "tags": {
        "amenity": "restaurant",
        "cuisine": "international",
        "name": "Rogue Elephant"
      }
    },
    {
      "type": "node",
      "id": 1931940008,
      "lat": 12.9816856,
      "lon": 77.6083084,
      "tags": {
        "addr:city": "Bangalore",
        "addr:street": "Dispensary Road",
        "name": "Tamanna",
        "name:kn": "ತಮನ್ನಾ",
        "shop": "clothes"
      }
    },
    {
      "type": "node",
      "id": 1931940015,
      "lat": 12.9814514,
      "lon": 77.6077784,
      "tags": {
        "name": "Kalyan Silks",
        "shop": "clothes"
      }
    },
    {
      "type": "node",
      "id": 2268440722,
      "lat": 12.9809636,
      "lon": 77.6105003,
      "tags": {
        "amenity": "taxi"
      }
    },
    {
      "type": "node",
      "id": 2487524465,
      "lat": 12.9814915,
      "lon": 77.6083334,
      "tags": {
        "addr:city": "Bangalore",
        "addr:housename": "Opp Tamanna",
        "addr:street": "Dispensary Road",
        "name": "Nutan Silks",
        "name:kn": "ನೂತನ್ ಸಿಲ್ಕ್ಸ್",
        "shop": "clothes"
      }
    },
    {
      "type": "node",
      "id": 2487524466,
      "lat": 12.9814677,
      "lon": 77.6084953,
      "tags": {
        "addr:city": "Bangalore",
        "addr:housename": "Opp Tamanna",
        "addr:street": "Dispensary Road",
        "name": "Geetanjali",
        "name:kn": "ಗೀತಾಂಜಲಿ",
        "shop": "jewelry"
      }
    },
    {
      "type": "node",
      "id": 2487524467,
      "lat": 12.9811096,
      "lon": 77.6102253,
      "tags": {
        "addr:city": "Bangalore",
        "addr:housename": "Near Commercial Street",
        "addr:street": "Kamaraj Road",
        "name": "Lake N Bake",
        "name:kn": "ಲೇಖ್ ಎನ್ ಬೇಕ್",
        "shop": "bakery"
      }
    },
    {
      "type": "node",
      "id": 2487524468,
      "lat": 12.9811057,
      "lon": 77.6102575,
      "tags": {
        "addr:city": "Bangalore",
        "addr:housename": "Near Commercial Street",
        "addr:street": "Kamaraj Road",
        "amenity": "fast_food",
        "cuisine": "regional",
        "name": "Hotel barbies",
        "name:kn": "ಹೊಟೆಲ್ ಬಾರಬೀಸ್"
      }
    },
    {
      "type": "node",
      "id": 2496916039,
      "lat": 12.9805404,
      "lon": 77.6072557,
      "tags": {
        "addr:city": "Bangalore",
        "addr:housename": "Next to Krishnaiah Chetty and Sons",
        "addr:street": "Main Guard Cross Road",
        "name": "Inmark",
        "shop": "clothes"
      }
    },
    {
      "type": "node",
      "id": 2496920248,
      "lat": 12.9827176,
      "lon": 77.6070474,
      "tags": {
        "addr:city": "Bangalore",
        "addr:housename": "Opp Commercial Street Police Station",
        "addr:street": "Commercial Street",
        "name": "Thunderbird",
        "name:kn": "ಥಂಡರ್‍ಬರ್ಡ್",
        "shop": "leather_wear"
      }
    },
    {
      "type": "node",
      "id": 2496920252,
      "lat": 12.9820759,
      "lon": 77.6090805,
      "tags": {
        "addr:city": "Bangalore",
        "addr:housename": "Shivajinagar",
        "addr:street": "Commercial Street",
        "name": "World of Titan",
        "name:kn": "ವರ್ಲ್ಡ್ ಆಫ್ ಟೈಟನ್",
        "shop": "watches"
      }
    },
    {
      "type": "node",
      "id": 2496920257,
      "lat": 12.9818276,
      "lon": 77.6092079,
      "tags": {
        "addr:city": "Bangalore",
        "addr:housename": "Shivajinagar",
        "addr:street": "Commercial Street",
        "amenity": "cafe",
        "cuisine": "coffee_shop",
        "internet_access": "yes",
        "name": "Cafe Coffe Day",
        "name:kn": "ಕಫೆ ಕಾಫಿ ಡೇ"
      }
    },
    {
      "type": "node",
      "id": 2496920263,
      "lat": 12.9814604,
      "lon": 77.6104149,
      "tags": {
        "addr:city": "Bangalore",
        "addr:housename": "Near Commercial Street Entrance, Shivajinagar",
        "addr:street": "Kamaraj Road",
        "name": "Mysore Saree Udyog",
        "name:kn": "ಮೈಸೂರು ಸೀರೆ ಉದ್ಯೋಗ್",
        "shop": "clothes"
      }
    },
    {
      "type": "node",
      "id": 2496920267,
      "lat": 12.9819531,
      "lon": 77.6088847,
      "tags": {
        "addr:city": "Bangalore",
        "addr:housename": "Shivajinagar",
        "addr:street": "Commercial Street",
        "name": "Sterling House",
        "name:kn": "ಸ್ಟೆರ್ಲಿಂಗ್ ಹೌಸ್",
        "shop": "clothes"
      }
    },
    {
      "type": "node",
      "id": 2496920271,
      "lat": 12.9819355,
      "lon": 77.6082221,
      "tags": {
        "addr:city": "Bangalore",
        "addr:housename": "Shivajinagar",
        "addr:street": "Commercial Street",
        "amenity": "restaurant",
        "check_date": "2023-04-07",
        "cuisine": "regional",
        "name": "Shiv Sagar",
        "name:kn": "ಶಿವ್ ಸಾಗರ್",
        "payment:mastercard": "yes",
        "payment:visa": "yes",
        "source": "survey"
      }
    },
    {
      "type": "node",
      "id": 2868082723,
      "lat": 12.9820126,
      "lon": 77.6086888,
      "tags": {
        "addr:city": "Bangalore",
        "addr:housenumber": "35 & 36",
        "addr:postcode": "560001",
        "addr:street": "Commercial Street",
        "check_date": "2023-04-07",
        "name": "C. Krishnaih Chetty & Sons.",
        "name:kn": "ಸಿ. ಕೃಷ್ಣಯ್ಯ ಚೆಟ್ಟಿ & ಸನ್ಸ್",
        "phone": "+918040001869",
        "shop": "jewelry",
        "website": "http://www.ckcsons.com"
      }
    },
    {
      "type": "node",
      "id": 2868082724,
      "lat": 12.9818715,
      "lon": 77.6094935,
      "tags": {
        "addr:street": "Commercial Street",
        "amenity": "restaurant",
        "name": "Woody's",
        "name:kn": "ಉಡ್ಡಿಸ್"
      }
    },
    {
      "type": "node",
      "id": 2868082725,
      "lat": 12.9815508,
      "lon": 77.607875,
      "tags": {
        "name": "Gold Palace",
        "shop": "jewelry"
      }
    },
    {
      "type": "node",
      "id": 2868082727,
      "lat": 12.9817677,
      "lon": 77.6081245,
      "tags": {
        "name": "Alice Jewellers",
        "name:kn": "ಆಲೀಸ್ ಜಿವೆಲರ್ಸ್",
        "shop": "jewelry"
      }
    },
    {
      "type": "node",
      "id": 3002625515,
      "lat": 12.9807537,
      "lon": 77.6073428,
      "tags": {
        "addr:city": "Bangalore",
        "addr:housenumber": "3A",
        "addr:postcode": "560001",
        "addr:street": "Main Guard Cross Road",
        "name": "C. Krishniah Chetty & Sons",
        "phone": "+918040001869",
        "shop": "jewelry",
        "website": "http://www.ckcsons.com"
      }
    },
    {
      "type": "node",
      "id": 3218746234,
      "lat": 12.9818224,
      "lon": 77.610245,
      "tags": {
        "addr:street": "Kamaraj Road",
        "amenity": "bank",
        "brand": "Corporation Bank",
        "brand:wikidata": "Q2003387",
        "brand:wikipedia": "en:Corporation Bank",
        "name": "Corporation Bank",
        "name:en": "Corporation Bank",
        "name:kn": "ಕಾರ್ಪರೇಷನ್ ಬ್ಯಾಂಕ್",
        "website": "https://corpbank.com/"
      }
    },
    {
      "type": "node",
      "id": 3218746549,
      "lat": 12.9818877,
      "lon": 77.610465,
      "tags": {
        "amenity": "atm",
        "brand": "Citibank",
        "brand:wikidata": "Q857063",
        "name": "Citibank",
        "name:kn": "ಸಿಟಿಬ್ಯಾಂಕ್",
        "opening_hours": "24/7",
        "operator": "Citibank",
        "operator:wikidata": "Q857063",
        "short_name": "Citi"
      }
    },
    {
      "type": "node",
      "id": 3218746897,
      "lat": 12.981859,
      "lon": 77.6102799,
      "tags": {
        "amenity": "atm",
        "brand": "Corporation Bank",
        "brand:wikidata": "Q2003387",
        "name": "Corporation Bank",
        "name:kn": "ಕಾರ್ಪರೆಷನ್ ಬ್ಯಾಂಕ್ ಎಟಿಎಂ",
        "operator": "Corporation Bank",
        "operator:wikidata": "Q2003387"
      }
    },
    {
      "type": "node",
      "id": 3837556457,
      "lat": 12.9860243,
      "lon": 77.6053111,
      "tags": {
        "addr:street": "Hazrat Kambal Posh Road",
        "butcher": "beef",
        "name": "Beef Market",
        "shop": "butcher"
      }
    },
    {
      "type": "node",
      "id": 3837583815,
      "lat": 12.9835609,
      "lon": 77.6064216,
      "tags": {
        "amenity": "place_of_worship",
        "name": "Masjid-e-Beoparian",
        "religion": "muslim"
      }
    },
    {
      "type": "node",
      "id": 3937649657,
      "lat": 12.9826791,
      "lon": 77.61051,
      "tags": {
        "amenity": "restaurant",
        "name": "Khan Saheb Grills and Rolls",
        "smoking": "no",
        "takeaway": "yes"
      }
    },
    {
      "type": "node",
      "id": 3939412758,
      "lat": 12.9816001,
      "lon": 77.6101732,
      "tags": {
        "addr:street": "Commercial Street",
        "name": "Wrangler",
        "name:kn": "ರಾಂಗ್ಲರ್",
        "shop": "clothes"
      }
    },
    {
      "type": "node",
      "id": 3939412759,
      "lat": 12.9819526,
      "lon": 77.6103232,
      "tags": {
        "addr:street": "Kamaraj Road",
        "level": "1",
        "name": "Moksh Studio",
        "shop": "clothes"
      }
    },
    {
      "type": "node",
      "id": 3939454857,
      "lat": 12.9817301,
      "lon": 77.6104468,
      "tags": {
        "addr:street": "Kamaraj Road",
        "level": "0",
        "name": "Moksh",
        "shop": "clothes"
      }
    },
    {
      "type": "node",
      "id": 4117249122,
      "lat": 12.987086,
      "lon": 77.6189974,
      "tags": {
        "addr:street": "Saint John's Church Road",
        "amenity": "restaurant",
        "name": "Shanti Sagar",
        "name:kn": "ಶಾಂತಿ ಸಾಗರ್"
      }
    },
    {
      "type": "node",
      "id": 4225196591,
      "lat": 12.9872979,
      "lon": 77.6178332,
      "tags": {
        "addr:housenumber": "59",
        "addr:postcode": "560042",
        "addr:street": "Osbourne Road",
        "name": "Garden care",
        "opening_hours": "Mo-Su 10:00-19:30",
        "shop": "greengrocer"
      }
    },
    {
      "type": "node",
      "id": 4227854807,
      "lat": 12.9875355,
      "lon": 77.6190745,
      "tags": {
        "amenity": "restaurant"
      }
    },
    {
      "type": "node",
      "id": 4227854808,
      "lat": 12.9875472,
      "lon": 77.6189672,
      "tags": {
        "name": "Lake View Supermarket",
        "shop": "supermarket"
      }
    },
    {
      "type": "node",
      "id": 4227854812,
      "lat": 12.9875826,
      "lon": 77.6188927,
      "tags": {
        "amenity": "restaurant",
        "name": "Moritz Nano Restaurant"
      }
    },
    {
      "type": "node",
      "id": 4252085630,
      "lat": 12.9908548,
      "lon": 77.6192753,
      "tags": {
        "addr:floor": "4",
        "addr:street": "Assayee Road",
        "amenity": "pub",
        "check_date": "2023-12-30",
        "level": "4",
        "name": "Watson's Ulsoor",
        "smoking": "separated",
        "toilets:wheelchair": "no",
        "wheelchair": "no"
      }
    },
    {
      "type": "node",
      "id": 4252092996,
      "lat": 12.9908261,
      "lon": 77.6193188,
      "tags": {
        "amenity": "cafe",
        "name": "Cafe Thulp",
        "toilets:wheelchair": "no",
        "wheelchair": "no"
      }
    },
    {
      "type": "node",
      "id": 4446285519,
      "lat": 12.9876871,
      "lon": 77.6093097,
      "tags": {
        "addr:city": "bangalore",
        "addr:district": "Bengaluru Urban",
        "addr:full": "17-1, Sepings Road Cross,Arunachala Mudaliar Road, Shivajinagar,Cole's Park- Taj Hotel",
        "addr:postcode": "560001",
        "addr:state": "Karnataka",
        "addr:street": "AM Road, Bharati Nagar, Shivaji Nagar",
        "amenity": "hospital",
        "name": "Medic Star Hospital",
        "phone": "080 2554 1337",
        "source": "OpenGovernmentData"
      }
    },
    {
      "type": "node",
      "id": 4446289881,
      "lat": 12.9856985,
      "lon": 77.6058578,
      "tags": {
        "addr:city": "bangalore",
        "addr:postcode": "560051",
        "addr:street": "Tasker Town, Near-KSPCB Limited, Shivaji Nagar, Sulthangunta, Shivaji Nagar",
        "amenity": "hospital",
        "name": "Hsis Gosha Hospital",
        "phone": "\"080 2286 6529"
      }
    },
    {
      "type": "node",
      "id": 4446312027,
      "lat": 12.9914123,
      "lon": 77.6117329,
      "tags": {
        "addr:city": "bangalore",
        "addr:postcode": "560001",
        "addr:street": "St Johns Church Rd, Bharati Nagar, Shivaji Nagar",
        "amenity": "hospital",
        "name": "Hospital",
        "phone": "+9193411 44150",
        "website": "https://www.mirlayeyecare.com/"
      }
    },
    {
      "type": "node",
      "id": 4446357143,
      "lat": 12.9855813,
      "lon": 77.6071086,
      "tags": {
        "addr:city": "bangalore",
        "addr:housenumber": "33",
        "addr:postcode": "560001",
        "addr:street": "Quadrant Road, Sulthangunta, Shivaji Nagar",
        "amenity": "pharmacy",
        "name": "V L Nathan & Co",
        "phone": "080 2551 2993"
      }
    },
    {
      "type": "node",
      "id": 4446399880,
      "lat": 12.9818448,
      "lon": 77.6062936,
      "tags": {
        "addr:city": "Bangalore",
        "addr:housenumber": "54",
        "addr:postcode": "560001",
        "addr:street": "Bowring Tower, Bowring Hospital Road, Shivajinagar, Tasker Town, Shivaji Nagar,",
        "amenity": "clinic",
        "name": "Anand Diagnostic Laboratory",
        "phone": "080 2531 8550",
        "website": "https://www.anandlab.com/"
      }
    },
    {
      "type": "node",
      "id": 4446406412,
      "lat": 12.9873157,
      "lon": 77.6059871,
      "tags": {
        "addr:city": "bangalore",
        "addr:housenumber": "28",
        "addr:postcode": "560051",
        "addr:street": "Charminar Masjid Road, Near-Russel Market, Shivaji Nagar, Sulthangunta, Shivaji Nagar",
        "amenity": "pharmacy",
        "name": "Al Shifa Unani & Ayurvedic Dawa Khana",
        "phone": "080 2530 2786"
      }
    },
    {
      "type": "node",
      "id": 4446413304,
      "lat": 12.9799788,
      "lon": 77.6056145,
      "tags": {
        "addr:city": "Bangalore",
        "addr:district": "Bengaluru Urban",
        "addr:full": "73/1-2, Ist Floor, Infantry Road",
        "addr:housenumber": "73/1",
        "addr:postcode": "560001",
        "addr:state": "Karnataka",
        "addr:street": "1st Floor, Infantry Road, Above Icici Bank, Shivaji Nagar, Tasker Town, Shivaji Nagar",
        "amenity": "clinic",
        "name": "Vagh Eye Centre",
        "phone": "080 2558 4156",
        "source": "OpenGovernmentData"
      }
    },
    {
      "type": "node",
      "id": 4447120056,
      "lat": 12.983648,
      "lon": 77.6090046,
      "tags": {
        "addr:city": "Bengaluru",
        "addr:housenumber": "156",
        "addr:postcode": "560001",
        "addr:street": "Veerapillai Street,Shivajinagar",
        "alt_name:en": "KV Canteen",
        "amenity": "restaurant",
        "cuisine": "indian",
        "delivery": "yes",
        "diet:vegetarian": "yes",
        "name": "K. V.",
        "name:en": "K. V. Canteen",
        "name:es": "Cafetería K. V.",
        "opening_hours": "07:00-11:00,12:30-15:30",
        "phone": "+91 9886079972",
        "smoking": "no",
        "takeaway": "yes"
      }
    },
    {
      "type": "node",
      "id": 4489080619,
      "lat": 12.9828927,
      "lon": 77.6099848,
      "tags": {
        "addr:city": "Bangalore",
        "addr:housenumber": "22",
        "addr:postcode": "560042",
        "addr:street": "Haridwar Plaza, Opposite West side, Kamaraj Rd, Bhadrappa Layout, Tasker Town, Shivaji Nagar",
        "name": "Rakhra Sports",
        "opening_hours": "10:00-21:30",
        "phone": "080 2558 8776",
        "shop": "sports"
      }
    },
    {
      "type": "node",
      "id": 4489171290,
      "lat": 12.9825938,
      "lon": 77.6057981,
      "tags": {
        "addr:city": "Bangalore",
        "addr:housenumber": "15",
        "addr:postcode": "560001",
        "addr:street": "Dispensary Rd, Bhadrappa Layout, Tasker Town, Shivaji Nagar",
        "name": "Sporting Goods Shop",
        "opening_hours": "10:00-21:30",
        "shop": "sports",
        "website": "dickssportinggoods.com"
      }
    },
    {
      "type": "node",
      "id": 4489327813,
      "lat": 12.9811097,
      "lon": 77.6099,
      "tags": {
        "addr:city": "Bangalore",
        "addr:housenumber": "300",
        "addr:postcode": "560042",
        "addr:street": "Vishnu Complex, Near-Meg Centre, Kamaraj Road",
        "name": "South Indian Sports Industries",
        "opening_hours": "08025589788",
        "shop": "sports"
      }
    },
    {
      "type": "node",
      "id": 4489464209,
      "lat": 12.9826216,
      "lon": 77.6103632,
      "tags": {
        "addr:city": "Bangalore",
        "addr:housenumber": "22",
        "addr:postcode": "560042",
        "addr:street": "Haridwar Plaza, Opposite West side, Kamaraj Rd",
        "leisure": "sports_centre",
        "name": "Rakhra Sports Pvt Ltd",
        "opening_hours": "09:30-20:00",
        "phone": "08025588776"
      }
    },
    {
      "type": "node",
      "id": 4510537892,
      "lat": 12.9825626,
      "lon": 77.607495,
      "tags": {
        "addr:housenumber": "128",
        "addr:postcode": "560001",
        "addr:street": "Commercial Street",
        "brand": "Manyavar",
        "brand:wikidata": "Q24906783",
        "name": "Manyavar",
        "name:en": "Manyavar",
        "name:kn": "ಮಾನ್ಯವಾರ್",
        "shop": "clothes",
        "wheelchair": "yes"
      }
    },
    {
      "type": "node",
      "id": 4510691317,
      "lat": 12.9825215,
      "lon": 77.6076062,
      "tags": {
        "addr:housenumber": "133",
        "addr:postcode": "560001",
        "addr:street": "Commercial Street",
        "name": "Kashmir House",
        "name:en": "Kashmir House",
        "shop": "gift"
      }
    },
    {
      "type": "node",
      "id": 4535329595,
      "lat": 12.9820341,
      "lon": 77.609063,
      "tags": {
        "amenity": "cafe",
        "brand": "Chai Point",
        "brand:wikidata": "Q28173415",
        "cuisine": "coffee_shop",
        "name": "Chai Point",
        "name:en": "Chai Point",
        "takeaway": "yes"
      }
    },
    {
      "type": "node",
      "id": 4535329596,
      "lat": 12.9819606,
      "lon": 77.6088172,
      "tags": {
        "brand": "Fabindia",
        "brand:wikidata": "Q5427779",
        "name": "Fabindia",
        "name:en": "Fabindia",
        "name:kn": "ಫಾಬ್ ಇಂಡಿಯ",
        "shop": "clothes"
      }
    },
    {
      "type": "node",
      "id": 4535329604,
      "lat": 12.9823616,
      "lon": 77.6097828,
      "tags": {
        "name": "Texs Mart",
        "name:en": "Texs Mart",
        "shop": "clothes"
      }
    },
    {
      "type": "node",
      "id": 4535332594,
      "lat": 12.9825635,
      "lon": 77.6077831,
      "tags": {
        "name": "Occaision",
        "name:en": "Occaision",
        "shop": "clothes"
      }
    },
    {
      "type": "node",
      "id": 4535332696,
      "lat": 12.9834015,
      "lon": 77.6079389,
      "tags": {
        "amenity": "place_of_worship",
        "name": "Nagareswara Kanyaka Paramesgwari Temple",
        "name:en": "Nagareswara Kanyaka Paramesgwari Temple",
        "religion": "hindu"
      }
    },
    {
      "type": "node",
      "id": 4535332697,
      "lat": 12.9827674,
      "lon": 77.6088014,
      "tags": {
        "amenity": "fast_food",
        "name": "Sagar Chats",
        "name:en": "Sagar Chats"
      }
    },
    {
      "type": "node",
      "id": 4535334896,
      "lat": 12.9826539,
      "lon": 77.6098418,
      "tags": {
        "amenity": "community_centre",
        "name": "Vysya Choultry",
        "name:en": "Vysya Choultry"
      }
    },
    {
      "type": "node",
      "id": 4535338194,
      "lat": 12.9824503,
      "lon": 77.6102305,
      "tags": {
        "amenity": "restaurant",
        "name": "Woodys",
        "name:en": "Woodys"
      }
    },
    {
      "type": "node",
      "id": 4535338290,
      "lat": 12.9823269,
      "lon": 77.6077562,
      "tags": {
        "alt_name": "Reliance Fine Art",
        "name": "Reliance Stationery Mart",
        "name:en": "Reliance Stationery Mart",
        "shop": "gift"
      }
    },
    {
      "type": "node",
      "id": 4535339593,
      "lat": 12.9823184,
      "lon": 77.6099499,
      "tags": {
        "name": "Gopalan Corner",
        "name:en": "Gopalan Corner",
        "shop": "clothes"
      }
    },
    {
      "type": "node",
      "id": 4535339594,
      "lat": 12.9822919,
      "lon": 77.6099944,
      "tags": {
        "name": "Shapes and Shades",
        "name:en": "Shapes and Shades",
        "shop": "department_store"
      }
    },
    {
      "type": "node",
      "id": 4535342789,
      "lat": 12.9825858,
      "lon": 77.6076887,
      "tags": {
        "name": "Alankrita",
        "name:en": "Alankrita",
        "shop": "gift"
      }
    },
    {
      "type": "node",
      "id": 4535369390,
      "lat": 12.9846121,
      "lon": 77.6123858,
      "tags": {
        "amenity": "place_of_worship",
        "building": "mosque",
        "name": "Sabari Ayappan Bhajana Sabha",
        "religion": "muslim"
      }
    },
    {
      "type": "node",
      "id": 4564854879,
      "lat": 12.9820158,
      "lon": 77.6043514,
      "tags": {
        "amenity": "taxi",
        "name": "Rickshaw Stand"
      }
    },
    {
      "type": "node",
      "id": 4683003989,
      "lat": 12.9831856,
      "lon": 77.6071236,
      "tags": {
        "amenity": "fast_food",
        "brand": "Burger King",
        "brand:pa": "ਬਰਗਰ ਕਿੰਗ",
        "brand:ur": "برگر کنگ",
        "brand:wikidata": "Q177054",
        "brand:wikipedia": "en:Burger King",
        "brand:wikipedia:pa": "ਬਰਗਰ ਕਿੰਗ",
        "brand:wikipedia:ur": "برگر کنگ",
        "cuisine": "burger",
        "name": "Burger King",
        "name:kn": "ಬರ್ಗರ್ ಕಿಂಗ್",
        "name:pa": "ਬਰਗਰ ਕਿੰਗ",
        "name:ru": "Бургер Кинг",
        "name:ur": "برگر کنگ",
        "takeaway": "yes"
      }
    },
    {
      "type": "node",
      "id": 4798289921,
      "lat": 12.9853101,
      "lon": 77.6069879,
      "tags": {
        "amenity": "restaurant",
        "name": "Taj Hotel",
        "name:hi": "Taj Hotel"
      }
    },
    {
      "type": "node",
      "id": 4844863354,
      "lat": 12.9868859,
      "lon": 77.6162486,
      "tags": {
        "name": "Big boss",
        "name:en": "Big boss",
        "shop": "dry_cleaning"
      }
    },
    {
      "type": "node",
      "id": 4844863355,
      "lat": 12.983464,
      "lon": 77.6135965,
      "tags": {
        "amenity": "school",
        "name": "BKS",
        "name:en": "BKS"
      }
    },
    {
      "type": "node",
      "id": 4844863356,
      "lat": 12.9817232,
      "lon": 77.6096011,
      "tags": {
        "name": "Raikars",
        "name:en": "Raikars",
        "shop": "jewelry"
      }
    },
    {
      "type": "node",
      "id": 4844863357,
      "lat": 12.9818479,
      "lon": 77.6095601,
      "tags": {
        "name": "Bhagatram",
        "name:en": "Bhagatram",
        "shop": "confectionery"
      }
    },
    {
      "type": "node",
      "id": 4844863358,
      "lat": 12.9817647,
      "lon": 77.6093429,
      "tags": {
        "name": "Rama's",
        "name:en": "Rama's",
        "shop": "clothes"
      }
    },
    {
      "type": "node",
      "id": 4844863359,
      "lat": 12.9819252,
      "lon": 77.6093637,
      "tags": {
        "name": "Ritikas",
        "name:en": "Ritikas",
        "shop": "clothes"
      }
    },
    {
      "type": "node",
      "id": 4844863360,
      "lat": 12.9819362,
      "lon": 77.6093274,
      "tags": {
        "amenity": "bank",
        "brand": "Union Bank of India",
        "brand:wikidata": "Q2004078",
        "brand:wikipedia": "en:Union Bank of India",
        "name": "Union Bank of India",
        "name:en": "Union Bank of India",
        "name:kn": "ಯೂನಿಯನ್ ಬ್ಯಾಂಕ್",
        "short_name": "UBI",
        "website": "https://www.unionbankofindia.co.in/"
      }
    },
    {
      "type": "node",
      "id": 4844863361,
      "lat": 12.9817752,
      "lon": 77.609303,
      "tags": {
        "name": "Trendz shoes",
        "name:en": "Trendz shoes",
        "shop": "shoes"
      }
    },
    {
      "type": "node",
      "id": 4844863362,
      "lat": 12.9818648,
      "lon": 77.6091062,
      "tags": {
        "name": "Rocia",
        "name:en": "Rocia",
        "shop": "shoes"
      }
    },
    {
      "type": "node",
      "id": 4844863364,
      "lat": 12.9824227,
      "lon": 77.6075594,
      "tags": {
        "name": "Arrow",
        "name:en": "Arrow",
        "shop": "clothes"
      }
    },
    {
      "type": "node",
      "id": 4844863365,
      "lat": 12.9824555,
      "lon": 77.6074612,
      "tags": {
        "brand": "Van Heusen",
        "brand:wikidata": "Q67551865",
        "clothes": "men",
        "name": "Van Heusen",
        "name:en": "Van heusen",
        "name:kn": "ವ್ಯಾನ್ ಹುಸೇನ್",
        "shop": "clothes"
      }
    },
    {
      "type": "node",
      "id": 4844863366,
      "lat": 12.9824103,
      "lon": 77.6074845,
      "tags": {
        "name": "Poshaak",
        "name:en": "Poshaak",
        "shop": "clothes"
      }
    },
    {
      "type": "node",
      "id": 4844863367,
      "lat": 12.9825287,
      "lon": 77.6075776,
      "tags": {
        "addr:city": "Bengaluru",
        "addr:housenumber": "133",
        "addr:street": "Commercial Street",
        "air_conditioning": "yes",
        "amenity": "fast_food",
        "brand": "McDonald's",
        "brand:wikidata": "Q38076",
        "cuisine": "burger",
        "diet:vegetarian": "yes",
        "indoor_seating": "yes",
        "name": "McDonald's",
        "name:en": "McDonald's",
        "outdoor_seating": "no",
        "smoking": "no",
        "takeaway": "yes"
      }
    },
    {
      "type": "node",
      "id": 4844863368,
      "lat": 12.9817537,
      "lon": 77.6094508,
      "tags": {
        "name": "Bollywood",
        "name:en": "Bollywood",
        "shop": "shoes"
      }
    },
    {
      "type": "node",
      "id": 4844863369,
      "lat": 12.9818192,
      "lon": 77.6095041,
      "tags": {
        "name": "Western Store's",
        "name:en": "Western Store's",
        "shop": "clothes"
      }
    },
    {
      "type": "node",
      "id": 4844863370,
      "lat": 12.9823415,
      "lon": 77.6078182,
      "tags": {
        "brand": "Blackberrys",
        "brand:wikidata": "Q4922570",
        "name": "Blackberrys",
        "name:en": "Blackberry's",
        "shop": "clothes"
      }
    },
    {
      "type": "node",
      "id": 4844863387,
      "lat": 12.9791268,
      "lon": 77.6154453,
      "tags": {
        "amenity": "clinic",
        "check_date": "2025-05-09",
        "name": "Medical Center",
        "name:en": "Medical Center"
      }
    },
    {
      "type": "node",
      "id": 4844865037,
      "lat": 12.985305,
      "lon": 77.6152381,
      "tags": {
        "amenity": "cafe",
        "name": "Pepper Cafe",
        "name:en": "Pepper Cafe"
      }
    },
    {
      "type": "node",
      "id": 4844865038,
      "lat": 12.9841388,
      "lon": 77.6142655,
      "tags": {
        "amenity": "restaurant",
        "name": "Tasty food corner",
        "name:en": "Tasty food corner"
      }
    },
    {
      "type": "node",
      "id": 4844865039,
      "lat": 12.9817701,
      "lon": 77.6097531,
      "tags": {
        "name": "Woody's",
        "name:en": "Woody's",
        "name:kn": "ಉಡ್ಡಿಸ್",
        "shop": "jewelry"
      }
    },
    {
      "type": "node",
      "id": 4844865040,
      "lat": 12.9818814,
      "lon": 77.6094657,
      "tags": {
        "name": "Children's corner",
        "name:en": "Children's corner",
        "shop": "clothes"
      }
    },
    {
      "type": "node",
      "id": 4844865041,
      "lat": 12.9817989,
      "lon": 77.6092438,
      "tags": {
        "name": "Favourite shop",
        "name:en": "Favourite shop",
        "shop": "clothes"
      }
    },
    {
      "type": "node",
      "id": 4844865042,
      "lat": 12.9822917,
      "lon": 77.6082949,
      "tags": {
        "name": "Jewel",
        "name:en": "Jewel",
        "shop": "clothes"
      }
    },
    {
      "type": "node",
      "id": 4844865044,
      "lat": 12.9817683,
      "lon": 77.6094265,
      "tags": {
        "name": "Brown shop",
        "name:en": "Brown shop",
        "shop": "clothes"
      }
    },
    {
      "type": "node",
      "id": 4844867522,
      "lat": 12.982442,
      "lon": 77.6075006,
      "tags": {
        "name": "Meena bazaar",
        "name:en": "Meena bazaar",
        "shop": "clothes"
      }
    },
    {
      "type": "node",
      "id": 4845223688,
      "lat": 12.9878222,
      "lon": 77.6185314,
      "tags": {
        "leisure": "fitness_centre",
        "name": "Pyro Fitness Center"
      }
    },
    {
      "type": "node",
      "id": 4845223689,
      "lat": 12.9877987,
      "lon": 77.618514,
      "tags": {
        "amenity": "restaurant",
        "name": "Adyar Anand Bhawan",
        "name:kn": "ಆದ್ಯಾರ್ ಆನಂದ ಭವನ"
      }
    },
    {
      "type": "node",
      "id": 4846817424,
      "lat": 12.9810527,
      "lon": 77.6076814,
      "tags": {
        "name": "Fablore",
        "name:en": "Fablore",
        "shop": "clothes"
      }
    },
    {
      "type": "node",
      "id": 4847287222,
      "lat": 12.9824199,
      "lon": 77.6078755,
      "tags": {
        "name": "Dulhan",
        "name:en": "Dulhan",
        "shop": "clothes"
      }
    },
    {
      "type": "node",
      "id": 4847287225,
      "lat": 12.9817589,
      "lon": 77.6098823,
      "tags": {
        "brand": "Vero Moda",
        "brand:wikidata": "Q640418",
        "clothes": "women",
        "name": "Vero Moda",
        "name:en": "Vero moda",
        "shop": "clothes"
      }
    },
    {
      "type": "node",
      "id": 4847294821,
      "lat": 12.9812987,
      "lon": 77.6077548,
      "tags": {
        "name": "Senco",
        "name:en": "Senco",
        "shop": "jewelry"
      }
    },
    {
      "type": "node",
      "id": 4847294822,
      "lat": 12.9818243,
      "lon": 77.6079537,
      "tags": {
        "name": "Wearhouse",
        "name:en": "Wearhouse",
        "shop": "clothes"
      }
    },
    {
      "type": "node",
      "id": 4847294823,
      "lat": 12.9812362,
      "lon": 77.6077407,
      "tags": {
        "name": "MS kidswear",
        "name:en": "MS kidswear",
        "shop": "clothes"
      }
    },
    {
      "type": "node",
      "id": 4847294824,
      "lat": 12.9824456,
      "lon": 77.6078331,
      "tags": {
        "brand": "Levi's",
        "brand:wikidata": "Q127962",
        "clothes": "denim;men;women",
        "name": "Levi's",
        "name:en": "Levi's",
        "name:kn": "ಲೆವಿಸ್",
        "shop": "clothes"
      }
    },
    {
      "type": "node",
      "id": 4847294825,
      "lat": 12.9824994,
      "lon": 77.6076744,
      "tags": {
        "check_date": "2023-04-07",
        "name": "Blossom",
        "name:en": "Blossom",
        "shop": "clothes"
      }
    },
    {
      "type": "node",
      "id": 4847294826,
      "lat": 12.9825764,
      "lon": 77.6074569,
      "tags": {
        "name": "Melange",
        "name:en": "Melange",
        "shop": "clothes"
      }
    },
    {
      "type": "node",
      "id": 4847294827,
      "lat": 12.9824232,
      "lon": 77.6075957,
      "tags": {
        "name": "Kyara",
        "name:en": "Kyara",
        "shop": "clothes"
      }
    },
    {
      "type": "node",
      "id": 4847294828,
      "lat": 12.9825806,
      "lon": 77.6074235,
      "tags": {
        "name": "Anglo American Optical Center",
        "shop": "optician",
        "wheelchair": "limited"
      }
    },
    {
      "type": "node",
      "id": 4847294829,
      "lat": 12.9821759,
      "lon": 77.6084798,
      "tags": {
        "name": "Woodlands",
        "name:en": "Woodlands",
        "shop": "shoes"
      }
    },
    {
      "type": "node",
      "id": 4847294830,
      "lat": 12.9819937,
      "lon": 77.6087142,
      "tags": {
        "check_date": "2023-04-07",
        "name": "Tasva",
        "shop": "clothes"
      }
    },
    {
      "type": "node",
      "id": 4847294921,
      "lat": 12.9816187,
      "lon": 77.6079235,
      "tags": {
        "name": "Antegra",
        "name:en": "Antegra",
        "shop": "jewelry"
      }
    },
    {
      "type": "node",
      "id": 4847294922,
      "lat": 12.9815007,
      "lon": 77.6078412,
      "tags": {
        "name": "Reliance",
        "name:en": "Reliance",
        "shop": "bicycle"
      }
    },
    {
      "type": "node",
      "id": 4847294924,
      "lat": 12.9820315,
      "lon": 77.6082291,
      "tags": {
        "name": "Style Hunt",
        "name:en": "Style Hunt",
        "shop": "clothes"
      }
    },
    {
      "type": "node",
      "id": 4847294925,
      "lat": 12.9823728,
      "lon": 77.6076265,
      "tags": {
        "name": "Reddy and Chinappa",
        "name:en": "Reddy and Chinappa",
        "shop": "jewelry"
      }
    },
    {
      "type": "node",
      "id": 4847294926,
      "lat": 12.9825193,
      "lon": 77.6076591,
      "tags": {
        "name": "Zenith",
        "name:en": "Zenith",
        "shop": "clothes"
      }
    },
    {
      "type": "node",
      "id": 4847295221,
      "lat": 12.9823449,
      "lon": 77.608156,
      "tags": {
        "air_conditioning": "no",
        "check_date": "2023-04-07",
        "clothes": "women;men;children",
        "name": "Sri Balaji exports",
        "payment:mastercard": "yes",
        "payment:visa": "yes",
        "second_hand": "no",
        "shop": "clothes",
        "source": "survey",
        "wheelchair": "no"
      }
    },
    {
      "type": "node",
      "id": 4847295222,
      "lat": 12.9813936,
      "lon": 77.6103946,
      "tags": {
        "brand": "Metro",
        "brand:wikidata": "Q16938284",
        "name": "Metro",
        "name:en": "Metro",
        "shop": "shoes"
      }
    },
    {
      "type": "node",
      "id": 4847295721,
      "lat": 12.9824714,
      "lon": 77.6077402,
      "tags": {
        "check_date": "2023-04-07",
        "name": "Blackberry",
        "payment:mastercard": "yes",
        "payment:visa": "yes",
        "shop": "clothes"
      }
    },
    {
      "type": "node",
      "id": 4847296021,
      "lat": 12.9824717,
      "lon": 77.607517,
      "tags": {
        "name": "Show off",
        "name:en": "Show off",
        "shop": "clothes",
        "wheelchair": "no"
      }
    },
    {
      "type": "node",
      "id": 4847296022,
      "lat": 12.9823817,
      "lon": 77.6076984,
      "tags": {
        "name": "Linen studio",
        "name:en": "Linen studio",
        "shop": "dry_cleaning"
      }
    },
    {
      "type": "node",
      "id": 4847296023,
      "lat": 12.9824796,
      "lon": 77.6078489,
      "tags": {
        "name": "Qualified opticians",
        "name:en": "Qualified opticians",
        "shop": "optician"
      }
    },
    {
      "type": "node",
      "id": 4847296024,
      "lat": 12.9817303,
      "lon": 77.6095603,
      "tags": {
        "name": "Mann",
        "name:en": "Mann",
        "shop": "shoes"
      }
    },
    {
      "type": "node",
      "id": 4847296025,
      "lat": 12.9817082,
      "lon": 77.6100809,
      "tags": {
        "name": "Golden touch",
        "name:en": "Golden touch",
        "shop": "clothes"
      }
    },
    {
      "type": "node",
      "id": 4847296026,
      "lat": 12.9812017,
      "lon": 77.6102018,
      "tags": {
        "name": "Ramson",
        "name:en": "Ramson",
        "shop": "optician"
      }
    },
    {
      "type": "node",
      "id": 4847297821,
      "lat": 12.9812894,
      "lon": 77.610261,
      "tags": {
        "brand": "Metro",
        "brand:wikidata": "Q16938284",
        "name": "Metro",
        "shop": "shoes",
        "wheelchair": "no"
      }
    },
    {
      "type": "node",
      "id": 5644430289,
      "lat": 12.9805392,
      "lon": 77.6155421,
      "tags": {
        "amenity": "place_of_worship",
        "name": "Shiva Temple",
        "name:kn": "ಶಿವ ದೇವಸ್ಥಾನ",
        "religion": "hindu"
      }
    },
    {
      "type": "node",
      "id": 5715341021,
      "lat": 12.9804586,
      "lon": 77.6120274,
      "tags": {
        "brand": "Kalyan Jewellers",
        "brand:wikidata": "Q6354854",
        "name": "Kalyan Jewellers",
        "shop": "jewelry",
        "wheelchair": "no"
      }
    },
    {
      "type": "node",
      "id": 5715357721,
      "lat": 12.9806502,
      "lon": 77.6115927,
      "tags": {
        "brand": "Malabar Gold and Diamonds",
        "brand:wikidata": "Q60748883",
        "name": "Malabar Gold and Diamonds",
        "shop": "jewelry"
      }
    },
    {
      "type": "node",
      "id": 5715505122,
      "lat": 12.9805281,
      "lon": 77.6112189,
      "tags": {
        "amenity": "place_of_worship",
        "name": "Vadamoola Ganapathy Temple",
        "religion": "hindu"
      }
    },
    {
      "type": "node",
      "id": 5715589841,
      "lat": 12.9828259,
      "lon": 77.611741,
      "tags": {
        "amenity": "place_of_worship",
        "name": "Sri Dakshinamoorthy Temple",
        "name:kn": "ದಕ್ಷಿಣಮೂರ್ತಿ ದೇವಸ್ಥಾನ",
        "religion": "hindu"
      }
    },
    {
      "type": "node",
      "id": 5715590023,
      "lat": 12.9830072,
      "lon": 77.6105139,
      "tags": {
        "amenity": "place_of_worship",
        "name": "Temple",
        "name:kn": "ದೇವಸ್ಥಾನ"
      }
    },
    {
      "type": "node",
      "id": 5862563587,
      "lat": 12.9926078,
      "lon": 77.6093643,
      "tags": {
        "amenity": "place_of_worship",
        "name": "Masjid-ur-Rahmah",
        "religion": "muslim"
      }
    },
    {
      "type": "node",
      "id": 5862574185,
      "lat": 12.9878631,
      "lon": 77.6177434,
      "tags": {
        "amenity": "hospital",
        "name": "Lakeside Medical Centre and Hospital"
      }
    },
    {
      "type": "node",
      "id": 6621696642,
      "lat": 12.9820827,
      "lon": 77.6099351,
      "tags": {
        "name": "Mumuso",
        "shop": "department_store",
        "website": "http://www.mumuso.com/en/"
      }
    },
    {
      "type": "node",
      "id": 6819843991,
      "lat": 12.9777864,
      "lon": 77.617985,
      "tags": {
        "addr:city": "Bangalore",
        "addr:housenumber": "46",
        "addr:postcode": "560042",
        "addr:street": "3rd Cross Road",
        "name": "Jasmine's Beauty Salon",
        "phone": "+91 80 2559 2498",
        "shop": "hairdresser"
      }
    },
    {
      "type": "node",
      "id": 6938958216,
      "lat": 12.9911349,
      "lon": 77.6126146,
      "tags": {
        "addr:district": "Bengaluru Urban",
        "addr:full": "No. 9, St. John's Church Road,Near Bharathinagar Police Station,Opposite St. John's Community Center,Bharathi Nagar",
        "addr:postcode": "560005",
        "addr:state": "Karnataka",
        "amenity": "clinic",
        "name": "Mirlay Eye Care",
        "source": "OpenGovernmentData"
      }
    },
    {
      "type": "node",
      "id": 6944239588,
      "lat": 12.9825845,
      "lon": 77.6124926,
      "tags": {
        "addr:district": "Bengaluru Urban",
        "addr:full": "22/70, St. John`S Road, (Opposite R B A N M S Ground)",
        "addr:postcode": "560042",
        "addr:state": "Karnataka",
        "amenity": "hospital",
        "name": "Manjushree Speciality Hospital",
        "source": "OpenGovernmentData"
      }
    },
    {
      "type": "node",
      "id": 6944418995,
      "lat": 12.9876196,
      "lon": 77.6204668,
      "tags": {
        "addr:district": "Bengaluru Urban",
        "addr:full": "11, Ulsoor Tank Road Ulsoor Lake",
        "addr:postcode": "560042",
        "addr:state": "Karnataka",
        "amenity": "clinic",
        "name": "Sai Jyothi Netra Seva",
        "source": "OpenGovernmentData"
      }
    },
    {
      "type": "node",
      "id": 7087593370,
      "lat": 12.9916419,
      "lon": 77.6143493,
      "tags": {
        "shop": "greengrocer"
      }
    },
    {
      "type": "node",
      "id": 7234491294,
      "lat": 12.9926089,
      "lon": 77.6151305,
      "tags": {
        "access": "permissive",
        "amenity": "parking",
        "parking": "surface"
      }
    },
    {
      "type": "node",
      "id": 7234491295,
      "lat": 12.9929278,
      "lon": 77.6157045,
      "tags": {
        "access": "private",
        "leisure": "swimming_pool"
      }
    },
    {
      "type": "node",
      "id": 7698877585,
      "lat": 12.9818754,
      "lon": 77.6094115,
      "tags": {
        "name:ru": "кожаные сумки",
        "shop": "shoes"
      }
    },
    {
      "type": "node",
      "id": 8140950503,
      "lat": 12.9831385,
      "lon": 77.6079901,
      "tags": {
        "addr:city": "Bengaluru",
        "addr:housenumber": "22",
        "addr:postcode": "560001",
        "addr:street": "Ibrahim Sahib Street",
        "name": "Netpool Service CCTV Camera Installation Bangalore",
        "opening_hours": "Mo-Su 10:00-22:00",
        "phone": "+919731183123",
        "shop": "security"
      }
    },
    {
      "type": "node",
      "id": 8143836838,
      "lat": 12.9771467,
      "lon": 77.6172628,
      "tags": {
        "addr:city": "Bangalore",
        "addr:housenumber": "17, Hanumanthappa Layout Rd",
        "addr:postcode": "560042",
        "addr:street": "Hanumanthappa Layout, Sivanchetti Gardens, Halasuru, Karnataka 560042",
        "name": "Tinge Custom Makeup Studio",
        "organic": "only",
        "shop": "supermarket",
        "website": "https://tingestore.com/"
      }
    },
    {
      "type": "node",
      "id": 8220809198,
      "lat": 12.9840602,
      "lon": 77.6173267,
      "tags": {
        "addr:city": "Bangalore",
        "addr:street": "Annaswamy Mudaliar Road",
        "clothes": "women;children",
        "fair_trade": "yes",
        "name": "Ambara",
        "organic": "yes",
        "shop": "clothes"
      }
    },
    {
      "type": "node",
      "id": 8522744899,
      "lat": 12.9911306,
      "lon": 77.6162233,
      "tags": {
        "addr:street": "Promenade Road",
        "name": "Pretty Dan Good Salon",
        "opening_hours": "Mo-Su 10:00-18:00; Tu off",
        "payment:cash": "yes",
        "payment:credit_cards": "yes",
        "payment:upi": "yes",
        "phone": "+91-73384-75554",
        "shop": "hairdresser",
        "website": "https://prettydangood.in/"
      }
    },
    {
      "type": "node",
      "id": 8522762905,
      "lat": 12.9913026,
      "lon": 77.6156011,
      "tags": {
        "addr:street": "Promenade Road",
        "name": "MotoAdda",
        "shop": "car_repair"
      }
    },
    {
      "type": "node",
      "id": 9656382523,
      "lat": 12.9850818,
      "lon": 77.616241,
      "tags": {
        "amenity": "place_of_worship",
        "religion": "jain"
      }
    },
    {
      "type": "node",
      "id": 9656382524,
      "lat": 12.9848975,
      "lon": 77.611694,
      "tags": {
        "amenity": "fast_food",
        "cuisine": "regional",
        "name": "Utse Kitchen"
      }
    },
    {
      "type": "node",
      "id": 9656382525,
      "lat": 12.9848505,
      "lon": 77.6093873,
      "tags": {
        "amenity": "fast_food",
        "cuisine": "regional",
        "name": "BN Sambaiah Shetty Tiffin Room"
      }
    },
    {
      "type": "node",
      "id": 9656382554,
      "lat": 12.9898229,
      "lon": 77.6071778,
      "tags": {
        "amenity": "place_of_worship",
        "religion": "jain"
      }
    },
    {
      "type": "node",
      "id": 9672296508,
      "lat": 12.9811568,
      "lon": 77.6141516,
      "tags": {
        "amenity": "cafe",
        "delivery": "yes",
        "name": "Maverick and Farmer Coffee",
        "outdoor_seating": "yes",
        "takeaway": "yes",
        "website": "https://www.maverickandfarmer.com/"
      }
    },
    {
      "type": "node",
      "id": 9672296514,
      "lat": 12.9821075,
      "lon": 77.6157676,
      "tags": {
        "access": "yes",
        "amenity": "toilets"
      }
    },
    {
      "type": "node",
      "id": 9687948458,
      "lat": 12.9807813,
      "lon": 77.6070425,
      "tags": {
        "description": "the ultimate automotive surface protection center",
        "name": "Opti-coat",
        "shop": "car_repair"
      }
    },
    {
      "type": "node",
      "id": 9687954318,
      "lat": 12.9865306,
      "lon": 77.6194645,
      "tags": {
        "amenity": "cafe",
        "check_date": "2024-04-20",
        "dog": "leashed",
        "highchair": "yes",
        "name": "Kaara by Lake",
        "outdoor_seating": "yes",
        "pets": "yes",
        "takeaway": "yes",
        "toilets": "yes",
        "toilets:wheelchair": "limited",
        "wheelchair": "limited"
      }
    },
    {
      "type": "node",
      "id": 9796145350,
      "lat": 12.9812956,
      "lon": 77.6126653,
      "tags": {
        "name": "Museum of Art and Photography",
        "shop": "variety_store"
      }
    },
    {
      "type": "node",
      "id": 9796145351,
      "lat": 12.9814384,
      "lon": 77.6126649,
      "tags": {
        "addr:city": "Bangalore",
        "addr:country": "IN",
        "addr:housenumber": "24",
        "addr:postcode": "560042",
        "addr:street": "Gangadhar Chetty Road",
        "contact:facebook": "cinnamonthestore",
        "contact:instagram": "cinnamonthestore",
        "email": "cinnamon_blr@yahoo.com",
        "name": "Cinnamon",
        "phone": "(+91) 9972813015",
        "shop": "boutique",
        "website": "https://www.cinnamonthestore.in/"
      }
    },
    {
      "type": "node",
      "id": 9796145357,
      "lat": 12.98131,
      "lon": 77.612613,
      "tags": {
        "amenity": "cafe",
        "name": "Cafe Stone",
        "outdoor_seating": "yes"
      }
    },
    {
      "type": "node",
      "id": 9796232706,
      "lat": 12.979043,
      "lon": 77.6151383,
      "tags": {
        "amenity": "waste_basket"
      }
    },
    {
      "type": "node",
      "id": 9796561602,
      "lat": 12.9796154,
      "lon": 77.6071282,
      "tags": {
        "access": "customers",
        "amenity": "parking",
        "parking": "surface"
      }
    },
    {
      "type": "node",
      "id": 9797011341,
      "lat": 12.985777,
      "lon": 77.6051098,
      "tags": {
        "name": "KGN Armoury & Engineering Works",
        "shop": "variety_store"
      }
    },
    {
      "type": "node",
      "id": 9797011342,
      "lat": 12.9861037,
      "lon": 77.6048389,
      "tags": {
        "amenity": "restaurant",
        "name": "Hamza Hotel"
      }
    },
    {
      "type": "node",
      "id": 9797011343,
      "lat": 12.98481,
      "lon": 77.6052399,
      "tags": {
        "access": "yes",
        "amenity": "toilets",
        "fee": "no"
      }
    },
    {
      "type": "node",
      "id": 9797011354,
      "lat": 12.9839521,
      "lon": 77.6082614,
      "tags": {
        "name": "Vee Bake",
        "shop": "bakery"
      }
    },
    {
      "type": "node",
      "id": 9811360820,
      "lat": 12.9760189,
      "lon": 77.6148006,
      "tags": {
        "amenity": "restaurant",
        "cuisine": "regional",
        "delivery": "yes",
        "name": "Paakashala",
        "name:kn": "ಪಾಕಶಾಲೆ",
        "takeaway": "yes"
      }
    },
    {
      "type": "node",
      "id": 9811360821,
      "lat": 12.9759889,
      "lon": 77.6151466,
      "tags": {
        "name": "PC Chandra Jewellers",
        "shop": "jewelry"
      }
    },
    {
      "type": "node",
      "id": 9828707238,
      "lat": 12.9816031,
      "lon": 77.6098734,
      "tags": {
        "name": "Soch",
        "payment:credit_cards": "yes",
        "payment:debit_cards": "yes",
        "shop": "clothes",
        "wheelchair": "no"
      }
    },
    {
      "type": "node",
      "id": 9828707239,
      "lat": 12.981624,
      "lon": 77.6097815,
      "tags": {
        "addr:city": "Bengaluru",
        "addr:street": "Commercial Street",
        "check_date": "2023-04-07",
        "indoor_seating": "yes",
        "name": "Anand Sweets and Savouries",
        "outdoor_seating": "no",
        "payment:cash": "yes",
        "payment:debit_cards": "yes",
        "shop": "bakery",
        "smoking": "no",
        "website": "https://anandsweets.in/",
        "wheelchair": "no"
      }
    },
    {
      "type": "node",
      "id": 9828707240,
      "lat": 12.9827426,
      "lon": 77.6066139,
      "tags": {
        "brand": "Zudio",
        "brand:wikidata": "Q123375926",
        "name": "Zudio",
        "shop": "clothes"
      }
    },
    {
      "type": "node",
      "id": 9828707241,
      "lat": 12.982904,
      "lon": 77.6065877,
      "tags": {
        "name": "Nysha",
        "shop": "clothes"
      }
    },
    {
      "type": "node",
      "id": 9828707244,
      "lat": 12.9837332,
      "lon": 77.6064388,
      "tags": {
        "shop": "clothes"
      }
    },
    {
      "type": "node",
      "id": 9828707245,
      "lat": 12.9837698,
      "lon": 77.6062994,
      "tags": {
        "shop": "clothes"
      }
    },
    {
      "type": "node",
      "id": 9828707246,
      "lat": 12.9838122,
      "lon": 77.6061686,
      "tags": {
        "shop": "clothes"
      }
    },
    {
      "type": "node",
      "id": 9828707247,
      "lat": 12.9837985,
      "lon": 77.6062383,
      "tags": {
        "shop": "clothes"
      }
    },
    {
      "type": "node",
      "id": 9828707248,
      "lat": 12.9837515,
      "lon": 77.6063859,
      "tags": {
        "shop": "clothes"
      }
    },
    {
      "type": "node",
      "id": 9828707250,
      "lat": 12.9833535,
      "lon": 77.6065884,
      "tags": {
        "shop": "clothes"
      }
    },
    {
      "type": "node",
      "id": 9828707251,
      "lat": 12.9835966,
      "lon": 77.6066789,
      "tags": {
        "shop": "clothes"
      }
    },
    {
      "type": "node",
      "id": 9828707252,
      "lat": 12.9836299,
      "lon": 77.6064657,
      "tags": {
        "shop": "clothes"
      }
    },
    {
      "type": "node",
      "id": 9828707253,
      "lat": 12.9832183,
      "lon": 77.6064932,
      "tags": {
        "name": "SR and Sons",
        "shop": "bakery"
      }
    },
    {
      "type": "node",
      "id": 9828707254,
      "lat": 12.9830458,
      "lon": 77.6062156,
      "tags": {
        "name": "Kitchen World",
        "shop": "kitchen"
      }
    },
    {
      "type": "node",
      "id": 9828707255,
      "lat": 12.9830125,
      "lon": 77.6061847,
      "tags": {
        "amenity": "place_of_worship",
        "religion": "hindu"
      }
    },
    {
      "type": "node",
      "id": 9828707257,
      "lat": 12.9828687,
      "lon": 77.6066695,
      "tags": {
        "name": "Brandmart",
        "shop": "clothes",
        "wheelchair": "no"
      }
    },
    {
      "type": "node",
      "id": 9828707258,
      "lat": 12.9827001,
      "lon": 77.6067138,
      "tags": {
        "brand": "Lenskart",
        "brand:wikidata": "Q17068753",
        "name": "Lenskart",
        "shop": "optician"
      }
    },
    {
      "type": "node",
      "id": 9828707259,
      "lat": 12.9828282,
      "lon": 77.606756,
      "tags": {
        "air_conditioning": "yes",
        "amenity": "fast_food",
        "brand": "Burger King",
        "brand:wikidata": "Q177054",
        "cuisine": "burger",
        "diet:vegetarian": "yes",
        "indoor_seating": "yes",
        "name": "Burger King",
        "outdoor_seating": "no",
        "smoking": "no",
        "takeaway": "yes",
        "wheelchair": "no"
      }
    },
    {
      "type": "node",
      "id": 9828707260,
      "lat": 12.9826093,
      "lon": 77.6069243,
      "tags": {
        "name": "Y&O",
        "shop": "clothes",
        "wheelchair": "no"
      }
    },
    {
      "type": "node",
      "id": 9828707262,
      "lat": 12.9825838,
      "lon": 77.6070336,
      "tags": {
        "name": "Health & Glow",
        "shop": "beauty"
      }
    },
    {
      "type": "node",
      "id": 9828707264,
      "lat": 12.9826341,
      "lon": 77.6073079,
      "tags": {
        "name": "Louise Phillipe",
        "payment:credit_cards": "yes",
        "payment:debit_cards": "yes",
        "shop": "clothes",
        "wheelchair": "no"
      }
    },
    {
      "type": "node",
      "id": 9828707265,
      "lat": 12.9825391,
      "lon": 77.6075577,
      "tags": {
        "addr:city": "Bengaluru",
        "addr:housenumber": "133",
        "addr:street": "Commercial Street",
        "description": "Enchanted thrift store",
        "name": "Asiatic Arts and Crafts",
        "name:en": "Asiatic Arts and Crafts",
        "shop": "gift"
      }
    },
    {
      "type": "node",
      "id": 9828707266,
      "lat": 12.9825505,
      "lon": 77.6075335,
      "tags": {
        "name": "Titan",
        "shop": "watches",
        "wheelchair": "no"
      }
    },
    {
      "type": "node",
      "id": 9828707267,
      "lat": 12.9824028,
      "lon": 77.6075603,
      "tags": {
        "brand": "Peter England",
        "brand:wikidata": "Q19573665",
        "clothes": "men",
        "name": "Peter England",
        "shop": "clothes"
      }
    },
    {
      "type": "node",
      "id": 9828707268,
      "lat": 12.9822342,
      "lon": 77.6079456,
      "tags": {
        "brand": "Van Heusen",
        "brand:wikidata": "Q67551865",
        "check_date": "2023-04-07",
        "clothes": "men;women",
        "name": "Van Heusen",
        "payment:mastercard": "yes",
        "payment:visa": "yes",
        "shop": "clothes"
      }
    },
    {
      "type": "node",
      "id": 9828707269,
      "lat": 12.9822463,
      "lon": 77.6079983,
      "tags": {
        "brand": "Allen Solly",
        "brand:wikidata": "Q110036995",
        "check_date": "2023-04-07",
        "name": "Allen Solly",
        "shop": "clothes"
      }
    },
    {
      "type": "node",
      "id": 9828707270,
      "lat": 12.9821611,
      "lon": 77.6082232,
      "tags": {
        "check_date": "2023-04-07",
        "name": "Miniso",
        "payment:credit_cards": "yes",
        "payment:debit_cards": "yes",
        "payment:mastercard": "yes",
        "payment:visa": "yes",
        "shop": "general",
        "wheelchair": "limited"
      }
    },
    {
      "type": "node",
      "id": 9828707271,
      "lat": 12.9822591,
      "lon": 77.6083731,
      "tags": {
        "name": "Sling",
        "shop": "bag"
      }
    },
    {
      "type": "node",
      "id": 9828707272,
      "lat": 12.9823055,
      "lon": 77.6082648,
      "tags": {
        "check_date": "2023-04-07",
        "name": "J Emporio",
        "shop": "clothes"
      }
    },
    {
      "type": "node",
      "id": 9833588985,
      "lat": 12.9834587,
      "lon": 77.6073655,
      "tags": {
        "amenity": "atm",
        "brand": "HDFC Bank",
        "brand:wikidata": "Q631047",
        "name": "HDFC Bank",
        "operator": "HDFC Bank",
        "operator:wikidata": "Q631047",
        "short_name": "HDFC"
      }
    },
    {
      "type": "node",
      "id": 9833614572,
      "lat": 12.9829802,
      "lon": 77.6071676,
      "tags": {
        "amenity": "place_of_worship",
        "name": "Masjid E Lababeen",
        "religion": "muslim",
        "wheelchair": "no"
      }
    },
    {
      "type": "node",
      "id": 9903904947,
      "lat": 12.9824715,
      "lon": 77.6098143,
      "tags": {
        "name": "Luknow chikan kari",
        "shop": "beauty"
      }
    },
    {
      "type": "node",
      "id": 9996780318,
      "lat": 12.9829662,
      "lon": 77.6064877,
      "tags": {
        "amenity": "bank",
        "name": "Zion Bank"
      }
    },
    {
      "type": "node",
      "id": 9997962023,
      "lat": 12.9810667,
      "lon": 77.6139065,
      "tags": {
        "name": "Cricket Den",
        "shop": "sports"
      }
    },
    {
      "type": "node",
      "id": 10009232548,
      "lat": 12.9819129,
      "lon": 77.6057536,
      "tags": {
        "addr:housenumber": "495/496",
        "addr:street": "Jumma Masjid Road",
        "air_conditioning": "yes",
        "amenity": "restaurant",
        "bar": "no",
        "check_date": "2023-04-07",
        "cuisine": "regional",
        "diet:vegetarian": "yes",
        "email": "kamatoph@gmail.com",
        "highchair": "no",
        "indoor_seating": "yes",
        "internet_access": "no",
        "microbrewery": "no",
        "name": "Kamat Vegetarian Restaurant",
        "outdoor_seating": "no",
        "phone": "+91 93533 46114",
        "smoking": "no",
        "source": "survey",
        "takeaway": "yes",
        "wheelchair": "no"
      }
    },
    {
      "type": "node",
      "id": 10009237339,
      "lat": 12.9817215,
      "lon": 77.6056207,
      "tags": {
        "amenity": "dentist",
        "name": "Sure Smile"
      }
    },
    {
      "type": "node",
      "id": 10009266643,
      "lat": 12.9815075,
      "lon": 77.6058818,
      "tags": {
        "name": "Silk Garden",
        "shop": "clothes"
      }
    },
    {
      "type": "node",
      "id": 10009266725,
      "lat": 12.9815666,
      "lon": 77.6057719,
      "tags": {
        "name": "Zaim Jewels",
        "shop": "jewelry"
      }
    },
    {
      "type": "node",
      "id": 10009275920,
      "lat": 12.9796918,
      "lon": 77.6055656,
      "tags": {
        "amenity": "bank",
        "brand": "Karnataka Bank",
        "brand:wikidata": "Q2042632",
        "name": "Karnataka Bank"
      }
    },
    {
      "type": "node",
      "id": 10009275921,
      "lat": 12.9795841,
      "lon": 77.6055942,
      "tags": {
        "amenity": "bank",
        "brand": "Muthoot Finance",
        "brand:wikidata": "Q6943861",
        "name": "Muthoot Finance",
        "office": "financial"
      }
    },
    {
      "type": "node",
      "id": 10009275922,
      "lat": 12.9799217,
      "lon": 77.6056281,
      "tags": {
        "amenity": "bank",
        "brand": "Axis Bank",
        "brand:wikidata": "Q2003549",
        "name": "Axis Bank",
        "name:kn": "ಆಕ್ಸಿಸ್ ಬ್ಯಾಂಕ್"
      }
    },
    {
      "type": "node",
      "id": 10009285720,
      "lat": 12.9814704,
      "lon": 77.6059865,
      "tags": {
        "name": "Pet Planet",
        "shop": "pet"
      }
    },
    {
      "type": "node",
      "id": 10009285721,
      "lat": 12.9811714,
      "lon": 77.6059779,
      "tags": {
        "name": "Xerox & Mobile Shop",
        "shop": "copyshop"
      }
    },
    {
      "type": "node",
      "id": 10009305818,
      "lat": 12.9814463,
      "lon": 77.6061401,
      "tags": {
        "amenity": "clinic",
        "healthcare": "clinic",
        "name": "Anand Diagnostic Laboratory"
      }
    },
    {
      "type": "node",
      "id": 10009305819,
      "lat": 12.981074,
      "lon": 77.6059774,
      "tags": {
        "amenity": "atm",
        "brand": "South Indian Bank",
        "brand:wikidata": "Q2044973",
        "operator": "South Indian Bank",
        "operator:wikidata": "Q2044973"
      }
    },
    {
      "type": "node",
      "id": 10009310318,
      "lat": 12.9795087,
      "lon": 77.60607,
      "tags": {
        "amenity": "bank",
        "brand": "Canara Bank",
        "brand:en": "Canara Bank",
        "brand:hi": "केनरा बैंक",
        "brand:kn": "ಕೆನರಾ ಬ್ಯಾಂಕ್",
        "brand:pa": "ਕੇਨਰਾ ਬੈਂਕ",
        "brand:pnb": "کینرا بینک",
        "brand:ur": "کینرا بینک",
        "brand:wikidata": "Q2003777",
        "name": "Canara Bank",
        "name:en": "Canara Bank",
        "name:hi": "केनरा बैंक",
        "name:kn": "ಕೆನರಾ ಬ್ಯಾಂಕ್",
        "name:pa": "ਕੇਨਰਾ ਬੈਂਕ",
        "name:pnb": "کینرا بینک",
        "name:ur": "کینرا بینک"
      }
    },
    {
      "type": "node",
      "id": 10009310319,
      "lat": 12.9794922,
      "lon": 77.6061321,
      "tags": {
        "amenity": "atm",
        "brand": "Canara Bank",
        "brand:en": "Canara Bank",
        "brand:hi": "केनरा बैंक",
        "brand:kn": "ಕೆನರಾ ಬ್ಯಾಂಕ್",
        "brand:pa": "ਕੇਨਰਾ ਬੈਂਕ",
        "brand:pnb": "کینرا بینک",
        "brand:ur": "کینرا بینک",
        "brand:wikidata": "Q2003777",
        "name:en": "Canara Bank",
        "name:hi": "केनरा बैंक",
        "name:kn": "ಕೆನರಾ ಬ್ಯಾಂಕ್",
        "name:pa": "ਕੇਨਰਾ ਬੈਂਕ",
        "name:pnb": "کینرا بینک",
        "name:ur": "کینرا بینک",
        "operator": "Canara Bank",
        "operator:wikidata": "Q2003777"
      }
    },
    {
      "type": "node",
      "id": 10009334817,
      "lat": 12.9812363,
      "lon": 77.6059974,
      "tags": {
        "name": "Sony Heritage",
        "shop": "clothes"
      }
    },
    {
      "type": "node",
      "id": 10009334917,
      "lat": 12.9810884,
      "lon": 77.6060136,
      "tags": {
        "amenity": "bank",
        "brand": "South Indian Bank",
        "brand:wikidata": "Q2044973",
        "name": "South Indian Bank"
      }
    },
    {
      "type": "node",
      "id": 10009335117,
      "lat": 12.9809126,
      "lon": 77.6057072,
      "tags": {
        "name": "Ateeq Haj Tours and Travels",
        "shop": "travel_agency"
      }
    },
    {
      "type": "node",
      "id": 10009335217,
      "lat": 12.9809646,
      "lon": 77.6057395,
      "tags": {
        "name": "Springfit Matresses",
        "shop": "variety_store"
      }
    },
    {
      "type": "node",
      "id": 10009339618,
      "lat": 12.9807856,
      "lon": 77.6052366,
      "tags": {
        "amenity": "library",
        "name": "Eloor Lending Libraries"
      }
    },
    {
      "type": "node",
      "id": 10009343417,
      "lat": 12.9794545,
      "lon": 77.6062106,
      "tags": {
        "amenity": "bank",
        "brand": "ICICI Bank",
        "brand:wikidata": "Q1653258",
        "name": "ICICI Bank",
        "short_name": "ICICI"
      }
    },
    {
      "type": "node",
      "id": 10009343717,
      "lat": 12.9794328,
      "lon": 77.6062662,
      "tags": {
        "amenity": "atm",
        "brand": "ICICI Bank",
        "brand:wikidata": "Q1653258",
        "operator": "ICICI Bank",
        "operator:wikidata": "Q1653258",
        "short_name": "ICICI"
      }
    },
    {
      "type": "node",
      "id": 10047208717,
      "lat": 12.9800276,
      "lon": 77.6056374,
      "tags": {
        "name": "Sreeraja Rajeswari Agencies",
        "shop": "furniture"
      }
    },
    {
      "type": "node",
      "id": 10080463675,
      "lat": 12.9809859,
      "lon": 77.6076048,
      "tags": {
        "name": "Track and Trail",
        "shop": "bicycle"
      }
    },
    {
      "type": "node",
      "id": 10123663886,
      "lat": 12.9830417,
      "lon": 77.6083398,
      "tags": {
        "clothes": "men",
        "name": "Kurta Planet",
        "shop": "clothes"
      }
    },
    {
      "type": "node",
      "id": 10123663887,
      "lat": 12.9828955,
      "lon": 77.6083839,
      "tags": {
        "name": "Dupatta Centre",
        "shop": "clothes"
      }
    },
    {
      "type": "node",
      "id": 10685071180,
      "lat": 12.98166,
      "lon": 77.6095172,
      "tags": {
        "name": "Avantra by Trends",
        "shop": "clothes"
      }
    },
    {
      "type": "node",
      "id": 10703113644,
      "lat": 12.9839354,
      "lon": 77.6060818,
      "tags": {
        "amenity": "place_of_worship",
        "check_date": "2023-03-02",
        "name": "Sri Meenakshi Amman Koil",
        "name:ta": "ஶ்ரீ மீனாட்சி அம்மன் கோயில்",
        "religion": "hindu"
      }
    },
    {
      "type": "node",
      "id": 10792855166,
      "lat": 12.9819588,
      "lon": 77.6098863,
      "tags": {
        "addr:housenumber": "7",
        "addr:street": "MK Street",
        "amenity": "place_of_worship",
        "check_date": "2023-04-07",
        "name": "Arul Mighu Shree Padavedu Mariamman Thiru Koil",
        "religion": "hindu",
        "wheelchair": "limited"
      }
    },
    {
      "type": "node",
      "id": 10792855167,
      "lat": 12.9818947,
      "lon": 77.609863,
      "tags": {
        "check_date": "2023-04-07",
        "name": "Naughtee",
        "shop": "clothes"
      }
    },
    {
      "type": "node",
      "id": 10792855168,
      "lat": 12.9818739,
      "lon": 77.6096512,
      "tags": {
        "air_conditioning": "yes",
        "brand": "Zudio",
        "brand:wikidata": "Q123375926",
        "check_date": "2023-04-07",
        "clothes": "women;men",
        "name": "Zudio",
        "payment:cash": "yes",
        "payment:credit_cards": "yes",
        "payment:debit_cards": "yes",
        "payment:upi": "yes",
        "second_hand": "no",
        "shop": "clothes",
        "source": "survey"
      }
    },
    {
      "type": "node",
      "id": 10792855169,
      "lat": 12.9823345,
      "lon": 77.6082047,
      "tags": {
        "check_date": "2023-04-07",
        "name": "Planet Fashion",
        "shop": "clothes"
      }
    },
    {
      "type": "node",
      "id": 10792855170,
      "lat": 12.9823686,
      "lon": 77.6082193,
      "tags": {
        "amenity": "bank",
        "atm": "yes",
        "brand": "Punjab National Bank",
        "brand:wikidata": "Q2743499",
        "check_date": "2023-04-07",
        "name": "Punjab National Bank",
        "name:kn": "ಪಂಜಾಬ ರಾಷ್ಟ್ರೀಯ ಬ್ಯಾಂಕ್"
      }
    },
    {
      "type": "node",
      "id": 10792855171,
      "lat": 12.9823249,
      "lon": 77.6082419,
      "tags": {
        "check_date": "2023-04-07",
        "name": "Flying Machine",
        "shop": "clothes"
      }
    },
    {
      "type": "node",
      "id": 10792855172,
      "lat": 12.9822095,
      "lon": 77.6081199,
      "tags": {
        "addr:housenumber": "47",
        "addr:street": "Commercial Street",
        "air_conditioning": "yes",
        "check_date": "2023-04-07",
        "name": "Kushal's fashion jewellery",
        "payment:mastercard": "yes",
        "payment:upi": "yes",
        "payment:visa": "yes",
        "shop": "fashion_accessories",
        "source": "survey",
        "wheelchair": "no"
      }
    },
    {
      "type": "node",
      "id": 10792855173,
      "lat": 12.9822408,
      "lon": 77.6080811,
      "tags": {
        "addr:housenumber": "49",
        "addr:street": "Commercial Street",
        "check_date": "2023-04-07",
        "name": "Kashmir Government Arts Emporium",
        "shop": "art"
      }
    },
    {
      "type": "node",
      "id": 10792855175,
      "lat": 12.9851522,
      "lon": 77.6073253,
      "tags": {
        "amenity": "place_of_worship",
        "check_date": "2023-04-07",
        "name": "Dharamaraja Koil",
        "name:kn": "ಧರ್ಮರಾಜ ಕೋಯಿಲ್",
        "religion": "hindu"
      }
    },
    {
      "type": "node",
      "id": 10887396863,
      "lat": 12.9793318,
      "lon": 77.6151279,
      "tags": {
        "amenity": "college",
        "name": "Hasnath College for Women"
      }
    },
    {
      "type": "node",
      "id": 10979409747,
      "lat": 12.9850531,
      "lon": 77.6182955,
      "tags": {
        "addr:city": "Bengaluru",
        "addr:country": "IN",
        "addr:housenumber": "32",
        "addr:postcode": "560042",
        "addr:state": "Karnataka",
        "addr:street": "Annaswamy Mudaliar Road",
        "addr:suburb": "Ulsoor",
        "amenity": "cafe",
        "contact:instagram": "myurbansolace",
        "cuisine": "american",
        "name": "Urban Solace",
        "name:kn": "ಅರ್ಬನ್ ಸೊಲೇಸ್"
      }
    },
    {
      "type": "node",
      "id": 11282630668,
      "lat": 12.9880012,
      "lon": 77.6175244,
      "tags": {
        "amenity": "bank",
        "atm": "yes",
        "brand": "HDFC Bank",
        "brand:wikidata": "Q631047",
        "name": "HDFC Bank",
        "operator": "HDFC Bank",
        "short_name": "HDFC"
      }
    },
    {
      "type": "node",
      "id": 11304941403,
      "lat": 12.9861069,
      "lon": 77.6164486,
      "tags": {
        "access": "permissive",
        "amenity": "parking_entrance",
        "parking": "underground"
      }
    },
    {
      "type": "node",
      "id": 11304941409,
      "lat": 12.9859003,
      "lon": 77.6159611,
      "tags": {
        "access": "permissive",
        "amenity": "parking_entrance",
        "parking": "underground"
      }
    },
    {
      "type": "node",
      "id": 11473125894,
      "lat": 12.9814299,
      "lon": 77.6138657,
      "tags": {
        "leisure": "fitness_centre"
      }
    },
    {
      "type": "node",
      "id": 11530082861,
      "lat": 12.9857804,
      "lon": 77.6167848,
      "tags": {
        "addr:city": "Bengaluru",
        "addr:floor": "G",
        "addr:housenumber": "9",
        "addr:postcode": "560042",
        "addr:street": "Osbourne Road",
        "amenity": "dentist",
        "check_date": "2024-01-19",
        "email": "oralrehabilitationcenter@gmail.com",
        "healthcare": "dentist",
        "internet_access": "no",
        "mobile": "+91-7406110333",
        "name": "Oral rehabilitation center",
        "name:en": "Oral rehabilitation center",
        "name:kn": "ಒರಲ್ ರಿಹಾಬಿಲಿಟೇಶನ್ ಸೆಂಟರ್",
        "opening_hours": "Mo-Su 09:00-13:00,Mo-Su 16:00-22:00",
        "payment:cash": "yes",
        "payment:credit_cards": "yes",
        "payment:debit_cards": "yes",
        "website": "https://oralrehabilitationcenter.com/",
        "wheelchair": "limited"
      }
    },
    {
      "type": "node",
      "id": 11543546144,
      "lat": 12.9837692,
      "lon": 77.6083351,
      "tags": {
        "addr:city": "Beṅgaḷūru",
        "addr:neighborhood": "Śivājinagara",
        "amenity": "restaurant",
        "cuisine": "indian",
        "diet:vegetarian": "yes",
        "name": "Vinaya Sāgar",
        "name:kn": "ವಿನಯ ಸಾಗರ್",
        "opening_hours": "07:00-22:30",
        "phone": "+919900644644"
      }
    },
    {
      "type": "node",
      "id": 11543598140,
      "lat": 12.9833049,
      "lon": 77.6099837,
      "tags": {
        "addr:city": "Beṅgaḷūru",
        "addr:neighborhood": "Śivājinagara",
        "amenity": "restaurant",
        "cuisine": "indian",
        "diet:vegetarian": "yes",
        "name": "JCL",
        "name:en": "JCL Canteen",
        "name:es": "Cafetería JCL",
        "opening_hours": "07:00-22:00",
        "phone": "+918123112030"
      }
    },
    {
      "type": "node",
      "id": 11896744971,
      "lat": 12.9907873,
      "lon": 77.61323,
      "tags": {
        "name": "Sam's Wines & Spirits",
        "shop": "alcohol"
      }
    },
    {
      "type": "node",
      "id": 11915100545,
      "lat": 12.9831448,
      "lon": 77.6094078,
      "tags": {
        "access": "yes",
        "amenity": "motorcycle_parking",
        "covered": "no"
      }
    },
    {
      "type": "node",
      "id": 11915213882,
      "lat": 12.9832825,
      "lon": 77.6100382,
      "tags": {
        "amenity": "atm",
        "brand": "State Bank of India",
        "brand:wikidata": "Q1340361",
        "name": "State Bank of India",
        "operator": "State Bank of India",
        "operator:wikidata": "Q1340361",
        "short_name": "SBI"
      }
    },
    {
      "type": "node",
      "id": 11915237669,
      "lat": 12.9832822,
      "lon": 77.6100189,
      "tags": {
        "amenity": "atm",
        "brand": "Axis Bank",
        "brand:wikidata": "Q2003549",
        "name": "Axis Bank",
        "name:kn": "ಆಕ್ಸಿಸ್ ಬ್ಯಾಂಕ್",
        "operator": "Axis Bank",
        "operator:wikidata": "Q2003549"
      }
    },
    {
      "type": "node",
      "id": 12067529110,
      "lat": 12.9816919,
      "lon": 77.6095569,
      "tags": {
        "addr:city": "Bengaluru",
        "addr:country": "IN",
        "addr:housenumber": "14",
        "addr:postcode": "560001",
        "addr:street": "Commercial Street",
        "addr:suburb": "Shivajinagar",
        "amenity": "restaurant",
        "name": "Bhartiya Jalpan"
      }
    },
    {
      "type": "node",
      "id": 12092047871,
      "lat": 12.9817873,
      "lon": 77.6122101,
      "tags": {
        "addr:city": "Bengaluru",
        "addr:country": "IN",
        "addr:housenumber": "24",
        "addr:postcode": "560042",
        "addr:street": "Gangadhar Chetty Road",
        "addr:suburb": "Halasuru",
        "check_date": "2024-08-04",
        "contact:instagram": "generalitems.in",
        "level": "0",
        "name": "General Items",
        "name:kn": "ಜನರಲ್ ಐಟಮ್ಸ್",
        "opening_hours": "Tu-Su 11:00-19:00",
        "shop": "general",
        "website": "https://generalitems.in/"
      }
    },
    {
      "type": "node",
      "id": 12222732600,
      "lat": 12.9840162,
      "lon": 77.6174052,
      "tags": {
        "addr:housenumber": "22",
        "addr:street": "Annaswamy Mudaliar Road",
        "amenity": "cafe",
        "check_date": "2024-10-04",
        "contact:instagram": "https://www.instagram.com/amagat.blr",
        "name": "Amagat Garden Cafe"
      }
    },
    {
      "type": "node",
      "id": 12441128605,
      "lat": 12.9835541,
      "lon": 77.6108149,
      "tags": {
        "name": "Excelsior",
        "shop": "bakery",
        "start_date": "1930"
      }
    },
    {
      "type": "node",
      "id": 12498576282,
      "lat": 12.9843323,
      "lon": 77.6054625,
      "tags": {
        "amenity": "fast_food",
        "brand": "Indira Canteen",
        "brand:wikidata": "Q36164828",
        "cuisine": "south_indian",
        "name": "Indira Canteen",
        "operator": "BBMP",
        "takeaway": "yes"
      }
    },
    {
      "type": "node",
      "id": 12530833136,
      "lat": 12.9815554,
      "lon": 77.6080891,
      "tags": {
        "access": "yes",
        "amenity": "toilets"
      }
    },
    {
      "type": "node",
      "id": 12530833137,
      "lat": 12.981801,
      "lon": 77.6080743,
      "tags": {
        "name": "Kalakruti",
        "shop": "clothes"
      }
    },
    {
      "type": "node",
      "id": 12644777546,
      "lat": 12.9825963,
      "lon": 77.6108753,
      "tags": {
        "name": "Westside",
        "shop": "mall"
      }
    },
    {
      "type": "node",
      "id": 12644777552,
      "lat": 12.9821532,
      "lon": 77.6103656,
      "tags": {
        "name": "koskii",
        "shop": "boutique"
      }
    },
    {
      "type": "node",
      "id": 12691304913,
      "lat": 12.9858206,
      "lon": 77.6053288,
      "tags": {
        "amenity": "clock",
        "display": "analog",
        "support": "pillar",
        "visibility": "area"
      }
    },
    {
      "type": "node",
      "id": 12749935725,
      "lat": 12.9824009,
      "lon": 77.6108551,
      "tags": {
        "amenity": "cafe",
        "brand": "Starbucks",
        "brand:wikidata": "Q37158",
        "cuisine": "coffee_shop",
        "name": "Starbucks",
        "official_name": "Starbucks Coffee",
        "takeaway": "yes"
      }
    },
    {
      "type": "node",
      "id": 12749935726,
      "lat": 12.9827759,
      "lon": 77.6108927,
      "tags": {
        "amenity": "community_centre",
        "name": "Hajee Saleh Mohammed Ahmed Sait Cutchi Memon Jamath Khana"
      }
    },
    {
      "type": "node",
      "id": 12750126583,
      "lat": 12.9833333,
      "lon": 77.6111176,
      "tags": {
        "amenity": "toilets"
      }
    },
    {
      "type": "node",
      "id": 12788139581,
      "lat": 12.9861844,
      "lon": 77.6156891,
      "tags": {
        "amenity": "charging_station",
        "charging_station:battery_swapping": "yes",
        "fee": "yes",
        "level": "0",
        "motorcar": "no",
        "motorcycle": "yes",
        "name": "Honda e:swap",
        "operator": "Honda e:swap"
      }
    },
    {
      "type": "node",
      "id": 12788682209,
      "lat": 12.9872864,
      "lon": 77.6168337,
      "tags": {
        "amenity": "restaurant",
        "name": "Citrus Cafe"
      }
    },
    {
      "type": "node",
      "id": 12788682234,
      "lat": 12.9862396,
      "lon": 77.6159245,
      "tags": {
        "brand": "Honda",
        "brand:wikidata": "Q9584",
        "name": "Honda",
        "shop": "motorcycle"
      }
    },
    {
      "type": "node",
      "id": 13013584279,
      "lat": 12.9833134,
      "lon": 77.611239,
      "tags": {
        "addr:city": "Bengaluru",
        "addr:housenumber": "262",
        "addr:postcode": "560051",
        "addr:street": "Kamaraj Road",
        "addr:suburb": "Shivajinagar",
        "amenity": "cafe",
        "name": "The Rogue Elephant Cafe",
        "outdoor_seating": "yes"
      }
    },
    {
      "type": "node",
      "id": 13098372342,
      "lat": 12.9799077,
      "lon": 77.6070181,
      "tags": {
        "amenity": "restaurant",
        "contact:instagram": "julianas.blr",
        "name": "Juliana's"
      }
    },
    {
      "type": "node",
      "id": 13290544301,
      "lat": 12.9875972,
      "lon": 77.6208401,
      "tags": {
        "name": "6oz Coffee and Roasters",
        "opening_hours": "Mo-Su 09:00-22:00",
        "phone": "+91 80502 02148",
        "shop": "coffee",
        "website": "http://6oz.coffee"
      }
    },
    {
      "type": "node",
      "id": 13299647378,
      "lat": 12.9845566,
      "lon": 77.6121654,
      "tags": {
        "name": "Iyengar Bakery",
        "shop": "bakery"
      }
    },
    {
      "type": "way",
      "id": 30810609,
      "center": {
        "lat": 12.9897489,
        "lon": 77.6168853
      },
      "tags": {
        "leisure": "track",
        "name": "Kendriya Vidyala MEG and Centre",
        "name:kn": "ಕೇಂದ್ರಿಯ ವಿದ್ಯಾಲಯ",
        "sport": "athletics"
      }
    },
    {
      "type": "way",
      "id": 36913441,
      "center": {
        "lat": 12.9850548,
        "lon": 77.6058687
      },
      "tags": {
        "addr:street": "AM Road",
        "amenity": "marketplace",
        "building": "retail",
        "name": "Russel Market",
        "start_date": "1927",
        "wikidata": "Q7381672",
        "wikimedia_commons": "File:Russell Market.jpg",
        "wikipedia": "en:Russell Market"
      }
    },
    {
      "type": "way",
      "id": 37136671,
      "center": {
        "lat": 12.9876751,
        "lon": 77.6147713
      },
      "tags": {
        "amenity": "school",
        "name": "Kendriya Vidhyalaya, MEG Centre",
        "name:kn": "ಕೇಂದ್ರಿಯ ವಿದ್ಯಾಲಯ",
        "short_name": "KV MEG"
      }
    },
    {
      "type": "way",
      "id": 45444044,
      "center": {
        "lat": 12.9830115,
        "lon": 77.6047116
      },
      "tags": {
        "addr:city": "Shivaji Nagar, Bangalore",
        "addr:district": "Bengaluru Urban",
        "addr:full": "Lady Curzon Road, Shivaji Nagar",
        "addr:postcode": "560001",
        "addr:state": "Karnataka",
        "addr:street": "Lady Curzon Road",
        "amenity": "hospital",
        "fax": "+91-80-25591325",
        "healthcare": "hospital",
        "healthcare:speciality": "Bio-Chemistry; Cardiology; Cardiothoracic Surgery; Dermatology; ENT; General Medicine; General Surgery; Micro-Biology; Neurology; Ophthalmology; Orthopedics Pathology; Pediatric Surgery; Plastic Surgery; Psychiatry; Pulmonology; Radio-Diagnosis;",
        "name": "Bowring and Lady Curzon Hospitals",
        "name:kn": "ಬೌರಿಂಗ್ ಆಸ್ಪತ್ರೆ",
        "official_name": "Shri Atal Bihari Vajpayee Medical College and Research Institution",
        "operator:type": "government",
        "phone": "+91-80-25591325",
        "source": "OpenGovernmentData",
        "website": "https://sabvmcri.karnataka.gov.in/"
      }
    },
    {
      "type": "way",
      "id": 131683727,
      "center": {
        "lat": 12.9813245,
        "lon": 77.6072401
      },
      "tags": {
        "amenity": "community_centre",
        "building": "yes",
        "name": "Samad House"
      }
    },
    {
      "type": "way",
      "id": 133182891,
      "center": {
        "lat": 12.9941564,
        "lon": 77.6090213
      },
      "tags": {
        "alt_name": "Freedom Fighters Park",
        "leisure": "park",
        "name": "Coles Park",
        "name:etymology:wikidata": "Q24254979",
        "name:kn": "ಸ್ವತಂತ್ರ ಹೋರಾಟಗಾರರ ಉದ್ಯಾನವನ"
      }
    },
    {
      "type": "way",
      "id": 133257538,
      "center": {
        "lat": 12.9918617,
        "lon": 77.6130161
      },
      "tags": {
        "addr:housenumber": "132",
        "addr:postcode": "560005",
        "addr:street": "St. John's Church Road",
        "alt_name": "St. , John's, SJHS",
        "amenity": "school",
        "name": "St. John's High School",
        "name:kn": "ಸಂತ ಜಾನ್ ಪ್ರೌಢಶಾಲೆ"
      }
    },
    {
      "type": "way",
      "id": 133486238,
      "center": {
        "lat": 12.9931976,
        "lon": 77.6105474
      },
      "tags": {
        "amenity": "school",
        "name": "St. Germain's High School",
        "name:kn": "ಸಂತ ಜೆರ್ಮೇನ್ಸ್ ಪ್ರೌಡ ಶಾಲೆ",
        "wikidata": "Q7588249",
        "wikipedia": "en:St. Germain High School"
      }
    },
    {
      "type": "way",
      "id": 138314536,
      "center": {
        "lat": 12.9870764,
        "lon": 77.6195355
      },
      "tags": {
        "leisure": "park"
      }
    },
    {
      "type": "way",
      "id": 172924463,
      "center": {
        "lat": 12.9926177,
        "lon": 77.6112538
      },
      "tags": {
        "amenity": "place_of_worship",
        "building": "cathedral",
        "denomination": "roman_catholic",
        "heritage": "2",
        "heritage:operator": "nmma",
        "heritage:website": "https://nmma.nic.in/nmma/exploreBuiltState.do?state=29",
        "name": "St. Francis Xavier's Cathedral",
        "name:fr": "Cathédrale Saint-François-Xavier",
        "name:kn": "ಸಂತ ಫ್ರಾನ್ಸಿಸ್ ಕ್ಸೇವಿಯರ್ ಕ್ಯಾಥೆಡ್ರಲ್",
        "ref:nmma": "KR20010299",
        "religion": "christian",
        "wikidata": "Q7588004",
        "wikimedia_commons": "Category:St. Francis Xavier's Cathedral, Bangalore",
        "wikipedia": "en:St. Francis Xavier's Cathedral, Bangalore"
      }
    },
    {
      "type": "way",
      "id": 182177271,
      "center": {
        "lat": 12.9810111,
        "lon": 77.6157113
      },
      "tags": {
        "leisure": "garden"
      }
    },
    {
      "type": "way",
      "id": 182177279,
      "center": {
        "lat": 12.9853954,
        "lon": 77.6221829
      },
      "tags": {
        "leisure": "park",
        "name": "Ulsoor Lake Park",
        "operator": "ಬೃಹತ್ ಬೆಂಗಳೂರು ಮಹಾನಗರ ಪಾಲಿಕೆ",
        "operator:en": "Bruhat Bengaluru Mahanagara Palike",
        "operator:ka": "ಬೃಹತ್ ಬೆಂಗಳೂರು ಮಹಾನಗರ ಪಾಲಿಕೆ",
        "operator:short": "BBMP",
        "operator:type": "government",
        "operator:wikidata": "Q4978693"
      }
    },
    {
      "type": "way",
      "id": 207134130,
      "center": {
        "lat": 12.9793478,
        "lon": 77.6096209
      },
      "tags": {
        "amenity": "parking",
        "fee": "yes",
        "parking": "surface"
      }
    },
    {
      "type": "way",
      "id": 207134173,
      "center": {
        "lat": 12.9791475,
        "lon": 77.6092879
      },
      "tags": {
        "amenity": "parking",
        "fee": "yes",
        "parking": "surface"
      }
    },
    {
      "type": "way",
      "id": 207134209,
      "center": {
        "lat": 12.9810212,
        "lon": 77.6097332
      },
      "tags": {
        "amenity": "parking",
        "fee": "yes",
        "note": "2-wheelers only",
        "parking": "street_side"
      }
    },
    {
      "type": "way",
      "id": 207134269,
      "center": {
        "lat": 12.9810761,
        "lon": 77.6095849
      },
      "tags": {
        "amenity": "parking",
        "fee": "yes",
        "note": "2-wheelers only",
        "parking": "street_side"
      }
    },
    {
      "type": "way",
      "id": 224632095,
      "center": {
        "lat": 12.9881938,
        "lon": 77.6044806
      },
      "tags": {
        "amenity": "school"
      }
    },
    {
      "type": "way",
      "id": 323636724,
      "center": {
        "lat": 12.9857828,
        "lon": 77.605547
      },
      "tags": {
        "amenity": "place_of_worship",
        "building": "yes",
        "religion": "muslim"
      }
    },
    {
      "type": "way",
      "id": 328350804,
      "center": {
        "lat": 12.9764056,
        "lon": 77.609253
      },
      "tags": {
        "access": "private",
        "leisure": "swimming_pool",
        "location": "indoor"
      }
    },
    {
      "type": "way",
      "id": 346150556,
      "center": {
        "lat": 12.9846303,
        "lon": 77.6128058
      },
      "tags": {
        "amenity": "kindergarten",
        "building": "yes",
        "name": "Prism Pre-school"
      }
    },
    {
      "type": "way",
      "id": 346208891,
      "center": {
        "lat": 12.9917055,
        "lon": 77.6148698
      },
      "tags": {
        "amenity": "bank",
        "brand": "Punjab National Bank",
        "brand:wikidata": "Q2743499",
        "building": "yes",
        "name": "Punjab National Bank",
        "name:en": "Punjab National Bank",
        "name:kn": "ಪಂಜಾಬ ರಾಷ್ಟ್ರೀಯ ಬ್ಯಾಂಕ್",
        "short_name": "PNB",
        "website": "https://www.pnbindia.in"
      }
    },
    {
      "type": "way",
      "id": 346209154,
      "center": {
        "lat": 12.9917604,
        "lon": 77.6129946
      },
      "tags": {
        "amenity": "place_of_worship",
        "building": "church",
        "building:architecture": "gothic",
        "denomination": "anglican",
        "loc_name": "Sigapoo Oosimatha Koil",
        "name": "St. John's Church",
        "name:kn": "ಸೆಂಟ್ ಜಾನ್ಸ್ ಚರ್ಚ್",
        "religion": "christian",
        "start_date": "1857",
        "wikidata": "Q19898476",
        "wikimedia_commons": "Category:St. John's Church, Bangalore",
        "wikipedia": "en:St. John's Church, Bangalore"
      }
    },
    {
      "type": "way",
      "id": 346456833,
      "center": {
        "lat": 12.9790733,
        "lon": 77.6159764
      },
      "tags": {
        "amenity": "place_of_worship",
        "building": "mosque",
        "religion": "muslim"
      }
    },
    {
      "type": "way",
      "id": 349701678,
      "center": {
        "lat": 12.9845624,
        "lon": 77.6059082
      },
      "tags": {
        "building": "yes",
        "name": "Ocea Seafoods",
        "shop": "wholesale"
      }
    },
    {
      "type": "way",
      "id": 363458703,
      "center": {
        "lat": 12.9932061,
        "lon": 77.6139127
      },
      "tags": {
        "amenity": "school",
        "landuse": "education"
      }
    },
    {
      "type": "way",
      "id": 368802983,
      "center": {
        "lat": 12.9805552,
        "lon": 77.615782
      },
      "tags": {
        "addr:city": "Bangalore",
        "addr:housenumber": "13",
        "addr:postcode": "560042",
        "addr:street": "Gangadhara Chetty Road, Ulsoor",
        "amenity": "community_centre",
        "building": "yes",
        "name": "Sri Mahan Odukathur Swamigal Mutt",
        "note": "Free annual Carnatic music concerts during the Janmashtami season."
      }
    },
    {
      "type": "way",
      "id": 370403489,
      "center": {
        "lat": 12.9757655,
        "lon": 77.6102971
      },
      "tags": {
        "access": "customers",
        "leisure": "pitch",
        "sport": "cricket"
      }
    },
    {
      "type": "way",
      "id": 370403490,
      "center": {
        "lat": 12.9751038,
        "lon": 77.6119877
      },
      "tags": {
        "leisure": "pitch"
      }
    },
    {
      "type": "way",
      "id": 370404411,
      "center": {
        "lat": 12.9797744,
        "lon": 77.6158045
      },
      "tags": {
        "amenity": "college",
        "name": "Hasnath Group of Institutions"
      }
    },
    {
      "type": "way",
      "id": 370404412,
      "center": {
        "lat": 12.9815448,
        "lon": 77.6150722
      },
      "tags": {
        "amenity": "college",
        "name": "RBANMS College",
        "name:etymology:wikidata": "Q4787468"
      }
    },
    {
      "type": "way",
      "id": 400478703,
      "center": {
        "lat": 12.9863377,
        "lon": 77.6057623
      },
      "tags": {
        "amenity": "place_of_worship",
        "religion": "muslim"
      }
    },
    {
      "type": "way",
      "id": 400478705,
      "center": {
        "lat": 12.9828949,
        "lon": 77.6145101
      },
      "tags": {
        "amenity": "cinema",
        "name": "Ajantha Theatre",
        "name:kn": "ಅಜಂತಾ ಚಿತ್ರಮಂದಿರ"
      }
    },
    {
      "type": "way",
      "id": 400483216,
      "center": {
        "lat": 12.9844117,
        "lon": 77.6042729
      },
      "tags": {
        "amenity": "place_of_worship",
        "basilica": "minor",
        "building": "church",
        "denomination": "catholic",
        "name": "St Mary's Basilica",
        "name:fr": "Basilique Sainte-Marie",
        "name:kn": "ಸೇಂಟ್ ಮೇರಿ ಬಸಿಲಿಕ",
        "religion": "christian",
        "start_date": "1882-09-08",
        "wikidata": "Q7590089",
        "wikimedia_commons": "Category:St. Mary's Basilica, Bangalore",
        "wikipedia": "en:St. Mary's Basilica, Bangalore"
      }
    },
    {
      "type": "way",
      "id": 421097861,
      "center": {
        "lat": 12.9860564,
        "lon": 77.6188133
      },
      "tags": {
        "leisure": "pitch"
      }
    },
    {
      "type": "way",
      "id": 421097862,
      "center": {
        "lat": 12.9862788,
        "lon": 77.618436
      },
      "tags": {
        "leisure": "garden"
      }
    },
    {
      "type": "way",
      "id": 421097866,
      "center": {
        "lat": 12.984747,
        "lon": 77.6178878
      },
      "tags": {
        "amenity": "community_centre",
        "name": "Bangalore Tamil Sangam",
        "name:kn": "ಬೆಂಗಳೂರು ತಮಿಳು ಸಂಗಂ",
        "website": "https://www.bangaloretamilsangam.org/"
      }
    },
    {
      "type": "way",
      "id": 436666219,
      "center": {
        "lat": 12.9841065,
        "lon": 77.6221108
      },
      "tags": {
        "access": "customers",
        "leisure": "swimming_pool",
        "length": "50",
        "location": "outdoor"
      }
    },
    {
      "type": "way",
      "id": 492502342,
      "center": {
        "lat": 12.9840801,
        "lon": 77.6221647
      },
      "tags": {
        "leisure": "sports_centre",
        "name": "Kensington Swimming Pool",
        "sport": "swimming"
      }
    },
    {
      "type": "way",
      "id": 603115732,
      "center": {
        "lat": 12.9789173,
        "lon": 77.6167663
      },
      "tags": {
        "amenity": "school",
        "name": "Auro Mirra International School"
      }
    },
    {
      "type": "way",
      "id": 674028951,
      "center": {
        "lat": 12.9799277,
        "lon": 77.6170644
      },
      "tags": {
        "leisure": "garden"
      }
    },
    {
      "type": "way",
      "id": 674028953,
      "center": {
        "lat": 12.9802024,
        "lon": 77.6171231
      },
      "tags": {
        "access": "private",
        "amenity": "parking",
        "parking": "surface"
      }
    },
    {
      "type": "way",
      "id": 674028955,
      "center": {
        "lat": 12.9797894,
        "lon": 77.617344
      },
      "tags": {
        "leisure": "garden"
      }
    },
    {
      "type": "way",
      "id": 775448748,
      "center": {
        "lat": 12.9914454,
        "lon": 77.6136085
      },
      "tags": {
        "leisure": "pitch",
        "name": "St. John's Football Ground",
        "sport": "soccer"
      }
    },
    {
      "type": "way",
      "id": 775448749,
      "center": {
        "lat": 12.9920522,
        "lon": 77.612392
      },
      "tags": {
        "leisure": "pitch",
        "sport": "basketball"
      }
    },
    {
      "type": "way",
      "id": 1050589708,
      "center": {
        "lat": 12.9782933,
        "lon": 77.6109283
      },
      "tags": {
        "amenity": "school",
        "name": "Army Public School"
      }
    },
    {
      "type": "way",
      "id": 1051886122,
      "center": {
        "lat": 12.9912597,
        "lon": 77.6172381
      },
      "tags": {
        "leisure": "pitch",
        "sport": "tennis"
      }
    },
    {
      "type": "way",
      "id": 1051886124,
      "center": {
        "lat": 12.991261,
        "lon": 77.619072
      },
      "tags": {
        "leisure": "park"
      }
    },
    {
      "type": "way",
      "id": 1051886128,
      "center": {
        "lat": 12.9914384,
        "lon": 77.6129533
      },
      "tags": {
        "amenity": "community_centre",
        "community_centre": "parish_hall",
        "name": "St. John's Community Center",
        "name:en": "St. John's Community Center"
      }
    },
    {
      "type": "way",
      "id": 1051886131,
      "center": {
        "lat": 12.9908979,
        "lon": 77.6138419
      },
      "tags": {
        "amenity": "fuel",
        "brand": "Bharat Petroleum",
        "brand:wikidata": "Q854826",
        "compressed_air": "yes",
        "name": "Bharat Petroleum",
        "name:kn": "ಭಾರತ್ ಪೆಟ್ರೋಲಿಯಂ",
        "operator": "Bharat Petroleum"
      }
    },
    {
      "type": "way",
      "id": 1051886136,
      "center": {
        "lat": 12.993118,
        "lon": 77.6115447
      },
      "tags": {
        "access": "permissive",
        "amenity": "parking",
        "fee": "no",
        "parking": "surface"
      }
    },
    {
      "type": "way",
      "id": 1051886138,
      "center": {
        "lat": 12.9927713,
        "lon": 77.6119031
      },
      "tags": {
        "amenity": "school",
        "name": "St. Anthony's School"
      }
    },
    {
      "type": "way",
      "id": 1052463665,
      "center": {
        "lat": 12.9821415,
        "lon": 77.6151763
      },
      "tags": {
        "amenity": "college",
        "name": "RBANMS First Grade Evening College"
      }
    },
    {
      "type": "way",
      "id": 1052463666,
      "center": {
        "lat": 12.9817295,
        "lon": 77.6143469
      },
      "tags": {
        "alt_name": "SUFC",
        "leisure": "pitch",
        "name": "South United Football Club",
        "sport": "soccer",
        "surface": "artificial_turf"
      }
    },
    {
      "type": "way",
      "id": 1066854627,
      "center": {
        "lat": 12.9808072,
        "lon": 77.6124146
      },
      "tags": {
        "amenity": "school",
        "name": "RBANMS Middle School",
        "name:etymology:wikidata": "Q4787468"
      }
    },
    {
      "type": "way",
      "id": 1066854631,
      "center": {
        "lat": 12.9812941,
        "lon": 77.613018
      },
      "tags": {
        "amenity": "school",
        "name": "RBANMS High School",
        "name:etymology:wikidata": "Q4787468"
      }
    },
    {
      "type": "way",
      "id": 1066854635,
      "center": {
        "lat": 12.9818766,
        "lon": 77.6135517
      },
      "tags": {
        "leisure": "pitch",
        "sport": "cricket"
      }
    },
    {
      "type": "way",
      "id": 1066854636,
      "center": {
        "lat": 12.9821091,
        "lon": 77.6130276
      },
      "tags": {
        "leisure": "track",
        "sport": "athletics"
      }
    },
    {
      "type": "way",
      "id": 1066868600,
      "center": {
        "lat": 12.9819687,
        "lon": 77.612516
      },
      "tags": {
        "amenity": "post_office",
        "landuse": "commercial",
        "name": "Sivanchetti Garden Post Office"
      }
    },
    {
      "type": "way",
      "id": 1066902650,
      "center": {
        "lat": 12.9789135,
        "lon": 77.6066679
      },
      "tags": {
        "amenity": "school",
        "email": "tunbridgehs@gmail.com",
        "name": "Tunbridge High School",
        "phone": "+91 80 2950 1011",
        "school:gender": "mixed",
        "website": "https://www.tunbridgehs.com/"
      }
    },
    {
      "type": "way",
      "id": 1067945112,
      "center": {
        "lat": 12.9815129,
        "lon": 77.6122852
      },
      "tags": {
        "amenity": "place_of_worship",
        "name": "Brahmo Samaj",
        "name:kn": "ಬ್ರಹ್ಮ ಸಮಾಜ",
        "religion": "hindu"
      }
    },
    {
      "type": "way",
      "id": 1068769786,
      "center": {
        "lat": 12.9824189,
        "lon": 77.6146663
      },
      "tags": {
        "building": "kiosk",
        "name": "Nandini Dairy Parlour",
        "shop": "dairy"
      }
    },
    {
      "type": "way",
      "id": 1125007550,
      "center": {
        "lat": 12.9921005,
        "lon": 77.6252113
      },
      "tags": {
        "golf:course": "18_hole",
        "landuse": "grass",
        "leisure": "golf_course",
        "name": "MEG Golf Course"
      }
    },
    {
      "type": "way",
      "id": 1143988912,
      "center": {
        "lat": 12.9782082,
        "lon": 77.610731
      },
      "tags": {
        "amenity": "library",
        "building": "school",
        "name": "Secondary Section Library",
        "operator": "APS K Kamraj Bangalore",
        "operator:type": "school"
      }
    },
    {
      "type": "way",
      "id": 1157218000,
      "center": {
        "lat": 12.991951,
        "lon": 77.6074842
      },
      "tags": {
        "amenity": "community_centre",
        "name": "Shams Convention Centre"
      }
    },
    {
      "type": "way",
      "id": 1160807140,
      "center": {
        "lat": 12.9909202,
        "lon": 77.6067328
      },
      "tags": {
        "amenity": "place_of_worship",
        "denomination": "anglican",
        "name": "CSI Wesley Tamil Church",
        "religion": "christian"
      }
    },
    {
      "type": "way",
      "id": 1160807141,
      "center": {
        "lat": 12.9896172,
        "lon": 77.6101403
      },
      "tags": {
        "amenity": "school"
      }
    },
    {
      "type": "way",
      "id": 1160807142,
      "center": {
        "lat": 12.9900027,
        "lon": 77.6103196
      },
      "tags": {
        "amenity": "school",
        "name": "BBMP Girls School",
        "operator": "BBMP"
      }
    },
    {
      "type": "way",
      "id": 1160807143,
      "center": {
        "lat": 12.9901591,
        "lon": 77.6097106
      },
      "tags": {
        "amenity": "clinic",
        "building": "yes",
        "name": "BBMP Maternity Home",
        "official_name": "Seth Kishanlal Phoolchand Maternity Home",
        "operator": "BBMP",
        "start_date": "1957"
      }
    },
    {
      "type": "way",
      "id": 1171722760,
      "center": {
        "lat": 12.9848345,
        "lon": 77.6161119
      },
      "tags": {
        "amenity": "place_of_worship",
        "name": "Sri Chandraprabhu Jain Temple",
        "religion": "jain"
      }
    },
    {
      "type": "way",
      "id": 1235836660,
      "center": {
        "lat": 12.9781878,
        "lon": 77.612049
      },
      "tags": {
        "access": "private",
        "leisure": "pitch",
        "sport": "basketball"
      }
    },
    {
      "type": "way",
      "id": 1235836661,
      "center": {
        "lat": 12.9811592,
        "lon": 77.6144789
      },
      "tags": {
        "covered": "yes",
        "leisure": "pitch",
        "sport": "soccer",
        "surface": "artificial_turf"
      }
    },
    {
      "type": "way",
      "id": 1235836662,
      "center": {
        "lat": 12.9819239,
        "lon": 77.6139481
      },
      "tags": {
        "leisure": "bleachers"
      }
    },
    {
      "type": "way",
      "id": 1235836664,
      "center": {
        "lat": 12.9811704,
        "lon": 77.6142998
      },
      "tags": {
        "access": "customers",
        "amenity": "parking",
        "parking": "surface"
      }
    },
    {
      "type": "way",
      "id": 1235836665,
      "center": {
        "lat": 12.9810081,
        "lon": 77.6144577
      },
      "tags": {
        "access": "customers",
        "amenity": "parking",
        "parking": "surface"
      }
    },
    {
      "type": "way",
      "id": 1235866756,
      "center": {
        "lat": 12.9922229,
        "lon": 77.6176314
      },
      "tags": {
        "access": "private",
        "leisure": "swimming_pool"
      }
    },
    {
      "type": "way",
      "id": 1235995421,
      "center": {
        "lat": 12.9893901,
        "lon": 77.621104
      },
      "tags": {
        "access": "private",
        "leisure": "pitch",
        "sport": "tennis"
      }
    },
    {
      "type": "way",
      "id": 1254279082,
      "center": {
        "lat": 12.9785951,
        "lon": 77.6114956
      },
      "tags": {
        "access": "permissive",
        "hoops": "2",
        "leisure": "pitch",
        "name": "Basketball Court",
        "name:kn": "ಬಾಸ್ಕೆಟ್ ಬಾಲ್ ಅಂಕಣ",
        "sport": "basketball"
      }
    },
    {
      "type": "way",
      "id": 1278668472,
      "center": {
        "lat": 12.9934686,
        "lon": 77.6123451
      },
      "tags": {
        "amenity": "monastery",
        "community:gender": "female",
        "denomination": "catholic",
        "landuse": "religious",
        "name": "Tarbes Nivas",
        "religion": "christian"
      }
    },
    {
      "type": "way",
      "id": 1293926345,
      "center": {
        "lat": 12.9796518,
        "lon": 77.6108798
      },
      "tags": {
        "access": "permissive",
        "leisure": "pitch",
        "lit": "no",
        "name": "Army Public School Playground",
        "sport": "soccer",
        "surface": "artificial_turf"
      }
    },
    {
      "type": "way",
      "id": 1293929752,
      "center": {
        "lat": 12.9785815,
        "lon": 77.611801
      },
      "tags": {
        "access": "permissive",
        "hoops": "2",
        "leisure": "pitch",
        "name": "Basketball Court",
        "name:kn": "ಬಾಸ್ಕೆಟ್ ಬಾಲ್ ಅಂಕಣ",
        "sport": "basketball",
        "surface": "artificial_turf"
      }
    },
    {
      "type": "way",
      "id": 1293934375,
      "center": {
        "lat": 12.9786393,
        "lon": 77.6121974
      },
      "tags": {
        "addr:city": "Bengaluru",
        "addr:postcode": "560042",
        "addr:street": "FM Cariappa Colony, Sivanchetti Gardens",
        "amenity": "conference_centre",
        "building": "Auditorium",
        "name": "APS Auditorium"
      }
    },
    {
      "type": "way",
      "id": 1302996816,
      "center": {
        "lat": 12.9806268,
        "lon": 77.6155302
      },
      "tags": {
        "amenity": "place_of_worship",
        "landuse": "religious",
        "religion": "hindu"
      }
    },
    {
      "type": "way",
      "id": 1302996843,
      "center": {
        "lat": 12.9814208,
        "lon": 77.6130582
      },
      "tags": {
        "access": "private",
        "amenity": "parking",
        "parking": "surface"
      }
    },
    {
      "type": "way",
      "id": 1302996851,
      "center": {
        "lat": 12.9812853,
        "lon": 77.6110683
      },
      "tags": {
        "amenity": "school",
        "landuse": "education",
        "name": "RBANMS Primary School"
      }
    },
    {
      "type": "way",
      "id": 1303003799,
      "center": {
        "lat": 12.9818739,
        "lon": 77.6051116
      },
      "tags": {
        "amenity": "place_of_worship",
        "name": "St. Paul's Church",
        "name:kn": "ಸೈಂಟ್ ಪಾಲ್ಸ್ ಚರ್ಚ್",
        "religion": "christian",
        "wikidata": "Q19898480",
        "wikipedia": "en:St. Paul's Church, Bangalore"
      }
    },
    {
      "type": "way",
      "id": 1303003801,
      "center": {
        "lat": 12.982399,
        "lon": 77.605817
      },
      "tags": {
        "amenity": "place_of_worship",
        "check_date": "2023-04-07",
        "landuse": "religious",
        "religion": "hindu"
      }
    },
    {
      "type": "way",
      "id": 1304189526,
      "center": {
        "lat": 12.9873586,
        "lon": 77.6170219
      },
      "tags": {
        "access": "private",
        "amenity": "parking",
        "parking": "surface"
      }
    },
    {
      "type": "way",
      "id": 1304189527,
      "center": {
        "lat": 12.9870992,
        "lon": 77.6168483
      },
      "tags": {
        "access": "private",
        "amenity": "parking",
        "parking": "surface"
      }
    },
    {
      "type": "way",
      "id": 1311425977,
      "center": {
        "lat": 12.9929322,
        "lon": 77.6108023
      },
      "tags": {
        "leisure": "pitch",
        "sport": "basketball"
      }
    },
    {
      "type": "way",
      "id": 1349194555,
      "center": {
        "lat": 12.9876888,
        "lon": 77.6210655
      },
      "tags": {
        "amenity": "events_venue",
        "building": "yes"
      }
    },
    {
      "type": "way",
      "id": 1350607160,
      "center": {
        "lat": 12.9904005,
        "lon": 77.6190992
      },
      "tags": {
        "amenity": "community_centre",
        "name": "Young Men Indians' Association"
      }
    },
    {
      "type": "way",
      "id": 1350961413,
      "center": {
        "lat": 12.9819301,
        "lon": 77.6067654
      },
      "tags": {
        "amenity": "school",
        "name": "BBMP Girls' School"
      }
    },
    {
      "type": "way",
      "id": 1350961416,
      "center": {
        "lat": 12.9826673,
        "lon": 77.6058805
      },
      "tags": {
        "amenity": "place_of_worship",
        "check_date": "2023-04-07",
        "denomination": "sunni",
        "heritage": "2",
        "heritage:operator": "nmma",
        "heritage:website": "https://nmma.nic.in/nmma/exploreBuiltState.do?state=29",
        "name": "Jumma Masjid",
        "name:kn": "ಜಾಮ ಮಸೀದಿ",
        "ref:nmma": "KR03010435",
        "religion": "muslim",
        "source": "survey",
        "start_date": "1835",
        "wheelchair": "no"
      }
    },
    {
      "type": "way",
      "id": 1350961418,
      "center": {
        "lat": 12.9838682,
        "lon": 77.6040136
      },
      "tags": {
        "access": "customers",
        "amenity": "parking",
        "parking": "street_side"
      }
    },
    {
      "type": "way",
      "id": 1354158748,
      "center": {
        "lat": 12.9905501,
        "lon": 77.612502
      },
      "tags": {
        "amenity": "place_of_worship",
        "denomination": "anglican",
        "name": "CSI Memorial Church",
        "religion": "christian"
      }
    },
    {
      "type": "way",
      "id": 1354165119,
      "center": {
        "lat": 12.9908984,
        "lon": 77.6128963
      },
      "tags": {
        "amenity": "events_venue",
        "name": "CSI Memorial Hall"
      }
    },
    {
      "type": "way",
      "id": 1376987303,
      "center": {
        "lat": 12.9834167,
        "lon": 77.6111465
      },
      "tags": {
        "addr:city": "Bengaluru",
        "addr:housenumber": "44/A",
        "addr:postcode": "560042",
        "addr:street": "Kamaraj Road",
        "addr:suburb": "Shivajinagar",
        "alt_name": "RBANMS Institute of Studies",
        "amenity": "arts_centre",
        "contact:instagram": "sabhablr",
        "landuse": "commercial",
        "name": "Sabha",
        "note": "Formerly the RBANMS Institute of Studies which closed down in 2015",
        "old_name": "Chaturveda Siddantha Sabha School"
      }
    },
    {
      "type": "way",
      "id": 1377007429,
      "center": {
        "lat": 12.9900894,
        "lon": 77.6120014
      },
      "tags": {
        "leisure": "park"
      }
    },
    {
      "type": "way",
      "id": 1377007431,
      "center": {
        "lat": 12.9911983,
        "lon": 77.6120845
      },
      "tags": {
        "addr:city": "bangalore",
        "addr:postcode": "560005",
        "addr:street": "Frazer Town Police Station, Near-Mark Circle, Frazer Town",
        "amenity": "police",
        "name": "Bharthinagar Police Station",
        "name:kn": "ಭಾರತಿನಗರ ಆರಕ್ಷಕ ಠಾಣೆ",
        "phone": "080 2294 2548",
        "website": "NA"
      }
    },
    {
      "type": "way",
      "id": 1381418977,
      "center": {
        "lat": 12.9861309,
        "lon": 77.6161109
      },
      "tags": {
        "access": "permissive",
        "amenity": "parking",
        "capacity": "8",
        "parking": "surface"
      }
    },
    {
      "type": "way",
      "id": 1381418978,
      "center": {
        "lat": 12.9858532,
        "lon": 77.6165343
      },
      "tags": {
        "access": "permissive",
        "amenity": "parking",
        "capacity": "12",
        "parking": "surface"
      }
    },
    {
      "type": "way",
      "id": 1381418979,
      "center": {
        "lat": 12.9858045,
        "lon": 77.616076
      },
      "tags": {
        "access": "permissive",
        "amenity": "parking",
        "capacity": "9",
        "parking": "surface"
      }
    },
    {
      "type": "way",
      "id": 1409545078,
      "center": {
        "lat": 12.991834,
        "lon": 77.6147343
      },
      "tags": {
        "amenity": "fuel",
        "brand": "Hindustan Petroleum",
        "brand:wikidata": "Q1619375",
        "compressed_air": "yes",
        "name": "Hindustan Petroleum",
        "name:kn": "ಹಿಂದುಸ್ತಾನ್ ಪೆಟ್ರೋಲಿಯಂ",
        "official_name": "Hindustan Petroleum"
      }
    }
  ]
}