{
  "area_name": "Someshwarapura",
  "osm_id": 4533367168,
  "osm_type": "node",
  "place_type": "neighbourhood",
  "amenity_count": 565,
  "amenities": [
    {
      "type": "node",
      "id": 312832762,
      "lat": 12.9621887,
      "lon": 77.6363771,
      "tags": {
        "created_by": "Potlatch 0.10f",
        "shop": "bicycle"
      }
    },
    {
      "type": "node",
      "id": 316999234,
      "lat": 12.9651393,
      "lon": 77.6383211,
      "tags": {
        "addr:street": "Paramahansa Yogananda Road",
        "amenity": "restaurant",
        "name": "Simply Native"
      }
    },
    {
      "type": "node",
      "id": 710095029,
      "lat": 12.9643756,
      "lon": 77.6371873,
      "tags": {
        "addr:street": "4th Main Road",
        "amenity": "bar",
        "name": "Domlur Club"
      }
    },
    {
      "type": "node",
      "id": 1212309366,
      "lat": 12.9713009,
      "lon": 77.6347274,
      "tags": {
        "amenity": "atm",
        "brand": "IDBI Bank",
        "brand:wikidata": "Q3633485",
        "name": "IDBI Bank",
        "operator": "IDBI Bank",
        "operator:wikidata": "Q3633485",
        "short_name": "IDBI"
      }
    },
    {
      "type": "node",
      "id": 1282881158,
      "lat": 12.9711101,
      "lon": 77.6342171,
      "tags": {
        "amenity": "fast_food",
        "name": "Chat"
      }
    },
    {
      "type": "node",
      "id": 1328617006,
      "lat": 12.9700166,
      "lon": 77.6311695,
      "tags": {
        "amenity": "place_of_worship",
        "name": "Sai Baba Temple",
        "name:kn": "ಸಾಯಿಬಾಬಾ ದೇವಸ್ಥಾನ",
        "religion": "hindu"
      }
    },
    {
      "type": "node",
      "id": 1328617011,
      "lat": 12.9692586,
      "lon": 77.6286912,
      "tags": {
        "addr:city": "Bengaluru",
        "addr:housenumber": "15/39",
        "addr:postcode": "560008",
        "addr:street": "Cambridge Road, Halasuru Police Station Road, Halasuru",
        "name": "lal rakhra sports shop",
        "opening_hours": "10:00-20:00",
        "phone": "080 2555 5684",
        "shop": "sports"
      }
    },
    {
      "type": "node",
      "id": 1328617013,
      "lat": 12.9701421,
      "lon": 77.6314807,
      "tags": {
        "addr:street": "Sai Baba Mandira Road",
        "amenity": "pharmacy",
        "name": "Health and Glow"
      }
    },
    {
      "type": "node",
      "id": 1385984054,
      "lat": 12.967438,
      "lon": 77.6365796,
      "tags": {
        "addr:housenumber": "#23, 3rd B cross,",
        "addr:street": "1st Main Road,",
        "amenity": "cafe",
        "name": "StrEat Cafe"
      }
    },
    {
      "type": "node",
      "id": 1420105705,
      "lat": 12.9723006,
      "lon": 77.6392006,
      "tags": {
        "amenity": "fast_food",
        "cuisine": "rolls",
        "name": "Chakum Chukum"
      }
    },
    {
      "type": "node",
      "id": 1420105706,
      "lat": 12.9701103,
      "lon": 77.6373408,
      "tags": {
        "amenity": "ice_cream",
        "brand": "Corner House",
        "check_date": "2023-10-08",
        "delivery": "yes",
        "name": "Corner House",
        "shop": "confectionery",
        "takeaway": "yes"
      }
    },
    {
      "type": "node",
      "id": 1420105711,
      "lat": 12.9701438,
      "lon": 77.6376584,
      "tags": {
        "amenity": "bank",
        "atm": "yes",
        "brand": "HDFC Bank",
        "brand:wikidata": "Q631047",
        "name": "HDFC Bank",
        "name:kn": "ಎಚ್ ಡಿ ಎಫ್ ಸಿ",
        "short_name": "HDFC"
      }
    },
    {
      "type": "node",
      "id": 1420105853,
      "lat": 12.9698224,
      "lon": 77.6377171,
      "tags": {
        "amenity": "restaurant",
        "name": "Baan Phad Thai",
        "opening_hours": "Mo-Su 00:00-16:00,18:30-00:30"
      }
    },
    {
      "type": "node",
      "id": 1420105905,
      "lat": 12.9724613,
      "lon": 77.6391823,
      "tags": {
        "name": "Daily Bread",
        "shop": "bakery"
      }
    },
    {
      "type": "node",
      "id": 1543967418,
      "lat": 12.9720594,
      "lon": 77.6278089,
      "tags": {
        "addr:housename": "Bhavin Garments",
        "addr:housenumber": "12",
        "addr:postcode": "560008",
        "designation": "Manufacturer of Merchandise, Uniforms, Memorabilia, Books",
        "name": "Bhavin Garments",
        "shop": "clothes",
        "source": "Bhavin",
        "website": "www.studentsupplies.in , www.bhavingarments.com"
      }
    },
    {
      "type": "node",
      "id": 1543969345,
      "lat": 12.9719967,
      "lon": 77.6278036,
      "tags": {
        "addr:housename": "Ankur Nursery School",
        "addr:housenumber": "123, C/o Ankur Nursery School,",
        "addr:postcode": "560008",
        "addr:street": "Udani Layout, Cambridge Road",
        "amenity": "school",
        "designation": "Pre-School and Playhome",
        "name": "Ankur Nursery School",
        "source": "Bhavin"
      }
    },
    {
      "type": "node",
      "id": 1655553583,
      "lat": 12.9657761,
      "lon": 77.6365089,
      "tags": {
        "name": "Anveshanam",
        "shop": "travel_agency"
      }
    },
    {
      "type": "node",
      "id": 1655556504,
      "lat": 12.9653458,
      "lon": 77.6380532,
      "tags": {
        "amenity": "nursing_home",
        "name": "Enhanced Healthcare"
      }
    },
    {
      "type": "node",
      "id": 1655556505,
      "lat": 12.965378,
      "lon": 77.6379902,
      "tags": {
        "leisure": "fitness_centre",
        "name": "Fitness One",
        "name:hi": "फिटनेस वन",
        "name:kn": "ಫಿಟ್ ನೆಸ್ ಒನ್"
      }
    },
    {
      "type": "node",
      "id": 1655556512,
      "lat": 12.9664535,
      "lon": 77.6363465,
      "tags": {
        "addr:district": "Bengaluru Urban",
        "addr:full": "270, 3Road Cross, Domlur 2nd Stage",
        "addr:postcode": "560071",
        "addr:state": "Karnataka",
        "addr:street": "3rd Cross Road",
        "amenity": "clinic",
        "name": "Vital Medi Health Care Pvt Ltd",
        "source": "OpenGovernmentData",
        "wheelchair": "yes"
      }
    },
    {
      "type": "node",
      "id": 1655556669,
      "lat": 12.9649785,
      "lon": 77.6385321,
      "tags": {
        "addr:street": "Paramahansa Yogananda Road",
        "amenity": "restaurant",
        "cuisine": "indian",
        "name": "Nandhini",
        "name:kn": "ನಂದಿನಿ"
      }
    },
    {
      "type": "node",
      "id": 1857028750,
      "lat": 12.9683415,
      "lon": 77.638885,
      "tags": {
        "brand": "HOPCOMS",
        "brand:wikidata": "Q22908959",
        "name": "HOPCOMS",
        "name:kn": "ಹಾಪ್ ಕಾಮ್ಸ್",
        "shop": "greengrocer"
      }
    },
    {
      "type": "node",
      "id": 1857042208,
      "lat": 12.9683642,
      "lon": 77.6397574,
      "tags": {
        "name": "Best Bakes",
        "shop": "bakery"
      }
    },
    {
      "type": "node",
      "id": 1941464651,
      "lat": 12.9724588,
      "lon": 77.6260331,
      "tags": {
        "brand": "Nilgiri's",
        "brand:wikidata": "Q17079567",
        "check_date": "2023-10-12",
        "name": "Nilgiri's",
        "shop": "supermarket"
      }
    },
    {
      "type": "node",
      "id": 1941465446,
      "lat": 12.9725555,
      "lon": 77.6266554,
      "tags": {
        "amenity": "restaurant",
        "name": "Ruchi Restaurant"
      }
    },
    {
      "type": "node",
      "id": 1941640770,
      "lat": 12.9726902,
      "lon": 77.6389158,
      "tags": {
        "amenity": "kindergarten",
        "name": "Serra PreSchool"
      }
    },
    {
      "type": "node",
      "id": 2901080141,
      "lat": 12.9714443,
      "lon": 77.6350673,
      "tags": {
        "amenity": "restaurant",
        "name": "Khan Saheb"
      }
    },
    {
      "type": "node",
      "id": 3170038846,
      "lat": 12.9693531,
      "lon": 77.6248085,
      "tags": {
        "name": "Sabu collection",
        "shop": "clothes"
      }
    },
    {
      "type": "node",
      "id": 3198716239,
      "lat": 12.9662697,
      "lon": 77.6361076,
      "tags": {
        "addr:street": "3rd Cross Road",
        "amenity": "kindergarten",
        "name": "Jamati Montessri"
      }
    },
    {
      "type": "node",
      "id": 3198716241,
      "lat": 12.9661149,
      "lon": 77.6363934,
      "tags": {
        "addr:street": "3rd Cross Road",
        "amenity": "clinic",
        "name": "Ojus Medicare"
      }
    },
    {
      "type": "node",
      "id": 3198716242,
      "lat": 12.9661911,
      "lon": 77.636518,
      "tags": {
        "addr:street": "3rd Cross Road",
        "amenity": "kindergarten",
        "name": "Rainbow Playschool"
      }
    },
    {
      "type": "node",
      "id": 3369909138,
      "lat": 12.9767331,
      "lon": 77.6365444,
      "tags": {
        "addr:street": "Indiranagar Double Road",
        "amenity": "dentist",
        "healthcare": "dentist",
        "name": "Mascot Speciality Dental Clinic"
      }
    },
    {
      "type": "node",
      "id": 3369909139,
      "lat": 12.9758453,
      "lon": 77.636445,
      "tags": {
        "addr:housenumber": "#778",
        "leisure": "sports_centre",
        "name": "Stay Fit"
      }
    },
    {
      "type": "node",
      "id": 3369921219,
      "lat": 12.9757846,
      "lon": 77.6361056,
      "tags": {
        "addr:housenumber": "1312",
        "addr:street": "Indiranagar Double Road",
        "amenity": "bank",
        "brand": "Punjab & Sind Bank",
        "brand:en": "Punjab & Sind Bank",
        "brand:hi": "पंजाब एण्ड सिंध बैंक",
        "brand:ur": "پنجاب اینڈ سندھ بینک",
        "brand:website": "https://punjabandsindbank.co.in/",
        "brand:wikidata": "Q2003302",
        "name": "Punjab & Sind Bank",
        "name:en": "Punjab & Sind Bank",
        "name:hi": "पंजाब एण्ड सिंध बैंक",
        "name:pa": "ਪੰਜਾਬ ਐਂਡ ਸਿੰਧ ਬੈਂਕ",
        "name:ur": "پنجاب اینڈ سندھ بینک"
      }
    },
    {
      "type": "node",
      "id": 3370279044,
      "lat": 12.9766951,
      "lon": 77.6362278,
      "tags": {
        "addr:street": "Indiranagar Double Road (Paramahansa Yogananda road)",
        "amenity": "hospital",
        "healthcare": "hospital",
        "name": "Rashmi Hospital",
        "name:kn": "ರಶ್ಮಿ ಆಸ್ಪತ್ರೆ"
      }
    },
    {
      "type": "node",
      "id": 3370279046,
      "lat": 12.9768501,
      "lon": 77.6363291,
      "tags": {
        "air_conditioning": "yes",
        "description": "Our focus is on design innovation and promotion of handcrafted products made by skilled artisans using natural inputs which sustains and preserves the environment. We are dedicated towards preserving rich and vibrant traditional Indian art.",
        "name": "Jute Cottage",
        "payment:all": "yes",
        "shop": "gift",
        "source": "survey;local knowledge;gps;aerial imagery",
        "website": "https://www.jutecottage.co.in/"
      }
    },
    {
      "type": "node",
      "id": 3370283251,
      "lat": 12.9755127,
      "lon": 77.6360648,
      "tags": {
        "addr:housenumber": "1314",
        "addr:street": "Indiranagar Double Road (Paramahansa Yogananda road)",
        "amenity": "restaurant",
        "name": "Imperial Restaurant"
      }
    },
    {
      "type": "node",
      "id": 3370283252,
      "lat": 12.9754268,
      "lon": 77.6359973,
      "tags": {
        "addr:housenumber": "1315",
        "addr:street": "Indiranagar Double Road",
        "amenity": "clinic",
        "healthcare": "clinic",
        "name": "Speciality Clinic"
      }
    },
    {
      "type": "node",
      "id": 3370287787,
      "lat": 12.9754222,
      "lon": 77.636333,
      "tags": {
        "addr:street": "Indiranagar Double Road (Paramahansa Yogananda road)",
        "amenity": "clinic",
        "healthcare": "clinic",
        "name": "Dr.Spine Clinic"
      }
    },
    {
      "type": "node",
      "id": 3370453171,
      "lat": 12.9741726,
      "lon": 77.6357187,
      "tags": {
        "addr:housenumber": "58",
        "amenity": "bar",
        "name": "Aishwarya Bar N Restaurant"
      }
    },
    {
      "type": "node",
      "id": 3370453172,
      "lat": 12.97475,
      "lon": 77.635825,
      "tags": {
        "amenity": "restaurant",
        "cuisine": "indian",
        "name": "Annapoorani"
      }
    },
    {
      "type": "node",
      "id": 3370453173,
      "lat": 12.9734836,
      "lon": 77.6357281,
      "tags": {
        "amenity": "hospital",
        "healthcare": "hospital",
        "name": "Netradama Eye Hospital",
        "name:kn": "ನೇತ್ರಧಾಮ ಕಣ್ಣಿನ ಆಸ್ಪತ್ರೆ"
      }
    },
    {
      "type": "node",
      "id": 3370455929,
      "lat": 12.9742234,
      "lon": 77.6359937,
      "tags": {
        "amenity": "pharmacy",
        "healthcare": "pharmacy",
        "name": "Healing Touch Pharma"
      }
    },
    {
      "type": "node",
      "id": 3370455932,
      "lat": 12.9741296,
      "lon": 77.6359555,
      "tags": {
        "amenity": "atm",
        "brand": "Axis Bank",
        "brand:wikidata": "Q2003549",
        "name": "Axis Bank",
        "operator": "Axis Bank",
        "operator:wikidata": "Q2003549"
      }
    },
    {
      "type": "node",
      "id": 3374295114,
      "lat": 12.9742587,
      "lon": 77.6361742,
      "tags": {
        "name": "Oxford office solutions",
        "shop": "stationery"
      }
    },
    {
      "type": "node",
      "id": 3506436513,
      "lat": 12.9648261,
      "lon": 77.6382967,
      "tags": {
        "addr:street": "2nd A Cross",
        "amenity": "kindergarten",
        "name": "Maple Bear"
      }
    },
    {
      "type": "node",
      "id": 3556046903,
      "lat": 12.9780369,
      "lon": 77.633104,
      "tags": {
        "addr:street": "Chinmaya Mission Hospital Road",
        "amenity": "fast_food",
        "name": "Kolkata Famous Chats"
      }
    },
    {
      "type": "node",
      "id": 3556046904,
      "lat": 12.9780309,
      "lon": 77.6331524,
      "tags": {
        "name": "Neha Fancy",
        "shop": "clothes"
      }
    },
    {
      "type": "node",
      "id": 3556046905,
      "lat": 12.9780448,
      "lon": 77.6332441,
      "tags": {
        "amenity": "pharmacy",
        "healthcare": "pharmacy",
        "name": "Swathi Medical Store"
      }
    },
    {
      "type": "node",
      "id": 3556072045,
      "lat": 12.978044,
      "lon": 77.6333101,
      "tags": {
        "addr:housenumber": "670",
        "addr:postcode": "560038",
        "addr:street": "Chinmaya Mission Hospital Road",
        "name": "Fuzzy Wuzzy Pet Store",
        "opening_hours": "Mo-Su 10:00-21:30",
        "phone": "+919986801449",
        "shop": "pet",
        "website": "https://fuzzywuzzy.in/"
      }
    },
    {
      "type": "node",
      "id": 3562609093,
      "lat": 12.9752333,
      "lon": 77.6258831,
      "tags": {
        "amenity": "place_of_worship",
        "religion": "hindu"
      }
    },
    {
      "type": "node",
      "id": 3643239013,
      "lat": 12.9761885,
      "lon": 77.6260897,
      "tags": {
        "amenity": "fast_food",
        "name": "Bhai Ji's",
        "name:kn": "ಭಾಯ್‌ ಜೀಸ್"
      }
    },
    {
      "type": "node",
      "id": 3670482730,
      "lat": 12.9780899,
      "lon": 77.6334227,
      "tags": {
        "shop": "tea"
      }
    },
    {
      "type": "node",
      "id": 3721246028,
      "lat": 12.9708578,
      "lon": 77.6349102,
      "tags": {
        "amenity": "community_centre",
        "name": "Function Hall"
      }
    },
    {
      "type": "node",
      "id": 3837000083,
      "lat": 12.9726449,
      "lon": 77.6382683,
      "tags": {
        "amenity": "restaurant",
        "capacity": "25",
        "cuisine": "kerala",
        "delivery": "no",
        "name": "New Life Kerala Mess",
        "opening_hours": "Mo-Su 09:00-23:00",
        "smoking": "no",
        "takeaway": "yes"
      }
    },
    {
      "type": "node",
      "id": 3837007682,
      "lat": 12.9723182,
      "lon": 77.6370479,
      "tags": {
        "amenity": "restaurant",
        "cuisine": "steak_house",
        "delivery": "yes",
        "level": "1",
        "name": "The Grill House",
        "smoking": "no",
        "takeaway": "yes"
      }
    },
    {
      "type": "node",
      "id": 3837039785,
      "lat": 12.9730357,
      "lon": 77.6356907,
      "tags": {
        "addr:street": "6th Main",
        "amenity": "fast_food",
        "cuisine": "rolls",
        "name": "New Roll Centre",
        "opening_hours": "Mo-Su 12:00-23:00",
        "takeaway": "only"
      }
    },
    {
      "type": "node",
      "id": 3837441455,
      "lat": 12.970003,
      "lon": 77.6310087,
      "tags": {
        "addr:housenumber": "114",
        "addr:street": "Sai Baba Mandira Road",
        "amenity": "fast_food",
        "cuisine": "indian",
        "delivery": "no",
        "diet:vegetarian": "yes",
        "name": "Om Sai Skanda Dosa Camp"
      }
    },
    {
      "type": "node",
      "id": 3838171840,
      "lat": 12.9689288,
      "lon": 77.6359296,
      "tags": {
        "addr:housenumber": "3168",
        "addr:street": "Indiranagar Double Road",
        "amenity": "library",
        "level": "0",
        "name": "Just Books",
        "opening_hours": "Tu-Su 10:00-21:00",
        "website": "http://justbooksclc.com/"
      }
    },
    {
      "type": "node",
      "id": 3838426329,
      "lat": 12.970293,
      "lon": 77.6357695,
      "tags": {
        "amenity": "fast_food",
        "cuisine": "rolls",
        "delivery": "yes",
        "name": "Pathaan Sir"
      }
    },
    {
      "type": "node",
      "id": 3838428440,
      "lat": 12.9726022,
      "lon": 77.6346269,
      "tags": {
        "level": "-1",
        "name": "Sri Vasavi Super Market",
        "shop": "convenience"
      }
    },
    {
      "type": "node",
      "id": 3838472766,
      "lat": 12.9730537,
      "lon": 77.6351916,
      "tags": {
        "name": "Karnataka Bakery",
        "shop": "convenience"
      }
    },
    {
      "type": "node",
      "id": 3838473034,
      "lat": 12.9728923,
      "lon": 77.6347705,
      "tags": {
        "name": "Nagasree Bakery",
        "shop": "convenience"
      }
    },
    {
      "type": "node",
      "id": 3839535784,
      "lat": 12.9663676,
      "lon": 77.6372366,
      "tags": {
        "addr:housenumber": "225",
        "addr:street": "Indiranagar Double Road",
        "amenity": "restaurant",
        "cuisine": "chinese",
        "level": "0",
        "name": "Chung's Pavillion"
      }
    },
    {
      "type": "node",
      "id": 3839535785,
      "lat": 12.9663977,
      "lon": 77.6372165,
      "tags": {
        "addr:housenumber": "225",
        "addr:street": "Indiranagar Double Road",
        "amenity": "pharmacy",
        "name": "Fortis Healthworld"
      }
    },
    {
      "type": "node",
      "id": 3840557162,
      "lat": 12.9730736,
      "lon": 77.6351922,
      "tags": {
        "addr:housenumber": "1100",
        "name": "Santosh Tailors",
        "shop": "tailor"
      }
    },
    {
      "type": "node",
      "id": 3842746873,
      "lat": 12.963907,
      "lon": 77.6386951,
      "tags": {
        "addr:housenumber": "151",
        "addr:street": "2nd Cross Road",
        "alt_name": "Sante Spa Cuisine",
        "amenity": "restaurant",
        "contact:instagram": "santebangalore",
        "cuisine": "indian;international;italian;pasta;pizza;thai",
        "diet:vegan": "yes",
        "diet:vegetarian": "yes",
        "name": "Santé Spa Cuisine",
        "opening_hours": "Mo-Su 11:00-23:00",
        "shop": "pastry",
        "takeaway": "yes",
        "toilets": "yes",
        "wheelchair": "limited"
      }
    },
    {
      "type": "node",
      "id": 3891289957,
      "lat": 12.974595,
      "lon": 77.636203,
      "tags": {
        "amenity": "post_office",
        "name": "Blue Dart / DHL"
      }
    },
    {
      "type": "node",
      "id": 3961375648,
      "lat": 12.9779131,
      "lon": 77.6328957,
      "tags": {
        "addr:street": "17th E Cross",
        "amenity": "restaurant",
        "capacity": "50",
        "cuisine": "coorg",
        "level": "1",
        "name": "Hotel Dil Coorg",
        "takeaway": "yes"
      }
    },
    {
      "type": "node",
      "id": 3961390829,
      "lat": 12.9728596,
      "lon": 77.6347745,
      "tags": {
        "name": "Safa Super Bazar",
        "shop": "convenience"
      }
    },
    {
      "type": "node",
      "id": 4178906396,
      "lat": 12.9664528,
      "lon": 77.6371221,
      "tags": {
        "amenity": "atm",
        "opening_hours": "24/7"
      }
    },
    {
      "type": "node",
      "id": 4195432539,
      "lat": 12.9702478,
      "lon": 77.6357689,
      "tags": {
        "addr:city": "Indiranagar, Bangalore",
        "addr:housenumber": "Srinivasan Towers",
        "addr:postcode": "560038",
        "addr:street": "Double Road",
        "amenity": "restaurant",
        "delivery": "yes",
        "name": "Suryawanshi",
        "phone": "080 49653148",
        "smoking": "no",
        "takeaway": "yes"
      }
    },
    {
      "type": "node",
      "id": 4202209080,
      "lat": 12.968352,
      "lon": 77.6361835,
      "tags": {
        "addr:city": "HAL 2nd Stage, Indiranagar",
        "addr:housenumber": "3169/c",
        "addr:postcode": "560038",
        "addr:street": "Double Road",
        "laundry_service": "yes",
        "name": "Sancy's Laundrette",
        "self_service": "no",
        "shop": "laundry"
      }
    },
    {
      "type": "node",
      "id": 4211849403,
      "lat": 12.9732665,
      "lon": 77.6384811,
      "tags": {
        "amenity": "place_of_worship",
        "name": "Adi Shakti Yelamma Temple",
        "name:kn": "ಆದಿಶಕ್ತಿ ಯಲ್ಲಮ್ಮ ದೇವಸ್ಥಾನ",
        "religion": "hindu"
      }
    },
    {
      "type": "node",
      "id": 4211878795,
      "lat": 12.9744534,
      "lon": 77.6388972,
      "tags": {
        "amenity": "restaurant",
        "name": "Sri Raghavendra Darshini"
      }
    },
    {
      "type": "node",
      "id": 4256250292,
      "lat": 12.9645114,
      "lon": 77.638624,
      "tags": {
        "addr:housenumber": "172",
        "addr:street": "2nd cross domlur 2nd stage",
        "amenity": "restaurant",
        "description": "Cafe",
        "name": "Casa Fresco by Tea Brew"
      }
    },
    {
      "type": "node",
      "id": 4272948387,
      "lat": 12.9770418,
      "lon": 77.6328323,
      "tags": {
        "name": "Aquaverse",
        "pet": "fish",
        "shop": "pet",
        "tourism": "aquarium"
      }
    },
    {
      "type": "node",
      "id": 4272948388,
      "lat": 12.9780154,
      "lon": 77.6334331,
      "tags": {
        "name": "Dlecta Foods Private Limited",
        "phone": "+917411177799",
        "shop": "dairy"
      }
    },
    {
      "type": "node",
      "id": 4272948489,
      "lat": 12.9780533,
      "lon": 77.6330968,
      "tags": {
        "name": "Limra Fashion for Ladies and Kids",
        "shop": "tailor"
      }
    },
    {
      "type": "node",
      "id": 4272948490,
      "lat": 12.9777187,
      "lon": 77.6333365,
      "tags": {
        "name": "Satin Soft Salon and Boutique",
        "opening_hours": "Mo-Fr 09:00-21:00",
        "shop": "clothes"
      }
    },
    {
      "type": "node",
      "id": 4272948491,
      "lat": 12.9779357,
      "lon": 77.6332748,
      "tags": {
        "clothes": "women",
        "name": "Sri Krishna Akarshan Boutique",
        "shop": "clothes"
      }
    },
    {
      "type": "node",
      "id": 4286285297,
      "lat": 12.977683,
      "lon": 77.632226,
      "tags": {
        "addr:housenumber": "134",
        "addr:street": "18th",
        "description": "auto repair",
        "name": "Sri Vinayaka Motors",
        "shop": "motorcycle_repair"
      }
    },
    {
      "type": "node",
      "id": 4286285299,
      "lat": 12.9769262,
      "lon": 77.631936,
      "tags": {
        "addr:street": "1st main",
        "amenity": "place_of_worship",
        "description": "temple",
        "name": "Anniyamma temple",
        "name:kn": "ಅಣ್ಣಿಯಮ್ಮ ದೇವಸ್ಥಾನ",
        "religion": "hindu"
      }
    },
    {
      "type": "node",
      "id": 4286285300,
      "lat": 12.9770585,
      "lon": 77.6318947,
      "tags": {
        "addr:housenumber": "22",
        "addr:street": "lakshmipuram 1st main road",
        "description": "rice store",
        "name": "Annapurneshwari rice corner",
        "shop": "greengrocer"
      }
    },
    {
      "type": "node",
      "id": 4286285302,
      "lat": 12.9772166,
      "lon": 77.631572,
      "tags": {
        "addr:housenumber": "20",
        "addr:street": "1st Main Road",
        "amenity": "atm",
        "brand": "ICICI Bank",
        "brand:wikidata": "Q1653258",
        "name": "ICICI Bank",
        "operator": "ICICI Bank",
        "operator:wikidata": "Q1653258",
        "short_name": "ICICI"
      }
    },
    {
      "type": "node",
      "id": 4286285433,
      "lat": 12.9778564,
      "lon": 77.6322647,
      "tags": {
        "addr:street": "18th cross",
        "description": "kitchen essentials",
        "name": "Jayana",
        "shop": "doityourself"
      }
    },
    {
      "type": "node",
      "id": 4286285468,
      "lat": 12.9772038,
      "lon": 77.6316324,
      "tags": {
        "addr:housenumber": "12",
        "addr:street": "lakshmipuram 1st main road",
        "check_date": "2024-02-06",
        "description": "vegetable and fruit stall",
        "internet_access": "no",
        "name": "Mithra vegetable and fruit stall",
        "organic": "yes",
        "payment:cards": "no",
        "payment:cash": "yes",
        "payment:credit_cards": "no",
        "payment:debit_cards": "no",
        "shop": "greengrocer",
        "wheelchair": "no"
      }
    },
    {
      "type": "node",
      "id": 4286285517,
      "lat": 12.9777082,
      "lon": 77.6323407,
      "tags": {
        "addr:housenumber": "111(3/1)",
        "addr:street": "18th Cross Road",
        "amenity": "hospital",
        "description": "hospital",
        "healthcare": "hospital",
        "name": "Ameena Medical centre"
      }
    },
    {
      "type": "node",
      "id": 4294801429,
      "lat": 12.9719937,
      "lon": 77.635835,
      "tags": {
        "amenity": "pharmacy",
        "healthcare": "pharmacy",
        "name": "Shree Guru Ganesh Pharma"
      }
    },
    {
      "type": "node",
      "id": 4294801430,
      "lat": 12.9729346,
      "lon": 77.6357245,
      "tags": {
        "amenity": "restaurant",
        "name": "Laban Palace"
      }
    },
    {
      "type": "node",
      "id": 4294801431,
      "lat": 12.9729985,
      "lon": 77.6357302,
      "tags": {
        "amenity": "pharmacy",
        "healthcare": "pharmacy",
        "level": "1",
        "name": "The Homeo Centre"
      }
    },
    {
      "type": "node",
      "id": 4294801432,
      "lat": 12.9733837,
      "lon": 77.6360035,
      "tags": {
        "amenity": "restaurant",
        "name": "Srinidhi Sagar Foodline"
      }
    },
    {
      "type": "node",
      "id": 4294801602,
      "lat": 12.9728794,
      "lon": 77.6357245,
      "tags": {
        "amenity": "restaurant",
        "level": "0",
        "name": "Rayaru's Kitchen"
      }
    },
    {
      "type": "node",
      "id": 4294801604,
      "lat": 12.9731905,
      "lon": 77.6359606,
      "tags": {
        "amenity": "restaurant",
        "name": "Byte"
      }
    },
    {
      "type": "node",
      "id": 4294810638,
      "lat": 12.9727077,
      "lon": 77.6347589,
      "tags": {
        "amenity": "place_of_worship",
        "name": "Sri Kolluru Mookambika Temple",
        "religion": "hindu"
      }
    },
    {
      "type": "node",
      "id": 4294810899,
      "lat": 12.9737814,
      "lon": 77.6359277,
      "tags": {
        "amenity": "pharmacy",
        "healthcare": "pharmacy",
        "name": "SLV Sagar Pharma"
      }
    },
    {
      "type": "node",
      "id": 4315512757,
      "lat": 12.9696986,
      "lon": 77.6362493,
      "tags": {
        "amenity": "clinic",
        "healthcare": "clinic",
        "name": "Diacure Diagnostics"
      }
    },
    {
      "type": "node",
      "id": 4315512758,
      "lat": 12.9696957,
      "lon": 77.6361088,
      "tags": {
        "check_date": "2025-03-14",
        "name": "Fenesta",
        "shop": "furniture"
      }
    },
    {
      "type": "node",
      "id": 4315529532,
      "lat": 12.9697275,
      "lon": 77.6375066,
      "tags": {
        "name": "Autoline",
        "shop": "car_parts"
      }
    },
    {
      "type": "node",
      "id": 4315529537,
      "lat": 12.9697027,
      "lon": 77.6374704,
      "tags": {
        "amenity": "bureau_de_change",
        "check_date": "2023-10-08",
        "name": "Rupeezone"
      }
    },
    {
      "type": "node",
      "id": 4315548870,
      "lat": 12.9698176,
      "lon": 77.6380759,
      "tags": {
        "amenity": "events_venue",
        "name": "De Courtyard Banquet"
      }
    },
    {
      "type": "node",
      "id": 4315548871,
      "lat": 12.969885,
      "lon": 77.6385058,
      "tags": {
        "leisure": "fitness_station",
        "name": "Propel",
        "sport": "fitness"
      }
    },
    {
      "type": "node",
      "id": 4315548872,
      "lat": 12.9699033,
      "lon": 77.638539,
      "tags": {
        "amenity": "bank",
        "atm": "yes",
        "brand": "South Indian Bank",
        "brand:wikidata": "Q2044973",
        "brand:wikipedia": "en:South Indian Bank",
        "check_date": "2023-10-08",
        "name": "South Indian Bank"
      }
    },
    {
      "type": "node",
      "id": 4315563373,
      "lat": 12.9699905,
      "lon": 77.6403837,
      "tags": {
        "amenity": "restaurant",
        "check_date": "2024-08-22",
        "cuisine": "italian",
        "name": "Chianti"
      }
    },
    {
      "type": "node",
      "id": 4315563374,
      "lat": 12.9699237,
      "lon": 77.6396323,
      "tags": {
        "amenity": "restaurant",
        "cuisine": "vietnamese",
        "name": "Phobidden Fruit"
      }
    },
    {
      "type": "node",
      "id": 4315639154,
      "lat": 12.9699374,
      "lon": 77.6377839,
      "tags": {
        "amenity": "bench"
      }
    },
    {
      "type": "node",
      "id": 4319165252,
      "lat": 12.9722993,
      "lon": 77.6372001,
      "tags": {
        "amenity": "dentist",
        "healthcare": "dentist",
        "name": "Specialists Dental Center"
      }
    },
    {
      "type": "node",
      "id": 4319165253,
      "lat": 12.972284,
      "lon": 77.6372136,
      "tags": {
        "name": "Sree VIdya Stores",
        "shop": "convenience"
      }
    },
    {
      "type": "node",
      "id": 4319165254,
      "lat": 12.9722792,
      "lon": 77.6371823,
      "tags": {
        "name": "White Way Cleaners",
        "shop": "dry_cleaning"
      }
    },
    {
      "type": "node",
      "id": 4322757093,
      "lat": 12.9700574,
      "lon": 77.6364117,
      "tags": {
        "amenity": "spa",
        "name": "Les Cheveux Spa"
      }
    },
    {
      "type": "node",
      "id": 4322765784,
      "lat": 12.9700837,
      "lon": 77.6367186,
      "tags": {
        "name": "Blind Love Custom Crafted blinds",
        "shop": "interior_decoration"
      }
    },
    {
      "type": "node",
      "id": 4322765785,
      "lat": 12.9701016,
      "lon": 77.6370093,
      "tags": {
        "name": "Cool Club",
        "shop": "clothes"
      }
    },
    {
      "type": "node",
      "id": 4322772452,
      "lat": 12.9701688,
      "lon": 77.6372519,
      "tags": {
        "amenity": "clinic",
        "healthcare": "clinic",
        "name": "Astha Centre of Autism"
      }
    },
    {
      "type": "node",
      "id": 4322772453,
      "lat": 12.9701186,
      "lon": 77.6371441,
      "tags": {
        "name": "House of Tamara",
        "shop": "clothes"
      }
    },
    {
      "type": "node",
      "id": 4322772454,
      "lat": 12.9701484,
      "lon": 77.6372594,
      "tags": {
        "amenity": "clinic",
        "contact:phone": "080 25262515",
        "name": "Kerala Ayurvedic clinic",
        "opening_hours": "09:30-01:00,15:00-19:30"
      }
    },
    {
      "type": "node",
      "id": 4322779012,
      "lat": 12.9701753,
      "lon": 77.638267,
      "tags": {
        "amenity": "restaurant",
        "name": "Slurp Cooking Studio"
      }
    },
    {
      "type": "node",
      "id": 4322781163,
      "lat": 12.9701712,
      "lon": 77.6383901,
      "tags": {
        "amenity": "bar",
        "check_date": "2023-10-08",
        "name": "Tycoons",
        "opening_hours:covid19": "closed"
      }
    },
    {
      "type": "node",
      "id": 4322781164,
      "lat": 12.9702457,
      "lon": 77.6383932,
      "tags": {
        "amenity": "bar",
        "check_date": "2024-07-18",
        "name": "Hangover"
      }
    },
    {
      "type": "node",
      "id": 4322794144,
      "lat": 12.9702111,
      "lon": 77.6392091,
      "tags": {
        "amenity": "spa",
        "check_date": "2024-05-15",
        "name": "Ruan Thai spa"
      }
    },
    {
      "type": "node",
      "id": 4322794145,
      "lat": 12.9702025,
      "lon": 77.6389092,
      "tags": {
        "amenity": "restaurant",
        "name": "Citrus",
        "payment:credit_cards": "yes",
        "payment:debit_cards": "yes"
      }
    },
    {
      "type": "node",
      "id": 4322794146,
      "lat": 12.9702185,
      "lon": 77.6390612,
      "tags": {
        "amenity": "spa;saloon;cafe",
        "name": "Divas and dudes"
      }
    },
    {
      "type": "node",
      "id": 4322794147,
      "lat": 12.9702633,
      "lon": 77.6390562,
      "tags": {
        "leisure": "fitness_centre",
        "name": "Fitness studio"
      }
    },
    {
      "type": "node",
      "id": 4322794148,
      "lat": 12.9702408,
      "lon": 77.6392223,
      "tags": {
        "amenity": "bar",
        "check_date": "2024-10-13",
        "name": "The Reservoire"
      }
    },
    {
      "type": "node",
      "id": 4322794149,
      "lat": 12.9702343,
      "lon": 77.6391972,
      "tags": {
        "addr:floor": "1",
        "check_date": "2024-10-13",
        "level": "1",
        "name": "Suta",
        "shop": "bakery"
      }
    },
    {
      "type": "node",
      "id": 4322794150,
      "lat": 12.9702045,
      "lon": 77.638934,
      "tags": {
        "amenity": "spa",
        "check_date": "2024-05-15",
        "level": "2",
        "name": "BBLUNT",
        "name:en": "BBLUNT"
      }
    },
    {
      "type": "node",
      "id": 4322796484,
      "lat": 12.9703059,
      "lon": 77.6394339,
      "tags": {
        "amenity": "restaurant",
        "check_date": "2023-10-11",
        "name": "Delhi Highway"
      }
    },
    {
      "type": "node",
      "id": 4322801616,
      "lat": 12.9703542,
      "lon": 77.6401833,
      "tags": {
        "name": "Crystal homes",
        "shop": "interior_decoration"
      }
    },
    {
      "type": "node",
      "id": 4322801617,
      "lat": 12.9703156,
      "lon": 77.6400317,
      "tags": {
        "name": "Lakme Saloon",
        "payment:credit_cards": "yes",
        "payment:debit_cards": "yes",
        "shop": "beauty"
      }
    },
    {
      "type": "node",
      "id": 4322812542,
      "lat": 12.9700356,
      "lon": 77.6362439,
      "tags": {
        "amenity": "hospital",
        "healthcare": "hospital",
        "name": "Dr.Agarwal Eye & Dental Hospital"
      }
    },
    {
      "type": "node",
      "id": 4373282593,
      "lat": 12.9731447,
      "lon": 77.6354155,
      "tags": {
        "amenity": "place_of_worship",
        "name": "Temple",
        "name:en": "Temple",
        "name:kn": "ದೇವಸ್ಥಾನ",
        "religion": "hindu"
      }
    },
    {
      "type": "node",
      "id": 4373340995,
      "lat": 12.9711603,
      "lon": 77.6343125,
      "tags": {
        "name": "Sahil Cycle Store",
        "name:en": "Sahil Cycle Store",
        "shop": "bicycle"
      }
    },
    {
      "type": "node",
      "id": 4382238221,
      "lat": 12.9684698,
      "lon": 77.6404858,
      "tags": {
        "amenity": "restaurant",
        "name": "Pot-O-Noodles"
      }
    },
    {
      "type": "node",
      "id": 4405318689,
      "lat": 12.9672394,
      "lon": 77.6376731,
      "tags": {
        "amenity": "place_of_worship",
        "name": "Temple",
        "name:en": "Temple",
        "religion": "hindu"
      }
    },
    {
      "type": "node",
      "id": 4445139977,
      "lat": 12.9703581,
      "lon": 77.63022,
      "tags": {
        "addr:city": "Bangalore",
        "addr:housenumber": "58/1",
        "addr:postcode": "560008",
        "addr:street": "3rd main shridi sai baba mandir road, Cambridge layout halasuru",
        "amenity": "hospital",
        "name": "Indianova Healthcare Pvt Ltd",
        "phone": "+9197390 07505",
        "website": "indianovahealthcare.com"
      }
    },
    {
      "type": "node",
      "id": 4445595170,
      "lat": 12.9717331,
      "lon": 77.6357884,
      "tags": {
        "addr:housenumber": "3146",
        "addr:postcode": "560038",
        "addr:street": "7th Main Road Shirdi Sai Baba Mandir Road, Eshwara Layout, Indira Nagar",
        "amenity": "clinic",
        "healthcare": "clinic",
        "name": "Mother And Child Clinic",
        "phone": "+9198455 59050"
      }
    },
    {
      "type": "node",
      "id": 4445607998,
      "lat": 12.9702378,
      "lon": 77.6356539,
      "tags": {
        "addr:city": "Bangalore",
        "addr:housenumber": "3155",
        "addr:postcode": "560038",
        "addr:street": "Service Road, Hal 2nd Stage, Near-ESI Hospital, Indiranagar",
        "amenity": "pharmacy",
        "healthcare": "pharmacy",
        "name": "Shri Siddhanth Pharma",
        "phone": "080 2520 0422"
      }
    },
    {
      "type": "node",
      "id": 4446217021,
      "lat": 12.9666655,
      "lon": 77.6366205,
      "tags": {
        "addr:city": "bangalore",
        "addr:postcode": "560008",
        "addr:street": "3rd Cross Road, Defence Colony, Indiranagar Stage 2,",
        "amenity": "clinic",
        "name": "Kosmoderma Skin & Hair Clinics",
        "phone": "080 2535 2211",
        "website": "https://kosmoderma.com/"
      }
    },
    {
      "type": "node",
      "id": 4446227973,
      "lat": 12.966146,
      "lon": 77.6373342,
      "tags": {
        "addr:city": "bangalore",
        "addr:postcode": "560071",
        "addr:street": "1st Floor, 1st Main, Domlur 2nd Stage, Indiranagar",
        "amenity": "clinic",
        "name": "New Look Laser Clinic",
        "phone": "080 4152 5754",
        "website": "newlookskinclinic.com"
      }
    },
    {
      "type": "node",
      "id": 4446247021,
      "lat": 12.964155,
      "lon": 77.6387585,
      "tags": {
        "addr:city": "Bangalore",
        "addr:housenumber": "166",
        "addr:postcode": "560071",
        "addr:street": "2nd Cross, 2nd Stage, 2nd Cross Rd, Stage 2, Domlur",
        "amenity": "dentist",
        "name": "Dental Clinic",
        "phone": "080 2535 6707",
        "website": "https://vibhadental.com/"
      }
    },
    {
      "type": "node",
      "id": 4446857201,
      "lat": 12.9667253,
      "lon": 77.6378289,
      "tags": {
        "addr:city": "Bengaluru",
        "addr:housenumber": "3718",
        "addr:postcode": "560008",
        "addr:street": "10th Cross Rd, Doopanahalli, Indiranagar, Karnataka",
        "amenity": "hospital",
        "name": "Ayur jagruti",
        "phone": "+9196633 81398",
        "website": "facebook.com"
      }
    },
    {
      "type": "node",
      "id": 4487984593,
      "lat": 12.9711228,
      "lon": 77.6342464,
      "tags": {
        "addr:city": "Bangalore",
        "addr:housenumber": "3192",
        "addr:postcode": "560038",
        "addr:street": "HAL 2nd Stage 7th Main, Shirdi Sai Baba Mandir Rd, Indiranagar,",
        "name": "Noah Sports Store",
        "opening_hours": "10:00-20:00",
        "phone": "+9198458 12465",
        "shop": "sports"
      }
    },
    {
      "type": "node",
      "id": 4488009528,
      "lat": 12.9673396,
      "lon": 77.6363022,
      "tags": {
        "addr:city": "Bengaluru",
        "addr:full": ", 1st Main Road, Domlur, 2nd Stage, Indiranagar, Bhadrappa Layout, Stage 2, Domlur;3 B Cross",
        "addr:housenumber": "20",
        "addr:postcode": "560071",
        "addr:street": "3 B Cross Road",
        "brand": "ProCycle",
        "fee": "yes",
        "name": "ProCycle",
        "opening_hours": "10:00-20:30; We-Mo 07:00-22:00",
        "operator": "ProCycle and Sports India Pvt. Ltd.",
        "phone": "080 2535 2004",
        "service:bicycle:Bicycle_Sales_and_Service": "yes",
        "service:bicycle:chain_tool": "yes",
        "service:bicycle:cleaning": "yes",
        "service:bicycle:mtb": "yes",
        "service:bicycle:parts": "yes",
        "service:bicycle:repair": "yes",
        "service:bicycle:retail": "yes",
        "service:bicycle:screwdriver": "yes",
        "service:bicycle:tools": "yes",
        "shop": "bicycle",
        "website": "https://www.procycle.in/"
      }
    },
    {
      "type": "node",
      "id": 4488018492,
      "lat": 12.9747522,
      "lon": 77.6329973,
      "tags": {
        "addr:housenumber": "91/72",
        "addr:street": "7th Cross Road, 2nd Stage, Eshwara Layout, Indiranagar",
        "name": "Citi Nest Sports Centre",
        "opening_hours": "05:00-00:00",
        "phone": "080 2525 8287",
        "shop": "sports"
      }
    },
    {
      "type": "node",
      "id": 4488087436,
      "lat": 12.9761039,
      "lon": 77.6267652,
      "tags": {
        "addr:city": "Bangalore",
        "addr:housenumber": "132",
        "addr:postcode": "560008",
        "addr:street": "Swamy Vivekananda Road (Old Madras Road), Kadiranapalya, Indira Nagar",
        "name": "RR Cycles",
        "opening_hours": "11:00-21:00",
        "phone": "080 4113 4142",
        "shop": "sports"
      }
    },
    {
      "type": "node",
      "id": 4488197771,
      "lat": 12.961351,
      "lon": 77.6348885,
      "tags": {
        "addr:city": "Bangalore",
        "addr:housenumber": "10",
        "addr:postcode": "560071",
        "addr:street": "HAL Airport Road",
        "name": "Sri Chamudeshwari Sports Link And Fitness",
        "phone": "080-41203073",
        "shop": "sports"
      }
    },
    {
      "type": "node",
      "id": 4488481387,
      "lat": 12.9660726,
      "lon": 77.6374507,
      "tags": {
        "addr:city": "bangalore",
        "addr:postcode": "560071",
        "addr:street": "Sai Baba Temple Road, Kundanahalli Gate, Kundalahalli,",
        "name": "Namdharis Fresh",
        "opening_hours": "07:00-21:00",
        "phone": "(91)-9164286757",
        "shop": "supermarket",
        "website": "nambhdarifresh.com"
      }
    },
    {
      "type": "node",
      "id": 4489092751,
      "lat": 12.9713439,
      "lon": 77.6348117,
      "tags": {
        "addr:city": "Bangalore",
        "addr:housenumber": "3192",
        "addr:postcode": "560038",
        "addr:street": "HAL 2nd Stage 7th Main, Shirdi Sai Baba Mandir Rd, Bhadrappa Layout, Indiranagar",
        "name": "Noah Sports Store",
        "opening_hours": "10:00-21:30",
        "phone": "098458 12465",
        "shop": "sports",
        "website": "https://noahsports.in/"
      }
    },
    {
      "type": "node",
      "id": 4489922189,
      "lat": 12.9696655,
      "lon": 77.6383191,
      "tags": {
        "addr:city": "Bangalore",
        "addr:housenumber": "1096, 12th A Main Rd, Near Corporation Bank",
        "addr:postcode": "560008",
        "addr:street": ", Doopanahalli, Indira Nagar",
        "check_date": "2025-08-21",
        "check_date:opening_hours": "2025-08-21",
        "name": "Body Raaga Wellness Spa",
        "opening_hours": "10:00-21:30",
        "phone": "080500 02828",
        "shop": "beauty",
        "website": "https://www.bodyraaga.com/"
      }
    },
    {
      "type": "node",
      "id": 4490237942,
      "lat": 12.9714764,
      "lon": 77.6389942,
      "tags": {
        "addr:city": "Bangalore",
        "addr:housenumber": "948, 12th Main Road",
        "addr:postcode": "560008",
        "addr:street": "HAL 2nd Stage, Indiranagar, Bhadrappa Layout, Sodepur, Appareddipalya, Indiranagar, Bengaluru",
        "leisure": "fitness_centre",
        "name": "Impact Fitness Studio",
        "opening_hours": "5:30-22:00",
        "phone": "9880602625",
        "website": "https://www.impactfitness.in/"
      }
    },
    {
      "type": "node",
      "id": 4490387636,
      "lat": 12.9724506,
      "lon": 77.6273001,
      "tags": {
        "addr:city": "Bangalore",
        "addr:postcode": "560008",
        "addr:street": "Near Frank Anthony Public School,, 17/1, Cambridge Road, Halasuru, Bhadrappa Layout, Udani Layout, Ulsoor, Bengaluru",
        "leisure": "sports_centre",
        "name": "Contours Women's Fitness Studio",
        "opening_hours": "6:00-20:00",
        "phone": "8041736700",
        "sport": "gymnasium",
        "website": "https://contours.in/"
      }
    },
    {
      "type": "node",
      "id": 4559461283,
      "lat": 12.9637741,
      "lon": 77.6377518,
      "tags": {
        "amenity": "theatre",
        "name": "TERI Auditorium"
      }
    },
    {
      "type": "node",
      "id": 4832473456,
      "lat": 12.9759486,
      "lon": 77.6253838,
      "tags": {
        "addr:city": "Bangalore",
        "addr:postcode": "560008",
        "addr:street": "Car Street",
        "amenity": "bank",
        "atm": "yes",
        "brand": "Indian Bank",
        "brand:wikidata": "Q2003789",
        "brand:wikipedia": "en:Indian Bank",
        "check_date": "2024-03-05",
        "name": "Indian Bank",
        "name:en": "Indian Bank",
        "name:kn": "ಇಂಡಿಯನ್ ಬ್ಯಾಂಕ್",
        "operator": "Indian Bank",
        "website": "https://www.indianbank.in/"
      }
    },
    {
      "type": "node",
      "id": 4834488421,
      "lat": 12.9759801,
      "lon": 77.6252681,
      "tags": {
        "addr:postcode": "560008",
        "addr:street": "car street",
        "amenity": "restaurant",
        "name": "Udupi Vaibhav",
        "name:en": "Udupi Vaibhav"
      }
    },
    {
      "type": "node",
      "id": 4840185928,
      "lat": 12.9716236,
      "lon": 77.6273835,
      "tags": {
        "addr:district": "Bengaluru Urban",
        "addr:full": "No 18/17, Cambridge Road, Ulsoor",
        "addr:postcode": "560008",
        "addr:state": "Karnataka",
        "amenity": "hospital",
        "healthcare": "hospital",
        "name": "Cambridge Hospital",
        "name:en": "Cambridge Hospital",
        "source": "OpenGovernmentData"
      }
    },
    {
      "type": "node",
      "id": 4840185929,
      "lat": 12.9738255,
      "lon": 77.6262686,
      "tags": {
        "amenity": "toilets"
      }
    },
    {
      "type": "node",
      "id": 4859042821,
      "lat": 12.9754695,
      "lon": 77.6258473,
      "tags": {
        "addr:postcode": "560008",
        "addr:street": "Swamy Vivekananda Road (Old Madras Road)",
        "name": "Sharada stores",
        "name:en": "Sharada stores",
        "shop": "books"
      }
    },
    {
      "type": "node",
      "id": 5237312322,
      "lat": 12.9628718,
      "lon": 77.6364846,
      "tags": {
        "name:ko": "수산시장",
        "shop": "supermarket"
      }
    },
    {
      "type": "node",
      "id": 5251975967,
      "lat": 12.9683737,
      "lon": 77.6394501,
      "tags": {
        "name": "Shreya Hearing Clinic",
        "shop": "hearing_aids"
      }
    },
    {
      "type": "node",
      "id": 5402308137,
      "lat": 12.9681537,
      "lon": 77.628893,
      "tags": {
        "amenity": "place_of_worship"
      }
    },
    {
      "type": "node",
      "id": 5469022921,
      "lat": 12.9611724,
      "lon": 77.6346628,
      "tags": {
        "amenity": "clinic",
        "name": "Ward 113 PHC",
        "name:en": "Ward 112",
        "name:kn": "ಪ್ರಾಥಮಿಕ ಆರೋಗ್ಯ ಕೇಂದ್ರ"
      }
    },
    {
      "type": "node",
      "id": 5544549022,
      "lat": 12.975905,
      "lon": 77.6370864,
      "tags": {
        "name": "GMS",
        "shop": "copyshop"
      }
    },
    {
      "type": "node",
      "id": 5544597521,
      "lat": 12.9759147,
      "lon": 77.6371144,
      "tags": {
        "name": "Nikki Bakery",
        "shop": "bakery"
      }
    },
    {
      "type": "node",
      "id": 5567059895,
      "lat": 12.9743003,
      "lon": 77.6390483,
      "tags": {
        "amenity": "place_of_worship",
        "name": "Temple",
        "name:kn": "ದೇವಸ್ಥಾನ",
        "religion": "hindu"
      }
    },
    {
      "type": "node",
      "id": 5569651822,
      "lat": 12.9733553,
      "lon": 77.6383481,
      "tags": {
        "amenity": "community_centre",
        "name": "Human Rights Protection and Corruption Eradication Forum"
      }
    },
    {
      "type": "node",
      "id": 5585615126,
      "lat": 12.9742594,
      "lon": 77.6378253,
      "tags": {
        "name": "Bismillah Chicken Centre",
        "shop": "butcher"
      }
    },
    {
      "type": "node",
      "id": 5585615328,
      "lat": 12.9742298,
      "lon": 77.6377772,
      "tags": {
        "amenity": "drinking_water"
      }
    },
    {
      "type": "node",
      "id": 5585615329,
      "lat": 12.9741842,
      "lon": 77.6378353,
      "tags": {
        "amenity": "fast_food",
        "name": "Sri Raghavendra Hotel"
      }
    },
    {
      "type": "node",
      "id": 5585615330,
      "lat": 12.9741619,
      "lon": 77.6378167,
      "tags": {
        "amenity": "fast_food",
        "name": "Bengali Food Court"
      }
    },
    {
      "type": "node",
      "id": 5585629421,
      "lat": 12.97449,
      "lon": 77.6381065,
      "tags": {
        "shop": "bicycle"
      }
    },
    {
      "type": "node",
      "id": 5585629422,
      "lat": 12.9744956,
      "lon": 77.6381464,
      "tags": {
        "amenity": "pharmacy",
        "healthcare": "pharmacy",
        "name": "Sri Balaji Medicals"
      }
    },
    {
      "type": "node",
      "id": 5585629521,
      "lat": 12.9744678,
      "lon": 77.6380837,
      "tags": {
        "shop": "hairdresser"
      }
    },
    {
      "type": "node",
      "id": 5585629621,
      "lat": 12.9744109,
      "lon": 77.6382219,
      "tags": {
        "addr:housenumber": "53",
        "name": "KN Bike Point",
        "shop": "motorcycle"
      }
    },
    {
      "type": "node",
      "id": 5585633521,
      "lat": 12.9744137,
      "lon": 77.6385453,
      "tags": {
        "name": "JRK",
        "shop": "dry_cleaning"
      }
    },
    {
      "type": "node",
      "id": 5585633721,
      "lat": 12.9745594,
      "lon": 77.6388928,
      "tags": {
        "name": "Fishmonger",
        "shop": "butcher"
      }
    },
    {
      "type": "node",
      "id": 5585633821,
      "lat": 12.9745442,
      "lon": 77.6388615,
      "tags": {
        "name": "Chicken Stall",
        "shop": "butcher"
      }
    },
    {
      "type": "node",
      "id": 5585635623,
      "lat": 12.9734394,
      "lon": 77.6395116,
      "tags": {
        "name": "New Royal Mutton and Chicken Centre",
        "shop": "butcher"
      }
    },
    {
      "type": "node",
      "id": 5585635624,
      "lat": 12.9736419,
      "lon": 77.6378172,
      "tags": {
        "amenity": "drinking_water"
      }
    },
    {
      "type": "node",
      "id": 5585637022,
      "lat": 12.9730471,
      "lon": 77.6374051,
      "tags": {
        "amenity": "place_of_worship",
        "name": "Temple",
        "religion": "hindu"
      }
    },
    {
      "type": "node",
      "id": 5585637023,
      "lat": 12.9729937,
      "lon": 77.6374046,
      "tags": {
        "amenity": "place_of_worship",
        "religion": "hindu"
      }
    },
    {
      "type": "node",
      "id": 5585639123,
      "lat": 12.9733584,
      "lon": 77.6385106,
      "tags": {
        "amenity": "drinking_water"
      }
    },
    {
      "type": "node",
      "id": 5631707724,
      "lat": 12.9730516,
      "lon": 77.6352655,
      "tags": {
        "name": "Pushpa Glass and Plywood",
        "shop": "hardware"
      }
    },
    {
      "type": "node",
      "id": 5645889421,
      "lat": 12.9752413,
      "lon": 77.6247184,
      "tags": {
        "addr:housenumber": "57",
        "addr:street": "Bazaar Stree",
        "name": "Sri Guru Sweet Mart",
        "shop": "confectionery"
      }
    },
    {
      "type": "node",
      "id": 5645889422,
      "lat": 12.9754304,
      "lon": 77.6246612,
      "tags": {
        "name": "Kingdom Garments",
        "shop": "clothes"
      }
    },
    {
      "type": "node",
      "id": 5645889521,
      "lat": 12.9753605,
      "lon": 77.6246523,
      "tags": {
        "name": "Baby Doll Fashions",
        "shop": "clothes"
      }
    },
    {
      "type": "node",
      "id": 5645889621,
      "lat": 12.9752623,
      "lon": 77.6246355,
      "tags": {
        "addr:housenumber": "1",
        "addr:street": "Bazaar Street",
        "name": "Shoppee Paradise",
        "shop": "clothes"
      }
    },
    {
      "type": "node",
      "id": 5645919621,
      "lat": 12.9754599,
      "lon": 77.6247364,
      "tags": {
        "name": "Varalakshmi Dry Cleaners",
        "shop": "dry_cleaning"
      }
    },
    {
      "type": "node",
      "id": 5646983221,
      "lat": 12.9729659,
      "lon": 77.6374812,
      "tags": {
        "name": "Vinayaka Bike Garage",
        "shop": "motorcycle"
      }
    },
    {
      "type": "node",
      "id": 5646985921,
      "lat": 12.973221,
      "lon": 77.6377882,
      "tags": {
        "name": "Appa Mobike Works",
        "shop": "motorcycle"
      }
    },
    {
      "type": "node",
      "id": 5646997521,
      "lat": 12.9745214,
      "lon": 77.63882,
      "tags": {
        "amenity": "drinking_water"
      }
    },
    {
      "type": "node",
      "id": 5661119023,
      "lat": 12.972707,
      "lon": 77.6397392,
      "tags": {
        "name": "Maeva Artisanal Living",
        "shop": "gift",
        "website": "https://www.themaevastore.com/"
      }
    },
    {
      "type": "node",
      "id": 5661127826,
      "lat": 12.970386,
      "lon": 77.6378968,
      "tags": {
        "check_date": "2024-09-21",
        "leisure": "fitness_centre",
        "name": "Sutvacha Skin and Laser Clinic"
      }
    },
    {
      "type": "node",
      "id": 5661149221,
      "lat": 12.9706267,
      "lon": 77.6388667,
      "tags": {
        "amenity": "waste_disposal"
      }
    },
    {
      "type": "node",
      "id": 5661159423,
      "lat": 12.9746231,
      "lon": 77.6358561,
      "tags": {
        "amenity": "clinic",
        "healthcare": "clinic",
        "name": "The Skin and Cosmetic Clinic"
      }
    },
    {
      "type": "node",
      "id": 5714935013,
      "lat": 12.9712318,
      "lon": 77.6385355,
      "tags": {
        "check_date": "2025-08-21",
        "leisure": "fitness_station",
        "sport": "fitness"
      }
    },
    {
      "type": "node",
      "id": 5714936467,
      "lat": 12.9712475,
      "lon": 77.6377027,
      "tags": {
        "amenity": "place_of_worship",
        "name": "Shiva Shakti Temple",
        "religion": "hindu"
      }
    },
    {
      "type": "node",
      "id": 5732134226,
      "lat": 12.9737821,
      "lon": 77.6365673,
      "tags": {
        "amenity": "place_of_worship",
        "name": "Devi Temple",
        "name:kn": "ದೇವಿ ದೇವಸ್ಖಾನ",
        "religion": "hindu"
      }
    },
    {
      "type": "node",
      "id": 5732140022,
      "lat": 12.9738576,
      "lon": 77.6370477,
      "tags": {
        "amenity": "place_of_worship",
        "name": "Temple",
        "name:kn": "ದೇವಸ್ಥಾನ",
        "religion": "hindu"
      }
    },
    {
      "type": "node",
      "id": 5738207822,
      "lat": 12.9743525,
      "lon": 77.6385763,
      "tags": {
        "amenity": "clinic",
        "name": "MM Clinic"
      }
    },
    {
      "type": "node",
      "id": 5747208925,
      "lat": 12.9718419,
      "lon": 77.6358262,
      "tags": {
        "name": "Pooja Electronics",
        "shop": "electronics"
      }
    },
    {
      "type": "node",
      "id": 5809775153,
      "lat": 12.9727841,
      "lon": 77.6381267,
      "tags": {
        "name": "GM Hi tech Automobiles",
        "shop": "car_repair"
      }
    },
    {
      "type": "node",
      "id": 5821774754,
      "lat": 12.9734184,
      "lon": 77.6396114,
      "tags": {
        "amenity": "fast_food",
        "name": "MM Fast Food"
      }
    },
    {
      "type": "node",
      "id": 5821774755,
      "lat": 12.9734184,
      "lon": 77.6395809,
      "tags": {
        "addr:housenumber": "361",
        "addr:street": "6th Main",
        "name": "Nature Fresh Fruits & Vegetables",
        "shop": "greengrocer"
      }
    },
    {
      "type": "node",
      "id": 5821776755,
      "lat": 12.9733273,
      "lon": 77.6392533,
      "tags": {
        "name": "Books & Books",
        "shop": "stationery"
      }
    },
    {
      "type": "node",
      "id": 5821786555,
      "lat": 12.9733336,
      "lon": 77.6395554,
      "tags": {
        "name": "Monte Shoppe",
        "shop": "stationery"
      }
    },
    {
      "type": "node",
      "id": 5821786556,
      "lat": 12.9734188,
      "lon": 77.6395345,
      "tags": {
        "addr:housenumber": "302",
        "name": "Shabeena Provision Store",
        "shop": "convenience"
      }
    },
    {
      "type": "node",
      "id": 5824619753,
      "lat": 12.97325,
      "lon": 77.6367225,
      "tags": {
        "amenity": "place_of_worship",
        "name": "Temple",
        "religion": "hindu"
      }
    },
    {
      "type": "node",
      "id": 5826603253,
      "lat": 12.9748914,
      "lon": 77.6374914,
      "tags": {
        "shop": "convenience"
      }
    },
    {
      "type": "node",
      "id": 5826624554,
      "lat": 12.974315,
      "lon": 77.6366178,
      "tags": {
        "amenity": "restaurant",
        "name": "Hotel Sree Cauvery"
      }
    },
    {
      "type": "node",
      "id": 5880314785,
      "lat": 12.9740575,
      "lon": 77.6384868,
      "tags": {
        "shop": "convenience"
      }
    },
    {
      "type": "node",
      "id": 6348764653,
      "lat": 12.9673592,
      "lon": 77.639208,
      "tags": {
        "addr:place": "Doopanahalli",
        "amenity": "school",
        "isced": "2",
        "name": "GHPS Doopanahalli",
        "name:kn": "ಸರ್ಕಾರಿ ಹಿರಿಯ ಪ್ರಾಥಮಿಕ ಶಾಲೆ ದೂಪನಹಳ್ಳಿ",
        "operator": "Department of Education",
        "school": "primary"
      }
    },
    {
      "type": "node",
      "id": 6348823859,
      "lat": 12.9723069,
      "lon": 77.6302852,
      "tags": {
        "addr:place": "Jogupalya",
        "amenity": "school",
        "isced:level": "2",
        "name": "GHPS (K) Jogupalya",
        "name:kn": "ಸರ್ಕಾರಿ ಹಿರಿಯ ಪ್ರಾಥಮಿಕ ಶಾಲೆ (ಕನ್ನಡ) ಜೊಗುಪಾಳ್ಯ",
        "operator": "Department of Education",
        "school": "primary"
      }
    },
    {
      "type": "node",
      "id": 6348827978,
      "lat": 12.9706487,
      "lon": 77.6311063,
      "tags": {
        "addr:place": "Jogupalya",
        "amenity": "school",
        "isced:level": "2",
        "name": "GUHPS Jogupalya",
        "name:kn": "ಸರ್ಕಾರಿ ಉರ್ದು ಹಿರಿಯ ಪ್ರಾಥಮಿಕ ಶಾಲೆ ಜೊಗುಪಾಳ್ಯ",
        "operator": "Department of Education",
        "school": "primary"
      }
    },
    {
      "type": "node",
      "id": 6348833682,
      "lat": 12.9760932,
      "lon": 77.6293447,
      "tags": {
        "addr:place": "Ulsoor",
        "amenity": "school",
        "isced:level": "2",
        "name": "Sri Ramakrishna HPS Ulsoor",
        "name:kn": "ಶ್ರೀ ರಾಮಕೃಷ್ಣ ಹಿರಿಯ ಪ್ರಾಥಮಿಕ ಶಾಲೆ ಹಲಸೂರು",
        "operator": "Department of Education",
        "school": "primary"
      }
    },
    {
      "type": "node",
      "id": 6349556765,
      "lat": 12.9685408,
      "lon": 77.6288761,
      "tags": {
        "addr:place": "Ulsoor",
        "amenity": "school",
        "isced:level": "2",
        "name": "St Miras HPS Ulsoor",
        "name:kn": "ಸೆಂಟ್‌ ಮಿರಸ್ ಹಿರಿಯ ಪ್ರಾಥಮಿಕ ಶಾಲೆ ಹಲಸೂರು",
        "operator": "Pvt. Aided",
        "school": "primary"
      }
    },
    {
      "type": "node",
      "id": 6349564529,
      "lat": 12.9766881,
      "lon": 77.6282174,
      "tags": {
        "addr:place": "Jogupalya",
        "amenity": "school",
        "isced:level": "2",
        "name": "Kairaliketan HPS Jogupalya",
        "name:kn": "ಕೈರಾಲಿಕೇತನ್ ಹಿರಿಯ ಪ್ರಾಥಮಿಕ ಶಾಲೆ ಜೊಗುಪಾಳ್ಯ",
        "operator": "Pvt. Aided",
        "school": "primary"
      }
    },
    {
      "type": "node",
      "id": 6349565035,
      "lat": 12.9741197,
      "lon": 77.6374384,
      "tags": {
        "addr:place": "Appareddypalya",
        "amenity": "school",
        "isced:level": "2",
        "name": "GHPS Appareddypalya",
        "name:kn": "ಸರ್ಕಾರಿ ಹಿರಿಯ ಪ್ರಾಥಮಿಕ ಶಾಲೆ ಅಪ್ಪರೆಡ್ಡಿಪಾಳ್ಯ",
        "operator": "Department of Education",
        "school": "primary"
      }
    },
    {
      "type": "node",
      "id": 6377377134,
      "lat": 12.9715538,
      "lon": 77.6360017,
      "tags": {
        "amenity": "bicycle_rental",
        "fee": "yes",
        "network": "DULT",
        "operator": "Yulu"
      }
    },
    {
      "type": "node",
      "id": 6377377135,
      "lat": 12.9686739,
      "lon": 77.6361562,
      "tags": {
        "amenity": "bicycle_rental",
        "bicycle_rental": "dropoff_point",
        "fee": "yes",
        "network": "DULT",
        "operator": "Yulu"
      }
    },
    {
      "type": "node",
      "id": 6393818381,
      "lat": 12.969819,
      "lon": 77.6387145,
      "tags": {
        "name": "Ganesh Fruit Juice Centre",
        "payment:cash": "yes",
        "shop": "beverages"
      }
    },
    {
      "type": "node",
      "id": 6393824518,
      "lat": 12.9765657,
      "lon": 77.6362367,
      "tags": {
        "brand": "Mahindra and Mahindra",
        "name": "Indel Motors",
        "shop": "car"
      }
    },
    {
      "type": "node",
      "id": 6393846700,
      "lat": 12.9713759,
      "lon": 77.6348862,
      "tags": {
        "amenity": "atm",
        "brand": "IDBI Bank",
        "brand:wikidata": "Q3633485",
        "covered": "yes",
        "currency:INR": "yes",
        "name": "IDBI Bank",
        "operator": "IDBI Bank",
        "operator:wikidata": "Q3633485",
        "short_name": "IDBI"
      }
    },
    {
      "type": "node",
      "id": 6393846701,
      "lat": 12.9712853,
      "lon": 77.6348681,
      "tags": {
        "amenity": "atm",
        "brand": "Andhra Bank",
        "brand:wikidata": "Q2003476",
        "covered": "yes",
        "currency:INR": "yes",
        "name": "Andhra Bank",
        "name:kn": "ಆಂಧ್ರ ಬ್ಯಾಂಕ್",
        "operator": "Andhra Bank",
        "operator:wikidata": "Q2003476"
      }
    },
    {
      "type": "node",
      "id": 6443160709,
      "lat": 12.9754217,
      "lon": 77.6363694,
      "tags": {
        "leisure": "fitness_centre",
        "name": "Yogakshema",
        "sport": "yoga"
      }
    },
    {
      "type": "node",
      "id": 6443184083,
      "lat": 12.9727713,
      "lon": 77.6348249,
      "tags": {
        "female": "no",
        "male": "yes",
        "name": "First Choice Mens Salon",
        "shop": "hairdresser",
        "unisex": "no"
      }
    },
    {
      "type": "node",
      "id": 6443209514,
      "lat": 12.9730754,
      "lon": 77.6266744,
      "tags": {
        "brand": "Nandini",
        "name": "Nandini Milk Parlour",
        "shop": "dairy"
      }
    },
    {
      "type": "node",
      "id": 6443216005,
      "lat": 12.969801,
      "lon": 77.6303775,
      "tags": {
        "amenity": "place_of_worship",
        "name": "Shirdi Sai Baba Temple",
        "religion": "hindu"
      }
    },
    {
      "type": "node",
      "id": 6443493785,
      "lat": 12.978038,
      "lon": 77.6327993,
      "tags": {
        "amenity": "place_of_worship",
        "name": "Sri Vidya Ganapathi Temple",
        "religion": "hindu"
      }
    },
    {
      "type": "node",
      "id": 6458988265,
      "lat": 12.977819,
      "lon": 77.6303184,
      "tags": {
        "amenity": "fast_food",
        "name": "Dosa shop"
      }
    },
    {
      "type": "node",
      "id": 6458991781,
      "lat": 12.9777866,
      "lon": 77.6302967,
      "tags": {
        "amenity": "pharmacy",
        "check_date": "2024-02-06",
        "healthcare": "pharmacy",
        "name": "Suresh Pharma"
      }
    },
    {
      "type": "node",
      "id": 6458991784,
      "lat": 12.9778066,
      "lon": 77.6303466,
      "tags": {
        "name": "Snacks shop",
        "shop": "bakery"
      }
    },
    {
      "type": "node",
      "id": 6531687424,
      "lat": 12.9723602,
      "lon": 77.6304912,
      "tags": {
        "addr:place": "jogupalya",
        "amenity": "school",
        "isced:level": "1",
        "name": "GTLPS jogupalya",
        "name:kn": "ಸರ್ಕಾರಿ ತೆಲುಗು ಕಿರಿಯ ಪ್ರಾಥಮಿಕ ಶಾಲೆ ಜೊಗುಪಾಳ್ಯ",
        "operator": "Private Un-Aided",
        "school": "primary"
      }
    },
    {
      "type": "node",
      "id": 6531788004,
      "lat": 12.9740521,
      "lon": 77.6273143,
      "tags": {
        "addr:place": "Jogupalya",
        "amenity": "school",
        "isced:level": "1",
        "name": "GULPS Jogupalya,",
        "name:kn": "ಸರ್ಕಾರಿ ಉರ್ದು ಕಿರಿಯ ಪ್ರಾಥಮಿಕ ಶಾಲೆ ಜೊಗುಪಾಳ್ಯ",
        "operator": "Department of Education",
        "school": "primary"
      }
    },
    {
      "type": "node",
      "id": 6531889492,
      "lat": 12.9696041,
      "lon": 77.6243903,
      "tags": {
        "addr:place": "Jogupalya",
        "amenity": "school",
        "isced:level": "1",
        "name": "GLPS Gowthamapura, jogupalya",
        "name:kn": "ಸರ್ಕಾರಿ ಕಿರಿಯ ಪ್ರಾಥಮಿಕ ಶಾಲೆ ಗೌತಮಪುರ, ಜೊಗುಪಾಳ್ಯ",
        "operator": "Department of Education",
        "school": "primary"
      }
    },
    {
      "type": "node",
      "id": 6545576539,
      "lat": 12.9670947,
      "lon": 77.6351897,
      "tags": {
        "alt_name": "BIC Auditorium",
        "amenity": "theatre",
        "check_date": "2025-03-14",
        "level": "0;1",
        "name": "Sarah Kailath Auditorium"
      }
    },
    {
      "type": "node",
      "id": 6583723603,
      "lat": 12.9752019,
      "lon": 77.6247748,
      "tags": {
        "addr:city": "Bangalore",
        "addr:housenumber": "58",
        "addr:street": "Bazaar Steet, Ulsoor",
        "clothes": "women;children;men;babies;fashion;lingerie",
        "name": "Stylo garments",
        "operator": "Fasal",
        "shop": "clothes"
      }
    },
    {
      "type": "node",
      "id": 6832288685,
      "lat": 12.9669254,
      "lon": 77.6368937,
      "tags": {
        "addr:city": "Bengaluru",
        "addr:country": "IN",
        "addr:hamlet": "Domlur 2nd Stage",
        "addr:housenumber": "263",
        "addr:postcode": "560071",
        "addr:street": "3rd Cross Road",
        "amenity": "cafe",
        "email": "info@lavonne.in",
        "name": "Lavonne Café",
        "shop": "confectionery",
        "website": "https://lavonne.in/"
      }
    },
    {
      "type": "node",
      "id": 6882713305,
      "lat": 12.9630637,
      "lon": 77.6289171,
      "tags": {
        "addr:city": "Bengaluru",
        "addr:district": "BENGALURU URBAN",
        "addr:full": "Old Airport Road, Near Cambridge Layout, Domlur Village, Post Agram",
        "addr:postcode": "560007",
        "addr:state": "Karnataka",
        "amenity": "blood_bank",
        "contact:mobile": "9663865587",
        "contact:phone": "8025234632",
        "name": "Command Hospital Blood Bank Air Force",
        "opening_hours": "24/7",
        "operator:type": "government",
        "source": "OpenGovernmentData",
        "website": "http://www.afmc.nic.in"
      }
    },
    {
      "type": "node",
      "id": 6938864303,
      "lat": 12.976032,
      "lon": 77.6254061,
      "tags": {
        "addr:district": "Bengaluru Urban",
        "addr:full": "CGHS Dispensary No.4, Ulsoor No.27, Car StreetUlsoor",
        "addr:postcode": "560004",
        "addr:state": "Karnataka",
        "amenity": "clinic",
        "health_facility:type": "dispensary",
        "healthcare": "centre",
        "name": "CGHS Dispensary No.4",
        "operator:type": "government",
        "source": "OpenGovernmentData",
        "website": "http://nb.bsf.gov.in/CGHS%20DIspenseries.pdf"
      }
    },
    {
      "type": "node",
      "id": 6944256063,
      "lat": 12.9781151,
      "lon": 77.6301697,
      "tags": {
        "addr:district": "Bengaluru Urban",
        "addr:full": "10,12 th Cross, Lakshmipuram",
        "addr:postcode": "560008",
        "addr:state": "Karnataka",
        "amenity": "clinic",
        "healthcare": "clinic",
        "name": "Joseph Clinic, Bengaluru Urban",
        "source": "OpenGovernmentData"
      }
    },
    {
      "type": "node",
      "id": 6944364980,
      "lat": 12.970023,
      "lon": 77.6307987,
      "tags": {
        "addr:district": "Bengaluru Urban",
        "addr:full": "No. 114, 5Th Cross, Sai Baba Temple Road, Cambridge Layout, Ulsoor",
        "addr:postcode": "560008",
        "addr:state": "Karnataka",
        "amenity": "hospital",
        "name": "Sadhana Eye Hospital, Bengaluru Urban",
        "source": "OpenGovernmentData"
      }
    },
    {
      "type": "node",
      "id": 6947371813,
      "lat": 12.9709143,
      "lon": 77.6321116,
      "tags": {
        "addr:district": "Bengaluru Urban",
        "addr:full": "#289.1 Cross, Cambridge Layout, Halasuru, Near Sai Baba Temple",
        "addr:postcode": "560008",
        "addr:state": "Karnataka",
        "amenity": "hospital",
        "name": "Health Cottage Hospital",
        "source": "OpenGovernmentData"
      }
    },
    {
      "type": "node",
      "id": 7031769604,
      "lat": 12.9703801,
      "lon": 77.632265,
      "tags": {
        "air_conditioning": "yes",
        "description": "Our focus is on design innovation and promotion of handcrafted products made by skilled artisans using natural inputs which sustains and preserves the environment. We are dedicated towards preserving rich and vibrant traditional Indian art.",
        "name": "Jute Cottage",
        "payment:all": "yes",
        "payment:credit_cards": "yes",
        "payment:debit_cards": "yes",
        "shop": "gift",
        "source": "survey;local knowledge;gps",
        "website": "https://www.jutecottage.co.in/"
      }
    },
    {
      "type": "node",
      "id": 7178597786,
      "lat": 12.9668354,
      "lon": 77.6369007,
      "tags": {
        "addr:city": "Bengaluru",
        "addr:country": "IN",
        "addr:hamlet": "Domlur 2nd Stage",
        "addr:housenumber": "263",
        "addr:postcode": "560071",
        "addr:street": "3rd Cross Road",
        "amenity": "college",
        "email": "info@lavonne.in",
        "name": "Lavonne Academy of Baking Science and Pastry Arts",
        "website": "https://lavonne.in/"
      }
    },
    {
      "type": "node",
      "id": 7184126229,
      "lat": 12.9759778,
      "lon": 77.6262092,
      "tags": {
        "name": "Track & Trail",
        "shop": "bicycle"
      }
    },
    {
      "type": "node",
      "id": 7572526702,
      "lat": 12.9695354,
      "lon": 77.6404876,
      "tags": {
        "addr:district": "Bengaluru Urban",
        "addr:full": "Indiranagar, Bengaluru",
        "addr:postcode": "560008",
        "addr:state": "Karnataka",
        "amenity": "dentist",
        "healthcare": "dentist",
        "name": "Sai Ganesh Dental Clinic",
        "source": "Local Knowledge"
      }
    },
    {
      "type": "node",
      "id": 7572526710,
      "lat": 12.9698194,
      "lon": 77.6317472,
      "tags": {
        "addr:district": "Bengaluru Urban",
        "addr:full": "Someshvarapura Layout, Jogupalya, Bengaluru",
        "addr:postcode": "560008",
        "addr:state": "Karnataka",
        "amenity": "hospital",
        "name": "Sai Baba Hospital",
        "name:kn": "ಸಾಯಿಬಾಬ ಆಸ್ಪತ್ರೆ",
        "source": "Local Knowledge"
      }
    },
    {
      "type": "node",
      "id": 7572526767,
      "lat": 12.9693009,
      "lon": 77.6317545,
      "tags": {
        "addr:district": "Bengaluru Urban",
        "addr:full": "Someshvarapura Layout, Jogupalya, Bengaluru",
        "addr:postcode": "560008",
        "addr:state": "Karnataka",
        "amenity": "hospital",
        "name": "ESIC Hospital",
        "source": "Local Knowledge"
      }
    },
    {
      "type": "node",
      "id": 7572526773,
      "lat": 12.9697379,
      "lon": 77.6375339,
      "tags": {
        "addr:district": "Bengaluru Urban",
        "addr:full": "Doopanahalli, Indiranagar, Bengaluru",
        "addr:postcode": "560008",
        "addr:state": "Karnataka",
        "amenity": "clinic",
        "name": "Lifespan Diabetes & Cardiometabolic",
        "source": "Local Knowledge"
      }
    },
    {
      "type": "node",
      "id": 7572526775,
      "lat": 12.9714838,
      "lon": 77.6350988,
      "tags": {
        "addr:district": "Bengaluru Urban",
        "addr:full": "Indiranagar, Bengaluru",
        "addr:postcode": "560008",
        "addr:state": "Karnataka",
        "amenity": "clinic",
        "check_date": "2023-10-12",
        "name": "Dr. Banerjee Homeopathy Clinic",
        "source": "Local Knowledge"
      }
    },
    {
      "type": "node",
      "id": 7572526777,
      "lat": 12.9694023,
      "lon": 77.6300504,
      "tags": {
        "addr:district": "Bengaluru Urban",
        "addr:full": "Cambridge Layout, Halasuru, Bengaluru",
        "addr:postcode": "560008",
        "addr:state": "Karnataka",
        "amenity": "clinic",
        "name": "Orthotrend Clinic",
        "source": "Local Knowledge"
      }
    },
    {
      "type": "node",
      "id": 7572526809,
      "lat": 12.9728469,
      "lon": 77.6268497,
      "tags": {
        "addr:district": "Bengaluru Urban",
        "addr:full": "Cambridge Road, Udani Layout, Jogupalya, Bengaluru",
        "addr:postcode": "560008",
        "addr:state": "Karnataka",
        "amenity": "clinic",
        "healthcare": "clinic",
        "name": "Rai Clinic",
        "source": "Local Knowledge"
      }
    },
    {
      "type": "node",
      "id": 7970346627,
      "lat": 12.9715621,
      "lon": 77.6352678,
      "tags": {
        "addr:city": "Indiranagar, Bangalore",
        "addr:housenumber": "/458, 2nd cross",
        "addr:postcode": "560038",
        "addr:street": "7th main, Indrangar 2nd stage, Bangalore 560038",
        "clothes": "women;sports",
        "name": "Deivee",
        "organic": "yes",
        "shop": "clothes"
      }
    },
    {
      "type": "node",
      "id": 8758561574,
      "lat": 12.9702244,
      "lon": 77.6388413,
      "tags": {
        "addr:floor": "G",
        "amenity": "bank",
        "atm": "yes",
        "brand": "ICICI Bank",
        "brand:wikidata": "Q1653258",
        "brand:wikipedia": "en:ICICI Bank",
        "check_date": "2024-05-15",
        "drive_through": "no",
        "level": "0",
        "name": "ICICI Bank",
        "name:en": "ICICI Bank",
        "name:kn": "ಐಸಿಐಸಿಐ ಬ್ಯಾಂಕು",
        "short_name": "ICICI",
        "website": "https://www.icicibank.com"
      }
    },
    {
      "type": "node",
      "id": 8758561575,
      "lat": 12.9701976,
      "lon": 77.6386624,
      "tags": {
        "amenity": "cafe",
        "brand": "Third Wave Coffee Roasters",
        "brand:wikidata": "Q7785004",
        "check_date": "2025-03-14",
        "cuisine": "coffee_shop",
        "delivery": "yes",
        "internet_access": "yes",
        "internet_access:fee": "no",
        "name": "Third Wave Coffee Roasters",
        "outdoor_seating": "yes",
        "payment:credit_cards": "yes",
        "payment:debit_cards": "yes",
        "takeaway": "yes",
        "toilets:wheelchair": "no",
        "website": "https://www.thirdwavecoffeeroasters.com/",
        "wheelchair": "yes"
      }
    },
    {
      "type": "node",
      "id": 8834772573,
      "lat": 12.9768014,
      "lon": 77.6297744,
      "tags": {
        "amenity": "place_of_worship",
        "name": "Thotada Muneshwara Swamy temple",
        "name:kn": "ತೋಟದ ಮುನೇಶ್ವರ ಸ್ವಾಮಿ ದೇವಸ್ಥಾನ",
        "religion": "hindu"
      }
    },
    {
      "type": "node",
      "id": 9066455075,
      "lat": 12.9715511,
      "lon": 77.635481,
      "tags": {
        "addr:housenumber": "3142, Ground Floor",
        "addr:street": "7th Main, ESI Hospital Road",
        "amenity": "pharmacy",
        "branch": "ESI Hospital Road Indiranagar",
        "brand": "MedPlus",
        "brand:wikidata": "Q65684234",
        "healthcare": "pharmacy",
        "name": "MedPlus",
        "name:kn": "ಮೆಡ್‍ಪ್ಲಸ್",
        "opening_hours": "Mo-Su 07:00-23:00",
        "phone": "+916366374166",
        "website": "https://pharmacy.medplusmart.com/INKABLR00500"
      }
    },
    {
      "type": "node",
      "id": 9288431529,
      "lat": 12.9674314,
      "lon": 77.6366472,
      "tags": {
        "amenity": "restaurant",
        "brand": "California Burrito",
        "brand:wikidata": "Q124374596",
        "check_date": "2025-03-14",
        "cuisine": "mexican",
        "name": "California Burrito"
      }
    },
    {
      "type": "node",
      "id": 9288431549,
      "lat": 12.9704038,
      "lon": 77.6399131,
      "tags": {
        "amenity": "restaurant",
        "level": "2",
        "name": "Salt Mango Tree",
        "payment:credit_cards": "yes",
        "payment:debit_cards": "yes"
      }
    },
    {
      "type": "node",
      "id": 9288431554,
      "lat": 12.9699008,
      "lon": 77.6387045,
      "tags": {
        "amenity": "fast_food",
        "name": "Bangalore Thindies",
        "payment:credit_cards": "yes",
        "payment:debit_cards": "yes"
      }
    },
    {
      "type": "node",
      "id": 9288431558,
      "lat": 12.9705157,
      "lon": 77.6390558,
      "tags": {
        "name": "Moriyo Artisanal Linen",
        "shop": "fabric"
      }
    },
    {
      "type": "node",
      "id": 9288431559,
      "lat": 12.9705287,
      "lon": 77.6391886,
      "tags": {
        "addr:floor": "G",
        "check_date": "2024-09-21",
        "level": "0",
        "shop": "greengrocer"
      }
    },
    {
      "type": "node",
      "id": 9288431560,
      "lat": 12.9705468,
      "lon": 77.6395469,
      "tags": {
        "check_date": "2024-09-21",
        "name": "Dr. Karishma Cosmetics",
        "shop": "cosmetics"
      }
    },
    {
      "type": "node",
      "id": 9288431561,
      "lat": 12.9705392,
      "lon": 77.6396808,
      "tags": {
        "amenity": "kindergarten",
        "name": "Seven Senses Montessori"
      }
    },
    {
      "type": "node",
      "id": 9288431562,
      "lat": 12.9709404,
      "lon": 77.6402441,
      "tags": {
        "amenity": "cafe",
        "name": "Maison du",
        "payment:credit_cards": "yes",
        "payment:debit_cards": "yes"
      }
    },
    {
      "type": "node",
      "id": 9288431563,
      "lat": 12.9717271,
      "lon": 77.6399504,
      "tags": {
        "name": "Craftizen Foundation",
        "office": "company",
        "shop": "gift",
        "website": "https://craftizen.org/"
      }
    },
    {
      "type": "node",
      "id": 9288431564,
      "lat": 12.9719428,
      "lon": 77.6399329,
      "tags": {
        "amenity": "dentist",
        "healthcare": "dentist",
        "name": "Flourish Dental Studio"
      }
    },
    {
      "type": "node",
      "id": 9296060500,
      "lat": 12.9666459,
      "lon": 77.6352847,
      "tags": {
        "addr:floor": "G",
        "alt_name": "BIC Cafe",
        "amenity": "restaurant",
        "check_date": "2025-03-14",
        "cuisine": "indian",
        "delivery": "no",
        "level": "0",
        "microbrewery": "yes",
        "name": "Coracle",
        "note": "NAVU Project till mid August 2022. Podi and Spice starting in September 2022, till January 2024.",
        "outdoor_seating": "yes",
        "phone": "+91 98455 29596",
        "takeaway": "no",
        "wheelchair": "yes"
      }
    },
    {
      "type": "node",
      "id": 9534316322,
      "lat": 12.9699492,
      "lon": 77.6394919,
      "tags": {
        "amenity": "restaurant",
        "cuisine": "asian",
        "level": "1",
        "name": "Wakame"
      }
    },
    {
      "type": "node",
      "id": 9534316323,
      "lat": 12.969873,
      "lon": 77.6390616,
      "tags": {
        "brand": "Fabindia",
        "brand:wikidata": "Q5427779",
        "name": "Fabindia",
        "payment:credit_cards": "yes",
        "payment:debit_cards": "yes",
        "shop": "clothes"
      }
    },
    {
      "type": "node",
      "id": 9534316324,
      "lat": 12.9699243,
      "lon": 77.6393627,
      "tags": {
        "amenity": "restaurant",
        "check_date": "2024-05-15",
        "name": "Bhola & Blonde",
        "name:en": "Bhola & Blonde"
      }
    },
    {
      "type": "node",
      "id": 9534316325,
      "lat": 12.9698751,
      "lon": 77.6392046,
      "tags": {
        "amenity": "restaurant",
        "name": "Secret Story Bar & Kitchen"
      }
    },
    {
      "type": "node",
      "id": 9545465494,
      "lat": 12.9699073,
      "lon": 77.6394944,
      "tags": {
        "amenity": "restaurant",
        "level": "0",
        "name": "Bohemians",
        "payment:credit_cards": "yes",
        "payment:debit_cards": "yes"
      }
    },
    {
      "type": "node",
      "id": 9655459411,
      "lat": 12.9726123,
      "lon": 77.6379008,
      "tags": {
        "amenity": "veterinary",
        "name": "Indira pet clinic"
      }
    },
    {
      "type": "node",
      "id": 9689539845,
      "lat": 12.9702412,
      "lon": 77.639087,
      "tags": {
        "amenity": "restaurant",
        "check_date": "2024-10-13",
        "cuisine": "pizza",
        "name": "Thin Tony's Pizza",
        "website": "https://www.thintonyspizza.com"
      }
    },
    {
      "type": "node",
      "id": 9723056419,
      "lat": 12.9705124,
      "lon": 77.6391504,
      "tags": {
        "addr:floor": "G",
        "amenity": "fast_food",
        "check_date": "2024-09-21",
        "level": "0",
        "name": "Outpost Kitchen"
      }
    },
    {
      "type": "node",
      "id": 9723056435,
      "lat": 12.9698942,
      "lon": 77.6386368,
      "tags": {
        "amenity": "cafe",
        "name": "Avoke: The Avocado Cafe",
        "payment:credit_cards": "yes",
        "payment:debit_cards": "yes"
      }
    },
    {
      "type": "node",
      "id": 9723056437,
      "lat": 12.9697864,
      "lon": 77.6404935,
      "tags": {
        "name": "Fiona Diamonds",
        "shop": "jewelry"
      }
    },
    {
      "type": "node",
      "id": 9723056438,
      "lat": 12.969363,
      "lon": 77.6379186,
      "tags": {
        "name": "Kaapi Machines",
        "shop": "coffee"
      }
    },
    {
      "type": "node",
      "id": 9723056439,
      "lat": 12.9692467,
      "lon": 77.6361255,
      "tags": {
        "amenity": "ice_cream",
        "brand": "Baskin-Robbins",
        "brand:wikidata": "Q584601",
        "cuisine": "ice_cream",
        "name": "Baskin-Robbins"
      }
    },
    {
      "type": "node",
      "id": 9723056440,
      "lat": 12.9685272,
      "lon": 77.6360685,
      "tags": {
        "amenity": "restaurant",
        "name": "The Kitchen of Joy",
        "payment:credit_cards": "yes",
        "payment:debit_cards": "yes"
      }
    },
    {
      "type": "node",
      "id": 9723056441,
      "lat": 12.9684449,
      "lon": 77.6361007,
      "tags": {
        "amenity": "restaurant",
        "cuisine": "asian",
        "name": "Chilli and Chives",
        "payment:credit_cards": "yes",
        "payment:debit_cards": "yes"
      }
    },
    {
      "type": "node",
      "id": 9723056458,
      "lat": 12.9679868,
      "lon": 77.6363307,
      "tags": {
        "amenity": "fast_food",
        "cuisine": "chinese",
        "name": "Chung Wah"
      }
    },
    {
      "type": "node",
      "id": 9723056459,
      "lat": 12.9678522,
      "lon": 77.6364212,
      "tags": {
        "check_date": "2025-03-14",
        "name": "Pet Warehouse",
        "shop": "pet"
      }
    },
    {
      "type": "node",
      "id": 9723056460,
      "lat": 12.9676993,
      "lon": 77.6364957,
      "tags": {
        "check_date": "2025-03-14",
        "name": "Heads Up for Tails",
        "shop": "pet_grooming"
      }
    },
    {
      "type": "node",
      "id": 9723056488,
      "lat": 12.9691872,
      "lon": 77.6361242,
      "tags": {
        "addr:city": "Bangalore",
        "addr:country": "IN",
        "addr:hamlet": "HAL 2nd Stage",
        "addr:housenumber": "3302",
        "addr:postcode": "560008",
        "addr:street": "12th A Main Road",
        "addr:suburb": "Indiranagar",
        "check_date": "2025-03-14",
        "email": "hello@somethingsbrewing.in",
        "mobile": "+91-880-077-0649",
        "name": "Something's Brewing",
        "phone": "+91-880-077-0649",
        "shop": "coffee",
        "website": "https://somethingsbrewing.in/"
      }
    },
    {
      "type": "node",
      "id": 9723056489,
      "lat": 12.969035,
      "lon": 77.6361658,
      "tags": {
        "amenity": "cafe",
        "check_date": "2025-03-14",
        "name": "infinitea"
      }
    },
    {
      "type": "node",
      "id": 9723056490,
      "lat": 12.966793,
      "lon": 77.6352431,
      "tags": {
        "amenity": "cafe",
        "level": "0",
        "name": "Coffee Mechanics"
      }
    },
    {
      "type": "node",
      "id": 9739850131,
      "lat": 12.9699668,
      "lon": 77.6398927,
      "tags": {
        "amenity": "restaurant",
        "cuisine": "asian",
        "delivery": "yes",
        "name": "MisoSexy",
        "payment:credit_cards": "yes",
        "payment:debit_cards": "yes",
        "takeaway": "yes",
        "website": "https://www.misosexy.in/"
      }
    },
    {
      "type": "node",
      "id": 9890165406,
      "lat": 12.9746676,
      "lon": 77.6362047,
      "tags": {
        "amenity": "arts_centre",
        "name": "Artisera"
      }
    },
    {
      "type": "node",
      "id": 9890165407,
      "lat": 12.9741096,
      "lon": 77.6360209,
      "tags": {
        "name": "Amma's Pastries",
        "shop": "pastry"
      }
    },
    {
      "type": "node",
      "id": 9890165409,
      "lat": 12.9703013,
      "lon": 77.6360987,
      "tags": {
        "amenity": "cafe",
        "diet:vegan": "yes",
        "name": "Charlie Chaplain La Vegano"
      }
    },
    {
      "type": "node",
      "id": 9890165410,
      "lat": 12.970287,
      "lon": 77.6358332,
      "tags": {
        "amenity": "restaurant",
        "diet:vegetarian": "yes",
        "name": "Street Storyss"
      }
    },
    {
      "type": "node",
      "id": 9890165411,
      "lat": 12.9701066,
      "lon": 77.636261,
      "tags": {
        "addr:city": "Bangalore",
        "amenity": "restaurant",
        "brand": "Cafe Noir",
        "brand:wikidata": "Q124374751",
        "cuisine": "french;burger",
        "delivery": "yes",
        "indoor_seating": "yes",
        "name": "Cafe Noir",
        "name:kn": "ಕಫೆ ನಾರ್ಯ್",
        "payment:credit_cards": "yes",
        "payment:debit_cards": "yes",
        "takeaway": "yes"
      }
    },
    {
      "type": "node",
      "id": 9890165412,
      "lat": 12.9696401,
      "lon": 77.6357929,
      "tags": {
        "amenity": "ice_cream",
        "name": "Lakeview Milk Bar"
      }
    },
    {
      "type": "node",
      "id": 9890195718,
      "lat": 12.9669413,
      "lon": 77.6372366,
      "tags": {
        "amenity": "restaurant",
        "cuisine": "regional",
        "name": "Nirula's",
        "operator": "Nirula's"
      }
    },
    {
      "type": "node",
      "id": 9917415767,
      "lat": 12.974435,
      "lon": 77.6357956,
      "tags": {
        "brand": "Steelcase",
        "name": "Steelcase",
        "operator": "Steelcase",
        "shop": "furniture",
        "website": "https://www.steelcase.com"
      }
    },
    {
      "type": "node",
      "id": 9917415768,
      "lat": 12.9733967,
      "lon": 77.6357561,
      "tags": {
        "amenity": "charging_station",
        "bicycle": "yes",
        "motorcycle": "yes",
        "scooter": "yes"
      }
    },
    {
      "type": "node",
      "id": 9917415769,
      "lat": 12.9733738,
      "lon": 77.6357554,
      "tags": {
        "amenity": "charging_station",
        "bicycle": "yes",
        "motorcycle": "yes",
        "scooter": "yes"
      }
    },
    {
      "type": "node",
      "id": 9981919773,
      "lat": 12.9689958,
      "lon": 77.6405713,
      "tags": {
        "amenity": "spa",
        "name": "Spa Nation",
        "shop": "beauty"
      }
    },
    {
      "type": "node",
      "id": 9981919774,
      "lat": 12.9691264,
      "lon": 77.6405793,
      "tags": {
        "amenity": "clinic",
        "healthcare": "alternative",
        "name": "Hurbz"
      }
    },
    {
      "type": "node",
      "id": 10006815594,
      "lat": 12.9732714,
      "lon": 77.635996,
      "tags": {
        "name": "Machleez sea food",
        "shop": "seafood"
      }
    },
    {
      "type": "node",
      "id": 10051816947,
      "lat": 12.9701549,
      "lon": 77.6371431,
      "tags": {
        "amenity": "restaurant",
        "cuisine": "burger",
        "name": "Burgerman",
        "website": "https://burgerman.in"
      }
    },
    {
      "type": "node",
      "id": 10051816953,
      "lat": 12.9699145,
      "lon": 77.639208,
      "tags": {
        "amenity": "cafe",
        "check_date": "2024-10-13",
        "name": "Araku Coffee",
        "name:en": "Araku Coffee",
        "payment:credit_cards": "yes",
        "payment:debit_cards": "yes",
        "wheelchair": "no"
      }
    },
    {
      "type": "node",
      "id": 10139996736,
      "lat": 12.9699891,
      "lon": 77.6399613,
      "tags": {
        "addr:floor": "4",
        "amenity": "pub",
        "check_date": "2023-12-30",
        "level": "4",
        "name": "Daddy",
        "payment:cash": "yes",
        "payment:mastercard": "yes",
        "payment:visa": "yes",
        "smoking": "separated"
      }
    },
    {
      "type": "node",
      "id": 10139996737,
      "lat": 12.9703055,
      "lon": 77.6399193,
      "tags": {
        "amenity": "cafe",
        "brand": "Starbucks",
        "brand:wikidata": "Q37158",
        "cuisine": "coffee_shop",
        "level": "0",
        "name": "Starbucks",
        "official_name": "Starbucks Coffee",
        "takeaway": "yes"
      }
    },
    {
      "type": "node",
      "id": 10203735337,
      "lat": 12.969133,
      "lon": 77.6358587,
      "tags": {
        "addr:city": "Bangalore",
        "addr:country": "IN",
        "addr:hamlet": "HAL 2nd Stage",
        "addr:housenumber": "3165",
        "addr:postcode": "560038",
        "addr:street": "12th Cross Road",
        "addr:suburb": "Indiranagar",
        "amenity": "cafe",
        "check_date": "2025-03-14",
        "contact:instagram": "humblebeancoffee",
        "email": "info@humblebeancoffee.com",
        "name": "HumbleBean Coffee",
        "opening_hours": "10:00-20:00",
        "takeaway": "yes",
        "website": "https://humblebeancoffee.com"
      }
    },
    {
      "type": "node",
      "id": 10237998981,
      "lat": 12.9725224,
      "lon": 77.6398506,
      "tags": {
        "fee": "yes",
        "leisure": "escape_game",
        "level": "5",
        "name": "The Amazing Escape",
        "phone": "+91 8884440258"
      }
    },
    {
      "type": "node",
      "id": 10279324973,
      "lat": 12.9723622,
      "lon": 77.637045,
      "tags": {
        "addr:city": "Bengaluru",
        "addr:country": "IN",
        "addr:floor": "1",
        "addr:hamlet": "Appareddipalya",
        "addr:housenumber": "10/1",
        "addr:postcode": "560038",
        "addr:street": "1st Cross Road",
        "addr:suburb": "Indiranagar",
        "amenity": "restaurant",
        "check_date": "2024-05-19",
        "contact:instagram": "hokkaido_bangalore",
        "cuisine": "japanese;korean",
        "karaoke": "yes",
        "level": "1",
        "name": "Hokkaido",
        "wheelchair": "limited"
      }
    },
    {
      "type": "node",
      "id": 10280790807,
      "lat": 12.9725047,
      "lon": 77.6265299,
      "tags": {
        "addr:city": "Bengaluru",
        "addr:country": "IN",
        "addr:housenumber": "18/1",
        "addr:postcode": "560008",
        "addr:street": "Cambridge Road",
        "addr:suburb": "Halasuru",
        "amenity": "pub",
        "contact:instagram": "adda1522blr",
        "email": "adda1522blr@gmail.com",
        "mobile": "+919164441522",
        "name": "ADDA 1522",
        "payment:credit_cards": "yes",
        "payment:debit_cards": "yes",
        "phone": "+919916661522",
        "website": "https://adda1522.com/"
      }
    },
    {
      "type": "node",
      "id": 10280801510,
      "lat": 12.9698374,
      "lon": 77.6385241,
      "tags": {
        "amenity": "restaurant",
        "brand": "Daily Sushi",
        "brand:wikidata": "Q124374644",
        "cuisine": "asian",
        "delivery": "yes",
        "name": "Daily Sushi",
        "takeaway": "yes"
      }
    },
    {
      "type": "node",
      "id": 10294506356,
      "lat": 12.9764825,
      "lon": 77.6268299,
      "tags": {
        "amenity": "charging_station",
        "brand": "Yulu",
        "note": "This is a battery swapping station of e-bikes."
      }
    },
    {
      "type": "node",
      "id": 10298154446,
      "lat": 12.9697851,
      "lon": 77.6245511,
      "tags": {
        "amenity": "place_of_worship",
        "religion": "hindu"
      }
    },
    {
      "type": "node",
      "id": 10693248076,
      "lat": 12.966542,
      "lon": 77.6352357,
      "tags": {
        "access": "private",
        "amenity": "parking_entrance",
        "parking": "underground"
      }
    },
    {
      "type": "node",
      "id": 10693248077,
      "lat": 12.9670217,
      "lon": 77.6351586,
      "tags": {
        "access": "yes",
        "amenity": "toilets",
        "check_date": "2025-03-14",
        "level": "0"
      }
    },
    {
      "type": "node",
      "id": 10693248095,
      "lat": 12.9664198,
      "lon": 77.6371428,
      "tags": {
        "alt_name": "Sri Udupi Veg",
        "amenity": "restaurant",
        "cuisine": "regional",
        "diet:vegetarian": "yes",
        "name": "Sri Udupi Food Hub"
      }
    },
    {
      "type": "node",
      "id": 10693248100,
      "lat": 12.9674242,
      "lon": 77.636501,
      "tags": {
        "amenity": "fast_food",
        "delivery": "yes",
        "name": "Zwarma",
        "takeaway": "yes"
      }
    },
    {
      "type": "node",
      "id": 10694736146,
      "lat": 12.9688696,
      "lon": 77.6358915,
      "tags": {
        "amenity": "cafe",
        "name": "Cafe Muziris",
        "takeaway": "yes"
      }
    },
    {
      "type": "node",
      "id": 11019815734,
      "lat": 12.9698139,
      "lon": 77.6379119,
      "tags": {
        "amenity": "cafe",
        "name": "Conçu"
      }
    },
    {
      "type": "node",
      "id": 11051702616,
      "lat": 12.9672483,
      "lon": 77.6369934,
      "tags": {
        "addr:city": "Bengaluru",
        "addr:country": "IN",
        "addr:hamlet": "HAL 2nd Stage",
        "addr:housenumber": "15",
        "addr:postcode": "560008",
        "addr:street": "12th Cross Road",
        "addr:suburb": "Domlur",
        "contact:facebook": "lxgindia.co",
        "contact:instagram": "lxgindia",
        "email": "info@lxgindia.com",
        "leisure": "amusement_arcade",
        "level": "0",
        "name": "League of Extraordinary Gamers",
        "phone": "+91 7798735930",
        "shop": "video_games",
        "short_name": "LXG",
        "website": "https://www.lxgindia.com/"
      }
    },
    {
      "type": "node",
      "id": 11131430547,
      "lat": 12.9652164,
      "lon": 77.6381928,
      "tags": {
        "amenity": "studio",
        "name": "Asianet News",
        "studio": "television"
      }
    },
    {
      "type": "node",
      "id": 11131430548,
      "lat": 12.9661648,
      "lon": 77.6373655,
      "tags": {
        "name": "El Ray Salon and Spa",
        "shop": "hairdresser"
      }
    },
    {
      "type": "node",
      "id": 11131430553,
      "lat": 12.9714323,
      "lon": 77.6351019,
      "tags": {
        "leisure": "fitness_centre",
        "name": "Fitness One"
      }
    },
    {
      "type": "node",
      "id": 11131430555,
      "lat": 12.9702732,
      "lon": 77.6325236,
      "tags": {
        "name": "Sangeeta Mobiles",
        "shop": "mobile_phone"
      }
    },
    {
      "type": "node",
      "id": 11131430556,
      "lat": 12.9696889,
      "lon": 77.6325273,
      "tags": {
        "amenity": "restaurant",
        "cuisine": "chinese",
        "name": "Hong Kong Chinese Restaurant"
      }
    },
    {
      "type": "node",
      "id": 11131430557,
      "lat": 12.9685723,
      "lon": 77.6308921,
      "tags": {
        "name": "theskinstore.in",
        "shop": "cosmetics"
      }
    },
    {
      "type": "node",
      "id": 11131430558,
      "lat": 12.9686442,
      "lon": 77.6291495,
      "tags": {
        "amenity": "fast_food",
        "brand": "Domino's",
        "brand:wikidata": "Q839466",
        "cuisine": "pizza",
        "name": "Domino's",
        "name:kn": "ಡಾಮಿನೋಸ್",
        "takeaway": "yes"
      }
    },
    {
      "type": "node",
      "id": 11131430559,
      "lat": 12.9693732,
      "lon": 77.6287175,
      "tags": {
        "amenity": "bank",
        "brand": "HDFC Bank",
        "brand:wikidata": "Q631047",
        "name": "HDFC Bank",
        "name:kn": "ಎಚ್ ಡಿ ಎಫ್ ಸಿ",
        "short_name": "HDFC"
      }
    },
    {
      "type": "node",
      "id": 11131430560,
      "lat": 12.9714734,
      "lon": 77.6277316,
      "tags": {
        "amenity": "pharmacy",
        "brand": "MedPlus",
        "brand:wikidata": "Q65684234",
        "healthcare": "pharmacy",
        "name": "MedPlus"
      }
    },
    {
      "type": "node",
      "id": 11131430561,
      "lat": 12.9714974,
      "lon": 77.6277058,
      "tags": {
        "amenity": "atm",
        "brand": "Kotak Mahindra Bank",
        "brand:wikidata": "Q2040404",
        "operator": "Kotak Mahindra Bank",
        "operator:wikidata": "Q2040404"
      }
    },
    {
      "type": "node",
      "id": 11131430562,
      "lat": 12.9721652,
      "lon": 77.6273558,
      "tags": {
        "amenity": "kindergarten",
        "name": "Little Wings Pre Primary School"
      }
    },
    {
      "type": "node",
      "id": 11249358262,
      "lat": 12.9739972,
      "lon": 77.6358989,
      "tags": {
        "amenity": "restaurant",
        "name": "Hotel Gowdru"
      }
    },
    {
      "type": "node",
      "id": 11250337401,
      "lat": 12.9724268,
      "lon": 77.6393352,
      "tags": {
        "amenity": "parking_entrance",
        "parking": "underground"
      }
    },
    {
      "type": "node",
      "id": 11268357659,
      "lat": 12.9673234,
      "lon": 77.6400936,
      "tags": {
        "amenity": "pharmacy",
        "healthcare": "pharmacy"
      }
    },
    {
      "type": "node",
      "id": 11359575331,
      "lat": 12.969981,
      "lon": 77.6398642,
      "tags": {
        "name": "Ratnadeep",
        "shop": "supermarket"
      }
    },
    {
      "type": "node",
      "id": 11359585576,
      "lat": 12.9696997,
      "lon": 77.6387029,
      "tags": {
        "name": "J24 Brothers Store",
        "shop": "supermarket"
      }
    },
    {
      "type": "node",
      "id": 11416184412,
      "lat": 12.9650441,
      "lon": 77.6383823,
      "tags": {
        "addr:housenumber": "210",
        "addr:street": "1st Main Road",
        "amenity": "bar",
        "check_date": "2023-12-14",
        "contact:instagram": "https://www.instagram.com/soka_blr",
        "name": "Soka",
        "phone": "+91 93530 45053"
      }
    },
    {
      "type": "node",
      "id": 11499112406,
      "lat": 12.972617,
      "lon": 77.6266243,
      "tags": {
        "addr:floor": "2",
        "amenity": "restaurant",
        "check_date": "2024-01-08",
        "contact:instagram": "https://www.instagram.com/podiandspice",
        "level": "2",
        "name": "Podi and Spice"
      }
    },
    {
      "type": "node",
      "id": 11510253121,
      "lat": 12.9703448,
      "lon": 77.6399169,
      "tags": {
        "level": "1",
        "name": "The Hair Square",
        "shop": "hairdresser",
        "unisex": "yes"
      }
    },
    {
      "type": "node",
      "id": 11534808271,
      "lat": 12.9700536,
      "lon": 77.6361068,
      "tags": {
        "addr:housenumber": "3275/A",
        "addr:street": "12th Main Road",
        "amenity": "restaurant",
        "check_date": "2025-03-14",
        "contact:instagram": "https://www.instagram.com/pizza4ps.india",
        "cuisine": "pizza",
        "name": "Pizza 4P's",
        "phone": "+91 89519 40444",
        "reservation": "recommended",
        "website": "https://pizza4ps.com"
      }
    },
    {
      "type": "node",
      "id": 11542197856,
      "lat": 12.9670247,
      "lon": 77.6352193,
      "tags": {
        "amenity": "library",
        "check_date": "2025-03-14",
        "level": "2",
        "name": "BIC Library",
        "website": "https://bangaloreinternationalcentre.org/"
      }
    },
    {
      "type": "node",
      "id": 11545534708,
      "lat": 12.9672549,
      "lon": 77.6367397,
      "tags": {
        "air_conditioning": "yes",
        "amenity": "community_centre",
        "check_date": "2025-03-14",
        "community_centre": "events_venue",
        "contact:instagram": "underline.center",
        "level": "3",
        "name": "underline center",
        "start_date": "2024-02-15",
        "website": "https://underline.center"
      }
    },
    {
      "type": "node",
      "id": 11556469408,
      "lat": 12.9660703,
      "lon": 77.6369131,
      "tags": {
        "amenity": "waste_basket"
      }
    },
    {
      "type": "node",
      "id": 11556469409,
      "lat": 12.9660354,
      "lon": 77.6369522,
      "tags": {
        "amenity": "bench",
        "backrest": "yes",
        "material": "stone",
        "seats": "3"
      }
    },
    {
      "type": "node",
      "id": 11556469411,
      "lat": 12.9659703,
      "lon": 77.6370127,
      "tags": {
        "amenity": "bench",
        "backrest": "yes",
        "material": "stone",
        "seats": "3"
      }
    },
    {
      "type": "node",
      "id": 11556469412,
      "lat": 12.9658931,
      "lon": 77.6370702,
      "tags": {
        "amenity": "bench",
        "backrest": "yes",
        "material": "stone",
        "seats": "3"
      }
    },
    {
      "type": "node",
      "id": 11556469413,
      "lat": 12.9657737,
      "lon": 77.6371603,
      "tags": {
        "amenity": "bench",
        "backrest": "yes",
        "material": "stone",
        "seats": "3"
      }
    },
    {
      "type": "node",
      "id": 11556469414,
      "lat": 12.9656575,
      "lon": 77.6372715,
      "tags": {
        "amenity": "bench",
        "backrest": "yes",
        "material": "stone",
        "seats": "3"
      }
    },
    {
      "type": "node",
      "id": 11556469415,
      "lat": 12.9656017,
      "lon": 77.6373219,
      "tags": {
        "amenity": "bench",
        "backrest": "yes",
        "material": "stone",
        "seats": "3"
      }
    },
    {
      "type": "node",
      "id": 11556469416,
      "lat": 12.9655427,
      "lon": 77.6373724,
      "tags": {
        "amenity": "bench",
        "backrest": "yes",
        "material": "stone",
        "seats": "3"
      }
    },
    {
      "type": "node",
      "id": 11556469417,
      "lat": 12.9655155,
      "lon": 77.6373962,
      "tags": {
        "amenity": "waste_basket"
      }
    },
    {
      "type": "node",
      "id": 11556469418,
      "lat": 12.9653198,
      "lon": 77.6373513,
      "tags": {
        "amenity": "waste_basket"
      }
    },
    {
      "type": "node",
      "id": 11556469419,
      "lat": 12.9651973,
      "lon": 77.6372195,
      "tags": {
        "amenity": "waste_basket"
      }
    },
    {
      "type": "node",
      "id": 11556469420,
      "lat": 12.9652689,
      "lon": 77.6371535,
      "tags": {
        "amenity": "bench",
        "backrest": "yes",
        "material": "stone",
        "seats": "3"
      }
    },
    {
      "type": "node",
      "id": 11556469421,
      "lat": 12.965334,
      "lon": 77.6370879,
      "tags": {
        "amenity": "bench",
        "backrest": "yes",
        "material": "stone",
        "seats": "3"
      }
    },
    {
      "type": "node",
      "id": 11556469422,
      "lat": 12.9653955,
      "lon": 77.637033,
      "tags": {
        "amenity": "bench",
        "backrest": "yes",
        "material": "stone",
        "seats": "3"
      }
    },
    {
      "type": "node",
      "id": 11556469423,
      "lat": 12.965452,
      "lon": 77.636979,
      "tags": {
        "amenity": "bench",
        "backrest": "yes",
        "material": "stone",
        "seats": "3"
      }
    },
    {
      "type": "node",
      "id": 11556469424,
      "lat": 12.9655204,
      "lon": 77.636917,
      "tags": {
        "amenity": "bench",
        "backrest": "yes",
        "material": "stone",
        "seats": "3"
      }
    },
    {
      "type": "node",
      "id": 11556469425,
      "lat": 12.9656147,
      "lon": 77.6368474,
      "tags": {
        "amenity": "bench",
        "backrest": "yes",
        "material": "stone",
        "seats": "3"
      }
    },
    {
      "type": "node",
      "id": 11556469426,
      "lat": 12.9656855,
      "lon": 77.6367857,
      "tags": {
        "amenity": "bench",
        "backrest": "yes",
        "material": "stone",
        "seats": "3"
      }
    },
    {
      "type": "node",
      "id": 11556469427,
      "lat": 12.9657966,
      "lon": 77.6366986,
      "tags": {
        "amenity": "bench",
        "backrest": "yes",
        "material": "stone",
        "seats": "3"
      }
    },
    {
      "type": "node",
      "id": 11556469428,
      "lat": 12.965834,
      "lon": 77.6366602,
      "tags": {
        "amenity": "bench",
        "backrest": "yes",
        "material": "stone",
        "seats": "3"
      }
    },
    {
      "type": "node",
      "id": 11556469429,
      "lat": 12.9658982,
      "lon": 77.6366866,
      "tags": {
        "amenity": "bench",
        "backrest": "yes",
        "material": "stone",
        "seats": "3"
      }
    },
    {
      "type": "node",
      "id": 11556469430,
      "lat": 12.9659416,
      "lon": 77.6367442,
      "tags": {
        "amenity": "bench",
        "backrest": "yes",
        "material": "stone",
        "seats": "3"
      }
    },
    {
      "type": "node",
      "id": 11556469431,
      "lat": 12.9659908,
      "lon": 77.6368027,
      "tags": {
        "amenity": "bench",
        "backrest": "yes",
        "material": "stone",
        "seats": "3"
      }
    },
    {
      "type": "node",
      "id": 11556469432,
      "lat": 12.9660376,
      "lon": 77.636865,
      "tags": {
        "amenity": "bench",
        "backrest": "yes",
        "material": "stone",
        "seats": "3"
      }
    },
    {
      "type": "node",
      "id": 11564558383,
      "lat": 12.9702372,
      "lon": 77.6380876,
      "tags": {
        "addr:housenumber": "1078",
        "addr:street": "12th Main Road",
        "amenity": "events_venue",
        "check_date": "2024-01-29",
        "contact:instagram": "https://www.instagram.com/thebangaloreroom",
        "email": "thebangaloreroom@gmail.com",
        "name": "The Bangalore Room"
      }
    },
    {
      "type": "node",
      "id": 11564661253,
      "lat": 12.9646059,
      "lon": 77.6386616,
      "tags": {
        "name": "CeeKay Supermarket",
        "shop": "supermarket"
      }
    },
    {
      "type": "node",
      "id": 11564661254,
      "lat": 12.9639981,
      "lon": 77.638396,
      "tags": {
        "name": "Brush amd Blush Salon",
        "shop": "beauty"
      }
    },
    {
      "type": "node",
      "id": 11564661260,
      "lat": 12.9672955,
      "lon": 77.6367143,
      "tags": {
        "amenity": "cafe",
        "check_date": "2025-03-14",
        "cuisine": "coffee_shop",
        "delivery": "yes",
        "level": "0",
        "name": "Blue Tokai",
        "takeaway": "yes"
      }
    },
    {
      "type": "node",
      "id": 11564684569,
      "lat": 12.9657986,
      "lon": 77.6370304,
      "tags": {
        "amenity": "bench",
        "backrest": "yes",
        "material": "stone",
        "seats": "3"
      }
    },
    {
      "type": "node",
      "id": 11564684570,
      "lat": 12.9657945,
      "lon": 77.6370361,
      "tags": {
        "amenity": "bench",
        "backrest": "yes",
        "material": "stone",
        "seats": "3"
      }
    },
    {
      "type": "node",
      "id": 11564684571,
      "lat": 12.9657932,
      "lon": 77.6370482,
      "tags": {
        "amenity": "bench",
        "backrest": "yes",
        "material": "stone",
        "seats": "3"
      }
    },
    {
      "type": "node",
      "id": 11564684572,
      "lat": 12.9658022,
      "lon": 77.6370475,
      "tags": {
        "amenity": "bench",
        "backrest": "yes",
        "material": "stone",
        "seats": "3"
      }
    },
    {
      "type": "node",
      "id": 11564684573,
      "lat": 12.9658066,
      "lon": 77.6370418,
      "tags": {
        "amenity": "bench",
        "backrest": "yes",
        "material": "stone",
        "seats": "3"
      }
    },
    {
      "type": "node",
      "id": 11598459984,
      "lat": 12.9782131,
      "lon": 77.6306819,
      "tags": {
        "check_date": "2025-09-12",
        "check_date:opening_hours": "2025-09-12",
        "internet_access": "no",
        "level": "0",
        "name": "B.P Bakery",
        "opening_hours": "Mo-Sa 09:00-21:00",
        "payment:cards": "no",
        "payment:cash": "yes",
        "payment:credit_cards": "no",
        "payment:debit_cards": "no",
        "shop": "bakery",
        "wheelchair": "no"
      }
    },
    {
      "type": "node",
      "id": 11598473994,
      "lat": 12.9782427,
      "lon": 77.6303751,
      "tags": {
        "check_date": "2024-02-08",
        "description": "Dealers in 2&3 wheeler spare parts",
        "level": "0",
        "name": "New Krishna Automobiles",
        "shop": "car_parts"
      }
    },
    {
      "type": "node",
      "id": 11598477573,
      "lat": 12.9782547,
      "lon": 77.6303592,
      "tags": {
        "check_date": "2024-02-08",
        "internet_access": "no",
        "level": "0",
        "name": "DJ Glass Hardware Studio",
        "payment:cash": "yes",
        "payment:credit_cards": "yes",
        "payment:debit_cards": "yes",
        "shop": "hardware",
        "wheelchair": "no"
      }
    },
    {
      "type": "node",
      "id": 11607152425,
      "lat": 12.9780746,
      "lon": 77.6311299,
      "tags": {
        "amenity": "place_of_worship",
        "name": "Masjid-E-Mohammadi",
        "religion": "muslim"
      }
    },
    {
      "type": "node",
      "id": 11630684166,
      "lat": 12.9782284,
      "lon": 77.6306448,
      "tags": {
        "amenity": "atm",
        "brand": "Canara Bank",
        "brand:en": "Canara Bank",
        "brand:hi": "केनरा बैंक",
        "brand:kn": "ಕೆನರಾ ಬ್ಯಾಂಕ್",
        "brand:pa": "ਕੇਨਰਾ ਬੈਂਕ",
        "brand:pnb": "کینرا بینک",
        "brand:ur": "کینرا بینک",
        "brand:wikidata": "Q2003777",
        "cash_in": "no",
        "check_date": "2024-02-16",
        "currency:INR": "yes",
        "indoor": "yes",
        "name:en": "Canara Bank",
        "name:hi": "केनरा बैंक",
        "name:kn": "ಕೆನರಾ ಬ್ಯಾಂಕ್",
        "name:pa": "ਕੇਨਰਾ ਬੈਂਕ",
        "name:pnb": "کینرا بینک",
        "name:ur": "کینرا بینک",
        "operator": "Canara Bank",
        "operator:wikidata": "Q2003777"
      }
    },
    {
      "type": "node",
      "id": 11637669676,
      "lat": 12.970439,
      "lon": 77.6401833,
      "tags": {
        "check_date": "2024-02-18",
        "name": "Health & Glow",
        "shop": "beauty"
      }
    },
    {
      "type": "node",
      "id": 11637669677,
      "lat": 12.970297,
      "lon": 77.6394943,
      "tags": {
        "brand": "Fabindia",
        "brand:wikidata": "Q5427779",
        "check_date": "2024-02-18",
        "name": "Fabindia",
        "shop": "clothes"
      }
    },
    {
      "type": "node",
      "id": 11637669678,
      "lat": 12.970314,
      "lon": 77.6391971,
      "tags": {
        "amenity": "restaurant",
        "brand": "PizzaExpress",
        "brand:wikidata": "Q662845",
        "check_date": "2024-10-13",
        "cuisine": "pizza",
        "name": "PizzaExpress",
        "wheelchair": "no"
      }
    },
    {
      "type": "node",
      "id": 11637669679,
      "lat": 12.9701915,
      "lon": 77.6386267,
      "tags": {
        "amenity": "fast_food",
        "check_date": "2025-03-14",
        "name": "Samosa Party"
      }
    },
    {
      "type": "node",
      "id": 11659394421,
      "lat": 12.9753929,
      "lon": 77.6257352,
      "tags": {
        "check_date": "2024-02-24",
        "description": "Computerised Duplicate Keys for all types of vehicles",
        "name": "Global Key Maker",
        "shop": "locksmith"
      }
    },
    {
      "type": "node",
      "id": 11659423776,
      "lat": 12.9743258,
      "lon": 77.6240436,
      "tags": {
        "amenity": "post_office",
        "brand": "Blue Dart Express",
        "brand:short": "Blue Dart",
        "brand:wikidata": "Q54621493",
        "check_date": "2024-02-24",
        "name": "Blue Dart",
        "operator": "Blue Dart Express",
        "operator:short": "Blue Dart",
        "operator:wikidata": "Q54621493"
      }
    },
    {
      "type": "node",
      "id": 11659423777,
      "lat": 12.9743419,
      "lon": 77.6240687,
      "tags": {
        "check_date": "2024-02-24",
        "name": "MPS Arts & Crafts",
        "shop": "craft"
      }
    },
    {
      "type": "node",
      "id": 11684157872,
      "lat": 12.9615985,
      "lon": 77.635642,
      "tags": {
        "brand": "Suzuki",
        "brand:wikidata": "Q181642",
        "check_date": "2025-08-23",
        "name": "Suzuki",
        "shop": "motorcycle"
      }
    },
    {
      "type": "node",
      "id": 11687670308,
      "lat": 12.9767459,
      "lon": 77.632192,
      "tags": {
        "check_date": "2024-03-03",
        "internet_access": "no",
        "name": "G.M Men's Beauty Salon",
        "payment:cards": "no",
        "payment:cash": "yes",
        "payment:credit_cards": "no",
        "payment:debit_cards": "no",
        "phone": "+91 98809 12306",
        "shop": "hairdresser",
        "wheelchair": "no"
      }
    },
    {
      "type": "node",
      "id": 11687670309,
      "lat": 12.9768053,
      "lon": 77.6322245,
      "tags": {
        "check_date": "2024-03-03",
        "internet_access": "no",
        "name": "Miracle Look Beauty Salon",
        "opening_hours": "Mo-Fr 10:00-20:00",
        "payment:cards": "no",
        "payment:cash": "yes",
        "payment:credit_cards": "no",
        "payment:debit_cards": "no",
        "phone": "+91 80736 15071",
        "shop": "beauty",
        "wheelchair": "no"
      }
    },
    {
      "type": "node",
      "id": 11687703006,
      "lat": 12.9770118,
      "lon": 77.6319376,
      "tags": {
        "check_date": "2024-03-03",
        "internet_access": "no",
        "name": "Iyengars Amma Pastries",
        "payment:cards": "no",
        "payment:cash": "yes",
        "payment:credit_cards": "no",
        "payment:debit_cards": "no",
        "shop": "bakery",
        "wheelchair": "no"
      }
    },
    {
      "type": "node",
      "id": 11694166515,
      "lat": 12.9753427,
      "lon": 77.6255211,
      "tags": {
        "amenity": "restaurant",
        "check_date": "2024-03-05",
        "internet_access": "no",
        "name": "Sri Krishna Foodline",
        "payment:cards": "no",
        "payment:cash": "yes",
        "payment:credit_cards": "no",
        "payment:debit_cards": "no",
        "phone": "+91 95380 88881",
        "wheelchair": "no"
      }
    },
    {
      "type": "node",
      "id": 11694166516,
      "lat": 12.9753224,
      "lon": 77.6255177,
      "tags": {
        "amenity": "fast_food",
        "check_date": "2024-03-05",
        "cuisine": "juice",
        "internet_access": "no",
        "name": "Juicy Creamz",
        "payment:cards": "no",
        "payment:cash": "yes",
        "payment:credit_cards": "no",
        "payment:debit_cards": "no",
        "wheelchair": "no"
      }
    },
    {
      "type": "node",
      "id": 11694166517,
      "lat": 12.9754162,
      "lon": 77.6255638,
      "tags": {
        "check_date": "2024-03-05",
        "name": "Mahadev Kangan Store",
        "shop": "cosmetics"
      }
    },
    {
      "type": "node",
      "id": 11694166518,
      "lat": 12.9753697,
      "lon": 77.6254264,
      "tags": {
        "check_date": "2024-03-05",
        "internet_access": "no",
        "name": "Aishwarya Pranam Home Needs",
        "payment:cards": "no",
        "payment:cash": "yes",
        "payment:credit_cards": "no",
        "payment:debit_cards": "no",
        "shop": "houseware",
        "wheelchair": "no"
      }
    },
    {
      "type": "node",
      "id": 11694239927,
      "lat": 12.9757077,
      "lon": 77.6259807,
      "tags": {
        "amenity": "bank",
        "brand": "ESAF Small Finance Bank",
        "brand:wikidata": "Q28173964",
        "check_date": "2024-03-05",
        "internet_access": "no",
        "name": "ESAF Small Finance Bank",
        "payment:cash": "yes",
        "payment:credit_cards": "yes",
        "payment:debit_cards": "yes",
        "wheelchair": "no"
      }
    },
    {
      "type": "node",
      "id": 11694239928,
      "lat": 12.9756424,
      "lon": 77.6259639,
      "tags": {
        "check_date": "2024-03-05",
        "internet_access": "no",
        "name": "Meghdooth Suzuki",
        "payment:cash": "yes",
        "payment:credit_cards": "yes",
        "payment:debit_cards": "yes",
        "shop": "motorcycle",
        "wheelchair": "no"
      }
    },
    {
      "type": "node",
      "id": 11694239929,
      "lat": 12.9756782,
      "lon": 77.6259775,
      "tags": {
        "check_date": "2024-03-05",
        "internet_access": "no",
        "name": "Vinay Bankers",
        "payment:cash": "yes",
        "payment:credit_cards": "yes",
        "payment:debit_cards": "yes",
        "shop": "money_lender",
        "wheelchair": "no"
      }
    },
    {
      "type": "node",
      "id": 11694248757,
      "lat": 12.9771934,
      "lon": 77.6270227,
      "tags": {
        "amenity": "restaurant",
        "check_date": "2024-03-05",
        "name": "Samutara Restaurant"
      }
    },
    {
      "type": "node",
      "id": 11694248758,
      "lat": 12.9772272,
      "lon": 77.6270474,
      "tags": {
        "amenity": "restaurant",
        "check_date": "2024-03-05",
        "internet_access": "no",
        "name": "New Taj",
        "payment:cards": "no",
        "payment:cash": "yes",
        "payment:credit_cards": "no",
        "payment:debit_cards": "no",
        "wheelchair": "no"
      }
    },
    {
      "type": "node",
      "id": 11694248759,
      "lat": 12.9772465,
      "lon": 77.627059,
      "tags": {
        "amenity": "post_office",
        "brand": "Desk to Desk Courier & Cargo",
        "brand:short": "DTDC",
        "brand:wikidata": "Q55608802",
        "check_date": "2024-03-05",
        "internet_access": "no",
        "name": "DTDC",
        "operator": "Desk to Desk Courier & Cargo",
        "operator:short": "DTDC",
        "operator:wikidata": "Q55608802",
        "payment:cash": "yes",
        "payment:credit_cards": "yes",
        "payment:debit_cards": "yes",
        "wheelchair": "no"
      }
    },
    {
      "type": "node",
      "id": 11710500777,
      "lat": 12.9779856,
      "lon": 77.6299007,
      "tags": {
        "check_date": "2024-03-10",
        "internet_access": "no",
        "name": "Mutton Stall",
        "payment:cards": "no",
        "payment:cash": "yes",
        "payment:credit_cards": "no",
        "payment:debit_cards": "no",
        "shop": "butcher",
        "wheelchair": "no"
      }
    },
    {
      "type": "node",
      "id": 11710500778,
      "lat": 12.9779459,
      "lon": 77.6299957,
      "tags": {
        "check_date": "2024-03-10",
        "internet_access": "no",
        "name": "Ramson Ladies Tailor",
        "payment:cards": "no",
        "payment:cash": "yes",
        "payment:credit_cards": "no",
        "payment:debit_cards": "no",
        "shop": "tailor",
        "wheelchair": "no"
      }
    },
    {
      "type": "node",
      "id": 11710500779,
      "lat": 12.9780328,
      "lon": 77.6295292,
      "tags": {
        "amenity": "atm",
        "brand": "ICICI Bank",
        "brand:wikidata": "Q1653258",
        "cash_in": "no",
        "check_date": "2024-03-10",
        "currency:INR": "yes",
        "indoor": "yes",
        "operator": "ICICI Bank",
        "operator:wikidata": "Q1653258",
        "short_name": "ICICI"
      }
    },
    {
      "type": "node",
      "id": 11783257554,
      "lat": 12.9759999,
      "lon": 77.6318654,
      "tags": {
        "amenity": "car_wash",
        "automated": "no",
        "check_date": "2024-04-03",
        "name": "Manju Washing Center",
        "opening_hours": "Mo-Su 08:00-21:00",
        "phone": "+91 98866 34400",
        "self_service": "no"
      }
    },
    {
      "type": "node",
      "id": 11786003993,
      "lat": 12.9702907,
      "lon": 77.6393544,
      "tags": {
        "addr:housenumber": "950",
        "addr:street": "12th Main Road",
        "amenity": "restaurant",
        "check_date": "2024-04-04",
        "contact:instagram": "https://www.instagram.com/jamieoliverkitchenindia",
        "name": "Jamie Oliver Kitchen",
        "opening_hours": "11:00-23:00"
      }
    },
    {
      "type": "node",
      "id": 11968716837,
      "lat": 12.9667996,
      "lon": 77.6373194,
      "tags": {
        "addr:floor": "1",
        "addr:housenumber": "3754",
        "addr:street": "11th Cross Road",
        "amenity": "cafe",
        "check_date": "2024-06-10",
        "contact:instagram": "https://www.instagram.com/makipatisserie",
        "contact:twitter": "https://twitter.com/makipatisserie",
        "delivery": "yes",
        "level": "1",
        "name": "Mäki Pâtisserie",
        "opening_hours:drive_through": "We-Su 10:00-17:00",
        "shop": "pastry",
        "takeaway": "yes",
        "website": "https://airmenus.in/makipatisserie/"
      }
    },
    {
      "type": "node",
      "id": 12005884108,
      "lat": 12.970121,
      "lon": 77.6368712,
      "tags": {
        "name": "Mon Cherie",
        "shop": "clothes"
      }
    },
    {
      "type": "node",
      "id": 12005884125,
      "lat": 12.9698746,
      "lon": 77.638388,
      "tags": {
        "addr:city": "Bengaluru",
        "addr:country": "IN",
        "addr:housenumber": "1085",
        "addr:postcode": "560008",
        "addr:street": "12th Main",
        "addr:suburb": "Indiranagar",
        "amenity": "restaurant",
        "contact:instagram": "zedthebaker",
        "email": "info@zedthebaker.com",
        "name": "Zed The Baker",
        "phone": "+91 6366435741",
        "website": "https://zedthebaker.com/"
      }
    },
    {
      "type": "node",
      "id": 12006381672,
      "lat": 12.9732588,
      "lon": 77.6267472,
      "tags": {
        "amenity": "place_of_worship",
        "religion": "hindu"
      }
    },
    {
      "type": "node",
      "id": 12009009947,
      "lat": 12.9691458,
      "lon": 77.6361275,
      "tags": {
        "amenity": "cafe",
        "check_date": "2025-03-14",
        "name": "natuf",
        "start_date": "2024-08-15",
        "website": "https://natuf.in/"
      }
    },
    {
      "type": "node",
      "id": 12014724392,
      "lat": 12.9755065,
      "lon": 77.6253762,
      "tags": {
        "amenity": "school",
        "contact:email": "hm.ggs@rbanmscharities.in",
        "name": "RBANMs Govindammal Senior Primary School"
      }
    },
    {
      "type": "node",
      "id": 12059584769,
      "lat": 12.9698254,
      "lon": 77.6380772,
      "tags": {
        "addr:city": "Bengaluru",
        "addr:country": "IN",
        "addr:hamlet": "Domlur 2nd Stage",
        "addr:housenumber": "1088",
        "addr:postcode": "560008",
        "addr:street": "12th Main Road",
        "addr:suburb": "Indiranagar",
        "amenity": "cafe",
        "check_date": "2025-03-14",
        "contact:instagram": "kopitiamlah",
        "cuisine": "malaysian",
        "email": "hello@kopitiamlah.in",
        "name": "Kopitiam Lah",
        "opening_hours": "Tu-Su 08:30-11:30,12:30-16:30",
        "phone": "+91 72595 43888",
        "start_date": "2024-07-17",
        "website": "https://www.kopitiamlah.com/"
      }
    },
    {
      "type": "node",
      "id": 12061267354,
      "lat": 12.9702381,
      "lon": 77.6385178,
      "tags": {
        "addr:housenumber": "1081",
        "addr:street": "12th Main Road",
        "amenity": "pub",
        "check_date": "2024-07-18",
        "name": "Jimi's",
        "opening_hours": "11:00-24:00",
        "toilets": "yes"
      }
    },
    {
      "type": "node",
      "id": 12075133356,
      "lat": 12.9697917,
      "lon": 77.6383974,
      "tags": {
        "addr:city": "Bengaluru",
        "addr:country": "IN",
        "addr:floor": "1",
        "addr:housenumber": "1085",
        "addr:postcode": "560008",
        "addr:street": "12th Main",
        "addr:suburb": "Indiranagar",
        "amenity": "restaurant",
        "cuisine": "italian",
        "level": "1",
        "name": "La Gioia",
        "opening_hours": "12:00-23:30"
      }
    },
    {
      "type": "node",
      "id": 12107634725,
      "lat": 12.9727674,
      "lon": 77.6397586,
      "tags": {
        "amenity": "cafe",
        "contact:instagram": "neonmarketindia",
        "name": "Neon Market",
        "website": "https://neon.market/"
      }
    },
    {
      "type": "node",
      "id": 12122128698,
      "lat": 12.966624,
      "lon": 77.6369819,
      "tags": {
        "addr:city": "Bengaluru",
        "addr:hamlet": "Domlur 2nd Stage",
        "addr:housenumber": "288",
        "addr:postcode": "560071",
        "addr:street": "3rd Cross Road",
        "addr:suburb": "Indiranagar",
        "amenity": "restaurant",
        "contact:instagram": "navathanyam",
        "cuisine": "regional",
        "delivery": "yes",
        "diet:vegetarian": "only",
        "name": "Navathanyam",
        "opening_hours": "11:00-23:00",
        "takeaway": "yes",
        "toilets": "yes",
        "toilets:access": "customers",
        "website": "https://navathanyam.com/",
        "wheelchair": "no"
      }
    },
    {
      "type": "node",
      "id": 12125802589,
      "lat": 12.969916,
      "lon": 77.6393702,
      "tags": {
        "check_date": "2024-08-22",
        "name": "Hatsu",
        "shop": "clothes"
      }
    },
    {
      "type": "node",
      "id": 12125802590,
      "lat": 12.9699483,
      "lon": 77.6400836,
      "tags": {
        "amenity": "fast_food",
        "brand": "Krispy Kreme",
        "brand:wikidata": "Q1192805",
        "check_date": "2024-08-22",
        "cuisine": "donut",
        "name": "Krispy Kreme",
        "takeaway": "yes"
      }
    },
    {
      "type": "node",
      "id": 12125802597,
      "lat": 12.9697099,
      "lon": 77.6368108,
      "tags": {
        "check_date": "2024-08-22",
        "name": "Cottons Jaipur",
        "shop": "clothes"
      }
    },
    {
      "type": "node",
      "id": 12125960050,
      "lat": 12.9672255,
      "lon": 77.6365957,
      "tags": {
        "check_date": "2024-08-22",
        "name": "Plant's Basket",
        "shop": "garden_centre"
      }
    },
    {
      "type": "node",
      "id": 12127595692,
      "lat": 12.9662519,
      "lon": 77.6372802,
      "tags": {
        "amenity": "fast_food",
        "cuisine": "bengali",
        "name": "Oziano"
      }
    },
    {
      "type": "node",
      "id": 12127595693,
      "lat": 12.9665858,
      "lon": 77.6369456,
      "tags": {
        "amenity": "fast_food",
        "cuisine": "regional",
        "name": "Tanjore Tiffins"
      }
    },
    {
      "type": "node",
      "id": 12190347816,
      "lat": 12.970494,
      "lon": 77.6391484,
      "tags": {
        "check_date": "2024-09-21",
        "name": "Desire Salon",
        "shop": "hairdresser"
      }
    },
    {
      "type": "node",
      "id": 12190347817,
      "lat": 12.9703082,
      "lon": 77.636649,
      "tags": {
        "addr:floor": "G",
        "amenity": "doctors",
        "check_date": "2024-09-21",
        "healthcare": "doctor",
        "level": "0",
        "mobile": "+919868105544",
        "name": "Dr. Kalyan Banerjee",
        "opening_hours": "Mo-We,Fr-Su 10:00-13:30,14:30-19:00; Th off"
      }
    },
    {
      "type": "node",
      "id": 12190347818,
      "lat": 12.9705807,
      "lon": 77.6404586,
      "tags": {
        "check_date": "2024-09-21",
        "name": "Amplifon",
        "shop": "hearing_aids"
      }
    },
    {
      "type": "node",
      "id": 12190347819,
      "lat": 12.9702921,
      "lon": 77.6362546,
      "tags": {
        "addr:floor": "G",
        "amenity": "bank",
        "atm": "yes",
        "brand": "Indian Overseas Bank",
        "brand:wikidata": "Q2003611",
        "check_date": "2024-09-21",
        "level": "0",
        "name": "Indian Overseas Bank",
        "wheelchair": "no"
      }
    },
    {
      "type": "node",
      "id": 12190347820,
      "lat": 12.9702859,
      "lon": 77.6364017,
      "tags": {
        "check_date": "2024-09-21",
        "name": "Meyaa",
        "shop": "clothes"
      }
    },
    {
      "type": "node",
      "id": 12190347822,
      "lat": 12.9703886,
      "lon": 77.6373579,
      "tags": {
        "check_date": "2024-09-21",
        "name": "Cakes Corner",
        "shop": "bakery"
      }
    },
    {
      "type": "node",
      "id": 12287375450,
      "lat": 12.9717604,
      "lon": 77.6275714,
      "tags": {
        "addr:housenumber": "12/36",
        "addr:street": "Cambridge Road",
        "amenity": "restaurant",
        "check_date": "2024-10-25",
        "contact:instagram": "https://www.instagram.com/guerilladiner",
        "cuisine": "burger;mexican",
        "name": "Guerilla Diner"
      }
    },
    {
      "type": "node",
      "id": 12318821670,
      "lat": 12.9773226,
      "lon": 77.6314531,
      "tags": {
        "check_date": "2024-11-06",
        "name": "Sri Lakshmi Pork Shop",
        "shop": "butcher"
      }
    },
    {
      "type": "node",
      "id": 12318821671,
      "lat": 12.9772724,
      "lon": 77.6314306,
      "tags": {
        "amenity": "restaurant",
        "check_date": "2024-11-06",
        "cuisine": "chinese",
        "name": "Tribe Roots"
      }
    },
    {
      "type": "node",
      "id": 12320506601,
      "lat": 12.970248,
      "lon": 77.6361439,
      "tags": {
        "addr:housenumber": "3274/A",
        "addr:street": "11th Main Road",
        "amenity": "restaurant",
        "check_date": "2024-11-07",
        "cuisine": "korean",
        "name": "Koreyaki"
      }
    },
    {
      "type": "node",
      "id": 12326757980,
      "lat": 12.9781055,
      "lon": 77.6320538,
      "tags": {
        "name": "United Glass & Plywood",
        "shop": "hardware"
      }
    },
    {
      "type": "node",
      "id": 12326757981,
      "lat": 12.9781111,
      "lon": 77.6320286,
      "tags": {
        "name": "Prestige Electricals",
        "shop": "electrical"
      }
    },
    {
      "type": "node",
      "id": 12326757982,
      "lat": 12.9781197,
      "lon": 77.6320003,
      "tags": {
        "name": "Laxmi Hardwares",
        "shop": "hardware"
      }
    },
    {
      "type": "node",
      "id": 12327045085,
      "lat": 12.978141,
      "lon": 77.6317635,
      "tags": {
        "name": "ESS Sanitary Hardware",
        "shop": "hardware"
      }
    },
    {
      "type": "node",
      "id": 12327045086,
      "lat": 12.9781418,
      "lon": 77.6317525,
      "tags": {
        "name": "The A.Z. Traders",
        "shop": "locksmith"
      }
    },
    {
      "type": "node",
      "id": 12327045087,
      "lat": 12.9781436,
      "lon": 77.6317392,
      "tags": {
        "name": "Start Seatcover",
        "shop": "yes"
      }
    },
    {
      "type": "node",
      "id": 12327045088,
      "lat": 12.9781394,
      "lon": 77.6317739,
      "tags": {
        "name": "Dhamu Electricals",
        "shop": "electronics"
      }
    },
    {
      "type": "node",
      "id": 12328218540,
      "lat": 12.9686863,
      "lon": 77.6371391,
      "tags": {
        "amenity": "bench",
        "backrest": "yes",
        "material": "stone",
        "seats": "2"
      }
    },
    {
      "type": "node",
      "id": 12328218541,
      "lat": 12.9687363,
      "lon": 77.6370747,
      "tags": {
        "amenity": "bench",
        "backrest": "yes",
        "material": "stone",
        "seats": "2"
      }
    },
    {
      "type": "node",
      "id": 12367648314,
      "lat": 12.9763917,
      "lon": 77.6296215,
      "tags": {
        "amenity": "place_of_worship",
        "name": "Plague Maramma Temple",
        "religion": "hindu"
      }
    },
    {
      "type": "node",
      "id": 12404254558,
      "lat": 12.9764897,
      "lon": 77.6269565,
      "tags": {
        "amenity": "restaurant",
        "check_date": "2024-12-08",
        "name": "Murugan Cafe"
      }
    },
    {
      "type": "node",
      "id": 12404291343,
      "lat": 12.9773097,
      "lon": 77.6284146,
      "tags": {
        "amenity": "community_centre",
        "check_date": "2024-12-08",
        "community_centre": "community_hall",
        "name": "Shri Subramanya Swamy Kalyana Mantapa"
      }
    },
    {
      "type": "node",
      "id": 12549210861,
      "lat": 12.9701239,
      "lon": 77.6357946,
      "tags": {
        "name": "Neeman's",
        "shop": "shoes"
      }
    },
    {
      "type": "node",
      "id": 12646869169,
      "lat": 12.9702491,
      "lon": 77.6382636,
      "tags": {
        "addr:housenumber": "1079",
        "addr:street": "12th Main Road",
        "check_date": "2025-03-09",
        "name": "Superkicks",
        "shop": "shoes",
        "website": "https://www.superkicks.in/"
      }
    },
    {
      "type": "node",
      "id": 12662655086,
      "lat": 12.9674343,
      "lon": 77.636608,
      "tags": {
        "check_date": "2025-03-14",
        "name": "At Ya Thai Spa",
        "shop": "beauty"
      }
    },
    {
      "type": "node",
      "id": 12662655087,
      "lat": 12.9676839,
      "lon": 77.6367985,
      "tags": {
        "amenity": "restaurant",
        "check_date": "2025-08-12",
        "name": "LICK - Lavonne Ice Cream Kitchen"
      }
    },
    {
      "type": "node",
      "id": 12759646717,
      "lat": 12.966328,
      "lon": 77.6371955,
      "tags": {
        "addr:housenumber": "225",
        "addr:street": "Indiranagar Double Road",
        "amenity": "restaurant",
        "check_date": "2025-04-16",
        "contact:instagram": "https://www.instagram.com/toastid_co",
        "name": "Toastid Co",
        "opening_hours": "Tu-Su 12:00-16:00,18:00-22:00",
        "phone": "+91 98303 11417"
      }
    },
    {
      "type": "node",
      "id": 12862846450,
      "lat": 12.9653164,
      "lon": 77.638073,
      "tags": {
        "amenity": "fast_food",
        "cuisine": "burger",
        "delivery": "only",
        "name": "Nashville Fried Chicken",
        "takeaway": "only"
      }
    },
    {
      "type": "node",
      "id": 12877280447,
      "lat": 12.9701785,
      "lon": 77.6385147,
      "tags": {
        "amenity": "bar",
        "contact:instagram": "barwildblr",
        "name": "Wild Bar",
        "toilets": "yes"
      }
    },
    {
      "type": "node",
      "id": 12927909822,
      "lat": 12.9703064,
      "lon": 77.6390491,
      "tags": {
        "amenity": "restaurant",
        "cuisine": "burger",
        "name": "Smash Guys"
      }
    },
    {
      "type": "node",
      "id": 12988984439,
      "lat": 12.9711634,
      "lon": 77.6343582,
      "tags": {
        "amenity": "fast_food",
        "name": "Tronic Rolls"
      }
    },
    {
      "type": "node",
      "id": 12988984440,
      "lat": 12.9693345,
      "lon": 77.6358435,
      "tags": {
        "addr:city": "Bengaluru",
        "addr:hamlet": "HAL 2nd Stage",
        "addr:housenumber": "3163",
        "addr:postcode": "560008",
        "addr:street": "Indiranagar Double Road",
        "addr:suburb": "Indiranagar",
        "amenity": "cafe",
        "name": "TruBrew Cafe"
      }
    },
    {
      "type": "node",
      "id": 12988984441,
      "lat": 12.9694713,
      "lon": 77.6358339,
      "tags": {
        "addr:city": "Bengaluru",
        "addr:hamlet": "HAL 2nd Stage",
        "addr:housenumber": "3162",
        "addr:postcode": "560008",
        "addr:street": "Indiranagar Double Road",
        "addr:suburb": "Indiranagar",
        "amenity": "cafe",
        "contact:instagram": "the.estate.deli",
        "delivery": "yes",
        "name": "The Estate Deli",
        "opening_hours": "11:00-23:00",
        "phone": "+91 6363721915",
        "takeaway": "yes"
      }
    },
    {
      "type": "node",
      "id": 12999130466,
      "lat": 12.9688089,
      "lon": 77.6359519,
      "tags": {
        "amenity": "restaurant",
        "cuisine": "japanese",
        "name": "Katana"
      }
    },
    {
      "type": "node",
      "id": 12999130467,
      "lat": 12.965292,
      "lon": 77.6380121,
      "tags": {
        "amenity": "restaurant",
        "name": "Louis Burger"
      }
    },
    {
      "type": "node",
      "id": 12999130468,
      "lat": 12.965177,
      "lon": 77.6381694,
      "tags": {
        "amenity": "studio",
        "name": "Indigo 91.9FM"
      }
    },
    {
      "type": "node",
      "id": 12999130482,
      "lat": 12.9648993,
      "lon": 77.6392134,
      "tags": {
        "addr:city": "Bengaluru",
        "addr:hamlet": "HAL 2nd Stage",
        "addr:housenumber": "3578",
        "addr:postcode": "560008",
        "addr:street": "4th Cross Road",
        "addr:suburb": "Indiranagar",
        "amenity": "cafe",
        "delivery": "yes",
        "name": "Brott",
        "takeaway": "yes",
        "website": "https://brottcafe.com"
      }
    },
    {
      "type": "node",
      "id": 13013584296,
      "lat": 12.9702451,
      "lon": 77.6393656,
      "tags": {
        "amenity": "cafe",
        "name": "The Coffee Theatre"
      }
    },
    {
      "type": "node",
      "id": 13034094897,
      "lat": 12.9698478,
      "lon": 77.6377114,
      "tags": {
        "amenity": "restaurant",
        "cuisine": "thai",
        "name": "Baan Phad Thai"
      }
    },
    {
      "type": "node",
      "id": 13086275904,
      "lat": 12.9695571,
      "lon": 77.6358305,
      "tags": {
        "amenity": "restaurant",
        "name": "Hunaan"
      }
    },
    {
      "type": "node",
      "id": 13086370348,
      "lat": 12.9714719,
      "lon": 77.6352447,
      "tags": {
        "addr:city": "Bengaluru",
        "addr:district": "Bengaluru Urban",
        "addr:housenumber": "3138",
        "addr:postcode": "560008",
        "addr:street": "Sai Baba Mandira Road",
        "amenity": "dentist",
        "healthcare": "dentist",
        "healthcare:speciality": "implantology",
        "mobile": "+91 82968 01240",
        "name": "Emerge Dental Studio",
        "opening_hours": "Mo-Sa 10:00-13:00,16:00-20:00",
        "operator": "Dr Tanisha Kaulavkar",
        "website": "https://emergedentalstudio.com/"
      }
    },
    {
      "type": "node",
      "id": 13092288296,
      "lat": 12.9615904,
      "lon": 77.635809,
      "tags": {
        "check_date": "2025-08-23",
        "name": "C K Departmental Store",
        "shop": "supermarket"
      }
    },
    {
      "type": "node",
      "id": 13114667051,
      "lat": 12.9777179,
      "lon": 77.6306728,
      "tags": {
        "amenity": "pharmacy",
        "name": "Revive Janata",
        "panoramax": "79f2bf3c-3de5-4988-ae0e-9fb07b69e622"
      }
    },
    {
      "type": "node",
      "id": 13120496069,
      "lat": 12.97041,
      "lon": 77.6403283,
      "tags": {
        "addr:city": "Bengaluru",
        "addr:housenumber": "957",
        "addr:postcode": "560038",
        "addr:street": "12th Main",
        "addr:suburb": "Indiranagar",
        "amenity": "restaurant",
        "bar": "yes",
        "contact:instagram": "circa11.blr",
        "name": "Circa 11",
        "reservation": "recommended",
        "toilets": "yes",
        "website": "https://www.circa11.in/"
      }
    },
    {
      "type": "node",
      "id": 13275708490,
      "lat": 12.9755494,
      "lon": 77.6357652,
      "tags": {
        "amenity": "restaurant",
        "cuisine": "asian;bagel;breakfast;cake;coffee_shop",
        "internet_access": "wlan",
        "internet_access:fee": "no",
        "level": "0",
        "name": "Turtle Matcha",
        "opening_hours": "Mo-Su 12:00-22:00",
        "outdoor_seating": "yes",
        "takeaway": "yes",
        "wheelchair": "limited"
      }
    },
    {
      "type": "node",
      "id": 13288585509,
      "lat": 12.9663636,
      "lon": 77.6377317,
      "tags": {
        "amenity": "cafe",
        "name": "Shinto"
      }
    },
    {
      "type": "way",
      "id": 49712539,
      "center": {
        "lat": 12.9713385,
        "lon": 77.6286336
      },
      "tags": {
        "amenity": "school",
        "name": "Frank Anthony Public School",
        "name:etymology:wikidata": "Q5485043"
      }
    },
    {
      "type": "way",
      "id": 56734546,
      "center": {
        "lat": 12.9636618,
        "lon": 77.6379214
      },
      "tags": {
        "amenity": "college",
        "name": "The Energy Resource Institute",
        "short_name": "TERI",
        "website": "https://www.teriin.org/"
      }
    },
    {
      "type": "way",
      "id": 56734547,
      "center": {
        "lat": 12.9656296,
        "lon": 77.63705
      },
      "tags": {
        "leisure": "park",
        "name": "BBMP Park",
        "name:kn": "ಬೃ. ಬೆ. ಮ. ಪಾ. ಉದ್ಯಾನವನ",
        "operator": "ಬೃಹತ್ ಬೆಂಗಳೂರು ಮಹಾನಗರ ಪಾಲಿಕೆ",
        "operator:en": "Bruhat Bengaluru Mahanagara Palike",
        "operator:ka": "ಬೃಹತ್ ಬೆಂಗಳೂರು ಮಹಾನಗರ ಪಾಲಿಕೆ",
        "operator:short": "BBMP",
        "operator:type": "government",
        "operator:wikidata": "Q4978693"
      }
    },
    {
      "type": "way",
      "id": 59358741,
      "center": {
        "lat": 12.9713479,
        "lon": 77.6367243
      },
      "tags": {
        "amenity": "hospital",
        "healthcare": "hospital",
        "name": "ESI Hospital",
        "name:kn": "ಇಎಸ್ಐ ಆಸ್ಪತ್ರೆ",
        "operator": "Employees' State Insurance",
        "operator:short": "ESI",
        "operator:wikidata": "Q3595726"
      }
    },
    {
      "type": "way",
      "id": 59358860,
      "center": {
        "lat": 12.9765873,
        "lon": 77.6342897
      },
      "tags": {
        "amenity": "college",
        "name": "Sri Bhagavan Mahaveer Jain College",
        "name:kn": "ಶ್ರೀ ಭಗವಾನ್ ಮಹಾವೀರ್ ಜೈನ್ ಕಾಲೇಜು"
      }
    },
    {
      "type": "way",
      "id": 59358879,
      "center": {
        "lat": 12.9802379,
        "lon": 77.6323349
      },
      "tags": {
        "amenity": "grave_yard",
        "landuse": "cemetery",
        "name": "Lakshmipuram Cemetery",
        "name:kn": "ಲಕ್ಷ್ಮೀಪುರಂ ಸ್ಮಶಾನ",
        "religion": "christian"
      }
    },
    {
      "type": "way",
      "id": 105318901,
      "center": {
        "lat": 12.9629172,
        "lon": 77.6373121
      },
      "tags": {
        "alt_name": "BBMP Park",
        "alt_name:kn": "ಬೃ. ಬೆ. ಮ. ಪಾ. ಉದ್ಯಾನವನ",
        "leisure": "park",
        "name": "Shankarnag Park",
        "operator": "ಬೃಹತ್ ಬೆಂಗಳೂರು ಮಹಾನಗರ ಪಾಲಿಕೆ",
        "operator:en": "Bruhat Bengaluru Mahanagara Palike",
        "operator:ka": "ಬೃಹತ್ ಬೆಂಗಳೂರು ಮಹಾನಗರ ಪಾಲಿಕೆ",
        "operator:short": "BBMP",
        "operator:type": "government",
        "operator:wikidata": "Q4978693"
      }
    },
    {
      "type": "way",
      "id": 106369984,
      "center": {
        "lat": 12.9638087,
        "lon": 77.6358375
      },
      "tags": {
        "leisure": "park"
      }
    },
    {
      "type": "way",
      "id": 128510778,
      "center": {
        "lat": 12.9686326,
        "lon": 77.6367992
      },
      "tags": {
        "leisure": "park",
        "name": "Doopanahalli Park",
        "name:kn": "ದೂಪನಹಳ್ಳಿ ಉದ್ಯಾನವನ"
      }
    },
    {
      "type": "way",
      "id": 128515256,
      "center": {
        "lat": 12.9632107,
        "lon": 77.6384512
      },
      "tags": {
        "amenity": "place_of_worship",
        "name": "Dhyan Mandir",
        "name:kn": "ಧ್ಯಾನ ಮಂದಿರ"
      }
    },
    {
      "type": "way",
      "id": 135265537,
      "center": {
        "lat": 12.9681676,
        "lon": 77.6394515
      },
      "tags": {
        "amenity": "place_of_worship",
        "name": "Rama Temple",
        "name:kn": "ರಾಮ ದೇವಸ್ಥಾನ",
        "religion": "hindu"
      }
    },
    {
      "type": "way",
      "id": 138223660,
      "center": {
        "lat": 12.9720071,
        "lon": 77.6379617
      },
      "tags": {
        "amenity": "college",
        "check_date": "2025-08-21",
        "name": "Dr Ambedkar College",
        "name:etymology:wikidata": "Q231690",
        "name:kn": "ಡಾ|| ಅಂಬೇಡ್ಕರ್ ಕಾಲೇಜು"
      }
    },
    {
      "type": "way",
      "id": 138980186,
      "center": {
        "lat": 12.9773214,
        "lon": 77.6278721
      },
      "tags": {
        "amenity": "place_of_worship",
        "name:kn": "ಸುಬ್ರಮಣ್ಯಸ್ವಾಮಿ ದೇವಾಲಯ",
        "religion": "hindu"
      }
    },
    {
      "type": "way",
      "id": 142374812,
      "center": {
        "lat": 12.9704702,
        "lon": 77.6290171
      },
      "tags": {
        "amenity": "school",
        "name": "Lourde's Boys High School"
      }
    },
    {
      "type": "way",
      "id": 147545746,
      "center": {
        "lat": 12.9709615,
        "lon": 77.6366808
      },
      "tags": {
        "leisure": "park"
      }
    },
    {
      "type": "way",
      "id": 147545759,
      "center": {
        "lat": 12.9714584,
        "lon": 77.6370194
      },
      "tags": {
        "leisure": "park"
      }
    },
    {
      "type": "way",
      "id": 147545766,
      "center": {
        "lat": 12.9711896,
        "lon": 77.6370421
      },
      "tags": {
        "leisure": "park"
      }
    },
    {
      "type": "way",
      "id": 147545786,
      "center": {
        "lat": 12.970918,
        "lon": 77.6370551
      },
      "tags": {
        "leisure": "park"
      }
    },
    {
      "type": "way",
      "id": 166560363,
      "center": {
        "lat": 12.9619711,
        "lon": 77.636354
      },
      "tags": {
        "amenity": "place_of_worship",
        "name": "Kothandarameshwarar Temple",
        "name:kn": "ಕೋದಂಡರಾಮೇಶ್ವರ ದೇವಸ್ಥಾನ",
        "religion": "hindu"
      }
    },
    {
      "type": "way",
      "id": 166560438,
      "center": {
        "lat": 12.9644769,
        "lon": 77.6370815
      },
      "tags": {
        "addr:city": "Bengaluru",
        "addr:housenumber": "3",
        "addr:postcode": "560071",
        "addr:street": "4th Main Road, Domlur 2nd Stage",
        "amenity": "community_centre",
        "leisure": "sports_centre",
        "name": "Domlur Club"
      }
    },
    {
      "type": "way",
      "id": 166560446,
      "center": {
        "lat": 12.9655717,
        "lon": 77.6360749
      },
      "tags": {
        "leisure": "park",
        "name": "L.A.Perumal Childrens Park"
      }
    },
    {
      "type": "way",
      "id": 169709339,
      "center": {
        "lat": 12.9699932,
        "lon": 77.633458
      },
      "tags": {
        "leisure": "park",
        "name": "Udani Layout Park"
      }
    },
    {
      "type": "way",
      "id": 169717849,
      "center": {
        "lat": 12.9657146,
        "lon": 77.6380721
      },
      "tags": {
        "amenity": "place_of_worship",
        "check_date": "2023-10-08",
        "name": "Temple",
        "name:kn": "ದೇವಸ್ಥಾನ",
        "religion": "hindu"
      }
    },
    {
      "type": "way",
      "id": 169717868,
      "center": {
        "lat": 12.9663077,
        "lon": 77.6375826
      },
      "tags": {
        "leisure": "park",
        "name": "Paramahansa Yogananda Circle",
        "name:kn": "ಪರಮಹಂಸ ಯೋಗಾನಂದ ವೃತ್ತ"
      }
    },
    {
      "type": "way",
      "id": 169717869,
      "center": {
        "lat": 12.9650449,
        "lon": 77.6388936
      },
      "tags": {
        "leisure": "park"
      }
    },
    {
      "type": "way",
      "id": 175055145,
      "center": {
        "lat": 12.96829,
        "lon": 77.6389392
      },
      "tags": {
        "leisure": "park"
      }
    },
    {
      "type": "way",
      "id": 217529759,
      "center": {
        "lat": 12.9621358,
        "lon": 77.6370712
      },
      "tags": {
        "amenity": "place_of_worship",
        "religion": "hindu"
      }
    },
    {
      "type": "way",
      "id": 217529760,
      "center": {
        "lat": 12.9675217,
        "lon": 77.6398231
      },
      "tags": {
        "amenity": "place_of_worship",
        "building": "temple",
        "name": "Muthyalamma Temple",
        "name:kn": "ಮುತ್ಯಾಲಮ್ಮ ದೇವಸ್ಥಾನ",
        "religion": "hindu"
      }
    },
    {
      "type": "way",
      "id": 217529761,
      "center": {
        "lat": 12.9624117,
        "lon": 77.6350605
      },
      "tags": {
        "amenity": "place_of_worship",
        "name": "Chokkanathaswamy temple",
        "name:kn": "ಶ್ರೀ ಚೊಕ್ಕನಾಥಸ್ವಾಮಿ ದೇವಸ್ಥಾನ",
        "religion": "hindu",
        "wikipedia": "en:Domlur Chokkanathaswamy temple"
      }
    },
    {
      "type": "way",
      "id": 217536635,
      "center": {
        "lat": 12.9713377,
        "lon": 77.6380075
      },
      "tags": {
        "leisure": "park",
        "name": "Dr Ambedkar Park",
        "name:etymology:wikidata": "Q231690",
        "name:kn": "ಅಂಬೇಡ್ಕರ್ ಉದ್ಯಾನ"
      }
    },
    {
      "type": "way",
      "id": 217536642,
      "center": {
        "lat": 12.9682756,
        "lon": 77.6254349
      },
      "tags": {
        "leisure": "park"
      }
    },
    {
      "type": "way",
      "id": 217536645,
      "center": {
        "lat": 12.9737974,
        "lon": 77.6272297
      },
      "tags": {
        "leisure": "park"
      }
    },
    {
      "type": "way",
      "id": 217536646,
      "center": {
        "lat": 12.9684355,
        "lon": 77.626006
      },
      "tags": {
        "landuse": "recreation_ground",
        "leisure": "playground",
        "name": "Gowthamapura Football Ground"
      }
    },
    {
      "type": "way",
      "id": 313832231,
      "center": {
        "lat": 12.9635407,
        "lon": 77.636438
      },
      "tags": {
        "amenity": "place_of_worship",
        "religion": "hindu"
      }
    },
    {
      "type": "way",
      "id": 313927907,
      "center": {
        "lat": 12.964068,
        "lon": 77.6375813
      },
      "tags": {
        "addr:street": "4th Main Road",
        "leisure": "swimming_pool",
        "lit": "yes",
        "name": "Domlur Club Swimming Pool",
        "sport": "swimming"
      }
    },
    {
      "type": "way",
      "id": 313927909,
      "center": {
        "lat": 12.964886,
        "lon": 77.6367311
      },
      "tags": {
        "leisure": "pitch"
      }
    },
    {
      "type": "way",
      "id": 323639489,
      "center": {
        "lat": 12.9769712,
        "lon": 77.6275061
      },
      "tags": {
        "addr:city": "Jogupalya, Bangalore",
        "addr:street": "Swamy Vivekananda Road (Old Madras Road)",
        "amenity": "place_of_worship",
        "building": "yes",
        "check_date": "2024-07-02",
        "name": "Subramania Swamy Temple",
        "name:kn": "ಸುಬ್ರಮಣ್ಯಸ್ವಾಮಿ ದೇವಾಲಯ",
        "religion": "hindu"
      }
    },
    {
      "type": "way",
      "id": 330031500,
      "center": {
        "lat": 12.9762531,
        "lon": 77.6366565
      },
      "tags": {
        "amenity": "school",
        "name": "Sri Cauvery School"
      }
    },
    {
      "type": "way",
      "id": 331497951,
      "center": {
        "lat": 12.9710325,
        "lon": 77.6296727
      },
      "tags": {
        "amenity": "place_of_worship",
        "building": "church",
        "denomination": "catholic",
        "name": "Our Lady of Lourdes Church",
        "name:kn": "ಅವರ್ ಲೇಡಿ ಅಫ್ ಲೂರ್ಡ್ಸ್ ಚರ್ಚ್",
        "religion": "christian"
      }
    },
    {
      "type": "way",
      "id": 343626378,
      "center": {
        "lat": 12.9739385,
        "lon": 77.6359439
      },
      "tags": {
        "addr:city": "Bengaluru",
        "addr:housenumber": "60/1",
        "addr:postcode": "560038",
        "addr:street": "Paramahansa Yogananda Rd,Appareddy Palya, Stage 3, Indiranagar",
        "amenity": "fast_food",
        "brand": "Five Star Chicken",
        "brand:wikidata": "Q127784422",
        "building": "yes",
        "cuisine": "chicken",
        "delivery": "yes",
        "name": "Five Star Chicken",
        "opening_hours": "Mo-Su 12:00-23:00",
        "smoking": "no",
        "takeaway": "yes"
      }
    },
    {
      "type": "way",
      "id": 346250097,
      "center": {
        "lat": 12.9710404,
        "lon": 77.6340486
      },
      "tags": {
        "amenity": "place_of_worship",
        "building": "yes",
        "name": "Madina Masjid",
        "name:kn": "ಮದೀನ ಮಸ್ಜಿದ್",
        "religion": "muslim"
      }
    },
    {
      "type": "way",
      "id": 346250133,
      "center": {
        "lat": 12.9756886,
        "lon": 77.6335932
      },
      "tags": {
        "amenity": "place_of_worship",
        "building": "yes",
        "name": "Temple",
        "name:en": "Temple",
        "name:kn": "ದೇವಸ್ಥಾನ",
        "religion": "hindu"
      }
    },
    {
      "type": "way",
      "id": 346436208,
      "center": {
        "lat": 12.9702189,
        "lon": 77.6382451
      },
      "tags": {
        "addr:city": "Bengaluru",
        "addr:district": "Bengaluru Urban",
        "addr:housenumber": "1079",
        "addr:postcode": "560038",
        "addr:street": "12th Main Road",
        "amenity": "clinic",
        "building": "commercial",
        "building:addr": "1079",
        "building:levels": "2",
        "description": "Skin, Hair, Aesthetic and Laser clinic for beauty and wellness. We offer treatments for Laser Hair reduction, Tattoo removal, wart removal, skin treatments, medi facials, antiaging treatments, diet consultations and body contouring treatments.",
        "healthcare": "clinic",
        "healthcare:speciality": "dermatology;plastic_surgery",
        "image": "https://www.metphi.com/gallery",
        "name": "Metphi Clinic",
        "phone": "+919632077410",
        "website": "https://www.metphi.com/"
      }
    },
    {
      "type": "way",
      "id": 346457738,
      "center": {
        "lat": 12.9732975,
        "lon": 77.6360872
      },
      "tags": {
        "addr:city": "Bangalore",
        "addr:housenumber": "68/1",
        "addr:street": "Indiranagar Double Road",
        "amenity": "restaurant",
        "building": "yes",
        "cuisine": "regional",
        "name": "Jive Pub",
        "opening_hours": "Mo-Su 11:00-23:30",
        "smoking": "isolated"
      }
    },
    {
      "type": "way",
      "id": 346457936,
      "center": {
        "lat": 12.9722959,
        "lon": 77.6343985
      },
      "tags": {
        "access": "private",
        "leisure": "swimming_pool"
      }
    },
    {
      "type": "way",
      "id": 346711854,
      "center": {
        "lat": 12.9714272,
        "lon": 77.627494
      },
      "tags": {
        "addr:city": "Bangalore",
        "addr:district": "Bengaluru Urban",
        "addr:full": "17/4, Cambridge Road, Ulsoor",
        "addr:housenumber": "17/4",
        "addr:postcode": "560008",
        "addr:state": "Karnataka",
        "addr:street": "Cambridge Road",
        "amenity": "hospital",
        "emergency": "no",
        "healthcare": "hospital",
        "name": "Shyamala Hospital",
        "name:kn": "ಶ್ಯಾಮಲಾ ಆಸ್ಪತ್ರೆ",
        "source": "OpenGovernmentData"
      }
    },
    {
      "type": "way",
      "id": 346761097,
      "center": {
        "lat": 12.9720193,
        "lon": 77.6316265
      },
      "tags": {
        "amenity": "place_of_worship",
        "building": "yes",
        "name": "Shri Varasiddhi Vinayaka Temple, Jogupalya",
        "religion": "hindu"
      }
    },
    {
      "type": "way",
      "id": 347062467,
      "center": {
        "lat": 12.9742316,
        "lon": 77.623807
      },
      "tags": {
        "amenity": "place_of_worship",
        "building": "yes",
        "name": "Angala Parameshwari Temple",
        "name:kn": "ಆಂಗಲ ಪರಮೇಶ್ವರಿ ದೇವಸ್ಥಾನ",
        "religion": "hindu"
      }
    },
    {
      "type": "way",
      "id": 347217736,
      "center": {
        "lat": 12.968323,
        "lon": 77.639833
      },
      "tags": {
        "addr:housenumber": "3347",
        "amenity": "clinic",
        "building": "yes",
        "name": "SPARRC Institute"
      }
    },
    {
      "type": "way",
      "id": 364495430,
      "center": {
        "lat": 12.9744829,
        "lon": 77.6331236
      },
      "tags": {
        "landuse": "residential",
        "leisure": "fitness_centre",
        "name": "Citi Nest",
        "place": "locality"
      }
    },
    {
      "type": "way",
      "id": 368398986,
      "center": {
        "lat": 12.9674484,
        "lon": 77.6403017
      },
      "tags": {
        "amenity": "place_of_worship",
        "name": "Sri Maheshwaramma Devi",
        "religion": "hindu"
      }
    },
    {
      "type": "way",
      "id": 368398988,
      "center": {
        "lat": 12.9674749,
        "lon": 77.6400462
      },
      "tags": {
        "amenity": "parking"
      }
    },
    {
      "type": "way",
      "id": 368398989,
      "center": {
        "lat": 12.9681433,
        "lon": 77.6395496
      },
      "tags": {
        "amenity": "place_of_worship",
        "building": "temple",
        "religion": "hindu"
      }
    },
    {
      "type": "way",
      "id": 369295552,
      "center": {
        "lat": 12.973692,
        "lon": 77.6266773
      },
      "tags": {
        "addr:district": "Bengaluru Urban",
        "addr:full": "Kembridge Road, Near Police Station",
        "addr:postcode": "560008",
        "addr:state": "Karnataka",
        "amenity": "hospital",
        "healthcare": "hospital",
        "name": "Halasuru Referal Hospital",
        "operator": "BBMP",
        "source": "OpenGovernmentData"
      }
    },
    {
      "type": "way",
      "id": 369295553,
      "center": {
        "lat": 12.9747988,
        "lon": 77.6252645
      },
      "tags": {
        "amenity": "police",
        "check_date": "2024-02-09",
        "internet_access": "no",
        "level": "0",
        "name": "Halasuru Police Station",
        "name:kn": "ಹಲಸೂರು ಆರಕ್ಷಕ ಠಾಣೆ",
        "wheelchair": "limited"
      }
    },
    {
      "type": "way",
      "id": 369295559,
      "center": {
        "lat": 12.9740209,
        "lon": 77.6256572
      },
      "tags": {
        "amenity": "college",
        "name": "St Anne's Degree College"
      }
    },
    {
      "type": "way",
      "id": 385034309,
      "center": {
        "lat": 12.9745042,
        "lon": 77.6382605
      },
      "tags": {
        "amenity": "place_of_worship",
        "building": "yes",
        "name": "Dharmaraja Temple",
        "name:kn": "ಧರ್ಮರಾಜ ದೇವಸ್ಥಾನ",
        "religion": "hindu"
      }
    },
    {
      "type": "way",
      "id": 416707048,
      "center": {
        "lat": 12.9706904,
        "lon": 77.636151
      },
      "tags": {
        "amenity": "place_of_worship",
        "building": "yes"
      }
    },
    {
      "type": "way",
      "id": 422658659,
      "center": {
        "lat": 12.9778522,
        "lon": 77.6332062
      },
      "tags": {
        "addr:housenumber": "672",
        "addr:postcode": "560038",
        "addr:street": "17th D Cross",
        "building": "yes",
        "building:levels": "4",
        "leisure": "fitness_centre",
        "name": "Diksha Yoga Classes",
        "sport": "yoga"
      }
    },
    {
      "type": "way",
      "id": 422819788,
      "center": {
        "lat": 12.9765732,
        "lon": 77.6352086
      },
      "tags": {
        "leisure": "park"
      }
    },
    {
      "type": "way",
      "id": 422819789,
      "center": {
        "lat": 12.9766113,
        "lon": 77.6343903
      },
      "tags": {
        "leisure": "pitch",
        "sport": "cricket",
        "surface": "grass"
      }
    },
    {
      "type": "way",
      "id": 454038609,
      "center": {
        "lat": 12.9709976,
        "lon": 77.6355707
      },
      "tags": {
        "amenity": "college",
        "name": "College of Nursing - ESIC"
      }
    },
    {
      "type": "way",
      "id": 457146562,
      "center": {
        "lat": 12.9705218,
        "lon": 77.6274434
      },
      "tags": {
        "leisure": "swimming_pool"
      }
    },
    {
      "type": "way",
      "id": 457146563,
      "center": {
        "lat": 12.9702411,
        "lon": 77.6274552
      },
      "tags": {
        "leisure": "swimming_pool"
      }
    },
    {
      "type": "way",
      "id": 478206073,
      "center": {
        "lat": 12.9638649,
        "lon": 77.6279636
      },
      "tags": {
        "addr:district": "Bengaluru Urban",
        "addr:full": "Air Force",
        "addr:postcode": "560007",
        "addr:state": "Karnataka",
        "amenity": "hospital",
        "healthcare": "hospital",
        "name": "Command Hospital (Air Force)",
        "source": "OpenGovernmentData"
      }
    },
    {
      "type": "way",
      "id": 478447819,
      "center": {
        "lat": 12.9725698,
        "lon": 77.628564
      },
      "tags": {
        "leisure": "park"
      }
    },
    {
      "type": "way",
      "id": 526748584,
      "center": {
        "lat": 12.9715381,
        "lon": 77.6287373
      },
      "tags": {
        "leisure": "playground"
      }
    },
    {
      "type": "way",
      "id": 526752169,
      "center": {
        "lat": 12.9719553,
        "lon": 77.6377498
      },
      "tags": {
        "leisure": "pitch"
      }
    },
    {
      "type": "way",
      "id": 549116221,
      "center": {
        "lat": 12.9744233,
        "lon": 77.633078
      },
      "tags": {
        "leisure": "swimming_pool"
      }
    },
    {
      "type": "way",
      "id": 616276010,
      "center": {
        "lat": 12.9738555,
        "lon": 77.6302876
      },
      "tags": {
        "amenity": "school",
        "name": "BBMP College",
        "name:kn": "ಬೃ.ಬೆಂ.ಮ.ಪಾ. ಕಾಲೇಜು"
      }
    },
    {
      "type": "way",
      "id": 616276012,
      "center": {
        "lat": 12.9746241,
        "lon": 77.6305856
      },
      "tags": {
        "amenity": "school",
        "name": "Sri Ramakrishna High School",
        "name:kn": "ಶ್ರೀ ರಾಮಕೃಷ್ಣ ಪ್ರೌಡಶಾಲೆ"
      }
    },
    {
      "type": "way",
      "id": 616276013,
      "center": {
        "lat": 12.9737968,
        "lon": 77.6304013
      },
      "tags": {
        "leisure": "playground"
      }
    },
    {
      "type": "way",
      "id": 616276014,
      "center": {
        "lat": 12.9717468,
        "lon": 77.631471
      },
      "tags": {
        "amenity": "community_centre",
        "name": "Jogupalya Community Hall"
      }
    },
    {
      "type": "way",
      "id": 690850177,
      "center": {
        "lat": 12.9762416,
        "lon": 77.6361409
      },
      "tags": {
        "amenity": "parking",
        "operator": "Nagarjuna Valet Parking"
      }
    },
    {
      "type": "way",
      "id": 691134035,
      "center": {
        "lat": 12.971739,
        "lon": 77.6284244
      },
      "tags": {
        "amenity": "food_court",
        "building": "yes",
        "name": "Canteen Area"
      }
    },
    {
      "type": "way",
      "id": 691134036,
      "center": {
        "lat": 12.9718314,
        "lon": 77.6285742
      },
      "tags": {
        "leisure": "playground"
      }
    },
    {
      "type": "way",
      "id": 691134079,
      "center": {
        "lat": 12.9713244,
        "lon": 77.6282139
      },
      "tags": {
        "amenity": "theatre",
        "building": "yes",
        "name": "Assembly Stage"
      }
    },
    {
      "type": "way",
      "id": 691154686,
      "center": {
        "lat": 12.9764091,
        "lon": 77.636565
      },
      "tags": {
        "hoops": "2",
        "leisure": "pitch",
        "sport": "basketball",
        "surface": "concrete"
      }
    },
    {
      "type": "way",
      "id": 691154687,
      "center": {
        "lat": 12.9762972,
        "lon": 77.6366053
      },
      "tags": {
        "leisure": "playground",
        "surface": "concrete"
      }
    },
    {
      "type": "way",
      "id": 695920527,
      "center": {
        "lat": 12.9717004,
        "lon": 77.6285665
      },
      "tags": {
        "leisure": "pitch",
        "sport": "basketball"
      }
    },
    {
      "type": "way",
      "id": 696980296,
      "center": {
        "lat": 12.9668485,
        "lon": 77.6352863
      },
      "tags": {
        "amenity": "community_centre",
        "architect": "Hundredhands",
        "check_date": "2025-03-14",
        "landuse": "commercial",
        "name": "Bangalore International Centre - BIC",
        "opening_hours": "Mo-Su 10:00-11:00",
        "short_name": "BIC",
        "website": "https://bangaloreinternationalcentre.org/"
      }
    },
    {
      "type": "way",
      "id": 705815280,
      "center": {
        "lat": 12.976533,
        "lon": 77.6353473
      },
      "tags": {
        "amenity": "bicycle_rental"
      }
    },
    {
      "type": "way",
      "id": 726127542,
      "center": {
        "lat": 12.9656288,
        "lon": 77.6306752
      },
      "tags": {
        "building": "yes",
        "name": "Mechanical Laundry",
        "shop": "laundry"
      }
    },
    {
      "type": "way",
      "id": 726127647,
      "center": {
        "lat": 12.9650983,
        "lon": 77.6298797
      },
      "tags": {
        "leisure": "playground",
        "name": "Play Ground"
      }
    },
    {
      "type": "way",
      "id": 1137152703,
      "center": {
        "lat": 12.9733645,
        "lon": 77.6262363
      },
      "tags": {
        "addr:city": "Bengaluru",
        "addr:country": "IN",
        "addr:postcode": "560008",
        "addr:street": "Cambridge Road",
        "addr:suburb": "Halasuru",
        "amenity": "coworking_space",
        "fee": "yes",
        "landuse": "commercial",
        "name": "IndiQube Brigade Square",
        "office": "coworking",
        "operator": "IndiQube"
      }
    },
    {
      "type": "way",
      "id": 1244111887,
      "center": {
        "lat": 12.9657978,
        "lon": 77.6370407
      },
      "tags": {
        "amenity": "shelter",
        "shelter_type": "gazebo"
      }
    },
    {
      "type": "way",
      "id": 1244111889,
      "center": {
        "lat": 12.9659229,
        "lon": 77.6369375
      },
      "tags": {
        "leisure": "fitness_station",
        "sport": "fitness"
      }
    },
    {
      "type": "way",
      "id": 1307054909,
      "center": {
        "lat": 12.9620521,
        "lon": 77.6344555
      },
      "tags": {
        "addr:place": "Dommaluru",
        "amenity": "school",
        "isced:level": "2",
        "name": "Government Moedl Primary School, Domlut",
        "name:kn": "ಸರ್ಕಾರಿ ಮಾದರಿ ಪ್ರಾ.ಶಾಲೆ ದೊಮ್ಮಲೂರು",
        "official_name": "Karnataka Public School",
        "operator": "Department of Education",
        "school": "primary"
      }
    },
    {
      "type": "way",
      "id": 1330557657,
      "center": {
        "lat": 12.9688475,
        "lon": 77.6301549
      },
      "tags": {
        "access": "private",
        "leisure": "park"
      }
    },
    {
      "type": "way",
      "id": 1332562827,
      "center": {
        "lat": 12.9686243,
        "lon": 77.6372528
      },
      "tags": {
        "leisure": "fitness_station"
      }
    },
    {
      "type": "way",
      "id": 1354829391,
      "center": {
        "lat": 12.9773752,
        "lon": 77.6275658
      },
      "tags": {
        "amenity": "parking"
      }
    },
    {
      "type": "way",
      "id": 1365455956,
      "center": {
        "lat": 12.97422,
        "lon": 77.632671
      },
      "tags": {
        "leisure": "garden"
      }
    },
    {
      "type": "way",
      "id": 1365459517,
      "center": {
        "lat": 12.9723486,
        "lon": 77.6304802
      },
      "tags": {
        "amenity": "school"
      }
    },
    {
      "type": "way",
      "id": 1369206475,
      "center": {
        "lat": 12.9727648,
        "lon": 77.6306002
      },
      "tags": {
        "addr:place": "Ulsoor",
        "amenity": "school",
        "isced:level": "1",
        "name": "Corporation HPS Ulsoor",
        "name:kn": "ಕಾರ್ಪೋರೇಶನ್ ಹಿರಿಯ ಪ್ರಾಥಮಿಕ ಶಾಲೆ ಹಲಸೂರು",
        "operator": "Department of Education",
        "school": "primary"
      }
    },
    {
      "type": "way",
      "id": 1379818685,
      "center": {
        "lat": 12.9665427,
        "lon": 77.6318997
      },
      "tags": {
        "leisure": "park",
        "name": "Garden Park",
        "opening_hours": "Mo-Fr 08:00-17:00"
      }
    },
    {
      "type": "way",
      "id": 1416028274,
      "center": {
        "lat": 12.9609894,
        "lon": 77.6349469
      },
      "tags": {
        "amenity": "school",
        "name": "Government School"
      }
    },
    {
      "type": "way",
      "id": 1416028304,
      "center": {
        "lat": 12.9614142,
        "lon": 77.6345753
      },
      "tags": {
        "amenity": "fuel",
        "brand": "Indian Oil",
        "brand:wikidata": "Q1289348",
        "brand:wikipedia": "en:Indian Oil Corporation",
        "compressed_air": "yes",
        "name": "Indian Oil",
        "operator": "Indian Oil"
      }
    }
  ]
}