{
  "area_name": "Srigandada Kaval",
  "osm_id": 19884523,
  "osm_type": "relation",
  "place_type": "administrative",
  "amenity_count": 18,
  "amenities": [
    {
      "type": "node",
      "id": 6938779562,
      "lat": 12.9881868,
      "lon": 77.5087273,
      "tags": {
        "addr:district": "Bengaluru Urban",
        "addr:full": "No. 127/1, Sri Gandhanda Kaval, Sunkadakatte, Viswaneedam Post, Magadi Main Road",
        "addr:postcode": "560054",
        "addr:state": "Karnataka",
        "amenity": "hospital",
        "name": "Sri Lakshmi Multi Speciality Hospital",
        "source": "OpenGovernmentData"
      }
    },
    {
      "type": "node",
      "id": 6944525393,
      "lat": 12.9819768,
      "lon": 77.5108275,
      "tags": {
        "addr:district": "Bengaluru Urban",
        "addr:full": "No 193, So Feet Road, 2nd Block 2nd Stage",
        "addr:postcode": "560072",
        "addr:state": "Karnataka",
        "amenity": "hospital",
        "name": "Unity Lifline Hospital Pvt Ltd",
        "source": "OpenGovernmentData"
      }
    },
    {
      "type": "node",
      "id": 6946978667,
      "lat": 12.988865,
      "lon": 77.5078006,
      "tags": {
        "addr:district": "Bengaluru Rural",
        "addr:full": "Magadi Main Road, Sunkadakatte",
        "addr:postcode": "560091",
        "addr:state": "Karnataka",
        "amenity": "hospital",
        "name": "Ashraya Medinova Pvt Ltd",
        "source": "OpenGovernmentData"
      }
    },
    {
      "type": "node",
      "id": 7927569085,
      "lat": 12.9771352,
      "lon": 77.5075287,
      "tags": {
        "addr:postcode": "560091",
        "addr:street": "11th Cross Road 2nd Stage, RHCS Layout, Annapoorneshwari Nagar, Naagarabhaavi",
        "amenity": "school",
        "email": "communications.oisng@orchids.edu.in",
        "name": "Orchids The International School, Nagarbhavi",
        "opening_hours": "Mo-Su 09:00-18:30",
        "operator": "Orchids International School",
        "phone": "+919513922803",
        "website": "https://www.orchidsinternationalschool.com/bangalore-branches/nagarbhavi/"
      }
    },
    {
      "type": "node",
      "id": 8187959398,
      "lat": 12.9828242,
      "lon": 77.5107928,
      "tags": {
        "addr:full": "Nagarabhavi, Magadi Main Rd, Kandhaya Nagar, sumnahalli, Kottigepalya, Bengaluru, Karnataka",
        "addr:state": "Karnataka",
        "amenity": "bank",
        "brand": "Axis Bank",
        "brand:wikidata": "Q2003549",
        "name": "Axis Bank",
        "name:kn": "ಆಕ್ಸಿಸ್ ಬ್ಯಾಂಕ್"
      }
    },
    {
      "type": "node",
      "id": 8187963425,
      "lat": 12.9801316,
      "lon": 77.5106987,
      "tags": {
        "addr:full": "Old Outer Ring Rd, 2 Block, Naagarabhaavi, Bengaluru, Karnataka",
        "addr:state": "Karnataka",
        "amenity": "bank",
        "brand": "Canara Bank",
        "brand:en": "Canara Bank",
        "brand:hi": "केनरा बैंक",
        "brand:kn": "ಕೆನರಾ ಬ್ಯಾಂಕ್",
        "brand:pa": "ਕੇਨਰਾ ਬੈਂਕ",
        "brand:pnb": "کینرا بینک",
        "brand:ur": "کینرا بینک",
        "brand:wikidata": "Q2003777",
        "brand:wikipedia": "en:Canara Bank",
        "brand:wikipedia:pa": "ਕੇਨਰਾ ਬੈਂਕ",
        "name": "Canara Bank",
        "name:en": "Canara Bank",
        "name:hi": "केनरा बैंक",
        "name:kn": "ಕೆನರಾ ಬ್ಯಾಂಕ್",
        "name:pa": "ਕੇਨਰਾ ਬੈਂਕ",
        "name:pnb": "کینرا بینک",
        "name:ur": "کینرا بینک"
      }
    },
    {
      "type": "node",
      "id": 8196809374,
      "lat": 12.979487,
      "lon": 77.510375,
      "tags": {
        "addr:full": "23, Nagarbhavi Second Stage, BDA Layout, Naagarabhaavi, Bengaluru, Karnataka",
        "addr:state": "Karnataka",
        "amenity": "college",
        "name": "Bsv Pu College Malagala"
      }
    },
    {
      "type": "node",
      "id": 9654252380,
      "lat": 12.9805027,
      "lon": 77.5107577,
      "tags": {
        "amenity": "fast_food",
        "brand": "Domino's",
        "brand:ks": "ڈومینوز",
        "brand:pa": "ਡੋਮੀਨੋਜ਼",
        "brand:ur": "ڈومینوز",
        "brand:wikidata": "Q839466",
        "brand:wikipedia": "en:Domino's Pizza",
        "cuisine": "pizza",
        "name": "Domino's",
        "name:ks": "ڈومینوز",
        "name:pa": "ਡੋਮੀਨੋਜ਼",
        "name:ur": "ڈومینوز",
        "takeaway": "yes"
      }
    },
    {
      "type": "way",
      "id": 1050578227,
      "center": {
        "lat": 12.9834643,
        "lon": 77.5099921
      },
      "tags": {
        "amenity": "college",
        "name": "Kempegowda Institute of Management Studies and Research"
      }
    },
    {
      "type": "way",
      "id": 1123272057,
      "center": {
        "lat": 12.9862801,
        "lon": 77.5112768
      },
      "tags": {
        "amenity": "school",
        "name": "Vokkaligara School",
        "name:kn": "ಒಕ್ಕಲಿಗರ ಶಾಲೆ"
      }
    },
    {
      "type": "way",
      "id": 1207349998,
      "center": {
        "lat": 12.9795044,
        "lon": 77.50757
      },
      "tags": {
        "leisure": "park"
      }
    },
    {
      "type": "way",
      "id": 1207350011,
      "center": {
        "lat": 12.9764024,
        "lon": 77.5081935
      },
      "tags": {
        "leisure": "park"
      }
    },
    {
      "type": "way",
      "id": 1353417433,
      "center": {
        "lat": 12.9885207,
        "lon": 77.5086958
      },
      "tags": {
        "amenity": "fuel"
      }
    },
    {
      "type": "way",
      "id": 1353420079,
      "center": {
        "lat": 12.9924455,
        "lon": 77.5067163
      },
      "tags": {
        "leisure": "park"
      }
    },
    {
      "type": "way",
      "id": 1390079364,
      "center": {
        "lat": 12.9864958,
        "lon": 77.5092195
      },
      "tags": {
        "amenity": "college",
        "name": "RVS College of Nursing Sciences"
      }
    },
    {
      "type": "way",
      "id": 1390079380,
      "center": {
        "lat": 12.9837378,
        "lon": 77.5092114
      },
      "tags": {
        "amenity": "college",
        "name": "Vokkaligara Sangha Industrial Training Institute"
      }
    },
    {
      "type": "way",
      "id": 1393102047,
      "center": {
        "lat": 12.9891179,
        "lon": 77.5046222
      },
      "tags": {
        "leisure": "pitch",
        "sport": "tennis"
      }
    },
    {
      "type": "way",
      "id": 1393102061,
      "center": {
        "lat": 12.9899715,
        "lon": 77.5067244
      },
      "tags": {
        "amenity": "college",
        "landuse": "education",
        "name": "GT College"
      }
    }
  ]
}