{
  "area_name": "Srinivasa Nagara",
  "osm_id": 19884510,
  "osm_type": "relation",
  "place_type": "administrative",
  "amenity_count": 20,
  "amenities": [
    {
      "type": "node",
      "id": 1465008909,
      "lat": 12.9378526,
      "lon": 77.5581352,
      "tags": {
        "leisure": "sports_centre"
      }
    },
    {
      "type": "node",
      "id": 1741466668,
      "lat": 12.9371253,
      "lon": 77.5585054,
      "tags": {
        "amenity": "bank",
        "atm": "yes",
        "brand": "Corporation Bank",
        "brand:wikidata": "Q2003387",
        "brand:wikipedia": "en:Corporation Bank",
        "name": "Corporation Bank",
        "name:en": "Corporation Bank",
        "name:kn": "ಕಾರ್ಪೋರೇಶನ್ ಬ್ಯಾಂಕ್",
        "website": "https://corpbank.com/"
      }
    },
    {
      "type": "node",
      "id": 2331415122,
      "lat": 12.9373332,
      "lon": 77.5582484,
      "tags": {
        "amenity": "atm",
        "brand": "Canara Bank",
        "brand:en": "Canara Bank",
        "brand:hi": "केनरा बैंक",
        "brand:kn": "ಕೆನರಾ ಬ್ಯಾಂಕ್",
        "brand:pa": "ਕੇਨਰਾ ਬੈਂਕ",
        "brand:pnb": "کینرا بینک",
        "brand:ur": "کینرا بینک",
        "brand:wikidata": "Q2003777",
        "brand:wikipedia": "en:Canara Bank",
        "brand:wikipedia:pa": "ਕੇਨਰਾ ਬੈਂਕ",
        "name": "Canara Bank",
        "name:en": "Canara Bank",
        "name:hi": "केनरा बैंक",
        "name:kn": "ಕೆನರಾ ಬ್ಯಾಂಕ್",
        "name:pa": "ਕੇਨਰਾ ਬੈਂਕ",
        "name:pnb": "کینرا بینک",
        "name:ur": "کینرا بینک",
        "operator": "Canara Bank",
        "operator:wikidata": "Q2003777"
      }
    },
    {
      "type": "node",
      "id": 2331429506,
      "lat": 12.9381919,
      "lon": 77.556125,
      "tags": {
        "name": "Relience Fresh",
        "operator": "Relience",
        "shop": "supermarket"
      }
    },
    {
      "type": "node",
      "id": 2331429507,
      "lat": 12.9348094,
      "lon": 77.5556281,
      "tags": {
        "amenity": "atm",
        "brand": "HDFC Bank",
        "brand:wikidata": "Q631047",
        "name": "HDFC Bank",
        "name:kn": "ಎಚ್ ಡಿ ಎಫ್ ಸಿ",
        "operator": "HDFC Bank",
        "operator:wikidata": "Q631047",
        "short_name": "HDFC"
      }
    },
    {
      "type": "node",
      "id": 2331429508,
      "lat": 12.9347536,
      "lon": 77.5556142,
      "tags": {
        "amenity": "atm",
        "brand": "State Bank of India",
        "brand:wikidata": "Q1340361",
        "name": "State Bank of India",
        "name:kn": "ಭಾರತೀಯ ಸ್ಟೇಟ್ ಬ್ಯಾಂಕ್",
        "operator": "State Bank of India",
        "operator:wikidata": "Q1340361",
        "short_name": "SBI"
      }
    },
    {
      "type": "node",
      "id": 2331429509,
      "lat": 12.9381111,
      "lon": 77.5565458,
      "tags": {
        "amenity": "atm",
        "brand": "Bank of Baroda",
        "brand:wikidata": "Q2003797",
        "name": "Bank of Baroda",
        "name:kn": "ಬ್ಯಾಂಕ್ ಆಫ್ ಬರೊಡಾ",
        "operator": "Bank of Baroda",
        "operator:wikidata": "Q2003797"
      }
    },
    {
      "type": "node",
      "id": 2332679567,
      "lat": 12.9369041,
      "lon": 77.5577545,
      "tags": {
        "addr:city": "Bangalore",
        "addr:housename": "Vinayaka Vidya Samsthe",
        "addr:postcode": "560050",
        "addr:street": "1st Main Road, Srinivasa Nagar",
        "amenity": "school",
        "name": "Vinayaka Vidya Samsthe",
        "name:kn": "ವಿನಾಯಕ ವಿದ್ಯಾ ಸಂಸ್ಥೆ"
      }
    },
    {
      "type": "node",
      "id": 4446881168,
      "lat": 12.9378359,
      "lon": 77.5573329,
      "tags": {
        "addr:city": "Bangalore",
        "addr:housenumber": "5",
        "addr:postcode": "560050",
        "addr:street": "80 Feet Road, 1st Stage, Srinivasa Nagar, Banashankari",
        "amenity": "hospital",
        "name": "\" NRS Medical & Dental Specialists Centre\"",
        "phone": "080-26696054"
      }
    },
    {
      "type": "node",
      "id": 4446915945,
      "lat": 12.93599,
      "lon": 77.5534094,
      "tags": {
        "addr:city": "bangalore",
        "addr:housenumber": "84/1",
        "addr:postcode": "560050",
        "addr:street": "9th Main, Dr. Raj Road, Srinivasnagar, Banashankari",
        "name": "Mathrushree Medicals",
        "phone": "+9188847 85707",
        "shop": "medical_supply",
        "source": "justdial"
      }
    },
    {
      "type": "node",
      "id": 4446923444,
      "lat": 12.9383175,
      "lon": 77.5549076,
      "tags": {
        "addr:city": "Bangalore",
        "addr:housenumber": "207",
        "addr:postcode": "560050",
        "addr:street": "7th Main, Near Panchami Chats, 80 Feet Rd, Banashankari Stage I, Srinivasnagar, Banashankari",
        "amenity": "pharmacy",
        "brand": "Apollo Pharmacy",
        "brand:wikidata": "Q62562612",
        "healthcare": "pharmacy",
        "name": "Apollo Pharmacy",
        "name:kn": "ಅಪೋಲೋ ಫಾರ್ಮಸಿ",
        "phone": "080 2295 7428",
        "source": "justdial",
        "website": "https://apollopharmacy.in/"
      }
    },
    {
      "type": "node",
      "id": 4488106563,
      "lat": 12.9378082,
      "lon": 77.5579522,
      "tags": {
        "addr:city": "Bangalore",
        "addr:housenumber": "648",
        "addr:postcode": "560050",
        "addr:street": "10th Main Road, 5th Cross, 2nd Block, Near-Post Office Road, Banashankari 1st Stage",
        "name": "Arjuna Sports",
        "opening_hours": "10:00-22:00",
        "phone": "080 2691 4346",
        "shop": "sports"
      }
    },
    {
      "type": "node",
      "id": 4489407129,
      "lat": 12.9379298,
      "lon": 77.5570137,
      "tags": {
        "addr:city": "Bengaluru",
        "addr:housenumber": "7",
        "addr:postcode": "560050",
        "addr:street": "80 Feet Rd, Srinivasnagar, Banashankari",
        "name": "Winners Sports And Mementos",
        "opening_hours": "08:00-22:00",
        "phone": "+919738110190",
        "shop": "sports"
      }
    },
    {
      "type": "node",
      "id": 4489855033,
      "lat": 12.9373987,
      "lon": 77.5582675,
      "tags": {
        "addr:city": "Bangalore",
        "addr:postcode": "560050",
        "addr:street": "80 Feet Rd, Srinivasnagar, Banashankari,",
        "name": "Cycle City",
        "phone": "094481 93498",
        "shop": "sports"
      }
    },
    {
      "type": "node",
      "id": 7576958079,
      "lat": 12.9366813,
      "lon": 77.5539425,
      "tags": {
        "addr:district": "Bengaluru Urban",
        "addr:full": "Mysore Bank Colony, Srinivasnagar, Banashankari, Bengaluru",
        "addr:postcode": "560050",
        "addr:state": "Karnataka",
        "amenity": "clinic",
        "name": "Ganesha Clinic",
        "source": "Local Knowledge"
      }
    },
    {
      "type": "way",
      "id": 133144337,
      "center": {
        "lat": 12.9374012,
        "lon": 77.5594608
      },
      "tags": {
        "leisure": "stadium",
        "name": "Donkana Field",
        "name:kn": "ಕೊಂಕಣ ಮೈದಾನ",
        "sport": "kabbadi,Cricket;tennis;volleyball"
      }
    },
    {
      "type": "way",
      "id": 172845880,
      "center": {
        "lat": 12.9378089,
        "lon": 77.5583328
      },
      "tags": {
        "amenity": "college"
      }
    },
    {
      "type": "way",
      "id": 224321403,
      "center": {
        "lat": 12.937686,
        "lon": 77.5589287
      },
      "tags": {
        "leisure": "park",
        "name": "Hanumanthanagar Park",
        "name:kn": "ಹನುಮಂತನಗರ ಉದ್ಯಾನವನ"
      }
    },
    {
      "type": "way",
      "id": 224445485,
      "center": {
        "lat": 12.9372234,
        "lon": 77.5588279
      },
      "tags": {
        "amenity": "library",
        "building": "yes",
        "name": "E-Library",
        "operator": "BBMP"
      }
    },
    {
      "type": "way",
      "id": 350555620,
      "center": {
        "lat": 12.93464,
        "lon": 77.5554274
      },
      "tags": {
        "amenity": "place_of_worship",
        "building": "yes",
        "name": "Renuka Yellamma Temple",
        "name:kn": "ರೇಣುಕಾ ಯಲ್ಲಮ್ಮ ದೇವಸ್ಥಾನ",
        "religion": "hindu"
      }
    }
  ]
}