{
  "area_name": "ST Bed Layout",
  "osm_id": 1278162259,
  "osm_type": "node",
  "place_type": "neighbourhood",
  "amenity_count": 443,
  "amenities": [
    {
      "type": "node",
      "id": 303933809,
      "lat": 12.9365346,
      "lon": 77.627846,
      "tags": {
        "amenity": "bank",
        "brand": "State Bank of India",
        "brand:wikidata": "Q1340361",
        "brand:wikipedia": "en:State Bank of India",
        "name": "State Bank of India",
        "name:kn": "ಭಾರತೀಯ ಸ್ಟೇಟ್ ಬ್ಯಾಂಕ್",
        "short_name": "SBI"
      }
    },
    {
      "type": "node",
      "id": 748867206,
      "lat": 12.9380122,
      "lon": 77.6265834,
      "tags": {
        "amenity": "place_of_worship",
        "name": "Ganesh Temple",
        "name:kn": "ಗಣೇಶ ದೇವಸ್ಥಾನ",
        "religion": "hindu",
        "wheelchair": "no"
      }
    },
    {
      "type": "node",
      "id": 839826450,
      "lat": 12.9267313,
      "lon": 77.6346384,
      "tags": {
        "amenity": "clinic",
        "name": "Shilpa Homeopathic Clinic"
      }
    },
    {
      "type": "node",
      "id": 1091310741,
      "lat": 12.9377655,
      "lon": 77.6267552,
      "tags": {
        "addr:street": "80 Feet Road",
        "amenity": "restaurant",
        "name": "Gangothri Restaurant",
        "name:kn": "ಗಂಗೋತ್ರಿ ರೆಸ್ಟೋರೆಂಟ್"
      }
    },
    {
      "type": "node",
      "id": 1091310756,
      "lat": 12.9398542,
      "lon": 77.6251855,
      "tags": {
        "addr:street": "80 Feet Road",
        "amenity": "restaurant",
        "brand": "Pizza Hut",
        "brand:wikidata": "Q191615",
        "cuisine": "pizza",
        "name": "Pizza Hut",
        "name:kn": "ಪಿಟ್ಸ ಹಟ್"
      }
    },
    {
      "type": "node",
      "id": 1091310761,
      "lat": 12.9376227,
      "lon": 77.6269262,
      "tags": {
        "addr:street": "Koramangala Inner Ring Road",
        "amenity": "fast_food",
        "brand": "Taco Bell",
        "brand:wikidata": "Q752941",
        "brand:wikipedia": "en:Taco Bell",
        "cuisine": "tex-mex",
        "name": "Taco Bell",
        "name:kn": "ಟಾಕೊ ಬೆಲ್",
        "takeaway": "yes"
      }
    },
    {
      "type": "node",
      "id": 1274328868,
      "lat": 12.9349444,
      "lon": 77.6293498,
      "tags": {
        "amenity": "cafe",
        "brand": "Barista",
        "brand:wikidata": "Q644735",
        "cuisine": "coffee_shop",
        "name": "Barista",
        "name:kn": "ಬರಿಸ್ಟ",
        "takeaway": "yes"
      }
    },
    {
      "type": "node",
      "id": 1274328878,
      "lat": 12.9355492,
      "lon": 77.6287026,
      "tags": {
        "amenity": "bar",
        "name": "Rendezvous"
      }
    },
    {
      "type": "node",
      "id": 1328615128,
      "lat": 12.9337818,
      "lon": 77.6232571,
      "tags": {
        "name": "Pai Electronics",
        "shop": "hifi"
      }
    },
    {
      "type": "node",
      "id": 1328615136,
      "lat": 12.9362306,
      "lon": 77.6254307,
      "tags": {
        "amenity": "fast_food",
        "name": "Kota Kachori",
        "name:kn": "ಶಾಂತಿ ಸಾಗರ್"
      }
    },
    {
      "type": "node",
      "id": 1328615137,
      "lat": 12.9370423,
      "lon": 77.6245906,
      "tags": {
        "amenity": "restaurant",
        "name": "Coast to Coast Sea food restaurant",
        "name:kn": "ಕೋಸ್ಟ್ ಟು ಕೋಸ್ಟ್ ಸೀ ಫುಡ್ ರೆಸ್ಟೋರೆಂಟ್"
      }
    },
    {
      "type": "node",
      "id": 1328615138,
      "lat": 12.9342471,
      "lon": 77.6234716,
      "tags": {
        "amenity": "restaurant",
        "name": "Tamrind Restaurant",
        "name:kn": "ಟ್ಯಾಮರಿಂಡ್ ರೆಸ್ಟೋರೆಂಟ್"
      }
    },
    {
      "type": "node",
      "id": 1328615139,
      "lat": 12.9370998,
      "lon": 77.6245424,
      "tags": {
        "amenity": "restaurant",
        "name": "Kubey Seafood Restaurant",
        "name:kn": "ಕುಬೆ ಸೀಫುಂಡ್ ರೆಸ್ಟೋರೆಂಟ್"
      }
    },
    {
      "type": "node",
      "id": 1463745568,
      "lat": 12.9372017,
      "lon": 77.6244522,
      "tags": {
        "amenity": "fast_food",
        "name": "Madurai Idly shop"
      }
    },
    {
      "type": "node",
      "id": 1463831582,
      "lat": 12.934295,
      "lon": 77.6300787,
      "tags": {
        "amenity": "restaurant",
        "name": "Maharaja Restaurant",
        "name:kn": "ಮಹಾರಾಜ ರೆಸ್ಟೋರೆಂಟ್"
      }
    },
    {
      "type": "node",
      "id": 1463831750,
      "lat": 12.9338627,
      "lon": 77.6304381,
      "tags": {
        "amenity": "bank",
        "brand": "Axis Bank",
        "brand:wikidata": "Q2003549",
        "name": "Axis Bank",
        "name:kn": "ಆಕ್ಸಿಸ್ ಬ್ಯಾಂಕ್",
        "operator": "Axix"
      }
    },
    {
      "type": "node",
      "id": 1463845802,
      "lat": 12.9312186,
      "lon": 77.6342399,
      "tags": {
        "amenity": "restaurant"
      }
    },
    {
      "type": "node",
      "id": 1464782313,
      "lat": 12.9375475,
      "lon": 77.6279931,
      "tags": {
        "addr:street": "Near SonyWorld Signal, Koramangala, Bangalore",
        "brand": "Lifestyle",
        "brand:wikidata": "Q6545496",
        "name": "Lifestyle",
        "shop": "clothes",
        "wheelchair": "yes"
      }
    },
    {
      "type": "node",
      "id": 1464782937,
      "lat": 12.9380019,
      "lon": 77.62749,
      "tags": {
        "addr:street": "near Sony World signal, Koramangala, Bangalore",
        "brand": "Cromā",
        "brand:wikidata": "Q5187683",
        "name": "Cromā",
        "name:kn": "ಕ್ರೋಮ",
        "shop": "electronics"
      }
    },
    {
      "type": "node",
      "id": 1464784180,
      "lat": 12.9344222,
      "lon": 77.6240149,
      "tags": {
        "addr:street": "Koramangala, Bangalore",
        "amenity": "bank",
        "atm": "yes",
        "brand": "Canara Bank",
        "brand:en": "Canara Bank",
        "brand:hi": "केनरा बैंक",
        "brand:kn": "ಕೆನರಾ ಬ್ಯಾಂಕ್",
        "brand:pa": "ਕੇਨਰਾ ਬੈਂਕ",
        "brand:pnb": "کینرا بینک",
        "brand:ur": "کینرا بینک",
        "brand:wikidata": "Q2003777",
        "brand:wikipedia": "en:Canara Bank",
        "brand:wikipedia:pa": "ਕੇਨਰਾ ਬੈਂਕ",
        "name": "Canara Bank",
        "name:en": "Canara Bank",
        "name:hi": "केनरा बैंक",
        "name:kn": "ಕೆನರಾ ಬ್ಯಾಂಕ್",
        "name:pa": "ਕੇਨਰਾ ਬੈਂਕ",
        "name:pnb": "کینرا بینک",
        "name:ur": "کینرا بینک",
        "website": "https://www.canarabank.com/"
      }
    },
    {
      "type": "node",
      "id": 1464790817,
      "lat": 12.9338891,
      "lon": 77.6232852,
      "tags": {
        "addr:city": "Bengaluru",
        "addr:street": "Koramangala",
        "amenity": "bank",
        "atm": "yes",
        "brand": "IDBI Bank",
        "brand:wikidata": "Q3633485",
        "drive_through": "no",
        "name": "IDBI Bank",
        "name:kn": "ಐಡಿಬಿಐ ಬ್ಯಾಂಕ್",
        "old_name": "Industrial Development Bank of India",
        "short_name": "IDBI"
      }
    },
    {
      "type": "node",
      "id": 1464792416,
      "lat": 12.9352432,
      "lon": 77.6248678,
      "tags": {
        "addr:street": "Koramangala, Bangalore",
        "name": "Mystique Saloons",
        "shop": "hairdresser"
      }
    },
    {
      "type": "node",
      "id": 1464885140,
      "lat": 12.9373048,
      "lon": 77.6244506,
      "tags": {
        "addr:postcode": "560095",
        "addr:street": "17th b main, 6th block",
        "amenity": "pharmacy",
        "brand": "Apollo Pharmacy",
        "brand:wikidata": "Q62562612",
        "dispensing": "yes",
        "healthcare": "pharmacy",
        "name": "Apollo Pharmacy",
        "name:kn": "ಅಪೋಲೋ ಫಾರ್ಮಸಿ"
      }
    },
    {
      "type": "node",
      "id": 1464886374,
      "lat": 12.9337444,
      "lon": 77.6301835,
      "tags": {
        "name": "Levi's and Nike",
        "shop": "shoes"
      }
    },
    {
      "type": "node",
      "id": 1464896674,
      "lat": 12.933506,
      "lon": 77.6303939,
      "tags": {
        "amenity": "fuel",
        "brand": "Hindustan Petroleum",
        "brand:wikidata": "Q1619375",
        "name": "HP Petrol Pump",
        "official_name": "Hindustan Petroleum"
      }
    },
    {
      "type": "node",
      "id": 1464921660,
      "lat": 12.936103,
      "lon": 77.6251968,
      "tags": {
        "addr:street": "Koramangala, Bangalore",
        "amenity": "bank",
        "atm": "yes",
        "brand": "Karur Vysya Bank",
        "brand:wikidata": "Q6373724",
        "brand:wikipedia": "en:Karur Vysya Bank",
        "name": "Karur Vysya Bank",
        "name:en": "Karur Vysya Bank",
        "name:kn": "ಕರೂರು ವೈಶ್ಯ ಬ್ಯಾಂಕ್",
        "short_name": "KVB",
        "website": "https://www.kvb.co.in"
      }
    },
    {
      "type": "node",
      "id": 1464923222,
      "lat": 12.9358758,
      "lon": 77.6259621,
      "tags": {
        "addr:street": "Koramangala, Bangalore",
        "amenity": "bank",
        "atm": "yes",
        "name": "Dhanalakshmi Bank",
        "name:kn": "ದನಲಕ್ಷ್ಮಿ ಬ್ಯಾಂಕ್"
      }
    },
    {
      "type": "node",
      "id": 1464957155,
      "lat": 12.9378758,
      "lon": 77.6266672,
      "tags": {
        "amenity": "place_of_worship",
        "name": "Sri Prasanna Veeranjaneya Temple",
        "religion": "hindu"
      }
    },
    {
      "type": "node",
      "id": 1464958052,
      "lat": 12.9376456,
      "lon": 77.626351,
      "tags": {
        "addr:street": "80 Feet Peripheral Rd, Koramangala 6 Block, KoramangalaBengaluru, Karnataka, India",
        "brand": "Manyavar",
        "brand:wikidata": "Q24906783",
        "check_date": "2024-01-10",
        "name": "Manyavar",
        "shop": "clothes"
      }
    },
    {
      "type": "node",
      "id": 1465177404,
      "lat": 12.9373618,
      "lon": 77.6244338,
      "tags": {
        "amenity": "atm",
        "brand": "HDFC Bank",
        "brand:wikidata": "Q631047",
        "fee": "no",
        "name": "HDFC Bank",
        "operator": "HDFC Bank",
        "operator:wikidata": "Q631047",
        "short_name": "HDFC"
      }
    },
    {
      "type": "node",
      "id": 1465180269,
      "lat": 12.9363586,
      "lon": 77.623812,
      "tags": {
        "amenity": "car_rental",
        "designation": "Car rental, bus/train/flight ticket booking",
        "name": "Geo Travels"
      }
    },
    {
      "type": "node",
      "id": 1465272544,
      "lat": 12.9371376,
      "lon": 77.6241392,
      "tags": {
        "addr:postcode": "560095",
        "addr:street": "17th C Main",
        "designation": "Saree/Salwar shop",
        "name": "Navya shree sarees",
        "shop": "clothes"
      }
    },
    {
      "type": "node",
      "id": 1468025770,
      "lat": 12.9373691,
      "lon": 77.6243143,
      "tags": {
        "amenity": "restaurant",
        "cuisine": "indian",
        "name": "Bhojohori manna",
        "name:kn": "ಬೊಜೊಹೊರಿ ಮನ್ನ"
      }
    },
    {
      "type": "node",
      "id": 1468025772,
      "lat": 12.9350683,
      "lon": 77.6245014,
      "tags": {
        "name": "Ooty Chocolates",
        "shop": "confectionery"
      }
    },
    {
      "type": "node",
      "id": 1468025779,
      "lat": 12.9364077,
      "lon": 77.6250803,
      "tags": {
        "amenity": "restaurant",
        "cuisine": "indian",
        "name": "Imperial Hotel",
        "name:kn": "ಇಂಪಿರಿಯಲ್ ಹೋಟೆಲ್"
      }
    },
    {
      "type": "node",
      "id": 1468025780,
      "lat": 12.9373234,
      "lon": 77.624368,
      "tags": {
        "addr:housename": "1st floor",
        "addr:postcode": "560095",
        "amenity": "restaurant",
        "cuisine": "indian",
        "name": "heritage of Bengal",
        "name:kn": "ಹೆರಿಟೇಜ್ ಆಫ್ ಬೆಂಗಲ್"
      }
    },
    {
      "type": "node",
      "id": 1468025791,
      "lat": 12.9368711,
      "lon": 77.6248696,
      "tags": {
        "amenity": "restaurant",
        "cuisine": "international",
        "name": "Ocean restaurant",
        "name:kn": "ಒಷನ್ ರೆಸ್ಟೊರೆಂಟ್"
      }
    },
    {
      "type": "node",
      "id": 1468516359,
      "lat": 12.936869,
      "lon": 77.6247225,
      "tags": {
        "addr:postcode": "560095",
        "addr:street": "Koramangala",
        "amenity": "restaurant",
        "cuisine": "indian",
        "name": "Naati oota",
        "name:kn": "ನಾಟಿ ಊಟ"
      }
    },
    {
      "type": "node",
      "id": 1468516363,
      "lat": 12.9366613,
      "lon": 77.6253726,
      "tags": {
        "amenity": "atm",
        "brand": "Indian Bank",
        "brand:wikidata": "Q2003789",
        "fee": "no",
        "name": "Indian Bank",
        "name:kn": "ಇಂಡಿಯನ್ ಬ್ಯಾಂಕ್",
        "operator": "Indian Bank",
        "operator:wikidata": "Q2003789"
      }
    },
    {
      "type": "node",
      "id": 1468516370,
      "lat": 12.9364508,
      "lon": 77.6239983,
      "tags": {
        "addr:postcode": "560095",
        "addr:street": "17th b main koramangala",
        "designation": "Car Accessories and services",
        "name": "Kinetic Zone Service station",
        "shop": "car_repair"
      }
    },
    {
      "type": "node",
      "id": 1468516372,
      "lat": 12.9368847,
      "lon": 77.6246206,
      "tags": {
        "amenity": "restaurant",
        "cuisine": "chinese",
        "name": "Chinese Cottage",
        "name:kn": "ಚೈನೀಸ್ ಕಾಟೆಜ್"
      }
    },
    {
      "type": "node",
      "id": 1468516373,
      "lat": 12.936754,
      "lon": 77.6247439,
      "tags": {
        "addr:postcode": "560095",
        "name": "HMS Mutton center",
        "shop": "butcher"
      }
    },
    {
      "type": "node",
      "id": 1468540658,
      "lat": 12.9377944,
      "lon": 77.6266966,
      "tags": {
        "amenity": "restaurant",
        "cuisine": "indian",
        "name": "Chalo Punjab",
        "name:kn": "ಚಲೊ ಪಂಜಾಬ್"
      }
    },
    {
      "type": "node",
      "id": 1468540672,
      "lat": 12.937648,
      "lon": 77.6267717,
      "tags": {
        "name": "Dreams on wheelz",
        "shop": "car_repair"
      }
    },
    {
      "type": "node",
      "id": 1468540675,
      "lat": 12.9382962,
      "lon": 77.626001,
      "tags": {
        "name": "Namdhari's fresh",
        "shop": "supermarket"
      }
    },
    {
      "type": "node",
      "id": 1468540676,
      "lat": 12.9361835,
      "lon": 77.6258638,
      "tags": {
        "amenity": "restaurant",
        "cuisine": "international",
        "name": "Ambrosia restaurant",
        "name:kn": "ಅಂಬ್ರೊಸಿಯ ರೆಸ್ಟೊರೆಂಟ್"
      }
    },
    {
      "type": "node",
      "id": 1468540684,
      "lat": 12.9364455,
      "lon": 77.6255862,
      "tags": {
        "name": "OM Stationery and xerox",
        "shop": "convenience"
      }
    },
    {
      "type": "node",
      "id": 1468540691,
      "lat": 12.9380577,
      "lon": 77.6261445,
      "tags": {
        "amenity": "restaurant",
        "cuisine": "ice_cream",
        "name": "Kwality Walls",
        "name:kn": "ಕ್ವಲಿಟಿ ವಾಲ್ಸ್"
      }
    },
    {
      "type": "node",
      "id": 1468540703,
      "lat": 12.9401157,
      "lon": 77.6250336,
      "tags": {
        "amenity": "atm",
        "brand": "IndusInd Bank",
        "brand:wikidata": "Q2040323",
        "check_date": "2021-11-28",
        "fee": "no",
        "name": "IndusInd Bank",
        "operator": "IndusInd Bank",
        "operator:wikidata": "Q2040323"
      }
    },
    {
      "type": "node",
      "id": 1468540710,
      "lat": 12.937482,
      "lon": 77.6265625,
      "tags": {
        "name": "Sheelu Flowers",
        "shop": "florist"
      }
    },
    {
      "type": "node",
      "id": 1468540713,
      "lat": 12.9377879,
      "lon": 77.6263171,
      "tags": {
        "amenity": "ice_cream",
        "brand": "Baskin-Robbins",
        "brand:wikidata": "Q584601",
        "cuisine": "ice_cream",
        "name": "Baskin-Robbins",
        "name:kn": "ಬಾಸ್ಕಿನ್ ರಾಬಿನ್ಸ್"
      }
    },
    {
      "type": "node",
      "id": 1468540717,
      "lat": 12.9362155,
      "lon": 77.6259241,
      "tags": {
        "amenity": "bar",
        "name": "B52 Bar"
      }
    },
    {
      "type": "node",
      "id": 1468540733,
      "lat": 12.9402371,
      "lon": 77.6253403,
      "tags": {
        "addr:district": "Bengaluru Urban",
        "addr:full": "No.897/C, 80 Feet Road, 6th Block, Koramangala",
        "addr:postcode": "560095",
        "addr:state": "Karnataka",
        "addr:subdistrict": "Koramangala",
        "amenity": "hospital",
        "emergency": "yes",
        "healthcare": "hospital",
        "name": "Vasan Eye Care Hospital, Koramangala",
        "operator:type": "private",
        "source": "OpenGovernmentData",
        "website": "http://www.vasaneye.in/"
      }
    },
    {
      "type": "node",
      "id": 1468540736,
      "lat": 12.937363,
      "lon": 77.626659,
      "tags": {
        "name": "Brown Tree Super",
        "shop": "supermarket"
      }
    },
    {
      "type": "node",
      "id": 1468540754,
      "lat": 12.9367383,
      "lon": 77.6259938,
      "tags": {
        "amenity": "atm",
        "brand": "Bank of Baroda",
        "brand:wikidata": "Q2003797",
        "name": "Bank of Baroda",
        "name:kn": "ವಿಜಯ ಬ್ಯಾಂಕು",
        "operator": "Bank of Baroda",
        "operator:wikidata": "Q2003797"
      }
    },
    {
      "type": "node",
      "id": 1468540756,
      "lat": 12.9378271,
      "lon": 77.6266388,
      "tags": {
        "name": "Mahindra showroom",
        "shop": "car"
      }
    },
    {
      "type": "node",
      "id": 1469643994,
      "lat": 12.9272988,
      "lon": 77.6375732,
      "tags": {
        "amenity": "kindergarten",
        "name": "Kidzee Play school"
      }
    },
    {
      "type": "node",
      "id": 1469644300,
      "lat": 12.9286689,
      "lon": 77.6354869,
      "tags": {
        "amenity": "kindergarten"
      }
    },
    {
      "type": "node",
      "id": 1470856095,
      "lat": 12.9377559,
      "lon": 77.6239822,
      "tags": {
        "amenity": "bank",
        "atm": "yes",
        "brand": "Corporation Bank",
        "brand:wikidata": "Q2003387",
        "brand:wikipedia": "en:Corporation Bank",
        "name": "Corporation Bank",
        "name:en": "Corporation Bank",
        "name:kn": "ಕಾರ್ಪರೇಷನ್ ಬ್ಯಾಂಕ್",
        "website": "https://corpbank.com/"
      }
    },
    {
      "type": "node",
      "id": 1471128648,
      "lat": 12.9364989,
      "lon": 77.6240368,
      "tags": {
        "name": "Auto Fusion",
        "shop": "hifi"
      }
    },
    {
      "type": "node",
      "id": 1472871254,
      "lat": 12.9322872,
      "lon": 77.6320394,
      "tags": {
        "addr:postcode": "560034",
        "addr:street": "80 Feet Road",
        "amenity": "bank",
        "name": "Unity Small Finance Bank"
      }
    },
    {
      "type": "node",
      "id": 1472874576,
      "lat": 12.9345413,
      "lon": 77.6268856,
      "tags": {
        "amenity": "place_of_worship",
        "denomination": "methodist",
        "name": "Kormangala Methodist Church",
        "religion": "christian"
      }
    },
    {
      "type": "node",
      "id": 1473308076,
      "lat": 12.9377532,
      "lon": 77.6266479,
      "tags": {
        "amenity": "pharmacy",
        "healthcare": "pharmacy",
        "name": "Himalaya Health care - druggists"
      }
    },
    {
      "type": "node",
      "id": 1473308080,
      "lat": 12.9353953,
      "lon": 77.6233434,
      "tags": {
        "amenity": "pharmacy",
        "healthcare": "pharmacy",
        "name": "Arathi medicals"
      }
    },
    {
      "type": "node",
      "id": 1473308082,
      "lat": 12.938682,
      "lon": 77.6299136,
      "tags": {
        "amenity": "restaurant",
        "cuisine": "international",
        "name": "Cube Multi-cuisine Restaurant",
        "name:kn": "ಕ್ಯುಬ್ ಮಲ್ಟಿ-ಕ್ಯುಸಿನ್ ರೆಸ್ಟೊರೆಂಟ್"
      }
    },
    {
      "type": "node",
      "id": 1473308085,
      "lat": 12.9375545,
      "lon": 77.6281177,
      "tags": {
        "amenity": "restaurant",
        "cuisine": "international",
        "name": "Polynation",
        "name:kn": "ಪೊಲಿನೆಶನ್",
        "wheelchair": "yes"
      }
    },
    {
      "type": "node",
      "id": 1473308091,
      "lat": 12.9375258,
      "lon": 77.6285425,
      "tags": {
        "brand": "Max",
        "brand:wikidata": "Q24939079",
        "name": "Max",
        "shop": "clothes"
      }
    },
    {
      "type": "node",
      "id": 1473308099,
      "lat": 12.9386872,
      "lon": 77.6304956,
      "tags": {
        "amenity": "bank",
        "atm": "yes",
        "brand": "HDFC Bank",
        "brand:wikidata": "Q631047",
        "name": "HDFC Bank",
        "name:kn": "ಎಚ್ ಡಿ ಎಫ್ ಸಿ",
        "short_name": "HDFC"
      }
    },
    {
      "type": "node",
      "id": 1473308100,
      "lat": 12.9367337,
      "lon": 77.6249849,
      "tags": {
        "name": "Roots Multiclean",
        "shop": "hifi"
      }
    },
    {
      "type": "node",
      "id": 1473308101,
      "lat": 12.9373924,
      "lon": 77.6279943,
      "tags": {
        "name": "Home Lifestyle",
        "shop": "hifi"
      }
    },
    {
      "type": "node",
      "id": 1473308109,
      "lat": 12.9376735,
      "lon": 77.6264373,
      "tags": {
        "amenity": "restaurant",
        "cuisine": "indian",
        "name": "Taste of Bihar",
        "name:kn": "ಟೆಸ್ಟ್ ಆಫ್ ಬಿಹಾರ್"
      }
    },
    {
      "type": "node",
      "id": 1474324419,
      "lat": 12.9372827,
      "lon": 77.6245142,
      "tags": {
        "name": "Sumith Provision & Condiments",
        "shop": "convenience"
      }
    },
    {
      "type": "node",
      "id": 1474324438,
      "lat": 12.9374604,
      "lon": 77.6242714,
      "tags": {
        "name": "Crystal Stationeries",
        "shop": "convenience"
      }
    },
    {
      "type": "node",
      "id": 1666065240,
      "lat": 12.9382713,
      "lon": 77.63156,
      "tags": {
        "amenity": "place_of_worship",
        "name": "Temple",
        "name:kn": "ದೇವಸ್ಥಾನ",
        "religion": "hindu"
      }
    },
    {
      "type": "node",
      "id": 1722528824,
      "lat": 12.9376941,
      "lon": 77.6270393,
      "tags": {
        "alt_name": "Kentucky Fried Chicken",
        "alt_name:en": "Kentucky Fried Chicken",
        "alt_name:hi": "केंटुकी फ्राइड चिकन",
        "alt_name:pa": "ਕੈਂਟੁਕੀ ਫ੍ਰਾਈਡ ਚਿਕਨ",
        "alt_name:pnb": "کینٹکی فرائیڈ چکن",
        "alt_name:ur": "کینٹکی فرائیڈ چکن",
        "amenity": "fast_food",
        "brand": "KFC",
        "brand:en": "KFC",
        "brand:hi": "केएफसी",
        "brand:pa": "ਕੇਐਫਸੀ",
        "brand:pnb": "کے ایف سی",
        "brand:ur": "کے ایف سی",
        "brand:wikidata": "Q524757",
        "brand:wikipedia": "en:KFC",
        "brand:wikipedia:pa": "ਕੇਐਫਸੀ",
        "brand:wikipedia:ur": "کینٹکی فرائیڈ چکن",
        "cuisine": "chicken",
        "name": "KFC",
        "name:en": "KFC",
        "name:hi": "केएफसी",
        "name:pa": "ਕੇਐਫਸੀ",
        "name:pnb": "کے ایف سی",
        "name:ur": "کے ایف سی",
        "takeaway": "yes"
      }
    },
    {
      "type": "node",
      "id": 1744342634,
      "lat": 12.9365165,
      "lon": 77.6274121,
      "tags": {
        "amenity": "restaurant",
        "name": "Great Indian Thali",
        "name:kn": "ಗ್ರೇಟ್ ಇಂಡಿಯನ್ ತಾಲಿ"
      }
    },
    {
      "type": "node",
      "id": 2285451602,
      "lat": 12.9347958,
      "lon": 77.6298075,
      "tags": {
        "amenity": "bank",
        "atm": "yes",
        "brand": "HDFC Bank",
        "brand:wikidata": "Q631047",
        "name": "HDFC Bank",
        "name:kn": "ಎಚ್ ಡಿ ಎಫ್ ಸಿ",
        "short_name": "HDFC"
      }
    },
    {
      "type": "node",
      "id": 2285451678,
      "lat": 12.9347383,
      "lon": 77.6298155,
      "tags": {
        "amenity": "atm",
        "brand": "HDFC Bank",
        "brand:wikidata": "Q631047",
        "fee": "no",
        "name": "HDFC Bank",
        "operator": "HDFC Bank",
        "operator:wikidata": "Q631047",
        "short_name": "HDFC"
      }
    },
    {
      "type": "node",
      "id": 2285453337,
      "lat": 12.9349187,
      "lon": 77.6305022,
      "tags": {
        "amenity": "hospital",
        "emergency": "no",
        "healthcare": "hospital",
        "name": "Magnus Diagnostic Lab"
      }
    },
    {
      "type": "node",
      "id": 2285468345,
      "lat": 12.9285453,
      "lon": 77.6283645,
      "tags": {
        "shop": "seafood"
      }
    },
    {
      "type": "node",
      "id": 2285468403,
      "lat": 12.9285532,
      "lon": 77.6282626,
      "tags": {
        "shop": "hairdresser"
      }
    },
    {
      "type": "node",
      "id": 2285468610,
      "lat": 12.9295466,
      "lon": 77.6291289,
      "tags": {
        "amenity": "pharmacy",
        "healthcare": "pharmacy",
        "name": "Ajit Medicals"
      }
    },
    {
      "type": "node",
      "id": 2285469191,
      "lat": 12.9356219,
      "lon": 77.631044,
      "tags": {
        "amenity": "pharmacy",
        "healthcare": "pharmacy",
        "name": "Trustx"
      }
    },
    {
      "type": "node",
      "id": 2285469320,
      "lat": 12.935306,
      "lon": 77.6306217,
      "tags": {
        "addr:housenumber": "924",
        "addr:street": "1st Cross Road",
        "amenity": "pharmacy",
        "healthcare": "pharmacy",
        "name": "Pharma Plus"
      }
    },
    {
      "type": "node",
      "id": 2285469459,
      "lat": 12.9355043,
      "lon": 77.6314571,
      "tags": {
        "addr:street": "1st Cross Road",
        "name": "Supriya Stores",
        "shop": "convenience"
      }
    },
    {
      "type": "node",
      "id": 2285469526,
      "lat": 12.9333424,
      "lon": 77.6298772,
      "tags": {
        "shop": "greengrocer"
      }
    },
    {
      "type": "node",
      "id": 2285469554,
      "lat": 12.9334024,
      "lon": 77.6298023,
      "tags": {
        "name": "Food Mall",
        "shop": "convenience"
      }
    },
    {
      "type": "node",
      "id": 2449073372,
      "lat": 12.9374015,
      "lon": 77.6283868,
      "tags": {
        "access": "customers",
        "amenity": "parking",
        "fee": "yes",
        "parking": "multi-storey"
      }
    },
    {
      "type": "node",
      "id": 3016052466,
      "lat": 12.9386176,
      "lon": 77.6288681,
      "tags": {
        "addr:city": "Bangalore",
        "addr:postcode": "560047",
        "addr:street": "Inner Ring Road",
        "name": "Mark & Spencer",
        "organic": "yes",
        "shop": "supermarket",
        "website": "https://www.marksandspencer.com/"
      }
    },
    {
      "type": "node",
      "id": 3145158638,
      "lat": 12.9342822,
      "lon": 77.6317632,
      "tags": {
        "leisure": "park",
        "name": "S T Bed Park at 5th Cross"
      }
    },
    {
      "type": "node",
      "id": 3145158639,
      "lat": 12.9330379,
      "lon": 77.6329291,
      "tags": {
        "leisure": "park",
        "name": "S T Bed Park and Field at 8th Cross"
      }
    },
    {
      "type": "node",
      "id": 3207060595,
      "lat": 12.9382385,
      "lon": 77.6328181,
      "tags": {
        "amenity": "atm",
        "brand": "Axis Bank",
        "brand:wikidata": "Q2003549",
        "name": "Axis Bank",
        "name:kn": "ಅಕ್ಸಿಸ್ ಬ್ಯಾಂಕ್",
        "operator": "Axis Bank",
        "operator:wikidata": "Q2003549"
      }
    },
    {
      "type": "node",
      "id": 3363283465,
      "lat": 12.9374907,
      "lon": 77.6281009,
      "tags": {
        "leisure": "sports_centre",
        "name": "Fitness First"
      }
    },
    {
      "type": "node",
      "id": 3782893189,
      "lat": 12.9342864,
      "lon": 77.6301111,
      "tags": {
        "amenity": "bar",
        "name": "1522"
      }
    },
    {
      "type": "node",
      "id": 3801706348,
      "lat": 12.937762,
      "lon": 77.6271125,
      "tags": {
        "amenity": "restaurant",
        "craft": "brewery",
        "level": "3;2",
        "name": "Ichin Restaurant"
      }
    },
    {
      "type": "node",
      "id": 3960924263,
      "lat": 12.9324956,
      "lon": 77.631848,
      "tags": {
        "addr:postcode": "560034",
        "addr:street": "80 Feet Road",
        "amenity": "bank",
        "atm": "yes",
        "brand": "Axis Bank",
        "brand:wikidata": "Q2003549",
        "brand:wikipedia": "en:Axis Bank",
        "level": "0",
        "name": "Axis Bank",
        "name:en": "Axis Bank",
        "name:kn": "ಅಕ್ಸಿಸ್ ಬ್ಯಾಂಕ್",
        "website": "https://www.axisbank.com",
        "wheelchair": "no"
      }
    },
    {
      "type": "node",
      "id": 4133355393,
      "lat": 12.9274912,
      "lon": 77.6373711,
      "tags": {
        "amenity": "restaurant",
        "contact:phone": "08065321900",
        "contact:website": "manis.in",
        "drive_in": "no",
        "name": "Mani's Dum Biriyani",
        "operator": "Mani's Dum Biriyani",
        "organic": "no",
        "smoking": "no"
      }
    },
    {
      "type": "node",
      "id": 4133355897,
      "lat": 12.9274912,
      "lon": 77.6373711,
      "tags": {
        "amenity": "veterinary"
      }
    },
    {
      "type": "node",
      "id": 4133355898,
      "lat": 12.9274912,
      "lon": 77.637341,
      "tags": {
        "amenity": "veterinary"
      }
    },
    {
      "type": "node",
      "id": 4267702355,
      "lat": 12.9327419,
      "lon": 77.6269861,
      "tags": {
        "operator": "FlipKart",
        "shop": "Flipkart.com"
      }
    },
    {
      "type": "node",
      "id": 4446849884,
      "lat": 12.9344224,
      "lon": 77.6299785,
      "tags": {
        "addr:city": "Bengaluru",
        "addr:housenumber": "101",
        "addr:postcode": "560034",
        "addr:street": "KAY ARR CORNER STONE 2nd Floor 80 Feet Road 4th Block, Koramangala,Karnataka",
        "amenity": "hospital",
        "healthcare": "hospital",
        "name": "Fj Merrit Hydrotherapy And Wellness",
        "phone": "080 4095 1282"
      }
    },
    {
      "type": "node",
      "id": 4447013605,
      "lat": 12.9398696,
      "lon": 77.6257338,
      "tags": {
        "addr:city": "bangalore",
        "addr:housenumber": "914",
        "addr:postcode": "560095",
        "addr:street": "Venkateshwara Complex, 80 Feet Main Road, 6th Block, Venkappa Garden, Koramangala, Venkappa Garden, Ejipura",
        "amenity": "pharmacy",
        "healthcare": "pharmacy",
        "name": "Diabetacare",
        "phone": "+9180679 19191",
        "source": "justdial",
        "website": "https://diabetacare.com/"
      }
    },
    {
      "type": "node",
      "id": 4447017356,
      "lat": 12.937327,
      "lon": 77.6240168,
      "tags": {
        "addr:city": "Bangalore",
        "addr:housenumber": "668/A",
        "addr:postcode": "560034",
        "addr:street": "17th C main, 6th Block, Near Koramangala Club, Koramangala, 6th Block, Koramangala",
        "amenity": "clinic",
        "brand": "Apollo Diagnostics",
        "brand:wikidata": "Q134885714",
        "healthcare": "laboratory",
        "name": "Apollo Diagnostics",
        "phone": "+9180 4162 4433",
        "source": "justdial",
        "website": "https://apollowhitedental.com/"
      }
    },
    {
      "type": "node",
      "id": 4447075923,
      "lat": 12.9340694,
      "lon": 77.625222,
      "tags": {
        "addr:city": "Bengaluru",
        "addr:postcode": "560034",
        "addr:street": "BDA Complex, Koramangala 4th Block, Koramangala",
        "amenity": "pharmacy",
        "healthcare": "pharmacy",
        "name": "Maxwell Pharma",
        "phone": "+9180 2553 1177",
        "source": "justdial"
      }
    },
    {
      "type": "node",
      "id": 4447594673,
      "lat": 12.9353486,
      "lon": 77.6249595,
      "tags": {
        "addr:housenumber": "41",
        "addr:street": "100 feet road, Koramangala 4th Block",
        "amenity": "cafe",
        "description": "Pay by the hour. INR 190 for the first hour. INR 3 per minute after that. Food and beverages on the house",
        "name": "Dialogues Cafe",
        "opening_hours": "Mo-Su 10:00-22:00",
        "phone": "098119 74842",
        "website": "www.dialoguescafe.com"
      }
    },
    {
      "type": "node",
      "id": 4489426293,
      "lat": 12.9383287,
      "lon": 77.6310323,
      "tags": {
        "addr:city": "Bangalore",
        "addr:housenumber": "100",
        "addr:postcode": "560047",
        "addr:street": "Feet Intermediate Ring Road, Near Sony World Signal , Kormangala, 100 Feet Rd, S T Bed Layout, Ejipura,",
        "name": "Shah Cyclez N Fitnezz",
        "opening_hours": "Mo-Su 11:00-20:30",
        "phone": "08065702980",
        "shop": "sports",
        "website": "https://bsahercules.com"
      }
    },
    {
      "type": "node",
      "id": 4489725301,
      "lat": 12.9359041,
      "lon": 77.6284372,
      "tags": {
        "addr:city": "Bangalore",
        "addr:housenumber": "No.107,2nd Floor,Art Arcade",
        "addr:postcode": "560034",
        "addr:street": "80 Feet Road;7th Main Road",
        "name": "Charisma Spa Pvt Ltd",
        "opening_hours": "09:30-20:30",
        "phone": "9742009417",
        "shop": "beauty",
        "website": "https://www.charismabeautyspa.com/"
      }
    },
    {
      "type": "node",
      "id": 4489737685,
      "lat": 12.9362135,
      "lon": 77.6260578,
      "tags": {
        "addr:city": "Bengaluru,",
        "addr:housenumber": "48",
        "addr:postcode": "560034",
        "addr:street": ", I-Star Building, 3rd Floor, 100 Feet Road, 4th Block, Koramangala, Above All Plus Showroom, Koramangala 4th Block, Koramangala,  Karnataka",
        "leisure": "sports_centre",
        "name": "Hyper Monkey Fitness",
        "opening_hours": "6:00-21:30",
        "website": "hypermonkey.in"
      }
    },
    {
      "type": "node",
      "id": 4489757553,
      "lat": 12.9289891,
      "lon": 77.6278047,
      "tags": {
        "addr:city": "bangalore",
        "addr:housenumber": "Grand Mercure Hotel,, 12th Main Rd,",
        "addr:postcode": "560034",
        "addr:street": "12th Main Road",
        "name": "O2 Spa",
        "opening_hours": "10:00-21:00",
        "phone": "9247020202",
        "shop": "beauty"
      }
    },
    {
      "type": "node",
      "id": 4489791821,
      "lat": 12.9280827,
      "lon": 77.6373095,
      "tags": {
        "addr:city": "bangalore",
        "addr:housenumber": "305, 1st Main Rd, Koramangala 1st Block",
        "addr:postcode": "5560034",
        "addr:street": "Jakkasandra extension, HSR Layout, 1st Block Koramangala,",
        "name": "Essence Unisex Salon And Spa",
        "opening_hours": "8:30-21:00",
        "phone": "080-40953697",
        "shop": "beauty"
      }
    },
    {
      "type": "node",
      "id": 4489795674,
      "lat": 12.9336239,
      "lon": 77.6296283,
      "tags": {
        "addr:city": "Bengaluru",
        "addr:housenumber": "#638, 2nd Floor, 12th Main Road, Koramangala 4 Block,",
        "addr:postcode": "560034",
        "addr:street": "Koramangala, Koramangala 4th Block",
        "name": "Renaissance Unisex Salon & Spa",
        "opening_hours": "11:00-20:00",
        "phone": "8861350829",
        "shop": "beauty"
      }
    },
    {
      "type": "node",
      "id": 4489814319,
      "lat": 12.9292777,
      "lon": 77.6350299,
      "tags": {
        "addr:city": "Banngalore",
        "addr:housenumber": "998, 1st Floor",
        "addr:postcode": "560034",
        "addr:street": "1st Main 1st Block, Koramangala, S.T. Bed, 1st Block Koramangala, Bengaluru,",
        "leisure": "sports_centre",
        "name": "The Body Works",
        "opening_hours": "5:30-22:30",
        "phone": "8041102623",
        "sport": "gymnastics",
        "website": "bodyworksgym.in"
      }
    },
    {
      "type": "node",
      "id": 4489818725,
      "lat": 12.9386608,
      "lon": 77.6308797,
      "tags": {
        "addr:city": "Bangalore",
        "addr:housenumber": "No.540/567",
        "addr:postcode": "560047",
        "addr:street": "Inner Ring Road",
        "name": "De Stress Hub",
        "opening_hours": "10:30-22:00",
        "phone": "+919036015789",
        "shop": "beauty",
        "website": "https://www.destresshub.com/"
      }
    },
    {
      "type": "node",
      "id": 4489826335,
      "lat": 12.9386618,
      "lon": 77.6309427,
      "tags": {
        "addr:city": "Bangalore",
        "addr:housenumber": "No.540/567, 2nd Floor",
        "addr:postcode": "560047",
        "addr:street": ", Koramangala Inner Ring Road, VGS Layout, Ejipura,",
        "name": "De Stress Hub",
        "opening_hours": "10:30-22:00",
        "phone": "9036015789",
        "shop": "beauty",
        "website": "https://www.destresshub.com/"
      }
    },
    {
      "type": "node",
      "id": 4489845028,
      "lat": 12.9322428,
      "lon": 77.6321637,
      "tags": {
        "addr:postcode": "560034",
        "addr:street": "80 Feet Road",
        "leisure": "fitness_centre",
        "level": "2;3",
        "name": "Posh Fitness"
      }
    },
    {
      "type": "node",
      "id": 4545940589,
      "lat": 12.9341008,
      "lon": 77.6272181,
      "tags": {
        "amenity": "pharmacy",
        "brand": "MedPlus",
        "brand:wikidata": "Q65684234",
        "healthcare": "pharmacy",
        "name": "MedPlus",
        "name:en": "Medplus Pharmacy"
      }
    },
    {
      "type": "node",
      "id": 4545940689,
      "lat": 12.9340373,
      "lon": 77.6272494,
      "tags": {
        "name": "Fringes Unisex Salon",
        "name:en": "Fringes Unisex Salon",
        "shop": "cosmetics"
      }
    },
    {
      "type": "node",
      "id": 4582748890,
      "lat": 12.9304984,
      "lon": 77.6338469,
      "tags": {
        "amenity": "restaurant",
        "name:zh": "中国菜"
      }
    },
    {
      "type": "node",
      "id": 4632212544,
      "lat": 12.9323787,
      "lon": 77.6294117,
      "tags": {
        "description": "Has a basketball half court and Sea saws ",
        "leisure": "playground",
        "name": "Rectangle Park Playground"
      }
    },
    {
      "type": "node",
      "id": 4766266155,
      "lat": 12.9378068,
      "lon": 77.6271846,
      "tags": {
        "name": "SOCH",
        "shop": "clothes"
      }
    },
    {
      "type": "node",
      "id": 4766266156,
      "lat": 12.9378414,
      "lon": 77.6272417,
      "tags": {
        "name": "Kushals",
        "shop": "clothes"
      }
    },
    {
      "type": "node",
      "id": 4774402250,
      "lat": 12.9360665,
      "lon": 77.6314327,
      "tags": {
        "amenity": "restaurant",
        "capacity": "50",
        "cuisine": "continental",
        "name": "Cilantro",
        "outdoor_seating": "yes",
        "smoking": "outside"
      }
    },
    {
      "type": "node",
      "id": 5247276738,
      "lat": 12.9370109,
      "lon": 77.6275262,
      "tags": {
        "addr:housenumber": "8, near Sapphire toy store",
        "amenity": "cafe",
        "name": "Via Milano",
        "phone": "+918041309997"
      }
    },
    {
      "type": "node",
      "id": 5773097749,
      "lat": 12.9380609,
      "lon": 77.6275572,
      "tags": {
        "addr:city": "Bangalore",
        "addr:floor": "4",
        "addr:housenumber": "23",
        "addr:place": "Koramangala",
        "addr:postcode": "560095",
        "amenity": "restaurant",
        "contact:phone": "+9187920 00390",
        "name": "Bakasur"
      }
    },
    {
      "type": "node",
      "id": 5773107048,
      "lat": 12.9381482,
      "lon": 77.6276388,
      "tags": {
        "addr:block": "6",
        "addr:city": "Bangalore",
        "addr:floor": "4",
        "addr:place": "Koramangala",
        "addr:postcode": "560034",
        "addr:street": "100 Feet Inner Ring Road",
        "amenity": "bar",
        "contact:phone": "+9187920 00390",
        "name": "Bak Bak Bar"
      }
    },
    {
      "type": "node",
      "id": 5915195100,
      "lat": 12.9398518,
      "lon": 77.6257018,
      "tags": {
        "leisure": "fitness_centre",
        "name": "Snap Fitness"
      }
    },
    {
      "type": "node",
      "id": 5915195103,
      "lat": 12.9388196,
      "lon": 77.625775,
      "tags": {
        "amenity": "restaurant",
        "diet:vegan": "yes",
        "name": "Carrots",
        "website": "https://www.carrots-india.com/"
      }
    },
    {
      "type": "node",
      "id": 5915230899,
      "lat": 12.9367256,
      "lon": 77.6265291,
      "tags": {
        "name": "Riya Kodali Design House",
        "shop": "yes"
      }
    },
    {
      "type": "node",
      "id": 5915230900,
      "lat": 12.936096,
      "lon": 77.6258876,
      "tags": {
        "amenity": "bank",
        "name": "Saraswat Bank"
      }
    },
    {
      "type": "node",
      "id": 5915230901,
      "lat": 12.9360713,
      "lon": 77.6251208,
      "tags": {
        "brand": "Malabar Gold and Diamonds",
        "brand:wikidata": "Q60748883",
        "name": "Malabar Gold and Diamonds",
        "shop": "jewelry"
      }
    },
    {
      "type": "node",
      "id": 5915230903,
      "lat": 12.9347999,
      "lon": 77.6242687,
      "tags": {
        "amenity": "place_of_worship",
        "name": "Balasubramania Swamy Temple",
        "religion": "hindu"
      }
    },
    {
      "type": "node",
      "id": 5915230905,
      "lat": 12.9344948,
      "lon": 77.6236101,
      "tags": {
        "amenity": "pub",
        "name": "Over The Top"
      }
    },
    {
      "type": "node",
      "id": 5915230906,
      "lat": 12.9341518,
      "lon": 77.6234672,
      "tags": {
        "amenity": "atm",
        "operator": "ICICI Bank ATM"
      }
    },
    {
      "type": "node",
      "id": 5915230912,
      "lat": 12.9333881,
      "lon": 77.623589,
      "tags": {
        "amenity": "pub",
        "name": "Fandom Gillys Redefined"
      }
    },
    {
      "type": "node",
      "id": 5915230913,
      "lat": 12.9334502,
      "lon": 77.623612,
      "tags": {
        "amenity": "pub",
        "name": "Myu Bar at Gilly's Redefined"
      }
    },
    {
      "type": "node",
      "id": 5915230914,
      "lat": 12.9342194,
      "lon": 77.623433,
      "tags": {
        "amenity": "pub",
        "check_date": "2024-08-28",
        "name": "Brooks and Bonds Brewery"
      }
    },
    {
      "type": "node",
      "id": 5915569162,
      "lat": 12.9356454,
      "lon": 77.628683,
      "tags": {
        "amenity": "bank",
        "branch": "4th Block",
        "brand": "HDFC Bank",
        "brand:wikidata": "Q631047",
        "name": "HDFC Bank",
        "short_name": "HDFC"
      }
    },
    {
      "type": "node",
      "id": 5915569163,
      "lat": 12.9350683,
      "lon": 77.6292839,
      "tags": {
        "addr:city": "Bangalore",
        "addr:country": "IN",
        "addr:housenumber": "974",
        "addr:postcode": "560034",
        "addr:street": "80 Feet Road",
        "addr:suburb": "Koramangala",
        "amenity": "restaurant",
        "contact:facebook": "nasiandmee",
        "contact:instagram": "nasiandmee",
        "cuisine": "asian",
        "delivery": "yes",
        "level": "0",
        "name": "Nasi and Mee",
        "official_name": "Nasi and Mee Asian Canteen",
        "phone": "+91 80 4151 3456",
        "takeaway": "yes",
        "website": "https://www.nasiandmee.co.in/"
      }
    },
    {
      "type": "node",
      "id": 5915887950,
      "lat": 12.9362974,
      "lon": 77.6277069,
      "tags": {
        "amenity": "bank",
        "brand": "Yes Bank",
        "brand:wikidata": "Q2040394",
        "name": "Yes Bank",
        "name:kn": "ಯಸ್ ಬ್ಯಾಂಕ್"
      }
    },
    {
      "type": "node",
      "id": 5915887963,
      "lat": 12.9344393,
      "lon": 77.6295345,
      "tags": {
        "amenity": "restaurant",
        "name": "BSR Lassi Packers Shop"
      }
    },
    {
      "type": "node",
      "id": 5915887964,
      "lat": 12.9346219,
      "lon": 77.6293199,
      "tags": {
        "amenity": "bank",
        "brand": "Andhra Bank",
        "brand:wikidata": "Q2003476",
        "name": "Andhra Bank",
        "name:kn": "ಆಂಧ್ರ ಬ್ಯಾಂಕ್"
      }
    },
    {
      "type": "node",
      "id": 5915887965,
      "lat": 12.9348078,
      "lon": 77.6291104,
      "tags": {
        "name": "Petals",
        "shop": "yes"
      }
    },
    {
      "type": "node",
      "id": 5915887966,
      "lat": 12.9304826,
      "lon": 77.6331908,
      "tags": {
        "amenity": "ice_cream",
        "name": "Natural Ice Cream",
        "not:brand:wikidata": "Q24439154",
        "outdoor_seating": "no",
        "website": "https://naturalicecreams.in/"
      }
    },
    {
      "type": "node",
      "id": 5915887967,
      "lat": 12.9312594,
      "lon": 77.6329642,
      "tags": {
        "amenity": "pub",
        "name": "Bira 91 Taproom"
      }
    },
    {
      "type": "node",
      "id": 5915887971,
      "lat": 12.9260044,
      "lon": 77.6332862,
      "tags": {
        "amenity": "restaurant",
        "name": "Magnolia"
      }
    },
    {
      "type": "node",
      "id": 5915887973,
      "lat": 12.926672,
      "lon": 77.6335707,
      "tags": {
        "name": "iService - iPhone, MacBook, Oneplus, Xiaomi Repairs and Service Center",
        "shop": "electronics"
      }
    },
    {
      "type": "node",
      "id": 5915887975,
      "lat": 12.9269862,
      "lon": 77.6332224,
      "tags": {
        "amenity": "bank",
        "brand": "Federal Bank",
        "brand:wikidata": "Q2044983",
        "name": "Federal Bank"
      }
    },
    {
      "type": "node",
      "id": 6067868839,
      "lat": 12.9332568,
      "lon": 77.6296592,
      "tags": {
        "amenity": "pharmacy",
        "healthcare": "pharmacy",
        "name": "Kiran Medical Store"
      }
    },
    {
      "type": "node",
      "id": 6124618182,
      "lat": 12.934138,
      "lon": 77.6303069,
      "tags": {
        "amenity": "car_wash",
        "check_date": "2024-03-02",
        "name": "3M Car Care"
      }
    },
    {
      "type": "node",
      "id": 6124618183,
      "lat": 12.9366526,
      "lon": 77.6277125,
      "tags": {
        "amenity": "hospital",
        "healthcare": "hospital",
        "name": "Shiva Vision Care"
      }
    },
    {
      "type": "node",
      "id": 6124618658,
      "lat": 12.9367507,
      "lon": 77.62774,
      "tags": {
        "name": "Lassi top",
        "shop": "coffee"
      }
    },
    {
      "type": "node",
      "id": 6124618695,
      "lat": 12.9367615,
      "lon": 77.6276835,
      "tags": {
        "amenity": "restaurant",
        "name": "The Tiffin Express"
      }
    },
    {
      "type": "node",
      "id": 6536356188,
      "lat": 12.9350185,
      "lon": 77.6276797,
      "tags": {
        "addr:place": "Koramangala",
        "amenity": "school",
        "isced:level": "3",
        "name": "Chinmaya Vidyalaya, Koramangala",
        "name:kn": "ಚಿನ್ಮಯ ವಿದ್ಯಾಲಯ, ಕೋರಮಂಗಲ",
        "operator": "Private Un-Aided",
        "school": "Higher Secondary"
      }
    },
    {
      "type": "node",
      "id": 6569023746,
      "lat": 12.9289898,
      "lon": 77.6329994,
      "tags": {
        "addr:city": "Bengaluru",
        "addr:country": "IN",
        "addr:hamlet": "Koramangala 1A Block",
        "addr:housename": "Prestige Atlanta",
        "addr:postcode": "560034",
        "addr:street": "80 Feet Road",
        "amenity": "coworking_space",
        "brand": "WeWork",
        "brand:wikidata": "Q19995004",
        "fee": "yes",
        "name": "WeWork",
        "office": "coworking",
        "operator": "WeWork",
        "website": "https://www.wework.com/buildings/prestige-atlanta--bengaluru--Karnataka"
      }
    },
    {
      "type": "node",
      "id": 6609184248,
      "lat": 12.9340215,
      "lon": 77.6293735,
      "tags": {
        "name": "Lassi Shop",
        "shop": "coffee"
      }
    },
    {
      "type": "node",
      "id": 6609198087,
      "lat": 12.934137,
      "lon": 77.6291472,
      "tags": {
        "amenity": "bicycle_rental",
        "brand": "Yulu",
        "brand:wikidata": "Q104871276",
        "name": "Yulu",
        "network": "Yulu",
        "network:wikidata": "Q104871276",
        "operator": "Yulu"
      }
    },
    {
      "type": "node",
      "id": 6702830215,
      "lat": 12.9331051,
      "lon": 77.62526,
      "tags": {
        "addr:place": "Mestri Palya",
        "amenity": "school",
        "isced:level": "1",
        "name": "GLPS Mestri Palya",
        "name:kn": "ಸರ್ಕಾರಿ ಕಿರಿಯ ಪ್ರಾಥಮಿಕ ಶಾಲೆ ಮೇಸ್ತ್ರಿ ಪಾಳ್ಯ ,ಈಜಿಪುರ",
        "operator": "Department of Primary and Secondary Education",
        "operator:type": "government",
        "operator:wikidata": "Q111467381",
        "school": "primary"
      }
    },
    {
      "type": "node",
      "id": 6702845728,
      "lat": 12.9371426,
      "lon": 77.6329739,
      "tags": {
        "addr:place": "Eegipura",
        "amenity": "school",
        "isced:level": "1",
        "name": "GLPS Sheenivagilu",
        "name:kn": "ಸರ್ಕಾರಿ ಕಿರಿಯ ಪ್ರಾಥಮಿಕ ಶಾಲೆ ಶೀನಿವಾಗಿಲು,ಈಜಿಪುರ",
        "operator": "Department of Primary and Secondary Education",
        "operator:type": "government",
        "operator:wikidata": "Q111467381",
        "school": "primary"
      }
    },
    {
      "type": "node",
      "id": 6702879198,
      "lat": 12.9417163,
      "lon": 77.6309641,
      "tags": {
        "addr:place": "Eegipura",
        "amenity": "school",
        "isced:level": "3",
        "name": "Modern HPS Eegipura",
        "name:kn": "ಮೊಡರನ್‌ ಹಿರಿಯ ಪ್ರಾಥಮಿಕ ಶಾಲೆ ಈಜಿಪುರ",
        "operator": "Private Un-Aided",
        "school": "Higher Secondary"
      }
    },
    {
      "type": "node",
      "id": 6734440133,
      "lat": 12.9372466,
      "lon": 77.6330696,
      "tags": {
        "addr:place": "Eegipura",
        "amenity": "school",
        "isced:level": "2",
        "name": "Patriyot Vidyanikethan LPS",
        "name:kn": "ಪ್ಯಾಟ್ರಿಯಾಟ್ ವಿದ್ಯಾನಿಕೇತನ ಕಿರಿಯ ಪ್ರಾಥಮಿಕ ಶಾಲೆ,ಈಜಿಪುರ",
        "school": "Higher Primary"
      }
    },
    {
      "type": "node",
      "id": 6734919588,
      "lat": 12.9401321,
      "lon": 77.6306411,
      "tags": {
        "addr:place": "Eegipura",
        "amenity": "school",
        "isced:level": "3",
        "name": "Chinmaya Vidya Kendra HPS",
        "name:kn": "ಚಿನ್ಮಯ ವಿದ್ಯಾ ಕೇಂದ್ರ ಹಿರಿಯ ಪ್ರಾಥಮಿಕ ಶಾಲೆ, ಈಜಿಪುರ",
        "operator": "Private Un-Aided",
        "school": "Higher Secondary"
      }
    },
    {
      "type": "node",
      "id": 6755811685,
      "lat": 12.9422798,
      "lon": 77.62855,
      "tags": {
        "addr:city": "Bengaluru",
        "addr:housenumber": "23",
        "addr:postcode": "560047",
        "addr:street": "20F Cross Road",
        "amenity": "place_of_worship",
        "name": "Rehoboth Church",
        "religion": "christian"
      }
    },
    {
      "type": "node",
      "id": 6755811686,
      "lat": 12.9420698,
      "lon": 77.6280215,
      "tags": {
        "amenity": "restaurant",
        "cuisine": "indian;north_indian;regional",
        "name": "Devi Sri Juice and Condiments",
        "opening_hours": "Mo-Su 08:00-23:00",
        "phone": "094677 66383",
        "shop": "bakery"
      }
    },
    {
      "type": "node",
      "id": 8948240439,
      "lat": 12.9285794,
      "lon": 77.628205,
      "tags": {
        "name": "Iyengar Bakery",
        "shop": "bakery"
      }
    },
    {
      "type": "node",
      "id": 9810733197,
      "lat": 12.9366398,
      "lon": 77.6251927,
      "tags": {
        "amenity": "bank",
        "brand": "Indian Bank",
        "brand:wikidata": "Q2003789",
        "name": "Indian Bank",
        "name:kn": "ಇಂಡಿಯನ್ ಬ್ಯಾಂಕ್"
      }
    },
    {
      "type": "node",
      "id": 9810748012,
      "lat": 12.9350754,
      "lon": 77.6249289,
      "tags": {
        "amenity": "restaurant",
        "name": "Sour House"
      }
    },
    {
      "type": "node",
      "id": 9852222512,
      "lat": 12.9349148,
      "lon": 77.6294281,
      "tags": {
        "brand": "The Sleep Company",
        "name": "The Sleep Company Store",
        "operator": "The Sleep Company",
        "shop": "furniture",
        "website": "https://thesleepcompany.in/"
      }
    },
    {
      "type": "node",
      "id": 9930197120,
      "lat": 12.9342979,
      "lon": 77.623428,
      "tags": {
        "brand": "Tanishq",
        "brand:en": "Tanishq",
        "brand:wikidata": "Q13117711",
        "check_date": "2024-08-28",
        "name": "Tanishq",
        "name:en": "Tanishq",
        "shop": "jewelry"
      }
    },
    {
      "type": "node",
      "id": 9930197121,
      "lat": 12.9382596,
      "lon": 77.6310012,
      "tags": {
        "name": "Looking Good Furniture",
        "shop": "furniture"
      }
    },
    {
      "type": "node",
      "id": 9950801517,
      "lat": 12.9409561,
      "lon": 77.6277218,
      "tags": {
        "name": "Kolkata Sweets",
        "shop": "confectionery"
      }
    },
    {
      "type": "node",
      "id": 9950801617,
      "lat": 12.9411457,
      "lon": 77.627647,
      "tags": {
        "name": "Cigarette Shop",
        "shop": "convenience"
      }
    },
    {
      "type": "node",
      "id": 9953934317,
      "lat": 12.94086,
      "lon": 77.6276412,
      "tags": {
        "name": "Sizani",
        "shop": "clothes"
      }
    },
    {
      "type": "node",
      "id": 9953939217,
      "lat": 12.9411755,
      "lon": 77.6277014,
      "tags": {
        "amenity": "pharmacy",
        "brand": "MedPlus",
        "brand:wikidata": "Q65684234",
        "healthcare": "pharmacy",
        "name": "MedPlus"
      }
    },
    {
      "type": "node",
      "id": 9954106618,
      "lat": 12.9390473,
      "lon": 77.6283697,
      "tags": {
        "amenity": "restaurant",
        "name": "Uttara Karnataka Food Store"
      }
    },
    {
      "type": "node",
      "id": 9954120017,
      "lat": 12.9392947,
      "lon": 77.6283105,
      "tags": {
        "name": "The Baklava Company",
        "shop": "confectionery"
      }
    },
    {
      "type": "node",
      "id": 9954120117,
      "lat": 12.9392892,
      "lon": 77.628352,
      "tags": {
        "name": "Bakery",
        "shop": "bakery"
      }
    },
    {
      "type": "node",
      "id": 9954120118,
      "lat": 12.9391694,
      "lon": 77.6283469,
      "tags": {
        "amenity": "cafe",
        "name": "Chubby Chai"
      }
    },
    {
      "type": "node",
      "id": 9954120217,
      "lat": 12.9396097,
      "lon": 77.6284305,
      "tags": {
        "name": "Food Max Super Store",
        "shop": "department_store"
      }
    },
    {
      "type": "node",
      "id": 9961659918,
      "lat": 12.9416964,
      "lon": 77.6278671,
      "tags": {
        "name": "Anushka Two Wheelers Service",
        "shop": "car_repair"
      }
    },
    {
      "type": "node",
      "id": 9961663217,
      "lat": 12.9416656,
      "lon": 77.6279521,
      "tags": {
        "name": "Aniket Laundry",
        "shop": "laundry"
      }
    },
    {
      "type": "node",
      "id": 9961663317,
      "lat": 12.9416715,
      "lon": 77.627858,
      "tags": {
        "name": "Classic Chicken Center",
        "shop": "butcher"
      }
    },
    {
      "type": "node",
      "id": 9961663318,
      "lat": 12.9417192,
      "lon": 77.6278767,
      "tags": {
        "amenity": "pharmacy",
        "name": "Mahaveer Medical"
      }
    },
    {
      "type": "node",
      "id": 9961663417,
      "lat": 12.9415499,
      "lon": 77.6278423,
      "tags": {
        "name": "Sri Balaji Provision Store",
        "shop": "grocery"
      }
    },
    {
      "type": "node",
      "id": 9961663517,
      "lat": 12.9414967,
      "lon": 77.6278372,
      "tags": {
        "amenity": "fast_food",
        "name": "Santhosh Fast Food"
      }
    },
    {
      "type": "node",
      "id": 9961671017,
      "lat": 12.9415544,
      "lon": 77.6279345,
      "tags": {
        "name": "Dream Magic",
        "shop": "stationery"
      }
    },
    {
      "type": "node",
      "id": 9961671117,
      "lat": 12.9415174,
      "lon": 77.6279374,
      "tags": {
        "name": "Royal Mobile Solution",
        "shop": "mobile_phone"
      }
    },
    {
      "type": "node",
      "id": 9961671217,
      "lat": 12.9414193,
      "lon": 77.6279151,
      "tags": {
        "name": "Blossom Herbal Beauty Parlour",
        "shop": "beauty"
      }
    },
    {
      "type": "node",
      "id": 9961691617,
      "lat": 12.941334,
      "lon": 77.6278179,
      "tags": {
        "name": "Super Traders",
        "shop": "department_store"
      }
    },
    {
      "type": "node",
      "id": 10036672417,
      "lat": 12.9386047,
      "lon": 77.6292569,
      "tags": {
        "amenity": "restaurant",
        "indoor_seating": "yes",
        "name": "Ambur Biryani",
        "outdoor_seating": "no"
      }
    },
    {
      "type": "node",
      "id": 10036672517,
      "lat": 12.9386018,
      "lon": 77.6292401,
      "tags": {
        "name": "Sunil Maghaipaan & Cigarettes",
        "shop": "variety_store"
      }
    },
    {
      "type": "node",
      "id": 10036672617,
      "lat": 12.9386225,
      "lon": 77.6291616,
      "tags": {
        "amenity": "fast_food",
        "name": "Darjeeling Momo"
      }
    },
    {
      "type": "node",
      "id": 10036672717,
      "lat": 12.9385717,
      "lon": 77.6291645,
      "tags": {
        "amenity": "fast_food",
        "name": "Panipuri Shop"
      }
    },
    {
      "type": "node",
      "id": 10047410317,
      "lat": 12.9398397,
      "lon": 77.6252767,
      "tags": {
        "amenity": "bank",
        "name": "Utkarsh Small Finance Bank"
      }
    },
    {
      "type": "node",
      "id": 10047410318,
      "lat": 12.9398703,
      "lon": 77.6252571,
      "tags": {
        "amenity": "atm",
        "operator": "Utkarsh Small Finance Bank"
      }
    },
    {
      "type": "node",
      "id": 10047410320,
      "lat": 12.9407259,
      "lon": 77.6268205,
      "tags": {
        "name": "R.K.Mens Saloon",
        "shop": "hairdresser"
      }
    },
    {
      "type": "node",
      "id": 10047410321,
      "lat": 12.9407018,
      "lon": 77.6267911,
      "tags": {
        "amenity": "fast_food",
        "name": "Shree Ganesh Juice Centre"
      }
    },
    {
      "type": "node",
      "id": 10047410417,
      "lat": 12.9399395,
      "lon": 77.6251611,
      "tags": {
        "amenity": "bank",
        "brand": "IndusInd Bank",
        "brand:wikidata": "Q2040323",
        "name": "IndusInd Bank"
      }
    },
    {
      "type": "node",
      "id": 10047410418,
      "lat": 12.9400847,
      "lon": 77.6250647,
      "tags": {
        "name": "Tyre Port",
        "shop": "tyres"
      }
    },
    {
      "type": "node",
      "id": 10047410420,
      "lat": 12.9400354,
      "lon": 77.6254608,
      "tags": {
        "amenity": "bar",
        "name": "Sixtyy"
      }
    },
    {
      "type": "node",
      "id": 10047410517,
      "lat": 12.9399297,
      "lon": 77.6252027,
      "tags": {
        "amenity": "atm",
        "brand": "IndusInd Bank",
        "brand:wikidata": "Q2040323",
        "operator": "IndusInd Bank",
        "operator:wikidata": "Q2040323"
      }
    },
    {
      "type": "node",
      "id": 10047410520,
      "lat": 12.9408506,
      "lon": 77.6270827,
      "tags": {
        "name": "Amman Garage",
        "shop": "car_repair"
      }
    },
    {
      "type": "node",
      "id": 10047410817,
      "lat": 12.9403001,
      "lon": 77.6252477,
      "tags": {
        "name": "Perfect Yamaha",
        "shop": "motorcycle"
      }
    },
    {
      "type": "node",
      "id": 10047410818,
      "lat": 12.9402228,
      "lon": 77.6252938,
      "tags": {
        "name": "Raju Honda",
        "shop": "motorcycle"
      }
    },
    {
      "type": "node",
      "id": 10047410819,
      "lat": 12.9406228,
      "lon": 77.6261245,
      "tags": {
        "name": "Flora Beauty Salon",
        "shop": "beauty"
      }
    },
    {
      "type": "node",
      "id": 10047410820,
      "lat": 12.9405384,
      "lon": 77.6261865,
      "tags": {
        "name": "Hello Mobile",
        "shop": "mobile_phone"
      }
    },
    {
      "type": "node",
      "id": 10047410821,
      "lat": 12.9409683,
      "lon": 77.6273958,
      "tags": {
        "amenity": "animal_boarding",
        "name": "Cowshed"
      }
    },
    {
      "type": "node",
      "id": 10068956880,
      "lat": 12.9365956,
      "lon": 77.6273239,
      "tags": {
        "name": "icycle.in",
        "shop": "bicycle",
        "website": "https://icycle.in/"
      }
    },
    {
      "type": "node",
      "id": 10068956881,
      "lat": 12.9367647,
      "lon": 77.6271187,
      "tags": {
        "name": "VLCC",
        "shop": "beauty"
      }
    },
    {
      "type": "node",
      "id": 10072982933,
      "lat": 12.9348218,
      "lon": 77.6304221,
      "tags": {
        "amenity": "dentist",
        "healthcare": "dentist",
        "name": "Pinnacle Family Dental and Implant Clinic"
      }
    },
    {
      "type": "node",
      "id": 10073475701,
      "lat": 12.9335751,
      "lon": 77.6267634,
      "tags": {
        "addr:housenumber": "437",
        "addr:street": "8th Main",
        "amenity": "veterinary",
        "check_date": "2025-08-08",
        "name": "Pet Zone Pet Clinic",
        "phone": "08041217299"
      }
    },
    {
      "type": "node",
      "id": 10075728807,
      "lat": 12.9348545,
      "lon": 77.6348279,
      "tags": {
        "addr:street": "8th Cross Road",
        "name": "Classic Shop",
        "shop": "department_store"
      }
    },
    {
      "type": "node",
      "id": 10075729404,
      "lat": 12.9318955,
      "lon": 77.6333311,
      "tags": {
        "addr:street": "1st Main Road",
        "check_date": "2025-05-25",
        "leisure": "fitness_centre",
        "name": "Iconic Gym"
      }
    },
    {
      "type": "node",
      "id": 10075730026,
      "lat": 12.9320203,
      "lon": 77.6333683,
      "tags": {
        "addr:street": "8th Cross Road",
        "name": "Green Grocer",
        "shop": "greengrocer"
      }
    },
    {
      "type": "node",
      "id": 10075730590,
      "lat": 12.932216,
      "lon": 77.6321306,
      "tags": {
        "amenity": "restaurant",
        "name": "La Pino'z Pizza",
        "website": "https://lapinozpizza.in/"
      }
    },
    {
      "type": "node",
      "id": 10076899906,
      "lat": 12.9339911,
      "lon": 77.6303086,
      "tags": {
        "addr:street": "80 Feet Road",
        "amenity": "money_transfer",
        "brand": "Western Union",
        "brand:wikidata": "Q861042",
        "name": "Western Union",
        "website": "https://www.westernunion.com/"
      }
    },
    {
      "type": "node",
      "id": 10079235531,
      "lat": 12.9350365,
      "lon": 77.6332951,
      "tags": {
        "addr:housenumber": "991",
        "addr:street": "7th Main Road",
        "amenity": "pharmacy",
        "dispensing": "yes",
        "healthcare": "pharmacy",
        "name": "Skanda Medicals"
      }
    },
    {
      "type": "node",
      "id": 10079235532,
      "lat": 12.9347554,
      "lon": 77.6333093,
      "tags": {
        "name": "Safa Provision Store",
        "shop": "convenience"
      }
    },
    {
      "type": "node",
      "id": 10079235533,
      "lat": 12.9352067,
      "lon": 77.6315454,
      "tags": {
        "addr:street": "4th Main Road",
        "amenity": "pharmacy",
        "dispensing": "yes",
        "healthcare": "pharmacy",
        "name": "iCure Medicals"
      }
    },
    {
      "type": "node",
      "id": 10079235534,
      "lat": 12.935561,
      "lon": 77.6309798,
      "tags": {
        "amenity": "pharmacy",
        "brand": "Apollo Pharmacy",
        "brand:wikidata": "Q62562612",
        "dispensing": "yes",
        "healthcare": "pharmacy",
        "name": "Apollo Pharmacy",
        "website": "https://www.apollopharmacy.in/"
      }
    },
    {
      "type": "node",
      "id": 10079235535,
      "lat": 12.9352952,
      "lon": 77.6305775,
      "tags": {
        "addr:street": "1st Cross Road",
        "name": "Bangalore Xerox Shop",
        "shop": "copyshop"
      }
    },
    {
      "type": "node",
      "id": 10105885618,
      "lat": 12.9420276,
      "lon": 77.6280345,
      "tags": {
        "amenity": "fast_food",
        "name": "Gayathri Chats and Paratha"
      }
    },
    {
      "type": "node",
      "id": 10105887417,
      "lat": 12.9419868,
      "lon": 77.6280382,
      "tags": {
        "name": "Galaxy Men’s Beauty Saloon",
        "shop": "hairdresser"
      }
    },
    {
      "type": "node",
      "id": 10105887517,
      "lat": 12.94215,
      "lon": 77.6279445,
      "tags": {
        "name": "Sri Venkateshwara Vegetables and Fruits",
        "shop": "greengrocer"
      }
    },
    {
      "type": "node",
      "id": 10109902602,
      "lat": 12.9407883,
      "lon": 77.6274129,
      "tags": {
        "amenity": "animal_boarding",
        "name": "Cowshed"
      }
    },
    {
      "type": "node",
      "id": 10111454506,
      "lat": 12.9350124,
      "lon": 77.6302132,
      "tags": {
        "amenity": "bank",
        "brand": "Indian Bank",
        "brand:wikidata": "Q2003789",
        "name": "Indian Bank"
      }
    },
    {
      "type": "node",
      "id": 10111454507,
      "lat": 12.9350238,
      "lon": 77.6302683,
      "tags": {
        "amenity": "atm",
        "brand": "Indian Bank",
        "brand:wikidata": "Q2003789",
        "operator": "Indian Bank",
        "operator:wikidata": "Q2003789"
      }
    },
    {
      "type": "node",
      "id": 10111481449,
      "lat": 12.9393803,
      "lon": 77.6286584,
      "tags": {
        "amenity": "dentist",
        "healthcare": "dentist",
        "name": "Dental Lounge"
      }
    },
    {
      "type": "node",
      "id": 10111481929,
      "lat": 12.9353206,
      "lon": 77.6299347,
      "tags": {
        "amenity": "restaurant",
        "name": "Login2Eat.com"
      }
    },
    {
      "type": "node",
      "id": 10111481930,
      "lat": 12.9352769,
      "lon": 77.6299633,
      "tags": {
        "name": "KM Shukla Store",
        "shop": "convenience"
      }
    },
    {
      "type": "node",
      "id": 10111481931,
      "lat": 12.9350889,
      "lon": 77.6300415,
      "tags": {
        "name": "Sri Bhuvaneswari Laundry",
        "shop": "laundry"
      }
    },
    {
      "type": "node",
      "id": 10111497269,
      "lat": 12.9355706,
      "lon": 77.6298416,
      "tags": {
        "name": "Sri Manjunatha 2 Wheeler Repair",
        "shop": "motorcycle_repair"
      }
    },
    {
      "type": "node",
      "id": 10114122210,
      "lat": 12.9391778,
      "lon": 77.6258972,
      "tags": {
        "name": "Parameshwari Traders",
        "shop": "department_store"
      }
    },
    {
      "type": "node",
      "id": 10114122211,
      "lat": 12.938973,
      "lon": 77.6259626,
      "tags": {
        "name": "Lenovo",
        "shop": "computer"
      }
    },
    {
      "type": "node",
      "id": 10114122212,
      "lat": 12.9390389,
      "lon": 77.6259421,
      "tags": {
        "name": "Realme",
        "shop": "mobile_phone"
      }
    },
    {
      "type": "node",
      "id": 10114122213,
      "lat": 12.9396583,
      "lon": 77.6257225,
      "tags": {
        "name": "Auto Style",
        "shop": "car_parts"
      }
    },
    {
      "type": "node",
      "id": 10114122214,
      "lat": 12.9392459,
      "lon": 77.6258767,
      "tags": {
        "name": "Acer Mall",
        "operator": "Maxware Technologies",
        "shop": "computer"
      }
    },
    {
      "type": "node",
      "id": 10114122215,
      "lat": 12.939109,
      "lon": 77.6259207,
      "tags": {
        "name": "Fatima",
        "shop": "bakery"
      }
    },
    {
      "type": "node",
      "id": 10114142767,
      "lat": 12.9395545,
      "lon": 77.6257533,
      "tags": {
        "name": "Khanate Bespoke Fashion",
        "shop": "clothes"
      }
    },
    {
      "type": "node",
      "id": 10114142768,
      "lat": 12.9394907,
      "lon": 77.6257893,
      "tags": {
        "amenity": "pharmacy",
        "healthcare": "pharmacy",
        "name": "Ramdev Medical"
      }
    },
    {
      "type": "node",
      "id": 10114180706,
      "lat": 12.9383445,
      "lon": 77.6259659,
      "tags": {
        "amenity": "atm",
        "brand": "IDFC First Bank",
        "brand:wikidata": "Q22031467",
        "operator": "IDFC First Bank",
        "operator:wikidata": "Q22031467"
      }
    },
    {
      "type": "node",
      "id": 10114180707,
      "lat": 12.9385446,
      "lon": 77.6261803,
      "tags": {
        "name": "The Detailing Mafia",
        "shop": "car_repair"
      }
    },
    {
      "type": "node",
      "id": 10114180708,
      "lat": 12.9387545,
      "lon": 77.6260701,
      "tags": {
        "name": "Dell Exclusive Store",
        "shop": "computer"
      }
    },
    {
      "type": "node",
      "id": 10114180709,
      "lat": 12.938313,
      "lon": 77.6259211,
      "tags": {
        "amenity": "bank",
        "brand": "IDFC First Bank",
        "brand:wikidata": "Q22031467",
        "name": "IDFC First Bank"
      }
    },
    {
      "type": "node",
      "id": 10114180710,
      "lat": 12.93869,
      "lon": 77.6261024,
      "tags": {
        "name": "Asus",
        "name:kn": "ಆಸುಸ್",
        "operator": "Mega IT Store",
        "shop": "computer"
      }
    },
    {
      "type": "node",
      "id": 10114201658,
      "lat": 12.9389146,
      "lon": 77.6264312,
      "tags": {
        "addr:city": "Ejipura",
        "addr:district": "Bengaluru",
        "addr:housenumber": "14",
        "addr:postcode": "560095",
        "addr:street": "Patel Narayana Reddy Layout",
        "air_conditioning": "no",
        "amenity": "pub",
        "diet:non-vegetarian": "yes",
        "diet:vegan": "yes",
        "diet:vegetarian": "yes",
        "email": "connect@frothytales.com",
        "level": "1-3",
        "microbrewery": "yes",
        "mobile": "09108180000",
        "name": "The Bier Library",
        "opening_hours": "Mo-Su 12:00-1:00",
        "website": "https://www.thebierlibrary.in/",
        "website:menu": "https://www.thebierlibrary.in/copy-of-beverages"
      }
    },
    {
      "type": "node",
      "id": 10114207612,
      "lat": 12.9388064,
      "lon": 77.6260422,
      "tags": {
        "name": "Bhumi Spirit",
        "shop": "alcohol"
      }
    },
    {
      "type": "node",
      "id": 10219532237,
      "lat": 12.9351115,
      "lon": 77.6292155,
      "tags": {
        "addr:city": "Bangalore",
        "addr:country": "IN",
        "addr:housenumber": "974",
        "addr:postcode": "560034",
        "addr:street": "80 Feet Road",
        "addr:suburb": "Koramangala",
        "amenity": "restaurant",
        "contact:facebook": "altpizza.in",
        "contact:instagram": "altpizza.in",
        "cuisine": "pizza",
        "delivery": "yes",
        "level": "1",
        "name": "Alt Pizza",
        "opening_hours": "12:30-22:30",
        "phone": "+91 8123892268",
        "takeaway": "yes",
        "website": "https://www.altpizza.co.in/"
      }
    },
    {
      "type": "node",
      "id": 10295524798,
      "lat": 12.9294166,
      "lon": 77.6323832,
      "tags": {
        "addr:city": "Bengaluru",
        "addr:country": "IN",
        "addr:housenumber": "12",
        "addr:postcode": "560034",
        "addr:street": "7th Cross Road",
        "addr:suburb": "Koramangala",
        "amenity": "coworking_space",
        "fee": "yes",
        "name": "Attic Space Trishul",
        "office": "coworking",
        "operator": "Attic Space",
        "website": "https://atticspace.in/location/attic-space-trishul-kormangala"
      }
    },
    {
      "type": "node",
      "id": 10295524802,
      "lat": 12.9295061,
      "lon": 77.6314384,
      "tags": {
        "amenity": "post_box"
      }
    },
    {
      "type": "node",
      "id": 10314122725,
      "lat": 12.9347397,
      "lon": 77.6296212,
      "tags": {
        "amenity": "cafe",
        "brand": "Third Wave Coffee Roasters",
        "brand:wikidata": "Q7785004",
        "cuisine": "coffee_shop",
        "delivery": "yes",
        "name": "Third Wave Coffee Roasters",
        "operator": "Third Wave Coffee Roasters",
        "takeaway": "yes"
      }
    },
    {
      "type": "node",
      "id": 10649347387,
      "lat": 12.935354,
      "lon": 77.6284155,
      "tags": {
        "amenity": "cafe",
        "delivery": "yes",
        "name": "Maverick and Farmer Coffee",
        "takeaway": "yes",
        "website": "https://www.maverickandfarmer.com/"
      }
    },
    {
      "type": "node",
      "id": 10728008693,
      "lat": 12.933281,
      "lon": 77.6270744,
      "tags": {
        "amenity": "restaurant",
        "contact:facebook": "154breakfastclub",
        "cuisine": "american",
        "delivery": "yes",
        "name": "154 Breakfast Club",
        "takeaway": "yes"
      }
    },
    {
      "type": "node",
      "id": 10819508449,
      "lat": 12.9350462,
      "lon": 77.6249939,
      "tags": {
        "addr:housenumber": "39",
        "addr:street": "8th Main Road",
        "name": "Coorg Fresh Vegetables and Fruits",
        "phone": "+919620848497",
        "shop": "greengrocer"
      }
    },
    {
      "type": "node",
      "id": 10819535526,
      "lat": 12.9346147,
      "lon": 77.6250274,
      "tags": {
        "addr:housenumber": "423",
        "addr:street": "8th Main Road",
        "brand": "Bhima Jewellers",
        "brand:wikidata": "Q17004889",
        "name": "Bhima Jewellers",
        "shop": "jewelry",
        "website": "https://bhima.com"
      }
    },
    {
      "type": "node",
      "id": 10924790334,
      "lat": 12.9328588,
      "lon": 77.6309864,
      "tags": {
        "amenity": "restaurant",
        "contact:facebook": "pastastreet",
        "contact:instagram": "pasta.street",
        "cuisine": "pasta",
        "email": "info@pastastreet.co.in",
        "name": "Pasta Street",
        "phone": "+91 9266844026",
        "website": "https://pastastreet.co.in/"
      }
    },
    {
      "type": "node",
      "id": 10924790335,
      "lat": 12.9318674,
      "lon": 77.6320308,
      "tags": {
        "amenity": "bar",
        "name": "Chin Lung Resto Bar"
      }
    },
    {
      "type": "node",
      "id": 10924790336,
      "lat": 12.9313575,
      "lon": 77.6324685,
      "tags": {
        "level": "1",
        "name": "Truefitt & Hill",
        "payment:credit_cards": "yes",
        "payment:debit_cards": "yes",
        "shop": "hairdresser",
        "website": "https://www.truefittandhill.in/",
        "wheelchair": "no"
      }
    },
    {
      "type": "node",
      "id": 11061435984,
      "lat": 12.9336416,
      "lon": 77.628382,
      "tags": {
        "contact:instagram": "nariandkage",
        "name": "Nari & Kāge",
        "shop": "cheese"
      }
    },
    {
      "type": "node",
      "id": 11096390239,
      "lat": 12.9345149,
      "lon": 77.6232464,
      "tags": {
        "amenity": "restaurant",
        "name": "De Shack"
      }
    },
    {
      "type": "node",
      "id": 11117270552,
      "lat": 12.937942,
      "lon": 77.6262087,
      "tags": {
        "amenity": "cafe",
        "brand": "Glen's Bakehouse",
        "delivery": "yes",
        "name": "Glen's Bakehouse",
        "shop": "pastry",
        "takeaway": "yes"
      }
    },
    {
      "type": "node",
      "id": 11277885669,
      "lat": 12.9398026,
      "lon": 77.625213,
      "tags": {
        "amenity": "restaurant",
        "contact:instagram": "ssurablr",
        "name": "Ssura"
      }
    },
    {
      "type": "node",
      "id": 11277885724,
      "lat": 12.9291597,
      "lon": 77.6273802,
      "tags": {
        "amenity": "restaurant",
        "contact:instagram": "theverandahkoramangala",
        "name": "The Verandah"
      }
    },
    {
      "type": "node",
      "id": 11296273091,
      "lat": 12.9399627,
      "lon": 77.6280572,
      "tags": {
        "addr:city": "Ejipura, Bengaluru",
        "addr:district": "Bengaluru",
        "addr:housenumber": "8",
        "addr:postcode": "560047",
        "addr:street": "1st Main Road, Ashwini Layout",
        "air_conditioning": "yes",
        "female": "yes",
        "name": "illusion Saloon",
        "shop": "hairdresser"
      }
    },
    {
      "type": "node",
      "id": 11299999642,
      "lat": 12.935429,
      "lon": 77.6284361,
      "tags": {
        "brand": "BMW",
        "brand:wikidata": "Q249173",
        "name": "JSP Motorrad",
        "shop": "motorcycle"
      }
    },
    {
      "type": "node",
      "id": 11385511624,
      "lat": 12.9262798,
      "lon": 77.6332784,
      "tags": {
        "amenity": "bank",
        "check_date": "2023-11-30",
        "name": "Bharat Bank"
      }
    },
    {
      "type": "node",
      "id": 11385511625,
      "lat": 12.9271334,
      "lon": 77.6332033,
      "tags": {
        "amenity": "cafe",
        "check_date": "2023-11-30",
        "name": "Chai Fast"
      }
    },
    {
      "type": "node",
      "id": 11385511629,
      "lat": 12.9302112,
      "lon": 77.6329689,
      "tags": {
        "check_date": "2024-01-10",
        "name": "Wooden Street",
        "shop": "furniture"
      }
    },
    {
      "type": "node",
      "id": 11385511630,
      "lat": 12.9310729,
      "lon": 77.6326552,
      "tags": {
        "amenity": "cafe",
        "brand": "Barista",
        "brand:wikidata": "Q644735",
        "check_date": "2023-11-30",
        "cuisine": "coffee_shop",
        "name": "Barista",
        "takeaway": "yes"
      }
    },
    {
      "type": "node",
      "id": 11385511631,
      "lat": 12.9311872,
      "lon": 77.6326024,
      "tags": {
        "amenity": "fast_food",
        "brand": "Domino's",
        "brand:wikidata": "Q839466",
        "check_date": "2023-11-30",
        "cuisine": "pizza",
        "name": "Domino's",
        "takeaway": "yes"
      }
    },
    {
      "type": "node",
      "id": 11385511632,
      "lat": 12.9323886,
      "lon": 77.6314845,
      "tags": {
        "amenity": "cafe",
        "brand": "Starbucks",
        "brand:wikidata": "Q37158",
        "check_date": "2023-11-30",
        "cuisine": "coffee_shop",
        "name": "Starbucks",
        "official_name": "Starbucks Coffee",
        "takeaway": "yes"
      }
    },
    {
      "type": "node",
      "id": 11385511633,
      "lat": 12.9343675,
      "lon": 77.630024,
      "tags": {
        "amenity": "bank",
        "brand": "Jana Small Finance Bank",
        "brand:wikidata": "Q65122274",
        "check_date": "2023-11-30",
        "name": "Jana Small Finance Bank"
      }
    },
    {
      "type": "node",
      "id": 11385511634,
      "lat": 12.9346521,
      "lon": 77.6297029,
      "tags": {
        "check_date": "2023-11-30",
        "name": "Duroflex",
        "shop": "bed"
      }
    },
    {
      "type": "node",
      "id": 11385580169,
      "lat": 12.9353516,
      "lon": 77.6289478,
      "tags": {
        "check_date": "2023-11-30",
        "name": "Sleepwell",
        "shop": "bed"
      }
    },
    {
      "type": "node",
      "id": 11385580170,
      "lat": 12.9355461,
      "lon": 77.62827,
      "tags": {
        "brand": "Mercedes-Benz",
        "brand:wikidata": "Q36008",
        "check_date": "2023-11-30",
        "name": "Mercedes Benz",
        "shop": "car"
      }
    },
    {
      "type": "node",
      "id": 11385580171,
      "lat": 12.9366403,
      "lon": 77.6277623,
      "tags": {
        "brand": "Sony Centre",
        "brand:wikidata": "Q3437496",
        "check_date": "2024-03-02",
        "name": "Sony Centre",
        "operator": "Haavit Retail",
        "shop": "electronics"
      }
    },
    {
      "type": "node",
      "id": 11385580172,
      "lat": 12.9363775,
      "lon": 77.6274783,
      "tags": {
        "check_date": "2023-11-30",
        "name": "imagine",
        "shop": "electronics"
      }
    },
    {
      "type": "node",
      "id": 11385580173,
      "lat": 12.9363539,
      "lon": 77.6274229,
      "tags": {
        "check_date": "2023-11-30",
        "name": "Amona",
        "shop": "beauty"
      }
    },
    {
      "type": "node",
      "id": 11385580175,
      "lat": 12.9364323,
      "lon": 77.6273237,
      "tags": {
        "check_date": "2023-11-30",
        "name": "Reliance Jewels",
        "shop": "jewelry"
      }
    },
    {
      "type": "node",
      "id": 11385580176,
      "lat": 12.9373048,
      "lon": 77.626698,
      "tags": {
        "check_date": "2023-11-30",
        "name": "rentomojo.com",
        "shop": "furniture"
      }
    },
    {
      "type": "node",
      "id": 11385580177,
      "lat": 12.9374519,
      "lon": 77.6265817,
      "tags": {
        "amenity": "pharmacy",
        "check_date": "2023-11-30",
        "healthcare": "pharmacy",
        "name": "Lavish Pharma"
      }
    },
    {
      "type": "node",
      "id": 11385580178,
      "lat": 12.9374048,
      "lon": 77.6266273,
      "tags": {
        "check_date": "2023-11-30",
        "name": "Satyam Office Suppliers",
        "shop": "stationery"
      }
    },
    {
      "type": "node",
      "id": 11385580180,
      "lat": 12.9381932,
      "lon": 77.6259997,
      "tags": {
        "check_date": "2023-11-30",
        "name": "Mega IT Store",
        "shop": "electronics"
      }
    },
    {
      "type": "node",
      "id": 11396013061,
      "lat": 12.9376704,
      "lon": 77.626955,
      "tags": {
        "amenity": "pub",
        "name": "Magique"
      }
    },
    {
      "type": "node",
      "id": 11397803296,
      "lat": 12.9268376,
      "lon": 77.6332674,
      "tags": {
        "check_date": "2023-12-06",
        "name": "JusBake",
        "shop": "bakery"
      }
    },
    {
      "type": "node",
      "id": 11493493803,
      "lat": 12.937206,
      "lon": 77.6272579,
      "tags": {
        "name": "Sapphire Toys",
        "shop": "toys"
      }
    },
    {
      "type": "node",
      "id": 11494201368,
      "lat": 12.933798,
      "lon": 77.6299607,
      "tags": {
        "check_date": "2024-01-10",
        "name": "Electronics Bazaar",
        "shop": "computer"
      }
    },
    {
      "type": "node",
      "id": 11505691627,
      "lat": 12.935764,
      "lon": 77.6285398,
      "tags": {
        "check_date": "2024-01-10",
        "name": "Helios",
        "shop": "watches"
      }
    },
    {
      "type": "node",
      "id": 11505691628,
      "lat": 12.936888,
      "lon": 77.6270479,
      "tags": {
        "check_date": "2024-01-10",
        "name": "Lighting Emporio",
        "shop": "lighting"
      }
    },
    {
      "type": "node",
      "id": 11505691629,
      "lat": 12.9372703,
      "lon": 77.6266577,
      "tags": {
        "check_date": "2024-01-10",
        "name": "GIVA",
        "shop": "jewelry"
      }
    },
    {
      "type": "node",
      "id": 11505695829,
      "lat": 12.9266025,
      "lon": 77.6332815,
      "tags": {
        "brand": "LG",
        "brand:wikidata": "Q162345",
        "check_date": "2024-01-10",
        "name": "LG",
        "shop": "electronics"
      }
    },
    {
      "type": "node",
      "id": 11505695830,
      "lat": 12.9268066,
      "lon": 77.6332725,
      "tags": {
        "amenity": "cafe",
        "check_date": "2024-01-10",
        "name": "Tatvika Cafe"
      }
    },
    {
      "type": "node",
      "id": 11505695833,
      "lat": 12.9320555,
      "lon": 77.6318284,
      "tags": {
        "check_date": "2024-01-10",
        "shop": "garden_centre"
      }
    },
    {
      "type": "node",
      "id": 11505695835,
      "lat": 12.9338285,
      "lon": 77.629995,
      "tags": {
        "check_date": "2024-01-10",
        "name": "The Organic World",
        "organic": "only",
        "shop": "supermarket"
      }
    },
    {
      "type": "node",
      "id": 11505695836,
      "lat": 12.9338503,
      "lon": 77.6299284,
      "tags": {
        "amenity": "post_office",
        "brand": "Desk to Desk Courier & Cargo",
        "brand:short": "DTDC",
        "brand:wikidata": "Q55608802",
        "check_date": "2024-01-10",
        "operator": "Desk to Desk Courier & Cargo",
        "operator:short": "DTDC",
        "operator:wikidata": "Q55608802"
      }
    },
    {
      "type": "node",
      "id": 11505695837,
      "lat": 12.9345066,
      "lon": 77.6293607,
      "tags": {
        "check_date": "2024-01-10",
        "name": "Kurl-On",
        "shop": "bed"
      }
    },
    {
      "type": "node",
      "id": 11659905691,
      "lat": 12.9295032,
      "lon": 77.6326634,
      "tags": {
        "name": "Cut & Style Salon",
        "shop": "hairdresser"
      }
    },
    {
      "type": "node",
      "id": 11659905692,
      "lat": 12.930344,
      "lon": 77.6332226,
      "tags": {
        "amenity": "pharmacy",
        "brand": "MedPlus",
        "brand:wikidata": "Q65684234",
        "healthcare": "pharmacy",
        "name": "MedPlus",
        "name:kn": "ಮೆಡ್‍ಪ್ಲಸ್"
      }
    },
    {
      "type": "node",
      "id": 11659905693,
      "lat": 12.9307348,
      "lon": 77.633114,
      "tags": {
        "amenity": "cafe",
        "brand": "Chai Point",
        "brand:wikidata": "Q28173415",
        "check_date": "2025-05-25",
        "cuisine": "coffee_shop",
        "name": "Chai Point",
        "takeaway": "yes"
      }
    },
    {
      "type": "node",
      "id": 11659905694,
      "lat": 12.9309544,
      "lon": 77.6330697,
      "tags": {
        "amenity": "restaurant",
        "name": "Gabru Di Chaap"
      }
    },
    {
      "type": "node",
      "id": 11659905695,
      "lat": 12.9311505,
      "lon": 77.6325856,
      "tags": {
        "level": "1",
        "name": "YLG Salon",
        "shop": "beauty"
      }
    },
    {
      "type": "node",
      "id": 11659905696,
      "lat": 12.9314093,
      "lon": 77.6325158,
      "tags": {
        "amenity": "bank",
        "atm": "yes",
        "brand": "ICICI Bank",
        "brand:wikidata": "Q1653258",
        "name": "ICICI Bank",
        "name:kn": "ಐಸಿಐಸಿಐ ಬ್ಯಾಂಕು",
        "short_name": "ICICI"
      }
    },
    {
      "type": "node",
      "id": 11659905697,
      "lat": 12.9308067,
      "lon": 77.6327707,
      "tags": {
        "amenity": "bank",
        "name": "SVC Cooperative Bank Ltd"
      }
    },
    {
      "type": "node",
      "id": 11659905698,
      "lat": 12.9308262,
      "lon": 77.6330783,
      "tags": {
        "addr:housenumber": "1025",
        "addr:street": "80 Feet Road",
        "amenity": "fast_food",
        "cuisine": "kebab;burger;shawarma",
        "diet:halal": "yes",
        "diet:meat": "yes",
        "diet:non-vegetarian": "yes",
        "drive_through": "no",
        "name": "Al Taza"
      }
    },
    {
      "type": "node",
      "id": 11659905699,
      "lat": 12.930842,
      "lon": 77.633114,
      "tags": {
        "name": "Lotus Unisex Spa",
        "shop": "massage"
      }
    },
    {
      "type": "node",
      "id": 11684016164,
      "lat": 12.9361379,
      "lon": 77.6277548,
      "tags": {
        "check_date": "2024-03-02",
        "second_hand": "only",
        "shop": "car"
      }
    },
    {
      "type": "node",
      "id": 11684016165,
      "lat": 12.9368734,
      "lon": 77.6275483,
      "tags": {
        "check_date": "2024-03-02",
        "name": "GKB Opticals",
        "shop": "optician"
      }
    },
    {
      "type": "node",
      "id": 11684016166,
      "lat": 12.9367572,
      "lon": 77.6276099,
      "tags": {
        "amenity": "restaurant",
        "check_date": "2024-03-02",
        "name": "Royal Tandoor"
      }
    },
    {
      "type": "node",
      "id": 11684016167,
      "lat": 12.9369935,
      "lon": 77.6273987,
      "tags": {
        "check_date": "2024-03-02",
        "name": "iworld",
        "shop": "electronics"
      }
    },
    {
      "type": "node",
      "id": 11780212783,
      "lat": 12.9376205,
      "lon": 77.6243795,
      "tags": {
        "amenity": "cafe",
        "name": "Cafe Reset"
      }
    },
    {
      "type": "node",
      "id": 11927677057,
      "lat": 12.9337755,
      "lon": 77.6236693,
      "tags": {
        "access": "yes",
        "amenity": "charging_station",
        "brand": "ChargePoint",
        "brand:wikidata": "Q5176149",
        "capacity": "2",
        "fee": "no",
        "name": "Ola Hyper Charger",
        "name:en": "Ola charger",
        "operator": "ChargePoint",
        "operator:wikidata": "Q5176149"
      }
    },
    {
      "type": "node",
      "id": 11968859178,
      "lat": 12.9331176,
      "lon": 77.6307088,
      "tags": {
        "addr:city": "Bengaluru",
        "addr:country": "IN",
        "addr:housenumber": "749",
        "addr:postcode": "560034",
        "addr:street": "80 Feet Road",
        "addr:suburb": "Koramangala",
        "amenity": "bar",
        "contact:instagram": "pbbunnybar",
        "name": "Bunny Bar"
      }
    },
    {
      "type": "node",
      "id": 11968859180,
      "lat": 12.9357945,
      "lon": 77.6280548,
      "tags": {
        "addr:city": "Bengaluru",
        "addr:country": "IN",
        "addr:housenumber": "612",
        "addr:postcode": "560034",
        "addr:street": "80 Feet Road",
        "addr:suburb": "Koramangala",
        "amenity": "cafe",
        "contact:instagram": "roastea.outlets",
        "delivery": "yes",
        "name": "Roastea",
        "takeaway": "yes",
        "website": "https://roastea.in/"
      }
    },
    {
      "type": "node",
      "id": 12043260297,
      "lat": 12.9361524,
      "lon": 77.6285782,
      "tags": {
        "addr": "Green Leaf Layout, 418/4, 80 Feet Rd, near maharaja hotel, 4th Block, Koramangala, Bengaluru, Karnataka 560034",
        "addr:city": "Bengaluru",
        "addr:district": "Bengaluru",
        "addr:housenumber": "418/4",
        "addr:postcode": "560034",
        "addr:street": "80 Feet Road",
        "amenity": "post_office",
        "brand": "Blue Dart Express",
        "brand:short": "Blue Dart",
        "brand:wikidata": "Q54621493",
        "name": "Blue Dart Express Limited",
        "operator": "Blue Dart Express",
        "operator:short": "Blue Dart",
        "operator:wikidata": "Q54621493"
      }
    },
    {
      "type": "node",
      "id": 12083603347,
      "lat": 12.9322948,
      "lon": 77.6316027,
      "tags": {
        "amenity": "bar",
        "name": "The Fixx Bar"
      }
    },
    {
      "type": "node",
      "id": 12083603348,
      "lat": 12.9325502,
      "lon": 77.6318589,
      "tags": {
        "amenity": "cafe",
        "level": "3",
        "name": "Dialogues Cafe",
        "outdoor_seating": "yes"
      }
    },
    {
      "type": "node",
      "id": 12083603349,
      "lat": 12.931798,
      "lon": 77.632117,
      "tags": {
        "amenity": "cafe",
        "name": "Helloo Dilli"
      }
    },
    {
      "type": "node",
      "id": 12083603350,
      "lat": 12.9315093,
      "lon": 77.6324208,
      "tags": {
        "name": "Zeiss Vision Center",
        "shop": "optician"
      }
    },
    {
      "type": "node",
      "id": 12083603351,
      "lat": 12.9317143,
      "lon": 77.6322196,
      "tags": {
        "amenity": "bank",
        "brand": "Bandhan Bank",
        "brand:wikidata": "Q19882235",
        "name": "Bandhan Bank"
      }
    },
    {
      "type": "node",
      "id": 12083603353,
      "lat": 12.9315158,
      "lon": 77.6328365,
      "tags": {
        "name": "enrich",
        "shop": "beauty"
      }
    },
    {
      "type": "node",
      "id": 12083603354,
      "lat": 12.9313995,
      "lon": 77.6329049,
      "tags": {
        "amenity": "restaurant",
        "cuisine": "thai",
        "name": "Thai Basil"
      }
    },
    {
      "type": "node",
      "id": 12115149767,
      "lat": 12.9332839,
      "lon": 77.6310669,
      "tags": {
        "addr:postcode": "560034",
        "addr:street": "80 Feet Road",
        "amenity": "bank",
        "atm": "yes",
        "brand": "Kotak Mahindra Bank",
        "brand:wikidata": "Q2040404",
        "name": "Kotak Mahindra Bank"
      }
    },
    {
      "type": "node",
      "id": 12115149768,
      "lat": 12.9333297,
      "lon": 77.6310562,
      "tags": {
        "addr:postcode": "560034",
        "addr:street": "80 Feet Road",
        "amenity": "restaurant",
        "cuisine": "pizza",
        "level": "1",
        "name": "Onesta"
      }
    },
    {
      "type": "node",
      "id": 12115149769,
      "lat": 12.9333329,
      "lon": 77.6311199,
      "tags": {
        "addr:postcode": "560034",
        "addr:street": "80 Feet Road",
        "leisure": "fitness_centre",
        "level": "2",
        "name": "Aurum Elite Fitness Club"
      }
    },
    {
      "type": "node",
      "id": 12115149770,
      "lat": 12.9331813,
      "lon": 77.6311695,
      "tags": {
        "addr:postcode": "560034",
        "addr:street": "80 Feet Road",
        "amenity": "bank",
        "atm": "yes",
        "brand": "RBL Bank",
        "brand:wikidata": "Q13120398",
        "name": "RBL Bank"
      }
    },
    {
      "type": "node",
      "id": 12115149772,
      "lat": 12.9330896,
      "lon": 77.6312388,
      "tags": {
        "amenity": "atm",
        "brand": "State Bank of India",
        "brand:wikidata": "Q1340361",
        "operator": "State Bank of India",
        "operator:wikidata": "Q1340361",
        "short_name": "SBI"
      }
    },
    {
      "type": "node",
      "id": 12115149773,
      "lat": 12.9330648,
      "lon": 77.6312713,
      "tags": {
        "addr:postcode": "560034",
        "addr:street": "80 Feet Road",
        "amenity": "bank",
        "brand": "State Bank of India",
        "brand:wikidata": "Q1340361",
        "level": "1",
        "name": "State Bank of India",
        "short_name": "SBI"
      }
    },
    {
      "type": "node",
      "id": 12115149775,
      "lat": 12.9323246,
      "lon": 77.6320872,
      "tags": {
        "addr:postcode": "560034",
        "addr:street": "80 Feet Road",
        "level": "1",
        "name": "Noodira Salon",
        "shop": "beauty"
      }
    },
    {
      "type": "node",
      "id": 12115149776,
      "lat": 12.932367,
      "lon": 77.6321201,
      "tags": {
        "addr:postcode": "560034",
        "addr:street": "80 Feet Road",
        "brand": "cult.fit",
        "brand:wikidata": "Q121289250",
        "leisure": "fitness_centre",
        "level": "2",
        "name": "cult.fit"
      }
    },
    {
      "type": "node",
      "id": 12115149777,
      "lat": 12.9322049,
      "lon": 77.6321901,
      "tags": {
        "addr:postcode": "560034",
        "addr:street": "80 Feet Road",
        "amenity": "dentist",
        "healthcare": "dentist",
        "level": "1",
        "name": "Clove Dental"
      }
    },
    {
      "type": "node",
      "id": 12115149778,
      "lat": 12.9321791,
      "lon": 77.6321694,
      "tags": {
        "addr:postcode": "560034",
        "addr:street": "80 Feet Road",
        "name": "Bottle Store",
        "shop": "alcohol"
      }
    },
    {
      "type": "node",
      "id": 12115251881,
      "lat": 12.9295347,
      "lon": 77.6308153,
      "tags": {
        "addr:postcode": "560034",
        "addr:street": "7th Cross Road",
        "amenity": "cafe",
        "name": "Cafe OTW On The Way"
      }
    },
    {
      "type": "node",
      "id": 12115251882,
      "lat": 12.9296138,
      "lon": 77.6316244,
      "tags": {
        "addr:postcode": "560034",
        "addr:street": "7th Cross Road",
        "amenity": "clinic",
        "healthcare": "clinic",
        "healthcare:speciality": "fertility",
        "name": "Cherish Fertinity Clinic"
      }
    },
    {
      "type": "node",
      "id": 12115251883,
      "lat": 12.9300397,
      "lon": 77.6332545,
      "tags": {
        "addr:postcode": "560034",
        "addr:street": "80 Feet Road",
        "name": "DriveX NIAX Motors",
        "second_hand": "only",
        "shop": "motorcycle"
      }
    },
    {
      "type": "node",
      "id": 12115251884,
      "lat": 12.9295327,
      "lon": 77.6320146,
      "tags": {
        "addr:postcode": "560034",
        "addr:street": "7th Cross Road",
        "name": "Nanesh Unisex Salon",
        "shop": "beauty"
      }
    },
    {
      "type": "node",
      "id": 12115251886,
      "lat": 12.9295262,
      "lon": 77.6319228,
      "tags": {
        "addr:postcode": "560034",
        "addr:street": "7th Cross Road",
        "amenity": "cafe",
        "name": "Kaffe 399"
      }
    },
    {
      "type": "node",
      "id": 12115251888,
      "lat": 12.9306501,
      "lon": 77.6331509,
      "tags": {
        "addr:postcode": "560034",
        "addr:street": "80 Feet Road",
        "name": "Pulito Wash",
        "shop": "laundry"
      }
    },
    {
      "type": "node",
      "id": 12115251889,
      "lat": 12.9305861,
      "lon": 77.6331696,
      "tags": {
        "addr:postcode": "560034",
        "addr:street": "80 Feet Road",
        "amenity": "cafe",
        "cuisine": "waffle",
        "name": "Belgian Waffle"
      }
    },
    {
      "type": "node",
      "id": 12129005537,
      "lat": 12.9308818,
      "lon": 77.6327024,
      "tags": {
        "contact:instagram": "lokomadofficial",
        "name": "LokoMAD",
        "shop": "pastry"
      }
    },
    {
      "type": "node",
      "id": 12149863540,
      "lat": 12.9307344,
      "lon": 77.6253594,
      "tags": {
        "amenity": "waste_basket"
      }
    },
    {
      "type": "node",
      "id": 12149863541,
      "lat": 12.9307759,
      "lon": 77.6249442,
      "tags": {
        "amenity": "waste_basket"
      }
    },
    {
      "type": "node",
      "id": 12149863542,
      "lat": 12.9312883,
      "lon": 77.6257252,
      "tags": {
        "amenity": "waste_basket"
      }
    },
    {
      "type": "node",
      "id": 12149863543,
      "lat": 12.9313946,
      "lon": 77.6262441,
      "tags": {
        "amenity": "waste_basket"
      }
    },
    {
      "type": "node",
      "id": 12149863544,
      "lat": 12.9313606,
      "lon": 77.6267031,
      "tags": {
        "amenity": "waste_basket"
      }
    },
    {
      "type": "node",
      "id": 12149863545,
      "lat": 12.9312863,
      "lon": 77.6267464,
      "tags": {
        "amenity": "waste_basket"
      }
    },
    {
      "type": "node",
      "id": 12149863547,
      "lat": 12.9306981,
      "lon": 77.6267801,
      "tags": {
        "amenity": "bench",
        "backrest": "yes",
        "seats": "3"
      }
    },
    {
      "type": "node",
      "id": 12149863548,
      "lat": 12.9307116,
      "lon": 77.6268424,
      "tags": {
        "amenity": "bench",
        "backrest": "yes",
        "seats": "3"
      }
    },
    {
      "type": "node",
      "id": 12149863549,
      "lat": 12.9305906,
      "lon": 77.6268448,
      "tags": {
        "amenity": "bench",
        "backrest": "yes",
        "seats": "3"
      }
    },
    {
      "type": "node",
      "id": 12149863550,
      "lat": 12.9306309,
      "lon": 77.626844,
      "tags": {
        "amenity": "bench",
        "backrest": "yes",
        "seats": "3"
      }
    },
    {
      "type": "node",
      "id": 12149863551,
      "lat": 12.9306073,
      "lon": 77.6266899,
      "tags": {
        "amenity": "bench",
        "backrest": "yes",
        "seats": "3"
      }
    },
    {
      "type": "node",
      "id": 12149863552,
      "lat": 12.9306438,
      "lon": 77.6266933,
      "tags": {
        "amenity": "bench",
        "backrest": "yes",
        "seats": "3"
      }
    },
    {
      "type": "node",
      "id": 12154759020,
      "lat": 12.9310666,
      "lon": 77.6240212,
      "tags": {
        "amenity": "bank",
        "atm": "yes",
        "brand": "Axis Bank",
        "brand:wikidata": "Q2003549",
        "name": "Axis Bank",
        "name:kn": "ಆಕ್ಸಿಸ್ ಬ್ಯಾಂಕ್"
      }
    },
    {
      "type": "node",
      "id": 12208448673,
      "lat": 12.9333097,
      "lon": 77.6270074,
      "tags": {
        "amenity": "cafe",
        "contact:instagram": "brunchproject.blr",
        "name": "Brunch Project",
        "opening_hours": "Mo-Su 09:00-20:00"
      }
    },
    {
      "type": "node",
      "id": 12229924652,
      "lat": 12.93678,
      "lon": 77.6249117,
      "tags": {
        "amenity": "restaurant",
        "check_date": "2024-10-06",
        "cuisine": "indian",
        "name": "Mitra Cafe",
        "payment:cash": "yes",
        "payment:credit_cards": "yes",
        "payment:debit_cards": "yes",
        "wheelchair": "yes"
      }
    },
    {
      "type": "node",
      "id": 12248318141,
      "lat": 12.9340933,
      "lon": 77.6297208,
      "tags": {
        "name": "Wire up",
        "shop": "musical_instrument"
      }
    },
    {
      "type": "node",
      "id": 12313885295,
      "lat": 12.9383091,
      "lon": 77.6271996,
      "tags": {
        "addr:city": "Ejipura",
        "addr:district": "Bengaluru",
        "addr:housenumber": "54/A",
        "addr:postcode": "560095",
        "addr:street": "Venkata Reddy Layout",
        "brand": "Worksupp",
        "name": "Worksupp (WSC Technologies Pvt ltd)",
        "opening_hours": "Mo-Sa 10:00-20:00",
        "shop": "wholesale",
        "website": "https://worksupp.com",
        "wholesale": "arecanut_plates,_housekeeping,_stationary"
      }
    },
    {
      "type": "node",
      "id": 12395928063,
      "lat": 12.9400829,
      "lon": 77.6255134,
      "tags": {
        "addr:city": "Bengaluru",
        "addr:suburb": "Koramangala",
        "amenity": "restaurant",
        "name": "Jolly Johnny's Bar"
      }
    },
    {
      "type": "node",
      "id": 12395928081,
      "lat": 12.9350501,
      "lon": 77.6250594,
      "tags": {
        "addr:city": "Bengaluru",
        "addr:hamlet": "Koramangala 4th Block",
        "addr:housenumber": "39",
        "addr:street": "8th Main Road",
        "addr:suburb": "Koramangala",
        "amenity": "cafe",
        "contact:instagram": "fastcoffee.in",
        "cuisine": "coffee_shop",
        "name": "Fast Coffee",
        "website": "https://fastcoffee.in/"
      }
    },
    {
      "type": "node",
      "id": 12441512698,
      "lat": 12.9277062,
      "lon": 77.6279059,
      "tags": {
        "amenity": "bench",
        "backrest": "yes",
        "seats": "2"
      }
    },
    {
      "type": "node",
      "id": 12508687328,
      "lat": 12.9342277,
      "lon": 77.6296323,
      "tags": {
        "addr:city": "Bengaluru",
        "addr:district": "Bengaluru Urban",
        "addr:full": "640, 12Th Main, 80 Ft Road, 4Th Block, Koramangala",
        "addr:housenumber": "640",
        "addr:postcode": "560034",
        "addr:state": "Karnataka",
        "addr:street": "640, 12Th Main, 80 Ft Road, 4Th Block, Koramangala",
        "amenity": "hospital",
        "healthcare": "hospital",
        "name": "Beams Hospitals Private Limited"
      }
    },
    {
      "type": "node",
      "id": 12525417485,
      "lat": 12.9358705,
      "lon": 77.6284503,
      "tags": {
        "name": "Helios The Watch Store.",
        "shop": "watches"
      }
    },
    {
      "type": "node",
      "id": 12634999220,
      "lat": 12.9353545,
      "lon": 77.6295503,
      "tags": {
        "addr:housenumber": "10",
        "addr:street": "4th cross street, Green Leaf Extension, 80 ft road, 4th Block, Koramangala",
        "amenity": "restaurant",
        "description": "Low spice everyday healthy full nutrition meals, for dine in and delivery",
        "name": "Friendz Flavour Kitchen",
        "phone": "+918971192097",
        "website": "www.friendzflavourkitchen.com"
      }
    },
    {
      "type": "node",
      "id": 12737055648,
      "lat": 12.9313271,
      "lon": 77.6344679,
      "tags": {
        "access": "private",
        "amenity": "parking_entrance",
        "parking": "underground"
      }
    },
    {
      "type": "node",
      "id": 12737055652,
      "lat": 12.9310471,
      "lon": 77.6349783,
      "tags": {
        "amenity": "parking_entrance"
      }
    },
    {
      "type": "node",
      "id": 12862846434,
      "lat": 12.9261467,
      "lon": 77.6332737,
      "tags": {
        "amenity": "restaurant",
        "cuisine": "burger",
        "delivery": "yes",
        "name": "The High Joint",
        "takeaway": "yes"
      }
    },
    {
      "type": "node",
      "id": 12956090274,
      "lat": 12.9346221,
      "lon": 77.6284665,
      "tags": {
        "addr:city": "Bangalore",
        "addr:district": "Bengaluru",
        "addr:housenumber": "224",
        "addr:postcode": "560034",
        "addr:street": "5th cross, 4th block",
        "amenity": "hospital",
        "emergency": "no",
        "healthcare": "hospital",
        "healthcare:speciality": "dentistry;prosthodontist;pediatric_dentist;implants;orthodontics;invisalign;root_canal_treatment",
        "name": "Proteeth Dental",
        "operator": "Dr Saranya, Dr Dipen",
        "operator:type": "private"
      }
    },
    {
      "type": "node",
      "id": 13057726125,
      "lat": 12.9359805,
      "lon": 77.6250264,
      "tags": {
        "amenity": "bank",
        "brand": "Bank of Baroda",
        "brand:wikidata": "Q2003797",
        "check_date": "2025-08-08",
        "name": "Bank of Baroda"
      }
    },
    {
      "type": "node",
      "id": 13059604651,
      "lat": 12.9383497,
      "lon": 77.6322571,
      "tags": {
        "check_date": "2025-08-09",
        "name": "Cycle World",
        "shop": "bicycle"
      }
    },
    {
      "type": "node",
      "id": 13059604652,
      "lat": 12.9382517,
      "lon": 77.6313962,
      "tags": {
        "brand": "Kia",
        "brand:wikidata": "Q35349",
        "check_date": "2025-08-09",
        "name": "Kia",
        "shop": "car"
      }
    },
    {
      "type": "node",
      "id": 13059604653,
      "lat": 12.9383599,
      "lon": 77.6299068,
      "tags": {
        "amenity": "post_office",
        "brand": "Desk to Desk Courier & Cargo",
        "brand:short": "DTDC",
        "brand:wikidata": "Q55608802",
        "check_date": "2025-08-09",
        "operator": "Desk to Desk Courier & Cargo",
        "operator:short": "DTDC",
        "operator:wikidata": "Q55608802"
      }
    },
    {
      "type": "node",
      "id": 13086275910,
      "lat": 12.9283909,
      "lon": 77.6361652,
      "tags": {
        "amenity": "cafe",
        "name": "Krust Cafe"
      }
    },
    {
      "type": "node",
      "id": 13086275911,
      "lat": 12.9288004,
      "lon": 77.6353345,
      "tags": {
        "amenity": "restaurant",
        "cuisine": "asian",
        "name": "Bao To Me"
      }
    },
    {
      "type": "node",
      "id": 13112735901,
      "lat": 12.9340414,
      "lon": 77.6302958,
      "tags": {
        "name": "Crave by Leena",
        "shop": "bakery"
      }
    },
    {
      "type": "node",
      "id": 13155168301,
      "lat": 12.9303877,
      "lon": 77.6332249,
      "tags": {
        "amenity": "events_venue",
        "name": "Ministry of Comedy"
      }
    },
    {
      "type": "node",
      "id": 13159664725,
      "lat": 12.9336553,
      "lon": 77.6315409,
      "tags": {
        "addr:housenumber": "749",
        "addr:street": "80 Feet Road",
        "amenity": "fixme",
        "check_date": "2025-09-21",
        "fixme": "type",
        "fixme:type": "Zostel Koramangala",
        "internet_access": "wlan",
        "internet_access:fee": "customers",
        "level": "3",
        "name": "Zostel Koramangala",
        "opening_hours": "24/7",
        "payment:cash": "yes",
        "payment:credit_cards": "yes",
        "payment:debit_cards": "yes",
        "wheelchair": "no"
      }
    },
    {
      "type": "node",
      "id": 13288585452,
      "lat": 12.9303331,
      "lon": 77.6332426,
      "tags": {
        "name": "The Tempt Bakehouse",
        "shop": "pastry"
      }
    },
    {
      "type": "node",
      "id": 13288585564,
      "lat": 12.9292646,
      "lon": 77.6278468,
      "tags": {
        "amenity": "restaurant",
        "name": "By The Blue"
      }
    },
    {
      "type": "way",
      "id": 27789854,
      "center": {
        "lat": 12.9283646,
        "lon": 77.6334858
      },
      "tags": {
        "created_by": "Potlatch 0.10f",
        "leisure": "park",
        "name": "Wipro Park"
      }
    },
    {
      "type": "way",
      "id": 28186787,
      "center": {
        "lat": 12.9382909,
        "lon": 77.6243154
      },
      "tags": {
        "leisure": "sports_centre",
        "name": "Koramangala Club",
        "name:kn": "ಕೋರಮಂಗಲ ಕ್ಲಬ್"
      }
    },
    {
      "type": "way",
      "id": 32291084,
      "center": {
        "lat": 12.9389509,
        "lon": 77.6249907
      },
      "tags": {
        "leisure": "park"
      }
    },
    {
      "type": "way",
      "id": 37786371,
      "center": {
        "lat": 12.9308899,
        "lon": 77.6319955
      },
      "tags": {
        "leisure": "park",
        "name": "BBMP Park",
        "name:kn": "ಬೃ. ಬೆ. ಮ. ಪಾ. ಉದ್ಯಾನವನ",
        "operator": "ಬೃಹತ್ ಬೆಂಗಳೂರು ಮಹಾನಗರ ಪಾಲಿಕೆ",
        "operator:en": "Bruhat Bengaluru Mahanagara Palike",
        "operator:ka": "ಬೃಹತ್ ಬೆಂಗಳೂರು ಮಹಾನಗರ ಪಾಲಿಕೆ",
        "operator:short": "BBMP",
        "operator:type": "government",
        "operator:wikidata": "Q4978693"
      }
    },
    {
      "type": "way",
      "id": 111996869,
      "center": {
        "lat": 12.9375355,
        "lon": 77.6281117
      },
      "tags": {
        "alt_name": "Salarpuria Oasis",
        "building": "yes",
        "name": "Oasis Centre",
        "shop": "mall"
      }
    },
    {
      "type": "way",
      "id": 122415848,
      "center": {
        "lat": 12.940967,
        "lon": 77.625052
      },
      "tags": {
        "amenity": "bus_station",
        "bus": "yes",
        "name": "Koramangala TTMC",
        "name:kn": "ಕೋರಮಂಗಲ",
        "operator": "BMTC",
        "public_transport": "station"
      }
    },
    {
      "type": "way",
      "id": 133355001,
      "center": {
        "lat": 12.9409255,
        "lon": 77.6291584
      },
      "tags": {
        "amenity": "place_of_worship",
        "building": "yes",
        "name": "Bethel Baptist Church",
        "religion": "christian"
      }
    },
    {
      "type": "way",
      "id": 133822899,
      "center": {
        "lat": 12.926253,
        "lon": 77.6296211
      },
      "tags": {
        "amenity": "college",
        "name": "St. Francis College"
      }
    },
    {
      "type": "way",
      "id": 164210883,
      "center": {
        "lat": 12.9271752,
        "lon": 77.6330217
      },
      "tags": {
        "addr:city": "Bengaluru",
        "addr:postcode": "560034",
        "addr:street": "100 Feet Rd, 3rd Block, Koramangala",
        "building": "commercial",
        "name": "Spencer",
        "organic": "yes",
        "payment:credit_cards": "yes",
        "payment:debit_cards": "yes",
        "shop": "supermarket",
        "website": "https://www.spencers.in/"
      }
    },
    {
      "type": "way",
      "id": 164210884,
      "center": {
        "lat": 12.9271608,
        "lon": 77.6325899
      },
      "tags": {
        "amenity": "parking"
      }
    },
    {
      "type": "way",
      "id": 164570816,
      "center": {
        "lat": 12.9364374,
        "lon": 77.6280698
      },
      "tags": {
        "addr:city": "Bangalore",
        "addr:country": "IN",
        "addr:housename": "Reliancedigital Retail Ltd.,",
        "addr:housenumber": "18",
        "addr:postcode": "560095",
        "addr:street": "80 Feet Peripheral Rd",
        "branch": "Retail Ltd",
        "brand": "Reliance Digital",
        "brand:wikidata": "Q7311012",
        "building": "retail",
        "email": "crm_dan.4598_kor@zmail.ril.com",
        "name": "Reliance Digital",
        "name:kn": "ರಿಲಾಯನ್ಸ್ ಡಿಜಿಟಲ್",
        "phone": "+91 80 40933777",
        "shop": "electronics",
        "website": "https://www.reliancedigital.in/"
      }
    },
    {
      "type": "way",
      "id": 164627253,
      "center": {
        "lat": 12.9351012,
        "lon": 77.6276505
      },
      "tags": {
        "amenity": "university",
        "name": "Chinmaya Mission School",
        "name:kn": "ಚಿನ್ಮಯ ಶಾಲೆ"
      }
    },
    {
      "type": "way",
      "id": 244582790,
      "center": {
        "lat": 12.9286595,
        "lon": 77.6272629
      },
      "tags": {
        "amenity": "place_of_worship",
        "building": "yes",
        "religion": "hindu"
      }
    },
    {
      "type": "way",
      "id": 269436419,
      "center": {
        "lat": 12.9291829,
        "lon": 77.6282255
      },
      "tags": {
        "access": "private",
        "leisure": "swimming_pool"
      }
    },
    {
      "type": "way",
      "id": 345860929,
      "center": {
        "lat": 12.935657,
        "lon": 77.624555
      },
      "tags": {
        "addr:housenumber": "42",
        "addr:street": "Mahayogi Vemana Road",
        "amenity": "childcare",
        "building": "yes",
        "name": "Little Feet Montessori School"
      }
    },
    {
      "type": "way",
      "id": 345895237,
      "center": {
        "lat": 12.9403448,
        "lon": 77.6252876
      },
      "tags": {
        "amenity": "fast_food",
        "brand": "Domino's",
        "brand:ks": "ڈومینوز",
        "brand:pa": "ਡੋਮੀਨੋਜ਼",
        "brand:ur": "ڈومینوز",
        "brand:wikidata": "Q839466",
        "brand:wikipedia": "en:Domino's Pizza",
        "building": "yes",
        "cuisine": "pizza",
        "name": "Domino's",
        "name:kn": "ಡಾಮಿನೋಸ್",
        "name:ks": "ڈومینوز",
        "name:pa": "ਡੋਮੀਨੋਜ਼",
        "name:ur": "ڈومینوز",
        "takeaway": "yes"
      }
    },
    {
      "type": "way",
      "id": 345934952,
      "center": {
        "lat": 12.9328802,
        "lon": 77.6353844
      },
      "tags": {
        "leisure": "pitch",
        "sport": "tennis"
      }
    },
    {
      "type": "way",
      "id": 345955207,
      "center": {
        "lat": 12.9309751,
        "lon": 77.6338422
      },
      "tags": {
        "building": "yes",
        "name": "Nuts Corner",
        "shop": "nuts",
        "source": "local knowledge;survey"
      }
    },
    {
      "type": "way",
      "id": 347067773,
      "center": {
        "lat": 12.9375453,
        "lon": 77.6293268
      },
      "tags": {
        "addr:city": "Bangalore",
        "addr:postcode": "560095",
        "addr:street": "1st Main Road",
        "amenity": "place_of_worship",
        "building": "yes",
        "name": "C.S.I. Covenant Church",
        "religion": "christian"
      }
    },
    {
      "type": "way",
      "id": 347126522,
      "center": {
        "lat": 12.9422662,
        "lon": 77.6281151
      },
      "tags": {
        "addr:city": "Bengaluru",
        "addr:postcode": "560047",
        "addr:street": "Sri Rama Temple Road",
        "air_conditioning": "yes",
        "building": "yes",
        "clothes": "men",
        "name": "Trends Collection",
        "opening_hours": "Mo-Su 09:00-22:00",
        "payment:cash": "yes",
        "payment:debit_cards": "yes",
        "shop": "clothes"
      }
    },
    {
      "type": "way",
      "id": 347236027,
      "center": {
        "lat": 12.9368506,
        "lon": 77.6270002
      },
      "tags": {
        "branch": "Koramangala",
        "brand": "Sony",
        "brand:wikidata": "Q41187",
        "building": "yes",
        "building:levels": "3",
        "check_date": "2023-11-30",
        "name": "Philips Hue",
        "shop": "electronics"
      }
    },
    {
      "type": "way",
      "id": 347236390,
      "center": {
        "lat": 12.9346732,
        "lon": 77.6287815
      },
      "tags": {
        "amenity": "hospital",
        "healthcare": "hospital"
      }
    },
    {
      "type": "way",
      "id": 347236718,
      "center": {
        "lat": 12.9346254,
        "lon": 77.6284672
      },
      "tags": {
        "addr:city": "Bangalore",
        "addr:district": "Bengaluru Urban",
        "addr:housenumber": "224",
        "addr:postcode": "560034",
        "addr:street": "5th Cross Road, 4th block",
        "amenity": "hospital",
        "building:levels": "2",
        "healthcare": "hospital",
        "healthcare:speciality": "dentistry;prosthodontist;pediatric_dentist",
        "name": "Proteeth Dental"
      }
    },
    {
      "type": "way",
      "id": 347237183,
      "center": {
        "lat": 12.9351715,
        "lon": 77.6247566
      },
      "tags": {
        "building": "yes",
        "name": "Panasonic Brand shop 100 feet",
        "operator": "Panasonic",
        "shop": "electronics"
      }
    },
    {
      "type": "way",
      "id": 347237381,
      "center": {
        "lat": 12.9327071,
        "lon": 77.6275313
      },
      "tags": {
        "addr:city": "Bengaluru",
        "addr:housenumber": "447",
        "addr:postcode": "560039",
        "addr:street": "12th Main Road",
        "amenity": "childcare",
        "building": "yes",
        "check_date": "2025-08-08",
        "name": "Planet Bloomingdale",
        "website": "https://www.planetbloomingdale.com/"
      }
    },
    {
      "type": "way",
      "id": 347237497,
      "center": {
        "lat": 12.9347614,
        "lon": 77.6254885
      },
      "tags": {
        "addr:city": "Bengaluru",
        "addr:housenumber": "4",
        "addr:postcode": "560034",
        "addr:street": "8th Main Road",
        "amenity": "cafe",
        "building": "yes",
        "check_date": "2025-08-08",
        "cuisine": "american",
        "dog": "leashed",
        "internet_access": "wlan",
        "name": "The Hole In The Wall Cafe",
        "opening_hours": "Tu-Su 08:00-21:00",
        "pets": "yes",
        "website": "https://www.theholeinthewallcafe.org/"
      }
    },
    {
      "type": "way",
      "id": 348839277,
      "center": {
        "lat": 12.941154,
        "lon": 77.6275686
      },
      "tags": {
        "addr:city": "Ejipura, Bengaluru",
        "addr:housenumber": "18",
        "addr:postcode": "560095",
        "addr:street": "Sri Rama Temple Road",
        "amenity": "place_of_worship",
        "building": "yes",
        "name": "Sri Mutyellama Temple",
        "name:kn": "ಮುತ್ಯಾಲಮ್ಮ ದೇವಸ್ಥಾನ",
        "religion": "hindu",
        "service_times": "Mo-Su 06:00 - 19:00"
      }
    },
    {
      "type": "way",
      "id": 362919956,
      "center": {
        "lat": 12.9288113,
        "lon": 77.6303716
      },
      "tags": {
        "leisure": "park"
      }
    },
    {
      "type": "way",
      "id": 362920330,
      "center": {
        "lat": 12.9321809,
        "lon": 77.6295061
      },
      "tags": {
        "leisure": "park",
        "name": "Rectangle Park"
      }
    },
    {
      "type": "way",
      "id": 362920876,
      "center": {
        "lat": 12.927514,
        "lon": 77.6355294
      },
      "tags": {
        "leisure": "park",
        "name": "Swabhimana Park",
        "name:kn": "ಸ್ವಾಭೀಮಾನ ಉದ್ಯಾನವನ"
      }
    },
    {
      "type": "way",
      "id": 362921972,
      "center": {
        "lat": 12.9331364,
        "lon": 77.6327824
      },
      "tags": {
        "leisure": "park",
        "name": "Children's Park"
      }
    },
    {
      "type": "way",
      "id": 362922597,
      "center": {
        "lat": 12.9342196,
        "lon": 77.6318221
      },
      "tags": {
        "leisure": "park",
        "name": "S T Bed Park at 5th Cross"
      }
    },
    {
      "type": "way",
      "id": 484687954,
      "center": {
        "lat": 12.936059,
        "lon": 77.631226
      },
      "tags": {
        "leisure": "park",
        "name": "Chandra Reddy"
      }
    },
    {
      "type": "way",
      "id": 487990356,
      "center": {
        "lat": 12.9287804,
        "lon": 77.6319089
      },
      "tags": {
        "access": "private",
        "leisure": "swimming_pool"
      }
    },
    {
      "type": "way",
      "id": 547746814,
      "center": {
        "lat": 12.9326788,
        "lon": 77.6332164
      },
      "tags": {
        "leisure": "playground",
        "name": "Children's Playground"
      }
    },
    {
      "type": "way",
      "id": 613469045,
      "center": {
        "lat": 12.9369493,
        "lon": 77.6269231
      },
      "tags": {
        "building": "yes",
        "name": "Wildcraft",
        "shop": "clothes"
      }
    },
    {
      "type": "way",
      "id": 613469815,
      "center": {
        "lat": 12.9395203,
        "lon": 77.6253565
      },
      "tags": {
        "amenity": "fuel",
        "brand": "Indian Oil",
        "brand:wikidata": "Q1289348",
        "brand:wikipedia": "en:Indian Oil Corporation",
        "fuel:diesel": "yes",
        "fuel:petrol": "yes",
        "name": "Indian Oil",
        "name:kn": "ಇಂಡಿಯನ್ ಆಯಿಲ್"
      }
    },
    {
      "type": "way",
      "id": 621061139,
      "center": {
        "lat": 12.938341,
        "lon": 77.6265231
      },
      "tags": {
        "amenity": "parking"
      }
    },
    {
      "type": "way",
      "id": 662278780,
      "center": {
        "lat": 12.9274271,
        "lon": 77.62728
      },
      "tags": {
        "access": "yes",
        "alt_name": "Post Office Playground",
        "landuse": "recreation_ground",
        "leisure": "pitch",
        "name": "Post Office Grounds",
        "old_name": "3rd Block Grounds"
      }
    },
    {
      "type": "way",
      "id": 662280188,
      "center": {
        "lat": 12.9281426,
        "lon": 77.6274329
      },
      "tags": {
        "alt_name": "Post Office Park",
        "leisure": "park",
        "name": "Heble Park",
        "old_name": "3rd Block Park"
      }
    },
    {
      "type": "way",
      "id": 779344649,
      "center": {
        "lat": 12.9308407,
        "lon": 77.6358184
      },
      "tags": {
        "leisure": "park"
      }
    },
    {
      "type": "way",
      "id": 779344654,
      "center": {
        "lat": 12.926722,
        "lon": 77.6302447
      },
      "tags": {
        "leisure": "playground"
      }
    },
    {
      "type": "way",
      "id": 779344655,
      "center": {
        "lat": 12.9270487,
        "lon": 77.6301463
      },
      "tags": {
        "amenity": "college",
        "fixme": "Boundaries of college campus",
        "name": "St. Francis Composite PU College"
      }
    },
    {
      "type": "way",
      "id": 996354904,
      "center": {
        "lat": 12.9303714,
        "lon": 77.6292074
      },
      "tags": {
        "leisure": "park"
      }
    },
    {
      "type": "way",
      "id": 996354905,
      "center": {
        "lat": 12.9308165,
        "lon": 77.6295353
      },
      "tags": {
        "leisure": "park"
      }
    },
    {
      "type": "way",
      "id": 1066116300,
      "center": {
        "lat": 12.9270252,
        "lon": 77.6304325
      },
      "tags": {
        "leisure": "pitch",
        "sport": "basketball"
      }
    },
    {
      "type": "way",
      "id": 1066116301,
      "center": {
        "lat": 12.9270845,
        "lon": 77.6301025
      },
      "tags": {
        "leisure": "pitch",
        "sport": "basketball"
      }
    },
    {
      "type": "way",
      "id": 1067072819,
      "center": {
        "lat": 12.9388175,
        "lon": 77.6306998
      },
      "tags": {
        "amenity": "fuel",
        "brand": "Bharat Petroleum",
        "brand:wikidata": "Q854826",
        "fuel:diesel": "yes",
        "fuel:lpg": "yes",
        "name": "Bharat Petroleum",
        "name:kn": "ಭಾರತ್ ಪೆಟ್ರೋಲಿಯಂ"
      }
    },
    {
      "type": "way",
      "id": 1099875751,
      "center": {
        "lat": 12.9321517,
        "lon": 77.6346228
      },
      "tags": {
        "addr:street": "Temple Trees Rd, Cauvery Colony",
        "air_conditioning": "yes",
        "brand": "DMart",
        "building": "yes",
        "building:levels": "3",
        "name": "DMart",
        "not:brand:wikidata": "Q5203271",
        "payment:cash": "yes",
        "payment:contactless": "yes",
        "payment:debit_cards": "yes",
        "shop": "supermarket",
        "website": "https://www.dmartindia.com/"
      }
    },
    {
      "type": "way",
      "id": 1125892156,
      "center": {
        "lat": 12.9278086,
        "lon": 77.6316812
      },
      "tags": {
        "access": "private",
        "leisure": "pitch",
        "sport": "badminton"
      }
    },
    {
      "type": "way",
      "id": 1125892162,
      "center": {
        "lat": 12.9274608,
        "lon": 77.6292184
      },
      "tags": {
        "amenity": "monastery",
        "name": "Jyoti Sadan",
        "religion": "christian"
      }
    },
    {
      "type": "way",
      "id": 1143988615,
      "center": {
        "lat": 12.9289892,
        "lon": 77.6354659
      },
      "tags": {
        "amenity": "toilets",
        "building": "yes"
      }
    },
    {
      "type": "way",
      "id": 1157119896,
      "center": {
        "lat": 12.9404725,
        "lon": 77.6275231
      },
      "tags": {
        "addr:place": "Ejipura",
        "amenity": "school",
        "isced:level": "3",
        "name": "Everest High School",
        "name:kn": "ಎವರೆಸ್ಟ್, ನೀಲಸಂದ್ರ",
        "operator": "Private Un-Aided",
        "school": "Higher Secondary"
      }
    },
    {
      "type": "way",
      "id": 1195978038,
      "center": {
        "lat": 12.9312351,
        "lon": 77.6348441
      },
      "tags": {
        "access": "private",
        "leisure": "swimming_pool"
      }
    },
    {
      "type": "way",
      "id": 1195978077,
      "center": {
        "lat": 12.9328859,
        "lon": 77.6374053
      },
      "tags": {
        "leisure": "swimming_pool"
      }
    },
    {
      "type": "way",
      "id": 1195978080,
      "center": {
        "lat": 12.9336723,
        "lon": 77.6354051
      },
      "tags": {
        "leisure": "pitch"
      }
    },
    {
      "type": "way",
      "id": 1195978087,
      "center": {
        "lat": 12.9341016,
        "lon": 77.6349444
      },
      "tags": {
        "access": "private",
        "leisure": "swimming_pool"
      }
    },
    {
      "type": "way",
      "id": 1237434577,
      "center": {
        "lat": 12.9395439,
        "lon": 77.6280117
      },
      "tags": {
        "amenity": "parking",
        "parking": "surface"
      }
    },
    {
      "type": "way",
      "id": 1240985780,
      "center": {
        "lat": 12.9287653,
        "lon": 77.6317307
      },
      "tags": {
        "leisure": "park"
      }
    },
    {
      "type": "way",
      "id": 1242263651,
      "center": {
        "lat": 12.9399555,
        "lon": 77.6327668
      },
      "tags": {
        "leisure": "garden"
      }
    },
    {
      "type": "way",
      "id": 1258131866,
      "center": {
        "lat": 12.9387216,
        "lon": 77.6244241
      },
      "tags": {
        "access": "permissive",
        "leisure": "swimming_pool"
      }
    },
    {
      "type": "way",
      "id": 1258131867,
      "center": {
        "lat": 12.938307,
        "lon": 77.6239072
      },
      "tags": {
        "leisure": "pitch",
        "sport": "tennis"
      }
    },
    {
      "type": "way",
      "id": 1258918114,
      "center": {
        "lat": 12.9313194,
        "lon": 77.6372995
      },
      "tags": {
        "access": "private",
        "leisure": "swimming_pool"
      }
    },
    {
      "type": "way",
      "id": 1289244844,
      "center": {
        "lat": 12.9382475,
        "lon": 77.6324924
      },
      "tags": {
        "amenity": "parking",
        "parking": "surface"
      }
    },
    {
      "type": "way",
      "id": 1332827917,
      "center": {
        "lat": 12.9334268,
        "lon": 77.6348476
      },
      "tags": {
        "access": "private",
        "leisure": "swimming_pool"
      }
    },
    {
      "type": "way",
      "id": 1344787457,
      "center": {
        "lat": 12.9288768,
        "lon": 77.6269617
      },
      "tags": {
        "access": "private",
        "leisure": "swimming_pool"
      }
    },
    {
      "type": "way",
      "id": 1411938953,
      "center": {
        "lat": 12.93133,
        "lon": 77.637061
      },
      "tags": {
        "leisure": "playground"
      }
    }
  ]
}