{
  "area_name": "Subramanyanagara",
  "osm_id": 19883446,
  "osm_type": "relation",
  "place_type": "administrative",
  "amenity_count": 348,
  "amenities": [
    {
      "type": "node",
      "id": 1472858834,
      "lat": 13.0037708,
      "lon": 77.5547591,
      "tags": {
        "amenity": "school",
        "name": "Sri Vani Education Society"
      }
    },
    {
      "type": "node",
      "id": 2098527087,
      "lat": 13.0116018,
      "lon": 77.5553246,
      "tags": {
        "addr:city": "Bangalore",
        "addr:street": "Dr. Rajkumar Road",
        "amenity": "restaurant",
        "brand": "Nando's",
        "brand:wikidata": "Q3472954",
        "cuisine": "chicken;portuguese",
        "indoor_seating": "yes",
        "name": "Nando's",
        "outdoor_seating": "yes"
      }
    },
    {
      "type": "node",
      "id": 2098527091,
      "lat": 13.011218,
      "lon": 77.5554078,
      "tags": {
        "addr:city": "Bangalore",
        "addr:housename": "Upper Ground Floow, Orion Mall",
        "addr:housenumber": "UG16",
        "addr:street": "Dr. Rajkumar Road",
        "amenity": "restaurant",
        "cuisine": "italian",
        "indoor_seating": "yes",
        "name": "Toscano",
        "outdoor_seating": "yes"
      }
    },
    {
      "type": "node",
      "id": 2098527092,
      "lat": 13.0107099,
      "lon": 77.5554114,
      "tags": {
        "addr:city": "Bangalore",
        "addr:housename": "Upper Gground Floor, Orion Mall",
        "addr:housenumber": "UG24",
        "addr:street": "Dr. Rajkumar Road",
        "amenity": "restaurant",
        "cuisine": "chinese",
        "name": "Mainland China"
      }
    },
    {
      "type": "node",
      "id": 2107201486,
      "lat": 13.0100348,
      "lon": 77.5552257,
      "tags": {
        "access": "yes",
        "amenity": "parking_entrance",
        "fee": "yes",
        "parking": "underground"
      }
    },
    {
      "type": "node",
      "id": 2107201494,
      "lat": 13.0109319,
      "lon": 77.555398,
      "tags": {
        "alt_name": "Kentucky Fried Chicken",
        "alt_name:en": "Kentucky Fried Chicken",
        "alt_name:hi": "केंटुकी फ्राइड चिकन",
        "alt_name:pa": "ਕੈਂਟੁਕੀ ਫ੍ਰਾਈਡ ਚਿਕਨ",
        "alt_name:pnb": "کینٹکی فرائیڈ چکن",
        "alt_name:ur": "کینٹکی فرائیڈ چکن",
        "amenity": "fast_food",
        "brand": "KFC",
        "brand:en": "KFC",
        "brand:hi": "केएफसी",
        "brand:pa": "ਕੇਐਫਸੀ",
        "brand:pnb": "کے ایف سی",
        "brand:ur": "کے ایف سی",
        "brand:wikidata": "Q524757",
        "brand:wikipedia": "en:KFC",
        "brand:wikipedia:pa": "ਕੇਐਫਸੀ",
        "brand:wikipedia:ur": "کینٹکی فرائیڈ چکن",
        "cuisine": "chicken",
        "indoor_seating": "yes",
        "name": "KFC",
        "name:en": "KFC",
        "name:hi": "केएफसी",
        "name:kn": "ಕೆಎಫ್‍ಸಿ",
        "name:pa": "ਕੇਐਫਸੀ",
        "name:pnb": "کے ایف سی",
        "name:ur": "کے ایف سی",
        "outdoor_seating": "no",
        "takeaway": "yes"
      }
    },
    {
      "type": "node",
      "id": 2489009764,
      "lat": 13.0103379,
      "lon": 77.5549593,
      "tags": {
        "addr:city": "Bangalore",
        "addr:housename": "Orion Mall",
        "addr:street": "Dr. Rajkumar Road",
        "name": "RMKV Silks",
        "shop": "clothes"
      }
    },
    {
      "type": "node",
      "id": 2489009765,
      "lat": 13.0101708,
      "lon": 77.5548457,
      "tags": {
        "addr:city": "Bangalore",
        "addr:housename": "Orion Mall",
        "addr:housenumber": "G08, G09",
        "addr:street": "Dr. Rajkumar Road",
        "name": "Debenhams",
        "shop": "hifi"
      }
    },
    {
      "type": "node",
      "id": 2489009766,
      "lat": 13.0101633,
      "lon": 77.5550943,
      "tags": {
        "addr:city": "Bangalore",
        "addr:housename": "Orion Mall",
        "addr:housenumber": "G07",
        "addr:street": "Dr. Rajkumar Road",
        "name": "Debenhams Cosmetic",
        "shop": "cosmetics"
      }
    },
    {
      "type": "node",
      "id": 2489009767,
      "lat": 13.0101713,
      "lon": 77.5549686,
      "tags": {
        "addr:city": "Bangalore",
        "addr:housename": "ground Floor, Orion Mall",
        "addr:housenumber": "G28",
        "addr:street": "Dr. Rajkumar Road",
        "name": "Landmark",
        "shop": "convenience"
      }
    },
    {
      "type": "node",
      "id": 2489009768,
      "lat": 13.011798,
      "lon": 77.5551394,
      "tags": {
        "addr:city": "Bangalore",
        "addr:housename": "Ground Floor, Orion Mall",
        "addr:housenumber": "G27",
        "addr:street": "Dr. Rajkumar Road",
        "shop": "clothes"
      }
    },
    {
      "type": "node",
      "id": 2489009771,
      "lat": 13.010998,
      "lon": 77.5553637,
      "tags": {
        "addr:city": "Bangalore",
        "addr:housename": "Ground Floor, Orion Mall",
        "addr:housenumber": "G29",
        "addr:street": "Dr. Rajkumar Road",
        "brand": "Reebok",
        "brand:wikidata": "Q466183",
        "name": "Reebok",
        "name:kn": "ರೀಬಾಕ್",
        "shop": "clothes"
      }
    },
    {
      "type": "node",
      "id": 2489009772,
      "lat": 13.0109007,
      "lon": 77.5548788,
      "tags": {
        "addr:city": "Bangalore",
        "addr:housename": "Ground Floor, Orion Mall",
        "addr:housenumber": "G30",
        "addr:street": "Dr. Rajkumar Road",
        "name": "Espirit",
        "shop": "watch"
      }
    },
    {
      "type": "node",
      "id": 2489009775,
      "lat": 13.0108303,
      "lon": 77.5549373,
      "tags": {
        "addr:city": "Bangalore",
        "addr:housename": "Ground Floor, Orion Mall",
        "addr:housenumber": "G37A",
        "addr:street": "Dr. Rajkumar Road",
        "name": "Ethos",
        "shop": "watch"
      }
    },
    {
      "type": "node",
      "id": 2489009776,
      "lat": 13.0107847,
      "lon": 77.5548782,
      "tags": {
        "addr:city": "Bangalore",
        "addr:housename": "Ground Floor, Orion Mall",
        "addr:housenumber": "G02",
        "addr:street": "Dr. Rajkumar Road",
        "brand": "Tommy Hilfiger",
        "brand:wikidata": "Q634881",
        "brand:wikipedia": "en:Tommy Hilfiger (company)",
        "name": "Tommy Hilfiger",
        "shop": "clothes"
      }
    },
    {
      "type": "node",
      "id": 2489009777,
      "lat": 13.0107206,
      "lon": 77.5549405,
      "tags": {
        "addr:city": "Bangalore",
        "addr:housename": "Ground Floor, Orion Mall",
        "addr:housenumber": "G03, G04",
        "addr:street": "Dr. Rajkumar Road",
        "name": "Wills Lifestyle",
        "shop": "clothes"
      }
    },
    {
      "type": "node",
      "id": 2489009778,
      "lat": 13.0106746,
      "lon": 77.5548767,
      "tags": {
        "addr:city": "Bangalore",
        "addr:housename": "Ground Floor, Orion Mall",
        "addr:housenumber": "G05",
        "addr:street": "Dr. Rajkumar Road",
        "name": "Elle",
        "shop": "cosmetics"
      }
    },
    {
      "type": "node",
      "id": 2489009779,
      "lat": 13.0103911,
      "lon": 77.5548848,
      "tags": {
        "addr:city": "Bangalore",
        "addr:housename": "Ground Floor, Orion Mall",
        "addr:housenumber": "G06",
        "addr:street": "Dr. Rajkumar Road",
        "name": "Swarovski",
        "shop": "hifi"
      }
    },
    {
      "type": "node",
      "id": 2489009780,
      "lat": 13.0105296,
      "lon": 77.5548792,
      "tags": {
        "addr:city": "Bangalore",
        "addr:housename": "Ground Floor, Orion Mall",
        "addr:housenumber": "G10",
        "addr:street": "Dr. Rajkumar Road",
        "name": "Nautica",
        "shop": "hifi"
      }
    },
    {
      "type": "node",
      "id": 2489009781,
      "lat": 13.0104749,
      "lon": 77.5548867,
      "tags": {
        "addr:city": "Bangalore",
        "addr:housename": "Ground Floor, Orion Mall",
        "addr:housenumber": "G10A",
        "addr:street": "Dr. Rajkumar Road",
        "brand": "Samsonite",
        "brand:wikidata": "Q1203426",
        "name": "Samsonite",
        "shop": "bag"
      }
    },
    {
      "type": "node",
      "id": 2489009782,
      "lat": 13.0102981,
      "lon": 77.5548904,
      "tags": {
        "addr:city": "Bangalore",
        "addr:housename": "Ground Floor, Orion Mall",
        "addr:housenumber": "G11",
        "addr:street": "Dr. Rajkumar Road",
        "name": "Chemistry",
        "shop": "clothes"
      }
    },
    {
      "type": "node",
      "id": 2489009783,
      "lat": 13.0100944,
      "lon": 77.5549108,
      "tags": {
        "addr:city": "Bangalore",
        "addr:housename": "Ground Floor, Orion Mall",
        "addr:housenumber": "G12",
        "addr:street": "Dr. Rajkumar Road",
        "brand": "Levi's",
        "brand:wikidata": "Q127962",
        "brand:wikipedia": "en:Levi Strauss & Co.",
        "clothes": "denim;men;women",
        "name": "Levi's",
        "shop": "clothes"
      }
    },
    {
      "type": "node",
      "id": 2489009784,
      "lat": 13.0102817,
      "lon": 77.5549652,
      "tags": {
        "addr:city": "Bangalore",
        "addr:housename": "Ground Floor, Orion Mall",
        "addr:housenumber": "G13",
        "addr:street": "Dr. Rajkumar Road",
        "brand": "United Colors of Benetton",
        "brand:wikidata": "Q817139",
        "name": "United Colors of Benetton",
        "shop": "clothes",
        "short_name": "Benetton"
      }
    },
    {
      "type": "node",
      "id": 2489017279,
      "lat": 13.0104166,
      "lon": 77.5549615,
      "tags": {
        "addr:city": "Bangalore",
        "addr:housename": "Ground Floor, Orion Mall",
        "addr:housenumber": "G14, G15",
        "addr:street": "Dr. Rajkumar Road",
        "brand": "Jack & Jones",
        "brand:wikidata": "Q6077665",
        "name": "Jack & Jones",
        "shop": "clothes"
      }
    },
    {
      "type": "node",
      "id": 2489017282,
      "lat": 13.0106066,
      "lon": 77.5549374,
      "tags": {
        "addr:city": "Bangalore",
        "addr:housename": "Ground Floor, Orion Mall",
        "addr:housenumber": "G19",
        "addr:street": "Dr. Rajkumar Road",
        "brand": "Mango",
        "brand:wikidata": "Q136503",
        "name": "Mango",
        "shop": "clothes"
      }
    },
    {
      "type": "node",
      "id": 2489017285,
      "lat": 13.0104539,
      "lon": 77.5553095,
      "tags": {
        "addr:city": "Bangalore",
        "addr:housename": "Ground Floor, Orion Mall",
        "addr:housenumber": "G27",
        "addr:street": "Dr. Rajkumar Road",
        "name": "Westside",
        "shop": "clothes"
      }
    },
    {
      "type": "node",
      "id": 2489017288,
      "lat": 13.010514,
      "lon": 77.5553829,
      "tags": {
        "addr:city": "Bangalore",
        "addr:housename": "Upper Ground Floow, Orion Mall",
        "addr:housenumber": "UG01",
        "addr:street": "Dr. Rajkumar Road",
        "name": "Balckberrys",
        "shop": "clothes"
      }
    },
    {
      "type": "node",
      "id": 2489017291,
      "lat": 13.0103911,
      "lon": 77.5553855,
      "tags": {
        "addr:city": "Bangalore",
        "addr:housename": "Upper Ground Floow, Orion Mall",
        "addr:housenumber": "UG02",
        "addr:street": "Dr. Rajkumar Road",
        "brand": "Bata",
        "brand:wikidata": "Q688082",
        "name": "Bata",
        "name:kn": "ಬಾಟಾ",
        "shop": "shoes"
      }
    },
    {
      "type": "node",
      "id": 2489017297,
      "lat": 13.0101195,
      "lon": 77.5554142,
      "tags": {
        "shop": "wine"
      }
    },
    {
      "type": "node",
      "id": 2489017299,
      "lat": 13.0101943,
      "lon": 77.5554198,
      "tags": {
        "addr:city": "Bangalore",
        "addr:housename": "Upper Ground Floow, Orion Mall",
        "addr:housenumber": "UG04",
        "addr:street": "Dr. Rajkumar Road",
        "name": "Fasttrack",
        "shop": "watch"
      }
    },
    {
      "type": "node",
      "id": 2489017302,
      "lat": 13.0114964,
      "lon": 77.5549008,
      "tags": {
        "addr:city": "Bangalore",
        "addr:floor": "UG",
        "addr:street": "Dr. Rajkumar Road",
        "check_date": "2023-09-10",
        "level": "1",
        "name": "Hidesign",
        "shop": "bag"
      }
    },
    {
      "type": "node",
      "id": 2489017306,
      "lat": 13.0100667,
      "lon": 77.5552757,
      "tags": {
        "addr:city": "Bangalore",
        "addr:housename": "Upper Ground Floow, Orion Mall",
        "addr:housenumber": "UG04A",
        "addr:street": "Dr. Rajkumar Road",
        "name": "Da Milano",
        "shop": "hifi"
      }
    },
    {
      "type": "node",
      "id": 2489017309,
      "lat": 13.0100968,
      "lon": 77.5551844,
      "tags": {
        "addr:city": "Bangalore",
        "addr:housename": "Upper Ground Floow, Orion Mall",
        "addr:housenumber": "UG05A",
        "addr:street": "Dr. Rajkumar Road",
        "name": "Lee",
        "shop": "clothes"
      }
    },
    {
      "type": "node",
      "id": 2489017312,
      "lat": 13.0100992,
      "lon": 77.555032,
      "tags": {
        "addr:city": "Bangalore",
        "addr:housename": "Upper Ground Floow, Orion Mall",
        "addr:housenumber": "UG06",
        "addr:street": "Dr. Rajkumar Road",
        "name": "Wrangler",
        "shop": "clothes"
      }
    },
    {
      "type": "node",
      "id": 2489017315,
      "lat": 13.0100959,
      "lon": 77.5547872,
      "tags": {
        "addr:city": "Bangalore",
        "addr:housename": "Upper Ground Floow, Orion Mall",
        "addr:housenumber": "UG07, UG08",
        "addr:street": "Dr. Rajkumar Road",
        "name": "Central",
        "shop": "clothes"
      }
    },
    {
      "type": "node",
      "id": 2489017325,
      "lat": 13.0106061,
      "lon": 77.555373,
      "tags": {
        "addr:city": "Bengaluru",
        "addr:country": "IN",
        "addr:floor": "3",
        "addr:housename": "Orion Mall",
        "addr:postcode": "560025",
        "addr:street": "Dr. Rajkumar Road",
        "air_conditioning": "yes",
        "amenity": "cinema",
        "brand": "PVR Cinemas",
        "brand:wikidata": "Q3359908",
        "check_date": "2024-11-22",
        "drive_in": "no",
        "level": "4",
        "name": "PVR Orion Mall",
        "operator": "PVR Cinemas",
        "screen": "8",
        "short_name": "PVR"
      }
    },
    {
      "type": "node",
      "id": 2489029620,
      "lat": 13.0113093,
      "lon": 77.5549151,
      "tags": {
        "addr:city": "Bangalore",
        "addr:housename": "Upper Ground Floor, Orion Mall",
        "addr:housenumber": "UG12",
        "addr:street": "Dr. Rajkumar Road",
        "brand": "U.S. Polo Assn.",
        "brand:wikidata": "Q7863282",
        "name": "U.S. Polo Assn.",
        "shop": "clothes"
      }
    },
    {
      "type": "node",
      "id": 2489029624,
      "lat": 13.0112178,
      "lon": 77.5548584,
      "tags": {
        "addr:city": "Bangalore",
        "addr:housename": "Upper Ground Floor, Orion Mall",
        "addr:housenumber": "UG13",
        "addr:street": "Dr. Rajkumar Road",
        "name": "Provogue",
        "shop": "clothes"
      }
    },
    {
      "type": "node",
      "id": 2489042424,
      "lat": 13.0112384,
      "lon": 77.5553907,
      "tags": {
        "addr:city": "Bangalore",
        "addr:housename": "Upper Gground Floor, Orion Mall",
        "addr:housenumber": "UG14",
        "addr:street": "Dr. Rajkumar Road",
        "brand": "Rockport",
        "brand:wikidata": "Q4048384",
        "name": "Rockport",
        "shop": "shoes"
      }
    },
    {
      "type": "node",
      "id": 2489042425,
      "lat": 13.0118669,
      "lon": 77.5548539,
      "tags": {
        "addr:city": "Bangalore",
        "addr:housename": "Upper Gground Floor, Orion Mall",
        "addr:housenumber": "UG17",
        "addr:street": "Dr. Rajkumar Road",
        "brand": "Samsung",
        "brand:wikidata": "Q20718",
        "name": "Samsung",
        "name:kn": "ಸ್ಯಾಮ್‌ಸಂಗ್",
        "shop": "electronics"
      }
    },
    {
      "type": "node",
      "id": 2489042426,
      "lat": 13.0116388,
      "lon": 77.5547987,
      "tags": {
        "addr:city": "Bangalore",
        "addr:housename": "Upper Gground Floor, Orion Mall",
        "addr:housenumber": "UG16",
        "addr:street": "Dr. Rajkumar Road",
        "brand": "Adidas",
        "brand:wikidata": "Q3895",
        "name": "Adidas",
        "name:kn": "ಅಡಿಡಾಸ್",
        "shop": "sports"
      }
    },
    {
      "type": "node",
      "id": 2489042427,
      "lat": 13.0118174,
      "lon": 77.5548097,
      "tags": {
        "addr:city": "Bangalore",
        "addr:housename": "Upper Gground Floor, Orion Mall",
        "addr:housenumber": "UG17",
        "addr:street": "Dr. Rajkumar Road",
        "name": "Arrrow",
        "shop": "clothes"
      }
    },
    {
      "type": "node",
      "id": 2489042428,
      "lat": 13.0117593,
      "lon": 77.5548097,
      "tags": {
        "addr:city": "Bangalore",
        "addr:housename": "Upper Gground Floor, Orion Mall",
        "addr:housenumber": "UG18",
        "addr:street": "Dr. Rajkumar Road",
        "brand": "Celio",
        "brand:wikidata": "Q2672003",
        "name": "Celio",
        "shop": "clothes"
      }
    },
    {
      "type": "node",
      "id": 2489042429,
      "lat": 13.0115721,
      "lon": 77.5547854,
      "tags": {
        "addr:city": "Bangalore",
        "addr:housename": "Upper Gground Floor, Orion Mall",
        "addr:housenumber": "UG19-UG21",
        "name": "Imagine Store",
        "shop": "electronics"
      }
    },
    {
      "type": "node",
      "id": 2489042430,
      "lat": 13.0117504,
      "lon": 77.5552004,
      "tags": {
        "addr:city": "Bangalore",
        "addr:housename": "Upper Gground Floor, Orion Mall",
        "addr:housenumber": "UG22",
        "addr:street": "Dr. Rajkumar Road",
        "name": "Zodiac",
        "shop": "clothes"
      }
    },
    {
      "type": "node",
      "id": 2489042431,
      "lat": 13.0118154,
      "lon": 77.5550156,
      "tags": {
        "addr:city": "Bangalore",
        "addr:housename": "Upper Gground Floor, Orion Mall",
        "addr:housenumber": "UG23",
        "addr:street": "Dr. Rajkumar Road",
        "name": "Louis Phillippe",
        "name:kn": "ಲೂಯಿ ಫಿಲಿಪ್",
        "shop": "clothes"
      }
    },
    {
      "type": "node",
      "id": 2489042432,
      "lat": 13.0117552,
      "lon": 77.5550805,
      "tags": {
        "addr:city": "Bangalore",
        "addr:housename": "Upper Gground Floor, Orion Mall",
        "addr:housenumber": "UG23",
        "addr:street": "Dr. Rajkumar Road",
        "name": "Van Huesen",
        "shop": "clothes"
      }
    },
    {
      "type": "node",
      "id": 2489042433,
      "lat": 13.0118346,
      "lon": 77.5553934,
      "tags": {
        "addr:city": "Bangalore",
        "addr:housename": "Upper Ground Floor, Orion Mall",
        "addr:housenumber": "UG9",
        "addr:street": "Dr. Rajkumar Road",
        "amenity": "restaurant",
        "cuisine": "japanese",
        "indoor_seating": "yes",
        "name": "You Mee",
        "operator": "Lite Bite Foods",
        "outdoor_seating": "yes",
        "reservation": "recommended"
      }
    },
    {
      "type": "node",
      "id": 2489042435,
      "lat": 13.0117279,
      "lon": 77.5553093,
      "tags": {
        "addr:city": "Bangalore",
        "addr:housename": "Upper Gground Floor, Orion Mall",
        "addr:housenumber": "UG26",
        "addr:street": "Dr. Rajkumar Road",
        "name": "Pepe",
        "shop": "clothes"
      }
    },
    {
      "type": "node",
      "id": 2489042436,
      "lat": 13.0117851,
      "lon": 77.5551919,
      "tags": {
        "addr:city": "Bangalore",
        "addr:housename": "Upper Gground Floor, Orion Mall",
        "addr:housenumber": "UG26A",
        "addr:street": "Dr. Rajkumar Road",
        "name": "World of Titan",
        "shop": "watch"
      }
    },
    {
      "type": "node",
      "id": 2489042437,
      "lat": 13.0114881,
      "lon": 77.5553553,
      "tags": {
        "addr:city": "Bangalore",
        "addr:housename": "Upper Gground Floor, Orion Mall",
        "addr:housenumber": "UG27",
        "addr:street": "Dr. Rajkumar Road",
        "amenity": "restaurant",
        "name": "Vinegar"
      }
    },
    {
      "type": "node",
      "id": 2489042438,
      "lat": 13.0114494,
      "lon": 77.555384,
      "tags": {
        "addr:city": "Bangalore",
        "addr:housename": "Upper Gground Floor, Orion Mall",
        "addr:housenumber": "UG28, UG29",
        "addr:street": "Dr. Rajkumar Road",
        "name": "Star Bazar",
        "shop": "supermarket"
      }
    },
    {
      "type": "node",
      "id": 2489042439,
      "lat": 13.0117987,
      "lon": 77.5552696,
      "tags": {
        "addr:city": "Bangalore",
        "addr:housename": "Upper Gground Floor, Orion Mall",
        "addr:housenumber": "UG30",
        "addr:street": "Dr. Rajkumar Road",
        "name": "Colorplus",
        "shop": "clothes"
      }
    },
    {
      "type": "node",
      "id": 2489042440,
      "lat": 13.0115445,
      "lon": 77.5548961,
      "tags": {
        "addr:city": "Bangalore",
        "addr:housename": "Upper Gground Floor, Orion Mall",
        "addr:housenumber": "UG31",
        "addr:street": "Dr. Rajkumar Road",
        "name": "Mochi",
        "shop": "shoes"
      }
    },
    {
      "type": "node",
      "id": 2489042441,
      "lat": 13.0115308,
      "lon": 77.5548398,
      "tags": {
        "addr:city": "Bangalore",
        "addr:housename": "Upper Gground Floor, Orion Mall",
        "addr:housenumber": "UG32",
        "addr:street": "Dr. Rajkumar Road",
        "brand": "Clarks",
        "brand:wikidata": "Q1095857",
        "name": "Clarks",
        "name:kn": "ಕ್ಲಾರ್ಕ್ಸ್",
        "shop": "shoes"
      }
    },
    {
      "type": "node",
      "id": 2489042442,
      "lat": 13.0116624,
      "lon": 77.5549201,
      "tags": {
        "addr:city": "Bangalore",
        "addr:housename": "Upper Gground Floor, Orion Mall",
        "addr:housenumber": "UG34",
        "addr:street": "Dr. Rajkumar Road",
        "name": "LP",
        "shop": "hifi"
      }
    },
    {
      "type": "node",
      "id": 2489193186,
      "lat": 13.0115542,
      "lon": 77.5554029,
      "tags": {
        "addr:city": "Bangalore",
        "addr:housename": "Upper Gground Floor, Orion Mall",
        "addr:housenumber": "UG35",
        "addr:street": "Dr. Rajkumar Road",
        "brand": "Allen Solly",
        "brand:wikidata": "Q110036995",
        "name": "Allen Solly",
        "name:kn": "ಅಲೆನ್ ಸೊಲಿ",
        "shop": "clothes"
      }
    },
    {
      "type": "node",
      "id": 2489193187,
      "lat": 13.0115083,
      "lon": 77.5553276,
      "tags": {
        "addr:city": "Bangalore",
        "addr:housename": "Upper Gground Floor, Orion Mall",
        "addr:housenumber": "UG36",
        "addr:street": "Dr. Rajkumar Road",
        "brand": "Hush Puppies",
        "brand:wikidata": "Q1828588",
        "name": "Hush Puppies",
        "shop": "shoes"
      }
    },
    {
      "type": "node",
      "id": 2489193188,
      "lat": 13.0117528,
      "lon": 77.5550085,
      "tags": {
        "addr:city": "Bangalore",
        "addr:housename": "Upper Gground Floor, Orion Mall",
        "addr:housenumber": "UG37",
        "addr:street": "Dr. Rajkumar Road",
        "name": "Bagzone",
        "shop": "bag"
      }
    },
    {
      "type": "node",
      "id": 2489193189,
      "lat": 13.0116388,
      "lon": 77.5548517,
      "tags": {
        "addr:city": "Bangalore",
        "addr:housename": "Upper Gground Floor, Orion Mall",
        "addr:housenumber": "UG38",
        "addr:street": "Dr. Rajkumar Road",
        "name": "Accessorize",
        "shop": "hifi"
      }
    },
    {
      "type": "node",
      "id": 2489193190,
      "lat": 13.0117313,
      "lon": 77.5547545,
      "tags": {
        "addr:city": "Bangalore",
        "addr:housename": "Upper Gground Floor, Orion Mall",
        "addr:housenumber": "UG38A",
        "addr:street": "Dr. Rajkumar Road",
        "name": "The Body Shop",
        "shop": "hifi"
      }
    },
    {
      "type": "node",
      "id": 3286300926,
      "lat": 13.0124022,
      "lon": 77.55478,
      "tags": {
        "amenity": "pub",
        "microbrewery": "yes",
        "name": "District 6"
      }
    },
    {
      "type": "node",
      "id": 3350489309,
      "lat": 13.0112401,
      "lon": 77.5549137,
      "tags": {
        "amenity": "fast_food",
        "brand": "McDonald's",
        "brand:pa": "ਮੈਕਡੋਨਲਡ’ਜ਼",
        "brand:ur": "مکڈونلڈز",
        "brand:wikidata": "Q38076",
        "brand:wikipedia": "en:McDonald's",
        "brand:wikipedia:pa": "ਮੈਕਡੋਨਲਡ’ਜ਼",
        "brand:wikipedia:ur": "مکڈونلڈز",
        "cuisine": "burger",
        "indoor_seating": "yes",
        "name": "McDonald's",
        "name:kn": "ಮ್ಯಾಕ್‌ಡೊನಾಲ್ಡ್ಸ್",
        "name:pa": "ਮੈਕਡੋਨਲਡ’ਜ਼",
        "name:ur": "مکڈونلڈز",
        "outdoor_seating": "no",
        "takeaway": "yes"
      }
    },
    {
      "type": "node",
      "id": 4443574301,
      "lat": 13.00546,
      "lon": 77.5563835,
      "tags": {
        "addr:city": "bangalore",
        "addr:postcode": "560010",
        "addr:street": "E block, Subramanyanagar,2 State, Rajaji Nagar",
        "amenity": "clinic",
        "name": "Sri Venkateshwara Medicals",
        "phone": "+91-96327 00311"
      }
    },
    {
      "type": "node",
      "id": 4444197722,
      "lat": 13.0078684,
      "lon": 77.5570406,
      "tags": {
        "addr:city": "Malleshwaram,2nd Stage,Bangalore",
        "addr:housenumber": "1522,lepakshi building",
        "addr:postcode": "560003",
        "addr:street": "17th Cross Road",
        "amenity": "pub",
        "cuisine": "indian",
        "name": "1522 the Pub",
        "opening_hours": "11:30-00:00,00:00-01:00",
        "phone": "080 3075 2607",
        "takeaway": "yes",
        "website": "https://www.thepub1522.com/"
      }
    },
    {
      "type": "node",
      "id": 4446292152,
      "lat": 13.0078812,
      "lon": 77.5569436,
      "tags": {
        "addr:city": "bangalore",
        "addr:housenumber": "1522",
        "addr:postcode": "560003",
        "addr:street": "17th Cross,Malleshwaram",
        "amenity": "restaurant",
        "cuisine": "regional",
        "name": "White Horse",
        "opening_hours": "11:30 - 23:30",
        "phone": "080 22900540"
      }
    },
    {
      "type": "node",
      "id": 4446305142,
      "lat": 13.0081283,
      "lon": 77.5545993,
      "tags": {
        "addr:city": "bangalore",
        "addr:housenumber": "522",
        "addr:postcode": "560010",
        "addr:street": "17th Cross, Bridge Road, Opposite Vivekananda College, 2nd Stage, Rajajinagar",
        "amenity": "restaurant",
        "cuisine": "regional",
        "name": "Hotel Fish Palace",
        "opening_hours": "11:00-15:30,19:00-22:30",
        "phone": "080 23472999"
      }
    },
    {
      "type": "node",
      "id": 4446618881,
      "lat": 13.012299,
      "lon": 77.5559803,
      "tags": {
        "addr:city": "Bangalore",
        "addr:housenumber": "26",
        "addr:postcode": "560055",
        "addr:street": "31st Floor, Dr. Rajkumar Road, World Trade Centre, Brigade Gateway Campus, Malleshwaram",
        "amenity": "restaurant",
        "cuisine": "regional",
        "name": "High Ultra Lounge",
        "opening_hours": "12:30-15:30,17:30-01:00",
        "phone": "080 45674567",
        "website": "https://highultralounge.com/"
      }
    },
    {
      "type": "node",
      "id": 4446994840,
      "lat": 13.0053426,
      "lon": 77.5542101,
      "tags": {
        "addr:city": "bangalore",
        "addr:postcode": "560010,",
        "addr:street": "Subramanyanagar,2",
        "amenity": "pharmacy",
        "name": "Venkateshwara Medicals",
        "phone": "+9196327 00311",
        "source": "www.yellowpages.co.in"
      }
    },
    {
      "type": "node",
      "id": 4488038833,
      "lat": 13.0113718,
      "lon": 77.5548557,
      "tags": {
        "addr:city": "Bangalore",
        "addr:postcode": "560055",
        "addr:street": "Orion Mall, Shop No G 31, Gr Flr, Orion Mall, Rajaji Nagar Extention, Malleswaram West, Bhadrappa Layout, Rajaji Nagar",
        "branch": "sports house",
        "brand": "Nike",
        "brand:wikidata": "Q483915",
        "name": "Nike",
        "opening_hours": "10:00-21:30",
        "phone": "080 2268 2049",
        "shop": "clothes",
        "website": "https://nike.ssiplgroup.com"
      }
    },
    {
      "type": "node",
      "id": 4488052586,
      "lat": 13.0113146,
      "lon": 77.5553964,
      "tags": {
        "addr:city": "Bangalore",
        "addr:postcode": "560055",
        "addr:street": "Orion Mall, Brigade Gateway Road, Bhadrappa Layout, Subramanyanagar,2 State, Rajaji Nagar,",
        "brand": "Puma",
        "brand:wikidata": "Q157064",
        "name": "Puma",
        "opening_hours": "10:00-21:30",
        "phone": "080 2268 2049",
        "shop": "clothes"
      }
    },
    {
      "type": "node",
      "id": 4488065263,
      "lat": 13.0111809,
      "lon": 77.5553953,
      "tags": {
        "addr:city": "Bangalore",
        "addr:postcode": "560055",
        "addr:street": "Orion Mall, UG15, Upper Ground Floor, Orion Mall, Dr Rajkumar Rd, Bhadrappa Layout, Subramanyanagar,2 State, Rajaji Nagar",
        "brand": "Adidas",
        "brand:wikidata": "Q3895",
        "name": "Adidas",
        "name:kn": "ಅಡಿಡಾಸ್",
        "opening_hours": "10:00-21:30",
        "phone": "080 2268 2013",
        "shop": "sports",
        "website": "https://www.adidas.com/"
      }
    },
    {
      "type": "node",
      "id": 4488070981,
      "lat": 13.0081068,
      "lon": 77.5547635,
      "tags": {
        "addr:city": "bangalore",
        "addr:housenumber": "522/D",
        "addr:postcode": "560021",
        "addr:street": "Dr Rajkumar Road, 1st Block, Near-Vivekananda College, Rajaji Nagar 2nd Stage, A Block, Milk Colony, 2nd Stage, Rajaji Nagar",
        "name": "B S A Motors",
        "opening_hours": "10:00-21:30",
        "phone": "080 2337 3563",
        "shop": "sports"
      }
    },
    {
      "type": "node",
      "id": 5036029172,
      "lat": 13.0114169,
      "lon": 77.5553237,
      "tags": {
        "brand": "Xiaomi",
        "brand:wikidata": "Q1636958",
        "name": "Xiaomi",
        "shop": "mobile_phone"
      }
    },
    {
      "type": "node",
      "id": 5036029173,
      "lat": 13.0115595,
      "lon": 77.5553216,
      "tags": {
        "amenity": "kids_area",
        "name": "Funky Monkeys"
      }
    },
    {
      "type": "node",
      "id": 5036145690,
      "lat": 13.0115423,
      "lon": 77.5553238,
      "tags": {
        "amenity": "restaurant",
        "cuisine": "indian",
        "name": "Rajdhani Thali"
      }
    },
    {
      "type": "node",
      "id": 5109188120,
      "lat": 13.0078969,
      "lon": 77.5565964,
      "tags": {
        "name": "Ganesh Medicals",
        "shop": "medical_supply"
      }
    },
    {
      "type": "node",
      "id": 5109189321,
      "lat": 13.0081078,
      "lon": 77.5549568,
      "tags": {
        "amenity": "restaurant",
        "name": "Biryani Day"
      }
    },
    {
      "type": "node",
      "id": 5109189322,
      "lat": 13.0051192,
      "lon": 77.5541327,
      "tags": {
        "brand": "Hyundai",
        "brand:wikidata": "Q55931",
        "name": "Hyundai Service Center",
        "shop": "car"
      }
    },
    {
      "type": "node",
      "id": 5295212539,
      "lat": 13.0139045,
      "lon": 77.5542446,
      "tags": {
        "craft": "tiler",
        "name": "Sree Parijatha Tiles",
        "shop": "tiles"
      }
    },
    {
      "type": "node",
      "id": 6001786872,
      "lat": 13.0039371,
      "lon": 77.5537911,
      "tags": {
        "name": "Modern Pastries",
        "shop": "pastry"
      }
    },
    {
      "type": "node",
      "id": 6542893133,
      "lat": 13.0112702,
      "lon": 77.5556794,
      "tags": {
        "addr:city": "Bangalore",
        "addr:floor": "UG",
        "addr:housename": "Upper Ground Floor, Orion Mall",
        "addr:housenumber": "L1",
        "addr:street": "Dr. Rajkumar Road",
        "amenity": "cafe",
        "check_date": "2024-01-09",
        "contact:phone": "+91 8884457293",
        "level": "1",
        "name": "Hatti Kaapi",
        "name:kn": "ಹಟ್ಟಿ ಕಾಫಿ",
        "outdoor_seating": "yes",
        "takeaway": "yes",
        "website": "www.hattikaapi.in"
      }
    },
    {
      "type": "node",
      "id": 6542893134,
      "lat": 13.0116766,
      "lon": 77.5556861,
      "tags": {
        "addr:floor": "UG",
        "amenity": "cafe",
        "brand": "Chai Point",
        "brand:wikidata": "Q28173415",
        "check_date": "2024-01-09",
        "cuisine": "coffee_shop",
        "level": "1",
        "name": "Chai Point",
        "outdoor_seating": "yes",
        "takeaway": "yes"
      }
    },
    {
      "type": "node",
      "id": 6542893146,
      "lat": 13.0110494,
      "lon": 77.5549485,
      "tags": {
        "addr:city": "Bangalore",
        "addr:housename": "Upper Ground Floow, Orion Mall",
        "addr:housenumber": "S1",
        "addr:street": "Dr. Rajkumar Road",
        "amenity": "cafe",
        "name": "Cookie Man",
        "website": "https://cookiemanindia.com/"
      }
    },
    {
      "type": "node",
      "id": 6542893147,
      "lat": 13.0108052,
      "lon": 77.5554043,
      "tags": {
        "amenity": "restaurant",
        "cuisine": "regional",
        "name": "Bombay Brasserie"
      }
    },
    {
      "type": "node",
      "id": 6542893148,
      "lat": 13.0115956,
      "lon": 77.5553917,
      "tags": {
        "addr:city": "Bangalore",
        "addr:housename": "Upper Ground Floor, Orion Mall",
        "addr:housenumber": "UG9C",
        "addr:street": "Dr. Rajkumar Road",
        "amenity": "pub",
        "indoor_seating": "yes",
        "microbrewery": "yes",
        "name": "Geist Brewing Taproom",
        "outdoor_seating": "yes",
        "website": "https://www.geist.in/"
      }
    },
    {
      "type": "node",
      "id": 6794794200,
      "lat": 13.0140978,
      "lon": 77.5542326,
      "tags": {
        "amenity": "restaurant",
        "name": "Sangam",
        "name:kn": "ಸಂಗಮ"
      }
    },
    {
      "type": "node",
      "id": 6854592452,
      "lat": 13.0117937,
      "lon": 77.556311,
      "tags": {
        "amenity": "bench"
      }
    },
    {
      "type": "node",
      "id": 6854592453,
      "lat": 13.0118572,
      "lon": 77.5562106,
      "tags": {
        "amenity": "bench"
      }
    },
    {
      "type": "node",
      "id": 6854592454,
      "lat": 13.0119803,
      "lon": 77.5558307,
      "tags": {
        "amenity": "bench"
      }
    },
    {
      "type": "node",
      "id": 6854592455,
      "lat": 13.011915,
      "lon": 77.5560717,
      "tags": {
        "amenity": "bench"
      }
    },
    {
      "type": "node",
      "id": 6854592456,
      "lat": 13.0119697,
      "lon": 77.5559084,
      "tags": {
        "amenity": "bench"
      }
    },
    {
      "type": "node",
      "id": 6855409788,
      "lat": 13.0137061,
      "lon": 77.5542545,
      "tags": {
        "amenity": "bicycle_rental",
        "name": "Bounce"
      }
    },
    {
      "type": "node",
      "id": 6886594818,
      "lat": 13.014269,
      "lon": 77.5560924,
      "tags": {
        "addr:city": "Bengaluru",
        "addr:district": "BENGALURU URBAN",
        "addr:full": "26/4, Brigade Gateway, Beside Metro Cash and Carry, Malleshwaram",
        "addr:postcode": "560055",
        "addr:state": "Karnataka",
        "amenity": "blood_bank",
        "contact:helpline": "080 39898969; 080 61656262",
        "contact:mobile": "9972461925",
        "contact:phone": "8039898968",
        "fax": "080 30925454",
        "name": "Manipal Hospital Blood Bank",
        "opening_hours": "24/7",
        "operator:type": "private",
        "source": "OpenGovernmentData"
      }
    },
    {
      "type": "node",
      "id": 7087384265,
      "lat": 13.0061199,
      "lon": 77.5543676,
      "tags": {
        "addr:city": "Bengaluru",
        "addr:housenumber": "536, Dr Rajkumar Road, Rajajinagar 1st Block, , Karnataka",
        "addr:postcode": "560010",
        "addr:street": "10th Cross Road",
        "name": "Drapes India",
        "opening_hours": "Mo-Sa 10:00-21:00",
        "shop": "interior_decoration",
        "source": "survey;local knowledge;streetlevel imagery;gps",
        "website": "https://www.drapesindia.in/"
      }
    },
    {
      "type": "node",
      "id": 7223089472,
      "lat": 13.008108,
      "lon": 77.5569521,
      "tags": {
        "addr:city": "Bengaluru",
        "addr:country": "IN",
        "addr:hamlet": "Subramanya Nagar",
        "addr:housenumber": "59",
        "addr:postcode": "560055",
        "addr:street": "8th Main Road",
        "addr:suburb": "Rajajinagar",
        "amenity": "pub",
        "name": "Geometry Gastropub"
      }
    },
    {
      "type": "node",
      "id": 7291611583,
      "lat": 13.0133197,
      "lon": 77.55441,
      "tags": {
        "amenity": "waste_basket"
      }
    },
    {
      "type": "node",
      "id": 8187986346,
      "lat": 13.002402,
      "lon": 77.5540647,
      "tags": {
        "addr:full": "847, 4th Cross Rd, E block, 2nd Stage, Rajajinagar, Bengaluru, Karnataka",
        "addr:state": "Karnataka",
        "amenity": "clinic",
        "healthcare": "clinic",
        "name": "Mona Clinic and Lab"
      }
    },
    {
      "type": "node",
      "id": 8188038681,
      "lat": 13.004596,
      "lon": 77.5540033,
      "tags": {
        "addr:full": "8/3, E Block, I Block, I Stage, Rajajinagar, E block, 2nd Stage, Rajajinagar, Bengaluru, Karnataka",
        "addr:state": "Karnataka",
        "amenity": "hospital",
        "healthcare": "hospital",
        "name": "ESI Hospital",
        "operator": "Employees' State Insurance",
        "operator:short": "ESI",
        "operator:wikidata": "Q3595726"
      }
    },
    {
      "type": "node",
      "id": 8442228922,
      "lat": 13.0080421,
      "lon": 77.5545736,
      "tags": {
        "check_date": "2024-06-09",
        "name": "Max Cycle",
        "shop": "bicycle"
      }
    },
    {
      "type": "node",
      "id": 9811397063,
      "lat": 13.0071529,
      "lon": 77.554585,
      "tags": {
        "amenity": "bank",
        "atm": "yes",
        "brand": "ICICI Bank",
        "brand:wikidata": "Q1653258",
        "name": "ICICI Bank",
        "name:kn": "ಐಸಿಐಸಿಐ ಬ್ಯಾಂಕು",
        "operator": "ICICI Bank",
        "short_name": "ICICI"
      }
    },
    {
      "type": "node",
      "id": 10051816955,
      "lat": 13.0123454,
      "lon": 77.5564235,
      "tags": {
        "amenity": "restaurant",
        "cuisine": "asian",
        "delivery": "no",
        "name": "Horizon",
        "outdoor_seating": "no",
        "takeaway": "no"
      }
    },
    {
      "type": "node",
      "id": 10159788162,
      "lat": 13.0103347,
      "lon": 77.5553052,
      "tags": {
        "brand": "Reliance Digital",
        "brand:wikidata": "Q7311012",
        "name": "Reliance Digital",
        "shop": "electronics"
      }
    },
    {
      "type": "node",
      "id": 10159788166,
      "lat": 13.0125364,
      "lon": 77.5551228,
      "tags": {
        "amenity": "restaurant",
        "cuisine": "persian",
        "delivery": "no",
        "level": "4",
        "name": "The Persian Terrace",
        "reservation": "recommended",
        "takeaway": "no",
        "wheelchair": "limited"
      }
    },
    {
      "type": "node",
      "id": 10159788178,
      "lat": 13.0116295,
      "lon": 77.55532,
      "tags": {
        "amenity": "fast_food",
        "brand": "Krispy Kreme",
        "brand:wikidata": "Q1192805",
        "cuisine": "donut",
        "indoor_seating": "yes",
        "name": "Krispy Kreme",
        "outdoor_seating": "no",
        "takeaway": "yes"
      }
    },
    {
      "type": "node",
      "id": 10159788179,
      "lat": 13.0114451,
      "lon": 77.5548993,
      "tags": {
        "addr:floor": "UG",
        "amenity": "cafe",
        "check_date": "2023-09-10",
        "level": "1",
        "name": "Theobroma",
        "outdoor_seating": "no"
      }
    },
    {
      "type": "node",
      "id": 10159788180,
      "lat": 13.0107148,
      "lon": 77.5553119,
      "tags": {
        "amenity": "cafe",
        "brand": "Starbucks",
        "brand:wikidata": "Q37158",
        "cuisine": "coffee_shop",
        "indoor_seating": "yes",
        "name": "Starbucks",
        "official_name": "Starbucks Coffee",
        "outdoor_seating": "no",
        "takeaway": "yes"
      }
    },
    {
      "type": "node",
      "id": 10159788181,
      "lat": 13.011584,
      "lon": 77.5548391,
      "tags": {
        "addr:floor": "1",
        "amenity": "cafe",
        "check_date": "2023-09-10",
        "level": "2",
        "name": "SMOOR"
      }
    },
    {
      "type": "node",
      "id": 10215045108,
      "lat": 13.0108103,
      "lon": 77.555314,
      "tags": {
        "air_conditioning": "no",
        "amenity": "restaurant",
        "brand": "Applebee's Neighborhood Grill & Bar",
        "brand:wikidata": "Q621532",
        "cuisine": "american",
        "indoor_seating": "yes",
        "name": "Applebee's",
        "official_name": "Applebee's Neighborhood Grill & Bar",
        "outdoor_seating": "yes"
      }
    },
    {
      "type": "node",
      "id": 10276162849,
      "lat": 13.0043395,
      "lon": 77.5540982,
      "tags": {
        "name": "Sri Lakshmi Venkateshwara Bakery",
        "shop": "bakery"
      }
    },
    {
      "type": "node",
      "id": 10302703778,
      "lat": 13.0117276,
      "lon": 77.5549217,
      "tags": {
        "amenity": "fast_food",
        "brand": "Popeyes",
        "brand:wikidata": "Q1330910",
        "brand:wikipedia": "en:Popeyes",
        "cuisine": "chicken",
        "delivery": "yes",
        "name": "Popeyes",
        "official_name": "Popeyes Louisiana Kitchen",
        "takeaway": "yes",
        "website": "https://www.popeyes.in/"
      }
    },
    {
      "type": "node",
      "id": 10676203034,
      "lat": 13.0136097,
      "lon": 77.5561023,
      "tags": {
        "addr:city": "Bangalore",
        "addr:country": "IN",
        "addr:hamlet": "Brigade Gateway",
        "addr:postcode": "560055",
        "addr:suburb": "Yeshwantpur",
        "amenity": "events_venue",
        "name": "The Northern Terrace",
        "note": "Top floor of MLCP"
      }
    },
    {
      "type": "node",
      "id": 10686139983,
      "lat": 13.0083537,
      "lon": 77.5546789,
      "tags": {
        "amenity": "fast_food",
        "brand": "The Rameshwaram Cafe",
        "brand:wikidata": "Q124374630",
        "cuisine": "south_indian",
        "name": "The Rameshwaram Cafe",
        "takeaway": "yes"
      }
    },
    {
      "type": "node",
      "id": 10861726826,
      "lat": 13.0100365,
      "lon": 77.5553217,
      "tags": {
        "access": "customers",
        "amenity": "parking_entrance",
        "fee": "yes",
        "parking": "underground"
      }
    },
    {
      "type": "node",
      "id": 10946873743,
      "lat": 13.0117759,
      "lon": 77.555379,
      "tags": {
        "amenity": "fast_food",
        "cuisine": "pizza",
        "delivery": "yes",
        "name": "Gopizza",
        "operator": "GOPIZZA",
        "takeaway": "yes"
      }
    },
    {
      "type": "node",
      "id": 10982294160,
      "lat": 13.0109474,
      "lon": 77.5549377,
      "tags": {
        "brand": "Birkenstock",
        "brand:wikidata": "Q648458",
        "name": "Birkenstock",
        "shop": "shoes"
      }
    },
    {
      "type": "node",
      "id": 11125193108,
      "lat": 13.0120438,
      "lon": 77.5564921,
      "tags": {
        "amenity": "cafe",
        "name": "The World Cafe"
      }
    },
    {
      "type": "node",
      "id": 11126754085,
      "lat": 13.0105716,
      "lon": 77.5553076,
      "tags": {
        "brand": "Forever New",
        "brand:wikidata": "Q119221929",
        "clothes": "women",
        "name": "Forever New",
        "shop": "clothes"
      }
    },
    {
      "type": "node",
      "id": 11126754086,
      "lat": 13.0112266,
      "lon": 77.5553216,
      "tags": {
        "name": "Decathalon",
        "shop": "sports"
      }
    },
    {
      "type": "node",
      "id": 11174378118,
      "lat": 13.0106404,
      "lon": 77.5565994,
      "tags": {
        "amenity": "fountain",
        "layer": "1",
        "level": "1"
      }
    },
    {
      "type": "node",
      "id": 11174378119,
      "lat": 13.0110089,
      "lon": 77.5573893,
      "tags": {
        "amenity": "fountain",
        "layer": "1",
        "level": "1"
      }
    },
    {
      "type": "node",
      "id": 11174378120,
      "lat": 13.0111931,
      "lon": 77.5578064,
      "tags": {
        "amenity": "fountain",
        "layer": "1",
        "level": "1"
      }
    },
    {
      "type": "node",
      "id": 11174378121,
      "lat": 13.0113774,
      "lon": 77.558198,
      "tags": {
        "amenity": "fountain",
        "layer": "1",
        "level": "1"
      }
    },
    {
      "type": "node",
      "id": 11174378127,
      "lat": 13.0112637,
      "lon": 77.5569769,
      "tags": {
        "amenity": "events_venue",
        "name": "Chaitanya Hall"
      }
    },
    {
      "type": "node",
      "id": 11174378128,
      "lat": 13.0107514,
      "lon": 77.5580085,
      "tags": {
        "addr:housenumber": "26/1",
        "addr:street": "Dr Rajkumar Road",
        "check_date": "2023-10-21",
        "layer": "0",
        "level": "0",
        "name": "Daily Baskett",
        "payment:cash": "yes",
        "payment:credit_cards": "yes",
        "phone": "+91 80 4216 4155",
        "shop": "convenience"
      }
    },
    {
      "type": "node",
      "id": 11174378129,
      "lat": 13.0102284,
      "lon": 77.5568402,
      "tags": {
        "amenity": "events_venue",
        "layer": "0",
        "level": "0",
        "name": "Spoorti"
      }
    },
    {
      "type": "node",
      "id": 11174397914,
      "lat": 13.008259,
      "lon": 77.5549659,
      "tags": {
        "amenity": "fast_food",
        "cuisine": "regional",
        "name": "Dose Mane"
      }
    },
    {
      "type": "node",
      "id": 11174397946,
      "lat": 13.009874,
      "lon": 77.5572961,
      "tags": {
        "amenity": "shelter",
        "shelter_type": "gazebo"
      }
    },
    {
      "type": "node",
      "id": 11174397953,
      "lat": 13.0115296,
      "lon": 77.5571338,
      "tags": {
        "access": "permissive",
        "amenity": "parking",
        "parking": "surface"
      }
    },
    {
      "type": "node",
      "id": 11174397957,
      "lat": 13.0116374,
      "lon": 77.5569977,
      "tags": {
        "name": "Capers",
        "shop": "greengrocer"
      }
    },
    {
      "type": "node",
      "id": 11180325241,
      "lat": 13.0079648,
      "lon": 77.5562786,
      "tags": {
        "amenity": "cafe",
        "brand": "Cafe Coffee Day",
        "brand:wikidata": "Q5017235",
        "check_date": "2023-09-10",
        "cuisine": "coffee_shop",
        "name": "Cafe Coffee Day",
        "name:kn": "ಕಫೆ ಕಾಫಿ ಡೇ",
        "takeaway": "yes"
      }
    },
    {
      "type": "node",
      "id": 11180498976,
      "lat": 13.0113906,
      "lon": 77.555426,
      "tags": {
        "addr:floor": "UG",
        "check_date": "2023-09-10",
        "contact:instagram": "the_magical_garden",
        "level": "1",
        "name": "The Magical Garden",
        "shop": "garden_centre"
      }
    },
    {
      "type": "node",
      "id": 11180654052,
      "lat": 13.0116328,
      "lon": 77.5548584,
      "tags": {
        "addr:floor": "1",
        "check_date": "2023-09-10",
        "level": "2",
        "name": "GKB Opticals",
        "name:kn": "ಜಿಕೆಬಿ ಆಪ್ಟಿಕಲ್ಸ್",
        "shop": "optician"
      }
    },
    {
      "type": "node",
      "id": 11180654053,
      "lat": 13.0116994,
      "lon": 77.5548538,
      "tags": {
        "addr:floor": "1",
        "brand": "Lenskart",
        "brand:wikidata": "Q17068753",
        "check_date": "2023-09-10",
        "level": "2",
        "name": "Lenskart",
        "shop": "optician"
      }
    },
    {
      "type": "node",
      "id": 11180654054,
      "lat": 13.0117585,
      "lon": 77.5549605,
      "tags": {
        "addr:floor": "1",
        "check_date": "2023-09-10",
        "level": "2",
        "name": "Navyasa",
        "shop": "clothes"
      }
    },
    {
      "type": "node",
      "id": 11180654055,
      "lat": 13.0118482,
      "lon": 77.5549034,
      "tags": {
        "addr:floor": "1",
        "check_date": "2023-09-10",
        "level": "2",
        "name": "Homecentre",
        "shop": "interior_decoration",
        "website": "https://homecentre.com"
      }
    },
    {
      "type": "node",
      "id": 11180654056,
      "lat": 13.0116768,
      "lon": 77.5553506,
      "tags": {
        "addr:floor": "1",
        "brand": "Max",
        "brand:wikidata": "Q24939079",
        "check_date": "2023-09-10",
        "level": "2",
        "name": "Max",
        "shop": "clothes"
      }
    },
    {
      "type": "node",
      "id": 11180654057,
      "lat": 13.0118278,
      "lon": 77.5551053,
      "tags": {
        "addr:floor": "1",
        "check_date": "2023-09-10",
        "level": "2",
        "name": "Pure Home + Living",
        "shop": "interior_decoration"
      }
    },
    {
      "type": "node",
      "id": 11180654058,
      "lat": 13.0124653,
      "lon": 77.5558842,
      "tags": {
        "amenity": "bank",
        "brand": "HDFC Bank",
        "brand:wikidata": "Q631047",
        "check_date": "2023-09-10",
        "level": "0",
        "name": "HDFC Bank",
        "name:kn": "ಎಚ್ ಡಿ ಎಫ್ ಸಿ",
        "operator": "HDFC Bank",
        "short_name": "HDFC"
      }
    },
    {
      "type": "node",
      "id": 11180654059,
      "lat": 13.011635,
      "lon": 77.5568763,
      "tags": {
        "amenity": "pharmacy",
        "check_date": "2023-09-10",
        "healthcare": "pharmacy",
        "name": "Value Pharma"
      }
    },
    {
      "type": "node",
      "id": 11180654060,
      "lat": 13.0116394,
      "lon": 77.557057,
      "tags": {
        "amenity": "atm",
        "brand": "HDFC Bank",
        "brand:wikidata": "Q631047",
        "check_date": "2023-09-10",
        "level": "0",
        "operator": "HDFC Bank",
        "operator:wikidata": "Q631047",
        "short_name": "HDFC"
      }
    },
    {
      "type": "node",
      "id": 11180654061,
      "lat": 13.0117224,
      "lon": 77.5568303,
      "tags": {
        "check_date": "2023-09-10",
        "level": "0",
        "name": "Lakme Salon",
        "shop": "beauty"
      }
    },
    {
      "type": "node",
      "id": 11180654062,
      "lat": 13.0117965,
      "lon": 77.5567415,
      "tags": {
        "amenity": "childcare",
        "check_date": "2023-09-10",
        "name": "Klay Centre for Child Development and Care"
      }
    },
    {
      "type": "node",
      "id": 11181021304,
      "lat": 13.0116669,
      "lon": 77.5564699,
      "tags": {
        "amenity": "bench"
      }
    },
    {
      "type": "node",
      "id": 11181021305,
      "lat": 13.0116745,
      "lon": 77.5564633,
      "tags": {
        "amenity": "bench"
      }
    },
    {
      "type": "node",
      "id": 11181021306,
      "lat": 13.0116704,
      "lon": 77.556467,
      "tags": {
        "covered": "yes",
        "leisure": "picnic_table"
      }
    },
    {
      "type": "node",
      "id": 11181021307,
      "lat": 13.0113593,
      "lon": 77.5566723,
      "tags": {
        "amenity": "bench"
      }
    },
    {
      "type": "node",
      "id": 11181021308,
      "lat": 13.0113633,
      "lon": 77.5566701,
      "tags": {
        "covered": "yes",
        "leisure": "picnic_table"
      }
    },
    {
      "type": "node",
      "id": 11181021309,
      "lat": 13.011368,
      "lon": 77.5566673,
      "tags": {
        "amenity": "bench"
      }
    },
    {
      "type": "node",
      "id": 11181021310,
      "lat": 13.011405,
      "lon": 77.5566482,
      "tags": {
        "amenity": "bench"
      }
    },
    {
      "type": "node",
      "id": 11181021311,
      "lat": 13.011409,
      "lon": 77.5566459,
      "tags": {
        "covered": "yes",
        "leisure": "picnic_table"
      }
    },
    {
      "type": "node",
      "id": 11181021312,
      "lat": 13.0114137,
      "lon": 77.5566431,
      "tags": {
        "amenity": "bench"
      }
    },
    {
      "type": "node",
      "id": 11181021313,
      "lat": 13.011439,
      "lon": 77.5566267,
      "tags": {
        "amenity": "bench"
      }
    },
    {
      "type": "node",
      "id": 11181021314,
      "lat": 13.011443,
      "lon": 77.5566245,
      "tags": {
        "covered": "yes",
        "leisure": "picnic_table"
      }
    },
    {
      "type": "node",
      "id": 11181021315,
      "lat": 13.0114477,
      "lon": 77.5566217,
      "tags": {
        "amenity": "bench"
      }
    },
    {
      "type": "node",
      "id": 11181021316,
      "lat": 13.0114775,
      "lon": 77.5566033,
      "tags": {
        "amenity": "bench"
      }
    },
    {
      "type": "node",
      "id": 11181021317,
      "lat": 13.0114816,
      "lon": 77.556601,
      "tags": {
        "covered": "yes",
        "leisure": "picnic_table"
      }
    },
    {
      "type": "node",
      "id": 11181021318,
      "lat": 13.0114863,
      "lon": 77.5565982,
      "tags": {
        "amenity": "bench"
      }
    },
    {
      "type": "node",
      "id": 11181021319,
      "lat": 13.0115207,
      "lon": 77.5565771,
      "tags": {
        "amenity": "bench"
      }
    },
    {
      "type": "node",
      "id": 11181021320,
      "lat": 13.0115247,
      "lon": 77.5565749,
      "tags": {
        "covered": "yes",
        "leisure": "picnic_table"
      }
    },
    {
      "type": "node",
      "id": 11181021321,
      "lat": 13.0115294,
      "lon": 77.556572,
      "tags": {
        "amenity": "bench"
      }
    },
    {
      "type": "node",
      "id": 11181021322,
      "lat": 13.0115553,
      "lon": 77.5565496,
      "tags": {
        "amenity": "bench"
      }
    },
    {
      "type": "node",
      "id": 11181021323,
      "lat": 13.0115593,
      "lon": 77.5565474,
      "tags": {
        "covered": "yes",
        "leisure": "picnic_table"
      }
    },
    {
      "type": "node",
      "id": 11181021324,
      "lat": 13.011564,
      "lon": 77.5565445,
      "tags": {
        "amenity": "bench"
      }
    },
    {
      "type": "node",
      "id": 11181021325,
      "lat": 13.0115933,
      "lon": 77.5565249,
      "tags": {
        "amenity": "bench"
      }
    },
    {
      "type": "node",
      "id": 11181021326,
      "lat": 13.0115973,
      "lon": 77.5565226,
      "tags": {
        "covered": "yes",
        "leisure": "picnic_table"
      }
    },
    {
      "type": "node",
      "id": 11181021327,
      "lat": 13.011602,
      "lon": 77.5565198,
      "tags": {
        "amenity": "bench"
      }
    },
    {
      "type": "node",
      "id": 11181021328,
      "lat": 13.0116317,
      "lon": 77.5565008,
      "tags": {
        "amenity": "bench"
      }
    },
    {
      "type": "node",
      "id": 11181021329,
      "lat": 13.0116353,
      "lon": 77.5564978,
      "tags": {
        "covered": "yes",
        "leisure": "picnic_table"
      }
    },
    {
      "type": "node",
      "id": 11181021330,
      "lat": 13.0116394,
      "lon": 77.5564942,
      "tags": {
        "amenity": "bench"
      }
    },
    {
      "type": "node",
      "id": 11181021333,
      "lat": 13.0117226,
      "lon": 77.5564191,
      "tags": {
        "amenity": "bench"
      }
    },
    {
      "type": "node",
      "id": 11181021334,
      "lat": 13.0117255,
      "lon": 77.5564154,
      "tags": {
        "covered": "yes",
        "leisure": "picnic_table"
      }
    },
    {
      "type": "node",
      "id": 11181021335,
      "lat": 13.0117287,
      "lon": 77.5564109,
      "tags": {
        "amenity": "bench"
      }
    },
    {
      "type": "node",
      "id": 11181021336,
      "lat": 13.0117553,
      "lon": 77.5563709,
      "tags": {
        "amenity": "bench"
      }
    },
    {
      "type": "node",
      "id": 11181022037,
      "lat": 13.0117587,
      "lon": 77.5563678,
      "tags": {
        "covered": "yes",
        "leisure": "picnic_table"
      }
    },
    {
      "type": "node",
      "id": 11181022038,
      "lat": 13.0117627,
      "lon": 77.5563639,
      "tags": {
        "amenity": "bench"
      }
    },
    {
      "type": "node",
      "id": 11181022039,
      "lat": 13.0117967,
      "lon": 77.5563074,
      "tags": {
        "covered": "yes",
        "leisure": "picnic_table"
      }
    },
    {
      "type": "node",
      "id": 11181022040,
      "lat": 13.0118001,
      "lon": 77.5563031,
      "tags": {
        "amenity": "bench"
      }
    },
    {
      "type": "node",
      "id": 11181022041,
      "lat": 13.0118217,
      "lon": 77.5562599,
      "tags": {
        "amenity": "bench"
      }
    },
    {
      "type": "node",
      "id": 11181022042,
      "lat": 13.0118248,
      "lon": 77.5562565,
      "tags": {
        "covered": "yes",
        "leisure": "picnic_table"
      }
    },
    {
      "type": "node",
      "id": 11181022043,
      "lat": 13.0118283,
      "lon": 77.5562522,
      "tags": {
        "amenity": "bench"
      }
    },
    {
      "type": "node",
      "id": 11181022044,
      "lat": 13.0118601,
      "lon": 77.5562069,
      "tags": {
        "covered": "yes",
        "leisure": "picnic_table"
      }
    },
    {
      "type": "node",
      "id": 11181022045,
      "lat": 13.0118633,
      "lon": 77.5562023,
      "tags": {
        "amenity": "bench"
      }
    },
    {
      "type": "node",
      "id": 11181022046,
      "lat": 13.0118897,
      "lon": 77.5561435,
      "tags": {
        "amenity": "bench"
      }
    },
    {
      "type": "node",
      "id": 11181022047,
      "lat": 13.0118915,
      "lon": 77.5561392,
      "tags": {
        "covered": "yes",
        "leisure": "picnic_table"
      }
    },
    {
      "type": "node",
      "id": 11181022048,
      "lat": 13.0118935,
      "lon": 77.556134,
      "tags": {
        "amenity": "bench"
      }
    },
    {
      "type": "node",
      "id": 11181022049,
      "lat": 13.011917,
      "lon": 77.5560674,
      "tags": {
        "covered": "yes",
        "leisure": "picnic_table"
      }
    },
    {
      "type": "node",
      "id": 11181022050,
      "lat": 13.0119191,
      "lon": 77.5560623,
      "tags": {
        "amenity": "bench"
      }
    },
    {
      "type": "node",
      "id": 11181022051,
      "lat": 13.011947,
      "lon": 77.5559921,
      "tags": {
        "amenity": "bench"
      }
    },
    {
      "type": "node",
      "id": 11181022052,
      "lat": 13.0119484,
      "lon": 77.5559876,
      "tags": {
        "covered": "yes",
        "leisure": "picnic_table"
      }
    },
    {
      "type": "node",
      "id": 11181022053,
      "lat": 13.0119498,
      "lon": 77.5559822,
      "tags": {
        "amenity": "bench"
      }
    },
    {
      "type": "node",
      "id": 11181022054,
      "lat": 13.0119706,
      "lon": 77.5559038,
      "tags": {
        "covered": "yes",
        "leisure": "picnic_table"
      }
    },
    {
      "type": "node",
      "id": 11181022055,
      "lat": 13.0119715,
      "lon": 77.5558983,
      "tags": {
        "amenity": "bench"
      }
    },
    {
      "type": "node",
      "id": 11181022056,
      "lat": 13.0119805,
      "lon": 77.555826,
      "tags": {
        "covered": "yes",
        "leisure": "picnic_table"
      }
    },
    {
      "type": "node",
      "id": 11181022057,
      "lat": 13.0119804,
      "lon": 77.5558204,
      "tags": {
        "amenity": "bench"
      }
    },
    {
      "type": "node",
      "id": 11181022085,
      "lat": 13.011491,
      "lon": 77.555324,
      "tags": {
        "addr:floor": "2",
        "amenity": "restaurant",
        "cuisine": "french",
        "level": "3",
        "name": "Cafe Noir"
      }
    },
    {
      "type": "node",
      "id": 11181022086,
      "lat": 13.0112846,
      "lon": 77.5553159,
      "tags": {
        "addr:city": "Bengaluru",
        "addr:floor": "2",
        "addr:street": "Dr. Rajkumar Road",
        "amenity": "fast_food",
        "brand": "Burger King",
        "brand:wikidata": "Q177054",
        "brand:wikipedia": "en:Burger King",
        "cuisine": "burger",
        "indoor_seating": "yes",
        "level": "3",
        "name": "Burger King",
        "name:kn": "ಬರ್ಗರ್ ಕಿಂಗ್",
        "outdoor_seating": "yes",
        "takeaway": "yes",
        "website": "www.burgerkingindia.in"
      }
    },
    {
      "type": "node",
      "id": 11181022087,
      "lat": 13.0111147,
      "lon": 77.5553159,
      "tags": {
        "addr:city": "Bengaluru",
        "addr:floor": "2",
        "addr:street": "Dr. Rajkumar Road",
        "amenity": "restaurant",
        "brand": "Chili's",
        "brand:wikidata": "Q1072948",
        "brand:wikipedia": "en:Chili's",
        "cuisine": "tex-mex",
        "level": "3",
        "name": "Chili's",
        "official_name": "Chili's Grill & Bar",
        "website": "https://www.chilis.com/"
      }
    },
    {
      "type": "node",
      "id": 11181022088,
      "lat": 13.0116589,
      "lon": 77.5554132,
      "tags": {
        "access": "yes",
        "addr:floor": "UG",
        "amenity": "toilets",
        "fee": "no",
        "level": "1"
      }
    },
    {
      "type": "node",
      "id": 11189600357,
      "lat": 13.0105143,
      "lon": 77.5589939,
      "tags": {
        "name": "Raghavendra Juice & Condiments",
        "shop": "convenience"
      }
    },
    {
      "type": "node",
      "id": 11197006509,
      "lat": 13.0059256,
      "lon": 77.555443,
      "tags": {
        "amenity": "pharmacy",
        "brand": "MedPlus",
        "brand:wikidata": "Q65684234",
        "check_date": "2023-09-17",
        "healthcare": "pharmacy",
        "name": "MedPlus"
      }
    },
    {
      "type": "node",
      "id": 11197006510,
      "lat": 13.0056385,
      "lon": 77.5558388,
      "tags": {
        "check_date": "2023-09-17",
        "name": "Chinmayi Beauty Parlour",
        "shop": "beauty"
      }
    },
    {
      "type": "node",
      "id": 11197006511,
      "lat": 13.0056409,
      "lon": 77.5558235,
      "tags": {
        "check_date": "2023-09-17",
        "name": "Saraswathi Xerox",
        "shop": "copyshop"
      }
    },
    {
      "type": "node",
      "id": 11197006512,
      "lat": 13.0082354,
      "lon": 77.556317,
      "tags": {
        "check_date": "2023-09-17",
        "name": "Dreams Salon and Spa",
        "shop": "beauty"
      }
    },
    {
      "type": "node",
      "id": 11198888988,
      "lat": 13.0109277,
      "lon": 77.5553082,
      "tags": {
        "addr:city": "Bengaluru",
        "addr:floor": "2",
        "addr:street": "Dr. Rajkumar Road",
        "amenity": "restaurant",
        "brand": "PizzaExpress",
        "brand:wikidata": "Q662845",
        "cuisine": "pizza",
        "level": "3",
        "name": "PizzaExpress"
      }
    },
    {
      "type": "node",
      "id": 11198889006,
      "lat": 13.0116126,
      "lon": 77.5549043,
      "tags": {
        "addr:floor": "LG",
        "brand": "Sephora",
        "brand:wikidata": "Q2408041",
        "level": "0",
        "name": "Sephora",
        "shop": "cosmetics"
      }
    },
    {
      "type": "node",
      "id": 11198889007,
      "lat": 13.0109697,
      "lon": 77.5551295,
      "tags": {
        "addr:floor": "LG",
        "amenity": "ice_cream",
        "brand": "Häagen-Dazs",
        "brand:wikidata": "Q1143333",
        "level": "0",
        "name": "Häagen-Dazs"
      }
    },
    {
      "type": "node",
      "id": 11199073542,
      "lat": 13.009888,
      "lon": 77.5560845,
      "tags": {
        "amenity": "parking_entrance"
      }
    },
    {
      "type": "node",
      "id": 11199073544,
      "lat": 13.0100021,
      "lon": 77.5563374,
      "tags": {
        "amenity": "parking_entrance"
      }
    },
    {
      "type": "node",
      "id": 11199073545,
      "lat": 13.0100778,
      "lon": 77.5565053,
      "tags": {
        "amenity": "parking_entrance"
      }
    },
    {
      "type": "node",
      "id": 11199073547,
      "lat": 13.0101891,
      "lon": 77.5567523,
      "tags": {
        "amenity": "parking_entrance"
      }
    },
    {
      "type": "node",
      "id": 11199073549,
      "lat": 13.0103699,
      "lon": 77.5571536,
      "tags": {
        "amenity": "parking_entrance"
      }
    },
    {
      "type": "node",
      "id": 11199073551,
      "lat": 13.0105388,
      "lon": 77.5575282,
      "tags": {
        "amenity": "parking_entrance"
      }
    },
    {
      "type": "node",
      "id": 11199073552,
      "lat": 13.0106042,
      "lon": 77.5576735,
      "tags": {
        "amenity": "parking_entrance"
      }
    },
    {
      "type": "node",
      "id": 11199073554,
      "lat": 13.0107089,
      "lon": 77.5579056,
      "tags": {
        "access": "private",
        "amenity": "parking_entrance",
        "parking": "underground"
      }
    },
    {
      "type": "node",
      "id": 11199073556,
      "lat": 13.0109124,
      "lon": 77.5583569,
      "tags": {
        "access": "private",
        "amenity": "parking_entrance",
        "parking": "underground"
      }
    },
    {
      "type": "node",
      "id": 11230313879,
      "lat": 13.0096894,
      "lon": 77.5575648,
      "tags": {
        "check_date": "2023-10-01",
        "name": "Lovely Boutique",
        "shop": "tailor"
      }
    },
    {
      "type": "node",
      "id": 11230313880,
      "lat": 13.0098308,
      "lon": 77.557889,
      "tags": {
        "check_date": "2023-10-01",
        "name": "Brandway Dry Cleaners",
        "shop": "dry_cleaning"
      }
    },
    {
      "type": "node",
      "id": 11230313881,
      "lat": 13.0102881,
      "lon": 77.5585991,
      "tags": {
        "check_date": "2023-10-01",
        "shop": "hairdresser"
      }
    },
    {
      "type": "node",
      "id": 11232933039,
      "lat": 13.0100196,
      "lon": 77.5589378,
      "tags": {
        "amenity": "place_of_worship",
        "check_date": "2023-10-02",
        "religion": "hindu"
      }
    },
    {
      "type": "node",
      "id": 11232933041,
      "lat": 13.0048236,
      "lon": 77.5599087,
      "tags": {
        "amenity": "post_box",
        "operator": "India Post",
        "operator:wikidata": "Q3519720"
      }
    },
    {
      "type": "node",
      "id": 11279297559,
      "lat": 13.0117227,
      "lon": 77.556955,
      "tags": {
        "check_date": "2023-10-21",
        "name": "The Baking Company",
        "shop": "pastry"
      }
    },
    {
      "type": "node",
      "id": 11279297560,
      "lat": 13.011807,
      "lon": 77.5569139,
      "tags": {
        "amenity": "cafe",
        "check_date": "2023-10-21",
        "name": "Nebula"
      }
    },
    {
      "type": "node",
      "id": 11279297561,
      "lat": 13.011902,
      "lon": 77.556864,
      "tags": {
        "check_date": "2023-10-21",
        "leisure": "fitness_centre"
      }
    },
    {
      "type": "node",
      "id": 11309883587,
      "lat": 13.0136768,
      "lon": 77.5542505,
      "tags": {
        "addr:floor": "1",
        "amenity": "atm",
        "check_date": "2024-07-27",
        "covered": "yes",
        "indoor": "yes",
        "lit": "yes"
      }
    },
    {
      "type": "node",
      "id": 11322980515,
      "lat": 13.0114374,
      "lon": 77.5582256,
      "tags": {
        "amenity": "bench",
        "backrest": "yes",
        "colour": "grey",
        "seats": "4"
      }
    },
    {
      "type": "node",
      "id": 11322980516,
      "lat": 13.0113434,
      "lon": 77.558222,
      "tags": {
        "amenity": "bench",
        "backrest": "yes",
        "colour": "grey",
        "seats": "4"
      }
    },
    {
      "type": "node",
      "id": 11322980517,
      "lat": 13.0113635,
      "lon": 77.5582777,
      "tags": {
        "amenity": "bench",
        "backrest": "yes",
        "colour": "grey",
        "seats": "4"
      }
    },
    {
      "type": "node",
      "id": 11322980519,
      "lat": 13.0058326,
      "lon": 77.5550356,
      "tags": {
        "amenity": "bank",
        "atm": "yes",
        "brand": "State Bank of India",
        "brand:wikidata": "Q1340361",
        "check_date": "2023-11-05",
        "name": "State Bank of India",
        "short_name": "SBI"
      }
    },
    {
      "type": "node",
      "id": 11322980520,
      "lat": 13.0061102,
      "lon": 77.5549989,
      "tags": {
        "amenity": "kindergarten",
        "check_date": "2023-11-05",
        "name": "Tender Moments Pre-School"
      }
    },
    {
      "type": "node",
      "id": 11322980521,
      "lat": 13.0066743,
      "lon": 77.5551666,
      "tags": {
        "amenity": "kindergarten",
        "check_date": "2023-11-05",
        "name": "Dolls n Angels Pre-School"
      }
    },
    {
      "type": "node",
      "id": 11322980524,
      "lat": 13.0071231,
      "lon": 77.5557169,
      "tags": {
        "amenity": "place_of_worship",
        "check_date": "2023-11-05",
        "religion": "hindu"
      }
    },
    {
      "type": "node",
      "id": 11322980525,
      "lat": 13.0081489,
      "lon": 77.5558038,
      "tags": {
        "amenity": "fast_food",
        "check_date": "2023-11-05",
        "name": "Naidu Food Palace"
      }
    },
    {
      "type": "node",
      "id": 11322980526,
      "lat": 13.0081346,
      "lon": 77.555951,
      "tags": {
        "amenity": "fast_food",
        "check_date": "2023-11-05",
        "name": "SLV Tiffin Center"
      }
    },
    {
      "type": "node",
      "id": 11322980527,
      "lat": 13.0083421,
      "lon": 77.5558765,
      "tags": {
        "check_date": "2023-11-05",
        "name": "SLV Provision Store",
        "shop": "kiosk"
      }
    },
    {
      "type": "node",
      "id": 11513847976,
      "lat": 13.0100928,
      "lon": 77.5593128,
      "tags": {
        "check_date": "2024-01-13",
        "shop": "hairdresser"
      }
    },
    {
      "type": "node",
      "id": 11513847977,
      "lat": 13.0101867,
      "lon": 77.5592848,
      "tags": {
        "check_date": "2024-01-13",
        "shop": "tailor"
      }
    },
    {
      "type": "node",
      "id": 11513847978,
      "lat": 13.0103181,
      "lon": 77.5592527,
      "tags": {
        "amenity": "fast_food",
        "check_date": "2024-01-13",
        "name": "Udupi Kitchen"
      }
    },
    {
      "type": "node",
      "id": 11513847979,
      "lat": 13.0104679,
      "lon": 77.559208,
      "tags": {
        "check_date": "2024-01-13",
        "shop": "butcher"
      }
    },
    {
      "type": "node",
      "id": 11513847980,
      "lat": 13.0106456,
      "lon": 77.5591539,
      "tags": {
        "check_date": "2024-01-13",
        "shop": "tailor"
      }
    },
    {
      "type": "node",
      "id": 11564416076,
      "lat": 13.0031628,
      "lon": 77.553654,
      "tags": {
        "addr:housenumber": "25",
        "addr:street": "Dr. Rajkumar Road",
        "amenity": "restaurant",
        "check_date": "2024-01-29",
        "contact:instagram": "https://www.instagram.com/devaras.in",
        "cuisine": "south_indian",
        "name": "Devaras Restaurant"
      }
    },
    {
      "type": "node",
      "id": 11607665801,
      "lat": 13.003852,
      "lon": 77.5539609,
      "tags": {
        "amenity": "fast_food",
        "check_date": "2024-02-10",
        "name": "Sri Annapoorneshwari Veg"
      }
    },
    {
      "type": "node",
      "id": 11662082259,
      "lat": 13.0067647,
      "lon": 77.5545483,
      "tags": {
        "amenity": "bank",
        "brand": "HDFC Bank",
        "brand:wikidata": "Q631047",
        "check_date": "2024-06-09",
        "name": "HDFC Bank",
        "name:kn": "ಎಚ್ ಡಿ ಎಫ್ ಸಿ",
        "short_name": "HDFC"
      }
    },
    {
      "type": "node",
      "id": 11758026787,
      "lat": 13.013015,
      "lon": 77.5550752,
      "tags": {
        "access": "permissive",
        "amenity": "parking_entrance",
        "parking": "underground"
      }
    },
    {
      "type": "node",
      "id": 11758026788,
      "lat": 13.0130015,
      "lon": 77.5550752,
      "tags": {
        "access": "permissive",
        "amenity": "parking_entrance",
        "parking": "underground"
      }
    },
    {
      "type": "node",
      "id": 11758026800,
      "lat": 13.0150726,
      "lon": 77.5559932,
      "tags": {
        "access": "private",
        "amenity": "parking",
        "operator": "5",
        "parking": "street_side"
      }
    },
    {
      "type": "node",
      "id": 11758026801,
      "lat": 13.0149217,
      "lon": 77.5561367,
      "tags": {
        "access": "private",
        "amenity": "parking",
        "operator": "5",
        "parking": "street_side"
      }
    },
    {
      "type": "node",
      "id": 11758026802,
      "lat": 13.0145931,
      "lon": 77.5559064,
      "tags": {
        "access": "private",
        "amenity": "parking",
        "operator": "5",
        "parking": "street_side"
      }
    },
    {
      "type": "node",
      "id": 11868811425,
      "lat": 13.0115415,
      "lon": 77.5553607,
      "tags": {
        "amenity": "cafe",
        "level": "1",
        "name": "Eleven Bakehouse"
      }
    },
    {
      "type": "node",
      "id": 11965775664,
      "lat": 13.0065047,
      "lon": 77.5545009,
      "tags": {
        "amenity": "hospital",
        "check_date": "2024-06-09",
        "healthcare": "hospital",
        "name": "PMC Hospital"
      }
    },
    {
      "type": "node",
      "id": 11965775665,
      "lat": 13.0075047,
      "lon": 77.5546283,
      "tags": {
        "amenity": "clinic",
        "check_date": "2024-06-09",
        "healthcare": "clinic",
        "name": "Spectrum Diagnostics"
      }
    },
    {
      "type": "node",
      "id": 11965775666,
      "lat": 13.0083001,
      "lon": 77.5548745,
      "tags": {
        "amenity": "fast_food",
        "check_date": "2024-06-09",
        "name": "Indira Canteen"
      }
    },
    {
      "type": "node",
      "id": 11965779669,
      "lat": 13.0081152,
      "lon": 77.5578443,
      "tags": {
        "leisure": "fitness_station",
        "sport": "fitness"
      }
    },
    {
      "type": "node",
      "id": 11982363542,
      "lat": 13.0084222,
      "lon": 77.5546671,
      "tags": {
        "addr:floor": "3",
        "check_date": "2024-06-16",
        "leisure": "indoor_play",
        "level": "3",
        "name": "Kiikkoo"
      }
    },
    {
      "type": "node",
      "id": 11982363544,
      "lat": 13.004387,
      "lon": 77.5538937,
      "tags": {
        "check_date": "2024-06-15",
        "name": "Traffic Police Booth",
        "shop": "kiosk"
      }
    },
    {
      "type": "node",
      "id": 11984927870,
      "lat": 13.0110113,
      "lon": 77.5568915,
      "tags": {
        "amenity": "bench",
        "backrest": "no",
        "material": "stone",
        "seats": "3"
      }
    },
    {
      "type": "node",
      "id": 11984927871,
      "lat": 13.0109375,
      "lon": 77.5569171,
      "tags": {
        "amenity": "bench",
        "backrest": "no",
        "material": "stone",
        "seats": "3"
      }
    },
    {
      "type": "node",
      "id": 11984927872,
      "lat": 13.0107069,
      "lon": 77.5564623,
      "tags": {
        "amenity": "bench",
        "backrest": "yes",
        "seats": "3"
      }
    },
    {
      "type": "node",
      "id": 11984931167,
      "lat": 13.01175,
      "lon": 77.5577554,
      "tags": {
        "amenity": "waste_basket"
      }
    },
    {
      "type": "node",
      "id": 11987032367,
      "lat": 13.0102788,
      "lon": 77.5553865,
      "tags": {
        "check_date": "2024-06-17",
        "name": "Fresh Signature",
        "shop": "supermarket"
      }
    },
    {
      "type": "node",
      "id": 11993660922,
      "lat": 13.0118452,
      "lon": 77.5550008,
      "tags": {
        "amenity": "restaurant",
        "brand": "California Burrito",
        "brand:wikidata": "Q124374596",
        "cuisine": "mexican",
        "name": "California Burrito"
      }
    },
    {
      "type": "node",
      "id": 11993660923,
      "lat": 13.0116759,
      "lon": 77.5548264,
      "tags": {
        "access": "yes",
        "addr:floor": "2",
        "amenity": "toilets",
        "fee": "no",
        "level": "3"
      }
    },
    {
      "type": "node",
      "id": 11993660924,
      "lat": 13.0116348,
      "lon": 77.5553857,
      "tags": {
        "access": "yes",
        "addr:floor": "2",
        "amenity": "toilets",
        "fee": "no",
        "level": "3"
      }
    },
    {
      "type": "node",
      "id": 11993660925,
      "lat": 13.0116335,
      "lon": 77.5554138,
      "tags": {
        "access": "yes",
        "addr:floor": "1",
        "amenity": "toilets",
        "fee": "no",
        "level": "2"
      }
    },
    {
      "type": "node",
      "id": 11993660926,
      "lat": 13.0104686,
      "lon": 77.5554387,
      "tags": {
        "access": "yes",
        "addr:floor": "1",
        "amenity": "toilets",
        "fee": "no",
        "level": "2"
      }
    },
    {
      "type": "node",
      "id": 11993660927,
      "lat": 13.0104898,
      "lon": 77.5554108,
      "tags": {
        "access": "yes",
        "addr:floor": "G",
        "amenity": "toilets",
        "fee": "no",
        "level": "0"
      }
    },
    {
      "type": "node",
      "id": 11993660928,
      "lat": 13.0104905,
      "lon": 77.5554383,
      "tags": {
        "access": "yes",
        "addr:floor": "UG",
        "amenity": "toilets",
        "fee": "no",
        "level": "1"
      }
    },
    {
      "type": "node",
      "id": 11993660933,
      "lat": 13.0116583,
      "lon": 77.5553857,
      "tags": {
        "access": "yes",
        "addr:floor": "G",
        "amenity": "toilets",
        "fee": "no",
        "level": "0"
      }
    },
    {
      "type": "node",
      "id": 12016136799,
      "lat": 13.0132503,
      "lon": 77.5544512,
      "tags": {
        "check_date": "2024-06-28",
        "name": "Shoe Stall",
        "shop": "shoes"
      }
    },
    {
      "type": "node",
      "id": 12020029819,
      "lat": 13.0114231,
      "lon": 77.5569273,
      "tags": {
        "amenity": "fountain"
      }
    },
    {
      "type": "node",
      "id": 12078133155,
      "lat": 13.0093099,
      "lon": 77.5595706,
      "tags": {
        "check_date": "2024-07-28",
        "shop": "hairdresser"
      }
    },
    {
      "type": "node",
      "id": 12088583359,
      "lat": 13.0109686,
      "lon": 77.5554054,
      "tags": {
        "addr:city": "Bangalore",
        "addr:country": "IN",
        "addr:district": "Bangalore Urban",
        "addr:housename": "Upper Ground Floor, Orion Mall",
        "addr:postcode": "560055",
        "addr:state": "Karnataka",
        "addr:street": "Dr. Rajkumar Road",
        "addr:suburb": "Rajajinagar",
        "amenity": "restaurant",
        "cuisine": "regional",
        "diet:vegetarian": "only",
        "level": "0",
        "name": "Burma Burma",
        "outdoor_seating": "yes"
      }
    },
    {
      "type": "node",
      "id": 12103684980,
      "lat": 13.0073442,
      "lon": 77.5545759,
      "tags": {
        "check_date": "2024-08-11",
        "name": "Lorina Blossom",
        "shop": "hairdresser"
      }
    },
    {
      "type": "node",
      "id": 12103684982,
      "lat": 13.002768,
      "lon": 77.5536287,
      "tags": {
        "amenity": "hospital",
        "check_date": "2024-08-11",
        "healthcare": "hospital",
        "name": "Apollo Cradle Children's Hospital"
      }
    },
    {
      "type": "node",
      "id": 12129019648,
      "lat": 13.014757,
      "lon": 77.5559168,
      "tags": {
        "addr:city": "Bengaluru",
        "addr:country": "IN",
        "addr:housename": "WTC Annexe",
        "addr:housenumber": "26/1",
        "addr:postcode": "560055",
        "addr:street": "Dr. Rajkumar Road",
        "amenity": "cafe",
        "brand": "Blue Tokai Coffee Roasters",
        "brand:wikidata": "Q124374362",
        "check_date": "2025-10-25",
        "cuisine": "coffee_shop",
        "delivery": "yes",
        "internet_access": "yes",
        "internet_access:fee": "no",
        "name": "Blue Tokai Coffee Roasters",
        "takeaway": "yes",
        "toilets": "yes"
      }
    },
    {
      "type": "node",
      "id": 12415838535,
      "lat": 13.0130251,
      "lon": 77.5557585,
      "tags": {
        "access": "customers",
        "amenity": "parking_entrance",
        "parking": "multi-storey"
      }
    },
    {
      "type": "node",
      "id": 12415838536,
      "lat": 13.0130251,
      "lon": 77.5564124,
      "tags": {
        "access": "customers",
        "amenity": "parking_entrance",
        "parking": "multi-storey"
      }
    },
    {
      "type": "node",
      "id": 12440343100,
      "lat": 13.0096377,
      "lon": 77.5594494,
      "tags": {
        "amenity": "fast_food",
        "check_date": "2024-12-22",
        "cuisine": "juice",
        "name": "Chikoos"
      }
    },
    {
      "type": "node",
      "id": 12525804598,
      "lat": 13.0052006,
      "lon": 77.5609014,
      "tags": {
        "amenity": "place_of_worship",
        "check_date": "2025-01-23",
        "religion": "hindu"
      }
    },
    {
      "type": "node",
      "id": 12525844640,
      "lat": 13.0060654,
      "lon": 77.5605827,
      "tags": {
        "amenity": "place_of_worship",
        "check_date": "2025-01-23",
        "religion": "hindu"
      }
    },
    {
      "type": "node",
      "id": 12676261326,
      "lat": 13.0056519,
      "lon": 77.5544361,
      "tags": {
        "check_date": "2025-03-18",
        "name": "JK Tyres",
        "shop": "tyres"
      }
    },
    {
      "type": "node",
      "id": 12676261327,
      "lat": 13.0027342,
      "lon": 77.5535278,
      "tags": {
        "amenity": "bank",
        "brand": "Union Bank of India",
        "brand:wikidata": "Q2004078",
        "check_date": "2025-03-18",
        "name": "Union Bank of India"
      }
    },
    {
      "type": "node",
      "id": 12809319556,
      "lat": 13.0118443,
      "lon": 77.5552205,
      "tags": {
        "amenity": "fast_food",
        "name": "Squeez Juice Bar"
      }
    },
    {
      "type": "node",
      "id": 12809319557,
      "lat": 13.0118426,
      "lon": 77.5551085,
      "tags": {
        "amenity": "fast_food",
        "cuisine": "pancake",
        "name": "Uncle Peter's Pancakes"
      }
    },
    {
      "type": "node",
      "id": 12809319558,
      "lat": 13.0118434,
      "lon": 77.5551823,
      "tags": {
        "amenity": "fast_food",
        "cuisine": "hot_dog",
        "name": "Franks"
      }
    },
    {
      "type": "node",
      "id": 12809319559,
      "lat": 13.0108881,
      "lon": 77.5549465,
      "tags": {
        "amenity": "cafe",
        "name": "Magnolia Bakery",
        "shop": "bakery"
      }
    },
    {
      "type": "node",
      "id": 12809319560,
      "lat": 13.0111272,
      "lon": 77.5553938,
      "tags": {
        "addr:city": "Bangalore",
        "addr:housename": "Upper Ground Floor, Orion Mall",
        "addr:street": "Dr. Rajkumar Road",
        "brand": "Uniqlo",
        "brand:wikidata": "Q26070",
        "name": "Uniqlo",
        "shop": "clothes"
      }
    },
    {
      "type": "node",
      "id": 12809319561,
      "lat": 13.0111481,
      "lon": 77.5549451,
      "tags": {
        "addr:city": "Bangalore",
        "addr:housename": "Upper Ground Floor, Orion Mall",
        "addr:street": "Dr. Rajkumar Road",
        "brand": "Uniqlo",
        "brand:wikidata": "Q26070",
        "name": "Uniqlo",
        "shop": "clothes"
      }
    },
    {
      "type": "node",
      "id": 12862730490,
      "lat": 13.0108695,
      "lon": 77.5554036,
      "tags": {
        "brand": "Lego",
        "brand:wikidata": "Q25385996",
        "name": "Lego",
        "shop": "toys"
      }
    },
    {
      "type": "node",
      "id": 12862846482,
      "lat": 13.0117166,
      "lon": 77.5554144,
      "tags": {
        "addr:city": "Bangalore",
        "addr:housename": "Upper Ground Floor, Orion Mall",
        "addr:housenumber": "UG9A",
        "addr:street": "Dr. Rajkumar Road",
        "amenity": "restaurant",
        "brand": "Cafe Noir",
        "brand:wikidata": "Q124374751",
        "cuisine": "french;burger",
        "delivery": "yes",
        "indoor_seating": "yes",
        "name": "Cafe Noir",
        "name:kn": "ಕಫೆ ನಾರ್ಯ್",
        "outdoor_seating": "yes",
        "takeaway": "yes"
      }
    },
    {
      "type": "node",
      "id": 12927878004,
      "lat": 13.011695,
      "lon": 77.5553974,
      "tags": {
        "addr:city": "Bangalore",
        "addr:housename": "Upper Ground Floor, Orion Mall",
        "addr:street": "Dr. Rajkumar Road",
        "amenity": "restaurant",
        "cuisine": "french",
        "name": "Paul",
        "outdoor_seating": "yes",
        "reservation": "recommended",
        "toilets": "yes"
      }
    },
    {
      "type": "node",
      "id": 13084285569,
      "lat": 13.0115847,
      "lon": 77.5549478,
      "tags": {
        "brand": "Victoria's Secret",
        "brand:wikidata": "Q332477",
        "check_date": "2025-08-20",
        "clothes": "underwear;women",
        "name": "Victoria's Secret",
        "shop": "clothes"
      }
    },
    {
      "type": "way",
      "id": 51369519,
      "center": {
        "lat": 13.0072558,
        "lon": 77.5580358
      },
      "tags": {
        "alt_name": "Subramanya Nagar Park",
        "leisure": "park",
        "name": "Krantiveera Sangolli Rayanna Park",
        "name:etymology:wikidata": "Q10983724",
        "name:kn": "ಕ್ರಾಂತಿವೀರ ಸಂಗೊಳ್ಳಿ ರಾಯಣ್ಣ ಉದ್ಯಾನವನ"
      }
    },
    {
      "type": "way",
      "id": 133810608,
      "center": {
        "lat": 13.0091201,
        "lon": 77.5550382
      },
      "tags": {
        "amenity": "college",
        "name": "Vivekananda Degree College",
        "name:kn": "ವಿವೇಕಾನಂದ ಡಿಗ್ರಿ ಕಾಲೇಜು"
      }
    },
    {
      "type": "way",
      "id": 135269282,
      "center": {
        "lat": 13.0102213,
        "lon": 77.5580236
      },
      "tags": {
        "leisure": "park"
      }
    },
    {
      "type": "way",
      "id": 149418883,
      "center": {
        "lat": 13.0137818,
        "lon": 77.5549731
      },
      "tags": {
        "addr:city": "Bangalore",
        "addr:hamlet": "Subramanya Nagar",
        "addr:housenumber": "26/3",
        "addr:postcode": "560055",
        "addr:street": "Tumkur Road",
        "brand": "METRO",
        "brand:wikidata": "Q13610282",
        "building": "retail",
        "name": "Metro",
        "name:en": "Metro",
        "name:kn": "ಮೆಟ್ರೋ",
        "phone": "+91 080 22192306",
        "shop": "wholesale",
        "website": "https://www.metro.co.in/",
        "wheelchair": "yes"
      }
    },
    {
      "type": "way",
      "id": 149418889,
      "center": {
        "lat": 13.0121218,
        "lon": 77.5549676
      },
      "tags": {
        "leisure": "garden"
      }
    },
    {
      "type": "way",
      "id": 149418892,
      "center": {
        "lat": 13.0132038,
        "lon": 77.5560888
      },
      "tags": {
        "access": "customers",
        "amenity": "parking",
        "building": "parking",
        "building:levels": "9",
        "capacity": "2000",
        "fee": "yes",
        "name": "MLCP",
        "parking": "multi-storey"
      }
    },
    {
      "type": "way",
      "id": 149418901,
      "center": {
        "lat": 13.0129604,
        "lon": 77.5540663
      },
      "tags": {
        "leisure": "park",
        "name": "Basava Dhama Park",
        "name:kn": "ಬಸವ ಧಾಮ"
      }
    },
    {
      "type": "way",
      "id": 149418905,
      "center": {
        "lat": 13.0141991,
        "lon": 77.5560493
      },
      "tags": {
        "amenity": "parking",
        "parking": "surface"
      }
    },
    {
      "type": "way",
      "id": 149418909,
      "center": {
        "lat": 13.0120876,
        "lon": 77.557745
      },
      "tags": {
        "amenity": "school",
        "name": "The Brigade School"
      }
    },
    {
      "type": "way",
      "id": 180837206,
      "center": {
        "lat": 13.0109648,
        "lon": 77.5552202
      },
      "tags": {
        "addr:housenumber": "26/1",
        "addr:postcode": "560055",
        "addr:street": "Dr. Rajkumar Road",
        "internet_access": "wlan",
        "landuse": "retail",
        "name": "Orion Mall",
        "name:hi": "ओरियन मॉल",
        "phone": "+918067282222",
        "shop": "mall",
        "toilets": "yes",
        "toilets:wheelchair": "yes",
        "wheelchair": "yes"
      }
    },
    {
      "type": "way",
      "id": 241205583,
      "center": {
        "lat": 13.0090899,
        "lon": 77.5555529
      },
      "tags": {
        "leisure": "pitch",
        "name": "Vivekananda Degree College Ground",
        "name:kn": "ವಿವೇಕಾನಂದ ಡಿಗ್ರಿ ಕಾಲೇಜು ಮೈದಾನ"
      }
    },
    {
      "type": "way",
      "id": 241205584,
      "center": {
        "lat": 13.008495,
        "lon": 77.5582801
      },
      "tags": {
        "landuse": "recreation_ground",
        "leisure": "sports_centre",
        "name": "Nadaprabhu Kempegowda Stadium",
        "name:kn": "ಕೆಂಪೆಗೌಡ ಕ್ರೀಡಾಂಗಣ"
      }
    },
    {
      "type": "way",
      "id": 345852420,
      "center": {
        "lat": 13.0063436,
        "lon": 77.5544455
      },
      "tags": {
        "building": "yes",
        "name": "Newkiks",
        "shop": "shoes"
      }
    },
    {
      "type": "way",
      "id": 792795171,
      "center": {
        "lat": 13.0119649,
        "lon": 77.5570804
      },
      "tags": {
        "leisure": "park"
      }
    },
    {
      "type": "way",
      "id": 1013443903,
      "center": {
        "lat": 13.0142942,
        "lon": 77.5560784
      },
      "tags": {
        "addr:city": "Bengaluru",
        "addr:district": "Bengaluru Urban",
        "addr:full": "26/4, Brigade Gateway, Beside Metro Cash and Carry, Malleshwaram",
        "addr:housenumber": "26/4",
        "addr:postcode": "560020",
        "addr:state": "Karnataka",
        "addr:street": "Brigade Gateway, Beside Metro Cash and Carry West, Malleshwaram",
        "amenity": "hospital",
        "emergency": "yes",
        "name": "Manipal Hospital Yeshwantpur",
        "old_name": "Columbia Asia Referral Hospital",
        "old_name:kn": "ಕೊಲಂಬಿಯ ಏಷ್ಯಾ ಆಸ್ಪತ್ರೆ",
        "phone": "080 3989 8969",
        "source": "OpenGovernmentData",
        "website": "https://www.columbiaasia.com/"
      }
    },
    {
      "type": "way",
      "id": 1095072538,
      "center": {
        "lat": 13.008573,
        "lon": 77.5583215
      },
      "tags": {
        "leisure": "track"
      }
    },
    {
      "type": "way",
      "id": 1095561493,
      "center": {
        "lat": 13.0085417,
        "lon": 77.5590394
      },
      "tags": {
        "amenity": "place_of_worship",
        "religion": "hindu"
      }
    },
    {
      "type": "way",
      "id": 1199472537,
      "center": {
        "lat": 13.0119594,
        "lon": 77.5584644
      },
      "tags": {
        "leisure": "pitch",
        "lit": "yes",
        "sport": "basketball",
        "surface": "concrete"
      }
    },
    {
      "type": "way",
      "id": 1199472542,
      "center": {
        "lat": 13.0120261,
        "lon": 77.558172
      },
      "tags": {
        "access": "private",
        "leisure": "swimming_pool"
      }
    },
    {
      "type": "way",
      "id": 1199472543,
      "center": {
        "lat": 13.0118893,
        "lon": 77.5578925
      },
      "tags": {
        "leisure": "pitch",
        "sport": "tennis",
        "surface": "concrete"
      }
    },
    {
      "type": "way",
      "id": 1199472544,
      "center": {
        "lat": 13.0117282,
        "lon": 77.5575442
      },
      "tags": {
        "leisure": "pitch",
        "sport": "tennis",
        "surface": "concrete"
      }
    },
    {
      "type": "way",
      "id": 1199489887,
      "center": {
        "lat": 13.0113486,
        "lon": 77.5577648
      },
      "tags": {
        "layer": "1",
        "leisure": "park",
        "level": "1"
      }
    },
    {
      "type": "way",
      "id": 1199489888,
      "center": {
        "lat": 13.0111492,
        "lon": 77.5573296
      },
      "tags": {
        "layer": "1",
        "leisure": "park",
        "level": "1"
      }
    },
    {
      "type": "way",
      "id": 1199489889,
      "center": {
        "lat": 13.0109653,
        "lon": 77.5569483
      },
      "tags": {
        "layer": "1",
        "leisure": "park",
        "level": "1"
      }
    },
    {
      "type": "way",
      "id": 1199489890,
      "center": {
        "lat": 13.0107812,
        "lon": 77.5565488
      },
      "tags": {
        "layer": "1",
        "leisure": "park",
        "level": "1"
      }
    },
    {
      "type": "way",
      "id": 1199489891,
      "center": {
        "lat": 13.0110448,
        "lon": 77.5578737
      },
      "tags": {
        "layer": "1",
        "leisure": "park",
        "level": "1"
      }
    },
    {
      "type": "way",
      "id": 1199489892,
      "center": {
        "lat": 13.0108641,
        "lon": 77.5574824
      },
      "tags": {
        "layer": "1",
        "leisure": "park",
        "level": "1"
      }
    },
    {
      "type": "way",
      "id": 1199489893,
      "center": {
        "lat": 13.0106904,
        "lon": 77.5570984
      },
      "tags": {
        "layer": "1",
        "leisure": "park",
        "level": "1"
      }
    },
    {
      "type": "way",
      "id": 1199489894,
      "center": {
        "lat": 13.0105173,
        "lon": 77.5567103
      },
      "tags": {
        "access": "private",
        "layer": "1",
        "leisure": "playground",
        "level": "1"
      }
    },
    {
      "type": "way",
      "id": 1199489895,
      "center": {
        "lat": 13.0103259,
        "lon": 77.5562916
      },
      "tags": {
        "layer": "1",
        "leisure": "park",
        "level": "1"
      }
    },
    {
      "type": "way",
      "id": 1199489898,
      "center": {
        "lat": 13.0097146,
        "lon": 77.5555674
      },
      "tags": {
        "leisure": "park",
        "name": "Banavasi",
        "name:kn": "ಬನವಾಸಿ"
      }
    },
    {
      "type": "way",
      "id": 1204460211,
      "center": {
        "lat": 13.0104865,
        "lon": 77.5577965
      },
      "tags": {
        "access": "permissive",
        "amenity": "parking",
        "parking": "surface"
      }
    },
    {
      "type": "way",
      "id": 1205846901,
      "center": {
        "lat": 13.0105826,
        "lon": 77.5561263
      },
      "tags": {
        "layer": "1",
        "leisure": "park",
        "level": "1"
      }
    },
    {
      "type": "way",
      "id": 1205846902,
      "center": {
        "lat": 13.0115437,
        "lon": 77.558195
      },
      "tags": {
        "access": "private",
        "layer": "1",
        "leisure": "playground",
        "level": "1"
      }
    },
    {
      "type": "way",
      "id": 1205846931,
      "center": {
        "lat": 13.0096856,
        "lon": 77.5569282
      },
      "tags": {
        "amenity": "place_of_worship",
        "religion": "hindu"
      }
    },
    {
      "type": "way",
      "id": 1207646952,
      "center": {
        "lat": 13.0106195,
        "lon": 77.5556676
      },
      "tags": {
        "amenity": "theatre",
        "name": "Amphitheater"
      }
    },
    {
      "type": "way",
      "id": 1208662793,
      "center": {
        "lat": 13.012408,
        "lon": 77.556769
      },
      "tags": {
        "leisure": "garden"
      }
    },
    {
      "type": "way",
      "id": 1208662794,
      "center": {
        "lat": 13.0118414,
        "lon": 77.5585405
      },
      "tags": {
        "access": "private",
        "leisure": "playground"
      }
    },
    {
      "type": "way",
      "id": 1212237735,
      "center": {
        "lat": 13.0132249,
        "lon": 77.5577124
      },
      "tags": {
        "amenity": "bank",
        "brand": "Bank of India",
        "brand:wikidata": "Q2004439",
        "landuse": "commercial",
        "name": "Bank of India",
        "name:kn": "ಬ್ಯಾಂಕ್ ಅಫ್ ಇಂಡಿಯ",
        "operator": "Bank of India"
      }
    },
    {
      "type": "way",
      "id": 1272965586,
      "center": {
        "lat": 13.0126854,
        "lon": 77.5573316
      },
      "tags": {
        "leisure": "park"
      }
    },
    {
      "type": "way",
      "id": 1272965587,
      "center": {
        "lat": 13.0129621,
        "lon": 77.5573221
      },
      "tags": {
        "access": "private",
        "leisure": "swimming_pool"
      }
    },
    {
      "type": "way",
      "id": 1272965590,
      "center": {
        "lat": 13.0134184,
        "lon": 77.5568733
      },
      "tags": {
        "access": "private",
        "leisure": "swimming_pool"
      }
    },
    {
      "type": "way",
      "id": 1291009256,
      "center": {
        "lat": 13.0082304,
        "lon": 77.5587307
      },
      "tags": {
        "leisure": "pitch",
        "sport": "basketball"
      }
    },
    {
      "type": "way",
      "id": 1295696517,
      "center": {
        "lat": 13.008839,
        "lon": 77.5587879
      },
      "tags": {
        "leisure": "pitch"
      }
    },
    {
      "type": "way",
      "id": 1297586926,
      "center": {
        "lat": 13.0049091,
        "lon": 77.5540857
      },
      "tags": {
        "amenity": "place_of_worship",
        "landuse": "religious",
        "religion": "hindu"
      }
    },
    {
      "type": "way",
      "id": 1306491451,
      "center": {
        "lat": 13.0057898,
        "lon": 77.554405
      },
      "tags": {
        "amenity": "fuel",
        "brand": "Indane Oil",
        "compressed_air": "yes",
        "landuse": "commercial",
        "name": "Varadaraja Petrol / Gas Station",
        "wheelchair": "yes"
      }
    },
    {
      "type": "way",
      "id": 1350562259,
      "center": {
        "lat": 13.0093511,
        "lon": 77.556125
      },
      "tags": {
        "leisure": "pitch",
        "sport": "basketball"
      }
    },
    {
      "type": "way",
      "id": 1352955735,
      "center": {
        "lat": 13.012409,
        "lon": 77.5543198
      },
      "tags": {
        "amenity": "motorcycle_parking"
      }
    },
    {
      "type": "way",
      "id": 1352959759,
      "center": {
        "lat": 13.0126463,
        "lon": 77.5545139
      },
      "tags": {
        "amenity": "marketplace",
        "landuse": "retail",
        "name": "Footpath Stalls"
      }
    },
    {
      "type": "way",
      "id": 1370050089,
      "center": {
        "lat": 13.0116121,
        "lon": 77.5563655
      },
      "tags": {
        "leisure": "park"
      }
    },
    {
      "type": "way",
      "id": 1370050102,
      "center": {
        "lat": 13.0033745,
        "lon": 77.5537585
      },
      "tags": {
        "amenity": "police",
        "name": "Subramanyanagar Police Station",
        "name:kn": "ಸುಬ್ರಹ್ಮಣ್ಯ ನಗರ ಆರಕ್ಷಕ ಠಾಣೆ"
      }
    },
    {
      "type": "way",
      "id": 1370050104,
      "center": {
        "lat": 13.0029376,
        "lon": 77.5536244
      },
      "tags": {
        "amenity": "fuel",
        "name": "Go Gas"
      }
    },
    {
      "type": "way",
      "id": 1378950207,
      "center": {
        "lat": 13.0153737,
        "lon": 77.5555241
      },
      "tags": {
        "garden:style": "landscaping",
        "leisure": "garden"
      }
    },
    {
      "type": "way",
      "id": 1383583124,
      "center": {
        "lat": 13.0081111,
        "lon": 77.5581266
      },
      "tags": {
        "leisure": "track"
      }
    },
    {
      "type": "way",
      "id": 1427356579,
      "center": {
        "lat": 13.0082122,
        "lon": 77.5580207
      },
      "tags": {
        "leisure": "playground"
      }
    },
    {
      "type": "way",
      "id": 1427356590,
      "center": {
        "lat": 13.0120792,
        "lon": 77.5583097
      },
      "tags": {
        "access": "private",
        "leisure": "swimming_pool"
      }
    }
  ]
}