{
  "area_name": "Sudgunte Palya",
  "osm_id": 3298494103,
  "osm_type": "node",
  "place_type": "neighbourhood",
  "amenity_count": 83,
  "amenities": [
    {
      "type": "node",
      "id": 414032162,
      "lat": 12.9812136,
      "lon": 77.6570884,
      "tags": {
        "amenity": "fuel",
        "brand": "Hindustan Petroleum",
        "brand:wikidata": "Q1619375",
        "name": "HP Auto Care",
        "official_name": "Hindustan Petroleum"
      }
    },
    {
      "type": "node",
      "id": 1078209945,
      "lat": 12.9852309,
      "lon": 77.6636329,
      "tags": {
        "amenity": "bank",
        "atm": "yes",
        "brand": "State Bank of India",
        "brand:wikidata": "Q1340361",
        "brand:wikipedia": "en:State Bank of India",
        "name": "State Bank of India",
        "name:kn": "ಎಸ್ ಬಿ ಐ",
        "short_name": "SBI"
      }
    },
    {
      "type": "node",
      "id": 1087901336,
      "lat": 12.983791,
      "lon": 77.65649,
      "tags": {
        "amenity": "place_of_worship",
        "name": "Ganesha Temple",
        "name:kn": "ಗಣೇಶ ದೇವಸ್ಥಾನ",
        "religion": "hindu"
      }
    },
    {
      "type": "node",
      "id": 1317197138,
      "lat": 12.9745701,
      "lon": 77.6548127,
      "tags": {
        "brand": "HOPCOMS",
        "brand:wikidata": "Q22908959",
        "name": "HOPCOMS",
        "name:kn": "ಹಾಪ್ ಕಾಮ್ಸ್",
        "shop": "greengrocer"
      }
    },
    {
      "type": "node",
      "id": 1328610606,
      "lat": 12.9747197,
      "lon": 77.6550567,
      "tags": {
        "shop": "convenience"
      }
    },
    {
      "type": "node",
      "id": 1569153265,
      "lat": 12.9795192,
      "lon": 77.6578339,
      "tags": {
        "amenity": "atm",
        "brand": "Citibank",
        "brand:wikidata": "Q857063",
        "name": "Citibank",
        "operator": "Citibank",
        "operator:wikidata": "Q857063",
        "short_name": "Citi"
      }
    },
    {
      "type": "node",
      "id": 1925211620,
      "lat": 12.9916211,
      "lon": 77.6586524,
      "tags": {
        "amenity": "parking"
      }
    },
    {
      "type": "node",
      "id": 1925211661,
      "lat": 12.9912368,
      "lon": 77.6577482,
      "tags": {
        "amenity": "bicycle_parking",
        "covered": "no"
      }
    },
    {
      "type": "node",
      "id": 4141966889,
      "lat": 12.9871041,
      "lon": 77.6620214,
      "tags": {
        "addr:district": "Bengaluru Urban",
        "addr:full": "CGHS Dispensary No.10, DRDO Complex DRDOComplex, C.V.Raman Nagar",
        "addr:postcode": "560093",
        "addr:state": "Karnataka",
        "addr:street": "Dr. APJ Abdul Kalam Road",
        "amenity": "clinic",
        "health_facility:type": "dispensary",
        "healthcare": "centre",
        "name": "CGHS Dispensary No.10",
        "operator:type": "government",
        "source": "OpenGovernmentData",
        "website": "http://nb.bsf.gov.in/CGHS%20DIspenseries.pdf"
      }
    },
    {
      "type": "node",
      "id": 4167718789,
      "lat": 12.9812284,
      "lon": 77.6572925,
      "tags": {
        "amenity": "atm",
        "brand": "Axis Bank",
        "brand:wikidata": "Q2003549",
        "opening_hours": "24/7",
        "operator": "Axis Bank",
        "operator:wikidata": "Q2003549"
      }
    },
    {
      "type": "node",
      "id": 4171465001,
      "lat": 12.9862101,
      "lon": 77.6623936,
      "tags": {
        "amenity": "clinic",
        "name": "Homeopathic Self Reliance Forum"
      }
    },
    {
      "type": "node",
      "id": 4512115990,
      "lat": 12.9761276,
      "lon": 77.652898,
      "tags": {
        "amenity": "school",
        "name": "Mother Mary English School",
        "name:en": "Mother Mary English School"
      }
    },
    {
      "type": "node",
      "id": 4512140989,
      "lat": 12.9759235,
      "lon": 77.6526652,
      "tags": {
        "amenity": "school",
        "name": "St. Thomas Public School",
        "name:en": "St. Thomas Public School"
      }
    },
    {
      "type": "node",
      "id": 4599173691,
      "lat": 12.9821034,
      "lon": 77.6575557,
      "tags": {
        "amenity": "community_centre",
        "name": "Karunadu services",
        "name:en": "Karunadu services",
        "phone": "08042123520"
      }
    },
    {
      "type": "node",
      "id": 4599826589,
      "lat": 12.9795556,
      "lon": 77.6578756,
      "tags": {
        "amenity": "bank",
        "atm": "yes",
        "brand": "State Bank of India",
        "brand:wikidata": "Q1340361",
        "brand:wikipedia": "en:State Bank of India",
        "name": "State Bank of India",
        "name:en": "SBI",
        "name:kn": "ಭಾರತೀಯ ಸ್ಟೇಟ್ ಬ್ಯಾಂಕ್",
        "short_name": "SBI",
        "website": "https://www.sbi.co.in",
        "wheelchair": "limited"
      }
    },
    {
      "type": "node",
      "id": 4602971318,
      "lat": 12.9759778,
      "lon": 77.6548222,
      "tags": {
        "amenity": "pharmacy",
        "healthcare": "pharmacy",
        "name": "Sri Datta Medical",
        "name:en": "Sri Datta Medical"
      }
    },
    {
      "type": "node",
      "id": 4602971404,
      "lat": 12.9760549,
      "lon": 77.6547944,
      "tags": {
        "amenity": "pharmacy",
        "healthcare": "pharmacy",
        "name": "Gheeta pharmacy",
        "name:en": "Gheeta pharmacy"
      }
    },
    {
      "type": "node",
      "id": 4680308195,
      "lat": 12.9877536,
      "lon": 77.6624285,
      "tags": {
        "leisure": "pitch"
      }
    },
    {
      "type": "node",
      "id": 4680308696,
      "lat": 12.984816,
      "lon": 77.6656733,
      "tags": {
        "amenity": "clinic",
        "name": "Government Health Center",
        "name:hi": "Government Health Center"
      }
    },
    {
      "type": "node",
      "id": 4680353494,
      "lat": 12.9853876,
      "lon": 77.6647856,
      "tags": {
        "amenity": "atm",
        "brand": "City Union Bank",
        "brand:en": "City Union Bank",
        "brand:hi": "सिटी यूनियन बैंक",
        "brand:ta": "சிட்டி யூனியன் வங்கி",
        "brand:wikidata": "Q2040264",
        "name:en": "City Union Bank",
        "name:hi": "सिटी यूनियन बैंक",
        "name:ta": "சிட்டி யூனியன் வங்கி",
        "operator": "City Union Bank",
        "operator:wikidata": "Q2040264",
        "short_name": "CUB"
      }
    },
    {
      "type": "node",
      "id": 5164855027,
      "lat": 12.9810088,
      "lon": 77.6477499,
      "tags": {
        "amenity": "bench"
      }
    },
    {
      "type": "node",
      "id": 5164855028,
      "lat": 12.981032,
      "lon": 77.6476959,
      "tags": {
        "amenity": "bench",
        "backrest": "yes"
      }
    },
    {
      "type": "node",
      "id": 5164855029,
      "lat": 12.9811352,
      "lon": 77.6476672,
      "tags": {
        "amenity": "bench",
        "backrest": "yes"
      }
    },
    {
      "type": "node",
      "id": 6484718433,
      "lat": 12.9893034,
      "lon": 77.6528791,
      "tags": {
        "amenity": "bicycle_rental",
        "name": "DULT Bike Share Point"
      }
    },
    {
      "type": "node",
      "id": 6771722361,
      "lat": 12.9759418,
      "lon": 77.6528714,
      "tags": {
        "name": "Hari Uncles Shop",
        "shop": "Stationery,Food"
      }
    },
    {
      "type": "node",
      "id": 6982401116,
      "lat": 12.9811255,
      "lon": 77.6477928,
      "tags": {
        "amenity": "bench"
      }
    },
    {
      "type": "node",
      "id": 7114507519,
      "lat": 12.9812279,
      "lon": 77.6476582,
      "tags": {
        "blind": "no",
        "fitness_station": "fitness_station",
        "leisure": "fitness_station",
        "wheelchair": "limited"
      }
    },
    {
      "type": "node",
      "id": 9740683768,
      "lat": 12.9904828,
      "lon": 77.6604438,
      "tags": {
        "amenity": "dentist",
        "name": "Ace Dental Care"
      }
    },
    {
      "type": "node",
      "id": 11908994205,
      "lat": 12.9843724,
      "lon": 77.6654448,
      "tags": {
        "check_date": "2024-05-17",
        "name": "Solanki Medicals",
        "shop": "chemist"
      }
    },
    {
      "type": "node",
      "id": 11908994206,
      "lat": 12.9844253,
      "lon": 77.6654609,
      "tags": {
        "check_date": "2024-05-17",
        "name": "Kahinoor Rice Traders",
        "shop": "wholesale_grain_trader"
      }
    },
    {
      "type": "node",
      "id": 11908994207,
      "lat": 12.9843282,
      "lon": 77.6654378,
      "tags": {
        "amenity": "dentist",
        "check_date": "2024-05-17",
        "healthcare": "dentist",
        "name": "Chitra Dental Care"
      }
    },
    {
      "type": "node",
      "id": 12099096295,
      "lat": 12.9758932,
      "lon": 77.6520407,
      "tags": {
        "addr:city": "Bangalore",
        "addr:housenumber": "32",
        "addr:postcode": "560075",
        "addr:street": "Church Main Road, HAL 3rd Stage, Bhoomi Reddy Colony, New Tippasandra, Bengaluru, Karnataka 560075",
        "amenity": "school",
        "name": "Oxford English High School"
      }
    },
    {
      "type": "node",
      "id": 12925049080,
      "lat": 12.9907716,
      "lon": 77.6525114,
      "tags": {
        "check_date": "2025-07-05",
        "name": "Amul",
        "shop": "dairy"
      }
    },
    {
      "type": "node",
      "id": 13275766738,
      "lat": 12.9779204,
      "lon": 77.662729,
      "tags": {
        "amenity": "shelter",
        "shelter_type": "gazebo"
      }
    },
    {
      "type": "way",
      "id": 35311978,
      "center": {
        "lat": 12.9822274,
        "lon": 77.6533084
      },
      "tags": {
        "amenity": "research_institute",
        "check_date": "2024-11-10",
        "landuse": "industrial",
        "name": "Gas Turbine Research Establishment",
        "name:kn": "ಆವಿ ನೀರುಗಾಲಿ ಸಂಶೋಧನ ನೆಲೆ",
        "operator:type": "military",
        "short_name": "GTRE",
        "start_date": "1961",
        "wikidata": "Q5526315",
        "wikimedia_commons": "Category:GTRE aircraft engines",
        "wikipedia": "en:Gas Turbine Research Establishment"
      }
    },
    {
      "type": "way",
      "id": 41722454,
      "center": {
        "lat": 12.9781152,
        "lon": 77.6505224
      },
      "tags": {
        "amenity": "research_institute",
        "landuse": "industrial",
        "name": "Aeronautical Development Establishment",
        "short_name": "ADE",
        "wikidata": "Q4688350",
        "wikipedia": "en:Aeronautical Development Establishment"
      }
    },
    {
      "type": "way",
      "id": 98005709,
      "center": {
        "lat": 12.9749831,
        "lon": 77.6545388
      },
      "tags": {
        "leisure": "park",
        "name": "Kuvempu Park",
        "name:etymology:wikidata": "Q3351108",
        "name:kn": "ತಿಪ್ಪಸಂದ್ರ ಉದ್ಯಾನವನ"
      }
    },
    {
      "type": "way",
      "id": 135266054,
      "center": {
        "lat": 12.9858359,
        "lon": 77.6475563
      },
      "tags": {
        "amenity": "school",
        "name": "Fusco's School",
        "name:kn": "ಫೊಸ್ಕೊಸ್ ಶಾಲೆ"
      }
    },
    {
      "type": "way",
      "id": 135266058,
      "center": {
        "lat": 12.9844576,
        "lon": 77.6464785
      },
      "tags": {
        "amenity": "social_facility",
        "name": "St. Michael's Home",
        "social_facility": "shelter"
      }
    },
    {
      "type": "way",
      "id": 148042611,
      "center": {
        "lat": 12.9899813,
        "lon": 77.653186
      },
      "tags": {
        "access": "yes",
        "amenity": "parking",
        "fee": "yes",
        "parking": "surface"
      }
    },
    {
      "type": "way",
      "id": 182149856,
      "center": {
        "lat": 12.9853837,
        "lon": 77.6477907
      },
      "tags": {
        "leisure": "playground"
      }
    },
    {
      "type": "way",
      "id": 182175819,
      "center": {
        "lat": 12.9919768,
        "lon": 77.6595562
      },
      "tags": {
        "amenity": "fuel",
        "brand": "Shell",
        "brand:wikidata": "Q110716465",
        "compressed_air": "yes",
        "landuse": "commercial",
        "name": "Shell"
      }
    },
    {
      "type": "way",
      "id": 309936964,
      "center": {
        "lat": 12.9811042,
        "lon": 77.647751
      },
      "tags": {
        "description": "New Thrippasandra , word number 58",
        "leisure": "park",
        "name": "BM Kaval Childrens Park"
      }
    },
    {
      "type": "way",
      "id": 346421773,
      "center": {
        "lat": 12.9850652,
        "lon": 77.6575652
      },
      "tags": {
        "access": "private",
        "leisure": "pitch",
        "sport": "basketball"
      }
    },
    {
      "type": "way",
      "id": 346421936,
      "center": {
        "lat": 12.9882363,
        "lon": 77.6567041
      },
      "tags": {
        "access": "private",
        "leisure": "swimming_pool"
      }
    },
    {
      "type": "way",
      "id": 346775300,
      "center": {
        "lat": 12.9850987,
        "lon": 77.6631173
      },
      "tags": {
        "amenity": "post_office",
        "building": "commercial",
        "name": "DRDO Shopping complex / CV Raman Nagar PO",
        "operator": "India Posts",
        "ref": "CV Raman Nagar PO"
      }
    },
    {
      "type": "way",
      "id": 346776018,
      "center": {
        "lat": 12.9847018,
        "lon": 77.6631402
      },
      "tags": {
        "amenity": "community_centre",
        "building": "yes",
        "name": "DRDO Community Hall"
      }
    },
    {
      "type": "way",
      "id": 347084114,
      "center": {
        "lat": 12.9847652,
        "lon": 77.6626318
      },
      "tags": {
        "amenity": "theatre",
        "name": "Open Air Theatre"
      }
    },
    {
      "type": "way",
      "id": 347182995,
      "center": {
        "lat": 12.9803577,
        "lon": 77.657137
      },
      "tags": {
        "access": "customers",
        "amenity": "parking",
        "building": "yes",
        "parking": "multi-storey"
      }
    },
    {
      "type": "way",
      "id": 363617609,
      "center": {
        "lat": 12.9841178,
        "lon": 77.663424
      },
      "tags": {
        "leisure": "pitch",
        "name": "Phase 1 Tennis Court",
        "sport": "tennis",
        "surface": "paved"
      }
    },
    {
      "type": "way",
      "id": 363617610,
      "center": {
        "lat": 12.9839744,
        "lon": 77.6615189
      },
      "tags": {
        "leisure": "pitch"
      }
    },
    {
      "type": "way",
      "id": 420436334,
      "center": {
        "lat": 12.9856425,
        "lon": 77.6640815
      },
      "tags": {
        "amenity": "bus_station",
        "name": "C V Raman Nagar Bus Stand",
        "name:kn": "ಸಿ ವಿ ರಾಮನ್ ನಗರ ಬಸ್ ನಿಲ್ದಾಣ",
        "operator": "BMTC"
      }
    },
    {
      "type": "way",
      "id": 630203906,
      "center": {
        "lat": 12.9773927,
        "lon": 77.6556312
      },
      "tags": {
        "access": "customers",
        "leisure": "pitch",
        "lit": "yes",
        "name": "Joga Bonito Soccer",
        "payment:cash": "yes",
        "payment:paytm": "yes",
        "short_name": "JBS",
        "sport": "soccer",
        "surface": "artificial_turf"
      }
    },
    {
      "type": "way",
      "id": 761473411,
      "center": {
        "lat": 12.9811092,
        "lon": 77.647736
      },
      "tags": {
        "access": "yes",
        "leisure": "playground"
      }
    },
    {
      "type": "way",
      "id": 1053086089,
      "center": {
        "lat": 12.9855823,
        "lon": 77.6590148
      },
      "tags": {
        "leisure": "golf_course",
        "name": "HAL Golf Course"
      }
    },
    {
      "type": "way",
      "id": 1053086117,
      "center": {
        "lat": 12.983105,
        "lon": 77.6601185
      },
      "tags": {
        "leisure": "playground",
        "name": "DRDO Playground"
      }
    },
    {
      "type": "way",
      "id": 1053086118,
      "center": {
        "lat": 12.9887637,
        "lon": 77.6596321
      },
      "tags": {
        "access": "private",
        "leisure": "pitch",
        "sport": "tennis"
      }
    },
    {
      "type": "way",
      "id": 1053086119,
      "center": {
        "lat": 12.9888989,
        "lon": 77.6600823
      },
      "tags": {
        "leisure": "pitch",
        "sport": "basketball"
      }
    },
    {
      "type": "way",
      "id": 1053086130,
      "center": {
        "lat": 12.9868422,
        "lon": 77.6643563
      },
      "tags": {
        "addr:street": "Naganarapalaya Main Road",
        "amenity": "school",
        "name": "Kendriya Vidhyalaya DRDO",
        "name:kn": "ಕೆಂದ್ರೀಯ ವಿದ್ಯಾಲಯ"
      }
    },
    {
      "type": "way",
      "id": 1053086135,
      "center": {
        "lat": 12.9850948,
        "lon": 77.6654174
      },
      "tags": {
        "leisure": "park"
      }
    },
    {
      "type": "way",
      "id": 1065296604,
      "center": {
        "lat": 12.9780051,
        "lon": 77.6597076
      },
      "tags": {
        "access": "permissive",
        "amenity": "parking",
        "parking": "surface"
      }
    },
    {
      "type": "way",
      "id": 1065296605,
      "center": {
        "lat": 12.9790731,
        "lon": 77.6648439
      },
      "tags": {
        "access": "permissive",
        "amenity": "parking",
        "parking": "surface"
      }
    },
    {
      "type": "way",
      "id": 1065296606,
      "center": {
        "lat": 12.9782451,
        "lon": 77.6639012
      },
      "tags": {
        "access": "permissive",
        "amenity": "parking",
        "parking": "surface"
      }
    },
    {
      "type": "way",
      "id": 1065300633,
      "center": {
        "lat": 12.9786838,
        "lon": 77.6611835
      },
      "tags": {
        "access": "permissive",
        "amenity": "parking",
        "parking": "surface"
      }
    },
    {
      "type": "way",
      "id": 1153512102,
      "center": {
        "lat": 12.9770503,
        "lon": 77.6554472
      },
      "tags": {
        "leisure": "sports_centre"
      }
    },
    {
      "type": "way",
      "id": 1153512103,
      "center": {
        "lat": 12.9772337,
        "lon": 77.6555341
      },
      "tags": {
        "leisure": "sports_centre",
        "name": "Play Zone Indiranagar"
      }
    },
    {
      "type": "way",
      "id": 1251186677,
      "center": {
        "lat": 12.9783306,
        "lon": 77.6621393
      },
      "tags": {
        "leisure": "park"
      }
    },
    {
      "type": "way",
      "id": 1252257176,
      "center": {
        "lat": 12.9776249,
        "lon": 77.6610112
      },
      "tags": {
        "access": "permissive",
        "leisure": "pitch",
        "sport": "tennis"
      }
    },
    {
      "type": "way",
      "id": 1320013928,
      "center": {
        "lat": 12.9779679,
        "lon": 77.6573566
      },
      "tags": {
        "access": "permissive",
        "amenity": "parking",
        "parking": "surface"
      }
    },
    {
      "type": "way",
      "id": 1320014017,
      "center": {
        "lat": 12.9779487,
        "lon": 77.6587271
      },
      "tags": {
        "access": "permissive",
        "amenity": "parking",
        "parking": "surface"
      }
    },
    {
      "type": "way",
      "id": 1332601534,
      "center": {
        "lat": 12.9763789,
        "lon": 77.6509206
      },
      "tags": {
        "access": "private",
        "leisure": "park"
      }
    },
    {
      "type": "way",
      "id": 1354098105,
      "center": {
        "lat": 12.9895589,
        "lon": 77.6592972
      },
      "tags": {
        "leisure": "park"
      }
    },
    {
      "type": "way",
      "id": 1354098107,
      "center": {
        "lat": 12.9886043,
        "lon": 77.6593421
      },
      "tags": {
        "access": "private",
        "leisure": "pitch",
        "sport": "tennis"
      }
    },
    {
      "type": "way",
      "id": 1354098108,
      "center": {
        "lat": 12.9887219,
        "lon": 77.6575711
      },
      "tags": {
        "leisure": "park"
      }
    },
    {
      "type": "way",
      "id": 1354098115,
      "center": {
        "lat": 12.9869826,
        "lon": 77.6557936
      },
      "tags": {
        "access": "private",
        "amenity": "parking",
        "parking": "surface"
      }
    },
    {
      "type": "way",
      "id": 1354126975,
      "center": {
        "lat": 12.9917352,
        "lon": 77.6573426
      },
      "tags": {
        "amenity": "police",
        "name": "Baiyyapannahalli Police Station",
        "name:kn": "ಬೈಯ್ಯಪ್ಪನಹಳ್ಳಿ ಆರಕ್ಷಕ ಠಾಣೆ"
      }
    },
    {
      "type": "way",
      "id": 1363975921,
      "center": {
        "lat": 12.9848026,
        "lon": 77.6653924
      },
      "tags": {
        "addr:street": "Kaggadasspura Main Road",
        "amenity": "place_of_worship",
        "landuse": "religious",
        "name": "Bhuvaneshwari/Shiva Temple",
        "religion": "hindu"
      }
    },
    {
      "type": "way",
      "id": 1393795140,
      "center": {
        "lat": 12.9909276,
        "lon": 77.66028
      },
      "tags": {
        "leisure": "garden"
      }
    },
    {
      "type": "way",
      "id": 1393795142,
      "center": {
        "lat": 12.991334,
        "lon": 77.6602169
      },
      "tags": {
        "access": "private",
        "leisure": "swimming_pool"
      }
    },
    {
      "type": "way",
      "id": 1393795144,
      "center": {
        "lat": 12.9913994,
        "lon": 77.6594345
      },
      "tags": {
        "access": "private",
        "leisure": "swimming_pool"
      }
    },
    {
      "type": "way",
      "id": 1446567943,
      "center": {
        "lat": 12.9836152,
        "lon": 77.6555607
      },
      "tags": {
        "addr:district": "SUDDAGUNTEPALYA, C.V. RAMAN NAGAR",
        "addr:street": "7th Main Road",
        "amenity": "place_of_worship",
        "landuse": "religious",
        "name": "Maheswaramma Temple",
        "name:kn": "ಮಹೇಶ್ವರಮ್ಮ"
      }
    },
    {
      "type": "way",
      "id": 1446568061,
      "center": {
        "lat": 12.9818497,
        "lon": 77.6578125
      },
      "tags": {
        "amenity": "place_of_worship",
        "landuse": "religious",
        "religion": "hindu"
      }
    },
    {
      "type": "way",
      "id": 1446914636,
      "center": {
        "lat": 12.9776002,
        "lon": 77.6637228
      },
      "tags": {
        "access": "private",
        "amenity": "parking",
        "parking": "surface"
      }
    }
  ]
}