{
  "area_name": "Sulikunte",
  "osm_id": 833667757,
  "osm_type": "node",
  "place_type": "suburb",
  "amenity_count": 19,
  "amenities": [
    {
      "type": "way",
      "id": 122551082,
      "center": {
        "lat": 12.8874381,
        "lon": 77.7360068
      },
      "tags": {
        "amenity": "fuel",
        "brand": "Bharat Petroleum",
        "brand:wikidata": "Q854826",
        "compressed_air": "yes",
        "name": "Bharat Petroleum",
        "name:kn": "ಭಾರತ್ ಪೆಟ್ರೋಲಿಯಂ",
        "operator": "Bharat Petroleum"
      }
    },
    {
      "type": "way",
      "id": 316008898,
      "center": {
        "lat": 12.8852752,
        "lon": 77.72484
      },
      "tags": {
        "amenity": "school",
        "name": "Delhi Public School Bangalore East"
      }
    },
    {
      "type": "way",
      "id": 638546190,
      "center": {
        "lat": 12.8873454,
        "lon": 77.7359338
      },
      "tags": {
        "building": "yes",
        "shop": "convenience"
      }
    },
    {
      "type": "way",
      "id": 773062394,
      "center": {
        "lat": 12.884057,
        "lon": 77.7247404
      },
      "tags": {
        "building": "yes",
        "leisure": "sports_centre",
        "sport": "swimming"
      }
    },
    {
      "type": "way",
      "id": 773062395,
      "center": {
        "lat": 12.8840506,
        "lon": 77.7249898
      },
      "tags": {
        "leisure": "swimming_pool"
      }
    },
    {
      "type": "way",
      "id": 773062400,
      "center": {
        "lat": 12.8838526,
        "lon": 77.7236858
      },
      "tags": {
        "leisure": "pitch",
        "sport": "basketball"
      }
    },
    {
      "type": "way",
      "id": 773062401,
      "center": {
        "lat": 12.8841984,
        "lon": 77.7242691
      },
      "tags": {
        "leisure": "track",
        "sport": "running"
      }
    },
    {
      "type": "way",
      "id": 773062402,
      "center": {
        "lat": 12.8836369,
        "lon": 77.7245957
      },
      "tags": {
        "leisure": "pitch",
        "sport": "basketball"
      }
    },
    {
      "type": "way",
      "id": 1068821222,
      "center": {
        "lat": 12.8896125,
        "lon": 77.7330375
      },
      "tags": {
        "amenity": "school",
        "name": "The Grandeur International School"
      }
    },
    {
      "type": "way",
      "id": 1268933947,
      "center": {
        "lat": 12.8853084,
        "lon": 77.72398
      },
      "tags": {
        "leisure": "pitch",
        "sport": "basketball"
      }
    },
    {
      "type": "way",
      "id": 1268933948,
      "center": {
        "lat": 12.8852458,
        "lon": 77.7244316
      },
      "tags": {
        "leisure": "pitch",
        "sport": "tennis"
      }
    },
    {
      "type": "way",
      "id": 1352112089,
      "center": {
        "lat": 12.8816224,
        "lon": 77.727381
      },
      "tags": {
        "amenity": "school"
      }
    },
    {
      "type": "way",
      "id": 1352112092,
      "center": {
        "lat": 12.8813792,
        "lon": 77.7288931
      },
      "tags": {
        "access": "private",
        "leisure": "swimming_pool"
      }
    },
    {
      "type": "way",
      "id": 1352112094,
      "center": {
        "lat": 12.8813262,
        "lon": 77.728582
      },
      "tags": {
        "leisure": "pitch",
        "sport": "soccer"
      }
    },
    {
      "type": "way",
      "id": 1421748892,
      "center": {
        "lat": 12.8938903,
        "lon": 77.7292792
      },
      "tags": {
        "amenity": "events_venue",
        "landuse": "commercial",
        "name": "Taarini Garden"
      }
    },
    {
      "type": "way",
      "id": 1421748897,
      "center": {
        "lat": 12.8904711,
        "lon": 77.7313917
      },
      "tags": {
        "amenity": "fuel"
      }
    },
    {
      "type": "way",
      "id": 1421748904,
      "center": {
        "lat": 12.8883788,
        "lon": 77.7324503
      },
      "tags": {
        "leisure": "sports_centre"
      }
    },
    {
      "type": "way",
      "id": 1421748905,
      "center": {
        "lat": 12.889246,
        "lon": 77.7330586
      },
      "tags": {
        "leisure": "pitch",
        "sport": "tennis"
      }
    },
    {
      "type": "way",
      "id": 1421748906,
      "center": {
        "lat": 12.8893107,
        "lon": 77.7329409
      },
      "tags": {
        "leisure": "pitch",
        "sport": "basketball"
      }
    }
  ]
}