{
  "area_name": "Sundar Nagar",
  "osm_id": 529372193,
  "osm_type": "node",
  "place_type": "neighbourhood",
  "amenity_count": 148,
  "amenities": [
    {
      "type": "node",
      "id": 446805877,
      "lat": 13.0362217,
      "lon": 77.5663481,
      "tags": {
        "amenity": "bus_station",
        "bus": "yes",
        "name": "Chikkamaranahalli",
        "name:kn": "ಚಿಕ್ಕಮಾರನಹಳ್ಳಿ",
        "public_transport": "station"
      }
    },
    {
      "type": "node",
      "id": 589848191,
      "lat": 13.0397585,
      "lon": 77.5555028,
      "tags": {
        "name": "City Supermarket",
        "shop": "supermarket"
      }
    },
    {
      "type": "node",
      "id": 589848959,
      "lat": 13.0400303,
      "lon": 77.5555993,
      "tags": {
        "addr:street": "Pipeline Road",
        "name": "Spencers Daily",
        "organic": "yes",
        "shop": "supermarket",
        "website": "https://www.spencers.in/"
      }
    },
    {
      "type": "node",
      "id": 590002267,
      "lat": 13.0436252,
      "lon": 77.5536883,
      "tags": {
        "amenity": "fuel",
        "brand": "Hindustan Petroleum",
        "brand:wikidata": "Q1619375",
        "compressed_air": "yes",
        "name": "Hindustan Petroleum",
        "official_name": "Hindustan Petroleum",
        "operator": "Hindustan Petroleum",
        "wheelchair": "limited"
      }
    },
    {
      "type": "node",
      "id": 621235471,
      "lat": 13.0369119,
      "lon": 77.5659032,
      "tags": {
        "addr:city": "Bangalore",
        "addr:country": "IN",
        "addr:full": "Devasandra Circle",
        "addr:postcode": "560054",
        "addr:state": "Karnataka",
        "addr:street": "New BEL Road",
        "amenity": "cafe",
        "check_date": "2025-08-08",
        "name": "Shanthi Sagar",
        "name:kn": "ಶಾಂತಿ ಸಾಗರ"
      }
    },
    {
      "type": "node",
      "id": 627936451,
      "lat": 13.0372579,
      "lon": 77.566121,
      "tags": {
        "amenity": "restaurant",
        "name": "Chicken County",
        "name:kn": "ಚಿಕನ್ ಕೌಂಟಿ"
      }
    },
    {
      "type": "node",
      "id": 638917146,
      "lat": 13.0369962,
      "lon": 77.5573938,
      "tags": {
        "amenity": "place_of_worship",
        "name": "Mathikere Masjid",
        "name:kn": "ಮತ್ತಿಕೆರೆ ಮಸೀದಿ",
        "religion": "muslim",
        "toilets:wheelchair": "no",
        "wheelchair": "limited"
      }
    },
    {
      "type": "node",
      "id": 638989415,
      "lat": 13.0352764,
      "lon": 77.5536076,
      "tags": {
        "amenity": "toilets",
        "wheelchair": "no"
      }
    },
    {
      "type": "node",
      "id": 1096875581,
      "lat": 13.0357887,
      "lon": 77.554688,
      "tags": {
        "shop": "hairdresser"
      }
    },
    {
      "type": "node",
      "id": 1462340034,
      "lat": 13.0325342,
      "lon": 77.5587342,
      "tags": {
        "amenity": "bank",
        "atm": "yes",
        "brand": "State Bank of India",
        "brand:wikidata": "Q1340361",
        "brand:wikipedia": "en:State Bank of India",
        "name": "State Bank of India",
        "name:kn": "ಭಾರತೀಯ ಸ್ಟೇಟ್ ಬ್ಯಾಂಕ್",
        "short_name": "SBI",
        "website": "https://www.sbi.co.in",
        "wheelchair": "no"
      }
    },
    {
      "type": "node",
      "id": 1464771575,
      "lat": 13.0390205,
      "lon": 77.5641654,
      "tags": {
        "brand": "Kanti Sweets",
        "brand:wikidata": "Q124374180",
        "check_date": "2025-08-08",
        "name": "Kanti Sweets",
        "shop": "confectionery"
      }
    },
    {
      "type": "node",
      "id": 1464771580,
      "lat": 13.0374605,
      "lon": 77.5657693,
      "tags": {
        "amenity": "fast_food",
        "brand": "Domino's",
        "brand:ks": "ڈومینوز",
        "brand:pa": "ਡੋਮੀਨੋਜ਼",
        "brand:ur": "ڈومینوز",
        "brand:wikidata": "Q839466",
        "brand:wikipedia": "en:Domino's Pizza",
        "cuisine": "pizza",
        "name": "Domino's",
        "name:ks": "ڈومینوز",
        "name:pa": "ਡੋਮੀਨੋਜ਼",
        "name:ur": "ڈومینوز"
      }
    },
    {
      "type": "node",
      "id": 1465454653,
      "lat": 13.0325996,
      "lon": 77.5589529,
      "tags": {
        "amenity": "pharmacy",
        "dispensing": "yes",
        "name": "Dr Shah Clinic",
        "wheelchair": "limited"
      }
    },
    {
      "type": "node",
      "id": 1472732143,
      "lat": 13.0340331,
      "lon": 77.5563802,
      "tags": {
        "amenity": "atm",
        "fee": "yes",
        "operator": "ICICI ATM"
      }
    },
    {
      "type": "node",
      "id": 1871539757,
      "lat": 13.0372438,
      "lon": 77.5648754,
      "tags": {
        "addr:district": "Bengaluru Urban",
        "addr:full": "No 519 2nd Nain Netravathystreet, Devasandra, New Bel Road",
        "addr:postcode": "560054",
        "addr:state": "Karnataka",
        "amenity": "hospital",
        "emergency": "yes",
        "name": "Shirdi Sai Hospital",
        "name:kn": "ಶಿರಡಿ ಸಾಯಿ ಆಸ್ಪತ್ರೆ",
        "operator:type": "private",
        "source": "OpenGovernmentData",
        "website": "http://shirdisaihospital.in/"
      }
    },
    {
      "type": "node",
      "id": 1871539758,
      "lat": 13.0367811,
      "lon": 77.5660503,
      "tags": {
        "amenity": "restaurant",
        "cuisine": "indian",
        "name": "Via Lucknow"
      }
    },
    {
      "type": "node",
      "id": 1999582217,
      "lat": 13.0370746,
      "lon": 77.5656715,
      "tags": {
        "addr:city": "Bangalore",
        "addr:postcode": "560054",
        "addr:street": "New BEL Road",
        "name": "Maha Bazar",
        "phone": "(91)-80-33293209",
        "shop": "supermarket",
        "website": "https://www.mahabazaaronline.com/"
      }
    },
    {
      "type": "node",
      "id": 2353259160,
      "lat": 13.0361493,
      "lon": 77.557739,
      "tags": {
        "amenity": "toilets"
      }
    },
    {
      "type": "node",
      "id": 2859829423,
      "lat": 13.0400516,
      "lon": 77.5573893,
      "tags": {
        "amenity": "bank",
        "atm": "yes",
        "brand": "Union Bank of India",
        "brand:wikidata": "Q2004078",
        "brand:wikipedia": "en:Union Bank of India",
        "name": "Union Bank of India",
        "name:en": "Union Bank of India",
        "name:kn": "ಯೂನಿಯನ್ ಬ್ಯಾಂಕ್",
        "short_name": "UBI",
        "website": "https://www.unionbankofindia.co.in/",
        "wheelchair": "no"
      }
    },
    {
      "type": "node",
      "id": 2859829724,
      "lat": 13.0403573,
      "lon": 77.5574215,
      "tags": {
        "amenity": "bank",
        "atm": "yes",
        "name": "Vijaya Bank - Gokula",
        "name:kn": "ವಿಜಯ ಬ್ಯಾಂಕು",
        "wheelchair": "no"
      }
    },
    {
      "type": "node",
      "id": 3122054157,
      "lat": 13.0365347,
      "lon": 77.5620534,
      "tags": {
        "addr:city": "Mathikere",
        "addr:postcode": "560054",
        "amenity": "place_of_worship",
        "name": "Muthuraiswamy Ayappa Temple",
        "name:kn": "ಅಯ್ಯಪ್ಪ ದೇವಸ್ಥಾನ",
        "religion": "hindu"
      }
    },
    {
      "type": "node",
      "id": 3122056107,
      "lat": 13.0349227,
      "lon": 77.5614892,
      "tags": {
        "addr:city": "Mathikere",
        "addr:postcode": "560054",
        "amenity": "place_of_worship",
        "name": "Shiva Temple",
        "name:kn": "ಶಿವ ದೇವಸ್ಥಾನ",
        "religion": "hindu"
      }
    },
    {
      "type": "node",
      "id": 3122059772,
      "lat": 13.0356902,
      "lon": 77.5634153,
      "tags": {
        "addr:city": "Mathikere",
        "addr:postcode": "560054",
        "amenity": "cinema",
        "name": "Lakshmi Tent"
      }
    },
    {
      "type": "node",
      "id": 3483711802,
      "lat": 13.0374157,
      "lon": 77.5661276,
      "tags": {
        "addr:city": "Bangalore",
        "addr:housenumber": "534",
        "addr:postcode": "560094",
        "addr:street": "5th Main",
        "amenity": "cafe",
        "cuisine": "dessert",
        "internet_access": "no",
        "name": "Ibaco",
        "opening_hours": "11:00 -23:00",
        "phone": "+91 9535710883",
        "smoking": "no"
      }
    },
    {
      "type": "node",
      "id": 3719529455,
      "lat": 13.0374079,
      "lon": 77.5654203,
      "tags": {
        "amenity": "restaurant",
        "cuisine": "indian",
        "name": "Akshaya Deluxe"
      }
    },
    {
      "type": "node",
      "id": 4446502570,
      "lat": 13.0325717,
      "lon": 77.5582602,
      "tags": {
        "addr:city": "bangalore",
        "addr:district": "Bengaluru Urban",
        "addr:postcode": "560054",
        "addr:state": "Karnataka",
        "addr:street": "#426/12, 2 Cross,Mathikere Layout,Behind Canara Bank",
        "amenity": "hospital",
        "name": "Sumathi Nursing and Maternity Home",
        "phone": "+9180 2337 2762"
      }
    },
    {
      "type": "node",
      "id": 4488026117,
      "lat": 13.0352764,
      "lon": 77.5536076,
      "tags": {
        "addr:city": "Bangalore",
        "addr:housenumber": "12",
        "addr:postcode": "560054",
        "addr:street": "SBM Colony, Tank Bund Road, Gokula Extension,",
        "name": "More For You",
        "phone": "(91)-9845794196",
        "shop": "supermarket",
        "website": "http://www.morestore.com/"
      }
    },
    {
      "type": "node",
      "id": 4488039310,
      "lat": 13.0435746,
      "lon": 77.5532589,
      "tags": {
        "addr:city": "Bangalore",
        "addr:housenumber": "901",
        "addr:postcode": "560054",
        "addr:street": "MES Ring Road, Muthyala Nagar,",
        "name": "New Kiran Super Bazar",
        "phone": "+91 9986875053",
        "shop": "supermarket",
        "website": "NA"
      }
    },
    {
      "type": "node",
      "id": 4488602509,
      "lat": 13.039288,
      "lon": 77.5537006,
      "tags": {
        "addr:city": "Bengaluru",
        "addr:housenumber": "10",
        "addr:postcode": "560054",
        "addr:street": "Muthyalamma Nagar 1st Main Road",
        "name": "I Mart",
        "phone": "(91)-80-39629225",
        "shop": "supermarket"
      }
    },
    {
      "type": "node",
      "id": 4603539289,
      "lat": 13.0374651,
      "lon": 77.5616603,
      "tags": {
        "amenity": "cafe",
        "name": "Down bekary",
        "name:en": "Down bekary"
      }
    },
    {
      "type": "node",
      "id": 6404125090,
      "lat": 13.0322915,
      "lon": 77.5587286,
      "tags": {
        "name": "Sri Gurudarshan Sweet's",
        "shop": "bakery"
      }
    },
    {
      "type": "node",
      "id": 6938860232,
      "lat": 13.0333056,
      "lon": 77.5558276,
      "tags": {
        "addr:district": "Bengaluru Urban",
        "addr:full": "818/819 16Th 'A' Main, 2nd Cross Gokul Extension, Mathikere",
        "addr:postcode": "560056",
        "addr:state": "Karnataka",
        "amenity": "clinic",
        "name": "Mathrushree Nethralaya",
        "name:kn": "ಮಾತೃಶ್ರೀ ನಿಲಯ",
        "source": "OpenGovernmentData"
      }
    },
    {
      "type": "node",
      "id": 6944226349,
      "lat": 13.0323629,
      "lon": 77.5592642,
      "tags": {
        "addr:district": "Bengaluru Urban",
        "addr:full": "#67, 9Th Main, Next To Dr.Shah`S Diagnostic Centre, Hmt Main Road, Mathikere",
        "addr:postcode": "560054",
        "addr:state": "Karnataka",
        "amenity": "clinic",
        "name": "Aradhana Netra Mandira",
        "source": "OpenGovernmentData"
      }
    },
    {
      "type": "node",
      "id": 6956662652,
      "lat": 13.0342927,
      "lon": 77.5599629,
      "tags": {
        "addr:district": "Vaishali",
        "addr:full": "1-555, 1st D Cross Rd, Gokula Extension, Mathikere Extension, Mathikere",
        "addr:postcode": "844101",
        "addr:state": "Bihar",
        "amenity": "clinic",
        "name": "Prasad Clinic, Vaishali",
        "source": "OpenGovernmentData"
      }
    },
    {
      "type": "node",
      "id": 7228148556,
      "lat": 13.032069,
      "lon": 77.5593775,
      "tags": {
        "amenity": "bank",
        "atm": "yes",
        "brand": "Karnataka Bank",
        "brand:wikidata": "Q2042632",
        "name": "Karnataka Bank",
        "name:kn": "ಕರ್ನಾಟಕ ಬ್ಯಾಂಕ್",
        "operator": "Karnataka Bank"
      }
    },
    {
      "type": "node",
      "id": 7228148557,
      "lat": 13.0334853,
      "lon": 77.5579613,
      "tags": {
        "name": "Boots",
        "shop": "shoes"
      }
    },
    {
      "type": "node",
      "id": 7228148558,
      "lat": 13.0336721,
      "lon": 77.5578305,
      "tags": {
        "amenity": "fast_food",
        "name": "Mirchi"
      }
    },
    {
      "type": "node",
      "id": 7228148570,
      "lat": 13.0347696,
      "lon": 77.5576937,
      "tags": {
        "amenity": "pharmacy",
        "name": "Sri Ganesh Medical"
      }
    },
    {
      "type": "node",
      "id": 7228148584,
      "lat": 13.0401787,
      "lon": 77.5574362,
      "tags": {
        "amenity": "fast_food",
        "cuisine": "juice",
        "name": "Lassi Shop"
      }
    },
    {
      "type": "node",
      "id": 7228151802,
      "lat": 13.0448155,
      "lon": 77.5569279,
      "tags": {
        "access": "yes",
        "amenity": "toilets"
      }
    },
    {
      "type": "node",
      "id": 8137530880,
      "lat": 13.04116,
      "lon": 77.5580795,
      "tags": {
        "amenity": "vending_machine",
        "name": "Water ATM",
        "operator": "BBMP",
        "vending": "water"
      }
    },
    {
      "type": "node",
      "id": 8137538969,
      "lat": 13.0419839,
      "lon": 77.5557271,
      "tags": {
        "amenity": "vending_machine",
        "name": "Water ATM",
        "operator": "BBMP",
        "vending": "water"
      }
    },
    {
      "type": "node",
      "id": 8151014160,
      "lat": 13.0316873,
      "lon": 77.5592885,
      "tags": {
        "name": "Fish stall",
        "shop": "butcher"
      }
    },
    {
      "type": "node",
      "id": 8151044496,
      "lat": 13.0321385,
      "lon": 77.5589552,
      "tags": {
        "description": "wholesale condiments",
        "name": "Sree Ayappa foods",
        "shop": "spices"
      }
    },
    {
      "type": "node",
      "id": 8187962142,
      "lat": 13.0384524,
      "lon": 77.5649122,
      "tags": {
        "addr:full": "28, New BEL Rd, AGS Layout, AGs Layout, R.M.V. 2nd Stage, Bengaluru, Karnataka",
        "addr:state": "Karnataka",
        "amenity": "bank",
        "name": "Bank of Baroda",
        "name:kn": "ಬ್ಯಾಂಕ್ ಆಫ್ ಬರೋಡ"
      }
    },
    {
      "type": "node",
      "id": 8188057146,
      "lat": 13.044658,
      "lon": 77.552906,
      "tags": {
        "addr:full": "7 main near hp gas agency bahubali nagar jalahalli, Bahubali Nagar, Jalahalli, Bengaluru, Karnataka",
        "addr:state": "Karnataka",
        "amenity": "restaurant",
        "name": "Dashami Fast Food"
      }
    },
    {
      "type": "node",
      "id": 8364333709,
      "lat": 13.0331581,
      "lon": 77.5547661,
      "tags": {
        "name": "A-1 chicken center",
        "shop": "butcher"
      }
    },
    {
      "type": "node",
      "id": 8364343833,
      "lat": 13.0343484,
      "lon": 77.5605187,
      "tags": {
        "amenity": "toilets",
        "fee": "yes",
        "name": "Pay and use public toilet"
      }
    },
    {
      "type": "node",
      "id": 8364344267,
      "lat": 13.0341676,
      "lon": 77.5578722,
      "tags": {
        "name": "Daily Fresh Fruits and vegetables",
        "shop": "greengrocer"
      }
    },
    {
      "type": "node",
      "id": 8364348296,
      "lat": 13.0332219,
      "lon": 77.5549236,
      "tags": {
        "amenity": "hospital",
        "name": "Sun Orthopaedic center"
      }
    },
    {
      "type": "node",
      "id": 8364351022,
      "lat": 13.0338742,
      "lon": 77.5539838,
      "tags": {
        "brand": "More",
        "brand:wikidata": "Q6910891",
        "name": "More",
        "shop": "supermarket"
      }
    },
    {
      "type": "node",
      "id": 8364361770,
      "lat": 13.0342979,
      "lon": 77.5606667,
      "tags": {
        "name": "Farheen chicken",
        "shop": "butcher"
      }
    },
    {
      "type": "node",
      "id": 8364361959,
      "lat": 13.0336742,
      "lon": 77.5540036,
      "tags": {
        "name": "New Varier cake time",
        "shop": "bakery"
      }
    },
    {
      "type": "node",
      "id": 8364362122,
      "lat": 13.0344221,
      "lon": 77.5573196,
      "tags": {
        "name": "Star Chicken Stall",
        "shop": "butcher"
      }
    },
    {
      "type": "node",
      "id": 8364366885,
      "lat": 13.03363,
      "lon": 77.5578782,
      "tags": {
        "brand": "Prestige",
        "shop": "appliance"
      }
    },
    {
      "type": "node",
      "id": 8364369224,
      "lat": 13.0336253,
      "lon": 77.557897,
      "tags": {
        "name": "The county meat",
        "shop": "butcher"
      }
    },
    {
      "type": "node",
      "id": 8364370218,
      "lat": 13.0334391,
      "lon": 77.5557171,
      "tags": {
        "name": "Nandi Automobiles",
        "shop": "car"
      }
    },
    {
      "type": "node",
      "id": 8364370519,
      "lat": 13.0344427,
      "lon": 77.5578665,
      "tags": {
        "amenity": "pharmacy",
        "name": "Ramdev Medical"
      }
    },
    {
      "type": "node",
      "id": 8364370641,
      "lat": 13.0333661,
      "lon": 77.5541308,
      "tags": {
        "name": "Food Supermarket",
        "shop": "supermarket"
      }
    },
    {
      "type": "node",
      "id": 8378278859,
      "lat": 13.0331302,
      "lon": 77.5603117,
      "tags": {
        "name": "Gangadhar Farms",
        "shop": "diary"
      }
    },
    {
      "type": "node",
      "id": 8427329628,
      "lat": 13.0352127,
      "lon": 77.5516758,
      "tags": {
        "amenity": "shelter"
      }
    },
    {
      "type": "node",
      "id": 8427345116,
      "lat": 13.035149,
      "lon": 77.551521,
      "tags": {
        "amenity": "bench"
      }
    },
    {
      "type": "node",
      "id": 8427345271,
      "lat": 13.0435248,
      "lon": 77.5520426,
      "tags": {
        "amenity": "dentist",
        "name": "Kushi Dental Clinic",
        "phone": "9886059236"
      }
    },
    {
      "type": "node",
      "id": 8427350030,
      "lat": 13.0360573,
      "lon": 77.5530606,
      "tags": {
        "leisure": "playground",
        "name": "Childrens play area"
      }
    },
    {
      "type": "node",
      "id": 8427351025,
      "lat": 13.0353351,
      "lon": 77.5522161,
      "tags": {
        "amenity": "bench"
      }
    },
    {
      "type": "node",
      "id": 8427352488,
      "lat": 13.0352837,
      "lon": 77.5520765,
      "tags": {
        "amenity": "bench"
      }
    },
    {
      "type": "node",
      "id": 8427355017,
      "lat": 13.0376774,
      "lon": 77.5535627,
      "tags": {
        "amenity": "pharmacy",
        "name": "Raghu Medicals"
      }
    },
    {
      "type": "node",
      "id": 8463192155,
      "lat": 13.0327048,
      "lon": 77.5549556,
      "tags": {
        "amenity": "place_of_worship",
        "religion": "hindu"
      }
    },
    {
      "type": "node",
      "id": 8463212018,
      "lat": 13.0345082,
      "lon": 77.5550823,
      "tags": {
        "amenity": "place_of_worship",
        "religion": "christian"
      }
    },
    {
      "type": "node",
      "id": 8534495400,
      "lat": 13.0326988,
      "lon": 77.5544078,
      "tags": {
        "brand": "Nandini",
        "name": "Nandini",
        "shop": "diary"
      }
    },
    {
      "type": "node",
      "id": 8544077292,
      "lat": 13.0376973,
      "lon": 77.5595009,
      "tags": {
        "amenity": "place_of_worship",
        "name": "Athumanesar church",
        "religion": "christian"
      }
    },
    {
      "type": "node",
      "id": 8544085414,
      "lat": 13.0409904,
      "lon": 77.5636179,
      "tags": {
        "amenity": "bank",
        "brand": "SBI"
      }
    },
    {
      "type": "node",
      "id": 8544086856,
      "lat": 13.0342713,
      "lon": 77.5574207,
      "tags": {
        "name": "Sri Ayappa Bakery anf Sweets",
        "shop": "bakery"
      }
    },
    {
      "type": "node",
      "id": 8873811558,
      "lat": 13.0351408,
      "lon": 77.5576786,
      "tags": {
        "amenity": "toilets",
        "name": "Sulabh Toilet and bath complex"
      }
    },
    {
      "type": "node",
      "id": 8873822225,
      "lat": 13.0336182,
      "lon": 77.5581913,
      "tags": {
        "description": "Also sells cooking gas",
        "name": "Sun Home Appliances",
        "shop": "appliance"
      }
    },
    {
      "type": "node",
      "id": 9909726555,
      "lat": 13.0333345,
      "lon": 77.5562606,
      "tags": {
        "addr:city": "Bengaluru",
        "addr:housenumber": "773",
        "addr:postcode": "560054",
        "addr:street": "15th B Main road",
        "amenity": "bank",
        "name": "The Mathikere Credit Co-operative Society Ltd."
      }
    },
    {
      "type": "node",
      "id": 9912846653,
      "lat": 13.0438016,
      "lon": 77.5542565,
      "tags": {
        "amenity": "toilets",
        "fee": "no",
        "operator": "BBMP"
      }
    },
    {
      "type": "node",
      "id": 10233456224,
      "lat": 13.0423383,
      "lon": 77.566604,
      "tags": {
        "name": "Heads Up for Tails",
        "shop": "pet"
      }
    },
    {
      "type": "node",
      "id": 10233456232,
      "lat": 13.0375552,
      "lon": 77.5665276,
      "tags": {
        "access": "yes",
        "amenity": "toilets",
        "fee": "yes",
        "operator": "BBMP"
      }
    },
    {
      "type": "node",
      "id": 10233456233,
      "lat": 13.0372716,
      "lon": 77.5659201,
      "tags": {
        "amenity": "pub",
        "microbrewery": "yes",
        "name": "La Casa Brew + Kitchen"
      }
    },
    {
      "type": "node",
      "id": 10242924682,
      "lat": 13.0390052,
      "lon": 77.5610671,
      "tags": {
        "amenity": "recycling",
        "name": "BBMP Dry Waste Collection Center",
        "name:kn": "ಒಣ ತ್ಯಾಜ್ಯ ನಿರ್ವಹಣೆಗೆ ಸ್ಥಳ",
        "recycling_type": "centre"
      }
    },
    {
      "type": "node",
      "id": 10242924687,
      "lat": 13.038,
      "lon": 77.562,
      "tags": {
        "amenity": "recycling",
        "recycling_type": "centre"
      }
    },
    {
      "type": "node",
      "id": 10600408936,
      "lat": 13.0368157,
      "lon": 77.5659898,
      "tags": {
        "addr:city": "Bangalore",
        "addr:country": "IN",
        "addr:hamlet": "RMV Extension 2nd Stage",
        "addr:housenumber": "472",
        "addr:postcode": "560054",
        "addr:street": "New BEL Road",
        "amenity": "restaurant",
        "cuisine": "american",
        "delivery": "yes",
        "level": "0",
        "name": "New BEL Road SOCIAL",
        "smoking": "separated",
        "takeaway": "yes"
      }
    },
    {
      "type": "node",
      "id": 10604644044,
      "lat": 13.0397397,
      "lon": 77.5640747,
      "tags": {
        "amenity": "fast_food",
        "cuisine": "regional",
        "name": "Indira Canteen",
        "operator": "BBMP"
      }
    },
    {
      "type": "node",
      "id": 11496155843,
      "lat": 13.034187,
      "lon": 77.55755,
      "tags": {
        "amenity": "atm",
        "brand": "IDFC First Bank",
        "brand:wikidata": "Q22031467",
        "check_date": "2024-01-07",
        "operator": "IDFC First Bank",
        "operator:wikidata": "Q22031467"
      }
    },
    {
      "type": "node",
      "id": 11496155844,
      "lat": 13.0341321,
      "lon": 77.5575695,
      "tags": {
        "amenity": "atm",
        "brand": "HDFC Bank",
        "brand:wikidata": "Q631047",
        "check_date": "2024-01-07",
        "operator": "HDFC Bank",
        "operator:wikidata": "Q631047",
        "short_name": "HDFC"
      }
    },
    {
      "type": "node",
      "id": 11496155845,
      "lat": 13.0343801,
      "lon": 77.5573308,
      "tags": {
        "check_date": "2024-01-07",
        "name": "A-One Mutton Stall",
        "shop": "butcher"
      }
    },
    {
      "type": "node",
      "id": 11496155846,
      "lat": 13.0344713,
      "lon": 77.5572896,
      "tags": {
        "check_date": "2024-01-07",
        "name": "Balaji Wines",
        "shop": "alcohol"
      }
    },
    {
      "type": "node",
      "id": 11496155847,
      "lat": 13.0355885,
      "lon": 77.5573862,
      "tags": {
        "amenity": "clinic",
        "check_date": "2024-01-07",
        "healthcare": "clinic",
        "name": "Sri Shakthi Clinic"
      }
    },
    {
      "type": "node",
      "id": 11496155848,
      "lat": 13.0402331,
      "lon": 77.55714,
      "tags": {
        "amenity": "post_office",
        "check_date": "2024-01-07",
        "name": "MS Ramaiah Post Office",
        "operator": "India Post",
        "operator:wikidata": "Q3519720"
      }
    },
    {
      "type": "node",
      "id": 12291501592,
      "lat": 13.0373232,
      "lon": 77.5655573,
      "tags": {
        "amenity": "cafe",
        "check_date": "2025-08-08",
        "name": "Thalassery Cafe"
      }
    },
    {
      "type": "node",
      "id": 12529183011,
      "lat": 13.0318548,
      "lon": 77.5594657,
      "tags": {
        "addr:city": "Bengaluru",
        "addr:district": "Bengaluru Urban",
        "addr:housenumber": "17",
        "addr:postcode": "560054",
        "addr:street": "HMT Main Road, Gokula 1st Stage, Mathikere Extension, Mathikere",
        "name": "Poorvika",
        "shop": "mobile_phone"
      }
    },
    {
      "type": "node",
      "id": 12676261394,
      "lat": 13.0329235,
      "lon": 77.558371,
      "tags": {
        "brand": "TVS",
        "brand:wikidata": "Q3300084",
        "check_date": "2025-03-18",
        "name": "TVS",
        "shop": "motorcycle"
      }
    },
    {
      "type": "node",
      "id": 12676261395,
      "lat": 13.0332305,
      "lon": 77.5581139,
      "tags": {
        "amenity": "restaurant",
        "brand": "Pizza Hut",
        "brand:wikidata": "Q191615",
        "check_date": "2025-03-18",
        "cuisine": "pizza",
        "name": "Pizza Hut"
      }
    },
    {
      "type": "node",
      "id": 12676261396,
      "lat": 13.0335698,
      "lon": 77.5582584,
      "tags": {
        "check_date": "2025-03-18",
        "name": "Life Line's Tender Chicken",
        "shop": "butcher"
      }
    },
    {
      "type": "node",
      "id": 12676261398,
      "lat": 13.0342387,
      "lon": 77.5577532,
      "tags": {
        "brand": "Nandini",
        "brand:wikidata": "Q124374212",
        "check_date": "2025-03-18",
        "name": "Nandini",
        "shop": "dairy"
      }
    },
    {
      "type": "node",
      "id": 12676261399,
      "lat": 13.0339182,
      "lon": 77.5577027,
      "tags": {
        "amenity": "fast_food",
        "check_date": "2025-03-18",
        "name": "Ambur Hot Dum Biryani"
      }
    },
    {
      "type": "node",
      "id": 12676265201,
      "lat": 13.0344587,
      "lon": 77.5576863,
      "tags": {
        "check_date": "2025-03-18",
        "name": "Mom and Me",
        "shop": "clothes"
      }
    },
    {
      "type": "node",
      "id": 12676265204,
      "lat": 13.0383044,
      "lon": 77.5572442,
      "tags": {
        "check_date": "2025-03-18",
        "name": "Vision Care Opticals",
        "shop": "optician"
      }
    },
    {
      "type": "node",
      "id": 12676265205,
      "lat": 13.0401523,
      "lon": 77.5571714,
      "tags": {
        "amenity": "post_box"
      }
    },
    {
      "type": "node",
      "id": 12676265206,
      "lat": 13.0421041,
      "lon": 77.5573027,
      "tags": {
        "check_date": "2025-03-18",
        "name": "Girias",
        "shop": "electronics"
      }
    },
    {
      "type": "node",
      "id": 12676265207,
      "lat": 13.0424609,
      "lon": 77.5572131,
      "tags": {
        "check_date": "2025-03-18",
        "name": "Car Care",
        "shop": "car_repair"
      }
    },
    {
      "type": "node",
      "id": 12676265223,
      "lat": 13.0406654,
      "lon": 77.5574556,
      "tags": {
        "check_date": "2025-03-18",
        "shop": "garden_centre"
      }
    },
    {
      "type": "node",
      "id": 12676265229,
      "lat": 13.031887,
      "lon": 77.5594936,
      "tags": {
        "check_date": "2025-03-18",
        "name": "GK Vale",
        "shop": "photo"
      }
    },
    {
      "type": "node",
      "id": 12688128796,
      "lat": 13.0372165,
      "lon": 77.5582771,
      "tags": {
        "amenity": "events_venue",
        "name": "KPTCL DEA Bhavana"
      }
    },
    {
      "type": "node",
      "id": 12862846447,
      "lat": 13.0369782,
      "lon": 77.5658376,
      "tags": {
        "amenity": "fast_food",
        "cuisine": "burger",
        "delivery": "yes",
        "name": "Boss Burger",
        "takeaway": "yes"
      }
    },
    {
      "type": "node",
      "id": 12862846478,
      "lat": 13.0387034,
      "lon": 77.5644089,
      "tags": {
        "amenity": "fast_food",
        "contact:instagram": "goodflippin",
        "cuisine": "burger",
        "delivery": "yes",
        "name": "Good Flippin' Burgers",
        "takeaway": "yes",
        "website": "https://goodflippin.com/"
      }
    },
    {
      "type": "node",
      "id": 13057916464,
      "lat": 13.0365781,
      "lon": 77.5659501,
      "tags": {
        "amenity": "bank",
        "brand": "HDFC Bank",
        "brand:wikidata": "Q631047",
        "check_date": "2025-08-08",
        "name": "HDFC Bank",
        "short_name": "HDFC"
      }
    },
    {
      "type": "node",
      "id": 13253782361,
      "lat": 13.0332125,
      "lon": 77.5575383,
      "tags": {
        "amenity": "kindergarten",
        "check_date": "2025-10-24",
        "name": "Srinidhi Vidyaniketan School"
      }
    },
    {
      "type": "way",
      "id": 37107047,
      "center": {
        "lat": 13.0348402,
        "lon": 77.5507145
      },
      "tags": {
        "leisure": "park",
        "name": "Jayaprakash Narayan Park",
        "name:etymology:wikidata": "Q734509",
        "name:kn": "ಜಯಪ್ರಕಾಶ ನಾರಾಯಣ ಉದ್ಯಾನ"
      }
    },
    {
      "type": "way",
      "id": 40584732,
      "center": {
        "lat": 13.0491555,
        "lon": 77.5567322
      },
      "tags": {
        "leisure": "pitch",
        "name": "BEL School Ground",
        "wheelchair": "no"
      }
    },
    {
      "type": "way",
      "id": 41212267,
      "center": {
        "lat": 13.0472016,
        "lon": 77.5561007
      },
      "tags": {
        "alt_name": "BEL Ayappa Park",
        "leisure": "park",
        "name": "General Iyappa Park",
        "name:etymology:wikidata": "Q4780908"
      }
    },
    {
      "type": "way",
      "id": 42407830,
      "center": {
        "lat": 13.0490487,
        "lon": 77.555062
      },
      "tags": {
        "amenity": "school",
        "name": "BEL High School",
        "name:etymology:wikidata": "Q3630918",
        "name:kn": "ಬೀ ಈ ಎಲ್ ಪ್ರೌಢಶಾಲೆ",
        "wheelchair": "no"
      }
    },
    {
      "type": "way",
      "id": 133020179,
      "center": {
        "lat": 13.0444977,
        "lon": 77.5545298
      },
      "tags": {
        "amenity": "school",
        "name": "BEL CBSE Vidyalaya",
        "wheelchair": "limited"
      }
    },
    {
      "type": "way",
      "id": 133020314,
      "center": {
        "lat": 13.0434541,
        "lon": 77.5510744
      },
      "tags": {
        "amenity": "school",
        "name": "ತಾಯಿ ತೆರೇಸಾ ಶಾಲೆ",
        "wheelchair": "no"
      }
    },
    {
      "type": "way",
      "id": 236577270,
      "center": {
        "lat": 13.0375171,
        "lon": 77.5522746
      },
      "tags": {
        "leisure": "swimming_pool",
        "sport": "swimming",
        "wheelchair": "limited"
      }
    },
    {
      "type": "way",
      "id": 287724333,
      "center": {
        "lat": 13.0328303,
        "lon": 77.5540115
      },
      "tags": {
        "amenity": "bus_station",
        "name": "Choudeshwari Bus Stand",
        "name:kn": "ಚೌಡೇಶ್ವರಿ ಬಸ್‌ ನಿಲ್ದಾಣ (ಮತ್ತಿಕೆರೆ)",
        "wheelchair": "no"
      }
    },
    {
      "type": "way",
      "id": 307145007,
      "center": {
        "lat": 13.034804,
        "lon": 77.5594879
      },
      "tags": {
        "addr:postcode": "560054",
        "addr:street": "1st D Cross, Mathikere",
        "amenity": "place_of_worship",
        "building": "yes",
        "name": "St. Joseph’s Malankara Syriac Catholic Church",
        "religion": "christian"
      }
    },
    {
      "type": "way",
      "id": 307146077,
      "center": {
        "lat": 13.0351357,
        "lon": 77.5570461
      },
      "tags": {
        "addr:city": "Mathikere",
        "addr:postcode": "560054",
        "addr:street": "MS Ramaiah Road",
        "amenity": "school",
        "name": "Iyer High School",
        "name:kn": "ಅಯ್ಯರ್ ಪ್ರೌಡಶಾಲೆ",
        "wheelchair": "limited"
      }
    },
    {
      "type": "way",
      "id": 312367174,
      "center": {
        "lat": 13.0317557,
        "lon": 77.559631
      },
      "tags": {
        "addr:city": "Mathikere",
        "addr:postcode": "560054",
        "addr:street": "MS Ramaiah Road",
        "amenity": "cafe",
        "brand": "Cafe Coffee Day",
        "brand:wikidata": "Q5017235",
        "building": "yes",
        "cuisine": "coffee_shop",
        "internet_access": "wlan",
        "name": "Cafe Coffee Day",
        "name:kn": "ಕಫೆ ಕಾಫಿ ಡೇ",
        "takeaway": "yes"
      }
    },
    {
      "type": "way",
      "id": 312368470,
      "center": {
        "lat": 13.0316113,
        "lon": 77.5593212
      },
      "tags": {
        "addr:city": "Mathikere",
        "addr:postcode": "560054",
        "addr:street": "MS Ramaiah Road",
        "amenity": "restaurant",
        "building": "yes",
        "cuisine": "regional",
        "name": "Kanthi Sweets",
        "shop": "confectionery"
      }
    },
    {
      "type": "way",
      "id": 323113360,
      "center": {
        "lat": 13.0363195,
        "lon": 77.5664043
      },
      "tags": {
        "amenity": "bus_station",
        "name": "Chikkamaranahalli",
        "name:kn": "ಚಿಕ್ಕಮಾರನಹಳ್ಳಿ ಬಸ್ ನಿಲ್ದಾನ"
      }
    },
    {
      "type": "way",
      "id": 325764244,
      "center": {
        "lat": 13.0415498,
        "lon": 77.5645143
      },
      "tags": {
        "leisure": "park",
        "name": "MLA Layout Park"
      }
    },
    {
      "type": "way",
      "id": 346459984,
      "center": {
        "lat": 13.0384448,
        "lon": 77.5524873
      },
      "tags": {
        "amenity": "cinema",
        "building": "yes",
        "name": "Swagath Murali Cinema"
      }
    },
    {
      "type": "way",
      "id": 346812356,
      "center": {
        "lat": 13.0340019,
        "lon": 77.5576024
      },
      "tags": {
        "amenity": "place_of_worship",
        "building": "yes",
        "religion": "hindu"
      }
    },
    {
      "type": "way",
      "id": 362949505,
      "center": {
        "lat": 13.0376027,
        "lon": 77.566628
      },
      "tags": {
        "leisure": "park"
      }
    },
    {
      "type": "way",
      "id": 363126115,
      "center": {
        "lat": 13.0437363,
        "lon": 77.5626393
      },
      "tags": {
        "alt_name": "Nalanda",
        "amenity": "college",
        "name": "BEL Academy for Excellence",
        "office": "educational_institution",
        "official_name": "Abhyudaya"
      }
    },
    {
      "type": "way",
      "id": 674362392,
      "center": {
        "lat": 13.0331759,
        "lon": 77.5531194
      },
      "tags": {
        "leisure": "pitch",
        "name": "JP Ground"
      }
    },
    {
      "type": "way",
      "id": 774708672,
      "center": {
        "lat": 13.0405827,
        "lon": 77.5569057
      },
      "tags": {
        "amenity": "place_of_worship",
        "name": "Venkateswara Temple",
        "name:kn": "ವೆಂಕಟೇಶ್ವರ ದೇವಸ್ಥಾನ",
        "religion": "hindu",
        "wheelchair": "no"
      }
    },
    {
      "type": "way",
      "id": 774708673,
      "center": {
        "lat": 13.0409309,
        "lon": 77.5563535
      },
      "tags": {
        "amenity": "community_centre"
      }
    },
    {
      "type": "way",
      "id": 774708680,
      "center": {
        "lat": 13.0477733,
        "lon": 77.5547259
      },
      "tags": {
        "leisure": "garden"
      }
    },
    {
      "type": "way",
      "id": 774708681,
      "center": {
        "lat": 13.0462568,
        "lon": 77.5557062
      },
      "tags": {
        "leisure": "garden"
      }
    },
    {
      "type": "way",
      "id": 874066501,
      "center": {
        "lat": 13.0410007,
        "lon": 77.5582603
      },
      "tags": {
        "leisure": "park",
        "name": "Sundaranagar Park",
        "name:kn": "ಸುಂದರನಗರ ಉದ್ಯಾನ",
        "operator": "ಬೃಹತ್ ಬೆಂಗಳೂರು ಮಹಾನಗರ ಪಾಲಿಕೆ",
        "operator:en": "Bruhat Bengaluru Mahanagara Palike",
        "operator:ka": "ಬೃಹತ್ ಬೆಂಗಳೂರು ಮಹಾನಗರ ಪಾಲಿಕೆ",
        "operator:short": "BBMP",
        "operator:type": "government",
        "operator:wikidata": "Q4978693"
      }
    },
    {
      "type": "way",
      "id": 1137660885,
      "center": {
        "lat": 13.0428452,
        "lon": 77.5672129
      },
      "tags": {
        "leisure": "park"
      }
    },
    {
      "type": "way",
      "id": 1137660892,
      "center": {
        "lat": 13.0436252,
        "lon": 77.5673537
      },
      "tags": {
        "amenity": "school"
      }
    },
    {
      "type": "way",
      "id": 1181411206,
      "center": {
        "lat": 13.048044,
        "lon": 77.5584693
      },
      "tags": {
        "access": "permissive",
        "amenity": "parking",
        "parking": "surface"
      }
    },
    {
      "type": "way",
      "id": 1232959596,
      "center": {
        "lat": 13.0487565,
        "lon": 77.5630087
      },
      "tags": {
        "leisure": "garden"
      }
    },
    {
      "type": "way",
      "id": 1248886179,
      "center": {
        "lat": 13.0438029,
        "lon": 77.566427
      },
      "tags": {
        "access": "private",
        "leisure": "swimming_pool"
      }
    },
    {
      "type": "way",
      "id": 1248886180,
      "center": {
        "lat": 13.0444978,
        "lon": 77.5656411
      },
      "tags": {
        "access": "private",
        "leisure": "swimming_pool"
      }
    },
    {
      "type": "way",
      "id": 1308403425,
      "center": {
        "lat": 13.0426534,
        "lon": 77.5567946
      },
      "tags": {
        "alt_name": "Sri Laxmi Petrol / Gas Station",
        "amenity": "fuel",
        "brand": "Bharat Petroleum",
        "brand:wikidata": "Q854826",
        "check_date": "2025-08-08",
        "name": "Bharat Petroleum",
        "name:kn": "ಭಾರತ್ ಪೆಟ್ರೋಲಿಯಂ",
        "operator": "Bharat Petroleum",
        "wheelchair": "limited"
      }
    },
    {
      "type": "way",
      "id": 1308403427,
      "center": {
        "lat": 13.0431085,
        "lon": 77.5567444
      },
      "tags": {
        "alt_name": "Mohan Gas Station",
        "amenity": "fuel",
        "brand": "Indian Oil",
        "brand:wikidata": "Q1289348",
        "brand:wikipedia": "en:Indian Oil Corporation",
        "check_date": "2025-08-08",
        "name": "Indian Oil",
        "operator": "Indian Oil",
        "wheelchair": "no"
      }
    },
    {
      "type": "way",
      "id": 1326435588,
      "center": {
        "lat": 13.038259,
        "lon": 77.5640449
      },
      "tags": {
        "leisure": "pitch",
        "sport": "soccer"
      }
    },
    {
      "type": "way",
      "id": 1328289204,
      "center": {
        "lat": 13.035552,
        "lon": 77.5637031
      },
      "tags": {
        "amenity": "school"
      }
    },
    {
      "type": "way",
      "id": 1328289307,
      "center": {
        "lat": 13.0382597,
        "lon": 77.5636536
      },
      "tags": {
        "leisure": "pitch"
      }
    },
    {
      "type": "way",
      "id": 1370050088,
      "center": {
        "lat": 13.0326879,
        "lon": 77.5585076
      },
      "tags": {
        "leisure": "garden"
      }
    },
    {
      "type": "way",
      "id": 1379629474,
      "center": {
        "lat": 13.0449016,
        "lon": 77.5608117
      },
      "tags": {
        "access": "permissive",
        "amenity": "parking",
        "parking": "surface"
      }
    },
    {
      "type": "way",
      "id": 1379629491,
      "center": {
        "lat": 13.0398671,
        "lon": 77.5641595
      },
      "tags": {
        "leisure": "park"
      }
    },
    {
      "type": "way",
      "id": 1419412632,
      "center": {
        "lat": 13.0382814,
        "lon": 77.5647074
      },
      "tags": {
        "amenity": "fuel",
        "check_date": "2025-08-08",
        "operator": "HP"
      }
    }
  ]
}