{
  "area_name": "Surabhi Layout",
  "osm_id": 10984582462,
  "osm_type": "node",
  "place_type": "neighbourhood",
  "amenity_count": 134,
  "amenities": [
    {
      "type": "node",
      "id": 1464782423,
      "lat": 13.0968515,
      "lon": 77.5964304,
      "tags": {
        "amenity": "cinema",
        "name": "Prakash Theatre"
      }
    },
    {
      "type": "node",
      "id": 1464782617,
      "lat": 13.0973922,
      "lon": 77.5964894,
      "tags": {
        "amenity": "hospital",
        "name": "Deeksha Orthopaedic Hospital"
      }
    },
    {
      "type": "node",
      "id": 1464783198,
      "lat": 13.0997316,
      "lon": 77.5980216,
      "tags": {
        "amenity": "hospital",
        "name": "Shushrusha Hospital"
      }
    },
    {
      "type": "node",
      "id": 1471795956,
      "lat": 13.0950433,
      "lon": 77.5942125,
      "tags": {
        "amenity": "fast_food",
        "name": "Idli Express"
      }
    },
    {
      "type": "node",
      "id": 2817011517,
      "lat": 13.0933876,
      "lon": 77.6007265,
      "tags": {
        "addr:city": "Bangalore",
        "addr:postcode": "560064",
        "addr:street": "Shivanahalli main road",
        "amenity": "restaurant",
        "capacity": "50",
        "cuisine": "regional",
        "name": "Ganesh Uphaar",
        "opening_hours": "9 to 10"
      }
    },
    {
      "type": "node",
      "id": 4294672489,
      "lat": 13.0987953,
      "lon": 77.596965,
      "tags": {
        "amenity": "fast_food",
        "name": "Skanda Sagar"
      }
    },
    {
      "type": "node",
      "id": 4490349010,
      "lat": 13.0902404,
      "lon": 77.6024288,
      "tags": {
        "addr:city": "Bengaluru, Karnataka",
        "addr:housenumber": "No:55,,",
        "addr:postcode": "560064",
        "addr:street": "Jakkur Main Road,, Shivanahalli,, Yelahanka,,",
        "name": "Multi Mart Super Market",
        "phone": "(91)-8105063226",
        "shop": "supermarket"
      }
    },
    {
      "type": "node",
      "id": 4691599025,
      "lat": 13.1004091,
      "lon": 77.5991386,
      "tags": {
        "amenity": "place_of_worship",
        "religion": "hindu"
      }
    },
    {
      "type": "node",
      "id": 4719664188,
      "lat": 13.0998575,
      "lon": 77.5976396,
      "tags": {
        "addr:city": "Bangalore",
        "addr:housenumber": "366/4",
        "addr:postcode": "560064",
        "addr:street": "Bhagyada Bagilu Road",
        "amenity": "fast_food",
        "brand": "Papa John's",
        "brand:wikidata": "Q2759586",
        "cuisine": "pizza",
        "delivery": "yes",
        "name": "Papa John's",
        "name:kn": "ಪಪ ಜಾನ್ಸ್",
        "opening_hours": "11:00 - 23:00",
        "phone": "08197906655",
        "takeaway": "yes",
        "website": "https://www.papajohnspizza.in"
      }
    },
    {
      "type": "node",
      "id": 4829285321,
      "lat": 13.0973713,
      "lon": 77.5980105,
      "tags": {
        "amenity": "bicycle_parking",
        "operator": "home Honey ksa"
      }
    },
    {
      "type": "node",
      "id": 5964485847,
      "lat": 13.0938786,
      "lon": 77.594727,
      "tags": {
        "addr:postcode": "560064",
        "addr:street": "Bhagyada Bagilu Road",
        "brand": "Spar",
        "brand:wikidata": "Q610492",
        "name": "Spar",
        "organic": "yes",
        "shop": "supermarket",
        "website": "https://www.sparindia.com/",
        "wheelchair": "yes"
      }
    },
    {
      "type": "node",
      "id": 5964485853,
      "lat": 13.096768,
      "lon": 77.5924243,
      "tags": {
        "name": "Sleepwell Shoppe",
        "shop": "bed"
      }
    },
    {
      "type": "node",
      "id": 5983326231,
      "lat": 13.094978,
      "lon": 77.5972765,
      "tags": {
        "amenity": "cafe",
        "brand": "Cafe Coffee Day",
        "brand:wikidata": "Q5017235",
        "cuisine": "coffee_shop",
        "name": "Cafe Coffee Day",
        "name:kn": "ಕಫೆ ಕಾಫಿ ಡೇ",
        "takeaway": "yes"
      }
    },
    {
      "type": "node",
      "id": 6938777940,
      "lat": 13.0945892,
      "lon": 77.594104,
      "tags": {
        "addr:district": "Bengaluru Urban",
        "addr:full": "No 150/3 Jnrt Mansion B.B. Road",
        "addr:postcode": "560064",
        "addr:state": "Karnataka",
        "amenity": "hospital",
        "check_date": "2024-09-27",
        "name": "North City CT Scan",
        "source": "OpenGovernmentData"
      }
    },
    {
      "type": "node",
      "id": 6939017804,
      "lat": 13.1001759,
      "lon": 77.5956731,
      "tags": {
        "addr:district": "Bengaluru Urban",
        "addr:full": "Hospital Road, Yelahanka",
        "addr:postcode": "560064",
        "addr:state": "Karnataka",
        "amenity": "clinic",
        "name": "Saraswathi Poly Clinic",
        "source": "OpenGovernmentData"
      }
    },
    {
      "type": "node",
      "id": 6992361985,
      "lat": 13.0941517,
      "lon": 77.5954046,
      "tags": {
        "air_conditioning": "yes",
        "amenity": "cinema",
        "brand": "INOX Leisure",
        "brand:wikidata": "Q5972349",
        "name": "INOX",
        "short_name": "INOX",
        "toilets:access": "customers",
        "toilets:wheelchair": "designated",
        "website": "https://www.inoxmovies.com",
        "wheelchair": "no"
      }
    },
    {
      "type": "node",
      "id": 7228221939,
      "lat": 13.0951352,
      "lon": 77.5956765,
      "tags": {
        "access": "permissive",
        "amenity": "parking"
      }
    },
    {
      "type": "node",
      "id": 7228221942,
      "lat": 13.094328,
      "lon": 77.5945392,
      "tags": {
        "access": "permissive",
        "amenity": "parking"
      }
    },
    {
      "type": "node",
      "id": 7228221958,
      "lat": 13.0940615,
      "lon": 77.5959621,
      "tags": {
        "access": "permissive",
        "amenity": "parking"
      }
    },
    {
      "type": "node",
      "id": 7579683180,
      "lat": 13.0979448,
      "lon": 77.5960808,
      "tags": {
        "addr:district": "Bengaluru Urban",
        "addr:full": "Gandhi Nagar, Yelahanka, Bengaluru",
        "addr:postcode": "560064",
        "addr:state": "Karnataka",
        "amenity": "clinic",
        "name": "Malavya Nursing Home",
        "source": "Local Knowledge"
      }
    },
    {
      "type": "node",
      "id": 7579683182,
      "lat": 13.0973532,
      "lon": 77.5967518,
      "tags": {
        "addr:district": "Bengaluru Urban",
        "addr:full": "KHB Colony, Gandhinagar, Yelahanka, Bengaluru",
        "addr:postcode": "560064",
        "addr:state": "Karnataka",
        "amenity": "dentist",
        "name": "Patel Dental - Orthodontic & Dental Implant Centre",
        "source": "Local Knowledge"
      }
    },
    {
      "type": "node",
      "id": 7579683189,
      "lat": 13.0978476,
      "lon": 77.5968473,
      "tags": {
        "addr:district": "Bengaluru Urban",
        "addr:full": "Yelahanka, Bengaluru",
        "addr:postcode": "560064",
        "addr:state": "Karnataka",
        "amenity": "clinic",
        "name": "Krishna Nethralaya",
        "source": "Local Knowledge"
      }
    },
    {
      "type": "node",
      "id": 7579683195,
      "lat": 13.1005709,
      "lon": 77.5951888,
      "tags": {
        "addr:district": "Bengaluru Urban",
        "addr:full": "Railway Station Road, Gandhi Nagar, Yelahanka, Bengaluru",
        "addr:postcode": "560064",
        "addr:state": "Karnataka",
        "amenity": "clinic",
        "name": "Janani Maternity & Women's Clinic",
        "source": "Local Knowledge"
      }
    },
    {
      "type": "node",
      "id": 7579683196,
      "lat": 13.0972366,
      "lon": 77.5972516,
      "tags": {
        "addr:district": "Bengaluru Urban",
        "addr:full": "Gandhi Nagar, Yelahanka, Bengaluru",
        "addr:postcode": "560064",
        "addr:state": "Karnataka",
        "amenity": "clinic",
        "name": "Sri Krishna Scanning and Diagnostic Centre",
        "source": "Local Knowledge"
      }
    },
    {
      "type": "node",
      "id": 7579683208,
      "lat": 13.0974609,
      "lon": 77.5959547,
      "tags": {
        "addr:district": "Bengaluru Urban",
        "addr:full": "Near Prakash Theatre, Yelahanka, Bengaluru",
        "addr:postcode": "560064",
        "addr:state": "Karnataka",
        "amenity": "clinic",
        "name": "Balaji Multispeciality Dental Clinic",
        "source": "Local Knowledge"
      }
    },
    {
      "type": "node",
      "id": 7579683210,
      "lat": 13.097498,
      "lon": 77.5944292,
      "tags": {
        "addr:district": "Bengaluru Urban",
        "addr:full": "Suggappa Layout, Yelahanka, Bengaluru",
        "addr:postcode": "560064",
        "addr:state": "Karnataka",
        "amenity": "dentist",
        "name": "Dental Clinic",
        "source": "Local Knowledge"
      }
    },
    {
      "type": "node",
      "id": 7579683219,
      "lat": 13.101335,
      "lon": 77.59858,
      "tags": {
        "addr:district": "Bengaluru Urban",
        "addr:full": "BB Road, Yelahanka, Bengaluru",
        "addr:postcode": "560064",
        "addr:state": "Karnataka",
        "amenity": "hospital",
        "name": "Apurva Hospital",
        "source": "Local Knowledge"
      }
    },
    {
      "type": "node",
      "id": 7579683232,
      "lat": 13.098909,
      "lon": 77.596219,
      "tags": {
        "addr:district": "Bengaluru Urban",
        "addr:full": "Gandhi Nagar, Yelahanka, Bengaluru",
        "addr:postcode": "560064",
        "addr:state": "Karnataka",
        "amenity": "hospital",
        "name": "Jayalakshmi Hospital",
        "source": "Local Knowledge"
      }
    },
    {
      "type": "node",
      "id": 7579683237,
      "lat": 13.10051,
      "lon": 77.595603,
      "tags": {
        "addr:district": "Bengaluru Urban",
        "addr:full": "Gandhi Nagar, Yelahanka, Bengaluru",
        "addr:postcode": "560064",
        "addr:state": "Karnataka",
        "amenity": "hospital",
        "name": "NDR Orthopaedic",
        "source": "Local Knowledge"
      }
    },
    {
      "type": "node",
      "id": 7579683244,
      "lat": 13.0984621,
      "lon": 77.5966397,
      "tags": {
        "addr:district": "Bengaluru Urban",
        "addr:full": "B B Road, Near Post Office, Yelahanka, Bengaluru",
        "addr:postcode": "560064",
        "addr:state": "Karnataka",
        "amenity": "dentist",
        "name": "Sowmya Dental Clinic",
        "source": "Local Knowledge"
      }
    },
    {
      "type": "node",
      "id": 7579683248,
      "lat": 13.0973071,
      "lon": 77.5965859,
      "tags": {
        "addr:district": "Bengaluru Urban",
        "addr:full": "Yelahanka, Bengaluru",
        "addr:postcode": "560064",
        "addr:state": "Karnataka",
        "amenity": "clinic",
        "name": "Unnathi Clinic",
        "source": "Local Knowledge"
      }
    },
    {
      "type": "node",
      "id": 7579683251,
      "lat": 13.0981485,
      "lon": 77.596139,
      "tags": {
        "addr:district": "Bengaluru Urban",
        "addr:full": "Gandhi Nagar, Yelahanka, Bengaluru",
        "addr:postcode": "560064",
        "addr:state": "Karnataka",
        "amenity": "hospital",
        "name": "Pavan Hospitals",
        "source": "Local Knowledge"
      }
    },
    {
      "type": "node",
      "id": 7579683256,
      "lat": 13.0997798,
      "lon": 77.5955704,
      "tags": {
        "addr:district": "Bengaluru Urban",
        "addr:full": "2nd B Cross Road, Gandhi Nagar, Yelahanka, Bengaluru",
        "addr:postcode": "560064",
        "addr:state": "Karnataka",
        "amenity": "doctors",
        "healthcare": "doctor",
        "name": "Dr. Biswas Ji",
        "source": "Local Knowledge"
      }
    },
    {
      "type": "node",
      "id": 10302703774,
      "lat": 13.0943149,
      "lon": 77.5950327,
      "tags": {
        "amenity": "fast_food",
        "brand": "Popeyes",
        "brand:wikidata": "Q1330910",
        "brand:wikipedia": "en:Popeyes",
        "cuisine": "chicken",
        "delivery": "yes",
        "indoor_seating": "yes",
        "name": "Popeyes",
        "official_name": "Popeyes Louisiana Kitchen",
        "takeaway": "yes",
        "website": "https://www.popeyes.in/"
      }
    },
    {
      "type": "node",
      "id": 10600476805,
      "lat": 13.0945187,
      "lon": 77.5949442,
      "tags": {
        "addr:city": "Bangalore",
        "addr:country": "IN",
        "addr:housename": "The Galleria Mall",
        "addr:postcode": "560064",
        "addr:street": "Yelahanka Road",
        "addr:suburb": "Yelahanka",
        "amenity": "restaurant",
        "contact:facebook": "nasiandmee",
        "contact:instagram": "nasiandmee",
        "cuisine": "asian",
        "delivery": "yes",
        "level": "3",
        "name": "Nasi and Mee",
        "official_name": "Nasi and Mee Asian Canteen",
        "takeaway": "yes",
        "website": "https://www.nasiandmee.co.in/",
        "wheelchair": "yes"
      }
    },
    {
      "type": "node",
      "id": 10685071182,
      "lat": 13.0945273,
      "lon": 77.5953799,
      "tags": {
        "name": "Plum Goodness",
        "shop": "beauty",
        "website": "https://plumgoodness.com/",
        "wheelchair": "yes"
      }
    },
    {
      "type": "node",
      "id": 11054110922,
      "lat": 13.0927841,
      "lon": 77.593926,
      "tags": {
        "contact:website": "https://www.westside.com/",
        "name": "Westside",
        "shop": "clothes",
        "wheelchair": "yes"
      }
    },
    {
      "type": "node",
      "id": 11054110923,
      "lat": 13.0928279,
      "lon": 77.59389,
      "tags": {
        "name": "HomeTown",
        "shop": "furniture"
      }
    },
    {
      "type": "node",
      "id": 11054110924,
      "lat": 13.0931578,
      "lon": 77.5939788,
      "tags": {
        "brand": "Urban Ladder",
        "brand:wikidata": "Q18357397",
        "name": "Urban Ladder",
        "shop": "furniture"
      }
    },
    {
      "type": "node",
      "id": 11054110925,
      "lat": 13.0933683,
      "lon": 77.5939798,
      "tags": {
        "name": "Pai furniture",
        "shop": "furniture"
      }
    },
    {
      "type": "node",
      "id": 11054110926,
      "lat": 13.093505,
      "lon": 77.5940134,
      "tags": {
        "name": "Pai International",
        "shop": "electronics",
        "website": "https://www.paiinternational.in/",
        "wheelchair": "no"
      }
    },
    {
      "type": "node",
      "id": 11817854343,
      "lat": 13.0872716,
      "lon": 77.5973622,
      "tags": {
        "amenity": "shelter",
        "shelter_type": "gazebo"
      }
    },
    {
      "type": "node",
      "id": 11817854344,
      "lat": 13.0878372,
      "lon": 77.5974601,
      "tags": {
        "amenity": "shelter",
        "shelter_type": "gazebo"
      }
    },
    {
      "type": "node",
      "id": 11818724845,
      "lat": 13.0950544,
      "lon": 77.5972876,
      "tags": {
        "alt_name": "Stanley",
        "name": "Sofas & More",
        "shop": "furniture"
      }
    },
    {
      "type": "node",
      "id": 11932202839,
      "lat": 13.0954483,
      "lon": 77.5942633,
      "tags": {
        "amenity": "place_of_worship",
        "check_date": "2024-05-25",
        "religion": "hindu"
      }
    },
    {
      "type": "node",
      "id": 11932800644,
      "lat": 13.0979126,
      "lon": 77.5966615,
      "tags": {
        "access": "yes",
        "amenity": "toilets",
        "check_date": "2024-05-25"
      }
    },
    {
      "type": "node",
      "id": 11932800645,
      "lat": 13.0979598,
      "lon": 77.5967141,
      "tags": {
        "amenity": "place_of_worship",
        "check_date": "2024-05-25",
        "religion": "hindu"
      }
    },
    {
      "type": "node",
      "id": 11932800646,
      "lat": 13.0978763,
      "lon": 77.5967358,
      "tags": {
        "amenity": "post_office",
        "check_date": "2024-12-28",
        "internet_access": "no",
        "name": "Yelahanka Post Office",
        "operator": "India Post",
        "polling_station": "no",
        "source": "local knowledge;survey",
        "wheelchair": "yes"
      }
    },
    {
      "type": "node",
      "id": 11932804271,
      "lat": 13.0980767,
      "lon": 77.5964701,
      "tags": {
        "check_date": "2024-05-25",
        "name": "specsmakers",
        "shop": "optician"
      }
    },
    {
      "type": "node",
      "id": 11932804272,
      "lat": 13.0980347,
      "lon": 77.5964552,
      "tags": {
        "check_date": "2024-05-25",
        "name": "Sangeetha",
        "name:kn": "ಸಂಗೀತ",
        "shop": "mobile_phone"
      }
    },
    {
      "type": "node",
      "id": 11932804273,
      "lat": 13.0978667,
      "lon": 77.5963115,
      "tags": {
        "amenity": "bank",
        "brand": "Union Bank of India",
        "brand:wikidata": "Q2004078",
        "check_date": "2024-05-25",
        "name": "Union Bank of India"
      }
    },
    {
      "type": "node",
      "id": 11932804274,
      "lat": 13.0982708,
      "lon": 77.5966166,
      "tags": {
        "amenity": "fast_food",
        "check_date": "2024-05-25",
        "name": "Biryani Paradise"
      }
    },
    {
      "type": "node",
      "id": 12049247036,
      "lat": 13.0996273,
      "lon": 77.597945,
      "tags": {
        "amenity": "pharmacy",
        "name": "Apollo Pharmacy"
      }
    },
    {
      "type": "node",
      "id": 12056743550,
      "lat": 13.0988482,
      "lon": 77.5978974,
      "tags": {
        "amenity": "hospital",
        "name": "Ashwini Hospital"
      }
    },
    {
      "type": "node",
      "id": 12225535068,
      "lat": 13.1016527,
      "lon": 77.5995324,
      "tags": {
        "name": "Silicon Motors",
        "shop": "motorcycle_repair"
      }
    },
    {
      "type": "node",
      "id": 12225535069,
      "lat": 13.1014613,
      "lon": 77.5994503,
      "tags": {
        "name": "Anil Car Seat Covers",
        "shop": "yes"
      }
    },
    {
      "type": "node",
      "id": 12225535071,
      "lat": 13.1006249,
      "lon": 77.5992486,
      "tags": {
        "name": "Sri Balaji Motors",
        "shop": "yes"
      }
    },
    {
      "type": "node",
      "id": 12225535072,
      "lat": 13.1005622,
      "lon": 77.5992483,
      "tags": {
        "name": "R.K. Radiator Works",
        "shop": "yes"
      }
    },
    {
      "type": "node",
      "id": 12225535073,
      "lat": 13.100598,
      "lon": 77.5992483,
      "tags": {
        "name": "MH Car Decor",
        "shop": "yes"
      }
    },
    {
      "type": "node",
      "id": 12225535074,
      "lat": 13.1003583,
      "lon": 77.5992328,
      "tags": {
        "name": "H.K.G.N Car Accessories",
        "shop": "car_parts"
      }
    },
    {
      "type": "node",
      "id": 12225535075,
      "lat": 13.1000242,
      "lon": 77.5990852,
      "tags": {
        "name": "Continental",
        "shop": "tyres"
      }
    },
    {
      "type": "node",
      "id": 12225535076,
      "lat": 13.0995488,
      "lon": 77.5990454,
      "tags": {
        "amenity": "fast_food",
        "cuisine": "biriyani"
      }
    },
    {
      "type": "node",
      "id": 12225535077,
      "lat": 13.099055,
      "lon": 77.5988263,
      "tags": {
        "name": "S.A Puncture Shop",
        "shop": "tyres"
      }
    },
    {
      "type": "node",
      "id": 12225535078,
      "lat": 13.0989976,
      "lon": 77.5988086,
      "tags": {
        "amenity": "restaurant",
        "diet:non-vegetarian": "yes",
        "name": "Supreme Gardenia"
      }
    },
    {
      "type": "node",
      "id": 12225535080,
      "lat": 13.0985198,
      "lon": 77.598651,
      "tags": {
        "name": "Ustav Mart",
        "shop": "yes"
      }
    },
    {
      "type": "node",
      "id": 12225535081,
      "lat": 13.0975143,
      "lon": 77.5982808,
      "tags": {
        "name": "Skyway",
        "shop": "car_parts"
      }
    },
    {
      "type": "node",
      "id": 12225535082,
      "lat": 13.0967796,
      "lon": 77.597972,
      "tags": {
        "name": "Restolex",
        "shop": "bed"
      }
    },
    {
      "type": "node",
      "id": 12225535083,
      "lat": 13.0966734,
      "lon": 77.5979322,
      "tags": {
        "name": "duroflex",
        "shop": "bed"
      }
    },
    {
      "type": "node",
      "id": 12225535084,
      "lat": 13.0957413,
      "lon": 77.5973869,
      "tags": {
        "name": "Wakefit",
        "shop": "furniture"
      }
    },
    {
      "type": "node",
      "id": 12225535085,
      "lat": 13.0950203,
      "lon": 77.5972867,
      "tags": {
        "check_date": "2025-09-19",
        "name": "Mahindra",
        "shop": "car"
      }
    },
    {
      "type": "node",
      "id": 12225535086,
      "lat": 13.0952106,
      "lon": 77.5972931,
      "tags": {
        "name": "Kurl-on",
        "shop": "bed"
      }
    },
    {
      "type": "node",
      "id": 12225535087,
      "lat": 13.0952262,
      "lon": 77.5972543,
      "tags": {
        "name": "Navrathnan's Antique Art",
        "shop": "furniture"
      }
    },
    {
      "type": "node",
      "id": 12768263589,
      "lat": 13.0998839,
      "lon": 77.5962201,
      "tags": {
        "brand": "Nandini",
        "brand:wikidata": "Q124374212",
        "name": "Nandini",
        "shop": "dairy"
      }
    },
    {
      "type": "node",
      "id": 12768263590,
      "lat": 13.0998479,
      "lon": 77.5962035,
      "tags": {
        "amenity": "pharmacy",
        "brand": "Pradhan Mantri Bharatiya Janaushadhi Pariyojana Kendra",
        "brand:wikidata": "Q39058281",
        "healthcare": "pharmacy",
        "name": "Jan Aushadhi",
        "official_name": "Pradhan Mantri Bharatiya Janaushadhi Pariyojana Kendra"
      }
    },
    {
      "type": "node",
      "id": 12809397081,
      "lat": 13.0943593,
      "lon": 77.5953948,
      "tags": {
        "addr:city": "Bengaluru",
        "addr:floor": "3",
        "amenity": "bar",
        "name": "Jollygunj",
        "toilets": "yes"
      }
    },
    {
      "type": "node",
      "id": 13013588710,
      "lat": 13.0927605,
      "lon": 77.5937399,
      "tags": {
        "amenity": "restaurant",
        "name": "Dolphins Bar and Kitchen 1977"
      }
    },
    {
      "type": "way",
      "id": 41206188,
      "center": {
        "lat": 13.09101,
        "lon": 77.5874633
      },
      "tags": {
        "fishing": "permit",
        "leisure": "park",
        "name": "Allalasandra Lake",
        "natural": "water",
        "water": "lake"
      }
    },
    {
      "type": "way",
      "id": 42655444,
      "center": {
        "lat": 13.0942029,
        "lon": 77.5951482
      },
      "tags": {
        "landuse": "retail",
        "name": "The Galleria Mall",
        "opening_hours": "Mo-Fr 11:00-22:00; Sa,Su 10:00-22:00",
        "shop": "mall",
        "wheelchair": "yes"
      }
    },
    {
      "type": "way",
      "id": 82494614,
      "center": {
        "lat": 13.0963852,
        "lon": 77.5911416
      },
      "tags": {
        "amenity": "school",
        "name": "Poornaprajna High School",
        "name:kn": "ಪೂರ್ಣಪ್ರಜ್ಞ ಪ್ರೌಡಶಾಲೆ"
      }
    },
    {
      "type": "way",
      "id": 133125754,
      "center": {
        "lat": 13.0971325,
        "lon": 77.5934644
      },
      "tags": {
        "amenity": "college",
        "landuse": "education",
        "name": "Government School",
        "name:kn": "ಸರ್ಕಾರಿ ಶಾಲೆ"
      }
    },
    {
      "type": "way",
      "id": 133125764,
      "center": {
        "lat": 13.096833,
        "lon": 77.5944513
      },
      "tags": {
        "amenity": "college",
        "landuse": "education",
        "name": "Government PU College",
        "name:kn": "ಸರ್ಕಾರಿ ಕಾಲೆಜು"
      }
    },
    {
      "type": "way",
      "id": 176068556,
      "center": {
        "lat": 13.084355,
        "lon": 77.6012808
      },
      "tags": {
        "access": "private",
        "leisure": "pitch",
        "sport": "tennis"
      }
    },
    {
      "type": "way",
      "id": 176068557,
      "center": {
        "lat": 13.0852933,
        "lon": 77.6015135
      },
      "tags": {
        "access": "private",
        "leisure": "park"
      }
    },
    {
      "type": "way",
      "id": 176068561,
      "center": {
        "lat": 13.0852358,
        "lon": 77.6016748
      },
      "tags": {
        "access": "private",
        "covered": "no",
        "leisure": "swimming_pool",
        "sport": "swimming"
      }
    },
    {
      "type": "way",
      "id": 176068563,
      "center": {
        "lat": 13.0852026,
        "lon": 77.6018488
      },
      "tags": {
        "leisure": "recreation_ground",
        "name": "Club House & Gym"
      }
    },
    {
      "type": "way",
      "id": 277172530,
      "center": {
        "lat": 13.0929157,
        "lon": 77.6012726
      },
      "tags": {
        "addr:city": "Bangalore",
        "addr:postcode": "560064",
        "addr:street": "Shivanahalli main road",
        "amenity": "place_of_worship",
        "name": "Good Shepherd Church",
        "religion": "christian"
      }
    },
    {
      "type": "way",
      "id": 344724254,
      "center": {
        "lat": 13.0913242,
        "lon": 77.6053346
      },
      "tags": {
        "leisure": "swimming_pool"
      }
    },
    {
      "type": "way",
      "id": 368126724,
      "center": {
        "lat": 13.087543,
        "lon": 77.5971936
      },
      "tags": {
        "addr:city": "Bangalore Urban",
        "addr:postcode": "560064",
        "amenity": "school",
        "name": "Vidya Shilp Academy"
      }
    },
    {
      "type": "way",
      "id": 487591672,
      "center": {
        "lat": 13.0995716,
        "lon": 77.5962927
      },
      "tags": {
        "addr:district": "Bangalore",
        "addr:full": "Bagaluru Cross, Yelahanka, Armed Police Training School",
        "addr:postcode": "560063",
        "addr:state": "Karnataka",
        "addr:subdistrict": "Bangalore North",
        "amenity": "hospital",
        "healthcare": "hospital",
        "name": "Yelahanka Government Hospital",
        "name:kn": "ಯಲಹಂಕ ಸರ್ಕಾರಿ ಆಸ್ಪತ್ರೆ",
        "source": "OpenGovernmentData"
      }
    },
    {
      "type": "way",
      "id": 726488902,
      "center": {
        "lat": 13.0990575,
        "lon": 77.5970061
      },
      "tags": {
        "addr:city": "Bangalore",
        "addr:postcode": "560064",
        "addr:street": "Hospital Rd, Gandhi Nagar, Yelahanka",
        "amenity": "place_of_worship",
        "building": "yes",
        "name": "Shri Veeranjaneya Swamy Temple",
        "religion": "hindu"
      }
    },
    {
      "type": "way",
      "id": 726497370,
      "center": {
        "lat": 13.0991845,
        "lon": 77.5968656
      },
      "tags": {
        "amenity": "hospital",
        "healthcare": "hospital",
        "name": "Government Hospital",
        "name:kn": "ಸರ್ಕಾರಿ ಆಸ್ಪತ್ರೆ"
      }
    },
    {
      "type": "way",
      "id": 726506664,
      "center": {
        "lat": 13.0982401,
        "lon": 77.5970471
      },
      "tags": {
        "addr:district": "Bengaluru Urban",
        "addr:full": "387/347, Next To Post Office, B.B.Road Nehru Nagar, Yehlanka Old Town",
        "addr:postcode": "560064",
        "addr:state": "Karnataka",
        "amenity": "hospital",
        "healthcare": "hospital",
        "name": "Deeksha Hospital",
        "name:kn": "ದೀಕ್ಷ ಆಸ್ಪತ್ರೆ",
        "source": "OpenGovernmentData"
      }
    },
    {
      "type": "way",
      "id": 736945762,
      "center": {
        "lat": 13.0860157,
        "lon": 77.6011067
      },
      "tags": {
        "access": "private",
        "leisure": "swimming_pool"
      }
    },
    {
      "type": "way",
      "id": 774716165,
      "center": {
        "lat": 13.0945363,
        "lon": 77.5958351
      },
      "tags": {
        "leisure": "pitch",
        "sport": "basketball"
      }
    },
    {
      "type": "way",
      "id": 774716166,
      "center": {
        "lat": 13.0936935,
        "lon": 77.5950196
      },
      "tags": {
        "leisure": "garden"
      }
    },
    {
      "type": "way",
      "id": 774716167,
      "center": {
        "lat": 13.0932807,
        "lon": 77.5957476
      },
      "tags": {
        "access": "private",
        "leisure": "swimming_pool"
      }
    },
    {
      "type": "way",
      "id": 774716169,
      "center": {
        "lat": 13.0943371,
        "lon": 77.5958748
      },
      "tags": {
        "leisure": "pitch",
        "sport": "tennis"
      }
    },
    {
      "type": "way",
      "id": 774716173,
      "center": {
        "lat": 13.095358,
        "lon": 77.5938103
      },
      "tags": {
        "amenity": "police",
        "check_date": "2024-07-16",
        "name": "Yelahanka Police Station",
        "name:kn": "ಯಲಹಂಕ ಆರಕ್ಷಕ ಠಾಣೆ"
      }
    },
    {
      "type": "way",
      "id": 774716193,
      "center": {
        "lat": 13.0912753,
        "lon": 77.5935109
      },
      "tags": {
        "brand": "Suzuki",
        "landuse": "commercial",
        "name": "Nexa",
        "shop": "car"
      }
    },
    {
      "type": "way",
      "id": 1079068567,
      "center": {
        "lat": 13.0946774,
        "lon": 77.5911028
      },
      "tags": {
        "access": "private",
        "leisure": "pitch",
        "sport": "basketball"
      }
    },
    {
      "type": "way",
      "id": 1079068583,
      "center": {
        "lat": 13.094775,
        "lon": 77.5904173
      },
      "tags": {
        "amenity": "college",
        "name": "Agragami College of Aeronautical Engineering"
      }
    },
    {
      "type": "way",
      "id": 1079068584,
      "center": {
        "lat": 13.0947143,
        "lon": 77.5911186
      },
      "tags": {
        "amenity": "school",
        "check_date": "2024-07-16",
        "name": "Chrysalis High School"
      }
    },
    {
      "type": "way",
      "id": 1079068585,
      "center": {
        "lat": 13.0957382,
        "lon": 77.590225
      },
      "tags": {
        "amenity": "college",
        "name": "East West College of Engineering"
      }
    },
    {
      "type": "way",
      "id": 1082671466,
      "center": {
        "lat": 13.0874259,
        "lon": 77.5982352
      },
      "tags": {
        "access": "private",
        "leisure": "swimming_pool"
      }
    },
    {
      "type": "way",
      "id": 1084735123,
      "center": {
        "lat": 13.0873487,
        "lon": 77.6024074
      },
      "tags": {
        "amenity": "school",
        "name": "Indira Gandhi International Academy",
        "name:etymology:wikidata": "Q1149"
      }
    },
    {
      "type": "way",
      "id": 1110808778,
      "center": {
        "lat": 13.0949654,
        "lon": 77.5986449
      },
      "tags": {
        "amenity": "hospital",
        "name": "Sparsh Hospital"
      }
    },
    {
      "type": "way",
      "id": 1182951658,
      "center": {
        "lat": 13.0954307,
        "lon": 77.6014694
      },
      "tags": {
        "access": "permissive",
        "leisure": "swimming_pool"
      }
    },
    {
      "type": "way",
      "id": 1182951659,
      "center": {
        "lat": 13.0954732,
        "lon": 77.6013032
      },
      "tags": {
        "access": "permissive",
        "leisure": "swimming_pool"
      }
    },
    {
      "type": "way",
      "id": 1182951662,
      "center": {
        "lat": 13.0951072,
        "lon": 77.6012683
      },
      "tags": {
        "leisure": "park"
      }
    },
    {
      "type": "way",
      "id": 1182951665,
      "center": {
        "lat": 13.0950094,
        "lon": 77.601241
      },
      "tags": {
        "amenity": "shelter",
        "shelter_type": "gazebo"
      }
    },
    {
      "type": "way",
      "id": 1182951666,
      "center": {
        "lat": 13.095028,
        "lon": 77.6015503
      },
      "tags": {
        "leisure": "pitch",
        "sport": "basketball"
      }
    },
    {
      "type": "way",
      "id": 1182951667,
      "center": {
        "lat": 13.095085,
        "lon": 77.6017107
      },
      "tags": {
        "leisure": "pitch",
        "sport": "tennis"
      }
    },
    {
      "type": "way",
      "id": 1182951693,
      "center": {
        "lat": 13.09442,
        "lon": 77.6087187
      },
      "tags": {
        "leisure": "pitch",
        "sport": "basketball"
      }
    },
    {
      "type": "way",
      "id": 1186494030,
      "center": {
        "lat": 13.0908619,
        "lon": 77.5873938
      },
      "tags": {
        "leisure": "park"
      }
    },
    {
      "type": "way",
      "id": 1188428144,
      "center": {
        "lat": 13.0860544,
        "lon": 77.5993477
      },
      "tags": {
        "access": "private",
        "leisure": "park"
      }
    },
    {
      "type": "way",
      "id": 1208006648,
      "center": {
        "lat": 13.0859115,
        "lon": 77.6002552
      },
      "tags": {
        "access": "private",
        "leisure": "park"
      }
    },
    {
      "type": "way",
      "id": 1272659068,
      "center": {
        "lat": 13.0978156,
        "lon": 77.5983365
      },
      "tags": {
        "amenity": "fuel",
        "brand": "Bharat Petroleum",
        "brand:wikidata": "Q854826",
        "check_date": "2023-11-12",
        "compressed_air": "yes",
        "name": "Bharat Petroleum",
        "name:kn": "ಭಾರತ್ ಪೆಟ್ರೋಲಿಯಂ"
      }
    },
    {
      "type": "way",
      "id": 1272659087,
      "center": {
        "lat": 13.0898032,
        "lon": 77.5972221
      },
      "tags": {
        "amenity": "events_venue",
        "landuse": "commercial",
        "name": "Madhura Milana Convention Centre"
      }
    },
    {
      "type": "way",
      "id": 1272659089,
      "center": {
        "lat": 13.0873513,
        "lon": 77.5977404
      },
      "tags": {
        "leisure": "pitch",
        "sport": "basketball"
      }
    },
    {
      "type": "way",
      "id": 1272659090,
      "center": {
        "lat": 13.0876381,
        "lon": 77.5977867
      },
      "tags": {
        "leisure": "pitch",
        "sport": "basketball"
      }
    },
    {
      "type": "way",
      "id": 1272686282,
      "center": {
        "lat": 13.1012771,
        "lon": 77.6006245
      },
      "tags": {
        "amenity": "events_venue",
        "landuse": "commercial",
        "name": "NVM Kalyana Mantapa"
      }
    },
    {
      "type": "way",
      "id": 1272689206,
      "center": {
        "lat": 13.092155,
        "lon": 77.5944272
      },
      "tags": {
        "amenity": "fuel",
        "brand": "Hindustan Petroleum",
        "brand:wikidata": "Q1619375",
        "landuse": "commercial",
        "name": "HP",
        "name:kn": "ಹಿಂದುಸ್ತಾನ್ ಪೆಟ್ರೋಲಿಯಂ",
        "official_name": "Hindustan Petroleum"
      }
    },
    {
      "type": "way",
      "id": 1272734832,
      "center": {
        "lat": 13.0970962,
        "lon": 77.5962139
      },
      "tags": {
        "amenity": "fuel",
        "compressed_air": "yes",
        "name": "Nayara"
      }
    },
    {
      "type": "way",
      "id": 1272767334,
      "center": {
        "lat": 13.0989253,
        "lon": 77.5997601
      },
      "tags": {
        "brand": "Kia",
        "brand:wikidata": "Q35349",
        "check_date": "2025-09-19",
        "landuse": "commercial",
        "name": "Kia",
        "operator": "Epitome Kia",
        "shop": "car"
      }
    },
    {
      "type": "way",
      "id": 1303487956,
      "center": {
        "lat": 13.0887527,
        "lon": 77.6005272
      },
      "tags": {
        "access": "private",
        "leisure": "swimming_pool"
      }
    },
    {
      "type": "way",
      "id": 1319582402,
      "center": {
        "lat": 13.0984457,
        "lon": 77.5998611
      },
      "tags": {
        "amenity": "place_of_worship",
        "building": "yes",
        "religion": "hindu"
      }
    },
    {
      "type": "way",
      "id": 1324600251,
      "center": {
        "lat": 13.0949288,
        "lon": 77.5914881
      },
      "tags": {
        "access": "private",
        "leisure": "swimming_pool",
        "swimming_pool": "swimming"
      }
    },
    {
      "type": "way",
      "id": 1378947158,
      "center": {
        "lat": 13.0894661,
        "lon": 77.6028702
      },
      "tags": {
        "leisure": "park"
      }
    },
    {
      "type": "way",
      "id": 1383194013,
      "center": {
        "lat": 13.0979334,
        "lon": 77.5930771
      },
      "tags": {
        "leisure": "garden"
      }
    },
    {
      "type": "way",
      "id": 1392693060,
      "center": {
        "lat": 13.0880815,
        "lon": 77.5979483
      },
      "tags": {
        "access": "private",
        "amenity": "parking",
        "parking": "surface"
      }
    },
    {
      "type": "way",
      "id": 1455433870,
      "center": {
        "lat": 13.0963095,
        "lon": 77.6003683
      },
      "tags": {
        "amenity": "fuel",
        "brand": "Indian Oil",
        "brand:wikidata": "Q1289348",
        "name": "Indian Oil"
      }
    },
    {
      "type": "way",
      "id": 1455433871,
      "center": {
        "lat": 13.0968866,
        "lon": 77.5990637
      },
      "tags": {
        "amenity": "fuel"
      }
    },
    {
      "type": "way",
      "id": 1455433873,
      "center": {
        "lat": 13.0973219,
        "lon": 77.5998862
      },
      "tags": {
        "amenity": "marketplace",
        "landuse": "retail",
        "name": "Yelahanka Sante",
        "name:kn": "ಯಲಹಂಕ ಸಂತೆ"
      }
    },
    {
      "type": "way",
      "id": 1455433882,
      "center": {
        "lat": 13.086194,
        "lon": 77.6031263
      },
      "tags": {
        "leisure": "park"
      }
    }
  ]
}