{
  "area_name": "Syndicate Bank Layout",
  "osm_id": 10272690518,
  "osm_type": "node",
  "place_type": "neighbourhood",
  "amenity_count": 23,
  "amenities": [
    {
      "type": "node",
      "id": 1784416557,
      "lat": 13.0051094,
      "lon": 77.4904955,
      "tags": {
        "amenity": "Automation",
        "name": "Rexroth Bosch"
      }
    },
    {
      "type": "node",
      "id": 4446730454,
      "lat": 12.9886463,
      "lon": 77.4880192,
      "tags": {
        "addr:city": "bangalore",
        "addr:housenumber": "87",
        "addr:postcode": "560075,",
        "addr:street": "BEML Main Rd, GM Palya, C V Raman Nagar",
        "amenity": "pharmacy",
        "name": "Sri Lakshmi Venkateshwara Medicals",
        "phone": "+919986468151"
      }
    },
    {
      "type": "node",
      "id": 6807562095,
      "lat": 13.0005435,
      "lon": 77.4842781,
      "tags": {
        "amenity": "fast_food",
        "name": "Just Cake"
      }
    },
    {
      "type": "node",
      "id": 11043864435,
      "lat": 12.9996279,
      "lon": 77.488847,
      "tags": {
        "addr:city": "Bengaluru",
        "addr:district": "Bengaluru",
        "addr:housenumber": "603/604",
        "addr:postcode": "560091",
        "addr:street": "D Group Employee Layout, Andrahalli Main Road",
        "amenity": "cafe",
        "cuisine": "tea_shop;coffee_shop;pizza;burger;sandwich;veg_rolls",
        "internet_access": "wlan",
        "internet_access:fee": "yes",
        "name": "Tea Time",
        "opening_hours": "Mo-Su 06:30-21:30",
        "phone": "7483700788",
        "website": "https://bellurescafe.com/"
      }
    },
    {
      "type": "way",
      "id": 349699408,
      "center": {
        "lat": 13.0029446,
        "lon": 77.4854948
      },
      "tags": {
        "amenity": "shelter",
        "shelter_type": "gazebo"
      }
    },
    {
      "type": "way",
      "id": 349699409,
      "center": {
        "lat": 13.0024085,
        "lon": 77.4853267
      },
      "tags": {
        "amenity": "shelter",
        "shelter_type": "gazebo"
      }
    },
    {
      "type": "way",
      "id": 349699410,
      "center": {
        "lat": 13.0023416,
        "lon": 77.4856115
      },
      "tags": {
        "amenity": "shelter",
        "shelter_type": "gazebo"
      }
    },
    {
      "type": "way",
      "id": 350790280,
      "center": {
        "lat": 13.0037077,
        "lon": 77.4836002
      },
      "tags": {
        "access": "permissive",
        "amenity": "parking",
        "name": "ABBS Parking",
        "parking": "surface"
      }
    },
    {
      "type": "way",
      "id": 351086394,
      "center": {
        "lat": 12.9901327,
        "lon": 77.4853073
      },
      "tags": {
        "amenity": "community_centre",
        "building": "yes",
        "name": "Heritage Convention Center"
      }
    },
    {
      "type": "way",
      "id": 363065446,
      "center": {
        "lat": 12.9950183,
        "lon": 77.4878637
      },
      "tags": {
        "leisure": "park",
        "name": "BBMP PARK",
        "name:kn": "ಬೃ. ಬೆ. ಮ. ಪಾ. ಉದ್ಯಾನವನ"
      }
    },
    {
      "type": "way",
      "id": 363065468,
      "center": {
        "lat": 12.9963038,
        "lon": 77.4879337
      },
      "tags": {
        "leisure": "park"
      }
    },
    {
      "type": "way",
      "id": 363065482,
      "center": {
        "lat": 12.9969187,
        "lon": 77.4864089
      },
      "tags": {
        "leisure": "park",
        "name": "BBMP Park",
        "name:kn": "ಬೃ. ಬೆ. ಮ. ಪಾ. ಉದ್ಯಾನವನ"
      }
    },
    {
      "type": "way",
      "id": 400541947,
      "center": {
        "lat": 13.0028203,
        "lon": 77.4840436
      },
      "tags": {
        "leisure": "park",
        "name": "BBMP Park",
        "name:kn": "ಬೃ. ಬೆ. ಮ. ಪಾ. ಉದ್ಯಾನವನ"
      }
    },
    {
      "type": "way",
      "id": 1123272060,
      "center": {
        "lat": 13.0025637,
        "lon": 77.4854323
      },
      "tags": {
        "leisure": "park"
      }
    },
    {
      "type": "way",
      "id": 1123272061,
      "center": {
        "lat": 13.0034333,
        "lon": 77.4842662
      },
      "tags": {
        "amenity": "college",
        "name": "Acharya Bangalore Business School",
        "short_name": "ABBS"
      }
    },
    {
      "type": "way",
      "id": 1343674337,
      "center": {
        "lat": 13.0026578,
        "lon": 77.4826087
      },
      "tags": {
        "leisure": "park"
      }
    },
    {
      "type": "way",
      "id": 1343674339,
      "center": {
        "lat": 12.9948226,
        "lon": 77.4785934
      },
      "tags": {
        "amenity": "school"
      }
    },
    {
      "type": "way",
      "id": 1343674345,
      "center": {
        "lat": 12.995579,
        "lon": 77.4845155
      },
      "tags": {
        "access": "private",
        "leisure": "swimming_pool"
      }
    },
    {
      "type": "way",
      "id": 1353417453,
      "center": {
        "lat": 12.9990957,
        "lon": 77.4842139
      },
      "tags": {
        "amenity": "place_of_worship",
        "landuse": "religious",
        "name": "Shri Veerabhadreshwara Temple",
        "religion": "hindu"
      }
    },
    {
      "type": "way",
      "id": 1353417454,
      "center": {
        "lat": 12.9962703,
        "lon": 77.4847123
      },
      "tags": {
        "access": "private",
        "amenity": "parking",
        "parking": "surface"
      }
    },
    {
      "type": "way",
      "id": 1353417456,
      "center": {
        "lat": 12.9958281,
        "lon": 77.4844097
      },
      "tags": {
        "access": "private",
        "amenity": "parking",
        "parking": "surface"
      }
    },
    {
      "type": "way",
      "id": 1353417458,
      "center": {
        "lat": 12.9966833,
        "lon": 77.4846132
      },
      "tags": {
        "access": "private",
        "amenity": "parking",
        "parking": "surface"
      }
    },
    {
      "type": "way",
      "id": 1353417459,
      "center": {
        "lat": 12.997103,
        "lon": 77.4847154
      },
      "tags": {
        "leisure": "park"
      }
    }
  ]
}