{
  "area_name": "Thalaghattapura",
  "osm_id": 1877836586,
  "osm_type": "node",
  "place_type": "neighbourhood",
  "amenity_count": 66,
  "amenities": [
    {
      "type": "node",
      "id": 4457764089,
      "lat": 12.8689461,
      "lon": 77.5362854,
      "tags": {
        "addr:street": "Kanakapura Road",
        "amenity": "police",
        "name": "Thalaghattapura Police Station",
        "name:en": "Thalaghattapura Police Station",
        "name:kn": "ತಲಘಟ್ಟಪುರ ಆರಕ್ಷಕ ಠಾಣೆ",
        "survey:date": "2023-09-09"
      }
    },
    {
      "type": "node",
      "id": 6434133481,
      "lat": 12.86255,
      "lon": 77.5315127,
      "tags": {
        "shop": "yes"
      }
    },
    {
      "type": "node",
      "id": 9178327801,
      "lat": 12.8679234,
      "lon": 77.5430553,
      "tags": {
        "amenity": "pub",
        "name": "BLR Brewing Company"
      }
    },
    {
      "type": "node",
      "id": 10797148835,
      "lat": 12.8742316,
      "lon": 77.5423765,
      "tags": {
        "description": "Puncture & other tyre related services",
        "name": "M.M Tyres",
        "shop": "tyres"
      }
    },
    {
      "type": "node",
      "id": 10801954701,
      "lat": 12.8736686,
      "lon": 77.5426663,
      "tags": {
        "amenity": "drinking_water",
        "name": "Pure Drinking Water Plant"
      }
    },
    {
      "type": "node",
      "id": 10801962481,
      "lat": 12.8743401,
      "lon": 77.5417687,
      "tags": {
        "addr:street": "Holiday Village Resort Road, Mallasandra, Bangalore",
        "amenity": "pharmacy",
        "healthcare": "pharmacy",
        "name": "Mahadev Medicals",
        "name:ta": "மஹாதேவ் மருந்தகம்"
      }
    },
    {
      "type": "node",
      "id": 10801985095,
      "lat": 12.8708103,
      "lon": 77.5426386,
      "tags": {
        "addr:city": "Bangalore",
        "addr:postcode": "560062",
        "addr:street": "Kumarans School Holiday Village Road",
        "amenity": "school",
        "name": "Chethana Public School",
        "name:ta": "சேத்தனா பப்ளிக் பள்ளி"
      }
    },
    {
      "type": "node",
      "id": 10858011185,
      "lat": 12.8696102,
      "lon": 77.5432087,
      "tags": {
        "addr:city": "Mallasandra",
        "addr:district": "Bengaluru",
        "addr:postcode": "560062",
        "addr:street": "Holiday Village Road",
        "amenity": "pharmacy",
        "contact:phone": "+918884447299",
        "drive_through": "no",
        "healthcare": "pharmacy",
        "name": "Life Care Medicals - 34",
        "opening_hours": "Mo-Su 06:00-23:45",
        "payment:cards": "yes",
        "payment:cash": "yes",
        "payment:qr_code": "yes"
      }
    },
    {
      "type": "node",
      "id": 11178309121,
      "lat": 12.8657795,
      "lon": 77.5392947,
      "tags": {
        "amenity": "bank",
        "brand": "ICICI Bank",
        "brand:wikidata": "Q1653258",
        "check_date": "2023-09-09",
        "name": "ICICI Bank",
        "short_name": "ICICI"
      }
    },
    {
      "type": "node",
      "id": 11881184341,
      "lat": 12.871686,
      "lon": 77.5425249,
      "tags": {
        "addr:street": "Holiday Village Resort Road, Off. Kanakapura Road, Bengaluru - 62",
        "description": "Car Wash, Ceramic Coating, Teflon Coating, PPF, Car Wax, Graphene Coating",
        "name": "GE Vehicle Care",
        "phone": "+919513909301",
        "shop": "car"
      }
    },
    {
      "type": "node",
      "id": 11881272850,
      "lat": 12.871679,
      "lon": 77.5426749,
      "tags": {
        "addr:street": "Holiday Village Resort Road, Off Kanakapura Road, Mallasandra, Bengaluru - 62",
        "amenity": "pharmacy",
        "brand": "Apollo Pharmacy",
        "brand:wikidata": "Q62562612",
        "healthcare": "pharmacy",
        "name": "Apollo Pharmacy",
        "payment:cards": "yes",
        "payment:cash": "yes",
        "payment:qr_code": "yes",
        "website": "https://www.apollopharmacy.in/"
      }
    },
    {
      "type": "node",
      "id": 12009649930,
      "lat": 12.8695549,
      "lon": 77.5432284,
      "tags": {
        "addr:street": "Holiday Village Resort Road, Off Kanakapura Road, Mallasandra, Bengaluru",
        "amenity": "dentist",
        "description": "Dr Tharani",
        "healthcare": "dentist",
        "name": "Spring Dental Care",
        "panoramax": "91e96232-bcac-4f07-9ccb-6ea899972d24",
        "panoramax:0": "121ad2c6-9703-47b1-894d-738e27eaa14b",
        "phone": "7892140084"
      }
    },
    {
      "type": "node",
      "id": 12009675987,
      "lat": 12.8695131,
      "lon": 77.5432472,
      "tags": {
        "addr:street": "Holiday Village Resort Road, Off Kanakapura Road, Mallasandra",
        "name": "Bakers Delicious",
        "shop": "bakery"
      }
    },
    {
      "type": "node",
      "id": 12179793280,
      "lat": 12.8694764,
      "lon": 77.5432603,
      "tags": {
        "addr:city": "Bangalore",
        "addr:postcode": "560062",
        "addr:street": "Holiday Village Road",
        "name": "Nandhini Dairy Store",
        "shop": "dairy"
      }
    },
    {
      "type": "node",
      "id": 12488316263,
      "lat": 12.8755618,
      "lon": 77.532839,
      "tags": {
        "amenity": "cafe",
        "name": "Hug in a Mug"
      }
    },
    {
      "type": "node",
      "id": 12508633358,
      "lat": 12.8759706,
      "lon": 77.5296955,
      "tags": {
        "amenity": "restaurant",
        "name": "The Big Barn"
      }
    },
    {
      "type": "node",
      "id": 12508633689,
      "lat": 12.8748842,
      "lon": 77.5381578,
      "tags": {
        "brand": "Nandini",
        "brand:wikidata": "Q124374212",
        "name": "Nandini",
        "shop": "dairy"
      }
    },
    {
      "type": "node",
      "id": 12508633834,
      "lat": 12.8732754,
      "lon": 77.5313343,
      "tags": {
        "amenity": "place_of_worship",
        "religion": "hindu"
      }
    },
    {
      "type": "node",
      "id": 12669463724,
      "lat": 12.8742656,
      "lon": 77.540834,
      "tags": {
        "addr:street": "Kanakapura Road, Vajarahalli",
        "amenity": "restaurant",
        "name": "Rajathagiri Palace",
        "panoramax": "aa3b1bad-a633-481d-ba60-5d45875b12a1",
        "panoramax:0": "1b46c2d8-5ae3-43b0-93db-126cfd26a248"
      }
    },
    {
      "type": "node",
      "id": 12751715330,
      "lat": 12.8657435,
      "lon": 77.5395313,
      "tags": {
        "amenity": "bank",
        "atm": "yes",
        "branch": "Judicial Layout",
        "brand": "HDFC Bank",
        "brand:wikidata": "Q631047",
        "name": "HDFC Bank",
        "short_name": "HDFC"
      }
    },
    {
      "type": "node",
      "id": 12752691013,
      "lat": 12.8745875,
      "lon": 77.5414755,
      "tags": {
        "amenity": "atm",
        "brand": "Karur Vysya Bank",
        "brand:wikidata": "Q6373724",
        "operator": "Karur Vysya Bank",
        "operator:wikidata": "Q6373724"
      }
    },
    {
      "type": "node",
      "id": 12827978980,
      "lat": 12.8745652,
      "lon": 77.5394104,
      "tags": {
        "amenity": "clinic",
        "name": "Apollo Clinic"
      }
    },
    {
      "type": "node",
      "id": 12958693853,
      "lat": 12.8637062,
      "lon": 77.5301347,
      "tags": {
        "addr:floor": "G",
        "amenity": "community_centre",
        "check_date": "2025-06-28",
        "community_centre": "cultural_centre",
        "internet_access": "no",
        "level": "0",
        "name": "Dhaatu Puppet Gallery",
        "name:en": "Dhaatu Puppet Gallery",
        "name:kn": "ಧಾತು ಪಪ್ಪೆಟ್ ಗ್ಯಾಲರಿ",
        "operator:type": "private",
        "website": "https://www.dhaatupuppets.org",
        "wheelchair": "no"
      }
    },
    {
      "type": "node",
      "id": 12958693854,
      "lat": 12.8636877,
      "lon": 77.53029,
      "tags": {
        "addr:floor": "G",
        "amenity": "community_centre",
        "check_date": "2025-06-28",
        "community_centre": "cultural_centre",
        "level": "0",
        "name": "VasantaVana",
        "name:kn": "ವಸಂತವನ"
      }
    },
    {
      "type": "node",
      "id": 13142030402,
      "lat": 12.8751982,
      "lon": 77.5428077,
      "tags": {
        "addr:housenumber": "86/2",
        "addr:postcode": "560109",
        "addr:street": "Kanakapura Road",
        "amenity": "cafe",
        "name": "Marroni Bistro"
      }
    },
    {
      "type": "node",
      "id": 13242265801,
      "lat": 12.8665965,
      "lon": 77.5348406,
      "tags": {
        "addr:district": "Bengaluru",
        "addr:postcode": "560109",
        "addr:street": "Kanakapura Road",
        "amenity": "restaurant",
        "cuisine": "indian;regional;sandwich;coffee_shop;chinese;noodle;breakfast;pasta;tea;soup;pastry",
        "diet:vegetarian": "yes",
        "name": "Nammura Hotel"
      }
    },
    {
      "type": "node",
      "id": 13285278052,
      "lat": 12.8695058,
      "lon": 77.5434425,
      "tags": {
        "addr:housenumber": "1211, 03",
        "addr:street": "Holiday Village Road, Opp. Mahindra Eden‌,  Vajarahalli‌, Bengaluru - 560062",
        "amenity": "car_wash",
        "description": "Car wash, detailing services & cloth laundry services done here.",
        "name": "Shine Care - Car Wash & Cloth Laundry",
        "phone": "+919591716001",
        "website": "https://www.shinecare.net"
      }
    },
    {
      "type": "node",
      "id": 13285388550,
      "lat": 12.8695026,
      "lon": 77.5433905,
      "tags": {
        "addr:street": "Holiday Village Road, opp. to Mahindra Eden, Mallasandra, Bengaluru - 560062",
        "name": "New Coffee Katte",
        "shop": "coffee"
      }
    },
    {
      "type": "way",
      "id": 188431711,
      "center": {
        "lat": 12.8627048,
        "lon": 77.5312787
      },
      "tags": {
        "addr:street": "Kanakapura Road",
        "amenity": "fuel",
        "brand": "Shell",
        "brand:wikidata": "Q110716465",
        "compressed_air": "yes",
        "fuel:diesel": "yes",
        "fuel:octane_91": "yes",
        "fuel:octane_98": "yes",
        "full_service": "yes",
        "name": "Shell",
        "name:kn": "ಶೆಲ್",
        "opening_hours": "00:00-23:59; 24/7",
        "operator": "Shell Petrolium",
        "payment:cash": "yes",
        "payment:maestro": "yes",
        "payment:mastercard": "yes",
        "payment:visa": "yes",
        "self_service": "no"
      }
    },
    {
      "type": "way",
      "id": 188431718,
      "center": {
        "lat": 12.8718136,
        "lon": 77.5404217
      },
      "tags": {
        "landuse": "commercial",
        "name": "Nandi Toyota",
        "name:kn": "ನಂದಿ ಟೊಯೋಟ",
        "shop": "car"
      }
    },
    {
      "type": "way",
      "id": 188431720,
      "center": {
        "lat": 12.8664621,
        "lon": 77.5339062
      },
      "tags": {
        "amenity": "school",
        "name": "Jnana Sweekar Public School"
      }
    },
    {
      "type": "way",
      "id": 188431721,
      "center": {
        "lat": 12.8641083,
        "lon": 77.5385117
      },
      "tags": {
        "access": "private",
        "leisure": "park"
      }
    },
    {
      "type": "way",
      "id": 188431722,
      "center": {
        "lat": 12.8667602,
        "lon": 77.5343667
      },
      "tags": {
        "access": "private",
        "leisure": "swimming_pool",
        "sport": "swimming"
      }
    },
    {
      "type": "way",
      "id": 188431724,
      "center": {
        "lat": 12.8663283,
        "lon": 77.533856
      },
      "tags": {
        "access": "private",
        "leisure": "park"
      }
    },
    {
      "type": "way",
      "id": 469366289,
      "center": {
        "lat": 12.8702211,
        "lon": 77.5426611
      },
      "tags": {
        "addr:city": "Bangalore",
        "addr:housenumber": "Temple",
        "addr:postcode": "560062",
        "addr:street": "Kumarans School Holiday Village Road",
        "amenity": "place_of_worship",
        "building": "yes",
        "denomination": "orthodox",
        "name": "Sri Kalyana Venkateshwara Temple",
        "name:ta": "வெங்கடேஸ்வரா கோவில்",
        "religion": "hindu"
      }
    },
    {
      "type": "way",
      "id": 686453684,
      "center": {
        "lat": 12.8668985,
        "lon": 77.5338288
      },
      "tags": {
        "leisure": "pitch",
        "sport": "tennis",
        "surface": "artificial_turf"
      }
    },
    {
      "type": "way",
      "id": 686453686,
      "center": {
        "lat": 12.8620122,
        "lon": 77.5313659
      },
      "tags": {
        "addr:city": "Bengaluru",
        "addr:postcode": "560062",
        "addr:street": "Kanakapura Road",
        "amenity": "school",
        "name": "Deeksha PU College",
        "name:kn": "ದೀಕ್ಷ ಪದವಿ ಪೂರ್ವ ಕಾಲೇಜು"
      }
    },
    {
      "type": "way",
      "id": 930952644,
      "center": {
        "lat": 12.869015,
        "lon": 77.5380399
      },
      "tags": {
        "addr:city": "Bengaluru",
        "addr:postcode": "560109",
        "addr:street": "KEB Road",
        "amenity": "post_office",
        "building": "yes",
        "name": "Thalaghattapura Sub Post Office"
      }
    },
    {
      "type": "way",
      "id": 1118946146,
      "center": {
        "lat": 12.8614334,
        "lon": 77.5349352
      },
      "tags": {
        "leisure": "park"
      }
    },
    {
      "type": "way",
      "id": 1189542642,
      "center": {
        "lat": 12.8774721,
        "lon": 77.5407549
      },
      "tags": {
        "leisure": "park"
      }
    },
    {
      "type": "way",
      "id": 1237972001,
      "center": {
        "lat": 12.8654129,
        "lon": 77.5332959
      },
      "tags": {
        "amenity": "fuel"
      }
    },
    {
      "type": "way",
      "id": 1243963340,
      "center": {
        "lat": 12.8629956,
        "lon": 77.5373216
      },
      "tags": {
        "leisure": "pitch",
        "sport": "basketball"
      }
    },
    {
      "type": "way",
      "id": 1243963341,
      "center": {
        "lat": 12.8630817,
        "lon": 77.5369253
      },
      "tags": {
        "access": "private",
        "leisure": "park"
      }
    },
    {
      "type": "way",
      "id": 1243963342,
      "center": {
        "lat": 12.8625264,
        "lon": 77.5343673
      },
      "tags": {
        "leisure": "pitch",
        "sport": "tennis"
      }
    },
    {
      "type": "way",
      "id": 1243963343,
      "center": {
        "lat": 12.8611159,
        "lon": 77.5336059
      },
      "tags": {
        "leisure": "park"
      }
    },
    {
      "type": "way",
      "id": 1249855418,
      "center": {
        "lat": 12.867768,
        "lon": 77.5430689
      },
      "tags": {
        "addr:city": "Bangalore",
        "addr:housenumber": "Resort",
        "addr:postcode": "560062",
        "addr:street": "Kumarans School Holiday Village Road",
        "leisure": "resort",
        "name": "Holiday Village",
        "name:ta": "ஹாலிடே வில்லேஜ்",
        "operator": "Bhindra Resorts"
      }
    },
    {
      "type": "way",
      "id": 1249855452,
      "center": {
        "lat": 12.8642097,
        "lon": 77.5361165
      },
      "tags": {
        "access": "private",
        "leisure": "park"
      }
    },
    {
      "type": "way",
      "id": 1344973956,
      "center": {
        "lat": 12.8721245,
        "lon": 77.5294493
      },
      "tags": {
        "access": "private",
        "leisure": "swimming_pool"
      }
    },
    {
      "type": "way",
      "id": 1345637272,
      "center": {
        "lat": 12.8674125,
        "lon": 77.5387951
      },
      "tags": {
        "leisure": "pitch",
        "sport": "tennis"
      }
    },
    {
      "type": "way",
      "id": 1345637273,
      "center": {
        "lat": 12.8667376,
        "lon": 77.5403277
      },
      "tags": {
        "amenity": "school",
        "landuse": "education",
        "name": "Deeksha"
      }
    },
    {
      "type": "way",
      "id": 1349974953,
      "center": {
        "lat": 12.8765153,
        "lon": 77.5308699
      },
      "tags": {
        "amenity": "place_of_worship",
        "religion": "hindu"
      }
    },
    {
      "type": "way",
      "id": 1351989812,
      "center": {
        "lat": 12.8755356,
        "lon": 77.5345151
      },
      "tags": {
        "amenity": "fuel"
      }
    },
    {
      "type": "way",
      "id": 1351989829,
      "center": {
        "lat": 12.8744161,
        "lon": 77.5361214
      },
      "tags": {
        "amenity": "place_of_worship",
        "landuse": "religious",
        "name": "Marikamba Temple",
        "religion": "hindu"
      }
    },
    {
      "type": "way",
      "id": 1351989845,
      "center": {
        "lat": 12.8743769,
        "lon": 77.5384385
      },
      "tags": {
        "leisure": "sports_centre",
        "name": "Tiger 5"
      }
    },
    {
      "type": "way",
      "id": 1351989863,
      "center": {
        "lat": 12.8738042,
        "lon": 77.5395855
      },
      "tags": {
        "landuse": "industrial",
        "shop": "car_repair"
      }
    },
    {
      "type": "way",
      "id": 1351989866,
      "center": {
        "lat": 12.8733652,
        "lon": 77.5404062
      },
      "tags": {
        "amenity": "fuel",
        "brand": "GAIL",
        "fuel:cng": "yes",
        "name": "GAIL CNG"
      }
    },
    {
      "type": "way",
      "id": 1351989868,
      "center": {
        "lat": 12.8731839,
        "lon": 77.5408843
      },
      "tags": {
        "amenity": "events_venue",
        "landuse": "commercial",
        "name": "BRS Grandeur"
      }
    },
    {
      "type": "way",
      "id": 1368282244,
      "center": {
        "lat": 12.8669533,
        "lon": 77.5408329
      },
      "tags": {
        "addr:city": "Bangalore",
        "addr:postcode": "560062",
        "building": "yes",
        "charge": "300 INR",
        "fee": "yes",
        "leisure": "sports_centre",
        "name": "Selenite Sports Academy",
        "opening_hours": "Mo-Su 05:00-23:00",
        "panoramax": "2df48d77-6d8a-4a7f-87f2-dce3f6b9aa0f",
        "panoramax:0": "d6faeb59-b999-46b1-89d6-f77b34a7d12c",
        "payment:cash": "yes",
        "payment:credit_cards": "yes",
        "payment:debit_cards": "yes",
        "payment:upi": "yes",
        "rental": "shoes;racket;",
        "sport": "badminton",
        "website": "https://selenitesports.com/",
        "website:booking": "https://playo.co/venues/bangalore/selenite-sports-academy-kanakapura-road-bengaluru"
      }
    },
    {
      "type": "way",
      "id": 1368282245,
      "center": {
        "lat": 12.8667499,
        "lon": 77.5401588
      },
      "tags": {
        "leisure": "pitch",
        "sport": "basketball"
      }
    },
    {
      "type": "way",
      "id": 1377258805,
      "center": {
        "lat": 12.8745721,
        "lon": 77.542367
      },
      "tags": {
        "addr:street": "Kanakapura Road",
        "amenity": "fuel",
        "brand": "Nayara",
        "brand:wikidata": "Q5399377",
        "building": "shed",
        "fuel:diesel": "yes",
        "fuel:octane_95": "yes",
        "name": "Nayara - Kanakapura Road",
        "self_service": "no"
      }
    },
    {
      "type": "way",
      "id": 1377359946,
      "center": {
        "lat": 12.8743737,
        "lon": 77.5421104
      },
      "tags": {
        "addr:city": "Vajarahalli",
        "addr:district": "Bengaluru",
        "addr:housenumber": "94/2, 94/3",
        "addr:postcode": "560062",
        "addr:street": "Holiday Village Road",
        "amenity": "fuel",
        "brand": "Hindustan Petroleum",
        "brand:wikidata": "Q1619375",
        "building": "shed",
        "fuel:diesel": "yes",
        "fuel:octane_95": "yes",
        "fuel:octane_98": "yes",
        "layer": "1",
        "name": "HP - Sri Rama Outlet",
        "official_name": "Hindustan Petroleum",
        "operator": "Sri Rama Auto Sales & Services",
        "self_service": "no"
      }
    },
    {
      "type": "way",
      "id": 1390725577,
      "center": {
        "lat": 12.8669351,
        "lon": 77.5446663
      },
      "tags": {
        "leisure": "park",
        "name": "R K gardens, BBMP Park"
      }
    },
    {
      "type": "way",
      "id": 1422781175,
      "center": {
        "lat": 12.8650367,
        "lon": 77.5339052
      },
      "tags": {
        "amenity": "school"
      }
    },
    {
      "type": "way",
      "id": 1422781176,
      "center": {
        "lat": 12.8633219,
        "lon": 77.5301259
      },
      "tags": {
        "amenity": "community_centre",
        "check_date": "2025-06-28",
        "community_centre": "cultural_centre",
        "internet_access": "no",
        "name": "Mandala Cultural Center",
        "name:kn": "ಮಂಡಲ ಕಲ್ಚರಲ್ ಸೆಂಟರ್",
        "website": "https://mandalabengaluru.com"
      }
    },
    {
      "type": "way",
      "id": 1444115847,
      "center": {
        "lat": 12.8661024,
        "lon": 77.5351045
      },
      "tags": {
        "access": "customers",
        "amenity": "parking",
        "capacity": "10",
        "fee": "no",
        "operator": "Nammura Restaurant",
        "operator:type": "private",
        "parking": "surface",
        "surface": "ground"
      }
    },
    {
      "type": "way",
      "id": 1444120393,
      "center": {
        "lat": 12.8632617,
        "lon": 77.5342075
      },
      "tags": {
        "access": "private",
        "leisure": "swimming_pool"
      }
    }
  ]
}