{
  "area_name": "Thanisandra",
  "osm_id": 19883250,
  "osm_type": "relation",
  "place_type": "administrative",
  "amenity_count": 91,
  "amenities": [
    {
      "type": "node",
      "id": 391929291,
      "lat": 13.0483112,
      "lon": 77.6342169,
      "tags": {
        "amenity": "school",
        "name": "Swamy Vivekananda Primary and High School",
        "name:kn": "ಸ್ವಾಮಿ ವಿವೇಕಾನಂದ ಶಾಲೆ"
      }
    },
    {
      "type": "node",
      "id": 412681648,
      "lat": 13.0557708,
      "lon": 77.6327504,
      "tags": {
        "amenity": "school",
        "name": "Manasa Public School",
        "name:kn": "ಮಾನಸ ಪಬ್ಲಿಕ್ ಸ್ಕೂಲ್"
      }
    },
    {
      "type": "node",
      "id": 412944390,
      "lat": 13.0604817,
      "lon": 77.6251237,
      "tags": {
        "amenity": "kindergarten",
        "name": "Srujan Play Home"
      }
    },
    {
      "type": "node",
      "id": 412944393,
      "lat": 13.0605539,
      "lon": 77.6251495,
      "tags": {
        "amenity": "dentist",
        "name": "Srujan Dental Care"
      }
    },
    {
      "type": "node",
      "id": 3426287293,
      "lat": 13.0572273,
      "lon": 77.6276673,
      "tags": {
        "addr:city": "Bangalore",
        "addr:housenumber": "Thanisandra",
        "addr:postcode": "560077",
        "addr:street": "Rachenahalli Main Road",
        "name": "Daily Fresh Bakery",
        "operator": "Daily Fresh Bakery",
        "shop": "bakery"
      }
    },
    {
      "type": "node",
      "id": 4327749190,
      "lat": 13.0517564,
      "lon": 77.6349601,
      "tags": {
        "addr:postcode": "560077",
        "amenity": "place_of_worship",
        "name": "Maha Ganapati Temple",
        "name:kn": "ಮಹಾ ಗಣಪತಿ ದೇವಸ್ಥಾನ",
        "religion": "hindu"
      }
    },
    {
      "type": "node",
      "id": 4526401075,
      "lat": 13.0622572,
      "lon": 77.6267224,
      "tags": {
        "amenity": "fountain"
      }
    },
    {
      "type": "node",
      "id": 4526401076,
      "lat": 13.0622866,
      "lon": 77.6266225,
      "tags": {
        "amenity": "fountain"
      }
    },
    {
      "type": "node",
      "id": 4526401077,
      "lat": 13.0623098,
      "lon": 77.6265289,
      "tags": {
        "amenity": "fountain"
      }
    },
    {
      "type": "node",
      "id": 4526401086,
      "lat": 13.0624682,
      "lon": 77.6264511,
      "tags": {
        "amenity": "parking_entrance"
      }
    },
    {
      "type": "node",
      "id": 4540543624,
      "lat": 13.0615868,
      "lon": 77.6278008,
      "tags": {
        "name": "K.K. Department Stores",
        "shop": "yes"
      }
    },
    {
      "type": "node",
      "id": 4540543713,
      "lat": 13.0606944,
      "lon": 77.6274707,
      "tags": {
        "name": "Shree Sai Provision Stores",
        "shop": "yes"
      }
    },
    {
      "type": "node",
      "id": 4973098295,
      "lat": 13.0490526,
      "lon": 77.6294582,
      "tags": {
        "amenity": "bank",
        "brand": "ICICI Bank",
        "brand:wikidata": "Q1653258",
        "name": "ICICI Bank",
        "name:kn": "ಐಸಿಐಸಿಐ ಬ್ಯಾಂಕು",
        "short_name": "ICICI"
      }
    },
    {
      "type": "node",
      "id": 4973098297,
      "lat": 13.0532862,
      "lon": 77.6313419,
      "tags": {
        "name": "Bata",
        "name:kn": "ಬಾಟಾ",
        "shop": "shoes"
      }
    },
    {
      "type": "node",
      "id": 4973098298,
      "lat": 13.054535,
      "lon": 77.6321499,
      "tags": {
        "amenity": "bank",
        "name": "Kotak Mahindra Bank"
      }
    },
    {
      "type": "node",
      "id": 4973098299,
      "lat": 13.0562529,
      "lon": 77.6330993,
      "tags": {
        "amenity": "pharmacy",
        "name": "United Pharma"
      }
    },
    {
      "type": "node",
      "id": 5295004544,
      "lat": 13.0466774,
      "lon": 77.6279032,
      "tags": {
        "amenity": "restaurant",
        "cuisine": "indian",
        "diet:vegetarian": "yes",
        "name": "Sri Devi Grand Veg"
      }
    },
    {
      "type": "node",
      "id": 5295004545,
      "lat": 13.0523486,
      "lon": 77.631283,
      "tags": {
        "amenity": "place_of_worship",
        "denomination": "hindu",
        "religion": "hindu"
      }
    },
    {
      "type": "node",
      "id": 5295004546,
      "lat": 13.0553751,
      "lon": 77.6322956,
      "tags": {
        "amenity": "atm",
        "operator": "Kotak Mahindra Bank"
      }
    },
    {
      "type": "node",
      "id": 5295004547,
      "lat": 13.0557204,
      "lon": 77.632106,
      "tags": {
        "amenity": "fast_food",
        "name": "Five Star Chicken"
      }
    },
    {
      "type": "node",
      "id": 5295004548,
      "lat": 13.055866,
      "lon": 77.6326224,
      "tags": {
        "amenity": "atm",
        "operator": "HDFC Bank"
      }
    },
    {
      "type": "node",
      "id": 5295004549,
      "lat": 13.0559578,
      "lon": 77.6328463,
      "tags": {
        "amenity": "place_of_worship",
        "religion": "hindu"
      }
    },
    {
      "type": "node",
      "id": 5295004550,
      "lat": 13.0569598,
      "lon": 77.6328691,
      "tags": {
        "name": "Prestige Smart Kitchen",
        "shop": "appliance"
      }
    },
    {
      "type": "node",
      "id": 5295004551,
      "lat": 13.0575188,
      "lon": 77.6327683,
      "tags": {
        "amenity": "bank",
        "name": "State Bank of India",
        "name:kn": "ಭಾರತೀಯ ಸ್ಟೇಟ್ ಬ್ಯಾಂಕ್"
      }
    },
    {
      "type": "node",
      "id": 5295004552,
      "lat": 13.0572403,
      "lon": 77.6331293,
      "tags": {
        "amenity": "place_of_worship",
        "denomination": "shia",
        "name": "Sri Shaneeswhara Swamy Devalaya",
        "religion": "hindu"
      }
    },
    {
      "type": "node",
      "id": 5295004553,
      "lat": 13.0574022,
      "lon": 77.6331335,
      "tags": {
        "name": "Karnataka Vegetables and Fruits",
        "shop": "greengrocer"
      }
    },
    {
      "type": "node",
      "id": 5295004554,
      "lat": 13.0575735,
      "lon": 77.633121,
      "tags": {
        "amenity": "bank",
        "name": "Syndicate Bank",
        "name:kn": "ಸಿಂಡಿಕೇಟ್ ಬ್ಯಾಂಕ್"
      }
    },
    {
      "type": "node",
      "id": 5295004555,
      "lat": 13.0613244,
      "lon": 77.6333591,
      "tags": {
        "name": "Spex World",
        "shop": "optician"
      }
    },
    {
      "type": "node",
      "id": 5383249022,
      "lat": 13.0575739,
      "lon": 77.626662,
      "tags": {
        "amenity": "fast_food",
        "name": "Karthik Chicken Center"
      }
    },
    {
      "type": "node",
      "id": 5383249023,
      "lat": 13.0575345,
      "lon": 77.6268446,
      "tags": {
        "amenity": "place_of_worship"
      }
    },
    {
      "type": "node",
      "id": 5383249122,
      "lat": 13.0575219,
      "lon": 77.6269384,
      "tags": {
        "name": "Khushi Iyengars Cake Palace",
        "shop": "bakery"
      }
    },
    {
      "type": "node",
      "id": 5383249124,
      "lat": 13.0516461,
      "lon": 77.6304983,
      "tags": {
        "brand": "Shell Select",
        "brand:wikidata": "Q110716465",
        "name": "Shell Select",
        "shop": "convenience"
      }
    },
    {
      "type": "node",
      "id": 5383249225,
      "lat": 13.0575904,
      "lon": 77.6265783,
      "tags": {
        "name": "Rajveer Chemical",
        "shop": "chemist"
      }
    },
    {
      "type": "node",
      "id": 5383258723,
      "lat": 13.0576195,
      "lon": 77.626464,
      "tags": {
        "amenity": "fast_food"
      }
    },
    {
      "type": "node",
      "id": 5383258724,
      "lat": 13.0576351,
      "lon": 77.626399,
      "tags": {
        "amenity": "cafe",
        "name": "Chai Point, Juice Corner"
      }
    },
    {
      "type": "node",
      "id": 5966255485,
      "lat": 13.0482293,
      "lon": 77.6289439,
      "tags": {
        "amenity": "pharmacy",
        "name": "Pooja Medicals"
      }
    },
    {
      "type": "node",
      "id": 5966255486,
      "lat": 13.0503589,
      "lon": 77.6302287,
      "tags": {
        "name": "Star Look",
        "shop": "clothes"
      }
    },
    {
      "type": "node",
      "id": 5966255488,
      "lat": 13.0517267,
      "lon": 77.6312426,
      "tags": {
        "amenity": "bar",
        "name": "Budweiser"
      }
    },
    {
      "type": "node",
      "id": 5966255489,
      "lat": 13.0532004,
      "lon": 77.6313378,
      "tags": {
        "amenity": "pharmacy",
        "name": "Sri Varsha Medicals and General Store"
      }
    },
    {
      "type": "node",
      "id": 5966255490,
      "lat": 13.0533271,
      "lon": 77.6313861,
      "tags": {
        "amenity": "pharmacy",
        "name": "Ram Medicals"
      }
    },
    {
      "type": "node",
      "id": 5966255491,
      "lat": 13.055795,
      "lon": 77.6321559,
      "tags": {
        "name": "Bicycle Gallery",
        "service:bicycle:retail": "yes",
        "shop": "bicycle"
      }
    },
    {
      "type": "node",
      "id": 5966255492,
      "lat": 13.0562039,
      "lon": 77.6327875,
      "tags": {
        "name": "Nandini Parlour",
        "shop": "dairy"
      }
    },
    {
      "type": "node",
      "id": 5966255493,
      "lat": 13.0559374,
      "lon": 77.6327607,
      "tags": {
        "amenity": "fast_food",
        "cuisine": "regional",
        "name": "Hotel Sri Durga Darshini"
      }
    },
    {
      "type": "node",
      "id": 5966255494,
      "lat": 13.0584262,
      "lon": 77.6327057,
      "tags": {
        "name": "Arun Jyothi Antiques and Furniture",
        "shop": "furniture"
      }
    },
    {
      "type": "node",
      "id": 9527967832,
      "lat": 13.0483469,
      "lon": 77.6293932,
      "tags": {
        "amenity": "fast_food",
        "name": "Fuzion Plate"
      }
    },
    {
      "type": "node",
      "id": 9527967833,
      "lat": 13.04959,
      "lon": 77.6298009,
      "tags": {
        "amenity": "fuel",
        "name": "Star Auto LPG"
      }
    },
    {
      "type": "node",
      "id": 9527967834,
      "lat": 13.0510029,
      "lon": 77.6309757,
      "tags": {
        "shop": "copyshop"
      }
    },
    {
      "type": "node",
      "id": 9527967835,
      "lat": 13.0544507,
      "lon": 77.6316369,
      "tags": {
        "amenity": "hospital",
        "name": "Shree Manyata Hospitals"
      }
    },
    {
      "type": "node",
      "id": 10731125349,
      "lat": 13.048083,
      "lon": 77.628791,
      "tags": {
        "amenity": "hospital",
        "name": "Suraksha Hospital"
      }
    },
    {
      "type": "node",
      "id": 10731125350,
      "lat": 13.049021,
      "lon": 77.6294468,
      "tags": {
        "name": "Okaya",
        "shop": "motorcycle"
      }
    },
    {
      "type": "node",
      "id": 10731125356,
      "lat": 13.0568676,
      "lon": 77.6328814,
      "tags": {
        "amenity": "fast_food",
        "cuisine": "regional",
        "name": "Domino's"
      }
    },
    {
      "type": "node",
      "id": 11407321598,
      "lat": 13.0468459,
      "lon": 77.6280498,
      "tags": {
        "leisure": "fitness_centre",
        "name": "Captain FItness",
        "sport": "fitness"
      }
    },
    {
      "type": "node",
      "id": 11407321599,
      "lat": 13.0468846,
      "lon": 77.6280872,
      "tags": {
        "name": "Poorvika",
        "operator": "Poorvika",
        "payment:card": "yes",
        "payment:cash": "yes",
        "payment:upi": "yes",
        "shop": "mobile_phone"
      }
    },
    {
      "type": "node",
      "id": 11407321608,
      "lat": 13.0467502,
      "lon": 77.6283725,
      "tags": {
        "brand": "Lenskart",
        "brand:wikidata": "Q17068753",
        "name": "Lenskart",
        "payment:card": "yes",
        "payment:cash": "yes",
        "payment:upi": "yes",
        "shop": "optician"
      }
    },
    {
      "type": "node",
      "id": 11407321609,
      "lat": 13.0467687,
      "lon": 77.6280226,
      "tags": {
        "name": "Dry Fruit House",
        "payment:cash": "yes",
        "payment:credit_cards": "yes",
        "payment:debit_cards": "yes",
        "payment:upi": "yes",
        "shop": "health_food"
      }
    },
    {
      "type": "node",
      "id": 11578192469,
      "lat": 13.0481669,
      "lon": 77.6288875,
      "tags": {
        "addr:city": "Bengaluru",
        "addr:district": "Thanisandra",
        "addr:postcode": "560077",
        "addr:street": "Thanisandra Main Road",
        "female": "yes",
        "male": "yes",
        "name": "Heaven's Saloon",
        "opening_hours": "Mo-Su 09:00-21:00",
        "payment:cash": "yes",
        "payment:debit_cards": "yes",
        "payment:upi": "yes",
        "phone": "09019830117",
        "shop": "hairdresser"
      }
    },
    {
      "type": "node",
      "id": 11578192474,
      "lat": 13.048441,
      "lon": 77.6289312,
      "tags": {
        "addr:city": "Bengaluru",
        "addr:district": "Thanisandra",
        "addr:postcode": "560077",
        "addr:street": "Thanisandra Main Road",
        "brand": "Zudio",
        "brand:wikidata": "Q123375926",
        "clothes": "women;men;children;underwear;fashion",
        "name": "Zudio",
        "opening_hours": "Mo-Su 11:00-21:00",
        "payment:cash": "yes",
        "payment:credit_cards": "yes",
        "payment:debit_cards": "yes",
        "payment:upi": "yes",
        "shop": "clothes"
      }
    },
    {
      "type": "node",
      "id": 11917452858,
      "lat": 13.0564588,
      "lon": 77.6331135,
      "tags": {
        "amenity": "place_of_worship",
        "check_date": "2024-05-19",
        "religion": "hindu"
      }
    },
    {
      "type": "node",
      "id": 11917452859,
      "lat": 13.0503993,
      "lon": 77.6307433,
      "tags": {
        "amenity": "place_of_worship",
        "check_date": "2024-05-19",
        "religion": "muslim"
      }
    },
    {
      "type": "node",
      "id": 12201417648,
      "lat": 13.0571244,
      "lon": 77.6290066,
      "tags": {
        "amenity": "parking_entrance"
      }
    },
    {
      "type": "node",
      "id": 12201417651,
      "lat": 13.0580854,
      "lon": 77.6295686,
      "tags": {
        "amenity": "parking_entrance"
      }
    },
    {
      "type": "node",
      "id": 12201417652,
      "lat": 13.0581057,
      "lon": 77.6295362,
      "tags": {
        "amenity": "parking_entrance"
      }
    },
    {
      "type": "node",
      "id": 12265540826,
      "lat": 13.0458834,
      "lon": 77.6275138,
      "tags": {
        "check_date": "2024-10-19",
        "name": "Sree Keerthi Glass And Plywood",
        "shop": "hardware"
      }
    },
    {
      "type": "node",
      "id": 12265540827,
      "lat": 13.0467952,
      "lon": 77.6283887,
      "tags": {
        "check_date": "2024-10-19",
        "name": "Phono Range",
        "shop": "mobile_phone"
      }
    },
    {
      "type": "node",
      "id": 12265540836,
      "lat": 13.0488156,
      "lon": 77.6293638,
      "tags": {
        "check_date": "2024-10-19",
        "name": "Al Zam Zam",
        "shop": "bakery"
      }
    },
    {
      "type": "node",
      "id": 12265540837,
      "lat": 13.0493495,
      "lon": 77.6300471,
      "tags": {
        "amenity": "pharmacy",
        "check_date": "2024-10-19",
        "healthcare": "pharmacy",
        "name": "Payal Medical"
      }
    },
    {
      "type": "node",
      "id": 12265540838,
      "lat": 13.0518455,
      "lon": 77.6312217,
      "tags": {
        "amenity": "restaurant",
        "check_date": "2024-10-19",
        "name": "Sri Rameshwara Cafe"
      }
    },
    {
      "type": "node",
      "id": 12265540839,
      "lat": 13.0519137,
      "lon": 77.6312054,
      "tags": {
        "amenity": "restaurant",
        "brand": "Pizza Hut",
        "brand:wikidata": "Q191615",
        "check_date": "2024-10-19",
        "cuisine": "pizza",
        "name": "Pizza Hut"
      }
    },
    {
      "type": "node",
      "id": 12752583724,
      "lat": 13.0615759,
      "lon": 77.6341447,
      "tags": {
        "amenity": "pub",
        "name": "Finca"
      }
    },
    {
      "type": "node",
      "id": 13066450484,
      "lat": 13.0518834,
      "lon": 77.6311612,
      "tags": {
        "addr:city": "Bengaluru",
        "addr:district": "Bengaluru",
        "addr:housenumber": "First Floor, S Ramaiah Arcade, above PizzaHut",
        "addr:postcode": "560077",
        "addr:street": "Thanisandra Main Rd, Ashwath Nagar",
        "amenity": "dentist",
        "contact:facebook": "https://www.facebook.com/lotusadvanceddentalcare/",
        "description": "LOTUS ADVANCED DENTAL CARE provides the best advanced dental treatments at most affordable prices and with completely sterilized, UV preserved equipment, near Manyata Techpark",
        "healthcare": "dentist",
        "healthcare:speciality": "dentistry;dental_oral_maxillo_facial_surgery;orthodontics;dentist;dental",
        "image": "https://lh3.googleusercontent.com/p/AF1QipNrsqRKGyu48cnB3U6cej_m2S2g0NnHtbrkazcf=s1360-w1360-h1020-rw",
        "loc_name": "Lotus Advanced Dental Care",
        "name": "Lotus Advanced Dental Care",
        "official_name": "Lotus Advanced Dental Care",
        "operator": "Lotus Advanced Dental Care",
        "website": "https://lotusadvanceddentalcare.com/"
      }
    },
    {
      "type": "node",
      "id": 13072080424,
      "lat": 13.0513474,
      "lon": 77.6348919,
      "tags": {
        "name": "Krishna Priya Bakery",
        "shop": "bakery"
      }
    },
    {
      "type": "way",
      "id": 397910843,
      "center": {
        "lat": 13.056717,
        "lon": 77.62962
      },
      "tags": {
        "building": "commercial",
        "name": "Families",
        "shop": "supermarket"
      }
    },
    {
      "type": "way",
      "id": 455667147,
      "center": {
        "lat": 13.0622507,
        "lon": 77.6270851
      },
      "tags": {
        "access": "private",
        "leisure": "swimming_pool"
      }
    },
    {
      "type": "way",
      "id": 455667161,
      "center": {
        "lat": 13.0617945,
        "lon": 77.626319
      },
      "tags": {
        "access": "private",
        "leisure": "playground"
      }
    },
    {
      "type": "way",
      "id": 462152431,
      "center": {
        "lat": 13.0560399,
        "lon": 77.6289674
      },
      "tags": {
        "amenity": "school"
      }
    },
    {
      "type": "way",
      "id": 558277512,
      "center": {
        "lat": 13.056848,
        "lon": 77.629695
      },
      "tags": {
        "access": "customers",
        "amenity": "parking"
      }
    },
    {
      "type": "way",
      "id": 1065072656,
      "center": {
        "lat": 13.0529299,
        "lon": 77.6316858
      },
      "tags": {
        "amenity": "fuel",
        "check_date": "2024-10-19",
        "name": "Indian Auto Gas"
      }
    },
    {
      "type": "way",
      "id": 1097428090,
      "center": {
        "lat": 13.0426074,
        "lon": 77.6316556
      },
      "tags": {
        "leisure": "park"
      }
    },
    {
      "type": "way",
      "id": 1230089504,
      "center": {
        "lat": 13.0470208,
        "lon": 77.6281721
      },
      "tags": {
        "brand": "Honda",
        "building": "yes",
        "name": "Dhruvdesh Honda",
        "not:brand:wikidata": "Q9584",
        "operator": "Honda",
        "shop": "motorcycle"
      }
    },
    {
      "type": "way",
      "id": 1241565588,
      "center": {
        "lat": 13.0618363,
        "lon": 77.6346456
      },
      "tags": {
        "leisure": "pitch",
        "name": "BR Tennis Academy",
        "sport": "tennis"
      }
    },
    {
      "type": "way",
      "id": 1245441025,
      "center": {
        "lat": 13.0484299,
        "lon": 77.6289465
      },
      "tags": {
        "addr:city": "Bengaluru",
        "addr:district": "Thanisandra",
        "addr:postcode": "560077",
        "addr:street": "Thanisandra Main Road",
        "brand": "Zudio",
        "brand:wikidata": "Q123375926",
        "building": "yes",
        "clothes": "women;men;underwear;children",
        "description": "Zudio clothing store",
        "name": "Zudio",
        "note": "Building does not show up on older satellite layers",
        "opening_hours": "Mo-Su 11:00-21:00",
        "shop": "clothes"
      }
    },
    {
      "type": "way",
      "id": 1298832745,
      "center": {
        "lat": 13.060445,
        "lon": 77.6371153
      },
      "tags": {
        "leisure": "playground"
      }
    },
    {
      "type": "way",
      "id": 1298832746,
      "center": {
        "lat": 13.0608103,
        "lon": 77.6359693
      },
      "tags": {
        "access": "private",
        "leisure": "swimming_pool"
      }
    },
    {
      "type": "way",
      "id": 1298832747,
      "center": {
        "lat": 13.0600794,
        "lon": 77.6358747
      },
      "tags": {
        "access": "private",
        "leisure": "pitch",
        "sport": "basketball"
      }
    },
    {
      "type": "way",
      "id": 1298832748,
      "center": {
        "lat": 13.0601011,
        "lon": 77.6356975
      },
      "tags": {
        "access": "private",
        "leisure": "pitch",
        "sport": "tennis"
      }
    },
    {
      "type": "way",
      "id": 1298832777,
      "center": {
        "lat": 13.0598951,
        "lon": 77.633003
      },
      "tags": {
        "amenity": "fuel",
        "check_date": "2024-05-19",
        "name": "Trugaz"
      }
    },
    {
      "type": "way",
      "id": 1302247710,
      "center": {
        "lat": 13.0585973,
        "lon": 77.6256341
      },
      "tags": {
        "amenity": "school"
      }
    },
    {
      "type": "way",
      "id": 1311756238,
      "center": {
        "lat": 13.0516451,
        "lon": 77.6305706
      },
      "tags": {
        "amenity": "fuel",
        "name": "Shell Petrol Pump",
        "website": "https://www.shell.in/"
      }
    },
    {
      "type": "way",
      "id": 1344809123,
      "center": {
        "lat": 13.0570914,
        "lon": 77.6288511
      },
      "tags": {
        "access": "private",
        "leisure": "swimming_pool"
      }
    },
    {
      "type": "way",
      "id": 1349707571,
      "center": {
        "lat": 13.0561317,
        "lon": 77.6324405
      },
      "tags": {
        "addr:street": "Thanisandra Main Road",
        "amenity": "fuel",
        "brand": "Bharat Petroleum",
        "brand:wikidata": "Q854826",
        "name": "Bharat Petroleum",
        "name:kn": "ಭಾರತ್ ಪೆಟ್ರೋಲಿಯಂ",
        "operator": "Bharat Petroleum"
      }
    },
    {
      "type": "way",
      "id": 1374773993,
      "center": {
        "lat": 13.0549311,
        "lon": 77.6314675
      },
      "tags": {
        "addr:city": "Bengaluru",
        "addr:district": "Karnataka",
        "addr:housenumber": "72/1",
        "addr:postcode": "560077",
        "addr:street": "Thanisandra Main Road",
        "amenity": "conference_centre",
        "building": "yes",
        "name": "CMA Royal Convention & Wedding Hall",
        "phone": "+91 97314 44222"
      }
    }
  ]
}