{
  "area_name": "Tilak Nagara",
  "osm_id": 19884593,
  "osm_type": "relation",
  "place_type": "administrative",
  "amenity_count": 190,
  "amenities": [
    {
      "type": "node",
      "id": 307413315,
      "lat": 12.9314045,
      "lon": 77.5924636,
      "tags": {
        "amenity": "pharmacy",
        "healthcare": "pharmacy"
      }
    },
    {
      "type": "node",
      "id": 307414683,
      "lat": 12.9289702,
      "lon": 77.5839921,
      "tags": {
        "amenity": "bank",
        "brand": "State Bank of India",
        "brand:wikidata": "Q1340361",
        "brand:wikipedia": "en:State Bank of India",
        "name": "State Bank of India",
        "name:kn": "ಸ್ಟೇಟ್ ಬ್ಯಾಂಕ್ ಆಫ್ ಇಂಡಿಯಾ",
        "old_name": "State Bank of mysore",
        "short_name": "SBI",
        "website": "https://www.sbi.co.in"
      }
    },
    {
      "type": "node",
      "id": 307417112,
      "lat": 12.9302752,
      "lon": 77.584756,
      "tags": {
        "amenity": "vending_machine",
        "created_by": "Potlatch 0.10e",
        "name": "Electricity/Water bill ATM"
      }
    },
    {
      "type": "node",
      "id": 595409791,
      "lat": 12.9269294,
      "lon": 77.5861832,
      "tags": {
        "alt_name": "Kentucky Fried Chicken",
        "alt_name:en": "Kentucky Fried Chicken",
        "alt_name:hi": "केंटुकी फ्राइड चिकन",
        "alt_name:pa": "ਕੈਂਟੁਕੀ ਫ੍ਰਾਈਡ ਚਿਕਨ",
        "alt_name:pnb": "کینٹکی فرائیڈ چکن",
        "alt_name:ur": "کینٹکی فرائیڈ چکن",
        "amenity": "fast_food",
        "brand": "KFC",
        "brand:en": "KFC",
        "brand:hi": "केएफसी",
        "brand:pa": "ਕੇਐਫਸੀ",
        "brand:pnb": "کے ایف سی",
        "brand:ur": "کے ایف سی",
        "brand:wikidata": "Q524757",
        "brand:wikipedia": "en:KFC",
        "brand:wikipedia:pa": "ਕੇਐਫਸੀ",
        "brand:wikipedia:ur": "کینٹکی فرائیڈ چکن",
        "cuisine": "chicken",
        "name": "KFC",
        "name:en": "KFC",
        "name:hi": "केएफसी",
        "name:kn": "ಕೆಎಫ್‌ಸಿ",
        "name:pa": "ਕੇਐਫਸੀ",
        "name:pnb": "کے ایف سی",
        "name:ur": "کے ایف سی",
        "takeaway": "yes"
      }
    },
    {
      "type": "node",
      "id": 691164726,
      "lat": 12.928367,
      "lon": 77.5905691,
      "tags": {
        "addr:street": "Tilak Nagar Main Road",
        "amenity": "police",
        "name": "Tilaknagar Police Station",
        "name:kn": "ತಿಲಕ್ ನಗರ ಪೋಲಿಸ್ ಟಾಣೆ"
      }
    },
    {
      "type": "node",
      "id": 691930445,
      "lat": 12.9234317,
      "lon": 77.5923374,
      "tags": {
        "amenity": "hospital",
        "check_date": "2024-08-18",
        "name": "BMTC Hospital",
        "name:kn": "ಬಿಎಂಟಿಸಿ ಆಸ್ಪತ್ರೆ",
        "wheelchair": "yes"
      }
    },
    {
      "type": "node",
      "id": 691930460,
      "lat": 12.9255101,
      "lon": 77.591876,
      "tags": {
        "amenity": "post_box",
        "name": "Tilaknagar Post Office",
        "name:kn": "ತಿಲಕ್ ನಗರ ಅಂಚೆ ಕಛೇರಿ"
      }
    },
    {
      "type": "node",
      "id": 1015924225,
      "lat": 12.9279136,
      "lon": 77.5866159,
      "tags": {
        "amenity": "college",
        "name": "Vijaya Pre-University College",
        "name:kn": "ವಿಜಯ ಪದವಿಪೂರ್ವ ಕಾಲೇಜು"
      }
    },
    {
      "type": "node",
      "id": 1070254109,
      "lat": 12.9276723,
      "lon": 77.5998977,
      "tags": {
        "amenity": "parking",
        "name": "Sagar Hospital Parking"
      }
    },
    {
      "type": "node",
      "id": 1438209102,
      "lat": 12.9332952,
      "lon": 77.591203,
      "tags": {
        "amenity": "place_of_worship",
        "denomination": "sunni",
        "name": "Masjid Umar Farooq (Byrasandra)",
        "religion": "muslim"
      }
    },
    {
      "type": "node",
      "id": 1445322853,
      "lat": 12.9287707,
      "lon": 77.5824139,
      "tags": {
        "amenity": "atm",
        "brand": "Canara Bank",
        "brand:en": "Canara Bank",
        "brand:hi": "केनरा बैंक",
        "brand:kn": "ಕೆನರಾ ಬ್ಯಾಂಕ್",
        "brand:pa": "ਕੇਨਰਾ ਬੈਂਕ",
        "brand:pnb": "کینرا بینک",
        "brand:ur": "کینرا بینک",
        "brand:wikidata": "Q2003777",
        "name": "Canara Bank",
        "name:en": "Canara Bank",
        "name:hi": "केनरा बैंक",
        "name:kn": "ಕೆನರಾ ಬ್ಯಾಂಕ್",
        "name:pa": "ਕੇਨਰਾ ਬੈਂਕ",
        "name:pnb": "کینرا بینک",
        "name:ur": "کینرا بینک",
        "operator": "Canara Bank",
        "operator:wikidata": "Q2003777"
      }
    },
    {
      "type": "node",
      "id": 1448049063,
      "lat": 12.9301133,
      "lon": 77.5844431,
      "tags": {
        "amenity": "marketplace",
        "name": "Fruit, Flower and Vegetable vendors"
      }
    },
    {
      "type": "node",
      "id": 1466690355,
      "lat": 12.9284409,
      "lon": 77.5899078,
      "tags": {
        "shop": "bakery"
      }
    },
    {
      "type": "node",
      "id": 1466690713,
      "lat": 12.9284331,
      "lon": 77.5900599,
      "tags": {
        "amenity": "cafe",
        "name": "Brews & Bites"
      }
    },
    {
      "type": "node",
      "id": 1466726396,
      "lat": 12.9309732,
      "lon": 77.5901342,
      "tags": {
        "addr:street": "2nd Cross LIC Colony",
        "name": "Nandini Milk Diary",
        "shop": "convenience"
      }
    },
    {
      "type": "node",
      "id": 1466728973,
      "lat": 12.9307824,
      "lon": 77.5905204,
      "tags": {
        "name": "Hopcoms",
        "name:kn": "ಹಾಪ್ ಕಾಮ್ಸ್",
        "shop": "convenience"
      }
    },
    {
      "type": "node",
      "id": 1467501709,
      "lat": 12.9305893,
      "lon": 77.5862057,
      "tags": {
        "addr:street": "11th main",
        "designation": "she",
        "name": "she",
        "shop": "clothes",
        "source": "survey"
      }
    },
    {
      "type": "node",
      "id": 1473299378,
      "lat": 12.9318149,
      "lon": 77.5889456,
      "tags": {
        "shop": "convenience"
      }
    },
    {
      "type": "node",
      "id": 1473305828,
      "lat": 12.9284223,
      "lon": 77.589782,
      "tags": {
        "addr:street": "Tilak Nagar Main Road",
        "amenity": "fast_food",
        "diet:vegetarian": "only",
        "name": "SLV Swagath"
      }
    },
    {
      "type": "node",
      "id": 1473306667,
      "lat": 12.9286469,
      "lon": 77.5923821,
      "tags": {
        "amenity": "place_of_worship",
        "name": "Mahashakti Mari Amma Temple",
        "religion": "hindu"
      }
    },
    {
      "type": "node",
      "id": 1473818538,
      "lat": 12.9300904,
      "lon": 77.5858231,
      "tags": {
        "name": "Khazana Jewellery",
        "shop": "jewelry"
      }
    },
    {
      "type": "node",
      "id": 1473874115,
      "lat": 12.9288216,
      "lon": 77.5861538,
      "tags": {
        "name": "Reliance jewellery",
        "name:kn": "ರಿಲಯನ್ಸ್ ಜಿವುಲೆರಿ",
        "shop": "jewelry"
      }
    },
    {
      "type": "node",
      "id": 1473874952,
      "lat": 12.9285577,
      "lon": 77.5819646,
      "tags": {
        "amenity": "restaurant",
        "diet:vegetarian": "only",
        "name": "Maiyas",
        "name:kn": "ಮಯ್ಯಸ್"
      }
    },
    {
      "type": "node",
      "id": 1473876346,
      "lat": 12.9271168,
      "lon": 77.5861609,
      "tags": {
        "name": "Kalamandir",
        "shop": "clothes"
      }
    },
    {
      "type": "node",
      "id": 1473876451,
      "lat": 12.9287808,
      "lon": 77.5856675,
      "tags": {
        "amenity": "restaurant",
        "diet:vegetarian": "only",
        "name": "Shanti Sagara",
        "name:kn": "ಶಾಂತಿ ಸಾಗರ್"
      }
    },
    {
      "type": "node",
      "id": 1474081048,
      "lat": 12.9285616,
      "lon": 77.5820034,
      "tags": {
        "amenity": "restaurant",
        "cuisine": "regional",
        "name": "Kolhapuris",
        "name:kn": "ಕೊಲ್ಹಪುರಿಸ್"
      }
    },
    {
      "type": "node",
      "id": 1474088680,
      "lat": 12.9285276,
      "lon": 77.5826445,
      "tags": {
        "amenity": "restaurant",
        "diet:vegetarian": "only",
        "name": "Sukh Sagar",
        "name:kn": "ಸುಖ್ ಸಾಗರ"
      }
    },
    {
      "type": "node",
      "id": 1474088686,
      "lat": 12.928559,
      "lon": 77.5823467,
      "tags": {
        "amenity": "bank",
        "atm": "yes",
        "brand": "Union Bank of India",
        "brand:wikidata": "Q2004078",
        "brand:wikipedia": "en:Union Bank of India",
        "name": "Union Bank of India",
        "name:en": "Union Bank of India",
        "name:kn": "ಯೂನಿಯನ್ ಬ್ಯಾಂಕ್",
        "short_name": "UBI",
        "website": "https://www.unionbankofindia.co.in/"
      }
    },
    {
      "type": "node",
      "id": 1474089882,
      "lat": 12.9295314,
      "lon": 77.584573,
      "tags": {
        "name": "Jayanagar 4th Block Fish market",
        "shop": "seafood"
      }
    },
    {
      "type": "node",
      "id": 1474090661,
      "lat": 12.9288447,
      "lon": 77.5857791,
      "tags": {
        "amenity": "restaurant",
        "diet:vegetarian": "only",
        "name": "Basaveshwar Khanavali"
      }
    },
    {
      "type": "node",
      "id": 1474091077,
      "lat": 12.9277143,
      "lon": 77.5861502,
      "tags": {
        "amenity": "restaurant",
        "diet:vegetarian": "only",
        "name": "1947",
        "name:kn": "೧೯೪೭"
      }
    },
    {
      "type": "node",
      "id": 1474091078,
      "lat": 12.9279957,
      "lon": 77.5861533,
      "tags": {
        "amenity": "fast_food",
        "brand": "McDonald's",
        "brand:pa": "ਮੈਕਡੋਨਲਡ’ਜ਼",
        "brand:ur": "مکڈونلڈز",
        "brand:wikidata": "Q38076",
        "brand:wikipedia": "en:McDonald's",
        "brand:wikipedia:pa": "ਮੈਕਡੋਨਲਡ’ਜ਼",
        "brand:wikipedia:ur": "مکڈونلڈز",
        "check_date": "2024-01-27",
        "cuisine": "burger",
        "name": "McDonald's",
        "name:kn": "ಮ್ಯಾಕ್‌ಡೊನಾಲ್ಡ್ಸ್",
        "name:pa": "ਮੈਕਡੋਨਲਡ’ਜ਼",
        "name:ur": "مکڈونلڈز",
        "takeaway": "yes"
      }
    },
    {
      "type": "node",
      "id": 1474266766,
      "lat": 12.9294525,
      "lon": 77.5861468,
      "tags": {
        "name": "Boots Bazaaar",
        "shop": "shoes"
      }
    },
    {
      "type": "node",
      "id": 1474270538,
      "lat": 12.9306365,
      "lon": 77.5862902,
      "tags": {
        "amenity": "fast_food",
        "name": "Vasudev Adigas",
        "name:kn": "ಅಡಿಗಾಸ್"
      }
    },
    {
      "type": "node",
      "id": 1474270539,
      "lat": 12.9287567,
      "lon": 77.586467,
      "tags": {
        "name": "GKB Opticals",
        "shop": "optician"
      }
    },
    {
      "type": "node",
      "id": 1474270542,
      "lat": 12.9306417,
      "lon": 77.5864695,
      "tags": {
        "name": "Pulla Reddy Sweets",
        "shop": "confectionery"
      }
    },
    {
      "type": "node",
      "id": 1474291159,
      "lat": 12.9287644,
      "lon": 77.5858624,
      "tags": {
        "amenity": "fast_food",
        "cuisine": "ice_cream",
        "name": "Cool joint"
      }
    },
    {
      "type": "node",
      "id": 1474291160,
      "lat": 12.928945,
      "lon": 77.5859387,
      "tags": {
        "name": "Kalaniketan",
        "name:kn": "ಕಳಾನಿಕೇತನ್",
        "shop": "clothes"
      }
    },
    {
      "type": "node",
      "id": 1474291161,
      "lat": 12.9298539,
      "lon": 77.5861419,
      "tags": {
        "brand": "Raymond",
        "brand:wikidata": "Q3537018",
        "name": "Raymond",
        "shop": "clothes"
      }
    },
    {
      "type": "node",
      "id": 1474291163,
      "lat": 12.9290329,
      "lon": 77.5859122,
      "tags": {
        "name": "Roop sangam",
        "name:kn": "ರೂಪ ಸಂಗಮ",
        "shop": "clothes"
      }
    },
    {
      "type": "node",
      "id": 1474291164,
      "lat": 12.9292972,
      "lon": 77.5861487,
      "tags": {
        "name": "Titan Eye +",
        "shop": "optician"
      }
    },
    {
      "type": "node",
      "id": 1474291165,
      "lat": 12.9295627,
      "lon": 77.5861454,
      "tags": {
        "brand": "Van Heusen",
        "brand:wikidata": "Q67551865",
        "clothes": "men",
        "name": "Van Heusen",
        "shop": "clothes"
      }
    },
    {
      "type": "node",
      "id": 1474295621,
      "lat": 12.9305088,
      "lon": 77.5839513,
      "tags": {
        "addr:city": "Bengaluru",
        "name": "Big Mishra Pedha",
        "shop": "confectionery"
      }
    },
    {
      "type": "node",
      "id": 1474298490,
      "lat": 12.9283859,
      "lon": 77.5860867,
      "tags": {
        "name": "Book World",
        "name:kn": "ಬುಕ್ ವರ್ಲ್ಡ್",
        "shop": "books"
      }
    },
    {
      "type": "node",
      "id": 1491765447,
      "lat": 12.9322462,
      "lon": 77.5894525,
      "tags": {
        "amenity": "pharmacy"
      }
    },
    {
      "type": "node",
      "id": 1657121854,
      "lat": 12.9269543,
      "lon": 77.5885571,
      "tags": {
        "amenity": "school",
        "designation": "College",
        "name": "Bangalore Educational Society",
        "name:kn": "ಬೆಂಗಳೂರು ಎಜುಕೇಶನಲ್ ಸೊಸೈಟಿ"
      }
    },
    {
      "type": "node",
      "id": 1657124482,
      "lat": 12.9282849,
      "lon": 77.5868566,
      "tags": {
        "amenity": "school",
        "name": "Bangalore High School(BHS)",
        "name:kn": "ಬೆಂಗಳೂರು ಪ್ರೌಡ ಶಾಲೆ"
      }
    },
    {
      "type": "node",
      "id": 1818494188,
      "lat": 12.9306129,
      "lon": 77.5862225,
      "tags": {
        "name": "Luois Phillepe",
        "shop": "clothes"
      }
    },
    {
      "type": "node",
      "id": 1818494189,
      "lat": 12.9294468,
      "lon": 77.5856396,
      "tags": {
        "brand": "Reliance Trends",
        "name": "Reliance Trends",
        "shop": "clothes"
      }
    },
    {
      "type": "node",
      "id": 1818494740,
      "lat": 12.9291985,
      "lon": 77.5861975,
      "tags": {
        "brand": "Allen Solly",
        "brand:wikidata": "Q110036995",
        "name": "Allen Solly",
        "name:kn": "ಅಲೆನ್ ಸೊಲಿ",
        "shop": "clothes"
      }
    },
    {
      "type": "node",
      "id": 1818495708,
      "lat": 12.9294521,
      "lon": 77.5850281,
      "tags": {
        "name": "Pin Ball",
        "shop": "clothes"
      }
    },
    {
      "type": "node",
      "id": 2629337833,
      "lat": 12.9306281,
      "lon": 77.5857408,
      "tags": {
        "addr:street": "27th Cross",
        "name": "W",
        "shop": "clothes"
      }
    },
    {
      "type": "node",
      "id": 2629857312,
      "lat": 12.9263326,
      "lon": 77.5870601,
      "tags": {
        "addr:city": "Bangalore",
        "addr:housenumber": "20",
        "addr:postcode": "5600011",
        "addr:street": "33 Cross",
        "amenity": "fast_food",
        "cuisine": "ice_cream",
        "name": "ibaco",
        "name:kn": "ಐಬ್ಯಕೊ"
      }
    },
    {
      "type": "node",
      "id": 2638267840,
      "lat": 12.9306647,
      "lon": 77.584134,
      "tags": {
        "alt_name": "Goli Vada Pav No.1",
        "amenity": "fast_food",
        "brand": "Goli Vada Pav",
        "brand:wikidata": "Q5580697",
        "cuisine": "indian",
        "name": "Goli Vada Pav",
        "name:kn": "ಗೋಲಿ ವಡ ಪಾವ್",
        "takeaway": "yes"
      }
    },
    {
      "type": "node",
      "id": 2649085498,
      "lat": 12.9288673,
      "lon": 77.5850418,
      "tags": {
        "name": "Ganesh Fruit Juice Center",
        "shop": "beverages"
      }
    },
    {
      "type": "node",
      "id": 2649085508,
      "lat": 12.9275016,
      "lon": 77.5861432,
      "tags": {
        "branch": "Smart Store",
        "brand": "Samsung",
        "brand:wikidata": "Q20718",
        "name": "Samsung",
        "name:kn": "ಸ್ಯಾಮ್‌ಸಂಗ್",
        "shop": "electronics"
      }
    },
    {
      "type": "node",
      "id": 2667171357,
      "lat": 12.93049,
      "lon": 77.5841222,
      "tags": {
        "name": "M K Fancy",
        "shop": "craft"
      }
    },
    {
      "type": "node",
      "id": 2927773288,
      "lat": 12.9306117,
      "lon": 77.584041,
      "tags": {
        "name": "QuickConnect",
        "shop": "mobile_phone"
      }
    },
    {
      "type": "node",
      "id": 2927773289,
      "lat": 12.9306657,
      "lon": 77.5840175,
      "tags": {
        "name": "Prachin Arts & Craft",
        "shop": "antiques"
      }
    },
    {
      "type": "node",
      "id": 2927776238,
      "lat": 12.9297035,
      "lon": 77.5859202,
      "tags": {
        "amenity": "atm",
        "brand": "South Indian Bank",
        "brand:wikidata": "Q2044973",
        "name": "South Indian Bank",
        "operator": "South Indian Bank",
        "operator:wikidata": "Q2044973"
      }
    },
    {
      "type": "node",
      "id": 2927776239,
      "lat": 12.93021,
      "lon": 77.5850977,
      "tags": {
        "amenity": "atm",
        "brand": "South Indian Bank",
        "brand:wikidata": "Q2044973",
        "name": "South Indian Bank",
        "operator": "South Indian Bank",
        "operator:wikidata": "Q2044973"
      }
    },
    {
      "type": "node",
      "id": 3003000363,
      "lat": 12.9282038,
      "lon": 77.5894361,
      "tags": {
        "brand": "HOPCOMS",
        "brand:wikidata": "Q22908959",
        "name": "HOPCOMS",
        "name:kn": "ಹಾಪ್ ಕಾಮ್ಸ್",
        "shop": "greengrocer"
      }
    },
    {
      "type": "node",
      "id": 3003173104,
      "lat": 12.9290557,
      "lon": 77.5913715,
      "tags": {
        "amenity": "cinema",
        "brand": "INOX Leisure",
        "brand:wikidata": "Q5972349",
        "level": "3;4",
        "name": "Inox",
        "short_name": "INOX"
      }
    },
    {
      "type": "node",
      "id": 3003173105,
      "lat": 12.9290557,
      "lon": 77.5914755,
      "tags": {
        "leisure": "sports_centre",
        "level": "7",
        "name": "Vriddhi"
      }
    },
    {
      "type": "node",
      "id": 3004782362,
      "lat": 12.9271848,
      "lon": 77.5910268,
      "tags": {
        "amenity": "bank",
        "atm": "yes",
        "brand": "Axis Bank",
        "brand:wikidata": "Q2003549",
        "brand:wikipedia": "en:Axis Bank",
        "name": "Axis Bank",
        "name:en": "Axis Bank",
        "name:kn": "ಆಕ್ಸಿಸ್ ಬ್ಯಾಂಕ್",
        "website": "https://www.axisbank.com"
      }
    },
    {
      "type": "node",
      "id": 3004782363,
      "lat": 12.9270197,
      "lon": 77.5903523,
      "tags": {
        "amenity": "bank",
        "atm": "yes",
        "brand": "Andhra Bank",
        "brand:wikidata": "Q2003476",
        "brand:wikipedia": "en:Andhra Bank",
        "name": "Andhra Bank",
        "name:en": "Andhra Bank",
        "name:kn": "ಆಂಧ್ರ ಬ್ಯಾಂಕ್",
        "opening_hours": "Mo-Sa 09:30-16:00",
        "website": "https://www.andhrabank.in"
      }
    },
    {
      "type": "node",
      "id": 3004782369,
      "lat": 12.9288646,
      "lon": 77.5913626,
      "tags": {
        "brand": "DMart",
        "brand:wikidata": "Q5203271",
        "level": "0;1",
        "name": "DMart",
        "shop": "supermarket"
      }
    },
    {
      "type": "node",
      "id": 3004782370,
      "lat": 12.9287251,
      "lon": 77.5912567,
      "tags": {
        "amenity": "cafe",
        "brand": "Cafe Coffee Day",
        "brand:wikidata": "Q5017235",
        "cuisine": "coffee_shop",
        "name": "Cafe Coffee Day",
        "name:kn": "ಕಫೆ ಕಾಫಿ ಡೇ",
        "takeaway": "yes"
      }
    },
    {
      "type": "node",
      "id": 3004782371,
      "lat": 12.9287251,
      "lon": 77.5911273,
      "tags": {
        "amenity": "atm",
        "operator": "HSBC ATM"
      }
    },
    {
      "type": "node",
      "id": 3004839852,
      "lat": 12.9310772,
      "lon": 77.5888627,
      "tags": {
        "amenity": "place_of_worship",
        "name": "Sri Lakshmi Venkateshwara Temple",
        "name:kn": "ಶ್ರೀ ಲಕ್ಷ್ಮಿ ವೆಂಕಟೇಶ್ವರ ದೇವಸ್ಥಾನ",
        "religion": "hindu"
      }
    },
    {
      "type": "node",
      "id": 3395246646,
      "lat": 12.9263525,
      "lon": 77.5970518,
      "tags": {
        "name": "Branded Sale",
        "shop": "furniture"
      }
    },
    {
      "type": "node",
      "id": 3402004770,
      "lat": 12.9284352,
      "lon": 77.5848792,
      "tags": {
        "name": "Amul",
        "shop": "dairy"
      }
    },
    {
      "type": "node",
      "id": 3402004771,
      "lat": 12.9284692,
      "lon": 77.5839834,
      "tags": {
        "amenity": "atm",
        "brand": "Karnataka Bank",
        "brand:wikidata": "Q2042632",
        "name": "Karnataka Bank",
        "name:kn": "ಕರ್ನಾಟಕ ಬ್ಯಾಂಕ್",
        "operator": "Karnataka Bank",
        "operator:wikidata": "Q2042632"
      }
    },
    {
      "type": "node",
      "id": 3402009750,
      "lat": 12.9289855,
      "lon": 77.5862015,
      "tags": {
        "name": "Cakewalla",
        "shop": "bakery"
      }
    },
    {
      "type": "node",
      "id": 3402009751,
      "lat": 12.9289123,
      "lon": 77.5859132,
      "tags": {
        "name": "Cane-O-La",
        "shop": "Sugarcane_juice"
      }
    },
    {
      "type": "node",
      "id": 3402017082,
      "lat": 12.9282437,
      "lon": 77.5838704,
      "tags": {
        "amenity": "toilets"
      }
    },
    {
      "type": "node",
      "id": 3402017083,
      "lat": 12.9283646,
      "lon": 77.5849114,
      "tags": {
        "amenity": "toilets"
      }
    },
    {
      "type": "node",
      "id": 3402021336,
      "lat": 12.9300273,
      "lon": 77.5842892,
      "tags": {
        "amenity": "atm",
        "brand": "Canara Bank",
        "brand:en": "Canara Bank",
        "brand:hi": "केनरा बैंक",
        "brand:kn": "ಕೆನರಾ ಬ್ಯಾಂಕ್",
        "brand:pa": "ਕੇਨਰਾ ਬੈਂਕ",
        "brand:pnb": "کینرا بینک",
        "brand:ur": "کینرا بینک",
        "brand:wikidata": "Q2003777",
        "brand:wikipedia": "en:Canara Bank",
        "brand:wikipedia:pa": "ਕੇਨਰਾ ਬੈਂਕ",
        "name": "Canara Bank",
        "name:en": "Canara Bank",
        "name:hi": "केनरा बैंक",
        "name:kn": "ಕೆನರಾ ಬ್ಯಾಂಕ್",
        "name:pa": "ਕੇਨਰਾ ਬੈਂਕ",
        "name:pnb": "کینرا بینک",
        "name:ur": "کینرا بینک",
        "operator": "Canara Bank",
        "operator:wikidata": "Q2003777"
      }
    },
    {
      "type": "node",
      "id": 4369804689,
      "lat": 12.9269106,
      "lon": 77.5934508,
      "tags": {
        "amenity": "toilets"
      }
    },
    {
      "type": "node",
      "id": 4446978240,
      "lat": 12.9258133,
      "lon": 77.5936851,
      "tags": {
        "addr:city": "Bangalore",
        "addr:housenumber": "# 1333",
        "addr:postcode": "560041",
        "addr:street": "26th Main Road, 4th Block, Jayanagar",
        "amenity": "pharmacy",
        "drive_through": "yes",
        "healthcare": "pharmacy",
        "name": "Upadhya Ayurveda Bhandara",
        "phone": "080 2663 9321",
        "source": "http://www.bangalorehospital.co.in/"
      }
    },
    {
      "type": "node",
      "id": 4446986134,
      "lat": 12.9267767,
      "lon": 77.5838359,
      "tags": {
        "addr:city": "bangalore",
        "addr:housenumber": "#771",
        "addr:postcode": "560011",
        "addr:street": "34th Cross Road,  4th Block, Jayanagara Jaya Nagar",
        "amenity": "pharmacy",
        "drive_through": "yes",
        "name": "Star Homeopathy",
        "phone": "+9191009 60066",
        "source": "http://www.bangalorehospital.co.in/",
        "website": "https://www.starhomeo.com/"
      }
    },
    {
      "type": "node",
      "id": 4447007998,
      "lat": 12.926767,
      "lon": 77.5965015,
      "tags": {
        "addr:city": "Bangalore",
        "addr:housenumber": "32nd \"E\" Cross",
        "addr:postcode": "560041",
        "addr:street": "28th Main Road, 4th T Block East, Jayanagara Jaya",
        "amenity": "clinic",
        "healthcare": "clinic",
        "name": "Sunrise Diagnostics",
        "phone": "081529 44944",
        "source": "http://www.justdial.com/"
      }
    },
    {
      "type": "node",
      "id": 4447020600,
      "lat": 12.930019,
      "lon": 77.584183,
      "tags": {
        "addr:city": "Bangalore",
        "addr:housenumber": "#348",
        "addr:postcode": "560011",
        "addr:street": "9th Main Road, 4th Block, Jayanagara",
        "amenity": "clinic",
        "name": "Bombay Surgicals",
        "phone": "+919739986012",
        "source": "http://www.justdial.com/"
      }
    },
    {
      "type": "node",
      "id": 4447329235,
      "lat": 12.9314177,
      "lon": 77.5913754,
      "tags": {
        "addr:city": "bangalore",
        "addr:housenumber": "72",
        "addr:postcode": "560078",
        "addr:street": "73 24th Main End Puttenahalli J. P Nagar 7th Phase,",
        "amenity": "pharmacy",
        "healthcare": "pharmacy",
        "name": "Sri Balaji medicals",
        "phone": "080 2653 5363"
      }
    },
    {
      "type": "node",
      "id": 4447920588,
      "lat": 12.9306322,
      "lon": 77.5841581,
      "tags": {
        "name": "BN Sreekantaiah and Sons",
        "shop": "supermarket"
      }
    },
    {
      "type": "node",
      "id": 4488816716,
      "lat": 12.9261819,
      "lon": 77.5973726,
      "tags": {
        "addr:city": "Bangalore",
        "addr:postcode": "560029",
        "addr:street": "East End Main Road",
        "motorcycle:repair": "yes",
        "name": "Silicon Honda Service Center",
        "phone": "096632 99621",
        "shop": "motorcycle",
        "website": "https://siliconhonda.com/"
      }
    },
    {
      "type": "node",
      "id": 4490342589,
      "lat": 12.9238145,
      "lon": 77.5897622,
      "tags": {
        "addr:city": "Bangalore",
        "addr:housenumber": "458/459",
        "addr:postcode": "560069",
        "addr:street": "458/459, First Floor, 18th Main Road, 4th T Block, Jayanagar, Above DCB Bank, Near Shanthi Upahar, T Block, 4th T Block East, Pattabhirama Nagar, Jayanagara",
        "leisure": "sports_centre",
        "name": "Apple Fitness",
        "opening_hours": "4:30-23:30",
        "phone": "9901635555",
        "sport": "gymnasium",
        "website": "applefitnessindia.com"
      }
    },
    {
      "type": "node",
      "id": 4859545955,
      "lat": 12.9283944,
      "lon": 77.5902973,
      "tags": {
        "brand": "Godrej",
        "shop": "furniture"
      }
    },
    {
      "type": "node",
      "id": 4859545957,
      "lat": 12.9284127,
      "lon": 77.5899272,
      "tags": {
        "shop": "travel_agency"
      }
    },
    {
      "type": "node",
      "id": 4859545958,
      "lat": 12.9284441,
      "lon": 77.5899513,
      "tags": {
        "shop": "clothes"
      }
    },
    {
      "type": "node",
      "id": 4859545959,
      "lat": 12.9284362,
      "lon": 77.5895061,
      "tags": {
        "name": "Nandini Milk Diary",
        "name:kn": "ನಂದಿನಿ ಹಾಲಿನ ಅಂಗಡಿ",
        "shop": "diary"
      }
    },
    {
      "type": "node",
      "id": 4935027478,
      "lat": 12.9289101,
      "lon": 77.5914708,
      "tags": {
        "amenity": "pub",
        "level": "5",
        "name": "Jimmys"
      }
    },
    {
      "type": "node",
      "id": 5081907157,
      "lat": 12.9290157,
      "lon": 77.5912224,
      "tags": {
        "amenity": "restaurant",
        "level": "3",
        "name": "Kobe Sizzlers"
      }
    },
    {
      "type": "node",
      "id": 5082019738,
      "lat": 12.9269553,
      "lon": 77.588051,
      "tags": {
        "shop": "beverages"
      }
    },
    {
      "type": "node",
      "id": 5082019739,
      "lat": 12.9269958,
      "lon": 77.5880496,
      "tags": {
        "name": "Sri Lakshmi Devi Xerox",
        "shop": "copyshop"
      }
    },
    {
      "type": "node",
      "id": 5082019740,
      "lat": 12.9270337,
      "lon": 77.588053,
      "tags": {
        "name": "Mataji Electricals",
        "shop": "electrical"
      }
    },
    {
      "type": "node",
      "id": 5082019741,
      "lat": 12.9264403,
      "lon": 77.5880677,
      "tags": {
        "amenity": "doctors",
        "name": "Indrani Clinic"
      }
    },
    {
      "type": "node",
      "id": 5082019746,
      "lat": 12.9263847,
      "lon": 77.588066,
      "tags": {
        "shop": "bakery"
      }
    },
    {
      "type": "node",
      "id": 5082019747,
      "lat": 12.9263533,
      "lon": 77.5880432,
      "tags": {
        "amenity": "pharmacy",
        "name": "Manish Pharmacy",
        "name:kn": "ಮನಿಷ್ ಫಾರ್ಮಸಿ"
      }
    },
    {
      "type": "node",
      "id": 5082019748,
      "lat": 12.9263527,
      "lon": 77.5880054,
      "tags": {
        "craft": "tailor",
        "shop": "tailor"
      }
    },
    {
      "type": "node",
      "id": 5082019749,
      "lat": 12.926352,
      "lon": 77.5879715,
      "tags": {
        "amenity": "doctors",
        "name": "Sharada Clinic",
        "name:kn": "ಶಾರದ ಕ್ಲಿನಿಕ್",
        "opening_hours": "09:00-13:00,17:00-21:00, Th closed",
        "operator": "Dr. Giri Rao Kolar"
      }
    },
    {
      "type": "node",
      "id": 5234718115,
      "lat": 12.9284958,
      "lon": 77.5856981,
      "tags": {
        "brand": "Ramraj Cotton",
        "brand:wikidata": "Q119161281",
        "name": "Ramraj Cotton",
        "shop": "clothes"
      }
    },
    {
      "type": "node",
      "id": 5234722031,
      "lat": 12.9288378,
      "lon": 77.5868945,
      "tags": {
        "amenity": "clinic",
        "healthcare": "clinic",
        "name": "Eye Care Clinic"
      }
    },
    {
      "type": "node",
      "id": 5234777582,
      "lat": 12.9271618,
      "lon": 77.5934225,
      "tags": {
        "name": "Krishna Bakery",
        "shop": "bakery"
      }
    },
    {
      "type": "node",
      "id": 5234777600,
      "lat": 12.9269123,
      "lon": 77.5907502,
      "tags": {
        "amenity": "atm",
        "brand": "Canara Bank",
        "brand:en": "Canara Bank",
        "brand:hi": "केनरा बैंक",
        "brand:kn": "ಕೆನರಾ ಬ್ಯಾಂಕ್",
        "brand:pa": "ਕੇਨਰਾ ਬੈਂਕ",
        "brand:pnb": "کینرا بینک",
        "brand:ur": "کینرا بینک",
        "brand:wikidata": "Q2003777",
        "name": "Canara Bank",
        "name:en": "Canara Bank",
        "name:hi": "केनरा बैंक",
        "name:kn": "ಕೆನರಾ ಬ್ಯಾಂಕ್",
        "name:pa": "ਕੇਨਰਾ ਬੈਂਕ",
        "name:pnb": "کینرا بینک",
        "name:ur": "کینرا بینک",
        "operator": "Canara Bank",
        "operator:wikidata": "Q2003777"
      }
    },
    {
      "type": "node",
      "id": 5234782692,
      "lat": 12.9268254,
      "lon": 77.5946896,
      "tags": {
        "amenity": "car_wash"
      }
    },
    {
      "type": "node",
      "id": 5234789471,
      "lat": 12.9270213,
      "lon": 77.5920261,
      "tags": {
        "amenity": "atm",
        "brand": "State Bank of India",
        "brand:wikidata": "Q1340361",
        "name": "State Bank of India",
        "operator": "State Bank of India",
        "operator:wikidata": "Q1340361",
        "short_name": "SBI"
      }
    },
    {
      "type": "node",
      "id": 5234797803,
      "lat": 12.9284598,
      "lon": 77.592774,
      "tags": {
        "amenity": "fast_food",
        "brand": "Five Star Chicken",
        "brand:wikidata": "Q127784422",
        "cuisine": "chicken",
        "delivery": "yes",
        "name": "Five Star Chicken",
        "takeaway": "yes"
      }
    },
    {
      "type": "node",
      "id": 5234798352,
      "lat": 12.9305734,
      "lon": 77.5862262,
      "tags": {
        "name": "Planet Fashion",
        "shop": "clothes"
      }
    },
    {
      "type": "node",
      "id": 5234798353,
      "lat": 12.9306435,
      "lon": 77.5863284,
      "tags": {
        "amenity": "restaurant",
        "name": "Vakulaa Veg Restaurant"
      }
    },
    {
      "type": "node",
      "id": 5234798355,
      "lat": 12.9318665,
      "lon": 77.5890475,
      "tags": {
        "name": "Choice Fancy And Stationary",
        "shop": "stationery"
      }
    },
    {
      "type": "node",
      "id": 5234798356,
      "lat": 12.9318362,
      "lon": 77.5890273,
      "tags": {
        "name": "Srushti Boutique",
        "shop": "clothes"
      }
    },
    {
      "type": "node",
      "id": 5234798357,
      "lat": 12.9318107,
      "lon": 77.5890029,
      "tags": {
        "name": "Sri Sai Lalitha Traders",
        "shop": "trade"
      }
    },
    {
      "type": "node",
      "id": 5234798358,
      "lat": 12.9318977,
      "lon": 77.5890661,
      "tags": {
        "amenity": "ice_cream",
        "name": "Joy Ice Creams"
      }
    },
    {
      "type": "node",
      "id": 5234799277,
      "lat": 12.9283464,
      "lon": 77.595684,
      "tags": {
        "amenity": "restaurant",
        "name": "Al Dubai Family Restaurant"
      }
    },
    {
      "type": "node",
      "id": 5234810897,
      "lat": 12.9320963,
      "lon": 77.5892378,
      "tags": {
        "amenity": "fast_food",
        "name": "Hot Chips"
      }
    },
    {
      "type": "node",
      "id": 5234810898,
      "lat": 12.9322848,
      "lon": 77.589363,
      "tags": {
        "name": "Sri Bharani Medical and General Store",
        "shop": "medical_supply"
      }
    },
    {
      "type": "node",
      "id": 5234810899,
      "lat": 12.9323172,
      "lon": 77.5893906,
      "tags": {
        "name": "Lakshmi Provisions Store",
        "shop": "greengrocer"
      }
    },
    {
      "type": "node",
      "id": 5925868185,
      "lat": 12.9269166,
      "lon": 77.5850456,
      "tags": {
        "addr:housenumber": "559",
        "addr:postcode": "560011",
        "addr:street": "32 Cross Road",
        "amenity": "school",
        "email": "support@etestzone.com",
        "name:en": "eTestZone Educational Services Pvt Ltd",
        "name:hi": "इटेस्ट्झोन एजुकेशनल सर्विस प्राइवेट लिमिटेड",
        "opening_hours": "Mo-Sa 09:30-20:30; Su 10:30-13:00",
        "operator": "Gururaj S",
        "phone": "9945988820",
        "website": "http://www.etestzone.com"
      }
    },
    {
      "type": "node",
      "id": 6349168143,
      "lat": 12.9274871,
      "lon": 77.5888165,
      "tags": {
        "addr:place": "Jayanagar",
        "amenity": "school",
        "isced:level": "2",
        "name": "Panchavati Vidyamandira Jayanagar",
        "name:kn": "ಪಂಚವಟಿ ವಿದ್ಯಾಮಂದಿರ ಜಯನಗರ",
        "operator": "Department of Education",
        "school": "primary"
      }
    },
    {
      "type": "node",
      "id": 6349268338,
      "lat": 12.9264405,
      "lon": 77.6000111,
      "tags": {
        "addr:place": "Gurappana Palya",
        "amenity": "school",
        "isced:level": "2",
        "name": "Saint Anthony Higher Primary School",
        "name:kn": "ಸೆಂಟ್‌ ಅಂಥೋನಿ ಹಿರಿಯ ಪ್ರಾಥಮಿಕ ಶಾಲೆ ಗುರಪ್ಪನಪಾಳ್ಯ",
        "operator": "Pvt. Aided",
        "school": "primary"
      }
    },
    {
      "type": "node",
      "id": 6349356487,
      "lat": 12.9329465,
      "lon": 77.5918045,
      "tags": {
        "addr:place": "Byrasandra",
        "amenity": "school",
        "isced:level": "2",
        "name": "GHPS(U) Byrasandra",
        "name:kn": "ಸರ್ಕಾರಿ ಹಿರಿಯ ಪ್ರಾಥಮಿಕ ಶಾಲೆ (ಯು) ಬೈರಸಂದ್ರ",
        "operator": "Department of Education",
        "school": "primary"
      }
    },
    {
      "type": "node",
      "id": 6882713319,
      "lat": 12.9279951,
      "lon": 77.5996596,
      "tags": {
        "addr:city": "Bengaluru",
        "addr:district": "BENGALURU URBAN",
        "addr:full": "44/54, 30th Cross, Tilak Nagar, Jayangar Extension",
        "addr:postcode": "560041",
        "addr:state": "Karnataka",
        "amenity": "blood_bank",
        "contact:mobile": "9448004502",
        "contact:phone": "8026536712",
        "name": "Sagar Hospital Blood Bank",
        "name:kn": "ಸಾಗರ ಆಸ್ಪತ್ರೆ ರಕ್ತ ಸಂಗ್ರಹ",
        "operator:type": "private",
        "source": "OpenGovernmentData"
      }
    },
    {
      "type": "node",
      "id": 6938912267,
      "lat": 12.9255233,
      "lon": 77.5937748,
      "tags": {
        "addr:district": "Bengaluru Urban",
        "addr:full": "No.1156, 26th Main, 4th `T` Block, Jayanagar (Opposite 4th `T` BlockBus Depot)",
        "addr:postcode": "560041",
        "addr:state": "Karnataka",
        "amenity": "hospital",
        "email": "info@sunayanaeyehospital.com",
        "healthcare": "hospital",
        "name": "Sunayana Eye Hospital",
        "operator:type": "private",
        "source": "OpenGovernmentData",
        "website": "https://sunayanaeyehospital.com/"
      }
    },
    {
      "type": "node",
      "id": 7035971836,
      "lat": 12.9303858,
      "lon": 77.5839445,
      "tags": {
        "addr:city": "Bengaluru",
        "name": "Nandini Milk Parlour",
        "operator": "KMF",
        "payment:cash": "yes",
        "shop": "dairy"
      }
    },
    {
      "type": "node",
      "id": 8873771371,
      "lat": 12.9285095,
      "lon": 77.5825416,
      "tags": {
        "amenity": "cafe",
        "name": "Lassi Park"
      }
    },
    {
      "type": "node",
      "id": 8873812714,
      "lat": 12.9285503,
      "lon": 77.5830663,
      "tags": {
        "brand": "GM",
        "name": "GM home automation center",
        "shop": "hardware"
      }
    },
    {
      "type": "node",
      "id": 8873823525,
      "lat": 12.9285248,
      "lon": 77.5829378,
      "tags": {
        "amenity": "bank",
        "brand": "DBS"
      }
    },
    {
      "type": "node",
      "id": 10895764739,
      "lat": 12.9265102,
      "lon": 77.5839311,
      "tags": {
        "name": "Diamond Facets",
        "shop": "jewelry"
      }
    },
    {
      "type": "node",
      "id": 11124101061,
      "lat": 12.9280849,
      "lon": 77.5837319,
      "tags": {
        "amenity": "parking_entrance",
        "parking": "multi-storey"
      }
    },
    {
      "type": "node",
      "id": 11124101063,
      "lat": 12.9285649,
      "lon": 77.5848497,
      "tags": {
        "amenity": "parking_entrance",
        "parking": "multi-storey"
      }
    },
    {
      "type": "node",
      "id": 11294646350,
      "lat": 12.9243224,
      "lon": 77.5951283,
      "tags": {
        "amenity": "kindergarten",
        "name": "Sudarshan Vidya Mandir Pre Primary School"
      }
    },
    {
      "type": "node",
      "id": 11296933565,
      "lat": 12.9273812,
      "lon": 77.6001621,
      "tags": {
        "amenity": "theatre",
        "name": "Mother Veronica Auditorium"
      }
    },
    {
      "type": "node",
      "id": 11557032415,
      "lat": 12.9273559,
      "lon": 77.5861504,
      "tags": {
        "addr:housenumber": "62",
        "addr:street": "11th Main Road",
        "amenity": "cafe",
        "check_date": "2024-01-27",
        "contact:instagram": "https://www.instagram.com/kongsiteabar.in",
        "cuisine": "bubble_tea",
        "delivery": "yes",
        "name": "Kongsi Tea Bar",
        "opening_hours": "11:00-23:00"
      }
    },
    {
      "type": "node",
      "id": 12079472253,
      "lat": 12.926426,
      "lon": 77.5856558,
      "tags": {
        "addr:city": "Bengaluru",
        "addr:district": "Bengaluru",
        "addr:housenumber": "529",
        "addr:postcode": "560011",
        "addr:street": "11 Main Road, Jayanagar",
        "branch": "jayanagar",
        "name": "GRT Jewellers",
        "name:kn": "ಜಿ ಆರ್ ಟಿ ಜ್ಯುವೆಲ್ಲರ್ಸ",
        "opening_hours": "Mo-Su 10:00-21:00",
        "phone": "080 2665 1515",
        "shop": "jewelry"
      }
    },
    {
      "type": "node",
      "id": 12118830314,
      "lat": 12.9287517,
      "lon": 77.586393,
      "tags": {
        "addr:street": "30th Cross Road",
        "name": "Amma's Pastries",
        "shop": "pastry"
      }
    },
    {
      "type": "node",
      "id": 12252356228,
      "lat": 12.9255563,
      "lon": 77.5952012,
      "tags": {
        "check_date": "2024-10-15",
        "contact:instagram": "junysbakehouse",
        "delivery": "only",
        "name": "Juny's Bakehouse",
        "shop": "pastry",
        "takeaway": "only"
      }
    },
    {
      "type": "node",
      "id": 12395928082,
      "lat": 12.9285611,
      "lon": 77.5819275,
      "tags": {
        "addr:city": "Bengaluru",
        "addr:street": "30th Cross Road",
        "addr:suburb": "Jayanagar",
        "amenity": "fast_food",
        "name": "Indian Tiffin Club"
      }
    },
    {
      "type": "node",
      "id": 12491615794,
      "lat": 12.9265055,
      "lon": 77.5832362,
      "tags": {
        "amenity": "community_centre",
        "check_date": "2025-01-11",
        "community_centre": "cultural_centre",
        "name": "Jayanagar Cultural And Civic Association",
        "phone": "+91 80 2244 3953"
      }
    },
    {
      "type": "node",
      "id": 12684804806,
      "lat": 12.9261107,
      "lon": 77.5898357,
      "tags": {
        "amenity": "cafe",
        "cuisine": "coffee_shop",
        "name": "The Bloom",
        "outdoor_seating": "yes"
      }
    },
    {
      "type": "node",
      "id": 12684804807,
      "lat": 12.9257978,
      "lon": 77.5897874,
      "tags": {
        "amenity": "bank",
        "atm": "yes",
        "brand": "Punjab National Bank",
        "brand:wikidata": "Q2743499",
        "name": "Punjab National Bank"
      }
    },
    {
      "type": "node",
      "id": 12800674481,
      "lat": 12.9264814,
      "lon": 77.5846675,
      "tags": {
        "amenity": "pub",
        "level": "4",
        "name": "Brew Meister"
      }
    },
    {
      "type": "node",
      "id": 12800674482,
      "lat": 12.9264285,
      "lon": 77.5848661,
      "tags": {
        "amenity": "cafe",
        "brand": "Chai Point",
        "brand:wikidata": "Q28173415",
        "cuisine": "coffee_shop",
        "name": "Chai Point",
        "takeaway": "yes"
      }
    },
    {
      "type": "node",
      "id": 12894266887,
      "lat": 12.9264207,
      "lon": 77.5846605,
      "tags": {
        "amenity": "restaurant",
        "name": "Meghana Foods"
      }
    },
    {
      "type": "node",
      "id": 12917043437,
      "lat": 12.9268984,
      "lon": 77.5864711,
      "tags": {
        "amenity": "fast_food",
        "brand": "Krispy Kreme",
        "brand:wikidata": "Q1192805",
        "cuisine": "donut",
        "name": "Krispy Kreme",
        "takeaway": "yes"
      }
    },
    {
      "type": "node",
      "id": 12917043440,
      "lat": 12.926488,
      "lon": 77.5858261,
      "tags": {
        "brand": "Joyalukkas",
        "brand:wikidata": "Q6297357",
        "name": "Joyalukkas",
        "shop": "jewelry"
      }
    },
    {
      "type": "node",
      "id": 13020103082,
      "lat": 12.9281585,
      "lon": 77.5838211,
      "tags": {
        "amenity": "fast_food",
        "cuisine": "indian",
        "name": "Desi Masala"
      }
    },
    {
      "type": "node",
      "id": 13020103083,
      "lat": 12.9284003,
      "lon": 77.5838841,
      "tags": {
        "access": "yes",
        "amenity": "bicycle_parking",
        "bicycle_parking": "rack",
        "capacity": "12",
        "fee": "no",
        "name": "Trin Trin",
        "operator": "DULT"
      }
    },
    {
      "type": "node",
      "id": 13288585225,
      "lat": 12.9269106,
      "lon": 77.5842972,
      "tags": {
        "amenity": "cafe",
        "name": "Snuzzles"
      }
    },
    {
      "type": "way",
      "id": 27446379,
      "center": {
        "lat": 12.9308657,
        "lon": 77.5902721
      },
      "tags": {
        "created_by": "Potlatch 0.10d",
        "leisure": "garden",
        "name": "LIC Colony Park"
      }
    },
    {
      "type": "way",
      "id": 27554059,
      "center": {
        "lat": 12.9298201,
        "lon": 77.5842754
      },
      "tags": {
        "building": "yes",
        "name": "Jayanagar 4th Block Shopping Complex",
        "shop": "supermarket"
      }
    },
    {
      "type": "way",
      "id": 32426679,
      "center": {
        "lat": 12.925172,
        "lon": 77.5901626
      },
      "tags": {
        "created_by": "Potlatch 0.10f",
        "leisure": "garden"
      }
    },
    {
      "type": "way",
      "id": 40631130,
      "center": {
        "lat": 12.9277597,
        "lon": 77.584383
      },
      "tags": {
        "amenity": "place_of_worship",
        "denomination": "sunni",
        "name": "Idgah Masjid",
        "name:kn": "ಈದ್ಗ ಮಸೀದಿ",
        "religion": "muslim"
      }
    },
    {
      "type": "way",
      "id": 40631131,
      "center": {
        "lat": 12.9261175,
        "lon": 77.592549
      },
      "tags": {
        "addr:district": "Mysore",
        "addr:full": "Near Balodhyana school Mysore, Jayanagara town Mysore, Jayanagara Main Road Mysore",
        "addr:postcode": "570014",
        "addr:state": "Karnataka",
        "amenity": "hospital",
        "contact:phone": "0821-2461158",
        "healthcare": "hospital",
        "name": "Jayanagar General Hospital",
        "name:kn": "ಸಂಜಯ್ ಗಾಂಧಿ ಆಸ್ಪತ್ರೆ",
        "operator:type": "government",
        "source": "OpenGovernmentData"
      }
    },
    {
      "type": "way",
      "id": 40631636,
      "center": {
        "lat": 12.9268815,
        "lon": 77.5996431
      },
      "tags": {
        "addr:street": "Bannerghatta Road",
        "amenity": "college",
        "landuse": "education",
        "name": "Carmel Convent PU College",
        "name:en": "Carmel Convent PU College",
        "name:kn": "ಕಾರ್ಮೆಲ್ ಕಾನ್ವೆಂಟ್"
      }
    },
    {
      "type": "way",
      "id": 40631651,
      "center": {
        "lat": 12.9251084,
        "lon": 77.5957927
      },
      "tags": {
        "leisure": "park"
      }
    },
    {
      "type": "way",
      "id": 40631652,
      "center": {
        "lat": 12.9251027,
        "lon": 77.594732
      },
      "tags": {
        "leisure": "park",
        "name": "Vishnuvardhan Park",
        "name:kn": "ವಿಷ್ಣುವರ್ಧನ ಉದ್ಯಾನವನ"
      }
    },
    {
      "type": "way",
      "id": 40633846,
      "center": {
        "lat": 12.9270063,
        "lon": 77.5888743
      },
      "tags": {
        "amenity": "college",
        "name": "BES Educational Institutions"
      }
    },
    {
      "type": "way",
      "id": 53748799,
      "center": {
        "lat": 12.9302254,
        "lon": 77.5841341
      },
      "tags": {
        "addr:city": "Jayanagar",
        "addr:district": "Bengaluru urban",
        "addr:postcode": "560011",
        "addr:street": "9th Main Road",
        "building": "yes",
        "name": "Janatha Bazaar",
        "name:kn": "ಜನತಾ ಬಜಾರ್",
        "shop": "supermarket"
      }
    },
    {
      "type": "way",
      "id": 55675141,
      "center": {
        "lat": 12.9288196,
        "lon": 77.5876667
      },
      "tags": {
        "amenity": "school",
        "name": "Vivekananda School",
        "name:kn": "ವಿವೇಕಾನಂದ ಶಾಲೆ"
      }
    },
    {
      "type": "way",
      "id": 55675143,
      "center": {
        "lat": 12.9280149,
        "lon": 77.5870065
      },
      "tags": {
        "amenity": "college",
        "name": "Vijaya College",
        "name:kn": "ವಿಜಯ ಕಾಲೇಜು"
      }
    },
    {
      "type": "way",
      "id": 130989090,
      "center": {
        "lat": 12.92835,
        "lon": 77.5834362
      },
      "tags": {
        "amenity": "place_of_worship",
        "landuse": "religious",
        "name": "Shri Dharmanath Shwetambar Jain Temple",
        "name:kn": "ಜೈನ ದೇವಸ್ಥಾನ",
        "religion": "jain"
      }
    },
    {
      "type": "way",
      "id": 131610641,
      "center": {
        "lat": 12.9278275,
        "lon": 77.5938058
      },
      "tags": {
        "amenity": "place_of_worship",
        "denomination": "sunni",
        "religion": "muslim"
      }
    },
    {
      "type": "way",
      "id": 133260584,
      "center": {
        "lat": 12.9304815,
        "lon": 77.5910291
      },
      "tags": {
        "amenity": "public_building",
        "building": "yes",
        "name": "BBMP Contact Center"
      }
    },
    {
      "type": "way",
      "id": 133260676,
      "center": {
        "lat": 12.9306049,
        "lon": 77.5908028
      },
      "tags": {
        "amenity": "library",
        "name": "Central Library Bangalore South Zone",
        "name:kn": "ಕೇಂದ್ರ ಗ್ರಂಥಾಲಯ"
      }
    },
    {
      "type": "way",
      "id": 133962070,
      "center": {
        "lat": 12.9288903,
        "lon": 77.5821155
      },
      "tags": {
        "amenity": "place_of_worship",
        "name": "Ganesha Temple, Jayanagar 4th Block",
        "name:kn": "ಗಣೇಶ ದೇವಸ್ಥಾನ",
        "religion": "hindu"
      }
    },
    {
      "type": "way",
      "id": 296669392,
      "center": {
        "lat": 12.9251618,
        "lon": 77.5913106
      },
      "tags": {
        "landuse": "recreation_ground",
        "leisure": "park"
      }
    },
    {
      "type": "way",
      "id": 347121408,
      "center": {
        "lat": 12.9265118,
        "lon": 77.5842297
      },
      "tags": {
        "building": "retail",
        "name": "Navaratan",
        "shop": "jewelry"
      }
    },
    {
      "type": "way",
      "id": 347122799,
      "center": {
        "lat": 12.926543,
        "lon": 77.5824933
      },
      "tags": {
        "amenity": "kindergarten",
        "building": "yes",
        "building:levels": "2",
        "check_date": "2025-01-11",
        "name": "Klay preschools And Daycare",
        "phone": "+91 76767 08888",
        "preschool": "yes",
        "website": "https://www.klayschools.com"
      }
    },
    {
      "type": "way",
      "id": 347186904,
      "center": {
        "lat": 12.925159,
        "lon": 77.5898394
      },
      "tags": {
        "building": "yes",
        "leisure": "sports_centre",
        "sport": "badminton"
      }
    },
    {
      "type": "way",
      "id": 347187218,
      "center": {
        "lat": 12.925168,
        "lon": 77.590854
      },
      "tags": {
        "amenity": "place_of_worship",
        "building": "yes",
        "denomination": "shaivism",
        "name": "Shakti Ganapathi Temple",
        "name:kn": "ಗಣಪತಿ ದೇವಸ್ಥಾನ",
        "religion": "hindu"
      }
    },
    {
      "type": "way",
      "id": 347187398,
      "center": {
        "lat": 12.9278436,
        "lon": 77.5914508
      },
      "tags": {
        "amenity": "place_of_worship",
        "building": "yes",
        "denomination": "shaivism",
        "religion": "hindu"
      }
    },
    {
      "type": "way",
      "id": 347187836,
      "center": {
        "lat": 12.9279948,
        "lon": 77.5894064
      },
      "tags": {
        "amenity": "hospital",
        "building": "yes",
        "name": "ESI Hospital",
        "name:kn": "ಇಎಸ್ಐ ಆಸ್ಪತ್ರೆ"
      }
    },
    {
      "type": "way",
      "id": 347208595,
      "center": {
        "lat": 12.9272428,
        "lon": 77.5918053
      },
      "tags": {
        "amenity": "place_of_worship",
        "building": "yes",
        "religion": "christian"
      }
    },
    {
      "type": "way",
      "id": 347520080,
      "center": {
        "lat": 12.9256655,
        "lon": 77.6001167
      },
      "tags": {
        "amenity": "fuel",
        "brand": "Bharat Petroleum",
        "brand:wikidata": "Q854826",
        "name": "Bharat Petroleum",
        "name:en": "Bharat Petroleum",
        "name:kn": "ಭಾರತ ಪೆಟ್ರೋಲಿಯಂ"
      }
    },
    {
      "type": "way",
      "id": 347534357,
      "center": {
        "lat": 12.927462,
        "lon": 77.5879362
      },
      "tags": {
        "amenity": "place_of_worship",
        "name": "Christha Prabhalaya Epiphany Church",
        "name:kn": "ಪ್ರಭಾಲಯ ಚರ್ಚ್",
        "religion": "christian"
      }
    },
    {
      "type": "way",
      "id": 442048030,
      "center": {
        "lat": 12.9279005,
        "lon": 77.5998446
      },
      "tags": {
        "addr:district": "Bengaluru Urban",
        "addr:full": "#44, 54, 30th Cross Rd, Bannerughatta Approach Road Layout, 4th T Block East, Tilak Nagar, Jayanagar,",
        "addr:postcode": "560041",
        "addr:state": "Karnataka",
        "amenity": "hospital",
        "email": "infojnr@sagarhospitals.in",
        "emergency": "yes",
        "healthcare": "hospital",
        "name": "Sagar Hospitals",
        "name:kn": "ಸಾಗರ್ ಆಸ್ಪತ್ರೆ",
        "operator:type": "private",
        "phone": "08042888888",
        "source": "OpenGovernmentData",
        "website": "http://www.sagarhospitals.in/"
      }
    },
    {
      "type": "way",
      "id": 521582239,
      "center": {
        "lat": 12.9283983,
        "lon": 77.591163
      },
      "tags": {
        "amenity": "toilets"
      }
    },
    {
      "type": "way",
      "id": 521592163,
      "center": {
        "lat": 12.925358,
        "lon": 77.5940216
      },
      "tags": {
        "amenity": "school",
        "name": "Sudarshan Vidya Mandir"
      }
    },
    {
      "type": "way",
      "id": 752917438,
      "center": {
        "lat": 12.9282487,
        "lon": 77.5843406
      },
      "tags": {
        "addr:city": "Bengaluru",
        "amenity": "bus_station",
        "building": "yes",
        "bus": "yes",
        "level": "3",
        "name": "Jayanagar TTMC",
        "operator": "BMTC",
        "public_transport": "station"
      }
    },
    {
      "type": "way",
      "id": 1062025932,
      "center": {
        "lat": 12.9251683,
        "lon": 77.5899996
      },
      "tags": {
        "leisure": "pitch",
        "name": "Basket Ball Training",
        "sport": "basketball"
      }
    },
    {
      "type": "way",
      "id": 1199655576,
      "center": {
        "lat": 12.9267471,
        "lon": 77.596997
      },
      "tags": {
        "amenity": "bank",
        "atm": "yes",
        "brand": "Bank of Baroda",
        "brand:wikidata": "Q2003797",
        "brand:wikipedia": "en:Bank of Baroda",
        "name": "Bank of Baroda",
        "name:en": "Bank of Baroda",
        "name:kn": "ಬ್ಯಾಂಕ್ ಆಫ್ ಬರೊಡಾ",
        "short_name": "BOB",
        "website": "http://www.bankofbaroda.com"
      }
    },
    {
      "type": "way",
      "id": 1199657418,
      "center": {
        "lat": 12.9252406,
        "lon": 77.5961825
      },
      "tags": {
        "name": "Nandini",
        "name:kn": "ನಂದಿನಿ",
        "shop": "dairy"
      }
    },
    {
      "type": "way",
      "id": 1199657419,
      "center": {
        "lat": 12.925006,
        "lon": 77.5953767
      },
      "tags": {
        "amenity": "toilets",
        "fee": "yes"
      }
    },
    {
      "type": "way",
      "id": 1242203386,
      "center": {
        "lat": 12.9264705,
        "lon": 77.5978168
      },
      "tags": {
        "addr:street": "Bannerghatta Road",
        "amenity": "school",
        "landuse": "education",
        "name": "Lourdes Convent School"
      }
    },
    {
      "type": "way",
      "id": 1242203388,
      "center": {
        "lat": 12.9272459,
        "lon": 77.5980996
      },
      "tags": {
        "addr:street": "Bannerghatta Road",
        "amenity": "school",
        "landuse": "education",
        "name": "Carmel Convent School",
        "name:kn": "ಕಾರ್ಮೆಲ್ ಕಾನ್ವೆಂಟ್ ಶಾಲೆ"
      }
    },
    {
      "type": "way",
      "id": 1242203419,
      "center": {
        "lat": 12.9289418,
        "lon": 77.5913637
      },
      "tags": {
        "name": "Garuda Swagath Mall",
        "name:kn": "ಗರುಡ ಸ್ವಾಗತ್ ಮಾಲ್",
        "shop": "mall"
      }
    },
    {
      "type": "way",
      "id": 1256457833,
      "center": {
        "lat": 12.9273417,
        "lon": 77.5865998
      },
      "tags": {
        "amenity": "school",
        "name": "Geeta HPS",
        "name:kn": "ಗೀತ ಹಿರಿಯ ಪ್ರಾಥಮಿಕ ಶಾಲೆ"
      }
    },
    {
      "type": "way",
      "id": 1395462316,
      "center": {
        "lat": 12.9268959,
        "lon": 77.5832353
      },
      "tags": {
        "amenity": "college",
        "name": "RV Dental College"
      }
    },
    {
      "type": "way",
      "id": 1422508733,
      "center": {
        "lat": 12.9274853,
        "lon": 77.5894444
      },
      "tags": {
        "amenity": "fuel",
        "brand": "Hindustan Petoleum",
        "fuel": "lpg",
        "fuel:lpg": "yes",
        "name": "Advaitha Petrol Bunk",
        "name:kn": "ಅಧ್ವೈತ ಪೆಟ್ರೊಲ್ ಬಂಕ್",
        "note": "non functional"
      }
    }
  ]
}