{
  "area_name": "Tunga Nagar",
  "osm_id": 12073167139,
  "osm_type": "node",
  "place_type": "neighbourhood",
  "amenity_count": 44,
  "amenities": [
    {
      "type": "node",
      "id": 4446730454,
      "lat": 12.9886463,
      "lon": 77.4880192,
      "tags": {
        "addr:city": "bangalore",
        "addr:housenumber": "87",
        "addr:postcode": "560075,",
        "addr:street": "BEML Main Rd, GM Palya, C V Raman Nagar",
        "amenity": "pharmacy",
        "name": "Sri Lakshmi Venkateshwara Medicals",
        "phone": "+919986468151"
      }
    },
    {
      "type": "node",
      "id": 4516825791,
      "lat": 12.9853579,
      "lon": 77.4791733,
      "tags": {
        "addr:postcode": "560091",
        "addr:street": "Magadi Road",
        "amenity": "school",
        "name": "Prajawal Nursing school",
        "name:en": "Prajawal Nursing school"
      }
    },
    {
      "type": "node",
      "id": 4516854189,
      "lat": 12.9857834,
      "lon": 77.4784608,
      "tags": {
        "addr:postcode": "560091",
        "addr:street": "Magadi Road",
        "name": "Pai Mobile Shop",
        "name:en": "Pai Mobile Shop",
        "shop": "mobile_phone"
      }
    },
    {
      "type": "node",
      "id": 4516854289,
      "lat": 12.985304,
      "lon": 77.4798633,
      "tags": {
        "addr:postcode": "560091",
        "addr:street": "Magadi Road",
        "name": "Royal Mart",
        "name:en": "Royal Mart",
        "shop": "supermarket"
      }
    },
    {
      "type": "node",
      "id": 4516854589,
      "lat": 12.9856793,
      "lon": 77.480059,
      "tags": {
        "addr:postcode": "560091",
        "addr:street": "Magadi Road",
        "amenity": "fuel",
        "brand": "Shell",
        "brand:wikidata": "Q110716465",
        "name": "Shell gas station",
        "name:en": "Shell gas station"
      }
    },
    {
      "type": "node",
      "id": 4516854789,
      "lat": 12.9853349,
      "lon": 77.4796592,
      "tags": {
        "addr:postcode": "560091",
        "addr:street": "Magadi Road",
        "name": "Kaveri Provision store",
        "name:en": "Kaveri Provision store",
        "shop": "department_store"
      }
    },
    {
      "type": "node",
      "id": 4516950889,
      "lat": 12.9852813,
      "lon": 77.4800802,
      "tags": {
        "addr:postcode": "560091",
        "addr:street": "Magadi Road",
        "amenity": "restaurant",
        "name": "Sanidhi",
        "name:en": "Sanidhi"
      }
    },
    {
      "type": "node",
      "id": 4518518597,
      "lat": 12.9867684,
      "lon": 77.491253,
      "tags": {
        "addr:street": "Magadi Road",
        "amenity": "police",
        "name": "Byadarahalli Police Station",
        "name:en": "Byadrahalli police station",
        "name:kn": "ಬ್ಯಾಡರಹಳ್ಳಿ ಆರಕ್ಷಕ ಠಾಣೆ"
      }
    },
    {
      "type": "node",
      "id": 4518518598,
      "lat": 12.9858493,
      "lon": 77.4792481,
      "tags": {
        "addr:street": "Magadi Road",
        "amenity": "fuel",
        "brand": "Hindustan Petroleum",
        "brand:wikidata": "Q1619375",
        "name": "HP petrol pump",
        "name:en": "HP petrol pump",
        "official_name": "Hindustan Petroleum"
      }
    },
    {
      "type": "node",
      "id": 4518518599,
      "lat": 12.98575,
      "lon": 77.4797543,
      "tags": {
        "addr:street": "Magadi Road",
        "amenity": "fuel",
        "name": "Petronas CNG Gas station",
        "name:en": "Petronas CNG Gas station"
      }
    },
    {
      "type": "node",
      "id": 4518535692,
      "lat": 12.986164,
      "lon": 77.4784133,
      "tags": {
        "addr:street": "Magadi Road",
        "name": "Feet Mart",
        "name:en": "Feet Mart",
        "shop": "shoes"
      }
    },
    {
      "type": "node",
      "id": 4519115594,
      "lat": 12.9852326,
      "lon": 77.4807794,
      "tags": {
        "amenity": "atm",
        "operator": "Canara Bank ATM"
      }
    },
    {
      "type": "node",
      "id": 4519115596,
      "lat": 12.9858942,
      "lon": 77.4879367,
      "tags": {
        "addr:street": "Magadi Road",
        "amenity": "bank",
        "brand:wikidata": "Q2003387",
        "brand:wikipedia": "en:Corporation Bank",
        "name": "Corporation Bank",
        "name:en": "Corporation Bank",
        "name:kn": "ಕಾರ್ಪರೇಷನ್ ಬ್ಯಾಂಕ್",
        "website": "https://corpbank.com/"
      }
    },
    {
      "type": "node",
      "id": 4519141289,
      "lat": 12.9834972,
      "lon": 77.4860976,
      "tags": {
        "amenity": "bank",
        "brand": "State Bank of India",
        "brand:wikidata": "Q1340361",
        "brand:wikipedia": "en:State Bank of India",
        "name": "State Bank of India",
        "name:en": "State bank of India",
        "name:kn": "ಭಾರತೀಯ ಸ್ಟೇಟ್ ಬ್ಯಾಂಕ್",
        "short_name": "SBI"
      }
    },
    {
      "type": "node",
      "id": 4541312892,
      "lat": 12.9858843,
      "lon": 77.47819,
      "tags": {
        "name": "Madur millan shop",
        "name:en": "Madur millan shop",
        "shop": "clothes"
      }
    },
    {
      "type": "node",
      "id": 4541383689,
      "lat": 12.984899,
      "lon": 77.4812378,
      "tags": {
        "amenity": "school",
        "name": "Government school",
        "name:en": "Government school",
        "name:kn": "ಸರ್ಕಾರಿ ಶಾಲೆ"
      }
    },
    {
      "type": "node",
      "id": 5001385821,
      "lat": 12.9856231,
      "lon": 77.4788722,
      "tags": {
        "addr:street": "Magadi Road",
        "name": "R R Electronic Shop",
        "name:en": "R R Electronic Shop",
        "shop": "electronics"
      }
    },
    {
      "type": "node",
      "id": 5001385822,
      "lat": 12.9860762,
      "lon": 77.4872663,
      "tags": {
        "amenity": "atm",
        "operator": "ICICI Bank ATM"
      }
    },
    {
      "type": "node",
      "id": 5130801923,
      "lat": 12.9845313,
      "lon": 77.481983,
      "tags": {
        "amenity": "drinking_water",
        "name": "RO water"
      }
    },
    {
      "type": "node",
      "id": 5130861821,
      "lat": 12.9857279,
      "lon": 77.4786325,
      "tags": {
        "addr:street": "Magadi Road",
        "name": "Smart electronics",
        "shop": "electronics"
      }
    },
    {
      "type": "node",
      "id": 6807562095,
      "lat": 13.0005435,
      "lon": 77.4842781,
      "tags": {
        "amenity": "fast_food",
        "name": "Just Cake"
      }
    },
    {
      "type": "node",
      "id": 6944895084,
      "lat": 12.9868695,
      "lon": 77.4794832,
      "tags": {
        "addr:district": "Bengaluru Rural",
        "addr:full": "116/2, Herohalli, Anjananagar, Opposite Petrol Bunk",
        "addr:postcode": "560091",
        "addr:state": "Karnataka",
        "amenity": "hospital",
        "name": "S.S.G. Hospital",
        "source": "OpenGovernmentData"
      }
    },
    {
      "type": "node",
      "id": 11043864435,
      "lat": 12.9996279,
      "lon": 77.488847,
      "tags": {
        "addr:city": "Bengaluru",
        "addr:district": "Bengaluru",
        "addr:housenumber": "603/604",
        "addr:postcode": "560091",
        "addr:street": "D Group Employee Layout, Andrahalli Main Road",
        "amenity": "cafe",
        "cuisine": "tea_shop;coffee_shop;pizza;burger;sandwich;veg_rolls",
        "internet_access": "wlan",
        "internet_access:fee": "yes",
        "name": "Tea Time",
        "opening_hours": "Mo-Su 06:30-21:30",
        "phone": "7483700788",
        "website": "https://bellurescafe.com/"
      }
    },
    {
      "type": "way",
      "id": 348255127,
      "center": {
        "lat": 12.9851038,
        "lon": 77.4909029
      },
      "tags": {
        "leisure": "swimming_pool",
        "location": "outdoor",
        "swimming_pool": "outdoor"
      }
    },
    {
      "type": "way",
      "id": 350856582,
      "center": {
        "lat": 12.9858847,
        "lon": 77.479807
      },
      "tags": {
        "amenity": "fuel"
      }
    },
    {
      "type": "way",
      "id": 350856872,
      "center": {
        "lat": 12.9858677,
        "lon": 77.4801379
      },
      "tags": {
        "amenity": "fuel"
      }
    },
    {
      "type": "way",
      "id": 351086394,
      "center": {
        "lat": 12.9901327,
        "lon": 77.4853073
      },
      "tags": {
        "amenity": "community_centre",
        "building": "yes",
        "name": "Heritage Convention Center"
      }
    },
    {
      "type": "way",
      "id": 351409577,
      "center": {
        "lat": 12.9846884,
        "lon": 77.4890453
      },
      "tags": {
        "amenity": "shelter",
        "building": "yes",
        "shelter_type": "gazebo"
      }
    },
    {
      "type": "way",
      "id": 363065446,
      "center": {
        "lat": 12.9950183,
        "lon": 77.4878637
      },
      "tags": {
        "leisure": "park",
        "name": "BBMP PARK",
        "name:kn": "ಬೃ. ಬೆ. ಮ. ಪಾ. ಉದ್ಯಾನವನ"
      }
    },
    {
      "type": "way",
      "id": 363065468,
      "center": {
        "lat": 12.9963038,
        "lon": 77.4879337
      },
      "tags": {
        "leisure": "park"
      }
    },
    {
      "type": "way",
      "id": 363065482,
      "center": {
        "lat": 12.9969187,
        "lon": 77.4864089
      },
      "tags": {
        "leisure": "park",
        "name": "BBMP Park",
        "name:kn": "ಬೃ. ಬೆ. ಮ. ಪಾ. ಉದ್ಯಾನವನ"
      }
    },
    {
      "type": "way",
      "id": 1241552546,
      "center": {
        "lat": 12.9846673,
        "lon": 77.4889974
      },
      "tags": {
        "leisure": "park"
      }
    },
    {
      "type": "way",
      "id": 1343674339,
      "center": {
        "lat": 12.9948226,
        "lon": 77.4785934
      },
      "tags": {
        "amenity": "school"
      }
    },
    {
      "type": "way",
      "id": 1343674344,
      "center": {
        "lat": 12.9924338,
        "lon": 77.4776955
      },
      "tags": {
        "amenity": "school"
      }
    },
    {
      "type": "way",
      "id": 1343674345,
      "center": {
        "lat": 12.995579,
        "lon": 77.4845155
      },
      "tags": {
        "access": "private",
        "leisure": "swimming_pool"
      }
    },
    {
      "type": "way",
      "id": 1353417453,
      "center": {
        "lat": 12.9990957,
        "lon": 77.4842139
      },
      "tags": {
        "amenity": "place_of_worship",
        "landuse": "religious",
        "name": "Shri Veerabhadreshwara Temple",
        "religion": "hindu"
      }
    },
    {
      "type": "way",
      "id": 1353417454,
      "center": {
        "lat": 12.9962703,
        "lon": 77.4847123
      },
      "tags": {
        "access": "private",
        "amenity": "parking",
        "parking": "surface"
      }
    },
    {
      "type": "way",
      "id": 1353417456,
      "center": {
        "lat": 12.9958281,
        "lon": 77.4844097
      },
      "tags": {
        "access": "private",
        "amenity": "parking",
        "parking": "surface"
      }
    },
    {
      "type": "way",
      "id": 1353417458,
      "center": {
        "lat": 12.9966833,
        "lon": 77.4846132
      },
      "tags": {
        "access": "private",
        "amenity": "parking",
        "parking": "surface"
      }
    },
    {
      "type": "way",
      "id": 1353417459,
      "center": {
        "lat": 12.997103,
        "lon": 77.4847154
      },
      "tags": {
        "leisure": "park"
      }
    },
    {
      "type": "way",
      "id": 1393102032,
      "center": {
        "lat": 12.9866431,
        "lon": 77.477489
      },
      "tags": {
        "amenity": "fuel",
        "brand": "TotalEnergies",
        "brand:wikidata": "Q154037",
        "name": "TotalEnergies"
      }
    },
    {
      "type": "way",
      "id": 1393102033,
      "center": {
        "lat": 12.9865431,
        "lon": 77.4777505
      },
      "tags": {
        "addr:street": "Magadi Road",
        "amenity": "fuel",
        "brand": "Indian Oil",
        "brand:wikidata": "Q1289348",
        "brand:wikipedia": "en:Indian Oil Corporation",
        "name": "Indian oil pump",
        "name:en": "Indian oil pump"
      }
    },
    {
      "type": "way",
      "id": 1412647454,
      "center": {
        "lat": 12.9831049,
        "lon": 77.4870141
      },
      "tags": {
        "leisure": "park"
      }
    },
    {
      "type": "way",
      "id": 1434051413,
      "center": {
        "lat": 12.9891237,
        "lon": 77.478603
      },
      "tags": {
        "addr:full": "No.50 3rd Cross, Police quarter Road, near Byadarahalli College Stop, Kempegowdanagar, Bengaluru, Karnataka 560091.",
        "addr:housenumber": "50",
        "amenity": "school",
        "name": "New Baldwin Public School"
      }
    }
  ]
}