{
  "area_name": "Udaya Nagar",
  "osm_id": 1483255832,
  "osm_type": "node",
  "place_type": "neighbourhood",
  "amenity_count": 102,
  "amenities": [
    {
      "type": "node",
      "id": 1078188306,
      "lat": 12.9979379,
      "lon": 77.6706603,
      "tags": {
        "amenity": "fuel",
        "brand": "Bharat Petroleum",
        "brand:wikidata": "Q854826",
        "compressed_air": "yes",
        "name": "Gokula Petrol / Gas Station"
      }
    },
    {
      "type": "node",
      "id": 1078214686,
      "lat": 12.994176,
      "lon": 77.6638974,
      "tags": {
        "amenity": "bank",
        "atm": "yes",
        "brand": "ICICI Bank",
        "brand:wikidata": "Q1653258",
        "name": "ICICI Bank",
        "name:en": "ICICI Bank",
        "name:kn": "ಐಸಿಐಸಿಐ ಬ್ಯಾಂಕು",
        "short_name": "ICICI",
        "website": "https://www.icicibank.com",
        "wheelchair": "no"
      }
    },
    {
      "type": "node",
      "id": 1477494236,
      "lat": 12.9935838,
      "lon": 77.6639522,
      "tags": {
        "addr:city": "Bangalore",
        "addr:floor": "0",
        "addr:housename": "Gopalan Grand Mall",
        "addr:postcode": "560016",
        "addr:street": "Swamy Vivekananda Road (Old Madras Road)",
        "addr:suburb": "Nagarvarapalya",
        "air_conditioning": "yes",
        "brand": "More",
        "brand:wikidata": "Q6910891",
        "check_date": "2024-04-03",
        "level": "0",
        "name": "More",
        "operator": "More",
        "organic": "yes",
        "payment:cash": "yes",
        "payment:credit_cards": "yes",
        "payment:debit_cards": "yes",
        "shop": "supermarket",
        "source": "survey",
        "stroller": "yes"
      }
    },
    {
      "type": "node",
      "id": 2481972739,
      "lat": 12.9934178,
      "lon": 77.6641088,
      "tags": {
        "addr:city": "Bangalore",
        "addr:floor": "2",
        "addr:housename": "Gopalan Grand Mall",
        "addr:street": "Swamy Vivekananda Road (Old Madras Road)",
        "addr:suburb": "Nagarvaraplaya",
        "air_conditioning": "yes",
        "amenity": "cinema",
        "check_date": "2024-04-03",
        "level": "2",
        "name": "Gopalan Cinemas",
        "payment:cash": "yes",
        "payment:credit_cards": "yes",
        "payment:debit_cards": "yes",
        "phone": "+91 80 25242424",
        "source": "survey",
        "website": "http://www.gopalancinemas.com"
      }
    },
    {
      "type": "node",
      "id": 2481972745,
      "lat": 12.9941566,
      "lon": 77.6637825,
      "tags": {
        "addr:city": "Bangalore",
        "addr:postcode": "560016",
        "addr:street": "Swamy Vivekananda Road (Old Madras Road)",
        "brand": "Bata",
        "brand:wikidata": "Q688082",
        "name": "Bata",
        "name:kn": "ಬಾಟಾ",
        "shop": "shoes"
      }
    },
    {
      "type": "node",
      "id": 2618750045,
      "lat": 12.9969842,
      "lon": 77.6688447,
      "tags": {
        "amenity": "place_of_worship",
        "religion": "hindu"
      }
    },
    {
      "type": "node",
      "id": 3451648238,
      "lat": 12.9940602,
      "lon": 77.6635358,
      "tags": {
        "amenity": "place_of_worship",
        "name": "Balamuri Ganapathi Temple",
        "name:kn": "ಬಲಮುರಿ ಗಣಪತಿ ದೇವಸ್ಥಾನ",
        "religion": "hindu"
      }
    },
    {
      "type": "node",
      "id": 3451649990,
      "lat": 12.9940893,
      "lon": 77.6637502,
      "tags": {
        "amenity": "bank",
        "atm": "yes",
        "brand": "Axis Bank",
        "brand:wikidata": "Q2003549",
        "brand:wikipedia": "en:Axis Bank",
        "name": "Axis Bank",
        "name:en": "Axis Bank",
        "name:kn": "ಅಕ್ಸಿಸ್ ಬ್ಯಾಂಕ್",
        "website": "https://www.axisbank.com"
      }
    },
    {
      "type": "node",
      "id": 3451676381,
      "lat": 12.9949932,
      "lon": 77.6635028,
      "tags": {
        "amenity": "school",
        "name": "Kannada Government School",
        "name:kn": "ಕನ್ನಡ ಪ್ರಾಥಮಿಕ ಶಾಲೆ"
      }
    },
    {
      "type": "node",
      "id": 3451678764,
      "lat": 12.994594,
      "lon": 77.6634203,
      "tags": {
        "addr:city": "Bangalore",
        "addr:postcode": "560016",
        "addr:street": "Benniganahalli",
        "amenity": "restaurant",
        "capacity": "50",
        "cuisine": "regional",
        "delivery": "yes",
        "name": "Nellore Mess",
        "outdoor_seating": "no",
        "smoking": "no",
        "takeaway": "yes"
      }
    },
    {
      "type": "node",
      "id": 3451680338,
      "lat": 12.9950723,
      "lon": 77.6634324,
      "tags": {
        "leisure": "park"
      }
    },
    {
      "type": "node",
      "id": 3893243199,
      "lat": 12.9987756,
      "lon": 77.6779628,
      "tags": {
        "amenity": "place_of_worship",
        "denomination": "seventh_day_adventist",
        "name": "Lowry Adventist English Church",
        "religion": "christian"
      }
    },
    {
      "type": "node",
      "id": 3893243200,
      "lat": 12.9985726,
      "lon": 77.6774283,
      "tags": {
        "amenity": "place_of_worship",
        "denomination": "seventh_day_adventist",
        "name": "Lowry Adventist Malayalam Church",
        "religion": "christian"
      }
    },
    {
      "type": "node",
      "id": 3893243201,
      "lat": 12.9995105,
      "lon": 77.6768327,
      "tags": {
        "amenity": "place_of_worship",
        "check_date": "2024-05-11",
        "denomination": "seventh_day_adventist",
        "name": "Lowry Adventist Telugu Church",
        "name:en": "Lowry Adventist Telugu Church",
        "religion": "christian"
      }
    },
    {
      "type": "node",
      "id": 3967503692,
      "lat": 12.9994669,
      "lon": 77.6807396,
      "tags": {
        "amenity": "place_of_worship",
        "denomination": "seventh_day_adventist",
        "name": "Lowry Adventist Kannada Church",
        "religion": "christian"
      }
    },
    {
      "type": "node",
      "id": 4163014390,
      "lat": 12.9927225,
      "lon": 77.6804914,
      "tags": {
        "addr:street": "PWD Road",
        "name": "More",
        "shop": "department_store"
      }
    },
    {
      "type": "node",
      "id": 4163019289,
      "lat": 12.9919663,
      "lon": 77.6802606,
      "tags": {
        "addr:street": "PWD Road",
        "amenity": "pharmacy",
        "brand": "Apollo Pharmacy",
        "brand:wikidata": "Q62562612",
        "healthcare": "pharmacy",
        "name": "Apollo Pharmacy",
        "name:kn": "ಅಪೊಲೋ ಫಾರ್ಮಸಿ"
      }
    },
    {
      "type": "node",
      "id": 4163019489,
      "lat": 12.9926621,
      "lon": 77.6804027,
      "tags": {
        "addr:street": "PWD Road",
        "amenity": "doctors",
        "name": "S S Clinic"
      }
    },
    {
      "type": "node",
      "id": 4163019689,
      "lat": 12.9925001,
      "lon": 77.6804323,
      "tags": {
        "addr:street": "PWD Road",
        "name": "Q Baby baby store",
        "shop": "toys"
      }
    },
    {
      "type": "node",
      "id": 4163019789,
      "lat": 12.9930245,
      "lon": 77.6805764,
      "tags": {
        "addr:street": "PWD Road",
        "brand": "Reliance Fresh",
        "brand:wikidata": "Q7311014",
        "name": "Reliance Fresh",
        "name:kn": "ರಿಲಾಯನ್ಸ್ ಫ್ರೆಶ್",
        "shop": "supermarket"
      }
    },
    {
      "type": "node",
      "id": 4167678892,
      "lat": 12.9917025,
      "lon": 77.6802757,
      "tags": {
        "amenity": "dentist",
        "name": "Sai Smile Venue Dentist"
      }
    },
    {
      "type": "node",
      "id": 4247041175,
      "lat": 12.9914365,
      "lon": 77.6685256,
      "tags": {
        "amenity": "place_of_worship",
        "name": "Bethal Mar Church",
        "religion": "christian"
      }
    },
    {
      "type": "node",
      "id": 4249991281,
      "lat": 12.9949687,
      "lon": 77.6659804,
      "tags": {
        "name": "Haiku Honda",
        "shop": "motorcycle"
      }
    },
    {
      "type": "node",
      "id": 4489823636,
      "lat": 12.9942151,
      "lon": 77.6662522,
      "tags": {
        "addr:city": "bangalore",
        "addr:housenumber": "100, 1st Floor, Place on Earth",
        "addr:postcode": "560016",
        "addr:street": "2nd Main Road, Pai Layout, Mahadevapura",
        "name": "Naturals Unisex Salon And Spa",
        "opening_hours": "10:00-21:00",
        "phone": "080 4113 2266",
        "shop": "beauty",
        "website": "https://naturals.in/"
      }
    },
    {
      "type": "node",
      "id": 4489920100,
      "lat": 12.9953943,
      "lon": 77.6670817,
      "tags": {
        "addr:city": "bangalore",
        "addr:housenumber": "8/2",
        "addr:postcode": "560037",
        "addr:street": "BEML Layout, Brookfield Main Road, Kundanahalli Village, BEML Layout, Brookefield",
        "name": "Naturals Unisex Salon And Spa",
        "opening_hours": "10:00-20:00",
        "phone": "080588 67780",
        "shop": "beauty",
        "website": "https://naturals.in/"
      }
    },
    {
      "type": "node",
      "id": 4599152789,
      "lat": 12.9932782,
      "lon": 77.6793591,
      "tags": {
        "amenity": "atm",
        "brand": "Axis Bank",
        "brand:wikidata": "Q2003549",
        "operator": "Axis Bank",
        "operator:wikidata": "Q2003549"
      }
    },
    {
      "type": "node",
      "id": 4599152889,
      "lat": 12.9931212,
      "lon": 77.6795196,
      "tags": {
        "amenity": "bank",
        "brand": "State Bank of India",
        "brand:wikidata": "Q1340361",
        "brand:wikipedia": "en:State Bank of India",
        "name": "State Bank of India",
        "name:kn": "ಎಸ್ ಬಿ ಐ",
        "short_name": "SBI",
        "website": "https://www.sbi.co.in"
      }
    },
    {
      "type": "node",
      "id": 4719715796,
      "lat": 12.993553,
      "lon": 77.664097,
      "tags": {
        "addr:city": "Bangalore",
        "addr:postcode": "560093",
        "addr:street": "Nagavarapalaya Main Road",
        "amenity": "fast_food",
        "brand": "Papa John's",
        "brand:wikidata": "Q2759586",
        "cuisine": "pizza",
        "name": "Papa John's",
        "opening_hours": "11:00 - 23:00",
        "phone": "080-65691122",
        "takeaway": "yes",
        "website": "https://www.papajohnspizza.in"
      }
    },
    {
      "type": "node",
      "id": 4886691121,
      "lat": 12.9908387,
      "lon": 77.6703063,
      "tags": {
        "name": "Mini bazaar",
        "name:en": "Mini bazaar",
        "shop": "supermarket"
      }
    },
    {
      "type": "node",
      "id": 4886691221,
      "lat": 12.9945917,
      "lon": 77.6669317,
      "tags": {
        "amenity": "restaurant",
        "cuisine": "chinese;indian",
        "name": "Sri Krishna restaurant",
        "name:en": "Sri Krishna restaurant"
      }
    },
    {
      "type": "node",
      "id": 5281839989,
      "lat": 12.9981365,
      "lon": 77.6712356,
      "tags": {
        "amenity": "bank",
        "atm": "yes",
        "brand": "Axis Bank",
        "brand:wikidata": "Q2003549",
        "name": "Axis Bank"
      }
    },
    {
      "type": "node",
      "id": 6569023741,
      "lat": 12.9960418,
      "lon": 77.6692897,
      "tags": {
        "addr:city": "Bengaluru",
        "addr:country": "IN",
        "addr:hamlet": "Mahadevapura",
        "addr:housenumber": "78",
        "addr:postcode": "560016",
        "addr:street": "Swamy Vivekananda Road",
        "addr:unit": "13th Floor",
        "amenity": "coworking_space",
        "brand": "WeWork",
        "brand:wikidata": "Q19995004",
        "fee": "yes",
        "level": "13",
        "name": "WeWork",
        "office": "coworking",
        "operator": "WeWork",
        "website": "https://www.wework.com/buildings/salarpuria-magnificia--bengaluru--Karnataka"
      }
    },
    {
      "type": "node",
      "id": 6947293198,
      "lat": 13.0029877,
      "lon": 77.675265,
      "tags": {
        "addr:district": "Bengaluru Urban",
        "addr:full": "Iti Layour 2nd Cross Vijinapura",
        "addr:postcode": "560016",
        "addr:state": "Karnataka",
        "amenity": "clinic",
        "name": "Sharada Poly Clinic",
        "source": "OpenGovernmentData"
      }
    },
    {
      "type": "node",
      "id": 7572131817,
      "lat": 12.997098,
      "lon": 77.671853,
      "tags": {
        "addr:district": "Bengaluru Urban",
        "addr:full": "Mahadevapura, Bengaluru",
        "addr:postcode": "560016",
        "addr:state": "Karnataka",
        "amenity": "clinic",
        "name": "Suma Clinic",
        "source": "Local Knowledge"
      }
    },
    {
      "type": "node",
      "id": 7572131819,
      "lat": 12.9901305,
      "lon": 77.6713322,
      "tags": {
        "addr:district": "Bengaluru Urban",
        "addr:full": "Udayanagar Extension, Mahadevapura, Bengaluru",
        "addr:postcode": "560013",
        "addr:state": "Karnataka",
        "amenity": "hospital",
        "name": "Jeevan Hospital",
        "source": "Local Knowledge"
      }
    },
    {
      "type": "node",
      "id": 7572131824,
      "lat": 12.9946786,
      "lon": 77.6709989,
      "tags": {
        "addr:district": "Bengaluru Urban",
        "addr:full": "Udaya Nagar, Mahadevapura, Bengaluru",
        "addr:postcode": "560016",
        "addr:state": "Karnataka",
        "amenity": "hospital",
        "name": "Vedam Ayurveda Multi Speciality Hospital",
        "source": "Local Knowledge"
      }
    },
    {
      "type": "node",
      "id": 7572131844,
      "lat": 12.9966313,
      "lon": 77.671863,
      "tags": {
        "addr:district": "Bengaluru Urban",
        "addr:full": "Udaya Nagar, Bengaluru",
        "addr:postcode": "560016",
        "addr:state": "Karnataka",
        "amenity": "hospital",
        "name": "Pragathi Piles Hospital",
        "source": "Local Knowledge"
      }
    },
    {
      "type": "node",
      "id": 7572131846,
      "lat": 12.9930144,
      "lon": 77.6728775,
      "tags": {
        "addr:district": "Bengaluru Urban",
        "addr:full": "NMR Layout, Udaya Nagar, Bengaluru",
        "addr:postcode": "560016",
        "addr:state": "Karnataka",
        "amenity": "clinic",
        "name": "Sri Vinayaka Clinic",
        "source": "Local Knowledge"
      }
    },
    {
      "type": "node",
      "id": 7572131851,
      "lat": 12.9969609,
      "lon": 77.6719408,
      "tags": {
        "addr:district": "Bengaluru Urban",
        "addr:full": "Mahadevapura, Bengaluru",
        "addr:postcode": "560016",
        "addr:state": "Karnataka",
        "amenity": "clinic",
        "name": "Medicure Poly Clinic & Daycare Centre",
        "source": "Local Knowledge"
      }
    },
    {
      "type": "node",
      "id": 7572131866,
      "lat": 12.9895049,
      "lon": 77.6741439,
      "tags": {
        "addr:district": "Bengaluru Urban",
        "addr:full": "Udaya Nagar, Mahadevapura, Bengaluru",
        "addr:postcode": "560016",
        "addr:state": "Karnataka",
        "amenity": "hospital",
        "name": "Mahaveer Hospitals",
        "source": "Local Knowledge"
      }
    },
    {
      "type": "node",
      "id": 7572131885,
      "lat": 12.9939085,
      "lon": 77.6753552,
      "tags": {
        "addr:district": "Bengaluru Urban",
        "addr:full": "ITI Employess Housing Colony, Mahadevapura, Bengaluru",
        "addr:postcode": "560016",
        "addr:state": "Karnataka",
        "amenity": "dentist",
        "name": "CS Dental Clinic",
        "source": "Local Knowledge"
      }
    },
    {
      "type": "node",
      "id": 7572131894,
      "lat": 12.989869,
      "lon": 77.676589,
      "tags": {
        "addr:district": "Bengaluru Urban",
        "addr:full": "Udaya Nagar, Mahadevapura, Bengaluru",
        "addr:postcode": "560016",
        "addr:state": "Karnataka",
        "amenity": "hospital",
        "name": "Cure N Care Hospital",
        "source": "Local Knowledge"
      }
    },
    {
      "type": "node",
      "id": 7572131898,
      "lat": 12.9949978,
      "lon": 77.6811339,
      "tags": {
        "addr:district": "Bengaluru Urban",
        "addr:full": "Narayanapura, Mahadevapura, Bengaluru",
        "addr:state": "Karnataka",
        "amenity": "clinic",
        "name": "Trinity Homeopathy Clinic",
        "source": "Local Knowledge"
      }
    },
    {
      "type": "node",
      "id": 7572131901,
      "lat": 12.9961003,
      "lon": 77.6727018,
      "tags": {
        "addr:district": "Bengaluru Urban",
        "addr:full": "Udaya Nagar, Mahadevapura, Bengaluru",
        "addr:postcode": "560016",
        "addr:state": "Karnataka",
        "amenity": "clinic",
        "name": "Mahayogam Clinic",
        "source": "Local Knowledge"
      }
    },
    {
      "type": "node",
      "id": 7572131908,
      "lat": 12.9934178,
      "lon": 77.6792135,
      "tags": {
        "addr:district": "Bengaluru Urban",
        "addr:full": "Narayanapura, Mahadevapura, Bengaluru",
        "addr:postcode": "560016",
        "addr:state": "Karnataka",
        "amenity": "dentist",
        "name": "Savitha Multi Speciality Dental Clinic",
        "source": "Local Knowledge"
      }
    },
    {
      "type": "node",
      "id": 7572131916,
      "lat": 12.9954417,
      "lon": 77.6724794,
      "tags": {
        "addr:district": "Bengaluru Urban",
        "addr:full": "Narayanapura, Mahadevapura, Bengaluru",
        "addr:postcode": "560016",
        "addr:state": "Karnataka",
        "amenity": "clinic",
        "name": "Heal & Comfort Homeopathic Clinic",
        "source": "Local Knowledge"
      }
    },
    {
      "type": "node",
      "id": 7572131921,
      "lat": 12.992589,
      "lon": 77.672821,
      "tags": {
        "addr:district": "Bengaluru Urban",
        "addr:full": "Udaya Nagar, Mahadevapura, Bengaluru",
        "addr:postcode": "560016",
        "addr:state": "Karnataka",
        "amenity": "clinic",
        "name": "Matrusree Clinic",
        "source": "Local Knowledge"
      }
    },
    {
      "type": "node",
      "id": 7572131923,
      "lat": 12.991561,
      "lon": 77.6757833,
      "tags": {
        "addr:district": "Bengaluru Urban",
        "addr:full": "Udaya Nagar, Bengaluru",
        "addr:postcode": "560016",
        "addr:state": "Karnataka",
        "amenity": "hospital",
        "name": "Prakruti Hospital",
        "source": "Local Knowledge"
      }
    },
    {
      "type": "node",
      "id": 7572131928,
      "lat": 12.990029,
      "lon": 77.670352,
      "tags": {
        "addr:district": "Bengaluru Urban",
        "addr:full": "Mahadevapura, Bengaluru",
        "addr:postcode": "560016",
        "addr:state": "Karnataka",
        "amenity": "dentist",
        "name": "Feather Touch Dental Care",
        "source": "Local Knowledge"
      }
    },
    {
      "type": "node",
      "id": 10303904018,
      "lat": 12.9952617,
      "lon": 77.6663992,
      "tags": {
        "air_conditioning": "yes",
        "amenity": "fast_food",
        "brand": "Domino's",
        "brand:wikidata": "Q839466",
        "check_date": "2023-01-04",
        "cuisine": "pizza",
        "diet:vegetarian": "yes",
        "indoor_seating": "yes",
        "name": "Domino's",
        "name:kn": "ಡಾಮಿನೋಸ್",
        "outdoor_seating": "no",
        "smoking": "no",
        "source": "survey",
        "takeaway": "yes"
      }
    },
    {
      "type": "node",
      "id": 10703105217,
      "lat": 13.0005386,
      "lon": 77.6766013,
      "tags": {
        "addr:floor": "G",
        "amenity": "atm",
        "brand": "IndusInd Bank",
        "brand:wikidata": "Q2040323",
        "cash_in": "no",
        "check_date": "2025-01-27",
        "level": "0",
        "name": "IndusInd Bank",
        "name:kn": "ಇಂಡಸ್ಇಂಡ್",
        "opening_hours": "24/7",
        "operator": "IndusInd Bank",
        "operator:wikidata": "Q2040323",
        "source": "survey"
      }
    },
    {
      "type": "node",
      "id": 10703105218,
      "lat": 13.0005508,
      "lon": 77.6762035,
      "tags": {
        "amenity": "restaurant",
        "bar": "no",
        "check_date": "2025-11-15",
        "cuisine": "indian",
        "diet:vegetarian": "only",
        "highchair": "no",
        "name": "Bengaluru Bites",
        "outdoor_seating": "no",
        "source": "survey"
      }
    },
    {
      "type": "node",
      "id": 11298095568,
      "lat": 12.9950728,
      "lon": 77.6690376,
      "tags": {
        "amenity": "parking_entrance",
        "parking": "underground"
      }
    },
    {
      "type": "node",
      "id": 11896623367,
      "lat": 12.9996529,
      "lon": 77.6766093,
      "tags": {
        "addr:floor": "G",
        "amenity": "restaurant",
        "check_date": "2024-05-11",
        "cuisine": "regional",
        "diet:vegetarian": "yes",
        "internet_access": "no",
        "level": "0",
        "name": "Udupi Aaradhya",
        "name:en": "Udupi Aaradhya",
        "wheelchair": "no"
      }
    },
    {
      "type": "node",
      "id": 11896623368,
      "lat": 12.9996515,
      "lon": 77.6765418,
      "tags": {
        "addr:floor": "1",
        "amenity": "restaurant",
        "check_date": "2024-05-11",
        "diet:non-vegetarian": "yes",
        "level": "1",
        "name": "Sindhoora Gardenia",
        "name:en": "Sindhoora Gardenia"
      }
    },
    {
      "type": "node",
      "id": 11896623993,
      "lat": 12.9993321,
      "lon": 77.6767553,
      "tags": {
        "addr:floor": "G",
        "amenity": "atm",
        "brand": "Union Bank of India",
        "brand:wikidata": "Q2004078",
        "check_date": "2024-05-11",
        "level": "0",
        "operator": "Union Bank of India",
        "operator:wikidata": "Q2004078"
      }
    },
    {
      "type": "node",
      "id": 11896623994,
      "lat": 12.9994188,
      "lon": 77.6769089,
      "tags": {
        "amenity": "college",
        "check_date": "2024-05-11",
        "name": "Lowry Adventist College And Group Of Institutions",
        "name:en": "Lowry Adventist College And Group Of Institutions"
      }
    },
    {
      "type": "node",
      "id": 12536352048,
      "lat": 12.998241,
      "lon": 77.6730671,
      "tags": {
        "brand": "TVS",
        "brand:wikidata": "Q3300084",
        "check_date": "2025-01-27",
        "name": "TVS",
        "shop": "motorcycle",
        "source": "survey"
      }
    },
    {
      "type": "node",
      "id": 12551627587,
      "lat": 12.9985473,
      "lon": 77.6664255,
      "tags": {
        "leisure": "fitness_station",
        "sport": "fitness"
      }
    },
    {
      "type": "node",
      "id": 12551627588,
      "lat": 12.9985915,
      "lon": 77.6664724,
      "tags": {
        "leisure": "fitness_station",
        "sport": "fitness"
      }
    },
    {
      "type": "node",
      "id": 12551629153,
      "lat": 12.9969483,
      "lon": 77.6703852,
      "tags": {
        "amenity": "toilets",
        "fee": "yes"
      }
    },
    {
      "type": "node",
      "id": 12769507793,
      "lat": 12.9993025,
      "lon": 77.6766323,
      "tags": {
        "amenity": "pharmacy",
        "healthcare": "pharmacy"
      }
    },
    {
      "type": "node",
      "id": 12787887504,
      "lat": 12.9953369,
      "lon": 77.6668819,
      "tags": {
        "amenity": "restaurant",
        "check_date": "2025-04-26",
        "indoor_seating": "yes",
        "name": "Zaatar",
        "outdoor_seating": "no"
      }
    },
    {
      "type": "node",
      "id": 12787887505,
      "lat": 12.998045,
      "lon": 77.6654423,
      "tags": {
        "amenity": "bench",
        "armrest": "yes",
        "backrest": "yes",
        "material": "granite",
        "seats": "3"
      }
    },
    {
      "type": "node",
      "id": 12787887506,
      "lat": 12.9981136,
      "lon": 77.6656155,
      "tags": {
        "amenity": "bench",
        "armrest": "yes",
        "backrest": "yes",
        "material": "granite",
        "seats": "3"
      }
    },
    {
      "type": "node",
      "id": 12925049079,
      "lat": 12.9965416,
      "lon": 77.6687258,
      "tags": {
        "name": "Amul",
        "shop": "dairy"
      }
    },
    {
      "type": "node",
      "id": 13305157141,
      "lat": 13.0005485,
      "lon": 77.6758356,
      "tags": {
        "amenity": "toilets",
        "check_date": "2025-11-15",
        "fee": "yes",
        "name": "Pay & Use Toilet"
      }
    },
    {
      "type": "way",
      "id": 134987718,
      "center": {
        "lat": 12.9977631,
        "lon": 77.6796595
      },
      "tags": {
        "amenity": "college",
        "name": "Lowry Memorial College"
      }
    },
    {
      "type": "way",
      "id": 182175832,
      "center": {
        "lat": 12.9934419,
        "lon": 77.6640393
      },
      "tags": {
        "addr:city": "Bangalore",
        "addr:housename": "Nagavarapalya",
        "addr:housenumber": "86",
        "addr:postcode": "560016",
        "addr:street": "Swamy Vivekananda Road (Old Madras Road)",
        "building": "retail",
        "name": "Gopalan Grand Mall",
        "shop": "mall",
        "toilets": "yes"
      }
    },
    {
      "type": "way",
      "id": 346694945,
      "center": {
        "lat": 12.9910594,
        "lon": 77.6723954
      },
      "tags": {
        "amenity": "bank",
        "atm": "yes",
        "brand": "Karnataka Bank",
        "brand:wikidata": "Q2042632",
        "building": "yes",
        "name": "Karnataka Bank",
        "name:kn": "ಕರ್ನಾಟಕ ಬ್ಯಾಂಕ್"
      }
    },
    {
      "type": "way",
      "id": 346750466,
      "center": {
        "lat": 12.998018,
        "lon": 77.6752455
      },
      "tags": {
        "amenity": "cinema",
        "building": "yes",
        "name": "Pushpanjali Theatre",
        "name:kn": "ಪುಷ್ಪಾಂಜಲಿ"
      }
    },
    {
      "type": "way",
      "id": 346819206,
      "center": {
        "lat": 12.9899026,
        "lon": 77.6724821
      },
      "tags": {
        "addr:city": "Bengaluru",
        "addr:postcode": "560016",
        "addr:street": "Shiva Mandir Road",
        "amenity": "place_of_worship",
        "building": "yes",
        "name": "Shiva Devasthana",
        "name:kn": "ಶಿವ ದೇವಸ್ಥಾನ",
        "religion": "hindu"
      }
    },
    {
      "type": "way",
      "id": 348985312,
      "center": {
        "lat": 12.9959528,
        "lon": 77.6773578
      },
      "tags": {
        "amenity": "place_of_worship",
        "building": "yes",
        "religion": "hindu"
      }
    },
    {
      "type": "way",
      "id": 363598202,
      "center": {
        "lat": 12.9978183,
        "lon": 77.6631974
      },
      "tags": {
        "leisure": "park",
        "name": "Swami Vivekanada Park"
      }
    },
    {
      "type": "way",
      "id": 425371165,
      "center": {
        "lat": 12.9915781,
        "lon": 77.668453
      },
      "tags": {
        "name": "Shoppers City",
        "shop": "supermarket"
      }
    },
    {
      "type": "way",
      "id": 554938054,
      "center": {
        "lat": 12.9958742,
        "lon": 77.6759136
      },
      "tags": {
        "leisure": "playground"
      }
    },
    {
      "type": "way",
      "id": 554938055,
      "center": {
        "lat": 12.9960299,
        "lon": 77.6765147
      },
      "tags": {
        "leisure": "park"
      }
    },
    {
      "type": "way",
      "id": 629461726,
      "center": {
        "lat": 12.9990444,
        "lon": 77.6809468
      },
      "tags": {
        "leisure": "garden"
      }
    },
    {
      "type": "way",
      "id": 742766783,
      "center": {
        "lat": 12.993048,
        "lon": 77.6771944
      },
      "tags": {
        "leisure": "park",
        "name": "Udyanavana, MEG Layout"
      }
    },
    {
      "type": "way",
      "id": 742766784,
      "center": {
        "lat": 12.9916742,
        "lon": 77.6769924
      },
      "tags": {
        "leisure": "park",
        "name": "Children's Park, MEG Layout"
      }
    },
    {
      "type": "way",
      "id": 742766785,
      "center": {
        "lat": 12.9922905,
        "lon": 77.6769764
      },
      "tags": {
        "amenity": "place_of_worship",
        "building": "yes",
        "name": "Sri Madduramma Devi Temple",
        "name:kn": "ಮದ್ದುರಮ್ಮ ದೇವಸ್ಥಾನ",
        "religion": "hindu"
      }
    },
    {
      "type": "way",
      "id": 753235654,
      "center": {
        "lat": 12.9971489,
        "lon": 77.6807067
      },
      "tags": {
        "leisure": "track"
      }
    },
    {
      "type": "way",
      "id": 1053086121,
      "center": {
        "lat": 12.9888213,
        "lon": 77.66725
      },
      "tags": {
        "leisure": "pitch",
        "sport": "tennis"
      }
    },
    {
      "type": "way",
      "id": 1053086122,
      "center": {
        "lat": 12.9893158,
        "lon": 77.6669265
      },
      "tags": {
        "leisure": "park"
      }
    },
    {
      "type": "way",
      "id": 1053353597,
      "center": {
        "lat": 12.9879573,
        "lon": 77.670647
      },
      "tags": {
        "leisure": "park"
      }
    },
    {
      "type": "way",
      "id": 1053353598,
      "center": {
        "lat": 12.9881291,
        "lon": 77.6710331
      },
      "tags": {
        "access": "private",
        "leisure": "swimming_pool"
      }
    },
    {
      "type": "way",
      "id": 1053353599,
      "center": {
        "lat": 12.9883336,
        "lon": 77.6709752
      },
      "tags": {
        "leisure": "playground"
      }
    },
    {
      "type": "way",
      "id": 1053353600,
      "center": {
        "lat": 12.9881888,
        "lon": 77.6713563
      },
      "tags": {
        "leisure": "pitch",
        "sport": "tennis"
      }
    },
    {
      "type": "way",
      "id": 1089715164,
      "center": {
        "lat": 12.9948017,
        "lon": 77.6689803
      },
      "tags": {
        "leisure": "swimming_pool"
      }
    },
    {
      "type": "way",
      "id": 1104358046,
      "center": {
        "lat": 13.0003441,
        "lon": 77.6754746
      },
      "tags": {
        "access": "yes",
        "amenity": "parking",
        "fee": "yes",
        "parking": "surface"
      }
    },
    {
      "type": "way",
      "id": 1217530866,
      "center": {
        "lat": 12.9875258,
        "lon": 77.6699596
      },
      "tags": {
        "amenity": "school"
      }
    },
    {
      "type": "way",
      "id": 1233501427,
      "center": {
        "lat": 12.9973364,
        "lon": 77.6687818
      },
      "tags": {
        "amenity": "motorcycle_parking",
        "fee": "yes",
        "lit": "yes",
        "supervised": "yes"
      }
    },
    {
      "type": "way",
      "id": 1246080025,
      "center": {
        "lat": 12.9960641,
        "lon": 77.6683204
      },
      "tags": {
        "access": "customers",
        "amenity": "motorcycle_parking",
        "covered": "no",
        "fee": "yes",
        "name": "Metro Parking",
        "parking": "surface"
      }
    },
    {
      "type": "way",
      "id": 1267178656,
      "center": {
        "lat": 13.0000665,
        "lon": 77.6665505
      },
      "tags": {
        "access": "private",
        "leisure": "swimming_pool"
      }
    },
    {
      "type": "way",
      "id": 1310874421,
      "center": {
        "lat": 12.9988699,
        "lon": 77.6748143
      },
      "tags": {
        "amenity": "fuel",
        "brand": "Bharat Petroleum",
        "brand:wikidata": "Q854826",
        "compressed_air": "yes",
        "name": "Bharat Petroleum"
      }
    },
    {
      "type": "way",
      "id": 1310874425,
      "center": {
        "lat": 13.0005471,
        "lon": 77.6774973
      },
      "tags": {
        "access": "yes",
        "amenity": "parking",
        "fee": "yes",
        "parking": "surface"
      }
    },
    {
      "type": "way",
      "id": 1339756836,
      "center": {
        "lat": 13.0008706,
        "lon": 77.6653039
      },
      "tags": {
        "leisure": "park"
      }
    },
    {
      "type": "way",
      "id": 1356191543,
      "center": {
        "lat": 12.9970053,
        "lon": 77.6683967
      },
      "tags": {
        "amenity": "shelter",
        "building": "yes",
        "shelter_type": "gazebo"
      }
    },
    {
      "type": "way",
      "id": 1379014634,
      "center": {
        "lat": 12.9998525,
        "lon": 77.6771916
      },
      "tags": {
        "access": "yes",
        "amenity": "motorcycle_parking",
        "covered": "yes",
        "fee": "yes"
      }
    },
    {
      "type": "way",
      "id": 1430649326,
      "center": {
        "lat": 12.9891648,
        "lon": 77.6674091
      },
      "tags": {
        "leisure": "bleachers"
      }
    },
    {
      "type": "way",
      "id": 1430649327,
      "center": {
        "lat": 12.989185,
        "lon": 77.66741
      },
      "tags": {
        "access": "private",
        "amenity": "theatre",
        "theatre:type": "amphi"
      }
    },
    {
      "type": "way",
      "id": 1430649328,
      "center": {
        "lat": 12.9894247,
        "lon": 77.6669543
      },
      "tags": {
        "access": "private",
        "leisure": "playground",
        "surface": "grass"
      }
    }
  ]
}