{
  "area_name": "Uttarahalli",
  "osm_id": 573534505,
  "osm_type": "node",
  "place_type": "suburb",
  "amenity_count": 145,
  "amenities": [
    {
      "type": "node",
      "id": 471760563,
      "lat": 12.9056992,
      "lon": 77.5424892,
      "tags": {
        "amenity": "place_of_worship",
        "name": "Veeranjeneya Temple",
        "name:kn": "ವೀರಾಂಜನೇಯ ದೇವಸ್ಥಾನ",
        "religion": "hindu"
      }
    },
    {
      "type": "node",
      "id": 471760581,
      "lat": 12.9052725,
      "lon": 77.5432875,
      "tags": {
        "amenity": "bus_station",
        "name": "Uttarahalli Bus Station",
        "name:kn": "ಉತ್ತರಹಳ್ಳಿ ಬಸ್ ನಿಲ್ದಾಣ"
      }
    },
    {
      "type": "node",
      "id": 1085786963,
      "lat": 12.9095131,
      "lon": 77.5502862,
      "tags": {
        "addr:street": "Uttarahalli Main Road",
        "amenity": "school",
        "name": "Bangalore International Public School"
      }
    },
    {
      "type": "node",
      "id": 1463586819,
      "lat": 12.9081687,
      "lon": 77.5373087,
      "tags": {
        "amenity": "school",
        "name": "Quality Nursing Institute"
      }
    },
    {
      "type": "node",
      "id": 1463588393,
      "lat": 12.9061186,
      "lon": 77.5418693,
      "tags": {
        "amenity": "bank",
        "atm": "yes",
        "brand": "State Bank of India",
        "brand:wikidata": "Q1340361",
        "brand:wikipedia": "en:State Bank of India",
        "name": "State Bank of India",
        "name:kn": "ಭಾರತೀಯ ಸ್ಟೇಟ್ ಬ್ಯಾಂಕ್",
        "short_name": "SBI"
      }
    },
    {
      "type": "node",
      "id": 1463589053,
      "lat": 12.9059935,
      "lon": 77.5421849,
      "tags": {
        "amenity": "fuel",
        "brand": "Hindustan Petroleum",
        "brand:wikidata": "Q1619375",
        "name": "HP",
        "official_name": "Hindustan Petroleum"
      }
    },
    {
      "type": "node",
      "id": 1463591081,
      "lat": 12.9061033,
      "lon": 77.5429789,
      "tags": {
        "brand": "TVS",
        "brand:wikidata": "Q3300084",
        "shop": "motorcycle"
      }
    },
    {
      "type": "node",
      "id": 1463591334,
      "lat": 12.9056118,
      "lon": 77.5434456,
      "tags": {
        "amenity": "school",
        "name": "Government School",
        "name:kn": "ಸರ್ಕಾರಿ ಶಾಲೆ"
      }
    },
    {
      "type": "node",
      "id": 1463591629,
      "lat": 12.9048588,
      "lon": 77.5442073,
      "tags": {
        "amenity": "place_of_worship",
        "name": "St Anthony",
        "religion": "christian"
      }
    },
    {
      "type": "node",
      "id": 1463592177,
      "lat": 12.903508,
      "lon": 77.5442237,
      "tags": {
        "amenity": "cinema",
        "name": "Vaishnavi"
      }
    },
    {
      "type": "node",
      "id": 1463593080,
      "lat": 12.9064379,
      "lon": 77.5443522,
      "tags": {
        "amenity": "atm",
        "brand": "Corporation Bank",
        "brand:wikidata": "Q2003387",
        "name": "Corporation Bank",
        "operator": "Corporation Bank",
        "operator:wikidata": "Q2003387"
      }
    },
    {
      "type": "node",
      "id": 1463594510,
      "lat": 12.9099779,
      "lon": 77.5508753,
      "tags": {
        "amenity": "restaurant",
        "name": "Masala",
        "name:kn": "ಮಸಾಲ"
      }
    },
    {
      "type": "node",
      "id": 1463594776,
      "lat": 12.9100302,
      "lon": 77.5509021,
      "tags": {
        "amenity": "bar",
        "name": "Masala",
        "name:kn": "ಮಸಾಲ"
      }
    },
    {
      "type": "node",
      "id": 1463595320,
      "lat": 12.9109528,
      "lon": 77.5516022,
      "tags": {
        "amenity": "fast_food",
        "brand": "Domino's",
        "brand:ks": "ڈومینوز",
        "brand:pa": "ਡੋਮੀਨੋਜ਼",
        "brand:ur": "ڈومینوز",
        "brand:wikidata": "Q839466",
        "brand:wikipedia": "en:Domino's Pizza",
        "cuisine": "pizza",
        "name": "Domino's",
        "name:ks": "ڈومینوز",
        "name:pa": "ਡੋਮੀਨੋਜ਼",
        "name:ur": "ڈومینوز",
        "takeaway": "yes"
      }
    },
    {
      "type": "node",
      "id": 1466619661,
      "lat": 12.9003434,
      "lon": 77.5436207,
      "tags": {
        "amenity": "place_of_worship",
        "name": "Subramanya Temple",
        "name:kn": "ಸುಬ್ರಮಣ್ಯ ದೇವಸ್ಥಾನ",
        "religion": "hindu"
      }
    },
    {
      "type": "node",
      "id": 1466620448,
      "lat": 12.8988689,
      "lon": 77.5441625,
      "tags": {
        "amenity": "post_office",
        "name": "Uttarahalli Post Office",
        "name:kn": "ಉತ್ತರಹಳ್ಳಿ ಆಂಚೆ ಕಛೇರಿ"
      }
    },
    {
      "type": "node",
      "id": 1471920977,
      "lat": 12.9070482,
      "lon": 77.5457118,
      "tags": {
        "brand": "Reliance Fresh",
        "brand:wikidata": "Q7311014",
        "name": "Reliance Fresh",
        "name:kn": "ರಿಲೈಯನ್ಸ್ ಫ್ರೆಶ್",
        "shop": "supermarket"
      }
    },
    {
      "type": "node",
      "id": 1471920981,
      "lat": 12.9090588,
      "lon": 77.5492656,
      "tags": {
        "amenity": "fast_food",
        "name": "Kaggis' Bakery"
      }
    },
    {
      "type": "node",
      "id": 1471922225,
      "lat": 12.9094097,
      "lon": 77.5499084,
      "tags": {
        "addr:postcode": "560061",
        "addr:street": "Dr. Vishnuvardhan Road",
        "amenity": "fast_food",
        "level": "-1",
        "name": "North Karanataka mess",
        "takeaway": "yes"
      }
    },
    {
      "type": "node",
      "id": 1471928745,
      "lat": 12.9118067,
      "lon": 77.5518439,
      "tags": {
        "amenity": "place_of_worship",
        "name": "Shanimahatma Temple",
        "name:kn": "ಶನಿ ಮಹಾತ್ಮ ದೇವಸ್ಥಾನ",
        "religion": "hindu"
      }
    },
    {
      "type": "node",
      "id": 2078584571,
      "lat": 12.906013,
      "lon": 77.5419622,
      "tags": {
        "amenity": "atm",
        "brand": "State Bank of India",
        "brand:wikidata": "Q1340361",
        "name": "State Bank of India",
        "operator": "State Bank of India",
        "operator:wikidata": "Q1340361",
        "short_name": "SBI",
        "wheelchair": "no"
      }
    },
    {
      "type": "node",
      "id": 2120440939,
      "lat": 12.9068614,
      "lon": 77.541664,
      "tags": {
        "amenity": "bench",
        "backrest": "yes",
        "material": "stone",
        "seats": "3"
      }
    },
    {
      "type": "node",
      "id": 2120440941,
      "lat": 12.9068826,
      "lon": 77.5416512,
      "tags": {
        "amenity": "bench",
        "backrest": "yes",
        "material": "stone",
        "seats": "3"
      }
    },
    {
      "type": "node",
      "id": 2120440943,
      "lat": 12.9069025,
      "lon": 77.5416358,
      "tags": {
        "amenity": "bench",
        "backrest": "yes",
        "material": "stone",
        "seats": "3"
      }
    },
    {
      "type": "node",
      "id": 2120440944,
      "lat": 12.9069225,
      "lon": 77.5416928,
      "tags": {
        "amenity": "bench",
        "backrest": "yes",
        "material": "stone",
        "seats": "3"
      }
    },
    {
      "type": "node",
      "id": 2120440947,
      "lat": 12.906935,
      "lon": 77.5416755,
      "tags": {
        "amenity": "bench",
        "backrest": "yes",
        "material": "stone",
        "seats": "3"
      }
    },
    {
      "type": "node",
      "id": 2120440979,
      "lat": 12.9081474,
      "lon": 77.5400772,
      "tags": {
        "amenity": "bench",
        "backrest": "yes",
        "material": "stone",
        "seats": "3"
      }
    },
    {
      "type": "node",
      "id": 2120440981,
      "lat": 12.9081511,
      "lon": 77.5400401,
      "tags": {
        "amenity": "bench",
        "backrest": "yes",
        "material": "stone",
        "seats": "3"
      }
    },
    {
      "type": "node",
      "id": 2120440982,
      "lat": 12.9082122,
      "lon": 77.5400363,
      "tags": {
        "amenity": "bench",
        "backrest": "yes",
        "material": "stone",
        "seats": "3"
      }
    },
    {
      "type": "node",
      "id": 2120440983,
      "lat": 12.9082284,
      "lon": 77.540067,
      "tags": {
        "amenity": "bench",
        "backrest": "yes",
        "material": "stone",
        "seats": "3"
      }
    },
    {
      "type": "node",
      "id": 2120440984,
      "lat": 12.9082421,
      "lon": 77.5400977,
      "tags": {
        "amenity": "bench",
        "backrest": "yes",
        "material": "stone",
        "seats": "3"
      }
    },
    {
      "type": "node",
      "id": 2120441009,
      "lat": 12.9089743,
      "lon": 77.5428649,
      "tags": {
        "amenity": "bench",
        "backrest": "yes",
        "material": "stone",
        "seats": "3"
      }
    },
    {
      "type": "node",
      "id": 2120441011,
      "lat": 12.9089912,
      "lon": 77.542847,
      "tags": {
        "amenity": "bench",
        "backrest": "yes",
        "material": "stone",
        "seats": "3"
      }
    },
    {
      "type": "node",
      "id": 2120441015,
      "lat": 12.9090067,
      "lon": 77.5428259,
      "tags": {
        "amenity": "bench",
        "backrest": "yes",
        "material": "stone",
        "seats": "3"
      }
    },
    {
      "type": "node",
      "id": 2120441017,
      "lat": 12.9090236,
      "lon": 77.5428048,
      "tags": {
        "amenity": "bench",
        "backrest": "yes",
        "material": "stone",
        "seats": "3"
      }
    },
    {
      "type": "node",
      "id": 2120470993,
      "lat": 12.9060653,
      "lon": 77.5417162,
      "tags": {
        "name": "A.S.L Motors",
        "service": "motor_repair",
        "shop": "motorcycle"
      }
    },
    {
      "type": "node",
      "id": 2120470994,
      "lat": 12.9060203,
      "lon": 77.541723,
      "tags": {
        "name": "Bharath Tyres",
        "service": "wheel_repair",
        "shop": "motorcycle"
      }
    },
    {
      "type": "node",
      "id": 2120470995,
      "lat": 12.905899,
      "lon": 77.5417339,
      "tags": {
        "amenity": "place_of_worship",
        "denomination": "shaktism",
        "name": "Maramma Temple",
        "name:kn": "ಮಾರಮ್ಮ ದೇವಸ್ಥಾನ",
        "religion": "hindu"
      }
    },
    {
      "type": "node",
      "id": 2123575611,
      "lat": 12.9115707,
      "lon": 77.5493949,
      "tags": {
        "amenity": "place_of_worship",
        "name": "Chikkalasandra Raghavendra Swami Mutt",
        "religion": "hindu"
      }
    },
    {
      "type": "node",
      "id": 2123582023,
      "lat": 12.9106952,
      "lon": 77.5504089,
      "tags": {
        "leisure": "playground"
      }
    },
    {
      "type": "node",
      "id": 2123582390,
      "lat": 12.9117827,
      "lon": 77.5468577,
      "tags": {
        "leisure": "park",
        "name": "Ramanjenaya Nagara Park"
      }
    },
    {
      "type": "node",
      "id": 2123584079,
      "lat": 12.9111893,
      "lon": 77.5451491,
      "tags": {
        "leisure": "pitch"
      }
    },
    {
      "type": "node",
      "id": 2123584652,
      "lat": 12.9114769,
      "lon": 77.5450633,
      "tags": {
        "leisure": "pitch"
      }
    },
    {
      "type": "node",
      "id": 2123585527,
      "lat": 12.9118324,
      "lon": 77.544956,
      "tags": {
        "leisure": "playground"
      }
    },
    {
      "type": "node",
      "id": 2123625107,
      "lat": 12.9130191,
      "lon": 77.5463267,
      "tags": {
        "name": "A.R Minimart",
        "shop": "supermarket"
      }
    },
    {
      "type": "node",
      "id": 2123626147,
      "lat": 12.9103056,
      "lon": 77.5454924,
      "tags": {
        "shop": "convenience"
      }
    },
    {
      "type": "node",
      "id": 2127402487,
      "lat": 12.9072121,
      "lon": 77.5462363,
      "tags": {
        "amenity": "fuel",
        "name": "IOCL",
        "operator": "Yogi Enterprise"
      }
    },
    {
      "type": "node",
      "id": 2127406148,
      "lat": 12.9036309,
      "lon": 77.5440956,
      "tags": {
        "amenity": "cinema",
        "name": "Vaibhavi"
      }
    },
    {
      "type": "node",
      "id": 2984282932,
      "lat": 12.9088477,
      "lon": 77.5486338,
      "tags": {
        "amenity": "restaurant",
        "name": "Shanthi Sagar",
        "name:kn": "ಶಾಂತಿ ಸಾಗರ"
      }
    },
    {
      "type": "node",
      "id": 2984286485,
      "lat": 12.9075154,
      "lon": 77.5468074,
      "tags": {
        "name": "Royal Mart Supermarket",
        "shop": "supermarket"
      }
    },
    {
      "type": "node",
      "id": 2984290232,
      "lat": 12.9093408,
      "lon": 77.5493517,
      "tags": {
        "name": "Farm Fresh",
        "shop": "supermarket"
      }
    },
    {
      "type": "node",
      "id": 4445177902,
      "lat": 12.913853,
      "lon": 77.5426932,
      "tags": {
        "addr:city": "BANGALORE",
        "addr:housenumber": "#27",
        "addr:postcode": "560061",
        "addr:street": "Banashankari 3rd Stage, Ramanjaneyanagar, Chikka Kalsandra, Arehalli, Uttarahalli Hobli",
        "amenity": "school",
        "name": "Sri Chaitanya Techno School"
      }
    },
    {
      "type": "node",
      "id": 4463206796,
      "lat": 12.9053331,
      "lon": 77.5533196,
      "tags": {
        "addr:postcode": "560061",
        "addr:street": "12th main road , BHCS layout",
        "amenity": "school",
        "name": "Bright Way School",
        "name:en": "Bright Way School",
        "opening_hours": "Mo-Sa 08:00-16:00"
      }
    },
    {
      "type": "node",
      "id": 4463224992,
      "lat": 12.9070086,
      "lon": 77.5488113,
      "tags": {
        "amenity": "cafe",
        "name": "Kona Kafe",
        "name:en": "Kona Kafe"
      }
    },
    {
      "type": "node",
      "id": 4545257890,
      "lat": 12.9072768,
      "lon": 77.5469171,
      "tags": {
        "addr:postcode": "560061",
        "addr:street": "Dr. Vishnuvardhan Road",
        "amenity": "pharmacy",
        "brand": "MedPlus",
        "brand:wikidata": "Q65684234",
        "healthcare": "pharmacy",
        "level": "0",
        "name": "MedPlus",
        "name:en": "Medplus",
        "name:kn": "ಮೆಡ್‍ಪ್ಲಸ್"
      }
    },
    {
      "type": "node",
      "id": 4545284790,
      "lat": 12.9070872,
      "lon": 77.5461078,
      "tags": {
        "amenity": "atm",
        "brand": "ICICI Bank",
        "brand:wikidata": "Q1653258",
        "name": "ICICI Bank",
        "operator": "ICICI Bank",
        "operator:wikidata": "Q1653258",
        "short_name": "ICICI"
      }
    },
    {
      "type": "node",
      "id": 4545284791,
      "lat": 12.908844,
      "lon": 77.5410977,
      "tags": {
        "amenity": "bench"
      }
    },
    {
      "type": "node",
      "id": 4545288190,
      "lat": 12.9081396,
      "lon": 77.5479979,
      "tags": {
        "addr:postcode": "560061",
        "addr:street": "Dr. Vishnuvardhan Road",
        "name": "Wildcraft Showroom Uttarahalli",
        "name:en": "Wildcraft Showroom Uttarahalli",
        "shop": "sports"
      }
    },
    {
      "type": "node",
      "id": 4545288289,
      "lat": 12.9070854,
      "lon": 77.5460136,
      "tags": {
        "addr:postcode": "560061",
        "addr:street": "Dr. Vishnuvardhan Road",
        "amenity": "bank",
        "brand": "ICICI Bank",
        "brand:wikidata": "Q1653258",
        "drive_through": "no",
        "name": "ICICI Bank",
        "name:en": "ICICI Bank Uttarahalli Branch",
        "short_name": "ICICI"
      }
    },
    {
      "type": "node",
      "id": 4545297791,
      "lat": 12.907191,
      "lon": 77.5460696,
      "tags": {
        "addr:postcode": "560061",
        "addr:street": "Dr. Vishnuvardhan Road",
        "name": "Bakery Goodies",
        "name:en": "Bakery Goodies",
        "opening_hours": "Mo-Su 12:00-09:00",
        "shop": "bakery"
      }
    },
    {
      "type": "node",
      "id": 4545311889,
      "lat": 12.9074367,
      "lon": 77.5471724,
      "tags": {
        "addr:postcode": "560061",
        "addr:street": "Dr. Vishnuvardhan Road",
        "amenity": "fast_food",
        "cuisine": "indian",
        "diet:vegetarian": "yes",
        "name": "Bramhi's Chat Shop",
        "name:en": "Bramhi's Chat Shop"
      }
    },
    {
      "type": "node",
      "id": 4545311890,
      "lat": 12.9111565,
      "lon": 77.5517155,
      "tags": {
        "addr:city": "Bengaluru",
        "addr:postcode": "560061",
        "addr:street": "Dr. Vishnuvardhan Road",
        "level": "0",
        "name": "Kanti Sweets",
        "name:en": "Kanti Sweets",
        "operator": "Kanti Sweets",
        "payment:cards": "yes",
        "payment:cash": "yes",
        "payment:paytm": "yes",
        "payment:upi": "yes",
        "shop": "bakery",
        "wheelchair": "no"
      }
    },
    {
      "type": "node",
      "id": 4545334089,
      "lat": 12.9081551,
      "lon": 77.5477526,
      "tags": {
        "addr:postcode": "560061",
        "addr:street": "Dr. Vishnuvardhan Road",
        "name": "Vishal Mega Mart",
        "name:en": "Vishal Mega Mart",
        "shop": "clothes"
      }
    },
    {
      "type": "node",
      "id": 4545334090,
      "lat": 12.9091231,
      "lon": 77.549212,
      "tags": {
        "addr:postcode": "560061",
        "addr:street": "Dr. Vishnuvardhan Road",
        "name": "Annapurna Bakery",
        "name:en": "Annapurna Bakery",
        "shop": "bakery"
      }
    },
    {
      "type": "node",
      "id": 4545334189,
      "lat": 12.906971,
      "lon": 77.5461293,
      "tags": {
        "addr:postcode": "560061",
        "addr:street": "Dr. Vishnuvardhan Road",
        "name": "Nandini Milk Booth",
        "name:en": "Nandini Milk Booth",
        "shop": "beverages"
      }
    },
    {
      "type": "node",
      "id": 4545337989,
      "lat": 12.907239,
      "lon": 77.5467928,
      "tags": {
        "addr:postcode": "560061",
        "addr:street": "Dr. Vishnuvardhan Road",
        "name": "Xerox shop",
        "name:en": "Xerox shop",
        "shop": "copyshop"
      }
    },
    {
      "type": "node",
      "id": 4545856994,
      "lat": 12.9111811,
      "lon": 77.5517214,
      "tags": {
        "addr:city": "Bengaluru",
        "addr:postcode": "560061",
        "addr:street": "Dr. Vishnuvardhan Road",
        "level": "1",
        "name": "Naturals Salon",
        "name:en": "Naturals Salon",
        "shop": "cosmetics"
      }
    },
    {
      "type": "node",
      "id": 4545856996,
      "lat": 12.9094886,
      "lon": 77.5499478,
      "tags": {
        "amenity": "atm",
        "brand": "Axis Bank",
        "brand:wikidata": "Q2003549",
        "operator": "Axis Bank",
        "operator:wikidata": "Q2003549"
      }
    },
    {
      "type": "node",
      "id": 4545893190,
      "lat": 12.9070372,
      "lon": 77.5455784,
      "tags": {
        "addr:postcode": "560061",
        "addr:street": "Dr. Vishnuvardhan Road",
        "amenity": "bank",
        "brand": "HDFC Bank",
        "brand:wikidata": "Q631047",
        "brand:wikipedia": "en:HDFC Bank",
        "level": "0",
        "name": "HDFC Bank",
        "name:en": "HDFC Bank",
        "name:kn": "ಎಚ್ ಡಿ ಎಫ್ ಸಿ",
        "short_name": "HDFC",
        "website": "https://www.hdfcbank.com"
      }
    },
    {
      "type": "node",
      "id": 4545906689,
      "lat": 12.9089953,
      "lon": 77.5429575,
      "tags": {
        "leisure": "playground"
      }
    },
    {
      "type": "node",
      "id": 4545906790,
      "lat": 12.9070542,
      "lon": 77.5456383,
      "tags": {
        "addr:postcode": "560061",
        "addr:street": "Dr. Vishnuvardhan Road",
        "amenity": "restaurant",
        "level": "1",
        "name": "Naksha Restaurant",
        "name:en": "Naksha Restaurant"
      }
    },
    {
      "type": "node",
      "id": 4545906791,
      "lat": 12.908455,
      "lon": 77.5481904,
      "tags": {
        "addr:postcode": "560061",
        "addr:street": "Dr. Vishnuvardhan Road",
        "amenity": "bank",
        "brand": "Karnataka Bank",
        "brand:wikidata": "Q2042632",
        "name": "Karnataka Bank",
        "name:en": "Karnataka Bank",
        "name:kn": "ಕರ್ನಾಟಕ ಬ್ಯಾಂಕ್"
      }
    },
    {
      "type": "node",
      "id": 4545906792,
      "lat": 12.9107538,
      "lon": 77.5513427,
      "tags": {
        "addr:postcode": "560061",
        "addr:street": "Dr. Vishnuvardhan Road",
        "amenity": "fast_food",
        "name": "Uttarahalli Biriyani House",
        "name:en": "Uttarahalli Biriyani House"
      }
    },
    {
      "type": "node",
      "id": 4545906889,
      "lat": 12.907027,
      "lon": 77.5455382,
      "tags": {
        "addr:postcode": "560061",
        "addr:street": "Dr. Vishnuvardhan Road",
        "amenity": "bank",
        "brand": "Axis Bank",
        "brand:wikidata": "Q2003549",
        "brand:wikipedia": "en:Axis Bank",
        "level": "0",
        "name": "Axis Bank",
        "name:en": "Axis Bank",
        "name:kn": "ಆಕ್ಸಿಸ್ ಬ್ಯಾಂಕ್",
        "website": "https://www.axisbank.com"
      }
    },
    {
      "type": "node",
      "id": 4545906989,
      "lat": 12.9084296,
      "lon": 77.5481682,
      "tags": {
        "amenity": "atm",
        "brand": "Karnataka Bank",
        "brand:wikidata": "Q2042632",
        "operator": "Karnataka Bank",
        "operator:wikidata": "Q2042632"
      }
    },
    {
      "type": "node",
      "id": 4545906990,
      "lat": 12.9095004,
      "lon": 77.5499914,
      "tags": {
        "amenity": "atm",
        "operator": "SBI State Bank of India"
      }
    },
    {
      "type": "node",
      "id": 4545994361,
      "lat": 12.9081105,
      "lon": 77.547977,
      "tags": {
        "amenity": "atm",
        "operator": "HDFC Bank ATM"
      }
    },
    {
      "type": "node",
      "id": 4546027012,
      "lat": 12.90929,
      "lon": 77.5492265,
      "tags": {
        "addr:city": "Bengaluru",
        "addr:housenumber": "23",
        "addr:postcode": "560061",
        "addr:street": "7th Main",
        "amenity": "restaurant",
        "diet:vegetarian": "yes",
        "name": "South Grand",
        "opening_hours": "06:30-22:00",
        "smoking": "no",
        "takeaway": "yes",
        "toilets:wheelchair": "no",
        "wheelchair": "no"
      }
    },
    {
      "type": "node",
      "id": 4546027013,
      "lat": 12.9040828,
      "lon": 77.5441927,
      "tags": {
        "name": "Kanva Mart",
        "operator": "Kanva Group",
        "shop": "clothes"
      }
    },
    {
      "type": "node",
      "id": 4546027014,
      "lat": 12.9065002,
      "lon": 77.5443213,
      "tags": {
        "addr:postcode": "560061",
        "addr:street": "Dr. Vishnuvardhan Road",
        "name": "Royal Mens Salon",
        "shop": "hairdresser"
      }
    },
    {
      "type": "node",
      "id": 4546027015,
      "lat": 12.9070548,
      "lon": 77.545821,
      "tags": {
        "addr:postcode": "560061",
        "addr:street": "Dr. Vishnuvardhan Road",
        "level": "1",
        "name": "Green Trends",
        "shop": "hairdresser"
      }
    },
    {
      "type": "node",
      "id": 4546027017,
      "lat": 12.9062422,
      "lon": 77.5432349,
      "tags": {
        "operator": "Tata DoCoMo",
        "shop": "mobile_phone"
      }
    },
    {
      "type": "node",
      "id": 4546027019,
      "lat": 12.9065159,
      "lon": 77.5437703,
      "tags": {
        "addr:postcode": "560061",
        "addr:street": "Dr. Vishnuvardhan Road",
        "level": "0",
        "name": "Prestige Smart Kitchen",
        "operator": "Prestige",
        "shop": "kitchen"
      }
    },
    {
      "type": "node",
      "id": 4546674891,
      "lat": 12.9058881,
      "lon": 77.5419384,
      "tags": {
        "addr:postcode": "560061",
        "addr:street": "Dr. Vishnuvardhan Road",
        "name": "Shri Durga Parmeshwari Condiments",
        "name:en": "Shri Durga Parmeshwari Condiments",
        "opening_hours": "Mo-Su 07:00-21:00",
        "shop": "bakery"
      }
    },
    {
      "type": "node",
      "id": 4547191103,
      "lat": 12.9056092,
      "lon": 77.5426964,
      "tags": {
        "addr:postcode": "560061",
        "addr:street": "Dr. Vishnuvardhan Road",
        "amenity": "hospital",
        "healthcare": "hospital",
        "name": "Nagarathna Hospital",
        "name:kn": "ನಾಗರತ್ನ"
      }
    },
    {
      "type": "node",
      "id": 4547191104,
      "lat": 12.9055817,
      "lon": 77.5428078,
      "tags": {
        "addr:postcode": "560061",
        "addr:street": "Konanakunte-Uttarahalli Road",
        "amenity": "pharmacy",
        "name": "Lalitha Medicals",
        "opening_hours": "09:00-22:00"
      }
    },
    {
      "type": "node",
      "id": 4547798855,
      "lat": 12.905969,
      "lon": 77.5428099,
      "tags": {
        "addr:postcode": "560061",
        "addr:street": "Dr. Vishnuvardhan Road",
        "name": "Kashinath Bakery and Juice Center",
        "shop": "bakery"
      }
    },
    {
      "type": "node",
      "id": 4547798857,
      "lat": 12.9058435,
      "lon": 77.5429494,
      "tags": {
        "addr:postcode": "560061",
        "addr:street": "Dr. Vishnuvardhan Road",
        "amenity": "pharmacy",
        "level": "0",
        "name": "Annapurna Drug House"
      }
    },
    {
      "type": "node",
      "id": 4547815815,
      "lat": 12.9070435,
      "lon": 77.5458167,
      "tags": {
        "addr:postcode": "560061",
        "addr:street": "Dr. Vishnuvardhan Road",
        "brand": "Reliance Fresh",
        "brand:wikidata": "Q7311014",
        "level": "0",
        "name": "Reliance Fresh",
        "name:kn": "ರಿಲಾಯನ್ಸ್ ಫ್ರೆಶ್",
        "operator": "Reliance",
        "shop": "supermarket"
      }
    },
    {
      "type": "node",
      "id": 4547815816,
      "lat": 12.9075342,
      "lon": 77.546873,
      "tags": {
        "addr:postcode": "560061",
        "addr:street": "Dr. Vishnuvardhan Road",
        "leisure": "fitness_centre",
        "level": "2",
        "name": "Ambience Gym",
        "sport": "gymnasium"
      }
    },
    {
      "type": "node",
      "id": 4547815817,
      "lat": 12.9074709,
      "lon": 77.5472253,
      "tags": {
        "amenity": "atm",
        "brand": "Canara Bank",
        "brand:en": "Canara Bank",
        "brand:hi": "केनरा बैंक",
        "brand:kn": "ಕೆನರಾ ಬ್ಯಾಂಕ್",
        "brand:pa": "ਕੇਨਰਾ ਬੈਂਕ",
        "brand:pnb": "کینرا بینک",
        "brand:ur": "کینرا بینک",
        "brand:wikidata": "Q2003777",
        "currency:INR": "yes",
        "level": "0",
        "name": "Canara Bank",
        "name:en": "Canara Bank",
        "name:hi": "केनरा बैंक",
        "name:kn": "ಕೆನರಾ ಬ್ಯಾಂಕ್",
        "name:pa": "ਕੇਨਰਾ ਬੈਂਕ",
        "name:pnb": "کینرا بینک",
        "name:ur": "کینرا بینک",
        "operator": "Canara Bank",
        "operator:wikidata": "Q2003777"
      }
    },
    {
      "type": "node",
      "id": 4547815818,
      "lat": 12.9085041,
      "lon": 77.5482249,
      "tags": {
        "addr:postcode": "560061",
        "addr:street": "Dr. Vishnuvardhan Road",
        "amenity": "fast_food",
        "cuisine": "vada_pav",
        "drive_through": "no",
        "level": "0",
        "name": "Goli",
        "opening_hours": "11:00-21:00",
        "operator": "Goli",
        "smoking": "no",
        "takeaway": "yes"
      }
    },
    {
      "type": "node",
      "id": 4547821436,
      "lat": 12.9087185,
      "lon": 77.5484931,
      "tags": {
        "addr:postcode": "560061",
        "addr:street": "Dr. Vishnuvardhan Road",
        "amenity": "pharmacy",
        "healthcare": "pharmacy",
        "level": "0",
        "name": "Himalaya Medicals"
      }
    },
    {
      "type": "node",
      "id": 4550151789,
      "lat": 12.9072748,
      "lon": 77.5469062,
      "tags": {
        "addr:postcode": "560061",
        "addr:street": "Dr. Vishnuvardhan Road",
        "name": "Vinayaka Rice Traders",
        "name:en": "Vinayaka Rice Traders",
        "shop": "department_store"
      }
    },
    {
      "type": "node",
      "id": 4550151790,
      "lat": 12.9072677,
      "lon": 77.546892,
      "tags": {
        "amenity": "fuel",
        "name": "Jana Bharat Gas Agency",
        "name:en": "Jana Bharat Gas Agency"
      }
    },
    {
      "type": "node",
      "id": 5594629224,
      "lat": 12.9074344,
      "lon": 77.5468204,
      "tags": {
        "addr:city": "Bengaluru",
        "addr:postcode": "560061",
        "addr:street": "Dr. Vishnuvardhan Road",
        "name": "Reliance Trends",
        "shop": "clothes"
      }
    },
    {
      "type": "node",
      "id": 5596655985,
      "lat": 12.9099594,
      "lon": 77.5499367,
      "tags": {
        "addr:city": "Bengaluru",
        "addr:postcode": "560061",
        "name": "Patanjali Store",
        "operator": "Patanjali",
        "shop": "supermarket"
      }
    },
    {
      "type": "node",
      "id": 5596655986,
      "lat": 12.9098827,
      "lon": 77.5505327,
      "tags": {
        "addr:city": "Bengaluru",
        "addr:postcode": "560061",
        "addr:street": "Dr. Vishnuvardhan Road",
        "level": "0.5",
        "name": "Poorvika Mobiles",
        "name:kn": "ಪೂರ್ವಿಕ",
        "operator": "Poorvika",
        "shop": "mobile_phone"
      }
    },
    {
      "type": "node",
      "id": 5596655987,
      "lat": 12.9099841,
      "lon": 77.5500912,
      "tags": {
        "addr:city": "Bengaluru",
        "addr:postcode": "560061",
        "level": "-0.5",
        "name": "Happy Pockets Supermarket",
        "shop": "supermarket"
      }
    },
    {
      "type": "node",
      "id": 5615139106,
      "lat": 12.90901,
      "lon": 77.5530854,
      "tags": {
        "addr:city": "Bengaluru",
        "addr:postcode": "560061",
        "addr:street": "Garden School Road",
        "name": "Srinidhi Bakery",
        "payment:cash": "yes",
        "shop": "bakery"
      }
    },
    {
      "type": "node",
      "id": 5615139107,
      "lat": 12.9090169,
      "lon": 77.5530601,
      "tags": {
        "addr:city": "Bengaluru",
        "addr:postcode": "560061",
        "addr:street": "Garden School Road",
        "amenity": "fast_food",
        "cuisine": "south_indian",
        "delivery": "no",
        "drive_through": "no",
        "level": "0",
        "name": "Srinidhi Fast Food",
        "outdoor_seating": "no",
        "smoking": "no",
        "takeaway": "yes"
      }
    },
    {
      "type": "node",
      "id": 5615139108,
      "lat": 12.9090269,
      "lon": 77.5530309,
      "tags": {
        "addr:city": "Bengaluru",
        "addr:postcode": "560061",
        "addr:street": "Garden School Road",
        "level": "0",
        "name": "Swathy Farm Fresh",
        "shop": "greengrocer"
      }
    },
    {
      "type": "node",
      "id": 5615139109,
      "lat": 12.9090385,
      "lon": 77.5529858,
      "tags": {
        "addr:city": "Bengaluru",
        "addr:housenumber": "15/1",
        "addr:postcode": "560061",
        "addr:street": "Garden School Road",
        "amenity": "clinic",
        "healthcare": "clinic",
        "healthcare:speciality": "general",
        "name": "Vinayaka Clinic"
      }
    },
    {
      "type": "node",
      "id": 5615139110,
      "lat": 12.9092402,
      "lon": 77.5527258,
      "tags": {
        "addr:city": "Bengaluru",
        "addr:postcode": "560061",
        "addr:street": "Garden School Road",
        "name": "Saraswati Supermarket",
        "shop": "supermarket"
      }
    },
    {
      "type": "node",
      "id": 5615139111,
      "lat": 12.908144,
      "lon": 77.5495541,
      "tags": {
        "addr:city": "Bengaluru",
        "addr:postcode": "560061",
        "addr:street": "Dr. Vishnuvardhan Road",
        "level": "0",
        "name": "Guru Raghavendra Bakery",
        "payment:cards": "yes",
        "payment:cash": "yes",
        "payment:paytm": "yes",
        "shop": "bakery"
      }
    },
    {
      "type": "node",
      "id": 5626258365,
      "lat": 12.9092991,
      "lon": 77.5516337,
      "tags": {
        "addr:city": "Bengaluru",
        "addr:postcode": "560061",
        "addr:street": "Garden School Road",
        "amenity": "clinic",
        "healthcare": "clinic",
        "healthcare:speciality": "gynaecology;cardiology;general",
        "name": "Guru Raghavendra Clinic"
      }
    },
    {
      "type": "node",
      "id": 5626258366,
      "lat": 12.9093132,
      "lon": 77.5515743,
      "tags": {
        "addr:city": "Bengaluru",
        "addr:postcode": "560061",
        "addr:street": "Garden School Road",
        "amenity": "pharmacy",
        "dispensing": "yes",
        "healthcare": "pharmacy",
        "name": "Guru Raghavendra Medical Store",
        "payment:cards": "yes",
        "payment:cash": "yes"
      }
    },
    {
      "type": "node",
      "id": 5626258367,
      "lat": 12.9094755,
      "lon": 77.5517032,
      "tags": {
        "addr:city": "Bengaluru",
        "addr:postcode": "560061",
        "addr:street": "Garden School Road",
        "description": "Repairs electrical appliances",
        "name": "Hima Appliances",
        "payment:cash": "yes",
        "shop": "appliance"
      }
    },
    {
      "type": "node",
      "id": 5626258370,
      "lat": 12.9094418,
      "lon": 77.5511498,
      "tags": {
        "addr:city": "Bengaluru",
        "addr:postcode": "560061",
        "addr:street": "Garden School Road",
        "name": "Manjunatha Bakery",
        "shop": "bakery"
      }
    },
    {
      "type": "node",
      "id": 5626258371,
      "lat": 12.9079042,
      "lon": 77.549393,
      "tags": {
        "addr:city": "Bengaluru",
        "addr:postcode": "560061",
        "name": "Tender Coconut Store",
        "payment:cash": "yes",
        "payment:paytm": "yes",
        "shop": "health_food"
      }
    },
    {
      "type": "node",
      "id": 6611728372,
      "lat": 12.9131883,
      "lon": 77.5406751,
      "tags": {
        "amenity": "fast_food",
        "name": "Taaza cake"
      }
    },
    {
      "type": "node",
      "id": 6947375064,
      "lat": 12.89708,
      "lon": 77.5473364,
      "tags": {
        "addr:district": "Bengaluru Urban",
        "addr:full": "No.4, Sagar Complex,Gopalakrishna Layout,Vasanthapura Main Road,Subramanyapura Post,Uttarahalli Hobli",
        "addr:postcode": "560061",
        "addr:state": "Karnataka",
        "amenity": "hospital",
        "name": "Samastha Hospitals Pvt Ltd",
        "source": "OpenGovernmentData"
      }
    },
    {
      "type": "node",
      "id": 7579924703,
      "lat": 12.9060631,
      "lon": 77.5433318,
      "tags": {
        "addr:district": "Bengaluru Urban",
        "addr:full": "Vaishnavi Layout, Uttarahalli Hobli, Bengaluru",
        "addr:postcode": "560061",
        "addr:state": "Karnataka",
        "amenity": "clinic",
        "healthcare": "clinic",
        "name": "Nagaratna Clinic",
        "source": "Local Knowledge"
      }
    },
    {
      "type": "node",
      "id": 7579924714,
      "lat": 12.913901,
      "lon": 77.546925,
      "tags": {
        "addr:district": "Bengaluru Urban",
        "addr:full": "Ramanjaneyanagar, Chikkalasandra, Bengaluru",
        "addr:postcode": "560061",
        "addr:state": "Karnataka",
        "amenity": "dentist",
        "name": "Gowri Dental Clinic",
        "source": "Local Knowledge"
      }
    },
    {
      "type": "node",
      "id": 7579924721,
      "lat": 12.906888,
      "lon": 77.54518,
      "tags": {
        "addr:district": "Bengaluru Urban",
        "addr:full": "Simhadri Layout, Uttarahalli Hobli, Bengaluru",
        "addr:postcode": "560061",
        "addr:state": "Karnataka",
        "amenity": "clinic",
        "name": "Venkateshwara Clinic",
        "source": "Local Knowledge"
      }
    },
    {
      "type": "node",
      "id": 7579924725,
      "lat": 12.9055752,
      "lon": 77.5425258,
      "tags": {
        "addr:district": "Bengaluru Urban",
        "addr:full": "Uttarahalli, Bengaluru",
        "addr:postcode": "560011",
        "addr:state": "Karnataka",
        "amenity": "hospital",
        "name": "Perfetual Help Hospital",
        "source": "Local Knowledge"
      }
    },
    {
      "type": "node",
      "id": 7579924733,
      "lat": 12.914444,
      "lon": 77.546796,
      "tags": {
        "addr:district": "Bengaluru Urban",
        "addr:full": "Ramanjeneya Nagar Main Road, Sneha Colony, Chikkalasandra, Bengaluru",
        "addr:postcode": "560061",
        "addr:state": "Karnataka",
        "amenity": "clinic",
        "name": "GBY ENT Clinic",
        "source": "Local Knowledge"
      }
    },
    {
      "type": "node",
      "id": 7579924735,
      "lat": 12.9063963,
      "lon": 77.5432763,
      "tags": {
        "addr:district": "Bengaluru Urban",
        "addr:full": "Subrahmanyapura, Bengaluru",
        "addr:postcode": "560061",
        "addr:state": "Karnataka",
        "amenity": "dentist",
        "healthcare": "dentist",
        "name": "Carewell Dental Clinic",
        "source": "Local Knowledge"
      }
    },
    {
      "type": "node",
      "id": 7579924736,
      "lat": 12.913579,
      "lon": 77.548358,
      "tags": {
        "addr:district": "Bengaluru Urban",
        "addr:full": "Sarvabhouma Nagar, Chikkalasandra, Bengaluru",
        "addr:postcode": "560061",
        "addr:state": "Karnataka",
        "amenity": "dentist",
        "name": "Root & Crown Dental Care",
        "source": "Local Knowledge"
      }
    },
    {
      "type": "node",
      "id": 7579924745,
      "lat": 12.905774,
      "lon": 77.536862,
      "tags": {
        "addr:district": "Bengaluru Urban",
        "addr:full": "Poorna Pragna Nagar, Bengaluru",
        "addr:postcode": "560061",
        "addr:state": "Karnataka",
        "amenity": "clinic",
        "name": "Poorna Clinic",
        "source": "Local Knowledge"
      }
    },
    {
      "type": "node",
      "id": 7579924767,
      "lat": 12.9117655,
      "lon": 77.5396707,
      "tags": {
        "addr:district": "Bengaluru Urban",
        "addr:full": "RK Layout, Banashankari, Bengaluru",
        "addr:postcode": "560078",
        "addr:state": "Karnataka",
        "amenity": "dentist",
        "healthcare": "dentist",
        "name": "Nandeesh's Dental Speciality",
        "source": "Local Knowledge"
      }
    },
    {
      "type": "node",
      "id": 7579924770,
      "lat": 12.9052928,
      "lon": 77.5423946,
      "tags": {
        "addr:district": "Bengaluru Urban",
        "addr:full": "Near Uttarahalli Circle, Uttarahalli, Bengaluru",
        "addr:postcode": "560061",
        "addr:state": "Karnataka",
        "amenity": "clinic",
        "name": "Srinivas Clinic",
        "source": "Local Knowledge"
      }
    },
    {
      "type": "node",
      "id": 7579924774,
      "lat": 12.909983,
      "lon": 77.544557,
      "tags": {
        "addr:district": "Bengaluru Urban",
        "addr:full": "Simhadri Layout, Uttarahalli Hobli, Bengaluru",
        "addr:postcode": "560061",
        "addr:state": "Karnataka",
        "amenity": "clinic",
        "name": "Ullas Clinic",
        "source": "Local Knowledge"
      }
    },
    {
      "type": "node",
      "id": 7579924777,
      "lat": 12.9075819,
      "lon": 77.5470543,
      "tags": {
        "addr:district": "Bengaluru Urban",
        "addr:full": "Chikkalasandra, Bengaluru",
        "addr:postcode": "560061",
        "addr:state": "Karnataka",
        "amenity": "clinic",
        "healthcare": "clinic",
        "name": "Diya Speciality Eye Care",
        "source": "Local Knowledge"
      }
    },
    {
      "type": "node",
      "id": 7579924783,
      "lat": 12.906113,
      "lon": 77.542548,
      "tags": {
        "addr:district": "Bengaluru Urban",
        "addr:full": "Simhadri layout, Uttarahalli Hobli, Bengaluru",
        "addr:postcode": "560061",
        "addr:state": "Karnataka",
        "amenity": "hospital",
        "name": "St. Martha's Hospital",
        "source": "Local Knowledge"
      }
    },
    {
      "type": "node",
      "id": 8196809881,
      "lat": 12.905931,
      "lon": 77.54275,
      "tags": {
        "addr:full": "3/4, Shop no.3, channamma lingaiah complex, Dr.Vishnuvardhan road, uttarahalli, banglore, Simhadri layout, Uttarahalli Hobli, banglore, Karnataka",
        "addr:state": "Karnataka",
        "amenity": "college",
        "name": "G.r. Correspondence College"
      }
    },
    {
      "type": "node",
      "id": 13128318401,
      "lat": 12.9134483,
      "lon": 77.5419934,
      "tags": {
        "addr:housenumber": "91",
        "addr:postcode": "560061",
        "addr:street": "2nd Main Road, Arehalli",
        "leisure": "fitness_centre",
        "name": "Kineto Calisthenics Park",
        "opening_hours": "Mo-Fr 06:00-13:00, 17:00-21:00; Sa 08:30-13:00; Su 08:30-12:00",
        "phone": "082176 32136",
        "website": "https://www.kinetocalisthenics.com"
      }
    },
    {
      "type": "node",
      "id": 13257391201,
      "lat": 12.9070989,
      "lon": 77.5460762,
      "tags": {
        "addr:postcode": "560061",
        "addr:street": "Dr. Vishnuvardhan Road",
        "amenity": "hospital",
        "name": "Nano Hospitals"
      }
    },
    {
      "type": "way",
      "id": 197115676,
      "center": {
        "lat": 12.9068696,
        "lon": 77.536812
      },
      "tags": {
        "leisure": "park"
      }
    },
    {
      "type": "way",
      "id": 197115677,
      "center": {
        "lat": 12.906804,
        "lon": 77.5365724
      },
      "tags": {
        "amenity": "shelter",
        "shelter_type": "picnic_shelter"
      }
    },
    {
      "type": "way",
      "id": 197115678,
      "center": {
        "lat": 12.9066734,
        "lon": 77.5365551
      },
      "tags": {
        "leisure": "playground"
      }
    },
    {
      "type": "way",
      "id": 202062391,
      "center": {
        "lat": 12.9088231,
        "lon": 77.5402569
      },
      "tags": {
        "amenity": "school",
        "building": "yes",
        "name": "New Kumarans School"
      }
    },
    {
      "type": "way",
      "id": 202063465,
      "center": {
        "lat": 12.9065498,
        "lon": 77.5417857
      },
      "tags": {
        "alt_name": "Krishnakamala Cultural Centre",
        "amenity": "social_facility",
        "building": "yes",
        "name": "Ashraya Vrudhasharama",
        "name:kn": "ಆಶ್ರಯ ವೃದ್ಧಾಶ್ರಮ",
        "social_facility": "group_home",
        "social_facility:for": "senior"
      }
    },
    {
      "type": "way",
      "id": 347504024,
      "center": {
        "lat": 12.9076006,
        "lon": 77.5471656
      },
      "tags": {
        "addr:city": "Bengaluru",
        "addr:postcode": "560061",
        "addr:street": "Dr. Vishnuvardhan Road",
        "amenity": "fast_food",
        "building": "yes",
        "cuisine": "south_indian;chats;north_indian",
        "drive_through": "no",
        "name": "Mandarthi Bhavan",
        "name:kn": "ಮಂದಾರ್ತಿ ಭವನ",
        "outdoor_seating": "no",
        "smoking": "no",
        "takeaway": "yes"
      }
    },
    {
      "type": "way",
      "id": 347539271,
      "center": {
        "lat": 12.9098917,
        "lon": 77.5501266
      },
      "tags": {
        "addr:city": "Bengaluru",
        "addr:postcode": "560061",
        "addr:street": "Dr. Vishnuvardhan Road",
        "brand": "Bata",
        "brand:wikidata": "Q688082",
        "building": "yes",
        "level": "0.5",
        "name": "Bata",
        "name:kn": "ಬಾಟಾ",
        "operator": "Bata",
        "payment:cash": "yes",
        "payment:credit_cards": "yes",
        "payment:debit_cards": "yes",
        "payment:maestro": "yes",
        "payment:mastercard": "yes",
        "payment:visa": "yes",
        "shop": "shoes",
        "wheelchair": "no"
      }
    },
    {
      "type": "way",
      "id": 348244961,
      "center": {
        "lat": 12.9100473,
        "lon": 77.5500181
      },
      "tags": {
        "addr:city": "Bengaluru",
        "addr:postcode": "560061",
        "addr:street": "6th Main Rd, KSRTC Layout, Chikkalasandra",
        "amenity": "fast_food",
        "building": "yes",
        "delivery": "no",
        "drive_through": "no",
        "name": "Hari Super Sandwich",
        "outdoor_seating": "no",
        "smoking": "no",
        "takeaway": "only"
      }
    },
    {
      "type": "way",
      "id": 585450310,
      "center": {
        "lat": 12.9068214,
        "lon": 77.5504097
      },
      "tags": {
        "leisure": "park",
        "name": "BHCS Park",
        "opening_hours": "Mo-Su 05:00-09:00,16:00-20:00"
      }
    },
    {
      "type": "way",
      "id": 585450311,
      "center": {
        "lat": 12.9061278,
        "lon": 77.551345
      },
      "tags": {
        "leisure": "park",
        "opening_hours": "Mo-Su 05:00-09:00,16:00-20:00"
      }
    },
    {
      "type": "way",
      "id": 585450314,
      "center": {
        "lat": 12.9048542,
        "lon": 77.5502474
      },
      "tags": {
        "access": "yes",
        "leisure": "pitch",
        "service_times": "24/7",
        "surface": "dirt"
      }
    },
    {
      "type": "way",
      "id": 585450316,
      "center": {
        "lat": 12.9052898,
        "lon": 77.5505199
      },
      "tags": {
        "access": "yes",
        "leisure": "playground",
        "max_age": "14",
        "name": "Kids Playground",
        "operator": "BBMP",
        "surface": "paved"
      }
    },
    {
      "type": "way",
      "id": 588708615,
      "center": {
        "lat": 12.9066599,
        "lon": 77.5547625
      },
      "tags": {
        "leisure": "park",
        "opening_hours": "Mo-Su 05:00-09:00, 16:00-20:00"
      }
    },
    {
      "type": "way",
      "id": 1033608653,
      "center": {
        "lat": 12.9107008,
        "lon": 77.5504568
      },
      "tags": {
        "leisure": "playground",
        "playground:theme": "playground",
        "surface": "dirt"
      }
    },
    {
      "type": "way",
      "id": 1270860707,
      "center": {
        "lat": 12.9027273,
        "lon": 77.5508723
      },
      "tags": {
        "leisure": "park"
      }
    },
    {
      "type": "way",
      "id": 1337111934,
      "center": {
        "lat": 12.9038855,
        "lon": 77.5472231
      },
      "tags": {
        "amenity": "school"
      }
    },
    {
      "type": "way",
      "id": 1416231938,
      "center": {
        "lat": 12.9005514,
        "lon": 77.5525787
      },
      "tags": {
        "leisure": "park"
      }
    }
  ]
}