{
  "area_name": "Valmiki Nagar",
  "osm_id": 1007655139,
  "osm_type": "node",
  "place_type": "neighbourhood",
  "amenity_count": 151,
  "amenities": [
    {
      "type": "node",
      "id": 1782176660,
      "lat": 12.9571508,
      "lon": 77.5624395,
      "tags": {
        "amenity": "fuel",
        "brand": "Indian Oil",
        "brand:wikidata": "Q1289348",
        "fuel:1_25": "no",
        "fuel:GTL_diesel": "no",
        "fuel:HGV_diesel": "yes",
        "fuel:biodiesel": "no",
        "fuel:biogas": "no",
        "fuel:cng": "no",
        "fuel:diesel": "yes",
        "fuel:e10": "no",
        "fuel:e85": "no",
        "fuel:electricity": "no",
        "fuel:lpg": "yes",
        "fuel:octane_100": "no",
        "fuel:octane_91": "yes",
        "fuel:octane_95": "no",
        "fuel:octane_98": "no",
        "name": "Anjandri Petrol / Gas Station",
        "toilets:wheelchair": "no",
        "wheelchair": "yes"
      }
    },
    {
      "type": "node",
      "id": 2487524462,
      "lat": 12.9639929,
      "lon": 77.5511866,
      "tags": {
        "addr:city": "Bangalore",
        "addr:housename": "Gori Palya",
        "addr:street": "Hosahalli Main Road",
        "amenity": "place_of_worship",
        "name": "Kodandaswami Temple",
        "name:kn": "ಕೋದಂಡಸ್ವಾಮಿ ದೇವಸ್ಥಾನ",
        "religion": "hindu"
      }
    },
    {
      "type": "node",
      "id": 2487524463,
      "lat": 12.9641353,
      "lon": 77.5513024,
      "tags": {
        "addr:city": "Bangalore",
        "addr:housename": "Goripalya",
        "addr:street": "Hosahalli Main Road",
        "amenity": "place_of_worship",
        "name": "Anjaneya Swami Temple",
        "name:kn": "ಆಂಜನೇಯ ಸ್ವಾಮಿ ದೇವಸ್ಥಾನ",
        "religion": "hindu"
      }
    },
    {
      "type": "node",
      "id": 2487524464,
      "lat": 12.9634823,
      "lon": 77.5523641,
      "tags": {
        "addr:city": "Bangalore",
        "addr:housename": "Goripalya",
        "addr:street": "Hosahalli Main Road",
        "amenity": "pharmacy",
        "healthcare": "pharmacy",
        "name": "Ganesh Medicals & General Store"
      }
    },
    {
      "type": "node",
      "id": 4100763598,
      "lat": 12.9640156,
      "lon": 77.5510964,
      "tags": {
        "addr:street": "Hosahalli Main Road",
        "amenity": "pharmacy",
        "healthcare": "pharmacy",
        "name": "Bangalore Medical",
        "opening_hours": "Mo-Su 10:00-00:00"
      }
    },
    {
      "type": "node",
      "id": 4100777593,
      "lat": 12.9640262,
      "lon": 77.5507761,
      "tags": {
        "amenity": "atm",
        "opening_hours": "24/7"
      }
    },
    {
      "type": "node",
      "id": 4101060393,
      "lat": 12.9607245,
      "lon": 77.5464821,
      "tags": {
        "addr:street": "Pipeline Road",
        "amenity": "place_of_worship",
        "building": "mosque",
        "name:kn": "ಮಸೀದಿ",
        "religion": "muslim"
      }
    },
    {
      "type": "node",
      "id": 4101066891,
      "lat": 12.9618838,
      "lon": 77.5509669,
      "tags": {
        "addr:housenumber": "7th cross padarayana pura",
        "addr:street": "Hosahalli Main Road",
        "amenity": "place_of_worship",
        "building": "mosque",
        "name": "Masjid e Mecca",
        "name:kn": "ಮಸ್ಜಿದ್ ಎ ಮಕ್ಕ",
        "religion": "muslim"
      }
    },
    {
      "type": "node",
      "id": 4101066892,
      "lat": 12.9609456,
      "lon": 77.5506364,
      "tags": {
        "addr:street": "vinayaka nagar",
        "name": "puncher shop",
        "shop": "tyres"
      }
    },
    {
      "type": "node",
      "id": 4101067191,
      "lat": 12.9631344,
      "lon": 77.5497399,
      "tags": {
        "addr:housenumber": "9th cross padarayana pura",
        "addr:street": "Hosahalli Main Road",
        "amenity": "place_of_worship",
        "building": "mosque",
        "name": "Masjid e Rahmaniya",
        "opening_hours": "24/7",
        "religion": "muslim"
      }
    },
    {
      "type": "node",
      "id": 4101067192,
      "lat": 12.9628516,
      "lon": 77.550719,
      "tags": {
        "addr:housenumber": "7th cross padarayana pura",
        "addr:street": "Hosahalli Main Road",
        "amenity": "place_of_worship",
        "building": "mosque",
        "name": "Masjid e Riyazul Jinna",
        "religion": "muslim"
      }
    },
    {
      "type": "node",
      "id": 4101067193,
      "lat": 12.9609798,
      "lon": 77.5499693,
      "tags": {
        "addr:street": "vinayaka nagar old gudahalli",
        "amenity": "place_of_worship",
        "building": "mosque",
        "name": "Masjid e Alquba",
        "religion": "muslim"
      }
    },
    {
      "type": "node",
      "id": 4101067196,
      "lat": 12.9606146,
      "lon": 77.5565401,
      "tags": {
        "addr:street": "Mysore Road",
        "amenity": "place_of_worship",
        "check_date": "2023-10-08",
        "name": "Masjid e Khabristan",
        "religion": "muslim"
      }
    },
    {
      "type": "node",
      "id": 4101094992,
      "lat": 12.9635168,
      "lon": 77.5580738,
      "tags": {
        "addr:street": "Hosahalli Main Road",
        "amenity": "place_of_worship",
        "name": "Masjid e Jamia",
        "name:kn": "ಮಸ್ಜಿದ್ ಎ ಜಾಮ್ಯ",
        "religion": "muslim"
      }
    },
    {
      "type": "node",
      "id": 4101094995,
      "lat": 12.9625119,
      "lon": 77.5486586,
      "tags": {
        "addr:street": "Hosahalli Main Road",
        "amenity": "restaurant",
        "name": "Khawja Hotel"
      }
    },
    {
      "type": "node",
      "id": 4101094996,
      "lat": 12.9620904,
      "lon": 77.5496787,
      "tags": {
        "amenity": "community_centre",
        "name": "Government Function Hall"
      }
    },
    {
      "type": "node",
      "id": 4101097189,
      "lat": 12.9626268,
      "lon": 77.5485405,
      "tags": {
        "addr:housenumber": "11th cross padarayana pura",
        "addr:street": "Hosahalli Main Road",
        "amenity": "place_of_worship",
        "building": "mosque",
        "name": "Masjid e Towheed",
        "name:kn": "ಮಸ್ಜಿದ್-ಎ-ತೌಹೀದ್",
        "opening_hours": "24/7",
        "religion": "muslim"
      }
    },
    {
      "type": "node",
      "id": 4101097390,
      "lat": 12.9569629,
      "lon": 77.5491868,
      "tags": {
        "addr:street": "Mysore Road",
        "amenity": "fuel",
        "brand": "Shell",
        "brand:wikidata": "Q110716465",
        "name": "Shell",
        "name:kn": "ಶೆಲ್"
      }
    },
    {
      "type": "node",
      "id": 4101097393,
      "lat": 12.9641843,
      "lon": 77.5502624,
      "tags": {
        "addr:street": "Hosahalli Main Road",
        "amenity": "pharmacy",
        "healthcare": "pharmacy",
        "name": "star hospital ",
        "opening_hours": "24/7"
      }
    },
    {
      "type": "node",
      "id": 4101097589,
      "lat": 12.9643591,
      "lon": 77.5551587,
      "tags": {
        "addr:street": "Hosahalli Main Road",
        "amenity": "police",
        "name": "J J R Nagar Police station"
      }
    },
    {
      "type": "node",
      "id": 4101097789,
      "lat": 12.962289,
      "lon": 77.5537495,
      "tags": {
        "addr:housenumber": "1st cross",
        "addr:street": "Hosahalli Main Road",
        "amenity": "place_of_worship",
        "building": "mosque",
        "name:kn": "ಮಸೀದಿ",
        "religion": "muslim"
      }
    },
    {
      "type": "node",
      "id": 4130913192,
      "lat": 12.9609208,
      "lon": 77.5490696,
      "tags": {
        "amenity": "clinic"
      }
    },
    {
      "type": "node",
      "id": 4130913291,
      "lat": 12.9633542,
      "lon": 77.5487215,
      "tags": {
        "addr:street": "Hosahalli Main Road",
        "amenity": "pharmacy",
        "healthcare": "pharmacy",
        "name": "Kashif Medical"
      }
    },
    {
      "type": "node",
      "id": 4130913293,
      "lat": 12.9602862,
      "lon": 77.5570381,
      "tags": {
        "amenity": "fuel",
        "brand": "Bharat Petroleum",
        "brand:wikidata": "Q854826",
        "compressed_air": "no",
        "name": "Bharat Petroleum",
        "name:kn": "ಭಾರತ್ ಪೆಟ್ರೋಲಿಯಂ"
      }
    },
    {
      "type": "node",
      "id": 4130913294,
      "lat": 12.9640984,
      "lon": 77.5506116,
      "tags": {
        "addr:street": "Hosahalli Main Road",
        "amenity": "pharmacy",
        "healthcare": "pharmacy",
        "name": "Mysore Medical"
      }
    },
    {
      "type": "node",
      "id": 4130913295,
      "lat": 12.9635115,
      "lon": 77.5519675,
      "tags": {
        "name": "Bakery",
        "shop": "bakery"
      }
    },
    {
      "type": "node",
      "id": 4130913296,
      "lat": 12.9597748,
      "lon": 77.5548192,
      "tags": {
        "addr:street": "Mysore Road",
        "amenity": "place_of_worship",
        "name": "Mysore Road Eidgha"
      }
    },
    {
      "type": "node",
      "id": 4130929491,
      "lat": 12.9609947,
      "lon": 77.5508936,
      "tags": {
        "addr:street": "vinayaka nagar",
        "amenity": "bus_station",
        "bus": "yes",
        "name": "Old Gudahalli",
        "public_transport": "station"
      }
    },
    {
      "type": "node",
      "id": 4130929493,
      "lat": 12.9621886,
      "lon": 77.5493658,
      "tags": {
        "amenity": "clinic",
        "healthcare": "clinic",
        "name": "Shahid Doctor"
      }
    },
    {
      "type": "node",
      "id": 4130929494,
      "lat": 12.9634545,
      "lon": 77.5521836,
      "tags": {
        "shop": "hairdresser"
      }
    },
    {
      "type": "node",
      "id": 4130934092,
      "lat": 12.9600503,
      "lon": 77.5539163,
      "tags": {
        "amenity": "place_of_worship",
        "building": "mosque",
        "name:kn": "ಮಸೀದಿ",
        "religion": "muslim"
      }
    },
    {
      "type": "node",
      "id": 4130934095,
      "lat": 12.9635067,
      "lon": 77.5487362,
      "tags": {
        "name": "ladies dress dulhan ",
        "shop": "clothes"
      }
    },
    {
      "type": "node",
      "id": 4130934096,
      "lat": 12.9644831,
      "lon": 77.5550085,
      "tags": {
        "amenity": "drinking_water"
      }
    },
    {
      "type": "node",
      "id": 4130934097,
      "lat": 12.96422,
      "lon": 77.5548239,
      "tags": {
        "amenity": "toilets"
      }
    },
    {
      "type": "node",
      "id": 4130934098,
      "lat": 12.9608368,
      "lon": 77.5485824,
      "tags": {
        "amenity": "cafe",
        "name": "Bismillah Tea Hotel"
      }
    },
    {
      "type": "node",
      "id": 4130960191,
      "lat": 12.9645345,
      "lon": 77.5517527,
      "tags": {
        "addr:street": "Hosahalli Main Road",
        "name": "Naaz Men'S Parlor",
        "shop": "hairdresser"
      }
    },
    {
      "type": "node",
      "id": 4130960192,
      "lat": 12.9640886,
      "lon": 77.5503466,
      "tags": {
        "name": "Ayub Bakery",
        "shop": "bakery"
      }
    },
    {
      "type": "node",
      "id": 4130960193,
      "lat": 12.9641006,
      "lon": 77.5502859,
      "tags": {
        "shop": "hairdresser"
      }
    },
    {
      "type": "node",
      "id": 4130960194,
      "lat": 12.9644277,
      "lon": 77.5553928,
      "tags": {
        "amenity": "atm"
      }
    },
    {
      "type": "node",
      "id": 4130960195,
      "lat": 12.964346,
      "lon": 77.557164,
      "tags": {
        "addr:street": "Hosahalli Main Road",
        "amenity": "place_of_worship",
        "name": "Peter Paul Church",
        "religion": "christian"
      }
    },
    {
      "type": "node",
      "id": 4130960196,
      "lat": 12.9614166,
      "lon": 77.5486757,
      "tags": {
        "amenity": "theatre",
        "name": "a.m function hall"
      }
    },
    {
      "type": "node",
      "id": 4130960197,
      "lat": 12.9609197,
      "lon": 77.5483084,
      "tags": {
        "amenity": "clinic",
        "name": "saty doctor"
      }
    },
    {
      "type": "node",
      "id": 4130960198,
      "lat": 12.9632664,
      "lon": 77.5488141,
      "tags": {
        "addr:street": "Hosahalli Main Road",
        "name": "Manjunatha Bakery",
        "shop": "bakery"
      }
    },
    {
      "type": "node",
      "id": 4130960289,
      "lat": 12.9608675,
      "lon": 77.5495476,
      "tags": {
        "amenity": "atm",
        "opening_hours": "24/7"
      }
    },
    {
      "type": "node",
      "id": 4130960389,
      "lat": 12.9626651,
      "lon": 77.5482596,
      "tags": {
        "addr:housenumber": "12th cross",
        "addr:street": "Hosahalli Main Road",
        "amenity": "pharmacy",
        "name": "Unity Hospital"
      }
    },
    {
      "type": "node",
      "id": 4130960392,
      "lat": 12.9618971,
      "lon": 77.552098,
      "tags": {
        "amenity": "pharmacy"
      }
    },
    {
      "type": "node",
      "id": 4130960393,
      "lat": 12.9643372,
      "lon": 77.5558948,
      "tags": {
        "amenity": "place_of_worship"
      }
    },
    {
      "type": "node",
      "id": 4130960394,
      "lat": 12.9616399,
      "lon": 77.5484171,
      "tags": {
        "amenity": "clinic"
      }
    },
    {
      "type": "node",
      "id": 4130960395,
      "lat": 12.962222,
      "lon": 77.5505208,
      "tags": {
        "amenity": "cafe"
      }
    },
    {
      "type": "node",
      "id": 4130960396,
      "lat": 12.9615054,
      "lon": 77.5504015,
      "tags": {
        "amenity": "cafe",
        "name": "Bismillah Tea Hotel"
      }
    },
    {
      "type": "node",
      "id": 4130960490,
      "lat": 12.9621356,
      "lon": 77.5493894,
      "tags": {
        "amenity": "pharmacy",
        "healthcare": "pharmacy"
      }
    },
    {
      "type": "node",
      "id": 4130960491,
      "lat": 12.9641082,
      "lon": 77.5504793,
      "tags": {
        "addr:street": "Hosahalli Main Road",
        "amenity": "cafe",
        "name": "Khalil Tea Hotel"
      }
    },
    {
      "type": "node",
      "id": 4130960492,
      "lat": 12.9632318,
      "lon": 77.5500256,
      "tags": {
        "amenity": "cafe",
        "name": "Bombay tea hotel"
      }
    },
    {
      "type": "node",
      "id": 4130960493,
      "lat": 12.9644882,
      "lon": 77.5534307,
      "tags": {
        "name": "rathan Lal",
        "shop": "jewelry"
      }
    },
    {
      "type": "node",
      "id": 4130960989,
      "lat": 12.9646163,
      "lon": 77.5517803,
      "tags": {
        "addr:street": "Hosahalli Main Road",
        "name": "Ezee Mobile Service Point",
        "shop": "mobile_phone"
      }
    },
    {
      "type": "node",
      "id": 4130960990,
      "lat": 12.9634155,
      "lon": 77.5520086,
      "tags": {
        "amenity": "pharmacy",
        "healthcare": "pharmacy",
        "name": "Global Medical"
      }
    },
    {
      "type": "node",
      "id": 4130960991,
      "lat": 12.9643548,
      "lon": 77.5499608,
      "tags": {
        "addr:street": "Hosahalli Main Road",
        "amenity": "theatre",
        "name": "Kk Function Hall"
      }
    },
    {
      "type": "node",
      "id": 4130960992,
      "lat": 12.961869,
      "lon": 77.5471629,
      "tags": {
        "amenity": "cinema",
        "name": "Sujatha Talkies",
        "name:kn": "ಸುಜಾತ ಚಿತ್ರಮಂದಿರ"
      }
    },
    {
      "type": "node",
      "id": 4130960993,
      "lat": 12.9608471,
      "lon": 77.5490504,
      "tags": {
        "name": "Ayenger Bakery",
        "name:kn": "ಅಯ್ಯಂಗರ್",
        "shop": "bakery"
      }
    },
    {
      "type": "node",
      "id": 4130962589,
      "lat": 12.9640632,
      "lon": 77.5509417,
      "tags": {
        "amenity": "clinic",
        "healthcare": "clinic"
      }
    },
    {
      "type": "node",
      "id": 4130962590,
      "lat": 12.9608525,
      "lon": 77.5490077,
      "tags": {
        "amenity": "pharmacy",
        "healthcare": "pharmacy"
      }
    },
    {
      "type": "node",
      "id": 4130962591,
      "lat": 12.9638664,
      "lon": 77.5510308,
      "tags": {
        "amenity": "cafe",
        "name": "Bismillah Tea Hotel"
      }
    },
    {
      "type": "node",
      "id": 4130962989,
      "lat": 12.9612397,
      "lon": 77.5508007,
      "tags": {
        "amenity": "drinking_water",
        "name": "doctor water"
      }
    },
    {
      "type": "node",
      "id": 4130963390,
      "lat": 12.9644446,
      "lon": 77.5552913,
      "tags": {
        "amenity": "atm"
      }
    },
    {
      "type": "node",
      "id": 4344769202,
      "lat": 12.9567335,
      "lon": 77.5513304,
      "tags": {
        "addr:street": "Mysore Road",
        "amenity": "pharmacy",
        "name:hi": "राज सन्स फोमा"
      }
    },
    {
      "type": "node",
      "id": 4446894387,
      "lat": 12.9559132,
      "lon": 77.5561779,
      "tags": {
        "addr:city": "bangalore",
        "addr:housenumber": "9",
        "addr:postcode": "560026",
        "addr:street": "2nd Main Road valmikinagar Mysore Road, Ramachandra Agrahara, Azad Nagar",
        "amenity": "pharmacy",
        "name": "Sri Ganesh Pharma",
        "phone": "089708 85482"
      }
    },
    {
      "type": "node",
      "id": 4488831477,
      "lat": 12.9610541,
      "lon": 77.5613113,
      "tags": {
        "addr:city": "bangalore",
        "addr:housenumber": "168",
        "addr:postcode": "560018",
        "addr:street": "1st Floor, 9th Cross, 1st Main Road, Chamarajpet",
        "leisure": "sports_centre",
        "name": "Sanjeevini Fitness World",
        "opening_hours": "06:00-22:00",
        "sport": "gymnastics"
      }
    },
    {
      "type": "node",
      "id": 4489688022,
      "lat": 12.9606014,
      "lon": 77.5592964,
      "tags": {
        "addr:city": "bangalore",
        "addr:housenumber": "17/19",
        "addr:postcode": "560021",
        "addr:street": "HVR Complex, Subramayam Nagar Road, Subramanya Nagar",
        "leisure": "sports_centre",
        "name": "Body Line Fitness Center",
        "opening_hours": "05:00  - 12:30",
        "phone": "(91)-80-33092920",
        "sport": "gymnastics"
      }
    },
    {
      "type": "node",
      "id": 4489690811,
      "lat": 12.9604735,
      "lon": 77.5593446,
      "tags": {
        "addr:city": "bangalore",
        "addr:postcode": "560026",
        "addr:street": "Sirsi Circle, Jagajeevanram Nagar",
        "leisure": "sports_centre",
        "name": "Sanjeevini Fitness World",
        "opening_hours": "06:00-22:00",
        "phone": "(91)-9901650250",
        "sport": "gymnastics"
      }
    },
    {
      "type": "node",
      "id": 4542494317,
      "lat": 12.9556017,
      "lon": 77.5459806,
      "tags": {
        "addr:city": "Bangalore",
        "addr:postcode": "560026",
        "addr:street": "Mysore Road",
        "name": "Deco Design",
        "operator": "Deco Design",
        "shop": "furniture",
        "wheelchair": "no"
      }
    },
    {
      "type": "node",
      "id": 5242628721,
      "lat": 12.9621245,
      "lon": 77.5522069,
      "tags": {
        "shop": "hairdresser"
      }
    },
    {
      "type": "node",
      "id": 5259390022,
      "lat": 12.9629891,
      "lon": 77.551268,
      "tags": {
        "amenity": "school",
        "name": "Kinto School"
      }
    },
    {
      "type": "node",
      "id": 5259390023,
      "lat": 12.9610936,
      "lon": 77.5468666,
      "tags": {
        "amenity": "school",
        "name": "Kinto High School"
      }
    },
    {
      "type": "node",
      "id": 5259390024,
      "lat": 12.9622432,
      "lon": 77.5494253,
      "tags": {
        "amenity": "drinking_water",
        "name": "Doctor water"
      }
    },
    {
      "type": "node",
      "id": 5259394922,
      "lat": 12.9634851,
      "lon": 77.5529474,
      "tags": {
        "amenity": "school",
        "name": "Jawahar School"
      }
    },
    {
      "type": "node",
      "id": 5259407521,
      "lat": 12.9638701,
      "lon": 77.5499513,
      "tags": {
        "amenity": "clinic",
        "healthcare": "nursing",
        "name": "Shilpa nursing home"
      }
    },
    {
      "type": "node",
      "id": 6938988878,
      "lat": 12.9566544,
      "lon": 77.5635275,
      "tags": {
        "addr:district": "Bengaluru Urban",
        "addr:full": "No.9, 6Th Cross, 5Th Main, Chamarapet",
        "addr:postcode": "560018",
        "addr:state": "Karnataka",
        "amenity": "clinic",
        "name": "Amar Nursing Home",
        "source": "OpenGovernmentData"
      }
    },
    {
      "type": "node",
      "id": 6944269353,
      "lat": 12.9526505,
      "lon": 77.5548633,
      "tags": {
        "addr:district": "Bengaluru Urban",
        "addr:full": "Kempegoudanagara, Near Police Station, South",
        "addr:postcode": "560018",
        "addr:state": "Karnataka",
        "amenity": "hospital",
        "name": "Gavipuramguttahalli Maternity Home",
        "source": "OpenGovernmentData"
      }
    },
    {
      "type": "node",
      "id": 6944392364,
      "lat": 12.9632506,
      "lon": 77.5602901,
      "tags": {
        "addr:district": "Bengaluru Urban",
        "addr:full": "No. 40/1, J.J.R. Nagar Main Road, K.H. Ranganath Colony, Behind Sadarshini Hotel",
        "addr:postcode": "560018",
        "addr:state": "Karnataka",
        "amenity": "hospital",
        "healthcare": "hospital",
        "name": "Balaji Hospital, K.H. Ranganath Colony",
        "source": "OpenGovernmentData"
      }
    },
    {
      "type": "node",
      "id": 6944464994,
      "lat": 12.9559644,
      "lon": 77.5485635,
      "tags": {
        "addr:district": "Bengaluru Urban",
        "addr:full": "Kasturabanagar, Mysore Road , South",
        "addr:postcode": "560026",
        "addr:state": "Karnataka",
        "amenity": "hospital",
        "name": "Azad Nagar Maternity Home",
        "source": "OpenGovernmentData"
      }
    },
    {
      "type": "node",
      "id": 6944842472,
      "lat": 12.9610131,
      "lon": 77.5603162,
      "tags": {
        "addr:district": "Bengaluru Urban",
        "addr:full": "No 57 & 58 Sirsi Road Near Sirsi Circle Chamarajpet",
        "addr:postcode": "560018",
        "addr:state": "Karnataka",
        "amenity": "clinic",
        "healthcare": "clinic",
        "name": "Joshi Nursing Home",
        "source": "OpenGovernmentData"
      }
    },
    {
      "type": "node",
      "id": 6947268976,
      "lat": 12.9561944,
      "lon": 77.5460348,
      "tags": {
        "addr:district": "Bengaluru Urban",
        "addr:full": "1/1,1/2,1/3, New Guddadahalli, Mysore Road",
        "addr:postcode": "560026",
        "addr:state": "Karnataka",
        "amenity": "clinic",
        "name": "Balaji Nursing Home",
        "source": "OpenGovernmentData"
      }
    },
    {
      "type": "node",
      "id": 7292337013,
      "lat": 12.9619946,
      "lon": 77.5604966,
      "tags": {
        "access": "permissive",
        "amenity": "parking",
        "parking": "surface"
      }
    },
    {
      "type": "node",
      "id": 7576958041,
      "lat": 12.9580215,
      "lon": 77.5629353,
      "tags": {
        "addr:district": "Bengaluru Urban",
        "addr:full": "Chamrajpet, Bengaluru",
        "addr:state": "Karnataka",
        "amenity": "clinic",
        "name": "Advanced Gastro Care",
        "source": "Local Knowledge"
      }
    },
    {
      "type": "node",
      "id": 7576958043,
      "lat": 12.961345,
      "lon": 77.560893,
      "tags": {
        "addr:district": "Bengaluru Urban",
        "addr:full": "Mahaveer Arcade, Sirsi Road, Chamrajpet, Bengaluru",
        "addr:postcode": "560018",
        "addr:state": "Karnataka",
        "amenity": "hospital",
        "name": "Corporation Hospital",
        "source": "Local Knowledge"
      }
    },
    {
      "type": "node",
      "id": 7576958052,
      "lat": 12.9609494,
      "lon": 77.5613939,
      "tags": {
        "addr:district": "Bengaluru Urban",
        "addr:full": "Sirsi Road, Chamrajpet, Bengaluru",
        "addr:postcode": "560018",
        "addr:state": "Karnataka",
        "amenity": "hospital",
        "name": "Government Hospital",
        "name:kn": "ಚಾಮರಾಜಪೇಟೆ ಸರ್ಕಾರಿ ಆಸ್ಪತ್ರೆ",
        "source": "Local Knowledge"
      }
    },
    {
      "type": "node",
      "id": 7576958056,
      "lat": 12.9575488,
      "lon": 77.5594846,
      "tags": {
        "addr:district": "Bengaluru Urban",
        "addr:full": "Chamrajpet, Bengaluru",
        "addr:state": "Karnataka",
        "amenity": "doctors",
        "name": "Dr. M Kishore",
        "source": "Local Knowledge"
      }
    },
    {
      "type": "node",
      "id": 7576958061,
      "lat": 12.9587464,
      "lon": 77.5573456,
      "tags": {
        "addr:district": "Bengaluru Urban",
        "addr:full": "Ramachandra Agrahara, Azad Nagar, Bengaluru",
        "addr:postcode": "560026",
        "addr:state": "Karnataka",
        "amenity": "hospital",
        "name": "Government Hospital, Banglore",
        "source": "Local Knowledge"
      }
    },
    {
      "type": "node",
      "id": 7576958096,
      "lat": 12.960972,
      "lon": 77.5609696,
      "tags": {
        "addr:district": "Bengaluru Urban",
        "addr:full": "Chamrajpet, Bengaluru",
        "addr:postcode": "560018",
        "addr:state": "Karnataka",
        "amenity": "hospital",
        "name": "Herige Hospital",
        "source": "Local Knowledge"
      }
    },
    {
      "type": "node",
      "id": 7576958107,
      "lat": 12.9585302,
      "lon": 77.5636336,
      "tags": {
        "addr:district": "Bengaluru Urban",
        "addr:full": "Chamrajpet, Bengaluru",
        "addr:postcode": "560018",
        "addr:state": "Karnataka",
        "amenity": "clinic",
        "name": "Chamarajpete Skin care clinic",
        "source": "Local Knowledge"
      }
    },
    {
      "type": "node",
      "id": 11178147825,
      "lat": 12.9569978,
      "lon": 77.5636814,
      "tags": {
        "addr:housenumber": "64",
        "addr:street": "Chamrajpet 5th Main Road",
        "amenity": "dentist",
        "check_date": "2023-09-09",
        "healthcare": "dentist",
        "name": "Sri Vaari Dental Clinic"
      }
    },
    {
      "type": "node",
      "id": 11178147827,
      "lat": 12.9569814,
      "lon": 77.5636441,
      "tags": {
        "addr:housenumber": "66",
        "addr:street": "Chamrajpet 5th Main Road",
        "amenity": "dentist",
        "check_date": "2023-09-09",
        "healthcare": "dentist",
        "name": "Sri Bhagavan Mahaveer Jain Dental Care",
        "phone": "+91 78920 49865"
      }
    },
    {
      "type": "node",
      "id": 11178147828,
      "lat": 12.9569802,
      "lon": 77.5636474,
      "tags": {
        "addr:housenumber": "66",
        "addr:street": "Chamrajpet 5th Main Road",
        "amenity": "bank",
        "check_date": "2023-09-09",
        "name": "Daivajna Credit Cooperative Society"
      }
    },
    {
      "type": "node",
      "id": 11178147829,
      "lat": 12.9571072,
      "lon": 77.5636036,
      "tags": {
        "check_date": "2023-09-09",
        "name": "FabricSpa",
        "phone": "+91 95353 34304",
        "shop": "laundry"
      }
    },
    {
      "type": "node",
      "id": 11178147830,
      "lat": 12.9570772,
      "lon": 77.5636008,
      "tags": {
        "check_date": "2023-09-09",
        "name": "J K Xerox",
        "shop": "copyshop"
      }
    },
    {
      "type": "node",
      "id": 11178147831,
      "lat": 12.957102,
      "lon": 77.5636922,
      "tags": {
        "addr:housenumber": "118/1",
        "addr:street": "Chamrajpet 5th Main Road",
        "check_date": "2023-09-09",
        "name": "Vineet Plywood",
        "shop": "hardware"
      }
    },
    {
      "type": "node",
      "id": 11178186966,
      "lat": 12.9585492,
      "lon": 77.5620042,
      "tags": {
        "amenity": "fast_food",
        "check_date": "2023-09-09",
        "name": "Sri Venkateshwara Hot Chips"
      }
    },
    {
      "type": "node",
      "id": 11178186972,
      "lat": 12.9587526,
      "lon": 77.5633853,
      "tags": {
        "check_date": "2023-09-09",
        "name": "M Electronics",
        "shop": "electronics"
      }
    },
    {
      "type": "node",
      "id": 11178186973,
      "lat": 12.958754,
      "lon": 77.5631381,
      "tags": {
        "name": "Sri Vinayaka Paper Shop",
        "shop": "yes"
      }
    },
    {
      "type": "node",
      "id": 11178186974,
      "lat": 12.9587388,
      "lon": 77.5630677,
      "tags": {
        "check_date": "2023-09-09",
        "name": "Vishal Marketing",
        "shop": "hardware"
      }
    },
    {
      "type": "node",
      "id": 11178186975,
      "lat": 12.958745,
      "lon": 77.5628802,
      "tags": {
        "check_date": "2023-09-09",
        "name": "Sanjay Jewellers",
        "shop": "jewelry"
      }
    },
    {
      "type": "node",
      "id": 11178186976,
      "lat": 12.9587236,
      "lon": 77.5627992,
      "tags": {
        "check_date": "2023-09-09",
        "name": "Riddhi Siddhi Enterprises",
        "shop": "hardware"
      }
    },
    {
      "type": "node",
      "id": 11178186977,
      "lat": 12.9587173,
      "lon": 77.5624,
      "tags": {
        "check_date": "2023-09-09",
        "name": "Mahadev Tea House",
        "shop": "tea"
      }
    },
    {
      "type": "node",
      "id": 11178186978,
      "lat": 12.9587215,
      "lon": 77.5621584,
      "tags": {
        "amenity": "fast_food",
        "check_date": "2023-09-09",
        "cuisine": "juice",
        "name": "Bhavani Juice and Chats"
      }
    },
    {
      "type": "node",
      "id": 11178186979,
      "lat": 12.9587166,
      "lon": 77.5619858,
      "tags": {
        "amenity": "restaurant",
        "check_date": "2023-09-09",
        "cuisine": "indian",
        "name": "Udupi Coffee Time"
      }
    },
    {
      "type": "node",
      "id": 11178186980,
      "lat": 12.9587028,
      "lon": 77.5617364,
      "tags": {
        "check_date": "2023-09-09",
        "name": "Ravi Kiran Dry Cleaners",
        "shop": "dry_cleaning"
      }
    },
    {
      "type": "node",
      "id": 11178186981,
      "lat": 12.9586869,
      "lon": 77.5616576,
      "tags": {
        "check_date": "2023-09-09",
        "name": "Shree Gopalakrishna Printing Press",
        "shop": "copyshop"
      }
    },
    {
      "type": "node",
      "id": 11178186982,
      "lat": 12.9586786,
      "lon": 77.5615915,
      "tags": {
        "check_date": "2023-09-09",
        "name": "Patanjali Chikitsalaya and Store",
        "shop": "herbalist"
      }
    },
    {
      "type": "node",
      "id": 11178186983,
      "lat": 12.9586675,
      "lon": 77.5615425,
      "tags": {
        "check_date": "2023-09-09",
        "name": "Victor Fashions",
        "shop": "fashion_accessories"
      }
    },
    {
      "type": "node",
      "id": 11178186984,
      "lat": 12.9585612,
      "lon": 77.5623501,
      "tags": {
        "check_date": "2023-09-09",
        "name": "Ashoka Stores",
        "shop": "convenience"
      }
    },
    {
      "type": "node",
      "id": 11178186986,
      "lat": 12.9586687,
      "lon": 77.5613008,
      "tags": {
        "check_date": "2023-09-09",
        "name": "Surana Solar Solutions",
        "shop": "hardware"
      }
    },
    {
      "type": "node",
      "id": 11178186988,
      "lat": 12.9586547,
      "lon": 77.5611719,
      "tags": {
        "check_date": "2023-09-09",
        "name": "Skyward Publishers",
        "shop": "books"
      }
    },
    {
      "type": "node",
      "id": 11178186989,
      "lat": 12.958664,
      "lon": 77.5610979,
      "tags": {
        "check_date": "2023-09-09",
        "name": "Chaitanya Graphics",
        "shop": "copyshop"
      }
    },
    {
      "type": "node",
      "id": 11178186990,
      "lat": 12.9586508,
      "lon": 77.5608592,
      "tags": {
        "check_date": "2023-09-09",
        "name": "Fruits and Grocery",
        "shop": "greengrocer"
      }
    },
    {
      "type": "node",
      "id": 11178186994,
      "lat": 12.9585997,
      "lon": 77.559338,
      "tags": {
        "brand": "Nandini",
        "check_date": "2023-09-09",
        "name": "Nandini",
        "shop": "dairy"
      }
    },
    {
      "type": "node",
      "id": 11178186995,
      "lat": 12.9584415,
      "lon": 77.5591653,
      "tags": {
        "check_date": "2023-09-09",
        "name": "Iyengar Bakery",
        "name:kn": "ಐಯ್ಯಂಗಾರ್ ಬೇಕರಿ",
        "shop": "bakery"
      }
    },
    {
      "type": "node",
      "id": 11178186997,
      "lat": 12.9584991,
      "lon": 77.5600849,
      "tags": {
        "check_date": "2023-09-09",
        "name": "Dev Pharma",
        "shop": "medical_supply"
      }
    },
    {
      "type": "node",
      "id": 11178186998,
      "lat": 12.958515,
      "lon": 77.5609724,
      "tags": {
        "check_date": "2023-09-09",
        "name": "Highlights Hafele",
        "shop": "hardware"
      }
    },
    {
      "type": "node",
      "id": 11178186999,
      "lat": 12.9585127,
      "lon": 77.5611714,
      "tags": {
        "check_date": "2023-09-09",
        "name": "Neev Glass company",
        "shop": "hardware"
      }
    },
    {
      "type": "node",
      "id": 11178187000,
      "lat": 12.9585429,
      "lon": 77.5618917,
      "tags": {
        "check_date": "2023-09-09",
        "name": "Ramya Medicals",
        "shop": "medical_supply"
      }
    },
    {
      "type": "node",
      "id": 11178187001,
      "lat": 12.9585405,
      "lon": 77.5619529,
      "tags": {
        "check_date": "2023-09-09",
        "name": "Sri Subramanya Enterprises Pipes Sanitary Fittings",
        "shop": "hardware"
      }
    },
    {
      "type": "node",
      "id": 11178187002,
      "lat": 12.9586836,
      "lon": 77.561399,
      "tags": {
        "check_date": "2023-09-09",
        "name": "Lab Rats Apparel",
        "shop": "clothes"
      }
    },
    {
      "type": "node",
      "id": 11248255456,
      "lat": 12.9571796,
      "lon": 77.5501655,
      "tags": {
        "amenity": "bank",
        "brand": "Union Bank of India",
        "brand:wikidata": "Q2004078",
        "check_date": "2023-10-08",
        "name": "Union Bank of India",
        "name:kn": "ಯೂನಿಯನ್ ಬ್ಯಾಂಕ್"
      }
    },
    {
      "type": "node",
      "id": 11248255457,
      "lat": 12.9571816,
      "lon": 77.550277,
      "tags": {
        "amenity": "atm",
        "brand": "Union Bank of India",
        "brand:wikidata": "Q2004078",
        "check_date": "2023-10-08",
        "operator": "Union Bank of India",
        "operator:wikidata": "Q2004078"
      }
    },
    {
      "type": "node",
      "id": 11248255458,
      "lat": 12.9573596,
      "lon": 77.5511498,
      "tags": {
        "amenity": "fuel",
        "brand": "Bharat Petroleum",
        "brand:wikidata": "Q854826",
        "check_date": "2024-01-25",
        "name": "Bharat Petroleum",
        "name:en": "Bharat Petroleum",
        "name:kn": "ಭಾರತ್ ಪೆಟ್ರೋಲಿಯಂ",
        "self_service": "no"
      }
    },
    {
      "type": "node",
      "id": 11248255459,
      "lat": 12.9585509,
      "lon": 77.5536366,
      "tags": {
        "amenity": "cinema",
        "check_date": "2023-10-08",
        "name": "Gopalan cinemas"
      }
    },
    {
      "type": "node",
      "id": 11248255460,
      "lat": 12.9584119,
      "lon": 77.5532961,
      "tags": {
        "brand": "DMart",
        "brand:wikidata": "Q5203271",
        "check_date": "2023-10-08",
        "name": "DMart",
        "shop": "supermarket"
      }
    },
    {
      "type": "node",
      "id": 12118826140,
      "lat": 12.9595796,
      "lon": 77.5619677,
      "tags": {
        "amenity": "atm",
        "brand": "Bank of Baroda",
        "brand:wikidata": "Q2003797",
        "operator": "Bank of Baroda",
        "operator:wikidata": "Q2003797"
      }
    },
    {
      "type": "node",
      "id": 12145536674,
      "lat": 12.9572457,
      "lon": 77.5509305,
      "tags": {
        "amenity": "fuel",
        "brand": "Bharat Petroleum",
        "brand:wikidata": "Q854826",
        "name": "Bharat Petroleum"
      }
    },
    {
      "type": "node",
      "id": 12734621153,
      "lat": 12.9562108,
      "lon": 77.5476429,
      "tags": {
        "check_date": "2025-04-07",
        "clothes": "men;women;wedding;underwear;traditional;babies;denim;children;maternity;socks;fashion;accessories",
        "name": "Pothys",
        "name:en": "Pothys",
        "payment:cash": "yes",
        "payment:credit_cards": "yes",
        "payment:debit_cards": "yes",
        "payment:upi": "yes",
        "shop": "clothes",
        "wheelchair": "limited"
      }
    },
    {
      "type": "way",
      "id": 53849353,
      "center": {
        "lat": 12.9599135,
        "lon": 77.562643
      },
      "tags": {
        "addr:street": "Albert Victor Road",
        "landuse": "religious",
        "leisure": "common",
        "name": "Chamrajpet Eidgha",
        "name:kn": "ಚಾಮರಾಜಪೇಟೆ ಈದ್ಗ",
        "religion": "muslim"
      }
    },
    {
      "type": "way",
      "id": 55684219,
      "center": {
        "lat": 12.9507937,
        "lon": 77.5548602
      },
      "tags": {
        "leisure": "sports_centre",
        "name": "Rajiv Gandhi Sports Complex",
        "name:etymology:wikidata": "Q4593"
      }
    },
    {
      "type": "way",
      "id": 55684220,
      "center": {
        "lat": 12.951867,
        "lon": 77.5589753
      },
      "tags": {
        "alt_name": "Jinke Park",
        "leisure": "park",
        "name": "Dr Rajkumar Park",
        "name:etymology:wikidata": "Q984634",
        "name:kn": "ರಾಜಕುಮಾರ ಉದ್ಯಾನವನ"
      }
    },
    {
      "type": "way",
      "id": 166584397,
      "center": {
        "lat": 12.9584995,
        "lon": 77.5534667
      },
      "tags": {
        "landuse": "retail",
        "name": "Gopalan Mall",
        "name:kn": "ಗೋಪಾಲನ್ ಮಾಲ್",
        "shop": "mall"
      }
    },
    {
      "type": "way",
      "id": 169817243,
      "center": {
        "lat": 12.964005,
        "lon": 77.5542033
      },
      "tags": {
        "amenity": "cinema"
      }
    },
    {
      "type": "way",
      "id": 182819011,
      "center": {
        "lat": 12.9582804,
        "lon": 77.5551362
      },
      "tags": {
        "leisure": "park"
      }
    },
    {
      "type": "way",
      "id": 347531885,
      "center": {
        "lat": 12.9655397,
        "lon": 77.5547619
      },
      "tags": {
        "amenity": "place_of_worship",
        "building": "mosque",
        "denomination": "sunni",
        "name": "Masjid e Umre Faroq",
        "name:kn": "ಮಸ್ಜಿದ್ ಎ ಉಮ್ರೆ ಫರೂಕ್",
        "religion": "muslim"
      }
    },
    {
      "type": "way",
      "id": 362893293,
      "center": {
        "lat": 12.9497423,
        "lon": 77.5484953
      },
      "tags": {
        "leisure": "park"
      }
    },
    {
      "type": "way",
      "id": 363138580,
      "center": {
        "lat": 12.9474929,
        "lon": 77.5579107
      },
      "tags": {
        "amenity": "place_of_worship",
        "landuse": "religious",
        "name": "Sri Pralayakalada Veerabhadraswami Gudi",
        "religion": "hindu"
      }
    },
    {
      "type": "way",
      "id": 437565300,
      "center": {
        "lat": 12.9640791,
        "lon": 77.5557436
      },
      "tags": {
        "addr:street": "Hosahalli Main Road",
        "leisure": "park",
        "name": "JJR Nagar Park"
      }
    },
    {
      "type": "way",
      "id": 687319749,
      "center": {
        "lat": 12.951407,
        "lon": 77.5501031
      },
      "tags": {
        "leisure": "park"
      }
    },
    {
      "type": "way",
      "id": 1052004254,
      "center": {
        "lat": 12.9598055,
        "lon": 77.5635588
      },
      "tags": {
        "amenity": "school"
      }
    },
    {
      "type": "way",
      "id": 1203069042,
      "center": {
        "lat": 12.9535295,
        "lon": 77.5570806
      },
      "tags": {
        "amenity": "crematorium",
        "landuse": "crematorium",
        "name": "Chamrajapet Crematorium",
        "name:kn": "ಚಾಮರಾಜಪೇಟೆ ಚಿತಾಗಾರ",
        "note": "10 Cremation Sites, conventional, wood burning, includes burial area.",
        "operator": "BBMP",
        "religion": "hindu"
      }
    },
    {
      "type": "way",
      "id": 1203069053,
      "center": {
        "lat": 12.9529923,
        "lon": 77.5620617
      },
      "tags": {
        "amenity": "school"
      }
    },
    {
      "type": "way",
      "id": 1205832181,
      "center": {
        "lat": 12.9609247,
        "lon": 77.5611731
      },
      "tags": {
        "amenity": "hospital"
      }
    },
    {
      "type": "way",
      "id": 1213970890,
      "center": {
        "lat": 12.9613893,
        "lon": 77.5581433
      },
      "tags": {
        "access": "private",
        "leisure": "pitch",
        "sport": "basketball"
      }
    },
    {
      "type": "way",
      "id": 1257194266,
      "center": {
        "lat": 12.9564423,
        "lon": 77.5487311
      },
      "tags": {
        "amenity": "fuel",
        "brand": "Indian Oil",
        "brand:wikidata": "Q1289348",
        "compressed_air": "yes",
        "name": "Indian Oil",
        "wheelchair": "yes"
      }
    },
    {
      "type": "way",
      "id": 1290606661,
      "center": {
        "lat": 12.953203,
        "lon": 77.5569578
      },
      "tags": {
        "access": "yes",
        "amenity": "shower",
        "description": "shower area",
        "fee": "no",
        "operator": "BBMP",
        "unisex": "yes",
        "wheelchair": "no"
      }
    },
    {
      "type": "way",
      "id": 1298716883,
      "center": {
        "lat": 12.9576256,
        "lon": 77.5518773
      },
      "tags": {
        "amenity": "fuel",
        "brand": "Shell",
        "brand:wikidata": "Q110716465",
        "check_date": "2022-11-25",
        "compressed_air": "yes",
        "fuel:diesel": "yes",
        "fuel:petrol": "yes",
        "name": "Shell",
        "name:kn": "ಶೆಲ್",
        "self_service": "no",
        "source": "survey"
      }
    },
    {
      "type": "way",
      "id": 1348696385,
      "center": {
        "lat": 12.9506487,
        "lon": 77.5564358
      },
      "tags": {
        "name": "Dhobi Ghat",
        "shop": "laundry"
      }
    },
    {
      "type": "way",
      "id": 1348696401,
      "center": {
        "lat": 12.9591122,
        "lon": 77.555799
      },
      "tags": {
        "amenity": "fuel",
        "brand": "Indian Oil",
        "brand:wikidata": "Q1289348",
        "compressed_air": "yes",
        "name": "Indian Oil"
      }
    }
  ]
}