{
  "area_name": "Veerabhadra Nagara",
  "osm_id": 10763445378,
  "osm_type": "node",
  "place_type": "neighbourhood",
  "amenity_count": 115,
  "amenities": [
    {
      "type": "node",
      "id": 951467420,
      "lat": 12.9385924,
      "lon": 77.5410571,
      "tags": {
        "addr:postcode": "560085",
        "amenity": "community_centre",
        "name": "Nandagokula Sabhangana",
        "shop": "Community Hall"
      }
    },
    {
      "type": "node",
      "id": 951467567,
      "lat": 12.9388834,
      "lon": 77.5392281,
      "tags": {
        "amenity": "community_centre",
        "name": "Sundar Mahal"
      }
    },
    {
      "type": "node",
      "id": 951467897,
      "lat": 12.9382164,
      "lon": 77.5417664,
      "tags": {
        "amenity": "place_of_worship",
        "name": "Sri Sai Mandiram"
      }
    },
    {
      "type": "node",
      "id": 951468562,
      "lat": 12.9410374,
      "lon": 77.542039,
      "tags": {
        "addr:street": "80 Feet Road Girinagar",
        "name": "Nilgiris Store",
        "shop": "convenience"
      }
    },
    {
      "type": "node",
      "id": 953434497,
      "lat": 12.9386147,
      "lon": 77.5434317,
      "tags": {
        "amenity": "place_of_worship",
        "name": "Ganapathi Sacchidananda Ashrama",
        "religion": "hindu"
      }
    },
    {
      "type": "node",
      "id": 953435253,
      "lat": 12.9381024,
      "lon": 77.543378,
      "tags": {
        "amenity": "school",
        "name": "Auden Public School"
      }
    },
    {
      "type": "node",
      "id": 1363243783,
      "lat": 12.944784,
      "lon": 77.5290622,
      "tags": {
        "addr:street": "Outer Ring Road",
        "brand": "Maruti Suzuki",
        "brand:wikidata": "Q963718",
        "name": "Kalyani Motors",
        "shop": "car"
      }
    },
    {
      "type": "node",
      "id": 1433646771,
      "lat": 12.932367,
      "lon": 77.5414216,
      "tags": {
        "addr:city": "bangalore",
        "addr:postcode": "560085",
        "amenity": "fuel",
        "brand": "Hindustan Petroleum",
        "brand:wikidata": "Q1619375",
        "name": "Sri Mahadeshwara Filling Station",
        "official_name": "Hindustan Petroleum",
        "operator": "Hindustan Petroleum"
      }
    },
    {
      "type": "node",
      "id": 1474854791,
      "lat": 12.9443703,
      "lon": 77.5288119,
      "tags": {
        "name": "Kalyani Motors Private Limited",
        "shop": "car"
      }
    },
    {
      "type": "node",
      "id": 1661797104,
      "lat": 12.9339016,
      "lon": 77.5414815,
      "tags": {
        "amenity": "pharmacy",
        "brand": "MedPlus",
        "brand:wikidata": "Q65684234",
        "healthcare": "pharmacy",
        "name": "MedPlus",
        "opening_hours": "Mo-Su,PH 08:30-21:00"
      }
    },
    {
      "type": "node",
      "id": 1661797962,
      "lat": 12.9383665,
      "lon": 77.5411678,
      "tags": {
        "amenity": "place_of_worship",
        "name": "Bhandarakeri Mutt Bhagavathashrama"
      }
    },
    {
      "type": "node",
      "id": 2093264600,
      "lat": 12.9342211,
      "lon": 77.5345124,
      "tags": {
        "addr:housename": "PES University",
        "addr:postcode": "560085",
        "addr:street": "100 Feet Outer Ring Road",
        "amenity": "bank",
        "atm": "yes",
        "brand:wikidata": "Q2004078",
        "brand:wikipedia": "en:Union Bank of India",
        "name": "Union Bank of India",
        "name:en": "Union Bank of India",
        "name:kn": "ಯೂನಿಯನ್ ಬ್ಯಾಂಕ್",
        "short_name": "UBI",
        "website": "https://www.unionbankofindia.co.in/"
      }
    },
    {
      "type": "node",
      "id": 2093288411,
      "lat": 12.9336327,
      "lon": 77.5343127,
      "tags": {
        "addr:city": "Bengaluru",
        "addr:housename": "PES University",
        "addr:postcode": "560085",
        "addr:street": "100",
        "amenity": "restaurant",
        "cuisine": "indian",
        "name": "PES Food Court"
      }
    },
    {
      "type": "node",
      "id": 2093290604,
      "lat": 12.9335839,
      "lon": 77.5344798,
      "tags": {
        "addr:city": "Bengaluru",
        "addr:housename": "PES University",
        "addr:postcode": "560085",
        "addr:street": "Outer ring road",
        "amenity": "cafe",
        "cuisine": "indian",
        "name": "Cafe Coffe Day Express",
        "name:kn": "ಕಫೆ ಕಾಫಿ ಡೇ",
        "website": "https://www.cafecoffeeday.com/"
      }
    },
    {
      "type": "node",
      "id": 2234361363,
      "lat": 12.9438068,
      "lon": 77.542,
      "tags": {
        "addr:city": "Bangalore",
        "addr:housename": "Near BDA PArk",
        "addr:housenumber": "56",
        "addr:postcode": "560085",
        "addr:street": "6th Main Road",
        "amenity": "school",
        "cmt": "Genauigkeit: 35.0m",
        "ele": "784.9001029906099",
        "hdop": "8.75",
        "name": "Jnana Deepthi English Primary and High School",
        "sat": "7",
        "time": "2013-02-26T10:03:51Z"
      }
    },
    {
      "type": "node",
      "id": 2484900084,
      "lat": 12.9436624,
      "lon": 77.5419997,
      "tags": {
        "addr:city": "Bangalore",
        "addr:housename": "Near BDA Park",
        "addr:housenumber": "63",
        "addr:postcode": "560085",
        "addr:street": "6th Main Road",
        "amenity": "hospital",
        "name": "Shalini Nursing & MAternity Home"
      }
    },
    {
      "type": "node",
      "id": 4243885680,
      "lat": 12.9336297,
      "lon": 77.5345923,
      "tags": {
        "amenity": "fountain",
        "name": "Pi R Cube"
      }
    },
    {
      "type": "node",
      "id": 4243886023,
      "lat": 12.9337527,
      "lon": 77.5345277,
      "tags": {
        "amenity": "bench"
      }
    },
    {
      "type": "node",
      "id": 4243891304,
      "lat": 12.9357187,
      "lon": 77.5345513,
      "tags": {
        "addr:city": "Bengaluru",
        "addr:housename": "PES University",
        "addr:postcode": "560085",
        "addr:street": "100 Feet Outer Ring Road",
        "name": "Campus Mart",
        "shop": "convenience"
      }
    },
    {
      "type": "node",
      "id": 4243906616,
      "lat": 12.9342254,
      "lon": 77.5344569,
      "tags": {
        "amenity": "atm",
        "operator": "ICICI"
      }
    },
    {
      "type": "node",
      "id": 4243908360,
      "lat": 12.9355646,
      "lon": 77.5345308,
      "tags": {
        "addr:city": "Bengaluru",
        "addr:housename": "PES University",
        "addr:postcode": "560085",
        "addr:street": "100 Feet Outer Ring Road",
        "amenity": "cafe",
        "cuisine": "indian",
        "name": "Nescafe",
        "wifi": "no"
      }
    },
    {
      "type": "node",
      "id": 4445386697,
      "lat": 12.9431647,
      "lon": 77.5415743,
      "tags": {
        "addr:city": "Banashankari,Bangalore",
        "addr:housenumber": "476,2nd floor",
        "addr:postcode": "560085",
        "addr:street": "10th Cross Road",
        "amenity": "restaurant",
        "cuisine": "regional",
        "name": "The Biryani Cafe",
        "opening_hours": "18:30-22:30",
        "phone": "088618 37788",
        "takeaway": "yes"
      }
    },
    {
      "type": "node",
      "id": 4446907712,
      "lat": 12.9389007,
      "lon": 77.5438808,
      "tags": {
        "addr:city": "bangalore",
        "addr:housenumber": "5/8/1",
        "addr:postcode": "560085",
        "addr:street": "20th Main Road, Muneshwara Block, Girinagar, 1st phase Girinagar, Kadavanthra, Banashankari",
        "amenity": "hospital",
        "name": "Pulse Multispecialty Hospital",
        "phone": "080 2672 4466",
        "source": "just dial"
      }
    },
    {
      "type": "node",
      "id": 4489885397,
      "lat": 12.933338,
      "lon": 77.5402961,
      "tags": {
        "addr:city": "Bengaluru",
        "addr:housenumber": "677",
        "addr:postcode": "560085",
        "addr:street": ", Outer Ring Rd, Hosakerehalli Layout, Banashankari Stage I, Banashankari, , Karnataka",
        "leisure": "sports_centre",
        "name": "Shapes Gym",
        "opening_hours": "5:00-22:00"
      }
    },
    {
      "type": "node",
      "id": 4761559321,
      "lat": 12.9455741,
      "lon": 77.5384918,
      "tags": {
        "addr:postcode": "560085",
        "addr:street": "Hoskerehalli Road",
        "name": "Sri Gururaghavendra traders",
        "name:en": "Sri Gururaghavendra traders",
        "opening_hours": "Mo-Su 09:30-21:30",
        "shop": "department_store"
      }
    },
    {
      "type": "node",
      "id": 4815911828,
      "lat": 12.9459315,
      "lon": 77.5385939,
      "tags": {
        "addr:postcode": "560085",
        "addr:street": "Hoskerehalli Road",
        "amenity": "place_of_worship",
        "name": "Sri Vaibhava Ganapathi",
        "name:en": "Sri Vaibhava Ganapathi",
        "name:kn": "ಶ್ರೀ ವೈಭವ ಗಣಪತಿ",
        "opening_hours": "Mo-Su 08:00-21:00",
        "religion": "hindu"
      }
    },
    {
      "type": "node",
      "id": 5303068048,
      "lat": 12.9406476,
      "lon": 77.5427806,
      "tags": {
        "amenity": "ice_cream",
        "name": "Vadilals",
        "shop": "dairy"
      }
    },
    {
      "type": "node",
      "id": 5303068049,
      "lat": 12.9407678,
      "lon": 77.542786,
      "tags": {
        "amenity": "bank",
        "level": "1",
        "name": "Saphalya Credit Co-op. Society"
      }
    },
    {
      "type": "node",
      "id": 5303068050,
      "lat": 12.9407992,
      "lon": 77.5427847,
      "tags": {
        "name": "Sri Sri Ayurveda Clinic",
        "shop": "medical_supply"
      }
    },
    {
      "type": "node",
      "id": 5303068057,
      "lat": 12.9395543,
      "lon": 77.5427951,
      "tags": {
        "name": "Sameepa Iyengar's Bakery",
        "shop": "bakery"
      }
    },
    {
      "type": "node",
      "id": 5303068058,
      "lat": 12.9397235,
      "lon": 77.5424829,
      "tags": {
        "name": "Charan Stores",
        "shop": "convenience"
      }
    },
    {
      "type": "node",
      "id": 5303068059,
      "lat": 12.9397313,
      "lon": 77.5425822,
      "tags": {
        "name": "Amrutha Bakery",
        "shop": "bakery"
      }
    },
    {
      "type": "node",
      "id": 5303068060,
      "lat": 12.9433956,
      "lon": 77.5424957,
      "tags": {
        "amenity": "post_office",
        "level": "1",
        "operator": "India Post",
        "operator:wikidata": "Q3519720"
      }
    },
    {
      "type": "node",
      "id": 5348591335,
      "lat": 12.940807,
      "lon": 77.5416769,
      "tags": {
        "amenity": "school",
        "cmt": "Genauigkeit: 20.0m",
        "designation": "Higher elementary school",
        "ele": "779.0",
        "hdop": "5.0",
        "name": "Janana Deepthi School",
        "sat": "8",
        "source": "local_signs",
        "time": "2013-02-26T09:56:33Z"
      }
    },
    {
      "type": "node",
      "id": 6000091924,
      "lat": 12.9460972,
      "lon": 77.5304519,
      "tags": {
        "amenity": "atm",
        "brand": "State Bank of India",
        "brand:wikidata": "Q1340361",
        "operator": "State Bank of India",
        "operator:wikidata": "Q1340361",
        "short_name": "SBI"
      }
    },
    {
      "type": "node",
      "id": 6449182704,
      "lat": 12.9356526,
      "lon": 77.5345329,
      "tags": {
        "amenity": "ice_cream"
      }
    },
    {
      "type": "node",
      "id": 6449182705,
      "lat": 12.9356072,
      "lon": 77.5344944,
      "tags": {
        "amenity": "fast_food",
        "name": "Food Corner"
      }
    },
    {
      "type": "node",
      "id": 6449182706,
      "lat": 12.9354906,
      "lon": 77.5345149,
      "tags": {
        "name": "Fruit Juice Shop",
        "shop": "beverages"
      }
    },
    {
      "type": "node",
      "id": 6449208761,
      "lat": 12.9341922,
      "lon": 77.5342788,
      "tags": {
        "leisure": "fitness_centre",
        "level": "0",
        "name": "PESU Sports Center"
      }
    },
    {
      "type": "node",
      "id": 6449209437,
      "lat": 12.9334557,
      "lon": 77.5356164,
      "tags": {
        "amenity": "library",
        "level": "1",
        "name": "Lending Library"
      }
    },
    {
      "type": "node",
      "id": 6449209438,
      "lat": 12.9353489,
      "lon": 77.5351147,
      "tags": {
        "amenity": "library",
        "level": "1",
        "name": "Reference Library"
      }
    },
    {
      "type": "node",
      "id": 6899554637,
      "lat": 12.9349789,
      "lon": 77.5366498,
      "tags": {
        "name": "Nandini Parlour",
        "shop": "dairy"
      }
    },
    {
      "type": "node",
      "id": 6899554638,
      "lat": 12.9349174,
      "lon": 77.5367638,
      "tags": {
        "amenity": "cafe",
        "name": "Coffee House"
      }
    },
    {
      "type": "node",
      "id": 6899554639,
      "lat": 12.9349665,
      "lon": 77.5367068,
      "tags": {
        "amenity": "atm",
        "brand": "HDFC Bank",
        "brand:wikidata": "Q631047",
        "name": "HDFC Bank",
        "operator": "HDFC Bank",
        "operator:wikidata": "Q631047",
        "short_name": "HDFC"
      }
    },
    {
      "type": "node",
      "id": 7257279181,
      "lat": 12.9332662,
      "lon": 77.5403188,
      "tags": {
        "amenity": "bank",
        "brand": "Union Bank of India",
        "brand:wikidata": "Q2004078",
        "name": "Union Bank of India"
      }
    },
    {
      "type": "node",
      "id": 8261705436,
      "lat": 12.9336108,
      "lon": 77.5415266,
      "tags": {
        "addr:city": "Bengaluru",
        "addr:postcode": "560085",
        "addr:street": "2nd Main Rd, 6th Block, Banashankari 3rd Stage, Banashankari",
        "amenity": "clinic",
        "healthcare": "clinic",
        "healthcare:speciality": "Spine_Surgeon",
        "name": "Sri Balaji Specialist clinic",
        "website": "https://www.spineexpertbangalore.in/dr-pramod-sudarshan"
      }
    },
    {
      "type": "node",
      "id": 11278723468,
      "lat": 12.9364245,
      "lon": 77.5349405,
      "tags": {
        "amenity": "fast_food",
        "brand": "Indira Canteen",
        "brand:wikidata": "Q36164828",
        "cuisine": "south_indian",
        "name": "Indira Canteen",
        "operator": "BBMP",
        "takeaway": "yes"
      }
    },
    {
      "type": "node",
      "id": 11278822036,
      "lat": 12.9415978,
      "lon": 77.5317487,
      "tags": {
        "amenity": "fast_food"
      }
    },
    {
      "type": "node",
      "id": 11279447635,
      "lat": 12.9338966,
      "lon": 77.539501,
      "tags": {
        "access": "yes",
        "amenity": "toilets"
      }
    },
    {
      "type": "node",
      "id": 11306481636,
      "lat": 12.929597,
      "lon": 77.5343709,
      "tags": {
        "amenity": "school",
        "check_date": "2023-11-02",
        "name": "Sharada Shri Public School"
      }
    },
    {
      "type": "node",
      "id": 11340895285,
      "lat": 12.9296753,
      "lon": 77.5349343,
      "tags": {
        "check_date": "2023-11-02",
        "name": "Krishna Cake Palace",
        "shop": "bakery"
      }
    },
    {
      "type": "node",
      "id": 11340895286,
      "lat": 12.9296544,
      "lon": 77.5350121,
      "tags": {
        "check_date": "2023-11-02",
        "name": "Nandini",
        "shop": "dairy"
      }
    },
    {
      "type": "node",
      "id": 11340895287,
      "lat": 12.9294996,
      "lon": 77.5352415,
      "tags": {
        "amenity": "restaurant",
        "check_date": "2023-11-02",
        "name": "Ba Guru Thindi Madona"
      }
    },
    {
      "type": "node",
      "id": 11676244704,
      "lat": 12.9435944,
      "lon": 77.5375921,
      "tags": {
        "shop": "candles"
      }
    },
    {
      "type": "node",
      "id": 11969539775,
      "lat": 12.9354729,
      "lon": 77.5396693,
      "tags": {
        "amenity": "shelter",
        "shelter_type": "gazebo"
      }
    },
    {
      "type": "node",
      "id": 11969539776,
      "lat": 12.9349266,
      "lon": 77.5395164,
      "tags": {
        "amenity": "shelter",
        "shelter_type": "gazebo"
      }
    },
    {
      "type": "node",
      "id": 12206971476,
      "lat": 12.940738,
      "lon": 77.5427812,
      "tags": {
        "amenity": "fast_food",
        "check_date": "2024-09-28",
        "diet:vegetarian": "yes",
        "name": "Swaada - The Melting Point"
      }
    },
    {
      "type": "node",
      "id": 12895444268,
      "lat": 12.9434518,
      "lon": 77.5382765,
      "tags": {
        "brand": "Nandini",
        "brand:wikidata": "Q124374212",
        "name": "Nandini",
        "shop": "dairy"
      }
    },
    {
      "type": "node",
      "id": 13153345192,
      "lat": 12.9471311,
      "lon": 77.536344,
      "tags": {
        "access": "private",
        "amenity": "parking_entrance",
        "parking": "underground"
      }
    },
    {
      "type": "way",
      "id": 41196430,
      "center": {
        "lat": 12.934578,
        "lon": 77.5428986
      },
      "tags": {
        "leisure": "park"
      }
    },
    {
      "type": "way",
      "id": 141816745,
      "center": {
        "lat": 12.9317713,
        "lon": 77.5414635
      },
      "tags": {
        "addr:postcode": "560085",
        "addr:street": "Hosakerehalli",
        "amenity": "school",
        "name": "Little Flower School"
      }
    },
    {
      "type": "way",
      "id": 199316737,
      "center": {
        "lat": 12.9345346,
        "lon": 77.5354966
      },
      "tags": {
        "leisure": "park",
        "name": "Student Lounge",
        "source": "bing"
      }
    },
    {
      "type": "way",
      "id": 213799479,
      "center": {
        "lat": 12.942856,
        "lon": 77.5430107
      },
      "tags": {
        "alt_name": "BDA Park",
        "leisure": "park",
        "name": "B.D.A. Park",
        "name:en": "Avalahalli BDA Park",
        "source": "Local_Signs"
      }
    },
    {
      "type": "way",
      "id": 346756253,
      "center": {
        "lat": 12.9405756,
        "lon": 77.5425574
      },
      "tags": {
        "addr:street": "80 Feet Road Girinagar",
        "amenity": "place_of_worship",
        "building": "yes",
        "name": "Sri Raghavendra Swamy Mutt",
        "name:kn": "ರಾಘವೇಂದ್ರ ಸ್ವಾಮಿ ಮಠ",
        "religion": "hindu"
      }
    },
    {
      "type": "way",
      "id": 347044129,
      "center": {
        "lat": 12.9326876,
        "lon": 77.5379543
      },
      "tags": {
        "amenity": "place_of_worship",
        "building": "yes",
        "name": "Shri Venugopala Swami Devasthana",
        "name:kn": "ಶ್ರೀ ವೇಣುಗೋಪಾಲ ಸ್ವಾಮಿ ದೇವಸ್ಥಾನ (ಬನಶಂಕರಿ)",
        "religion": "hindu"
      }
    },
    {
      "type": "way",
      "id": 348866051,
      "center": {
        "lat": 12.9353345,
        "lon": 77.5329892
      },
      "tags": {
        "addr:city": "Bengaluru",
        "addr:district": "Bengaluru Urban",
        "addr:postcode": "560083",
        "amenity": "cafe",
        "building": "yes",
        "cuisine": "italian",
        "name": "Cafe Down The Alley",
        "outdoor_seating": "no"
      }
    },
    {
      "type": "way",
      "id": 351424362,
      "center": {
        "lat": 12.9402925,
        "lon": 77.5423963
      },
      "tags": {
        "addr:city": "Bangalore",
        "addr:postcode": "560085",
        "addr:street": "8th Main Rd, Giri Nagar, 2nd Phase, Banashankari",
        "alt_name": "Samskrita Bharati",
        "amenity": "language_school",
        "building": "yes",
        "building:levels": "3",
        "name": "Samskrita Bharati, Aksharam"
      }
    },
    {
      "type": "way",
      "id": 362892978,
      "center": {
        "lat": 12.9439233,
        "lon": 77.5383902
      },
      "tags": {
        "leisure": "park",
        "name": "New BDA Layout Park"
      }
    },
    {
      "type": "way",
      "id": 420181759,
      "center": {
        "lat": 12.9341348,
        "lon": 77.5396549
      },
      "tags": {
        "amenity": "bus_station",
        "name": "Shri Vidhyanagara BMTC Bus station",
        "name:kn": "ಬಸ್ ನಿಲ್ದಾನ"
      }
    },
    {
      "type": "way",
      "id": 548963957,
      "center": {
        "lat": 12.9428045,
        "lon": 77.5424856
      },
      "tags": {
        "leisure": "playground",
        "name": "Sri Varasiddhi Vinayaka Children's Park",
        "operator": "BBMP"
      }
    },
    {
      "type": "way",
      "id": 548963966,
      "center": {
        "lat": 12.9432705,
        "lon": 77.5425134
      },
      "tags": {
        "amenity": "toilets",
        "name": "Nirmala Shouchalaya",
        "name:kn": "ನಿರ್ಮಲ ಶೌಚಾಲಯ"
      }
    },
    {
      "type": "way",
      "id": 548963967,
      "center": {
        "lat": 12.9432721,
        "lon": 77.5423974
      },
      "tags": {
        "name": "HOPCOMS",
        "name:kn": "ಹಾಪ್ ಕಾಮ್ಸ್",
        "shop": "greengrocer"
      }
    },
    {
      "type": "way",
      "id": 687910157,
      "center": {
        "lat": 12.9352011,
        "lon": 77.5347115
      },
      "tags": {
        "amenity": "theatre",
        "name": "Open Air Theatre"
      }
    },
    {
      "type": "way",
      "id": 687910163,
      "center": {
        "lat": 12.9354597,
        "lon": 77.532337
      },
      "tags": {
        "amenity": "parking",
        "operator": "PES Student Parking Lot"
      }
    },
    {
      "type": "way",
      "id": 687910164,
      "center": {
        "lat": 12.9353047,
        "lon": 77.531819
      },
      "tags": {
        "leisure": "pitch",
        "name": "Cricket Pitches",
        "name:kn": "ಕ್ರಿಕೆಟ್ ಆಟದ ಮೈದಾನ"
      }
    },
    {
      "type": "way",
      "id": 687911440,
      "center": {
        "lat": 12.9348535,
        "lon": 77.5321405
      },
      "tags": {
        "amenity": "university",
        "name": "PES University",
        "name:kn": "ಪಿಇಎಸ್ ವಿಶ್ವವಿದ್ಯಾಲಯ"
      }
    },
    {
      "type": "way",
      "id": 687919139,
      "center": {
        "lat": 12.9354352,
        "lon": 77.5354024
      },
      "tags": {
        "amenity": "parking",
        "operator": "Reserved Parking"
      }
    },
    {
      "type": "way",
      "id": 690847999,
      "center": {
        "lat": 12.9457765,
        "lon": 77.5304311
      },
      "tags": {
        "amenity": "parking",
        "bicycle_parking": "yes",
        "motorcycle:parking": "yes",
        "name": "Mysore Road Metro Parking",
        "operator": "BMRCL"
      }
    },
    {
      "type": "way",
      "id": 691137802,
      "center": {
        "lat": 12.933912,
        "lon": 77.5341528
      },
      "tags": {
        "amenity": "shelter",
        "building": "yes"
      }
    },
    {
      "type": "way",
      "id": 691137806,
      "center": {
        "lat": 12.9340838,
        "lon": 77.5358619
      },
      "tags": {
        "amenity": "food_court",
        "building": "yes",
        "level": "1",
        "name": "South Thindies (Food Point)"
      }
    },
    {
      "type": "way",
      "id": 691141403,
      "center": {
        "lat": 12.9334377,
        "lon": 77.5350132
      },
      "tags": {
        "amenity": "motorcycle_parking",
        "operator": "Hostel Parking"
      }
    },
    {
      "type": "way",
      "id": 691142527,
      "center": {
        "lat": 12.9352328,
        "lon": 77.5353381
      },
      "tags": {
        "amenity": "fountain"
      }
    },
    {
      "type": "way",
      "id": 691142529,
      "center": {
        "lat": 12.9353606,
        "lon": 77.5355414
      },
      "tags": {
        "leisure": "park"
      }
    },
    {
      "type": "way",
      "id": 691142530,
      "center": {
        "lat": 12.9346384,
        "lon": 77.5358562
      },
      "tags": {
        "leisure": "garden"
      }
    },
    {
      "type": "way",
      "id": 691143423,
      "center": {
        "lat": 12.9351058,
        "lon": 77.53565
      },
      "tags": {
        "amenity": "motorcycle_parking"
      }
    },
    {
      "type": "way",
      "id": 691143424,
      "center": {
        "lat": 12.9350725,
        "lon": 77.5356515
      },
      "tags": {
        "amenity": "motorcycle_parking"
      }
    },
    {
      "type": "way",
      "id": 691144638,
      "center": {
        "lat": 12.9337358,
        "lon": 77.5346714
      },
      "tags": {
        "amenity": "fountain"
      }
    },
    {
      "type": "way",
      "id": 721685566,
      "center": {
        "lat": 12.9320622,
        "lon": 77.5275863
      },
      "tags": {
        "amenity": "community_centre",
        "landuse": "commercial",
        "name": "V Legacy"
      }
    },
    {
      "type": "way",
      "id": 729214166,
      "center": {
        "lat": 12.9411567,
        "lon": 77.5308904
      },
      "tags": {
        "amenity": "events_venue",
        "landuse": "commercial",
        "name": "Nandi Link Grounds"
      }
    },
    {
      "type": "way",
      "id": 734148540,
      "center": {
        "lat": 12.9451699,
        "lon": 77.5299597
      },
      "tags": {
        "amenity": "community_centre",
        "community_centre": "events_venue",
        "name": "MR Convention Hall"
      }
    },
    {
      "type": "way",
      "id": 768703804,
      "center": {
        "lat": 12.9393941,
        "lon": 77.5271146
      },
      "tags": {
        "leisure": "pitch",
        "sport": "tennis"
      }
    },
    {
      "type": "way",
      "id": 768703805,
      "center": {
        "lat": 12.9392375,
        "lon": 77.5265431
      },
      "tags": {
        "access": "private",
        "leisure": "swimming_pool"
      }
    },
    {
      "type": "way",
      "id": 768703807,
      "center": {
        "lat": 12.94023,
        "lon": 77.5267511
      },
      "tags": {
        "leisure": "garden"
      }
    },
    {
      "type": "way",
      "id": 946132235,
      "center": {
        "lat": 12.9395614,
        "lon": 77.5261861
      },
      "tags": {
        "leisure": "park"
      }
    },
    {
      "type": "way",
      "id": 946132236,
      "center": {
        "lat": 12.9398018,
        "lon": 77.5274279
      },
      "tags": {
        "leisure": "pitch",
        "sport": "tennis"
      }
    },
    {
      "type": "way",
      "id": 946132237,
      "center": {
        "lat": 12.939873,
        "lon": 77.5272588
      },
      "tags": {
        "leisure": "pitch",
        "sport": "basketball"
      }
    },
    {
      "type": "way",
      "id": 946132245,
      "center": {
        "lat": 12.9412206,
        "lon": 77.5264552
      },
      "tags": {
        "leisure": "swimming_pool"
      }
    },
    {
      "type": "way",
      "id": 946132246,
      "center": {
        "lat": 12.9409884,
        "lon": 77.526448
      },
      "tags": {
        "leisure": "park"
      }
    },
    {
      "type": "way",
      "id": 1157397996,
      "center": {
        "lat": 12.9381289,
        "lon": 77.5379681
      },
      "tags": {
        "amenity": "place_of_worship",
        "landuse": "religious",
        "name": "Sri Ramakrishna Seva Trust",
        "religion": "hindu"
      }
    },
    {
      "type": "way",
      "id": 1157397997,
      "center": {
        "lat": 12.9352391,
        "lon": 77.5395846
      },
      "tags": {
        "leisure": "park",
        "name": "Vidyanagara Park"
      }
    },
    {
      "type": "way",
      "id": 1182315665,
      "center": {
        "lat": 12.93463,
        "lon": 77.533221
      },
      "tags": {
        "leisure": "pitch",
        "name": "Football Ground",
        "name:kn": "ಫುಟ್ಬಾಲ್ ಆಟದ ಮೈದಾನ",
        "sport": "soccer"
      }
    },
    {
      "type": "way",
      "id": 1217250856,
      "center": {
        "lat": 12.9376715,
        "lon": 77.5341687
      },
      "tags": {
        "amenity": "fuel",
        "brand": "Go Gas",
        "name": "Go Gas",
        "operator": "Go Gas"
      }
    },
    {
      "type": "way",
      "id": 1217250869,
      "center": {
        "lat": 12.9442181,
        "lon": 77.5303458
      },
      "tags": {
        "amenity": "fuel",
        "brand": "Total",
        "brand:wikidata": "Q154037",
        "name": "Total Gas",
        "operator": "Total Gas"
      }
    },
    {
      "type": "way",
      "id": 1217326874,
      "center": {
        "lat": 12.9330817,
        "lon": 77.5415726
      },
      "tags": {
        "amenity": "place_of_worship",
        "religion": "hindu"
      }
    },
    {
      "type": "way",
      "id": 1219767953,
      "center": {
        "lat": 12.9391869,
        "lon": 77.5265887
      },
      "tags": {
        "amenity": "community_centre",
        "building": "yes",
        "club": "yes",
        "name": "Salarpuria Sattva Divinity Clubhouse"
      }
    },
    {
      "type": "way",
      "id": 1287589789,
      "center": {
        "lat": 12.9317173,
        "lon": 77.5320307
      },
      "tags": {
        "amenity": "parking",
        "parking": "surface"
      }
    },
    {
      "type": "way",
      "id": 1291004769,
      "center": {
        "lat": 12.9342175,
        "lon": 77.539285
      },
      "tags": {
        "amenity": "fuel",
        "brand": "Indian Oil",
        "brand:wikidata": "Q1289348",
        "brand:wikipedia": "en:Indian Oil Corporation",
        "name": "Kalabhyraveshwara Service Station",
        "operator": "Indian Oil Corporation"
      }
    },
    {
      "type": "way",
      "id": 1363986252,
      "center": {
        "lat": 12.9417285,
        "lon": 77.5380163
      },
      "tags": {
        "amenity": "place_of_worship",
        "landuse": "religious",
        "religion": "hindu"
      }
    },
    {
      "type": "way",
      "id": 1363986274,
      "center": {
        "lat": 12.9334026,
        "lon": 77.5273969
      },
      "tags": {
        "leisure": "park"
      }
    },
    {
      "type": "way",
      "id": 1363986279,
      "center": {
        "lat": 12.9371611,
        "lon": 77.5306442
      },
      "tags": {
        "leisure": "sports_centre",
        "name": "Pase Sports Arena"
      }
    },
    {
      "type": "way",
      "id": 1393102826,
      "center": {
        "lat": 12.9436858,
        "lon": 77.5388157
      },
      "tags": {
        "amenity": "fuel",
        "brand": "Nayara",
        "brand:wikidata": "Q5399377",
        "name": "Nayara"
      }
    },
    {
      "type": "way",
      "id": 1443180028,
      "center": {
        "lat": 12.94683,
        "lon": 77.5326434
      },
      "tags": {
        "amenity": "fuel"
      }
    },
    {
      "type": "way",
      "id": 1443180034,
      "center": {
        "lat": 12.9443785,
        "lon": 77.5294528
      },
      "tags": {
        "amenity": "fuel"
      }
    },
    {
      "type": "way",
      "id": 1443180035,
      "center": {
        "lat": 12.9441243,
        "lon": 77.5295546
      },
      "tags": {
        "amenity": "fuel",
        "brand": "Hindustan Petroleum",
        "brand:wikidata": "Q1619375",
        "brand:wikipedia": "en:Hindustan Petroleum",
        "name": "HP",
        "official_name": "Hindustan Petroleum"
      }
    },
    {
      "type": "way",
      "id": 1449386785,
      "center": {
        "lat": 12.9366071,
        "lon": 77.5302506
      },
      "tags": {
        "leisure": "pitch",
        "sport": "soccer"
      }
    }
  ]
}