{
  "area_name": "Venkat Reddy Nagara",
  "osm_id": 19883398,
  "osm_type": "relation",
  "place_type": "administrative",
  "amenity_count": 25,
  "amenities": [
    {
      "type": "node",
      "id": 1438212038,
      "lat": 12.9450769,
      "lon": 77.5903688,
      "tags": {
        "amenity": "place_of_worship",
        "denomination": "sunni",
        "name": "Masjid e Inayat",
        "name:kn": "ಮಸ್ಜಿದ್ ಎ ಇನಯತ್",
        "religion": "muslim"
      }
    },
    {
      "type": "node",
      "id": 4552198797,
      "lat": 12.9459795,
      "lon": 77.5885235,
      "tags": {
        "addr:city": "bangalore",
        "addr:housenumber": "1",
        "addr:postcode": "560029",
        "addr:street": "Siddapura Road",
        "amenity": "restaurant",
        "capacity": "25",
        "cuisine": "indian,_japanese",
        "delivery": "yes",
        "level": "2",
        "name": "Abc Resto",
        "opening_hours": "10:00-22:00",
        "phone": "+91 80 425655",
        "smoking": "no",
        "source": "website",
        "takeaway": "no",
        "website": "www.abcresto.com"
      }
    },
    {
      "type": "node",
      "id": 4841950721,
      "lat": 12.9453765,
      "lon": 77.59506,
      "tags": {
        "amenity": "cafe",
        "name": "AR Tea Sagar",
        "name:en": "AR Tea Sagar"
      }
    },
    {
      "type": "node",
      "id": 4847824823,
      "lat": 12.9453166,
      "lon": 77.5950506,
      "tags": {
        "amenity": "restaurant",
        "name": "Alfa",
        "name:en": "Alfa"
      }
    },
    {
      "type": "node",
      "id": 4847824825,
      "lat": 12.9451588,
      "lon": 77.5949507,
      "tags": {
        "name": "M Shoe centre",
        "name:en": "Shoe centre",
        "shop": "shoes"
      }
    },
    {
      "type": "node",
      "id": 4847824926,
      "lat": 12.94512,
      "lon": 77.5949263,
      "tags": {
        "name": "Fashion Zone",
        "name:en": "Fashion Zone",
        "shop": "clothes"
      }
    },
    {
      "type": "node",
      "id": 4847828421,
      "lat": 12.945194,
      "lon": 77.5949693,
      "tags": {
        "amenity": "atm",
        "brand": "Axis Bank",
        "brand:wikidata": "Q2003549",
        "name": "Axis Bank",
        "name:kn": "ಆಕ್ಸಿಸ್ ಬ್ಯಾಂಕ್",
        "operator": "Axis Bank",
        "operator:wikidata": "Q2003549"
      }
    },
    {
      "type": "node",
      "id": 4849094830,
      "lat": 12.9479719,
      "lon": 77.5937414,
      "tags": {
        "amenity": "school",
        "name": "Driving school for all types of cars",
        "name:en": "Driving school for all types of cars"
      }
    },
    {
      "type": "node",
      "id": 4849575705,
      "lat": 12.9453512,
      "lon": 77.5950744,
      "tags": {
        "name": "Fashion Gift Fancy",
        "shop": "gift"
      }
    },
    {
      "type": "node",
      "id": 4849575706,
      "lat": 12.945295,
      "lon": 77.5950328,
      "tags": {
        "name": "Alif Tours and Travels",
        "operator": "IRCTC Booking Agent",
        "shop": "travel_agency"
      }
    },
    {
      "type": "node",
      "id": 4849575707,
      "lat": 12.9452299,
      "lon": 77.5949858,
      "tags": {
        "name": "Star and Style",
        "shop": "hairdresser"
      }
    },
    {
      "type": "node",
      "id": 4849575708,
      "lat": 12.9450345,
      "lon": 77.5948487,
      "tags": {
        "name": "Star Footwear",
        "shop": "shoes"
      }
    },
    {
      "type": "node",
      "id": 4849575709,
      "lat": 12.9449796,
      "lon": 77.5948017,
      "tags": {
        "name": "Prince",
        "shop": "paint"
      }
    },
    {
      "type": "node",
      "id": 4849575710,
      "lat": 12.9447452,
      "lon": 77.5946247,
      "tags": {
        "name": "6XK Cycle Mart",
        "shop": "bicycle"
      }
    },
    {
      "type": "node",
      "id": 4849575711,
      "lat": 12.9447229,
      "lon": 77.5945885,
      "tags": {
        "amenity": "school",
        "name": "Govt. Urdu English Medium High School",
        "wheelchair": "no"
      }
    },
    {
      "type": "node",
      "id": 4849575720,
      "lat": 12.9446296,
      "lon": 77.594531,
      "tags": {
        "amenity": "place_of_worship",
        "name": "Masjid-e-ateeq",
        "religion": "muslim",
        "wheelchair": "no"
      }
    },
    {
      "type": "node",
      "id": 4849577721,
      "lat": 12.9446031,
      "lon": 77.594529,
      "tags": {
        "name": "Parmeshwar Textiles",
        "shop": "clothes"
      }
    },
    {
      "type": "node",
      "id": 6349491619,
      "lat": 12.9458038,
      "lon": 77.5884207,
      "tags": {
        "addr:place": "Lalbhag Siddapur",
        "amenity": "school",
        "isced:level": "2",
        "name": "GHPS Lalbhag Siddapur",
        "name:kn": "ಸರ್ಕಾರಿ ಹಿರಿಯ ಪ್ರಾಥಮಿಕ ಶಾಲೆ ಲಾಲ್ಭಾಗ್ ಸಿದ್ದಾಪುರ",
        "operator": "Department of Education",
        "school": "primary"
      }
    },
    {
      "type": "node",
      "id": 10032117240,
      "lat": 12.9477787,
      "lon": 77.592107,
      "tags": {
        "amenity": "restaurant",
        "cuisine": "regional",
        "name": "Cafe Amudham",
        "name:en": "Cafe Amudham",
        "survey:date": "2022-11-13"
      }
    },
    {
      "type": "node",
      "id": 11355730131,
      "lat": 12.9483269,
      "lon": 77.5935933,
      "tags": {
        "amenity": "toilets",
        "check_date": "2023-11-16"
      }
    },
    {
      "type": "node",
      "id": 11371245256,
      "lat": 12.9478186,
      "lon": 77.593784,
      "tags": {
        "check_date": "2023-11-23",
        "shop": "alcohol"
      }
    },
    {
      "type": "way",
      "id": 348608160,
      "center": {
        "lat": 12.9474175,
        "lon": 77.59156
      },
      "tags": {
        "amenity": "place_of_worship",
        "building": "mosque",
        "name:kn": "ಮಸೀದಿ",
        "religion": "muslim"
      }
    },
    {
      "type": "way",
      "id": 1080796145,
      "center": {
        "lat": 12.9460006,
        "lon": 77.5881556
      },
      "tags": {
        "leisure": "garden"
      }
    },
    {
      "type": "way",
      "id": 1222892857,
      "center": {
        "lat": 12.9479271,
        "lon": 77.5924806
      },
      "tags": {
        "access": "customers",
        "amenity": "parking"
      }
    },
    {
      "type": "way",
      "id": 1257327546,
      "center": {
        "lat": 12.9478274,
        "lon": 77.5924806
      },
      "tags": {
        "alt_name": "Truelife Maha Bodhi Hospital",
        "amenity": "hospital",
        "name": "Brains Super Speciality Hospital",
        "official_name": "Maha Bodhi Mallige Hospital",
        "old_name": "Mallige Hospital",
        "old_name:kn": "ಮಲ್ಲಿಗೆ ಆಸ್ಪತ್ರೆ"
      }
    }
  ]
}