{
  "area_name": "Venugopala Nagara",
  "osm_id": 12820381011,
  "osm_type": "node",
  "place_type": "neighbourhood",
  "amenity_count": 29,
  "amenities": [
    {
      "type": "node",
      "id": 8329662306,
      "lat": 13.0448529,
      "lon": 77.5012583,
      "tags": {
        "amenity": "atm",
        "cash_in": "no",
        "currency:INR": "yes",
        "operator": "ICICI Bank"
      }
    },
    {
      "type": "node",
      "id": 12151497861,
      "lat": 13.0446326,
      "lon": 77.5008126,
      "tags": {
        "access": "private",
        "amenity": "parking_entrance",
        "parking": "underground"
      }
    },
    {
      "type": "node",
      "id": 12743805130,
      "lat": 13.0463318,
      "lon": 77.4990643,
      "tags": {
        "access": "yes",
        "amenity": "drinking_water",
        "operator": "BBMP"
      }
    },
    {
      "type": "node",
      "id": 12745127574,
      "lat": 13.0462611,
      "lon": 77.4989131,
      "tags": {
        "shop": "kiosk"
      }
    },
    {
      "type": "way",
      "id": 338086179,
      "center": {
        "lat": 13.0344882,
        "lon": 77.5014235
      },
      "tags": {
        "alt_name": "Nandi Scanning Center",
        "amenity": "clinic",
        "building": "clinic",
        "name": "Nandi Clinic"
      }
    },
    {
      "type": "way",
      "id": 346167952,
      "center": {
        "lat": 13.0365215,
        "lon": 77.4987163
      },
      "tags": {
        "amenity": "library",
        "building": "yes"
      }
    },
    {
      "type": "way",
      "id": 350768115,
      "center": {
        "lat": 13.0444199,
        "lon": 77.4992379
      },
      "tags": {
        "leisure": "pitch",
        "name": "Volleyball",
        "name:kn": "ವಾಲಿಬಾಲ್ ಅಂಗಣ",
        "sport": "volleyball"
      }
    },
    {
      "type": "way",
      "id": 350768156,
      "center": {
        "lat": 13.0444245,
        "lon": 77.4994158
      },
      "tags": {
        "leisure": "pitch",
        "name": "Basketball Court",
        "name:kn": "ಬಾಸ್ಕೆಟ್ ಬಾಲ್ ಅಂಕಣ",
        "sport": "basketball",
        "surface": "concrete"
      }
    },
    {
      "type": "way",
      "id": 398905976,
      "center": {
        "lat": 13.045139,
        "lon": 77.5004252
      },
      "tags": {
        "access": "private",
        "leisure": "swimming_pool",
        "name": "Swimming Pool",
        "name:kn": "ಈಜುಕೊಳ"
      }
    },
    {
      "type": "way",
      "id": 398905977,
      "center": {
        "lat": 13.044459,
        "lon": 77.4990546
      },
      "tags": {
        "leisure": "pitch",
        "name": "Cricket Pitch",
        "name:kn": "ಕ್ರಿಕೆಟ್ ಆಟದ ಮೈದಾನ",
        "sport": "cricket",
        "surface": "ground"
      }
    },
    {
      "type": "way",
      "id": 398905978,
      "center": {
        "lat": 13.0443989,
        "lon": 77.4995507
      },
      "tags": {
        "leisure": "playground",
        "name": "Children's Play Area"
      }
    },
    {
      "type": "way",
      "id": 399196845,
      "center": {
        "lat": 13.0451849,
        "lon": 77.5007951
      },
      "tags": {
        "leisure": "playground",
        "name": "Children's Play Area"
      }
    },
    {
      "type": "way",
      "id": 896095541,
      "center": {
        "lat": 13.0459569,
        "lon": 77.5004955
      },
      "tags": {
        "access": "private",
        "amenity": "parking"
      }
    },
    {
      "type": "way",
      "id": 1087820271,
      "center": {
        "lat": 13.0347866,
        "lon": 77.501767
      },
      "tags": {
        "leisure": "park"
      }
    },
    {
      "type": "way",
      "id": 1087820273,
      "center": {
        "lat": 13.0382594,
        "lon": 77.501033
      },
      "tags": {
        "leisure": "park"
      }
    },
    {
      "type": "way",
      "id": 1087826087,
      "center": {
        "lat": 13.0476421,
        "lon": 77.4897225
      },
      "tags": {
        "leisure": "park"
      }
    },
    {
      "type": "way",
      "id": 1087826092,
      "center": {
        "lat": 13.0393602,
        "lon": 77.5024899
      },
      "tags": {
        "leisure": "park"
      }
    },
    {
      "type": "way",
      "id": 1087826093,
      "center": {
        "lat": 13.0379464,
        "lon": 77.5022584
      },
      "tags": {
        "leisure": "park"
      }
    },
    {
      "type": "way",
      "id": 1087826094,
      "center": {
        "lat": 13.0362656,
        "lon": 77.5019976
      },
      "tags": {
        "leisure": "park"
      }
    },
    {
      "type": "way",
      "id": 1202361065,
      "center": {
        "lat": 13.0324851,
        "lon": 77.4983257
      },
      "tags": {
        "leisure": "park"
      }
    },
    {
      "type": "way",
      "id": 1202361066,
      "center": {
        "lat": 13.0322107,
        "lon": 77.4982077
      },
      "tags": {
        "amenity": "place_of_worship",
        "landuse": "religious",
        "religion": "hindu"
      }
    },
    {
      "type": "way",
      "id": 1281336332,
      "center": {
        "lat": 13.0402025,
        "lon": 77.5030746
      },
      "tags": {
        "leisure": "park"
      }
    },
    {
      "type": "way",
      "id": 1292408466,
      "center": {
        "lat": 13.0333807,
        "lon": 77.500163
      },
      "tags": {
        "leisure": "park"
      }
    },
    {
      "type": "way",
      "id": 1326487962,
      "center": {
        "lat": 13.0466181,
        "lon": 77.4895888
      },
      "tags": {
        "leisure": "pitch",
        "sport": "tennis"
      }
    },
    {
      "type": "way",
      "id": 1354340390,
      "center": {
        "lat": 13.0454115,
        "lon": 77.4997713
      },
      "tags": {
        "leisure": "park"
      }
    },
    {
      "type": "way",
      "id": 1376522585,
      "center": {
        "lat": 13.0462742,
        "lon": 77.4906022
      },
      "tags": {
        "amenity": "school"
      }
    },
    {
      "type": "way",
      "id": 1383280146,
      "center": {
        "lat": 13.0377926,
        "lon": 77.5029461
      },
      "tags": {
        "leisure": "park"
      }
    },
    {
      "type": "way",
      "id": 1383280161,
      "center": {
        "lat": 13.0399847,
        "lon": 77.4972233
      },
      "tags": {
        "amenity": "school",
        "name": "Sri Chaitanya Techno School"
      }
    },
    {
      "type": "way",
      "id": 1383280318,
      "center": {
        "lat": 13.0367653,
        "lon": 77.498713
      },
      "tags": {
        "amenity": "place_of_worship",
        "landuse": "religious",
        "religion": "hindu"
      }
    }
  ]
}