{
  "area_name": "Vigneshwara Nagara",
  "osm_id": 10272690519,
  "osm_type": "node",
  "place_type": "neighbourhood",
  "amenity_count": 24,
  "amenities": [
    {
      "type": "node",
      "id": 1794150253,
      "lat": 12.9945246,
      "lon": 77.5043269,
      "tags": {
        "amenity": "place_of_worship",
        "name": "Sollapuradamma Temple",
        "name:kn": "ಸೊಲ್ಲಾಪುರದಮ್ಮ ದೇವಸ್ಥಾನ",
        "religion": "hindu"
      }
    },
    {
      "type": "node",
      "id": 1794163355,
      "lat": 12.9986487,
      "lon": 77.5036725,
      "tags": {
        "amenity": "cinema",
        "name": "Mohan Cinema"
      }
    },
    {
      "type": "node",
      "id": 1794165693,
      "lat": 13.0027466,
      "lon": 77.5041821,
      "tags": {
        "amenity": "place_of_worship",
        "name": "Hanuman Temple",
        "name:kn": "ಹನುಮಂತ ದೇವಸ್ಥಾನ",
        "religion": "hindu"
      }
    },
    {
      "type": "node",
      "id": 6938777962,
      "lat": 12.9957177,
      "lon": 77.5031644,
      "tags": {
        "addr:district": "Bengaluru Rural",
        "addr:full": "# 1/3, Heggenanalli Main Road, Opposite Ganesh Temple, Near Peenya 2nd Stage, , Last Bus Stop",
        "addr:postcode": "560091",
        "addr:state": "Karnataka",
        "amenity": "hospital",
        "name": "Panchamukhi Specialityu Hospital",
        "source": "OpenGovernmentData"
      }
    },
    {
      "type": "node",
      "id": 6938779562,
      "lat": 12.9881868,
      "lon": 77.5087273,
      "tags": {
        "addr:district": "Bengaluru Urban",
        "addr:full": "No. 127/1, Sri Gandhanda Kaval, Sunkadakatte, Viswaneedam Post, Magadi Main Road",
        "addr:postcode": "560054",
        "addr:state": "Karnataka",
        "amenity": "hospital",
        "name": "Sri Lakshmi Multi Speciality Hospital",
        "source": "OpenGovernmentData"
      }
    },
    {
      "type": "node",
      "id": 6944586994,
      "lat": 12.9916367,
      "lon": 77.5044787,
      "tags": {
        "addr:district": "Bengaluru Rural",
        "addr:full": "H V Rangappa Building ,Gollarahatti, Hosahalli Cross, Magadi Main Road",
        "addr:postcode": "560091",
        "addr:state": "Karnataka",
        "amenity": "clinic",
        "name": "Anand Nursing Home and Lab",
        "source": "OpenGovernmentData"
      }
    },
    {
      "type": "node",
      "id": 6946978667,
      "lat": 12.988865,
      "lon": 77.5078006,
      "tags": {
        "addr:district": "Bengaluru Rural",
        "addr:full": "Magadi Main Road, Sunkadakatte",
        "addr:postcode": "560091",
        "addr:state": "Karnataka",
        "amenity": "hospital",
        "name": "Ashraya Medinova Pvt Ltd",
        "source": "OpenGovernmentData"
      }
    },
    {
      "type": "node",
      "id": 6947226705,
      "lat": 13.0004769,
      "lon": 77.5054027,
      "tags": {
        "addr:district": "Bengaluru Rural",
        "addr:full": "Ktg Educational Campus, Sy No. 93, Srigandadakaval, Sunkadakatte Road, Vishwaneedam Post",
        "addr:postcode": "560091",
        "addr:state": "Karnataka",
        "amenity": "hospital",
        "name": "K.T.G. Hospital",
        "source": "OpenGovernmentData"
      }
    },
    {
      "type": "node",
      "id": 8187962396,
      "lat": 13.0009029,
      "lon": 77.5046255,
      "tags": {
        "addr:full": "224, Matrushri kalyana mantap, Hegganahalli Main Road, Gajanana Nagar, 1st Stage, Srigandha Nagar, Sunkadakatte, Bengaluru, Karnataka",
        "addr:state": "Karnataka",
        "amenity": "bank",
        "brand": "Canara Bank",
        "brand:pa": "ਕੇਨਰਾ ਬੈਂਕ",
        "brand:ur": "کینرا بینک",
        "brand:wikidata": "Q2003777",
        "brand:wikipedia": "en:Canara Bank",
        "brand:wikipedia:pa": "ਕੇਨਰਾ ਬੈਂਕ",
        "name": "Canara Bank",
        "name:kn": "ಕೆನರಾ ಬ್ಯಾಂಕ್",
        "name:pa": "ਕੇਨਰਾ ਬੈਂਕ",
        "name:ur": "کینرا بینک"
      }
    },
    {
      "type": "way",
      "id": 143731427,
      "center": {
        "lat": 12.9909868,
        "lon": 77.513684
      },
      "tags": {
        "amenity": "college",
        "name": "National Institute of Unani Medicine"
      }
    },
    {
      "type": "way",
      "id": 1122444429,
      "center": {
        "lat": 12.9898255,
        "lon": 77.5005412
      },
      "tags": {
        "amenity": "cinema",
        "name": "Miraj Cinemas"
      }
    },
    {
      "type": "way",
      "id": 1353417433,
      "center": {
        "lat": 12.9885207,
        "lon": 77.5086958
      },
      "tags": {
        "amenity": "fuel"
      }
    },
    {
      "type": "way",
      "id": 1353417439,
      "center": {
        "lat": 12.9884579,
        "lon": 77.5099068
      },
      "tags": {
        "amenity": "fuel"
      }
    },
    {
      "type": "way",
      "id": 1353420077,
      "center": {
        "lat": 12.9929933,
        "lon": 77.5090794
      },
      "tags": {
        "leisure": "park"
      }
    },
    {
      "type": "way",
      "id": 1353420078,
      "center": {
        "lat": 12.9909598,
        "lon": 77.504771
      },
      "tags": {
        "leisure": "park"
      }
    },
    {
      "type": "way",
      "id": 1353420079,
      "center": {
        "lat": 12.9924455,
        "lon": 77.5067163
      },
      "tags": {
        "leisure": "park"
      }
    },
    {
      "type": "way",
      "id": 1353420080,
      "center": {
        "lat": 12.991143,
        "lon": 77.5025955
      },
      "tags": {
        "leisure": "park"
      }
    },
    {
      "type": "way",
      "id": 1353420081,
      "center": {
        "lat": 12.9903828,
        "lon": 77.5003622
      },
      "tags": {
        "leisure": "park"
      }
    },
    {
      "type": "way",
      "id": 1390079364,
      "center": {
        "lat": 12.9864958,
        "lon": 77.5092195
      },
      "tags": {
        "amenity": "college",
        "name": "RVS College of Nursing Sciences"
      }
    },
    {
      "type": "way",
      "id": 1393102041,
      "center": {
        "lat": 12.9889597,
        "lon": 77.4972585
      },
      "tags": {
        "amenity": "fuel"
      }
    },
    {
      "type": "way",
      "id": 1393102042,
      "center": {
        "lat": 12.9892009,
        "lon": 77.497977
      },
      "tags": {
        "amenity": "college"
      }
    },
    {
      "type": "way",
      "id": 1393102043,
      "center": {
        "lat": 12.9918313,
        "lon": 77.4989305
      },
      "tags": {
        "amenity": "college"
      }
    },
    {
      "type": "way",
      "id": 1393102047,
      "center": {
        "lat": 12.9891179,
        "lon": 77.5046222
      },
      "tags": {
        "leisure": "pitch",
        "sport": "tennis"
      }
    },
    {
      "type": "way",
      "id": 1393102061,
      "center": {
        "lat": 12.9899715,
        "lon": 77.5067244
      },
      "tags": {
        "amenity": "college",
        "landuse": "education",
        "name": "GT College"
      }
    }
  ]
}