{
  "area_name": "Vijaya Bank Layout",
  "osm_id": 9851225180,
  "osm_type": "node",
  "place_type": "neighbourhood",
  "amenity_count": 142,
  "amenities": [
    {
      "type": "node",
      "id": 247964328,
      "lat": 12.8980535,
      "lon": 77.6008383,
      "tags": {
        "amenity": "post_office",
        "name": "IIMB post office - Bilekahalli",
        "name:kn": "ಐಐಎಂಬಿ ಅಂಚೆ ಕಛೇರಿ - ಬಿಲೆಕೆಹಳ್ಳಿ",
        "postal_code": "560076"
      }
    },
    {
      "type": "node",
      "id": 247964964,
      "lat": 12.8952509,
      "lon": 77.6019087,
      "tags": {
        "amenity": "bank",
        "atm": "yes",
        "branch": "IIMB branch",
        "brand": "State Bank of India",
        "brand:wikidata": "Q1340361",
        "brand:wikipedia": "en:State Bank of India",
        "name": "State Bank of India",
        "name:kn": "ಭಾರತೀಯ ಸ್ಟೇಟ್ ಬ್ಯಾಂಕ್",
        "short_name": "SBI"
      }
    },
    {
      "type": "node",
      "id": 247973288,
      "lat": 12.8984603,
      "lon": 77.6010688,
      "tags": {
        "addr:street": "Bannerghatta Road",
        "amenity": "restaurant",
        "name": "Snack Corner",
        "name:kn": "ಸ್ನ್ಯಾಕ್ ಕಾರ್ನರ್"
      }
    },
    {
      "type": "node",
      "id": 247974102,
      "lat": 12.894213,
      "lon": 77.6025681,
      "tags": {
        "amenity": "fast_food",
        "created_by": "JOSM",
        "name": "Athicas Canteen"
      }
    },
    {
      "type": "node",
      "id": 247974238,
      "lat": 12.8944356,
      "lon": 77.6024475,
      "tags": {
        "amenity": "cafe",
        "created_by": "JOSM",
        "name": "Chai-Unchai"
      }
    },
    {
      "type": "node",
      "id": 247976436,
      "lat": 12.8973119,
      "lon": 77.6015666,
      "tags": {
        "amenity": "restaurant"
      }
    },
    {
      "type": "node",
      "id": 1530452299,
      "lat": 12.8948991,
      "lon": 77.6093817,
      "tags": {
        "name": "Smart Supermarket",
        "shop": "supermarket"
      }
    },
    {
      "type": "node",
      "id": 1568844529,
      "lat": 12.8926814,
      "lon": 77.6104995,
      "tags": {
        "addr:city": "bangalore",
        "addr:housenumber": "999",
        "addr:postcode": "560076",
        "addr:street": "5th Cross Road",
        "name": "Sangeetha Mobiles",
        "opening_hours": "Mo-Su 10:00-22:00",
        "phone": "07019450931",
        "shop": "mobile_phone"
      }
    },
    {
      "type": "node",
      "id": 1568845291,
      "lat": 12.8946896,
      "lon": 77.6092646,
      "tags": {
        "name": "Daily fresh supermarket",
        "shop": "supermarket"
      }
    },
    {
      "type": "node",
      "id": 1727330720,
      "lat": 12.8941563,
      "lon": 77.5987321,
      "tags": {
        "name": "Nandhu motors",
        "shop": "car_repair"
      }
    },
    {
      "type": "node",
      "id": 1727330728,
      "lat": 12.8914338,
      "lon": 77.6080737,
      "tags": {
        "amenity": "cafe",
        "brand": "Cafe Coffee Day",
        "brand:wikidata": "Q5017235",
        "cuisine": "coffee_shop",
        "name": "Cafe Coffee Day",
        "name:kn": "ಕಫೆ ಕಾಫಿ ಡೇ",
        "takeaway": "yes"
      }
    },
    {
      "type": "node",
      "id": 1896192625,
      "lat": 12.892272,
      "lon": 77.6104915,
      "tags": {
        "amenity": "kindergarten",
        "name": "Euro Kids"
      }
    },
    {
      "type": "node",
      "id": 1896211333,
      "lat": 12.8926145,
      "lon": 77.6107222,
      "tags": {
        "amenity": "kindergarten",
        "name": "Little Millenium"
      }
    },
    {
      "type": "node",
      "id": 1896211359,
      "lat": 12.892659,
      "lon": 77.6106015,
      "tags": {
        "amenity": "pharmacy",
        "dispensing": "yes",
        "healthcare": "pharmacy",
        "name": "Religare Wellness"
      }
    },
    {
      "type": "node",
      "id": 1896211370,
      "lat": 12.8923796,
      "lon": 77.6112261,
      "tags": {
        "amenity": "bank",
        "atm": "yes",
        "name": "Vijaya Bank",
        "name:kn": "ವಿಜಯ ಬ್ಯಾಂಕು"
      }
    },
    {
      "type": "node",
      "id": 1896211378,
      "lat": 12.8926407,
      "lon": 77.6106417,
      "tags": {
        "amenity": "clinic",
        "emergency": "no",
        "healthcare": "clinic",
        "healthcare:speciality": "dentist",
        "name": "Shraddha Dental Care"
      }
    },
    {
      "type": "node",
      "id": 1908416459,
      "lat": 12.8915522,
      "lon": 77.6045379,
      "tags": {
        "amenity": "bank",
        "atm": "yes",
        "brand": "HDFC Bank",
        "brand:wikidata": "Q631047",
        "brand:wikipedia": "en:HDFC Bank",
        "name": "HDFC Bank",
        "name:kn": "ಎಚ್ ಡಿ ಎಫ್ ಸಿ",
        "short_name": "HDFC",
        "website": "https://www.hdfcbank.com"
      }
    },
    {
      "type": "node",
      "id": 2297421659,
      "lat": 12.8932015,
      "lon": 77.6114181,
      "tags": {
        "amenity": "clinic",
        "emergency": "yes",
        "healthcare": "clinic",
        "name": "Narayana Hrudayalaya Dental Clinic",
        "name:kn": "ನಾರಾಯಣ ಹೃದಯಾಲಯ ದಂತ ಆಸ್ಪತ್ರೆ"
      }
    },
    {
      "type": "node",
      "id": 2510065617,
      "lat": 12.8979208,
      "lon": 77.6108339,
      "tags": {
        "amenity": "place_of_worship",
        "religion": "hindu"
      }
    },
    {
      "type": "node",
      "id": 2510065628,
      "lat": 12.8978553,
      "lon": 77.6147901,
      "tags": {
        "amenity": "place_of_worship",
        "religion": "hindu"
      }
    },
    {
      "type": "node",
      "id": 2510071348,
      "lat": 12.892932,
      "lon": 77.6117539,
      "tags": {
        "amenity": "atm",
        "brand": "HDFC Bank",
        "brand:wikidata": "Q631047",
        "name": "HDFC Bank",
        "operator": "HDFC Bank",
        "operator:wikidata": "Q631047",
        "short_name": "HDFC"
      }
    },
    {
      "type": "node",
      "id": 2510077040,
      "lat": 12.8890292,
      "lon": 77.6043291,
      "tags": {
        "leisure": "swimming_pool",
        "sport": "swimming"
      }
    },
    {
      "type": "node",
      "id": 2720476857,
      "lat": 12.8948505,
      "lon": 77.6109105,
      "tags": {
        "amenity": "hospital",
        "emergency": "no",
        "healthcare": "hospital",
        "name": "Vatsalya Chidren's Clinic"
      }
    },
    {
      "type": "node",
      "id": 2720476861,
      "lat": 12.8950571,
      "lon": 77.6109237,
      "tags": {
        "amenity": "pharmacy",
        "brand": "MedPlus",
        "brand:wikidata": "Q65684234",
        "dispensing": "yes",
        "healthcare": "pharmacy",
        "name": "MedPlus",
        "name:kn": "ಮೆಡ್ ಪ್ಲಸ್"
      }
    },
    {
      "type": "node",
      "id": 2891382844,
      "lat": 12.8927701,
      "lon": 77.6119949,
      "tags": {
        "name": "Oh My Baby",
        "shop": "toys"
      }
    },
    {
      "type": "node",
      "id": 2892761118,
      "lat": 12.8947594,
      "lon": 77.6150069,
      "tags": {
        "addr:place": "Bommanahalli",
        "amenity": "school",
        "isced:level": "3",
        "name": "New Arvind Memorial School",
        "name:kn": "ನ್ಯೂ ಅರವಿಂದ ಸ್ಮಾರಕ ಪ್ರೌಢಶಾಲೆ,",
        "operator": "Private Un-Aided",
        "school": "Higher Secondary"
      }
    },
    {
      "type": "node",
      "id": 2920093968,
      "lat": 12.8924249,
      "lon": 77.5985953,
      "tags": {
        "amenity": "fast_food",
        "cuisine": "indian",
        "name": "Ammis Biriyani",
        "name:kn": "ಅಮ್ಮಿ ಬಿರಿಯಾನಿ"
      }
    },
    {
      "type": "node",
      "id": 2939003347,
      "lat": 12.8925844,
      "lon": 77.6116519,
      "tags": {
        "amenity": "bank",
        "atm": "yes",
        "brand": "Andhra Bank",
        "brand:wikidata": "Q2003476",
        "brand:wikipedia": "en:Andhra Bank",
        "name": "Andhra Bank",
        "name:en": "Andhra Bank",
        "name:kn": "ಆಂಧ್ರ ಬ್ಯಾಂಕ್",
        "website": "https://www.andhrabank.in"
      }
    },
    {
      "type": "node",
      "id": 2949121946,
      "lat": 12.8957721,
      "lon": 77.5994431,
      "tags": {
        "amenity": "atm",
        "brand": "Axis Bank",
        "brand:wikidata": "Q2003549",
        "name": "Axis Bank",
        "name:kn": "ಆಕ್ಸಿಸ್ ಬ್ಯಾಂಕ್",
        "operator": "Axis Bank",
        "operator:wikidata": "Q2003549"
      }
    },
    {
      "type": "node",
      "id": 2962764283,
      "lat": 12.8923303,
      "lon": 77.5985791,
      "tags": {
        "brand": "Titan",
        "name": "World of Titan",
        "note": "Shop selling watches",
        "shop": "watches",
        "source": "survey"
      }
    },
    {
      "type": "node",
      "id": 3605539065,
      "lat": 12.8876178,
      "lon": 77.6030677,
      "tags": {
        "addr:postcode": "560076",
        "addr:street": "Arekere Main Road",
        "amenity": "place_of_worship",
        "name": "Anjaneya Temple",
        "name:kn": "ಆಂಜನೇಯ ದೇವಸ್ಥಾನ",
        "religion": "hindu"
      }
    },
    {
      "type": "node",
      "id": 3607116326,
      "lat": 12.8866579,
      "lon": 77.605946,
      "tags": {
        "amenity": "pharmacy",
        "brand": "Apollo Pharmacy",
        "brand:wikidata": "Q62562612",
        "healthcare": "pharmacy",
        "name": "Apollo Pharmacy",
        "name:kn": "ಅಪೋಲೋ ಫಾರ್ಮಸಿ"
      }
    },
    {
      "type": "node",
      "id": 3607116665,
      "lat": 12.8870605,
      "lon": 77.603414,
      "tags": {
        "amenity": "hospital",
        "healthcare": "hospital",
        "name": "Government Hospital",
        "name:kn": "ಸರ್ಕಾರಿ ಆಸ್ಪತ್ರೆ"
      }
    },
    {
      "type": "node",
      "id": 3607404261,
      "lat": 12.8893134,
      "lon": 77.602422,
      "tags": {
        "amenity": "hospital",
        "name": "Rajashree Granthim hospital"
      }
    },
    {
      "type": "node",
      "id": 3607412050,
      "lat": 12.8865458,
      "lon": 77.6063814,
      "tags": {
        "name": "Family Food House",
        "shop": "supermarket"
      }
    },
    {
      "type": "node",
      "id": 3702257225,
      "lat": 12.8900223,
      "lon": 77.6004461,
      "tags": {
        "addr:city": "Bangalore",
        "addr:street": "Arekere Main Road",
        "amenity": "place_of_worship",
        "name": "Jamia Masjid",
        "name:kn": "ಜಮ ಮಸೀದಿ",
        "religion": "muslim"
      }
    },
    {
      "type": "node",
      "id": 4322649489,
      "lat": 12.896924,
      "lon": 77.5997855,
      "tags": {
        "addr:street": "Bannerghatta Road",
        "name": "Xiaomi MI Service Center",
        "shop": "mobile_phone"
      }
    },
    {
      "type": "node",
      "id": 4487963521,
      "lat": 12.8974942,
      "lon": 77.5998505,
      "tags": {
        "addr:city": "Bangalore",
        "addr:housenumber": "448",
        "addr:postcode": "560076",
        "addr:street": "Bannerghatta Road",
        "brand": "Vishal Mega Mart",
        "brand:wikidata": "Q126895037",
        "name": "Vishal Mega Mart",
        "payment:credit_cards": "yes",
        "payment:debit_cards": "yes",
        "shop": "supermarket",
        "wheelchair": "no"
      }
    },
    {
      "type": "node",
      "id": 4488075722,
      "lat": 12.8856117,
      "lon": 77.6036643,
      "tags": {
        "addr:city": "Bangalore",
        "addr:postcode": "560076",
        "addr:street": "No. 780, 16th Main, BTM Layout, Udipi Garden Road",
        "leisure": "sports_centre",
        "name": "Nike Store",
        "name:kn": "ನೈಕ್",
        "phone": "1800 806 6453"
      }
    },
    {
      "type": "node",
      "id": 4489678344,
      "lat": 12.8925021,
      "lon": 77.6116554,
      "tags": {
        "addr:city": "bangalore",
        "addr:housenumber": "929",
        "addr:postcode": "560076",
        "addr:street": "Devarachikkanahalli Road",
        "name": "Span Retail",
        "phone": "(91)-9535807361",
        "shop": "supermarket"
      }
    },
    {
      "type": "node",
      "id": 4489716789,
      "lat": 12.8949631,
      "lon": 77.6090105,
      "tags": {
        "addr:city": "bangalore",
        "addr:housenumber": "14",
        "addr:postcode": "560076",
        "addr:street": "Devarachikkanahalli Road",
        "name": "Ever Fine Super Market",
        "phone": "(91)-80-41475959",
        "shop": "supermarket"
      }
    },
    {
      "type": "node",
      "id": 4489724919,
      "lat": 12.8964974,
      "lon": 77.6109057,
      "tags": {
        "addr:city": "bangalore",
        "addr:housenumber": "12/14",
        "addr:postcode": "560076",
        "addr:street": "Kodichikkanahalli Main Road",
        "name": "Day To Day Super Market",
        "phone": "(91)-8762404850",
        "shop": "supermarket"
      }
    },
    {
      "type": "node",
      "id": 4489777069,
      "lat": 12.8942703,
      "lon": 77.6094497,
      "tags": {
        "addr:city": "bangalore",
        "addr:housenumber": "441",
        "addr:postcode": "560076",
        "addr:street": "Devarachikkanahalli Road",
        "name": "Ruffles Spa",
        "opening_hours": "09:30-21:30",
        "phone": "089717 99015",
        "shop": "massage",
        "website": "rufflesspasalon.weebly.com"
      }
    },
    {
      "type": "node",
      "id": 4558333190,
      "lat": 12.8956232,
      "lon": 77.6068313,
      "tags": {
        "amenity": "place_of_worship",
        "name": "ಕಾವೇರಮ್ಮ ದೇವಾಲಯ",
        "name:en": "Kaveramma Devalaya",
        "name:kn": "ಕಾವೇರಮ್ಮ ದೇವಾಲಯ"
      }
    },
    {
      "type": "node",
      "id": 4794968170,
      "lat": 12.8979762,
      "lon": 77.6064023,
      "tags": {
        "amenity": "place_of_worship",
        "name": "Shaneeshwara Temple",
        "name:kn": "ಶನೀಶ್ವರ ದೇವಸ್ಥಾನ",
        "religion": "hindu"
      }
    },
    {
      "type": "node",
      "id": 4794981618,
      "lat": 12.8979474,
      "lon": 77.6079394,
      "tags": {
        "amenity": "ice_cream",
        "name": "FAB ice cream"
      }
    },
    {
      "type": "node",
      "id": 4794989731,
      "lat": 12.8998618,
      "lon": 77.6085502,
      "tags": {
        "amenity": "place_of_worship",
        "name": "Someshwara",
        "name:kn": "ಸೋಮೇಶ್ವರ ದೇವಸ್ಥಾನ",
        "religion": "hindu"
      }
    },
    {
      "type": "node",
      "id": 4794991961,
      "lat": 12.8983322,
      "lon": 77.6079663,
      "tags": {
        "name": "Poorna enterprises",
        "organic": "only",
        "shop": "supermarket"
      }
    },
    {
      "type": "node",
      "id": 4799176113,
      "lat": 12.893068,
      "lon": 77.5987074,
      "tags": {
        "addr:city": "Bangalore",
        "addr:postcode": "560076",
        "addr:street": "Bannerghatta Road",
        "alt_name": "A2B",
        "amenity": "restaurant",
        "brand": "Adyar Ananda Bhavan",
        "brand:wikidata": "Q15178238",
        "cuisine": "regional",
        "diet:vegetarian": "only",
        "email": "info@aabsweets.com",
        "indoor_seating": "yes",
        "name": "Adyar Ananda Bhavan",
        "name:kn": "ಆದ್ಯಾರ್ ಆನಂದ ಭವನ",
        "operator": "Adyar Ananda Bhavan",
        "outdoor_seating": "no",
        "phone": "+91 80 4148 5899",
        "shop": "confectionery",
        "smoking": "no",
        "website": "https://aabsweets.com"
      }
    },
    {
      "type": "node",
      "id": 5017576821,
      "lat": 12.899229,
      "lon": 77.6026481,
      "tags": {
        "amenity": "fast_food",
        "cuisine": "kerala",
        "name": "Elite Mess",
        "name:en": "Elite Mess"
      }
    },
    {
      "type": "node",
      "id": 5402307943,
      "lat": 12.8931572,
      "lon": 77.5987475,
      "tags": {
        "amenity": "restaurant",
        "name": "Fattoush"
      }
    },
    {
      "type": "node",
      "id": 5402307944,
      "lat": 12.8967748,
      "lon": 77.5997314,
      "tags": {
        "air_conditioning": "yes",
        "amenity": "fast_food",
        "brand": "Subway",
        "brand:pa": "ਸਬਵੇਅ",
        "brand:ur": "سب وے",
        "brand:wikidata": "Q244457",
        "brand:wikipedia": "en:Subway (restaurant)",
        "cuisine": "sandwich",
        "drive_through": "no",
        "name": "Subway",
        "name:pa": "ਸਬਵੇਅ",
        "name:ur": "سب وے",
        "outdoor_seating": "no",
        "takeaway": "yes"
      }
    },
    {
      "type": "node",
      "id": 5595713221,
      "lat": 12.893822,
      "lon": 77.6008862,
      "tags": {
        "amenity": "theatre",
        "name": "IIM Auditorium"
      }
    },
    {
      "type": "node",
      "id": 5595762821,
      "lat": 12.8934924,
      "lon": 77.6020899,
      "tags": {
        "amenity": "restaurant",
        "name": "Canteen"
      }
    },
    {
      "type": "node",
      "id": 5995077987,
      "lat": 12.8946129,
      "lon": 77.6021706,
      "tags": {
        "amenity": "atm",
        "branch": "IIMB campus",
        "brand": "State Bank of India",
        "brand:wikidata": "Q1340361",
        "name": "State Bank of India",
        "operator": "State Bank of India",
        "operator:wikidata": "Q1340361",
        "short_name": "SBI"
      }
    },
    {
      "type": "node",
      "id": 5995079072,
      "lat": 12.8939257,
      "lon": 77.6011614,
      "tags": {
        "addr:city": "Bengaluru",
        "addr:housenumber": "IIMB",
        "addr:postcode": "560076",
        "amenity": "cafe",
        "cuisine": "coffee_shop;tea_shop",
        "name": "Prabhakar's"
      }
    },
    {
      "type": "node",
      "id": 6347270755,
      "lat": 12.8992326,
      "lon": 77.6033285,
      "tags": {
        "addr:place": "Bilekalli",
        "amenity": "school",
        "isced:level": "2",
        "name": "Gnanaprakasham KHPS Bilekalli",
        "name:kn": "ಜ್ಞಾನಪ್ರಕಾಶಂ ಕನ್ನಡ ಹಿರಿಯ ಪ್ರಾಥಮಿಕ ಶಾಲೆ ಬಿಳೇಕಳ್ಳಿ",
        "operator": "Department of Education",
        "school": "primary"
      }
    },
    {
      "type": "node",
      "id": 6347274963,
      "lat": 12.8998165,
      "lon": 77.6083074,
      "tags": {
        "addr:place": "Bilekalli",
        "amenity": "school",
        "isced:level": "2",
        "name": "GHPS Bilekalli",
        "name:kn": "ಸರ್ಕಾರಿ ಹಿರಿಯ ಪ್ರಾಥಮಿಕ ಶಾಲೆ ಬಿಳೇಕಳ್ಳಿ",
        "operator": "Department of Education",
        "school": "primary"
      }
    },
    {
      "type": "node",
      "id": 6348775331,
      "lat": 12.8887812,
      "lon": 77.6158231,
      "tags": {
        "addr:place": "Devarachikkana Halli",
        "amenity": "school",
        "isced:level": "2",
        "name": "GHPS Devarachikkana Halli",
        "name:kn": "ಸರ್ಕಾರಿ ಹಿರಿಯ ಪ್ರಾಥಮಿಕ ಶಾಲೆ ದೇವರಚಿಕ್ಕನಹಳ್ಳಿ",
        "operator": "Department of Education",
        "school": "primary"
      }
    },
    {
      "type": "node",
      "id": 6351596280,
      "lat": 12.8957489,
      "lon": 77.599975,
      "tags": {
        "amenity": "cafe",
        "brand": "Cafe Coffee Day",
        "brand:wikidata": "Q5017235",
        "brand:wikipedia": "en:Café Coffee Day",
        "cuisine": "coffee_shop",
        "name": "Cafe Coffee Day",
        "name:kn": "ಕಫೆ ಕಾಫಿ ಡೇ",
        "takeaway": "yes"
      }
    },
    {
      "type": "node",
      "id": 6400494675,
      "lat": 12.8888039,
      "lon": 77.6057027,
      "tags": {
        "addr:place": "Arakere",
        "amenity": "school",
        "isced:level": "2",
        "name": "Dayana Memorial HPS Arakere",
        "name:kn": "ಡಯಾನಾ ಸ್ಮಾರಕ ಹಿರಿಯ ಪ್ರಾಥಮಿಕ ಶಾಲೆ ಅರಕೆರೆ",
        "operator": "Private Un-Aided",
        "school": "Higher primary"
      }
    },
    {
      "type": "node",
      "id": 6405531177,
      "lat": 12.8869151,
      "lon": 77.6028827,
      "tags": {
        "addr:place": "Arakere",
        "amenity": "school",
        "isced:level": "2",
        "name": "Marry Immaculate School, Arakere",
        "name:kn": "ಮೇರಿ ಇಮ್ಮ್ಯಾಕ್ಯುಲೇಟ್ ಶಾಲೆ, ಅರಕೆರೆ",
        "operator": "Private",
        "school": "Higher primary"
      }
    },
    {
      "type": "node",
      "id": 6405552609,
      "lat": 12.8847701,
      "lon": 77.6080296,
      "tags": {
        "addr:place": "Arakere",
        "amenity": "school",
        "isced:level": "3",
        "name": "Divya Jyothi HS, Arakere",
        "name:kn": "ದಿವ್ಯ ಜ್ಯೋತಿ ಪ್ರೌಢಶಾಲೆ, ಅರಕೆರೆ",
        "operator": "Private Un-Aided",
        "school": "Higher secondary"
      }
    },
    {
      "type": "node",
      "id": 6406173608,
      "lat": 12.8863886,
      "lon": 77.6095157,
      "tags": {
        "addr:place": "Arakere",
        "amenity": "school",
        "isced:level": "3",
        "name": "Shri Sharada Vidyanikethana Arkere",
        "name:kn": "ಶ್ರೀ ಶಾರದ ವಿದ್ಯಾನಿಕೇತನ ಅರಕೆರೆ",
        "operator": "Private Un-Aided",
        "school": "Higher Secondary"
      }
    },
    {
      "type": "node",
      "id": 6422515985,
      "lat": 12.8966211,
      "lon": 77.6075885,
      "tags": {
        "addr:place": "Bilekalli",
        "amenity": "school",
        "isced:level": "3",
        "name": "Dileep HPS Bilekalli",
        "name:kn": "ದಿಲೀಪ್ ಹಿರಿಯ ಪ್ರಾಥಮಿಕ ಶಾಲೆ ಬಿಳೇಕಳ್ಳಿ",
        "operator": "Private Un-Aided",
        "school": "Higher Secondary"
      }
    },
    {
      "type": "node",
      "id": 6422523984,
      "lat": 12.8986518,
      "lon": 77.6073698,
      "tags": {
        "addr:place": "Bilekalli",
        "amenity": "school",
        "isced:level": "3",
        "name": "Mgs Infant LPS Bilekalli",
        "name:kn": "ಎಂ.ಜಿ.ಎಸ್ ಇನ್ಫಂಟ್ ಕಿರಿಯ ಪ್ರಾಥಮಿಕ ಶಾಲೆ ಬಿಳೇಕಳ್ಳಿ",
        "operator": "Private Un-Aided",
        "school": "Higher Secondary"
      }
    },
    {
      "type": "node",
      "id": 6422527365,
      "lat": 12.8953975,
      "lon": 77.6108776,
      "tags": {
        "addr:place": "Bilekalli",
        "amenity": "school",
        "isced:level": "2",
        "name": "Blue Star Education Trust, Bilekalli",
        "name:kn": "ಬ್ಲೂ ಸ್ಟಾರ್ ಎಜುಕೇಶನ್ ಟ್ರಸ್ಟ್, ಬಿಳೇಕಳ್ಳಿ",
        "operator": "Private Un-Aided",
        "school": "Higher Primary"
      }
    },
    {
      "type": "node",
      "id": 6422529781,
      "lat": 12.9008131,
      "lon": 77.6088442,
      "tags": {
        "addr:place": "Bilekalli",
        "amenity": "school",
        "isced:level": "3",
        "name": "Shantinketan Trust Sch, Bilekalli",
        "name:kn": "ಶಾಂತಿನಿಕೇತನ ಟ್ರಸ್ಟ್ ಶಾಲೆ ,ಬಿಳೇಕಳ್ಳಿ",
        "operator": "Private Un-Aided",
        "school": "Higher Secondary"
      }
    },
    {
      "type": "node",
      "id": 6422536123,
      "lat": 12.8952857,
      "lon": 77.6082654,
      "tags": {
        "addr:place": "Bilekahalli",
        "amenity": "school",
        "isced:level": "3",
        "name": "Teresa Pub Sch Bilekahalli",
        "name:kn": "ತೆರೇಸಾ ಪಬ್ಲಿಕ್ ಶಾಲೆ ಬಿಳೇಕಳ್ಳಿ",
        "operator": "Private Un-Aided",
        "school": "Higher Secondary"
      }
    },
    {
      "type": "node",
      "id": 6422554513,
      "lat": 12.900731,
      "lon": 77.6047963,
      "tags": {
        "addr:place": "Bilekalli",
        "amenity": "school",
        "isced:level": "3",
        "name": "Ankith HPS Bilekalli",
        "name:kn": "ಅಂಕಿತ್ ಹಿರಿಯ ಪ್ರಾಥಮಿಕ ಶಾಲೆ ಬಿಳೇಕಳ್ಳಿ",
        "operator": "Private Un-Aided",
        "school": "Higher Secondary"
      }
    },
    {
      "type": "node",
      "id": 6422573848,
      "lat": 12.8909372,
      "lon": 77.6091428,
      "tags": {
        "addr:place": "Bilekalli",
        "amenity": "school",
        "isced:level": "1",
        "name": "Orchid English School, Bilekalli",
        "name:kn": "ಆರ್ಕಿಡ್ ಆಂಗ್ಲ ಶಾಲೆ, ಬಿಳೇಕಳ್ಳಿ",
        "operator": "Private Un-Aided",
        "school": "primary"
      }
    },
    {
      "type": "node",
      "id": 6496795658,
      "lat": 12.8933125,
      "lon": 77.6134451,
      "tags": {
        "addr:place": "Devarachikkanahalli",
        "amenity": "school",
        "isced": "3",
        "name": "Nightingale English School",
        "name:kn": "ನೈಟಿಂಗೇಲ್ ಆಂಗ್ಲ ಶಾಲೆ, ದೇವರಚಿಕ್ಕನಹಳ್ಳಿ",
        "operator": "Private Un-Aided",
        "school": "Higher Secondary"
      }
    },
    {
      "type": "node",
      "id": 6882713315,
      "lat": 12.8947975,
      "lon": 77.598757,
      "tags": {
        "addr:city": "Bengaluru",
        "addr:district": "BENGALURU URBAN",
        "addr:full": "Bannerghatta Road",
        "addr:postcode": "560076",
        "addr:state": "Karnataka",
        "amenity": "blood_bank",
        "contact:mobile": "9341960717",
        "contact:phone": "8066214055",
        "name": "Fortis Hospital Private Limited Blood Bank, Bengaluru",
        "opening_hours": "24/7",
        "operator:type": "private",
        "source": "OpenGovernmentData"
      }
    },
    {
      "type": "node",
      "id": 6939632965,
      "lat": 12.8981742,
      "lon": 77.6058662,
      "tags": {
        "addr:district": "Bengaluru Urban",
        "addr:full": "Bilekahalli, Bannerghatta Road",
        "addr:postcode": "560076",
        "addr:state": "Karnataka",
        "amenity": "clinic",
        "healthcare": "clinic",
        "name": "Anand Clinic",
        "source": "OpenGovernmentData"
      }
    },
    {
      "type": "node",
      "id": 6944577868,
      "lat": 12.8990265,
      "lon": 77.6055551,
      "tags": {
        "addr:district": "Bengaluru Urban",
        "addr:full": "S.V.Arcade, Devarachikkana Halli Road, Off Bannerugatta Road, Iim Post",
        "addr:postcode": "560076",
        "addr:state": "Karnataka",
        "amenity": "clinic",
        "healthcare": "clinic",
        "name": "Akshara Eye Hospital",
        "operator:type": "private",
        "source": "OpenGovernmentData",
        "website": "http://dpal.kar.nic.in/Kanunu%20padakosha%20PDF%20Files/Recognised%20Hospitals.pdf"
      }
    },
    {
      "type": "node",
      "id": 7572669016,
      "lat": 12.891789,
      "lon": 77.606337,
      "tags": {
        "addr:district": "Bengaluru Urban",
        "addr:full": "Vijaya Bank Layout, Swamy Arcade, Bannerghatta Main Road, Bengaluru",
        "addr:postcode": "560076",
        "addr:state": "Karnataka",
        "amenity": "dentist",
        "healthcare": "dentist",
        "name": "Gayathri Dental Clinic",
        "source": "Local Knowledge"
      }
    },
    {
      "type": "node",
      "id": 7572669032,
      "lat": 12.895426,
      "lon": 77.607662,
      "tags": {
        "addr:district": "Bengaluru Urban",
        "addr:full": "Vijaya Bank Layout, Bilekahalli, Bengaluru",
        "addr:postcode": "560076",
        "addr:state": "Karnataka",
        "amenity": "hospital",
        "healthcare": "hospital",
        "name": "Rajashri Grandhim Hospitals",
        "source": "Local Knowledge"
      }
    },
    {
      "type": "node",
      "id": 7572669035,
      "lat": 12.8908362,
      "lon": 77.6040715,
      "tags": {
        "addr:district": "Bengaluru Urban",
        "addr:full": "Duo Heights Layout, Devarachiknahalli, Bengaluru",
        "addr:postcode": "560068",
        "addr:state": "Karnataka",
        "amenity": "hospital",
        "healthcare": "hospital",
        "name": "Goldage Hospital",
        "source": "Local Knowledge"
      }
    },
    {
      "type": "node",
      "id": 7572669046,
      "lat": 12.895218,
      "lon": 77.608579,
      "tags": {
        "addr:district": "Bengaluru Urban",
        "addr:full": "Vijaya Bank Layout, Bilekahalli, Bengaluru",
        "addr:postcode": "560076",
        "addr:state": "Karnataka",
        "amenity": "clinic",
        "healthcare": "clinic",
        "name": "The Child Clinic",
        "source": "Local Knowledge"
      }
    },
    {
      "type": "node",
      "id": 10607497469,
      "lat": 12.8954237,
      "lon": 77.6012179,
      "tags": {
        "access": "permissive",
        "amenity": "parking",
        "parking": "surface"
      }
    },
    {
      "type": "node",
      "id": 10607497471,
      "lat": 12.8928719,
      "lon": 77.6003811,
      "tags": {
        "access": "permissive",
        "amenity": "parking",
        "parking": "surface"
      }
    },
    {
      "type": "node",
      "id": 10992667479,
      "lat": 12.896621,
      "lon": 77.6013754,
      "tags": {
        "amenity": "parking",
        "building": "yes",
        "parking": "street_side"
      }
    },
    {
      "type": "node",
      "id": 11305222351,
      "lat": 12.8889199,
      "lon": 77.6112548,
      "tags": {
        "access": "permissive",
        "amenity": "parking",
        "parking": "surface"
      }
    },
    {
      "type": "node",
      "id": 11568510100,
      "lat": 12.8941884,
      "lon": 77.6042025,
      "tags": {
        "addr:city": "Bengaluru",
        "addr:district": "Bengaluru",
        "addr:postcode": "560076",
        "addr:state": "KA",
        "addr:street": "Arekere Main Road",
        "addr:suburb": "Bilekahalli",
        "leisure": "stadium",
        "name": "IIM-B Playground"
      }
    },
    {
      "type": "node",
      "id": 11957600380,
      "lat": 12.8908863,
      "lon": 77.606061,
      "tags": {
        "addr:housenumber": "133",
        "amenity": "clinic",
        "healthcare": "clinic",
        "name": "Aposs Diagnostics Health Care Pvt Ltd",
        "opening_hours": "Mo-Su 07:00-21:00",
        "phone": "080 2648 3828"
      }
    },
    {
      "type": "node",
      "id": 11957613931,
      "lat": 12.891759,
      "lon": 77.6059942,
      "tags": {
        "addr:housenumber": "31",
        "addr:street": "4th Cross",
        "amenity": "restaurant",
        "name": "Sri Laksmi Upahara",
        "opening_hours": "Mo-Su 07:00-22:00",
        "phone": "08197750435"
      }
    },
    {
      "type": "node",
      "id": 11957620950,
      "lat": 12.8917479,
      "lon": 77.6064234,
      "tags": {
        "addr:city": "Bengaluru",
        "addr:housenumber": "268",
        "addr:postcode": "560076",
        "addr:street": "8th Cross Road",
        "name": "Bangalore Bakery And Sweets",
        "opening_hours": "Mo-Su 07:00-22:00",
        "shop": "bakery",
        "wheelchair": "no"
      }
    },
    {
      "type": "node",
      "id": 11957620951,
      "lat": 12.8918045,
      "lon": 77.6064435,
      "tags": {
        "air_conditioning": "no",
        "amenity": "restaurant",
        "delivery": "yes",
        "diet:vegetarian": "yes",
        "internet_access": "no",
        "level": "0",
        "name": "Brahmin Tiffins and Coffee",
        "opening_hours": "Mo-Su 06:30-21:30",
        "outdoor_seating": "yes",
        "phone": "07975356028",
        "takeaway": "yes",
        "toilets": "no",
        "wheelchair": "no"
      }
    },
    {
      "type": "node",
      "id": 11957635105,
      "lat": 12.891181,
      "lon": 77.6064826,
      "tags": {
        "addr:housenumber": "513",
        "amenity": "pharmacy",
        "healthcare": "pharmacy",
        "name": "Ashraya Mediacals"
      }
    },
    {
      "type": "node",
      "id": 11957635106,
      "lat": 12.8910969,
      "lon": 77.6064048,
      "tags": {
        "name": "Pet corner",
        "shop": "pet"
      }
    },
    {
      "type": "node",
      "id": 11957635107,
      "lat": 12.8911861,
      "lon": 77.6064469,
      "tags": {
        "addr:housenumber": "513",
        "amenity": "dentist",
        "healthcare": "dentist",
        "name": "R R Dental Center"
      }
    },
    {
      "type": "node",
      "id": 11957635108,
      "lat": 12.8911892,
      "lon": 77.6065268,
      "tags": {
        "amenity": "clinic",
        "healthcare": "clinic",
        "name": "Ketaki kids care clinic",
        "opening_hours": "Mo-Sa 11:00-13:30 19:00-21:00"
      }
    },
    {
      "type": "node",
      "id": 11957774855,
      "lat": 12.8906991,
      "lon": 77.6090805,
      "tags": {
        "addr:city": "bangalore",
        "addr:housenumber": "857",
        "addr:postcode": "560076",
        "addr:street": "3rd Cross, 5th Main",
        "leisure": "fitness_centre",
        "name": "National Academy Of Naturopathy And Yoga",
        "opening_hours": "Mo-Sa 09:00-20:30 So 09:00-23:30",
        "phone": "080 8834 7855",
        "sport": "yoga",
        "website": "https://sahajaswasthya.com/"
      }
    },
    {
      "type": "node",
      "id": 11958462030,
      "lat": 12.892281,
      "lon": 77.6112304,
      "tags": {
        "amenity": "clinic",
        "healthcare": "clinic",
        "healthcare:speciality": "gynaecology;dermatology;orthopedic",
        "name": "Vijaya Medical Centre"
      }
    },
    {
      "type": "node",
      "id": 11958462469,
      "lat": 12.8923531,
      "lon": 77.6113104,
      "tags": {
        "level": "0",
        "name": "Go Colours!",
        "shop": "clothes",
        "website": "https://gocolors.com/"
      }
    },
    {
      "type": "node",
      "id": 11958462470,
      "lat": 12.8926931,
      "lon": 77.6112416,
      "tags": {
        "addr:housenumber": "1000",
        "level": "1",
        "name": "Cut And Sttyle Salon",
        "opening_hours": "Mo-Su 10:00-21:00",
        "phone": "07090220099",
        "shop": "hairdresser",
        "website": "https://salons.cutandstyle.in/bilekahalli-bengaluru-37511/home?utm_source=GBP"
      }
    },
    {
      "type": "node",
      "id": 11958470443,
      "lat": 12.8920402,
      "lon": 77.610283,
      "tags": {
        "amenity": "kindergarten",
        "name": "Euro kids"
      }
    },
    {
      "type": "node",
      "id": 11958491418,
      "lat": 12.8924494,
      "lon": 77.6111256,
      "tags": {
        "addr:housenumber": "989",
        "name": "BreadCrumbs Bakery",
        "shop": "bakery",
        "wheelchair": "no"
      }
    },
    {
      "type": "node",
      "id": 11958493507,
      "lat": 12.8927777,
      "lon": 77.611033,
      "tags": {
        "level": "0",
        "name": "Reliance Trends",
        "shop": "clothes"
      }
    },
    {
      "type": "node",
      "id": 11989948269,
      "lat": 12.8889433,
      "lon": 77.6027595,
      "tags": {
        "addr:housenumber": "7",
        "addr:postcode": "560076",
        "addr:street": "Arekere Main Road",
        "name": "Green's Fresh Supermarket",
        "opening_hours": "Mo-Su 07:00-22:30",
        "shop": "supermarket"
      }
    },
    {
      "type": "node",
      "id": 11989948369,
      "lat": 12.8889002,
      "lon": 77.602832,
      "tags": {
        "addr:postcode": "560075",
        "addr:street": "Arekere Main Road",
        "name": "Toy Station",
        "opening_hours": "Tu-Su 10:00-20:00",
        "shop": "toys"
      }
    },
    {
      "type": "node",
      "id": 12077911516,
      "lat": 12.8951668,
      "lon": 77.5990453,
      "tags": {
        "amenity": "fast_food",
        "cuisine": "regional",
        "name": "Indira Canteen",
        "operator": "BBMP"
      }
    },
    {
      "type": "node",
      "id": 13092619253,
      "lat": 12.8949803,
      "lon": 77.6016298,
      "tags": {
        "amenity": "library",
        "name": "IIMB Library",
        "operator": "Indian Institute of Management Bangalore",
        "operator:type": "government"
      }
    },
    {
      "type": "way",
      "id": 23001006,
      "center": {
        "lat": 12.8936597,
        "lon": 77.601018
      },
      "tags": {
        "amenity": "parking",
        "created_by": "JOSM"
      }
    },
    {
      "type": "way",
      "id": 23003438,
      "center": {
        "lat": 12.8958685,
        "lon": 77.6023239
      },
      "tags": {
        "addr:city": "Bengaluru",
        "addr:street": "Bannerghatta Road",
        "alt_name": "IIMB",
        "amenity": "university",
        "name": "Indian Institute of Management Bangalore",
        "name:kn": "ಇಂಡಿಯನ್ ಇನ್‌ಸ್ಟಿಟುಟ್ ಆಫ್ ಮ್ಯಾನಜ್‌ಮೆಂಟ್ ಬೆಂಗಳೂರು",
        "name:ml": "ഇന്ത്യൻ ഇൻസ്റ്റിറ്റ്യൂട്ട് ഓഫ് മാനേജ്‌മെന്റ്, ബാംഗ്ലൂർ",
        "note": "IIMB was inaugrated in 1973, but finally moved to the current campus on Bannerghatta Road in 1983",
        "short_name": "IIMB",
        "start_date": "1983",
        "website": "https://www.iimb.ac.in/",
        "wikidata": "Q46021",
        "wikipedia": "en:Indian Institute of Management Bangalore"
      }
    },
    {
      "type": "way",
      "id": 44091443,
      "center": {
        "lat": 12.8947511,
        "lon": 77.5985816
      },
      "tags": {
        "addr:district": "Bengaluru Urban",
        "addr:full": "154/9, Bannerghatta Road, OppositeIIM-B",
        "addr:postcode": "560076",
        "addr:state": "Karnataka",
        "amenity": "hospital",
        "email": "enquiries@fortishospitals.in",
        "emergency": "yes",
        "healthcare": "hospital",
        "healthcare:speciality": "multi speciality",
        "name": "Fortis Hospitals, Bannerghatta Road",
        "name:kn": "ಫೋರ್ಟಿಸ್ ಆಸ್ಪತ್ರೆ",
        "operator:type": "private",
        "source": "OpenGovernmentData",
        "website": "www.fortishospitals.com",
        "wheelchair": "yes"
      }
    },
    {
      "type": "way",
      "id": 44091445,
      "center": {
        "lat": 12.89632,
        "lon": 77.5983495
      },
      "tags": {
        "addr:city": "Bangalore",
        "addr:district": "Bengaluru Urban",
        "addr:full": "154/11, Opp, I.I.M, Bannerghatta Road",
        "addr:postcode": "560076",
        "addr:state": "Karnataka",
        "addr:street": "Bannerghatta Road",
        "amenity": "hospital",
        "email": "customercarebangalore@apollohospitals.com",
        "emergency": "yes",
        "healthcare": "hospital",
        "healthcare:speciality": "multi speciality",
        "name": "Apollo Hospital",
        "name:kn": "ಅಪೋಲೋ ಆಸ್ಪತ್ರೆ",
        "operator:type": "private",
        "source": "OpenGovernmentData",
        "website": "www.apollohospitalsbangalore.com",
        "wheelchair": "yes"
      }
    },
    {
      "type": "way",
      "id": 175609255,
      "center": {
        "lat": 12.8960071,
        "lon": 77.5991284
      },
      "tags": {
        "amenity": "parking",
        "capacity": "50",
        "parking": "surface"
      }
    },
    {
      "type": "way",
      "id": 179092126,
      "center": {
        "lat": 12.8932733,
        "lon": 77.613473
      },
      "tags": {
        "addr:city": "bangalore",
        "addr:district": "Devarachikkanahalli",
        "addr:housenumber": "45/46",
        "addr:postcode": "560076",
        "addr:street": "3rd cross road",
        "amenity": "school",
        "building": "school",
        "name": "Nightingales English High School",
        "website": "https://www.nightingalesschool.com/"
      }
    },
    {
      "type": "way",
      "id": 236947315,
      "center": {
        "lat": 12.8929276,
        "lon": 77.6139569
      },
      "tags": {
        "leisure": "park"
      }
    },
    {
      "type": "way",
      "id": 243624633,
      "center": {
        "lat": 12.8909108,
        "lon": 77.6085585
      },
      "tags": {
        "leisure": "park"
      }
    },
    {
      "type": "way",
      "id": 243624642,
      "center": {
        "lat": 12.8900493,
        "lon": 77.6075948
      },
      "tags": {
        "leisure": "park"
      }
    },
    {
      "type": "way",
      "id": 243624765,
      "center": {
        "lat": 12.8910379,
        "lon": 77.6096655
      },
      "tags": {
        "leisure": "pitch",
        "sport": "tennis"
      }
    },
    {
      "type": "way",
      "id": 243624894,
      "center": {
        "lat": 12.8889212,
        "lon": 77.609993
      },
      "tags": {
        "leisure": "park"
      }
    },
    {
      "type": "way",
      "id": 285468209,
      "center": {
        "lat": 12.8935024,
        "lon": 77.606787
      },
      "tags": {
        "leisure": "pitch"
      }
    },
    {
      "type": "way",
      "id": 285468215,
      "center": {
        "lat": 12.8948785,
        "lon": 77.6062912
      },
      "tags": {
        "leisure": "park"
      }
    },
    {
      "type": "way",
      "id": 334655244,
      "center": {
        "lat": 12.8917125,
        "lon": 77.6051759
      },
      "tags": {
        "leisure": "park"
      }
    },
    {
      "type": "way",
      "id": 334655245,
      "center": {
        "lat": 12.8915182,
        "lon": 77.6060795
      },
      "tags": {
        "amenity": "place_of_worship",
        "name": "Ayyappa Temple",
        "name:kn": "ಅಯ್ಯಪ್ಪ ದೇವಸ್ಥಾನ",
        "religion": "hindu"
      }
    },
    {
      "type": "way",
      "id": 347605342,
      "center": {
        "lat": 12.8914548,
        "lon": 77.6014619
      },
      "tags": {
        "addr:city": "Bangalore",
        "addr:housenumber": "46/37",
        "addr:postcode": "560076",
        "addr:street": "1st main road, 2nd cross",
        "building": "yes",
        "leisure": "fitness_centre",
        "name": "Skypool Fitness",
        "name:kn": "ಸ್ಕೈಪೊಲ್ ಫಿಟ್ನೆಸ್",
        "opening_hours": "Mo-Su 06:00-22:00",
        "phone": "080 4375 2111",
        "sport": "swimming"
      }
    },
    {
      "type": "way",
      "id": 362888858,
      "center": {
        "lat": 12.8919306,
        "lon": 77.6081055
      },
      "tags": {
        "leisure": "park",
        "name": "Vijaya Bank Layout Park"
      }
    },
    {
      "type": "way",
      "id": 362889167,
      "center": {
        "lat": 12.8908859,
        "lon": 77.5995845
      },
      "tags": {
        "leisure": "park"
      }
    },
    {
      "type": "way",
      "id": 586856378,
      "center": {
        "lat": 12.8948508,
        "lon": 77.6033596
      },
      "tags": {
        "amenity": "parking"
      }
    },
    {
      "type": "way",
      "id": 586856420,
      "center": {
        "lat": 12.8942281,
        "lon": 77.6042676
      },
      "tags": {
        "leisure": "pitch",
        "sport": "soccer"
      }
    },
    {
      "type": "way",
      "id": 587078646,
      "center": {
        "lat": 12.8926976,
        "lon": 77.6042097
      },
      "tags": {
        "leisure": "pitch",
        "sport": "basketball"
      }
    },
    {
      "type": "way",
      "id": 587078647,
      "center": {
        "lat": 12.8927238,
        "lon": 77.6040236
      },
      "tags": {
        "leisure": "pitch",
        "sport": "tennis"
      }
    },
    {
      "type": "way",
      "id": 635504283,
      "center": {
        "lat": 12.8950035,
        "lon": 77.6046697
      },
      "tags": {
        "leisure": "pitch",
        "sport": "basketball"
      }
    },
    {
      "type": "way",
      "id": 635504284,
      "center": {
        "lat": 12.8950045,
        "lon": 77.6023254
      },
      "tags": {
        "amenity": "theatre",
        "name": "Open Air Theater",
        "theatre:type": "amphi"
      }
    },
    {
      "type": "way",
      "id": 754836769,
      "center": {
        "lat": 12.8848842,
        "lon": 77.6061833
      },
      "tags": {
        "description": "A lush green areas with large trees.",
        "leisure": "park",
        "name": "Large Arekere Trees Park",
        "source": "survey;local knowledge;gps;streetlevel imagery"
      }
    },
    {
      "type": "way",
      "id": 754838113,
      "center": {
        "lat": 12.884522,
        "lon": 77.6065445
      },
      "tags": {
        "description": "Small area where kids play.",
        "leisure": "playground",
        "name": "Kaveri Road Playsite"
      }
    },
    {
      "type": "way",
      "id": 754838389,
      "center": {
        "lat": 12.8844328,
        "lon": 77.6066769
      },
      "tags": {
        "description": "Small lush park.",
        "leisure": "park",
        "name": "Little Kaveri road park",
        "source": "survey;local knowledge;gps;streetlevel imagery"
      }
    },
    {
      "type": "way",
      "id": 754838729,
      "center": {
        "lat": 12.8846329,
        "lon": 77.6076506
      },
      "tags": {
        "leisure": "playground",
        "name": "Large Playground"
      }
    },
    {
      "type": "way",
      "id": 849093151,
      "center": {
        "lat": 12.8929949,
        "lon": 77.6007151
      },
      "tags": {
        "access": "private",
        "amenity": "parking",
        "surface": "concrete"
      }
    },
    {
      "type": "way",
      "id": 895115935,
      "center": {
        "lat": 12.9000244,
        "lon": 77.6113234
      },
      "tags": {
        "amenity": "school"
      }
    },
    {
      "type": "way",
      "id": 1220092524,
      "center": {
        "lat": 12.8881179,
        "lon": 77.6112737
      },
      "tags": {
        "leisure": "park",
        "wheelchair": "no"
      }
    },
    {
      "type": "way",
      "id": 1220092525,
      "center": {
        "lat": 12.8886604,
        "lon": 77.6112931
      },
      "tags": {
        "leisure": "park"
      }
    },
    {
      "type": "way",
      "id": 1220092531,
      "center": {
        "lat": 12.8883329,
        "lon": 77.6113151
      },
      "tags": {
        "amenity": "college",
        "name": "Bosch Learning Campus"
      }
    },
    {
      "type": "way",
      "id": 1271883880,
      "center": {
        "lat": 12.8914731,
        "lon": 77.6172897
      },
      "tags": {
        "amenity": "grave_yard",
        "landuse": "cemetery"
      }
    },
    {
      "type": "way",
      "id": 1286549232,
      "center": {
        "lat": 12.8919069,
        "lon": 77.6114356
      },
      "tags": {
        "amenity": "fuel",
        "brand": "Indian Oil Petrol Pump",
        "brand:wikidata": "Q1289348",
        "name": "Indian Oil Petrol Pump"
      }
    },
    {
      "type": "way",
      "id": 1286559021,
      "center": {
        "lat": 12.8926517,
        "lon": 77.6100439
      },
      "tags": {
        "leisure": "park",
        "wheelchair": "no"
      }
    },
    {
      "type": "way",
      "id": 1289430823,
      "center": {
        "lat": 12.8903229,
        "lon": 77.6047391
      },
      "tags": {
        "leisure": "park"
      }
    },
    {
      "type": "way",
      "id": 1313808114,
      "center": {
        "lat": 12.8922603,
        "lon": 77.6005154
      },
      "tags": {
        "access": "private",
        "amenity": "parking",
        "parking": "surface"
      }
    },
    {
      "type": "way",
      "id": 1424767744,
      "center": {
        "lat": 12.8852035,
        "lon": 77.6042616
      },
      "tags": {
        "access": "private",
        "leisure": "swimming_pool"
      }
    }
  ]
}