{
  "area_name": "Vishwapriya Nagara",
  "osm_id": 19883304,
  "osm_type": "relation",
  "place_type": "administrative",
  "amenity_count": 34,
  "amenities": [
    {
      "type": "node",
      "id": 1472052980,
      "lat": 12.876702,
      "lon": 77.6391483,
      "tags": {
        "name": "Tyre Puncture",
        "shop": "car_repair"
      }
    },
    {
      "type": "node",
      "id": 1472054098,
      "lat": 12.8766211,
      "lon": 77.6391908,
      "tags": {
        "name": "Hardware Electricals",
        "shop": "hardware"
      }
    },
    {
      "type": "node",
      "id": 5660679407,
      "lat": 12.8745847,
      "lon": 77.6400526,
      "tags": {
        "addr:city": "Singasandra",
        "addr:housenumber": "#155/B",
        "addr:postcode": "560068",
        "addr:street": "Manipal County Road",
        "name": "SR Furniture, Home Decors & interior",
        "operator": "S Hussan, S Younus",
        "payment:cash": "yes",
        "shop": "furniture"
      }
    },
    {
      "type": "node",
      "id": 5660954799,
      "lat": 12.8748547,
      "lon": 77.6399437,
      "tags": {
        "name": "RV Chicken Center",
        "payment:cash": "yes",
        "shop": "yes"
      }
    },
    {
      "type": "node",
      "id": 5713068240,
      "lat": 12.8779115,
      "lon": 77.6377137,
      "tags": {
        "name": "Sri annapoorna rice traders",
        "shop": "trade"
      }
    },
    {
      "type": "node",
      "id": 5730901023,
      "lat": 12.8768242,
      "lon": 77.6391178,
      "tags": {
        "addr:city": "Singasandra",
        "addr:housenumber": "#157/10, Opp. S.R.K Paradise",
        "addr:postcode": "560068",
        "addr:street": "Manipal County Road",
        "name": "Sri Annapoorna Rice Traders",
        "payment:cash": "yes",
        "payment:credit_cards": "yes",
        "payment:debit_cards": "yes",
        "phone": "08040957575",
        "shop": "trade",
        "trade": "rice"
      }
    },
    {
      "type": "node",
      "id": 5730901024,
      "lat": 12.8768627,
      "lon": 77.639103,
      "tags": {
        "name": "Hoticulture Fruits and Vegetables",
        "payment:cash": "yes",
        "shop": "greengrocer"
      }
    },
    {
      "type": "node",
      "id": 5959076197,
      "lat": 12.881686,
      "lon": 77.6279626,
      "tags": {
        "amenity": "atm",
        "brand": "ICICI Bank",
        "brand:wikidata": "Q1653258",
        "currency:INR": "yes",
        "name": "ICICI Bank",
        "name:kn": "ಐಸಿಐಸಿಐ ಬ್ಯಾಂಕು",
        "operator": "ICICI Bank",
        "operator:wikidata": "Q1653258",
        "short_name": "ICICI"
      }
    },
    {
      "type": "node",
      "id": 6348722007,
      "lat": 12.8733,
      "lon": 77.6392183,
      "tags": {
        "addr:place": "Subhash Nagar",
        "amenity": "school",
        "isced:level": "2",
        "name": "GUHPS Subhash Nagar",
        "name:kn": "ಸರ್ಕಾರಿ ಉರ್ದು ಹಿರಿಯ ಪ್ರಾಥಮಿಕ ಶಾಲೆ ಸುಭಾಷ್ ನಗರ",
        "operator": "Department of Education",
        "school": "primary"
      }
    },
    {
      "type": "node",
      "id": 6430475977,
      "lat": 12.8826959,
      "lon": 77.6265059,
      "tags": {
        "addr:place": "Begur",
        "amenity": "school",
        "isced:level": "3",
        "name": "The Selony LPS Begur",
        "name:kn": "ದಿ ಸೆಲೋನಿ ಕಿರಿಯ ಪ್ರಾಥಮಿಕ ಶಾಲೆ ಬೇಗೂರು",
        "operator": "Private Un-Aided",
        "school": "Higher Secondary"
      }
    },
    {
      "type": "node",
      "id": 6430517785,
      "lat": 12.8755953,
      "lon": 77.6388735,
      "tags": {
        "addr:place": "Begur",
        "amenity": "school",
        "isced:level": "3",
        "name": "Priyadarshini School, Begur",
        "name:kn": "ಪ್ರಿಯದರ್ಶಿನಿ,ಶಾಲೆ ಬೇಗೂರು",
        "operator": "Private Un-Aided",
        "school": "Higher Secondary"
      }
    },
    {
      "type": "node",
      "id": 6430532645,
      "lat": 12.8714779,
      "lon": 77.6355626,
      "tags": {
        "addr:place": "Begur",
        "amenity": "school",
        "isced:level": "3",
        "name": "Cresent Eng School, Begur",
        "name:kn": "ಕ್ರೆಸೆಂಟ್ ಆಂಗ್ಲ ಶಾಲೆ,ಬೇಗೂರು",
        "operator": "Private Un-Aided",
        "school": "Higher Secondary"
      }
    },
    {
      "type": "node",
      "id": 6437573479,
      "lat": 12.8706196,
      "lon": 77.638,
      "tags": {
        "addr:place": "Begur",
        "amenity": "school",
        "isced:level": "3",
        "name": "Little Angel Eng School, Begur",
        "name:kn": "ಲಿಟಲ್ ಏಂಜಲ್ ಆಂಗ್ಲ ಶಾಲೆ,ಬೇಗೂರು",
        "operator": "Private Un-Aided",
        "school": "Higher Secondary"
      }
    },
    {
      "type": "node",
      "id": 6437760193,
      "lat": 12.8808502,
      "lon": 77.6370167,
      "tags": {
        "addr:place": "Begur",
        "amenity": "school",
        "isced:level": "2",
        "name": "Jnanajyothi Eng School, Begur",
        "name:kn": "ಜ್ಞಾನಜ್ಯೋತಿ ಆಂಗ್ಲ ಶಾಲೆ, ಬೇಗೂರು",
        "operator": "Private Un-Aided",
        "school": "Higher Primary"
      }
    },
    {
      "type": "node",
      "id": 6438105185,
      "lat": 12.8801561,
      "lon": 77.6341829,
      "tags": {
        "addr:place": "Chikkabegur",
        "amenity": "school",
        "isced:level": "1",
        "name": "GLPS Chikkabegur",
        "name:kn": "ಸರ್ಕಾರಿ ಕಿರಿಯ ಪ್ರಾಥಮಿಕ ಶಾಲೆ ಚಿಕ್ಕಬೇಗೂರು",
        "operator": "Department of Education",
        "school": "primary"
      }
    },
    {
      "type": "node",
      "id": 6438107328,
      "lat": 12.8818317,
      "lon": 77.6358456,
      "tags": {
        "addr:place": "Chikkabegur",
        "amenity": "school",
        "isced:level": "3",
        "name": "Begur Channarayappa Ramiya, Chikkabegur",
        "name:kn": "ಬೇಗೂರು ಚನ್ನಾರಾಯಪ್ಪ ರಾಮಯ,ಚಿಕ್ಕಬೇಗೂರು",
        "operator": "Private Un-Aided",
        "school": "Higher Secondary"
      }
    },
    {
      "type": "node",
      "id": 6657987177,
      "lat": 12.871934,
      "lon": 77.6384282,
      "tags": {
        "name": "Grinding Wheat & Rice Centre",
        "payment:cash": "yes",
        "shop": "yes"
      }
    },
    {
      "type": "node",
      "id": 6658119311,
      "lat": 12.8743701,
      "lon": 77.6400851,
      "tags": {
        "name": "Backery",
        "payment:cash": "yes",
        "shop": "bakery"
      }
    },
    {
      "type": "node",
      "id": 6658119312,
      "lat": 12.8742722,
      "lon": 77.6400851,
      "tags": {
        "amenity": "car_wash",
        "name": "Car & bike wash",
        "self_service": "no"
      }
    },
    {
      "type": "node",
      "id": 6662095297,
      "lat": 12.8787352,
      "lon": 77.6367386,
      "tags": {
        "amenity": "restaurant",
        "name": "Oye Punjab Resturant"
      }
    },
    {
      "type": "node",
      "id": 6662095306,
      "lat": 12.8774974,
      "lon": 77.6386972,
      "tags": {
        "amenity": "fast_food",
        "brand": "Domino's",
        "brand:ks": "ڈومینوز",
        "brand:pa": "ਡੋਮੀਨੋਜ਼",
        "brand:ur": "ڈومینوز",
        "brand:wikidata": "Q839466",
        "brand:wikipedia": "en:Domino's Pizza",
        "cuisine": "pizza",
        "name": "Domino's",
        "name:kn": "ಡಾಮಿನೋಸ್",
        "name:ks": "ڈومینوز",
        "name:pa": "ਡੋਮੀਨੋਜ਼",
        "name:ur": "ڈومینوز",
        "takeaway": "yes"
      }
    },
    {
      "type": "node",
      "id": 7236038428,
      "lat": 12.8766595,
      "lon": 77.6387652,
      "tags": {
        "amenity": "water_point"
      }
    },
    {
      "type": "node",
      "id": 11301408895,
      "lat": 12.8782186,
      "lon": 77.6381148,
      "tags": {
        "amenity": "restaurant",
        "name": "Jai Maruti 99 Variety Dosa",
        "wheelchair": "yes"
      }
    },
    {
      "type": "node",
      "id": 11301855956,
      "lat": 12.8788511,
      "lon": 77.6370793,
      "tags": {
        "level": "0;1;2",
        "name": "It's My Baby Shop",
        "shop": "baby_goods",
        "wheelchair": "no"
      }
    },
    {
      "type": "node",
      "id": 12878810901,
      "lat": 12.8814976,
      "lon": 77.6352146,
      "tags": {
        "addr:street": "Begur Lake Road",
        "amenity": "school",
        "name": "BCR Public school"
      }
    },
    {
      "type": "way",
      "id": 347181161,
      "center": {
        "lat": 12.8823637,
        "lon": 77.6252334
      },
      "tags": {
        "addr:city": "Bengaluru",
        "addr:district": "Bengaluru Rural",
        "addr:postcode": "560068",
        "addr:street": "Begur Rd, Vishwapriya Nagar, Begur",
        "amenity": "place_of_worship",
        "building": "yes",
        "name": "Sri Chowdeshwari Ammanavara Temple",
        "religion": "hindu"
      }
    },
    {
      "type": "way",
      "id": 352726079,
      "center": {
        "lat": 12.8759969,
        "lon": 77.638834
      },
      "tags": {
        "leisure": "swimming_pool"
      }
    },
    {
      "type": "way",
      "id": 630719307,
      "center": {
        "lat": 12.8821434,
        "lon": 77.6249568
      },
      "tags": {
        "amenity": "fuel",
        "brand": "Bharat Petroleum",
        "brand:wikidata": "Q854826",
        "name": "Bharat Petroleum",
        "name:kn": "ಭಾರತ್ ಪೆಟ್ರೋಲಿಯಂ"
      }
    },
    {
      "type": "way",
      "id": 631054118,
      "center": {
        "lat": 12.8843559,
        "lon": 77.625056
      },
      "tags": {
        "building": "yes",
        "name": "Sri Venkateshwara Bakery",
        "shop": "bakery"
      }
    },
    {
      "type": "way",
      "id": 631054119,
      "center": {
        "lat": 12.8845926,
        "lon": 77.6251218
      },
      "tags": {
        "amenity": "pharmacy",
        "building": "yes",
        "dispensing": "yes",
        "healthcare": "pharmacy",
        "name": "Jayashree Pharmacy"
      }
    },
    {
      "type": "way",
      "id": 708987245,
      "center": {
        "lat": 12.8787253,
        "lon": 77.6368111
      },
      "tags": {
        "building": "yes",
        "level": "0",
        "name": "Falkon Hypermarket",
        "shop": "supermarket",
        "wheelchair": "yes"
      }
    },
    {
      "type": "way",
      "id": 708987246,
      "center": {
        "lat": 12.879313,
        "lon": 77.6367654
      },
      "tags": {
        "amenity": "restaurant",
        "building": "yes",
        "name": "Ajwaa restaurant"
      }
    },
    {
      "type": "way",
      "id": 1419994101,
      "center": {
        "lat": 12.8787017,
        "lon": 77.6356951
      },
      "tags": {
        "leisure": "sports_centre"
      }
    },
    {
      "type": "way",
      "id": 1419994117,
      "center": {
        "lat": 12.8812628,
        "lon": 77.6366747
      },
      "tags": {
        "leisure": "sports_centre"
      }
    }
  ]
}