{
  "area_name": "Viswamanava Kuvempu Ward",
  "osm_id": 19884537,
  "osm_type": "relation",
  "place_type": "administrative",
  "amenity_count": 334,
  "amenities": [
    {
      "type": "node",
      "id": 306850490,
      "lat": 12.9163076,
      "lon": 77.6103158,
      "tags": {
        "addr:city": "BTM Layout, Bangalore",
        "addr:housenumber": "72",
        "addr:street": "2nd Stage, 16th Main",
        "amenity": "pub",
        "name": "Avon Pub"
      }
    },
    {
      "type": "node",
      "id": 876627766,
      "lat": 12.9130435,
      "lon": 77.6099326,
      "tags": {
        "name": "Trends Woman",
        "shop": "clothes"
      }
    },
    {
      "type": "node",
      "id": 945626552,
      "lat": 12.9139482,
      "lon": 77.6136288,
      "tags": {
        "ele": "910.25",
        "name": "Amrutha Condiments",
        "shop": "bakery",
        "wpt_description": "12-OCT-10 11:17:08AM"
      }
    },
    {
      "type": "node",
      "id": 945903479,
      "lat": 12.9140842,
      "lon": 77.6130655,
      "tags": {
        "leisure": "fitness_centre",
        "name": "Mega Gym"
      }
    },
    {
      "type": "node",
      "id": 945903493,
      "lat": 12.9107877,
      "lon": 77.6100543,
      "tags": {
        "brand": "HOPCOMS",
        "brand:wikidata": "Q22908959",
        "name": "HOPCOMS",
        "name:kn": "ಹಾಪ್ ಕಾಮ್ಸ್",
        "shop": "greengrocer"
      }
    },
    {
      "type": "node",
      "id": 945903502,
      "lat": 12.9141574,
      "lon": 77.6130763,
      "tags": {
        "name": "Sangama Bakery",
        "shop": "bakery"
      }
    },
    {
      "type": "node",
      "id": 946653489,
      "lat": 12.9150732,
      "lon": 77.6197271,
      "tags": {
        "amenity": "place_of_worship",
        "name": "Vinayaka Temple",
        "name:kn": "ವಿನಾಯಕ ದೇವಸ್ಥಾನ",
        "religion": "hindu"
      }
    },
    {
      "type": "node",
      "id": 946825830,
      "lat": 12.9093013,
      "lon": 77.614205,
      "tags": {
        "amenity": "atm",
        "brand": "ICICI Bank",
        "brand:wikidata": "Q1653258",
        "name": "ICICI Bank",
        "name:kn": "ಐಸಿಐಸಿಐ",
        "operator": "ICICI Bank",
        "operator:wikidata": "Q1653258",
        "short_name": "ICICI"
      }
    },
    {
      "type": "node",
      "id": 949313543,
      "lat": 12.9140267,
      "lon": 77.613838,
      "tags": {
        "amenity": "clinic",
        "name": "Shashi Clinic"
      }
    },
    {
      "type": "node",
      "id": 949313544,
      "lat": 12.9141731,
      "lon": 77.6134947,
      "tags": {
        "amenity": "pharmacy",
        "name": "Sri Murti medicals"
      }
    },
    {
      "type": "node",
      "id": 949313545,
      "lat": 12.9140567,
      "lon": 77.6099682,
      "tags": {
        "check_date": "2023-10-15",
        "clothes": "underwear",
        "name": "Jockey",
        "opening_hours": "Mo-Su 09:00-21:00",
        "shop": "clothes"
      }
    },
    {
      "type": "node",
      "id": 949313546,
      "lat": 12.9141469,
      "lon": 77.6116922,
      "tags": {
        "addr:place": "B T M Layout",
        "amenity": "school",
        "isced:level": "3",
        "name": "St Josephs Eng Pri Sch, B T M Layout W No 65",
        "name:kn": "ಸೆಂಟ್‌ ಜೋಸೆಫ್ ಆಂಗ್ಲ ಪ್ರಾಥಮಿಕ ಶಾಲೆ, ಬಿ.ಟಿ.ಎಂ ಲೇಔಟ್",
        "operator": "Higher Secondary",
        "school": "Higher Secondary"
      }
    },
    {
      "type": "node",
      "id": 949313549,
      "lat": 12.9149626,
      "lon": 77.6149914,
      "tags": {
        "addr:city": "BTM Layout, Bangalore",
        "addr:street": "29th Main",
        "amenity": "restaurant",
        "name": "Sri Ganesh Food Point",
        "name:kn": "ಶ್ರೀ ಗಣೇಶ್ ಫುಡ್ ಪಾಯಿಂಟ್"
      }
    },
    {
      "type": "node",
      "id": 949313551,
      "lat": 12.9136384,
      "lon": 77.6074718,
      "tags": {
        "amenity": "pharmacy",
        "brand": "MedPlus",
        "brand:wikidata": "Q65684234",
        "healthcare": "pharmacy",
        "name": "MedPlus",
        "opening_hours": "PH,Mo-Su 08:00-23:00"
      }
    },
    {
      "type": "node",
      "id": 949313554,
      "lat": 12.9138855,
      "lon": 77.6138005,
      "tags": {
        "amenity": "dentist",
        "name": "The Family Dental Care"
      }
    },
    {
      "type": "node",
      "id": 949313557,
      "lat": 12.9136816,
      "lon": 77.6077065,
      "tags": {
        "name": "Cashify",
        "opening_hours": "Mo-Su 09:00-21:00",
        "shop": "mobile_phone"
      }
    },
    {
      "type": "node",
      "id": 949313559,
      "lat": 12.9140156,
      "lon": 77.6092776,
      "tags": {
        "addr:postcode": "560076",
        "air_conditioning": "yes",
        "brand": "Allen Solly",
        "brand:wikidata": "Q110036995",
        "check_date": "2023-12-27",
        "clothes": "workwear;men;western;accessories;shirts",
        "currency:INR": "yes",
        "internet_access": "no",
        "level": "0;1",
        "name": "Allen Solly",
        "opening_hours": "Mo-Su 10:00-21:00",
        "payment:cash": "yes",
        "payment:credit_cards": "yes",
        "payment:debit_cards": "yes",
        "second_hand": "no",
        "shop": "clothes",
        "source": "local knowledge",
        "stroller": "limited",
        "wheelchair": "no"
      }
    },
    {
      "type": "node",
      "id": 951203512,
      "lat": 12.913127,
      "lon": 77.6101684,
      "tags": {
        "amenity": "restaurant",
        "name": "Beijing Bites",
        "name:kn": "ಬೀಜಿಂಗ್ ಬೈಟ್ಸ್",
        "opening_hours": "Mo-Su 09:00-21:30"
      }
    },
    {
      "type": "node",
      "id": 951203518,
      "lat": 12.9127285,
      "lon": 77.6064015,
      "tags": {
        "amenity": "atm",
        "brand": "Indian Bank",
        "brand:wikidata": "Q2003789",
        "check_date": "2023-10-15",
        "name": "Indian Bank",
        "operator": "Indian Bank",
        "operator:wikidata": "Q2003789"
      }
    },
    {
      "type": "node",
      "id": 951203520,
      "lat": 12.9136099,
      "lon": 77.6102033,
      "tags": {
        "name": "Mom & Kid",
        "opening_hours": "Mo-Su 09:30-21:00",
        "shop": "clothes"
      }
    },
    {
      "type": "node",
      "id": 951203524,
      "lat": 12.9136689,
      "lon": 77.6099505,
      "tags": {
        "amenity": "restaurant",
        "check_date": "2023-10-15",
        "name": "Punjabi Swag",
        "opening_hours": "Mo-Su 10:00-21:00",
        "wheelchair": "limited"
      }
    },
    {
      "type": "node",
      "id": 951203525,
      "lat": 12.9138062,
      "lon": 77.6099744,
      "tags": {
        "check_date": "2023-10-15",
        "name": "Honey Drops",
        "opening_hours": "Mo-Su 09:00-21:00",
        "shop": "alcohol"
      }
    },
    {
      "type": "node",
      "id": 951203531,
      "lat": 12.9133476,
      "lon": 77.6101635,
      "tags": {
        "amenity": "pharmacy",
        "brand": "Apollo Pharmacy",
        "brand:wikidata": "Q62562612",
        "healthcare": "pharmacy",
        "name": "Apollo Pharmacy",
        "name:kn": "ಅಪೋಲೋ ಫಾರ್ಮಸಿ",
        "opening_hours": "PH,Mo-Su 08:00-23:00",
        "wheelchair": "no"
      }
    },
    {
      "type": "node",
      "id": 951203532,
      "lat": 12.9099963,
      "lon": 77.6101216,
      "tags": {
        "amenity": "place_of_worship",
        "check_date": "2023-10-15",
        "name": "Sri Chamundeshwari Temple",
        "name:kn": "ಶ್ರೀ ಚಾಮುಂಡೇಶ್ವರಿ ದೇವಾಲಯ",
        "religion": "hindu"
      }
    },
    {
      "type": "node",
      "id": 1280127947,
      "lat": 12.916193,
      "lon": 77.6053993,
      "tags": {
        "amenity": "bank",
        "atm": "yes",
        "brand": "Karnataka Bank",
        "brand:wikidata": "Q2042632",
        "brand:wikipedia": "en:Karnataka Bank",
        "name": "Karnataka Bank",
        "name:kn": "ಕರ್ನಾಟಕ ಬ್ಯಾಂಕ್",
        "opening_hours": "Mo-Sa 10:00-16:00",
        "operator": "Karnataka Bank"
      }
    },
    {
      "type": "node",
      "id": 1388103606,
      "lat": 12.9125207,
      "lon": 77.6064232,
      "tags": {
        "name": "Sri Devi Baker's",
        "opening_hours": "PH,Mo-Su 09:00-22:00",
        "shop": "bakery"
      }
    },
    {
      "type": "node",
      "id": 1388103608,
      "lat": 12.9127092,
      "lon": 77.6061623,
      "tags": {
        "amenity": "bank",
        "brand": "City Union Bank",
        "brand:en": "City Union Bank",
        "brand:hi": "सिटी यूनियन बैंक",
        "brand:ta": "சிட்டி யூனியன் வங்கி",
        "brand:wikidata": "Q2040264",
        "name": "City Union Bank",
        "name:en": "City Union Bank",
        "name:hi": "सिटी यूनियन बैंक",
        "name:ta": "சிட்டி யூனியன் வங்கி",
        "short_name": "CUB"
      }
    },
    {
      "type": "node",
      "id": 1396823306,
      "lat": 12.9114652,
      "lon": 77.6041516,
      "tags": {
        "brand": "HOPCOMS",
        "brand:wikidata": "Q22908959",
        "name": "HOPCOMS",
        "name:kn": "ಹಾಪ್ ಕಾಮ್ಸ್",
        "shop": "greengrocer"
      }
    },
    {
      "type": "node",
      "id": 1470600205,
      "lat": 12.9149827,
      "lon": 77.605687,
      "tags": {
        "amenity": "bank",
        "name": "Sir M. Visvesvaraya Co-Operative Bank Limited",
        "opening_hours": "Mo-Sa 09:30-16:30"
      }
    },
    {
      "type": "node",
      "id": 1470603498,
      "lat": 12.914434,
      "lon": 77.6050207,
      "tags": {
        "amenity": "hospital",
        "designation": "Kids Care Clinic",
        "healthcare": "hospital",
        "name": "Kids Care Clinic"
      }
    },
    {
      "type": "node",
      "id": 1470604112,
      "lat": 12.9134789,
      "lon": 77.6065671,
      "tags": {
        "amenity": "bank",
        "atm": "yes",
        "brand": "Union Bank of India",
        "brand:wikidata": "Q2004078",
        "brand:wikipedia": "en:Union Bank of India",
        "name": "Union Bank of India",
        "opening_hours": "Mo-Sa 10:00-15:30",
        "wheelchair": "no"
      }
    },
    {
      "type": "node",
      "id": 1470639973,
      "lat": 12.9161642,
      "lon": 77.6029009,
      "tags": {
        "addr:housenumber": "4/A",
        "addr:street": "1st Main Road",
        "amenity": "place_of_worship",
        "check_date": "2023-09-03",
        "name": "Sri Lakshmi Venkateshwara Siddi Vinayaka Varadanjeya Swamy Temple",
        "phone": "+91 80 2668 0913",
        "religion": "hindu"
      }
    },
    {
      "type": "node",
      "id": 1474299627,
      "lat": 12.9161449,
      "lon": 77.6054538,
      "tags": {
        "amenity": "atm",
        "check_date": "2021-10-07",
        "operator": "ICICI ATM"
      }
    },
    {
      "type": "node",
      "id": 1474317196,
      "lat": 12.9160081,
      "lon": 77.6193573,
      "tags": {
        "addr:district": "Bengaluru Rural",
        "addr:full": "No 72, 35Th Main 1st Cross 100 Ft Ring Road, Btm Layour, 2nd Stage Btm Layout",
        "addr:postcode": "560068",
        "addr:state": "Karnataka",
        "amenity": "hospital",
        "emergency": "yes",
        "healthcare": "hospital",
        "name": "Karanth Speciality Hospital",
        "source": "OpenGovernmentData"
      }
    },
    {
      "type": "node",
      "id": 1474321284,
      "lat": 12.9160306,
      "lon": 77.6171846,
      "tags": {
        "amenity": "place_of_worship",
        "check_date": "2023-12-05",
        "name": "Shree Karumariyamma Temple",
        "name:kn": "ಮಾರಿಯಮ್ಮ ದೇವಸ್ಥಾನ",
        "religion": "hindu"
      }
    },
    {
      "type": "node",
      "id": 1474323515,
      "lat": 12.9162878,
      "lon": 77.6138218,
      "tags": {
        "addr:district": "Bengaluru Urban",
        "addr:full": "No.27, Kuvempunagar, B.T.M.Layout, 100 Ft. Ring Road",
        "addr:postcode": "560076",
        "addr:state": "Karnataka",
        "addr:street": "Outer Ring Road",
        "amenity": "hospital",
        "emergency": "yes",
        "name": "Gangothri Hospital",
        "name:kn": "ಗಂಗೋತ್ರಿ ಆಸ್ಪತ್ರೆ",
        "source": "OpenGovernmentData",
        "wheelchair": "limited"
      }
    },
    {
      "type": "node",
      "id": 1474437818,
      "lat": 12.9162016,
      "lon": 77.6153313,
      "tags": {
        "name": "Priya Bakery",
        "shop": "bakery"
      }
    },
    {
      "type": "node",
      "id": 1474819351,
      "lat": 12.9151822,
      "lon": 77.6059587,
      "tags": {
        "addr:city": "Bengaluru",
        "addr:housenumber": "284",
        "addr:postcode": "560076",
        "addr:street": "7th Main Road",
        "name": "Ashirwad Super Market",
        "opening_hours": "Mo-Su 10:00-21:00",
        "phone": "(91)-80-65333340",
        "shop": "supermarket"
      }
    },
    {
      "type": "node",
      "id": 1514981781,
      "lat": 12.9139161,
      "lon": 77.6102112,
      "tags": {
        "amenity": "restaurant",
        "check_date": "2023-10-19",
        "name": "Swadista Ahara",
        "name:kn": "ಸ್ವಾದಿಷ್ಟ ಅಹಾರ",
        "opening_hours": "PH,Mo-Su 08:00-22:00",
        "wheelchair": "limited"
      }
    },
    {
      "type": "node",
      "id": 1741781102,
      "lat": 12.9165024,
      "lon": 77.6034897,
      "tags": {
        "amenity": "atm",
        "brand": "ICICI Bank",
        "brand:wikidata": "Q1653258",
        "name": "ICICI Bank",
        "operator": "ICICI Bank",
        "operator:wikidata": "Q1653258",
        "short_name": "ICICI"
      }
    },
    {
      "type": "node",
      "id": 3016090359,
      "lat": 12.9164462,
      "lon": 77.6072593,
      "tags": {
        "amenity": "payment_centre",
        "name": "BWSSB Payment Kiosk"
      }
    },
    {
      "type": "node",
      "id": 3226844853,
      "lat": 12.9163429,
      "lon": 77.6112447,
      "tags": {
        "addr:street": "Outer Ring Road",
        "amenity": "bank",
        "brand": "HDFC Bank",
        "brand:wikidata": "Q631047",
        "name": "HDFC Bank",
        "short_name": "HDFC"
      }
    },
    {
      "type": "node",
      "id": 3401687013,
      "lat": 12.9123494,
      "lon": 77.6004812,
      "tags": {
        "addr:housename": "Commerce @ Mantri",
        "addr:street": "Bannerghatta Road",
        "brand": "Shoppers Stop",
        "brand:wikidata": "Q7501155",
        "level": "0",
        "name": "Shoppers Stop",
        "shop": "department_store",
        "website": "https://www.shoppersstop.com"
      }
    },
    {
      "type": "node",
      "id": 3408154563,
      "lat": 12.9166283,
      "lon": 77.6001166,
      "tags": {
        "name": "Iyengar's Bakery",
        "shop": "bakery"
      }
    },
    {
      "type": "node",
      "id": 3408154565,
      "lat": 12.9161526,
      "lon": 77.6001688,
      "tags": {
        "amenity": "restaurant",
        "name": "Amaan Restaurant"
      }
    },
    {
      "type": "node",
      "id": 3412353036,
      "lat": 12.9165473,
      "lon": 77.6001273,
      "tags": {
        "amenity": "fast_food",
        "building": "restaurant",
        "name": "Ambur Chicken Biriyani and Chinese food"
      }
    },
    {
      "type": "node",
      "id": 3422057411,
      "lat": 12.9103456,
      "lon": 77.6097988,
      "tags": {
        "amenity": "restaurant",
        "name": "Holy Smoke",
        "wheelchair": "no"
      }
    },
    {
      "type": "node",
      "id": 3702279319,
      "lat": 12.9149734,
      "lon": 77.6099595,
      "tags": {
        "addr:housenumber": "782",
        "addr:street": "16th Main Road",
        "level": "-1",
        "name": "Mahalaxmi Mart",
        "opening_hours": "Mo-Su 09:00-21:00",
        "shop": "houseware"
      }
    },
    {
      "type": "node",
      "id": 4135046589,
      "lat": 12.9147113,
      "lon": 77.6024933,
      "tags": {
        "addr:housenumber": "58",
        "addr:place": "Madivala",
        "addr:street": "1st Main",
        "amenity": "school",
        "isced:level": "2",
        "name": "Shantiniketan English High School, B M P 64",
        "name:kn": "ಶಾಂತಿನಿಕೇತನ ಆಂಗ್ಲ ಪ್ರೌಢಶಾಲೆ, ಬಿ.ಎಂ.ಪಿ. 64",
        "operator": "Private Un-Aided"
      }
    },
    {
      "type": "node",
      "id": 4443267488,
      "lat": 12.9153987,
      "lon": 77.6010351,
      "tags": {
        "addr:city": "Bangalore",
        "addr:housenumber": "1st Main Road",
        "addr:postcode": "560076",
        "addr:street": "Opp Vijaya Bank, Bannerghatta Road, Bangalore",
        "amenity": "restaurant",
        "cuisine": "regional",
        "name": "Paratha Junction",
        "opening_hours": "10:00-23:00",
        "smoking": "no"
      }
    },
    {
      "type": "node",
      "id": 4446317428,
      "lat": 12.915785,
      "lon": 77.6194045,
      "tags": {
        "addr:city": "Bengaluru",
        "addr:postcode": "560068",
        "addr:street": "KAS Officers Colony, Stage 2, BTM 2nd Stage, Karnataka",
        "amenity": "clinic",
        "name": "Ismile Dental & Oral Health Care Centre",
        "phone": "+9198863 99310"
      }
    },
    {
      "type": "node",
      "id": 4446322688,
      "lat": 12.9127062,
      "lon": 77.6201668,
      "tags": {
        "addr:city": "Bengaluru",
        "addr:postcode": "560076",
        "addr:street": "7th Cross, 35th Main, BTM 2nd Stage,, Adjacent DSR Naveen Lake View Apartments, Karnataka",
        "amenity": "hospital",
        "name": "Keva Ayurveda Health Care Pvt Ltd",
        "phone": "080508 01515",
        "website": "https://kevaayurveda.com/"
      }
    },
    {
      "type": "node",
      "id": 4446879222,
      "lat": 12.9133671,
      "lon": 77.6041142,
      "tags": {
        "addr:city": "Bengaluru",
        "addr:housenumber": "458",
        "addr:postcode": "560076",
        "addr:street": "7th Cross Road",
        "male": "yes",
        "name": "My Barber",
        "opening_hours": "Mo-Su 09:00-21:00",
        "shop": "hairdresser"
      }
    },
    {
      "type": "node",
      "id": 4448113329,
      "lat": 12.9162822,
      "lon": 77.6130103,
      "tags": {
        "addr:city": "Bangalore",
        "addr:housenumber": "94/1",
        "addr:postcode": "560076",
        "addr:street": "16th Main Road, BTM Layout, IInd Stage, Near Udupi Garden Hotel, BTM 2nd Stage, Kuvempu Nagar, Stage 2, BTM Layout",
        "amenity": "pharmacy",
        "name": "Anand Diagnostic Laboratory",
        "phone": "080 2668 3415",
        "source": "http://bestofhealthindia.com/",
        "website": "https://www.anandlab.com/"
      }
    },
    {
      "type": "node",
      "id": 4488143029,
      "lat": 12.9136522,
      "lon": 77.6076486,
      "tags": {
        "addr:city": "bangalore",
        "addr:housenumber": "726",
        "addr:postcode": "560076",
        "addr:street": "7th Cross Road",
        "name": "Om sports",
        "opening_hours": "Mo-Su 09:00-21:00",
        "phone": "09980383846",
        "shop": "sports"
      }
    },
    {
      "type": "node",
      "id": 4488157957,
      "lat": 12.9109555,
      "lon": 77.6065615,
      "tags": {
        "addr:city": "Bangalore",
        "addr:housenumber": "46",
        "addr:postcode": "560076",
        "addr:street": "7th Main Road",
        "name": "Ramdev Sports & Stationary",
        "phone": "09620656041",
        "shop": "sports"
      }
    },
    {
      "type": "node",
      "id": 4489093093,
      "lat": 12.9164708,
      "lon": 77.6047081,
      "tags": {
        "addr:city": "Bengaluru",
        "addr:housenumber": "55/373/2",
        "addr:postcode": "560076",
        "addr:street": "BTM layout",
        "brand": "Reliance Fresh",
        "brand:wikidata": "Q7311014",
        "name": "Reliance Fresh",
        "name:kn": "ರಿಲಾಯನ್ಸ್ ಫ್ರೆಶ್",
        "phone": "(91)-80-41573392",
        "shop": "supermarket"
      }
    },
    {
      "type": "node",
      "id": 4489365813,
      "lat": 12.9133022,
      "lon": 77.6064761,
      "tags": {
        "addr:city": "bangalore",
        "addr:housenumber": "#429",
        "addr:postcode": "560076",
        "addr:street": "7th Main Road",
        "name": "B T M Sports And Stationery",
        "opening_hours": "09:00-22:00",
        "phone": "+91 99724 19321",
        "shop": "sports"
      }
    },
    {
      "type": "node",
      "id": 4489768592,
      "lat": 12.9148059,
      "lon": 77.6001736,
      "tags": {
        "addr:city": "Bangalore",
        "addr:postcode": "560076",
        "addr:street": "No 29, 2nd Floor, Btm Layout, 2nd Stage, Bannerghatta Road, Bannerghatta Road, BHBCS Layout, Stage 2, BTM 2nd Stage, , Karnataka",
        "leisure": "sports_centre",
        "name": "Verve Health & Fitness Centre",
        "phone": "080 4150 0399"
      }
    },
    {
      "type": "node",
      "id": 4489771123,
      "lat": 12.9141965,
      "lon": 77.6098793,
      "tags": {
        "addr:city": "Bengaluru",
        "addr:housenumber": "775",
        "addr:postcode": "560076",
        "addr:street": "16th Main Road",
        "leisure": "sports_centre",
        "level": "1",
        "name": "Muscle Tribes Gym",
        "opening_hours": "05:30-22:00",
        "phone": "+91 74114 17447"
      }
    },
    {
      "type": "node",
      "id": 4489891609,
      "lat": 12.9138357,
      "lon": 77.6114958,
      "tags": {
        "addr:city": "Bangalore",
        "addr:housenumber": "No.352 And 353,1st Floor",
        "addr:postcode": "560076",
        "addr:street": "6th Cross,29th Main, Btm Layout 2nd Stage",
        "name": "Revive Fitness And Beauty Pvt Ltd",
        "opening_hours": "09:00-21:00",
        "phone": "9663810893",
        "shop": "beauty"
      }
    },
    {
      "type": "node",
      "id": 4839776498,
      "lat": 12.9131684,
      "lon": 77.6061172,
      "tags": {
        "name": "Continental Tyre Park",
        "shop": "tyres"
      }
    },
    {
      "type": "node",
      "id": 4946500324,
      "lat": 12.9139703,
      "lon": 77.6060989,
      "tags": {
        "addr:housenumber": "294",
        "addr:postcode": "560076",
        "addr:street": "7th Main Road",
        "amenity": "fast_food",
        "brand": "Subway",
        "brand:wikidata": "Q244457",
        "check_date": "2023-12-27",
        "cuisine": "sandwich",
        "drive_through": "no",
        "internet_access": "no",
        "name": "Subway",
        "opening_hours": "PH,Mo-Su 09:30-21:30",
        "payment:cash": "yes",
        "payment:credit_cards": "yes",
        "payment:debit_cards": "yes",
        "takeaway": "yes",
        "wheelchair": "limited"
      }
    },
    {
      "type": "node",
      "id": 5318002823,
      "lat": 12.9162768,
      "lon": 77.6151034,
      "tags": {
        "amenity": "atm",
        "brand": "Bank of Baroda",
        "brand:wikidata": "Q2003797",
        "name": "Vijaya Bank",
        "name:kn": "ವಿಜಯ ಬ್ಯಾಂಕು",
        "operator": "Bank of Baroda",
        "operator:wikidata": "Q2003797"
      }
    },
    {
      "type": "node",
      "id": 5615099566,
      "lat": 12.9137354,
      "lon": 77.6063863,
      "tags": {
        "addr:postcode": "560076",
        "check_date": "2023-12-27",
        "fee": "yes",
        "internet_access": "no",
        "leisure": "fitness_centre",
        "name": "Play On Fitness",
        "opening_hours": "Mo-Su 07:00-21:00",
        "payment:cash": "yes",
        "payment:credit_cards": "yes",
        "payment:debit_cards": "yes",
        "source": "local knowledge",
        "wheelchair": "no"
      }
    },
    {
      "type": "node",
      "id": 5615100289,
      "lat": 12.9124714,
      "lon": 77.606448,
      "tags": {
        "leisure": "fitness_centre",
        "name": "The Grand Platinum Fitness",
        "sport": "fitness"
      }
    },
    {
      "type": "node",
      "id": 5615100291,
      "lat": 12.9126706,
      "lon": 77.6061609,
      "tags": {
        "check_date": "2023-10-15",
        "dance:style": "salsa",
        "dance:teaching": "yes",
        "leisure": "dance",
        "name": "The Venus Studio"
      }
    },
    {
      "type": "node",
      "id": 5806406585,
      "lat": 12.9148051,
      "lon": 77.6168225,
      "tags": {
        "service:bicycle:pump": "yes",
        "service:bicycle:repair": "yes",
        "shop": "bicycle"
      }
    },
    {
      "type": "node",
      "id": 6347042239,
      "lat": 12.9141446,
      "lon": 77.6160973,
      "tags": {
        "addr:place": "BTM Layout",
        "amenity": "school",
        "isced:level": "2",
        "name": "Vidya Jyothi KHPS BTM Layout",
        "name:kn": "ವಿದ್ಯಾ ಜ್ಯೋತಿ ಕನ್ನಡ ಹಿರಿಯ ಪ್ರಾಥಮಿಕ ಶಾಲೆ ಬಿಟಿಎಂ ಲೇಔಟ್",
        "operator": "Department of Primary and Secondary Education",
        "operator:type": "government",
        "operator:wikidata": "Q111467381",
        "school": "primary"
      }
    },
    {
      "type": "node",
      "id": 6408147708,
      "lat": 12.9138593,
      "lon": 77.6153672,
      "tags": {
        "addr:place": "B T M Layout",
        "amenity": "school",
        "isced:level": "2",
        "name": "Vidya Jyothi EHPS ,B T M Layout W No 65",
        "name:kn": "ವಿದ್ಯಾ ಜ್ಯೋತಿ ಆಂಗ್ಲ ಹಿರಿಯ ಪ್ರಾಥಮಿಕ ಶಾಲೆ, ಬಿ.ಟಿ.ಎಂ.ಲೇಔಟ್",
        "operator": "Private Un-Aided",
        "school": "Higher secondary"
      }
    },
    {
      "type": "node",
      "id": 6944290483,
      "lat": 12.9144587,
      "lon": 77.6003156,
      "tags": {
        "addr:district": "Bengaluru Urban",
        "addr:full": "# 33, Bannerghatta Road (Service Road), B.T.M.Layout B.T.M. Layout 2nd Stage",
        "addr:postcode": "560076",
        "addr:state": "Karnataka",
        "amenity": "hospital",
        "name": "Sri Sai Ram Hospital - Bangalore",
        "source": "OpenGovernmentData"
      }
    },
    {
      "type": "node",
      "id": 6947707900,
      "lat": 12.9164779,
      "lon": 77.6033811,
      "tags": {
        "addr:district": "Bengaluru Urban",
        "addr:full": "# 68, 1st Floor, 100 Ft. Ring Road, 2nd Stage, B.T.M. Layout",
        "addr:postcode": "560076",
        "addr:state": "Karnataka",
        "amenity": "clinic",
        "name": "Vinayaka Nethralaya",
        "name:kn": "ವಿನಾಯಕ ನೇತ್ರಾಲಯ",
        "source": "OpenGovernmentData"
      }
    },
    {
      "type": "node",
      "id": 7164330973,
      "lat": 12.9159432,
      "lon": 77.6192416,
      "tags": {
        "amenity": "bank",
        "brand": "HDFC Bank",
        "brand:wikidata": "Q631047",
        "name": "HDFC Bank",
        "short_name": "HDFC"
      }
    },
    {
      "type": "node",
      "id": 7164333857,
      "lat": 12.9162833,
      "lon": 77.6132641,
      "tags": {
        "amenity": "restaurant",
        "name": "Couchpotato"
      }
    },
    {
      "type": "node",
      "id": 7164351231,
      "lat": 12.9162158,
      "lon": 77.6154165,
      "tags": {
        "amenity": "pharmacy",
        "name": "Sudharsan Medicals"
      }
    },
    {
      "type": "node",
      "id": 7164353729,
      "lat": 12.9140735,
      "lon": 77.6109398,
      "tags": {
        "amenity": "bank",
        "atm": "yes",
        "brand": "Canara Bank",
        "brand:en": "Canara Bank",
        "brand:hi": "केनरा बैंक",
        "brand:kn": "ಕೆನರಾ ಬ್ಯಾಂಕ್",
        "brand:pa": "ਕੇਨਰਾ ਬੈਂਕ",
        "brand:pnb": "کینرا بینک",
        "brand:ur": "کینرا بینک",
        "brand:wikidata": "Q2003777",
        "brand:wikipedia": "en:Canara Bank",
        "brand:wikipedia:pa": "ਕੇਨਰਾ ਬੈਂਕ",
        "name": "Canara Bank",
        "name:en": "Canara Bank",
        "name:hi": "केनरा बैंक",
        "name:kn": "ಕೆನರಾ ಬ್ಯಾಂಕ್",
        "name:pa": "ਕੇਨਰਾ ਬੈਂਕ",
        "name:pnb": "کینرا بینک",
        "name:ur": "کینرا بینک"
      }
    },
    {
      "type": "node",
      "id": 7389053966,
      "lat": 12.912531,
      "lon": 77.6061644,
      "tags": {
        "amenity": "events_venue",
        "check_date": "2023-10-15",
        "name": "IWWA",
        "wheelchair": "no"
      }
    },
    {
      "type": "node",
      "id": 7389053980,
      "lat": 12.9123595,
      "lon": 77.6067215,
      "tags": {
        "amenity": "clinic",
        "healthcare": "clinic",
        "healthcare:speciality": "orthopaedics",
        "name": "Ortho Centre Clinic",
        "opening_hours": "Mo-Sa 09:00-21:00"
      }
    },
    {
      "type": "node",
      "id": 7389053981,
      "lat": 12.9125653,
      "lon": 77.6090271,
      "tags": {
        "amenity": "kindergarten",
        "name": "first step",
        "preschool": "yes"
      }
    },
    {
      "type": "node",
      "id": 7389053982,
      "lat": 12.9136164,
      "lon": 77.607218,
      "tags": {
        "name": "Disney Bakery",
        "opening_hours": "PH,Mo-Su 07:00-23:00",
        "shop": "bakery"
      }
    },
    {
      "type": "node",
      "id": 7389053983,
      "lat": 12.9138357,
      "lon": 77.607426,
      "tags": {
        "amenity": "pharmacy",
        "dispensing": "yes",
        "healthcare": "pharmacy",
        "name": "Nandi Pharma",
        "opening_hours": "PH,Mo-Su 10:00-22:00"
      }
    },
    {
      "type": "node",
      "id": 7389053984,
      "lat": 12.9138331,
      "lon": 77.6072707,
      "tags": {
        "amenity": "dentist",
        "healthcare": "dentist",
        "name": "Srinivasa Dental Clinic",
        "opening_hours": "Mo-Sa 10:00-14:00,17:00-21:00; Su 10:00-14:00",
        "wheelchair": "yes"
      }
    },
    {
      "type": "node",
      "id": 7389069385,
      "lat": 12.9126033,
      "lon": 77.6064243,
      "tags": {
        "name": "Health & Glow",
        "opening_hours": "PH,Mo-Su 10:00-22:00",
        "shop": "cosmetics"
      }
    },
    {
      "type": "node",
      "id": 7389069386,
      "lat": 12.9135395,
      "lon": 77.6065388,
      "tags": {
        "amenity": "restaurant",
        "cuisine": "indian",
        "name": "Dhansagar",
        "opening_hours": "Mo-Su 10:00-21:00"
      }
    },
    {
      "type": "node",
      "id": 7389069387,
      "lat": 12.9135912,
      "lon": 77.6067733,
      "tags": {
        "name": "Shri Shirdi Sai Stationery",
        "opening_hours": "Mo-Su 09:00-21:00",
        "shop": "stationery",
        "wheelchair": "limited"
      }
    },
    {
      "type": "node",
      "id": 7389069388,
      "lat": 12.9137418,
      "lon": 77.6063534,
      "tags": {
        "addr:floor": "G",
        "check_date": "2023-12-27",
        "internet_access": "no",
        "level": "0",
        "name": "Poorvika Mobiles",
        "opening_hours": "Mo-Su 09:00-21:00",
        "payment:cash": "yes",
        "payment:credit_cards": "yes",
        "payment:debit_cards": "yes",
        "shop": "mobile_phone",
        "wheelchair": "limited"
      }
    },
    {
      "type": "node",
      "id": 7389069389,
      "lat": 12.9137202,
      "lon": 77.6056646,
      "tags": {
        "name": "Bhati Electricals",
        "opening_hours": "PH,Mo-Su 10:00-21:00",
        "shop": "electrical"
      }
    },
    {
      "type": "node",
      "id": 7389069390,
      "lat": 12.9134377,
      "lon": 77.6049873,
      "tags": {
        "addr:floor": "G",
        "addr:postcode": "560076",
        "air_conditioning": "yes",
        "check_date": "2023-12-27",
        "currency:INR": "yes",
        "internet_access": "no",
        "level": "0",
        "name": "Pet Choice",
        "opening_hours": "Mo-Su 10:00-21:00",
        "payment:cash": "yes",
        "payment:credit_cards": "yes",
        "payment:debit_cards": "yes",
        "second_hand": "no",
        "shop": "pet",
        "source": "local knowledge",
        "stroller": "limited",
        "toilets": "no",
        "toilets:wheelchair": "no",
        "wheelchair": "limited"
      }
    },
    {
      "type": "node",
      "id": 7389069391,
      "lat": 12.9134456,
      "lon": 77.6051098,
      "tags": {
        "addr:floor": "G",
        "addr:postcode": "560076",
        "amenity": "pharmacy",
        "brand": "MedPlus",
        "brand:wikidata": "Q65684234",
        "brand:wikipedia": "en:MedPlus",
        "check_date": "2023-12-27",
        "dispensing": "yes",
        "drive_through": "no",
        "healthcare": "pharmacy",
        "internet_access": "no",
        "level": "0",
        "name": "MedPlus",
        "opening_hours": "PH,Mo-Su 08:00-23:00",
        "payment:cash": "yes",
        "payment:credit_cards": "yes",
        "payment:debit_cards": "yes",
        "source": "local knowledge",
        "wheelchair": "limited"
      }
    },
    {
      "type": "node",
      "id": 7579924707,
      "lat": 12.9147481,
      "lon": 77.6063204,
      "tags": {
        "addr:district": "Bengaluru Urban",
        "addr:full": "BTM Layout, Bengaluru",
        "addr:postcode": "560076",
        "addr:state": "Karnataka",
        "amenity": "clinic",
        "healthcare": "clinic",
        "name": "Daivik Clinic",
        "source": "Local Knowledge"
      }
    },
    {
      "type": "node",
      "id": 7579924720,
      "lat": 12.913031,
      "lon": 77.6034614,
      "tags": {
        "addr:district": "Bengaluru Urban",
        "addr:full": "Bengaluru",
        "addr:postcode": "560076",
        "addr:state": "Karnataka",
        "amenity": "clinic",
        "name": "Disney Family Clinic",
        "source": "Local Knowledge"
      }
    },
    {
      "type": "node",
      "id": 7579924727,
      "lat": 12.9140497,
      "lon": 77.613406,
      "tags": {
        "addr:district": "Bengaluru Urban",
        "addr:full": "Kuvempu Nagar, BTM Stage, Bengaluru",
        "addr:postcode": "560076",
        "addr:state": "Karnataka",
        "amenity": "dentist",
        "name": "Modi Dental Care & Implant Centre",
        "source": "Local Knowledge"
      }
    },
    {
      "type": "node",
      "id": 7579924729,
      "lat": 12.9121632,
      "lon": 77.6098276,
      "tags": {
        "addr:district": "Bengaluru Urban",
        "addr:full": "Mahadeshwara Nagar, BTM Layout, Bengaluru",
        "addr:postcode": "560076",
        "addr:state": "Karnataka",
        "amenity": "hospital",
        "name": "Shree Vaishnavi Heart Centre and Multi Speciality",
        "source": "Local Knowledge"
      }
    },
    {
      "type": "node",
      "id": 7579924731,
      "lat": 12.9136262,
      "lon": 77.6045369,
      "tags": {
        "addr:district": "Bengaluru Urban",
        "addr:floor": "3",
        "addr:full": "BTM, Bengaluru",
        "addr:postcode": "560076",
        "addr:state": "Karnataka",
        "amenity": "hospital",
        "check_date": "2023-12-27",
        "emergency": "no",
        "healthcare": "hospital",
        "internet_access": "no",
        "level": "3",
        "name": "Marigold Hospital",
        "operator:type": "private",
        "payment:cash": "yes",
        "payment:credit_cards": "yes",
        "payment:debit_cards": "yes",
        "source": "Local Knowledge",
        "wheelchair": "limited"
      }
    },
    {
      "type": "node",
      "id": 7579924741,
      "lat": 12.9138294,
      "lon": 77.6070373,
      "tags": {
        "addr:district": "Bengaluru Urban",
        "addr:full": "Mico Layout, Bengaluru",
        "addr:postcode": "560076",
        "addr:state": "Karnataka",
        "amenity": "clinic",
        "healthcare": "clinic",
        "name": "Nisa Multi Speciality Clinics",
        "opening_hours": "Mo-Sa 10:00-22:00",
        "source": "Local Knowledge"
      }
    },
    {
      "type": "node",
      "id": 7579924753,
      "lat": 12.9159348,
      "lon": 77.6034098,
      "tags": {
        "addr:district": "Bengaluru Urban",
        "addr:full": "Bannerghatta Main Road, BTM, Bengaluru",
        "addr:postcode": "560076",
        "addr:state": "Karnataka",
        "amenity": "hospital",
        "healthcare": "hospital",
        "name": "Pothys Hospital",
        "source": "Local Knowledge"
      }
    },
    {
      "type": "node",
      "id": 7579924769,
      "lat": 12.912832,
      "lon": 77.605728,
      "tags": {
        "addr:district": "Bengaluru Urban",
        "addr:full": "BTM Layout, Bengaluru",
        "addr:postcode": "560076",
        "addr:state": "Karnataka",
        "amenity": "clinic",
        "healthcare": "clinic",
        "name": "Anugraha Clinic",
        "source": "Local Knowledge"
      }
    },
    {
      "type": "node",
      "id": 9102882915,
      "lat": 12.9141809,
      "lon": 77.6062896,
      "tags": {
        "amenity": "restaurant",
        "bar": "no",
        "brand": "Pizza Hut",
        "brand:wikidata": "Q191615",
        "brand:wikipedia": "en:Pizza Hut",
        "brewery": "no",
        "cuisine": "pizza",
        "delivery": "yes",
        "highchair": "yes",
        "microbrewery": "no",
        "name": "Pizza Hut",
        "opening_hours": "Mo-Su 10:00-21:00",
        "outdoor_seating": "no",
        "payment:cash": "yes",
        "payment:credit_cards": "yes",
        "payment:debit_cards": "yes",
        "reservation": "no",
        "smoking": "no",
        "source": "local knowledge",
        "takeaway": "yes",
        "toilets": "yes",
        "toilets:wheelchair": "limited",
        "wheelchair": "limited"
      }
    },
    {
      "type": "node",
      "id": 9102898264,
      "lat": 12.9140433,
      "lon": 77.6101988,
      "tags": {
        "amenity": "fast_food",
        "check_date": "2023-10-19",
        "name": "Pathan Sir",
        "opening_hours": "Mo-Su 09:00-21:00",
        "wheelchair": "yes"
      }
    },
    {
      "type": "node",
      "id": 9102904801,
      "lat": 12.913395,
      "lon": 77.604436,
      "tags": {
        "amenity": "atm",
        "brand": "HDFC Bank",
        "brand:wikidata": "Q631047",
        "brand:wikipedia": "en:HDFC Bank",
        "name": "HDFC Bank",
        "name:kn": "ಎಚ್ ಡಿ ಎಫ್ ಸಿ",
        "operator": "HDFC Bank",
        "operator:wikidata": "Q631047",
        "operator:wikipedia": "en:HDFC Bank",
        "short_name": "HDFC"
      }
    },
    {
      "type": "node",
      "id": 9102904802,
      "lat": 12.913395,
      "lon": 77.6044106,
      "tags": {
        "amenity": "bank",
        "brand": "HDFC Bank",
        "brand:wikidata": "Q631047",
        "brand:wikipedia": "en:HDFC Bank",
        "name": "HDFC Bank",
        "name:kn": "ಎಚ್ ಡಿ ಎಫ್ ಸಿ",
        "opening_hours": "Mo-Sa 10:00-16:00",
        "short_name": "HDFC"
      }
    },
    {
      "type": "node",
      "id": 9102921808,
      "lat": 12.9140054,
      "lon": 77.6095041,
      "tags": {
        "amenity": "fast_food",
        "brand": "Domino's",
        "brand:ks": "ڈومینوز",
        "brand:pa": "ਡੋਮੀਨੋਜ਼",
        "brand:ur": "ڈومینوز",
        "brand:wikidata": "Q839466",
        "brand:wikipedia": "en:Domino's Pizza",
        "cuisine": "pizza",
        "name": "Domino's",
        "name:ks": "ڈومینوز",
        "name:pa": "ਡੋਮੀਨੋਜ਼",
        "name:ur": "ڈومینوز",
        "opening_hours": "PH,Mo-Su 10:30-22:00",
        "takeaway": "yes"
      }
    },
    {
      "type": "node",
      "id": 9103711349,
      "lat": 12.9157468,
      "lon": 77.6102135,
      "tags": {
        "check_date": "2023-10-15",
        "name": "Chai Days",
        "opening_hours": "Mo-Su 09:00-21:00",
        "shop": "tea"
      }
    },
    {
      "type": "node",
      "id": 9103721184,
      "lat": 12.9157801,
      "lon": 77.6102665,
      "tags": {
        "amenity": "ice_cream",
        "name": "Frozen Bottle"
      }
    },
    {
      "type": "node",
      "id": 9103732101,
      "lat": 12.9157629,
      "lon": 77.6103253,
      "tags": {
        "brand": "cult.fit",
        "brand:wikidata": "Q121289250",
        "leisure": "fitness_centre",
        "name": "cult.fit"
      }
    },
    {
      "type": "node",
      "id": 9107018465,
      "lat": 12.914082,
      "lon": 77.6105925,
      "tags": {
        "amenity": "restaurant",
        "name": "99 Varieties Dosa",
        "opening_hours": "Mo-Su 10:30-21:00",
        "wheelchair": "limited"
      }
    },
    {
      "type": "node",
      "id": 9119109730,
      "lat": 12.9137356,
      "lon": 77.6083728,
      "tags": {
        "name": "Keventers",
        "shop": "pastry"
      }
    },
    {
      "type": "node",
      "id": 9119109731,
      "lat": 12.9137347,
      "lon": 77.6084413,
      "tags": {
        "name": "Healthkart",
        "shop": "nutrition_supplements"
      }
    },
    {
      "type": "node",
      "id": 9121624210,
      "lat": 12.9137312,
      "lon": 77.6085315,
      "tags": {
        "brand": "Samsung",
        "brand:wikidata": "Q20718",
        "brand:wikipedia": "en:Samsung Electronics",
        "name": "Samsung SmartCafe",
        "shop": "mobile_phone"
      }
    },
    {
      "type": "node",
      "id": 9121624211,
      "lat": 12.9136723,
      "lon": 77.6085836,
      "tags": {
        "dance:style": "zumba",
        "dance:teaching": "yes",
        "leisure": "dance",
        "name": "Rami's Dance Inc"
      }
    },
    {
      "type": "node",
      "id": 9121624212,
      "lat": 12.9137363,
      "lon": 77.6085865,
      "tags": {
        "name": "Titan World",
        "shop": "optician"
      }
    },
    {
      "type": "node",
      "id": 9121624213,
      "lat": 12.9136989,
      "lon": 77.6085688,
      "tags": {
        "name": "YLG",
        "shop": "beauty"
      }
    },
    {
      "type": "node",
      "id": 9123478831,
      "lat": 12.9137513,
      "lon": 77.6087148,
      "tags": {
        "check_date": "2023-12-27",
        "internet_access": "no",
        "level": "0",
        "name": "Wildcraft",
        "payment:cash": "yes",
        "payment:credit_cards": "yes",
        "payment:debit_cards": "yes",
        "shop": "outdoor",
        "wheelchair": "no"
      }
    },
    {
      "type": "node",
      "id": 9123478832,
      "lat": 12.9137533,
      "lon": 77.6089023,
      "tags": {
        "name": "Dry Fruit Gallery",
        "opening_hours": "PH,Mo-Su 10:00-22:00",
        "shop": "health_food"
      }
    },
    {
      "type": "node",
      "id": 9123478833,
      "lat": 12.9137433,
      "lon": 77.6087482,
      "tags": {
        "air_conditioning": "no",
        "amenity": "bank",
        "atm": "yes",
        "brand": "Kotak Mahindra Bank",
        "brand:wikidata": "Q2040404",
        "check_date": "2023-12-27",
        "currency:INR": "yes",
        "drive_through": "no",
        "internet_access": "no",
        "level": "0",
        "name": "Kotak Mahindra Bank",
        "name:kn": "ಕೋಟಕ್ ಮಹಿಂದ್ರ ಬ್ಯಾಂಕ್",
        "payment:cash": "yes",
        "payment:credit_cards": "yes",
        "payment:debit_cards": "yes",
        "source": "local knowledge",
        "wheelchair": "no"
      }
    },
    {
      "type": "node",
      "id": 9123488844,
      "lat": 12.9136528,
      "lon": 77.6075368,
      "tags": {
        "name": "Eye World Opticians",
        "opening_hours": "Mo-Su 10:30-21:00",
        "shop": "optician",
        "wheelchair": "limited"
      }
    },
    {
      "type": "node",
      "id": 9130871853,
      "lat": 12.9132521,
      "lon": 77.60992,
      "tags": {
        "check_date": "2023-10-15",
        "name": "Wellness Forever",
        "opening_hours": "24/7",
        "shop": "chemist"
      }
    },
    {
      "type": "node",
      "id": 9159982974,
      "lat": 12.9133887,
      "lon": 77.6043111,
      "tags": {
        "amenity": "bank",
        "brand": "State Bank of India",
        "brand:wikidata": "Q1340361",
        "brand:wikipedia": "en:State Bank of India",
        "name": "State Bank of India",
        "opening_hours": "Mo-Sa 11:00-16:00",
        "short_name": "SBI"
      }
    },
    {
      "type": "node",
      "id": 9159982975,
      "lat": 12.9133861,
      "lon": 77.6043326,
      "tags": {
        "amenity": "atm",
        "brand": "State Bank of India",
        "brand:wikidata": "Q1340361",
        "brand:wikipedia": "en:State Bank of India",
        "name": "State Bank of India",
        "operator": "State Bank of India",
        "operator:wikidata": "Q1340361",
        "operator:wikipedia": "en:State Bank of India",
        "short_name": "SBI"
      }
    },
    {
      "type": "node",
      "id": 9159993157,
      "lat": 12.9137661,
      "lon": 77.6088434,
      "tags": {
        "name": "Cell Kafe",
        "opening_hours": "PH,Mo-Su 10:30-21:30",
        "shop": "mobile_phone"
      }
    },
    {
      "type": "node",
      "id": 9159993158,
      "lat": 12.9139792,
      "lon": 77.6088233,
      "tags": {
        "brand": "Lenskart",
        "brand:wikidata": "Q17068753",
        "name": "Lenskart",
        "opening_hours": "Mo-Su 10:00-21:00",
        "shop": "optician"
      }
    },
    {
      "type": "node",
      "id": 9159993159,
      "lat": 12.9139857,
      "lon": 77.6088608,
      "tags": {
        "amenity": "bank",
        "brand": "RBL Bank",
        "brand:wikidata": "Q13120398",
        "brand:wikipedia": "en:RBL Bank",
        "name": "RBL Bank"
      }
    },
    {
      "type": "node",
      "id": 9165209208,
      "lat": 12.9138932,
      "lon": 77.6060959,
      "tags": {
        "addr:floor": "G",
        "air_conditioning": "no",
        "amenity": "restaurant",
        "bar": "no",
        "brewery": "no",
        "check_date": "2023-12-27",
        "cuisine": "indian;regional",
        "delivery": "yes",
        "diet:vegetarian": "yes",
        "highchair": "yes",
        "internet_access": "no",
        "level": "0",
        "microbrewery": "no",
        "name": "Sri Krishna Sagar",
        "opening_hours": "PH,Mo-Su 09:00-22:00",
        "outdoor_seating": "no",
        "payment:cash": "yes",
        "payment:credit_cards": "yes",
        "payment:debit_cards": "yes",
        "reservation": "no",
        "smoking": "no",
        "source": "local knowledge",
        "takeaway": "yes",
        "toilets": "no",
        "toilets:wheelchair": "no",
        "wheelchair": "limited"
      }
    },
    {
      "type": "node",
      "id": 9165273183,
      "lat": 12.9136612,
      "lon": 77.6076138,
      "tags": {
        "amenity": "pharmacy",
        "healthcare": "pharmacy",
        "name": "Om Medicals",
        "opening_hours": "PH,Mo-Su 10:00-22:00"
      }
    },
    {
      "type": "node",
      "id": 9165273184,
      "lat": 12.9136456,
      "lon": 77.6073952,
      "tags": {
        "amenity": "atm",
        "brand": "IndusInd Bank",
        "brand:wikidata": "Q2040323",
        "brand:wikipedia": "en:IndusInd Bank",
        "check_date": "2023-10-15",
        "name": "IndusInd Bank",
        "name:kn": "ಇಂಡಸ್ಇಂಡ್",
        "operator": "IndusInd Bank",
        "operator:wikidata": "Q2040323",
        "operator:wikipedia": "en:IndusInd Bank"
      }
    },
    {
      "type": "node",
      "id": 9165273185,
      "lat": 12.9136469,
      "lon": 77.6073617,
      "tags": {
        "name": "Star Mobiles",
        "opening_hours": "Mo-Su 10:00-21:00",
        "shop": "mobile_phone"
      }
    },
    {
      "type": "node",
      "id": 9165273190,
      "lat": 12.9138125,
      "lon": 77.6067629,
      "tags": {
        "name": "Herbal Ambience",
        "opening_hours": "Mo-Su 10:30-21:00",
        "shop": "beauty"
      }
    },
    {
      "type": "node",
      "id": 9165337880,
      "lat": 12.9136582,
      "lon": 77.610198,
      "tags": {
        "amenity": "restaurant",
        "check_date": "2023-10-15",
        "cuisine": "indian",
        "name": "Laddoos",
        "opening_hours": "PH,Mo-Su 09:30-21:30",
        "wheelchair": "no"
      }
    },
    {
      "type": "node",
      "id": 9165337881,
      "lat": 12.9135458,
      "lon": 77.6101845,
      "tags": {
        "amenity": "cafe",
        "brand": "Chai Point",
        "brand:wikidata": "Q28173415",
        "cuisine": "coffee_shop",
        "name": "Chai Point",
        "opening_hours": "PH,Mo-Su 09:30-21:30",
        "takeaway": "yes",
        "wheelchair": "no"
      }
    },
    {
      "type": "node",
      "id": 9165337882,
      "lat": 12.9134635,
      "lon": 77.6101698,
      "tags": {
        "amenity": "bank",
        "atm": "yes",
        "brand": "ICICI Bank",
        "brand:wikidata": "Q1653258",
        "brand:wikipedia": "en:ICICI Bank",
        "check_date": "2023-10-15",
        "name": "ICICI Bank",
        "name:kn": "ಐಸಿಐಸಿಐ ಬ್ಯಾಂಕು",
        "opening_hours": "Mo-Sa 09:30-16:30",
        "short_name": "ICICI"
      }
    },
    {
      "type": "node",
      "id": 9165337883,
      "lat": 12.91347,
      "lon": 77.6099391,
      "tags": {
        "check_date": "2023-10-15",
        "name": "Amma's Pastries",
        "opening_hours": "PH,Mo-Su 09:30-22:00",
        "shop": "pastry"
      }
    },
    {
      "type": "node",
      "id": 9173864225,
      "lat": 12.9126995,
      "lon": 77.6064081,
      "tags": {
        "amenity": "bank",
        "atm": "yes",
        "brand": "Indian Bank",
        "brand:wikidata": "Q2003789",
        "name": "Indian Bank",
        "opening_hours": "Mo-Sa 11:00-17:00"
      }
    },
    {
      "type": "node",
      "id": 9173864227,
      "lat": 12.9135009,
      "lon": 77.6099273,
      "tags": {
        "check_date": "2023-10-19",
        "dance:teaching": "yes",
        "leisure": "dance",
        "name": "Hello Dance"
      }
    },
    {
      "type": "node",
      "id": 9173864228,
      "lat": 12.9136329,
      "lon": 77.6099505,
      "tags": {
        "name": "Asus",
        "opening_hours": "Mo-Su 10:00-22:00",
        "shop": "computer"
      }
    },
    {
      "type": "node",
      "id": 9173864230,
      "lat": 12.9134831,
      "lon": 77.6098827,
      "tags": {
        "name": "Wink Unisex Salon",
        "opening_hours": "Mo-Su 10:00-22:00",
        "shop": "beauty"
      }
    },
    {
      "type": "node",
      "id": 9174380012,
      "lat": 12.9136459,
      "lon": 77.6049936,
      "tags": {
        "addr:housenumber": "246",
        "addr:street": "7th Cross Road",
        "amenity": "fast_food",
        "name": "Eat Again",
        "opening_hours": "Mo-Su 11:00-22:00"
      }
    },
    {
      "type": "node",
      "id": 9174380013,
      "lat": 12.9134524,
      "lon": 77.605455,
      "tags": {
        "amenity": "bank",
        "brand": "Bank of Maharashtra",
        "brand:wikidata": "Q2004304",
        "brand:wikipedia": "en:Bank of Maharashtra",
        "name": "Bank of Maharashtra"
      }
    },
    {
      "type": "node",
      "id": 9174433688,
      "lat": 12.9134224,
      "lon": 77.6048622,
      "tags": {
        "addr:housenumber": "452",
        "addr:street": "7th Cross Road",
        "amenity": "school",
        "name": "Sambhavam - Centre for Autism"
      }
    },
    {
      "type": "node",
      "id": 9712714914,
      "lat": 12.9154241,
      "lon": 77.609941,
      "tags": {
        "name": "Preethi General Stores",
        "opening_hours": "PH,Mo-Su 08:00-22:00",
        "shop": "general"
      }
    },
    {
      "type": "node",
      "id": 9795169359,
      "lat": 12.9147553,
      "lon": 77.6102465,
      "tags": {
        "addr:housenumber": "942",
        "addr:street": "16th Main Road",
        "alt_name": "Kentucky Fried Chicken",
        "alt_name:en": "Kentucky Fried Chicken",
        "alt_name:hi": "केंटुकी फ्राइड चिकन",
        "alt_name:pa": "ਕੈਂਟੁਕੀ ਫ੍ਰਾਈਡ ਚਿਕਨ",
        "alt_name:pnb": "کینٹکی فرائیڈ چکن",
        "alt_name:ur": "کینٹکی فرائیڈ چکن",
        "amenity": "fast_food",
        "brand": "KFC",
        "brand:en": "KFC",
        "brand:hi": "केएफसी",
        "brand:pa": "ਕੇਐਫਸੀ",
        "brand:pnb": "کے ایف سی",
        "brand:ur": "کے ایف سی",
        "brand:wikidata": "Q524757",
        "cuisine": "chicken",
        "name": "KFC",
        "name:en": "KFC",
        "name:hi": "केएफसी",
        "name:pa": "ਕੇਐਫਸੀ",
        "name:pnb": "کے ایف سی",
        "name:ur": "کے ایف سی",
        "opening_hours": "PH,Mo-Su 10:00-22:00",
        "takeaway": "yes"
      }
    },
    {
      "type": "node",
      "id": 9795169360,
      "lat": 12.9149903,
      "lon": 77.6099319,
      "tags": {
        "addr:housenumber": "782",
        "addr:street": "16th Main Road",
        "brand": "Bata",
        "brand:wikidata": "Q688082",
        "name": "Bata",
        "name:kn": "ಬಾಟಾ",
        "opening_hours": "PH,Mo-Su 10:00-21:30",
        "shop": "shoes"
      }
    },
    {
      "type": "node",
      "id": 9903783534,
      "lat": 12.9137929,
      "lon": 77.6095504,
      "tags": {
        "level": "0",
        "name": "Acer mall",
        "shop": "computer"
      }
    },
    {
      "type": "node",
      "id": 10302703776,
      "lat": 12.9140256,
      "lon": 77.6090446,
      "tags": {
        "amenity": "fast_food",
        "brand": "Popeyes",
        "brand:wikidata": "Q1330910",
        "brand:wikipedia": "en:Popeyes",
        "cuisine": "chicken",
        "delivery": "yes",
        "name": "Popeyes",
        "official_name": "Popeyes Louisiana Kitchen",
        "takeaway": "yes",
        "website": "https://www.popeyes.in/"
      }
    },
    {
      "type": "node",
      "id": 10763275239,
      "lat": 12.9154635,
      "lon": 77.6158909,
      "tags": {
        "amenity": "charging_station",
        "fee": "yes",
        "name": "Magenta ChargeGrid Charging Station",
        "operator": "Magenta Group"
      }
    },
    {
      "type": "node",
      "id": 10853180819,
      "lat": 12.9163903,
      "lon": 77.6042891,
      "tags": {
        "name": "Bounce Infinity",
        "operator": "Bounce",
        "shop": "motorcycle"
      }
    },
    {
      "type": "node",
      "id": 10872824029,
      "lat": 12.9160204,
      "lon": 77.6198418,
      "tags": {
        "amenity": "bank",
        "atm": "yes",
        "brand": "Bank of Baroda",
        "brand:wikidata": "Q2003797",
        "name": "Bank of Baroda",
        "operator": "Bank of Baroda"
      }
    },
    {
      "type": "node",
      "id": 11275764774,
      "lat": 12.9158497,
      "lon": 77.6102464,
      "tags": {
        "addr:housenumber": "114",
        "addr:street": "16th Main Road",
        "amenity": "fast_food",
        "brand": "McDonald's",
        "brand:pa": "ਮੈਕਡੋਨਲਡ’ਜ਼",
        "brand:ur": "مکڈونلڈز",
        "brand:wikidata": "Q38076",
        "brand:wikipedia": "en:McDonald's",
        "brand:wikipedia:pa": "ਮੈਕਡੋਨਲਡ’ਜ਼",
        "brand:wikipedia:ur": "مکڈونلڈز",
        "cuisine": "burger",
        "delivery": "no",
        "name": "McDonald's",
        "name:kn": "ಮ್ಯಾಕ್‌ಡೊನಾಲ್ಡ್ಸ್",
        "name:pa": "ਮੈਕਡੋਨਲਡ’ਜ਼",
        "name:ur": "مکڈونلڈز",
        "opening_hours": "Mo-Su 09:00-01:00",
        "outdoor_seating": "yes",
        "phone": "+91 089283 04189",
        "smoking": "no",
        "takeaway": "yes"
      }
    },
    {
      "type": "node",
      "id": 11279825158,
      "lat": 12.9163105,
      "lon": 77.6110455,
      "tags": {
        "amenity": "bank",
        "atm": "yes",
        "brand": "State Bank of India",
        "brand:wikidata": "Q1340361",
        "name": "State Bank of India",
        "operator": "State Bank of India",
        "short_name": "SBI"
      }
    },
    {
      "type": "node",
      "id": 11279825159,
      "lat": 12.9163236,
      "lon": 77.6109128,
      "tags": {
        "amenity": "bank",
        "atm": "yes",
        "brand": "Punjab National Bank",
        "brand:wikidata": "Q2743499",
        "name": "Punjab National Bank",
        "name:kn": "ಪಂಜಾಬ ರಾಷ್ಟ್ರೀಯ ಬ್ಯಾಂಕ್",
        "operator": "Punjab National Bank"
      }
    },
    {
      "type": "node",
      "id": 11279825160,
      "lat": 12.9163132,
      "lon": 77.6106405,
      "tags": {
        "amenity": "fast_food",
        "name": "Grand Wedding Biryani"
      }
    },
    {
      "type": "node",
      "id": 11279857280,
      "lat": 12.9164413,
      "lon": 77.6065113,
      "tags": {
        "name": "FB Cakes",
        "shop": "bakery"
      }
    },
    {
      "type": "node",
      "id": 11279857281,
      "lat": 12.916427,
      "lon": 77.605636,
      "tags": {
        "amenity": "fast_food",
        "check_date": "2023-11-28",
        "name": "Krishna Vaibhava"
      }
    },
    {
      "type": "node",
      "id": 11279857282,
      "lat": 12.9164334,
      "lon": 77.60502,
      "tags": {
        "amenity": "bank",
        "atm": "yes",
        "brand": "State Bank of India",
        "brand:wikidata": "Q1340361",
        "name": "State Bank of India",
        "operator": "State Bank of India",
        "short_name": "SBI"
      }
    },
    {
      "type": "node",
      "id": 11279857283,
      "lat": 12.9165105,
      "lon": 77.6024008,
      "tags": {
        "name": "Spyce Interiors",
        "shop": "interior_decoration"
      }
    },
    {
      "type": "node",
      "id": 11279857284,
      "lat": 12.9165053,
      "lon": 77.602323,
      "tags": {
        "amenity": "fast_food",
        "name": "SLV Juice & Chats"
      }
    },
    {
      "type": "node",
      "id": 11279857285,
      "lat": 12.9165053,
      "lon": 77.6020816,
      "tags": {
        "amenity": "cafe",
        "name": "Neena's Steakhouse and Burgers"
      }
    },
    {
      "type": "node",
      "id": 11287892327,
      "lat": 12.9144755,
      "lon": 77.6121745,
      "tags": {
        "amenity": "fast_food",
        "cuisine": "juice",
        "name": "Brahmalingeshwara Juice & Condiments"
      }
    },
    {
      "type": "node",
      "id": 11287892328,
      "lat": 12.914471,
      "lon": 77.6122033,
      "tags": {
        "name": "New Bright",
        "shop": "dry_cleaning"
      }
    },
    {
      "type": "node",
      "id": 11287892330,
      "lat": 12.914543,
      "lon": 77.6123719,
      "tags": {
        "name": "Bamul Nandini",
        "shop": "dairy"
      }
    },
    {
      "type": "node",
      "id": 11287892331,
      "lat": 12.9142984,
      "lon": 77.6126914,
      "tags": {
        "name": "Swaraj Supermarket",
        "shop": "supermarket"
      }
    },
    {
      "type": "node",
      "id": 11289658363,
      "lat": 12.9137332,
      "lon": 77.6058898,
      "tags": {
        "amenity": "fast_food",
        "cuisine": "burger",
        "name": "Biggies Burger"
      }
    },
    {
      "type": "node",
      "id": 11289658364,
      "lat": 12.9135135,
      "lon": 77.6058549,
      "tags": {
        "brand": "Peter England",
        "brand:wikidata": "Q19573665",
        "clothes": "men",
        "name": "Peter England",
        "shop": "clothes"
      }
    },
    {
      "type": "node",
      "id": 11289658365,
      "lat": 12.9136185,
      "lon": 77.6072771,
      "tags": {
        "level": "1",
        "name": "Glamvie Unisex Salon & Spa",
        "shop": "beauty"
      }
    },
    {
      "type": "node",
      "id": 11289658366,
      "lat": 12.9136273,
      "lon": 77.6073039,
      "tags": {
        "name": "Pigeon",
        "shop": "kitchen"
      }
    },
    {
      "type": "node",
      "id": 11290256855,
      "lat": 12.9137362,
      "lon": 77.605835,
      "tags": {
        "clothes": "men",
        "name": "Damensch",
        "shop": "clothes"
      }
    },
    {
      "type": "node",
      "id": 11290256856,
      "lat": 12.9132656,
      "lon": 77.6057264,
      "tags": {
        "amenity": "clinic",
        "healthcare": "clinic",
        "healthcare:speciality": "urology",
        "name": "Urocare Urology Superspeciality Clinic"
      }
    },
    {
      "type": "node",
      "id": 11290256857,
      "lat": 12.9135271,
      "lon": 77.6061385,
      "tags": {
        "amenity": "dentist",
        "healthcare": "dentist",
        "name": "Odont Dental Care"
      }
    },
    {
      "type": "node",
      "id": 11290256858,
      "lat": 12.9135339,
      "lon": 77.6061043,
      "tags": {
        "name": "The Badminton Shop",
        "shop": "sports"
      }
    },
    {
      "type": "node",
      "id": 11290801949,
      "lat": 12.9163241,
      "lon": 77.6121494,
      "tags": {
        "amenity": "bank",
        "atm": "yes",
        "brand": "Canara Bank",
        "brand:en": "Canara Bank",
        "brand:hi": "केनरा बैंक",
        "brand:kn": "ಕೆನರಾ ಬ್ಯಾಂಕ್",
        "brand:pa": "ਕੇਨਰਾ ਬੈਂਕ",
        "brand:pnb": "کینرا بینک",
        "brand:ur": "کینرا بینک",
        "brand:wikidata": "Q2003777",
        "name": "Canara Bank",
        "name:en": "Canara Bank",
        "name:hi": "केनरा बैंक",
        "name:kn": "ಕೆನರಾ ಬ್ಯಾಂಕ್",
        "name:pa": "ਕੇਨਰਾ ਬੈਂਕ",
        "name:pnb": "کینرا بینک",
        "name:ur": "کینرا بینک",
        "wheelchair": "no"
      }
    },
    {
      "type": "node",
      "id": 11290812039,
      "lat": 12.91302,
      "lon": 77.6037806,
      "tags": {
        "name": "Tip Top Dry Cleaners",
        "shop": "dry_cleaning"
      }
    },
    {
      "type": "node",
      "id": 11290812040,
      "lat": 12.9136069,
      "lon": 77.6040059,
      "tags": {
        "amenity": "restaurant",
        "cuisine": "indian",
        "name": "Roti Wala"
      }
    },
    {
      "type": "node",
      "id": 11290812041,
      "lat": 12.9136855,
      "lon": 77.6051806,
      "tags": {
        "amenity": "cafe",
        "name": "Third Wave Coffee"
      }
    },
    {
      "type": "node",
      "id": 11290812042,
      "lat": 12.913347,
      "lon": 77.606165,
      "tags": {
        "male": "yes",
        "name": "Traits Men's Salon",
        "shop": "hairdresser"
      }
    },
    {
      "type": "node",
      "id": 11290812043,
      "lat": 12.9133829,
      "lon": 77.606163,
      "tags": {
        "female": "yes",
        "name": "Traits Salon",
        "shop": "hairdresser"
      }
    },
    {
      "type": "node",
      "id": 11290812044,
      "lat": 12.9131319,
      "lon": 77.6061046,
      "tags": {
        "name": "Reborn Beauty",
        "shop": "beauty"
      }
    },
    {
      "type": "node",
      "id": 11290812045,
      "lat": 12.9127391,
      "lon": 77.6061817,
      "tags": {
        "leisure": "fitness_centre",
        "name": "Zoom Fitness"
      }
    },
    {
      "type": "node",
      "id": 11291647600,
      "lat": 12.9138966,
      "lon": 77.6079561,
      "tags": {
        "name": "Sangeetha Mobiles",
        "name:kn": "ಸಂಗೀತ",
        "shop": "mobile_phone",
        "wheelchair": "no"
      }
    },
    {
      "type": "node",
      "id": 11291647601,
      "lat": 12.9139064,
      "lon": 77.6081076,
      "tags": {
        "amenity": "dentist",
        "healthcare": "dentist",
        "name": "Cloud Dental Care",
        "wheelchair": "limited"
      }
    },
    {
      "type": "node",
      "id": 11291647602,
      "lat": 12.9137077,
      "lon": 77.608168,
      "tags": {
        "name": "Photo Circle",
        "shop": "photo"
      }
    },
    {
      "type": "node",
      "id": 11291647603,
      "lat": 12.9137938,
      "lon": 77.6090636,
      "tags": {
        "amenity": "restaurant",
        "check_date": "2023-12-27",
        "cuisine": "pizza",
        "internet_access": "no",
        "name": "La Pino'z Pizza",
        "payment:cash": "yes",
        "payment:credit_cards": "yes",
        "payment:debit_cards": "yes"
      }
    },
    {
      "type": "node",
      "id": 11291647604,
      "lat": 12.9137948,
      "lon": 77.6091679,
      "tags": {
        "name": "Korean Trendz",
        "shop": "bag"
      }
    },
    {
      "type": "node",
      "id": 11291647605,
      "lat": 12.9138241,
      "lon": 77.6093536,
      "tags": {
        "name": "Durga Condiments",
        "shop": "bakery"
      }
    },
    {
      "type": "node",
      "id": 11291647606,
      "lat": 12.9138293,
      "lon": 77.6098606,
      "tags": {
        "name": "Just Bake",
        "name:kn": "ಜಸ್ಟ್ ಬೇಕ್",
        "shop": "pastry"
      }
    },
    {
      "type": "node",
      "id": 11291647607,
      "lat": 12.914062,
      "lon": 77.6098881,
      "tags": {
        "brand": "Toni & Guy",
        "brand:wikidata": "Q324784",
        "female": "yes",
        "male": "yes",
        "name": "Toni & Guy",
        "shop": "hairdresser"
      }
    },
    {
      "type": "node",
      "id": 11291647608,
      "lat": 12.9137729,
      "lon": 77.6102012,
      "tags": {
        "name": "Spykar",
        "shop": "clothes"
      }
    },
    {
      "type": "node",
      "id": 11291647609,
      "lat": 12.9138744,
      "lon": 77.6102072,
      "tags": {
        "female": "yes",
        "level": "1",
        "male": "yes",
        "name": "Creative Scissors",
        "shop": "hairdresser"
      }
    },
    {
      "type": "node",
      "id": 11291647610,
      "lat": 12.9132142,
      "lon": 77.6101657,
      "tags": {
        "name": "Haryana Handloom House",
        "shop": "bed"
      }
    },
    {
      "type": "node",
      "id": 11291647611,
      "lat": 12.9130339,
      "lon": 77.6101804,
      "tags": {
        "amenity": "bank",
        "brand": "Bandhan Bank",
        "brand:wikidata": "Q19882235",
        "name": "Bandhan Bank"
      }
    },
    {
      "type": "node",
      "id": 11291647612,
      "lat": 12.9128391,
      "lon": 77.610165,
      "tags": {
        "amenity": "fast_food",
        "cuisine": "juice",
        "name": "Juice & Sandwich Center"
      }
    },
    {
      "type": "node",
      "id": 11291647613,
      "lat": 12.914043,
      "lon": 77.6098083,
      "tags": {
        "name": "HP World",
        "shop": "computer"
      }
    },
    {
      "type": "node",
      "id": 11291647616,
      "lat": 12.9140918,
      "lon": 77.6099262,
      "tags": {
        "dance:teaching": "yes",
        "leisure": "dance",
        "name": "Just Dance"
      }
    },
    {
      "type": "node",
      "id": 11291647617,
      "lat": 12.914221,
      "lon": 77.6099694,
      "tags": {
        "amenity": "bank",
        "brand": "IDFC First Bank",
        "brand:wikidata": "Q22031467",
        "name": "IDFC First Bank"
      }
    },
    {
      "type": "node",
      "id": 11291647618,
      "lat": 12.9141779,
      "lon": 77.609964,
      "tags": {
        "amenity": "ice_cream",
        "name": "nic",
        "wheelchair": "limited"
      }
    },
    {
      "type": "node",
      "id": 11291647619,
      "lat": 12.9137001,
      "lon": 77.608221,
      "tags": {
        "name": "Balaji Bakers & Sweets",
        "shop": "pastry"
      }
    },
    {
      "type": "node",
      "id": 11291647620,
      "lat": 12.9137004,
      "lon": 77.6082555,
      "tags": {
        "name": "Lenovo",
        "shop": "computer"
      }
    },
    {
      "type": "node",
      "id": 11291647621,
      "lat": 12.9126429,
      "lon": 77.6099166,
      "tags": {
        "amenity": "cafe",
        "name": "Kullad Cafe"
      }
    },
    {
      "type": "node",
      "id": 11291647622,
      "lat": 12.9138546,
      "lon": 77.6076296,
      "tags": {
        "name": "Maa Flowers",
        "shop": "florist"
      }
    },
    {
      "type": "node",
      "id": 11291647623,
      "lat": 12.913803,
      "lon": 77.6068471,
      "tags": {
        "name": "Pai Mobiles",
        "shop": "mobile_phone"
      }
    },
    {
      "type": "node",
      "id": 11291647624,
      "lat": 12.9136049,
      "lon": 77.606949,
      "tags": {
        "amenity": "pharmacy",
        "healthcare": "pharmacy",
        "name": "Life Care Medicals",
        "wheelchair": "no"
      }
    },
    {
      "type": "node",
      "id": 11291647625,
      "lat": 12.9136053,
      "lon": 77.6070457,
      "tags": {
        "amenity": "clinic",
        "healthcare": "clinic",
        "healthcare:speciality": "otolaryngology",
        "name": "Smruthi ENT Clinic & Multispeciality Centre"
      }
    },
    {
      "type": "node",
      "id": 11291647626,
      "lat": 12.9138202,
      "lon": 77.6096521,
      "tags": {
        "name": "Laptop Splutions",
        "repair": "yes",
        "shop": "computer"
      }
    },
    {
      "type": "node",
      "id": 11291647627,
      "lat": 12.9139319,
      "lon": 77.6104393,
      "tags": {
        "amenity": "cafe",
        "name": "Olive Street Food Cafe",
        "wheelchair": "no"
      }
    },
    {
      "type": "node",
      "id": 11292715483,
      "lat": 12.9123979,
      "lon": 77.6098929,
      "tags": {
        "amenity": "kindergarten",
        "name": "Kids Castle"
      }
    },
    {
      "type": "node",
      "id": 11296660893,
      "lat": 12.9134212,
      "lon": 77.6083447,
      "tags": {
        "addr:city": "Bangalore",
        "addr:district": "Bengaluru Urban",
        "addr:postcode": "560076",
        "addr:street": "11th Main Road",
        "amenity": "cafe",
        "cuisine": "indian",
        "name": "Puneri Katta"
      }
    },
    {
      "type": "node",
      "id": 11296908431,
      "lat": 12.9134477,
      "lon": 77.605435,
      "tags": {
        "amenity": "veterinary",
        "name": "BTM Vet Clinic"
      }
    },
    {
      "type": "node",
      "id": 11296908432,
      "lat": 12.9134261,
      "lon": 77.6050916,
      "tags": {
        "amenity": "clinic",
        "healthcare": "clinic",
        "healthcare:speciality": "orthopaedics",
        "name": "Bangalore Orthopaedic Clinic"
      }
    },
    {
      "type": "node",
      "id": 11309805435,
      "lat": 12.9163154,
      "lon": 77.6112036,
      "tags": {
        "amenity": "bank",
        "brand": "HDFC Bank",
        "brand:wikidata": "Q631047",
        "check_date": "2023-11-03",
        "name": "HDFC Bank",
        "name:kn": "ಎಚ್ ಡಿ ಎಫ್ ಸಿ",
        "short_name": "HDFC"
      }
    },
    {
      "type": "node",
      "id": 11309805442,
      "lat": 12.9159084,
      "lon": 77.6160669,
      "tags": {
        "amenity": "bar",
        "check_date": "2023-11-03",
        "name": "Stone Street Kitchen and Bar"
      }
    },
    {
      "type": "node",
      "id": 11309805444,
      "lat": 12.9162072,
      "lon": 77.6153538,
      "tags": {
        "check_date": "2023-11-03",
        "name": "Sri Eye Vision Care",
        "shop": "optician"
      }
    },
    {
      "type": "node",
      "id": 11309805445,
      "lat": 12.916303,
      "lon": 77.6135875,
      "tags": {
        "check_date": "2023-11-03",
        "name": "Dream Home",
        "shop": "furniture"
      }
    },
    {
      "type": "node",
      "id": 11309805446,
      "lat": 12.9162733,
      "lon": 77.612705,
      "tags": {
        "amenity": "restaurant",
        "check_date": "2023-11-03",
        "name": "Ni O Ven",
        "wheelchair": "limited"
      }
    },
    {
      "type": "node",
      "id": 11309805448,
      "lat": 12.9163162,
      "lon": 77.6113417,
      "tags": {
        "amenity": "restaurant",
        "check_date": "2023-11-03",
        "indoor_seating": "yes",
        "name": "Star Biryani",
        "outdoor_seating": "no"
      }
    },
    {
      "type": "node",
      "id": 11309805453,
      "lat": 12.9164443,
      "lon": 77.6063121,
      "tags": {
        "check_date": "2023-11-03",
        "name": "James Bond Dry Cleaners",
        "shop": "dry_cleaning"
      }
    },
    {
      "type": "node",
      "id": 11309805454,
      "lat": 12.9165006,
      "lon": 77.6028339,
      "tags": {
        "check_date": "2023-11-03",
        "name": "Rajkamal Jewelers",
        "shop": "jewelry"
      }
    },
    {
      "type": "node",
      "id": 11309805455,
      "lat": 12.9165,
      "lon": 77.6013893,
      "tags": {
        "check_date": "2023-11-03",
        "name": "Ola",
        "shop": "motorcycle"
      }
    },
    {
      "type": "node",
      "id": 11380741677,
      "lat": 12.9164343,
      "lon": 77.6028196,
      "tags": {
        "addr:floor": "1",
        "check_date": "2023-11-28",
        "level": "1",
        "name": "Hei Chords",
        "shop": "music"
      }
    },
    {
      "type": "node",
      "id": 11380741678,
      "lat": 12.9164362,
      "lon": 77.6058931,
      "tags": {
        "check_date": "2023-11-28",
        "name": "Looking Good Furniture",
        "shop": "furniture"
      }
    },
    {
      "type": "node",
      "id": 11380741679,
      "lat": 12.9163971,
      "lon": 77.6065089,
      "tags": {
        "amenity": "dentist",
        "check_date": "2024-01-20",
        "healthcare": "dentist",
        "name": "Dr. Braces and Faces"
      }
    },
    {
      "type": "node",
      "id": 11380741680,
      "lat": 12.9163019,
      "lon": 77.6114765,
      "tags": {
        "check_date": "2023-11-28",
        "name": "Synergy TVS",
        "shop": "motorcycle"
      }
    },
    {
      "type": "node",
      "id": 11380741681,
      "lat": 12.9163051,
      "lon": 77.6145829,
      "tags": {
        "check_date": "2023-11-28",
        "name": "tumbledry",
        "shop": "dry_cleaning"
      }
    },
    {
      "type": "node",
      "id": 11380741682,
      "lat": 12.9162969,
      "lon": 77.6145218,
      "tags": {
        "check_date": "2023-11-28",
        "name": "Machu Tattoo",
        "shop": "tattoo"
      }
    },
    {
      "type": "node",
      "id": 11380741683,
      "lat": 12.916284,
      "lon": 77.6146717,
      "tags": {
        "check_date": "2023-12-06",
        "name": "Laptop Zone",
        "shop": "computer"
      }
    },
    {
      "type": "node",
      "id": 11380741684,
      "lat": 12.9162502,
      "lon": 77.6148751,
      "tags": {
        "check_date": "2023-11-28",
        "name": "yf decor",
        "shop": "interior_decoration"
      }
    },
    {
      "type": "node",
      "id": 11380741685,
      "lat": 12.9159436,
      "lon": 77.6187925,
      "tags": {
        "check_date": "2023-11-28",
        "name": "Bengali Fun Foods",
        "shop": "confectionery"
      }
    },
    {
      "type": "node",
      "id": 11382935824,
      "lat": 12.9164212,
      "lon": 77.6045349,
      "tags": {
        "amenity": "place_of_worship",
        "check_date": "2023-11-29",
        "religion": "hindu"
      }
    },
    {
      "type": "node",
      "id": 11383003767,
      "lat": 12.9162177,
      "lon": 77.6153185,
      "tags": {
        "amenity": "fast_food",
        "check_date": "2023-11-29",
        "name": "Buddies Food Corner"
      }
    },
    {
      "type": "node",
      "id": 11383647393,
      "lat": 12.9157908,
      "lon": 77.6164119,
      "tags": {
        "amenity": "bench",
        "backrest": "no",
        "material": "stone",
        "seats": "2"
      }
    },
    {
      "type": "node",
      "id": 11383647394,
      "lat": 12.915783,
      "lon": 77.6164541,
      "tags": {
        "amenity": "bench",
        "backrest": "no",
        "material": "stone",
        "seats": "2"
      }
    },
    {
      "type": "node",
      "id": 11383647395,
      "lat": 12.9157872,
      "lon": 77.6163565,
      "tags": {
        "amenity": "bench",
        "backrest": "no",
        "material": "stone",
        "seats": "2"
      }
    },
    {
      "type": "node",
      "id": 11383647396,
      "lat": 12.9157842,
      "lon": 77.6163179,
      "tags": {
        "amenity": "bench",
        "backrest": "no",
        "material": "stone",
        "seats": "2"
      }
    },
    {
      "type": "node",
      "id": 11383647397,
      "lat": 12.9157878,
      "lon": 77.6162616,
      "tags": {
        "amenity": "bench",
        "backrest": "no",
        "material": "stone",
        "seats": "2"
      }
    },
    {
      "type": "node",
      "id": 11383647398,
      "lat": 12.9157875,
      "lon": 77.6162145,
      "tags": {
        "amenity": "bench",
        "backrest": "no",
        "material": "stone",
        "seats": "2"
      }
    },
    {
      "type": "node",
      "id": 11383647399,
      "lat": 12.9162505,
      "lon": 77.6150687,
      "tags": {
        "check_date": "2023-11-29",
        "name": "Paperkraft",
        "shop": "stationery"
      }
    },
    {
      "type": "node",
      "id": 11383658711,
      "lat": 12.9163043,
      "lon": 77.6125868,
      "tags": {
        "amenity": "bank",
        "check_date": "2023-11-29",
        "name": "The Karnataka State Co-operative Apex Bank Ltd.",
        "wheelchair": "no"
      }
    },
    {
      "type": "node",
      "id": 11393362102,
      "lat": 12.9165149,
      "lon": 77.603164,
      "tags": {
        "amenity": "bank",
        "brand": "CSB Bank",
        "brand:wikidata": "Q5053244",
        "check_date": "2023-12-04",
        "name": "CSB Bank",
        "official_name": "Catholic Syrian Bank"
      }
    },
    {
      "type": "node",
      "id": 11395345930,
      "lat": 12.9162407,
      "lon": 77.6151082,
      "tags": {
        "check_date": "2023-12-05",
        "name": "SRP Holidays",
        "shop": "travel_agency"
      }
    },
    {
      "type": "node",
      "id": 11397272614,
      "lat": 12.9162574,
      "lon": 77.6148293,
      "tags": {
        "amenity": "post_office",
        "brand": "Desk to Desk Courier & Cargo",
        "brand:short": "DTDC",
        "brand:wikidata": "Q55608802",
        "check_date": "2023-12-06",
        "operator": "Desk to Desk Courier & Cargo",
        "operator:short": "DTDC",
        "operator:wikidata": "Q55608802"
      }
    },
    {
      "type": "node",
      "id": 11422632434,
      "lat": 12.9139581,
      "lon": 77.6063704,
      "tags": {
        "addr:housenumber": "323",
        "addr:street": "7th Main Road",
        "name": "First Cry",
        "shop": "baby_goods"
      }
    },
    {
      "type": "node",
      "id": 11422632435,
      "lat": 12.9142238,
      "lon": 77.6102058,
      "tags": {
        "addr:housenumber": "947",
        "addr:street": "16th Main Road",
        "name": "Shristi Silks",
        "shop": "fabric"
      }
    },
    {
      "type": "node",
      "id": 11422632436,
      "lat": 12.9136824,
      "lon": 77.6079255,
      "tags": {
        "addr:housenumber": "731",
        "addr:street": "7th Cross Road",
        "name": "whami",
        "shop": "mobile_phone"
      }
    },
    {
      "type": "node",
      "id": 11422632437,
      "lat": 12.913472,
      "lon": 77.6057079,
      "tags": {
        "amenity": "bank",
        "atm": "yes",
        "brand": "Yes Bank",
        "brand:wikidata": "Q2040394",
        "name": "Yes Bank",
        "name:kn": "ಯಸ್ ಬ್ಯಾಂಕ್"
      }
    },
    {
      "type": "node",
      "id": 11422632438,
      "lat": 12.913557,
      "lon": 77.6102402,
      "tags": {
        "leisure": "fitness_centre",
        "level": "1",
        "name": "I-Fitness"
      }
    },
    {
      "type": "node",
      "id": 11422632439,
      "lat": 12.9136597,
      "lon": 77.610265,
      "tags": {
        "beauty": "hair;spa",
        "brand": "Naturals",
        "brand:wikidata": "Q125728261",
        "level": "1",
        "name": "Naturals",
        "shop": "beauty"
      }
    },
    {
      "type": "node",
      "id": 11464753886,
      "lat": 12.9155231,
      "lon": 77.6099553,
      "tags": {
        "addr:housenumber": "787",
        "addr:street": "16th Main Road",
        "name": "Preethi Bakery",
        "shop": "bakery"
      }
    },
    {
      "type": "node",
      "id": 11464753887,
      "lat": 12.9144358,
      "lon": 77.6102182,
      "tags": {
        "addr:housenumber": "945",
        "addr:street": "16th Main Road",
        "level": "1",
        "name": "Turning Heads",
        "shop": "beauty"
      }
    },
    {
      "type": "node",
      "id": 11464753888,
      "lat": 12.9146557,
      "lon": 77.6102354,
      "tags": {
        "addr:housenumber": "943",
        "addr:street": "16th Main Road",
        "name": "Tulasi",
        "shop": "clothes"
      }
    },
    {
      "type": "node",
      "id": 11464753889,
      "lat": 12.9145421,
      "lon": 77.6102193,
      "tags": {
        "addr:housenumber": "944",
        "addr:street": "16th Main Road",
        "name": "Titan Eye+",
        "shop": "optician"
      }
    },
    {
      "type": "node",
      "id": 11464753890,
      "lat": 12.9152038,
      "lon": 77.6102199,
      "tags": {
        "addr:housenumber": "938",
        "addr:street": "16th Main Road",
        "brand": "Lenskart",
        "brand:wikidata": "Q17068753",
        "name": "Lenskart",
        "shop": "optician"
      }
    },
    {
      "type": "node",
      "id": 11464753891,
      "lat": 12.9149811,
      "lon": 77.6102483,
      "tags": {
        "addr:housenumber": "940",
        "addr:street": "16th Main Road",
        "name": "Cheers",
        "shop": "alcohol"
      }
    },
    {
      "type": "node",
      "id": 11464753892,
      "lat": 12.9147407,
      "lon": 77.6099008,
      "tags": {
        "addr:housenumber": "780",
        "addr:street": "16th Main Road",
        "level": "1",
        "name": "Hair Speak Family Salon",
        "shop": "beauty"
      }
    },
    {
      "type": "node",
      "id": 11464753893,
      "lat": 12.914543,
      "lon": 77.6102676,
      "tags": {
        "addr:housenumber": "944",
        "addr:street": "16th Main Road",
        "level": "1",
        "name": "IRITZ",
        "shop": "beauty"
      }
    },
    {
      "type": "node",
      "id": 11464753894,
      "lat": 12.9147432,
      "lon": 77.6099448,
      "tags": {
        "addr:housenumber": "780",
        "addr:street": "16th Main Road",
        "name": "health & glow",
        "shop": "cosmetics"
      }
    },
    {
      "type": "node",
      "id": 11464753895,
      "lat": 12.91545,
      "lon": 77.6102441,
      "tags": {
        "addr:housenumber": "936",
        "addr:street": "16th Main Road",
        "name": "Kanti Sweets",
        "shop": "confectionery"
      }
    },
    {
      "type": "node",
      "id": 11464753896,
      "lat": 12.9144334,
      "lon": 77.6102754,
      "tags": {
        "addr:housenumber": "945",
        "addr:street": "16th Main Road",
        "leisure": "fitness_centre",
        "level": "2",
        "name": "Fitness Tycoon"
      }
    },
    {
      "type": "node",
      "id": 11464753897,
      "lat": 12.9155336,
      "lon": 77.610242,
      "tags": {
        "addr:housenumber": "935",
        "addr:street": "16th Main Road",
        "name": "Lakme Salon",
        "shop": "beauty"
      }
    },
    {
      "type": "node",
      "id": 11468397652,
      "lat": 12.9103497,
      "lon": 77.6100414,
      "tags": {
        "name": "Nandini Shoppe",
        "shop": "dairy"
      }
    },
    {
      "type": "node",
      "id": 11468397653,
      "lat": 12.9110518,
      "lon": 77.6098576,
      "tags": {
        "addr:housenumber": "1196",
        "addr:street": "16th Main Road",
        "leisure": "fitness_centre",
        "level": "2",
        "name": "Pump Up Bengauru"
      }
    },
    {
      "type": "node",
      "id": 11468397654,
      "lat": 12.9103781,
      "lon": 77.6099068,
      "tags": {
        "name": "Lili Ladies Beauty Parlour",
        "shop": "beauty",
        "wheelchair": "no"
      }
    },
    {
      "type": "node",
      "id": 11468397656,
      "lat": 12.9104387,
      "lon": 77.6098975,
      "tags": {
        "amenity": "pharmacy",
        "brand": "MedPlus",
        "brand:wikidata": "Q65684234",
        "healthcare": "pharmacy",
        "name": "MedPlus",
        "wheelchair": "limited"
      }
    },
    {
      "type": "node",
      "id": 11468397657,
      "lat": 12.9109699,
      "lon": 77.6098679,
      "tags": {
        "addr:housenumber": "1195",
        "addr:street": "16th Main Road",
        "leisure": "fitness_centre",
        "level": "1",
        "name": "Physique Freaks"
      }
    },
    {
      "type": "node",
      "id": 11468397658,
      "lat": 12.910925,
      "lon": 77.6098697,
      "tags": {
        "addr:housenumber": "1195",
        "addr:street": "16th Main Road",
        "name": "New Drapes and Decors",
        "shop": "bed",
        "wheelchair": "yes"
      }
    },
    {
      "type": "node",
      "id": 11502593621,
      "lat": 12.9121692,
      "lon": 77.6064581,
      "tags": {
        "amenity": "restaurant",
        "cuisine": "indian",
        "name": "Sri Annapurneswari Restaurant",
        "name:kn": "ಶ್ರೀ ಅನ್ನಪೂರ್ಣೇಶ್ವರಿ"
      }
    },
    {
      "type": "node",
      "id": 11502593622,
      "lat": 12.9122253,
      "lon": 77.6064502,
      "tags": {
        "name": "Time Telecom and Gift House",
        "shop": "watches"
      }
    },
    {
      "type": "node",
      "id": 11532843227,
      "lat": 12.9165245,
      "lon": 77.6032301,
      "tags": {
        "amenity": "pharmacy",
        "check_date": "2024-01-20",
        "healthcare": "pharmacy",
        "name": "Sri Amulya Medicals"
      }
    },
    {
      "type": "node",
      "id": 11630831052,
      "lat": 12.9130361,
      "lon": 77.6000043,
      "tags": {
        "amenity": "atm",
        "brand": "ICICI Bank",
        "brand:wikidata": "Q1653258",
        "operator": "ICICI Bank",
        "operator:wikidata": "Q1653258",
        "short_name": "ICICI"
      }
    },
    {
      "type": "node",
      "id": 12031693104,
      "lat": 12.9112761,
      "lon": 77.6098899,
      "tags": {
        "name": "Athenian Salon and Academy",
        "shop": "beauty"
      }
    },
    {
      "type": "node",
      "id": 12050796484,
      "lat": 12.9129175,
      "lon": 77.6099493,
      "tags": {
        "addr:street": "16th Main Road",
        "amenity": "ice_cream",
        "name": "Thanco's Natural Ice Creams"
      }
    },
    {
      "type": "node",
      "id": 12050796485,
      "lat": 12.9129175,
      "lon": 77.6101638,
      "tags": {
        "name": "Frisson Family Mart",
        "shop": "convenience"
      }
    },
    {
      "type": "node",
      "id": 12050800986,
      "lat": 12.9134871,
      "lon": 77.6063457,
      "tags": {
        "addr:postcode": "560076",
        "addr:street": "7th Main Road",
        "amenity": "ice_cream",
        "name": "3 Mangos",
        "wheelchair": "yes"
      }
    },
    {
      "type": "node",
      "id": 12051379640,
      "lat": 12.9164675,
      "lon": 77.6048202,
      "tags": {
        "addr:postcode": "560076",
        "addr:street": "Outer Ring Road",
        "brand": "Reliance Digital",
        "brand:wikidata": "Q7311012",
        "name": "Reliance Digital",
        "operator": "Reliance Digital",
        "shop": "electronics"
      }
    },
    {
      "type": "node",
      "id": 12051379641,
      "lat": 12.9164793,
      "lon": 77.6051434,
      "tags": {
        "amenity": "atm",
        "brand": "State Bank of India",
        "brand:wikidata": "Q1340361",
        "operator": "State Bank of India",
        "operator:wikidata": "Q1340361",
        "short_name": "SBI"
      }
    },
    {
      "type": "node",
      "id": 12051379642,
      "lat": 12.9164448,
      "lon": 77.6046546,
      "tags": {
        "addr:postcode": "560076",
        "addr:street": "Outer Ring Road",
        "amenity": "clinic",
        "healthcare": "clinic",
        "healthcare:speciality": "fertility",
        "level": "1",
        "name": "Fertilite IVF"
      }
    },
    {
      "type": "node",
      "id": 12051379643,
      "lat": 12.9164193,
      "lon": 77.6047377,
      "tags": {
        "amenity": "restaurant",
        "cuisine": "indian;italian",
        "level": "2",
        "name": "Absolute Barbecues"
      }
    },
    {
      "type": "node",
      "id": 12169787154,
      "lat": 12.9121757,
      "lon": 77.6011666,
      "tags": {
        "access": "private",
        "amenity": "parking_entrance",
        "parking": "underground"
      }
    },
    {
      "type": "node",
      "id": 12219081017,
      "lat": 12.9164837,
      "lon": 77.6022732,
      "tags": {
        "amenity": "restaurant",
        "name": "Ninan Steak house and Burgers"
      }
    },
    {
      "type": "node",
      "id": 12247839778,
      "lat": 12.9143531,
      "lon": 77.6006777,
      "tags": {
        "addr:postcode": "560076",
        "name": "Sri Ram Sweet Centre",
        "shop": "confectionery"
      }
    },
    {
      "type": "node",
      "id": 12247839779,
      "lat": 12.9143521,
      "lon": 77.6002077,
      "tags": {
        "addr:housenumber": "34",
        "addr:postcode": "560076",
        "addr:street": "Bannerghatta Road",
        "name": "Aaradhya Travels",
        "shop": "travel_agency"
      }
    },
    {
      "type": "node",
      "id": 12247839782,
      "lat": 12.9143691,
      "lon": 77.600264,
      "tags": {
        "addr:housenumber": "34",
        "addr:postcode": "560076",
        "addr:street": "Bannerghatta Road",
        "name": "Bethliving",
        "shop": "interior_decoration"
      }
    },
    {
      "type": "node",
      "id": 12247852084,
      "lat": 12.9138636,
      "lon": 77.607781,
      "tags": {
        "addr:postcode": "560076",
        "addr:street": "7th Cross Road",
        "name": "Bolas",
        "shop": "nuts"
      }
    },
    {
      "type": "node",
      "id": 12247852085,
      "lat": 12.9136098,
      "lon": 77.6074794,
      "tags": {
        "name": "Avantika Wellness Spa",
        "shop": "massage"
      }
    },
    {
      "type": "node",
      "id": 12247852086,
      "lat": 12.9138278,
      "lon": 77.6068639,
      "tags": {
        "addr:postcode": "560076",
        "addr:street": "7th Cross Road",
        "name": "Lavish Locks",
        "shop": "hairdresser"
      }
    },
    {
      "type": "node",
      "id": 12247875513,
      "lat": 12.9160425,
      "lon": 77.6122943,
      "tags": {
        "addr:postcode": "560076",
        "addr:street": "20th Main Road",
        "amenity": "cafe",
        "name": "Sutta Brake"
      }
    },
    {
      "type": "node",
      "id": 12247875514,
      "lat": 12.9161858,
      "lon": 77.6122795,
      "tags": {
        "addr:postcode": "560076",
        "amenity": "restaurant",
        "cuisine": "indian",
        "name": "Gyani Da Punjabi Dhaba",
        "wheelchair": "no"
      }
    },
    {
      "type": "node",
      "id": 12247875515,
      "lat": 12.9163139,
      "lon": 77.6122889,
      "tags": {
        "addr:postcode": "560076",
        "name": "IFB Point",
        "shop": "appliance",
        "wheelchair": "no"
      }
    },
    {
      "type": "node",
      "id": 12247876724,
      "lat": 12.9129409,
      "lon": 77.6037801,
      "tags": {
        "amenity": "post_office",
        "brand": "Desk to Desk Courier & Cargo",
        "brand:short": "DTDC",
        "brand:wikidata": "Q55608802",
        "name": "DTDC",
        "operator": "Desk to Desk Courier & Cargo",
        "operator:short": "DTDC",
        "operator:wikidata": "Q55608802"
      }
    },
    {
      "type": "node",
      "id": 12247876725,
      "lat": 12.9135558,
      "lon": 77.6031886,
      "tags": {
        "addr:postcode": "560076",
        "addr:street": "7th Cross Road",
        "name": "Wash n Wear",
        "shop": "laundry"
      }
    },
    {
      "type": "node",
      "id": 12247899717,
      "lat": 12.9135804,
      "lon": 77.6043652,
      "tags": {
        "addr:postcode": "560076",
        "addr:street": "7th Cross Road",
        "amenity": "cafe",
        "name": "Cremeux"
      }
    },
    {
      "type": "node",
      "id": 12247899718,
      "lat": 12.9137236,
      "lon": 77.6051894,
      "tags": {
        "addr:postcode": "560076",
        "addr:street": "7th Cross Road",
        "amenity": "restaurant",
        "cuisine": "asian",
        "level": "1",
        "name": "The Koi"
      }
    },
    {
      "type": "node",
      "id": 12622743939,
      "lat": 12.9113947,
      "lon": 77.615695,
      "tags": {
        "addr:city": "Bangalore",
        "addr:postcode": "560076",
        "addr:state": "KA",
        "addr:street": "Tank Bund Road",
        "amenity": "restaurant",
        "name": "Chill N Waffle"
      }
    },
    {
      "type": "node",
      "id": 12622743940,
      "lat": 12.9112174,
      "lon": 77.6156439,
      "tags": {
        "addr:city": "Bangalore",
        "addr:postcode": "560076",
        "addr:state": "KA",
        "addr:street": "Tank Bund Road",
        "amenity": "fast_food",
        "indoor_seating": "yes",
        "name": "Corn Insta"
      }
    },
    {
      "type": "node",
      "id": 12622743941,
      "lat": 12.9114044,
      "lon": 77.6156456,
      "tags": {
        "addr:city": "Bangalore",
        "addr:postcode": "560076",
        "addr:state": "KA",
        "addr:street": "Tank Bund Road",
        "amenity": "cafe",
        "name": "Irani Chai Biscuit"
      }
    },
    {
      "type": "node",
      "id": 12753585501,
      "lat": 12.9150394,
      "lon": 77.607435,
      "tags": {
        "leisure": "playground",
        "name": "Kempegowda Playground Gate"
      }
    },
    {
      "type": "node",
      "id": 13072721958,
      "lat": 12.9119746,
      "lon": 77.609868,
      "tags": {
        "amenity": "cafe",
        "contact:instagram": "happen.blr",
        "cuisine": "coffee_shop",
        "name": "happen blr",
        "outdoor_seating": "yes",
        "takeaway": "yes"
      }
    },
    {
      "type": "node",
      "id": 13108162628,
      "lat": 12.914753,
      "lon": 77.6097071,
      "tags": {
        "amenity": "kindergarten",
        "check_date": "2025-08-30",
        "name": "Boogie-Woogie"
      }
    },
    {
      "type": "node",
      "id": 13154049413,
      "lat": 12.9129563,
      "lon": 77.6010992,
      "tags": {
        "access": "private",
        "amenity": "parking_entrance",
        "parking": "underground"
      }
    },
    {
      "type": "node",
      "id": 13205603112,
      "lat": 12.916356,
      "lon": 77.6102331,
      "tags": {
        "level": "0",
        "name": "J&J Eye Care Optical",
        "shop": "optician"
      }
    },
    {
      "type": "node",
      "id": 13324307072,
      "lat": 12.9118323,
      "lon": 77.6064625,
      "tags": {
        "amenity": "fast_food",
        "check_date": "2025-11-22",
        "cuisine": "juice",
        "name": "Shree Ganesha Fruit Juice Shop"
      }
    },
    {
      "type": "way",
      "id": 28086224,
      "center": {
        "lat": 12.9149524,
        "lon": 77.6070156
      },
      "tags": {
        "leisure": "park",
        "wheelchair": "no"
      }
    },
    {
      "type": "way",
      "id": 28103475,
      "center": {
        "lat": 12.9152601,
        "lon": 77.6116927
      },
      "tags": {
        "leisure": "pitch",
        "lit": "yes",
        "sport": "cricket",
        "surface": "grass"
      }
    },
    {
      "type": "way",
      "id": 28120266,
      "center": {
        "lat": 12.9147542,
        "lon": 77.6089217
      },
      "tags": {
        "leisure": "park",
        "name": "Kuvempu Park",
        "name:etymology:wikidata": "Q3351108",
        "name:kn": "ಕುವೆಂಪು ಉದ್ಯಾನ",
        "name:ta": "குவேம்பூ பூங்கா",
        "wheelchair": "limited"
      }
    },
    {
      "type": "way",
      "id": 81145144,
      "center": {
        "lat": 12.9133772,
        "lon": 77.6137248
      },
      "tags": {
        "leisure": "park"
      }
    },
    {
      "type": "way",
      "id": 81172819,
      "center": {
        "lat": 12.9104809,
        "lon": 77.6115911
      },
      "tags": {
        "leisure": "park",
        "name": "Nandini Park"
      }
    },
    {
      "type": "way",
      "id": 81172826,
      "center": {
        "lat": 12.9105725,
        "lon": 77.6103656
      },
      "tags": {
        "access": "yes",
        "leisure": "playground",
        "name": "Nandini Ground"
      }
    },
    {
      "type": "way",
      "id": 81175566,
      "center": {
        "lat": 12.9126651,
        "lon": 77.6136304
      },
      "tags": {
        "leisure": "park"
      }
    },
    {
      "type": "way",
      "id": 81175574,
      "center": {
        "lat": 12.9119391,
        "lon": 77.6136457
      },
      "tags": {
        "leisure": "park"
      }
    },
    {
      "type": "way",
      "id": 125860879,
      "center": {
        "lat": 12.9112883,
        "lon": 77.6045664
      },
      "tags": {
        "leisure": "park",
        "name": "BTM",
        "wheelchair": "limited"
      }
    },
    {
      "type": "way",
      "id": 166853467,
      "center": {
        "lat": 12.9123867,
        "lon": 77.6006154
      },
      "tags": {
        "alt_name": "Mantri Commerce",
        "landuse": "retail",
        "name": "Commerce @ Mantri",
        "shop": "mall",
        "toilets": "yes"
      }
    },
    {
      "type": "way",
      "id": 243774644,
      "center": {
        "lat": 12.9148413,
        "lon": 77.6041058
      },
      "tags": {
        "leisure": "park"
      }
    },
    {
      "type": "way",
      "id": 243896056,
      "center": {
        "lat": 12.9156888,
        "lon": 77.6162448
      },
      "tags": {
        "amenity": "bus_station",
        "bus": "yes",
        "name": "Kuvempunagara Bus Station",
        "name:kn": "ಕುವೆಂಪುನಗರ ಬಸ್ ನಿಲ್ದಾಣ",
        "public_transport": "station"
      }
    },
    {
      "type": "way",
      "id": 348083610,
      "center": {
        "lat": 12.913061,
        "lon": 77.6021741
      },
      "tags": {
        "access": "private",
        "leisure": "pitch"
      }
    },
    {
      "type": "way",
      "id": 348198471,
      "center": {
        "lat": 12.9160905,
        "lon": 77.6103122
      },
      "tags": {
        "addr:housenumber": "71",
        "addr:street": "16th Main Road",
        "amenity": "pub",
        "building": "yes",
        "building:levels": "2",
        "check_date": "2023-10-15",
        "name": "Avon Pub",
        "opening_hours": "Mo-Su 07:00-23:00",
        "phone": "+91 080 2668 2939",
        "smoking": "no"
      }
    },
    {
      "type": "way",
      "id": 348202500,
      "center": {
        "lat": 12.9158099,
        "lon": 77.6103436
      },
      "tags": {
        "addr:housenumber": "114",
        "addr:street": "16th Main Road",
        "building": "yes",
        "name": "ND Fusion Mall",
        "shop": "mall"
      }
    },
    {
      "type": "way",
      "id": 348263224,
      "center": {
        "lat": 12.9102162,
        "lon": 77.6098919
      },
      "tags": {
        "amenity": "post_office",
        "building": "yes",
        "check_date:opening_hours": "2023-10-15",
        "name": "Mico Layout Post Office",
        "opening_hours": "Mo-Sa 09:00-17:00",
        "wheelchair": "yes"
      }
    },
    {
      "type": "way",
      "id": 350047153,
      "center": {
        "lat": 12.9123517,
        "lon": 77.6136653
      },
      "tags": {
        "amenity": "place_of_worship",
        "building": "yes",
        "name": "Vighneshwara Temple",
        "name:kn": "ವಿಘ್ನೇಶ್ವರ ದೇವಸ್ಥಾನ",
        "religion": "hindu"
      }
    },
    {
      "type": "way",
      "id": 485554984,
      "center": {
        "lat": 12.9154665,
        "lon": 77.6017729
      },
      "tags": {
        "alt_name": "SFHS Park",
        "leisure": "park",
        "name": "BTM Water Tank Park"
      }
    },
    {
      "type": "way",
      "id": 491890396,
      "center": {
        "lat": 12.9120552,
        "lon": 77.6061017
      },
      "tags": {
        "amenity": "library",
        "building": "yes",
        "name": "BTM Library",
        "opening_hours": "Tu-Sa 08:30-20:00",
        "wheelchair": "yes"
      }
    },
    {
      "type": "way",
      "id": 577663645,
      "center": {
        "lat": 12.9123841,
        "lon": 77.6005095
      },
      "tags": {
        "building": "commercial",
        "shop": "mall",
        "toilets": "yes"
      }
    },
    {
      "type": "way",
      "id": 639372091,
      "center": {
        "lat": 12.9146296,
        "lon": 77.6092757
      },
      "tags": {
        "leisure": "pitch",
        "lit": "yes",
        "sport": "skateboard;badminton",
        "surface": "concrete"
      }
    },
    {
      "type": "way",
      "id": 691997512,
      "center": {
        "lat": 12.9164072,
        "lon": 77.6053473
      },
      "tags": {
        "amenity": "fuel",
        "brand": "Indian Oil",
        "brand:wikidata": "Q1289348",
        "compressed_air": "yes",
        "name": "Indian Oil",
        "name:kn": "ಇಂಡಿಯನ್ ಆಯಿಲ್"
      }
    },
    {
      "type": "way",
      "id": 790361814,
      "center": {
        "lat": 12.9117293,
        "lon": 77.6061936
      },
      "tags": {
        "addr:city": "Bengaluru",
        "addr:postcode": "560076",
        "addr:street": "12th Cross Road,NS Palya, BTM 2nd Stage, BTM Layout",
        "amenity": "fast_food",
        "brand": "Indira Canteen",
        "brand:wikidata": "Q36164828",
        "building": "yes",
        "cuisine": "south_indian",
        "name": "Indira Canteen",
        "operator": "BBMP",
        "takeaway": "yes"
      }
    },
    {
      "type": "way",
      "id": 984700814,
      "center": {
        "lat": 12.9133136,
        "lon": 77.6039922
      },
      "tags": {
        "addr:housenumber": "459",
        "addr:street": "7th Cross Road",
        "building": "retail",
        "building:levels": "1",
        "name": "Autoholics",
        "opening_hours": "Mo-Su 09:00-21:00",
        "second_hand": "only",
        "shop": "car"
      }
    },
    {
      "type": "way",
      "id": 984930666,
      "center": {
        "lat": 12.9149198,
        "lon": 77.6093611
      },
      "tags": {
        "leisure": "playground",
        "playground": "structure"
      }
    },
    {
      "type": "way",
      "id": 1141414938,
      "center": {
        "lat": 12.9131689,
        "lon": 77.6196209
      },
      "tags": {
        "leisure": "park"
      }
    },
    {
      "type": "way",
      "id": 1167162947,
      "center": {
        "lat": 12.9146334,
        "lon": 77.6010348
      },
      "tags": {
        "leisure": "park"
      }
    },
    {
      "type": "way",
      "id": 1218763834,
      "center": {
        "lat": 12.9124792,
        "lon": 77.6029976
      },
      "tags": {
        "leisure": "park"
      }
    },
    {
      "type": "way",
      "id": 1238636319,
      "center": {
        "lat": 12.916264,
        "lon": 77.6128449
      },
      "tags": {
        "access": "customers",
        "amenity": "parking",
        "parking": "surface"
      }
    },
    {
      "type": "way",
      "id": 1253314093,
      "center": {
        "lat": 12.9138505,
        "lon": 77.6010619
      },
      "tags": {
        "leisure": "pitch",
        "sport": "basketball"
      }
    },
    {
      "type": "way",
      "id": 1253314094,
      "center": {
        "lat": 12.9134881,
        "lon": 77.601073
      },
      "tags": {
        "access": "private",
        "baby": "yes",
        "leisure": "playground",
        "playground": "structure"
      }
    },
    {
      "type": "way",
      "id": 1265835948,
      "center": {
        "lat": 12.9095516,
        "lon": 77.6137211
      },
      "tags": {
        "leisure": "park",
        "name": "Madiwala Lake Park"
      }
    },
    {
      "type": "way",
      "id": 1294934455,
      "center": {
        "lat": 12.9155407,
        "lon": 77.6166708
      },
      "tags": {
        "amenity": "toilets",
        "building": "yes"
      }
    },
    {
      "type": "way",
      "id": 1354222232,
      "center": {
        "lat": 12.9124985,
        "lon": 77.6009738
      },
      "tags": {
        "access": "customers",
        "amenity": "parking",
        "parking": "surface"
      }
    },
    {
      "type": "way",
      "id": 1421292393,
      "center": {
        "lat": 12.916133,
        "lon": 77.6091225
      },
      "tags": {
        "access": "private",
        "leisure": "swimming_pool"
      }
    },
    {
      "type": "way",
      "id": 1431024646,
      "center": {
        "lat": 12.9125463,
        "lon": 77.601578
      },
      "tags": {
        "access": "private",
        "leisure": "swimming_pool"
      }
    },
    {
      "type": "way",
      "id": 1431024650,
      "center": {
        "lat": 12.9125359,
        "lon": 77.6013047
      },
      "tags": {
        "access": "private",
        "leisure": "playground"
      }
    }
  ]
}