{
  "area_name": "Vrishabha Nagar",
  "osm_id": 11218370407,
  "osm_type": "node",
  "place_type": "neighbourhood",
  "amenity_count": 36,
  "amenities": [
    {
      "type": "node",
      "id": 2279531470,
      "lat": 12.9855941,
      "lon": 77.5252604,
      "tags": {
        "amenity": "fuel",
        "name": "IBP petrol pump"
      }
    },
    {
      "type": "node",
      "id": 2279531857,
      "lat": 12.9850923,
      "lon": 77.5232649,
      "tags": {
        "amenity": "fuel",
        "brand": "Indane Oil",
        "name": "Indo Petrol / Gas Station",
        "operator": "Indane Oil"
      }
    },
    {
      "type": "node",
      "id": 2279532132,
      "lat": 12.9862632,
      "lon": 77.5222349,
      "tags": {
        "amenity": "fuel",
        "brand": "Indian Oil",
        "brand:wikidata": "Q1289348",
        "brand:wikipedia": "en:Indian Oil Corporation",
        "name": "Indian Oil",
        "name:kn": "ಇಂಡಿಯನ್ ಆಯಿಲ್"
      }
    },
    {
      "type": "node",
      "id": 4209389014,
      "lat": 12.9929929,
      "lon": 77.5292643,
      "tags": {
        "addr:postcode": "560079",
        "addr:street": "BEML Layout, Kamala Nagar, Bengaluru, Karnataka",
        "amenity": "theatre",
        "name": "Veerabhadreshwara Theatre",
        "name:kn": "ವೀರಭದ್ರೇಶ್ವರ ಚಿತ್ರಮಂದಿರ",
        "opening_hours": "Mo-Su 10:00-23:00",
        "phone": "080-23230923"
      }
    },
    {
      "type": "node",
      "id": 4221615261,
      "lat": 12.9928196,
      "lon": 77.5306777,
      "tags": {
        "amenity": "atm",
        "opening_hours": "24/7",
        "operator": "Canara bank ATM"
      }
    },
    {
      "type": "node",
      "id": 4558031091,
      "lat": 12.9876421,
      "lon": 77.5151107,
      "tags": {
        "amenity": "atm",
        "brand": "Axis Bank",
        "brand:wikidata": "Q2003549",
        "name": "Axis Bank",
        "operator": "Axis Bank",
        "operator:wikidata": "Q2003549"
      }
    },
    {
      "type": "node",
      "id": 4558046689,
      "lat": 12.9842792,
      "lon": 77.5282764,
      "tags": {
        "amenity": "atm",
        "operator": "Axis Bank"
      }
    },
    {
      "type": "node",
      "id": 8240244514,
      "lat": 12.9990055,
      "lon": 77.5251143,
      "tags": {
        "amenity": "pharmacy"
      }
    },
    {
      "type": "node",
      "id": 8240257724,
      "lat": 12.9961764,
      "lon": 77.5224254,
      "tags": {
        "name": "Royal Oak",
        "shop": "furniture"
      }
    },
    {
      "type": "node",
      "id": 8240257727,
      "lat": 12.9951873,
      "lon": 77.5219448,
      "tags": {
        "amenity": "fuel",
        "brand": "Bharat Petroleum",
        "brand:wikidata": "Q854826",
        "check_date": "2023-03-16",
        "fuel:diesel": "yes",
        "fuel:petrol": "yes",
        "name": "Bharat Petroleum",
        "name:kn": "ಭಾರತ್ ಪೆಟ್ರೋಲಿಯಂ",
        "operator": "Bharat Petroleum",
        "self_service": "no"
      }
    },
    {
      "type": "node",
      "id": 8442476343,
      "lat": 12.9993269,
      "lon": 77.5251746,
      "tags": {
        "name": "Family Provision Store",
        "shop": "convenience"
      }
    },
    {
      "type": "node",
      "id": 9654252350,
      "lat": 12.9958863,
      "lon": 77.5228518,
      "tags": {
        "amenity": "bank",
        "atm": "yes",
        "brand": "Canara Bank",
        "brand:en": "Canara Bank",
        "brand:hi": "केनरा बैंक",
        "brand:kn": "ಕೆನರಾ ಬ್ಯಾಂಕ್",
        "brand:pa": "ਕੇਨਰਾ ਬੈਂਕ",
        "brand:pnb": "کینرا بینک",
        "brand:ur": "کینرا بینک",
        "brand:wikidata": "Q2003777",
        "name": "Canara Bank",
        "name:en": "Canara Bank",
        "name:hi": "केनरा बैंक",
        "name:kn": "ಕೆನರಾ ಬ್ಯಾಂಕ್",
        "name:pa": "ਕੇਨਰਾ ਬੈਂਕ",
        "name:pnb": "کینرا بینک",
        "name:ur": "کینرا بینک",
        "operator": "Canara Bank"
      }
    },
    {
      "type": "node",
      "id": 9775574200,
      "lat": 12.9827335,
      "lon": 77.5189304,
      "tags": {
        "amenity": "bench"
      }
    },
    {
      "type": "node",
      "id": 9775574219,
      "lat": 12.9826171,
      "lon": 77.5189331,
      "tags": {
        "amenity": "fountain"
      }
    },
    {
      "type": "node",
      "id": 10738598991,
      "lat": 12.9946331,
      "lon": 77.5225363,
      "tags": {
        "amenity": "fuel",
        "brand": "Indian Oil",
        "brand:wikidata": "Q1289348",
        "check_date": "2023-03-16",
        "name": "Indian Oil"
      }
    },
    {
      "type": "way",
      "id": 141508066,
      "center": {
        "lat": 12.9921312,
        "lon": 77.5294014
      },
      "tags": {
        "leisure": "park"
      }
    },
    {
      "type": "way",
      "id": 143731427,
      "center": {
        "lat": 12.9909868,
        "lon": 77.513684
      },
      "tags": {
        "amenity": "college",
        "name": "National Institute of Unani Medicine"
      }
    },
    {
      "type": "way",
      "id": 252711787,
      "center": {
        "lat": 12.9934335,
        "lon": 77.5292704
      },
      "tags": {
        "amenity": "place_of_worship",
        "building": "yes",
        "name": "Om Shakti Temple",
        "name:kn": "ಓಂ ಶಕ್ತಿ ದೇವಸ್ಥಾನ",
        "religion": "hindu"
      }
    },
    {
      "type": "way",
      "id": 412935364,
      "center": {
        "lat": 12.9988695,
        "lon": 77.5267772
      },
      "tags": {
        "leisure": "park"
      }
    },
    {
      "type": "way",
      "id": 785010682,
      "center": {
        "lat": 12.9899803,
        "lon": 77.5136653
      },
      "tags": {
        "leisure": "garden"
      }
    },
    {
      "type": "way",
      "id": 785010718,
      "center": {
        "lat": 12.98941,
        "lon": 77.513334
      },
      "tags": {
        "leisure": "garden"
      }
    },
    {
      "type": "way",
      "id": 886184252,
      "center": {
        "lat": 12.9961678,
        "lon": 77.5213994
      },
      "tags": {
        "shop": "laundry"
      }
    },
    {
      "type": "way",
      "id": 1064304010,
      "center": {
        "lat": 12.9823154,
        "lon": 77.5199722
      },
      "tags": {
        "access": "private",
        "leisure": "swimming_pool"
      }
    },
    {
      "type": "way",
      "id": 1064304014,
      "center": {
        "lat": 12.9824282,
        "lon": 77.5196482
      },
      "tags": {
        "access": "private",
        "leisure": "playground"
      }
    },
    {
      "type": "way",
      "id": 1064408562,
      "center": {
        "lat": 12.9829168,
        "lon": 77.5190731
      },
      "tags": {
        "leisure": "playground"
      }
    },
    {
      "type": "way",
      "id": 1064408584,
      "center": {
        "lat": 12.983183,
        "lon": 77.5192422
      },
      "tags": {
        "access": "private",
        "leisure": "playground"
      }
    },
    {
      "type": "way",
      "id": 1064408585,
      "center": {
        "lat": 12.983129,
        "lon": 77.5194681
      },
      "tags": {
        "access": "private",
        "leisure": "pitch",
        "sport": "tennis"
      }
    },
    {
      "type": "way",
      "id": 1064408586,
      "center": {
        "lat": 12.9822354,
        "lon": 77.5202087
      },
      "tags": {
        "access": "private",
        "amenity": "parking",
        "parking": "surface"
      }
    },
    {
      "type": "way",
      "id": 1064408593,
      "center": {
        "lat": 12.9821523,
        "lon": 77.5203856
      },
      "tags": {
        "amenity": "community_centre",
        "building": "yes",
        "community_centre": "club_home",
        "name": "Clubhouse"
      }
    },
    {
      "type": "way",
      "id": 1064408594,
      "center": {
        "lat": 12.9826148,
        "lon": 77.5189265
      },
      "tags": {
        "leisure": "garden"
      }
    },
    {
      "type": "way",
      "id": 1064408601,
      "center": {
        "lat": 12.9826785,
        "lon": 77.5192301
      },
      "tags": {
        "leisure": "garden"
      }
    },
    {
      "type": "way",
      "id": 1064408610,
      "center": {
        "lat": 12.9843725,
        "lon": 77.5171635
      },
      "tags": {
        "alt_name": "Sumanahalli Society",
        "amenity": "social_facility",
        "full_name": "Sumanahalli Leprosy Rehabilitation Training Centre",
        "healthcare": "rehabilitation",
        "healthcare:speciality": "leprosy",
        "name": "Sumanahalli",
        "social_facility": "nursing_home",
        "website": "https://sumanahalli.org/"
      }
    },
    {
      "type": "way",
      "id": 1120737746,
      "center": {
        "lat": 12.9961474,
        "lon": 77.5194088
      },
      "tags": {
        "amenity": "fuel",
        "brand": "GAIL",
        "fuel:cng": "yes",
        "name": "GAIL",
        "operator": "GAIL"
      }
    },
    {
      "type": "way",
      "id": 1247976105,
      "center": {
        "lat": 12.9916237,
        "lon": 77.5198011
      },
      "tags": {
        "amenity": "theatre",
        "name": "Babu Jagjivanram Auditorium & Training Centre",
        "start_date": "2024"
      }
    },
    {
      "type": "way",
      "id": 1247976109,
      "center": {
        "lat": 12.9914713,
        "lon": 77.520289
      },
      "tags": {
        "leisure": "park"
      }
    },
    {
      "type": "way",
      "id": 1247976122,
      "center": {
        "lat": 12.9910315,
        "lon": 77.5170909
      },
      "tags": {
        "leisure": "park"
      }
    }
  ]
}